Origin Time       2011/03/11 14:46:00
Lat.              38.103
Long.             142.860
Depth. (km)       24
Mag.              9.0
Station Code      HYG027
Station Lat.      34.2496
Station Long.     134.7292
Station Height(m) 111
Record Time       2011/03/11 14:51:14
Sampling Freq(Hz) 100Hz
Duration Time(s)  60
Dir.              U-D
Scale Factor      3920(gal)/6182761
Max. Acc. (gal)   1.223
Last Correction   2011/03/11 14:50:59
Memo.             
[...]
  -53781   -53782   -53781   -53792   -53804   -53805   -53803   -53811 
  -53821   -53820   -53826   -53841   -53840   -53842   -53863   -53872 
  -53867   -53870   -53871   -53865   -53862   -53857   -53844   -53836 
  -53832   -53824   -53819   -53812   -53796   -53782   -53776   -53772 
  -53768   -53759   -53742   -53733   -53730   -53714   -53700   -53697 
  -53689   -53681   -53685   -53683   -53672   -53673   -53673   -53666 
  -53670   -53667   -53653   -53643   -53636   -53632   -53630   -53618 
  -53606   -53598   -53588   -53575   -53555   -53532   -53512   -53492 
  -53474   -53461   -53443   -53425   -53416   -53410   -53396   -53377 
  -53365   -53359   -53347   -53336   -53328   -53312   -53301   -53302 
  -53297   -53283   -53277   -53278   -53274   -53271   -53277   -53276 
  -53262   -53260   -53275   -53281   -53276   -53280   -53285   -53277 
  -53272   -53269   -53252   -53235   -53231   -53225   -53212   -53202 
  -53188   -53178   -53179   -53174   -53164   -53157   -53143   -53130 
  -53127   -53122   -53112   -53108   -53103   -53091   -53092   -53102 
  -53103   -53105   -53116   -53123   -53124   -53128   -53135   -53139 
  -53148   -53160   -53168   -53179   -53188   -53191   -53201   -53207 
  -53202   -53210   -53223   -53226   -53227   -53223   -53219   -53224 
  -53229   -53235   -53245   -53251   -53256   -53268   -53280   -53291 
  -53301   -53303   -53295   -53295   -53307   -53308   -53311   -53327 
  -53333   -53336   -53351   -53363   -53367   -53376   -53385   -53388 
  -53392   -53403   -53410   -53413   -53422   -53439   -53451   -53461 
  -53472   -53479   -53486   -53493   -53494   -53499   -53511   -53517 
  -53513   -53513   -53524   -53534   -53544   -53559   -53573   -53586 
  -53608   -53628   -53640   -53656   -53669   -53669   -53675   -53688 
  -53692   -53699   -53719   -53730   -53731   -53748   -53772   -53782 
  -53797   -53817   -53821   -53827   -53848   -53860   -53874   -53895 
  -53896   -53897   -53920   -53931   -53932   -53946   -53955   -53952 
  -53958   -53966   -53958   -53953   -53964   -53964   -53949   -53952 
  -53954   -53935   -53934   -53945   -53932   -53918   -53931   -53935 
  -53925   -53931   -53939   -53930   -53934   -53948   -53947   -53945 
  -53951   -53951   -53956   -53983   -53991   -53978   -53988   -54005 
  -53999   -53996   -54005   -54007   -54003   -54013   -54025   -54024 
  -54030   -54051   -54056   -54053   -54060   -54063   -54054   -54056 
  -54060   -54054   -54060   -54073   -54072   -54076   -54088   -54077 
  -54064   -54070   -54059   -54033   -54033   -54038   -54024   -54017 
  -54020   -54013   -54008   -54013   -54011   -54006   -54014   -54019 
  -54011   -54011   -54013   -54004   -54002   -54009   -54007   -54002 
  -54011   -54017   -54013   -54014   -54022   -54024   -54025   -54033 
  -54034   -54029   -54035   -54039   -54025   -54019   -54018   -54001 
  -53986   -53984   -53975   -53958   -53952   -53944   -53927   -53917 
  -53915   -53903   -53889   -53886   -53882   -53861   -53847   -53839 
  -53819   -53802   -53791   -53770   -53759   -53762   -53753   -53735 
  -53724   -53707   -53684   -53667   -53645   -53615   -53597   -53585 
  -53563   -53538   -53520   -53499   -53474   -53452   -53430   -53405 
  -53381   -53360   -53336   -53311   -53289   -53268   -53250   -53228 
  -53195   -53164   -53138   -53106   -53072   -53046   -53016   -52986 
  -52967   -52948   -52919   -52889   -52861   -52832   -52807   -52782 
  -52750   -52723   -52706   -52689   -52675   -52665   -52652   -52638 
  -52633   -52627   -52617   -52612   -52614   -52617   -52615   -52614 
  -52624   -52633   -52634   -52647   -52661   -52655   -52656   -52671 
  -52675   -52679   -52695   -52705   -52715   -52733   -52751   -52772 
  -52799   -52820   -52835   -52854   -52873   -52887   -52911   -52945 
  -52963   -52978   -53007   -53026   -53043   -53078   -53105   -53118 
  -53145   -53177   -53207   -53245   -53279   -53305   -53331   -53361 
  -53398   -53426   -53449   -53482   -53512   -53537   -53574   -53606 
  -53621   -53641   -53668   -53689   -53717   -53750   -53771   -53793 
  -53822   -53838   -53857   -53891   -53918   -53934   -53957   -53985 
  -54003   -54017   -54035   -54046   -54053   -54064   -54071   -54071 
  -54077   -54083   -54085   -54092   -54094   -54083   -54080   -54088 
  -54095   -54107   -54120   -54119   -54121   -54132   -54133   -54127 
  -54132   -54133   -54128   -54130   -54133   -54131   -54133   -54139 
  -54134   -54130   -54134   -54124   -54104   -54099   -54090   -54069 
  -54062   -54060   -54048   -54039   -54036   -54031   -54018   -54004 
  -54000   -53991   -53977   -53974   -53965   -53952   -53948   -53940 
  -53928   -53922   -53915   -53905   -53890   -53869   -53854   -53840 
  -53825   -53813   -53796   -53777   -53764   -53748   -53730   -53717 
  -53700   -53678   -53664   -53655   -53639   -53621   -53603   -53588 
  -53579   -53565   -53543   -53530   -53524   -53510   -53495   -53485 
  -53473   -53457   -53446   -53431   -53407   -53393   -53381   -53361 
  -53348   -53339   -53333   -53332   -53325   -53318   -53312   -53300 
  -53292   -53288   -53274   -53262   -53258   -53244   -53230   -53226 
  -53216   -53204   -53195   -53179   -53167   -53160   -53141   -53125 
  -53122   -53107   -53086   -53079   -53069   -53049   -53033   -53021 
  -53004   -52984   -52970   -52953   -52932   -52915   -52897   -52880 
  -52863   -52842   -52820   -52804   -52791   -52775   -52756   -52739 
  -52722   -52701   -52689   -52683   -52661   -52642   -52630   -52611 
  -52599   -52594   -52581   -52570   -52569   -52562   -52548   -52539 
  -52535   -52527   -52523   -52522   -52515   -52508   -52507   -52512 
  -52518   -52521   -52523   -52528   -52536   -52546   -52554   -52560 
  -52570   -52581   -52591   -52604   -52620   -52632   -52646   -52661 
  -52672   -52684   -52697   -52705   -52712   -52721   -52731   -52738 
  -52742   -52746   -52748   -52751   -52760   -52762   -52760   -52767 
  -52774   -52769   -52765   -52773   -52780   -52780   -52783   -52792 
  -52795   -52795   -52802   -52810   -52816   -52822   -52827   -52835 
  -52844   -52842   -52848   -52869   -52875   -52875   -52888   -52895 
  -52899   -52913   -52922   -52926   -52933   -52940   -52948   -52958 
  -52968   -52982   -52995   -53006   -53014   -53021   -53030   -53035 
  -53037   -53041   -53041   -53039   -53045   -53050   -53053   -53065 
  -53074   -53078   -53086   -53095   -53102   -53111   -53122   -53133 
  -53140   -53148   -53160   -53168   -53174   -53184   -53192   -53200 
  -53209   -53214   -53218   -53226   -53233   -53238   -53240   -53244 
  -53250   -53248   -53244   -53248   -53249   -53240   -53236   -53240 
  -53240   -53239   -53233   -53221   -53214   -53209   -53201   -53192 
  -53181   -53174   -53173   -53165   -53148   -53130   -53114   -53093 
  -53072   -53064   -53056   -53037   -53024   -53012   -52990   -52970 
  -52955   -52940   -52928   -52908   -52886   -52872   -52853   -52825 
  -52803   -52786   -52771   -52758   -52745   -52733   -52718   -52704 
  -52690   -52677   -52669   -52662   -52648   -52633   -52623   -52608 
  -52589   -52568   -52547   -52532   -52519   -52502   -52488   -52477 
  -52468   -52460   -52451   -52448   -52447   -52430   -52416   -52413 
  -52407   -52405   -52404   -52391   -52379   -52379   -52384   -52384 
  -52374   -52369   -52381   -52388   -52376   -52367   -52371   -52376 
  -52381   -52384   -52383   -52387   -52392   -52394   -52406   -52422 
  -52428   -52438   -52458   -52478   -52500   -52519   -52533   -52560 
  -52594   -52615   -52635   -52666   -52696   -52722   -52756   -52788 
  -52809   -52835   -52871   -52899   -52923   -52955   -52986   -53012 
  -53036   -53065   -53099   -53130   -53158   -53186   -53213   -53247 
  -53281   -53304   -53325   -53346   -53364   -53379   -53397   -53417 
  -53431   -53442   -53464   -53489   -53505   -53527   -53552   -53569 
  -53591   -53621   -53645   -53668   -53697   -53721   -53745   -53765 
  -53782   -53811   -53844   -53869   -53896   -53929   -53960   -53990 
  -54023   -54055   -54086   -54117   -54151   -54184   -54209   -54235 
  -54268   -54297   -54321   -54351   -54383   -54412   -54444   -54475 
  -54504   -54530   -54549   -54569   -54593   -54609   -54621   -54642 
  -54659   -54669   -54684   -54695   -54705   -54716   -54722   -54728 
  -54736   -54737   -54734   -54734   -54733   -54733   -54732   -54730 
  -54732   -54734   -54734   -54731   -54730   -54741   -54747   -54740 
  -54742   -54750   -54748   -54744   -54743   -54737   -54729   -54724 
  -54722   -54715   -54697   -54686   -54683   -54667   -54640   -54621 
  -54607   -54591   -54571   -54549   -54532   -54513   -54485   -54462 
  -54443   -54418   -54394   -54368   -54340   -54321   -54298   -54265 
  -54243   -54224   -54198   -54180   -54157   -54124   -54098   -54079 
  -54059   -54036   -54012   -53996   -53984   -53967   -53951   -53934 
  -53914   -53898   -53885   -53871   -53855   -53838   -53822   -53810 
  -53795   -53778   -53764   -53749   -53737   -53735   -53730   -53717 
  -53705   -53692   -53680   -53671   -53661   -53650   -53641   -53630 
  -53618   -53606   -53592   -53582   -53580   -53579   -53571   -53560 
  -53551   -53543   -53533   -53523   -53520   -53519   -53508   -53492 
  -53483   -53481   -53473   -53456   -53446   -53436   -53414   -53397 
  -53388   -53369   -53349   -53332   -53307   -53285   -53264   -53240 
  -53218   -53199   -53181   -53165   -53150   -53137   -53128   -53122 
  -53116   -53115   -53112   -53107   -53106   -53109   -53108   -53103 
  -53105   -53116   -53124   -53122   -53124   -53131   -53136   -53142 
  -53154   -53162   -53168   -53174   -53180   -53191   -53202   -53208 
  -53212   -53219   -53222   -53219   -53227   -53244   -53254   -53256 
  -53260   -53274   -53290   -53300   -53312   -53329   -53342   -53354 
  -53365   -53381   -53406   -53419   -53420   -53434   -53449   -53454 
  -53462   -53473   -53486   -53496   -53499   -53507   -53518   -53525 
  -53538   -53546   -53552   -53562   -53561   -53562   -53581   -53594 
  -53590   -53596   -53613   -53617   -53622   -53632   -53634   -53641 
  -53654   -53662   -53667   -53672   -53684   -53705   -53717   -53720 
  -53728   -53746   -53756   -53761   -53779   -53790   -53793   -53809 
  -53820   -53825   -53841   -53849   -53853   -53874   -53894   -53897 
  -53901   -53916   -53926   -53929   -53932   -53937   -53953   -53967 
  -53966   -53970   -53984   -53994   -54000   -54009   -54017   -54023 
  -54027   -54031   -54039   -54046   -54048   -54048   -54043   -54046 
  -54064   -54067   -54056   -54060   -54073   -54075   -54074   -54082 
  -54089   -54087   -54091   -54099   -54101   -54108   -54109   -54106 
  -54120   -54126   -54112   -54119   -54138   -54138   -54138   -54143 
  -54143   -54152   -54156   -54153   -54158   -54159   -54159   -54169 
  -54158   -54136   -54147   -54156   -54136   -54129   -54140   -54138 
  -54130   -54123   -54119   -54116   -54105   -54089   -54081   -54076 
  -54061   -54042   -54032   -54024   -54009   -53999   -53988   -53968 
  -53960   -53950   -53929   -53914   -53886   -53845   -53832   -53825 
  -53796   -53770   -53744   -53712   -53695   -53687   -53667   -53643 
  -53624   -53608   -53607   -53610   -53595   -53577   -53570   -53569 
  -53567   -53557   -53548   -53552   -53557   -53551   -53545   -53549 
  -53555   -53554   -53555   -53558   -53554   -53552   -53553   -53544 
  -53532   -53530   -53530   -53528   -53524   -53511   -53508   -53514 
  -53500   -53485   -53488   -53482   -53465   -53457   -53454   -53441 
  -53422   -53403   -53388   -53380   -53372   -53353   -53337   -53330 
  -53316   -53297   -53286   -53274   -53259   -53252   -53243   -53224 
  -53217   -53219   -53206   -53187   -53183   -53181   -53169   -53158 
  -53146   -53132   -53133   -53134   -53117   -53104   -53111   -53115 
  -53097   -53085   -53090   -53089   -53086   -53086   -53085   -53094 
  -53102   -53098   -53102   -53113   -53113   -53107   -53111   -53127 
  -53131   -53130   -53151   -53172   -53170   -53178   -53199   -53202 
  -53199   -53214   -53231   -53230   -53230   -53242   -53243   -53250 
  -53268   -53264   -53261   -53281   -53292   -53288   -53298   -53313 
  -53308   -53307   -53326   -53331   -53321   -53325   -53338   -53344 
  -53346   -53346   -53351   -53359   -53366   -53367   -53364   -53360 
  -53359   -53361   -53359   -53347   -53335   -53336   -53338   -53339 
  -53333   -53314   -53307   -53309   -53298   -53290   -53289   -53276 
  -53258   -53249   -53246   -53231   -53213   -53202   -53181   -53155 
  -53140   -53123   -53092   -53070   -53064   -53049   -53019   -53005 
  -52998   -52986   -52979   -52972   -52962   -52955   -52944   -52939 
  -52942   -52932   -52922   -52923   -52922   -52914   -52902   -52895 
  -52890   -52875   -52858   -52841   -52823   -52814   -52800   -52777 
  -52762   -52750   -52729   -52706   -52689   -52676   -52659   -52642 
  -52624   -52595   -52567   -52544   -52518   -52494   -52465   -52427 
  -52400   -52375   -52335   -52303   -52282   -52251   -52220   -52196 
  -52167   -52145   -52128   -52101   -52073   -52053   -52034   -52017 
  -51997   -51981   -51967   -51945   -51929   -51922   -51908   -51892 
  -51876   -51858   -51842   -51828   -51812   -51796   -51779   -51765 
  -51751   -51733   -51718   -51710   -51696   -51676   -51666   -51663 
  -51654   -51643   -51635   -51630   -51628   -51621   -51617   -51616 
  -51614   -51624   -51638   -51640   -51642   -51652   -51655   -51659 
  -51676   -51695   -51706   -51713   -51722   -51742   -51768   -51779 
  -51777   -51787   -51810   -51828   -51834   -51847   -51863   -51870 
  -51885   -51904   -51911   -51928   -51948   -51946   -51947   -51966 
  -51974   -51973   -51986   -51997   -51997   -52003   -52011   -52009 
  -52010   -52012   -52009   -52011   -52014   -52013   -52014   -52018 
  -52023   -52027   -52026   -52027   -52039   -52047   -52049   -52058 
  -52071   -52080   -52095   -52115   -52123   -52133   -52153   -52166 
  -52181   -52206   -52220   -52231   -52260   -52283   -52290   -52309 
  -52339   -52353   -52367   -52394   -52412   -52431   -52459   -52471 
  -52490   -52526   -52543   -52563   -52600   -52625   -52641   -52662 
  -52685   -52711   -52732   -52750   -52776   -52803   -52825   -52851 
  -52876   -52894   -52918   -52953   -52987   -53007   -53025   -53053 
  -53087   -53108   -53122   -53143   -53163   -53180   -53196   -53217 
  -53241   -53250   -53257   -53283   -53302   -53309   -53323   -53330 
  -53335   -53351   -53360   -53361   -53368   -53373   -53378   -53390 
  -53400   -53408   -53415   -53419   -53435   -53448   -53450   -53469 
  -53489   -53491   -53502   -53525   -53544   -53557   -53567   -53585 
  -53606   -53616   -53626   -53640   -53648   -53654   -53665   -53675 
  -53684   -53694   -53701   -53705   -53712   -53715   -53721   -53733 
  -53731   -53721   -53724   -53728   -53728   -53731   -53725   -53717 
  -53726   -53725   -53710   -53712   -53716   -53700   -53694   -53704 
  -53700   -53687   -53680   -53676   -53671   -53667   -53660   -53645 
  -53636   -53635   -53627   -53615   -53614   -53614   -53602   -53592 
  -53591   -53588   -53585   -53586   -53582   -53573   -53571   -53571 
  -53560   -53550   -53551   -53550   -53543   -53541   -53537   -53529 
  -53526   -53521   -53514   -53513   -53507   -53495   -53491   -53489 
  -53487   -53491   -53489   -53479   -53478   -53477   -53471   -53465 
  -53453   -53445   -53442   -53432   -53418   -53409   -53403   -53392 
  -53372   -53357   -53350   -53342   -53337   -53328   -53309   -53296 
  -53286   -53261   -53240   -53233   -53223   -53209   -53198   -53186 
  -53170   -53154   -53142   -53128   -53109   -53095   -53087   -53073 
  -53051   -53039   -53034   -53016   -53003   -52997   -52981   -52967 
  -52963   -52955   -52945   -52939   -52929   -52915   -52902   -52894 
  -52890   -52881   -52863   -52853   -52854   -52845   -52826   -52817 
  -52820   -52816   -52806   -52801   -52797   -52798   -52805   -52799 
  -52784   -52784   -52794   -52790   -52782   -52788   -52788   -52782 
  -52786   -52786   -52777   -52776   -52780   -52781   -52785   -52793 
  -52798   -52793   -52799   -52814   -52814   -52816   -52839   -52856 
  -52862   -52874   -52885   -52896   -52918   -52944   -52959   -52974 
  -53005   -53039   -53056   -53080   -53116   -53141   -53165   -53198 
  -53232   -53262   -53287   -53312   -53344   -53371   -53394   -53424 
  -53454   -53470   -53495   -53536   -53557   -53566   -53589   -53611 
  -53630   -53654   -53673   -53693   -53718   -53738   -53755   -53772 
  -53794   -53814   -53831   -53847   -53860   -53880   -53908   -53923 
  -53932   -53952   -53971   -53983   -53996   -54012   -54031   -54049 
  -54063   -54081   -54102   -54121   -54140   -54161   -54180   -54198 
  -54214   -54230   -54247   -54263   -54283   -54301   -54310   -54319 
  -54333   -54337   -54346   -54363   -54367   -54373   -54387   -54387 
  -54388   -54394   -54388   -54393   -54402   -54400   -54404   -54401 
  -54392   -54394   -54389   -54384   -54389   -54377   -54363   -54362 
  -54356   -54343   -54327   -54304   -54286   -54275   -54253   -54229 
  -54218   -54199   -54164   -54136   -54112   -54085   -54062   -54034 
  -54006   -53984   -53957   -53930   -53903   -53864   -53822   -53793 
  -53776   -53745   -53695   -53657   -53633   -53590   -53546   -53522 
  -53490   -53446   -53409   -53372   -53340   -53314   -53276   -53239 
  -53218   -53191   -53152   -53125   -53101   -53067   -53040   -53016 
  -52989   -52971   -52957   -52930   -52902   -52894   -52887   -52862 
  -52844   -52833   -52812   -52791   -52783   -52768   -52749   -52735 
  -52723   -52710   -52696   -52684   -52683   -52672   -52649   -52640 
  -52638   -52629   -52625   -52624   -52623   -52623   -52621   -52615 
  -52613   -52611   -52606   -52597   -52589   -52590   -52593   -52585 
  -52586   -52593   -52594   -52603   -52617   -52626   -52638   -52647 
  -52653   -52667   -52679   -52685   -52695   -52700   -52702   -52710 
  -52721   -52735   -52748   -52755   -52768   -52782   -52802   -52828 
  -52841   -52851   -52878   -52895   -52902   -52926   -52954   -52976 
  -52998   -53023   -53050   -53078   -53102   -53123   -53144   -53166 
  -53192   -53211   -53223   -53247   -53265   -53277   -53304   -53325 
  -53330   -53343   -53359   -53374   -53398   -53417   -53425   -53441 
  -53459   -53461   -53469   -53485   -53494   -53508   -53529   -53540 
  -53548   -53558   -53561   -53561   -53575   -53590   -53589   -53590 
  -53602   -53613   -53618   -53618   -53620   -53621   -53621   -53623 
  -53621   -53618   -53614   -53609   -53612   -53621   -53618   -53613 
  -53619   -53628   -53627   -53624   -53630   -53639   -53642   -53645 
  -53645   -53649   -53662   -53667   -53665   -53676   -53693   -53705 
  -53711   -53717   -53723   -53730   -53740   -53753   -53763   -53771 
  -53779   -53787   -53795   -53797   -53799   -53807   -53806   -53808 
  -53822   -53824   -53820   -53825   -53820   -53818   -53835   -53842 
  -53837   -53849   -53865   -53863   -53871   -53892   -53896   -53893 
  -53900   -53910   -53920   -53932   -53938   -53944   -53963   -53977 
