Origin Time       2011/03/11 14:46:00
Lat.              38.103
Long.             142.860
Depth. (km)       24
Mag.              9.0
Station Code      HYG020
Station Lat.      34.7974
Station Long.     134.9889
Station Height(m) 69
Record Time       2011/03/11 14:50:22
Sampling Freq(Hz) 100Hz
Duration Time(s)  133
Dir.              U-D
Scale Factor      3920(gal)/6182761
Max. Acc. (gal)   1.205
Last Correction   2011/03/11 14:50:07
Memo.             
[...]
  -12588   -12579   -12582   -12581   -12570   -12562   -12553   -12550 
  -12557   -12560   -12548   -12543   -12552   -12549   -12539   -12547 
  -12567   -12577   -12572   -12581   -12600   -12593   -12588   -12602 
  -12606   -12607   -12611   -12611   -12614   -12607   -12593   -12589 
  -12581   -12569   -12556   -12539   -12520   -12499   -12487   -12476 
  -12453   -12431   -12415   -12391   -12361   -12344   -12327   -12302 
  -12289   -12286   -12262   -12236   -12241   -12242   -12221   -12213 
  -12209   -12198   -12186   -12172   -12176   -12171   -12140   -12129 
  -12127   -12124   -12119   -12091   -12075   -12081   -12078   -12067 
  -12051   -12045   -12050   -12041   -12034   -12029   -12010   -12002 
  -12017   -12027   -12033   -12049   -12069   -12086   -12099   -12113 
  -12138   -12157   -12166   -12187   -12217   -12239   -12257   -12282 
  -12296   -12300   -12315   -12322   -12320   -12327   -12342   -12372 
  -12377   -12362   -12395   -12424   -12415   -12421   -12420   -12409 
  -12422   -12435   -12431   -12410   -12403   -12430   -12439   -12418 
  -12413   -12422   -12419   -12401   -12387   -12388   -12375   -12340 
  -12328   -12333   -12311   -12277   -12256   -12223   -12196   -12182 
  -12142   -12101   -12093   -12076   -12037   -12006   -11973   -11946 
  -11935   -11907   -11877   -11838   -11782   -11770   -11769   -11749 
  -11743   -11714   -11667   -11658   -11663   -11657   -11658   -11667 
  -11672   -11671   -11670   -11683   -11713   -11734   -11743   -11765 
  -11789   -11801   -11828   -11861   -11882   -11912   -11956   -11991 
  -12011   -12024   -12054   -12105   -12143   -12176   -12221   -12253 
  -12278   -12321   -12352   -12383   -12434   -12456   -12480   -12528 
  -12544   -12565   -12615   -12622   -12621   -12664   -12694   -12701 
  -12722   -12738   -12741   -12758   -12778   -12796   -12818   -12823 
  -12818   -12830   -12858   -12882   -12891   -12894   -12906   -12919 
  -12920   -12916   -12928   -12936   -12918   -12906   -12913   -12916 
  -12915   -12905   -12903   -12909   -12898   -12906   -12922   -12906 
  -12903   -12918   -12939   -12953   -12930   -12937   -12986   -12982 
  -12969   -13001   -13000   -12981   -13005   -13018   -13017   -13033 
  -13018   -12990   -13012   -13021   -12997   -13016   -13043   -13021 
  -13004   -13017   -13030   -13032   -13024   -13028   -13041   -13028 
  -13023   -13044   -13042   -13038   -13051   -13039   -13022   -13023 
  -13024   -13034   -13023   -12988   -12995   -12999   -12953   -12935 
  -12944   -12919   -12902   -12914   -12895   -12866   -12884   -12891 
  -12872   -12881   -12889   -12894   -12927   -12923   -12914   -12957 
  -12965   -12961   -13005   -13020   -13020   -13057   -13088   -13108 
  -13130   -13146   -13181   -13208   -13208   -13232   -13283   -13309 
  -13320   -13343   -13358   -13364   -13385   -13399   -13407   -13415 
  -13405   -13402   -13412   -13401   -13393   -13402   -13390   -13369 
  -13377   -13372   -13354   -13364   -13353   -13334   -13357   -13350 
  -13320   -13337   -13336   -13315   -13321   -13308   -13295   -13318 
  -13310   -13278   -13277   -13274   -13264   -13268   -13255   -13241 
  -13245   -13230   -13216   -13219   -13199   -13184   -13193   -13187 
  -13167   -13154   -13154   -13164   -13152   -13128   -13136   -13149 
  -13146   -13155   -13170   -13171   -13178   -13201   -13204   -13206 
  -13235   -13244   -13235   -13262   -13286   -13291   -13319   -13349 
  -13365   -13390   -13418   -13444   -13471   -13491   -13518   -13554 
  -13590   -13613   -13630   -13664   -13700   -13709   -13721   -13746 
  -13752   -13767   -13799   -13813   -13828   -13839   -13837   -13862 
  -13884   -13885   -13917   -13941   -13924   -13938   -13970   -13965 
  -13961   -13978   -13977   -13969   -13984   -13985   -13968   -13966 
  -13960   -13947   -13945   -13934   -13928   -13933   -13919   -13904 
  -13905   -13896   -13883   -13875   -13861   -13852   -13846   -13832 
  -13822   -13805   -13781   -13779   -13771   -13750   -13742   -13720 
  -13711   -13722   -13690   -13669   -13694   -13673   -13640   -13653 
  -13640   -13608   -13618   -13620   -13590   -13582   -13592   -13585 
  -13580   -13579   -13567   -13572   -13581   -13581   -13595   -13609 
  -13610   -13624   -13640   -13644   -13662   -13687   -13688   -13682 
  -13711   -13749   -13752   -13763   -13799   -13803   -13805   -13836 
  -13851   -13864   -13880   -13883   -13912   -13931   -13917   -13949 
  -13991   -13977   -13988   -14024   -14017   -14016   -14046   -14050 
  -14043   -14062   -14071   -14072   -14094   -14097   -14091   -14113 
  -14123   -14124   -14154   -14170   -14173   -14198   -14212   -14210 
  -14226   -14239   -14247   -14271   -14283   -14278   -14295   -14314 
  -14327   -14352   -14364   -14380   -14403   -14409   -14440   -14474 
  -14454   -14467   -14530   -14539   -14536   -14570   -14567   -14546 
  -14588   -14613   -14576   -14583   -14611   -14589   -14583   -14601 
  -14593   -14591   -14592   -14581   -14587   -14596   -14588   -14583 
  -14579   -14573   -14571   -14575   -14568   -14545   -14552   -14576 
  -14562   -14552   -14562   -14541   -14529   -14543   -14541   -14535 
  -14523   -14510   -14534   -14550   -14517   -14519   -14555   -14543 
  -14532   -14563   -14567   -14549   -14573   -14595   -14583   -14597 
  -14616   -14609   -14623   -14645   -14648   -14649   -14650   -14664 
  -14690   -14697   -14703   -14724   -14743   -14759   -14771   -14782 
  -14802   -14818   -14840   -14873   -14878   -14873   -14902   -14926 
  -14940   -14961   -14968   -14982   -15007   -15006   -15014   -15060 
  -15067   -15043   -15080   -15116   -15089   -15092   -15130   -15122 
  -15112   -15133   -15129   -15117   -15121   -15113   -15106   -15114 
  -15110   -15107   -15112   -15104   -15097   -15095   -15086   -15078 
  -15074   -15068   -15042   -15017   -15022   -15007   -14970   -14960 
  -14951   -14930   -14926   -14926   -14918   -14907   -14893   -14897 
  -14903   -14877   -14865   -14894   -14895   -14872   -14894   -14916 
  -14899   -14902   -14923   -14921   -14911   -14914   -14919   -14925 
  -14940   -14955   -14956   -14949   -14946   -14949   -14952   -14958 
  -14965   -14964   -14975   -14990   -14995   -14997   -15001   -15010 
  -15011   -15009   -15014   -15000   -14990   -15003   -15008   -15015 
  -15020   -15017   -15026   -15022   -14996   -15002   -15019   -15006 
  -15000   -15010   -14998   -14986   -14990   -14987   -14978   -14965 
  -14952   -14944   -14927   -14898   -14879   -14865   -14836   -14803 
  -14786   -14776   -14759   -14732   -14708   -14689   -14670   -14659 
  -14649   -14617   -14590   -14588   -14576   -14550   -14543   -14533 
  -14512   -14513   -14519   -14499   -14472   -14460   -14464   -14470 
  -14456   -14427   -14426   -14434   -14414   -14402   -14405   -14402 
  -14393   -14375   -14377   -14387   -14360   -14349   -14362   -14340 
  -14323   -14327   -14312   -14304   -14313   -14299   -14279   -14276 
  -14266   -14249   -14246   -14239   -14242   -14243   -14223   -14224 
  -14233   -14222   -14224   -14229   -14226   -14237   -14231   -14224 
  -14244   -14239   -14223   -14239   -14233   -14196   -14192   -14198 
  -14182   -14184   -14180   -14162   -14171   -14163   -14140   -14150 
  -14142   -14116   -14110   -14085   -14062   -14067   -14052   -14035 
  -14033   -14017   -14002   -14003   -13995   -13976   -13959   -13963 
  -13975   -13973   -13968   -13955   -13946   -13970   -13990   -13995 
  -13998   -13995   -14019   -14062   -14061   -14054   -14089   -14108 
  -14120   -14159   -14173   -14182   -14212   -14207   -14217   -14274 
  -14276   -14258   -14289   -14293   -14295   -14325   -14321   -14318 
  -14327   -14311   -14313   -14320   -14300   -14299   -14303   -14297 
  -14296   -14278   -14270   -14276   -14260   -14243   -14221   -14190 
  -14197   -14198   -14171   -14161   -14139   -14116   -14117   -14077 
  -14037   -14056   -14024   -13974   -14010   -13991   -13926   -13962 
  -13956   -13894   -13933   -13933   -13862   -13883   -13896   -13861 
  -13868   -13843   -13809   -13833   -13825   -13798   -13801   -13788 
  -13785   -13809   -13800   -13766   -13762   -13777   -13780   -13779 
  -13785   -13771   -13753   -13760   -13760   -13748   -13744   -13743 
  -13753   -13746   -13715   -13708   -13707   -13673   -13670   -13683 
  -13638   -13619   -13632   -13576   -13544   -13577   -13550   -13520 
  -13527   -13485   -13457   -13464   -13439   -13440   -13449   -13408 
  -13385   -13382   -13364   -13363   -13358   -13331   -13318   -13320 
  -13314   -13300   -13294   -13290   -13282   -13280   -13277   -13274 
  -13274   -13265   -13259   -13263   -13267   -13274   -13281   -13271 
  -13274   -13309   -13324   -13332   -13370   -13385   -13371   -13390 
  -13419   -13413   -13411   -13436   -13458   -13455   -13438   -13419 
  -13423   -13446   -13444   -13427   -13421   -13402   -13392   -13396 
  -13384   -13369   -13359   -13361   -13365   -13335   -13290   -13261 
  -13256   -13259   -13251   -13232   -13186   -13152   -13171   -13165 
  -13124   -13126   -13126   -13086   -13087   -13106   -13083   -13080 
  -13097   -13078   -13066   -13074   -13064   -13062   -13071   -13067 
  -13061   -13044   -13030   -13041   -13045   -13044   -13053   -13046 
  -13026   -13021   -13035   -13048   -13047   -13046   -13053   -13046 
  -13048   -13066   -13060   -13064   -13094   -13099   -13100   -13109 
  -13117   -13145   -13157   -13165   -13211   -13229   -13216   -13258 
  -13298   -13287   -13324   -13369   -13359   -13387   -13441   -13454 
  -13484   -13534   -13556   -13571   -13601   -13635   -13665   -13695 
  -13730   -13756   -13787   -13821   -13832   -13849   -13894   -13938 
  -13959   -13971   -14014   -14072   -14092   -14113   -14151   -14168 
  -14191   -14220   -14243   -14269   -14278   -14295   -14325   -14319 
  -14328   -14382   -14383   -14362   -14409   -14436   -14425   -14461 
  -14480   -14466   -14491   -14508   -14497   -14507   -14513   -14507 
  -14510   -14509   -14507   -14516   -14520   -14514   -14508   -14513 
  -14522   -14517   -14516   -14510   -14498   -14525   -14557   -14552 
  -14544   -14530   -14517   -14531   -14540   -14540   -14534   -14519 
  -14527   -14527   -14499   -14509   -14522   -14504   -14509   -14496 
  -14464   -14479   -14491   -14482   -14485   -14470   -14457   -14465 
  -14464   -14464   -14459   -14439   -14439   -14445   -14429   -14431 
  -14442   -14433   -14431   -14439   -14428   -14409   -14389   -14393 
  -14420   -14417   -14387   -14360   -14346   -14359   -14361   -14342 
  -14326   -14297   -14287   -14299   -14271   -14240   -14235   -14207 
  -14193   -14211   -14185   -14157   -14162   -14131   -14119   -14142 
  -14116   -14096   -14097   -14064   -14049   -14052   -14023   -14001 
  -13986   -13945   -13909   -13898   -13892   -13873   -13839   -13808 
  -13793   -13774   -13752   -13742   -13719   -13687   -13675   -13661 
  -13653   -13645   -13623   -13626   -13612   -13569   -13581   -13597 
  -13562   -13565   -13579   -13548   -13549   -13561   -13544   -13563 
  -13566   -13527   -13529   -13544   -13528   -13525   -13520   -13499 
  -13498   -13499   -13483   -13475   -13463   -13446   -13453   -13462 
  -13446   -13435   -13442   -13439   -13443   -13457   -13432   -13412 
  -13434   -13423   -13402   -13413   -13411   -13412   -13416   -13406 
  -13396   -13373   -13369   -13392   -13376   -13348   -13346   -13327 
  -13322   -13345   -13319   -13296   -13319   -13314   -13298   -13306 
  -13299   -13292   -13290   -13279   -13274   -13262   -13245   -13250 
  -13254   -13236   -13219   -13210   -13200   -13191   -13174   -13169 
  -13177   -13158   -13130   -13115   -13113   -13123   -13107   -13088 
  -13090   -13083   -13079   -13060   -13036   -13054   -13048   -13024 
  -13048   -13043   -13022   -13057   -13049   -13012   -13044   -13057 
  -13038   -13067   -13081   -13064   -13070   -13082   -13094   -13093 
  -13080   -13087   -13100   -13099   -13098   -13108   -13111   -13098 
  -13095   -13110   -13112   -13098   -13091   -13087   -13083   -13086 
  -13083   -13086   -13099   -13105   -13107   -13104   -13109   -13123 
  -13119   -13121   -13133   -13123   -13134   -13155   -13134   -13130 
  -13158   -13156   -13145   -13148   -13151   -13151   -13138   -13124 
  -13121   -13110   -13096   -13091   -13082   -13056   -13034   -13033 
  -13025   -12993   -12963   -12952   -12954   -12939   -12914   -12889 
  -12858   -12833   -12812   -12786   -12762   -12738   -12723   -12702 
  -12666   -12661   -12646   -12605   -12605   -12596   -12556   -12565 
  -12550   -12494   -12508   -12527   -12490   -12472   -12474   -12459 
  -12455   -12454   -12441   -12427   -12418   -12404   -12395   -12393 
  -12380   -12366   -12371   -12366   -12336   -12312   -12305   -12294 
  -12268   -12251   -12233   -12199   -12176   -12161   -12134   -12100 
  -12076   -12059   -12014   -11975   -11980   -11945   -11891   -11885 
  -11852   -11811   -11826   -11802   -11750   -11753   -11747   -11707 
  -11692   -11692   -11681   -11669   -11659   -11647   -11638   -11640 
  -11639   -11629   -11624   -11618   -11626   -11641   -11633   -11614 
  -11609   -11620   -11619   -11610   -11619   -11612   -11584   -11586 
  -11587   -11572   -11582   -11590   -11563   -11532   -11529   -11526 
  -11503   -11504   -11504   -11476   -11481   -11492   -11467   -11459 
  -11463   -11452   -11456   -11457   -11458   -11480   -11489   -11489 
  -11504   -11520   -11528   -11531   -11545   -11569   -11586   -11597 
  -11604   -11608   -11626   -11647   -11654   -11658   -11669   -11681 
  -11688   -11698   -11715   -11729   -11744   -11768   -11787   -11799 
  -11817   -11846   -11875   -11899   -11924   -11946   -11974   -12015 
  -12042   -12060   -12093   -12124   -12138   -12165   -12199   -12219 
  -12245   -12267   -12275   -12304   -12336   -12343   -12369   -12404 
  -12420   -12446   -12481   -12503   -12521   -12543   -12566   -12585 
  -12602   -12621   -12638   -12647   -12662   -12686   -12697   -12701 
  -12720   -12738   -12744   -12751   -12763   -12774   -12786   -12798 
  -12810   -12822   -12829   -12832   -12840   -12853   -12860   -12866 
  -12877   -12887   -12900   -12913   -12918   -12917   -12922   -12928 
  -12926   -12925   -12930   -12939   -12953   -12956   -12955   -12968 
  -12977   -12981   -13000   -13014   -13022   -13035   -13046   -13060 
  -13067   -13063   -13076   -13093   -13095   -13107   -13128   -13126 
  -13115   -13120   -13124   -13119   -13124   -13126   -13118   -13118 
  -13118   -13110   -13107   -13111   -13110   -13101   -13091   -13091 
  -13097   -13093   -13081   -13084   -13093   -13075   -13058   -13063 
  -13054   -13041   -13049   -13040   -13013   -13007   -13015   -13009 
  -12984   -12970   -12971   -12961   -12948   -12951   -12941   -12922 
  -12926   -12921   -12891   -12886   -12895   -12877   -12861   -12861 
  -12847   -12832   -12829   -12813   -12797   -12789   -12774   -12759 
  -12749   -12732   -12716   -12714   -12713   -12702   -12691   -12682 
  -12670   -12661   -12654   -12643   -12635   -12629   -12620   -12614 
  -12614   -12620   -12619   -12605   -12609   -12624   -12610   -12610 
  -12634   -12624   -12606   -12619   -12622   -12610   -12621   -12626 
  -12610   -12614   -12626   -12611   -12599   -12600   -12596   -12594 
  -12592   -12581   -12578   -12581   -12579   -12578   -12571   -12561 
  -12565   -12569   -12564   -12564   -12563   -12561   -12570   -12575 
  -12577   -12581   -12577   -12579   -12594   -12602   -12604   -12603 
  -12603   -12619   -12633   -12628   -12641   -12664   -12655   -12652 
  -12677   -12682   -12670   -12684   -12699   -12690   -12694   -12712 
  -12714   -12715   -12720   -12716   -12712   -12713   -12717   -12725 
  -12726   -12725   -12727   -12726   -12730   -12738   -12743   -12739 
  -12732   -12738   -12740   -12736   -12742   -12741   -12729   -12728 
  -12734   -12734   -12725   -12710   -12707   -12720   -12705   -12679 
  -12693   -12699   -12676   -12675   -12679   -12666   -12664   -12659 
  -12641   -12644   -12647   -12632   -12640   -12656   -12640   -12636 
  -12655   -12655   -12652   -12664   -12667   -12663   -12673   -12683 
  -12680   -12682   -12692   -12701   -12710   -12709   -12704   -12710 
  -12724   -12734   -12743   -12766   -12781   -12781   -12806   -12844 
  -12848   -12851   -12882   -12900   -12907   -12937   -12955   -12945 
  -12959   -12983   -12984   -12993   -13009   -13009   -13019   -13032 
  -13034   -13046   -13053   -13042   -13040   -13052   -13061   -13060 
  -13061   -13063   -13056   -13057   -13072   -13072   -13073   -13085 
  -13067   -13048   -13071   -13071   -13056   -13064   -13036   -13015 
  -13045   -13039   -13004   -13014   -13019   -13009   -13027   -13029 
  -13010   -13015   -13015   -13004   -13009   -13007   -12994   -12999 
  -13010   -13008   -13008   -13015   -13023   -13024   -13023   -13024 
  -13027   -13045   -13051   -13042   -13051   -13049   -13046   -13070 
  -13066   -13058   -13087   -13081   -13059   -13089   -13099   -13084 
  -13104   -13109   -13093   -13111   -13120   -13108   -13119   -13125 
  -13116   -13126   -13129   -13122   -13130   -13133   -13131   -13133 
  -13129   -13136   -13144   -13140   -13145   -13160   -13175   -13188 
  -13188   -13196   -13225   -13246   -13244   -13247   -13263   -13264 
  -13275   -13303   -13290   -13284   -13317   -13294   -13274   -13315 
  -13303   -13272   -13303   -13301   -13264   -13288   -13309   -13284 
  -13297   -13305   -13283   -13295   -13298   -13291   -13311   -13297 
  -13279   -13298   -13296   -13290   -13303   -13295   -13290   -13303 
  -13304   -13296   -13293   -13305   -13313   -13302   -13301   -13312 
  -13320   -13322   -13305   -13300   -13327   -13339   -13334   -13334 
  -13326   -13325   -13335   -13334   -13336   -13340   -13324   -13316 
  -13333   -13326   -13300   -13301   -13309   -13299   -13293   -13288 
  -13280   -13279   -13281   -13279   -13272   -13263   -13251   -13251 
  -13257   -13249   -13234   -13223   -13214   -13210   -13205   -13198 
  -13190   -13177   -13168   -13164   -13154   -13147   -13140   -13128 
  -13125   -13123   -13115   -13113   -13107   -13099   -13101   -13092 
  -13084   -13088   -13076   -13065   -13073   -13062   -13041   -13050 
  -13052   -13030   -13027   -13038   -13025   -13015   -13027   -13025 
  -13014   -13014   -13008   -12996   -12996   -12997   -12987   -12971 
  -12961   -12964   -12964   -12957   -12962   -12966   -12956   -12959 
  -12960   -12946   -12951   -12968   -12969   -12971   -12971   -12962 
  -12960   -12972   -12975   -12972   -12980   -12978   -12966   -12965 
  -12960   -12957   -12963   -12963   -12957   -12949   -12949   -12956 
  -12955   -12951   -12953   -12956   -12957   -12954   -12954   -12957 
  -12949   -12942   -12952   -12947   -12931   -12939   -12952   -12954 
  -12953   -12940   -12943   -12965   -12955   -12932   -12953   -12992 
  -13006   -12990   -12996   -13040   -13039   -13039   -13100   -13103 
  -13090   -13146   -13164   -13146   -13181   -13230   -13219   -13238 
  -13313   -13284   -13297   -13376   -13333   -13353   -13412   -13376 
  -13413   -13454   -13433   -13458   -13489   -13494   -13494   -13495 
