Origin Time       2011/03/11 14:46:00
Lat.              38.103
Long.             142.860
Depth. (km)       24
Mag.              9.0
Station Code      HYG015
Station Lat.      34.9499
Station Long.     135.2714
Station Height(m) 193
Record Time       2011/03/11 14:50:53
Sampling Freq(Hz) 100Hz
Duration Time(s)  60
Dir.              N-S
Scale Factor      3920(gal)/6182761
Max. Acc. (gal)   1.923
Last Correction   2011/03/11 14:50:38
Memo.             
[...]
  -42720   -42715   -42700   -42676   -42641   -42590   -42521   -42448 
  -42397   -42389   -42431   -42503   -42579   -42635   -42666   -42691 
  -42718   -42735   -42746   -42760   -42772   -42775   -42752   -42701 
  -42651   -42622   -42609   -42607   -42616   -42639   -42689   -42768 
  -42857   -42940   -43008   -43060   -43104   -43131   -43141   -43143 
  -43127   -43090   -43059   -43047   -43039   -43031   -43020   -42982 
  -42922   -42876   -42861   -42889   -42959   -43043   -43113   -43161 
  -43189   -43205   -43206   -43172   -43100   -43002   -42890   -42774 
  -42658   -42561   -42510   -42509   -42533   -42556   -42575   -42609 
  -42668   -42744   -42814   -42861   -42867   -42823   -42755   -42710 
  -42700   -42711   -42704   -42633   -42535   -42483   -42480   -42509 
  -42580   -42679   -42772   -42844   -42907   -42968   -43026   -43088 
  -43165   -43250   -43313   -43313   -43233   -43106   -42973   -42863 
  -42793   -42764   -42751   -42722   -42670   -42621   -42589   -42565 
  -42549   -42546   -42555   -42572   -42594   -42629   -42676   -42706 
  -42713   -42707   -42693   -42700   -42738   -42780   -42815   -42864 
  -42925   -42971   -42997   -43034   -43072   -43083   -43088   -43105 
  -43109   -43099   -43080   -43032   -42961   -42894   -42833   -42773 
  -42726   -42708   -42735   -42806   -42879   -42929   -42966   -42992 
  -42997   -42978   -42947   -42898   -42812   -42708   -42634   -42591 
  -42542   -42485   -42465   -42498   -42547   -42610   -42710   -42816 
  -42887   -42931   -42941   -42911   -42856   -42781   -42693   -42618 
  -42560   -42511   -42463   -42406   -42337   -42288   -42281   -42302 
  -42349   -42440   -42552   -42619   -42632   -42621   -42577   -42510 
  -42445   -42364   -42272   -42227   -42230   -42233   -42213   -42167 
  -42108   -42055   -42014   -42009   -42045   -42090   -42121   -42154 
  -42191   -42203   -42167   -42110   -42063   -42022   -41980   -41942 
  -41895   -41821   -41739   -41683   -41659   -41669   -41721   -41776 
  -41797   -41792   -41796   -41823   -41869   -41924   -41979   -42028 
  -42063   -42058   -42036   -42051   -42091   -42130   -42163   -42159 
  -42100   -42023   -41983   -41987   -42001   -42013   -42028   -42020 
  -41983   -41963   -41972   -41992   -42029   -42082   -42133   -42175 
  -42206   -42248   -42311   -42375   -42440   -42517   -42621   -42746 
  -42831   -42882   -42930   -42913   -42860   -42862   -42880   -42881 
  -42886   -42885   -42870   -42848   -42825   -42827   -42863   -42913 
  -42936   -42901   -42835   -42788   -42756   -42736   -42741   -42752 
  -42735   -42686   -42629   -42594   -42597   -42626   -42654   -42672 
  -42695   -42729   -42773   -42815   -42838   -42837   -42823   -42799 
  -42754   -42673   -42566   -42459   -42367   -42289   -42231   -42201 
  -42197   -42227   -42293   -42375   -42463   -42549   -42631   -42705 
  -42756   -42763   -42714   -42634   -42574   -42532   -42489   -42463 
  -42443   -42403   -42353   -42307   -42278   -42283   -42324   -42398 
  -42508   -42617   -42691   -42764   -42864   -42951   -43003   -43042 
  -43055   -43011   -42922   -42795   -42654   -42553   -42516   -42528 
  -42569   -42628   -42714   -42828   -42954   -43064   -43131   -43157 
  -43158   -43145   -43119   -43069   -42982   -42858   -42735   -42664 
  -42650   -42662   -42695   -42748   -42804   -42871   -42946   -43002 
  -43045   -43077   -43083   -43076   -43057   -43014   -42953   -42894 
  -42841   -42783   -42718   -42672   -42674   -42726   -42795   -42852 
  -42906   -42951   -42972   -42999   -43047   -43081   -43070   -43027 
  -42967   -42887   -42798   -42718   -42647   -42583   -42542   -42518 
  -42494   -42475   -42470   -42474   -42479   -42483   -42483   -42474 
  -42461   -42452   -42446   -42440   -42413   -42359   -42304   -42272 
  -42286   -42332   -42362   -42357   -42343   -42345   -42378   -42427 
  -42450   -42439   -42403   -42343   -42267   -42186   -42115   -42066 
  -42033   -42010   -41998   -41981   -41951   -41931   -41945   -41977 
  -42005   -42019   -42020   -42014   -42015   -42031   -42047   -42051 
  -42053   -42057   -42064   -42082   -42108   -42150   -42224   -42337 
  -42475   -42604   -42695   -42751   -42789   -42811   -42808   -42770 
  -42681   -42547   -42399   -42267   -42155   -42055   -41964   -41883 
  -41829   -41828   -41878   -41957   -42068   -42214   -42363   -42493 
  -42604   -42703   -42790   -42858   -42910   -42939   -42935   -42904 
  -42867   -42852   -42871   -42907   -42930   -42933   -42925   -42915 
  -42909   -42918   -42936   -42952   -42965   -42981   -42995   -42993 
  -42973   -42938   -42913   -42926   -42966   -42991   -42984   -42947 
  -42902   -42874   -42873   -42878   -42874   -42868   -42874   -42894 
  -42935   -43000   -43080   -43171   -43268   -43343   -43380   -43399 
  -43405   -43392   -43374   -43369   -43362   -43327   -43260   -43182 
  -43120   -43100   -43108   -43125   -43167   -43210   -43211   -43187 
  -43169   -43150   -43114   -43063   -43018   -42987   -42955   -42927 
  -42905   -42869   -42825   -42801   -42781   -42745   -42705   -42657 
  -42589   -42526   -42490   -42476   -42475   -42488   -42514   -42544 
  -42557   -42538   -42491   -42430   -42369   -42297   -42185   -42042 
  -41904   -41794   -41734   -41732   -41760   -41792   -41822   -41844 
  -41872   -41909   -41942   -41966   -41971   -41929   -41834   -41715 
  -41595   -41474   -41366   -41281   -41226   -41209   -41222   -41254 
  -41302   -41358   -41422   -41488   -41553   -41602   -41609   -41585 
  -41551   -41494   -41417   -41345   -41286   -41226   -41157   -41081 
  -41016   -40974   -40943   -40911   -40883   -40870   -40868   -40873 
  -40891   -40924   -40959   -40979   -40984   -40984   -40977   -40957 
  -40929   -40896   -40862   -40831   -40805   -40789   -40783   -40780 
  -40789   -40821   -40873   -40944   -41023   -41086   -41129   -41157 
  -41155   -41128   -41089   -41024   -40941   -40872   -40835   -40839 
  -40880   -40944   -41027   -41134   -41261   -41404   -41555   -41699 
  -41825   -41928   -42010   -42076   -42124   -42153   -42172   -42192 
  -42217   -42261   -42337   -42442   -42562   -42674   -42773   -42881 
  -43014   -43165   -43313   -43431   -43511   -43550   -43565   -43573 
  -43574   -43566   -43561   -43553   -43520   -43462   -43405   -43360 
  -43329   -43310   -43296   -43270   -43228   -43170   -43095   -43008 
  -42929   -42859   -42778   -42699   -42650   -42620   -42597   -42584 
  -42582   -42578   -42553   -42505   -42445   -42385   -42341   -42313 
  -42290   -42265   -42235   -42200   -42178   -42193   -42236   -42291 
  -42355   -42427   -42507   -42589   -42669   -42755   -42842   -42922 
  -42988   -43046   -43109   -43182   -43256   -43316   -43364   -43397 
  -43417   -43445   -43488   -43539   -43589   -43632   -43661   -43680 
  -43698   -43731   -43780   -43820   -43853   -43898   -43931   -43933 
  -43927   -43915   -43890   -43872   -43859   -43855   -43865   -43877 
  -43888   -43911   -43940   -43970   -44007   -44052   -44099   -44145 
  -44178   -44189   -44185   -44187   -44209   -44246   -44295   -44350 
  -44395   -44423   -44449   -44482   -44506   -44508   -44489   -44450 
  -44392   -44310   -44202   -44072   -43937   -43812   -43704   -43617 
  -43554   -43505   -43456   -43404   -43355   -43307   -43268   -43244 
  -43231   -43208   -43161   -43104   -43048   -42990   -42929   -42883 
  -42852   -42815   -42775   -42745   -42732   -42734   -42739   -42735 
  -42713   -42670   -42607   -42542   -42471   -42381   -42278   -42178 
  -42090   -42017   -41960   -41922   -41916   -41945   -41991   -42052 
  -42139   -42247   -42360   -42463   -42534   -42566   -42566   -42545 
  -42504   -42436   -42346   -42255   -42172   -42102   -42054   -42028 
  -42029   -42075   -42163   -42273   -42388   -42482   -42542   -42580 
  -42607   -42620   -42615   -42595   -42556   -42503   -42445   -42384 
  -42327   -42297   -42304   -42346   -42413   -42482   -42532   -42566 
  -42600   -42630   -42648   -42652   -42625   -42558   -42476   -42412 
  -42386   -42407   -42456   -42506   -42550   -42599   -42669   -42754 
  -42832   -42896   -42933   -42930   -42893   -42829   -42750   -42665 
  -42573   -42467   -42348   -42243   -42171   -42130   -42104   -42078 
  -42055   -42043   -42042   -42053   -42081   -42129   -42194   -42268 
  -42344   -42416   -42478   -42531   -42584   -42640   -42702   -42755 
  -42796   -42822   -42813   -42769   -42725   -42703   -42705   -42724 
  -42745   -42762   -42782   -42825   -42891   -42969   -43054   -43134 
  -43196   -43234   -43244   -43232   -43214   -43168   -43086   -43010 
  -42963   -42935   -42930   -42950   -42987   -43051   -43140   -43235 
  -43338   -43457   -43585   -43693   -43756   -43774   -43755   -43711 
  -43666   -43629   -43589   -43548   -43510   -43449   -43360   -43269 
  -43171   -43064   -42968   -42878   -42786   -42723   -42709   -42719 
  -42728   -42739   -42755   -42776   -42807   -42843   -42873   -42886 
  -42881   -42869   -42850   -42810   -42756   -42714   -42686   -42666 
  -42651   -42646   -42651   -42658   -42660   -42650   -42619   -42571 
  -42509   -42433   -42341   -42230   -42114   -42018   -41956   -41930 
  -41936   -41967   -42016   -42081   -42155   -42234   -42309   -42371 
  -42420   -42454   -42466   -42462   -42447   -42425   -42402   -42373 
  -42325   -42261   -42199   -42150   -42121   -42111   -42122   -42164 
  -42226   -42292   -42363   -42440   -42517   -42584   -42639   -42683 
  -42716   -42729   -42713   -42676   -42624   -42560   -42485   -42387 
  -42285   -42219   -42178   -42145   -42131   -42125   -42122   -42139 
  -42179   -42230   -42273   -42296   -42300   -42297   -42296   -42296 
  -42292   -42290   -42284   -42266   -42251   -42258   -42288   -42336 
  -42391   -42444   -42501   -42562   -42638   -42732   -42823   -42904 
  -42977   -43026   -43055   -43082   -43111   -43135   -43142   -43124 
  -43088   -43046   -43007   -42969   -42933   -42917   -42920   -42934 
  -42965   -43011   -43054   -43091   -43125   -43157   -43196   -43246 
  -43298   -43334   -43341   -43327   -43296   -43245   -43188   -43129 
  -43057   -42973   -42887   -42799   -42724   -42684   -42688   -42726 
  -42780   -42827   -42862   -42900   -42966   -43051   -43123   -43166 
  -43173   -43141   -43089   -43046   -43010   -42957   -42893   -42838 
  -42788   -42742   -42705   -42668   -42629   -42598   -42565   -42513 
  -42452   -42394   -42334   -42281   -42241   -42200   -42164   -42129 
  -42084   -42048   -42027   -42019   -42039   -42073   -42097   -42115 
  -42122   -42116   -42110   -42101   -42087   -42081   -42066   -42029 
  -41983   -41941   -41907   -41884   -41869   -41867   -41874   -41886 
  -41903   -41920   -41938   -41961   -41988   -42020   -42056   -42095 
  -42143   -42190   -42213   -42200   -42154   -42093   -42029   -41958 
  -41870   -41768   -41661   -41557   -41463   -41385   -41328   -41294 
  -41276   -41263   -41268   -41309   -41392   -41503   -41611   -41681 
  -41723   -41763   -41800   -41838   -41890   -41947   -41988   -42019 
  -42050   -42072   -42092   -42132   -42189   -42247   -42299   -42343 
  -42382   -42423   -42463   -42501   -42550   -42607   -42657   -42696 
  -42734   -42784   -42845   -42902   -42953   -43009   -43070   -43136 
  -43204   -43266   -43322   -43378   -43439   -43508   -43585   -43658 
  -43721   -43784   -43838   -43882   -43925   -43963   -43995   -44040 
  -44100   -44160   -44214   -44251   -44269   -44292   -44340   -44407 
  -44469   -44504   -44511   -44512   -44512   -44508   -44504   -44501 
  -44491   -44483   -44481   -44476   -44472   -44480   -44505   -44539 
  -44575   -44600   -44601   -44588   -44568   -44531   -44480   -44423 
  -44362   -44314   -44276   -44231   -44192   -44169   -44151   -44144 
  -44162   -44196   -44228   -44251   -44261   -44240   -44171   -44069 
  -43967   -43876   -43786   -43706   -43641   -43581   -43531   -43497 
  -43491   -43524   -43580   -43640   -43703   -43765   -43812   -43830 
  -43820   -43800   -43773   -43730   -43669   -43595   -43513   -43420 
  -43335   -43271   -43221   -43178   -43142   -43115   -43095   -43080 
  -43067   -43059   -43049   -43027   -42999   -42987   -42989   -42989 
  -42985   -42978   -42961   -42931   -42902   -42887   -42880   -42865 
  -42841   -42807   -42774   -42747   -42730   -42744   -42785   -42824 
  -42864   -42912   -42958   -42993   -43021   -43045   -43075   -43106 
  -43124   -43126   -43109   -43069   -43015   -42963   -42921   -42886 
  -42851   -42825   -42816   -42810   -42792   -42778   -42786   -42811 
  -42829   -42830   -42833   -42846   -42851   -42836   -42807   -42773 
  -42732   -42687   -42656   -42656   -42674   -42689   -42711   -42765 
  -42834   -42893   -42944   -42995   -43046   -43103   -43159   -43199 
  -43217   -43209   -43183   -43160   -43145   -43133   -43128   -43143 
  -43177   -43227   -43295   -43378   -43462   -43541   -43616   -43695 
  -43771   -43850   -43934   -43996   -44030   -44064   -44100   -44128 
  -44150   -44171   -44202   -44246   -44288   -44319   -44341   -44359 
  -44396   -44453   -44515   -44590   -44673   -44756   -44861   -44977 
  -45059   -45105   -45138   -45162   -45181   -45190   -45174   -45130 
  -45074   -45021   -44988   -44988   -45017   -45067   -45130   -45195 
  -45275   -45377   -45487   -45599   -45713   -45816   -45900   -45966 
  -46018   -46065   -46099   -46114   -46108   -46077   -46026   -45957 
  -45875   -45790   -45701   -45612   -45545   -45504   -45482   -45484 
  -45503   -45527   -45541   -45544   -45562   -45592   -45605   -45594 
  -45561   -45526   -45516   -45513   -45513   -45535   -45557   -45575 
  -45617   -45679   -45734   -45776   -45810   -45849   -45891   -45920 
  -45922   -45892   -45839   -45778   -45718   -45659   -45581   -45479 
  -45374   -45277   -45187   -45106   -45024   -44933   -44857   -44804 
  -44753   -44700   -44652   -44601   -44541   -44472   -44394   -44322 
  -44259   -44197   -44124   -44044   -43971   -43906   -43833   -43766 
  -43726   -43692   -43654   -43622   -43595   -43584   -43581   -43560 
  -43544   -43541   -43528   -43518   -43521   -43518   -43510   -43490 
  -43449   -43403   -43340   -43260   -43188   -43120   -43057   -43011 
  -42975   -42952   -42952   -42960   -42970   -42985   -43000   -43014 
  -43028   -43025   -43004   -42976   -42941   -42895   -42851   -42816 
  -42788   -42786   -42806   -42832   -42870   -42919   -42973   -43040 
  -43121   -43186   -43221   -43241   -43260   -43287   -43332   -43393 
  -43455   -43516   -43581   -43648   -43713   -43774   -43842   -43917 
  -43983   -44037   -44078   -44097   -44097   -44086   -44078   -44080 
  -44081   -44077   -44063   -44040   -44019   -44002   -43979   -43948 
  -43920   -43887   -43841   -43781   -43709   -43647   -43613   -43594 
  -43586   -43593   -43603   -43626   -43677   -43734   -43783   -43836 
  -43889   -43929   -43949   -43949   -43937   -43920   -43902   -43879 
  -43863   -43864   -43870   -43875   -43899   -43941   -43990   -44051 
  -44112   -44164   -44219   -44267   -44282   -44265   -44228   -44185 
  -44155   -44138   -44102   -44042   -43988   -43934   -43871   -43818 
  -43777   -43728   -43679   -43644   -43617   -43597   -43596   -43615 
  -43650   -43696   -43743   -43788   -43830   -43875   -43924   -43951 
  -43943   -43911   -43871   -43825   -43764   -43697   -43628   -43555 
  -43487   -43429   -43371   -43318   -43284   -43266   -43252   -43247 
  -43253   -43257   -43254   -43253   -43243   -43210   -43168   -43125 
  -43078   -43040   -43019   -42995   -42951   -42892   -42828   -42760 
  -42702   -42666   -42646   -42632   -42626   -42630   -42634   -42644 
  -42675   -42720   -42762   -42801   -42836   -42867   -42905   -42941 
  -42951   -42944   -42925   -42892   -42865   -42858   -42872   -42906 
  -42936   -42960   -42999   -43052   -43114   -43192   -43285   -43377 
  -43455   -43515   -43561   -43610   -43669   -43726   -43770   -43797 
  -43805   -43796   -43775   -43746   -43713   -43682   -43657   -43637 
  -43635   -43657   -43689   -43716   -43742   -43777   -43817   -43854 
  -43884   -43914   -43959   -44015   -44063   -44106   -44145   -44185 
  -44229   -44271   -44297   -44306   -44313   -44335   -44368   -44397 
  -44419   -44442   -44465   -44483   -44506   -44545   -44592   -44631 
  -44659   -44678   -44691   -44697   -44697   -44690   -44666   -44634 
  -44617   -44614   -44626   -44666   -44727   -44796   -44866   -44930 
  -44993   -45055   -45105   -45139   -45155   -45156   -45141   -45110 
  -45064   -45009   -44951   -44893   -44834   -44784   -44752   -44724 
  -44698   -44700   -44720   -44731   -44737   -44743   -44734   -44701 
  -44645   -44566   -44470   -44379   -44297   -44214   -44137   -44068 
  -44005   -43958   -43931   -43925   -43946   -43990   -44040   -44078 
  -44103   -44117   -44112   -44075   -44021   -43960   -43883   -43790 
  -43702   -43623   -43550   -43490   -43454   -43432   -43415   -43409 
  -43419   -43447   -43478   -43498   -43508   -43522   -43536   -43542 
  -43537   -43515   -43477   -43432   -43394   -43359   -43331   -43313 
  -43300   -43293   -43290   -43287   -43291   -43309   -43339   -43375 
  -43419   -43462   -43491   -43505   -43506   -43497   -43493   -43500 
  -43518   -43544   -43572   -43603   -43642   -43688   -43731   -43770 
  -43813   -43857   -43895   -43930   -43965   -44004   -44048   -44086 
  -44116   -44140   -44159   -44178   -44205   -44229   -44244   -44258 
  -44275   -44292   -44311   -44336   -44374   -44421   -44452   -44474 
  -44510   -44540   -44558   -44585   -44622   -44652   -44677   -44703 
  -44724   -44734   -44739   -44759   -44808   -44863   -44890   -44898 
  -44912   -44919   -44920   -44939   -44976   -44998   -44994   -44976 
  -44960   -44951   -44951   -44960   -44979   -45007   -45029   -45031 
  -45034   -45059   -45093   -45133   -45187   -45233   -45253   -45260 
  -45263   -45259   -45259   -45267   -45265   -45255   -45240   -45219 
  -45204   -45200   -45192   -45170   -45133   -45085   -45031   -44974 
  -44932   -44906   -44879   -44855   -44837   -44816   -44791   -44764 
  -44737   -44706   -44666   -44614   -44552   -44478   -44397   -44313 
  -44229   -44152   -44078   -44005   -43949   -43922   -43916   -43920 
  -43927   -43939   -43945   -43945   -43946   -43947   -43946   -43950 
  -43954   -43946   -43927   -43904   -43871   -43831   -43801   -43781 
  -43762   -43745   -43729   -43711   -43700   -43708   -43738   -43780 
  -43818   -43854   -43888   -43919   -43947   -43976   -44007   -44024 
  -44016   -43993   -43967   -43938   -43902   -43862   -43823   -43790 
  -43753   -43709   -43671   -43643   -43616   -43591   -43582   -43588 
  -43616   -43666   -43715   -43747   -43767   -43786   -43809   -43827 
  -43828   -43811   -43781   -43748   -43721   -43700   -43686   -43677 
  -43660   -43629   -43588   -43551   -43523   -43494   -43462   -43435 
  -43403   -43357   -43300   -43238   -43175   -43127   -43098   -43073 
  -43042   -43017   -43005   -43004   -43006   -43015   -43025   -43029 
  -43043   -43067   -43090   -43119   -43155   -43180   -43186   -43179 
  -43164   -43139   -43100   -43065   -43037   -43007   -42977   -42956 
