Origin Time       2011/03/11 14:46:00
Lat.              38.103
Long.             142.860
Depth. (km)       24
Mag.              9.0
Station Code      HYG002
Station Lat.      35.6394
Station Long.     134.6280
Station Height(m) 6
Record Time       2011/03/11 14:51:11
Sampling Freq(Hz) 100Hz
Duration Time(s)  60
Dir.              E-W
Scale Factor      3920(gal)/6182761
Max. Acc. (gal)   1.454
Last Correction   2011/03/11 14:50:56
Memo.             
[...]
  -21989   -21969   -21954   -21950   -21955   -21912   -21816   -21750 
  -21747   -21767   -21788   -21763   -21673   -21615   -21640   -21653 
  -21609   -21570   -21543   -21507   -21477   -21451   -21440   -21450 
  -21460   -21436   -21394   -21389   -21394   -21371   -21368   -21384 
  -21372   -21359   -21383   -21352   -21202   -21049   -21033   -21185 
  -21322   -21275   -21096   -20846   -20710   -20903   -21153   -21184 
  -21119   -20878   -20650   -20811   -21011   -21089   -21141   -21002 
  -20882   -20845   -20775   -20976   -21248   -21164   -21010   -20910 
  -20862   -21033   -21143   -21218   -21330   -21125   -20955   -21087 
  -21166   -21323   -21462   -21325   -21309   -21378   -21332   -21448 
  -21606   -21628   -21641   -21583   -21518   -21582   -21683   -21794 
  -21806   -21647   -21521   -21476   -21507   -21667   -21800   -21802 
  -21674   -21455   -21376   -21454   -21499   -21551   -21567   -21453 
  -21388   -21408   -21390   -21415   -21487   -21442   -21317   -21246 
  -21258   -21350   -21474   -21503   -21386   -21267   -21263   -21300 
  -21345   -21459   -21533   -21472   -21385   -21355   -21406   -21506 
  -21571   -21585   -21505   -21395   -21407   -21468   -21510   -21552 
  -21516   -21478   -21539   -21576   -21548   -21549   -21612   -21685 
  -21663   -21556   -21507   -21558   -21647   -21729   -21724   -21625 
  -21579   -21640   -21726   -21776   -21749   -21685   -21635   -21539 
  -21458   -21509   -21567   -21533   -21453   -21315   -21228   -21339 
  -21436   -21369   -21347   -21367   -21289   -21269   -21337   -21331 
  -21331   -21390   -21371   -21296   -21291   -21352   -21413   -21418 
  -21366   -21318   -21315   -21349   -21372   -21376   -21367   -21310 
  -21260   -21266   -21281   -21280   -21252   -21213   -21198   -21203 
  -21167   -21107   -21155   -21201   -21100   -21029   -20987   -20868 
  -20883   -21021   -20985   -20828   -20756   -20724   -20762   -20880 
  -20816   -20615   -20550   -20546   -20533   -20536   -20430   -20295 
  -20313   -20368   -20337   -20265   -20139   -20016   -20064   -20191 
  -20197   -20092   -19945   -19877   -19949   -20028   -20063   -20034 
  -19857   -19705   -19837   -20065   -20063   -19934   -19883   -19898 
  -19941   -19970   -19929   -19902   -19947   -19988   -20015   -20001 
  -19931   -19975   -20121   -20120   -19983   -19923   -19957   -19990 
  -19997   -19989   -19978   -19942   -19881   -19896   -19951   -19888 
  -19814   -19857   -19873   -19818   -19813   -19790   -19694   -19713 
  -19801   -19748   -19690   -19735   -19730   -19687   -19700   -19699 
  -19662   -19719   -19878   -19960   -19925   -19881   -19893   -20011 
  -20179   -20241   -20192   -20190   -20267   -20332   -20392   -20500 
  -20592   -20640   -20715   -20799   -20841   -20873   -20913   -20970 
  -21017   -21057   -21143   -21185   -21136   -21114   -21228   -21394 
  -21377   -21216   -21166   -21244   -21296   -21279   -21213   -21050 
  -20951   -21078   -21065   -20790   -20679   -20726   -20621   -20423 
  -20357   -20407   -20344   -20181   -20093   -19984   -19815   -19828 
  -19944   -19740   -19418   -19476   -19560   -19334   -19183   -19219 
  -19280   -19318   -19190   -18962   -18934   -19101   -19170   -19038 
  -18919   -18982   -19094   -19061   -19024   -19189   -19297   -19161 
  -19137   -19375   -19511   -19462   -19550   -19686   -19624   -19686 
  -19946   -20010   -19999   -20092   -20171   -20342   -20489   -20436 
  -20492   -20673   -20731   -20820   -20930   -20834   -20849   -21219 
  -21420   -21193   -21118   -21429   -21571   -21444   -21484   -21573 
  -21572   -21693   -21733   -21645   -21773   -21908   -21849   -21836 
  -21855   -21849   -21918   -21960   -21865   -21789   -21877   -21922 
  -21842   -21844   -21778   -21546   -21590   -21870   -21727   -21292 
  -21305   -21591   -21498   -21160   -21041   -21138   -21181   -21012 
  -20749   -20655   -20764   -20823   -20591   -20264   -20305   -20591 
  -20595   -20300   -20076   -20125   -20231   -20160   -20103   -20123 
  -20003   -19888   -20021   -20100   -19924   -19936   -20122   -19982 
  -19836   -20076   -20290   -20279   -20220   -20158   -20217   -20381 
  -20420   -20402   -20402   -20286   -20291   -20540   -20559   -20388 
  -20536   -20700   -20440   -20276   -20539   -20696   -20563   -20490 
  -20543   -20606   -20622   -20598   -20587   -20466   -20367   -20562 
  -20671   -20523   -20477   -20446   -20330   -20458   -20707   -20579 
  -20285   -20337   -20573   -20585   -20460   -20505   -20629   -20625 
  -20634   -20813   -20933   -20735   -20664   -21027   -21174   -20960 
  -21033   -21340   -21312   -21075   -21147   -21437   -21562   -21486 
  -21402   -21475   -21689   -21845   -21793   -21686   -21727   -21879 
  -21978   -21886   -21772   -21851   -21914   -21854   -21835   -21851 
  -21845   -21807   -21734   -21715   -21745   -21717   -21647   -21573 
  -21520   -21504   -21466   -21411   -21397   -21424   -21394   -21211 
  -21038   -21059   -21121   -21044   -20920   -20874   -20892   -20914 
  -20851   -20725   -20653   -20628   -20614   -20584   -20555   -20577 
  -20547   -20419   -20374   -20474   -20485   -20342   -20318   -20407 
  -20404   -20406   -20494   -20560   -20628   -20703   -20666   -20604 
  -20696   -20854   -20900   -20908   -20987   -21042   -21060   -21111 
  -21160   -21182   -21240   -21337   -21343   -21295   -21324   -21367 
  -21412   -21464   -21416   -21359   -21402   -21390   -21327   -21337 
  -21318   -21266   -21265   -21218   -21140   -21143   -21175   -21128 
  -21048   -21026   -20997   -20962   -21000   -20951   -20781   -20762 
  -20892   -20923   -20821   -20713   -20691   -20764   -20858   -20864 
  -20778   -20716   -20693   -20716   -20820   -20858   -20782   -20785 
  -20856   -20892   -20928   -20926   -20904   -20954   -21001   -21051 
  -21164   -21204   -21126   -21075   -21124   -21236   -21301   -21239 
  -21159   -21178   -21235   -21215   -21135   -21109   -21119   -21108 
  -21125   -21139   -21116   -21137   -21166   -21080   -20974   -20946 
  -20921   -20955   -21015   -20956   -20937   -20994   -20981   -20997 
  -21033   -20956   -20854   -20801   -20802   -20903   -21015   -21004 
  -20928   -20895   -20885   -20937   -21095   -21144   -21036   -20996 
  -21028   -21135   -21325   -21366   -21233   -21163   -21263   -21435 
  -21542   -21571   -21528   -21458   -21494   -21621   -21725   -21768 
  -21724   -21648   -21659   -21742   -21799   -21782   -21720   -21672 
  -21630   -21595   -21614   -21679   -21671   -21519   -21377   -21331 
  -21314   -21371   -21437   -21380   -21282   -21243   -21272   -21330 
  -21291   -21127   -21034   -21086   -21107   -21058   -21007   -20929 
  -20845   -20793   -20740   -20741   -20804   -20781   -20705   -20692 
  -20702   -20721   -20741   -20687   -20575   -20533   -20608   -20714 
  -20697   -20527   -20418   -20525   -20736   -20775   -20533   -20307 
  -20250   -20219   -20268   -20450   -20558   -20427   -20229   -20295 
  -20602   -20779   -20621   -20391   -20368   -20477   -20648   -20804 
  -20793   -20679   -20625   -20676   -20743   -20768   -20832   -20929 
  -20958   -20969   -21021   -21074   -21070   -21030   -21058   -21208 
  -21427   -21576   -21537   -21361   -21282   -21458   -21656   -21669 
  -21619   -21527   -21380   -21314   -21338   -21321   -21233   -21135 
  -20985   -20769   -20593   -20537   -20621   -20716   -20605   -20277 
  -19982   -19967   -20195   -20333   -20191   -19951   -19769   -19677 
  -19747   -19860   -19796   -19686   -19706   -19738   -19701   -19649 
  -19609   -19620   -19699   -19776   -19787   -19757   -19740   -19774 
  -19867   -19986   -20073   -20074   -20115   -20324   -20521   -20546 
  -20510   -20561   -20703   -20847   -20958   -21040   -21094   -21149 
  -21187   -21218   -21300   -21382   -21375   -21318   -21304   -21338 
  -21362   -21362   -21362   -21329   -21274   -21320   -21409   -21351 
  -21190   -21143   -21215   -21194   -21042   -20933   -20921   -20967 
  -21048   -21022   -20829   -20695   -20743   -20845   -20911   -20856 
  -20637   -20444   -20479   -20654   -20727   -20609   -20412   -20261 
  -20190   -20184   -20191   -20172   -20098   -19952   -19829   -19792 
  -19747   -19656   -19601   -19594   -19578   -19560   -19548   -19494 
  -19400   -19328   -19292   -19317   -19410   -19438   -19396   -19448 
  -19515   -19482   -19500   -19612   -19674   -19712   -19806   -19842 
  -19833   -19937   -20069   -20128   -20195   -20242   -20249   -20350 
  -20499   -20544   -20573   -20681   -20791   -20878   -20949   -20996 
  -21061   -21135   -21187   -21271   -21395   -21486   -21530   -21567 
  -21616   -21640   -21649   -21720   -21814   -21847   -21881   -21987 
  -22050   -21999   -21983   -22060   -22095   -22055   -22030   -22041 
  -22038   -21992   -21946   -21928   -21917   -21935   -21929   -21835 
  -21761   -21767   -21761   -21724   -21724   -21698   -21559   -21440 
  -21417   -21364   -21279   -21217   -21135   -21031   -20959   -20952 
  -20999   -21006   -20901   -20797   -20826   -20932   -20956   -20829 
  -20680   -20679   -20811   -20917   -20922   -20853   -20754   -20749 
  -20868   -20979   -21008   -20983   -21016   -21121   -21181   -21198 
  -21218   -21199   -21122   -21096   -21187   -21308   -21384   -21412 
  -21429   -21485   -21540   -21525   -21463   -21426   -21439   -21442 
  -21419   -21448   -21502   -21490   -21457   -21462   -21500   -21529 
  -21494   -21444   -21441   -21457   -21490   -21534   -21533   -21487 
  -21433   -21382   -21364   -21393   -21417   -21401   -21365   -21344 
  -21331   -21304   -21275   -21228   -21129   -21021   -21001   -21025 
  -20952   -20831   -20792   -20797   -20773   -20709   -20588   -20472 
  -20418   -20379   -20363   -20385   -20373   -20308   -20267   -20280 
  -20294   -20275   -20211   -20133   -20134   -20220   -20313   -20352 
  -20318   -20264   -20299   -20447   -20572   -20607   -20631   -20677 
  -20744   -20862   -20982   -21013   -21026   -21137   -21271   -21366 
  -21433   -21436   -21415   -21474   -21600   -21713   -21763   -21754 
  -21731   -21709   -21700   -21740   -21808   -21854   -21864   -21834 
  -21760   -21697   -21701   -21702   -21637   -21590   -21561   -21465 
  -21371   -21332   -21239   -21124   -21102   -21112   -21098   -21080 
  -20991   -20801   -20623   -20539   -20550   -20608   -20630   -20607 
  -20574   -20505   -20360   -20189   -20136   -20184   -20173   -20166 
  -20236   -20246   -20180   -20110   -20076   -20185   -20391   -20496 
  -20479   -20468   -20525   -20638   -20797   -20932   -21007   -21156 
  -21342   -21383   -21381   -21427   -21476   -21603   -21802   -21935 
  -21953   -21894   -21805   -21758   -21828   -21962   -22037   -22010 
  -21923   -21893   -21948   -21915   -21812   -21846   -21912   -21890 
  -21927   -21953   -21829   -21708   -21575   -21408   -21492   -21688 
  -21625   -21520   -21627   -21753   -21601   -21162   -20866   -20915 
  -20951   -20832   -20766   -20794   -20821   -20848   -20958   -21086 
  -21017   -20805   -20739   -20818   -20892   -21040   -21180   -20976 
  -20687   -20910   -21375   -21500   -21317   -20961   -20761   -21252 
  -22017   -22150   -21745   -21437   -21542   -21982   -22186   -21806 
  -21453   -21677   -22113   -22341   -22423   -22456   -22430   -22302 
  -22097   -22181   -22629   -22843   -22684   -22545   -22477   -22567 
  -22908   -23006   -22633   -22294   -22269   -22490   -22821   -22911 
  -22751   -22691   -22648   -22537   -22469   -22279   -22073   -22170 
  -22391   -22479   -22419   -22213   -21947   -21823   -21890   -21879 
  -21650   -21508   -21609   -21689   -21483   -21059   -20917   -21288 
  -21547   -21204   -20681   -20524   -20681   -20881   -20981   -20894 
  -20742   -20734   -20714   -20433   -20152   -20254   -20643   -21008 
  -21039   -20687   -20420   -20542   -20794   -20914   -20980   -21147 
  -21312   -21315   -21238   -21242   -21411   -21730   -22039   -22153 
  -21987   -21699   -21721   -22158   -22558   -22657   -22587   -22543 
  -22648   -22685   -22445   -22264   -22431   -22674   -22708   -22586 
  -22405   -22269   -22343   -22475   -22298   -21978   -21965   -22141 
  -22167   -22034   -21865   -21715   -21546   -21346   -21206   -21182 
  -21208   -21210   -21181   -21123   -21036   -20979   -21029   -21143 
  -21225   -21244   -21122   -20933   -20998   -21284   -21391   -21332 
  -21411   -21589   -21699   -21739   -21741   -21734   -21728   -21702 
  -21737   -21879   -22013   -22051   -21995   -21911   -21956   -22153 
  -22253   -22172   -22070   -22014   -22096   -22294   -22360   -22282 
  -22245   -22320   -22418   -22398   -22293   -22188   -22095   -22098 
  -22186   -22254   -22295   -22298   -22230   -22197   -22204   -22107 
  -22030   -22071   -22061   -22047   -22128   -22128   -21939   -21729 
  -21702   -21760   -21726   -21696   -21685   -21564   -21443   -21488 
  -21569   -21600   -21642   -21545   -21315   -21368   -21717   -21840 
  -21677   -21655   -21762   -21748   -21743   -21856   -21892   -21811 
  -21803   -21885   -21973   -22080   -22141   -22146   -22176   -22170 
  -22119   -22174   -22287   -22242   -22122   -22138   -22183   -22061 
  -21852   -21759   -21746   -21626   -21426   -21262   -21095   -20914 
  -20787   -20696   -20576   -20387   -20254   -20271   -20202   -19953 
  -19748   -19610   -19479   -19419   -19418   -19420   -19409   -19349 
  -19245   -19126   -18959   -18828   -18890   -19049   -19114   -19112 
  -19070   -19009   -19100   -19292   -19340   -19329   -19456   -19671 
  -19869   -19993   -19992   -19925   -20016   -20269   -20425   -20488 
  -20606   -20732   -20817   -20891   -21013   -21202   -21364   -21462 
  -21505   -21443   -21444   -21648   -21772   -21695   -21666   -21741 
  -21832   -21905   -21860   -21693   -21573   -21600   -21665   -21617 
  -21522   -21444   -21299   -21160   -21087   -20959   -20787   -20637 
  -20516   -20463   -20393   -20234   -20134   -20101   -19979   -19811 
  -19733   -19731   -19695   -19586   -19477   -19396   -19352   -19324 
  -19211   -19092   -19102   -19175   -19259   -19320   -19288   -19226 
  -19308   -19583   -19808   -19780   -19709   -19832   -20039   -20179 
  -20260   -20352   -20526   -20734   -20888   -21029   -21202   -21319 
  -21375   -21533   -21791   -21992   -22099   -22157   -22195   -22250 
  -22356   -22484   -22559   -22597   -22677   -22793   -22851   -22822 
  -22794   -22836   -22921   -22978   -22942   -22845   -22791   -22799 
  -22786   -22697   -22599   -22597   -22629   -22542   -22372   -22302 
  -22365   -22412   -22299   -22088   -21997   -22030   -22019   -21980 
  -21960   -21871   -21743   -21657   -21530   -21349   -21297   -21370 
  -21333   -21170   -21079   -21095   -21041   -20847   -20678   -20630 
  -20591   -20529   -20538   -20548   -20463   -20361   -20306   -20291 
  -20267   -20248   -20305   -20381   -20418   -20397   -20316   -20321 
  -20451   -20585   -20675   -20721   -20701   -20634   -20602   -20656 
  -20744   -20821   -20876   -20858   -20841   -20924   -20985   -20963 
  -20939   -20921   -20949   -21026   -21014   -20938   -20998   -21174 
  -21181   -20959   -20849   -21015   -21166   -21094   -20910   -20727 
  -20661   -20811   -20954   -20803   -20542   -20458   -20482   -20501 
  -20504   -20415   -20170   -19856   -19710   -19859   -20074   -20065 
  -19913   -19877   -19952   -19969   -19886   -19757   -19710   -19892 
  -20155   -20166   -19923   -19708   -19681   -19841   -20074   -20233 
  -20279   -20220   -20103   -20051   -20160   -20385   -20584   -20664 
  -20649   -20626   -20730   -21013   -21295   -21391   -21364   -21430 
  -21634   -21762   -21734   -21760   -21983   -22268   -22370   -22258 
  -22136   -22219   -22478   -22627   -22579   -22508   -22447   -22375 
  -22334   -22306   -22253   -22220   -22235   -22204   -22092   -21965 
  -21812   -21629   -21475   -21371   -21285   -21140   -20936   -20741 
  -20518   -20324   -20371   -20476   -20239   -19837   -19651   -19612 
  -19582   -19599   -19552   -19331   -19148   -19232   -19432   -19441 
  -19281   -19212   -19278   -19321   -19321   -19359   -19442   -19525 
  -19564   -19549   -19545   -19614   -19709   -19746   -19801   -19943 
  -20051   -20081   -20123   -20166   -20196   -20339   -20569   -20677 
  -20665   -20692   -20808   -20961   -21070   -21086   -21027   -21024 
  -21159   -21348   -21484   -21553   -21599   -21621   -21646   -21707 
  -21719   -21713   -21804   -21966   -22106   -22157   -22181   -22224 
  -22216   -22152   -22165   -22345   -22547   -22555   -22415   -22389 
  -22537   -22615   -22520   -22401   -22370   -22450   -22560   -22532 
  -22422   -22441   -22548   -22575   -22541   -22502   -22415   -22340 
  -22439   -22585   -22500   -22320   -22328   -22388   -22305   -22235 
  -22268   -22271   -22205   -22095   -21953   -21860   -21863   -21863 
  -21731   -21528   -21427   -21424   -21384   -21209   -20951   -20816 
  -20864   -20871   -20702   -20537   -20496   -20428   -20256   -20102 
  -20049   -20057   -20055   -19993   -19863   -19769   -19799   -19816 
  -19747   -19723   -19758   -19817   -19930   -20019   -19990   -19930 
  -19946   -20017   -20092   -20147   -20177   -20236   -20345   -20510 
  -20689   -20774   -20801   -20869   -20968   -21070   -21180   -21310 
  -21417   -21474   -21528   -21602   -21667   -21701   -21726   -21759 
  -21807   -21902   -21991   -21970   -21901   -21905   -21913   -21904 
  -21964   -21998   -21917   -21820   -21784   -21789   -21799   -21799 
  -21747   -21608   -21456   -21391   -21373   -21320   -21237   -21142 
  -21078   -21105   -21137   -21017   -20771   -20611   -20591   -20563 
  -20467   -20353   -20243   -20153   -20111   -20053   -19899   -19746 
  -19663   -19580   -19490   -19440   -19394   -19336   -19305   -19292 
  -19290   -19334   -19384   -19374   -19346   -19386   -19462   -19506 
  -19546   -19641   -19789   -19910   -19939   -19934   -20007   -20176 
  -20333   -20420   -20518   -20686   -20879   -21036   -21120   -21136 
  -21166   -21255   -21386   -21549   -21688   -21759   -21813   -21879 
  -21940   -21986   -22022   -22077   -22162   -22241   -22254   -22223 
  -22247   -22323   -22390   -22439   -22429   -22360   -22334   -22368 
  -22386   -22342   -22290   -22316   -22358   -22294   -22178   -22153 
  -22147   -22034   -21929   -21898   -21825   -21674   -21526   -21429 
  -21348   -21244   -21136   -21060   -21009   -20969   -20915   -20798 
  -20715   -20757   -20791   -20745   -20725   -20736   -20709   -20702 
  -20753   -20768   -20724   -20710   -20792   -20888   -20898   -20896 
  -20955   -21049   -21136   -21229   -21356   -21445   -21440   -21418 
  -21486   -21649   -21772   -21762   -21707   -21750   -21907   -22031 
  -22043   -22033   -22082   -22176   -22229   -22212   -22204   -22230 
  -22252   -22257   -22214   -22157   -22204   -22326   -22345   -22216 
  -22107   -22094   -22076   -22028   -21987   -21933   -21843   -21710 
  -21572   -21469   -21419   -21418   -21365   -21213   -21076   -21006 
  -20924   -20805   -20698   -20614   -20528   -20447   -20382   -20279 
  -20143   -20117   -20198   -20183   -20058   -19967   -19904   -19860 
  -19850   -19799   -19730   -19724   -19746   -19731   -19697   -19706 
