Origin Time       2011/03/11 14:46:00
Lat.              38.103
Long.             142.860
Depth. (km)       24
Mag.              9.0
Station Code      HYG002
Station Lat.      35.6394
Station Long.     134.6280
Station Height(m) 6
Record Time       2011/03/11 14:51:11
Sampling Freq(Hz) 100Hz
Duration Time(s)  60
Dir.              U-D
Scale Factor      3920(gal)/6182761
Max. Acc. (gal)   1.030
Last Correction   2011/03/11 14:50:56
Memo.             
   21420    21537    21539    21536    21598    21603    21556    21588 
   21683    21674    21574    21582    21688    21723    21656    21592 
   21618    21668    21666    21690    21707    21630    21597    21665 
   21656    21561    21536    21585    21597    21567    21557    21533 
   21494    21513    21530    21499    21519    21564    21552    21550 
   21547    21512    21536    21569    21540    21567    21664    21688 
   21655    21711    21798    21741    21656    21744    21851    21827 
   21823    21891    21896    21847    21870    21932    21959    21989 
   21991    21961    22000    22045    22006    22015    22112    22115 
   22041    22095    22205    22188    22125    22147    22192    22187 
   22169    22139    22125    22186    22214    22152    22122    22147 
   22116    22016    22006    22081    22051    21964    21951    21964 
   21951    21917    21889    21900    21941    21935    21882    21912 
   22002    22012    21996    22056    22115    22117    22141    22194 
   22228    22271    22290    22265    22312    22428    22476    22480 
   22526    22573    22583    22597    22643    22695    22737    22773 
   22755    22689    22688    22742    22745    22724    22724    22684 
   22641    22700    22756    22701    22636    22622    22625    22630 
   22609    22559    22534    22564    22576    22494    22404    22391 
   22397    22364    22308    22255    22230    22248    22266    22223 
   22169    22161    22138    22102    22135    22186    22150    22066 
   22020    22017    22025    22027    22011    21972    21934    21947 
   21998    22028    22037    22035    22004    21974    21992    22032 
   22037    22027    22026    21972    21895    21901    21923    21865 
   21836    21871    21855    21816    21845    21877    21849    21803 
   21753    21736    21797    21831    21768    21709    21739    21802 
   21801    21764    21761    21770    21765    21759    21766    21773 
   21751    21729    21727    21712    21708    21749    21796    21803 
   21785    21786    21786    21767    21775    21771    21722    21717 
   21764    21781    21781    21801    21795    21754    21777    21836 
   21820    21779    21777    21792    21785    21763    21796    21826 
   21774    21797    21850    21779    21762    21851    21890    21850 
   21789    21732    21683    21736    21936    22049    21824    21607 
   21778    21994    21979    21909    21976    22028    21902    21913 
   22117    22215    22167    22046    22070    22230    22124    22002 
   22259    22435    22249    22051    22108    22314    22289    22060 
   22063    22223    22193    22030    21976    22101    22153    22028 
   22026    22129    22062    21954    22009    22107    22066    21953 
   21939    21963    21937    21936    21949    21947    21938    21864 
   21780    21820    21897    21863    21774    21748    21751    21711 
   21743    21851    21794    21653    21701    21790    21741    21745 
   21854    21852    21752    21728    21810    21909    21918    21848 
   21853    21944    21949    21848    21871    22045    22057    21886 
   21858    21991    22016    21937    21952    22028    22001    21901 
   21886    21955    21945    21877    21905    21975    21981    21939 
   21907    21958    22034    21999    21954    22020    22093    22102 
   22060    21988    21994    22095    22119    22043    22025    22042 
   22004    22008    22068    22035    21930    21934    22005    21976 
   21948    22011    22001    21941    22017    22109    22049    22035 
   22139    22127    22092    22223    22298    22190    22104    22189 
   22322    22320    22239    22262    22394    22444    22347    22294 
   22346    22372    22355    22367    22394    22341    22258    22313 
   22436    22391    22252    22263    22337    22307    22303    22353 
   22290    22177    22159    22232    22315    22243    22077    22120 
   22264    22188    22054    22100    22157    22114    22091    22092 
   22066    22029    22018    22106    22187    22077    21927    21960 
   22086    22159    22134    22015    21923    21944    22024    22128 
   22156    22018    21927    22039    22145    22112    22063    22067 
   22108    22134    22087    22073    22141    22128    22040    22007 
   22025    22063    22028    21921    21941    21989    21854    21792 
   21897    21866    21756    21780    21797    21744    21755    21767 
   21684    21662    21715    21644    21590    21734    21775    21598 
   21565    21680    21655    21599    21670    21707    21624    21573 
   21647    21692    21611    21606    21713    21687    21588    21613 
   21679    21704    21687    21615    21597    21712    21785    21685 
   21635    21739    21731    21638    21717    21866    21820    21641 
   21612    21750    21858    21833    21686    21563    21589    21713 
   21770    21642    21515    21583    21649    21572    21498    21509 
   21576    21569    21413    21361    21488    21516    21477    21469 
   21332    21306    21570    21595    21331    21355    21586    21649 
   21567    21440    21455    21695    21809    21674    21583    21626 
   21761    21884    21818    21732    21845    21863    21689    21797 
   22035    21811    21525    21684    21804    21601    21557    21673 
   21493    21266    21313    21381    21388    21285    21051    21053 
   21185    21023    20850    20908    20925    20893    20877    20717 
   20518    20593    20835    20796    20525    20438    20475    20453 
   20502    20505    20388    20436    20434    20142    20082    20405 
   20563    20346    20024    19929    20203    20532    20442    20092 
   20018    20223    20442    20523    20301    19976    20058    20507 
   20648    20251    19968    20241    20594    20485    20136    20086 
   20369    20506    20249    19933    20015    20403    20475    20093 
   19856    20014    20235    20294    20200    20034    19912    19947 
   20142    20308    20190    19928    19955    20150    20091    20109 
   20415    20395    20067    20007    20182    20476    20666    20369 
   20085    20281    20497    20577    20603    20413    20321    20544 
   20559    20360    20421    20480    20347    20291    20256    20349 
   20562    20412    20024    19948    20176    20367    20323    20006 
   19750    19960    20225    20210    20257    20172    19865    19963 
   20329    20354    20196    20150    20180    20228    20247    20292 
   20364    20248    20075    20242    20426    20197    20032    20181 
   20252    20114    20011    20230    20454    20245    19932    19925 
   20171    20326    20287    20254    20199    20126    20173    20298 
   20391    20453    20471    20292    20144    20327    20501    20500 
   20454    20293    20197    20273    20352    20374    20268    20202 
   20336    20378    20294    20334    20468    20534    20492    20482 
   20561    20641    20689    20706    20714    20772    20912    21006 
   20951    20955    21122    21189    21101    21095    21207    21301 
   21297    21255    21273    21303    21303    21264    21222    21264 
   21318    21311    21286    21244    21203    21214    21252    21251 
   21220    21182    21187    21245    21244    21218    21215    21168 
   21148    21167    21152    21174    21202    21153    21112    21128 
   21143    21100    21024    21022    21091    21132    21098    21000 
   20969    21062    21114    21088    21084    21079    21101    21180 
   21204    21211    21289    21335    21329    21343    21354    21341 
   21371    21463    21505    21471    21462    21491    21520    21547 
   21549    21530    21574    21665    21653    21582    21615    21663 
   21683    21731    21681    21601    21679    21768    21750    21687 
   21673    21741    21699    21553    21561    21662    21692    21675 
   21598    21505    21525    21582    21527    21423    21399    21450 
   21477    21450    21408    21357    21331    21378    21413    21337 
   21283    21356    21380    21294    21314    21414    21388    21372 
   21453    21442    21376    21360    21349    21405    21507    21483 
   21368    21379    21484    21472    21424    21467    21447    21325 
   21327    21445    21447    21378    21341    21284    21280    21329 
   21279    21206    21194    21169    21143    21120    21068    21031 
   20985    20919    20896    20858    20753    20682    20706    20711 
   20638    20580    20544    20475    20438    20447    20394    20325 
   20303    20240    20202    20292    20373    20353    20305    20250 
   20202    20248    20325    20332    20325    20283    20189    20201 
   20347    20421    20328    20267    20328    20372    20416    20504 
   20453    20188    19986    20186    20722    21015    20696    20175 
   20047    20355    20650    20604    20351    20246    20414    20593 
   20573    20401    20250    20326    20517    20542    20395    20287 
   20422    20633    20611    20376    20205    20354    20611    20601 
   20430    20370    20468    20575    20581    20469    20263    20270 
   20591    20782    20633    20370    20289    20493    20712    20646 
   20421    20388    20541    20626    20632    20592    20559    20644 
   20710    20658    20603    20628    20714    20754    20738    20725 
   20665    20584    20636    20764    20769    20717    20716    20672 
   20627    20672    20715    20750    20836    20869    20760    20637 
   20744    21000    20989    20778    20787    20946    21029    21050 
   20984    20901    20998    21149    21054    20879    20996    21191 
   21081    20878    20879    20971    21016    21008    20920    20821 
   20851    20899    20827    20754    20760    20793    20798    20733 
   20641    20609    20628    20627    20627    20654    20611    20525 
   20558    20634    20557    20446    20480    20536    20532    20531 
   20521    20492    20488    20510    20491    20454    20473    20487 
   20455    20454    20485    20482    20473    20485    20474    20486 
   20565    20603    20562    20560    20681    20787    20745    20722 
   20817    20875    20901    20992    21065    21089    21116    21100 
   21089    21189    21296    21306    21273    21254    21301    21386 
   21367    21274    21281    21376    21414    21332    21224    21252 
   21376    21397    21285    21185    21219    21313    21264    21100 
   21023    21097    21208    21182    21057    20993    20981    20981 
   20986    20933    20878    20909    20919    20855    20821    20840 
   20858    20835    20799    20812    20801    20723    20700    20770 
   20809    20751    20659    20585    20558    20609    20644    20581 
   20523    20514    20490    20488    20512    20457    20328    20291 
   20399    20508    20493    20364    20278    20320    20372    20367 
   20345    20339    20354    20376    20398    20402    20398    20392 
   20376    20382    20389    20370    20385    20426    20436    20407 
   20373    20384    20405    20362    20338    20378    20371    20325 
   20340    20381    20352    20287    20252    20241    20241    20265 
   20322    20342    20326    20350    20371    20379    20372    20297 
   20252    20317    20408    20387    20259    20220    20306    20340 
   20267    20150    20047    20051    20152    20188    20106    20028 
   19994    20004    20096    20125    20036    19990    19998    20044 
   20113    20140    20185    20189    20103    20131    20262    20286 
   20239    20253    20305    20332    20350    20394    20428    20418 
   20400    20426    20493    20562    20590    20530    20458    20498 
   20596    20649    20586    20452    20409    20470    20561    20617 
   20540    20377    20341    20501    20616    20532    20453    20480 
   20504    20518    20534    20534    20583    20659    20657    20634 
   20657    20686    20699    20692    20712    20765    20771    20738 
   20716    20686    20658    20723    20799    20744    20680    20668 
   20617    20606    20656    20668    20674    20712    20699    20589 
   20478    20481    20530    20529    20520    20489    20402    20357 
   20401    20443    20413    20358    20340    20303    20241    20297 
   20436    20447    20369    20357    20403    20441    20398    20318 
   20379    20560    20630    20485    20366    20485    20643    20644 
   20538    20411    20381    20475    20636    20827    20874    20713 
   20577    20631    20817    20970    20982    20876    20783    20901 
   21203    21303    21066    20898    20973    21073    21213    21352 
   21270    21063    20919    20929    21103    21221    21070    20768 
   20733    21090    21320    21027    20498    20315    20605    20975 
   21117    20867    20357    20262    20794    21222    21163    20904 
   20597    20491    20827    21216    21271    21012    20696    20700 
   21031    21416    21583    21240    20684    20663    21234    21748 
   21761    21279    20726    20854    21644    22044    21563    20897 
   20788    21241    21845    22045    21583    21014    20979    21428 
   21769    21582    21286    21334    21478    21436    21229    21111 
   21327    21626    21618    21285    20953    21069    21451    21384 
   20971    20935    21328    21578    21317    20846    20722    21021 
   21345    21356    21150    21064    21122    21064    20907    20946 
   21252    21484    21332    21001    20962    21322    21679    21556 
   21083    20941    21427    22034    22099    21489    20867    21089 
   21884    22253    22071    21754    21463    21482    21927    22241 
   22051    21780    21851    21972    21814    21662    21824    22083 
   22037    21743    21639    21814    21972    21922    21726    21706 
   21936    22046    21953    21824    21614    21559    21995    22402 
   22200    21797    21736    21946    22139    22193    22165    22117 
   22075    22076    22117    22169    22223    22207    22048    21848 
   21863    22127    22292    22147    21897    21840    22055    22239 
   22063    21786    21825    22020    22092    22095    22080    21958 
   21761    21736    21902    21997    21979    21923    21827    21840 
   21997    21996    21760    21629    21754    21914    21969    21937 
   21839    21777    21833    21902    21869    21815    21844    21914 
   21940    21952    21998    21949    21807    21813    22018    22256 
   22315    22090    21846    21900    22123    22264    22226    21993 
   21821    21951    22176    22153    21938    21876    21939    21934 
   21994    22072    21975    21803    21730    21811    21925    21886 
   21746    21703    21853    22053    21960    21630    21542    21723 
   21866    21890    21796    21711    21796    21939    21899    21740 
   21811    22065    22056    21741    21528    21641    21945    22133 
   21980    21747    21777    21889    21887    21929    22050    22035 
   21901    21913    22046    22074    21995    21924    21894    21926 
   21952    21879    21833    21841    21743    21635    21697    21807 
   21737    21563    21504    21516    21515    21533    21492    21392 
   21411    21485    21470    21430    21378    21325    21320    21345 
   21376    21353    21313    21350    21383    21374    21431    21520 
   21521    21465    21433    21449    21517    21575    21602    21579 
   21510    21486    21494    21504    21559    21577    21529    21538 
   21557    21517    21535    21614    21632    21595    21618    21734 
   21797    21744    21708    21742    21793    21826    21862    21926 
   21956    21883    21858    22036    22190    22113    22003    22006 
   22025    22018    22054    22132    22130    22045    22016    22057 
   22111    22132    22001    21825    21893    22074    22056    21916 
   21814    21787    21857    21911    21835    21698    21665    21767 
   21817    21721    21634    21644    21662    21637    21637    21704 
   21764    21748    21685    21700    21802    21850    21863    21905 
   21924    21924    21969    22060    22074    21979    21954    22045 
   22111    22116    22087    22026    22018    22088    22110    22050 
   22009    22026    22054    22068    22025    21915    21854    21868 
   21888    21887    21841    21766    21691    21645    21651    21658 
   21622    21596    21609    21597    21543    21489    21465    21461 
   21431    21409    21430    21460    21470    21417    21308    21218 
   21233    21360    21408    21299    21210    21183    21113    21048 
   21084    21160    21147    21026    20912    20891    20942    21011 
   20984    20840    20797    20915    20971    20889    20754    20663 
   20708    20816    20855    20809    20706    20661    20724    20738 
   20629    20545    20570    20603    20616    20633    20588    20491 
   20427    20404    20429    20516    20587    20553    20451    20418 
   20510    20569    20474    20384    20403    20448    20514    20551 
   20479    20405    20402    20410    20451    20505    20459    20385 
   20389    20407    20437    20518    20561    20537    20537    20541 
   20521    20566    20671    20747    20765    20748    20715    20717 
   20868    21078    21077    20955    20974    21003    20916    20940 
   21128    21231    21184    21163    21162    21062    21008    21110 
   21181    21113    20968    20816    20779    20918    21063    21032 
   20865    20710    20654    20715    20794    20701    20571    20741 
   21015    20945    20636    20444    20495    20772    21082    21098 
   20824    20623    20685    20860    20952    20956    20940    20873 
   20796    20828    20939    21033    21059    20949    20794    20826 
   21028    21153    21049    20847    20804    20948    21077    21059 
   20994    20976    20990    21040    21040    20951    20922    21025 
   21172    21227    21142    21031    21031    21175    21286    21236 
   21181    21207    21221    21208    21222    21282    21327    21291 
   21245    21274    21314    21328    21345    21331    21274    21238 
   21242    21240    21228    21234    21242    21247    21265    21248 
   21167    21121    21166    21222    21262    21320    21341    21314 
   21321    21355    21376    21429    21517    21562    21514    21461 
   21494    21549    21542    21495    21499    21572    21598    21526 
   21492    21581    21643    21583    21538    21567    21575    21533 
   21497    21467    21439    21487    21526    21423    21305    21319 
   21362    21348    21320    21257    21177    21178    21218    21207 
   21170    21157    21134    21066    21008    21002    20998    20969 
   20977    21005    20948    20862    20853    20859    20845    20880 
   20916    20889    20880    20898    20872    20863    20930    20981 
   20944    20902    20910    20902    20880    20893    20911    20935 
   20998    20984    20858    20816    20863    20881    20915    20965 
   20923    20811    20804    20927    21025    21035    20989    20969 
   21031    21100    21117    21106    21087    21111    21207    21246 
   21158    21080    21110    21196    21224    21168    21124    21145 
   21174    21147    21111    21095    21072    21073    21107    21108 
   21070    21046    21035    21027    21032    21031    21060    21139 
   21172    21118    21071    21115    21193    21218    21159    21053 
   21059    21230    21332    21242    21146    21158    21210    21242 
