Origin Time       2011/03/11 14:46:00
Lat.              38.103
Long.             142.860
Depth. (km)       24
Mag.              9.0
Station Code      HYG009
Station Lat.      35.1699
Station Long.     135.1025
Station Height(m) 85
Record Time       2011/03/11 14:51:09
Sampling Freq(Hz) 100Hz
Duration Time(s)  60
Dir.              U-D
Scale Factor      3920(gal)/6182761
Max. Acc. (gal)   1.272
Last Correction   2011/03/11 14:50:54
Memo.             
[...]
   41012    41068    41188    41262    41188    41016    40917    40952 
   41044    41145    41208    41192    41149    41153    41225    41346 
   41420    41374    41284    41227    41205    41225    41291    41373 
   41447    41472    41435    41397    41398    41407    41408    41415 
   41434    41481    41536    41531    41469    41431    41433    41420 
   41359    41301    41314    41387    41451    41438    41353    41291 
   41297    41343    41414    41451    41377    41241    41151    41136 
   41205    41325    41374    41318    41256    41242    41255    41264 
   41251    41221    41188    41161    41175    41234    41268    41230 
   41144    41048    41005    41058    41138    41181    41211    41257 
   41290    41263    41204    41194    41234    41238    41178    41149 
   41203    41287    41358    41408    41400    41294    41167    41119 
   41189    41362    41515    41533    41425    41292    41280    41378 
   41421    41357    41256    41219    41290    41404    41508    41523 
   41403    41262    41182    41174    41224    41255    41290    41386 
   41451    41414    41335    41266    41198    41157    41160    41177 
   41229    41313    41360    41343    41231    41063    40955    40967 
   41083    41180    41150    41062    41012    41024    41067    41034 
   40883    40722    40703    40830    40943    40954    40859    40696 
   40680    40879    40945    40714    40515    40549    40665    40719 
   40665    40558    40501    40510    40571    40635    40632    40612 
   40621    40606    40532    40397    40254    40211    40333    40512 
   40561    40497    40438    40389    40367    40379    40353    40294 
   40268    40297    40396    40511    40550    40496    40387    40332 
   40368    40397    40415    40434    40422    40475    40552    40517 
   40479    40478    40438    40435    40491    40541    40551    40490 
   40438    40467    40466    40383    40342    40404    40454    40426 
   40423    40457    40440    40389    40363    40353    40342    40322 
   40279    40246    40256    40271    40279    40281    40253    40253 
   40298    40322    40324    40299    40262    40233    40182    40125 
   40091    40085    40101    40111    40134    40161    40186    40223 
   40232    40213    40190    40139    40082    40074    40110    40115 
   40053    40002    40022    40098    40163    40131    40035    40014 
   40059    40081    40080    40042    39961    39905    39941    40033 
   40021    39935    39989    40085    40015    39905    39911    40005 
   40090    40074    39980    39910    39917    39982    40032    40029 
   40002    39977    39995    40066    40114    40105    40097    40097 
   40073    40046    40031    40018    40031    40065    40077    40073 
   40066    40035    40000    40024    40067    40043    40005    40007 
   40015    40034    40070    40103    40128    40138    40150    40167 
   40157    40154    40194    40237    40260    40259    40221    40180 
   40185    40224    40251    40243    40221    40230    40276    40325 
   40329    40268    40214    40235    40279    40270    40230    40202 
   40166    40123    40140    40234    40323    40306    40205    40140 
   40133    40138    40158    40182    40177    40131    40095    40126 
   40177    40207    40233    40244    40234    40217    40204    40206 
   40213    40202    40157    40102    40090    40145    40256    40364 
   40387    40330    40254    40197    40168    40141    40097    40088 
   40141    40189    40212    40244    40263    40250    40228    40214 
   40217    40247    40276    40275    40239    40201    40205    40221 
   40215    40219    40249    40288    40298    40288    40302    40297 
   40305    40340    40293    40186    40107    40098    40170    40257 
   40319    40301    40223    40204    40181    40136    40159    40178 
   40185    40200    40174    40146    40090    39997    39977    40011 
   40022    40017    40001    39989    40029    40079    40054    39991 
   39955    39946    39976    40022    40037    40037    40055    40107 
   40152    40139    40085    40019    40003    40080    40169    40201 
   40186    40149    40132    40151    40178    40206    40221    40223 
   40247    40266    40249    40226    40199    40182    40215    40265 
   40290    40282    40256    40254    40270    40276    40286    40282 
   40231    40186    40199    40236    40271    40290    40272    40247 
   40252    40270    40280    40274    40267    40271    40277    40278 
   40270    40246    40249    40288    40307    40266    40180    40139 
   40196    40268    40254    40170    40100    40082    40103    40131 
   40117    40054    40001    39979    39950    39938    39950    39936 
   39901    39861    39838    39871    39912    39907    39866    39799 
   39729    39694    39673    39634    39614    39637    39676    39702 
   39693    39656    39622    39588    39544    39512    39508    39521 
   39542    39546    39487    39396    39349    39360    39406    39461 
   39502    39510    39484    39462    39455    39451    39448    39426 
   39405    39431    39476    39489    39468    39428    39403    39401 
   39406    39438    39496    39499    39419    39372    39423    39473 
   39432    39321    39256    39303    39388    39470    39521    39491 
   39432    39385    39346    39358    39413    39448    39444    39440 
   39449    39448    39445    39446    39415    39364    39349    39392 
   39476    39551    39563    39526    39493    39469    39435    39412 
   39419    39458    39515    39563    39599    39610    39542    39433 
   39392    39434    39521    39594    39606    39567    39496    39470 
   39490    39474    39485    39499    39443    39450    39498    39496 
   39501    39475    39420    39412    39409    39397    39403    39404 
   39400    39413    39424    39395    39345    39314    39320    39366 
   39413    39426    39408    39376    39344    39315    39294    39294 
   39308    39330    39358    39387    39409    39409    39391    39379 
   39371    39362    39367    39371    39356    39344    39349    39387 
   39441    39457    39444    39443    39456    39471    39472    39455 
   39441    39429    39408    39393    39393    39392    39359    39285 
   39319    39503    39511    39374    39443    39465    39296    39271 
   39300    39254    39268    39276    39276    39331    39368    39376 
   39372    39355    39324    39258    39218    39236    39248    39276 
   39324    39343    39344    39336    39304    39264    39238    39234 
   39221    39223    39287    39325    39318    39330    39301    39238 
   39220    39216    39221    39259    39307    39344    39355    39326 
   39269    39222    39210    39227    39259    39305    39358    39390 
   39381    39357    39350    39345    39336    39343    39354    39381 
   39436    39474    39472    39433    39334    39294    39469    39640 
   39508    39303    39320    39413    39477    39549    39521    39419 
   39390    39404    39419    39431    39422    39427    39450    39460 
   39457    39431    39401    39395    39394    39393    39417    39442 
   39449    39450    39432    39401    39387    39378    39367    39383 
   39412    39411    39387    39368    39352    39331    39312    39325 
   39355    39347    39325    39325    39305    39256    39224    39208 
   39190    39188    39194    39173    39133    39116    39111    39078 
   39053    39067    39060    39021    38977    38909    38870    38920 
   38969    38942    38932    38986    38996    38951    38920    38879 
   38825    38799    38829    38914    38972    38970    38925    38818 
   38698    38665    38722    38799    38851    38883    38894    38864 
   38811    38769    38723    38677    38690    38744    38767    38745 
   38716    38687    38637    38593    38592    38598    38598    38625 
   38660    38645    38593    38548    38490    38407    38386    38474 
   38574    38625    38647    38606    38490    38387    38347    38341 
   38381    38468    38520    38511    38485    38461    38431    38391 
   38349    38342    38399    38475    38493    38451    38409    38373 
   38321    38304    38367    38443    38476    38490    38486    38446 
   38401    38390    38417    38473    38528    38544    38518    38493 
   38496    38516    38549    38573    38552    38519    38519    38545 
   38606    38685    38723    38719    38733    38764    38786    38842 
   38927    38964    38959    38957    38936    38931    39004    39082 
   39102    39136    39188    39202    39239    39322    39334    39285 
   39288    39307    39311    39375    39450    39458    39470    39495 
   39476    39472    39512    39541    39579    39608    39565    39561 
   39656    39680    39632    39676    39728    39696    39693    39739 
   39761    39744    39716    39728    39770    39816    39856    39845 
   39806    39811    39831    39856    39928    39972    39953    39951 
   39930    39895    39956    40006    39974    40027    40104    40011 
   39884    39908    39988    40020    40032    40019    39957    39911 
   39938    39998    40039    40059    40053    40016    39981    39948 
   39908    39894    39906    39953    40013    40019    39975    39916 
   39881    39914    39970    40023    40079    40103    40092    40063 
   40032    40028    40023    39977    39921    39887    39906    39961 
   39971    39913    39831    39800    39866    39933    39906    39809 
   39678    39618    39708    39826    39840    39716    39528    39451 
   39529    39657    39702    39589    39406    39297    39329    39469 
   39604    39630    39515    39366    39280    39250    39254    39249 
   39254    39314    39357    39348    39316    39262    39221    39205 
   39184    39158    39151    39178    39212    39216    39195    39184 
   39192    39201    39187    39124    39061    39055    39091    39141 
   39192    39204    39167    39116    39073    39048    39063    39115 
   39180    39229    39229    39171    39104    39085    39123    39183 
   39230    39240    39200    39168    39201    39262    39287    39255 
   39197    39180    39230    39319    39393    39407    39357    39283 
   39237    39254    39328    39409    39434    39401    39353    39327 
   39345    39383    39412    39436    39454    39479    39509    39498 
   39434    39372    39369    39435    39527    39596    39628    39664 
   39707    39702    39650    39596    39575    39625    39736    39829 
   39841    39801    39773    39786    39832    39863    39847    39816 
   39838    39930    40009    40003    39924    39856    39857    39903 
   39972    40025    40004    39949    39945    39992    40047    40060 
   40002    39930    39921    39981    40054    40100    40118    40118 
   40099    40053    39990    39963    40002    40039    40049    40103 
   40178    40183    40099    39965    39869    39870    39935    40024 
   40080    40054    39986    39940    39934    39939    39922    39878 
   39839    39852    39896    39898    39875    39870    39853    39828 
   39809    39786    39788    39822    39838    39831    39823    39819 
   39837    39875    39900    39904    39878    39833    39828    39867 
   39905    39931    39937    39909    39875    39868    39853    39843 
   39903    39972    39966    39918    39868    39844    39869    39915 
   39944    39935    39898    39859    39832    39827    39849    39880 
   39898    39904    39904    39910    39918    39915    39905    39908 
   39924    39930    39955    40005    39970    39857    39820    39871 
   39961    40087    40131    40008    39871    39833    39904    40069 
   40110    39959    39874    39857    39866    40009    40101    39998 
   39911    39956    40044    40077    40056    40015    39991    40102 
   40273    40231    40079    40090    40131    40089    40168    40290 
   40178    40074    40209    40243    40088    40101    40271    40280 
   40185    40221    40241    40135    40122    40165    40251    40455 
   40324    40074    40347    40432    40059    40093    40350    40358 
   40338    40277    40169    40258    40360    40225    40241    40473 
   40424    40211    40205    40284    40300    40335    40416    40433 
   40345    40228    40202    40325    40421    40338    40249    40302 
   40348    40289    40236    40219    40201    40235    40223    40169 
   40267    40318    40190    40147    40175    40121    40120    40254 
   40327    40204    40056    40054    40153    40258    40282    40209 
   40155    40123    40106    40242    40343    40191    40139    40312 
   40344    40250    40269    40335    40353    40344    40311    40324 
   40395    40376    40364    40471    40480    40404    40420    40447 
   40474    40522    40529    40558    40542    40475    40576    40697 
   40635    40586    40625    40641    40613    40631    40732    40763 
   40733    40742    40713    40739    40849    40903    40971    40896 
   40604    40720    41128    41062    40938    41050    40921    40903 
   41116    41056    40968    41059    41109    41125    41119    41122 
   41167    41189    41232    41273    41259    41257    41283    41342 
   41411    41411    41390    41398    41421    41478    41507    41468 
   41474    41536    41531    41524    41570    41583    41615    41643 
   41617    41661    41701    41655    41693    41772    41755    41744 
   41809    41860    41844    41829    41836    41823    41829    41804 
   41741    41846    42025    42051    41997    41770    41494    41696 
   42072    42038    41927    41943    41882    41887    41953    41885 
   41838    41901    41948    41970    41966    41895    41846    41881 
   41909    41900    41893    41881    41867    41883    41904    41898 
   41905    41914    41900    41901    41919    41925    41916    41914 
   41929    41905    41871    41899    41907    41864    41868    41882 
   41853    41852    41874    41858    41849    41878    41873    41843 
   41846    41842    41816    41824    41840    41841    41855    41856 
   41825    41805    41807    41813    41812    41826    41842    41819 
   41795    41806    41794    41766    41771    41759    41728    41716 
   41699    41709    41756    41769    41702    41548    41459    41565 
   41642    41586    41585    41572    41499    41514    41508    41426 
   41412    41443    41454    41438    41415    41429    41441    41400 
   41377    41402    41414    41404    41403    41392    41369    41360 
   41362    41373    41400    41409    41390    41376    41373    41381 
   41416    41447    41434    41417    41432    41443    41447    41469 
   41477    41476    41501    41527    41536    41546    41558    41552 
   41535    41544    41598    41643    41631    41626    41671    41704 
   41704    41693    41654    41619    41647    41676    41676    41712 
   41727    41685    41692    41719    41678    41637    41628    41608 
   41615    41686    41756    41760    41705    41628    41554    41540 
   41617    41670    41627    41599    41590    41538    41548    41603 
   41542    41453    41461    41450    41403    41439    41492    41455 
   41403    41370    41301    41261    41294    41281    41208    41187 
   41187    41139    41131    41182    41159    41046    40960    40946 
   41003    41085    41062    40973    40958    40937    40876    40880 
   40881    40847    40887    40925    40844    40797    40861    40822 
   40723    40824    40940    40859    40777    40739    40670    40686 
   40796    40882    40892    40836    40766    40717    40716    40776 
   40860    40916    40879    40752    40687    40754    40863    40960 
   41010    40936    40806    40778    40837    40915    41014    41065 
   40997    40914    40901    40914    40967    41065    41115    41099 
   41046    40990    41017    41125    41212    41234    41193    41118 
   41079    41124    41220    41283    41311    41320    41282    41266 
   41324    41379    41397    41381    41344    41351    41418    41487 
   41524    41530    41485    41420    41408    41449    41489    41510 
   41525    41541    41500    41413    41425    41504    41534    41571 
   41541    41397    41380    41517    41519    41306    41242    41505 
   41631    41421    41304    41396    41422    41379    41380    41364 
   41318    41328    41369    41361    41321    41301    41303    41306 
   41294    41278    41279    41247    41204    41213    41215    41197 
   41194    41159    41100    41085    41081    41059    41044    41014 
   40962    40935    40929    40910    40875    40828    40792    40777 
   40761    40745    40735    40709    40677    40664    40643    40605 
   40587    40587    40568    40543    40519    40458    40411    40443 
   40491    40494    40414    40252    40189    40290    40335    40289 
   40305    40313    40232    40175    40176    40184    40150    40063 
   40002    39980    39985    40056    40115    40089    40018    39927 
   39851    39837    39853    39857    39856    39841    39803    39789 
   39827    39864    39839    39782    39743    39726    39735    39778 
   39820    39816    39779    39746    39727    39731    39770    39811 
   39822    39809    39793    39793    39816    39849    39858    39849 
   39863    39891    39904    39922    39950    39958    39956    39956 
   39926    39892    39926    40016    40084    40082    40060    40072 
   40090    40118    40154    40120    40041    40016    40013    40010 
   40072    40180    40240    40213    40136    40067    40020    40035 
   40129    40218    40229    40149    40037    40010    40078    40172 
   40243    40227    40126    40042    40057    40146    40224    40226 
   40153    40074    40050    40081    40142    40176    40150    40108 
   40078    40059    40057    40070    40074    40059    40045    40045 
   40049    40053    40062    40064    40045    40014    39996    39999 
   40008    40017    40013    39988    39956    39942    39965    40018 
   40027    39962    39905    39911    39945    39936    39858    39802 
   39862    39949    39936    39877    39838    39809    39799    39799 
   39798    39798    39791    39790    39790    39776    39754    39731 
   39703    39682    39681    39683    39678    39678    39671    39655 
   39636    39610    39584    39558    39546    39554    39553    39547 
   39541    39516    39479    39441    39420    39425    39438    39440 
   39430    39401    39372    39375    39394    39393    39375    39359 
   39339    39320    39321    39351    39402    39434    39420    39382 
   39336    39312    39360    39432    39444    39425    39431    39430 
   39403    39386    39413    39444    39432    39424    39440    39420 
   39395    39421    39454    39453    39439    39423    39399    39405 
   39449    39475    39469    39454    39438    39438    39450    39464 
   39478    39479    39472    39475    39472    39467    39476    39488 
   39497    39507    39518    39526    39522    39511    39504    39500 
   39502    39514    39532    39542    39535    39523    39522    39521 
   39527    39544    39539    39526    39544    39566    39573    39587 
   39601    39600    39585    39571    39562    39553    39570    39592 
   39595    39613    39611    39574    39556    39549    39542    39555 
   39563    39557    39549    39546    39550    39538    39517    39519 
   39535    39542    39543    39546    39544    39544    39553    39566 
