Origin Time       2011/03/11 14:46:00
Lat.              38.103
Long.             142.860
Depth. (km)       24
Mag.              9.0
Station Code      HYG022
Station Lat.      34.7463
Station Long.     135.3501
Station Height(m) 8
Record Time       2011/03/11 14:49:40
Sampling Freq(Hz) 100Hz
Duration Time(s)  233
Dir.              U-D
Scale Factor      3920(gal)/6182761
Max. Acc. (gal)   2.409
Last Correction   2011/03/11 14:49:25
Memo.             
[...]
   25709    25756    25817    25870    25922    25990    26086    26171 
   26207    26260    26332    26384    26454    26543    26619    26664 
   26690    26714    26735    26775    26841    26903    26970    27027 
   27061    27095    27130    27171    27207    27233    27247    27250 
   27262    27267    27283    27314    27326    27331    27330    27327 
   27321    27300    27294    27301    27312    27321    27315    27312 
   27312    27289    27255    27234    27212    27171    27162    27185 
   27178    27151    27144    27143    27121    27083    27041    26988 
   26927    26897    26906    26903    26876    26854    26830    26807 
   26799    26786    26754    26700    26649    26619    26598    26568 
   26545    26563    26585    26579    26573    26575    26561    26521 
   26484    26481    26486    26473    26464    26485    26506    26477 
   26418    26378    26358    26335    26322    26350    26379    26370 
   26359    26370    26372    26340    26294    26278    26269    26234 
   26201    26186    26183    26190    26223    26275    26295    26270 
   26240    26225    26194    26124    26045    25990    25971    25970 
   25964    25969    25989    25989    25959    25933    25932    25912 
   25873    25882    25904    25901    25904    25913    25908    25906 
   25932    25963    25984    26004    26024    26057    26107    26171 
   26232    26286    26333    26374    26419    26456    26478    26506 
   26559    26628    26699    26765    26813    26856    26919    26978 
   27004    27020    27059    27105    27145    27212    27282    27302 
   27296    27313    27326    27306    27287    27281    27265    27266 
   27286    27288    27273    27254    27227    27211    27214    27203 
   27160    27103    27071    27039    26984    26927    26876    26821 
   26770    26737    26706    26668    26628    26571    26520    26494 
   26442    26358    26313    26301    26256    26208    26180    26127 
   26069    26016    25961    25915    25876    25831    25777    25735 
   25729    25740    25751    25750    25743    25743    25727    25697 
   25686    25696    25711    25720    25746    25773    25768    25769 
   25777    25758    25724    25726    25765    25754    25716    25705 
   25673    25619    25578    25553    25534    25534    25542    25533 
   25539    25563    25582    25606    25623    25636    25671    25717 
   25743    25742    25754    25781    25780    25776    25791    25808 
   25842    25876    25874    25868    25875    25878    25866    25848 
   25845    25837    25812    25786    25765    25738    25695    25659 
   25632    25615    25623    25624    25610    25591    25566    25547 
   25531    25546    25588    25633    25681    25714    25737    25762 
   25778    25804    25835    25847    25857    25882    25906    25933 
   25966    25983    25983    25990    26014    26062    26108    26116 
   26134    26194    26239    26263    26304    26360    26399    26414 
   26425    26462    26521    26568    26595    26628    26654    26658 
   26657    26658    26657    26647    26635    26638    26652    26665 
   26666    26674    26685    26671    26648    26617    26590    26575 
   26564    26564    26550    26509    26444    26378    26328    26262 
   26191    26141    26110    26090    26062    26033    25993    25959 
   25973    25993    25995    25994    25987    25984    25995    26013 
   26005    25982    25985    26014    26054    26110    26166    26203 
   26238    26275    26282    26289    26333    26379    26410    26434 
   26457    26496    26536    26559    26564    26580    26616    26630 
   26641    26679    26703    26695    26692    26713    26728    26739 
   26751    26761    26784    26789    26783    26794    26793    26788 
   26799    26803    26795    26796    26799    26786    26784    26797 
   26793    26779    26765    26739    26707    26676    26639    26613 
   26599    26555    26505    26502    26511    26476    26441    26433 
   26397    26361    26381    26410    26413    26411    26415    26419 
   26417    26399    26360    26331    26331    26340    26350    26356 
   26343    26320    26303    26299    26292    26248    26187    26163 
   26177    26178    26153    26126    26077    26023    26022    26021 
   25990    25975    25964    25953    25957    25974    25994    26006 
   26025    26041    26035    26036    26057    26080    26103    26125 
   26126    26132    26171    26205    26227    26264    26295    26296 
   26265    26214    26159    26109    26070    26047    26024    25986 
   25949    25922    25894    25845    25785    25743    25695    25626 
   25568    25531    25495    25470    25451    25405    25351    25321 
   25301    25285    25264    25250    25256    25255    25236    25214 
   25198    25211    25262    25319    25356    25374    25383    25407 
   25475    25537    25550    25569    25609    25633    25659    25711 
   25764    25816    25891    25968    26016    26060    26115    26177 
   26252    26337    26395    26427    26498    26601    26679    26757 
   26834    26872    26908    26961    27003    27046    27096    27149 
   27209    27262    27300    27336    27371    27406    27453    27494 
   27513    27520    27519    27531    27554    27561    27561    27562 
   27546    27528    27522    27514    27504    27504    27514    27528 
   27530    27516    27514    27521    27507    27467    27407    27368 
   27395    27424    27419    27424    27434    27433    27436    27444 
   27448    27454    27479    27515    27520    27510    27533    27542 
   27525    27549    27587    27583    27564    27562    27590    27625 
   27625    27608    27608    27619    27625    27625    27613    27608 
   27617    27622    27647    27688    27703    27694    27696    27716 
   27740    27768    27806    27825    27811    27794    27806    27829 
   27852    27890    27931    27959    27987    28017    28068    28139 
   28187    28227    28285    28332    28376    28435    28491    28544 
   28593    28627    28651    28687    28737    28773    28803    28856 
   28910    28942    28955    28936    28901    28879    28861    28835 
   28809    28795    28779    28753    28730    28700    28645    28567 
   28477    28402    28355    28314    28275    28228    28161    28109 
   28076    28021    27955    27897    27829    27759    27716    27692 
   27672    27652    27625    27593    27561    27519    27461    27397 
   27352    27339    27332    27321    27305    27277    27264    27283 
   27302    27315    27343    27351    27327    27331    27369    27406 
   27442    27484    27528    27559    27572    27581    27590    27590 
   27586    27591    27606    27638    27691    27740    27777    27805 
   27821    27851    27911    27960    27983    28004    28031    28056 
   28085    28124    28168    28224    28290    28336    28367    28420 
   28477    28506    28537    28572    28582    28584    28595    28612 
   28642    28679    28711    28726    28723    28718    28723    28731 
   28749    28775    28790    28801    28824    28851    28868    28881 
   28894    28908    28930    28951    28967    28988    29002    29001 
   29008    29023    29028    29034    29056    29082    29099    29119 
   29146    29163    29161    29160    29162    29165    29173    29174 
   29174    29187    29195    29192    29183    29150    29106    29087 
   29087    29087    29076    29060    29042    29019    28995    28970 
   28940    28905    28856    28797    28752    28715    28659    28584 
   28508    28431    28360    28301    28230    28134    28029    27930 
   27835    27741    27654    27574    27501    27427    27338    27241 
   27145    27035    26920    26822    26725    26614    26516    26427 
   26313    26194    26083    25966    25853    25751    25655    25573 
   25484    25374    25274    25177    25068    24959    24860    24778 
   24698    24609    24532    24461    24378    24301    24247    24195 
   24129    24086    24072    24040    23997    23983    23988    23986 
   23978    23977    23997    24021    24029    24033    24052    24081 
   24111    24153    24209    24283    24366    24417    24433    24465 
   24528    24594    24645    24681    24731    24811    24870    24906 
   24969    25043    25094    25139    25184    25216    25237    25252 
   25265    25294    25348    25401    25429    25443    25447    25446 
   25445    25448    25474    25514    25527    25516    25508    25528 
   25564    25576    25591    25620    25624    25622    25624    25593 
   25567    25578    25599    25609    25610    25593    25553    25508 
   25494    25495    25468    25444    25441    25438    25439    25435 
   25416    25396    25382    25372    25363    25350    25347    25363 
   25365    25349    25349    25350    25331    25302    25287    25305 
   25338    25347    25340    25349    25384    25423    25440    25446 
   25458    25463    25469    25487    25518    25553    25565    25576 
   25620    25663    25684    25719    25760    25785    25824    25888 
   25957    26011    26055    26123    26197    26238    26277    26335 
   26382    26414    26452    26506    26561    26602    26641    26676 
   26696    26730    26786    26833    26860    26882    26916    26958 
   26987    27009    27030    27042    27055    27084    27107    27101 
   27103    27132    27143    27149    27166    27153    27113    27089 
   27074    27054    27030    26994    26949    26911    26868    26811 
   26755    26701    26638    26574    26517    26456    26398    26354 
   26312    26260    26206    26150    26098    26059    26024    25977 
   25926    25881    25841    25813    25796    25764    25710    25683 
   25682    25647    25612    25613    25615    25617    25624    25625 
   25632    25638    25642    25677    25714    25720    25739    25768 
   25778    25815    25888    25950    26000    26053    26101    26141 
   26169    26185    26217    26262    26275    26296    26363    26419 
   26437    26452    26477    26512    26547    26576    26603    26639 
   26675    26693    26710    26754    26808    26827    26822    26834 
   26851    26842    26813    26791    26794    26818    26842    26850 
   26860    26882    26896    26902    26910    26902    26887    26897 
   26913    26902    26878    26863    26857    26864    26871    26858 
   26832    26796    26761    26755    26755    26720    26691    26700 
   26692    26636    26575    26529    26476    26431    26418    26409 
   26384    26365    26350    26324    26289    26246    26194    26149 
   26110    26065    26028    25976    25901    25856    25828    25769 
   25707    25658    25607    25572    25532    25459    25384    25337 
   25301    25254    25181    25099    25042    25004    24960    24908 
   24852    24796    24742    24685    24635    24597    24557    24522 
   24503    24481    24436    24389    24356    24323    24294    24282 
   24280    24273    24250    24226    24226    24233    24203    24153 
   24129    24105    24062    24047    24051    24021    23980    23968 
   23979    23981    23955    23926    23927    23912    23864    23845 
   23841    23817    23808    23803    23775    23764    23779    23800 
   23812    23800    23786    23792    23804    23816    23829    23838 
   23850    23870    23896    23922    23935    23939    23941    23942 
   23966    24015    24044    24048    24059    24073    24086    24099 
   24101    24120    24163    24192    24210    24243    24275    24286 
   24292    24301    24308    24316    24335    24359    24371    24385 
   24422    24464    24498    24526    24549    24570    24586    24601 
   24625    24659    24702    24755    24804    24833    24851    24866 
   24881    24906    24948    24995    25018    25032    25065    25102 
   25137    25204    25281    25328    25362    25399    25427    25448 
   25474    25520    25589    25667    25741    25813    25867    25906 
   25961    26032    26104    26185    26255    26295    26329    26380 
   26448    26516    26568    26618    26692    26772    26841    26921 
   27003    27065    27115    27165    27220    27274    27315    27358 
   27404    27437    27469    27510    27549    27586    27617    27638 
   27655    27658    27670    27707    27733    27752    27783    27789 
   27769    27770    27791    27807    27810    27802    27806    27836 
   27870    27885    27857    27800    27767    27762    27746    27733 
   27732    27711    27670    27628    27573    27507    27456    27428 
   27408    27389    27361    27321    27282    27239    27180    27125 
   27071    26983    26896    26839    26779    26722    26690    26653 
   26597    26536    26456    26363    26289    26236    26186    26138 
   26088    26021    25948    25881    25817    25758    25713    25676 
   25638    25586    25530    25482    25427    25357    25296    25251 
   25197    25128    25070    25025    24969    24897    24835    24783 
   24734    24688    24645    24598    24551    24520    24494    24453 
   24405    24358    24311    24267    24218    24160    24097    24040 
   23995    23944    23871    23802    23745    23693    23642    23580 
   23516    23467    23422    23377    23336    23289    23230    23179 
   23139    23094    23047    23007    22962    22903    22847    22806 
   22770    22728    22683    22628    22577    22538    22498    22465 
   22436    22389    22331    22297    22285    22263    22235    22212 
   22186    22171    22182    22192    22176    22141    22124    22143 
   22159    22152    22153    22162    22169    22193    22232    22253 
   22261    22288    22342    22390    22403    22401    22428    22486 
   22536    22592    22656    22692    22715    22752    22795    22845 
   22897    22962    23030    23068    23113    23179    23224    23265 
   23332    23399    23454    23520    23587    23632    23667    23708 
   23757    23800    23829    23855    23883    23922    23983    24053 
   24110    24141    24174    24244    24328    24395    24445    24480 
   24517    24567    24634    24720    24789    24840    24911    24992 
   25059    25126    25198    25267    25332    25395    25464    25540 
   25610    25669    25731    25800    25870    25937    25992    26047 
   26111    26164    26212    26274    26322    26339    26357    26400 
   26460    26514    26546    26574    26603    26610    26618    26648 
   26668    26666    26663    26654    26635    26625    26637    26652 
   26642    26605    26583    26594    26597    26571    26540    26527 
   26520    26492    26445    26400    26368    26347    26338    26327 
   26284    26235    26223    26241    26252    26225    26183    26161 
   26132    26089    26073    26079    26073    26048    26021    26023 
   26042    26042    26018    25987    25965    25954    25942    25924 
   25901    25876    25860    25839    25797    25773    25785    25788 
   25784    25768    25707    25655    25662    25651    25603    25578 
   25563    25541    25527    25496    25449    25407    25353    25295 
   25266    25251    25217    25191    25179    25146    25123    25123 
   25087    25031    25005    24989    24985    24997    24983    24934 
   24909    24922    24928    24911    24856    24770    24714    24690 
   24655    24636    24643    24616    24561    24513    24449    24388 
   24356    24297    24213    24166    24145    24129    24123    24097 
   24028    23954    23912    23876    23818    23759    23725    23697 
   23651    23592    23538    23489    23456    23454    23431    23341 
   23263    23252    23233    23189    23179    23180    23157    23125 
   23095    23076    23073    23078    23091    23101    23101    23120 
   23158    23175    23181    23207    23248    23298    23352    23397 
   23433    23489    23560    23613    23664    23733    23792    23849 
   23957    24069    24106    24123    24193    24280    24358    24447 
   24536    24617    24692    24750    24811    24893    24975    25040 
   25096    25145    25208    25286    25345    25408    25490    25547 
   25583    25636    25682    25702    25726    25765    25791    25803 
   25832    25885    25926    25923    25881    25857    25874    25883 
   25874    25879    25875    25846    25829    25819    25800    25797 
   25795    25761    25721    25697    25667    25635    25616    25600 
   25575    25540    25499    25460    25441    25440    25424    25404 
   25405    25393    25354    25330    25320    25300    25300    25320 
   25303    25269    25271    25286    25285    25282    25277    25268 
   25253    25228    25211    25219    25225    25204    25186    25178 
   25167    25172    25196    25210    25222    25259    25292    25283 
   25270    25299    25339    25361    25395    25438    25464    25505 
   25571    25599    25586    25613    25681    25718    25725    25745 
   25759    25762    25775    25800    25833    25863    25880    25897 
   25928    25964    25985    25990    25988    25974    25962    25970 
   25982    25987    25992    25990    25983    25987    25996    25990 
   25976    25963    25935    25910    25928    25936    25877    25813 
   25797    25798    25800    25802    25777    25743    25735    25729 
   25695    25658    25644    25629    25587    25562    25550    25506 
   25462    25446    25443    25452    25456    25436    25409    25378 
   25338    25322    25329    25339    25366    25382    25359    25356 
   25408    25435    25385    25333    25351    25392    25400    25395 
   25380    25368    25395    25426    25430    25430    25425    25414 
   25401    25371    25339    25340    25364    25384    25391    25384 
   25366    25361    25378    25402    25419    25436    25460    25488 
   25507    25523    25550    25592    25651    25699    25704    25703 
   25735    25777    25809    25821    25820    25831    25851    25866 
   25892    25914    25922    25948    25984    26011    26038    26053 
   26056    26078    26109    26129    26153    26183    26203    26214 
   26237    26276    26323    26370    26397    26401    26401    26432 
   26513    26579    26565    26537    26583    26646    26661    26674 
   26703    26712    26723    26775    26836    26876    26905    26931 
   26955    27003    27067    27111    27149    27188    27213    27248 
   27308    27360    27388    27401    27417    27472    27563    27632 
   27661    27665    27651    27664    27738    27815    27832    27829 
   27856    27884    27892    27897    27900    27906    27941    27985 
   28001    27989    27954    27897    27869    27900    27937    27943 
   27924    27883    27831    27774    27723    27706    27707    27686 
   27640    27594    27540    27476    27437    27424    27431    27469 
   27448    27290    27109    27060    27101    27093    27037    26992 
   26941    26869    26800    26744    26686    26628    26578    26523 
   26475    26461    26459    26421    26346    26271    26214    26179 
   26161    26148    26128    26089    26033    25986    25956    25919 
   25873    25838    25812    25790    25805    25847    25813    25687 
   25615    25663    25732    25724    25655    25595    25565    25549 
   25547    25553    25548    25531    25492    25442    25421    25406 
   25375    25357    25339    25298    25272    25258    25229    25209 
