Origin Time       2011/03/11 14:46:00
Lat.              38.103
Long.             142.860
Depth. (km)       24
Mag.              9.0
Station Code      HYG009
Station Lat.      35.1699
Station Long.     135.1025
Station Height(m) 85
Record Time       2011/03/11 14:51:09
Sampling Freq(Hz) 100Hz
Duration Time(s)  60
Dir.              N-S
Scale Factor      3920(gal)/6182761
Max. Acc. (gal)   2.176
Last Correction   2011/03/11 14:50:54
Memo.             
[...]
  -56103   -56085   -56019   -55917   -55846   -55806   -55747   -55678 
  -55615   -55542   -55469   -55409   -55349   -55293   -55242   -55198 
  -55156   -55119   -55091   -55067   -55058   -55059   -55041   -55028 
  -55037   -55041   -55053   -55083   -55116   -55156   -55189   -55211 
  -55259   -55321   -55363   -55423   -55523   -55603   -55652   -55728 
  -55842   -55930   -55970   -56019   -56090   -56147   -56189   -56207 
  -56202   -56200   -56201   -56188   -56152   -56097   -56049   -56015 
  -55983   -55940   -55877   -55810   -55767   -55729   -55661   -55577 
  -55505   -55463   -55423   -55344   -55267   -55230   -55195   -55168 
  -55185   -55196   -55154   -55123   -55158   -55219   -55262   -55295 
  -55334   -55373   -55413   -55482   -55566   -55640   -55689   -55693 
  -55698   -55775   -55869   -55873   -55820   -55813   -55825   -55797 
  -55786   -55803   -55791   -55760   -55735   -55746   -55790   -55795 
  -55781   -55788   -55758   -55712   -55710   -55708   -55679   -55629 
  -55548   -55481   -55469   -55470   -55437   -55399   -55367   -55347 
  -55365   -55381   -55367   -55385   -55427   -55446   -55454   -55460 
  -55465   -55486   -55513   -55517   -55509   -55507   -55490   -55470 
  -55453   -55397   -55346   -55329   -55322   -55350   -55377   -55366 
  -55400   -55467   -55489   -55482   -55475   -55487   -55521   -55513 
  -55454   -55417   -55409   -55396   -55372   -55326   -55276   -55262 
  -55276   -55277   -55261   -55266   -55299   -55345   -55417   -55472 
  -55502   -55583   -55675   -55731   -55788   -55812   -55811   -55851 
  -55863   -55813   -55797   -55794   -55755   -55755   -55784   -55782 
  -55821   -55896   -55931   -55989   -56063   -56087   -56138   -56203 
  -56211   -56227   -56248   -56224   -56217   -56218   -56182   -56163 
  -56146   -56094   -56093   -56127   -56089   -56046   -56050   -56034 
  -55988   -55935   -55898   -55882   -55835   -55774   -55738   -55695 
  -55643   -55592   -55521   -55468   -55445   -55418   -55398   -55392 
  -55406   -55445   -55484   -55553   -55646   -55716   -55821   -55941 
  -56000   -56076   -56156   -56168   -56192   -56204   -56153   -56139 
  -56119   -56055   -56057   -56044   -55966   -55935   -55881   -55784 
  -55740   -55687   -55645   -55660   -55620   -55560   -55533   -55478 
  -55426   -55331   -55163   -55061   -54992   -54872   -54780   -54689 
  -54584   -54548   -54500   -54428   -54425   -54405   -54381   -54435 
  -54482   -54539   -54664   -54755   -54823   -54913   -54980   -55075 
  -55188   -55249   -55321   -55385   -55401   -55433   -55434   -55405 
  -55428   -55437   -55436   -55482   -55498   -55490   -55516   -55536 
  -55555   -55568   -55544   -55551   -55580   -55553   -55508   -55438 
  -55326   -55239   -55143   -55024   -54960   -54916   -54876   -54885 
  -54877   -54857   -54896   -54927   -54952   -55025   -55087   -55157 
  -55241   -55268   -55293   -55356   -55401   -55418   -55408   -55394 
  -55422   -55468   -55504   -55539   -55587   -55655   -55742   -55824 
  -55900   -55981   -56048   -56113   -56174   -56184   -56145   -56068 
  -55952   -55812   -55649   -55466   -55274   -55096   -54958   -54814 
  -54653   -54545   -54473   -54408   -54380   -54381   -54391   -54442 
  -54521   -54577   -54618   -54685   -54758   -54789   -54797   -54827 
  -54884   -54953   -55001   -55003   -55005   -55052   -55130   -55208 
  -55272   -55346   -55439   -55532   -55616   -55678   -55731   -55778 
  -55806   -55816   -55787   -55717   -55642   -55582   -55521   -55419 
  -55290   -55178   -55082   -55000   -54927   -54854   -54786   -54733 
  -54692   -54684   -54703   -54709   -54701   -54689   -54678   -54695 
  -54704   -54671   -54641   -54618   -54595   -54601   -54606   -54599 
  -54618   -54649   -54702   -54814   -54923   -54979   -55040   -55122 
  -55222   -55353   -55447   -55496   -55557   -55612   -55652   -55691 
  -55724   -55758   -55811   -55860   -55889   -55932   -55993   -56052 
  -56105   -56140   -56162   -56177   -56188   -56192   -56174   -56147 
  -56107   -56061   -56037   -55988   -55888   -55811   -55757   -55690 
  -55660   -55657   -55626   -55601   -55624   -55661   -55677   -55703 
  -55761   -55809   -55824   -55821   -55818   -55820   -55787   -55727 
  -55657   -55559   -55462   -55356   -55217   -55112   -55037   -54931 
  -54833   -54765   -54702   -54658   -54664   -54685   -54687   -54698 
  -54740   -54804   -54854   -54867   -54880   -54910   -54935   -54971 
  -55004   -55028   -55096   -55209   -55310   -55390   -55479   -55588 
  -55691   -55785   -55890   -55987   -56051   -56092   -56151   -56246 
  -56281   -56202   -56142   -56136   -56082   -56007   -55973   -55900 
  -55743   -55615   -55559   -55492   -55425   -55393   -55341   -55277 
  -55253   -55269   -55288   -55266   -55245   -55274   -55288   -55262 
  -55251   -55247   -55249   -55281   -55302   -55308   -55337   -55368 
  -55392   -55420   -55440   -55473   -55521   -55574   -55647   -55706 
  -55738   -55800   -55881   -55950   -56019   -56062   -56085   -56144 
  -56207   -56246   -56290   -56324   -56336   -56347   -56339   -56317 
  -56307   -56276   -56238   -56227   -56190   -56120   -56052   -55957 
  -55852   -55763   -55682   -55618   -55547   -55456   -55395   -55364 
  -55325   -55279   -55246   -55226   -55222   -55244   -55269   -55282 
  -55308   -55366   -55443   -55523   -55608   -55692   -55768   -55843 
  -55928   -55997   -56042   -56102   -56153   -56167   -56182   -56188 
  -56181   -56186   -56161   -56095   -56039   -55978   -55890   -55795 
  -55700   -55604   -55506   -55417   -55325   -55226   -55166   -55110 
  -55011   -54942   -54906   -54863   -54855   -54866   -54848   -54836 
  -54860   -54914   -54971   -55003   -55054   -55140   -55232   -55344 
  -55467   -55581   -55716   -55891   -56083   -56246   -56391   -56553 
  -56692   -56811   -56948   -57053   -57133   -57241   -57322   -57367 
  -57421   -57447   -57463   -57498   -57500   -57512   -57546   -57519 
  -57471   -57449   -57418   -57390   -57363   -57317   -57265   -57198 
  -57107   -57003   -56899   -56798   -56686   -56567   -56446   -56330 
  -56248   -56210   -56186   -56172   -56186   -56196   -56201   -56248 
  -56335   -56450   -56568   -56675   -56823   -56998   -57166   -57345 
  -57534   -57731   -57955   -58177   -58364   -58543   -58707   -58847 
  -58992   -59108   -59179   -59249   -59331   -59387   -59402   -59407 
  -59378   -59288   -59161   -58993   -58789   -58611   -58459   -58266 
  -58030   -57804   -57630   -57510   -57397   -57267   -57175   -57153 
  -57152   -57167   -57215   -57268   -57326   -57406   -57526   -57663 
  -57766   -57880   -58004   -58087   -58194   -58323   -58377   -58406 
  -58476   -58546   -58623   -58703   -58719   -58677   -58646   -58656 
  -58669   -58642   -58591   -58504   -58369   -58222   -58052   -57857 
  -57670   -57466   -57248   -57062   -56886   -56694   -56504   -56333 
  -56231   -56198   -56153   -56081   -56027   -56032   -56094   -56155 
  -56208   -56278   -56343   -56402   -56502   -56645   -56756   -56803 
  -56853   -56948   -57055   -57147   -57267   -57429   -57560   -57657 
  -57796   -57968   -58125   -58270   -58364   -58378   -58375   -58380 
  -58344   -58229   -58069   -57924   -57801   -57640   -57424   -57219 
  -57071   -56960   -56859   -56735   -56601   -56509   -56471   -56472 
  -56475   -56449   -56438   -56463   -56509   -56612   -56744   -56821 
  -56844   -56887   -56990   -57142   -57325   -57500   -57624   -57742 
  -57915   -58128   -58347   -58540   -58699   -58861   -58994   -59030 
  -59032   -59057   -59037   -58948   -58821   -58680   -58530   -58349 
  -58157   -57973   -57732   -57440   -57195   -57020   -56870   -56702 
  -56505   -56314   -56137   -55960   -55801   -55668   -55566   -55486 
  -55404   -55345   -55309   -55261   -55211   -55174   -55165   -55187 
  -55240   -55332   -55412   -55487   -55620   -55794   -55969   -56107 
  -56192   -56294   -56450   -56604   -56723   -56821   -56912   -57001 
  -57046   -57029   -56993   -56974   -56985   -56998   -56987   -56956 
  -56906   -56865   -56860   -56857   -56834   -56820   -56835   -56850 
  -56870   -56916   -56950   -56962   -56968   -56937   -56885   -56880 
  -56927   -56998   -57068   -57132   -57232   -57363   -57470   -57584 
  -57731   -57892   -58076   -58255   -58388   -58487   -58566   -58635 
  -58715   -58783   -58777   -58747   -58774   -58791   -58750   -58705 
  -58657   -58567   -58471   -58444   -58451   -58411   -58335   -58235 
  -58087   -57953   -57878   -57788   -57671   -57542   -57390   -57272 
  -57191   -57102   -56997   -56894   -56827   -56803   -56804   -56813 
  -56833   -56864   -56866   -56843   -56846   -56890   -56946   -56991 
  -57013   -57014   -57013   -56999   -56970   -56925   -56874   -56843 
  -56814   -56781   -56767   -56751   -56740   -56775   -56847   -56908 
  -56938   -56946   -56959   -57011   -57058   -57057   -57043   -57034 
  -57019   -56989   -56957   -56936   -56894   -56806   -56709   -56655 
  -56644   -56645   -56631   -56586   -56551   -56552   -56554   -56551 
  -56554   -56551   -56526   -56478   -56426   -56378   -56315   -56227 
  -56136   -56055   -55968   -55885   -55837   -55809   -55764   -55713 
  -55698   -55710   -55721   -55725   -55725   -55743   -55779   -55814 
  -55873   -55927   -55921   -55906   -55930   -55967   -55969   -55935 
  -55923   -55940   -55933   -55902   -55877   -55869   -55892   -55931 
  -55959   -55978   -55987   -55993   -56010   -55992   -55904   -55830 
  -55832   -55850   -55854   -55851   -55833   -55837   -55883   -55926 
  -55962   -56034   -56138   -56225   -56290   -56386   -56500   -56589 
  -56676   -56758   -56819   -56905   -56999   -57052   -57108   -57192 
  -57263   -57303   -57316   -57343   -57426   -57504   -57526   -57508 
  -57478   -57480   -57528   -57588   -57623   -57623   -57623   -57644 
  -57611   -57472   -57313   -57244   -57255   -57288   -57294   -57219 
  -57077   -56969   -56947   -56916   -56792   -56661   -56615   -56658 
  -56775   -56854   -56797   -56717   -56763   -56882   -56902   -56803 
  -56735   -56738   -56752   -56794   -56851   -56890   -56969   -57087 
  -57161   -57154   -57084   -57057   -57146   -57240   -57293   -57369 
  -57364   -57234   -57143   -57126   -57145   -57197   -57177   -57083 
  -57016   -56931   -56802   -56727   -56721   -56726   -56677   -56578 
  -56519   -56489   -56439   -56417   -56351   -56146   -55986   -56001 
  -56016   -55961   -55887   -55732   -55553   -55493   -55498   -55510 
  -55558   -55551   -55456   -55431   -55481   -55497   -55548   -55633 
  -55651   -55682   -55743   -55718   -55705   -55812   -55935   -56041 
  -56163   -56230   -56230   -56218   -56216   -56253   -56309   -56343 
  -56364   -56367   -56349   -56320   -56238   -56133   -56157   -56283 
  -56340   -56309   -56243   -56190   -56235   -56335   -56367   -56332 
  -56293   -56261   -56224   -56191   -56154   -56078   -55987   -55935 
  -55887   -55764   -55585   -55445   -55394   -55421   -55435   -55331 
  -55223   -55272   -55404   -55502   -55526   -55476   -55470   -55571 
  -55678   -55724   -55685   -55589   -55564   -55614   -55601   -55534 
  -55543   -55624   -55652   -55578   -55456   -55369   -55378   -55464 
  -55532   -55514   -55461   -55487   -55571   -55600   -55583   -55575 
  -55606   -55687   -55723   -55640   -55568   -55626   -55740   -55851 
  -55963   -56021   -56022   -56086   -56265   -56445   -56541   -56619 
  -56717   -56776   -56817   -56895   -56996   -57079   -57088   -57050 
  -57075   -57129   -57073   -56948   -56900   -56898   -56846   -56776 
  -56727   -56671   -56620   -56579   -56527   -56473   -56418   -56377 
  -56345   -56256   -56144   -56097   -56096   -56081   -56003   -55901 
  -55933   -56058   -56047   -55957   -55994   -56104   -56213   -56372 
  -56501   -56508   -56487   -56570   -56749   -56903   -56920   -56821 
  -56777   -56862   -56921   -56864   -56766   -56721   -56751   -56815 
  -56909   -56939   -56765   -56598   -56710   -56891   -56898   -56808 
  -56768   -56871   -57037   -57060   -56910   -56771   -56793   -56876 
  -56846   -56735   -56670   -56652   -56623   -56579   -56555   -56542 
  -56512   -56502   -56587   -56721   -56810   -56879   -56942   -56968 
  -57029   -57145   -57191   -57209   -57348   -57427   -57299   -57312 
  -57538   -57583   -57533   -57651   -57714   -57653   -57699   -57852 
  -57989   -58034   -57988   -57995   -58100   -58158   -58103   -58031 
  -58050   -58113   -58029   -57800   -57664   -57635   -57537   -57398 
  -57304   -57168   -56964   -56895   -56959   -56856   -56606   -56452 
  -56409   -56409   -56331   -56139   -56023   -55947   -55763   -55610 
  -55561   -55532   -55492   -55373   -55187   -55101   -55108   -55045 
  -54934   -54927   -55011   -55078   -55078   -55020   -55044   -55228 
  -55378   -55404   -55453   -55553   -55659   -55799   -55929   -55977 
  -55988   -56062   -56164   -56191   -56253   -56421   -56480   -56423 
  -56471   -56542   -56444   -56305   -56326   -56385   -56275   -56107 
  -56019   -55908   -55742   -55593   -55469   -55387   -55299   -55146 
  -55075   -55127   -55119   -55076   -55155   -55274   -55299   -55319 
  -55476   -55687   -55798   -55858   -56013   -56257   -56451   -56527 
  -56591   -56777   -57046   -57264   -57465   -57743   -57994   -58104 
  -58199   -58432   -58744   -58992   -59160   -59324   -59457   -59445 
  -59357   -59381   -59484   -59517   -59457   -59349   -59245   -59098 
  -58834   -58615   -58576   -58531   -58306   -58031   -57905   -57875 
  -57753   -57522   -57314   -57193   -57109   -57001   -56926   -56917 
  -56844   -56636   -56438   -56392   -56453   -56480   -56418   -56360 
  -56385   -56474   -56611   -56768   -56890   -56963   -57009   -57083 
  -57180   -57199   -57147   -57145   -57216   -57263   -57194   -57038 
  -56931   -56890   -56823   -56732   -56640   -56502   -56322   -56190 
  -56143   -56101   -55986   -55833   -55728   -55655   -55570   -55518 
  -55495   -55407   -55286   -55221   -55183   -55144   -55116   -55099 
  -55082   -55065   -55084   -55139   -55181   -55221   -55296   -55359 
  -55356   -55428   -55689   -55873   -55789   -55654   -55575   -55544 
  -55655   -55803   -55823   -55777   -55683   -55516   -55378   -55264 
  -55140   -55113   -55161   -55206   -55231   -55152   -55039   -55028 
  -55003   -54886   -54773   -54708   -54824   -55085   -55037   -54689 
  -54563   -54711   -54941   -55224   -55385   -55376   -55442   -55578 
  -55634   -55709   -55816   -55887   -56097   -56415   -56531   -56470 
  -56504   -56669   -56822   -56933   -56991   -56959   -56960   -57072 
  -57165   -57161   -57061   -57003   -57208   -57443   -57402   -57299 
  -57249   -57233   -57399   -57558   -57500   -57476   -57498   -57328 
  -57170   -57219   -57131   -56766   -56654   -56997   -57204   -57019 
  -56861   -56957   -57096   -57090   -57045   -57103   -57348   -57641 
  -57593   -57396   -57455   -57569   -57559   -57550   -57611   -57755 
  -57884   -57786   -57538   -57508   -57717   -57741   -57459   -57276 
  -57355   -57404   -57322   -57259   -57260   -57246   -57109   -56927 
  -56896   -56907   -56761   -56572   -56458   -56386   -56333   -56255 
  -56222   -56277   -56245   -56111   -56023   -55963   -55884   -55843 
  -55877   -55911   -55900   -55880   -55857   -55820   -55818   -55894 
  -55969   -55892   -55754   -55790   -55893   -55831   -55715   -55701 
  -55684   -55650   -55764   -55940   -55912   -55770   -55811   -56014 
  -56077   -55903   -55730   -55762   -55923   -55967   -55799   -55681 
  -55771   -55804   -55714   -55724   -55786   -55798   -55816   -55766 
  -55614   -55529   -55534   -55480   -55377   -55341   -55357   -55339 
  -55235   -55089   -54982   -54906   -54828   -54710   -54540   -54442 
  -54463   -54451   -54380   -54375   -54410   -54394   -54385   -54438 
  -54522   -54577   -54534   -54462   -54493   -54549   -54501   -54439 
  -54475   -54571   -54652   -54674   -54657   -54663   -54701   -54767 
  -54856   -54915   -54969   -55083   -55190   -55230   -55294   -55390 
  -55451   -55495   -55531   -55576   -55621   -55599   -55561   -55564 
  -55543   -55475   -55396   -55354   -55368   -55342   -55252   -55225 
  -55260   -55256   -55222   -55175   -55106   -55095   -55112   -55009 
  -54872   -54885   -54957   -54940   -54871   -54841   -54868   -54887 
  -54880   -54919   -55009   -55112   -55183   -55200   -55270   -55439 
  -55553   -55583   -55677   -55826   -55941   -56017   -56064   -56097 
  -56121   -56138   -56166   -56196   -56219   -56211   -56183   -56199 
  -56229   -56217   -56225   -56288   -56322   -56223   -56086   -56082 
  -56123   -56036   -55863   -55713   -55652   -55653   -55573   -55407 
  -55281   -55237   -55235   -55159   -55015   -54955   -54957   -54987 
  -55094   -55170   -55144   -55129   -55198   -55318   -55446   -55533 
  -55582   -55633   -55681   -55747   -55830   -55889   -56002   -56176 
  -56273   -56312   -56404   -56538   -56634   -56675   -56713   -56747 
  -56738   -56705   -56678   -56668   -56650   -56572   -56439   -56323 
  -56217   -56061   -55906   -55807   -55744   -55703   -55651   -55604 
  -55604   -55609   -55628   -55713   -55797   -55834   -55837   -55825 
  -55867   -55976   -56124   -56260   -56310   -56369   -56500   -56597 
  -56680   -56732   -56717   -56764   -56876   -56938   -56902   -56866 
  -56954   -57063   -57156   -57278   -57318   -57289   -57304   -57359 
  -57386   -57356   -57355   -57345   -57231   -57135   -57120   -57074 
  -56971   -56870   -56783   -56686   -56560   -56422   -56310   -56198 
  -56087   -56012   -55915   -55779   -55690   -55698   -55766   -55842 
  -55913   -55958   -56037   -56199   -56339   -56415   -56506   -56625 
  -56684   -56679   -56654   -56572   -56447   -56345   -56276   -56204 
  -56073   -55923   -55838   -55783   -55710   -55644   -55595   -55569 
  -55583   -55644   -55702   -55730   -55781   -55847   -55872   -55882 
  -55893   -55856   -55760   -55625   -55460   -55312   -55201   -55062 
  -54886   -54770   -54730   -54668   -54554   -54475   -54485   -54516 
  -54511   -54500   -54542   -54662   -54794   -54882   -54972   -55092 
  -55226   -55382   -55518   -55602   -55663   -55691   -55689   -55665 
  -55573   -55418   -55254   -55054   -54806   -54595   -54427   -54240 
  -54053   -53905   -53814   -53788   -53791   -53815   -53914   -54104 
  -54358   -54647   -54944   -55275   -55627   -55920   -56121   -56229 
  -56281   -56330   -56292   -56089   -55867   -55765   -55705   -55602 
  -55510   -55468   -55464   -55532   -55641   -55721   -55857   -56097 
  -56337   -56551   -56774   -57020   -57287   -57504   -57627   -57697 
  -57723   -57662   -57524   -57338   -57132   -56980   -56892   -56828 
  -56815   -56902   -57079   -57282   -57475   -57691   -57940   -58144 
  -58267   -58342   -58332   -58256   -58201   -58140   -58072   -58016 
  -57899   -57733   -57610   -57526   -57448   -57390   -57367   -57394 
  -57469   -57558   -57664   -57823   -58011   -58162   -58251   -58254 
  -58164   -58050   -57936   -57772   -57585   -57401   -57177   -56936 
  -56740   -56571   -56400   -56244   -56154   -56171   -56238   -56291 
  -56346   -56475   -56705   -56946   -57093   -57153   -57203   -57269 
