Origin Time       2011/03/11 14:46:00
Lat.              38.103
Long.             142.860
Depth. (km)       24
Mag.              9.0
Station Code      HYG010
Station Lat.      35.0592
Station Long.     135.1776
Station Height(m) 198
Record Time       2011/03/11 14:51:14
Sampling Freq(Hz) 100Hz
Duration Time(s)  60
Dir.              U-D
Scale Factor      3920(gal)/6182761
Max. Acc. (gal)   1.333
Last Correction   2011/03/11 14:50:59
Memo.             
[...]
  -46068   -46059   -46046   -46038   -46041   -46051   -46053   -46047 
  -46050   -46068   -46077   -46075   -46084   -46105   -46122   -46123 
  -46110   -46096   -46093   -46092   -46077   -46054   -46027   -45997 
  -45974   -45947   -45920   -45910   -45903   -45888   -45857   -45818 
  -45792   -45764   -45732   -45728   -45720   -45685   -45659   -45653 
  -45656   -45657   -45645   -45627   -45609   -45590   -45582   -45601 
  -45629   -45633   -45616   -45601   -45600   -45605   -45617   -45633 
  -45632   -45603   -45566   -45558   -45589   -45620   -45623   -45621 
  -45629   -45643   -45674   -45720   -45761   -45788   -45804   -45815 
  -45838   -45874   -45897   -45908   -45927   -45953   -45977   -45996 
  -46018   -46035   -46037   -46056   -46104   -46137   -46154   -46172 
  -46182   -46204   -46250   -46284   -46301   -46315   -46324   -46340 
  -46364   -46374   -46370   -46364   -46352   -46329   -46303   -46280 
  -46257   -46230   -46198   -46168   -46133   -46094   -46062   -46026 
  -45970   -45911   -45870   -45844   -45822   -45799   -45782   -45761 
  -45729   -45717   -45726   -45724   -45722   -45719   -45702   -45684 
  -45673   -45658   -45634   -45607   -45593   -45593   -45600   -45595 
  -45572   -45538   -45506   -45486   -45482   -45503   -45526   -45524 
  -45526   -45542   -45559   -45585   -45615   -45645   -45672   -45687 
  -45696   -45722   -45755   -45765   -45758   -45765   -45786   -45802 
  -45812   -45825   -45842   -45858   -45873   -45887   -45890   -45887 
  -45887   -45896   -45901   -45884   -45861   -45860   -45872   -45866 
  -45859   -45868   -45866   -45858   -45853   -45851   -45867   -45866 
  -45850   -45856   -45857   -45843   -45839   -45845   -45847   -45826 
  -45797   -45793   -45802   -45808   -45813   -45814   -45813   -45832 
  -45856   -45858   -45859   -45883   -45903   -45899   -45909   -45933 
  -45937   -45937   -45946   -45944   -45949   -45977   -46019   -46051 
  -46057   -46057   -46091   -46136   -46157   -46171   -46192   -46195 
  -46179   -46174   -46188   -46201   -46204   -46204   -46211   -46213 
  -46213   -46228   -46251   -46270   -46284   -46295   -46317   -46355 
  -46388   -46409   -46424   -46436   -46450   -46474   -46503   -46531 
  -46558   -46573   -46582   -46603   -46631   -46660   -46681   -46702 
  -46741   -46781   -46806   -46825   -46835   -46851   -46881   -46909 
  -46929   -46935   -46951   -46997   -47037   -47066   -47097   -47122 
  -47125   -47150   -47224   -47258   -47210   -47183   -47233   -47287 
  -47291   -47296   -47289   -47238   -47231   -47247   -47216   -47202 
  -47211   -47201   -47193   -47175   -47159   -47156   -47143   -47129 
  -47129   -47129   -47125   -47120   -47116   -47119   -47126   -47124 
  -47114   -47093   -47085   -47100   -47100   -47081   -47084   -47099 
  -47094   -47069   -47049   -47044   -47045   -47047   -47048   -47045 
  -47050   -47056   -47038   -47024   -47033   -47020   -46991   -46988 
  -46987   -46970   -46958   -46944   -46922   -46890   -46834   -46779 
  -46755   -46745   -46728   -46687   -46633   -46592   -46548   -46497 
  -46447   -46403   -46363   -46316   -46269   -46228   -46188   -46153 
  -46129   -46099   -46050   -46007   -45970   -45923   -45890   -45872 
  -45836   -45785   -45737   -45697   -45678   -45661   -45625   -45582 
  -45543   -45514   -45518   -45528   -45493   -45446   -45442   -45486 
  -45555   -45572   -45512   -45474   -45537   -45641   -45666   -45632 
  -45646   -45693   -45739   -45785   -45814   -45840   -45865   -45892 
  -45955   -45986   -45955   -45999   -46117   -46172   -46145   -46114 
  -46145   -46221   -46302   -46346   -46313   -46295   -46368   -46449 
  -46505   -46544   -46555   -46579   -46619   -46643   -46684   -46731 
  -46720   -46696   -46744   -46835   -46848   -46792   -46819   -46873 
  -46837   -46827   -46852   -46803   -46764   -46744   -46665   -46653 
  -46660   -46526   -46489   -46558   -46449   -46338   -46349   -46338 
  -46313   -46254   -46227   -46231   -46134   -46108   -46156   -46072 
  -46010   -45998   -45912   -45896   -45979   -46018   -45954   -45845 
  -45837   -45899   -45841   -45774   -45827   -45778   -45655   -45649 
  -45676   -45668   -45586   -45536   -45601   -45539   -45452   -45515 
  -45486   -45404   -45407   -45360   -45280   -45266   -45288   -45244 
  -45171   -45177   -45156   -45083   -45053   -45022   -44986   -44966 
  -44936   -44937   -44935   -44889   -44879   -44890   -44850   -44831 
  -44871   -44883   -44852   -44831   -44828   -44840   -44872   -44891 
  -44882   -44895   -44941   -44986   -44996   -44984   -45019   -45103 
  -45145   -45137   -45152   -45197   -45229   -45239   -45248   -45274 
  -45311   -45336   -45355   -45370   -45369   -45385   -45432   -45468 
  -45483   -45511   -45554   -45585   -45588   -45592   -45637   -45705 
  -45746   -45760   -45790   -45854   -45926   -45977   -46012   -46047 
  -46094   -46149   -46183   -46210   -46259   -46289   -46292   -46326 
  -46392   -46450   -46476   -46486   -46531   -46570   -46564   -46587 
  -46651   -46677   -46674   -46701   -46736   -46740   -46725   -46717 
  -46742   -46796   -46783   -46719   -46754   -46842   -46806   -46692 
  -46678   -46777   -46839   -46784   -46686   -46682   -46787   -46824 
  -46731   -46701   -46804   -46883   -46863   -46826   -46839   -46876 
  -46896   -46902   -46921   -46956   -46966   -46990   -47063   -47078 
  -47014   -47001   -47093   -47164   -47107   -47047   -47123   -47212 
  -47170   -47103   -47120   -47157   -47146   -47111   -47100   -47127 
  -47147   -47127   -47089   -47053   -47034   -47050   -47065   -47065 
  -47095   -47113   -47026   -46899   -46899   -47031   -47101   -46992 
  -46874   -46923   -46972   -46874   -46807   -46877   -46928   -46864 
  -46781   -46768   -46781   -46746   -46677   -46668   -46729   -46732 
  -46654   -46617   -46643   -46637   -46575   -46562   -46616   -46586 
  -46474   -46461   -46509   -46457   -46386   -46401   -46442   -46450 
  -46427   -46394   -46372   -46366   -46381   -46402   -46400   -46376 
  -46364   -46368   -46403   -46474   -46517   -46517   -46544   -46596 
  -46642   -46692   -46746   -46812   -46881   -46914   -46932   -46986 
  -47046   -47062   -47065   -47098   -47144   -47172   -47187   -47197 
  -47189   -47179   -47174   -47163   -47148   -47113   -47062   -47056 
  -47082   -47060   -47010   -46990   -46984   -46971   -46947   -46910 
  -46884   -46874   -46857   -46833   -46808   -46788   -46804   -46816 
  -46769   -46739   -46771   -46792   -46781   -46767   -46763   -46774 
  -46795   -46813   -46813   -46804   -46818   -46828   -46834   -46863 
  -46880   -46860   -46838   -46838   -46869   -46915   -46921   -46891 
  -46881   -46886   -46890   -46906   -46906   -46866   -46838   -46870 
  -46920   -46920   -46861   -46809   -46835   -46893   -46888   -46850 
  -46841   -46855   -46886   -46918   -46915   -46883   -46874   -46924 
  -46982   -46981   -46966   -47012   -47074   -47076   -47073   -47129 
  -47195   -47213   -47212   -47247   -47289   -47289   -47297   -47330 
  -47320   -47269   -47264   -47328   -47391   -47371   -47292   -47279 
  -47366   -47434   -47427   -47402   -47392   -47417   -47485   -47546 
  -47562   -47561   -47596   -47659   -47690   -47692   -47696   -47704 
  -47728   -47764   -47794   -47814   -47786   -47736   -47771   -47870 
  -47902   -47841   -47772   -47745   -47737   -47678   -47606   -47652 
  -47757   -47754   -47613   -47400   -47287   -47406   -47554   -47525 
  -47394   -47243   -47134   -47153   -47298   -47420   -47318   -47061 
  -46952   -47104   -47298   -47214   -46956   -46926   -47050   -46993 
  -46841   -46861   -46928   -46881   -46890   -46927   -46841   -46744 
  -46695   -46712   -46815   -46894   -46871   -46766   -46650   -46636 
  -46827   -46999   -46822   -46667   -46834   -46859   -46788   -46913 
  -46920   -46861   -46953   -46970   -46928   -46952   -46916   -46869 
  -46960   -47040   -46962   -46865   -46913   -47037   -47065   -47008 
  -46953   -46950   -47026   -47091   -47094   -47032   -46946   -46996 
  -47086   -47080   -47024   -46935   -46925   -46935   -46887   -46892 
  -46851   -46773   -46796   -46824   -46817   -46782   -46691   -46636 
  -46655   -46710   -46751   -46691   -46588   -46581   -46629   -46655 
  -46633   -46586   -46618   -46610   -46470   -46451   -46621   -46770 
  -46738   -46528   -46385   -46502   -46727   -46753   -46591   -46574 
  -46705   -46719   -46643   -46644   -46732   -46792   -46736   -46627 
  -46629   -46756   -46803   -46731   -46767   -46904   -46873   -46693 
  -46647   -46754   -46829   -46823   -46751   -46638   -46594   -46635 
  -46623   -46573   -46587   -46587   -46513   -46448   -46434   -46447 
  -46465   -46422   -46315   -46245   -46248   -46289   -46351   -46375 
  -46306   -46249   -46305   -46366   -46372   -46382   -46361   -46311 
  -46293   -46273   -46220   -46165   -46135   -46099   -46046   -46004 
  -45945   -45878   -45845   -45780   -45713   -45768   -45862   -45847 
  -45794   -45825   -45899   -45921   -45926   -45996   -46079   -46122 
  -46155   -46149   -46115   -46137   -46190   -46206   -46193   -46166 
  -46099   -46014   -45964   -45967   -46016   -46036   -45925   -45763 
  -45679   -45673   -45731   -45752   -45695   -45703   -45766   -45821 
  -45873   -45883   -45933   -46023   -46057   -46078   -46061   -46010 
  -46063   -46166   -46226   -46253   -46197   -46110   -46120   -46144 
  -46109   -46093   -46083   -46047   -46030   -46035   -46029   -46011 
  -46006   -46015   -46008   -45975   -45935   -45910   -45918   -45932 
  -45927   -45951   -46020   -46056   -46046   -46063   -46082   -46034 
  -45999   -46026   -46024   -46000   -46032   -46076   -46075   -46057 
  -46040   -45986   -45895   -45813   -45769   -45746   -45717   -45689 
  -45678   -45666   -45642   -45630   -45623   -45596   -45556   -45521 
  -45500   -45513   -45541   -45550   -45585   -45669   -45738   -45779 
  -45818   -45849   -45870   -45872   -45851   -45839   -45812   -45741 
  -45712   -45734   -45695   -45628   -45616   -45620   -45601   -45586 
  -45604   -45631   -45637   -45660   -45723   -45795   -45868   -45962 
  -46045   -46074   -46086   -46104   -46126   -46123   -46067   -46054 
  -46100   -46090   -46070   -46090   -46066   -46024   -46033   -46037 
  -46021   -46049   -46094   -46118   -46165   -46232   -46277   -46312 
  -46336   -46328   -46316   -46321   -46326   -46317   -46316   -46338 
  -46382   -46426   -46433   -46411   -46401   -46401   -46378   -46338 
  -46301   -46242   -46164   -46134   -46146   -46143   -46148   -46179 
  -46200   -46234   -46293   -46330   -46331   -46329   -46344   -46356 
  -46345   -46342   -46339   -46308   -46288   -46312   -46361   -46397 
  -46398   -46390   -46403   -46413   -46404   -46389   -46398   -46437 
  -46469   -46492   -46539   -46601   -46647   -46660   -46647   -46647 
  -46671   -46652   -46601   -46613   -46664   -46676   -46670   -46698 
  -46765   -46810   -46813   -46841   -46910   -46993   -47063   -47069 
  -47039   -47073   -47141   -47153   -47136   -47148   -47156   -47110 
  -47060   -47050   -47052   -47047   -47025   -47005   -47024   -47062 
  -47071   -47061   -47076   -47100   -47074   -47031   -47029   -47027 
  -47019   -47006   -46969   -46983   -47036   -47035   -47038   -47057 
  -47027   -47008   -47024   -47033   -47050   -47066   -47053   -47047 
  -47061   -47075   -47100   -47136   -47171   -47210   -47240   -47256 
  -47278   -47325   -47405   -47475   -47503   -47522   -47535   -47533 
  -47532   -47532   -47551   -47586   -47609   -47619   -47627   -47619 
  -47596   -47591   -47611   -47631   -47642   -47631   -47586   -47556 
  -47561   -47551   -47513   -47493   -47505   -47510   -47488   -47450 
  -47415   -47415   -47447   -47490   -47527   -47532   -47533   -47564 
  -47597   -47640   -47708   -47732   -47708   -47720   -47750   -47744 
  -47745   -47762   -47748   -47721   -47716   -47716   -47723   -47738 
  -47737   -47741   -47768   -47779   -47776   -47793   -47806   -47804 
  -47818   -47848   -47873   -47890   -47902   -47927   -47978   -48012 
  -48016   -48033   -48078   -48131   -48170   -48196   -48224   -48237 
  -48243   -48267   -48271   -48242   -48234   -48241   -48239   -48248 
  -48261   -48267   -48270   -48247   -48228   -48243   -48244   -48242 
  -48277   -48299   -48284   -48283   -48285   -48256   -48223   -48201 
  -48162   -48135   -48126   -48088   -48070   -48068   -48019   -47999 
  -48015   -47973   -47913   -47883   -47852   -47828   -47812   -47787 
  -47778   -47777   -47770   -47777   -47786   -47772   -47754   -47744 
  -47730   -47714   -47707   -47695   -47674   -47649   -47597   -47529 
  -47490   -47466   -47433   -47422   -47435   -47426   -47428   -47475 
  -47503   -47515   -47539   -47548   -47558   -47585   -47605   -47598 
  -47570   -47555   -47546   -47498   -47435   -47396   -47358   -47314 
  -47287   -47272   -47249   -47221   -47224   -47257   -47256   -47217 
  -47215   -47242   -47258   -47293   -47333   -47355   -47367   -47344 
  -47327   -47367   -47417   -47458   -47485   -47495   -47527   -47556 
  -47596   -47672   -47718   -47747   -47800   -47847   -47910   -47975 
  -48018   -48079   -48152   -48210   -48251   -48283   -48317   -48354 
  -48373   -48380   -48401   -48429   -48457   -48501   -48526   -48531 
  -48554   -48568   -48562   -48574   -48605   -48622   -48625   -48630 
  -48645   -48651   -48639   -48642   -48656   -48640   -48595   -48549 
  -48515   -48473   -48434   -48410   -48379   -48338   -48289   -48230 
  -48199   -48206   -48209   -48203   -48209   -48219   -48210   -48212 
  -48231   -48218   -48174   -48142   -48102   -48038   -47996   -47984 
  -47961   -47946   -47942   -47912   -47872   -47850   -47831   -47790 
  -47723   -47669   -47648   -47639   -47621   -47593   -47570   -47552 
  -47543   -47548   -47526   -47476   -47450   -47444   -47422   -47403 
  -47399   -47378   -47364   -47359   -47316   -47257   -47192   -47097 
  -47022   -46996   -46976   -46959   -46955   -46909   -46859   -46867 
  -46859   -46835   -46835   -46799   -46750   -46727   -46681   -46628 
  -46619   -46602   -46562   -46568   -46577   -46543   -46539   -46563 
  -46565   -46566   -46570   -46572   -46579   -46580   -46579   -46578 
  -46554   -46535   -46564   -46597   -46598   -46593   -46589   -46586 
  -46605   -46641   -46664   -46684   -46701   -46706   -46742   -46797 
  -46825   -46873   -46956   -47027   -47077   -47107   -47123   -47146 
  -47172   -47193   -47217   -47247   -47274   -47272   -47278   -47329 
  -47356   -47365   -47397   -47408   -47411   -47453   -47519   -47577 
  -47588   -47566   -47563   -47557   -47546   -47566   -47572   -47552 
  -47554   -47556   -47552   -47559   -47551   -47524   -47515   -47489 
  -47440   -47437   -47448   -47430   -47416   -47392   -47343   -47299 
  -47276   -47271   -47256   -47211   -47184   -47183   -47150   -47136 
  -47176   -47174   -47131   -47114   -47088   -47055   -47050   -47041 
  -47032   -47023   -47000   -46977   -46937   -46896   -46865   -46825 
  -46818   -46858   -46863   -46827   -46814   -46787   -46726   -46705 
  -46701   -46665   -46669   -46677   -46624   -46611   -46624   -46574 
  -46536   -46548   -46543   -46517   -46493   -46459   -46417   -46381 
  -46357   -46347   -46327   -46287   -46278   -46281   -46237   -46203 
  -46197   -46181   -46188   -46201   -46172   -46135   -46116   -46102 
  -46120   -46146   -46123   -46118   -46134   -46116   -46118   -46127 
  -46107   -46097   -46089   -46071   -46046   -46019   -46001   -45979 
  -45945   -45907   -45880   -45864   -45877   -45946   -45997   -45980 
  -45965   -45976   -45985   -46009   -46055   -46082   -46064   -46012 
  -45977   -45977   -45979   -45996   -46017   -46030   -46065   -46080 
  -46073   -46107   -46141   -46146   -46184   -46243   -46260   -46240 
  -46237   -46250   -46239   -46223   -46253   -46276   -46223   -46168 
  -46179   -46202   -46223   -46245   -46235   -46221   -46212   -46211 
  -46250   -46294   -46325   -46318   -46261   -46236   -46242   -46229 
  -46231   -46241   -46248   -46269   -46248   -46188   -46198   -46261 
  -46288   -46291   -46302   -46302   -46277   -46219   -46178   -46207 
  -46260   -46306   -46344   -46353   -46360   -46372   -46364   -46373 
  -46419   -46470   -46518   -46509   -46423   -46417   -46529   -46591 
  -46575   -46583   -46626   -46643   -46620   -46632   -46722   -46797 
  -46800   -46809   -46842   -46866   -46918   -46985   -47011   -47008 
  -47028   -47053   -47075   -47130   -47170   -47165   -47178   -47201 
  -47194   -47185   -47195   -47207   -47232   -47262   -47269   -47295 
  -47338   -47336   -47324   -47342   -47363   -47409   -47458   -47428 
  -47376   -47380   -47390   -47388   -47390   -47394   -47416   -47435 
  -47409   -47376   -47374   -47395   -47434   -47449   -47422   -47404 
  -47404   -47385   -47338   -47307   -47325   -47325   -47267   -47233 
  -47236   -47199   -47152   -47145   -47122   -47083   -47066   -47063 
  -47083   -47094   -47072   -47072   -47081   -47052   -47018   -47002 
  -46999   -47022   -47052   -47060   -47042   -47000   -46956   -46938 
  -46943   -46951   -46946   -46914   -46862   -46837   -46845   -46832 
  -46809   -46814   -46809   -46779   -46769   -46765   -46738   -46730 
  -46738   -46720   -46706   -46714   -46704   -46672   -46658   -46669 
  -46687   -46698   -46676   -46638   -46630   -46623   -46601   -46609 
  -46637   -46631   -46616   -46618   -46592   -46564   -46599   -46633 
  -46625   -46622   -46630   -46619   -46584   -46563   -46600   -46666 
  -46686   -46670   -46682   -46700   -46701   -46703   -46712   -46743 
  -46761   -46732   -46713   -46720   -46729   -46739   -46724   -46712 
  -46727   -46717   -46689   -46685   -46686   -46692   -46717   -46727 
  -46714   -46711   -46714   -46698   -46677   -46687   -46707   -46695 
  -46658   -46628   -46620   -46619   -46619   -46621   -46607   -46578 
  -46560   -46567   -46567   -46563   -46587   -46575   -46515   -46497 
  -46491   -46461   -46473   -46489   -46464   -46432   -46397   -46376 
  -46381   -46380   -46362   -46359   -46353   -46323   -46315   -46308 
  -46259   -46235   -46226   -46185   -46186   -46224   -46217   -46183 
  -46150   -46124   -46131   -46153   -46139   -46121   -46126   -46115 
  -46081   -46053   -46057   -46080   -46079   -46056   -46041   -46024 
  -45995   -45985   -45996   -45995   -45980   -45962   -45965   -45989 
  -45987   -45962   -45950   -45942   -45942   -45963   -45980   -45964 
  -45936   -45920   -45915   -45917   -45921   -45911   -45862   -45809 
  -45818   -45857   -45872   -45868   -45857   -45859   -45872   -45879 
  -45897   -45930   -45938   -45950   -46002   -46039   -46050   -46057 
  -46039   -46035   -46073   -46094   -46096   -46115   -46123   -46096 
  -46077   -46083   -46078   -46060   -46055   -46055   -46038   -46017 
  -46011   -46004   -45988   -45984   -46001   -46010   -45997   -45979 
  -45954   -45922   -45903   -45890   -45861   -45816   -45780   -45767 
  -45754   -45729   -45700   -45666   -45643   -45611   -45558   -45528 
  -45519   -45496   -45471   -45456   -45438   -45401   -45368   -45353 
  -45328   -45309   -45302   -45263   -45218   -45199   -45169   -45137 
