Origin Time       2011/03/11 14:46:00
Lat.              38.103
Long.             142.860
Depth. (km)       24
Mag.              9.0
Station Code      HYG010
Station Lat.      35.0592
Station Long.     135.1776
Station Height(m) 198
Record Time       2011/03/11 14:51:14
Sampling Freq(Hz) 100Hz
Duration Time(s)  60
Dir.              E-W
Scale Factor      3920(gal)/6182761
Max. Acc. (gal)   1.241
Last Correction   2011/03/11 14:50:59
Memo.             
[...]
   -8331    -8331    -8343    -8337    -8301    -8247    -8200    -8170 
   -8124    -8058    -7986    -7893    -7801    -7739    -7662    -7562 
   -7481    -7406    -7341    -7315    -7288    -7234    -7188    -7154 
   -7128    -7104    -7094    -7119    -7131    -7114    -7119    -7130 
   -7118    -7102    -7081    -7050    -7019    -6977    -6936    -6918 
   -6893    -6851    -6833    -6864    -6904    -6910    -6899    -6926 
   -6989    -7039    -7088    -7170    -7249    -7310    -7405    -7515 
   -7590    -7681    -7809    -7895    -7910    -7903    -7936    -8024 
   -8081    -8031    -7977    -8038    -8091    -7994    -7906    -7928 
   -7904    -7830    -7827    -7841    -7782    -7716    -7722    -7741 
   -7732    -7758    -7789    -7782    -7796    -7813    -7774    -7759 
   -7821    -7831    -7761    -7776    -7834    -7752    -7646    -7654 
   -7642    -7564    -7556    -7580    -7534    -7511    -7533    -7495 
   -7452    -7458    -7427    -7381    -7391    -7430    -7445    -7426 
   -7403    -7394    -7379    -7364    -7370    -7377    -7364    -7355 
   -7386    -7433    -7418    -7359    -7364    -7450    -7515    -7511 
   -7523    -7591    -7610    -7573    -7606    -7698    -7763    -7789 
   -7804    -7835    -7844    -7828    -7885    -7961    -7969    -7998 
   -8050    -8056    -8046    -8048    -8079    -8148    -8209    -8227 
   -8248    -8298    -8314    -8303    -8333    -8387    -8409    -8388 
   -8385    -8416    -8419    -8419    -8449    -8462    -8456    -8446 
   -8403    -8368    -8405    -8455    -8459    -8467    -8501    -8525 
   -8535    -8534    -8512    -8502    -8519    -8517    -8481    -8438 
   -8404    -8376    -8334    -8256    -8169    -8107    -8042    -7952 
   -7863    -7778    -7699    -7623    -7536    -7460    -7415    -7354 
   -7274    -7215    -7165    -7124    -7100    -7079    -7076    -7092 
   -7087    -7067    -7057    -7051    -7050    -7059    -7071    -7088 
   -7104    -7103    -7111    -7135    -7173    -7217    -7239    -7253 
   -7279    -7310    -7349    -7377    -7417    -7486    -7535    -7567 
   -7617    -7660    -7670    -7667    -7684    -7719    -7776    -7822 
   -7812    -7796    -7800    -7805    -7830    -7862    -7868    -7865 
   -7893    -7947    -7984    -7995    -8010    -8052    -8122    -8202 
   -8250    -8257    -8259    -8281    -8305    -8302    -8261    -8205 
   -8173    -8167    -8124    -8044    -7988    -7949    -7890    -7825 
   -7774    -7718    -7648    -7585    -7545    -7509    -7460    -7432 
   -7447    -7473    -7486    -7500    -7537    -7596    -7662    -7703 
   -7721    -7773    -7872    -7956    -7999    -8016    -8053    -8137 
   -8203    -8196    -8157    -8134    -8136    -8128    -8097    -8080 
   -8065    -8029    -7971    -7928    -7944    -7931    -7847    -7814 
   -7837    -7812    -7740    -7691    -7671    -7673    -7701    -7710 
   -7689    -7663    -7655    -7696    -7709    -7651    -7634    -7695 
   -7761    -7816    -7890    -7938    -7892    -7836    -7955    -8165 
   -8165    -8007    -8050    -8269    -8338    -8231    -8177    -8249 
   -8355    -8436    -8474    -8429    -8388    -8420    -8424    -8412 
   -8428    -8429    -8459    -8470    -8414    -8457    -8518    -8387 
   -8344    -8573    -8682    -8511    -8425    -8509    -8519    -8514 
   -8579    -8557    -8474    -8451    -8455    -8479    -8539    -8531 
   -8440    -8410    -8467    -8482    -8379    -8265    -8269    -8325 
   -8358    -8384    -8361    -8268    -8208    -8282    -8348    -8276 
   -8231    -8289    -8349    -8333    -8296    -8333    -8359    -8375 
   -8442    -8434    -8381    -8398    -8406    -8421    -8518    -8617 
   -8682    -8728    -8777    -8893    -9015    -9072    -9123    -9226 
   -9378    -9461    -9438    -9510    -9720    -9871    -9886    -9872 
   -9925   -10024   -10083   -10028    -9958   -10025   -10085    -9977 
   -9853    -9843    -9886    -9916    -9865    -9756    -9734    -9775 
   -9727    -9650    -9694    -9778    -9720    -9620    -9647    -9681 
   -9631    -9593    -9580    -9602    -9653    -9646    -9622    -9636 
   -9635    -9624    -9558    -9385    -9187    -9028    -8875    -8696 
   -8570    -8510    -8390    -8264    -8229    -8217    -8205    -8193 
   -8190    -8237    -8280    -8252    -8224    -8242    -8261    -8288 
   -8382    -8521    -8653    -8792    -8917    -8977    -8972    -8914 
   -8780    -8600    -8461    -8401    -8395    -8374    -8332    -8360 
   -8410    -8403    -8406    -8422    -8423    -8461    -8539    -8658 
   -8845    -9052    -9274    -9524    -9714    -9838    -9943    -9979 
   -9958    -9963    -9980    -9938    -9844    -9747    -9670    -9657 
   -9610    -9356    -9066    -8888    -8637    -8337    -8160    -8040 
   -7933    -7917    -7967    -7991    -8037    -8208    -8475    -8789 
   -9126    -9401    -9600    -9772    -9881    -9927    -9926    -9855 
   -9818    -9841    -9795    -9624    -9329    -8972    -8627    -8281 
   -7959    -7696    -7514    -7447    -7449    -7468    -7511    -7590 
   -7690    -7812    -7975    -8176    -8443    -8785    -9141    -9470 
   -9714    -9843    -9886    -9842    -9707    -9514    -9325    -9177 
   -9047    -8925    -8780    -8621    -8486    -8335    -8154    -7971 
   -7776    -7591    -7463    -7431    -7537    -7770    -8053    -8371 
   -8724    -9035    -9260    -9430    -9579    -9692    -9721    -9671 
   -9574    -9463    -9367    -9276    -9188    -9100    -8994    -8868 
   -8722    -8568    -8405    -8256    -8174    -8172    -8230    -8333 
   -8500    -8739    -8967    -9130    -9249    -9287    -9243    -9178 
   -9092    -8964    -8812    -8678    -8607    -8575    -8513    -8373 
   -8167    -7929    -7666    -7393    -7155    -7009    -6961    -7006 
   -7128    -7270    -7398    -7511    -7612    -7712    -7809    -7891 
   -7947    -8024    -8165    -8307    -8426    -8525    -8566    -8538 
   -8435    -8255    -8022    -7779    -7567    -7393    -7274    -7213 
   -7175    -7156    -7169    -7201    -7216    -7246    -7325    -7408 
   -7522    -7707    -7910    -8113    -8316    -8472    -8573    -8643 
   -8672    -8654    -8607    -8532    -8424    -8318    -8234    -8118 
   -7976    -7868    -7778    -7674    -7540    -7379    -7264    -7235 
   -7259    -7311    -7389    -7501    -7613    -7651    -7674    -7803 
   -7997    -8171    -8312    -8427    -8540    -8636    -8678    -8691 
   -8734    -8788    -8762    -8678    -8609    -8506    -8338    -8155 
   -7975    -7834    -7732    -7599    -7498    -7518    -7592    -7638 
   -7618    -7547    -7509    -7495    -7447    -7394    -7381    -7389 
   -7378    -7358    -7344    -7320    -7279    -7194    -7083    -6996 
   -6901    -6777    -6672    -6617    -6609    -6587    -6523    -6505 
   -6579    -6696    -6824    -6961    -7116    -7283    -7432    -7563 
   -7705    -7856    -7972    -8030    -8060    -8076    -8044    -7963 
   -7875    -7803    -7742    -7682    -7616    -7561    -7539    -7515 
   -7455    -7392    -7363    -7354    -7333    -7310    -7310    -7328 
   -7344    -7347    -7374    -7463    -7568    -7652    -7712    -7735 
   -7741    -7748    -7765    -7778    -7754    -7740    -7782    -7821 
   -7839    -7855    -7848    -7814    -7792    -7797    -7803    -7793 
   -7772    -7755    -7764    -7799    -7836    -7851    -7851    -7863 
   -7892    -7925    -7964    -8009    -8049    -8087    -8120    -8120 
   -8104    -8099    -8072    -8026    -7997    -7980    -7983    -8013 
   -8052    -8103    -8186    -8294    -8387    -8460    -8534    -8626 
   -8728    -8773    -8742    -8689    -8626    -8545    -8482    -8437 
   -8396    -8387    -8421    -8469    -8489    -8462    -8406    -8321 
   -8209    -8118    -8058    -8007    -7980    -7988    -8005    -7989 
   -7936    -7898    -7915    -7955    -7995    -8041    -8079    -8133 
   -8245    -8355    -8405    -8430    -8475    -8529    -8543    -8518 
   -8500    -8488    -8448    -8372    -8294    -8225    -8162    -8114 
   -8070    -8048    -8045    -8011    -7930    -7826    -7733    -7678 
   -7647    -7611    -7558    -7531    -7558    -7597    -7633    -7693 
   -7795    -7958    -8130    -8255    -8396    -8538    -8598    -8607 
   -8589    -8539    -8487    -8428    -8351    -8290    -8258    -8231 
   -8194    -8141    -8085    -8041    -7977    -7857    -7712    -7577 
   -7448    -7334    -7251    -7193    -7161    -7173    -7226    -7295 
   -7361    -7408    -7430    -7435    -7442    -7467    -7493    -7514 
   -7563    -7663    -7792    -7936    -8082    -8202    -8281    -8319 
   -8332    -8344    -8352    -8382    -8452    -8520    -8570    -8602 
   -8570    -8468    -8338    -8173    -7987    -7825    -7672    -7529 
   -7448    -7425    -7432    -7476    -7544    -7611    -7707    -7855 
   -8000    -8121    -8236    -8320    -8403    -8518    -8608    -8682 
   -8760    -8794    -8794    -8802    -8819    -8840    -8859    -8867 
   -8865    -8848    -8778    -8678    -8620    -8590    -8584    -8642 
   -8734    -8831    -8923    -8974    -8982    -8964    -8915    -8839 
   -8756    -8699    -8661    -8632    -8666    -8751    -8814    -8868 
   -8942    -9009    -9028    -9008    -8972    -8894    -8803    -8774 
   -8790    -8811    -8837    -8876    -8919    -8965    -9027    -9081 
   -9112    -9159    -9224    -9282    -9304    -9275    -9208    -9131 
   -9090    -9073    -9032    -8984    -8940    -8874    -8788    -8708 
   -8640    -8580    -8551    -8541    -8541    -8565    -8587    -8612 
   -8664    -8712    -8760    -8826    -8878    -8912    -8946    -8977 
   -9009    -9061    -9104    -9097    -9071    -9069    -9060    -9024 
   -8994    -8972    -8952    -8945    -8938    -8912    -8881    -8849 
   -8815    -8792    -8784    -8789    -8784    -8743    -8709    -8691 
   -8655    -8641    -8671    -8695    -8699    -8702    -8695    -8697 
   -8754    -8847    -8948    -9076    -9221    -9335    -9405    -9435 
   -9441    -9446    -9444    -9453    -9512    -9600    -9682    -9742 
   -9780    -9811    -9822    -9812    -9753    -9620    -9483    -9370 
   -9241    -9117    -9019    -8931    -8839    -8757    -8702    -8655 
   -8600    -8559    -8547    -8550    -8578    -8636    -8686    -8736 
   -8815    -8905    -8982    -9042    -9100    -9175    -9252    -9321 
   -9370    -9381    -9373    -9359    -9312    -9219    -9120    -9047 
   -9007    -8987    -8961    -8937    -8938    -8933    -8912    -8902 
   -8883    -8840    -8807    -8782    -8741    -8717    -8729    -8757 
   -8794    -8827    -8835    -8835    -8841    -8845    -8853    -8861 
   -8874    -8894    -8882    -8832    -8766    -8670    -8562    -8480 
   -8412    -8328    -8260    -8246    -8258    -8280    -8340    -8424 
   -8517    -8606    -8668    -8722    -8771    -8814    -8854    -8883 
   -8910    -8950    -8995    -9053    -9127    -9168    -9156    -9128 
   -9098    -9063    -9032    -9001    -8973    -8945    -8923    -8909 
   -8896    -8891    -8893    -8917    -8966    -8987    -8988    -9010 
   -9031    -9054    -9114    -9200    -9269    -9298    -9293    -9270 
   -9238    -9192    -9126    -9053    -8999    -8970    -8951    -8908 
   -8847    -8786    -8712    -8675    -8717    -8773    -8794    -8799 
   -8809    -8817    -8812    -8814    -8808    -8768    -8723    -8718 
   -8794    -8903    -8912    -8801    -8731    -8753    -8733    -8655 
   -8608    -8571    -8531    -8553    -8628    -8679    -8676    -8688 
   -8759    -8856    -8890    -8715    -8387    -8239    -8366    -8514 
   -8526    -8463    -8477    -8581    -8572    -8422    -8337    -8382 
   -8509    -8639    -8668    -8667    -8731    -8773    -8822    -8980 
   -9154    -9161    -8948    -8781    -8956    -9235    -9203    -8968 
   -8899    -9022    -9130    -9130    -9012    -8867    -8883    -8970 
   -8897    -8763    -8788    -8937    -9053    -9080    -8977    -8754 
   -8634    -8770    -8983    -9058    -9035    -9039    -9058    -9039 
   -8973    -8863    -8751    -8707    -8773    -8851    -8827    -8773 
   -8785    -8793    -8744    -8714    -8717    -8665    -8575    -8555 
   -8631    -8741    -8809    -8803    -8737    -8685    -8727    -8748 
   -8613    -8486    -8544    -8622    -8533    -8473    -8550    -8513 
   -8375    -8303    -8229    -8190    -8215    -8200    -8221    -8312 
   -8338    -8336    -8404    -8447    -8424    -8392    -8348    -8347 
   -8434    -8501    -8476    -8420    -8361    -8316    -8354    -8441 
   -8481    -8488    -8468    -8403    -8323    -8231    -8187    -8247 
   -8311    -8309    -8300    -8293    -8273    -8260    -8252    -8272 
   -8339    -8391    -8398    -8385    -8364    -8345    -8303    -8231 
   -8202    -8241    -8307    -8339    -8299    -8243    -8199    -8152 
   -8138    -8142    -8134    -8149    -8187    -8210    -8223    -8287 
   -8405    -8483    -8494    -8473    -8434    -8450    -8543    -8616 
   -8654    -8677    -8643    -8587    -8582    -8639    -8731    -8808 
   -8835    -8849    -8917    -8998    -9006    -8999    -9045    -9106 
   -9130    -9121    -9131    -9177    -9204    -9154    -9078    -9110 
   -9226    -9272    -9223    -9177    -9176    -9183    -9149    -9083 
   -9084    -9197    -9324    -9394    -9421    -9449    -9492    -9474 
   -9397    -9413    -9546    -9677    -9750    -9807    -9876    -9912 
   -9895    -9922   -10027   -10131   -10184   -10165   -10107   -10086 
  -10104   -10132   -10193   -10265   -10298   -10297   -10288   -10283 
  -10269   -10244   -10253   -10285   -10263   -10180   -10092   -10057 
  -10085   -10088   -10035   -10018   -10070   -10123   -10099    -9991 
   -9906    -9888    -9869    -9862    -9908    -9922    -9892    -9896 
   -9916    -9922    -9917    -9863    -9775    -9713    -9678    -9664 
   -9659    -9610    -9516    -9453    -9424    -9410    -9430    -9439 
   -9389    -9307    -9247    -9262    -9350    -9457    -9526    -9539 
   -9524    -9506    -9508    -9544    -9570    -9551    -9545    -9614 
   -9689    -9689    -9650    -9612    -9562    -9512    -9510    -9533 
   -9504    -9462    -9507    -9592    -9613    -9593    -9565    -9516 
   -9507    -9555    -9580    -9567    -9546    -9531    -9549    -9576 
   -9579    -9570    -9535    -9484    -9490    -9525    -9500    -9457 
   -9451    -9444    -9448    -9498    -9559    -9594    -9612    -9632 
   -9633    -9621    -9639    -9639    -9590    -9560    -9558    -9568 
   -9591    -9570    -9498    -9457    -9458    -9456    -9455    -9473 
   -9479    -9471    -9483    -9490    -9474    -9506    -9591    -9641 
   -9635    -9625    -9595    -9534    -9495    -9481    -9472    -9485 
   -9501    -9479    -9438    -9400    -9354    -9305    -9278    -9274 
   -9249    -9193    -9154    -9151    -9152    -9157    -9153    -9092 
   -9013    -9000    -9025    -9000    -8946    -8950    -8984    -8960 
   -8899    -8881    -8896    -8882    -8829    -8775    -8766    -8781 
   -8763    -8739    -8743    -8759    -8786    -8783    -8741    -8741 
   -8775    -8762    -8736    -8746    -8755    -8748    -8734    -8693 
   -8642    -8642    -8687    -8714    -8720    -8717    -8673    -8607 
   -8584    -8610    -8642    -8638    -8592    -8544    -8531    -8564 
   -8581    -8551    -8562    -8628    -8645    -8601    -8575    -8585 
   -8594    -8594    -8589    -8576    -8550    -8513    -8498    -8506 
   -8484    -8449    -8437    -8402    -8339    -8300    -8287    -8266 
   -8228    -8204    -8205    -8198    -8176    -8167    -8177    -8184 
   -8162    -8105    -8047    -8044    -8096    -8112    -8066    -8029 
   -8016    -7993    -7952    -7915    -7917    -7949    -7962    -7943 
   -7923    -7921    -7932    -7939    -7942    -7946    -7942    -7917 
   -7903    -7929    -7962    -7977    -7996    -8012    -8032    -8058 
   -8065    -8075    -8096    -8138    -8217    -8263    -8259    -8278 
   -8341    -8406    -8435    -8434    -8429    -8440    -8475    -8520 
   -8559    -8590    -8627    -8668    -8695    -8721    -8743    -8754 
   -8772    -8776    -8760    -8763    -8789    -8831    -8885    -8907 
   -8877    -8843    -8854    -8887    -8907    -8919    -8932    -8949 
   -8978    -9014    -9044    -9051    -9022    -8992    -9001    -8995 
   -8936    -8886    -8852    -8814    -8797    -8787    -8745    -8677 
   -8637    -8646    -8660    -8636    -8587    -8562    -8571    -8570 
   -8540    -8503    -8494    -8509    -8512    -8520    -8546    -8557 
   -8547    -8518    -8475    -8436    -8401    -8378    -8379    -8389 
   -8394    -8389    -8370    -8354    -8353    -8361    -8367    -8358 
   -8344    -8330    -8302    -8280    -8276    -8308    -8375    -8424 
   -8436    -8436    -8441    -8445    -8457    -8503    -8547    -8563 
   -8592    -8622    -8620    -8607    -8597    -8589    -8600    -8633 
   -8675    -8716    -8735    -8710    -8662    -8631    -8641    -8699 
   -8752    -8741    -8730    -8777    -8793    -8734    -8683    -8698 
   -8773    -8830    -8781    -8703    -8699    -8684    -8603    -8557 
   -8577    -8597    -8587    -8536    -8489    -8475    -8427    -8340 
   -8303    -8332    -8348    -8319    -8285    -8238    -8179    -8174 
   -8225    -8258    -8238    -8188    -8145    -8143    -8173    -8158 
   -8104    -8136    -8218    -8204    -8136    -8117    -8149    -8226 
   -8307    -8332    -8331    -8349    -8362    -8370    -8400    -8451 
   -8508    -8572    -8616    -8611    -8597    -8598    -8587    -8581 
   -8581    -8549    -8525    -8515    -8450    -8361    -8318    -8299 
   -8276    -8262    -8273    -8289    -8291    -8289    -8273    -8251 
   -8260    -8287    -8287    -8287    -8325    -8348    -8334    -8332 
   -8338    -8346    -8384    -8432    -8440    -8404    -8359    -8345 
   -8368    -8415    -8468    -8506    -8540    -8576    -8592    -8599 
   -8616    -8638    -8668    -8672    -8625    -8580    -8573    -8567 
   -8535    -8503    -8494    -8483    -8462    -8440    -8405    -8364 
   -8333    -8300    -8269    -8256    -8244    -8244    -8277    -8294 
   -8269    -8275    -8317    -8332    -8336    -8354    -8348    -8338 
   -8344    -8351    -8376    -8398    -8381    -8350    -8328    -8328 
   -8335    -8309    -8252    -8206    -8180    -8155    -8114    -8057 
   -8004    -7977    -7958    -7933    -7909    -7874    -7821    -7774 
   -7746    -7709    -7650    -7599    -7568    -7549    -7563    -7585 
   -7576    -7553    -7542    -7545    -7569    -7592    -7612    -7635 
   -7652    -7672    -7686    -7671    -7654    -7660    -7675    -7688 
   -7704    -7719    -7711    -7694    -7674    -7608    -7541    -7549 
   -7572    -7562    -7564    -7574    -7551    -7530    -7555    -7589 
   -7603    -7628    -7649    -7642    -7651    -7687    -7715    -7729 
   -7762    -7811    -7829    -7827    -7834    -7834    -7814    -7793 
   -7786    -7790    -7792    -7790    -7782    -7777    -7780    -7797 
   -7819    -7823    -7822    -7834    -7860    -7903    -7938    -7956 
   -7976    -7987    -7983    -7981    -7988    -7988    -7975    -7964 
   -7953    -7929    -7909    -7902    -7899    -7898    -7888    -7875 
   -7871    -7864    -7867    -7885    -7902    -7918    -7929    -7936 
   -7944    -7963    -7994    -8011    -8014    -8024    -8029    -8012 
