Origin Time       2011/03/11 14:46:00
Lat.              38.103
Long.             142.860
Depth. (km)       24
Mag.              9.0
Station Code      IBR013
Station Lat.      36.1587
Station Long.     140.4892
Station Height(m) 29
Record Time       2011/03/11 14:47:17
Sampling Freq(Hz) 100Hz
Duration Time(s)  300
Dir.              U-D
Scale Factor      3920(gal)/6182761
Max. Acc. (gal)   811.179
Last Correction   2011/03/11 14:47:02
Memo.             
[...]
   -1657   -42955   -48074   -34843   -50612   -70236   -32172    29339 
   51009    71162   153418   252026   274533   223583   153045    67305 
  -25112   -97242  -177314  -266518  -277322  -174747   -13003   158323 
  263628   216445    86381    29519    44952    54582    82421   140798 
  131139     -973  -139837  -148465   -64327    10934    74862   132293 
  151247   117931    34914   -31501   -22296    -6667   -30606   -36719 
  -26817   -68024  -157202  -207145  -149564    -8067   145642   262984 
  342537   364921   255303    67564   -40436   -93945  -172758  -246265 
 -336228  -422284  -384556  -244306   -94296    60279   184645   214856 
  176609   131194    81767     7307   -80724  -152642  -192429  -184723 
 -113601    -7963    92842   192097   283178   341423   344267   251121 
   85701   -50657  -119405  -130763   -86077   -29795     -289    17669 
   28319    39067    84542   132951    90207   -26065   -77803   -28460 
   26791    34711    -7352   -84853  -136421  -140937  -125304   -72871 
    9858    67632    93613   113247   115759    86220    69743    99908 
  114676    85655    54462    -4918   -82848   -58019    65873   150556 
  170012   156163    63093   -65067   -77371    16464   109701   208259 
  230163    25003  -239179  -322537  -298191  -252106  -151738    -7278 
  172231   307798   302184   224759   139390    50622      668   -36530 
  -83972   -94209  -113995  -211827  -315108  -341139  -295217  -163422 
   66356   278109   345166   283004   137672    -7933    12152   156318 
  205380   129712   -20977  -224670  -338214  -267271   -63926   197135 
  379793   343577   115914  -116993  -195407  -154606  -127867  -147331 
 -167326  -171350  -180356  -174388   -53597   196885   426623   521767 
  488892   361499   193235    63622     2566   -24005   -46171   -82177 
 -134547  -167383  -173978  -188950  -183470   -91840    72667   239142 
  329682   291557   151915   -32769  -219971  -323581  -274247  -148478 
  -84890  -101253   -99084    15577   239141   436286   436340   214044 
  -68106  -253612  -313139  -246303  -102562   -32545   -91594  -149997 
  -98100    33112   164680   258265   321535   333397   241493   131302 
  137915   166894    78301   -47798  -130648  -192969  -164137    -7556 
  122202   143938   139964   143973   124821    62751   -25158   -96080 
 -144149  -162411  -145398  -137620  -124140   -80728   -76799   -70087 
   74191   295217   438359   480998   428978   236700   -49781  -273462 
 -366536  -405230  -395531  -256375   -62242    42420    59447    36595 
     124   -13818   -24781   -78746  -149561  -179595  -161964  -128062 
  -68854    42961   170094   282541   370061   389913   301095    78311 
 -160125  -235927  -209944  -208967  -198540  -122815   -15998    86953 
  246721   419365   464952   426292   326939   126851   -29093  -100628 
 -222565  -321254  -283592  -186578   -61258    89504   182800   219811 
  253413   236549   121854     6431    -5139    -8468  -134115  -285200 
 -316008  -285884  -245446  -100697   114784   262375   315537   250101 
   58472   -84076   -55669    27884    76842    90033    18372  -121621 
 -230252  -276374  -261078  -145367    55816   225123   292783   277279 
  146058   -68563  -204872  -234834  -210212  -117023   -21897     2574 
   -4384    16469   113140   264465   343310   254474    76127   -46322 
 -120545  -169476  -108680     8477    75332    97146     6460  -175927 
 -244542  -191655  -142936  -101975   -72689   -57281   -42903   -39141 
   31123   166328   249509   325943   407446   346066   178341    43140 
  -96273  -257928  -295890  -174494   -55229    21377   131176   215440 
  231205   243814   231989   119695   -32585   -74907   -31087   -21945 
   -2821    27133   -38907  -144515  -174956   -80382   128172   285427 
  250254    79468   -89981  -134734   -51114    29671    49206    62310 
   63621     5786   -39372    25189   119074   111263    26480   -43860 
  -55062   -17251    26835    84454   131989    69687   -59020   -94300 
   -3507    83793    40307   -99116  -249428  -371818  -381664  -252279 
  -57224   159269   323728   345266   264381   170487    46540  -114399 
 -191216  -140715   -56350    25280    36099  -101222  -215677  -158836 
  -50246    60925   220653   344278   344432   210564    14293   -90801 
 -114661  -179706  -223829  -173279   -95143   -52606   -56567   -22836 
   65435    54963    -9787    61902   210997   285573   236839    62766 
 -127482  -209985  -233680  -252165  -199945   -90134   -32270   -15748 
   66587   211607   335464   403915   383125   249206    89061     4885 
  -25418   -68981  -146400  -273083  -406510  -415609  -260106   -34005 
  187021   353427   383058   270260   163532   181064   221394   117792 
  -72434  -148911  -102442   -99133  -163578  -182104  -135595   -46442 
  100172   248786   301951   210404     4647  -177214  -200480   -85792 
   53539   145366   149203    77613    32476    81065   201512   329105 
  375655   296208   121230   -82362  -269645  -384936  -296731   -56848 
   42916   -38116  -110863  -145651  -118099    48069   232614   290648 
  280486   233648    93029   -45579   -77668  -114646  -218112  -252788 
 -183925   -97431    26513   189435   300452   337817   274103    72866 
  -98960   -83710   -11976     4400    -5342  -115289  -287957  -292549 
 -149126   -45247    34640   124275   133632    49743   -64573  -167981 
 -214615  -236803  -300180  -292337  -100669   176703   412921   522924 
  449519   259420    67423   -59476   -96782  -111038  -211311  -396560 
 -542139  -523543  -312326    22897   364827   589064   618562   488537 
  306324   142058    33894   -10014   -86643  -257115  -404181  -436957 
 -372828  -192670    59549   229670   308054   387259   408881   281059 
   57736  -109652  -156894  -202751  -270228  -215117   -49547    96005 
  153383    99467    16650     5307    29972    48573    63692    36074 
  -40359   -60821    76164   274893   316213   163288   -62238  -284704 
 -404056  -333730  -143172    82636   272685   298010   173290    79304 
   73563    47479   -23657   -28787    36167    76086    79956    22055 
 -113110  -199264  -153868   -12470   178003   276321   141141   -95100 
 -220368  -226762  -172160   -95059   -14242   115969   268099   357493 
  395702   366770   224654    33814  -138519  -247744  -255145  -186824 
  -64438    37133    43228    59501   173937   335175   452866   460927 
  391253   223802   -78617  -335369  -431005  -429923  -307109  -101885 
   35032    98934   103220    11415   -38153    79571   201893   144885 
  -39247  -235477  -378561  -336944   -63850   211114   293100   234175 
  106087   -41997  -108059   -56228    61796   130433    14292  -201233 
 -284000  -196244   -20830   182034   274466   159671   -32418  -109332 
  -12083   200887   364233   288390    25011  -186356  -250473  -191464 
  -67721    -9135   -27731    10183   105624   137926   108154   102293 
  148813   209699   243388   275715   270161   132297   -83652  -293958 
 -437551  -407866  -227394   -26222   118794   182857   164177    84123 
   11658   -16210   -51747  -106812  -159774  -256686  -375145  -367948 
 -198697    11351   187364   308705   316611   200469    61693       -2 
   19200    53963    30091   -39554   -73503   -71513   -48162    39543 
  187326   347219   416003   293872    77485   -35351    22380   127794 
   76004  -146387  -332606  -407141  -434363  -313228    48290   457461 
  680936   663909   445291   151292   -18644   -11956    26742    -4711 
  -95373  -199334  -252985  -231474  -136606    -2789    11672  -163135 
 -303049  -272926  -212425  -128249      825     3607   -48426    33898 
  116298   114024   166497   274058   314993   248390   118809    16861 
    -873    30143    38417    -4140   -73689  -162565  -252975  -267799 
 -176586    -5715   202115   343847   368129   315417   205252   104529 
   85342    70260    -6733  -115886  -234614  -251770   -64162   200634 
  370476   387941   267742   138113   142151   240053   265117   156013 
    4847  -102311  -177453  -285408  -394575  -368651  -227361  -134101 
  -97519    -9424   131088   225575   207618    86233   -90804  -275907 
 -461008  -619253  -670097  -599924  -397347     6349   492476   799073 
  869014   777944   510328   159129   -70844  -207068  -338405  -366977 
 -286396  -261795  -313565  -280314  -140052    30004   286292   575290 
  671760   550124   354753   116874  -141170  -266192  -216766  -148572 
 -110181    23932   259841   396829   334900   207643   107220    10928 
  -47698   -45379   -76534  -196550  -308588  -335800  -316318  -257023 
 -118407    46847   110899    31282  -117201  -271078  -360118  -248945 
   36680   235283   242993   216290   173592    59686    28764   114972 
  137400    52777   -91364  -220902  -223559  -146670   -83151     -445 
  110635   223663   332553   367233   288847   185796    48402  -173563 
 -298116  -205034   -45822    64878   156274   289828   422389   377551 
  150425   -49792  -148243  -174737   -97176    41001   159907   264533 
  264972    46203  -233417  -378327  -413162  -371370  -269656  -148982 
   -1260   119420   174192   214633   213033   197407   245696   227424 
  101576    47769    75782    97576   127960   141655    99523    52899 
    5801  -100526  -217412  -300959  -383899  -381380  -245270  -108400 
   13299   208213   421485   567156   597391   445334   157520   -93947 
 -231319  -314109  -331810  -254940  -215859  -244317  -198250   -76217 
   72697   271374   458446   523683   447522   290645   102270  -108307 
 -318024  -485193  -563429  -519441  -394095  -258436  -112234    57297 
  131601     2315  -164222  -190928  -152652   -47061   194586   384395 
  368023   264389   177647   103487    64074    90096   109535    19086 
 -107193  -127895   -34166   132088   276586   303589   289521   287417 
  213848    75861   -38108   -66205    16237   131380   161330   109159 
   51386    -2472   -56119   -69720   -58420   -54498    16053   186412 
  296715   245278   158979   125070    79001   -11523  -108648  -208081 
 -339975  -445628  -394420  -159582   119851   235760   103981  -172358 
 -429827  -499235  -320337   -53784   113075   100504   -71435  -227962 
 -203712   -48353   102729   219824   324376   362923   304991   229945 
  168515    80828    -4627   -62301  -140123  -250110  -352662  -401978 
 -372856  -313335  -249362   -91178   235459   636146   885087   887541 
  773468   648249   509980   301889   -45028  -414617  -635861  -760417 
 -849672  -808886  -554348  -157160   227752   525113   680437   657230 
  541524   397504   193709   -63079  -312964  -495100  -544194  -445817 
 -260364   -18985   258161   449816   441883   305985   230173   283056 
  327490   230987    39816  -149907  -293014  -348924  -320315  -266469 
 -231926  -228823  -212021   -96045   107984   278671   350975   383544 
  473578   610867   636400   476478   228085   -54388  -349379  -577304 
 -677014  -625138  -451645  -229760   -13170   129659   164941   167747 
  192179   231691   300522   358609   285718    39237  -264803  -461733 
 -487844  -390516  -249124  -132903   -65370   -17444    39026   122191 
  249589   397994   543407   677308   693493   514714   262963    18167 
 -235554  -383971  -377435  -352408  -334259  -255879  -150422   -58861 
   13383    48235    73705   133829   193646   217567   227896   220192 
  172432    93736     5016   -49204   -35859    -5396   -30857   -99492 
 -143633  -158203  -197923  -273367  -333085  -295057  -121035    68271 
  129123   110040   110801   107835    61078    30649   108877   247990 
  281788   179606    52410   -60598  -150655  -152934   -78749   -10299 
   48019   128864   214499   236589   129132   -55354  -217167  -355133 
 -437868  -374573  -198655   -32887    55978    89714   108671   103275 
   92955   109672   103677    73937    75393    80328    84625   121042 
  126063    64587    27530    76944   123520    16348  -228124  -433514 
 -512047  -481544  -341940  -106930   156024   373460   508320   557096 
  522386   399241   192386   -46190  -237994  -360161  -401017  -312727 
 -126427    60710   186064   218837   172581    83691     6417    20142 
   98319   137081   135541   121638    77029    34050    16523   -11732 
  -53008  -100088  -159045  -177497   -92436    57361   160284   180869 
  202869   280242   340273   298990   197426   135774    97492      450 
 -110878  -161504  -193391  -232489  -241581  -212327  -136141   -18224 
   93054   179327   240613   268077   270423   222519    79522   -87501 
 -180630  -267537  -406581  -500968  -478231  -341850  -115605   149489 
  381311   520398   595054   644363   584584   369299   114576   -92991 
 -273973  -410095  -465453  -484024  -472044  -360148  -163686    15040 
  118411   185932   278765   378851   446770   488135   501386   434776 
  231516   -59358  -334401  -545285  -645645  -620863  -533613  -436870 
 -324961  -152136    68973   245029   355890   477672   630474   738830 
  741388   631422   420693   168407   -59610  -262444  -421408  -498235 
 -504859  -439242  -294008  -113158    75246   268948   441512   586697 
  719645   797027   741923   526329   199624  -117239  -334186  -477001 
 -559534  -521826  -379598  -223601   -90536    22482   123954   237728 
  353989   425301   445989   437764   337661    80683  -199615  -351192 
 -456303  -607072  -738533  -795527  -770705  -659293  -474933  -224498 
   92614   432179   674819   713938   592888   427593   232670   -35262 
 -365759  -687226  -904692  -973049  -884021  -617658  -239906    79006 
  244164   361575   617693  1011702  1294297  1232866   869401   420344 
   18001  -302413  -516452  -606572  -564139  -423808  -245379   -46037 
  168488   366275   517629   617671   662256   620849   459369   187018 
  -94670  -275774  -387610  -494458  -569110  -576969  -494283  -339658 
 -208901  -126246   -22370   123573   263125   325863   288859   196818 
   61184  -121178  -267177  -293747  -230255  -164816  -137130  -128790 
 -145176  -201890  -247709  -246579  -233403  -195998   -83533    76410 
  218280   312901   349758   347072   341939   333565   314936   267544 
  133486   -63625  -213575  -275316  -272363  -228618  -198022  -205298 
 -185324   -71436   152910   432095   650645   741081   694772   541374 
  341595   114253  -124531  -312961  -431774  -500947  -499332  -411070 
 -280542  -141338    32830   243252   412466   495486   516080   466806 
  342727   191981    40746  -121894  -292910  -447799  -564037  -619190 
 -566655  -386775  -156744    50533   252934   447154   583454   621754 
  493995   191942  -136768  -365869  -505676  -570566  -533298  -393167 
 -158535   160461   484701   694290   768200   800961   819699   708146 
  409919    28799  -331200  -623873  -822116  -920574  -882656  -667781 
 -318881    97980   545172   950288  1197700  1183506   855637   281521 
 -343781  -800532  -946357  -837548  -668143  -482886  -224720    28943 
  192539   302718   379394   375475   286182   165748    44638   -78412 
 -181511  -224553  -200716  -130114   -36083    25782    11804   -33085 
  -64543   -94726   -86311     2311   113060   178071   183377   155650 
  151221   186138   232920   281668   304083   242248    89378  -118157 
 -323517  -413473  -351037  -260164  -210925  -140217      414   192546 
  359100   399560   284387    92929   -76307  -203798  -301160  -331655 
 -255306   -94662    90702   245048   331428   348681   303814   206780 
  103799    22782   -59228  -159090  -267036  -348300  -352718  -276739 
 -183054  -108197   -30396    36518    38004   -24176   -70101   -29652 
   61680   111465   101152    81810    77104    91213   157141   272657 
  382020   451073   455299   365739   196614     8527  -139159  -247346 
 -336686  -356759  -261938  -110731    18484   121171   230375   348132 
  428278   406467   250673    22545  -136647  -162465  -133515  -126919 
 -143822  -168670  -180722  -152350   -87061   -27953    -2614    23279 
   64068    54722   -41344  -173648  -250092  -201046   -52359   125901 
  312974   486011   571599   498046   265167   -35720  -296896  -436184 
 -399344  -234683   -26592   210266   423056   535325   556416   499183 
  352419   144681   -64044  -220365  -329857  -430021  -501421  -496892 
 -389507  -169991    96529   295136   399571   460620   483065   424954 
  262367    18119  -224161  -383384  -465148  -508299  -501638  -415951 
 -261375   -78745    98309   256496   380711   453589   477060   454197 
  385378   283566   149747   -17307  -172709  -270542  -339437  -407895 
 -435710  -403466  -323659  -173524    46149   271281   451415   555354 
  536323   398155   166248  -154126  -405506  -386871  -192634   -24548 
  104815   211573   256242   252319   216302   150807   111080   102673 
   38964   -87874  -187913  -217074  -200651  -181779  -180155  -170640 
 -133489   -83124   -22610    37905    57288    25517   -44781  -150024 
 -230500  -198901   -67957    82972   217341   303940   302349   228493 
   97242   -85102  -254309  -375485  -445313  -441663  -400338  -347723 
 -244504   -84800   105660   308515   510291   662397   639843   382168 
   62586   -85614   -82996   -95666  -154206  -222189  -280831  -274540 
 -173224     -427   201504   366803   459879   495310   489602   436753 
  275386   -14625  -285670  -409844  -432383  -389500  -251874   -59128 
  114324   239134   305138   310751   250712   126862    16508    -5799 
    8116    -9245   -46652   -91004  -136902  -172699  -194972  -178148 
 -118803   -69226   -44009   -17150    11170    45840    99856   169222 
  236480   229000    89707   -87000  -169931  -155136  -104845   -57499 
  -15377    43122   120598   183367   198904   176392   132576    45738 
  -83615  -203377  -264831  -254085  -198504  -123352   -24765    80965 
  161289   215636   248811   239892   192318   154019   143198   108195 
   15412   -80484  -137240  -182859  -217138  -210367  -182112  -167743 
 -153548  -100060    -3316    99125   176663   237089   288330   288449 
  204577    84726   -30174  -164968  -286340  -299819  -225097  -170045 
 -145869   -95901   -33068    11627    62521   131384   206164   286390 
  348895   357413   300034   179218    26121  -107634  -199345  -237112 
 -221406  -191118  -161688  -116778   -54699    27706   119521   179858 
  183168   129608    47087    -3337    -7337   -16313   -31257   -16137 
    3007    -8311   -37672   -56878   -37186    21012    77851   109307 
  117230    99600    81300    94548   107795    83602    33689   -34373 
 -118949  -192059  -227355  -231192  -206676  -121288    32509   187399 
  276097   309839   315220   283103   225884   151480    28696  -105504 
 -151412  -107710   -51330   -15193   -14872   -40821   -40202   -41583 
 -114443  -204950  -215451  -146710   -63440    -1793    61507   153886 
  229265   217475   144987    69125   -30358  -134053  -149368   -84410 
  -14450    69588   165976   196929   150872    89669    29222   -61863 
 -172240  -229308  -213118  -173077  -103551    43007   249109   418185 
  460946   386740   241314    45787  -121199  -197347  -257596  -336521 
 -341464  -262104  -177219  -101273   -13379   105035   242750   308426 
  245027   115273     5337   -39519   -30436   -17280     -736    51438 
  132396   223909   274213   185869   -45823  -281727  -393933  -396669 
 -366711  -327116  -275355  -196599   -57482   128285   288676   354922 
  328954   281089   237444   152542    34485   -40102   -57483   -69231 
