Origin Time       2011/03/11 14:46:00
Lat.              38.103
Long.             142.860
Depth. (km)       24
Mag.              9.0
Station Code      IBR007
Station Lat.      36.3526
Station Long.     140.5954
Station Height(m) 24
Record Time       2011/03/11 14:47:14
Sampling Freq(Hz) 100Hz
Duration Time(s)  300
Dir.              N-S
Scale Factor      3920(gal)/6182761
Max. Acc. (gal)   545.872
Last Correction   2011/03/11 14:46:59
Memo.             
[...]
  -94523  -122197  -130758  -102857   -31586    62864   158469   226244 
  246163   243422   238237   197070   112608    27643   -48811  -126000 
 -183897  -208457  -202556  -166433  -108278   -49050    -1559    37377 
   72446   109037   139003   138231   121714   121596   122488   106692 
   81767    48053    15199    -2065   -15605   -39553   -68520   -91684 
 -110934  -139720  -164736  -153055  -105420   -35044    53996   125075 
  132315    97224    84252    95525    85410    56561    40635    59214 
  110337   140038   121048    91565    52350   -15728   -81046  -124319 
 -153482  -161475  -155534  -151401  -137239   -93538   -22892    38064 
   53040    36234    23486    24207    31418    44763    72738   116442 
  163380   192770   174035   100704    19348   -32278   -66688   -85755 
  -75526   -54779   -38077   -27986   -39116   -47664   -23067    13358 
   44342    65086    58438    18723   -43261  -102638  -144949  -180914 
 -198944  -172003  -114275   -52069    17502    98282   184824   271470 
  333346   331829   273407   214784   174350   124252    62817    10835 
  -19162   -30739   -42172   -66905  -108107  -155751  -187179  -191872 
 -176867  -155981  -143107  -135937  -114642   -70394   -18819    28034 
   74086   123645   182461   246399   291192   298510   266188   200099 
  116240    43459    14675    37588    80488   101452    85794    44802 
  -13901   -86868  -164414  -232677  -261532  -237077  -202927  -188603 
 -165475  -122226   -75241   -27018     6937     7834    -4569    -5926 
    8238    39263    80704   120367   149608   158732   145200   116456 
   76198    31386    -8338   -34949   -32664    -4039    30066    66844 
  105850   130671   131812   126619   130057   117296    58360   -37556 
 -124913  -159217  -141631  -103179   -63176   -23318    16155    50824 
   81646    95038    63726    -3497   -68983  -118585  -159381  -182672 
 -168427  -118125   -56016    -8849     6299    -6325   -20341   -11463 
   15877    39746    56057    79330   116742   159900   196055   209764 
  180389   105719    23359   -23522   -44337   -73828  -105993  -116822 
  -96908   -46084    14078    55405    72751    76838    81820    94339 
  109345   123182   139602   151041   123914    46558   -22059   -36230 
  -42882   -75008   -99211  -104730   -83079   -14055    66261   116345 
  139233   127095    60173   -36869  -109582  -145545  -171317  -186136 
 -175906  -153964  -120609   -63687    -5398    32855    56618    72822 
   91161   117761   140481   145122   130841   106600    81985    56016 
   20078   -17323   -38121   -38949   -19899     9491    27391    19332 
  -22028   -83457  -138434  -174027  -186175  -187656  -192666  -184414 
 -144923   -78922    -4404    49612    66211    63423    74756   106411 
  128737   126949   120848   124838   142086   172905   191451   174743 
  152099   140607   103300    46598    13960    -8784   -45047   -86447 
 -122744  -136591  -131639  -139583  -172231  -213867  -229691  -189901 
 -108468   -33599     5174    27007    58070    87231    87865    57436 
   26283    29150    68601   116635   151944   174121   182795   177963 
  169789   166017   167855   171347   166545   141714    87936    19722 
  -39600  -102810  -184354  -263599  -320443  -343381  -319245  -250926 
 -161645   -72711    11062    79065   106010    96315    88198    88510 
   78115    66015    59000    47608    41667    43849    29890   -17990 
  -92164  -165115  -213947  -233239  -216024  -151421   -39697    99393 
  227714   313544   344621   330255   303676   259550   162909    48433 
  -53791  -160488  -231461  -246209  -250744  -250076  -240848  -235161 
 -199052  -105644    17297   139117   250827   332952   349141   308113 
  254240   183189    85325    -8455   -81967  -109525   -67506   -20387 
  -27799   -60868  -102192  -153179  -186646  -196563  -190916  -153037 
  -69010    49615   162550   225533   235928   219634   174593    81032 
  -22447   -74264   -77097   -34088    54518   132731   185183   228287 
  224503   154079    47261   -52716  -111284  -139330  -158675  -156835 
 -135899  -113825   -80391   -28411    20770    44746    46341    42050 
   27599   -11503   -62543   -94672   -93797   -69581   -47200   -33941 
    1559    58648    93621   106442   123301   142388   151967   144752 
  119600    74509    11875   -38298   -53594   -58971   -78720   -94979 
  -94987  -100029  -116248  -122858  -118622  -119036  -115377   -76307 
   16537   137720   221814   234871   225412   242213   253357   211817 
  126875    26366   -74221  -157500  -213022  -243638  -249739  -230419 
 -206811  -199701  -189526  -147605   -67406    28873   100945   140345 
  167495   190171   212567   241394   248054   187464    76132   -28101 
  -98926  -140280  -160010  -152454  -116167   -84714   -79143   -71447 
  -42065    -6058    32521    85244   138544   164032   152962    99220 
     531  -108422  -195418  -260775  -287734  -256386  -195881  -139348 
  -83838   -27586    31250   107381   193357   264050   298956   281824 
  220995   143924    72926    32626    23131    11049   -10073   -26990 
  -41952   -52121   -60293   -81140  -111034  -134736  -132434   -77538 
   24796   124588   178312   183844   152448    88936    23304   -17513 
  -58826  -100541   -96986   -52363     4037    51824    58343    36940 
   28354    28703    24358    13797   -10973   -47067   -68283   -56092 
  -20232    22074    52651    57023    47117    38806    34484    46146 
   69227    77689    79782   102479   146114   186214   187254   136772 
   58731   -18219   -78305  -122709  -161184  -188045  -189470  -173611 
 -160872  -151746  -129875   -80784     -544   101470   203175   263221 
  245210   171468    99145    55080    42403    53209    68221    87743 
  119965   136752    94426     2649   -77839  -123884  -158867  -179077 
 -165973  -128647   -82072   -45441   -38928   -50826   -64653   -89516 
 -132647  -179196  -205714  -202942  -168782  -103111   -35796    -5924 
   -9728   -19736   -21004    -7219    22870    75366   154801   234607 
  282454   298020   298149   284738   224005    94387   -51934  -151963 
 -201048  -203805  -166262  -128292   -90511   -31522     5986     6310 
   -1773   -29586   -77546  -111291  -111628   -92819   -85431   -87635 
  -76286   -50535   -13590    37534    99680   156122   172760   144483 
  121557   133257   148009   150159   153991   141884   109804    98594 
  109542   117515   133476   154967   153956   118498    46507   -43266 
 -119034  -176714  -212932  -208091  -169342  -123707   -91336   -86330 
  -95369  -100655  -113712  -124457  -106531   -68236   -25539    11933 
   30290    20784    -6065   -11934    22391    62352    77739    79315 
   81265    89281   108175   126824   134923   131728   106142    60476 
   21033     9094    27100    58273    91692   129776   158498   161337 
  145440   109358    28884   -76475  -153271  -202472  -226703  -211235 
 -200580  -213377  -212245  -194786  -168356  -135246  -101627   -46135 
   45950   147007   220941   259392   273966   269930   244050   199480 
  149532    98297    38757   -18267   -55893   -77166   -81700   -63186 
  -40180   -37483   -52299   -67416   -75089   -77207   -68012   -30736 
   29347    61785    26347   -37251   -70087   -87464  -114095  -124035 
 -120943  -129742  -123501   -84820   -43199   -20667    -3953    42207 
  107448   127830    79914    10382   -17437    12895    66465   110697 
  122551    93146    46345     1082   -36287   -63929   -89163   -83676 
  -17997    59355    87693    90394   118326   148950   139827    95794 
   25971   -56800  -131486  -193658  -238706  -258975  -245396  -186937 
  -92929    10872   108829   187568   222371   209323   174753   152118 
  151506   126799    51164   -22910   -62349   -83035   -74802   -18760 
   58302   117380   149370   156725   139250    91645    13073   -63276 
  -98951  -102489  -101475   -94670   -66400   -21243    13127    22423 
   23669    15506   -18398   -59850   -94062  -122028  -121176   -78457 
  -25386     6872    26506    43345    49148    55799    77677    90661 
   68433    12776   -48500   -67337   -45347   -30453   -19164     9699 
   40304    38861   -21079   -85291   -78132   -37427   -26475   -35998 
  -33598     1183    75083   169137   220338   176916    86349    45611 
   64419    55979    -9434   -66922   -86429   -82424   -69090   -76777 
 -110462  -159227  -227588  -263069  -213819  -112974     -990    98061 
  192973   298795   343677   302309   254484   211501   150476    93420 
   36366   -25215   -68120   -84123   -71726   -36485    -3440      832 
  -30850   -89819  -161069  -218432  -253595  -263778  -231937  -173700 
 -101064   -10086    70879   132282   187983   223787   216564   172498 
  137248   128762   103114    48183    -6100   -47235   -72878   -88525 
  -94223   -97200  -125106  -168387  -190845  -174384  -121810   -49984 
   42491   147220   209366   198775   134734    39171   -62931  -133786 
 -125858   -18866   122200   195397   197589   195771   169409    86675 
   10495   -46962  -131828  -195358  -192584  -179620  -157445  -102578 
  -64843   -38154    -3784    -3583   -23197   -40566   -75191   -83849 
  -13399   125744   286319   343923   214330    43855    16323    56266 
  -11776  -137440  -173720  -129812   -76657   -41528   -46689   -96622 
 -136253  -103126   -14119    45851    30783    -7041   -31762   -68789 
 -101800  -116960  -138698  -129815   -28346   133555   254808   282959 
  239161   157341    80807    64394   116884   160742   104262   -15622 
  -76324   -53486    -9786    12039    -2406   -45334  -101743  -140377 
 -130464  -106864   -83760    -2635   129633   207855   175704   130163 
  179219   255186   221888    75983   -47072   -64899   -57371   -82222 
  -99566  -106295  -109133   -78124   -16313    39046    79234    99022 
   36237   -94931  -147449   -84395   -10981    17412   -20144  -108750 
 -135001   -71305   -29554   -58447  -130332  -190966  -172772   -83319 
   -9666    -3105    -7362    34976   112291   210721   272446   209218 
   57237   -67722  -133854  -170703  -200738  -232716  -215817  -108778 
   36166   175066   268562   259798   199936   168825   131691    52162 
  -40795  -144672  -252998  -312139  -293058  -193169   -34746   123759 
  263703   385049   421680   319704   131200   -45789  -152799  -198844 
 -223859  -230929  -190713  -102570   -13055    72984   214365   362930 
  377882   282514   221182   176693    56745   -57713   -95527  -122780 
 -119506   -83594  -107329  -135871  -114756  -113691  -126577  -131429 
 -159485  -190240  -187281  -147415   -93016   -59635   -28089    40036 
  115390   158978   163725   128309    90005    90243   101416    87832 
   48126    18686    48341    90219    90338   105391   179251   283172 
  349624   322806   238340   158732    71513   -46476  -166913  -260686 
 -313835  -325066  -313879  -298078  -286157  -231451   -74241   137076 
  339731   510094   518883   243155  -116049  -265225  -317230  -418556 
 -410853  -323903  -241752   -37434   168458   206266   197334   162837 
   14485  -175423  -289795  -289258  -209940  -136032  -105120   -56548 
   52665   169588   255130   295983   284116   253897   201201   119553 
   51033   -10447   -82420  -157194  -228388  -259655  -245210  -229426 
 -207961  -153566   -70793    25239    94553   135211   192317   212054 
  148809    92665    79855    53144     3773   -31259   -37993   -36562 
  -23514    22684    54963    24432   -23512   -39884   -39016   -53275 
  -79296   -64718    12422    99948   173592   260578   329694   300100 
  148261   -58331  -232826  -347451  -403265  -389910  -320192  -242024 
 -190169  -153315   -87425    16131    96887   110046    73822    46313 
   50516    30801   -11700   -18958        5    40222   104570   136419 
  112512    78990    53428     5100   -52615   -70176   -38996    43902 
  176148   308762   408346   495475   576989   613281   558567   373630 
   86513  -142246  -224587  -312127  -462400  -497681  -403903  -306621 
 -227237  -197347  -205391  -158109   -24053   167135   339318   433808 
  463899   469299   468566   409646   254243    41507  -170025  -310346 
 -367911  -394141  -384606  -343768  -344247  -385074  -407872  -410491 
 -361852  -230711   -85790    38960   178126   305192   374605   394754 
  340208   183686     1785  -137254  -188283   -83827    97066   219694 
  302475   362002   344918   252478   127188     9706   -73037  -136326 
 -190801  -206134  -190686  -172345  -136607   -86469   -21738    81728 
  176451   183574   125669    66219     3001   -42881   -21619    19460 
   38978    97180   223424   365043   446867   446945   398155   287315 
  112931   -41257  -134227  -209237  -287150  -330380  -306818  -220038 
  -83872    45092    92115    78875    82013   130333   201320   205721 
   77496   -71531  -108961   -94314  -128918  -193242  -248055  -306551 
 -337492  -287968  -220577  -206852  -218697  -252738  -304868  -313824 
 -281994  -247223  -210068  -181685  -156734  -101331     6138   190105 
  406808   534312   574788   629775   699000   723722   649264   448296 
  209512    59079    34814    75016    98755   120773   156547   165718 
  141895    60463   -69142  -188260  -301426  -391202  -432384  -452329 
 -463523  -477794  -494810  -489606  -406966  -185383    61795   142657 
  121574   173136   269443   321613   329626   275257   168086   105807 
   68099   -47712  -183672  -268901  -325523  -326296  -264598  -224780 
 -242010  -244330  -208966  -196206  -179740  -101318    11167   151043 
  341247   560491   763377   863079   780997   545503   256230    34767 
  -68693  -148259  -233253  -198579   -27093   109531    84758   -15738 
  -59303  -119011  -283108  -411967  -433722  -424315  -314616   -73001 
  147440   290996   396457   438533   376523   189742   -65390  -218856 
 -195469  -110303    -6067   173483   349928   455366   535233   551514 
  475541   360957   210767    55190   -29863   -76607  -156966  -219585 
 -223572  -236321  -262532  -267431  -256258  -233981  -239445  -267517 
 -279698  -302925  -287528  -165220   -24316    69377   130019   122598 
   70978    94204   202568   246544   169311    99346    86585    77684 
   61833     -836  -109944  -151854  -103874   -34922    53928   159608 
  249750   324779   383416   433023   485688   511895   495071   452744 
  379163   262138   110586   -31795   -77293   -47729   -61663   -71707 
  -32330   -50938   -95657  -122185  -217744  -337991  -424687  -514220 
 -570029  -581362  -603518  -629054  -612583  -479690  -173599   162019 
  323744   364035   377257   314650   270536   315911   330718   366245 
  485595   538107   403410   119369   -99069  -186248  -316442  -399062 
 -267458   -89707   -29772   -52103   -79073   -67707   -51376   -65578 
  -95587  -122620  -134720  -152383  -191903  -233195  -275145  -332463 
 -414378  -498159  -533349  -532831  -536143  -519880  -453130  -339226 
 -191573   -27881   125309   252394   367755   471779   561611   664440 
  743052   772969   818558   824028   693500   443985   116881  -127774 
 -164314  -153746  -183669  -140933   -91984  -143524  -204817  -268518 
 -395280  -512405  -588655  -655228  -674217  -605405  -439288  -223029 
  -72039    15784   128627   229273   305040   403070   454093   411027 
  284696    99325   -31284   -81537  -126529  -148185  -127816   -76515 
   42231   193715   286597   347701   403602   365071   224856    75958 
  -23083   -50698   -55254   -62254    -3954   118272   269447   427052 
  507961   507273   492566   460986   400424   309948   186363    63587 
  -47883  -166470  -268927  -338514  -392862  -417228  -377968  -286316 
 -174301   -51942    58690   123900   143044   134517   127251   149109 
  190024   210794   187606   143645   100523    45289   -11182   -50247 
  -72527   -79244   -97479  -128947  -144827  -149110  -130439   -91503 
  -61706   -15571    45011    38003   -79292  -233865  -300583  -268785 
 -223004  -148287    -5934   156477   302245   405393   466751   530731 
  580466   570545   491485   341124   135092   -80567  -253758  -365831 
 -434399  -472615  -468911  -439802  -452762  -502229  -530231  -565421 
 -612369  -606689  -551170  -458363  -302994  -118121    50328   205787 
  346505   455190   498433   441112   305868   142582   -25570  -169022 
 -250292  -276201  -277264  -262169  -244376  -266217  -330053  -354284 
 -282345  -139243    23385   129564   150393   156212   174786   187941 
  241420   342298   435934   527430   612592   631538   553180   368625 
  126376   -52055  -121197  -116512   -40352    99301   276229   474378 
  583476   501097   366564   324763   267344   114470   -18556   -69894 
  -90377   -94558   -81698   -63309   -31764    -2038     5733     1438 
   -1220     3910    -1609   -41768  -105629  -163653  -226006  -368115 
 -565428  -626176  -541577  -519720  -530707  -439035  -349399  -325325 
 -301554  -258672  -161672   -19722   101410   183268   244665   326206 
  422954   503750   563516   552147   415472   161559  -115973  -273233 
 -330070  -447745  -604241  -606061  -409659  -138892    90483   203269 
  233553   265588   271490   227159   168189   106024    71517    93665 
  151464   220878   291326   333673   303490   194098    24028  -184892 
 -362014  -425495  -342416  -136657   100300   297646   474383   621987 
  670827   627664   564079   502097   429894   354054   300369   234340 
   53434  -179761  -263162  -238949  -258176  -249696  -201466  -213728 
 -251172  -297302  -381984  -462541  -501044  -552879  -655531  -586629 
 -242281     6260    44873   145749   255595   271795   271308   207578 
  114883    87187    92686   103122    99490    83642   105226   188292 
  282612   303875   238270   112401   -48785  -147667  -135528  -132050 
 -190507  -243370  -310500  -429863  -569084  -691602  -764254  -758761 
 -622117  -311694    54544   290156   421646   551666   607147   592725 
  629882   665252   628364   577011   528969   457039   346586   163074 
 -102734  -348550  -482012  -508173  -401563  -237792  -185260  -203405 
 -236728  -332875  -424474  -455207  -457573  -421772  -318849  -163701 
   14104   195529   341621   421495   445024   437563   404856   316636 
  197911   132008   115359    92425    55969     3693   -65164  -118730 
 -132672  -106285   -46148    17086    31951    -8991   -54889   -64518 
  -42614   -32819   -58428   -65625     5362   131893   243526   307225 
  340146   373965   396778   356516   288031   244472   218147   244072 
  266150   166219    16266   -94545  -225303  -346129  -326702  -248359 
 -265882  -316986  -336589  -372794  -415465  -411670  -380510  -355485 
 -300188  -192326   -58360    68049   167303   269938   378557   451450 
  482635   410562   163662  -128031  -276852  -306174  -344049  -405316 
 -406150  -347816  -332423  -326239  -264322  -232754  -235292  -209982 
 -164493   -79831    48065   185482   311457   395997   421996   391928 
  275718    58067  -155815  -241764  -240410  -263268  -276204  -183069 
  -45424    45915   143977   262805   321513   343843   382802   396125 
  403266   434808   437926   437156   464972   474707   450133   372482 
  199818   -49283  -272622  -373426  -357071  -280632  -195950  -137409 
 -103689  -111647  -165121  -191086  -168601  -157948  -158268  -144760 
 -127209   -97849   -71299   -61765   -24177    52995   117645   138640 
  145262   185417   255864   297761   259118   151154    24978   -95602 
