Origin Time       2011/03/11 14:46:00
Lat.              38.103
Long.             142.860
Depth. (km)       24
Mag.              9.0
Station Code      IBR002
Station Lat.      36.7126
Station Long.     140.7073
Station Height(m) 9
Record Time       2011/03/11 14:47:05
Sampling Freq(Hz) 100Hz
Duration Time(s)  300
Dir.              E-W
Scale Factor      3920(gal)/6182761
Max. Acc. (gal)   588.071
Last Correction   2011/03/11 14:46:50
Memo.             
[...]
   70098    67820    77423   101072   129080   150820   147847   110907 
   64061    39116    39072    29088   -22917   -95372  -153778  -199165 
 -231016  -233132  -207704  -180051  -169858  -168210  -158888  -144105 
 -121448   -78979   -26465    17420    55211    93324   118263   118207 
  112494   120657   127265   119675   108037    98258    94433    96699 
   89030    59399    18009   -12706   -23557   -23062   -24207   -39019 
  -56706   -49878   -24172    -3146    15567    37596    57613    75996 
   86943    78376    50184     9149   -31905   -59342   -75737   -78866 
  -50078     3252    42033    46483    32843    25206    32849    51579 
   77472   100151    97493    67819    30492   -10396   -46740   -53034 
  -38092   -36912   -52747   -77810  -121362  -174461  -207533  -212592 
 -205096  -200781  -198293  -169011  -104956   -46868   -14294    12883 
   44681    75972    92274    89762    96858   125521   144374   126760 
   81388    33161   -12411   -56568   -77654   -64987   -39432   -24492 
  -23445   -23683   -23106   -20696   -12030   -17354   -46278   -74588 
  -89469   -85911   -49869     6919    55152    92229   123760   139876 
  138426   124435    95859    51857    -1352   -47368   -70426   -74799 
  -79605  -100988  -133241  -145140  -110674   -34226    51337   107812 
  132621   145650   148628   151545   162041   147310    94232    23849 
  -56478  -124164  -149562  -141138  -126931  -134782  -149407  -113918 
  -29172    46974    91708   129684   161770   159739   148418   167192 
  194707   194091   149543    81008    23499   -30361   -84265  -101786 
  -88220   -97447  -135878  -149114  -110885   -61945   -29367     9787 
   46942    50765    40221    36443    35063    42744    47539    29864 
    7293    -8240   -29770   -51143   -44384    -9111    15627    21089 
   36702    52773    42739    17979    -3338   -17603   -30586   -39959 
  -23199     4466   -18353   -89619  -133907  -125982  -106503   -98133 
 -104780  -132967  -148570  -108638   -38993    25320    73486    69267 
   23447    12453    39540    49992    65941   112968   139865   144682 
  149313   123210    86511    74557    66095    38635   -10249   -52005 
  -61298   -62056   -82717  -119758  -145383  -126826   -72863   -34778 
  -29575   -42701   -81120  -136037  -176032  -183294  -162095  -145930 
 -136666   -84139    12773   100948   159866   209539   252188   234397 
  140757    77436    95101   103798    76146    50977    24086     8139 
    4276    -8634   -21471   -53538  -107695  -120561   -75816   -31838 
  -24467   -33814   -44513   -53024   -35508     2602    18240     -272 
  -21366    -9555    20638    26281    12371   -14703   -65785   -92716 
  -57306    -3430    29180    42509    38694     7952   -46026   -77461 
  -54881   -14200     7379      249   -29769   -38183    -1938    43397 
   83631   117172   108641    54113    -4252   -40226   -58796   -81978 
 -117099  -144490  -141030  -105369   -68056   -34073    22498    73296 
   87399    96210   110232   107788    76784    16750   -35452   -41981 
  -11389    23136    34205    38429    64753    88301    68022    10040 
  -43710   -73210   -87312   -83627   -64951   -59834   -84199  -115015 
 -116826   -91607   -73425   -71766   -63535   -27076    23610    52148 
   60936    73614    91184   101010    89430    71603    67205    64889 
   60893    47349     7883   -45636   -99723  -146767  -172229  -179590 
 -186638  -183682  -139529   -69040   -20685     4510    33115    64742 
   95123   121943   126260   113765   110713   108466    95777    75475 
   44203    18329    -4368   -49562   -90945  -100239  -100519  -106351 
 -109037  -110633  -108012   -74961   -16989    30133    73116   118929 
  121351    52122   -49026  -120578  -129357   -79025   -10775    31026 
   39286    21597    -4122   -13680   -18525   -27192     2760    79287 
  129717   127755   124022   131384   128734   106529    66734    29865 
    1608   -27967   -51859   -70898   -91967   -89492   -43384    21122 
   87724   157996   202059   190610   144124   102012    70170    43040 
   25861    -2932   -45431   -61203   -57961   -60070   -48302   -30487 
  -41527   -67870   -68368   -38264    -6111    27388    90240   148150 
  133988    72975    24549    -9604   -22755   -17888   -49386  -111460 
 -149740  -176789  -197303  -164314   -81411    -3172    34360    26104 
   -1728   -17849   -34288   -56881   -57775   -65120  -113180  -141872 
 -115484   -97173  -112606  -109765   -65119     1592    63004    72226 
   17199   -10257    59711   135679   118848    63759    46925    51532 
   37023    14635    30754    61332    51887    31513     1902   -67169 
 -119970  -116705   -93827   -77395   -64863   -61943   -73627   -79047 
  -62655   -18482    27569      739   -57891   -43412   -30264   -76886 
  -86151   -55777   -57306   -86688  -117828  -129738  -111254   -72819 
  -35358     2319    57242    77055    37716    16093    10537    -9497 
    6788    60955   100503    83270    -1457  -100087  -166414  -196502 
 -191150  -130424     4306    99050    35272   -60489   -47330    10541 
   34354    38679    55183    71361    31835   -36629    10289   147647 
  149875    18668   -34689     3859    -8835   -69103   -59215     2295 
   -2068   -79357  -119219   -78190   -34823    13584    92763   131648 
  130080    60345   -84447  -126396   -74248   -69591   -58737   -24901 
  -10519    -6748   -33236   -61462   -61115   -50935   -44167   -50164 
  -10623    52600    30132     5471    68051   122990   110186    81131 
   82842    75939    53886    98179   168598   145090    34454   -67063 
  -84187   -52337   -55554   -61398   -12332    39733    32607   -12608 
  -31165    -9752     4311    12036    26037    -2461   -69387  -108460 
  -97872   -91604  -150633  -213533  -201637  -183970  -212755  -219852 
 -173798  -110866   -61561   -31563    33570   157525   257634   313944 
  355347   333675   270520   249317   253785   246391   223607   174377 
   96549     -626   -95125  -174448  -219376  -200364  -187581  -241438 
 -292774  -311363  -293572  -209273   -99702    14676   138167   223838 
  277307   308310   302267   320011   367375   394955   446784   489466 
  448865   412387   373282   235065    79145   -21532   -92880  -131824 
 -159445  -228121  -308202  -311952  -259279  -258929  -324679  -343174 
 -250503  -164786  -167690  -144797   -35462    81110   149869   163058 
  140470   133658   170298   215103   224307   198535   133645     7901 
 -116337  -127569   -66797   -57361   -74854   -84265  -153357  -244996 
 -243636  -132745    28955   127195    92282    21060   -26643  -107956 
 -188419  -210833  -205682  -188762  -181852  -208357  -243380  -280716 
 -285114  -223268  -159876   -77565    75190   191060   241706   313824 
  363246   346221   308544   256015   199920   126888    -4893  -111504 
 -135768  -136392  -135056  -175370  -274506  -344365  -344154  -288442 
 -220899  -213923  -243739  -228648  -159545   -65521    29172   107659 
  154008   144250    94964    63253    91947   150111   139259    78619 
   81801    89431    12256   -37038     3602    33533    32463    53840 
   58848    -6902   -74988   -71822   -34925    25537   126349   205594 
  250338   305603   318632   234381   116082    30096   -16195   -44241 
  -86445  -124194  -126955  -122349  -131699  -155256  -209002  -281390 
 -317287  -293496  -243099  -209476  -222831  -261726  -271090  -239774 
 -171176   -48803   105905   236186   327725   391847   376840   238227 
   84181    43658    70309    86465   110060   150506   176189   126997 
  -25583  -189648  -288949  -347627  -321023  -144423    51667    59269 
 -129020  -323012  -400996  -379061  -249992   -66742    51572   143424 
  252270   308868   331671   354282   317905   235543   201818   169433 
   37876   -87762  -130654  -186911  -275796  -364265  -388501  -269972 
 -142694  -125002   -85545    39198   130704   114053    68834    77299 
  109743   161376   207943   165824    90321    58956     3201  -114071 
 -232571  -316113  -379459  -419638  -415024  -387953  -339470  -246021 
 -171495  -161340  -142778   -36263   193776   496833   644131   453595 
  103545  -112320  -101272    67440   167815    62115   -69934  -116893 
 -187164  -285504  -320214  -251368   -67861   130014   172545   115335 
  156372   273966   344378   385757   433075   500172   600002   639418 
  574026   503990   445712   371049   313701   250703   174355   121352 
   93871    79651    26169   -65495  -132391  -209899  -367296  -543618 
 -541729  -348548  -267409  -360934  -328493  -138279   -37970   -61321 
  -72422     -299   139306   219916   133050   -51609  -178031  -142240 
   -4118    62247    12433   -50214   -54654   -13444     4184   -73525 
 -215637  -316478  -332024  -286982  -228313  -187868  -123700   -32542 
  -28617  -121070  -185524  -183199  -175497  -211509  -241991  -245366 
 -336972  -494791  -535467  -446512  -373006  -368523  -325524  -145363 
   97522   276691   361573   367483   363618   462568   571332   490982 
  347243   288018   186236    79195    73915    58452   -10767   -62620 
  -98959  -162036  -240850  -318103  -409644  -464182  -431388  -398172 
 -437934  -417726  -191291    76477   174065   188658   220294   280923 
  396675   437085   343879   301029   317533   254622   123505   -28573 
 -144294  -147545   -92357   -58264     1516    99745   138333   115285 
  135990   203730   236555   227574   222616   217505   185266   100795 
  -47628  -186588  -254935  -304238  -373148  -457486  -535096  -521050 
 -409817  -333573  -311411  -210326   -21532   121751   177283   183769 
  139388    40047   -24927    51618   140373    68469   -28935   -31797 
    7557   107591   211488   220707   239900   317058   315747   239571 
  207364   220027   252409   255237   132947   -39229  -104049   -52031 
   26406    12830   -75335   -67837    32323   116578   151638    56947 
  -91009   -71704    59545   125225   101904    30418   -18048   -31499 
  -88322  -150037  -115576   -57720   -61929   -35383    28378     -115 
  -93449  -170152  -238586  -239318  -104880    50932    55496   -81526 
 -233298  -347670  -439415  -494691  -493631  -491941  -484438  -379415 
 -234560  -150975  -105139   -78076   -32568    95908   215980   209859 
  112179   -31456  -143480  -100451    49050   141474   109103    -1434 
  -92997   -92968   -16199    41110    41793    59496    91669    84095 
   74920    95625   158263   248874   275918   279890   366231   432069 
  407732   375668   350294   361100   446493   495860   406781   202606 
  -22562  -160629  -215022  -247775  -247613  -230807  -244938  -266724 
 -279378  -301504  -316108  -302086  -244352  -126881   -11601    17851 
  -26516   -73724   -41114    89285   229885   326281   397149   454733 
  469570   396616   288837   221779   173415   153809   182734   182920 
   84696   -73436  -184961  -229050  -265275  -318189  -406334  -473020 
 -447340  -445044  -536520  -604500  -592406  -529537  -458462  -450750 
 -499196  -468685  -271092   -14124   133220   123566    16815   -40868 
   46126   137010    83287   -23318   -57143   -40787    17987   153217 
  263926   281460   286887   267567   194601   142350    46130  -147589 
 -211029   -67959    25192   -25235  -113666  -187548  -219970  -217028 
 -201679  -199323  -260540  -358616  -391781  -299178   -95562   150000 
  350842   442308   414960   355701   385221   447537   415965   406757 
  542192   649919   593770   505531   466751   386300   243020   103170 
   17717    -8722   -57438  -160235  -223433  -194545  -121873   -87364 
 -139240  -246544  -351768  -426744  -467479  -480930  -431146  -242446 
   34787   207691   190754    67171   -41982   -48598    10544    67481 
  128825   126712    40221    -5618   -36596  -189382  -424865  -584733 
 -597248  -513615  -372156  -167222    33830   150121   211722   265829 
  304651   329500   347342   342688   294839   204212   111918    32732 
  -83741  -224499  -293303  -235954   -77902    46005   -20638  -237135 
 -416342  -476783  -474227  -400016  -173146   122388   322248   424026 
  453353   417646   387485   334289   241855   229017   272334   279446 
  285249   311577   342021   352474   330292   289271   187164    50021 
   -6219   -17574   -43584    -4340   107102   187352   195912   182245 
  185819   174614    99094    -7563   -22791    78250   175253   239793 
  324991   396934   393554   293933   145900    55651    64086    90924 
   50714    -7145    -4429    26368    55807    66353    18955   -31602 
  -47477  -122946  -282235  -427667  -492133  -436416  -279557  -155222 
 -137997  -181320  -271676  -401538  -509517  -579768  -635736  -687399 
 -759131  -848697  -901210  -884684  -822126  -767802  -749505  -706592 
 -611050  -538329  -463299  -328402  -237211  -203658  -119360   -12841 
   92863   253567   441491   596732   673527   657139   591423   444784 
  162453  -100688  -135996    -4206    92060    96750    75109    81427 
   91876    39447   -62427  -130020   -94463    32096   138762   165503 
  141575    80094    72264   257642   557888   739804   704435   568439 
  500033   494637   440802   354904   325064   312690   253943   213319 
  229561   264117   320146   396471   458429   474652   449927   449733 
  460802   395202   287703   194158    92795    11518    -8308     6001 
    3742   -10810    30643   128818   176935   127447    67988    58224 
   41873     2726   -21732   -62387  -120119  -142694  -162455  -220882 
 -305766  -410663  -471895  -434441  -389026  -432933  -529849  -585111 
 -594936  -651331  -767368  -864293  -914847  -933443  -868691  -647112 
 -369129  -213375  -126849    13480   162837   282701   368385   390696 
  352997   235138    81395     8202   -39560  -137254  -183029  -160223 
 -157468  -155014  -122284   -99835  -130755  -237430  -390913  -514357 
 -556651  -534691  -481281  -391332  -240471   -27559   174569   261768 
  207793    65748   -58686   -86985   -37833    92277   261834   300655 
  226058   223931   310746   421284   525815   587923   638447   741629 
  839201   784384   572604   367350   263450   216419   164764   113083 
   81719    22290   -87139  -199008  -295126  -358894  -396872  -468094 
 -552945  -572601  -517953  -449088  -432500  -462960  -476391  -454682 
 -391625  -250182   -51419   161425   376730   518917   506154   387014 
  273008   228293   197722   103170    45881    96871   133348   132288 
  156438   155644    93943     2876  -116125  -260893  -367567  -372020 
 -280050  -149064   -33002    60451   139929   199741   240692   262338 
  251163   203509   165320   186422   229336   242315   242808   251272 
  282917   347360   381381   361826   365401   391986   400295   403120 
  361090   233460    86540     6574    -1950    20386    43609    22585 
  -47894  -125178  -193221  -186420   -79428   -31008  -143822  -300413 
 -368337  -360784  -348398  -383000  -484246  -522379  -339035   -60734 
   71090    54933    11856   -19140   -24326    -3503    -9733   -56823 
  -64664    14998   122884   216686   304831   332378   232198    58003 
  -85762  -185756  -260679  -272739  -237081  -212681  -152325   -13891 
  114535   154217   132921   108145   111478   165700   245431   303095 
  362472   420930   414285   357405   291695   197499   105965    75601 
   38844   -68139  -172102  -253391  -371845  -487796  -547737  -588396 
 -623519  -653910  -729200  -816346  -833147  -844127  -904435  -913006 
 -826306  -660863  -402258  -126493    93324   256323   322567   310938 
  271750   187860   114428   100208    84431    68155   109250   218702 
  347722   388813   340727   307955   254196   142086    84251    85717 
   63068    46907    61809    64345    49061    26047    -8476   -26321 
   -1969    48807   122274   221438   317990   396357   454437   469422 
  421394   320467   233733   222062   239348   244107   269301   290150 
  275419   265313   246462   194134   154983   138597   116689    91247 
   84875   107123   118190    89482    52149    31647    10625   -45551 
 -129165  -184723  -192499  -197402  -231349  -255005  -233871  -195324 
 -168439  -161348  -150566   -91935    -3209    70333   140614   222769 
  299909   364233   407853   424379   417295   359185   257087   219618 
  283949   337260   344258   371939   378692   292575   167347    61501 
  -32002   -98831  -137543  -217199  -375857  -563769  -715311  -787467 
 -772738  -719817  -692566  -670957  -565823  -410282  -338568  -327108 
 -269776  -199687  -189558  -221330  -219825  -154595   -63979    39412 
  131671   167224   194554   266217   336700   352898   307833   208683 
   66571   -66593  -135663  -154886  -152797  -136168  -125188  -133390 
 -163434  -223234  -303990  -375127  -397202  -346814  -251012  -163071 
 -108744   -88826   -95840  -106694  -101128   -74741   -30227     1037 
  -19118   -74300  -106795   -82124   -39798   -38223   -64352   -99082 
 -161004  -225969  -241444  -193073  -113654   -51001    -5769    35164 
   46799    33205    27467    36962    68904   123220   172720   207163 
  238942   264444   277372   289463   300798   276684   178594    54126 
   17711    60754    82076    84229    96085   103690   132407   173683 
  168178   118188    68312    52147    87757   159091   221094   244660 
  249873   258482   245742   200455   161133   151710   160271   182708 
  217463   248140   265803   269911   265237   257909   227917   157697 
   69775    -6177   -52520   -73897  -110494  -185530  -273750  -353240 
 -423212  -468385  -471015  -450529  -446467  -471952  -515349  -569499 
 -624946  -652702  -629041  -578310  -537623  -477205  -353596  -196524 
  -33983   147591   314998   413593   446120   440904   425238   410515 
  381208   354725   343654   292413   216600   202198   223879   224512 
  198189   122198    26027   -36477   -65841   -47669   -23071   -73088 
 -139377  -144523  -126453  -119440  -128868  -155164  -155985  -109622 
  -61283   -42915   -37301   -30924   -27002   -12219    25052    67181 
   98680   127826   164945   200476   205201   161180    94897    56734 
   70633   110989   127831   110455    95541   103643   119380   136052 
  168677   203426   218631   238025   260127   236763   155320    58682 
    4988     2141     7497    -1299   -11775    -8758   -10061   -44013 
  -91983  -118592  -124882  -140551  -187384  -251797  -294376  -286656 
 -238119  -174468  -102133   -36664   -11027   -13462    -8329    15045 
   60395    99685    96611    78493    87122   128423   188115   238344 
  267911   292925   321437   345374   334452   244312    95811   -18164 
  -46334    -2140    74574   104457    52702   -17593   -76534  -144170 
 -208434  -271235  -354130  -436865  -492760  -529662  -558206  -574112 
 -558591  -492218  -397956  -315630  -246370  -173343   -94480   -39483 
  -35047   -52952   -57771   -38783    13699    93141   161933   170374 
  126684    99874    95496    81127    86085   106002    83147    24636 
  -25282   -53321   -71542  -104130  -149316  -171537  -144210   -71973 
    9532    64204    86470    72936    15182   -51421   -76241   -58288 
  -12122    46057    79496    88357   106792   141647   170993   170176 
  160923   173310   169468   136542   116267   102785    92705   114739 
  142358   141277   119974    82522    40346     4536   -27885   -36439 
  -13797    17991    44867    40040   -12641   -86546  -159808  -220425 
 -250752  -247265  -218054  -187354  -186612  -207783  -214557  -191711 
