Origin Time       2011/03/11 14:46:00
Lat.              38.103
Long.             142.860
Depth. (km)       24
Mag.              9.0
Station Code      IBR019
Station Lat.      36.8808
Station Long.     140.6544
Station Height(m) -9999
Record Time       2011/03/11 14:47:06
Sampling Freq(Hz) 100Hz
Duration Time(s)  300
Dir.              U-D
Scale Factor      3920(gal)/6182761
Max. Acc. (gal)   313.792
Last Correction   2011/03/11 14:46:51
Memo.             
[...]
   -6784     3701    38857    58667    74235    86879    69466    17747 
  -38847   -72806   -70140   -10880    50199    46989    34488    17441 
  -37737   -62248   -69056   -83817   -19816    51238    19762   -19853 
  -29741   -26625    32304    70899    34187   -13462   -70114  -106750 
  -63931    10491    79844   130230   110380    43812   -25226  -102192 
 -132339   -85885   -40505    -3735    54635    63130    12836   -14232 
  -16251    -1453    40163    50390    16662     8484    28935    14599 
  -30782   -39714   -12841     7758    28968    20495   -43854   -88014 
  -80437   -50331    -1788    39174    61940    77191    66483    34267 
   -4562   -53175   -83020   -62868     1892    73794    76449     9670 
  -15919     8613     6340     -866    20003    34583    10581   -42621 
  -62987   -17804    51803    91127    80490    63134    55101    17242 
  -37936   -76177   -65987    -2332    25582      792    13460    40728 
   33439    29193    21409    11570    30081    21058   -23384   -32917 
  -22488   -17462    -1011     6658      666    -1074   -10194   -27724 
  -55599   -75209   -31257    35510    55477    34781    -9729    -6837 
   63929    97244    74535    40312     9109    16572    38861    12147 
  -30211   -15901    43780    77229    46930   -17478   -43956     2105 
   44215    25883    13345    21977    -6072   -33978     3213    64286 
   83532    51412   -26885  -104397  -131440  -121229   -35478   107050 
  167993   174959   180266    84643   -62862  -126039   -92448    -1359 
   59277    50638    22533   -10561   -25600    -3577    44274   116289 
  130135    25156   -86059  -124207  -122059   -64300    33620    66603 
   11356   -56526   -85677   -69857   -15615    47188    81525    84569 
   46279    -9879    -1028    45745    44449     8084   -28381   -15157 
   53256    65069    30381    24140   -28577  -104916  -100241   -57202 
  -12626    29176    37460    24480     7781     4418     6711    -8292 
   -3101     2444   -37435   -61164   -49799   -22347    56891   128233 
  119435    77732   -11241  -134732  -148390   -68986   -14203    25819 
   59900    74524    73892    34934   -24594   -50145   -23649    34061 
   68315    41758    10240    42285    75999    50874    28915    17696 
   -4400     4990     3340   -61826   -98152   -25932    51279    30570 
   10989    32720     7998    -1753    44958    48792    25656    20322 
   -6659   -17407     4016    -8951   -28394      310    47293    42021 
  -44083  -133817  -166914  -137988   -34975    78105   134842   120564 
   41753   -20512   -59933   -88657   -39875     6282    -5346   -22882 
  -72426   -86818   -17273    28207    24455     2535   -18635   -14528 
  -12531   -18115   -16799   -27870   -24429    21060    52423    57865 
   81857    87256    69916    74847    41994   -50253  -108692   -72002 
   25253    94647    92922    29898   -35945   -28714    25260    46629 
    7040   -63461   -96227   -71736   -25919    21203    44481    51272 
   72359    57473   -15287   -73630   -95605   -81524     3918    90783 
   95060    85021    82482    37083   -23764   -78755   -87781   -14162 
   41189    14870   -27359   -47678   -45825     1446    83077   101703 
   29514   -17211    -9477   -25076   -46095   -34903   -29897   -18472 
   40731    82097    37838   -14689     2483    37244    40745     2450 
  -78337  -110648   -38184    43491    65672    64339    70974    53597 
   -3057   -32403   -16856   -11530    -5949    18202     2885   -60786 
 -103650   -95581   -21910    96479   161038   146174    88163     5356 
  -53704   -75238   -73735   -36933    27216    85856    89996    50114 
   21757    -9927   -24543    20253    31586   -26591   -31472    33169 
   78854    77617     -966  -110865  -105774   -11830    45878    58214 
   44380    42804    55766    -2167   -92617   -91897     1664   101510 
  130487    75430    -7385   -49520   -68649   -92265   -47225    43114 
   71061    46692    -5851   -64771   -69237   -21355    44074    79137 
   58205    29609   -14481   -72012   -68956   -36210   -13137     9762 
    -200   -16844    -8364      697    -4327   -39588   -53757    -5208 
    9326   -35147   -36633      860    -3405   -24410    -3387    15136 
     154    -3492        5    16170    49093    19730   -57487  -110793 
 -136435  -103448    -7761    80859   110899    84897    27428   -31065 
  -41590    -7614    36212    61135    13769   -50441   -55915   -47641 
  -21924    32659    94187   157085   119515   -20083   -90388   -73462 
  -47125    -1834    55185    62041    19199   -14018   -40332   -63266 
  -62687   -44455    15115    80146    78163    48440    23669   -20335 
  -42771   -17128   -18115   -30411    32791    87027    48444   -26161 
  -93053   -71331    60279   125907    72481    17814   -25451   -54144 
  -33740     5269    39721    15561   -70160   -86077   -25488    17897 
   60300   106577   108412    70779    13137   -51525   -86956   -72045 
   -3622    96200   122951    27326   -75743   -87013     -974    98539 
   87311    -1393   -62692   -96990  -118432  -108487   -48790    55638 
  153375   189028   123775   -35341  -171496  -187275  -139842   -72444 
   35978   110626   109509    93303    37702   -59178   -98884   -67600 
   -8656    45434    48112     9212   -13875   -11650     -543    24735 
   66466   119909   139097    61782   -53941  -120241  -124458   -61423 
   17484    80174   159262   206712   194385   113010   -62151  -175570 
 -117532   -12315    66531   115233    94583    33393     9800    12800 
  -10108   -37553   -41516     2191    84068    94290    28763   -22041 
  -38686    -1678    28415   -12327   -11253    49199    44098    14934 
   22595   -23373   -58736    23533    67260    12589   -35114  -117167 
 -198177  -149147   -58575     5116    92588   130260   112404   101904 
   27225   -56562    -9750    51906    -9574   -69932   -24978    15284 
   -1592     5615    41917    75511    90649    37335   -21662     5739 
   34675    17558    10578     8041    10561    13075   -13292    -7097 
   49819    58103     4438   -34753   -56176   -91286  -100382   -45417 
   25393    50569    30996    21071    45663    43754    25576    71907 
  115965    69156   -53110  -175291  -164235   -51763    21361    74480 
  136097   145597    50771   -84344  -129784   -94727   -16802   107643 
  197091   183050    69934   -77753  -108991    -1401    54092    19864 
    6469   -34029  -101638  -112196  -109116   -51305   100633   153275 
   43656   -54114   -86404  -117654  -129106   -76445     1402    35517 
   36663    46086     9697   -65621   -71168   -57259   -69771   -28858 
   -2655   -49766   -46979    15962    14256   -19856     2240    11763 
  -11552   -10428   -27808   -51396     8823    96668    90743    15737 
  -49570   -87931   -64110     1223    16279    13071    45006    40103 
  -33059   -85548   -43142    86409   204460   160780   -10209  -119316 
 -123645   -78045    -6346    72374   115036    76087    29964    23255 
  -38773   -69716    45852   167260   243140   271788   149700    23629 
   40968    34048   -47906  -108850  -117707   -39283    43047    51764 
   82685   120876    51250   -78799  -116689   -25659    49246    43440 
   61248    65445   -27562   -96705   -91929  -103439   -77927    25965 
   52603   -22314   -54640   -66557   -57070    73503   156351    50873 
  -64324  -103745  -115923   -66757    41173   136800   146194    59245 
    5655     -474   -60562   -94226   -85120   -89486   -32693    46065 
   68866    57392     9214   -46845   -41444    30503    59068   -16714 
  -40672    73572   171252   146311    53111   -32632   -83448   -61161 
   27711    41119    -5577    27625    42755     2301   -15950   -73618 
  -50090   144496   230070   149228   102892    50969   -12423     2758 
  -28692  -110256  -124106  -133176   -78092    76052    82079   -65989 
  -79796    49015    83584    64184   173340   221762    78925   -17636 
  -88612  -201328  -172357  -114102  -129260   -26770    98430    41643 
  -44755   -52915   -95984   -88355    28300    90599   112894   113226 
   33513    12492    72188    43599   -65129  -154399  -209483  -152560 
   21437    71378    21497    78092    64152    -7870    22743   -62705 
 -120189    65723   104368    -8134    31896   -16650  -153552   -53340 
   65592    59734   146228   155874   -48232  -151463   -58939    -7870 
  -26928    46103   120942    71469    93988   147914   -16916  -181988 
 -155580  -128754  -118277   -28187    63352    96342   105997   105696 
   41448   -35785    26549    72418   -74320  -150784   -98291  -123762 
  -78917    98932   229836   297427   221806    27455   -56777   -95290 
 -164667  -115264    -2468    73092   222619   332498   200148    60555 
   37197   -95557  -236014  -142996     4036   -45826  -134743   -67492 
    9183     1635    24885    68489    24363   -45859   -36952     8937 
   32906   -25247  -127786  -116187   -34853    39064    91102   -33520 
 -189802   -65765    74006   -14378   -43789    11659    20055   111304 
  212793   196640    93326   -62410  -114694   -39291     2546    21790 
   77723   110618    82697    20784   -56501   -83143   -18238    43034 
   94626   141038    77362   -37161  -108467  -141559  -109512   -41598 
   13050    52594    45040    -9432   -58067   -82568   -66780     8230 
   61186    40169    39640    65660    99058   209214   227471    55960 
    8570    71834   -29321   -99287   -72076  -188557  -263601  -125871 
   -9577     2482     -268   -19134   -28045    25589   103613   133217 
   75115     -704    27673    88779    92942   119962   131549    56678 
    2295   -10384   -64833  -132551  -163140  -167193  -156029  -109045 
  -25557    28562    72922   120759    89426    94740   160535    74619 
  -25805    36412    40955   -68654  -105387   -60712   -17963    10432 
   42365    78514   110845   113812    42512   -25620   -15240    -3256 
   22511    75824    42151   -64334  -137731  -142848   -97947   -44979 
    -919    26410    13437   -36154   -43495    22407    42460    24689 
   68783    84180    48054    28336   -11088   -44332   -49121   -37006 
    3373    -7902   -43045   -27590   -62809  -105567   -55159   -48353 
  -66605    29478    95193    88876   122283    94351    43648    73707 
   53140    28337    61997   -26103  -137732    -9876   207678   238339 
  158492   131989    65701   -79339  -117506   -60013   -60376   -59794 
    3102    62230   104613   127493    76174    -4225     8818    81635 
   80401    23852    11780    14642     1851    18516   -13044  -118531 
 -128327   -93431  -170142  -136890   130319   269830   154910    93924 
   77349   -92535  -193443   -89707   -45821   -91694   -30122    80837 
  115328   112693    52658   -89807  -190261  -211267  -168957   -29555 
   90189    55375   -50486   -25068   112400    86367   -45016   -21449 
   -2783   -52273    56576   131844   -15577   -77366   -11399   -38738 
    2760   163505   144733    25028    65324   111448    29809   -51962 
  -88183   -62246    56212   165432   157154    49887   -26599     9071 
   43167    36425    75891    99578   118014   194868   139897   -55971 
 -132502  -115941  -103764   -30242    31912    18363     1189    32393 
   87429    30614   -85850   -29172   107243   121971    67588    17783 
  -11681    20695   114523   134094    -2160  -119696  -153238  -173497 
  -64603   109140   117493    46162    34113    42332    13686   -93775 
 -170246   -68079    76840   115370   117883    89354    -4668   -71410 
 -115915  -193693  -147029    32548    57892   -48247   -54601   -32127 
  -36540    37536   137048   170160   139992    55482     8506    58059 
   63203   -77382  -265199  -278920   -14572   257189   330566   384358 
  394007   161678  -111141  -180224  -156362  -167749  -155798    -2096 
  207837   193683    28367   -20413   -49207   -84051     4417    73556 
   79859   137344   164023   131441    66850   -97290  -203084  -122629 
  -76011   -91061   -73263  -147618  -193105   -24411   138581   120468 
    8259   -88132   -87743    13064    90537    49714   -21608   -89207 
 -208177  -238852  -139151  -100615   -83740    26353    66143    35227 
  165105   301183   197289    58150    13694   -71226  -141882  -140651 
 -139557   -64134    53649    78984   115443   153315    42813  -112145 
 -185533  -162324   -11100   153553   190108   110725   -62412  -164287 
  -71379   -12167   -25033    62474    97305   -16235   -61645     1686 
  -16870  -120263   -57822   187170   257723    94615    12224    -2442 
 -113041  -164117   -61092    45728   109936   202128   227114    86128 
  -47948   -96699  -204774  -331968  -329411  -192077   -20021    43426 
   24097   118651   268610   199978   -30227   -88767    11923    38466 
   94100   258139   286570   150092    30718   -77602  -189053  -194987 
  -82529   -18288   -50934    30022   180181   153159    80564    74986 
  -12936   -99058   -38387    59811   129954   226777   243348   109050 
  -45100  -245580  -390590  -221123    -9475    17362    92909   204448 
  299210   431833   350830    23309  -187325  -242333  -284209  -222044 
 -135577  -149342   -68540    63763    49069   103901   295552   203369 
 -177085  -293196  -147894  -117345   -60198   104895   133848   111738 
  192461   171051   -11961   -88867   -15874     9599   -56256  -132941 
 -135839   -55059     4011    30547    82947   132822   179790   202144 
  129911    11170   -63445   -84396  -114414  -152588   -57989   116159 
  137417    80532   137168   166938   -35454  -315783  -407687  -285941 
  -91764     -852   122548   449959   500308   138256    32656   106154 
 -124315  -291257  -207033  -185422  -110195   105966   194486    86891 
  -56846  -107468   -45803   128219   264574    97728  -138611  -104262 
  -50069  -113051   -97192   -58835     3078   190907   205845   -46202 
 -170943  -150082  -202874  -168410    18845    75648    29072   144875 
  306600   319127   186985   -93055  -313755  -197798    22937    29054 
  -63304  -134012  -128940    18236   112021    94704   158465   154668 
  -11730     2425   135859    25333  -101520    -6423    34630   -12464 
   87578   184176    92372   -50370  -147007  -134775   -55262   -79912 
  -30370   167357   151222     7298    28416    36317  -100984  -296188 
 -355086  -139632    55008   123153   290914   334244   182889   158122 
   69292  -213421  -295650  -222921  -281846  -217992    75650   242548 
  260108   296888   225603    -5284  -176844  -168647  -130843  -109516 
   33067   168923   121242    84924   186942   192228    34878    -1302 
   68269    -1170   -19465    97090    31814   -94192   -16591    86915 
  102864    75198    42000    56978   -27043  -222177  -185736    12412 
  -22578  -126464   -30529    55264    88155   264372   315037   -14548 
 -253208  -156061  -108395  -100563    42243    86472    59672   197062 
  307921   208863    30691  -163742  -245752   -87043    65132   128727 
  168584    50108    40424   256825   212986   -52503  -184073  -292169 
 -364151  -168089   117406   166122    79715    76004    56225   -15568 
   17797    44552   -68314  -160468  -153535   -86422    -4740   -32877 
  -60700   147177   321287   194840    55105    -6838   -99239  -120612 
 -159261  -257810  -228411   -66834    86645    81380     8642   122702 
  309391   305201   141469    21416   -45013  -163673  -187899   -42937 
   81042    90158    37036    65134   122168     8259  -102606  -124979 
 -234245  -234134   -18868    93733    51296    41049    43648    10689 
  -10509     -900     7994   -38574   -58048    52348   150198   121794 
   53930    34147    43193    30304    17185   -31291   -72503   -10203 
  -67486  -201944  -101537   -39878  -132967    -5715   180933    88179 
  -55016   -43980   -84264  -200658  -176205   -70128   -24250   -12258 
   11283    61263    87478    74807    96447   148202   108612   -51620 
 -189784  -241924  -237077  -157768    -5408   160330   274858   340579 
  319206   168712    -7206  -167115  -270586  -228986  -169380  -155477 
  -55379   123669   246139   222413   130995    94990    53249   -22845 
  -12424    61508    68125    72258   160535   176452    74085    40893 
   37222   -59384   -93846   -27819   -31224   -67724   -81192  -100664 
  -29312    65876    13274  -111303  -181972  -102515    97012   109914 
  -43515    32415   207726   206426   246430   276089    72261  -117245 
 -204892  -302612  -276516  -170074  -101826    -2572    68714   148993 
  357051   411809   168619   -32680  -160158  -358787  -351273  -140675 
  -55993     7756   155247   249594   254069   184975    93502   -36746 
 -185274  -221862  -151759     -288   133868   125219   158360   249846 
  131097   -51431   -77363   -99514  -127777   -61825    14566    52244 
   61765    49688    31007    23075    56887    42460   -20062    50888 
   82045   -89358  -139352    16434   161167   207172    69303  -183422 
 -292921  -158219    28137    62596    69343   122887   110337   189026 
  349459   198869  -141771  -225613  -174620  -193240  -130040   -11611 
   59742   131379   124132    -8535  -132192  -146498  -121820  -147305 
 -109966    26408    57634   -49426   -76328    33387   124868   121833 
   45198    53649   201051   174146   -32403  -152293  -277616  -392687 
 -253711    94316   337736   321625   264007   293811   233961    48501 
  -93313  -119407  -116929  -156578  -182428  -163434  -161931  -191281 
 -215996  -149083    82277   284044   302165   327831   327095    75913 
 -174980  -203006  -262386  -338211  -147256   156195   281042   256851 
  179080    37635   -73815    31827   238985   263809   127764   -20193 
 -141460  -205945  -190891  -113545   -15513    34158     5088     -843 
   65306    32961   -73781   -25720     6939  -118575   -72465   129290 
  158538    92567    31111   -11369    92348   147556   -39996  -243903 
 -256260   -49963   190149   211399    98710    29165   -98631  -336201 
 -381926  -137815     7405   -46577   -13523    77473    61802    95135 
  183511    95446   -44498  -115035  -230459  -273237  -213010  -222812 
 -130898   203225   418954   340557   226358   106082  -156285  -323276 
 -151751   125450   240955   197272    81109    22416    54042    48639 
  -29642   -75787   -88647  -152533  -150791   -18179   106734   201783 
  193608    61801    -7418   -48791  -145022  -232555  -265872  -204626 
 -120113    18052   268130   352088   233282   163553    31428  -228110 
 -345040  -269075  -135859    31374   148833   138601   118455   226077 
  364790   312650   134996   -34978  -254470  -378468  -297985  -182101 
  -47006   123574   193032   219288   321003   282755    16101  -136711 
  -85275   -80165  -107937    -3449   115331    64070   -23842    23239 
   89281    70306     3691  -135379  -256420  -135110   138343   262225 
  184930    63310    56682   133856   101557    -9175   -83455  -177696 
 -199554    -9666   201438   204125    94756    37721   -26542  -117517 
 -105997   -55282   -93117  -109618   -46487    -3910    51615   141536 
   88372  -103665  -181568   -82584    31432    32862    22049   122818 
  141826    18150   -25499   -26772   -87925   -71723    35741    75029 
   51263    22409     2231    57709    79240    33081   104283   167027 
   76366   -24613   -99216  -184624  -207687   -99488      616   -71049 
 -155871  -106498   -45502   -37903    22050   151312   193244   114947 
   17783   -89208  -165887  -149631  -118062  -103042   -12399    94819 
