Origin Time       2011/03/11 14:46:00
Lat.              38.103
Long.             142.860
Depth. (km)       24
Mag.              9.0
Station Code      IBR003
Station Lat.      36.5914
Station Long.     140.6453
Station Height(m) 58
Record Time       2011/03/11 14:47:05
Sampling Freq(Hz) 100Hz
Duration Time(s)  300
Dir.              N-S
Scale Factor      3920(gal)/6182761
Max. Acc. (gal)   1597.635
Last Correction   2011/03/11 14:46:50
Memo.             
[...]
 -152840  -196590  -123770   -21539    54331   111523   143581   126762 
   74953    33697    27396    45804    73296    84156    34853   -67098 
 -152811  -190232  -197820  -186766  -145900   -61925    22446    40579 
    4749   -19841    12349    88566   153749   159959    70700   -57929 
  -87291     -447    90290   110380    79762    35122   -18521   -67501 
 -120272  -182322  -182593   -80751    54428   146150   191666   215368 
  226547   220697   168310    67948   -44581  -141099  -177716  -162470 
 -156923  -121865   -32887    -4929   -64195  -103937  -105986  -133351 
 -165427   -97773    80747   209107   179482    95857    61410    43726 
   18611    13098    13177   -17836   -47690   -21385    30055    58785 
   80377    92153    52260   -46025  -156022  -211503  -158858    -9480 
  120808   130457    57887    13192    38261    70898    68071    60924 
   58435    17451   -87447  -203196  -255275  -223629  -139368   -56372 
   24481   100426    97899    37920    10797     1890   -21112   -25488 
   18481    88492   132017   127898   101620    92909   125459   179047 
  189700   113092   -26188  -141973  -161205  -126332  -105515   -87159 
  -70723   -68583   -55079   -22401    15356    60943   119256   181878 
  208986   138557   -10813  -127439  -142432  -101741   -83179   -81773 
  -64532   -43525   -17732     6315    -3251   -19166     3409    18364 
  -40894  -139157  -185725  -136799   -27619    72147   132802   137941 
   72053     3327    19784    87813   113349    87365    67277    60387 
   19973   -51750   -90684   -78138   -47690   -24305   -46716  -116057 
 -146273   -81375    19212    66025    63699    47121    -1871   -45318 
  -32588   -16341    -9047    39826    79633    37234   -25238   -39783 
  -68104  -118384   -86880     5674    58079    88231   128410   145168 
  144543   150176   128309    42144   -90761  -201773  -210169   -90500 
  110741   280201   277447    84705  -149339  -266864  -228316  -112621 
  -33520   -29982   -37544     6904    66985    96429   112559    93804 
   12406   -88342  -173374  -207467  -151879   -24990    94174    92540 
  -11125   -61858   -35595     1195    61128   129047   152646   138408 
   87041   -20808  -170461  -300542  -304251  -164207   -35931    -4923 
   70947   254076   360932   280360    91695   -83102  -151948  -125977 
  -68181     1271    84024   155033   155429    91205    23117   -32275 
  -54083    -8220    66749    87789    56840    17637   -51022  -111780 
  -91365   -46684   -27342    30455   120561   111288   -21111  -139517 
 -173253  -120702    19714   129062   106486    74449   112315   114693 
   74379    96366   191938   243611   141600   -37058  -145835  -173799 
 -186051  -212488  -199210   -96296    26446    76310    11977  -113462 
 -133752   -54245   -46249   -67825   -14425    20682   -30399   -71985 
  -14873   102977   159785    65361   -95462  -170623  -162852  -112057 
  -16411   110330   241058   265629   134866   -15883  -102250  -144203 
 -110720     5269   106136   140757   137393   131820   172462   203682 
  111064   -42291  -101820   -50059   -37205  -149546  -221931  -153263 
  -86324   -80376   -84781  -108522  -137385  -118084   -46102     3714 
  -28059   -87622  -117030  -122929   -99578   -28937    63995   149301 
  221587   260779   270371   253046   180890    92105    40913     5767 
  -53065  -116799  -104690     4261   128661   224310   283468   252089 
  102202  -120972  -318114  -374466  -295954  -210441  -146574   -76686 
  -79618  -139146  -133108   -50080    65854   135095   109355    55504 
    -620   -37093   -11111    -2774   -34138     -433    76231   113499 
  132643   158055   168749   133451    53205   -14355   -58753  -127832 
 -186211  -145654   -34090    33295    36467    38730    56334    77745 
   86293    24050  -108193  -184397  -146134   -86393   -78808  -121803 
 -154991  -107028    -3034   116707   222596   227892   136213    50217 
   33689    89170   141581   155419   168373   124908    -7947  -100831 
  -73595   -13295   -13710   -33229    29898   110762    51066   -89677 
 -169665  -206657  -221240  -179798  -109477   -85764  -144444  -180503 
  -52245   155839   236841   170514    77747    39344    68042   102856 
   88919    80300    82759     8054   -74595   -57441   -18983   -18551 
  -31239   -36782    11142    64152     4722   -93088   -60151    68479 
  107164    15810   -53716   -61253  -112896  -142040   -34450    72973 
   74681    91134   118478    20480  -115903  -133807   -69860     1972 
   42893    20038   -39698   -76193   -21858    81170    76192    -8421 
  -29357    28204   130515   201858   180186    76326   -80744  -160652 
 -125343  -137201  -189420  -163275   -97400   -35713    10970     1102 
  -30089   -15229    24458    23632    16679    94581   169433   116742 
   30275     4156    -9647    -8050    65551   163556   225597   253922 
  194124    40451   -97277  -162949  -165310  -139640   -98766   -58403 
 -109852  -189169  -120489    26008    68676     9598   -41099   -62608 
  -89860  -107169   -93864   -29332    84226   182009   217066   201290 
  184710   158642    64091   -20805   -34146   -99844  -193568  -116960 
   72678   141667    94950    73698    76102    93300   128223    53829 
 -134689  -222458  -121203     2034    32270   103503   188472    41460 
 -167396  -147110   -82707  -120880  -126521  -116015  -172538  -176052 
  -69195    18204    97659   203031   213285   165939   169217   145817 
   49089    11949    67514    33967   -82405  -137357  -211544  -289449 
 -185922     7786    69610    25369    31208   103671   113275    39704 
   30375    94346   140883   195065   166786     1522   -31911    74637 
    1381  -181827  -225474  -187066  -213341  -313897  -312122  -108967 
   35174   -14513   -49907    22954   139649   111434  -144648  -231537 
   18332   185554   150883   182853   281834   172278  -176716  -374299 
 -219438   -28257   -70416  -170719   -62509   105423    72993   -26233 
  -47182   -39431     2836     9015   -85737  -138188   -15422   196524 
  271103   202281   104274   -70045  -178262  -108934   -86044  -145892 
 -182146  -198973  -113228   138340   381201   362255   120925   -80574 
 -158670  -204813  -295337  -301809   -48720   194589   151251    57475 
   83774   149321   240966   290809   213571    85216     1404   -55962 
 -151884  -206041   -35370   199640   128890   -79525   -81263  -102523 
 -285140  -324563  -149569    66244   154529    12221  -125014    19535 
  264686   289296   136109    51540    38325    -7024   -16443    13603 
   -8053   -68277  -107384   -53006    50152    40443   -24405   -33979 
  -77324  -135529   -91627     9947    70722    28230  -100926  -176895 
 -173413  -140699    27560   250030   280175   240735   282787   225609 
   11244  -199297  -253105  -106705     6728   -82695  -126067   -12013 
   59915    89467   122248    90336    52270   -10975  -166054  -213472 
  -70637    -2762   -71241   -14974   152989   117038   -83259   -85477 
  105742   153313    59063    80997    96605  -107077  -305010  -264444 
  -87757    29471     -293   -48724    45421   153214    74159   -90493 
  -97507    65056   167028   130936    83119   -43715  -272833  -296374 
 -118056  -152371  -392896  -472364  -375638  -278836  -205489  -101973 
  130455   409819   553095   607037   622037   567702   461633   236166 
  -90740  -238372  -162200   -87422    58588   263962   217878   -21577 
 -220788  -339730  -277252   -70907   -61237  -327681  -485829  -335087 
  -28973   257804   331383   283268   376076   417106   194896  -133790 
 -357149  -327017  -143069   -31599    39830    91960   -13653   -97870 
   59665   191706   105007  -138149  -458747  -376962   238531   539777 
  265262    38430   -29249   -60725    91743   172953     4061    44505 
  165232   -82003  -325907  -377340  -341001   -48148   254044   185618 
  -50837   -37635   145745    91158   -80582   -70346    -8172    90573 
  337372   525836   451380   168701  -150918  -301985  -185416    31183 
    1839  -299310  -407536  -263807  -269371  -255446   -40662     1613 
 -146803  -176315   -60410    54106   112071   207554   310879   270942 
  140840    16693   -96008   -45112   163132   138649   -80697  -133535 
 -206876  -331831  -153299   148530   267169   259222    84016  -223699 
 -369424  -372922  -449057  -545854  -504395  -221677   166170   419410 
  488628   409883   363401   404057   360969   347609   373808   222309 
   -9540  -288753  -608012  -639443  -344602  -112528  -108640  -132309 
  -67268    76024   248844   233463    12246  -162052  -239991  -346264 
 -406194  -273909  -121567   -43749    97775   278550   501072   631928 
  446339   155091   -75444  -252047  -313600  -431206  -586696  -557914 
 -478947  -298349    20317     6641  -133988   117326   373048   453754 
  504773   231244  -138417  -129325   -21083   -39664   -45978    41591 
  256717   270174  -114389  -375111  -348372  -365174  -360561  -251436 
 -122856   -10155  -110317  -277635   -24163   443953   597654   424546 
  104815  -120759  -140097  -228630  -272885    39243   358654   491091 
  524046   247414  -111645  -141050   -40692   -80852  -250782  -410444 
 -486099  -532465  -449629  -176865    75952   221643   260618    52810 
 -283627  -397474  -269647   -94048   170877   517818   623247   455718 
  316385   247745   152616   -47302  -316648  -429263  -357179  -226782 
  -56134    92300   211950   389929   511497   405258    57780  -433621 
 -793395  -850868  -776210  -576464   -98776   395628   616333   668633 
  520127    67965  -256566   -37139   418524   580102   424159   364298 
  381911    85532  -287340  -395833  -296876    63129   479856   618972 
  641107   672309   618420   507870   288862  -148397  -671748  -866835 
 -557951  -212253     2683   326923   362504  -106547  -488831  -513809 
 -465653  -541677  -565169  -312441   -57905  -157795  -344159  -287397 
 -176476   -22292   358461   651688   710026   823885   785306   308879 
 -221572  -471262  -334048   256175   800016   916771   897032   607595 
 -181406  -857104  -926443  -685183  -632821  -747219  -597299  -390538 
 -571071  -775469  -540982    17165   535588   899216  1231473  1277518 
  773219   202269   -24053   -43036   172264   427464   260304   -52555 
 -169376  -285333  -350380  -309432  -395872  -543854  -484227  -218715 
   41851   140875   103944    78674   128166   188333   255412   434596 
  684223   751172   565374   248138  -161691  -444376  -272231   104445 
  100331  -121590   -71911    -9908  -102418   -34215   118830   154780 
   12491  -324324  -652994  -839024  -808508  -557931  -427178  -428156 
 -192688    82596    91530    11293  -109153  -177737   161689   721038 
 1016129  1053929   910122   628055   544634   651671   472860  -152960 
 -767684  -746008  -349529  -281348  -259740   -70476  -145009  -269356 
 -187926  -151617  -247897  -443671  -524784  -288176    74223   379027 
  714441  1126544  1392427  1269005   640618  -445810 -1382586 -1570574 
-1372828 -1270801 -1091116  -736066  -437198  -233854   -15943   210720 
  531307   940155  1100919   963313   915455  1060155  1085320   929967 
  778695   366006  -388396  -679726  -267715   -40421  -295463  -417368 
 -331481  -435161  -569103  -526750  -527712  -635008  -721390  -665415 
 -380823    18513   404750   759379   945915   802946   354556  -136265 
 -236351    81825   358781   508151   724766   825791   649218   350569 
   -1373  -464816  -906015  -901423  -411806  -133574  -181223   -17077 
  103872   -94982  -158515   116297   549201   763671   507580    73794 
 -361373  -800049  -947933  -757516  -527221  -349174  -100263   344687 
  825203   965622   774121   495652    37559  -526840  -659634  -265566 
  221924   390758   119938  -224061  -481287  -766948  -847040  -632782 
 -347064  -183366  -108137    61470   207105   396301   903917  1393980 
 1506214  1330731   931288   393500    -6065  -104339   -75973   -34375 
   24478  -172155  -583799  -804085  -927153 -1076928 -1025237  -763678 
 -476579  -303873  -226531   -93125    14673  -124005  -321161  -205251 
   93825   316763   572908   847998   959432   940293   808518   523408 
  223951   -55760  -452826  -762686  -726520  -491451  -175077   -14080 
 -295274  -530998  -258514    55893    22324   -64869   -33633  -124841 
 -223134    77306   591833   870811   884958   720399   484518   405327 
  455641   492831   547889   473869    38816  -668773 -1335665 -1608470 
-1431244 -1157146  -962889  -645493  -143464   295246   419515   193476 
 -120108  -321977  -400008  -191094   135674   206768   316453   767765 
 1313432  1686912  1705940  1316128   687555    10637  -567885  -988615 
-1190053 -1100824  -984643  -986354  -808171  -486049  -285620  -188166 
  -80060   161443   501283   688946   479547     3315  -231311  -224612 
 -264016  -207064  -163366  -291763  -228152    81189   245168    89764 
 -143198     2222   489999   766124   698456   623177   608413   343509 
 -307217  -922735 -1029324  -724522  -394924  -210983   -40829   313492 
  757206  1006758   958741   656052   200085  -210559  -409504  -478344 
 -498666  -164764   498821   869091   947895  1138130  1142617   808190 
  639537   629060   373807   148496   292356   396512    98310  -343372 
 -706921 -1031569 -1221774 -1326406 -1525901 -1607167 -1435329 -1155278 
 -797168  -579153  -556227  -354090   -45832   115299   173365   -11573 
 -360031  -421167  -212727     7400   372773  1030901  1750339  2159106 
 2156424  1957626  1761076  1575072  1272147   860350   593344   529109 
  528158   385115  -432217 -1845543 -2521571 -1963479 -1453340 -1548273 
-1588041 -1519727 -1433284 -1142598  -893205  -846366  -862621  -857483 
 -736250  -506514  -313808  -207131  -121118    41972   540551  1513707 
 2383924  2443303  1935079  1606483  1582951  1434748  1138616  1159168 
 1372079  1162132   616561   174220  -196877  -649838 -1179999 -1597212 
-1578668 -1161477  -757899  -580084  -548019  -575448  -638042  -697584 
 -739709  -889079 -1171056 -1317054 -1158767  -819482  -481686  -136889 
  343689   820248  1165636  1508921  1727390  1682165  1589237  1539779 
 1445588  1320889  1197964   983014   451626  -367973 -1014452 -1219601 
-1232812 -1296562 -1389452 -1515934 -1619566 -1502170 -1278645 -1197849 
-1117074  -910164  -754333  -552587    67717   874434  1147500   963905 
 1005625  1235383  1338537  1380797  1332243  1297734  1395008  1300458 
 1039839  1040526  1258421  1222217   434915 -1038407 -2048965 -1803646 
-1289591 -1345490 -1436010 -1435854 -1568973 -1518804 -1315841 -1149757 
 -901203  -667037  -496664  -155905   474369  1298004  2025861  2315490 
 2017443  1333014   895555   949439   973018   980117  1209053   914241 
 -314221 -1362918 -1079558  -242501  -303982  -828764  -942655  -965699 
 -923961  -627697  -404273  -242943   -17419    70492    87426   230843 
  358058   283169    86600   -72517  -219692  -437335  -601719  -583295 
 -421223  -197736   -97288  -173145  -200041  -171069  -197423  -204104 
 -219639  -199973    67628   458036   636341   558943   489994   618554 
  754708   734909   747396   856572   898760   864892   845720   871018 
  913288   847628   568199   171761  -124348  -264713  -468025  -888708 
-1336733 -1527080 -1392503 -1141703 -1017646 -1015963 -1045730 -1092248 
-1074218  -875943  -532392  -175252   188142   637254  1186687  1718352 
 1843159  1381347   886764   815573   882905   664350   186240   -73133 
  109582   277266   125208    -4577    63796    -1801  -271207  -375047 
 -152529   144159   278447   328713   456923   636993   612098   215787 
 -278179  -641743  -938567 -1018630  -860863  -847882  -962360  -947691 
 -952773 -1028104  -995384  -849469  -644238  -434328  -245933   -12691 
  233678   441083   681463   889960   946676   982973  1089286  1174795 
 1213861  1135251   776135   179166  -320240  -428929  -260753  -163231 
 -245943  -345775  -357230  -378521  -508390  -589329  -499811  -495358 
 -685792  -839664  -889047  -838905  -641210  -389390  -151124   109873 
  384419   660930   941939  1156604  1263995  1302875  1243225  1041121 
  727931   357213    45266   -73212    15571   146602    26836  -387814 
 -755070  -916171 -1018885 -1074556 -1038151  -929782  -705115  -437828 
 -287522  -210120  -101314    34716   189976   293307   203710   -10045 
 -126578   -69110   164497   516614   774237   813778   738480   652185 
  513123   285112    58725   -92714  -122438   -33030   -50787  -302866 
 -601479  -819226  -935112  -914539  -828029  -742380  -596448  -350938 
  -27077   354831   712842   929920   988651   980019  1012068  1044822 
  820438   308677   -56842   -92972   -94771  -198082  -364766  -574033 
 -643622  -434293  -110010    84947   107206    42420   -30772    35300 
  222700   221196   -32862  -240812  -202968   -47801   -42726  -143153 
  -47233   221057   287353    38533  -215304  -235513  -107995   -24785 
   18565   134130   257096   335933   435810   555627   692140   846409 
  889735   665315   232349  -294204  -906156 -1320434 -1283748 -1180748 
-1242141 -1112533  -796538  -610645  -440815   -97675   299183   671757 
 1041844  1224848  1157858  1222002  1481158  1490767  1144396   678724 
  207589  -316427  -841696 -1025199  -888434  -984712 -1262893 -1162582 
 -756869  -455419  -292899  -178947  -123988   -99791   -47450    12157 
   18300    17923   115692   254774   329413   402132   544523   733942 
  893589   911607   820392   774020   751768   605341   349329    90242 
 -148998  -372934  -595821  -692803  -462364  -136066   -56919  -106675 
 -135546  -158673  -203498  -329819  -450121  -534968  -682231  -764549 
 -723870  -717427  -758163  -720582  -490814   -98595   272285   512677 
  642490   758303   956683  1125485  1053134   750669   383993    17282 
 -300646  -383711  -239150   -87809    69367   211384   181442    92775 
   70212   -15454  -172626  -254185  -235721  -127849    27913    79069 
   86244   175818   138599   -52490   -80713    14794   -23335   -70018 
   62694   198579   133300   -66447  -217369  -266295  -281452  -197145 
  -31420   -69627  -262904  -294107  -289402  -400001  -384163  -269563 
 -302172  -363239  -291499  -151744   -11608   135060   367967   671129 
  883003  1026493  1207088  1280867  1113961   798055   480832   200217 
 -235932  -854884 -1228747 -1254209 -1280032 -1268094 -1029552  -722193 
 -481288  -257665    19814   341808   575528   694738   847684  1012139 
 1025931   848628   455909    67198    81310   251879    99577  -282659 
 -613780  -655696  -417820  -235904  -164548  -101629  -135944  -221592 
 -242601  -209388  -116341   -21207   -16953     6122   168092   375577 
  487277   437881   272765   103407   -34831  -118743  -160814  -286303 
 -420128  -397470  -373168  -424258  -311052     1255   253321   311925 
  220938    58065    -2618    97966   155070   112837   107987   150949 
  207346   298566   378962   354508   262297   225166   212198   106577 
  -17615   -20801   -43234  -215392  -333466  -359686  -469214  -556102 
 -539804  -565755  -590208  -475811  -254894   -11898   201109   364244 
  459885   518532   602298   652409   587280   393027   135258   -54137 
 -193986  -305343  -293215  -262595  -280665  -216861  -130187   -89970 
  -50164   -59799   -87383   -76381   -71175   -39227    44329   138801 
  233569   270033   192172    68536   -14764   -43696   -41682   -41058 
  -57711  -106053  -206549  -313791  -351035  -313466  -221681  -111970 
