Origin Time       2011/03/11 14:46:00
Lat.              38.103
Long.             142.860
Depth. (km)       24
Mag.              9.0
Station Code      IBR013
Station Lat.      36.1587
Station Long.     140.4892
Station Height(m) 29
Record Time       2011/03/11 14:47:17
Sampling Freq(Hz) 100Hz
Duration Time(s)  300
Dir.              E-W
Scale Factor      3920(gal)/6182761
Max. Acc. (gal)   1070.256
Last Correction   2011/03/11 14:47:02
Memo.             
[...]
  208564   240808   177958   122609   125580   143179   196619   270959 
  307292   309126   280423   247852   202160    78754   -37628   -91547 
 -185041  -275682  -294492  -310885  -309754  -251306  -163393   -35578 
  126901   282310   377445   329037   156321    36852    60072   101032 
   84178    68526    23107   -72449  -114999  -100059   -94388   -86931 
  -73337   -76954   -85021   -69876   -24246    23112    19028   -32382 
  -67974   -64415   -42546   -33558   -38939    -8580    53329    99959 
  167783   279059   351813   355618   359670   381283   378455   348728 
  301556   234827   162892    77709   -33282  -150420  -280633  -391221 
 -395842  -337087  -300187  -263659  -212757  -144318   -33613    85299 
  162866   194725   201482   227200   272167   263294   153328   -23413 
 -157457  -162674   -98613   -59880   -40687   -51202  -122195  -171524 
 -151717  -132251  -134877  -173089  -256273  -256783   -82900   156402 
  318911   377333   365263   320729   287420   241456   150537    63801 
  -51353  -218048  -294723  -288657  -332320  -351936  -265983  -116517 
   90861   316064   489882   585229   556201   404347   183155   -44252 
 -153423  -134822  -135065  -173390  -211467  -272106  -279193  -195020 
  -93645    13186   120538   219343   277904   208377    62362   -31192 
  -86957  -160354  -211652  -193435  -136310   -81655   -22380    59521 
  147237   192684   152335    25078  -108371  -134766   -85364   -99244 
 -136748   -86656     -279    91638   175838   158965    52490   -14582 
   31253    86856    23215   -55344   -20604    66435   179467   306439 
  333860   305797   344037   378976   361084   290280    89457  -172792 
 -345652  -439788  -495728  -503834  -470608  -392147  -266354  -118932 
   15781   101553   128785   130809   144498   166856   162073   113683 
   33022   -28461    -1036    62644    58279     6871   -33965   -41742 
  -21491   -21560   -53645   -83985   -90931   -74765   -70021   -81024 
  -92797  -113890   -86968     -719    65331   137691   217103   214793 
  167930   138040   129868   135213    69213   -63907  -150522  -170392 
 -147461  -116118   -85534   -43556   -40346   -19141    68171   100017 
  108227   160195   160110   148518   182777   203224   240217   267658 
  248192   245406   147458   -66456  -195893  -287686  -366748  -288296 
 -185101  -154928   -58554   106834   273729   384666   360744   220213 
   34883  -119293  -182506  -174667  -136496   -46502    89857   170979 
  196566   234870   220165   177985   202076   218443   198852   138543 
   -9479  -126885  -155623  -177774  -185401  -199859  -232523  -216479 
 -202515  -221408  -187515  -106547   -56733   -76141  -109729   -43821 
   91362   142562    81561    19207     6708    12396    18065    -4282 
  -37637   -45018   -82805  -138126  -130124   -83684   -20739    67729 
  133207   168978   212148   221426   172222   110393    33710   -41950 
  -62240   -60776   -72831   -61369   -18442    18598    35665    58292 
   79328    85521   119343   134965    66930    17219    66878   154146 
  175929   103532    38378     1660   -72575  -115586  -113210  -128041 
  -88994    -4757    44208   109047   188920   247008   317447   320190 
  187553    63532    38064    42118    36425     2853   -74886  -168429 
 -243136  -284852  -334424  -412551  -444516  -390473  -274212  -127393 
   -1309    79990   128890   150190   141721   143350   210057   279593 
  274331   241356   181800    73150    13598    19102   -14677  -104869 
 -216893  -318192  -348519  -307601  -257950  -214934  -165464  -112227 
  -27129   125466   295156   378215   352336   313444   365882   449303 
  428849   342340   222985    38058   -68066   -45293   -62223  -141173 
 -204148  -231229  -201521  -128346   -58453   -12859    45251   161045 
  264335   285704   280289   242052   176089   202855   236252   133120 
    7695   -62115   -78753   -38003   -36954   -88769  -139115  -194005 
 -208860  -171305  -121099   -65105   -22418    13839    55573    64245 
   58160   100518   168054   205678   214263   189630   138667   131142 
  153691   108911    31460   -10308   -62798  -102186   -71832   -59807 
  -98557  -113536   -99723   -45995    48820   107524   119156   114885 
   86138    51228    25851     1408    -4269    13221    38838    71513 
   91750   107667   175172   273256   309249   217459     7097  -151300 
  -87240    51548    48357    -2824    -8379   -48082   -74492   -53230 
  -83460  -137832  -154063  -164240  -162983  -116827   -49982   -22537 
  -48371   -84853  -102013   -95794   -43931    81088   205846   205164 
  121139    57012   -21756  -124866  -211690  -272141  -249840  -189595 
 -213365  -264522  -264505  -224678  -138788   -39494    25452    42867 
   72294   226587   407301   443595   380725   249388    93639    54930 
   33164  -108308  -228027  -258618  -265946  -249591  -236849  -254822 
 -285430  -283810  -173703    31424   260912   467434   549116   458962 
  328681   265579   236106   217236   180871    69255   -68922  -164287 
 -218574  -276850  -391801  -455474  -354905  -183457    26610   295095 
  512999   628278   661781   607628   496282   320448    60652  -150943 
 -231157  -283875  -348518  -368092  -336298  -295563  -260813  -160056 
   27220   224139   372272   380731   311919   397556   513523   422227 
  289724   192162    34451   -49144  -113682  -368525  -650628  -733256 
 -644048  -536492  -477517  -370969  -235114  -162004   -78040    27262 
  107819   252018   456981   604607   620068   476610   290241   214024 
  245658   278554   181763   -70332  -371898  -594434  -641879  -557577 
 -484406  -487727  -512332  -464103  -338630  -178784     -622   175247 
  371671   579102   698873   714975   675316   578558   452365   351405 
  279064   209762    91495  -110657  -330467  -459428  -459759  -419483 
 -436872  -444506  -355414  -219454   -33377   249277   495808   573667 
  530413   387080   119301  -166436  -326262  -392782  -475812  -524180 
 -502245  -526926  -595495  -587446  -469850  -276010   -54038   147027 
  295793   365475   343822   268598   210234   225782   290919   277401 
   99370  -153222  -294591  -254356  -123163    36270   222007   407890 
  591270   708191   592061   314276   207055   282994   276823   255907 
  329560   316354   221321   166627    82685   -19808   -51528   -75157 
 -168028  -284644  -337133  -295659  -267120  -329913  -329068  -210833 
 -146360  -127574   -85193   -78759   -61484    -9554   -47189  -178193 
 -279379  -302625  -292705  -296744  -312725  -333744  -367124  -395863 
 -419241  -477899  -566874  -617573  -578705  -431149  -205322    32345 
  267634   457438   535153   583485   660118   690881   720375   786288 
  766758   664884   561122   419156   260266   162445   100209    27308 
  -37066   -90538  -176954  -276272  -306360  -243336  -127594   -33743 
   -9625    -3334    30392    90286   196404   294071   295534   245716 
  197546   125817    71674    85961   119810   168413   255159   247435 
   25723  -316968  -639075  -811926  -723473  -456195  -156455   164634 
  493386   718903   716251   576523   508580   406774   153528   -37887 
 -100556  -141117  -109205   -64480  -158094  -272242  -298623  -341235 
 -395266  -371778  -274083   -84550   206387   471378   571552   528036 
  441344   355546   255686    87488  -127844  -273810  -336647  -360614 
 -338009  -306524  -299236  -299085  -306918  -275948  -155673     2816 
  128014   153605    46263  -102548  -198836  -296026  -444448  -581001 
 -701943  -816224  -812964  -681062  -524531  -345666  -121288   138028 
  448004   732592   844931   811513   789081   818135   810963   718676 
  601858   519408   416943   203537   -61064  -222498  -288562  -335887 
 -314755  -209914  -113095   -57454   -10951    54099   214221   444017 
  546236   508803   478617   498598   532259   482732   344861   201015 
   71894   -12858   -90791  -216773  -363544  -586485  -871580 -1011077 
 -916010  -742507  -645435  -575389  -482232  -431598  -377655  -293141 
 -241465  -144243    72707   318670   433396   377342   315754   301285 
  213059   111836   105863    60057   -62639   -87579   -50175   -19102 
  115393   284647   386994   520229   684058   779782   804326   788901 
  718261   539897   254165   -97276  -470007  -702210  -701099  -639291 
 -562250  -339548  -113043   -28113   107134   337472   490413   627787 
  776627   699814   427729   253272   172145    76038    59837    97880 
   83886    66342    38785   -31316  -118545  -268890  -420809  -393739 
 -198135    24149   221915   405009   507130   419223   213607     8342 
 -284754  -643888  -803684  -701021  -590469  -635752  -731552  -749115 
 -685525  -582994  -457310  -319362  -219131  -179873  -110538    76888 
  317983   497992   581207   579420   545732   550574   567014   523273 
  423413   272151    92877   -22149  -110658  -296743  -503958  -578811 
 -576789  -616756  -646276  -621169  -636340  -723996  -798142  -798036 
 -766999  -731135  -614791  -421244  -193363   105270   447329   789491 
 1081462  1209422  1222971  1241243  1217432  1138975  1061324   955259 
  809560   636728   427356   248772   122414  -118558  -580389 -1039426 
-1172987 -1071442 -1088397 -1178141 -1104429  -957558  -821862  -612752 
 -351955  -142160     3941   241691   612590   899277  1018629  1055127 
  995913   828758   654919   495564   338834   353505   561567   764170 
  925652  1075498  1162893  1112697   801525   209872  -435275  -868074 
-1072934 -1229554 -1413027 -1531817 -1540195 -1489270 -1395076 -1253449 
-1101080  -954253  -812333  -705047  -593703  -379349   -61685   340595 
  849195  1358965  1666923  1690474  1544637  1371430  1189294   981972 
  766511   584753   486034   442630   363564   183765  -108475  -454736 
 -754340  -951905 -1104263 -1312797 -1532534 -1549039 -1234756  -775662 
 -489800  -362321   -68065   510259  1130675  1381055  1073850   639128 
  470173   301635   -22432  -257448  -323261  -310889  -320814  -348386 
 -291535  -191647  -109631   -17542    75844   186907   358850   589862 
  841962  1040033  1139438  1169592  1160728  1116515  1010239   796318 
  520280   292863   122153   -59590  -278978  -537670  -823160 -1069642 
-1195209 -1165540 -1004066  -774114  -528275  -263512    26239   271671 
  395333   387091   266693   131482    96315   101465    72509    77745 
  127915   143261    85130   -33618  -146909  -188640  -157808   -52215 
  153078   440419   748398   952399   916929   711974   512681   289705 
  -17987  -309065  -517427  -604003  -545168  -476963  -488460  -525225 
 -577717  -630467  -661764  -736847  -847976  -893604  -860369  -752224 
 -519584  -205825   114668   445284   697297   750024   732284   840558 
  974120   958469   910662   953966   979507   921210   771301   474889 
   83390  -283346  -563043  -676650  -558683  -312507  -127459   -42712 
   50835   220407   405834   475772   390108   294237   305186   342936 
  332383   323571   311929   204895    20139  -132846  -223088  -281538 
 -347130  -429219  -510347  -606169  -693470  -699287  -602993  -431518 
 -216905    45434   350361   570362   571766   404575   226176   109008 
   12470   -97549  -203284  -291654  -373364  -470932  -591209  -709943 
 -812781  -898831  -941422  -892470  -728315  -496564  -285132  -131738 
   -5903   127315   252784   347005   441053   546205   614623   627702 
  577955   444627   289302   225905   279654   372408   419276   413315 
  412725   444720   482248   507199   524588   555257   626184   708884 
  714047   567905   292357    23950  -138235  -243697  -328289  -333476 
 -263008  -198381  -162116  -109919   -16632   104052   219694   286466 
  297903   306267   351258   411572   423086   348389   213572    26385 
 -226402  -479224  -672897  -860738 -1081865 -1285294 -1393343 -1356884 
-1249091 -1206270 -1220068 -1200962 -1137383 -1015567  -801294  -529510 
 -221005   158235   563163   872919  1015597  1008979   952039   937706 
  944477   896445   776618   616167   438628   268195   141971    77068 
   85580   175333   263246   222151    70297   -35998   -28350     -872 
  -21444   -34320    -9433    14117    50493   134111   229204   281837 
  282295   247917   180517    81612   -48140  -288268  -667245  -966843 
-1039588 -1036326 -1003375  -866049  -714731  -587420  -447383  -338096 
 -221252   -78259     2448   136623   495690   833126   820380   654135 
  662930   737958   715718   715918   812067   920388   977337   941699 
  789586   544624   244454   -52926  -263068  -328862  -254624  -146122 
 -161279  -275355  -324686  -292811  -225724  -142385  -133262  -198262 
 -200291   -93496    58718   223727   415307   602836   708608   693652 
  577244   425712   300189   205635   142549    88303    -2559   -83089 
 -109775  -144740  -214803  -291419  -367506  -436694  -497084  -543673 
 -540364  -476535  -408850  -395354  -429923  -475320  -521293  -572741 
 -625533  -685349  -766362  -860931  -947134  -995034  -936607  -734161 
 -474357  -257377   -86400    85231   317954   612132   869952  1015625 
 1053679  1031673  1002658   984135   974105   976644   993778  1014573 
  981661   844866   665764   525891   400449   224147   -45065  -398108 
 -717901  -871606  -882357  -909969 -1055072 -1246924 -1347608 -1290737 
-1107970  -911362  -820135  -802667  -693026  -417893   -26976   370281 
  566587   482174   369878   453899   608294   659049   652028   659948 
  684873   727804   757686   707231   514906   222065   -11047  -105902 
 -141189  -206629  -316508  -425104  -457649  -378323  -237296  -113793 
  -31924    88620   375745   861860  1408532  1703236  1498918  1000593 
  619295   409423   245011   167011   221684   312083   312483   225731 
   94509   -82566  -215143  -260208  -314686  -391281  -467452  -589693 
 -728773  -776281  -682173  -476100  -221421    15028   144894    88290 
  -57789   -48442   193660   492148   661500   653182   500626   297819 
  152053    26279  -189395  -463428  -699775  -862370  -924594  -876387 
 -752141  -599392  -452131  -285655   -60143   173400   360105   554429 
  797528  1026644  1170596  1200875  1110749   935476   736493   531306 
  337192   192082    43168  -166022  -369031  -499568  -561375  -599105 
 -670781  -782991  -901626  -991577 -1027691 -1019276  -966524  -816864 
 -560087  -292703   -88136    92405   296963   519006   740539   941660 
 1093065  1185112  1226189  1174725   958238   603632   226439  -128685 
 -503683  -865736 -1081782 -1086619  -963104  -846349  -773138  -663820 
 -480823  -297800  -164037   -17984   200562   477715   799510  1147277 
 1423790  1471506  1207078   768299   401992   194077    94269    75383 
   83753    36703   -77162  -230001  -396555  -540816  -645898  -734295 
 -834785  -935827  -968615  -855332  -599927  -304197   -56044   183023 
  499592   845599  1064111  1060378   866419   581777   273129   -20554 
 -217894  -255842  -193202  -161827  -238400  -410561  -574732  -578813 
 -425880  -298153  -302161  -384486  -451426  -464496  -423985  -329275 
 -223558  -144418   -38291   139717   338070   523111   723802   891979 
  930783   836764   688892   566120   472430   369956   251664   117474 
   -3411   -52830   -53119   -84472  -166036  -272446  -383108  -472849 
 -546676  -647676  -776051  -884353  -964451 -1026135 -1005228  -835149 
 -574369  -328153  -105755   128210   354778   566197   800512  1060883 
 1308123  1454299  1384409  1109656   786929   565432   475754   423965 
  318724   145782   -99034  -358623  -503685  -527978  -552397  -659971 
 -867026 -1120137 -1251164 -1074072  -640616  -219901    64565   284794 
  493392   735878  1005339  1161845  1147103  1044325   876891   622279 
  340354   102099  -125660  -414070  -772134 -1118327 -1281976 -1153038 
 -843575  -568490  -422267  -363845  -311551  -185942    16217   214550 
  368507   502554   662097   894983  1176857  1364379  1279049   906995 
  492957   231239    27495  -194831  -373311  -541502  -728332  -861358 
 -930108  -956098  -900979  -708012  -396591  -101183    87458   223583 
  346331   391514   353165   343899   425046   559136   703460   815921 
  850658   806262   717092   596888   435853   230036    12697  -148023 
 -245267  -341924  -449224  -536519  -600780  -634853  -625554  -588839 
 -553410  -529452  -496376  -435699  -371988  -322238  -235722   -59614 
  185980   430801   584970   595996   525851   475118   451148   387357 
  248345    69198  -117198  -282102  -336058  -252963  -147357  -103033 
  -78692    -9646    91500   180109   254898   329186   419912   555301 
  718075   827452   821325   720259   577444   419733   265716   131352 
   -2036  -155378  -302003  -422209  -533569  -636422  -725845  -809538 
 -866413  -853592  -741725  -552745  -357539  -151791   133522   455718 
  713780   846896   803517   636085   490579   428076   399249   336380 
  236034   132452    21754   -93948  -188755  -269290  -340737  -371554 
 -340121  -262082  -179214  -118293   -53109    38094   116915   160524 
  202542   258333   312439   357831   389459   398206   378595   336319 
  280672   196525    68885   -63395  -141573  -140394   -73731    -6547 
    6094   -12168   -43024  -114323  -214078  -294550  -340387  -367076 
 -396386  -443314  -505293  -562906  -595284  -608620  -623692  -628105 
 -601378  -558228  -501020  -406269  -283742  -151907    -3386   151538 
  289374   410750   534760   660757   739659   709202   553427   350573 
  208465   107073   -23836  -150832  -238363  -293312  -299989  -272115 
 -250021  -249288  -265781  -263187  -212305  -134585   -49821    43913 
  150030   265565   351951   365892   306618   196776    86986    20589 
  -18928   -45634   -44571   -21672     4724    25986    30012     2134 
  -49610   -92808  -103740   -87322   -64212   -30901    51095   192124 
  330624   376854   299589   165451    51793   -49388  -170216  -281429 
 -334502  -314560  -259673  -246618  -284105  -305566  -281330  -222353 
 -161250  -130367   -97371   -24366    60754   147534   289349   485469 
  646883   741550   797192   789958   699571   556377   391343   267553 
  245906   267580   250681   209524   158573    67378   -77137  -247236 
 -383491  -446615  -439845  -360895  -248377  -215494  -277325  -317952 
 -296370  -261492  -228542  -189749  -143182   -67454    59328   217780 
  351991   412495   399949   358879   326284   300885   255740   177267 
   81616    -9841   -80456  -119343  -128800  -120273  -112722  -106564 
  -83535   -64925   -81046  -104633   -95612   -39148    44737    79485 
   25815   -45932   -65701   -37571    -1483     4721   -21712   -54344 
  -77453   -98888  -134882  -169065  -156504  -107184   -77980   -61009 
  -15720    36038    78330   129866   167040   158331   116401    77507 
   81815   133948   197939   245701   259201   224758   164838   110187 
   54652    -1071   -50794  -131160  -256853  -372338  -416586  -367744 
 -236541   -64365   103446   263516   403856   474916   483812   464580 
  404534   325635   280618   262752   249223   243597   233846   212650 
  191212   148692    72469   -17281  -139247  -308790  -472940  -571153 
 -569301  -461449  -297772  -142164     1564   144828   247824   298350 
  333694   344787   318366   277388   211630   108848    -1418   -74896 
  -62081    24281    87590    89434    74264    57432    33444     9553 
  -24490   -87368  -163708  -206158  -198445  -178389  -183835  -212250 
 -234992  -249185  -267381  -258519  -206219  -155846  -122030   -74923 
