Origin Time       2011/03/11 14:46:00
Lat.              38.103
Long.             142.860
Depth. (km)       24
Mag.              9.0
Station Code      IBR011
Station Lat.      36.1256
Station Long.     140.0901
Station Height(m) 27
Record Time       2011/03/11 14:47:21
Sampling Freq(Hz) 100Hz
Duration Time(s)  300
Dir.              U-D
Scale Factor      3920(gal)/6182761
Max. Acc. (gal)   154.361
Last Correction   2011/03/11 14:47:06
Memo.             
[...]
    2445    19560    39856    42094    33380    14206     4178    18557 
   32909    53464    89500    99782    69044    28860     7305    14526 
   24794     9273     3899    21166    14769     7747    24996    25296 
   -1486   -28967    -9794    43685    39404   -14967   -46764   -59776 
  -57236   -17338    15352     1252    -7978     9204     3608   -27744 
  -36013   -20126   -28362   -45329   -24236    -8800   -39608   -57466 
  -36973   -29846   -31089   -18552   -30189   -63798   -78360   -72729 
  -66392   -69330   -73743   -80260   -88454   -65910   -17739    10023 
   11451    20578    55236    57370    -6573   -53595   -55916   -62127 
  -56432   -23212     5508    20434    34166    27198   -19861   -45869 
  -14515    -5952   -45470   -55557   -25428   -22878   -54226   -51857 
   -8935     3376   -15596     8628    61341    82680    99293   118365 
   91688    33377     -746    -2814     2353    23990    52633    34927 
  -13182   -30876   -10158     8338    -8088   -28151   -24683   -28750 
  -37323    -8708    32285    28083     4947    -1101   -27139   -64128 
  -50958    -1666    34797    49465    43628    37847    57432    74014 
   51087     4871    -1658    57497    95885    50593   -11895   -33598 
  -37667   -45862   -46090   -32089   -18127   -15291    -7603     8765 
  -13260   -65907   -75206   -45275    -5307    41254    34893   -29257 
  -59886   -39843   -20398   -20973   -15835    31337    83471    72640 
   34350    32232    36047     8474   -21583   -18350     7134    16867 
    6114   -26124   -85396  -118784  -100700   -68297   -30421    12725 
   43919    33615   -19827   -48430   -36882   -45068   -67185   -68676 
  -64585   -49575    -3131    33003    25761    14987    21084    10749 
  -11378     -303    24914    19523   -15773   -65132   -87440   -70736 
  -43539   -17198   -11519     1131    32590    11401   -29783    -9389 
   39666    52488     3328   -59069   -62298   -26652    -3121      483 
  -16679   -34495   -35436   -37615   -35267   -27530   -34281   -53566 
  -85296  -102039   -78512   -54946   -60761   -62028   -34778   -22826 
  -28188     9839    64237    53904   -16840   -76473   -92262   -80633 
  -57134   -19154    17008    23752    38123    43235    -7838   -29166 
  -14752   -44595   -86287   -83171   -14675    56190    55800    54194 
   93120    89363    26288   -24225   -23300    25939    76090    80400 
   61545    17915   -72888  -134277   -95083   -14729    20641      440 
  -17120    -1820    -7572   -30755   -29668   -44863   -83290   -95204 
  -69548   -16045    70726   165265   190839   129441    52921    14810 
    6398    28058    74578    66380     -612   -10303    45770    54680 
     839   -30203   -23477   -14719   -11686    -2648    28392    49715 
   33291    15071     4933   -10402   -12265    21792    99978   146035 
   71676   -32624   -80374   -96687   -30629    81363    88681    24424 
   -5494    13401    53460    69140    74324    72525    17010   -46360 
  -63960   -60338   -74287  -118952  -125768   -48657    39451    74116 
   81644   100496    94105    26955   -38289   -36728    -3625    -6485 
  -56082   -99117   -66293    -9617   -34016   -60848   -34312   -59521 
  -96571   -35587    51730    35462   -90443  -183210  -142098   -61876 
  -42755   -56395   -57048   -32648    -2523    10297   -12314   -72344 
 -115745  -145352  -171647  -123096   -23668    42291    61960    62821 
   43869   -28922   -92587   -76018   -41913   -33502   -36025   -66764 
 -113089  -126190  -124486  -121787   -68616    30754   129383   182778 
  181622   160087    98853     7734   -44892   -55089   -54559   -63830 
  -50707    30348   118444   128932    86648    52967    26491     5445 
   -6799   -35500   -24583    70498   116248    46711     2380    41642 
   67029    32763    -2445    -9036   -48734  -104196   -92317   -67822 
  -72742   -44789    -4348     1999    16476    64719    65867   -15046 
  -46397    -3319    -7539   -20242    22168    37152   -20955   -75624 
  -56304   -27844   -17636    18963    11217   -30958   -12211     9173 
  -40761  -112970  -109312   -35181      759     4986    30006    33687 
   30380    25252   -43491   -91085   -28778    30801    26124    41241 
   56669    11282   -17255    -3225   -22308   -44189   -28276   -29010 
  -47088   -54333   -59238   -47149   -21217   -19578   -57913   -98531 
  -71964    -2816    -5956   -61837   -42205    16313    17175    18285 
   50346    68342    56948   -13370   -99757  -109861   -72670   -51290 
  -38850   -35065   -52203   -57229   -17688    58582   113875    75475 
   10751    32294    52873   -21223   -81098   -36321    36849    37263 
     416    22231    50383     2969   -43829   -23592     5063    -1685 
    7146    32682    -4809   -57163   -30067    22724    35067    48307 
   75035    36789   -16020    24975    66213    20846   -59357  -114422 
 -116434   -75837    18607   114472    73654   -49577   -73906   -35619 
  -61095   -71932     3297    49864    17718   -11439    15180    61387 
   66359    23132   -37405   -54267   -16635     4173     4167     5113 
  -12764   -32998   -52094   -84482   -80833   -12165    47164    41488 
   15525    15522    16093   -26202   -90838  -111307   -52488    47355 
   78829     7056   -34183    38950   132679   137374    66936    11722 
  -17787   -50774   -49043   -12591     9987    35243    53549   -18425 
 -111001   -91137   -57195   -88041   -75322   -16051     8356    22157 
   71468   133966   144301    65685   -31081   -42024    29497    78440 
   22838   -55795   -66435   -87914  -113402   -71964   -58647  -105245 
 -130009  -109527   -55640   -29916   -49841   -42374   -21590   -26424 
  -38645   -64275   -60576     1232    42059    40428    29824    32762 
   61703    48414    -6071    11355    76190    94309    88239    71631 
   10289   -36360     2763    46106    -8722   -80000   -51958    21095 
   36671   -20021   -70075   -39575    23192    33828   -21748   -81324 
  -76497   -38752   -40362   -80439  -104220   -87154   -44375    10438 
   48016    51396    27600   -24014   -57485   -25269    47166    89613 
   40762   -47819   -90163   -97873   -81268   -34990    -4167    -9047 
  -34451   -87738  -134127  -102884     6902   109478   116632    70863 
   51127    19709   -32618   -36812    11462    44347    25427    17462 
   56899    65228    35131    31140    40143    41862    37068    22523 
    8677     1563    10880     9316   -46315   -77564    -5228    63466 
   63755    80448    84302    13808   -40538   -27640   -10428   -30171 
  -77736  -119833  -113048   -42298    42103    79137    79058    68510 
   16535   -59623   -58460   -22217   -65020  -107838   -80137   -43189 
  -39936   -76846  -107676  -104316   -67163    15696    51478   -12712 
  -67478   -48889      585    14678   -25305   -61577   -51450   -10453 
   30890    11712   -68604   -72900    33360    89362     6544   -83967 
  -59489   -27191   -75150  -112038   -86855   -33181     3452    -3896 
  -40052   -75185   -69361   -25862   -14225   -44746   -49222   -26532 
  -14372    26096    78937    57825     7687    21021    56227    37123 
   -3671    18143    91097   113941    54063   -26452   -70303   -54724 
  -18471   -13719    -3227    43820    49256   -33020   -89697   -48630 
  -14636   -36521   -65655   -84417   -58531    30798   112663    98592 
   17083   -29396   -47025   -77986   -74089   -11196    58701    95002 
   74964     4184   -32183    -2791    -1379   -52482   -74978   -45848 
  -31690   -74284   -91931    -9297    48926   -12556   -35258    63626 
  139336   135139   124614   107052    53285    14818    14954   -11400 
  -51689   -12914    69957    92608    49696     4678     -419    -7457 
  -28193     5686    62872    55691    -6746   -55758   -55538   -36045 
  -19730    -9915   -49298  -111961   -96875   -36402   -24050   -11342 
   66735   120477    52154   -46287   -56437   -20602    -9794   -25891 
  -40058   -22382    20817    38859    13714    18086    62104    43621 
  -27251   -64852   -71041   -59801   -23894     5585   -19540   -85935 
 -114102   -79802   -84366  -129702   -66288    54758    79138    35964 
     922   -18263   -40335   -23881    45095    74610    53645    15066 
  -55751  -107854   -51492    77741    86680   -46645   -84113   -20017 
  -45343   -82395   -21200    19656     -735    -2405    19155    30555 
   26695    20219     -501   -62394  -114376  -103795   -94993   -84894 
    3174    66193     8369   -37322     1193    -6532   -78820   -85008 
  -55158   -96541  -149447  -118649   -62160   -51862   -13646    59594 
   39309   -47984   -49984    10492   -13102   -89862   -90455   -36709 
   16798    15032   -96286  -179196  -132380   -55706    -3503    18951 
   10243   -12857   -40868   -20067    29039    17963   -18462   -17802 
    9937    43047   103285   167315    99379   -47658   -98241   -78582 
   -7128    62922    32735    36177    96491    77636     4375   -79585 
 -125600   -91686   -29142    30832    82007   106043   102460    85373 
   47307    22317    44239    53498    52707    31518   -23472    20317 
  102589    43095   -80759  -130029  -104679   -65014   -20745    10917 
  -23714   -60218   -14224    51753    34789   -54065  -107776   -86766 
  -39238    18333    77022    75451    30104    29677    26400   -28157 
  -52670   -52777   -82073  -113790  -117711   -69545    -5553      144 
   -4229    28897    24064   -31000   -66374   -85852  -102049   -72926 
  -34499   -56729   -89401   -72204   -23886   -14695   -84471  -121882 
  -90136   -72846   -19360    59258    54495     1210   -25662   -20372 
   -9564    -8412   -37320   -79834   -32268    76024    83839     8122 
   30952   166450   192223    71464     2162    -9214   -53974   -76898 
  -46307     3629    55138    55801    26563    64827   118550   112002 
  122023   184567   194496    82907   -45490   -61814   -34732   -61804 
  -53931    44319   122363    78844   -32969   -41812    61279    98596 
   13644   -80758   -70948    -8776   -27255   -87767   -70008    10886 
   53054    32226   -10072   -53372   -45993    28174    71974    52052 
   11051   -25466   -14358    -2679   -44160   -47657    -9940   -28166 
  -73216   -48274    22573    23627   -53375   -97610   -34053    58226 
   59559    25817    41667    64052    68806    66314    40264     7482 
  -25311   -77082   -88308   -24079    11835   -50500  -108159   -78165 
  -62924  -108660  -124336   -96839   -63057   -45979   -61607   -87501 
  -84975   -33327    36705    80051    82194    60201    38648     1215 
  -50041   -73487   -58015   -37191   -61166  -118134  -143365  -102906 
  -15622    34991    25081    46658   101507    80877   -32072   -82354 
   24189   112670    51020   -38098   -32107    44127    93674    85302 
   71514    77421    86780    68926    -3070   -75327   -49904    17360 
   10839   -10113   -12226   -60875  -104469  -100421   -86988   -51961 
    9078    44649    21593   -13700    10600    89981   132819    66518 
  -41736   -92890   -81536   -38137     2501    22643    47884    99449 
  101211    -3720   -67448    -9371     6856   -69621   -94749   -29880 
   20238    -2049   -32207   -14160     8591    -9901   -53692   -28321 
   91911   133364    38416   -22046    28260    79180     5630  -137070 
 -178327  -106852   -35891   -10115   -13347   -18054   -13686   -21306 
  -17916    19958    24268    -9828    -4953    14634   -36558  -112834 
  -78377   -18995   -74657   -99695    -6408    88896   105998    39549 
  -14041   -17456   -45853   -47811    11858    20963   -26344   -31721 
    3380     9793   -11858    18765   123888   208533   185189    64231 
  -48092   -72633   -67861   -70189   -61312   -76570   -98950   -76544 
  -21499     2574   -50390  -118246  -165459  -210091  -187618   -82589 
   49637   151437   121283    -8445   -72752   -70701  -113882  -175588 
 -141338   -25556    63832   116507   147661   101206      406   -71322 
 -118299  -145081  -131612  -101408   -61558    -6712    77464   192167 
  229817   155585    95317    84649    93955   115073   112962   107019 
   88949    31433    -4823   -29499   -38540     3214    -3204   -38735 
    6316    55035    10038   -92901  -130102   -44367    29919   -18862 
  -91984   -51926    72038   142222   107725    52514    31955     1427 
  -15616    15381    17583   -23317   -50423   -46607   -44666   -74518 
  -96417   -82400   -20854    54236    30312   -66179   -93218   -29649 
   14055   -22425   -23304    87896   169843   130864    90326   118449 
  117671    51319    10691   -15635   -90580   -96148     4391    33609 
  -36665   -85230   -56789     8984    11756   -77175  -183653  -210700 
 -162614  -137421  -114731   -46778    14310    41245    34064    19672 
   25682    20170    19588    62584   108787   135196   145367   101425 
   39986    42697    40777    15514    55774    55125   -47843  -120929 
 -133034  -104818   -46609   -26842   -71191  -101579   -58919    41690 
  103080     9465   -78988   -11926    12919   -46879   -42825    -3133 
    1812   -20159   -42584   -81281  -113589   -43477    72988   125136 
  140808    87539   -40478   -57990    39534    24941   -91448   -96787 
   17276    94975    90605    54088    25142     4853   -40042   -82244 
  -73934   -39033   -18928   -38385   -59603   -46731   -40085   -17365 
   34637    51608    47710    16434   -63598   -92843   -44360   -17943 
  -66039  -120592   -73707    13704    23054    12603    19293   -11309 
  -23515    46662   102824    67989    37885    70068    78724    29841 
   26714    92624    32816  -171353  -250926  -204480  -216315  -187562 
  -67069   -45107   -91322   -25123    81917    84756    29988    33207 
   82909    82754    36596    28999    84602   138071   106111    46032 
   87859   167472   156785    84061    13100     2419    35631    -8010 
  -58156   -27892   -79737  -194699  -199653  -138102   -63485    -8162 
  -13922   -18983   -37981   -71289   -54544   -44336   -51799   -51438 
  -65238   -53555     4170    76753   107186    70908    23984    -2848 
   10624    44470    44195    51799    60622    27364     9891    23555 
   40848    24204   -57703  -131091  -148674  -150478  -145144   -93060 
  -11916    -1501   -27367    16318    77676    91382    42260   -49646 
  -69179     1930    60276   105458   146989   149095   130589    80810 
   46141    76740    66285    38057    92940   132058    68461   -39662 
 -106354   -92410   -30331      977   -25246   -17782    42247    26752 
  -57482   -57389    51903   127631    85900    47150    75978    53134 
  -10957   -26796   -45589   -80126   -70137   -49895   -79756   -96933 
  -18680    96505   135016    82892     6011   -46139   -26304    33900 
   31237    17729    49604    54981    39753    21697   -21268   -45028 
  -40901   -48943   -56621   -48011   -21635      -34   -35525   -80171 
  -70325   -70194   -95482   -75062    13672   125251   154091    87286 
   70945   132516   119260    18052   -30404   -13500    -8241   -33308 
  -60472   -21020    76400    87919    -5009   -55217   -45835   -47255 
  -65428  -100223  -102124   -32553    22474   -13309   -93229  -104492 
  -27570     8718   -21504    -2669    43704    30518   -46225  -154752 
 -212224  -175914  -116369  -102911   -95793   -45683   -52698  -139818 
 -127076     7542    60232   -35008   -94715   -17169    37098   -35387 
  -95271   -57451   -27846   -46234   -23559    58943    84201    13676 
    3171    59058    12370   -85154   -79826     5888    61713    49889 
   25655     6485     2079    43762    24399   -90019  -146692  -112672 
  -48225    -6119   -34899   -80823   -72039   -26685   -27838   -98114 
 -127640   -67297    16870    72262    94340   111884    87059    11368 
  -19043   -52062  -172636  -240507  -122808    43270    73782    27164 
    5164   -16986   -28403    15371    87264   110758    83705    73922 
   64210    34709    16293     3704    34993   110185   118876    74773 
   77452    88629    56362    16867   -10129   -16949     4237    33727 
   48715    52211    76552   102868   106568   137951   155071    98450 
   57981    60827    36009   -11737   -21279    11179    22081    11351 
   15933     1357   -54764  -115339  -128072   -61547    44629    94863 
   48435   -21559   -54239   -84243  -105307   -69727   -27385   -28891 
  -60068  -114625  -135036   -85209   -40433     -769    77358   100281 
    7548   -99229  -123765   -87584   -81763  -134822  -155803  -101144 
  -59161   -70947   -78643   -52194   -13945    -1696   -28584   -54555 
  -45960   -21276    -9945   -24362   -50999   -59404   -49545   -32779 
    5076    21989   -18299   -17721    37817    75226   111290    92154 
   22945     4563   -20233   -49629   -14592    14521    23904    67203 
  101296    63114   -11647   -46872   -65589   -85431   -27233    82427 
  126545    90237    45902    43792    51590    35760     2345   -39863 
  -38586    30442    90038    77083    23459     7656    49997    61623 
  -26564  -119798  -116559   -98366  -121533  -113674   -67995   -27191 
  -32024   -79449   -66925     1108    -1027   -44618   -22496    15855 
    3787   -11611   -17569   -28134   -12916    16303    29503    16543 
   -9182     5147    42541    69591    86955    52191    -7672   -50243 
  -77205   -53500   -23667   -25067     9967    62478    51735   -15864 
  -68902   -46675    24200    50057    25526    20683    10935   -53849 
  -86265   -10310    44351     -709     6441    83334    85740    36651 
   19311    20020     -801   -35582   -46388   -61028   -73782   -40069 
  -42031   -98636  -105179   -54752      -71    -8104   -71468   -72990 
  -36653   -29945     9597    87433   120651    72641    11265    10718 
   38509    46064    34662    18718    13118     9891   -19660   -59343 
  -47369    11292    48693    41882    38225    70836    69451    32646 
   44325    32803   -33609   -51709   -23895     3108    -3561   -29382 
    7550    48118    26506    36836    60404     4214   -57177    -7641 
  106319   123103    32265   -27900   -43580   -80747  -106863   -80997 
  -51086   -30383    16815    63371    83432    66329     1378   -37144 
    3401    51672    50713    38400    40856    36020    34660    32934 
    3627   -20199   -11388    28011    75204    70765    19310   -30458 
  -49278   -17311     4888   -29150   -44807   -30286   -51256   -64499 
  -23904    -3332    -2189    49786    81959    45038    12355   -11413 
  -36734   -20470    29211    41522    -3325   -29588   -21738   -13054 
   -6120   -44358   -81126   -32064    11862     1835     6366    26061 
   41243    25770   -38681   -84068   -85283   -81559   -58938   -37503 
  -67497  -100328   -96026   -95306   -95058   -63221   -23041    -7397 
  -11318   -25371   -66083  -113197   -95202   -30365   -23832   -61716 
  -46891     -158     6175   -48269  -125773  -138405   -90669   -58024 
  -26194    15680    12050   -21804   -36162   -49559   -39367    16273 
   20805   -26340     -179    75319    81926    20178    -1236    54866 
   75447    37063    33219    39847    37250    79611   115396    69870 
  -13002   -51618   -61320   -87749   -64504    24600    73940    63946 
   41134    35687    59944    53339    -3735   -25749     7191    22988 
  -10623   -26247    18835    37214    19119    35596    32291    25666 
  100420   151455    92233     3614   -49758   -51408      723    63199 
   94492    99255    71110    16804     -780    15100     4428   -11281 
