Origin Time       2011/03/11 14:46:00
Lat.              38.103
Long.             142.860
Depth. (km)       24
Mag.              9.0
Station Code      IBR006
Station Lat.      36.3690
Station Long.     140.4528
Station Height(m) 20
Record Time       2011/03/11 14:47:23
Sampling Freq(Hz) 100Hz
Duration Time(s)  300
Dir.              E-W
Scale Factor      3920(gal)/6182761
Max. Acc. (gal)   786.478
Last Correction   2011/03/11 14:47:08
Memo.             
[...]
   32208    -4862   -43259  -126196  -219797  -250952  -208130  -125225 
  -35208    34670    72893    91140    87233    43272   -22187   -73090 
  -90539   -61340     8016    80944   122697   132285   130511   129508 
  117412    74172     8778   -55176  -109998  -164661  -214963  -218719 
 -180214  -151536  -119209   -69417   -39611   -20136    23268    73995 
  100379    92648    54764    -1945   -68552  -132544  -163334  -149811 
 -126635  -114169   -84742   -18828    50813    77623    66022    38179 
  -14415   -76529  -113370  -123326  -102790   -38974    58279   164320 
  230203   208871   123278    24586   -63316  -102946   -71016    -2802 
   69877   121750   114884    60352     7545   -13711    -3781    14722 
   31608    35991    -7130   -83181  -128101  -109965   -37690    35742 
   62256    69537    78951    65996    31598    -9852   -51891   -96795 
 -144659  -155524  -110474   -53672   -19948    -6301    -2818   -17154 
  -56655  -104770  -134681  -134754  -127413  -118043   -68883    13326 
   70191    77805    61339    43366    16007    -9805    15352    98219 
  169710   178664   166842   169664   146193    86240    27367    -1365 
   15809    52763    75628    80860    58811     7057   -57010  -107310 
 -107543   -71933   -54068   -39553    -5220     4967   -29124   -88420 
 -155575  -202989  -224980  -223579  -168238   -50765    87306   179661 
  189655   153610    94526    -3954  -112173  -186785  -212326  -163463 
  -43268    87450   192647   270625   292378   237938   144217    53708 
  -27134   -82383   -82073   -35041    24064    67376    71886    56281 
   78952   122628   120761    76746     3504   -96787  -186020  -238299 
 -239772  -191646  -120206    -9967   129581   206270   201959   170034 
  106006     8322   -82095  -135314  -142370  -105479   -34580    56323 
  163143   254166   279619   261655   236675   190563   119498    45126 
    1640    -3472   -14235   -55865  -119811  -186278  -211460  -173626 
  -89141    12345    76775    62408   -31237  -168462  -269997  -267947 
 -187163  -109736   -54002     7704    65791   111580   150042   183857 
  220492   229876   176875    92865    10409   -77910  -153953  -178542 
 -142433   -84823   -64980   -95099  -136258  -144950  -119107  -100640 
 -105120  -103824   -74043   -23065    16167    19676     3205    -8541 
   -5361    33713   112801   189117   236137   248248   212816   147112 
   77987    19343   -24152   -49394   -40196   -15745     6088    51390 
  108753   152041   173633   149399    80973    -4503   -84158  -123511 
 -105540   -57970   -26863   -35063   -68298   -99844   -97415   -43066 
   18360    45528    65152    84876    83464    68292    36396   -28542 
  -90974   -94127   -63475   -55068   -47239   -14638     7388    -2592 
  -25361   -56110   -97274  -121199  -106773   -52045    32916   106674 
  128112    96347    59162    36323    -7101   -24459    35339    98016 
  113175    91144    44977    11899    15297    52679    98922   139601 
  190238   215328   168799    75519      920   -33017   -81931  -134123 
 -121614   -76407   -23327    53650   113647   130289   102158    17478 
 -107557  -231558  -287870  -249928  -184631  -107560    27344   157438 
  168516    62209   -35110   -47567   -65341  -132523  -184342  -209575 
 -187975  -117124   -62731    -9837    71488   110115    67202     7596 
   -9181    12888    43841    69068    96256   110821    80016    32659 
   22232    41831    77867   108128    85194    45977    44291    50368 
   53287    59762    50273    37086    42137    49522    41076    12331 
  -28594   -59252   -92362  -124178  -109286   -67900   -23534    41224 
   94633    99617    67151    24782    11084    31891    16471   -61107 
 -127747  -163844  -182395  -128933    -6526    90756   111909    56111 
  -39382   -65706   -17191    -2480    17216    77226    95216    70622 
   35700    46675   134625   189559   168045   126381    83696    64954 
   57781    16202      824    72648   119546    23067  -134384  -194270 
 -166941  -160266  -162257  -120599   -54953    -2547     8691   -32750 
  -82273   -93744  -143223  -275646  -361134  -319232  -182600   -17419 
   88548   127544    90058   -46382  -184747  -259438  -267585  -183926 
  -47540    83041   178995   192887   150789   134600   135121   133808 
  150331   164962   169911   151219    83481    19815     2370    -1879 
  -21793   -44170   -53773   -71877   -74727   -28537    20401    51627 
   63894    20375   -73496  -172996  -246047  -261109  -217015  -176889 
 -133332   -32275    33880    10362     7359    38047    34972    28865 
   17243   -42565   -68504    -9031    54339    98028   148243   159550 
  107360    62114    35855   -22495   -45716    34501   160584   236017 
  177677    49794   -16069   -58225   -87717   -16141    90878   115946 
   79772    39401     5800    15206    87603   131633   104870    76751 
   12717  -135296  -251110  -277491  -248036  -151357   -34196    36827 
   58280    43247    11043   -38924   -99323  -122248  -116995  -121844 
  -96503   -40216    -1918    17098    -4107   -53628   -78485   -94246 
 -114785  -114288   -75043    -6898    40837    41392    34415    49665 
   53658    54793    87893    82531    29285    14774    28058    59229 
  113050   166758   242784   275674   214240   127585    11452   -89587 
 -101789  -102160   -89987   -16123    47021    91140   147948   158293 
   99491    17570   -47311   -60482   -32925   -28931   -50408   -34464 
   16230    44072    34539    15867     6921   -12783   -63931   -62671 
   59051   163893   170786   146593    55296   -91841  -195120  -250410 
 -226706  -107070    19843   129669   201368   183534   133571    51815 
  -97097  -170424  -105524   -37768   -37078   -54066     2151   148155 
  267320   278597   224113   153596    54579   -87397  -219099  -251846 
 -145754    46968   205122   244703   201754   125778    11862   -89997 
 -121357  -120537  -176791  -299976  -343056  -259050  -186402  -146424 
  -84717    -9739    30387   -51393  -211419  -297433  -283813  -222512 
 -147102   -90394   -19704    85376   125158   124467   173402   156949 
   62259    20380     8592    -2221     3036    -2406    32907   142137 
  201405   154478    79287    21419    24642    77628    79826    72403 
  153869   211326   165923   130690   116574    77439    31167   -55320 
 -135968   -97206   -16240   -35490   -97000  -104978  -124532  -183230 
 -198667  -151092   -83647   -49536   -76450  -117650  -107213   -13486 
  113343   150230   117904   116266    76369    -3350   -11866    14102 
   49134   119267   186105   244712   253841   132222   -64188  -214906 
 -281247  -260855  -167024   -66568    31485   175835   271864   230002 
  153252    68227   -92266  -248256  -317813  -335387  -290929  -190058 
 -105194    68456   383967   558418   489977   401131   332083   155608 
  -72156  -193055  -189837  -106441   -10086    42763   112347   198313 
  246604   246659   171598    65539   -40184  -159366  -202070  -165072 
 -177298  -210492  -171319   -80902    42744   130897    89462    26473 
   64588   118834   103757    87851   145142   210149   215831   195862 
  130903     1329  -102907  -133126   -95250    -4489    61897    54065 
    6035   -47323  -105120  -158531  -186990  -214317  -273100  -320093 
 -282804  -169999   -29602   142117   337509   486132   477062   274995 
   -7654  -267322  -421410  -382766  -189703    60625   279762   358639 
  253340    74466    -1237   -10450   -61504   -42940    22276    -8037 
  -71357  -128745  -163114  -122929   -16736   137386   236365   220614 
   96638  -163998  -438659  -596218  -663119  -697296  -688502  -505264 
 -126717   240254   400129   311978   133927    28347  -101285  -333141 
 -506581  -536858  -416222  -119352   181596   378837   529260   500917 
  266720    30390  -185880  -395265  -480048  -402801  -217189    -2366 
  178866   282724   248798   134930    90171    85089    22060    -9058 
   67513   195452   337933   458587   513449   490646   426803   372527 
  301613   171813    -3329  -163089  -258373  -303622  -322948  -343692 
 -372118  -362760  -315245  -252613  -136126     2072    22270   -63879 
 -113711  -133912  -182135  -226562  -271760  -315599  -283488  -168982 
  -17578   163646   289799   276390   205383    79142  -165307  -346283 
 -364766  -403083  -453653  -364166  -185504    37035   289940   411178 
  377935   345472   300271   141061   -96874  -278267  -293988  -173248 
  -32831    70113   164117   248637   217218    46965   -91759  -117463 
 -113219   -59643   101536   278096   377983   353378   167754   -65129 
 -211937  -263352  -184794    24740   203712   278284   355062   362285 
  214375   116325    66400  -113027  -272791  -256473  -156666   -96829 
 -101393  -108812  -114927  -145440  -154976  -170067  -281931  -441147 
 -533809  -570290  -580560  -496286  -280891     2897   272452   416660 
  380067   309610   297258   201772     5669   -93686    -8412   167469 
  313234   424694   568792   664179   584039   369640   102934  -178886 
 -418777  -531035  -481037  -309258   -25987   262344   316474   138209 
  -51343  -199422  -321640  -284889  -110766   -13824    54051   233642 
  424226   530814   516851   386225   258067   120391  -130151  -415774 
 -611377  -659053  -533567  -338759  -152579   149471   516953   644155 
  454937   110082  -245385  -483401  -533481  -407808  -177292   116658 
  491434   757356   639148   244581   -99386  -262856  -304790  -263167 
 -101764   142264   364065   542266   671299   642437   404991   111969 
 -103459  -252826  -328693  -341648  -357928  -348936  -278086  -235832 
 -254983  -216350  -120755  -144123  -281658  -370672  -440801  -570201 
 -672158  -663892  -493056  -184398    76638   244813   399487   412338 
  174360  -154032  -348410  -322370  -162939    66905   424401   798681 
  965526   968181   948446   834819   541932    81571  -480189  -823939 
 -749035  -601597  -513000  -224046   106886   254501   312092   203479 
  -73606  -242540  -255088  -232626  -133166    12034    14433   -94472 
 -164682  -176201   -93586    26574    52072    40647    56828    46979 
   27219    33007   -42231  -257437  -382319  -239040    21855   270142 
  450355   478315   488754   554437   415563   121990    40475   112743 
  138001   188205   223411   154272    72758    20968   -22948   -68193 
 -145505  -253172  -348690  -380624  -323249  -171099    25634    84210 
  -26266   -16075   156502   174829    70696    95103   177274   261779 
  437427   591899   583880   457263   229177  -130537  -492897  -702526 
 -757401  -737755  -717246  -627307  -393335  -148122     5602    81952 
   68298   -36418  -206948  -395766  -540168  -591495  -531608  -428423 
 -326262  -189730   -55677    28316    54780   -12121   -95454   -57788 
   38148    73870   100285   181925   242234   169579   -13517  -161830 
 -226484  -286778  -271875   -22888   352417   609243   709938   763698 
  776084   651205   333321  -139889  -553225  -643501  -471234  -365771 
 -389364  -283912   -50716   104929   217757   357358   445113   366213 
   75770  -260702  -399960  -345866  -331748  -402683  -358305  -180744 
  -13214    94673   155308   206400   215628   127623    45056    70009 
  172905   295310   366235   365556   376747   398590   292617    44355 
 -191442  -317293  -218183   185822   552436   608747   620683   603494 
  308582   -63640  -297391  -417441  -378446  -259326  -124586   204896 
  621657   696964   465412   340556   290944    58151  -232762  -389988 
 -407729  -320655  -230632  -134660    66219   218982   112586  -216967 
 -546158  -600881  -415821  -315708  -364753  -357792  -223628  -124684 
 -161283  -143944    79488   412397   656161   617685   350785    70850 
 -202068  -443584  -468206  -352754  -385316  -440746  -222986    74363 
  194092   268591   346229   342339   302016   198721    89724   152476 
  280829   323598   363565   420747   337875    51133  -270683  -453944 
 -419875  -139347   255400   547636   590551   375140    78840  -188925 
 -466868  -637795  -593971  -493001  -409528  -197118   203867   636501 
  717115   251271  -204528  -244450  -366201  -644785  -570198  -272081 
    9883   376748   728166   925920   921145   640947    93841  -553867 
 -968621 -1017175  -990698 -1018255  -839462  -364601   273517   892333 
 1083918   659383   127228   -88555  -309763  -688725  -706708  -291397 
   20159   118109   221990   277989   154153   -38823   -87761     7207 
  124108   269083   378344   358081   343082   319145   123186    -5780 
  151560   324316   375963   460767   515929   445013   340657   162089 
 -183626  -535017  -716329  -777961  -770750  -657735  -471901  -173626 
  337732   746942   532837   -61472  -277698  -210707  -372636  -450016 
 -202880   -34422   -51749  -121343  -177064  -116943    20336   207351 
  474232   704034   818985   880017   907234   780131   462153   168539 
   34607     1556   -49724  -244611  -389045  -197962    56919    11470 
 -119061   -47833    13383  -142883  -253922  -134295    14069    42325 
  -36693  -220496  -436577  -574571  -639551  -625743  -470130  -230604 
  -27700    93837    93498   -55707  -211041  -236285  -262204  -368748 
 -387938  -273935  -175275  -154070  -104704    34351   109945    29707 
  -58927   -69561   -76328  -112345  -122925   -64673    34837    86050 
   20939   -91914  -144751  -169122  -209403  -222061  -234877  -269442 
 -189389   -10572    15794   -47513   119575   427952   583810   610394 
  638700   689441   704148   559823   247254   -73398  -307254  -480428 
 -596440  -571817  -272383   248989   740449  1099117  1239014  1058861 
  814371   603919   116815  -542258  -984354 -1129744 -1005659  -700914 
 -361677   -12926   357854   683465   750185   436421   -32530  -378302 
 -521809  -513462  -413495  -283794  -157900    60509   311364   363349 
  330899   428460   494853   378381   210383    93223   -24666  -204506 
 -422608  -575229  -574789  -412141  -172977    65424   348456   572398 
  465555   121586  -129920  -296464  -477453  -527785  -431320  -336671 
 -190815    28113   154500   170550   180935   220685   270249   257802 
  164490    77274     9176  -112348  -287212  -425529  -467812  -437645 
 -296550    -2765   258462   312702   266691   267974   313221   340976 
  291492   112448  -145053  -306238  -316987  -262975  -100220   190263 
  394582   373014   223983    98184    73522    92589   110245   204165 
  320635   334754   304785   299875   270039   165415    36781   -35143 
  -62116   -78959  -131440  -239910  -288034  -264607  -307259  -322825 
 -170396   -25595    20207   121636   182345    38671   -95695   -53819 
   28882    71544    63282   -19334   -90352   -99177  -100832   -73098 
   -8193    10450    21214    89818    83830   -60729  -195547  -271003 
 -350964  -414873  -433382  -433304  -380979  -173354   150292   409760 
  566194   659830   662432   584222   408510   124927  -134978  -237663 
 -150775   -19447    -8021     3362    74784    28108  -141529  -318575 
 -476886  -598935  -661727  -621047  -432951  -174502    -1767    77755 
  219648   441441   570447   514972   340436   149065     8976   -53461 
  -27264    55376    88008    53048    62176   100907    60237   -32982 
  -87779   -63654    31202   133267   177361   193082   267712   353239 
  299167   149858    67837    -3737  -182122  -362022  -399122  -245996 
   82414   438017   625697   549447   274807   -16385  -335402  -754355 
-1007356  -973256  -908683  -829314  -620490  -395208  -158531   209775 
  591981   709333   532808   347313   207493  -109573  -453390  -540420 
 -469208  -347394  -183954   -13267   256169   567744   669942   606284 
  584010   566788   462063   323845   207716   113182    22256   -53612 
  -15799   125711   171170    84420    32331    30737    -8792   -67599 
 -138207  -244176  -361147  -475076  -566196  -649284  -751109  -785478 
 -704356  -564733  -406997  -291089  -260348  -259339  -198330   -46669 
  119588   236859   343002   442348   459810   334341    98379  -138918 
 -306558  -336707  -169193    70936   253430   442420   581436   487451 
  230095   -14779  -216930  -351967  -373760  -254026    11808   256879 
  344451   395212   408594   260605    77783    -4644   -28539   -23682 
  -14134    14992   115395   200661   224448   266262   264297   215706 
  272828   366700   375851   319213   155554   -58691  -185270  -248743 
 -268132  -235116  -225584  -238657  -203725  -171865  -225459  -291856 
 -294454  -277240  -290267  -346215  -362230  -244736   -86551     8330 
   82653   186139   323775   435646   440614   399515   371830   239828 
  -13606  -202570  -228898  -121279    39611   160858   268058   369506 
  381044   309684   191894    44298   -57760   -43283    56944   123841 
  131928   136211   116488    90615    75677    16097   -38786   -35672 
  -20893   -22467   -96350  -267537  -426518  -511392  -569972  -582498 
 -462713  -255925   -92858    26978   105668    99169   143658   301955 
  365493   235048   -11154  -284290  -459655  -487360  -422701  -305151 
 -144340    99139   362110   411932   298534   286953   253618    48817 
 -115174  -188434  -258802  -234861  -134509   -81987   -39205    71319 
  223448   315470   213631   -66141  -290377  -345685  -358245  -374158 
 -321565  -195348    -2315   216362   314961   291739   309409   381127 
  427069   453633   493360   540601   548656   509202   447993   352284 
  241397   148495    42653   -88915  -196221  -247041  -280695  -344486 
 -403515  -410657  -413111  -444607  -409440  -235196    -4391   175613 
  243785   152661   -32960  -148799  -142360   -76677     -203    30698 
    5606   -30414  -125658  -289804  -408452  -438936  -383073  -255447 
 -138414    -2008   232691   417841   422603   350424   255122   142267 
   87657    49464    -4205    22541    77059    94634   189178   306434 
  281417   200157   160582    64391  -127476  -305803  -365841  -324975 
 -288778  -260142  -150091    -6520    13648  -113134  -245868  -291987 
 -274759  -200454  -104038   -76794   -99324  -119468  -156924  -208376 
 -260551  -249491   -91596   123328   245695   250323   191352   161983 
  198140   223246   241518   328857   418001   406896   329009   262059 
  206983   141256   103361   107703   112744   107803   107365    98651 
   24017  -117685  -192151  -144165   -97789   -93120   -61558   -28517 
  -18481    12759    37386    16801   -33193  -111050  -175553  -189176 
 -204871  -237191  -224174  -145375   -57508     9118   123630   295231 
  400022   361862   211434    11016  -195950  -401310  -560638  -600676 
 -533061  -423082  -286447  -118656     -288   -17684   -93584  -130978 
 -182794  -273519  -318142  -319676  -351112  -354143  -218729    27131 
  261516   428675   561827   619026   492852   267487   129173    59451 
  -19498   -66911   -96238   -97041    87045   403304   562080   532771 
  494318   435982   295551   142022   -15767  -198278  -288378  -225345 
 -114080     3160   149075   252513   242502   130682   -30610  -160039 
 -207636  -184513  -101943    39655   196555   293004   296932   213180 
   74330   -71712  -232220  -383468  -432080  -381151  -303234  -203068 
  -36421   204395   411712   490550   478884   356550    73645  -242471 
 -437258  -468220  -379262  -282309  -176829    17062   246568   440012 
  516614   401521   240505   157128    25476  -233535  -519656  -684483 
 -664640  -595675  -574134  -457957  -193775   103744   363822   496869 
