Origin Time       2011/03/11 14:46:00
Lat.              38.103
Long.             142.860
Depth. (km)       24
Mag.              9.0
Station Code      IBR016
Station Lat.      35.9114
Station Long.     140.0494
Station Height(m) 20
Record Time       2011/03/11 14:47:29
Sampling Freq(Hz) 100Hz
Duration Time(s)  300
Dir.              E-W
Scale Factor      3920(gal)/6182761
Max. Acc. (gal)   516.731
Last Correction   2011/03/11 14:47:14
Memo.             
[...]
   13331   122275   222531   243301   209805   167858   133496    95577 
   36577   -40646  -114161  -159624  -187189  -226631  -243908  -193605 
 -119900   -64010    -1585    78751   163718   225954   231261   196106 
  158160   118985    81766    44400   -12363   -56281   -54079   -43996 
  -54486   -80766   -96426   -72506   -59960   -88677   -99145   -74812 
  -28122    25809    43040    25650     5317   -10086   -22487   -47185 
  -84937  -100862   -71140   -14696    39172    85737   123934   141889 
  137051   122420   108518    75423     8790   -51311   -75039   -87704 
 -109540  -117460   -82542   -28503   -12645   -39963   -43952    12349 
   70302    84686    87190    96301    95671    69471    21498     1050 
   39468    74243    47669      223   -30367   -51259   -60586   -76054 
  -91443   -65535   -34737   -27236    10950    72974   111233   126528 
  122087   123473   145342   111880      839   -81279   -90113   -95952 
 -131264  -163673  -159858  -111531   -75042   -86915   -78097   -24870 
   14314    28011    36081    53604    82432    86340    53711    16933 
  -15912   -52057   -90478  -125180  -137010  -140562  -162455  -159485 
  -98908   -28802    11268    35285    70400   124030   170126   175021 
  143125   118218   119229   102386    39176   -31016   -72204   -95277 
 -117352  -149514  -187339  -197564  -193918  -205515  -181551  -107239 
  -30693    49347   133870   190997   210639   200572   162372    95553 
   13054   -69878  -147047  -201201  -215587  -216461  -206024  -134123 
  -51243   -37047   -33254     1899    35198    57422    40093    -8901 
   -5569    48109    80598    83585    70274    54234    57454    55805 
   26660      532     9036    53303    98473   114988   106795    63936 
  -13653   -78927  -100777   -99896   -84895   -40905      871     1907 
  -27956   -63579   -73590   -41520     9509    53981    82503    77161 
   27117   -32598   -53556   -48374   -68165   -97684   -87124   -52207 
  -24846     3738    47897    80143    52697   -11724   -46412   -26001 
   23792    48319    45603    39836     5067   -44822   -82940  -125943 
 -134417   -87223   -44200   -19061     3316    18949    34171    25649 
  -17717   -37714    -9926    17777    34848    82159   144862   167498 
  142541    96374    70360    82992    78691    35113    18488    36573 
   29546   -15004   -65021   -72052   -33473   -15644   -35066   -45326 
  -19800    22451    32419    18770    36638    71858    83526    59541 
    1377   -26583    13149    19785   -59256  -125586  -121399   -90347 
  -73463   -80048   -78023   -37273    -3148   -21711   -61768   -70541 
  -43023   -13454     1893    14139    32006    45330    26280    -7545 
   14651    69274    71139    47639    41784    44723    76643   114047 
  101821    67756    57177    36067   -41520  -127793  -150836  -122485 
  -91804   -80308   -72232   -43966    -4993    32914    71192    92153 
   82739    52133    26111    25374    21143    -1977    -8375     1511 
   -7934   -45848   -83772   -88394   -83460  -115020  -159353  -171064 
 -148477   -95652   -19237    51641    77210    37119   -45765  -133638 
 -187879  -180791  -140535  -109948   -80404   -43528   -17805    -5964 
   -2210    16080    67709   106719    92506    65807    70807    86686 
   70874    19888   -17678    -1662    42492    70172    75918    81228 
   94410    98306    65511    -8503   -58642   -30340    11790    11594 
   13003    40652    72435    84024    60001    33941    39780    43901 
   21046     1639       86    -2672    -5369    -4964    -6750     1986 
    9744    -9245   -49596   -86782  -100084   -89916   -58921   -20672 
   -4046   -15345   -44878   -68505   -75241   -77823   -75569   -80892 
  -93835   -69780     1625    67516   101053   128841   140975   115231 
   89130    84625    80604    80520    83260    57328     9392   -36284 
  -81101  -108480  -105864   -93800   -77167   -46271    -7638    32809 
   69029    91208   113336   138515   134304    99667    54703     -653 
  -42763   -55303   -53171   -25791     3505   -13011   -29791    -7092 
    7253   -13058   -70992  -155564  -191134  -147916   -96269   -73573 
  -59297   -37375    -1833    39212    71269    83758    70546    64621 
  102279   135244   102387    21373   -64339  -119069  -129317  -124629 
 -108114   -50958    21128    78505   133757   171141   171161   157995 
  159415   173936   171794   127873    54335   -11063   -46520   -54914 
  -41209   -21549   -19890   -39707   -63615   -72838   -77065  -103555 
 -134189  -128197  -100647   -69218   -17240    21838     8768   -14836 
   -2342    31127    52589    60215    78351   123769   160698   126795 
   41158   -30890   -94404  -167809  -225119  -247464  -220316  -155005 
 -114954  -101351   -56193   -11389   -23350   -64032   -93754   -89794 
  -47730    -2272    27359    42621    40270    30633    15724    -4120 
    4701    45791    65099    60329    80818   107069    97838    72056 
   49958    40653    42243    27318    18845    61262   112714   110874 
   75299    56314    56397    51651    19421   -48322  -106610  -113151 
 -107924  -142781  -192931  -216351  -209559  -162688   -98872   -77871 
  -88613   -91409   -78259   -46095    -8588    21031    59718   118095 
  159766   151337   117518    94518    81994    53182    -9187   -78983 
 -111034  -116579  -138520  -152648  -120043   -65763   -12545    39012 
   73451    93726   105822    96573    84498    75826    33462   -40081 
 -112826  -160221  -148974   -91817   -41360     -806    37935    53100 
   47114    39242    38024    54892    86701   103643   103292   110503 
  103294    55066    -4965   -45037   -47123   -16425   -10588   -53502 
  -72455   -27295     7502   -20298   -77080  -127729  -138060  -106288 
  -98893  -116042   -92761   -41696    -1622    15223    -6377   -32103 
  -25183   -19759   -28515   -28572   -16136    22658    91543   154279 
  180094   176751   167880   163108   151612   105870    37635     9320 
   22183    15784   -15895   -45823   -71417   -76937   -52079   -25048 
   -4354    17302     5587   -34205   -26730    18821    34442    32678 
   42292    52367    41731    -8140   -59227   -41408    24368    48807 
    7940   -41404   -55884   -69354  -111452  -120942   -62086    -4418 
    -535   -14345   -12555   -22833   -52542   -71141   -62849   -17302 
   35711    45398    31324    18719    -9943   -36182   -39000   -49468 
  -62731   -44704   -30872   -47523   -53393   -38482   -20815    -1566 
    -113   -17856    -9892    15894     5820   -18077    -9872    15084 
   44140    79291   100687   108474   117577    98819    33176   -26965 
  -41270   -33890   -30925   -27828   -12573     8935    19640    20945 
   33786    67806    91835    71730    27450     2195    16975    50122 
   54729    38866    40278    46003    37795     3526   -61334   -91806 
  -48497     4765    17973     5306     1372    19077    22032   -17970 
  -79953  -121565  -117923  -110693  -134405  -142188  -122163  -106923 
  -74966   -22540     4450    10514    27690    38845    21515    -9657 
  -28313   -15266    15742    30024    36869    54517    63858    72715 
   96643    97758    52879     2445   -22558   -49982  -105706  -171748 
 -204681  -165838   -95735   -85947  -130372  -144668   -99101   -25517 
   39036    85969   135256   172071   147281    80493    31645    -9077 
  -70927  -129711  -165949  -182114  -163277  -118687   -78704   -43728 
  -22961   -33719   -59533   -80960   -71150    -2184    77891   107493 
  103981    96856   107216   151584   188765   199671   232910   268058 
  239620   175416   120725    61835    -4522   -69136  -123912  -137588 
 -115635  -103367   -98051   -81873   -68054   -59051   -51593   -48177 
  -40990   -26135    -2616    33081    59058    47931    22879    32404 
   86934   145606   158462   136250   130152   145022   147612   122633 
   86893    57291    18669   -31694   -63142   -64799   -45333   -22381 
  -26985   -44266   -34018   -13351   -17746   -53662   -80120   -40691 
   19746    11616   -45940   -71156   -50281   -41277   -60070   -53241 
  -13689     4109     3351    37944   105066   155463   163171   146716 
  135430   117507    72107    26394    10652    16165    32101    40818 
   15710   -22386   -41610   -46944   -39753   -28288   -36312   -60791 
  -84435   -95494   -92710   -91298   -81514   -46094   -17970   -22418 
  -37483   -32219     8800    46291    25925   -26292   -56806   -71612 
 -102085  -156032  -206695  -215901  -186362  -147372   -91676   -11876 
   44938    57703    59453    58387    43106     7882   -34620   -42903 
  -22929   -33648   -67299   -55898    10735    80730   106178    76427 
   32884    21144    27545    10870   -39432   -93144  -103751   -77720 
  -82379  -122889  -114381   -16954    99267   141829   115279    93194 
   87585    64782    31924    19330    31137    23211   -32953   -83505 
  -88521   -77342   -59958   -24714    19048    67180   117755   150831 
  155914   149227   133647    87810    22221   -19350   -20765   -14356 
  -39107   -85745  -110744  -114592  -145825  -196059  -216217  -214805 
 -196078  -164594  -154273  -116835   -16982    76578   136311   186061 
  238167   292633   310370   266175   210091   175331   128757    58739 
  -23813  -101276  -122511  -100583   -99075   -97769   -78691   -82346 
  -91093   -79974   -83222   -77590   -18702    52950   108531   147682 
  153035   144143   111707    13189   -75713   -77473   -78838  -119374 
 -105500   -34400    47050   129024   140431    83592    61170    52436 
   11366   -21337   -47728   -64769   -45150   -39574   -70985   -84669 
  -65994   -46101   -53432   -83715  -104035  -119285  -158840  -191223 
 -155706   -67724    20367    95866   153284   201017   247293   274048 
  287626   266419   171161    66813     7401   -54721  -121878  -162344 
 -186976  -178345  -143894  -145236  -155243  -142386  -166188  -192939 
 -159916  -135648  -140899  -134673  -135125  -116242   -55882   -27104 
  -48062   -64512   -55003    -7347    50339    35180   -18598   -20694 
  -23087   -33450    17546    71700    90925    85416     5914  -109281 
 -166410  -150764   -77130    17702    63544    48332    31870    24128 
    4212    25636   104296   160043   156022   100647    21316   -39226 
 -107416  -187975  -205009  -159644  -122956  -138035  -195866  -202881 
 -115592   -31529     7506    45352    77025    91668    95382    88062 
   91663   107892   100524    64554    22261   -30125   -87168  -112982 
 -101003   -69140   -35258   -16471    12147    75856   127636   133593 
  130736   133627   132175   122040    51363   -96093  -233061  -291281 
 -281289  -253501  -240869  -208619  -123477    -4631   135097   262475 
  319870   308196   258428   197516   149959    93972      473   -93269 
 -129495  -114417  -105501  -108850   -64329    14727    29506   -31669 
  -83797   -99126  -110728  -119539  -115168  -101761   -86553   -90523 
 -102673  -100173  -130777  -224676  -299835  -291208  -248920  -188824 
  -63619    81788   185842   251142   270425   269332   268016   199308 
   57587   -54661   -99275  -119150  -146942  -184799  -194996  -195943 
 -241139  -256612  -203481  -157614   -92229    35825   138970   165267 
  139629    62195    -1343    45653   147909   216184   259149   284428 
  300046   327197   326234   271778   215398   195502   188681   166138 
  142360    83612   -69414  -223404  -266825  -237551  -187898  -129101 
  -71385       49    79384   117007   137936   215387   304513   319189 
  273179   202834   115519    24787   -88433  -243384  -361281  -359109 
 -280259  -209766  -156881   -74564    67352   221710   316140   358846 
  363254   296492   170849    34188   -68067  -114528  -121827   -98035 
  -49336   -19908   -70499  -179583  -256570  -287820  -291666  -277807 
 -285554  -273102  -210706  -182657  -180886  -138262   -83420   -49966 
  -40145   -46194   -27141    32485    89658   124192   148217   144757 
  101358    43458   -12833   -77326  -141240  -165794  -150724  -138451 
 -128819   -95169   -61143   -81477  -146743  -166761  -102241   -10899 
   64488   127014   196531   281218   323068   280279   203328   128127 
   40616   -64921  -173858  -252150  -257614  -196319  -155984  -166924 
 -136986   -50053    31220    98371   107640    54388    56885    78023 
  -13308  -116974  -143129  -189634  -220451  -166384  -108249     7319 
  185280   229204   165996   136401   118895    65175   -36096  -137292 
 -201737  -239188  -211454  -155661  -138152   -68266    51451    77643 
   23641   -11293    26178   119259   162174   165299   232162   288045 
  240792   167383    79055   -55578  -132058  -151773  -237449  -330298 
 -330536  -301567  -266828  -175174   -78181    -7363    65000    92591 
  117710   219452   296632   306091   333435   380719   439614   506215 
  499313   429076   383618   315692   184655    53223  -100820  -303977 
 -493250  -624787  -627117  -479983  -320826  -202083   -83384   -10297 
   23537    36606   -36195  -129699  -116245   -13794   131125   320581 
  483550   535847   541609   545921   459471   259990    81699    35909 
   28275   -47077   -89188   -13400    56601    23257   -71696  -246303 
 -450861  -566886  -657694  -727762  -687357  -582106  -434143  -227268 
  -17970   151145   261090   305860   307472   277853   260580   303364 
  340623   310089   237194   114217   -44098  -194635  -352694  -445747 
 -403883  -366660  -405593  -384814  -261254   -97217   120567   370093 
  539925   592074   595964   585584   499267   348774   191391   -57915 
 -390796  -644944  -783137  -820936  -783121  -690700  -509358  -389088 
 -376772  -172248   143506   309623   496032   668755   677645   603491 
  447432   321518   239143    72167   -65704  -136215  -231442  -306289 
 -254412  -142461  -122663   -90742    63641   164040   151600   157724 
  113513   -28353  -154326  -285238  -390206  -403408  -408315  -380091 
 -289178  -205098   -78546   115865   280341   380606   466453   552449 
  602408   604987   576852   537022   458888   277140    29942  -194394 
 -373851  -485823  -515415  -467293  -329332  -151670   -15236    88352 
  157179   181339   245859   328703   326245   230269      780  -276447 
 -422179  -519033  -597220  -517116  -316433  -113775   -18704   -51955 
  -45458    74273   226987   348435   375512   339503   342429   341955 
  290354   223833   105255    15202    72542    69331  -124348  -251069 
 -209588  -176808  -165961  -158887  -221561  -272992  -281612  -291285 
 -269444  -195845   -48019   124682   235257   302328   309994   182303 
  -20206  -147482  -155061   -61537    61160   126083   205544   267386 
  150221   -35967  -160952  -248504  -257840  -223065  -223060  -193523 
  -80775    31557    70050    78352    84048    60263    20127   -11503 
  -44067   -86421   -72800    72773   280672   418723   458894   483163 
  560224   600988   509991   394339   325679   219376    98141     8879 
 -115402  -290684  -500334  -658133  -672602  -674403  -680668  -544344 
 -377150  -252191   -60386   114486   199542   254347   280533   327116 
  395712   341774   163502    43907   -25604  -208215  -407815  -445243 
 -359567  -268107  -211633  -117092    41381   186138   302066   376441 
  387928   389029   368465   292290   238315   220997   117533   -80698 
 -240819  -336220  -373816  -317068  -246102  -219681  -186417  -103842 
   53562   176003   147852   130322   214066   202982    37519  -129551 
 -197940  -156741   -67985   -44933   -97422   -96348   -32577   -28589 
  -69924  -110494  -181175  -227885  -215931  -221563  -220324  -139628 
  -71377   -88032  -101337   -78149   -70320   -90021  -122006   -99114 
   15423    95434    77070    49995   -10648  -137770  -215040  -223705 
 -226537  -195104  -127875   -64530     4838    66845    96492   124287 
  165863   206550   235160   244264   246642   248552   228439   157400 
   49240   -33141   -82107  -128871  -172958  -205042  -154147    12959 
  154953   178804   134129    83788    86373    97769    33000   -24301 
   17618    86678   116062   143288   176977   175375   155113   146125 
  132507   101167    45637   -13621   -32896   -72363  -215212  -358859 
 -398636  -401015  -388233  -320352  -229825  -105678    79677   235420 
  292891   296445   292287   284638   266044   218448   151018   108844 
   82846    44320     8928   -28891   -95664  -187458  -263921  -280101 
 -267805  -309715  -336138  -200798    -1507   139620   304349   449664 
  482624   463811   410961   323885   246408   222894   226419   134850 
  -32225  -197648  -383532  -489038  -423554  -345315  -347995  -246138 
    1785   175222   247381   271670   188530    71230    11192   -10179 
  -30589   -65937   -69054   -66152  -147982  -271962  -380164  -477933 
 -503246  -449683  -408939  -366628  -291044  -233536  -197122  -176866 
 -202782  -250955  -266586  -226715  -137562   -10995   122642   213443 
  252281   266933   253522   179525    55341   -71690  -166043  -170442 
  -70021    35894    72365    66607    90927   176681   257863   276029 
  254555   248370   276944   273880   218293   179152   118134   -11059 
 -125852  -201594  -235434  -160723   -26197    47806    64091    70216 
   44714     4177     3254    16581    33544    90975   149285   152690 
  132418   128624   127608   117872    92535    47885    15958      -46 
  -32582   -66629   -66009   -45200   -52218  -118476  -235495  -353483 
 -438512  -497665  -515759  -474386  -400493  -316213  -210603   -61322 
  127508   286395   371434   440433   486740   415402   276034   149416 
  -31250  -219043  -283140  -269150  -229151  -161556  -110834   -73190 
  -15044    29741    13114   -12010    39962   132812   184901   172019 
  136264   166620   252319   285263   245985   209667   198486   136120 
    6280  -109678  -187674  -242897  -255803  -230550  -220767  -235801 
 -226649  -210421  -241781  -282264  -249237  -159843   -74275    32167 
  138522   172597   175412   183188   172787   159838   147426   118870 
   89967    66813    21486   -59927  -179736  -308074  -344094  -287825 
 -265924  -217516   -17518   178281   256643   310433   315945   241718 
  158127   100580    91503   103133    95689   122168   213328   294274 
  287136   196640    79047   -18896   -96980  -158455  -174129  -148115 
  -85861    20619    93374    79663    43520    13068   -26509   -52450 
  -38877    29522   118274   138517    71820   -14464   -67200   -79687 
  -89497  -130212  -184220  -219430  -233797  -266822  -304567  -236216 
  -59144    96984   202122   292000   339942   332144   307316   297919 
  278285   197759    84575    15203   -15313   -53419   -94038  -123876 
 -118423   -50401     8131   -29394  -111880  -150570  -150016  -137249 
 -123813  -137039  -158299  -155448  -143633  -115322   -65183   -21745 
   19843    78919   138978   171235   164116   123004    82040    47324 
  -30362  -102337   -82984   -51829   -93360  -149357  -165318  -145525 
 -107533   -96910  -134223  -168359  -173050  -174319  -169923  -151271 
 -133533  -117768  -103070   -90374   -64962   -22900    28369    84428 
  121671   130122   149539   183643   178100   122921    63103    33562 
   39928    76542   127562   155259   130752    59364   -42890  -164470 
 -281676  -355416  -357849  -289599  -192058  -121931   -81834   -42850 
  -18054   -36470   -84585  -127418  -156076  -168020  -145335   -83138 
   -1068    80272   169963   268190   323130   304414   238669   164177 
