Origin Time       2011/03/11 14:46:00
Lat.              38.103
Long.             142.860
Depth. (km)       24
Mag.              9.0
Station Code      IBR018
Station Lat.      35.9766
Station Long.     140.6306
Station Height(m) 39
Record Time       2011/03/11 14:47:17
Sampling Freq(Hz) 100Hz
Duration Time(s)  300
Dir.              U-D
Scale Factor      3920(gal)/6182761
Max. Acc. (gal)   268.027
Last Correction   2011/03/11 14:47:02
Memo.             
[...]
    3366    -9935   -51537   -60566   -18811    21552    13699   -29212 
  -62709   -74193   -87192  -109043  -114251   -82839   -35917   -13281 
  -19132   -21056     8378    62407    90757    49887   -20007   -46500 
  -34337   -26113   -29555   -45330   -65342   -51193     2052    36533 
   14883   -32793   -68155   -83918   -72302   -31135     2436     3280 
    1767    18716    35714    39806    18476   -34234   -72512   -59147 
  -28199    -6283    15993    16393   -20647   -38847     3685    46103 
   11395   -66403   -90504   -52426   -27504   -36338   -28897     7087 
   34818    48219    63960    74226    70361    46512   -17493  -103960 
 -145794  -119126   -73399   -47842   -34146   -33423   -68083  -121347 
 -143380  -122280   -96191   -98347  -113462  -105685   -67822   -23452 
  -13698   -46885   -57212    -2813    51802    44899    20063    37041 
   66774    57590    20623   -13067   -26223    -4418    27034    18816 
  -25862   -62022   -64094   -49154   -43961   -43148   -45038   -61738 
  -62094   -26226    -6077   -26993   -50845   -57933   -46523    -9098 
   23519     3453   -44664   -48386    -2643    29514    21667     4887 
   -5247   -21899   -45945   -70335   -94978  -116948  -118071   -70754 
    6775    42165    17535      781    21058    26632    -1501   -25045 
  -41548   -68200   -81014   -64113   -33428    -1242     9970   -15970 
  -46101   -46594   -22992     8496    22968     -323   -37272   -44197 
   -9314    36500    41516   -12554   -79799   -94137   -40008    24966 
   32634    -8206   -22067    20990    56115    26330   -35178   -70196 
  -64073   -29181     2815    -9620   -42705   -19349    43975    51169 
     968   -33901   -52433   -96685  -149967  -151896   -80651    10658 
   51215    30693    -4469   -18254   -19345   -25761   -42116   -76337 
 -115536  -116925   -76176   -30729     8366    43355    57836    52799 
   57838    77618    60509   -29953  -126535  -126635   -38934    28386 
   14943   -27329   -21103    29318    54888    27450   -16369   -42424 
  -39791    -5760    28902     1619   -88550  -142949  -106155   -52790 
  -41121   -27597     1502    -3116   -25573   -11467    15722    23074 
   43089    65498    23713   -38607    -8245    74310    74421    -9149 
  -78892   -90138   -46794    41825   135883   166806   116990    53177 
   34340    40243    16961   -42883   -88600   -94512   -79482   -40704 
   -8239   -59362  -161104  -196510  -148481   -87480   -52023   -19098 
   39372   101990   130613   110417    43982   -30193   -61293   -70200 
 -108902  -152008  -150607  -104089   -17195    81813   119167    73012 
    7504   -34684   -68190   -75737   -33232     1588     -419    20502 
   50887    19946   -34954   -33635     5097    15575    -3145   -12417 
    -713    41755   108220   116501    19756   -88059  -102799   -50645 
  -44227  -110931  -143986   -93570   -39137   -23396     -344    41956 
   53291    19515   -23066   -43833   -22539    25287    48617    50280 
   52310     9757   -80385  -129260  -105882   -66131   -41842   -38138 
  -60694   -64966     2837   101423   128925    55250   -32071   -49137 
  -14880    25491    37813   -25388  -123109  -151083  -130938  -141656 
 -144768   -62173    66997   120383    76902    34376    36440    47056 
   32755   -17048   -65413   -62397   -23112     1719    -2699    -8009 
    4535    22349    40215    57364    60655    37738   -10787   -54412 
  -61496   -44772   -33292   -23665     9203    52618    54162    10551 
  -15943    -3978    -7572   -33927    -9067    45362    14917   -60248 
  -40848    54189   112839    93364     6456   -98972  -147685  -117931 
  -67460   -50908   -58025   -62792   -31949    77290   170127    59660 
 -175013  -224915   -50201    84070    55599   -37231  -104459   -87737 
   27820   127439   105827    33213    12602    13630    -8527   -28935 
  -59801  -114290  -136204  -117406  -102620   -85869   -61796   -62235 
  -90235  -100103   -42057    53641    92596    74067    83850   106274 
   49020   -65434  -109565   -25355    82828    66024   -71818  -197899 
 -214554  -127145   -48817   -92544  -199313  -217575  -124839   -27258 
  -15891   -72425   -90802   -22276    70105   105664    39029   -90051 
 -135694   -36149    70439    67169    11157    -3708    30756    63930 
   49573   -26772  -125533  -152973   -68357    49695   107133    75766 
   -3502   -32507    20956    51617    -8953   -89819  -100465   -25305 
   53656    19008  -109989  -153291   -23652   116223    91876   -41053 
 -133302  -130329   -68403   -18339    -6916   -12860   -32157   -35343 
    6491     6890   -85903  -135155   -48740    64629   101188    97909 
  116681   122628    48075   -59573   -88505   -39691     3903    18561 
   13034   -49466  -169143  -248835  -239501  -197529  -146753   -62746 
   35010   103177   124739    79630   -40045  -122550   -36945    74099 
  -33490  -239893  -255322  -103354    12538    37934    21902    -4261 
  -18996   -33938   -88065  -147866  -138057   -69633     3820    77700 
  128932   104567    49548    45814    39190   -44781  -134858  -144648 
  -79167    28700   107706    83442     9353   -25231   -32145   -17077 
   21067    22236      646    10943    16974    17587    74625   142546 
  105880   -27529  -121055   -89831     5602    63887    49274     2289 
  -13418   -20237   -82240  -145839  -127081   -74265   -62876   -71190 
  -44720    27845    79624    19441   -92032   -86047    30714    89288 
   21380   -81593   -93534   -18450    19539     8036    23354    51078 
   78128    88596   -11765  -162388  -169617   -52749    27583    47662 
   86418   167753   237351   239303   143790   -40240  -199031  -217333 
 -166803  -172062  -212115  -219430  -157828    -4314   175305   255582 
  187289    16875  -143286  -175656  -103101   -67643  -103182  -112301 
  -51291    25383    62110    80051   113188    70850  -131291  -333318 
 -329987  -191988   -90660   -24547    42559    65186    43678     4174 
  -54768   -89431   -69108   -16644    65285   122503    52812  -104033 
 -211868  -214025  -145594   -90797   -77537   -40655    47400   130370 
  128814    45406    -8598   -11788   -63516  -134087  -107958   -33431 
  -25217   -68551   -99893   -99576   -59442   -17578   -45329  -100363 
  -82463   -18939    -5403   -76029  -159909  -116600    32180    77894 
  -20702  -109548  -120731   -66404    34790    99326    74273    25226 
  -19632   -91363  -120765   -77733   -87411  -133702   -53243    79796 
   53796   -73111  -101352   -30997    39153    77591    82552   105095 
  166059   155144    19313  -150937  -259681  -270033  -210583  -117625 
   -4878    66764    63118    59727    81131    51410   -19777   -54085 
  -56742   -63926   -66859   -52960   -18260    53220   139672   145694 
   67991    62662   139175   100398   -84164  -226827  -224021  -139682 
  -64250   -32207   -37452   -50226   -35869   -16392   -49015   -79724 
    8356   145495   141372     6087   -89797  -107213  -122038  -127263 
  -69335     7018    44118    81414   105105    39436   -41747   -17919 
   56939    71628    11503   -69353   -85661    -8948    39998   -39613 
 -104409    29654   237943   237865    16161  -154579   -85919    94086 
   91657  -134492  -248211   -79083    65545   -19711  -101421    -8336 
  116662   159458   164173   127475    25651   -44740   -41605   -69338 
 -137902  -134310   -44245    26566    -2070   -75653   -40978   133719 
  250423   120746  -132874  -194563   -27071    80574    17740   -50446 
  -94140  -192208  -225129   -87580    70542   108723    59381     2209 
   18924   106209   114711    -8035  -101584   -75129   -56344  -128630 
 -148496   -21135   101599   107625    74505    56927    47298    58441 
   68825    19451   -82799  -143579  -106925   -20746    39128    27018 
  -15699     4558    49116    -6302  -122295  -167701  -157717  -143938 
  -52580   113729   169547    34445  -137734  -198843  -177395  -183796 
 -195626   -58326   211292   357283   223714   -32961  -162156  -138432 
 -111756  -152726  -185987  -117699    20810   130115   180306   169052 
   84083   -18177   -52132   -13644    38080    47740     -342   -81729 
 -138115   -98283     9100    59493    17756   -45266   -64864   -13717 
   44042     2452   -98214  -128105   -69124     2619    27984     8751 
   -3155     7352   -22715  -108191  -165189  -141180   -48255    45343 
   12019  -118720  -117372    60912   201047   180987    64589   -31840 
  -27109    32199    50044    30036    -9569  -104901  -233254  -288579 
 -217454   -76550    51116    88134    -8006  -114496   -56307    56181 
  -26431  -216629  -220167   -30143   124089   130790    28928   -91374 
 -154374  -182490  -204172  -157160   -30008    61148    39781     2380 
   37581    39715   -48692   -75760   -16807   -45496  -148621  -160038 
  -78116    36166   185991   275426   148156  -140537  -286652  -101123 
  169984   174266   -69243  -280783  -222498    52219   181826     8504 
 -195589  -154997    86135   236561   106188  -126362  -167378   -42409 
  -12081  -146731  -271921  -251922  -125978   -24469   -12985   -22736 
   37938   137584   164284    96287    -1709  -123320  -282777  -390612 
 -333828  -125253    96688   192840   165149   132347   131045    77859 
  -46364  -150609  -151892   -56886    20958    -9300   -64690   -17879 
   82051   104231    41904   -47453  -121288  -118513   -62179   -34119 
    4488    83666   134460   154055   153360    82363    -4495     6398 
   40296   -20669   -95770   -99790   -59294    14811   101241   106139 
  -36881  -208406  -211795   -74817     -260   -53172  -103634   -39822 
   85162   141390    86490    -3163    -9559    84344   119913     -157 
 -124971  -126483   -97903  -137118  -217029  -252217  -157659    -2845 
   31726   -36790   -53934     3514    94404   183225   177273    91642 
  101626   208614   198283    46418   -33406    -8613   -59503  -175926 
 -174256   -53481    39556    86499   125787    74982   -57736   -77050 
   54046   134231    60118   -72856  -157430  -137112   -26054    48594 
   -4111  -110104  -142593   -71730    27059    75046    56177   -11937 
  -79922   -52259    80461   152030    27248  -174805  -205161   -20783 
  188937   287555   233451    55865   -56906    19693   162813   179731 
   31987   -98341   -82358   -36824   -71324  -138293  -184932  -210834 
 -189754  -103070    31393   180421   254493   197190    68971   -47473 
 -107903  -102931   -68136   -75954  -132108  -144510   -61868    59349 
  105905    42493   -38865   -58402     7053   120570   148260    26714 
 -102710  -104888   -26955    41428    53257   -22946  -129602  -137498 
   23454   234684   221852   -38382  -207822  -148257  -101738  -191787 
 -267737  -213757   -28913   199957   266876   111905    -6753    73278 
  151171    54283  -110462  -216774  -244762  -182417   -89334   -80130 
 -119428   -82577     7329    34318    -2677   -25239   -19764   -20241 
  -22799    -3332    10364      461    10418    39941    28125   -39500 
 -102188  -107358   -51197    36153    73981    11635   -60588   -31319 
   49327    58130   -19059   -89224   -81428   -60857   -99744  -115305 
  -36428    75224   120082    63562    18701    89078   167027   116152 
  -40459  -199331  -261726  -190778   -42330    79268    84394    -4390 
  -43813    49703   174286   164046    22084   -92050   -79528    47095 
  172341   164000    73810    -2148   -89044  -150355  -123869   -89446 
 -113223  -132730  -101029   -63470   -53622   -16107    81646   136524 
   84954    22382    -8777   -57092  -107308  -129120  -129710   -97423 
  -42421   -39507   -93854   -86439    14169    80035    21743  -137302 
 -305471  -369698  -345039  -306730  -185122    43419   229388   286123 
  252772   172336    51947   -98926  -216135  -207883   -89123    -9669 
  -46567   -95800   -73579   -40980   -31990     1925    55356    78458 
   72094   126085   271236   336421   221304    59985   -42083   -67833 
  -10192    46834    42946    64734   129566   137217    76547    -2902 
  -49421    18204   139069   149237    55168   -45047  -111253  -128334 
 -106433   -94353  -130084  -158100  -105983   -14368     8912   -71355 
 -147733  -106380    14003    54167   -64348  -224115  -264793  -143374 
   10880    30327   -84662  -221562  -247525   -86456   136680   200097 
   78233   -43956   -63913   -24227    53863   137918   141227    34257 
 -110464  -192848  -178868  -115162   -53463    -4352    39637    66749 
   37140   -38202  -101886  -141629  -145522  -138100  -175499  -153492 
   35174   243426   294240   216047    89462   -61636  -163813  -150430 
  -70656    23567   131847   214632   190271    74128    29204    88438 
   67784   -51421  -107140  -104882  -123483  -105359   -37905   -31462 
  -89217  -106910   -96125  -129391  -175157  -190362  -167615   -66098 
   95621   193172   154420    79098    54442   -36840  -223730  -291177 
 -199726  -147768  -155910   -75890    85719   167699   118173    44451 
  -22630  -108330   -95600    45756   104157   -16564  -141826  -101412 
   61073   181698   162271    44377   -31524   -27028   -66709  -178639 
 -234680  -191464  -138313  -107022   -50354   -16061   -78672  -150275 
 -124655   -42592     6407     -359    -6635    29693    72838    68447 
   36558    57656   105287    57638   -88263  -182107   -79459   161389 
  288943   155471   -92797  -187333   -76556    57691   122191   141952 
  131796   159568   233117   221049    87739   -47225   -98489  -101453 
 -110636  -108987   -81233   -23988    99520   245422   271301   130309 
  -49924  -126418  -116053  -163145  -318350  -441968  -379892  -139397 
  100948   171767   114677    77178   115420   189423   196226    63895 
 -110419  -181788  -135147   -25642    75489    96112    10915  -100337 
  -79547    42813    55417   -60300  -132301   -72472    28353    16391 
  -89532  -123721   -65804   -27536   -24691     -887    49561    61041 
    1650   -25950    28000    37183   -40484  -102059  -136797  -161118 
 -114564    -9204   100636   154182    81148   -49940  -137088  -154286 
  -83654    16577    61959    42953   -10237   -41000   -14797    37432 
   54871     8494   -62573  -116172  -178047  -255302  -240103   -63733 
  151208   218315    66579  -141633  -144901    42767   175247   134680 
   -2477  -104931  -111637   -64930   -28147   -21357   -32085   -23486 
   29226    73863    42235   -54014  -156197  -228416  -246681  -185803 
  -74501    31088   104076   125929    94097    33618   -15323   -12241 
   43987    79358    23318   -58862   -74952   -55861   -49319   -47036 
  -16160    75926   173415   166142    77371    41225   113874   218810 
  221214    88321   -56387  -121790  -134346   -94261    15871    67064 
  -45184  -139543   -43143    95429    90339   -13685   -74958   -31629 
   75127   168697   176135    66371   -66473   -48978    99330   159815 
   99538    30908   -43511  -107877  -110021   -54879    30691   103722 
  132759   119774    63345   -30933  -116815  -139110  -143516  -222084 
 -282777  -174236    20917   113081    63884   -16101   -56832   -96281 
 -129926  -103903   -72291  -128798  -193171  -119398    33722    94648 
   28087   -75335  -136023  -117905   -31892    45537    38557   -48946 
 -131641  -124521   -57803   -42477   -92777  -106829   -29322    91744 
  178957   201249   183239   163821   162673   137584    40971   -91441 
 -205021  -281107  -307754  -262781  -157369   -66776   -20003    28166 
   57376    13200   -61097   -83938   -42355    15677    53544    86293 
  119650   122339    75411   -13354   -86113   -92639  -114637  -219065 
 -269762  -151695    16682    91850    73130    17517     2301    50997 
   55350   -39574  -117383   -92731   -61740  -113927  -167001  -147018 
  -68223    48867   139787   146795    75642   -34445   -96945   -70908 
  -53840  -112035  -153280  -106337   -27127    29064    77034   123549 
  121384    64843    30218    58498    83414    37757   -44406   -92225 
  -81982   -56999   -43069     1062    52908    44617    10460    36355 
   95610    56514   -82591  -150223   -88627   -38979   -62117   -76495 
  -94255  -159033  -188406  -125600   -37388   -17207   -59097   -60644 
   -2146    66599   143844   170771    98673    32620    53097   118774 
  141623    63200   -58070  -120147   -85576    -9119     8722   -42785 
  -94100   -65977    87755   268056   323918   257587   153958    70227 
   46532    54779    43193    25260     2799   -40321   -74133   -65471 
  -31691   -26014   -55664   -73139   -70701   -61867   -23113    39346 
   54453   -36093  -192939  -310577  -350431  -349341  -324799  -256948 
 -133103   -19836    -9728   -62214   -60506    22891    90577     -937 
 -220281  -338429  -250264   -77305    23608    23211    39100   139155 
  210905   159023    71475    29655   -24221  -103158  -138411  -122215 
  -87752   -20904    82941   134720    81361    -7697   -50938   -21842 
    6251   -52971  -160747  -220814  -169438   -41186    57788    90994 
  101553   122613   122781    70212     9283    -1438    50140    98593 
   53023   -48777   -93871   -48702    37415    58038   -17017   -70026 
  -49357   -23810   -36692   -77961  -117092  -131812   -84704    31875 
  108408    65091   -24090   -71140   -73318   -62221   -73827  -111994 
 -127098   -84411     8429   113650   186437   205939   163116    65529 
  -60197  -151359  -127832   -26949    24268   -15716   -91787  -129235 
 -117448  -123414  -155094  -168135  -161661  -114992   -17035    57576 
   44902     5583    62389   179129   184295    43535  -107903  -156984 
 -135008  -115077   -83957   -26635    20932    19090   -48880  -130458 
 -142284   -91518   -51263   -35150   -43047  -110341  -176525  -114570 
   62363   191702   180967   107618    64410    68865    95301   108129 
   93489    26892   -74963  -115700   -69479     -416    36627    14099 
  -38694   -52695    -7692    56734    80950    32457   -21000    -8618 
   13849     4025     4922    20683     2635   -44251   -43792    -3974 
  -38378  -162842  -249899  -221645  -167846  -174829  -185389  -132010 
  -34164    15875   -28604   -50819    32004   123156   117135    26919 
  -40969   -38083   -26619   -17722    18730    46799    48144    49490 
   50077    49435    53802    57232    72213    88427    70277    28112 
   -1218    13092    64191    86135    58612    45903    64812    57130 
    9019   -26068     1114    88769   175996   202837   159104    78604 
   18141    -9895   -41341   -93110  -144334  -149565  -101847   -45749 
  -13468    -6809     7109    36779    32048   -13796   -40198   -10401 
   43559    63022    12973   -79195  -131548  -113010   -66623   -32684 
  -16144   -30107  -114448  -211860  -194962   -72528    39638    70316 
   35928    20811    75023   136838   126632    47891   -64949  -175826 
 -210766  -137801   -36799   -11582   -63635   -93851   -62509   -37510 
  -55294   -73939   -51571    -7573     4467   -23905   -49622   -41460 
  -18986   -14100   -31075   -60940   -91856  -113464  -108834   -75287 
  -48325   -45219   -44379   -37485   -40897   -60527   -73914   -54318 
   -4779    56467   105279    98389    25264   -59756   -83956   -37089 
   10413    20616     9866   -19177   -38006    -4575    48559    49678 
  -13192   -86290  -114187   -85885   -43577   -35836   -51183   -46452 
  -12947    51024   149647   210235   153651    71423    95772   169168 
  164863    56324   -94666  -198525  -224691  -180187   -85920   -24082 
