Origin Time       2011/03/11 14:46:00
Lat.              38.103
Long.             142.860
Depth. (km)       24
Mag.              9.0
Station Code      IBR017
Station Lat.      35.9538
Station Long.     140.3196
Station Height(m) 14
Record Time       2011/03/11 14:47:17
Sampling Freq(Hz) 100Hz
Duration Time(s)  300
Dir.              N-S
Scale Factor      3920(gal)/6182761
Max. Acc. (gal)   416.797
Last Correction   2011/03/11 14:47:02
Memo.             
[...]
  -31865    -5946    28154    49432    48024    32824    13332    -4781 
  -23974   -49141   -61590   -55210   -44315   -40743   -58453   -86315 
 -108682  -132735  -141473  -115766   -83279   -67449   -52351   -26387 
   -1080    14832    14427    -3363   -16805   -12118     2676    11058 
    2028   -11338   -20347   -30702   -35190   -25549    -9645     1566 
    5558     4220     8386    17814     5658   -34410   -71100   -73524 
  -46895   -29908   -44579   -73193   -93936  -104725  -101184   -74143 
  -31302    17437    71593   125925   171896   190803   152363    66837 
  -17586   -77047   -99048   -84850   -70025   -65278   -63808   -84844 
 -119145  -127245  -108519   -84549   -51129      896    53724    80376 
   59438   -11949   -91752  -143036  -167423  -164063  -133248   -76052 
    5048    86212   142724   158322   141458   119865    90865    40876 
  -17653   -54374   -57231   -62554   -89569  -101331   -74442   -14955 
   62105   126655   154063   141993   106101    64151    23546    -6130 
  -22974   -48693   -91140  -116655  -100772   -69474   -52873   -44498 
  -21493    25989    77030    96786    77653    38625     1958   -13841 
  -16312   -34403   -64828   -82426   -86480   -84861   -66153   -11672 
   58956   102347   111963   102170    85526    69694    52353    36829 
   15119   -25588   -70523   -99132  -102114   -85187   -64411   -51264 
  -52301   -48302   -13358    50314   122291   167495   177911   166405 
  133559    91518    26747   -59138  -110169  -115268   -91228   -48299 
  -12156    19079    60419   103132   136332   146689   126843    97849 
   63260     7313   -46030   -71392   -77947   -77303   -71481   -51965 
  -11727    30337    42322    20278   -17142   -52253   -70548   -75030 
  -75836   -71287   -54898   -28230   -12216   -12088     6707    56911 
   94402    87518    72256    84155    96308    81345    43863   -14089 
  -68171   -89143   -99871  -116032  -113696   -84660   -29295    51271 
  113279   116068    86143    52250     5708   -57724  -120773  -160468 
 -189581  -223815  -232508  -188964   -93959    16802    77971    71661 
   39916    19024     6956   -16947   -49911   -63489   -48997   -26916 
  -25705   -60970   -99041  -116181  -140862  -146786   -91807    -7687 
   71399   117247   121892   121778   117269    99110    95071   105956 
  108705    96359    69664    38592     4323   -46043   -90695  -106907 
 -102235   -67284    -7900    56034   125343   170510   158776   106479 
   48398    10416    -4579    -1398    15819    31107    48988    83956 
  107565    83328    22033   -30025   -38880   -16759     6551    14983 
    8224    -3099   -34317   -98654  -162371  -184948  -151633   -90195 
  -14499    83147   162895   203665   185081    76558   -58782  -150650 
 -198112  -230933  -251209  -206016   -93652    40504   154140   178928 
  120964    63797    23503   -28772   -83368  -122201  -134886  -104440 
  -47855    -5245    12787    19498    32252    55255    73135    63608 
   15987   -52005   -97534   -93888   -67914   -45660   -14848    -1124 
  -41467   -87704   -97917   -89072   -61810   -40975   -57871   -87873 
 -111414  -113365   -95895   -88398   -57715    18264    83555    99651 
   57706    -6540   -40676   -54712   -48266   -17445     8638    35491 
   57799    52535    44257    68892   106277    96654    49517    15726 
  -21134   -89888  -164871  -186243  -122754   -21178    45706    62251 
   56849    50814    49860    25763   -22692   -23110    32650    79247 
   82281    22925   -59829  -112916  -163500  -175056   -99530    -6507 
   67617    93586    59659    44100    40972    14287   -26738   -85137 
 -104309   -86327  -118451  -186115  -227397  -188852   -51728    77758 
  103436    60837    23317     4057   -24569   -45881   -32700     5725 
   54844    84408    72368    24034   -52051  -134552  -199420  -214429 
 -153107   -48647    52070   119489   133654   111917    69146    20608 
    -421     5289    23509    37843    28755    -1730   -61299  -149766 
 -226883  -248793  -191484   -77421    42121   143898   174121    93575 
    9856    -2668   -11316   -27835   -11404    26820    56284    52277 
   27043    -7449   -60965  -102898  -116772  -103947   -67618   -56545 
  -67744   -59086   -55671   -76000   -85445   -57120   -13508     2630 
   10965    45151    50512     3122   -37191   -66837  -101769  -120728 
 -114467   -72228      734    74576   113213    88472    39941    11116 
  -24465   -44087      -41    54587    75920    67896    24470   -28169 
  -83171  -131887  -127746   -91958   -64132   -54020   -66997   -84346 
  -91983   -81796   -63448   -52137   -46508   -45798   -33332   -17456 
   11596    78331   138583   172244   145777    42309   -37708   -65871 
  -81245  -104597  -148420  -147087   -71333    45711   160554   205329 
  207919   189912   118224    53907    33599    37090    42451     9190 
  -42769   -85165  -121597  -147656  -173840  -172725  -110505   -11278 
   76142    92246    45017     4135     2466    25238    16869   -22749 
  -50224   -92072  -146223  -176074  -158946   -79173     3671    64889 
  119803   123522   103182    98160    63121    11893     2171    50673 
  121955   135303    94117    56968    14382   -19224   -51717  -127547 
 -180838  -148642   -44472    80183   156158   174833   128907    34761 
  -11735     2807     4995   -18615   -25924    15037    85289   129132 
  123699    79152    40303    51668    59394    22819   -16494   -40397 
  -51014   -68105  -102389  -141449  -182157  -182959  -155815  -142748 
  -88068    -4398    54887    90381    80274    73682    78755    26354 
  -37286   -97335  -160673  -173411  -160304  -138646  -109510   -94078 
  -57157     2281    50465    87781   116419   129470   122956   117601 
  127146   132726   110111    52149    -4498   -30355   -41956   -59150 
  -91580  -112731   -86346   -26162    32627    35545   -38216   -99184 
  -74760     9794    91660   109955    81927    49199    -6109   -78910 
 -145667  -180255  -171850  -172703  -186650  -179132  -159518  -108452 
  -13462    77634   147829   205245   209335   132056     -849  -128583 
 -179104  -168661  -153679  -117669   -46172    41032    97906    68972 
    4443    -2869    27817    41569    48276    76218   121654   144371 
  110745    44380    -4511   -24336   -60597  -132265  -185540  -190834 
 -162890  -126309  -103015   -76034   -37274     -429    39368    75937 
  113981   159166   176386   157349   131206   118081   110125    78554 
   39563    32266    38978    14660   -47574  -106365  -118544   -88682 
  -48606   -10375    23822    55645    85603    84890    31095   -41125 
  -69903   -46459     -238    53325    76710    56627    22238   -32954 
  -95754  -130918  -134486  -109746   -95805   -97781   -77275   -59404 
  -36387     1207     5764     3641     3376   -17939   -22788   -31654 
  -84712  -148193  -162593  -101665   -28948    -8267   -31342   -67887 
  -83484   -91225   -99995   -59911    10033    61247    95680    85343 
   23584   -42280   -74622   -54626   -15051     5631    18709    30036 
   14757   -30525   -50295   -15947    39859    79072    65488    16355 
  -27538   -69778   -98972  -112117  -120608   -97167   -50514   -25301 
  -25175   -18650    17405    60679    83843    85583    67708    33283 
  -25016  -104355  -168352  -167675   -86193    12107    69301    90068 
   59961   -23112  -114962  -178345  -186197  -154217  -145407  -166440 
 -162475  -122522   -62544   -14925   -40292   -95522  -104210   -91500 
  -79087   -80445   -96730   -74175   -14425    41287    81208    68784 
     733   -58754   -91528   -91689   -20972    89764   152214   139301 
   99568    58710    27114    30457    37941    20176    -4606   -18754 
    5291    58994    85929    63900     4445   -80246  -147288  -150169 
 -113423   -63717    17259    94456   113596    94215    62255    17694 
   -8644     2086    16487    11727     6794    21518    37186    31912 
   -1464   -55355   -89191   -97026   -92773   -69476   -30632    24817 
   49057     9709   -41091  -104847  -168769  -156217   -78336    13302 
   92880   119439    88480    53707    37346    14193   -12937   -19703 
    2787    54625   100408    97000    68961    32376   -34532   -78395 
  -57828    -7656    36797    32759    -4726   -46336  -102667  -145902 
 -169327  -161191  -114829   -70080    -2371    77879   109325    95798 
   37574   -23120   -23878    -4258    12234    26778     7107   -18563 
  -52322  -132235  -186462  -161647   -97050   -36215     -689    27986 
   55539    60550    31354   -43195  -110549   -91024   -19852    18889 
   18152     5500   -16788   -40624   -56454   -71025   -47721    23420 
   41864   -34341  -106337   -97000   -52258   -47066   -81726  -120576 
 -141462  -151365  -161445  -168822  -183724  -181972  -128159   -29934 
   80139   135445   113492    63686    24539     9086     3172    -2520 
  -10519   -55836  -123607  -147538  -116512   -44293    54437   131076 
  143208   112195    88111    56240      477   -27618    -6836    31180 
   44597    16310    -4066    22761    50619    42730    29231    51056 
  106557   113989    51628    16681    23171    37656    63209    66969 
   41123    15104   -19125   -78761  -144451  -201065  -222336  -163996 
  -59886    49881   141999   150995    94800    52587    49444    57424 
   43808    31129    26475     9094      534    13290    37790    58882 
   54161    40669    40855    35037    29042    28607    18969    54105 
  148384   215222   204889   128432    34639   -40036  -102572  -146612 
 -165256  -158628  -125605   -89108   -52827    24200   149494   242346 
  228541   147930    69683   -19881  -142499  -250917  -300261  -299151 
 -258610  -153804    10305   171153   279739   306854   257293   172667 
   86661    33009   -19443  -129114  -242275  -309540  -347471  -322923 
 -230105  -135972   -59172     6277    42278    38731    -1981   -27054 
  -10961   -28704   -91634  -148465  -191081  -184528  -123410   -64581 
   -8401    69761   165331   239361   218414   107457      899   -53355 
  -67626   -50484    13214   122129   220030   233885   132904    -9044 
  -96804  -153918  -200205  -199205  -175413  -137363   -53666    40344 
  107345   163834   203595   188963   125366    63818    14370   -38278 
  -87054  -138942  -185395  -194083  -133227    12204   167170   244284 
  263592   273528   247460   144084    26693   -56236  -153731  -243223 
 -284720  -302616  -277742  -216040  -174032  -141625   -68166    62231 
  199336   271680   262723   173822    56670    33678    81438    49844 
  -74807  -211027  -301456  -313399  -281273  -242578  -185852  -111888 
   -9602    96550   140929   152025   144194    87696    43948    34866 
   22789    -7938   -85428  -164393  -176902  -144485   -96167   -57343 
  -31746    39574   138029   166931   136901   106944    85622    66341 
   -4602  -125739  -188905  -168514  -111375   -42044     3987    10827 
    3138     3845    16490    50240   112555   171620   215503   260591 
  264522   183543    55391   -53837   -91710   -44866    32074    83098 
  103185   109563   119430   127161   132908   143083   102818   -15359 
 -141165  -204309  -179970   -85562    27585    94612    96978    79136 
   30006   -89486  -230907  -316471  -306083  -215414  -104189   -23516 
    1368    -9691    -9423    10553    27202    17520   -20911   -64294 
  -94551   -98440   -86001   -64229    11931   114704   159515   143114 
   93659    51762    14201   -60209  -117158  -132976  -138772  -115839 
  -95346  -104689  -102667   -74670   -28070    26841    69006    83800 
   76677    51268    -8701   -80464  -116414  -103466   -40918    33988 
   65838    48603   -26548  -159090  -276068  -312572  -289784  -242069 
 -144915     2923   148606   254436   281114   232079   184162   148538 
   65938   -70001  -193982  -249037  -264671  -259366  -200191  -140946 
 -114173   -51273    46639   161918   273135   261482   130001    -5243 
 -140528  -243523  -258028  -247893  -244965  -230493  -197174  -107483 
   22316   117763   135457    76774   -17700   -92806   -83674    19670 
  141383   237203   266613   179559    68134    36795    27677     1637 
  -18019   -63095  -103441   -58501    26834    75358   106294   123533 
   69411   -27913   -73804   -58817    -8080    66834   118437   138338 
  157618   138866    53240   -56955  -160185  -243269  -295999  -306041 
 -250098  -138701   -27071    28344    21908    -5680   -23293   -37014 
 -101370  -228599  -324226  -328087  -266821  -171962   -91975   -78704 
 -111334  -137299  -138176   -89343    42890   221596   319394   247829 
   96048    -3318   -73296  -163519  -242871  -326920  -394177  -342083 
 -224971  -153404  -106318   -84120  -118472  -166199  -135175    30480 
  252216   360464   285721   124776   -36967  -170344  -224105  -240787 
 -257568  -187862   -54983    70999   205327   287551   277679   229177 
  143789    65782   100092   181967   169400   111888    93267   107705 
  183967   250060   233802   251282   298623   256386   107922  -118341 
 -287443  -276136  -163982   -27193   117052   217190   257935   226200 
  135654    54665    -4235   -11078    55539   100162    94224    97293 
  103667    74586   -10235  -112841  -139440   -43131    88959    88947 
  -64294  -203695  -228881  -197862  -178765  -176522  -177968  -189406 
 -227643  -287809  -335911  -329696  -286627  -272776  -272077  -231842 
 -159327   -97573  -101815  -142753  -162807  -178562  -151760   -76929 
  -44015   -10356   102882   200453   163155    -8404  -240964  -401576 
 -361424  -133746   186530   496938   645437   601543   544426   508586 
  332627    46406  -227354  -453110  -516802  -359491   -88069   153780 
  227054   107633   -47158   -62338    54320   180799   253398   253825 
  204455   159216   154124   188107   196474   127670    -5921  -153154 
 -210635  -135350     2412   140006   220716   214068   178837   166192 
  156655    94128   -17289   -89128  -119440  -143669  -114882   -57154 
  -17057     5697   -30640   -59858    41920   228141   385453   445680 
  404941   333436   261019   148196    -6261  -165217  -304948  -395389 
 -426154  -422927  -362053  -206147   -42905    18174     5395   -33260 
  -85420   -84836   -28697   -11906    -1780    71089   120614   132139 
  139057    56335   -72672  -162854  -285928  -417216  -447945  -384393 
 -240810    12541   299262   428430   324042   118655   -53708  -174118 
 -229893  -213871  -173712  -109111    14501   178267   300495   249344 
   21050  -198755  -276759  -253790  -214640  -162434   -78690   -11883 
   35412   141299   256050   282569   266379   205813    60606   -63763 
  -92398   -57876    17913    67239    53387    56577    95821   152693 
  239693   280950   188731     1670  -149064  -170568   -82334    48315 
  137666   169833   239381   317753   315830   305755   289552   184032 
   31625  -108949  -177221  -152230  -159485  -232779  -289288  -320788 
 -283492  -133535    38059   152808   199858   169870   126307   170334 
  257130   243320   106273   -70877  -240424  -351413  -365105  -324407 
 -230084   -72982    77469   207040   313111   327135   213231     8695 
 -177240  -309602  -452701  -530204  -449743  -267781   -20471   252244 
  458192   528388   411654   163042   -58796  -215747  -357373  -436827 
 -441865  -427792  -355341  -228215  -150713  -148814  -204488  -286735 
 -284283  -130635    31095    41003    -4148   -21867   -94081  -166920 
 -185731  -238607  -285947  -238155  -164081  -123163   -79600   -20818 
   30425    72736   134348   184241   181983   191765   209420   177347 
  156884   170159   181623   212730   220276   126330   -30762  -154498 
 -180841  -146719  -151612  -179940  -175464  -161480   -98846    66580 
  223511   240929   159729    72312   -14015  -106397  -200370  -285037 
 -309572  -295570  -291376  -240376  -155447   -78063     9383    24832 
  -42611  -104490  -145657   -70815   131909   234961   178651    80839 
  -30657  -117361  -160575  -188976  -178160  -151943  -100950    64481 
  278593   387624   319556    95985  -143446  -286159  -332042  -291009 
 -212576  -177926  -175280  -147328   -97734   -23862    89246   179684 
  180387   109706    35843   -18007   -77852  -137893  -208082  -301225 
 -351034  -329291  -277751  -203040   -85638    72323   203730   230921 
  187238   141116    83731    25032     5137   -23037   -55363   -23252 
  -16162   -62099   -45507   -16559   -34559   -14743    72585   178307 
  250155   299776   361794   380955   342995   314766   260921   141817 
   41858   -10096   -42545   -27075    14651    23293     2335   -22818 
  -59852  -138845  -236519  -297818  -302774  -234995  -102376    40232 
  151708   223920   268410   284311   210938    36196  -134961  -257504 
 -319733  -262005  -153658   -63290    51079   107206    39184   -58853 
 -125531  -137695   -78828    27038   131464   169040   131607    66233 
  -25124  -141580  -234889  -295070  -347618  -381418  -362057  -229119 
   45618   361135   564077   526379   297549   149301   115871    11298 
 -101538  -170674  -285407  -360414  -289090  -115331    57397   147663 
  159359   152024   146476    86274   -15932   -70497   -90331   -93340 
  -41860    61870   184376   247662   198141    59084   -85284  -104641 
  -12289    59832   101361   149447   160563   119393    84068    54247 
   14682    17307     9305   -74774  -145552  -169946  -157882   -89048 
  -39826   -42351   -44299   -45489   -16087    80052   175802   215264 
  231321   256453   290596   301710   242431   147511    78314    25816 
   -8133   -35702   -81626   -77059     7159   104473   186807   206341 
  100963   -48421  -144983  -208270  -208573   -97592    51112   156304 
  177750   117249    57764    39764    43691    60414    45212     7878 
   32455    96071   121603   105430    54853   -10117   -49399   -87226 
 -128286  -123933  -118398  -133541  -102910   -67991   -83244  -103980 
 -115196   -95219   -24251    10493   -25161   -63908  -108680  -156352 
 -163290  -174248  -165898   -57982    55205   134853   263632   388982 
  442834   425041   339685   233240   152648   113910    86318    28010 
  -45750  -140053  -252513  -314919  -299070  -225457  -130722   -54962 
  -21524   -35835   -27469    44074    82168    48038      635   -51548 
 -106812  -146830  -187357  -227974  -245864  -238776  -204793  -138844 
  -68173   -39874   -41905     -807    81303   141189   197819   265497 
  297322   293047   254132   160293    34056   -95572  -203696  -242505 
 -213936  -186090  -163456   -96608    32631   211244   344329   354419 
  332189   358738   351743   256723   143999    28965  -110441  -222971 
 -275511  -278533  -256474  -242059  -262564  -323612  -365048  -310593 
 -143186    79531   264885   353581   307225   168823    59375   -31730 
 -156049  -254070  -324873  -391632  -404210  -345574  -245185  -171909 
 -178245  -221570  -249283  -242602  -195222  -129635   -58211    37671 
  135376   152241    69534   -33749  -118333  -165221  -132278   -78809 
  -74733   -55985     6721    30427     1688   -16836   -30120   -54655 
  -80706  -129238  -162892  -149734  -164858  -218409  -252803  -248496 
 -177610   -55738    49365   128732   178867   150852    75848    30213 
   -6597   -41746   -48137  -102559  -215899  -280677  -293404  -257914 
 -145667   -25975    79136   155558   115752    28855    -2618   -25321 
  -14474    65069   127925   153793   156818   135730   150212   174740 
