Origin Time       2011/03/11 14:46:00
Lat.              38.103
Long.             142.860
Depth. (km)       24
Mag.              9.0
Station Code      IBR017
Station Lat.      35.9538
Station Long.     140.3196
Station Height(m) 14
Record Time       2011/03/11 14:47:17
Sampling Freq(Hz) 100Hz
Duration Time(s)  300
Dir.              U-D
Scale Factor      3920(gal)/6182761
Max. Acc. (gal)   362.828
Last Correction   2011/03/11 14:47:02
Memo.             
[...]
   12549    18632    47568    71773    54698    19059     8966    16597 
   19563    31373    59158    66424    24931   -30120   -36757     7470 
   38138     8229   -46929   -47792    18085    76720    79645    53259 
   12083   -65632  -133274  -107519   -20172    44268    78944    89679 
   62322    10834   -60234  -139861  -160849   -88172    18139    88510 
  113845   106963    65168     9124   -15649   -19572   -41314   -40669 
   23507    84321    92079   106254   137832    99750     6419   -18537 
   39562    87187    87271    63003    30568     4003   -21590   -69527 
 -110643   -86315    -1741    75335    88050    48533     8790   -13770 
  -35526   -61203   -73678   -62690   -41663   -11939    28967    43345 
   14350   -14287   -18916   -17538   -16645   -18101   -39168   -67234 
  -52131     9509    57964    59961    36094    17505    26677    62953 
   96440   106776   103304    93373    75684    54094    25686    -3805 
   -9542    -3848   -22446   -38106     3397    90213   153041   136864 
   52993   -33899   -71273   -70380   -71978   -65371   -17585    41137 
   60148    36115   -12662   -52013   -34614    28561    80996   111762 
  119025    85037    33181   -26044   -89657  -102280   -46932    30421 
   87027   107050   104547    74591     7228   -50394   -67452   -73397 
  -64116   -18520    30217    64134    97926   108522    63008    -7221 
  -27657    19227    78419   103905    92255    69845    62263    44221 
  -14593   -62031   -41585    11806    51499    78695    87000    60738 
   25939    22339    38836    38554    27798    42985    76907    68012 
    5624   -22193    -1031   -44537  -134808  -115751    -1485    55872 
   26806    -3569    18146    62769    71605    53153    62480   102097 
  121117    72376   -13382   -51426   -45729   -48245   -53600   -42573 
   23706   146966   189244    77882   -31948   -15532    40471    35803 
   16746    47328    83319    70403    28083    -7374   -20644   -29563 
  -45392   -23069    31709    46661    25390    18566    35919    44277 
   -3879   -88034  -131808  -101137   -25089    21021     4951     5144 
   55621    69074    26557     9003    27552    33907    38131    70647 
   84889    48677    36347    67339    61657    10470   -19535    15703 
   99212   155415   131519    65598    30076    26245   -24726  -148523 
 -227280  -149323    23729   148264   155556    88495    37635    24482 
    3548   -27861   -39514   -30896     6876    76993   123294   100129 
   41100    -3802   -54316  -107011   -72161    30478    87154    98151 
   97672    68698     4537   -65157   -73088   -17099    25282    50795 
   81849    63926    -9395   -63015   -64484   -33460      109    10082 
   10565    33569    61273    63531    47634    21113    10271    43227 
   55592   -11857   -82412   -81280   -44600   -16087    10236    67338 
  144118   153187    79980    14189    17925    96108   160200   101853 
  -15855   -65855   -52725   -58943  -101689   -72779    76078   183116 
  126548    -4457   -83919   -76151   -29705   -11074    -9151    27405 
   74662    70612    25538    -1029    10802     3392   -68654  -105074 
    7969   170080   194431    66458   -76428   -93342    20495   101621 
   73211    49785   102345   171459   154253    27967   -75802   -60658 
   -4697    -3724   -67485  -104169   -23786    56626    27291     7563 
   72560   135700   106214     3132   -54256   -32055    -6275   -10356 
  -30730   -35578     -826    34115    26347    15971    54860    90900 
   48332   -23367     3814   139450   216113   136923    27542     9755 
   18503   -46057  -106455   -30149   103983   152661   159066   159881 
   60137  -123337  -213083  -116686    54039   154576   176124   159239 
   83750   -69142  -206204  -199375   -96137   -39197    -2971    98470 
  168621    96191   -15475   -25706     6471   -19352   -37136    26177 
  123734   188032   180789   123405    58113   -36091  -127972  -123704 
  -41572    41470    88824   106291   134162   127546    16741   -97140 
 -100696   -52122   -30322   -19885    23692    79928    62794   -31303 
 -101452   -93626   -52765   -48002   -52435     4729    62117    25650 
  -53076   -66278    -1991    54037    56490    59426    65434    18845 
  -38619   -36886    17680    84749   121268   122930    94199    24431 
  -25622   -11037    19612    35283    22468    -9335    14115    84125 
   85776    26239    -2449   -30938   -94760  -119573   -49256    79507 
  155284   102293   -19736   -99739   -92184   -46169    -8822    42562 
   99476   114142    74650    15300   -19016   -25757     7696    78681 
  105639    72823    33133   -20474   -94659  -130858   -67312    61014 
  144464   136542    70198    -8784   -55016   -51194   -36621   -48672 
  -55919   -18996    49431   103144    62915   -56999  -115579   -83789 
  -41396   -16611    10291    74240   138243   151377   164660   143432 
   -9269  -175787  -178194   -53711    43477    53803    49508    82710 
  108932    82961      440   -69543   -32881    60734    90660    48502 
   11434     5270   -15017   -50290   -61856   -37595    20441    62506 
   30780    -8401    36085    89588    47897   -29121   -54156   -42098 
  -20363    -6451    -9783     5237    31722    28242    25458    57096 
  104101   113498    45804   -16029    -7294      231    13810    55223 
   51607    32203    39358    37114    16006   -27295   -37440    22497 
   57591    29222     1153    14221    51369    62983    59577    75647 
   56470   -23338   -47396    48449   146916   153342   117846    94631 
   47337   -46980   -93933   -15064   105181   126978    32495   -52987 
  -46178   -17353    -2970    41380    71854    42704    -2080   -39243 
  -62081   -50420     9335    87410   101362    74536    87244    67466 
  -40318  -133505  -136775   -66847    22780    61455    53494    67030 
   95648    85142    26275   -22603    16754    85113    56136   -11241 
   12144    85658    95563    40678    -7112   -13308    22602    62581 
   56151    34950    47740    51561     -601   -69669   -80943    -9754 
   67278    61683    14361    29371    89001    60405   -65873  -122872 
  -58028     4690    21346    45675    67644    32831   -37082   -66616 
  -55259   -49482   -26705    55680   142095   140108    75010    34059 
    9183   -37555   -57958   -26447    13737    65806   119041   107874 
   51480     7576   -35890   -61121   -26013    20140    23279     7956 
    7876     7900   -28558   -58361   -13866    50832    63804    22790 
  -44207   -48525    11425    13954    -6496    42289    78028    23103 
  -67642  -113596  -102055   -62115     5651   105200   201911   218925 
  137068    59686    21577   -46970  -114298   -93920    -2533    66570 
   42422   -25640   -26289    20921     3094   -75927   -99378   -40722 
   17008    48556    77248   101165   142243   189117   135544   -11849 
  -84133   -65495   -85671  -113603   -52689    41797    90595   107503 
  115072    99767    47320   -31470   -95794   -95168   -20039    79975 
  125003    75565    12461    27397    64617    41827    -3904    -4050 
    7930   -49806  -106323   -45690    39690    65808   103077   121823 
   31253  -104982  -157797   -92190     1900    24791    37060   110632 
  142582    63186   -61600  -134792   -93946    -6178    36484    50477 
   40674     5951    17320    70921    65850    -8301   -69386   -85649 
  -69526    -4495    83715   127122   124271    88428    22558   -45025 
 -110418  -154214  -108987    24993   135869   131510    58891    26764 
   42521    22828   -45016   -77487   -40665    14640    59607   109019 
  151328   149842    87067   -12599   -68545   -42264     4183    47274 
  119334   182103   161538    52904   -79538  -152748  -142479   -93494 
  -34521    17214    63388   122622   122436    28574   -35142   -16189 
   11292    37558   108156   188862   184811    72302   -55227  -103808 
 -103563   -97655   -51421     5932    30862    58409    56009   -18778 
  -84293   -89517   -66165   -13624    58071    97971    87298    59213 
   38356    -9419   -81115  -108562   -59717    49409   143796   147540 
   81270    22109    46887   119865   109454    40800    29348    52870 
   62956    45493   -32119  -118658  -118123   -50893   -18604   -37622 
    1471   130962   208365   149746    49614    14887    35163     5906 
  -88805   -87556    44035    94251    13543   -18465    10034    -8975 
  -29316     5678    34698    18981    -6568    -3783    31374    58082 
   20399   -50681   -78231   -78929   -81804   -45207    47683   140349 
  176919   147801    53417   -58703  -107065   -96458   -80531   -70851 
  -44286    19005    65541    32780     8123    79015   116264    -2134 
 -130741   -94575    20081    44997     -840    17212   102840   131411 
   86562    33613    -1630    12852    42437    18822    -3574     9256 
  -11404   -54858   -62703   -45302   -29326   -52516   -83935    -9384 
  126886   174968   138949   107862    73194   -19195  -117956  -120698 
  -25839    82425   139038   129692    83197    53583    40601    13224 
     106    20539    44561    46810    31496    17209    -1996   -13608 
    8479    34603    44032    53060    37507   -22320   -56804     9884 
  113986    84106   -81848  -161436   -92465   -44438   -66154   -35650 
  103985   232455   199408    44450   -82396  -118745   -81080   -24640 
   -1422    21609    83771   122416    78244     2575   -33590   -35368 
  -22128    16662    48943    27153     1806    31057    33516   -52298 
 -114043   -47787    78694   132870    98239    40007   -28114   -90250 
  -93319   -57901   -44193   -20291    57209   117610    62094   -78698 
 -144160   -61016    72794   183040   245508   221972   130132     6322 
  -98732  -101928   -31936     4708     7548    52604   156660   233740 
  171412     3535   -82656   -24919     5776   -84772  -144880   -74344 
   16943    30616    -6126   -30311   -21012     3024    33777    63679 
   56834    28938    54337   117388   120924    49999      551    54736 
  150415   134923    14380   -28354    37564    50147   -27520   -80351 
  -58249   -13977     3148      -58   -19106   -54686   -48239    34250 
  130161   163893    91678   -56854  -171664  -209006  -214483  -176592 
  -43596   124860   195819   144057    47132   -23847   -33273     4619 
   65314   127309   148533   128853    80558     3586   -39253   -28954 
  -46140   -82398   -52960    17388    40553     2066       11   113621 
  209690   146448    -7420  -132381  -129737    -4748   105695   138813 
   93860     2191   -44426   -65434  -102404   -44054   106762   175198 
  132022    55585   -25677   -85599  -109389   -66895    64618   164294 
  120377    43685    77728   153923   124503    29960    23683   102138 
  117045     5595  -117644  -114325     8872   127066   157823   163230 
  205725   185519    34009  -108612  -129185   -83360   -22112    18571 
  -24722  -105899  -119263   -90567  -102053  -114275   -37999   112511 
  220130   166861     7009   -79193   -71369   -49251     -558    45351 
    9011   -61404   -70210   -22616    27163    49669    40413    32188 
   61167    74766     4072   -80176   -64428    18449    54991    42138 
   48805    51685    10506   -51827  -103717   -82336    16461   106246 
  157930   152653    69999   -28750  -104996  -149693  -122131   -50677 
   -8170    14260    58574   117101   147995    94201   -57439  -181756 
 -146928   -12535    94865   142518   144754   127070   110072    68909 
  -15769   -63217    30932   180662   166436   -10878  -103448     3219 
  174114   250341   172251    25418   -26159     9129     8814   -25896 
  -51894   -60708   -42090   -45632  -105792  -147551  -119305   -13582 
  155176   270535   235967    79269  -109718  -204626  -155634   -67383 
  -14425    30330    69389   120878   221127   281357   215603   162502 
  234619   245587    49468  -192330  -284867  -215253  -111501  -103270 
 -118229    -5158   122917    90022     3888    27337   101965   110675 
   71819    45012    63624   111514    87491     1967   -22851     8845 
   52836   117380   147585    84233    -7210   -29667    -3328     6255 
   38674   140465   196055    88169   -71123   -66764   111196   240297 
  186378    21534  -128623  -170720  -143480  -131143   -68484   122153 
  334924   345720    76185  -233851  -311844  -209331  -123268   -81993 
    4414   134849   162243    12807  -146865  -155379   -81660   -17925 
   69273   161278   177225   112435    -2587   -95221   -86718   -21641 
   30797    27415   -46252   -49386   117855   215711     -126  -291155 
 -315153  -152857   -31271   -18951   -27931    92412   253547   194410 
  -56023  -181078   -36019   123049    30766  -142728   -96724    84663 
  100143   -51461  -122410   -61845    23333   103392   151436   101255 
  -14607   -60289    -9250    62832   138766   167205    84648   -12288 
  -25735   -13240   -18516    -9077    15095    16575     5646    89474 
  257593   262960    34195  -144195   -67877    77525     9860  -181955 
 -182227    52479   255341   231945    72281   -54231   -90682   -48804 
   31917    94402   101165    74636    46479   -12800  -127650  -262707 
 -331938  -243464   -24646   193600   349406   393629   225657   -53610 
 -217252  -255093  -219935   -50637   199890   333458   271622    86063 
  -99977  -164828  -141284  -139992  -136009   -11651   249189   436056 
  366315   136908   -94339  -254130  -276039  -171240   -51787    32973 
  112993   181052   208173   170965    71770    21436    95582   168263 
  123523     6379  -102667  -159842  -150088   -81908    -1080    37732 
   30974     -107   -32506   -56624   -46239   109530   404676   591387 
  477962   130132  -220451  -392236  -386953  -262742   -22055   300810 
  512489   412085   100041  -118684   -85096    56782    85843     2381 
 -112961  -215692  -233569  -179285   -80791   113336   303173   301900 
  172157    42855  -139756  -340504  -356866  -165118    48271   196155 
  268054   213570    75820   -75561  -196257  -189449   -83117   -43575 
  -57314    63865   303848   475206   474992   243219   -68699  -165867 
  -84746   -19790    16958    43387   -12070  -125863  -141091   -88340 
  -67299    -9806    72382   132580   159816   112896    48346    -1013 
  -42459   -26756    36633   123142   174367    73290  -111323  -156972 
  -35438    97817   194202   265262   219416    37078  -116381  -125197 
  -72487   -76581   -92711   -17740    56510     8964   -30098    74886 
  245722   347970   307001   198112   184469   230930   154443   -28599 
 -139451  -160333  -199237  -234769  -175832   -54586    47965   108998 
  133935   132970    62782   -70764  -137076  -125557  -106381   -58669 
   -3357    48248   141017   188968    87482   -55558   -85909   -76141 
 -166323  -267229  -246641  -142909   -10664   103222   163269   234398 
  297436   179845  -112080  -284826  -153301    78102   103598   -19538 
   -8472   157814   294063   265287    57738  -171737  -212756    -8373 
  228275   258932   150442    49701   -39474  -107361  -143994  -189578 
 -228030  -209571  -138931   -39170    96162   242187   301256   185621 
  -66258  -221903  -121156    54023   112659   130100   187884   194556 
  121529    93079    90200    13882   -19854    84241   150455    40183 
 -112350  -151328  -115801  -116032  -156602  -150888   -37460   150494 
  277741   249095   132094    50666    78663   136926    45911  -137437 
 -164978    30093   240576   213081    10824  -111342  -126336  -104042 
  -21216   100009   181105   187750   144391   114866   125992    79332 
  -62920  -143020   -99257   -37016    14220    84100   168842   235990 
  194812    41495   -65707  -102310  -146364  -139890   -76119   -14728 
   58634   118136    99928   -18869  -164470  -181857   -44289   132168 
  267401   298123   189228    30552  -104972  -215339  -252056  -180924 
  -35057   100710   135159    93311    78953    89078    44053   -34159 
  -86488  -102114   -62739     5656    61435   121972   171981   137022 
   -2486  -125575  -100482    10853    27344   -87893  -152136   -56566 
   42458     3038   -95164  -111460   -36313    24399     8897   -12595 
   47174   105519    50327    -6053    64376   136334    41185  -126907 
 -137686    12976   108403    61073     3053    35185    83571    36171 
  -55343   -68046   -42929   -63810  -105058  -142183  -120134    17960 
  151781   156423    98371    98762   158633   157316    34441  -119532 
 -152185   -21188   114435   125278    60577    13547    17761    19054 
  -18189   -29819    36568   102895    73507    34471    31352   -45234 
 -125921   -70026    43516    90061    89761    88375    38897   -59875 
 -123029  -108266   -25529    66857   104352    76471     -623   -69148 
  -56591    22539    72432    31013   -43255   -50262     2105    37531 
   46380    79308   151033   197076   145161     9395  -107763  -109830 
  -24260    25863    -1985     1122    93474   149854   101750    26985 
  -31309   -48657    10153    89249    79257    21701    57285   148505 
  196339   180038    74354   -50497   -93189   -91617  -112217  -115261 
  -58159    -3154    58290   179640   269000   246336   121655   -29879 
  -77829   -40864   -36529   -46369     6602   100787   138449    91338 
   47852    58414    81295    80955    43142   -14249    -3833   101885 
  171901    97532   -76019  -201435  -164916   -59193   -38632   -56296 
   19308   157844   190369    55534  -101784  -108294     3279    47928 
   27287    83406   156572    92132   -64137  -118703   -17131    78996 
   68327    20010    -9262     -646    50181   109708   175826   206342 
  110674   -29282   -56895    -8939    31500    90097   140870   112571 
   21124   -69890   -96552   -50220     -246    30901    61058    60200 
   26490    -8523   -42803   -45754    22569    83986    47629   -29324 
  -80775   -86814   -35767     8915    17822    43035    82615    69765 
   -7459   -37481    31544    80257    52241    42066    82998    74116 
  -21254  -102635  -107075   -60499    -5413    23189    27409    26061 
   27750    48873    50467   -32751  -135186  -131446   -25714    75430 
  111338    87307     4041  -102157  -147574  -107514   -22612    37719 
   21161   -12984   -14465   -49462   -87324     -726   171121   252289 
  176583    57881    -4093   -30158   -66300  -126422  -151101   -99319 
  -19058    85085   181007   190349   145780    72732   -43746  -134097 
 -137858   -57614    74204   182090   227362   223464   150464     9340 
 -130743  -194122  -139337    -9371    90678   114214    97928    98945 
  120199    99748    30253    -1419    47838   105810   106388    85879 
   84334    88211    92360    75171    11905   -42166   -30094     5432 
   -3350   -45466   -50969    24163   132768   136504    -6731  -115662 
  -72112    -3509   -10611   -25115     3544    15596   -15064   -32742 
  -15615    27635    80485   107295    80683   -13344  -103276  -102402 
  -57124    -6130    63604   108694   100182    36777   -69811  -132096 
  -90681     -659    95330   204643   266323   194562    48481   -21127 
   36196   105145    42256   -80151   -68011    42233    83968    72606 
   80814    85517    67436    46656    45533    20289   -66252   -94425 
   -1268    57834    24958    25825    94947   175751   229533   245439 
  220955   107884   -65138  -169197  -163003  -104323   -63495   -30857 
   74999   235829   293457   148412   -53419  -119675   -79247   -28736 
   19761    64718    80527    56444    35302    53221    66485    42119 
