Origin Time       2011/03/11 14:46:00
Lat.              38.103
Long.             142.860
Depth. (km)       24
Mag.              9.0
Station Code      IBR005
Station Lat.      36.3851
Station Long.     140.2373
Station Height(m) 63
Record Time       2011/03/11 14:47:10
Sampling Freq(Hz) 100Hz
Duration Time(s)  300
Dir.              E-W
Scale Factor      3920(gal)/6182761
Max. Acc. (gal)   595.837
Last Correction   2011/03/11 14:46:55
Memo.             
[...]
 -116341   -86668   -86532   -78456   -73168   -60287   -19545    14784 
   19179    30812    70180   112554   151505   200926   259684   314057 
  339941   322129   274016   218792   171562   122580    54372     -737 
    3164    39534    55111    46955    28903     6540    -6094   -11521 
  -30177   -65869  -109252  -138174  -121857   -69331   -26654    -6782 
   15922    39398    36370    10350   -24748   -73477  -132223  -189216 
 -233298  -257266  -276146  -299893  -309639  -280443  -191520   -60462 
   53583   131617   193242   221141   186378   110355    30262   -44313 
 -101766  -129938  -140419  -133753  -101722   -54131    14447   109281 
  203338   274621   307657   290513   240280   180991   125845    66465 
  -16675   -87758   -95723   -76817   -95784  -143794  -168343  -158181 
 -150814  -154129  -133118   -80871   -19991    35968    74689    88306 
   87211    80576    66271    37546    -8230   -53918   -83823  -102212 
 -107217   -96802   -84679   -75567   -60631   -44718   -46444   -67761 
  -85722   -78323   -40066    25371    93974   133838   161084   198898 
  215669   199807   185468   167124   110015    30014   -25796   -49637 
  -66348   -83320   -84508   -62196   -27063     7312    28299    30136 
   15113   -27920  -103288  -168530  -189896  -194255  -202638  -200602 
 -181191  -138439   -67797    -2427    25834    46522    89327   126694 
  133576   113930    79553    46359    19556      186   -10194   -14208 
   -9142     4321    22311    30808     9673   -24153   -41002   -46585 
  -53615   -54449   -35651    -2088    30777    67664   102146    99969 
   56763    -3886   -61302   -99639  -122424  -138768  -162829  -206131 
 -224548  -177081  -100496   -43172   -10520    21842    74556   130484 
  156214   145903   112259    71829    61965    91877   100624    52096 
  -11341   -35655   -15385     3426     -100     7736    43828    99177 
  149136   152434   100145    22698   -28404   -24574   -10452   -24909 
  -46339   -58913   -73318   -93854  -111106  -120088  -127454  -138857 
 -137316   -92412   -20395    27913    34055     3054   -35664   -42862 
  -39044   -54080   -69593   -80123   -97733  -111036  -102953   -79584 
  -53118   -24420    -3597     6680    25032    45740    44521    36968 
   60650   106243   131359   122443   105319   107792   110104    67805 
  -11565   -79276  -104438   -83074   -29598    32790    83216   120928 
  167664   221512   253766   241703   174474    78769    -8882   -96011 
 -188063  -252316  -255767  -207036  -151262  -108906   -62575    -3553 
   56182    94842    97783    73638    44211    25308     3320   -50031 
 -124086  -178642  -180711  -133018   -91665   -80882   -59593   -22410 
    2737    14103    12355   -10159   -50091   -87537  -101514   -97379 
  -99890  -114836  -119399   -99562   -66879   -33711      188    43756 
   88253   106561    94217    62339    31408    24724    29280    36567 
   67780   121429   171185   197511   210785   221214   209618   176449 
  128305    51208   -38547   -97240  -101615   -77258   -63391   -48015 
   -5727    51308    95009    97282    52653    -5504   -53087  -101198 
 -145190  -164137  -169953  -178897  -182098  -176688  -170282  -161584 
 -140235  -104096   -73693   -77252  -103667  -104180   -75343   -43644 
   -7265     5906   -20448   -30676   -11232    -5644   -14710    -6534 
   28970    80705   134160   175222   193934   183090   146693   106881 
   78663    59499    42483    39976    72946   117349   136388   130807 
  113034   105801   114126    88578     2817  -101221  -180739  -231070 
 -259907  -268598  -261835  -240135  -197998  -148977  -110615   -84501 
  -66961   -49853   -34604   -21518    17486    90894   164089   205926 
  205198   161407    77234   -11408   -40150   -23035   -33081   -72501 
 -101742  -110282   -95221   -56204    -6024    32083    47399    69070 
  120508   175540   184321   133166    73092    34832    -3658   -42047 
  -58295   -44263   -32450   -69718  -128021  -147726  -128417   -93923 
  -53143   -16597    -3580   -17514   -39638   -53335   -46860   -34890 
  -57185  -104203  -136645  -152843  -145144   -99489   -47757   -13956 
   27032    98358   183615   245951   270502   263820   238433   205338 
  144546    41216   -73980  -189268  -300891  -347894  -301289  -217648 
 -133413   -46206    29903    87474   124939   123791    83133    32691 
     400   -19892   -48316   -78779  -108588  -134904  -124912   -81089 
  -32486    33051   109060   152076   153184   138868   125407   107459 
   90596    85506    86611    95293   104500    93144    70739    63505 
   58333    26139   -15303   -51646  -113461  -190375  -224637  -201932 
 -158297  -121077   -87585   -53514   -30610   -29743   -45000   -56016 
  -56695   -79156  -137178  -178818  -167345  -126381   -70582    -2440 
   55677   101044   135779   139337   126595   123214   114707    98940 
   85080    58649    18155    -9727    -9109     2421    -5354   -34494 
  -54388   -40463    11235    82907   136619   158088   162168   148916 
  128156   127466   121129    64781   -22640   -97219  -139076  -155378 
 -153010  -133262  -119041  -100417   -66171   -77841  -139465  -185535 
 -201293  -172937   -96024   -29659     7408    51851    95593   116403 
  116363    82502    29055    10427    32424    36740   -20594   -85253 
  -75452   -29533    -6463    26355    80502   116673   113008    85859 
   60533    20028   -33950   -59930   -53508   -25350    15983    59143 
   91070    96161    98288   120116   133202    99638    33407   -14474 
  -58749  -132277  -194625  -211512  -205747  -218336  -246771  -248785 
 -220571  -181105  -142662  -107463   -41125    56326   129904   141536 
  102358    81651    95128    87727    52050    -9515   -84329  -129691 
 -140192  -122306   -68749    21928   121578   172913   163124   136248 
  128832   145645   168862   177475   162226   120689    51192   -41525 
 -133484  -189083  -190486  -145993   -88918   -48496    -9692    34087 
   59046    72450    96924   134280   155288   116353    26523   -60260 
 -123447  -178204  -197035  -159019  -127235  -115324   -92713   -92788 
 -116722  -116049   -67564     -582    45294    81853    96356    65644 
   27546     5572     5824    27766    24654   -15991   -35686   -16249 
   -3368    -1991    24899    62237    81669    97190    82524    -1305 
  -98991  -144954  -150973  -141345  -120313   -84109   -16976    55336 
   84984    93536   102434    94195    57409   -25100  -108993  -123113 
  -95047   -91406  -115812   -99911   -27946    22667    51980   104246 
  137956   125454    85372    22857   -29343   -38942   -37549   -63885 
 -105006  -117616   -87868   -44812    -9253    18896    37237    36404 
   15522    13500    45794    53933    27706   -13772  -102540  -194081 
 -195789  -121498   -38581    26861    76682   118015   150704   151591 
  109547    44981    -8941   -46396   -95705  -113895   -33941    82517 
  142376   149316   150770   135677    53209   -36703   -44395   -42610 
 -108292  -166774  -154401  -120080  -103139   -80591   -53589   -42936 
  -32288     5903    72472   122871   110929    70929    51640    37360 
   39254    85678   126862   115369    64516     3822   -40055   -61008 
  -62749   -50500   -39104   -46529   -74005   -78251   -48236   -45600 
  -94204  -149151  -170479  -197310  -258452  -272807  -239802  -218092 
 -138758     3983    91379   105240   133189   191790   193796   113768 
   30674   -13828   -32915   -40691   -61713   -86912   -72078   -24232 
   35797   124841   211783   228241   186253   144150   107952    48465 
  -16952   -30144   -16753   -37293   -44308   -11080    -3582   -20474 
  -20906   -35021   -62430   -41210     9503    14418   -16335   -33795 
  -40192   -34591    -9801    -6136   -36567   -58594   -60689   -58501 
  -54992   -52543   -49500   -10290    80696   152991   170323   186505 
  208729   186244   119462    71584    58661     9045   -89537  -160298 
 -200025  -247052  -249366  -170022   -80816   -12661    68293   125697 
  137820   131814    86000    10240   -40967   -63008   -90557  -134993 
 -166015  -177873  -191707  -187274  -155783  -125090   -61736    49421 
  117851   103447    54197    18822     6392   -31916   -99168  -134790 
 -133929  -127402  -136972  -173174  -197778  -181982  -141660   -67050 
   25996    89135   129434   146625   141675   144990   148143   160974 
  182324   172919   153572   141914   124575   101383    57474   -11923 
  -78689  -106221   -92591   -55159     3961    61962    96413    99293 
   71653    48181    38946    21374    -6009   -44418   -94337  -152933 
 -226024  -292573  -331537  -320605  -215259   -80258   -20372    10502 
   62157   104670   145170   188056   211507   204923   165183   124788 
  102429    69752    23734   -16104   -39134   -49934   -65988   -86152 
 -101949  -127032  -174363  -223788  -241256  -213858  -150876   -97525 
  -97030   -92990   -37274     -361     9434    71115   186456   295722 
  351946   340883   262442   151127    77499    39226     9700      329 
  -33186   -96511  -113372   -97183   -96454   -93193   -78838   -53844 
  -23326   -17274   -37031   -64138   -81075   -68440   -46040   -40071 
   -9515    85196   165880   155692   106571    65384    29490     2125 
  -32410   -92656  -157096  -165577  -124704   -92680   -42565    25303 
   48353    55233    87146   106108    74978     4739   -54069   -78645 
  -97904  -107819  -101722  -105415  -126351  -179787  -244916  -250397 
 -163401   -42882   -24404   -85942   -59782    41823   117263   153229 
  161492   171032   185281   173070   146494   120831    63239   -28547 
  -78715   -51548   -10589    15930    45088    62281    86277   127334 
  149882   171986   181912    98108   -50423  -157806  -239437  -335096 
 -369489  -320908  -261140  -190318   -80986    15091    63107   105758 
  122532    81663    66197    80276    55143    23126     5403    -5733 
    8763    26136    20670     6564    17414    76690   114550    61966 
    -999   -22204   -66056  -128825  -154418  -134491   -74727    12786 
  105799   164462   160543   145622   155721   158740   164945   182283 
  170407   126709    56108   -45449  -111109  -102815  -109595  -155690 
 -159082  -148820  -200758  -253527  -218787  -140749  -125768  -168225 
 -169953  -103046     5277   109735   117739    65428    90788   144263 
  147100   165897   194870   173508   124531    83541    49424    18375 
   -7859   -55751  -120973  -147435  -142076  -155924  -182682  -166777 
  -87927    12619   112529   209805   277547   297291   249102   142585 
   67989    35174   -48022  -156578  -216517  -251945  -282191  -291454 
 -287955  -281083  -259100  -206458  -160555  -200482  -299767  -351720 
 -360825  -402346  -455673  -404136  -200857    18502   122410   167544 
  221337   224103   146522    58943    12864    23838   114523   240181 
  323344   391474   490725   585887   653642   696840   676031   548460 
  323842    78879  -108610  -269221  -436055  -543029  -563326  -546776 
 -512960  -411944  -198968    49349   199750   226601   206538   217263 
  260804   295294   330725   360245   325686   224310    78772   -92204 
 -239417  -348849  -434255  -451229  -379555  -318725  -346339  -410421 
 -444923  -438239  -382197  -270342  -121111    30866   124868   140468 
  154168   180843   150023    92052    72414    82353   113129   136282 
  122894    97532    39749   -71228  -171600  -237643  -299850  -343444 
 -347476  -344755  -370726  -380954  -292944  -112288    56835   141376 
  191683   248516   236352   136976    35198   -26049   -25742    47490 
  136546   194676   243030   304769   385739   489330   583985   627341 
  634893   641457   626208   556242   438590   276954    83981  -102976 
 -293354  -491165  -617696  -613775  -518722  -420981  -371269  -327544 
 -216453   -61659    28247    36659    53097    96969   124011   115089 
   58670   -25134   -95899  -140816  -153296  -147341  -164053  -231862 
 -338762  -423463  -432154  -356538  -210580   -69791   -47722  -109419 
 -126534  -127294  -163102  -170907  -171109  -221445  -268070  -262080 
 -204502  -104676   -15585    -1095   -32675   -10987    83113   184091 
  270337   348902   391591   376388   325985   286928   286514   302866 
  297188   279010   274070   262799   250531   281661   332073   355967 
  364460   345767   271031   177607   133193   160191   216784   243974 
  223789   194083   179839   113249   -40871  -172500  -218912  -279482 
 -417363  -547016  -585989  -553836  -502118  -466643  -439481  -374647 
 -291155  -237921  -183870  -124824  -103916   -75780   -35023  -106652 
 -295015  -439370  -476548  -466663  -424837  -348021  -286098  -256689 
 -222144  -169628   -93243    33448   160534   182866   126812   120120 
  182574   240906   280909   334248   398456   440222   421978   331562 
  210454   148324   209039   324340   357433   278527   184176   178767 
  246580   305448   364084   435428   456944   398153   276664   155577 
  109070    98917    30495  -122047  -340473  -565837  -709413  -768073 
 -781957  -731114  -649474  -605083  -554129  -461180  -366856  -308214 
 -321381  -343369  -237578   -78597   -79701  -190172  -169725    -1462 
  179385   316459   342002   218729    73477    50184   130669   213222 
  237488   159944    10100   -81432   -60347    37177   168944   248923 
  248320   231551   206949   206123   278402   348828   402618   483588 
  506217   405178   254747   213250   340206   468061   495751   512172 
  501300   348734    72939  -194014  -360183  -415334  -369665  -282573 
 -280591  -402406  -565341  -715874  -856464  -948663  -929308  -857819 
 -860664  -898151  -842157  -709339  -598709  -510375  -357642  -125450 
   96868   244354   320582   340391   297690   198303   100656    48335 
   34773    65198   107472    98172    94273   218217   458470   644359 
  674155   689966   770840   777618   727422   732288   720560   625761 
  484982   356867   266823   151548   -23985  -207646  -382674  -578214 
 -769752  -845164  -726524  -488133  -221859    76686   351774   485285 
  517870   565560   589352   553047   544327   519265   369048   172419 
   24877   -71438  -113615  -104589   -96267  -193588  -409701  -604865 
 -680840  -683281  -711612  -787522  -859622  -914579  -946926  -909974 
 -763535  -510422  -216896    18350   126851   152246   241100   411112 
  519113   526448   497527   450300   392244   308913   169005    40343 
    1064   -20620  -116621  -235685  -305012  -355698  -425098  -476364 
 -468053  -432382  -407697  -357813  -253424   -91229   117770   290938 
  383587   436913   477447   541223   640001   718041   759125   773807 
  760349   770113   823747   843576   775350   600593   308362   -11339 
 -244732  -414602  -579309  -719824  -819368  -883338  -900470  -887326 
 -885922  -906681  -943003  -940321  -775991  -467601  -230191  -146066 
  -48130   170155   390152   491828   514918   515745   480025   403428 
  321019   272517   255510   240411   234851   228639   142426   -29497 
 -157049  -153031   -86083   -73876  -119662  -130548   -92768   -69659 
  -59529   -24163    20420    54472    97694   146240   175125   196395 
  224200   228327   165093    39043   -88332  -162358  -162358   -91127 
   -9749   -20754  -130736  -221653  -238810  -230704  -178107   -27050 
  152334   226489   176416    86669     4831   -34280     9668    91871 
  144463   158085   148257   109324     -500  -161457  -259878  -251037 
 -218184  -263237  -395891  -502387  -476390  -330126  -147045   -36688 
  -62219  -158665  -210849  -174872   -74322    49264   130685   120086 
   30040  -115294  -222964  -141114    51450   144554   201363   348054 
  473901   494418   478416   479473   507885   551633   578174   567839 
  506311   364496   121054  -159500  -328262  -336811  -260723  -130841 
   11957    81035    75754    12031   -97936  -165647  -183509  -230524 
 -293134  -326884  -341838  -343401  -316925  -293656  -323826  -340861 
 -212925    26311   153698    78450      447    30579    36411   -16808 
  -48428   -41587    -9432    -1982   -46753   -64680   -31433   -15147 
  -13935    -9004   -30623   -54068   -47400   -64413  -136529  -207058 
 -223073  -130031   134083   415590   436210   287097   282889   407046 
  464180   404097   242396    87466    89472   178854   182932   100257 
   31695     2221   -49480  -138051  -184957  -143607   -46582    39711 
   56634    19035    -5180     1766   -12195   -64661  -101906  -106546 
 -111354  -138566  -209097  -320055  -420739  -471003  -505441  -585821 
 -682422  -730638  -745195  -739739  -683107  -549994  -338899  -121516 
  -12245   -21794   -28222    27994    67762    91717   171106   276426 
  388731   524266   630016   669078   665658   636712   571753   453773 
  320522   271238   342711   456948   529744   535769   483529   403161 
  327673   275746   252423   236948   188700    78509   -57459  -119365 
  -77776   -10017    28019    43185    69185   103701    73213   -41276 
 -165279  -258131  -335972  -437204  -589216  -754286  -860883  -857782 
 -748207  -627570  -581206  -564628  -530186  -531948  -576105  -575702 
 -465405  -244824   -39124    27661    52094   144154   247734   299490 
  278477   216246   197978   223860   230059   221844   226367   226498 
  211096   183551   123282    49648    37546    75577    96576   101489 
   88809    64669    97706   194782   283255   327261   344787   370387 
  415508   449463   466402   497562   504709   414256   259686   152940 
  134843   124213    59421   -14984   -70919  -125606  -186105  -282333 
 -429169  -571580  -646092  -645865  -612148  -575884  -546094  -526807 
 -471336  -332162  -180396  -108237   -84186   -30969    44866    77398 
   63341    45084    12400   -49500  -120026  -165751  -146879   -79009 
  -11212    48466    64758    -9935  -108528  -129587   -86453   -36486 
   19791    78375   108100   126780   176220   245280   302877   350538 
  400023   421099   340698   157523    25938    74789   194695   220292 
  177732   164825   207855   255369   205430    67991     3843    81701 
  176152   157181    46307   -35110   -28776     2866   -15045   -98163 
 -200455  -262432  -296853  -340588  -393500  -422055  -365153  -263445 
 -247750  -310733  -328680  -240103   -77942    50166    65349    34215 
   41752    50361    14531    -6578    43738   109851   130333   127684 
  133793   167432   234796   264608   166789    -6411   -99253   -50235 
   64649   123712    69490     1504    25518    55402      462   -79270 
 -107694   -49729    50783    92551    68783    46909    55236    64655 
   55009    59303    75560    51967   -23403  -105408  -130933  -106778 
 -109628  -161463  -217768  -238608  -215645  -156067   -71107   -32457 
  -96500  -170951  -155709   -56531    65289    84669   -56332  -201613 
 -188222   -96435   -73024   -65635   -16034    -5116   -14006    22582 
   26650   -37943   -84159   -70352   -20458    53145   151086   231724 
  238435   224437   280232   355950   352025   268785   180340   161435 
  204002   239137   250544   234181   153230    30441   -46076   -48045 
  -57621  -141947  -259680  -353183  -422558  -464967  -446278  -368954 
 -295288  -255118  -168890    13279   166346   202993   214421   221032 
  159423    85767    46606     5033   -30289   -59273   -88676   -86273 
  -90743  -151251  -224752  -270632  -282134  -245776  -163015   -69489 
   -2834    36667    63745    84151   115964   182276   277561   359226 
