Origin Time       2011/03/11 14:46:00
Lat.              38.103
Long.             142.860
Depth. (km)       24
Mag.              9.0
Station Code      IBR014
Station Lat.      36.0729
Station Long.     140.1948
Station Height(m) 18
Record Time       2011/03/11 14:47:22
Sampling Freq(Hz) 100Hz
Duration Time(s)  300
Dir.              N-S
Scale Factor      3920(gal)/6182761
Max. Acc. (gal)   382.323
Last Correction   2011/03/11 14:47:07
Memo.             
[...]
    4307   -27181   -58827   -69492   -63952   -55853   -38231    -8852 
   26049    71159   122314   139259    99369    49122    26439     1868 
  -46171   -90787  -113551  -123501  -116150   -76850   -29412   -10230 
   -8259     3368    14841    10248    13532    39361    70786   115664 
  156581   140345    85652    53357    50505    39360    19990    26249 
   36868    35426    50029    63084    42531     7361   -14150   -34216 
  -60389   -57084   -21212    12194    24689    17758    21313    38781 
   25139   -12571   -27472   -32666   -53382   -62371   -47716   -25427 
    6056    31157    28352    16887    12492     4810    -6595   -17050 
  -37466   -74886  -108164  -115675  -114516  -121245  -112378   -79975 
  -50566   -26089     6012    24548    12888    -5793    -9931     9887 
   54673    97746   122698   145751   156657   130633   102302    99547 
   73496     4871   -54432   -82388   -90369   -66678   -19363    15596 
   36409    44049    12667   -35071   -48621   -54712   -87228  -117440 
 -139618  -151129  -125425   -72820   -19614     1731   -14039   -15887 
   -8990   -43184  -100974  -140421  -134879   -82091   -36435   -24541 
   -9086     2783   -11427   -14507    -3327   -14267   -31121   -28120 
   -5110    25937    37240    26619    30554    68541   100867    97774 
   94245    92790    71427    63049    68052    38948    -5446   -17256 
  -12221    -4452    20610    43610    56934    77520    95119   102141 
  102698    99748    99618    90731    66505    38802     6604   -13579 
  -10568   -24682   -58836   -66411   -40070    -7080     2377   -16459 
  -28363   -29279   -62829  -119439  -147601  -159103  -178779  -178342 
 -149530  -110303   -52507    22130    83962   127282   160011   154679 
  107276    57085     4282   -53880   -92299  -117609  -130917  -108641 
  -56617     -950    25849     4165   -28243   -25197    -1856    12599 
   27206    29618   -11925   -53497   -50680   -38411   -36961   -35146 
  -36593   -51111   -66554   -57224   -40954   -39136   -18899    29455 
   65998    76300    76232    58931     9817   -42720   -68363   -66749 
  -24116    42919    81624    98735   115336   106240    64009     6479 
  -64807  -134558  -165525  -170430  -181934  -176923  -143801  -108243 
  -73121   -40412   -26230   -19026     -477     4458   -28287   -73965 
  -98393   -78797   -15013    48025    65985    56027    64683    82578 
   67210    15499   -49034   -88105   -79174   -47177    -6093    34920 
   47301    41944    45533    57978    53762    10307   -39214   -74389 
 -102889  -105260   -94080   -80536   -47421   -11789    17391    41557 
   47768    46160    47344    49342    43773    14782    -4047    25307 
   63287    89005   129671   163814   143428    64448   -19134   -65110 
 -114572  -170835  -172977  -148970  -139270  -124907  -101416   -51818 
   12377    45100    63276    88226   111978   128423   113628    83871 
   71378    43421   -13589   -50679   -37116   -15315   -23938   -20503 
    7856    24205    27705    18742    10967    31979    64194    74739 
   58882    49542    46379     7784   -27903   -18644       58    22316 
   57815    87157    87508    46826     5619   -10659   -50932  -108279 
 -116025   -83443   -44156    17619    81312   104483   106184   103091 
   74915    28402    -4500   -18629   -15312    26440    82213   100564 
   99143   100874    79444    37696    -5178   -61916  -112954  -132266 
 -149250  -159547  -148297  -147106  -133094   -66813     5167     7973 
  -32044    -8823    42820    17160   -37758   -73202  -100927   -90133 
  -67756   -65636   -36609    11813    30667    21248   -11555   -83632 
 -160080  -176104  -153909  -141763  -110891   -46808     9324    42632 
   61039    57207    18522   -55857  -125432  -150306  -165599  -187457 
 -148704   -44876    48255   109446   158533   185405   172960   146174 
  118755    59071     3493     7565    21594     7053   -11832   -40513 
  -80406   -95042   -93640  -110612  -116447   -79663   -17079    35914 
   54741    70753   103679   106482    63201    11394   -23550   -36483 
  -30932   -10671    20430    36519    36796    57327    69680    27484 
  -40073   -94196  -119012  -107945   -76207   -48192   -29004      426 
   45064    92017   119247    97490    54683    34876    21104    16300 
   28757    17295    -9751    -3649    27203    45569    42024    24257 
    5668    11899    28742     5809   -31695   -19408    29508    63636 
   62447    42526    29683    24025    10929    -8682   -13172    -1432 
    9727    25654    34031    18291    -2214   -21192   -45331   -70656 
  -89540  -104242  -137128  -172079  -169601  -143346  -109583   -67587 
  -28996    -1165       76   -30857   -73857  -125226  -185632  -229310 
 -244532  -251500  -234258  -165881   -89928   -37344    18633    74999 
  103505    89125    33560   -29116   -53720   -29128     -741    -3522 
    6924    56836   104600   135571   172428   218082   231678   183260 
  119438    77746    46579    40791    54398    44481    26559    40619 
   58609    38014     3230   -14069   -22009   -31379   -54622   -83993 
  -89443   -72696   -40118      467     9326   -16441   -42693   -61206 
  -71846   -66044   -34460    12055    51186    90317   118493    99572 
   60523    44620    34300     3584   -33861   -46568   -38789   -28206 
   -3863    20449    26117    33388    49299    76507   106956    85923 
   16486   -20661   -21977   -39544   -39905     4260    32826    31927 
   27705    20551    16850     -382   -34437   -46020   -49472   -88924 
 -123078   -80536      955    41063    56232    89437   120071   121510 
   92633    44951      -69   -42802   -86046  -102880   -93499   -85605 
  -64931   -25281   -13466   -23195   -14945   -18637   -41902   -47453 
  -43056   -43489   -43870   -37427   -12007    24563    44287    38553 
   38203    46877    11355   -52577   -83685   -99489  -106768   -80230 
  -55902   -57270   -37207    25227    76449    78517    52221     5746 
  -60974  -106490  -104171   -86124   -68681   -24124    43309    94474 
  108411    85616    53280    37049    16384   -18557   -45030   -69240 
  -92260   -82504   -47745   -27340   -25030   -28796   -55646  -109862 
 -149966  -169706  -211020  -254901  -246977  -202604  -151747   -87154 
  -18406    43034   104480   151412   159836   135061   102447    81366 
   84793    97496    78434    42468    24413     9580    -4763   -12007 
  -19811   -26681   -24852   -10793    -9378   -17285    10004    48805 
   52546    45838    63876    87552    98845   126084   150645   127881 
   91430    70354    63220    77162    76559    36034   -10059   -30946 
  -17320    11568    13228   -14671   -37852   -44115   -33847   -22942 
  -50589   -96549  -117431  -138792  -159568  -137507   -89582   -56088 
  -51625   -59216   -37074    -1970   -10135   -22968    13763    34680 
    -217   -31226   -56320   -96081  -101704   -70138   -45614   -24046 
   -3175    -7820   -22880   -19536   -23007   -38123   -20249    15745 
   31949    39843    49102    70242    93023    57017   -30463   -77101 
  -69998   -84051  -104487   -78813   -68452  -101327  -122121  -119396 
 -104448   -79671   -33640    32545    97521   173409   246928   259916 
  223893   184740   129174    63289    14592   -39691  -103845  -152246 
 -180847  -190889  -182792  -154524   -96481    -9848    72849   133688 
  198346   247211   247550   222226   146764     9970   -96962  -151232 
 -203069  -237210  -244225  -247502  -209496  -113020   -59100   -94230 
 -126160  -128353  -139919  -132434  -103912   -89182   -60048    12522 
   94690   148271   169722   144953    64486   -16926   -67901  -125085 
 -169537  -136964   -33246    82094   173770   251222   321925   366461 
  351617   259368   147234    58163   -47241  -133289  -156986  -173177 
 -194700  -235157  -297801  -302236  -256286  -223811  -190177  -148022 
 -104321   -26361    66434   109636   135486   176606   192865   196131 
  195711   169503   150737   175175   208258   200808   166883   124349 
   75865    51340    34470    -8749   -19148    65004   174335   194190 
  133276    97546    81537     6139   -59053   -84731  -139440  -130527 
  -27780    49458   104472   163202   175299   129911    78513    54377 
   30071     7010     4764   -24575   -93193  -137607  -151875  -163615 
 -141530   -94442  -104858  -154846  -121613     7275   128128   202561 
  253312   276552   275820   276568   268859   208586   113467    51985 
    6657   -62597  -121447  -159332  -195589  -220277  -226880  -247770 
 -296503  -296247  -217944  -119450    11972   136316   154910   143159 
  177918   202999   206426   199328   159918   107371    92099    92210 
   31713   -63091  -125729  -174861  -208206  -189558  -140309  -106245 
  -93433   -63068   -11360    14788     8935    -4053     -535    39815 
   89075   106770   121129   179947   256904   308524   327193   295701 
  238090   199034   147479    65603      898   -27538   -55561   -97845 
 -127164  -147257  -170822  -179927  -176661  -183309  -210503  -226680 
 -186664  -126751  -100376   -86157   -75457   -86495  -107244  -130043 
 -149599  -155959  -152151  -134167  -124752  -158956  -192712  -186030 
 -182506  -192409  -183956  -165605  -161275  -163495  -131486   -61738 
    4617    52586    73238    97069   183264   290173   354477   360731 
  310004   258548   214514   141221    84215    55136     -653   -73027 
 -142252  -261535  -403739  -418963  -361801  -443625  -540055  -480171 
 -427079  -340396  -127281   -27966   -30041    29314    67100    75257 
  153056   316755   475482   502877   406642   355061   418100   435958 
  321133   198117   158922   161735   155342   127066    78050    50289 
   52238    17007   -52229   -78863   -68266   -88196  -107863   -65625 
  -24085   -33270   -48456   -53869   -67193   -96455  -140636  -179004 
 -195335  -206227  -225862  -242596  -244837  -224245  -191598  -178487 
 -202473  -246080  -244729  -164321   -58817     1393    -7405   -39658 
  -31764    15951    74086   172432   347002   450931   289726    79562 
  136913   208005    68728     1268    37122    -9965   -51572   -57031 
 -122828  -223208  -279230  -260692  -238780  -314481  -373274  -238628 
  -97167  -139802  -157988   -54897     7572     5050    20020    65723 
  101713   127630   173860   222497   247960   239478   204451   204256 
  261348   303097   299539   282379   220383   106016    48315    79086 
   85490    19131   -56640  -101527  -118283  -108107   -96312  -112144 
 -128252  -117348   -87326   -38683     3949    16358    28597    51187 
   72553   119940   197846   254134   260032   242021   216012   165537 
   97752    22189   -54867   -83321   -54984   -29607   -43699   -85624 
 -117465  -148489  -183823  -119471    30522    68125     7575     4949 
    -383   -40042   -26837   -10503   -26189   -28306   -37346   -47632 
   -7298    42557    -9641  -186344  -325344  -271382  -166715  -171525 
 -183617  -192104  -255429  -261649  -211752  -201684  -167126  -101498 
 -122525  -196793  -196476  -145592  -148136  -182569  -201736  -216753 
 -152412    10815   151321   215621   202120   132737   107596   153629 
  143534    50794    12775    31453    28373    46932    99527   108279 
   94386   159809   279487   360055   317979   123924    -7287    41692 
   67742    50243    73307    61548    34934    25994    12447    35738 
   61247    55863    88602   179140   258838   202704    23040   -32488 
   81451   130648   133364   205636   211350   164559   186605   183294 
  140753   130108   117852    94927    74532    53421    35450     8452 
  -38675   -96083  -135644  -146708  -157809  -176621  -184991  -212014 
 -284521  -317027  -200835   -13905   -11510  -281880  -531661  -503323 
 -353009  -271088  -214316  -161095  -141199  -137499  -135508  -132580 
 -126281  -115286  -119275  -120403   -69398   -19578    15713   134411 
  279134   301464   241316   231767   273225   295688   322150   344018 
  279712   207925   208415   177198   119830   140667   181460   158629 
  122035   110009    62387    -7532    -9813     4043   -40060   -88933 
 -118626  -130093   -93830   -44725   -31274   -36765   -41790   -70059 
 -154226  -247354  -270366  -255101  -253236  -253816  -273494  -307105 
 -316523  -342110  -380076  -276415     1646   193403   138560    56588 
   50679   -45085  -123381   -44551     -636   -34410   -19387    17769 
   44036    77254   106627   129682   158045   179311   152938    82966 
   51367    91566   133372   146707   159647   164682   164866   179046 
  200187   227620   248317   253982   273298   281427   242056   211881 
  211405   201565   201622   203511   170006   129035    77867     6499 
  -42585   -65931   -62053   -42694   -41027   -30578   -21729   -46435 
  -78476  -113368  -164445  -212302  -221370  -195163  -162597  -118004 
  -77259   -96311  -174783  -253919  -309240  -324669  -272338  -228924 
 -264488  -296887  -277837  -253205  -227979  -191633  -165094  -150213 
 -136180  -130011  -124139  -106379   -96119  -101844  -103355   -95923 
  -86528   -79571   -63633   -25683   -19211   -82771  -144298  -172565 
 -219912  -246947  -194690  -132983  -102734   -64578   -45173   -64742 
  -60065   -12914    22050    26477    24063    13399    -7858   -22913 
  -32447   -37652   -34473   -30743   -27585   -25729   -32744   -39633 
  -28870    -1783    27108    43148    44955    50237    58150    51882 
   36270    16519    -5615   -17128   -10381    12451    32201    49900 
  102400   157914   175728   221606   294786   307409   281019   271455 
  264100   260839   300707   389279   486762   562573   606498   585071 
  458359   274083   141879    76751    18835   -23879   -15427     7178 
   10555    13049     4202    -3528    17019     9428   -41788   -80878 
 -100940  -116480  -126100  -123821   -97230   -44380      248   -11699 
  -70331  -125471  -151089  -129954  -100949  -129954  -158052  -136626 
 -133213  -148872  -148008  -149622  -146716  -130501  -130577  -154034 
 -163483  -139707  -111958   -94605   -74461   -49996   -25068    -6436 
    2775    10731    19841    36088    56822    60811    61663    80426 
   96518   110629   131104   129470   115088   119258   127257   124920 
  125955   145929   162623   140761   122929   140921   134829    97308 
   89199   103281    71716    19673    35792    66127    41409    34605 
   48955    15368   -17832   -22600   -51733   -86082  -109897  -131030 
 -124394  -120683  -131870  -119175  -115872  -133729  -108158   -56212 
  -51928   -87619  -112015  -112713  -123802  -162383  -186948  -187124 
 -198624  -209460  -196925  -185871  -197187  -207287  -184972  -152735 
 -146619  -144849  -129456  -116471   -90572   -45590   -20290   -18540 
  -13721   -12063   -20556   -19513    -6810     2857    15094    35777 
   52658    61727    72386    90418   132164   212700   304418   373385 
  420368   448579   446099   430479   448187   478472   452381   389667 
  364707   357337   305997   241110   199968   164973   133917    96660 
   60439    56229    41532     5646     2408     9557    -4341   -29013 
  -46122   -42153   -51751   -74403   -80206   -97759  -125408  -139548 
 -150566  -157821  -166456  -186254  -209733  -235727  -245828  -190719 
  -84940   -40033   -94788  -154225  -171037  -177044  -200946  -252894 
 -276796  -263993  -284753  -287472  -230178  -198270  -191596  -159515 
 -128549  -114378   -96894   -79844   -72873   -61544   -44888   -38625 
  -40275   -36966   -25314   -20662   -27629   -25672   -15001   -11175 
   -5698    13938    34252    32993    18502    19832    39615    61013 
   75843    78740    69594    60061    60900    75197    83245    57663 
   30037    37808    45786    34710    33997    53992    73905    70366 
   53430    52926    76015    89578    75610    70316    75571    75646 
   87201    93611    84187    76736    70175    62972    53991    44970 
   33106    20504    29079    33856    22366    36521    56726    65051 
   84182    88485    76557    83421    99801   106258   103270    99696 
  104931   113934   116593   118661   125227   119236    99477    86438 
   76103    72039    80963    77670    70290    74113    66604    56074 
   51414    37705    27739    16174   -15954   -40001   -27644    -7276 
  -28092   -70170   -80756   -73574   -71781   -80022   -97166   -93831 
  -74580   -69203   -72744   -73867   -76743   -91272  -109933  -111813 
  -98379   -90064   -91346   -89580   -86286   -93264  -108340  -120362 
 -119005  -105063   -95634   -99175  -105182  -104670   -97078   -88908 
  -87532   -87666   -83908   -81926   -85342   -90557   -84930   -63822 
  -45272   -36236   -19511     6362    19436    16291    13669    17980 
   22765    15224       67     2414    27222    61673    95247   107931 
   88449    65994    69840    83554    79710    56457    37212    37548 
   35168    26019    30235    27843    11025     5539     4917     -196 
     799     2530    -6651   -17798   -14436    -5894    -1309    10360 
   18061     7125    -5098    -4008    -1971    -8388   -10316     1687 
   19568    31316    39657    51949    56910    47292    34174    34559 
   46591    47594    46231    54664    52036    43284    39614    29526 
   20923    15360     6481     8402    17050    19076    14335     7495 
    8448    11252    11183    12349     3250    -6017     5495    15974 
    7080    -2897    -8437   -19666   -33954   -46263   -55458   -64215 
  -72663   -68323   -56567   -65413   -93879  -110945  -108745  -113507 
 -139118  -158888  -139290   -87559   -46922   -48439   -72902   -78973 
  -80212  -101593  -110898  -105868  -113366  -121591  -125720  -125210 
 -119073  -124582  -129635  -122973  -130845  -155078  -174624  -172131 
 -131026   -79417   -50420    -9776    49037    69921    68191   102634 
  137036   118556    88482   108014   178032   243640   266171   282746 
  319073   321065   273587   239723   220132   175529   147752   151565 
  121163    85628   105626   109268    80779    80287    53086    15299 
   47215    51427    -1728    -5635     2672   -30123   -58088   -71086 
  -82413   -91446   -91243   -74155   -53545   -40239   -27479   -13867 
   -7939    -5225     4180    -1520   -37600   -68475   -68114   -61741 
  -69659   -74854   -71633   -71987   -64950   -50210   -54000   -70662 
  -76028   -69524   -54197   -37547   -30410   -19628    11238    52495 
   83917   115646   182274   276507   349301   369249   330032   254343 
  208491   207893   167908    89992    75241    94930    78378    62065 
   60887    56733    42758    14169     7502    21112    10943    -5799 
  -12268   -14518   -12257   -25284   -35740   -26364   -37043   -53328 
  -44227   -43190   -58765   -64491   -59434   -59342   -66756   -73982 
  -79575   -82606   -87279  -100961  -119989  -140650  -158547  -164530 
 -156434  -141176  -127675  -116951  -106998   -98017   -85879   -74045 
  -72957   -79005   -80672   -71828   -57407   -53940   -65847   -72991 
  -58551   -37242   -34330   -41608   -36968   -26950   -25494   -27116 
  -22750   -16079   -11618    -5452    -2733   -12956   -18472     2062 
   24506    24361    23481    37091    56940    72033    72139    74071 
   95413   119237   129969   125693   115962   114526   106669    87473 
   82484    86107    86328    92923    95412    93095    98509    96227 
   86761    91596   103472   112143   125000   133434   124851   111491 
  103984    92918    71593    57239    59008    44368    11430     3110 
