Origin Time       2011/03/11 14:46:00
Lat.              38.103
Long.             142.860
Depth. (km)       24
Mag.              9.0
Station Code      IBR010
Station Lat.      36.1844
Station Long.     139.9652
Station Height(m) 22
Record Time       2011/03/11 14:47:18
Sampling Freq(Hz) 100Hz
Duration Time(s)  300
Dir.              U-D
Scale Factor      3920(gal)/6182761
Max. Acc. (gal)   205.901
Last Correction   2011/03/11 14:47:03
Memo.             
[...]
  -14110   -31122   -26064   -14589     4923    22897    11043   -26067 
  -49577   -32012     2228    14141     7409     4296    15584    27069 
    8546   -18650    -2394    33434    23114   -25224   -55234   -51441 
  -22701    26378    67464    75720    74015    85501    89815    78281 
   75180    71903    43778     8848   -18037   -46703   -63085   -49023 
  -17159     9542    18303    12203     -199    -3587    16408    32733 
   25301    30588    53702    63414    58021    27384   -23259   -47723 
  -44792   -39027   -23023       87    13063    15964    25407    46071 
   43066     4078   -28495   -34822   -21915    -5567   -19992   -41421 
   -4694    63783    74772     8746   -59289   -61066   -22778    -4855 
  -19288   -37755   -26147     9669    26911    12667     3992    35093 
   73001    56171     3892   -16941    -5671   -10103   -52797  -100575 
  -92855   -42067   -32706   -84429  -117303   -71064     1321    15182 
  -20537   -39342    -5421    51643    68571    43857    25638    20581 
    -622   -39529   -57384   -39350   -13038    -6293   -39017   -86677 
  -83077   -22333    43302    77973    65356    23885    -2699    -3341 
   15693    51475    80320    74718    35468    -2341   -15335   -33080 
  -58775   -35815    32710    65813    39710    14074    33103    83379 
  110924    78485    11387   -37814   -36253    -4367    16195    24545 
   29193    30598    25929      303   -21584    -3075    19748     1022 
  -40870   -61467   -39347     3221    35504    47895    36557    27475 
   39642    39166    22954    10903   -18727   -63404   -80502   -49010 
   10315    46396    42427    31056    14677   -15329   -28633   -10621 
   24651    53357    48802    24264    12841    22640    49304    72726 
   66339    30588   -19594   -65333   -79307   -57365   -25167   -11982 
  -26954   -33121    -7782     5908   -16365   -56216   -93915   -97610 
  -63050   -32118   -18227     5143    48953    82857    69106    28776 
   15115    33598    55116    59758    39260    15628    38891    83450 
   63133     1714   -27811   -38314   -46155   -42561   -32180   -20548 
  -23548   -34609   -41457   -57693   -48276     2373    33301    34076 
   36811    53938    84200    95055    66660    33027    34794    62271 
   65202    30521    -2591    -9680     2685    11228    -6987   -19898 
   22764    85664    82389    -6566  -100872  -110670   -41627    13130 
  -17842   -80074   -71896   -11755    23744    22640     5621   -16731 
  -63486  -122443  -123035   -74855   -27584    38342    99442   103720 
   75744    40201   -11678   -53917   -37029    24279    51691    24441 
      40    12350    34519    25732   -13925   -36538     -802    64407 
   89519    61682    21301     4813    29400    68832    61713   -14156 
  -77469   -48173     5714    -7754   -64179   -88557   -56099   -26686 
  -14250    47006   132744   166266   136360    76595    34803    10123 
  -17459   -13020    20895    22421   -18048   -53329   -52326   -22724 
   13106    42568    63498    57776     8074   -35794   -12238    39575 
   45834     7172   -39519   -87459  -136939  -145389   -80751     2510 
   41993    43486    32216    17783    -1537    -4286    42201   103586 
  124690    95418    28132   -24790   -17996    14600    31970    38149 
   36342    22821    23124    55878    64540    -6200   -90633   -94887 
  -55262   -56544   -69264   -38785   -10189    -6404    10281    17835 
  -10640   -29606    -6486    20378     5721   -29489   -48326   -52469 
  -41560   -29492   -45696   -59463   -24233    31558    58888    57395 
   39135    15703    10848    16908     2695   -22986   -27555    -6966 
   28505    67393    79623    50265     9693    -6590     2725    16715 
   24904    30343    40071    52440    39397    -6874   -46009   -47743 
  -24356   -24105   -58924   -62928   -22979     5237    17356    13551 
  -15005   -22370     3422     4032   -45262   -94760   -89012   -37551 
   10317    11019   -27598   -27779    20395    35054    18936    25853 
   32651    22562    43968   102629   131781    95121    32607    -8045 
  -27423   -20419     6329    -6595   -46863   -68324   -94138  -100459 
  -44735    29083    69415    75473    71333    70405    72150    68992 
   49627    26745    13642    -2410   -22996   -28720   -14259     8282 
   41397    68035    47111     5016   -21466   -44757   -34224    10118 
    5933   -57649  -113715  -117917   -75274   -19368    21471    25370 
   10398    23024    49320    37336   -26751   -82674   -47457    49705 
  110708   101612    41639    -7532     6122    33247    11954   -43178 
  -91562   -99866   -75633   -47685   -10244     7068   -27837   -49587 
  -21356     3809     7523    32911   100428   142181    77861   -38648 
  -95489   -92026   -79435   -65789   -44526   -11330    25975    50610 
   54958    40369    36700    73142   109234    78663     5240   -20219 
   14006    39040    27838     3327   -10347    -2446    16912    50119 
  100368   135078   130152    79741     7152   -27483   -33798   -56991 
  -55363    -7592    29746    28371    -2342   -39234   -59092   -63074 
  -60372   -44799     1815    45100    24787   -12809     7762    56133 
   66453    31692    -2135   -11858   -11611    -7026    -3114    18775 
   75755   104514    60887    14029    36463    85699    57301   -31679 
  -66375   -34205     9233    26248   -12469   -53973   -14116    63277 
   76009    27704     6957    46454    70018     7354   -87734  -126639 
 -117027   -92398   -59688   -46954   -58307   -56783   -33293   -11273 
    5313    19283      508   -42854   -53221   -34024   -21483    -7722 
    3268   -23063   -53998    -9751    74711    86633    28653    -7240 
    4879    28544    24871   -39237  -120962  -117600   -39265     8419 
    -377   -13031    -3056    11509    18518    37029    86336   139223 
  124631    41419   -14405   -12122     7153    37829    58338    34258 
   -5236   -12197    16271    40589    43239    45173    35519    10875 
    5529     4368   -12135   -12203    14247    46734    63608    52511 
   13716   -35357   -51136   -21599     9681     9099    -6212     -219 
   24284    50502    75922    79861    62494    52760    43419    21916 
     480   -16005   -23394    -6930    17599    -7623   -74309   -92821 
  -56461   -33639   -26219   -15762   -15094    -1372    44647    70737 
   35766   -19373   -44174   -35685      782    52050    64102    10853 
  -45161   -54816   -46848   -43066   -47728   -82103  -121052  -101685 
  -31514    17218    20266    23564    43030    50045    51396    62746 
   67069    57174    36669    14767     9227     9866     8986    10519 
  -10619   -50928   -70849   -53169    -6813    26840    31474    42813 
   59809    61361    59114    57740    44435    13655   -24785   -48854 
  -47471   -43314   -56707   -62394   -23381    39739    49889   -17137 
  -88045   -88345   -12057    67504    59678   -15709   -53659   -10058 
   52914    39122   -40561   -70074   -25864     9402     2098   -21522 
  -24430    -5077   -19998   -70985   -67543    22682   109853   105506 
   36783    -4777    14575    44016    24750   -25060   -35586    14282 
   69884    60812   -18201   -92866   -96995   -49985   -11504    -4525 
  -15882   -12758    17966    30003    -9130   -48256   -36753    -4705 
   22842    67926    91545    57221    55828   105711    77069   -23969 
  -62650   -36429   -25016   -21949     8720    46014    63262    63329 
   36469   -19474   -49274   -21879    14251    39152    72989    80716 
   23182   -57149   -82688   -37144    12240     8564   -17961     4898 
   87369   145789   115539    48039    32616    60289    57074    26361 
   22820    44905    48871    -5383   -99727  -152950  -136320   -86706 
  -42898   -37619   -50591   -43230   -38631   -52497   -58208   -37430 
   20277    73321    45733   -27178   -54986   -47850   -61727   -91161 
  -89402   -62788   -60338   -71624   -52676    -9516     4845   -38036 
  -78803   -59140   -11582    21817    32508    30665    50143    83285 
   80735    45900    21113    23918    39222    37909    18186    -1913 
  -34600   -65468   -35681    30272    58061    48894    34542    29267 
   30425    13062   -24301   -66545  -108209  -117151   -77154   -24829 
   -3922   -23145   -27428     -831   -20597   -81690   -87029   -17032 
   71640   112996    75154     8499   -31800   -64358  -103495  -116316 
  -80724   -18326    27065    46777    58859    64260    77945    90524 
   44629   -21670     6080   100317   119711    53012     9962     3730 
  -27123   -71990  -112293  -160244  -175474  -128763   -64688   -20577 
    3851    16497    23516    33705    48220    48408    45105    80313 
  117433    72591   -32201   -97321   -76215    -8224    34915    25157 
   -8245   -27481    -8110    36988    59354    55350    52802    43128 
   23965    29310    77040   134462   158001   129857    43019   -64926 
  -93957   -21556    42914    37608     6071   -17531   -14592    17674 
   26787   -14871   -54146   -21497    83951   170776   164522   102065 
   57945    30980   -37391  -123523  -130518   -57679    30975   101774 
  103201    21390   -73410  -124035  -124169   -98584   -57010    12263 
   68882    61716    23569    18685    54794    85952    56549   -42230 
 -131540  -129056   -78600   -73413   -99538   -93317   -58966   -30719 
  -16143   -12345   -11223     2091    27690    47849    61976    88754 
  108950    73181    -9495   -57265    -6675   106290   170584   137204 
   60234   -19350   -73526   -77125   -80425   -97152   -66917   -27312 
  -50214   -83339   -48908    26470    61418    46739    53340   117942 
  190912   207287   169028   119194    88858    91495    89000    22732 
  -69417  -100570   -49449    45786    86432     4183  -118461  -160459 
 -110887   -55709   -46822   -30672    26089    65903    34938   -56850 
 -122841   -92890   -19307    35957    65907    47388   -16229   -62560 
  -38650    40471    96103    77269     9469   -44897   -39354     9922 
   69402   115092    97361    20783   -25308     6573    51469    29837 
   -4788    33448    82236    65832    11831   -30458   -21377    18721 
   29417    22623    41346    82340    92314    23436   -69505   -99859 
  -62857     9308    50655    -1553   -83695  -105811  -101658  -126569 
 -143657   -97255   -20169    16098    27182    66741   110609   112862 
   92808    83104    55706   -12982   -64205   -45542    -4667   -10213 
  -46569   -70013   -91716  -114734   -96692   -46633   -20381    -5598 
   48314   130809   186067   189171   179082   187371   169502    83844 
  -40942  -137170  -122081     7455   106842    80111    20525    13807 
   25137    24305     9812   -35770   -79902   -59802   -29185   -83915 
 -160708  -143153   -70545   -30125    -8137    15241    17779    -8009 
  -59031  -111981  -137373  -138502  -104979   -18726    69406    90775 
   60690    47806    76788    92556    43197   -14236   -10301    13676 
   25783    51774    82193   105662   101543    32063   -54644   -80252 
  -47091   -23209   -57252   -70757    32023   166718   180375    58012 
  -68764   -64403    35776    76930    24098   -32650   -41657   -17135 
   -1323   -12485   -34624   -68008   -88058   -60662   -30513   -35343 
  -40553   -23715    -1424    15066    43792    88798   125602   152031 
  154883   105140    23315   -19882    24050    67603    29587    24113 
  103136   148512   123428    75863    43075    34287     4694   -47541 
  -67725   -60555   -51523   -37088   -26940   -38789   -68416   -72571 
  -38074   -37985   -89335  -100297   -49088   -31382   -84308  -103921 
  -18977    87833   122653    84691    24432    -8251   -11284    -4783 
   -4513   -34703   -89806  -134214  -145897  -125021   -78534   -25752 
    8480    43678   102577   160114   202646   214016   155488    53878 
   -7621     7551    39661    29560    24420    51835    50369    -7073 
  -74618  -101112  -100412  -120900  -142220   -97234     7438    87622 
   91888    53299    42582    77265    95853    76286    75682   104166 
  116343    96976    60801    24718    -4386   -33992   -76310  -111607 
 -107028   -93279  -112478  -133175  -119556  -109909  -134053  -125653 
  -39716    52792    86878    98193   132275   166026   170704   152280 
  134670   121907    70070    -1296     2648    48861    21938   -50461 
  -52274    28140    82145    55239     7812   -31766   -71757   -78830 
  -59791   -84345  -146924  -145671   -57632    14714     3865   -56224 
  -93244   -62833    16382    97445   150413   168360   158733   130776 
  100964    74486    33088    -7650   -24843   -40837   -48774   -26954 
   -4996    -2341   -13966   -43040   -79532   -86746   -31311    60584 
  125019   131949    98521    75001   101567   150881   122815   -37336 
 -185502  -139901    45651   176512   119811   -69138  -175344  -151813 
 -152589  -218579  -267370  -239683  -135713   -11450    55660    27651 
  -25318    -5923    74313   153917   196483   170035    85434    23224 
   21447    25038     7195     4523    23305    25045     1406   -13631 
   -7560     8483     6407   -44774  -103536  -123436  -123193   -94581 
  -28462    36781    71222    52304    10735    19832    61818    83651 
   81538    43769   -25955   -76066   -75183   -55854   -41684     3221 
   67962    81620    62517    83271   113261    98668    61589    -4458 
 -101639  -135128   -73061   -37551  -106764  -176195  -134483   -43321 
   14559    64095   120505   143413   101449    17599   -43792   -50015 
  -42741   -79473  -149982  -205841  -215854  -171134   -86935    27688 
  149776   231960   288223   328944   285225   166087    88120   106911 
  177758   223138   191936   105884    12422   -97671  -230870  -317105 
 -312368  -267681  -214184  -122007     8987   125917   176758   177980 
  179659   178573   178577   200944   217352   189112    86950   -58032 
 -132006  -100083   -50569   -41274   -52187   -57287   -39951    -6220 
    6873    -6776   -20751     5458    93987   172524   168059   126592 
  122145   152732   171768   159869   125019    61551   -23417  -104750 
 -183782  -244861  -248558  -188563   -97038   -42596   -47922   -43914 
   13742    79137    79492    47239    70816   102541    66096    -4946 
  -62227   -84329   -80051   -83982   -92552   -66722   -14163     1791 
  -29198   -28243    55638   174867   238543   215773   173894   166888 
  171509   141171    51488   -51166   -97951  -100110  -115542  -163872 
 -198849  -170204  -108392   -86222  -127743  -150877   -40307   138069 
  203313   163487   148673   160350   137825    82802    10605   -58905 
  -74232   -34688   -26844   -91010  -156447  -166812  -146883  -112470 
  -54056    -8978    -4006     3588    26859    39190    51787    79660 
  118390   139366    93478    -7421   -89907  -100321   -43878    16614 
   21510   -34580  -128967  -191554  -141862   -38052    17512    34676 
   42307    39486    21001   -26564   -75680   -79776   -62125   -69430 
  -79218   -32938    71034   158531   165953   106762    41705    18971 
   48309   102679   130063   109947    69960    23855   -31549   -77049 
  -86791   -69373   -48808   -20433    17625    50789    79381    91521 
   75318    61194    76991   111497   130296   102653    38068   -17001 
  -33177   -25640   -21140   -10545    13426    -4684   -85156  -142048 
 -111153   -23323    60719   108262   122848   102642    42386   -14129 
  -23447    -2947    24875    59367    71938    31534   -13296     6834 
   63789    92479    89067    75604    53203    18077      421    27800 
   65214    76801    64917    48266    54729    75385    83653    68377 
   30801     9741    12899     2577   -26398   -67058  -104587  -119088 
 -107256   -61209    -7671     8886     7178    10975     1377   -31746 
  -72434   -84032   -63855   -65229   -91512   -78219      915    85832 
   98956    43132   -30375   -86585   -88336   -28938    33103    42454 
    9916   -23734   -51832   -89603  -144035  -171826  -116588   -41330 
  -24339   -34799   -40329   -38172   -29473   -21092    -8467    18361 
   76202   151463   181372   142190    84560    83401   141436   139697 
   32590   -53746   -49506   -42810  -118602  -217787  -234884  -178444 
 -115882   -97207  -117734  -103565   -36824    33421    85396   112447 
  134296   170198   190187   177705   156748   158522   150314    62210 
  -51230   -85918   -58870   -35651   -28016    -7787    28586    46381 
   46036    60494    92545   129579   168237   194452   172710    91365 
   -8899   -72189   -78434   -74179   -91687   -85418   -44028   -25109 
  -48220   -74035   -70825   -53867   -40334    -7758    35699    44066 
   17397    -6266     8411    51749    68328    40228     7533    11383 
   34769    40800    32687     4855   -44710   -76460   -63179   -18278 
   20781    37824    46882    37675    21544    47583    89394    87535 
   48085     3883   -26159   -44698   -48470   -29016   -14488   -25808 
  -65775  -116218   -95729     4478    81685    98558    96807   103250 
  102689    73164    30714    -1626   -20014   -10846     3584   -38080 
 -108200  -132017   -98266   -24684    40413    46776    11190   -19657 
  -10034    29535    39777     3179   -30026   -15410    15696    -8074 
  -85137  -134373   -82630    35463    92203    38578   -44693   -72180 
  -64315   -71141   -54178    -7871     5858   -22909   -57463   -42684 
    3024     2706   -23062   -26297    -5757    21727    37428    59278 
   63860     7278   -57191   -70466   -41307   -14157   -18665   -11083 
   40823    80125    57076     4550    -8848    21975    42874    47951 
   55592    47503    35062    55304    86075    82215    66832    84543 
  113495   124410   140487   164659   151376   101113    64443    45316 
   23042     1584   -17600   -40837   -68100   -91840  -112101  -118418 
  -77176    -2170    44801    40028    12010    -6837   -18382   -25541 
   -7047    23839    26176    -7951   -44967   -37807    16736    72187 
   83227    42572     3037    22756    65463    32536   -91214  -199369 
 -203488  -139490   -86967   -61747   -33564      891     4629   -29347 
  -35349    31883   124134   179949   167408   101123    50385    23638 
  -14706   -41808   -29817     6579    22030     1613    -2680    24915 
   47315    61416    82816   116102   140843   121669    81911    76762 
   94680    79597    27797    -4341    15765    76804   149057   168281 
  112635    67431    79601    80243     6895   -90884  -117608   -86870 
  -69443   -72135   -75160   -54953   -11441     9727     6534    15625 
   22265    -3387   -47226   -62281   -28631     2851    -2930   -19179 
  -26880   -10594    31006    49950    21619   -13181      818    53521 
   62390     4195   -40836   -22546      610   -48948  -138971  -167389 
 -128531  -111674  -133462  -116210   -43422      826   -24272   -56687 
  -47187   -29676   -37827   -43496   -20557     7596     4596   -23036 
  -30873   -11535     3642    -2132   -26744   -47235   -42451    -1809 
   67712   100758    77785    63037    67073    86329   118801   107520 
   65642    55222    58148    33289    -9055   -22113    -1549     8656 
    5052    -1094   -28618   -58351   -30317    50452    93924    55660 
   -2771   -25416   -13811    16251    35288    20802   -11343   -28469 
  -12746    28139    75731    96699    67446    28298    18094    14013 
   -1372   -20923   -42414   -58630   -60380   -44258   -23978   -28177 
  -52404   -62736   -46134   -29758   -37440   -39267   -28061   -35527 
