Origin Time       2011/03/11 14:46:00
Lat.              38.103
Long.             142.860
Depth. (km)       24
Mag.              9.0
Station Code      IBR016
Station Lat.      35.9114
Station Long.     140.0494
Station Height(m) 20
Record Time       2011/03/11 14:47:29
Sampling Freq(Hz) 100Hz
Duration Time(s)  300
Dir.              N-S
Scale Factor      3920(gal)/6182761
Max. Acc. (gal)   469.736
Last Correction   2011/03/11 14:47:14
Memo.             
[...]
  -69830   -69764   -54763   -45749   -66510   -89547   -75306   -26472 
   25833    65507   113933   177681   226587   230591   180286   116892 
   90664    88653    87170   103399   139104   152334   102440    -7104 
 -122895  -196040  -219028  -204335  -168200  -118100   -69792   -49742 
  -47131   -21565    38049    88260    79910    19047   -43760   -64458 
  -49300   -27268     6662    51550    64892    37084    23849    59304 
  104516   119627   128363   138669    98885    18301   -21859     5163 
   47628    49330    15856   -14395   -38761   -59600   -48512     7658 
   82603   135023   142489   122233    95531    56672     8949   -29491 
  -50264   -48271   -45895   -74922  -103610   -87664   -51972   -46330 
  -64617   -54572   -11209    10542    -3473    -7116    14422    31059 
   24928   -10344   -58530   -67877   -33242   -10856    -8134     6153 
   22243    26378    12505   -25560   -47372   -20313     4091   -20608 
  -42893   -14059    24160    31946    28812    43930    71817    82913 
   78395    78595    82191    90837    96793    64512    -7036   -75986 
 -114201  -120699  -113031  -105784  -106481  -122180  -122183   -72105 
   -7967    12901   -14659   -50894   -64067   -59306   -48796   -35813 
  -21195     3834    48402    99165   126129   122701   115723   116874 
  112687   108691   113253   113133   110199   116115   121123   109487 
   78115    31261   -26361   -72748   -75182   -36744     9310    27643 
   -8950   -67071   -77817   -47866   -17386    21793    58688    50771 
    7708   -32292   -58243   -55406   -25147   -18880   -44276   -35867 
   28782   110340   183191   238643   270191   272585   237566   175357 
   99875     9543   -83593  -153740  -176825  -153196  -129836  -127566 
  -97966   -31728    17355    36870    44670    38801    24827       72 
  -37330   -42906    -8665     4703    -8518   -11401   -21009   -49407 
  -73433   -89567   -94698   -87883   -78506   -53697    -6802    51863 
  110503   145293   150342   149002   148187   130450    94838    59913 
   33517    14079    -3399    -9600    17663    50132    48290    53175 
   93697   109170    76276    39444      491   -50021   -90213  -132529 
 -181719  -186461  -145721  -124367  -135645  -138543  -118397   -89457 
  -61483   -35331      527    52245   103186   144928   181125   207116 
  213485   186139   127718    69756    29452   -10265   -67684  -127975 
 -151986  -129684   -97169   -78070   -50426    -6122    20234    18429 
   17490    22157     9401   -23596   -59186   -80606   -83963   -98926 
 -139427  -153522  -110481   -51543   -23857   -25114    -3446    55869 
   91877    73553    33378    -4174   -29598   -28868   -10707    -3765 
     148    39025   109090   178471   233245   260048   258752   246405 
  218432   159915    64774   -37234   -85541   -89334  -107731  -131232 
 -127371  -114592  -115123  -126906  -139857  -141882  -125447   -88051 
  -28854    44319   105175   132898   137786   125311    87677    44408 
   14045    -4979     -355    15725    10345     1742    13207    29036 
   47405    84810   131633   156591   140981    84507    15763   -32306 
  -87173  -172980  -231249  -214632  -140661   -32578    66050   105750 
  116934   141342   147631   114338    69580    45813    60103   100475 
  131897   134846   123810   110985    82651    30192   -15572     -544 
   58798    86120    83013    81870    59984    21448   -15112   -65972 
 -121826  -162267  -188679  -193409  -191001  -216201  -248561  -227340 
 -136658   -27133    56294   120422   173765   186147   142132    91690 
   78818    93343   123446   164772   203777   218503   181127    99383 
   28942     3576    -2214   -20430   -29587     6366    49709    42856 
    6941   -16332   -32261   -65532  -116271  -133630   -75008     1261 
   14152     -347    14001    11469   -32848   -67694   -67527   -44151 
  -16863     3626    31931    76272   109550   112342   110096   120113 
  125890   125505   127293   117638    84671    45383    14407   -21277 
  -65474  -106781  -136479  -134620  -103046   -71025   -32623    18156 
   36200     2530   -35076   -35637    -7218    18699    18116    -6365 
  -32280   -49275   -58788   -50678   -24315    -2892     -576    -9957 
   -9922    13893    43567    61313    75547    92214   117763   154801 
  176713   171996   156543   128226    91169    54085    -3427   -63509 
  -63096   -14322     1147   -34631   -64483   -60890   -50236   -50330 
  -57320   -57396   -32728   -12987   -31678   -46507   -35064   -36358 
  -55014   -77784  -116999  -152285  -142882  -105108   -81732   -71409 
  -34233    43183   112164   132039   128062   137526   157618   173681 
  192629   202507   160868    77144     2674   -67742  -162882  -261836 
 -326082  -330110  -284116  -234856  -195089  -151893  -114247   -77964 
  -34276    -4131     2554     1842    -1017    -8090    -6752     1836 
   -6827   -18303     -985    29639    65940   105057   112918    98412 
   84976    61401    48295    67304   103802   151274   190626   196794 
  179744   142114    75904     3606   -68863  -140792  -162183  -134090 
 -121301  -124665  -116534  -106586   -96712   -77632   -43425    11774 
   59822    64845    55027    76398   117746   138257   127514   104352 
   70469    25725     3671    26927    66011    73318    36530   -11131 
  -25629    -6615     4543     1610     4152    -2110   -33212   -79150 
 -113073  -116454   -97278   -64793   -34402   -20495    -7417     9146 
    3340   -21210   -30132   -25627   -41791   -82836   -99794   -51986 
   18308    49691    50350    52070    48294    21726     1712    36705 
  101211   121996    81803     7869   -73977  -139130  -176461  -175797 
 -116563   -21284    52956    92145   106905   104998   107274   103516 
   64574    13337   -17164   -35746   -44155   -35683   -33375   -42916 
  -34071      360    27824    31564    44737    85843   122729   127410 
  102542    77834    86631   114301   116817   101165   107393   134327 
  151412   128754    73709    43419    45483    32343     5780   -13238 
  -33492   -54960   -68836   -77332  -100030  -153417  -202057  -207482 
 -205996  -232286  -244509  -200594  -104989    20451   131130   187083 
  201751   215255   236408   229550   178058   118000    81826    72244 
   64470    20962   -35914   -39222    -5692    -9730   -40178   -37597 
   -9610    10507    35339    85587   144283   165085   109301     2833 
  -87492  -151572  -200991  -191934  -117884   -60183   -73604  -139015 
 -211197  -250632  -248593  -225541  -186477  -110382    -4872    72103 
   82069    70072   111148   194082   241854   238716   226880   232072 
  240448   214358   161524   124008    95467    45292   -27945  -109638 
 -174692  -178684  -125343   -86210   -66630    -7232    71070   106473 
   97667    67419    20903   -43009  -110931  -152107  -146124   -96152 
  -34140   -12138   -31920   -29390    22471    84248   124251   126940 
   80300     8291   -51643   -89283   -92273   -51285    -9229    -1536 
    1077    19895    40428    32972   -29604  -103444  -129850  -129998 
 -123369  -101477   -80315   -64610   -37166     7331    61893   115567 
  160935   197771   218323   207650   172459   133292    85026    11608 
  -82445  -169544  -210757  -205696  -195540  -203069  -219430  -217707 
 -183381  -140914  -103299   -37411    72669   200722   316469   384409 
  382603   325878   231382   107671   -12690   -83208  -104434   -89341 
  -24206    53356    89003    76097    24740   -11514     7014    27781 
   19924    16418    26075    36457    32659     7801    -6284     1219 
   -8572   -42667   -68845   -79537   -86348   -82575   -66839   -61265 
  -73826   -78144   -30878    82720   214662   307126   357622   369617 
  311338   191042    62852   -48582  -153233  -258589  -312581  -264742 
 -191326  -150421   -87100     5017    89893   145232   162185   194212 
  249601   262789   247830   254207   255622   204532   110202    25118 
  -14629     3421    65290   127078   156406   120664    19182   -63667 
  -69110   -30999     1854    12083      161   -24768   -55586  -102098 
 -159511  -202414  -220369  -223152  -238050  -275097  -296079  -251329 
 -119330    75003   257752   359180   369688   314319   211959    94261 
   15982    -4084    -4943    -1353    35118    88706   115881   125895 
  138250   129367    64157   -35259   -92057  -105008  -130661  -147225 
 -128127  -106192   -82865   -30340    33430    54702    30620     5892 
  -20437   -69564  -131465  -186156  -202434  -173992  -131521   -47532 
  112809   254715   282429   222545   127727    51404    17296    -6764 
    8706   102138   210627   268815   248987   139093   -17518  -160994 
 -280515  -358046  -344644  -246300   -94820    84977   218555   267506 
  287523   296888   246149   166682   141788   121783    44852     3880 
   40251    39646   -40679  -119744  -165503  -199606  -206858  -166828 
 -116298  -106471  -117695  -102610   -64542   -40579   -58139   -82503 
  -49604    30643   100878   119464    71427    -3892   -53692   -82945 
 -119885  -144926  -119236   -68247   -62195  -118778  -170058  -138550 
  -27613   101099   206696   273850   280568   222118   131834    47289 
     904    13377    52262    63972    58347    56009    11853   -70713 
 -101307   -55709    -3839    23187    72809   140683   156210   126147 
   98079    67032    21327   -56201  -172358  -248899  -230926  -205630 
 -235821  -252320  -207930  -128942   -41157    35752    86084    90673 
   40455   -17384   -23392    28498    93365    93242    -9310  -139745 
 -217963  -248644  -232183  -170423  -115864   -75365    -4119    82512 
  126001   133399   158024   199627   225503   225054   184518   100536 
   10575   -51281   -68001    -6633   142092   296500   337362   214656 
  -33264  -298402  -456045  -481391  -468191  -451402  -355896  -187743 
  -20171   154205   333626   425912   384538   286179   186523    82113 
   42345    98263   137903   133318   140050    95186   -59898  -256885 
 -382168  -363950  -252694  -125996    25591   139970   137184   123573 
  152030   156646   204416   317483   362668   305030   214477   144894 
  109445    84621    63786    46219    32571     9676   -86290  -217499 
 -253967  -222588  -258875  -390612  -526538  -569571  -496570  -337809 
 -111868   160591   402388   522822   505733   404131   285939   204161 
  162752   103709    -3714   -92018  -133844  -203469  -307718  -371213 
 -338797  -226605  -129117  -103977  -120919  -113603   -17320   159253 
  320147   405469   427696   365678   261556   233624   204236    77083 
   -6394    -7008   -56069  -157453  -263663  -349291  -358149  -301657 
 -217125   -88569    65900   184112   232470   205991   101368   -15359 
  -20109    60912    81362    21172   -56664  -152162  -263374  -341296 
 -354870  -277751   -96997   103119   218963   253565   255875   228566 
  150478    32293   -69641  -102393   -80066   -49482   -11872    56465 
  133932   149761    82504    29446    71203   144484   158372   111233 
   33359   -54444   -98483   -45048    59043   144243   207599   168701 
    5837   -91184   -71033   -34802    -7136   -26667   -75333   -76563 
 -110218  -224189  -248915  -145665   -72324   -18085    70075   137924 
  236351   359268   404245   403145   378486   289308   132687   -57987 
 -214812  -287231  -235991  -106550   -43526   -55359   -77084  -114242 
 -120860   -71388   -33919   -34313   -30753    11227    54975    58163 
   56378    71566    89104   107461   101908    55597     9921     4458 
   17819    -1656   -52331   -90585  -112474  -120388   -79789    17843 
  115079   155448   146386    99897    10151   -61051   -42166    15322 
   26344   -20818  -133343  -271859  -300003  -194528   -72342    48634 
  159286   153260    70849    35159    49975    97647   120973    55955 
  -49755  -152185  -238258  -276701  -250677  -152328    -6461   125819 
  183243   152711   124395   185541   298486   361583   333097   250221 
  117741   -43126  -116514   -67978    15899    55800    28475   -12944 
  -34231   -72849  -121645  -151244  -156269   -98304     6944    96865 
  177202   233911   220353   129923   -42571  -245893  -347814  -312727 
 -225533  -106315    55176   180418   229597   232699   164757    16579 
 -138294  -231733  -243092  -199172  -133016   -26708   122594   251413 
  307475   279887   190651   110183    65980    -8332  -101087  -101517 
  -25413    20384    25495     3052   -80333  -190777  -250254  -252802 
 -182433    -4145   203465   334215   385601   411921   447172   468185 
  423293   331428   259677   179753     7585  -252835  -489279  -573253 
 -515886  -480708  -535166  -559181  -509841  -426640  -260510   -30631 
  174567   339144   426010   386332   263009   146932    86382    64750 
   80094   141410   160429    67395   -74049  -202930  -290382  -290223 
 -182790    13618   247095   421326   439251   306802   143007    34854 
  -31094  -115823  -277860  -450100  -462736  -348760  -287657  -225351 
  -49227   146355   296333   369616   299166   159491    35954   -67499 
 -103058   -76423   -35940    56832   158833   159325   139631   188916 
  220166   197873   167454   130790    89708    55453    36245    67214 
  146457   190312   156602    93938    15765   -71278   -99435   -81595 
  -98117  -147764  -176974  -135547    -9499   157331   302841   372955 
  358284   286201   164972    18217  -108861  -192782  -217221  -168734 
   -8121   277924   535644   592554   495944   382951   274428   144077 
   18135   -80033  -160117  -240251  -326594  -422586  -552986  -678927 
 -729143  -732733  -692328  -572008  -442429  -302777   -38175   308690 
  566908   628364   518448   400685   343679   255585   149955    68999 
  -24164   -51073    40608    94400    39510    -8192     8547    78140 
  184624   283828   342233   323543   175211  -100461  -388727  -526145 
 -470536  -360331  -308187  -253620  -188227  -160187   -91676     8150 
   39343     4107   -45351   -46964   -37318   -94285  -138033   -89554 
   -1457    76592   142791   178759   166580   145555   151814   141510 
   63804   -68580  -228586  -377328  -459770  -439131  -270837    -3116 
  175652   223733   271391   301312   229520   116922    54196    91071 
  200729   285406   346044   413814   410495   292591   108644   -86443 
 -206798  -186626   -69101    74863   187399   228248   209465   138565 
   10756  -146796  -289032  -375629  -393472  -365074  -334155  -308997 
 -239467  -112851    18933   107823   118319    53938    -7669    15751 
  125800   244862   293345   263971   188208    93371    36539    25856 
   -1259   -11064    41366    72646    58701    65565    89884   111224 
  127277   111483    63445     5287   -49993   -77806   -65608   -55130 
  -79840  -106483  -126685  -148614  -115660   -11740    94941   158944 
  186680   188602   167080   125399    49644   -55306  -139897  -180652 
 -181811  -122828    -5771   108952   170701   174661   150667   146734 
  175785   210953   234308   247762   236929   157764     7267  -150379 
 -253225  -280757  -248833  -189090  -125692   -69075   -31082   -29215 
  -46022   -41827   -30289   -44593   -72562   -94866   -84547    -3670 
  141151   302162   381366   291070   121348    32334    -4949   -99416 
 -190804  -150649    -7746    96674    99654    52399    22785    35900 
   46333   -19039  -145529  -240268  -276065  -287512  -221621   -24562 
  210362   356874   358494   242305    99811     3514   -15864    16220 
   26950   -11528   -83683  -164955  -210254  -214178  -219449  -210438 
 -137656   -35954    40779   102005   161411   213675   235235   207990 
  158267    81495   -39053  -102094   -55510   -27070   -45877   -32875 
  -27186   -36308    22672   123834   188908   224744   252651   246681 
  180253    68018   -35292   -90505  -111924  -124360  -134841  -138018 
 -124631  -105469  -100944   -89762    -8440   138590   240743   228263 
  126049     3529   -38182    22689    83738    74014    23515   -26809 
  -75650  -109901   -88024    -4128    97746   166103   176346   143976 
  100952    69395    42049     8219    -5508     5714     4360   -41861 
 -147520  -264912  -313837  -290508  -236752  -162060   -87642   -57317 
  -39541    37631   155880   234360   228852   166049   110153    94188 
  100065    94466    76294    77450   109798   151299   160975   107423 
   14315   -76876  -152417  -191270  -158798   -39676   128683   234546 
  202138   110603    55864    31046    17944    12928    15168    36430 
   53630    37861     5897   -23777   -49627   -73829   -93507   -84515 
  -46739   -29969   -51860   -72834   -60867    -6653    75977   139530 
  146512   107506    51853   -11241   -87241  -169745  -239124  -282941 
 -290042  -250252  -186401  -128845   -86841   -80572  -120205  -174002 
 -205809  -209448  -196446  -164782  -111501   -48890    24149   113720 
  197989   240738   232184   190466   118730    27030   -28047   -22837 
   -4757    10928    57104   119173   131850    53655   -97730  -244310 
 -284254  -194224   -64668    35570   130594   212809   231074   211476 
  192327   165307   171999   232911   266536   244227   215761   174804 
   96241     3417   -73742  -115209  -113055   -70478    -9044    15672 
  -22082   -89173  -154779  -205972  -239770  -266651  -284734  -279434 
 -248868  -196844  -143895  -119543  -115661  -106365   -84671   -60206 
  -38692    -1098    69769   155521   219601   248113   241462   191499 
  130756   118047   137961   144227   154743   182556   186851   149525 
   85301    14201   -28112   -30038   -21017   -20598    -6822    63882 
  180797   259050   249840   203187   172573   153308   128988    88619 
   43825    25325    24421     9992   -31039  -105144  -199777  -265165 
 -260477  -207716  -149364   -92636   -50838   -66696  -147254  -231898 
 -251072  -191380   -90022     4936    54737    65267    85315   107679 
   70644    -2426   -22005    16659    39123     6488   -45027   -63919 
  -52050   -32453    -6205    20986    45638    91831   173434   248140 
  265154   224344   147549    62410    -6298   -56857   -91206  -117830 
 -145492  -154122  -123639   -60967     7834    55167    86367   121662 
  151176   166788   182101   184957   144885    63303   -28647   -88698 
  -89567   -54829   -35025   -51424   -84153  -109442  -124641  -125432 
 -107525   -91546  -103631  -138320  -147760   -88810     5546    61316 
   77130   105894   131975    98800    23670   -38570   -65623   -63134 
  -57693   -64033   -68340   -46989     4372    52545    77259    94500 
  106780    91089    47728     7865   -16056   -40334   -87232  -148570 
 -179311  -167280  -145753  -118790   -66579   -14352    -1280   -16271 
  -21861     2177    45970    88899   125116   148472   143862   109434 
   68419    53295    71413   101274   116591   111093   105416    97818 
   61487     4684   -45323   -64719   -24709    59199   131175   165045 
  151709    94945    34833    -7065   -37021   -51374   -49804   -28971 
    5511     8865   -28319   -43108    -6077    58993   132002   168034 
  127603    43647   -22892   -42619   -29922    -6733    23108    47246 
   56505    55583    43143    22601   -14750   -80679  -120119   -80812 
  -16177    23618    68290   111462   101100    48970     4722    -3165 
   29499    60474    41608   -22055   -83127   -92416   -49268    17160 
   88012   125863    99618    37500   -16402   -49715   -71803   -87531 
  -77447   -29828    23961    46852    32989     5450    -8795   -20730 
