Origin Time       2011/03/11 14:46:00
Lat.              38.103
Long.             142.860
Depth. (km)       24
Mag.              9.0
Station Code      IBR010
Station Lat.      36.1844
Station Long.     139.9652
Station Height(m) 22
Record Time       2011/03/11 14:47:18
Sampling Freq(Hz) 100Hz
Duration Time(s)  300
Dir.              N-S
Scale Factor      3920(gal)/6182761
Max. Acc. (gal)   308.735
Last Correction   2011/03/11 14:47:03
Memo.             
[...]
   58531    40933    24723     8947    -7366   -18625   -28862   -45795 
  -62254   -67076   -59303   -46946   -35284   -16906    13429    42647 
   56777    61950    71114    84411    95935   102703   102899    96327 
   81351    56858    38620    43583    52800    37688     7312    -6312 
    5954    23496    34394    45409    58507    63609    55671    51372 
   62529    73827    70318    57415    49026    46522    40066    25514 
    2473   -24793   -44676   -50004   -43609   -32001   -15706     1073 
    7323     1918   -11684   -25351   -29246   -28735   -29682   -34793 
  -45993   -55391   -64673   -75971   -80092   -83767   -91852   -94625 
  -92877   -87189   -75409   -62409   -50897   -44136   -38099   -21182 
    1019    15432    29186    56226    90336   114354   119233   112835 
  110343   105497    87636    64809    42181    18945    -8436   -41122 
  -71813  -105631  -143911  -166637  -167511  -152456  -120490   -75210 
  -24019    24661    66739   103289   125795   133234   138822   146688 
  156384   169124   183608   193144   189630   177101   157526   124866 
   80078    27003   -16059   -29787   -31510   -41508   -55629   -66880 
  -68290   -64979   -73472   -87913   -89550   -76060   -56723   -41299 
  -31597   -18204     7671    44393    80885   104913   112816   112352 
  114282   118261   115530   100219    74296    51332    37670    23767 
    9240     -501    -7814   -16617   -36965   -71008   -91392   -76567 
  -47371   -36779   -41579   -25937    18386    57714    76342    80777 
   70836    55411    39417    18641     6319     3602    -3811   -10900 
  -12741    -8319     1182    -1869   -17846   -30935   -38492   -41812 
  -49433   -59783   -52365   -25394      565     3660   -12554   -22878 
  -22391   -17322    -6790     7511    21093    21914     8231    -5520 
  -16759   -31310   -54268   -76562   -75833   -57779   -44669   -36872 
  -22749     3598    34347    57942    75172    88104    96186   101912 
  108817   117896   117019    97457    73018    55663    37811    10856 
  -15643   -32150   -44290   -54867   -69991   -93416  -112911  -129022 
 -139277  -129114  -106166   -78324   -44866   -11416    20037    46126 
   68146    84428    83594    85401   109664   128421   120199    95147 
   63770    30705       84   -27944   -59954   -89127   -99033   -94456 
  -81937   -57987   -36977   -37152   -49700   -54256   -50252   -46211 
  -36884   -20724    -2856    20223    41987    48092    43040    43908 
   54297    59815    60191    67765    72061    64760    58392    53914 
   50906    52887    51071    51069    57398    50081    26887     7286 
    7619    30329    50556    48133    31857    16033    12286    10537 
   -9406   -27320   -18914     5363    29829    41460    46314    63441 
   80653    82163    79356    87484   105416   114491   110301    99477 
   75116    42957    12210   -18569   -32317   -17730     2877     7342 
   -8886   -36617   -57040   -75153  -113267  -161317  -184643  -165603 
 -128507  -109613  -101403   -75836   -27894    19453    36275    36518 
   54504    86272   107126   100203    76374    56547    39786    29127 
   30922    41670    57884    63762    57863    61008    62052    48790 
   43581    47659    38522    12124   -11357   -12005    -2671    -2034 
     255    15789    41998    66692    77444    77820    75717    78204 
   89642    96153    81318    61249    66151    87986   100868    92813 
   66798    48291    42493    27638     4063   -12270   -10814     -217 
      86   -12158   -30926   -42517   -41341   -56717   -92222  -117710 
 -132456  -134367  -121581  -111409   -91105   -55425   -20710    22019 
   67888   102831   131984   141872   126814   112328   104257    94605 
   84819    72542    59259    39294     6788   -17493   -28948   -44639 
  -68019   -98516  -123603  -129753  -126715  -118087   -97441   -72697 
  -52218   -36849   -24220     6148    62326   113637   143173   152505 
  142615   131469   123325   108271    94735    87423    81625    70800 
   45054    16368     3589    -5354   -29805   -71585  -117757  -145068 
 -133384   -97176   -79849   -78885   -67505   -53043   -28795     4739 
   26395    48710    72983    87727    98025    92920    83983    84912 
   68076    40021    15497   -13554   -29834   -31421   -28087   -16293 
    -754    12991    10790    -8135   -22410   -27051   -26572   -32234 
  -53625   -66409   -53100   -38571   -44288   -73076  -111153  -126543 
 -115469  -110153  -132526  -161306  -156339  -127527  -110594  -108255 
 -109450   -93915   -55844   -15984    25417    58412    69300    76614 
   73139    56248    45160    23318    -4004    -6582    11919    36933 
   51910    55008    59651    60109    48210    20132   -16535   -37505 
  -45902   -62287   -81951   -87944   -81700   -74521   -56399   -20746 
    8653    14075    15917    46106    94948   133246   152425   165221 
  196425   219029   199025   174262   154850   118717    73580    24039 
   -7963   -17724   -44739   -77927   -87736   -93206  -108046  -123054 
 -125344  -114949  -107637  -101708   -84978   -64554   -56804   -55316 
  -36617    -7029     8119     8948    17583    42961    55974    38275 
   19349    12983     6185     6287    23785    47651    54464    43883 
   44379    57409    64286    61899    57204    69446    90786    84433 
   52313    17600   -11933   -32547   -44379   -47878   -48469   -53613 
  -50400   -26406    -1531    -3864   -23326   -28834   -25070   -29053 
  -36448   -40527   -25500    11223    48025    76052    85019    76661 
   75505    86427   107890   129170   131469   130047   131660   111691 
   67272    19543   -17811   -45149   -62497   -66145   -59555   -52251 
  -48983   -47883   -46604   -43597   -45595   -59170   -72795   -73433 
  -64564   -61910   -75658   -95136  -100216   -88079   -78756   -78226 
  -68529   -49401   -38065   -43568   -56660   -53537   -36425   -30810 
  -33383   -25930    -4130    24057    36310    36204    46202    59473 
   77865   106173   126735   127914   110599   107811   129473   122332 
   83872    58426    45981    35103    28660    22444     9497    -8088 
  -19664   -10606    19713    44759    40216    22249    32509    51525 
   33828    18024    26763    28390    24511    18252    15700    23686 
   26683    19303    -2282   -22698   -24834   -33520   -53440   -60464 
  -51912   -37358   -22717   -18234   -27186   -21620     7361    29043 
   44382    53387    38205    26285    29942    34918    43773    39955 
   16130   -12679   -31081   -31687   -33570   -35021   -28571   -26106 
   -2760    45873    81388    96308   102892   119473   142715   139091 
  115823    99460    95043   104142   104796    87512    85342    93045 
   86340    80629    69869    38305     -284   -35141   -46871   -30886 
  -18876    -8421    24720    57253    50432     7200   -28196   -23913 
   -5302     3240    20445    53280    85515   104277   104749    86828 
   59727    52492    71882    85420    79613    70491    68900    59863 
   20488   -27063   -51253   -69064   -86749   -89183   -76093   -49868 
  -39072   -60643   -77324   -82709   -95079   -98926   -89783   -69997 
  -35704     4096    44331    74428    91750   100227    84138    59273 
   55277    62465    65913    53728    33157    27945    30487    23397 
    4740     1177    32463    51285    36007    38666    78229   111099 
   92125    38720     6726     2855     8283    13534    11612    26053 
   60979    75339    61778    43170    32252    32766    28296      450 
  -36604   -51882   -43993   -38264   -38672   -25468    10812    50913 
   81664   113137   129202   107922    65443    34918    29013    24730 
    9759    -4464   -17973   -37221   -60764   -72829   -70452   -78945 
  -99048   -99220   -65607   -19170     3528    -6014    -8559    18681 
   42051    35128     8190   -16971   -20166   -10426   -16545   -42052 
  -65035   -66784   -60225   -66477   -73664   -78908   -98059  -123004 
 -143374  -152682  -144445  -132237  -119136   -97476   -77100   -64079 
  -50802   -20509    24525    54571    79628   128743   181074   218730 
  246571   254298   240182   214499   185539   151796   102128    48563 
   15166     2032   -15651   -50059   -85934  -121590  -155311  -176524 
 -192165  -194096  -181581  -175205  -157069  -110663   -58936   -31673 
  -38295   -50290   -56421   -74766   -94434  -104036  -106311   -92250 
  -68074   -48355   -29852   -11791      563     7660    12502    14244 
   10034     5604     7330     9683     7195     1258    -9872   -25783 
  -34848   -33110   -32382   -39317   -51157   -61067   -65861   -73792 
  -89851  -112762  -137443  -152528  -152977  -129595   -78971   -32355 
    -559    37458    75116   104281   121515   122041   125229   123437 
  104281    98665   105413   100207    85850    70061    68233    76506 
   70994    59961    57041    50374    27612     3722     8554    31282 
   33421    23890    36438    64199    82550    74923    37296      -31 
  -10067    -7981   -17358   -49893   -90326  -101988   -88258   -77771 
  -73185   -68783   -52753   -24587   -16105   -26845   -20275     4059 
   13720    -7184   -30379   -22697    -1590    -5999   -42430   -71824 
  -59838   -32268   -22486   -26047   -32330   -28848    -4429    24191 
   25268    -2112   -23192   -11564    19763    38856    36571    35782 
   65176   116208   156607   180412   183280   161679   151084   155193 
  127309    75055    38720    14974   -15906   -61501  -109337  -134206 
 -137824  -145630  -155159  -138332   -97974   -67199   -54906   -39677 
  -12711    14140    37025    58540    78546   100422   111272    88839 
   47308    27143    43284    72495    90839   103104   126508   149419 
  138053   102717    79435    62869    35152     4214    -1768    33339 
   73026    83762    81791    78103    76685    78437    71989    69863 
   76924    78705    84849    90051    67980    33941    11835    -8057 
  -31648   -49270   -44142   -11709    22984    41958    51651    61851 
   68511    61611    60364    82302   100634    93643    71476    52777 
   44975    30957     7588    -1755     -136    -6450   -23919   -45182 
  -47712   -29839   -28905   -45230   -37241   -10621     3427     1610 
  -16021   -33279   -37857   -53829   -81138  -100615  -114766  -113835 
  -89958   -63086   -52827   -61224   -62477   -47031   -38796   -35529 
  -28581   -12297    27318    60973    62968    63417    73849    74611 
   64646    53995    49239    46667    37165    33955    47143    56848 
   55793    41088    -2293   -51833   -76107   -88441  -106878  -119429 
 -109648   -78903   -36833    -6332   -11395   -33562   -48833   -74377 
 -109718  -126445  -125759  -116191  -100270   -90869   -90246   -98732 
 -109667  -101516   -83242   -76614   -73938   -65650   -44500   -14551 
   -9612   -28475   -31117   -19876   -18901   -22132   -16069     8257 
   46323    76392    92331   100181   104989   109857   112606   117181 
  130868   158520   202926   248991   268119   261905   257018   257806 
  260134   255274   206531   105769    -2414   -93660  -187302  -294916 
 -376695  -380049  -316056  -248897  -219020  -204288  -171954  -134113 
 -110782   -99930   -97131   -84464   -46821    -7316    18306    32513 
   27349    10610   -10357   -38077   -49390   -28704     5531    33238 
   34971     2132   -26295    -8173    30707    42012    41174    77782 
  153856   232419   287516   316012   328863   333733   328724   313320 
  290879   268459   243441   191154    97419   -19055  -131965  -231124 
 -322160  -392684  -403619  -353865  -273180  -171424   -80402   -23642 
   26244    60564    56726    48302    60798    88060   118290   142409 
  176710   242652   325137   372994   369770   355885   340992   313639 
  272875   201422   109769    25346   -54208  -120251  -167462  -226659 
 -283119  -279626  -218168  -141635   -88326   -63138   -21134    47062 
   94392    91440    60829    50822    45996     7609   -27469   -32662 
  -33383   -35568   -25818     2750    42211    62595    50086    38248 
   47823    48377    29254    26062    37583    38305    48202    75561 
   93704    78601    23336   -34058   -69169  -103112  -131144  -132183 
  -99802   -63061   -65602   -81949   -80068   -78877   -86071   -99224 
  -93550   -38088    38740   106770   165064   202763   229228   256110 
  260504   227442   162945    89348    35730    -1157   -33329   -51363 
  -65331   -91410  -112868  -118867  -112080   -94176   -79601   -70823 
  -54892   -34961   -15025    15044    52837    86919   123372   169001 
  210560   238987   257343   254960   237277   239869   267493   301988 
  337274   362831   377933   383205   365877   325662   245311   123788 
   39365    25934    19693      364   -13958   -44835   -85565  -103300 
 -124986  -192691  -282650  -343100  -365332  -369696  -366766  -369402 
 -390846  -413678  -418799  -419189  -421962  -418144  -400850  -361440 
 -306219  -249270  -179555   -81902    21338    93285   131581   154933 
  180034   206458   206349   183303   172166   179724   210381   253914 
  275006   276774   267139   223275   143839    59948     4699   -27662 
  -77844  -151851  -207110  -218735  -211888  -215406  -225308  -213716 
 -153231   -41426    98360   215954   284961   335220   374083   401154 
  422065   402375   360416   350125   353470   354447   371251   392078 
  390735   367709   339983   308820   261384   189296   103350    22009 
  -63756  -135087  -151966  -160513  -196433  -224369  -248519  -270934 
 -280011  -302064  -329763  -349445  -377264  -398623  -410830  -434789 
 -460907  -477318  -478269  -465948  -463334  -458183  -422766  -376986 
 -343176  -311261  -255252  -166810   -79100   -14530    37005    87846 
  152044   216961   254658   268511   267158   261652   267891   281113 
  290633   288232   260294   195908   120157    73745    46653    30373 
   42315    54917    59970    91011   129546   158693   205245   262180 
  297071   309402   316194   324833   332722   321113   274785   204338 
  124517    39951   -47719  -130595  -194303  -228524  -239885  -247237 
 -246656  -225319  -201552  -192983  -202845  -233216  -261337  -255344 
 -206136  -134779   -77002   -26395    43228   112691   163636   202694 
  222702   224937   216936   177580   102745    23121   -50331  -120884 
 -183325  -237075  -274504  -280675  -270818  -272866  -263969  -212027 
 -150034  -112122   -83818   -61702   -57233   -66377   -83689  -109928 
 -148204  -180851  -191865  -212004  -243387  -229222  -156178   -72907 
  -20282     4379    27043    58135    89070   103470    91991    69788 
   69287   117743   196637   256906   293476   318439   322131   302351 
  258800   204417   156708   108946    66063    51920    63074    55540 
   27143    20747    18712     3311      580    12652    42798    82069 
   97179    88330    77161    87069   125402   150382   119721    56962 
   25219    41101    46560     8069   -34919   -73730  -121317  -136299 
 -114408  -106128  -124693  -149769  -159396  -171775  -218283  -272580 
 -307832  -324726  -314043  -270436  -191046   -77097    50100   165711 
  264443   349549   398256   389162   335896   242413   115568     7436 
  -58306  -111688  -146459  -137889  -101562   -47171    21682    85717 
  137958   169504   180367   191781   198098   194120   202732   215242 
  206047   188896   186677   190433   183975   182202   193350   184730 
  155512   128822    76328   -10708   -98815  -196039  -318463  -425626 
 -457137  -411319  -348681  -295905  -233130  -172636  -133159   -93183 
  -32391    36077    90935   133381   164758   189887   236189   295104 
  322068   308252   275427   233175   180822   134833   110331    93739 
   82617    86851    88208    70992    50874    52610    78895    98517 
   90268    71918    60392    38660   -21846  -102206  -156386  -180002 
 -176526  -140159   -91274   -49466   -22783   -19523   -36095   -66173 
 -104436  -149673  -196054  -211849  -188457  -142026   -53369    73501 
  178513   247207   308113   345291   342196   315471   263682   182253 
   70375   -69114  -187647  -244946  -269331  -295172  -321247  -342551 
 -351857  -340688  -316895  -286372  -256683  -233701  -196611  -149548 
 -141368  -161776  -142369   -79939    -9065    58947   107667   136046 
  143754   121959    98012    87846    81372    75959    50732      432 
  -27873    -9057    27281    71786   138469   201535   233533   243612 
  242585   254722   292675   315873   309387   287755   248832   204723 
  139324    44994    -8147   -14274   -22116    -1581    39799    43575 
   32870    22027   -32112  -103351  -120730   -90270   -65383   -60103 
  -66579   -86805  -103063   -96903   -93840  -122361  -163195  -176029 
 -159986  -149263  -151125  -157630  -182783  -224620  -258996  -283077 
 -305070  -316885  -310241  -280911  -225393  -163811  -119423   -87769 
  -62123   -46692   -44444   -50034   -42114    -7479    37562    84026 
  140406   204969   264713   306391   325469   313458   268198   226647 
  223339   235857   227123   197851   151072    91621    41605    -3014 
  -25831     2645    45472    82142   123823   157983   194650   232274 
  247129   245152   217588   155969    91674    36886    -8018   -31152 
  -50261   -78336  -111156  -152300  -175205  -166529  -151798  -131775 
 -103266   -69300   -15823    46319    86044   105006   122473   135036 
  119539    78093    43534    15525   -25285   -61989   -77240   -73861 
  -50025   -22269   -26722   -63082  -101618  -127960  -144457  -159881 
 -170634  -158853  -127822  -105644  -102469  -101516   -95716   -90505 
  -89393   -96339   -99296   -78629   -37344     4853    28392    41036 
   65564    87347    87107    84086   101551   134437   161848   185609 
  218286   253476   280474   281668   242748   171834    84863    10378 
  -26711   -38171   -43631   -40832   -11069    43767    73819    64578 
   65237    86612   102828   112433   130846   163900   192806   194711 
  159438    95295    47705    51616    76688    84215    73671    51996 
   33188    28936    20470     5908     1176    -7952   -23437   -36761 
  -54506   -64274   -60518   -60105   -80726  -128589  -177333  -203606 
 -208782  -197113  -190196  -185287  -136782   -60887   -18815   -11748 
   -2051    30583    66938    77582    68416    69252   105349   161693 
  203216   229102   240193   235805   234454   233728   232202   239174 
  243424   232915   199518   159436   135032   104121    53400    -2532 
  -56500   -98227  -118527  -119442  -113000  -106782   -89202   -66336 
  -66422   -86767   -96908   -82815   -55626   -31300   -17752    -4545 
   28695    68818    91522   111559   135210   148701   156932   152823 
  131655   114191   103292    92251    71771    31459   -16753   -66223 
 -110394  -135145  -150457  -169177  -188918  -211637  -244682  -273577 
 -276418  -261459  -239444  -208943  -163758   -96804   -26895    38098 
  111192   171765   206187   226892   235755   238646   232003   198002 
  135167    58243    -5118   -37564   -53835   -60272   -56161   -55233 
  -47149   -28758   -13484     5003    18588    29688    49782    66348 
   74124    52296     2366   -20524   -12513    -6049    -4300   -19730 
  -55167   -89338  -118151  -133533  -128210  -126399  -137528  -137677 
 -110442   -65209   -21456    24037    89480   171589   242236   276020 
  281942   281501   278429   262221   210545   135493    72782    13573 
  -44711   -79206   -98168  -124675  -169958  -219376  -257195  -288991 
