Origin Time       2011/03/11 14:46:00
Lat.              38.103
Long.             142.860
Depth. (km)       24
Mag.              9.0
Station Code      IBR015
Station Lat.      36.0698
Station Long.     139.9082
Station Height(m) 13
Record Time       2011/03/11 14:47:37
Sampling Freq(Hz) 100Hz
Duration Time(s)  300
Dir.              U-D
Scale Factor      3920(gal)/6182761
Max. Acc. (gal)   155.027
Last Correction   2011/03/11 14:47:22
Memo.             
[...]
  -61351   -95696  -122786  -124471   -92723   -47943   -32472   -44241 
  -43044   -42299   -65140   -57738    10967    58152    30391     5981 
   33540    47376    19002    10846    45454    60284    25365     -431 
   20028    29958    -6347   -22914    16414    47752    26845    -9070 
   -7498    18299    14270   -16941   -33450   -26694   -17251   -29910 
  -58504   -63673   -46930   -41740   -42863   -39884   -43440   -44482 
  -19842    19245    31023    11921     1179     9300    13815    14402 
   24630    36622    38432    23911     -721    -5863     7456    -9596 
  -59476   -72927   -30712    -2397   -18489   -33958   -26100   -15094 
  -11227    -8809    -8405    -4855    15046    33862    16035   -23505 
  -30589    -3512     6552    -6345    -6571      942      696     8757 
   19566    10274    -1265     3225     -210    -7226    12259    34326 
   33561    29584    20657    -7347   -26511   -21493   -28163   -59892 
  -82436   -70935   -35581    -7916    -6273   -14655   -14435    -8240 
   -5136    -9359   -12520     -468    13775     2677   -12951     9570 
   48843    64178    67053    61986    29843    -3791    -6091    -2789 
  -15256   -21015   -20105   -30604   -34108   -25488   -36765   -61574 
  -66713   -54289   -39331   -33770   -46449   -46653    -7500    26414 
   23982    21927    25538     5155   -13699     6026    37308    40106 
   15346   -14932   -35282   -53763   -79416   -78640   -35771   -16398 
  -46098   -56365   -34372   -29132   -29790   -10557     2576     1449 
    6631      445   -29595   -46750   -35993   -20406   -15537   -25579 
  -28252     4740    16720   -54788  -114743   -62163    24029    49653 
   40599    35423    29409    23571    29433    40537    33632    -3078 
  -38987   -33043    -4289      593   -16550   -32021   -42709   -39708 
  -22189   -18762   -21590    -5625    -6028   -39083   -47184   -14028 
     913   -18669   -28405   -15092     5735    24024    27786    25225 
   34960    45215    47536    52490    39988    -2333   -28334   -14890 
    1257    -3104   -19820   -33288   -27458   -11491   -14223   -37149 
  -56534   -57418   -29988    22259    54474    46156    44109    62888 
   70418    60184    34717    -4994   -38336   -53187   -60987   -55508 
  -23643    10039    26083    34203    28039    -7176   -44484   -32213 
   12875    22103     3004     4372     2991   -24550   -25162    22232 
   56527    37871   -15540   -55268   -36578    19835    41069    -2523 
  -45866   -25960    10319     5321   -10292    -1130    20857    36596 
   15732   -41247   -48259     8590    16601   -40967   -66754   -34772 
  -10733   -37268   -72830   -64814   -43797   -54269   -49442    -1360 
   16485   -16100   -29855    -3157    23687    19362   -11134   -32178 
  -16169    19709    42440    41519    24803    11111    10738     1554 
  -27478   -41436   -37120   -30802    25658   110448    92635   -13580 
  -60557   -50003   -69003   -71148   -19616     1067   -23772   -21116 
    9202    17311     7936    10952     7656   -42843  -125890  -162437 
 -129777  -111119  -116911   -61781    23594    40643    15239    13223 
   23063    30885    37945    13435   -24558     3949    70960    60339 
  -10897   -33387   -13138   -17065   -26527   -14953   -13809   -10833 
   41869   109126   112254    62627    16733   -34722   -89244   -86250 
  -29527     2785   -12482   -31699   -26121     -230    16903    21974 
   35720    13113   -58286   -69576    14288    79640    67518    28048 
   -8002   -28078   -18468   -11935   -33892   -43035    -9707    13731 
   -5322   -10929    22294    52564    56336    34988    -3475   -38761 
  -55441   -47641   -18435    11762    34702    47287    25851    -5987 
    9249    62240    98014    63524   -40509  -106349   -69478   -22678 
  -31179   -41527   -22533    -3520    -6877   -19477   -10217    15654 
   25246     9846   -10410     4642    34803    -9321   -99618  -102809 
  -18713    30088     6720   -32959   -44925     2327    70165    47877 
  -48319   -80088   -26672    15726    13523   -10215   -26936     1635 
   33527      571   -26762    27738    68092    -7077  -102954   -79792 
   14075    29950   -59308  -132335   -89739    -8040   -22224   -88593 
  -72699    -3275     1987   -49460   -77382   -49639    23300    68894 
    9430   -81236   -66176    19665    44295    28554    67661   101704 
   30474   -77754   -85871    10896    92425    78366    13533   -19644 
  -26553   -63057  -106592   -84356    -2698    42232    -4814   -52950 
  -11549    27378    -1455     9645    53742     4739   -59348     8848 
  110629    90995     9198   -10081    33157    65845    36921   -35537 
  -69024   -34771    -2751    -4355   -15683   -52411  -101423   -89135 
  -20057    41545    78382    49877   -59117  -103716    -1269    77424 
   10022   -64079   -21775    51464    47884    -7781   -29841    -5719 
  -10377   -62095   -57049    41533    97980    31470   -53086   -57001 
  -17929    -2084   -11354   -26736   -31224   -27075   -49161   -67893 
  -27160    12494    -6162   -17365    13375    44028    68161    66810 
   14593   -23332    -9976    13629    39435    47986    16232     8503 
   45774    49014    18514    20960    30914   -11022   -73504  -102008 
 -106684  -102743   -90914   -84104   -58308   -10640   -12947   -56413 
  -65791   -58976   -47651      627    23302   -15584   -25551    -6378 
  -42925   -82172   -39677    13176    -4405   -45260   -65266   -72142 
  -36497    35155    47995   -16885   -62864   -59508   -58713   -52850 
  -25641   -15162   -13830    -4220    -7582    -4334     9360    -6372 
  -20399    15297    43895    15016    -6871    26792    54102    15539 
  -34877   -23202    15442    23077    19005    32744    50684    59344 
   59594    40155     4829   -25853   -69250  -125613  -126558   -71155 
  -41070   -33162   -19256   -33814   -44016    -5153    12053   -21400 
  -25847    10036    18026     3479    19821    45467    35886    23861 
   39030    40014    22426    18008    19327    36534    64297    41006 
  -12688   -12738     5086   -17700   -22172     3496    -1596   -21140 
   -3453    52205    83707    33372   -37019   -16062    68384    95138 
   52684    19780    22050    25307        3   -39016   -65695   -83513 
  -96497   -94277   -59435    12381    61203     9610   -88041   -95246 
  -19271    15763   -19248   -55408   -63785   -64480   -53591   -29946 
  -23107    -7799    70132   137093    90965     2228   -22899     4499 
   32667    16320   -38845   -61561   -53709   -77423   -87349   -26624 
   33245    20794   -37924   -69959   -40177    -1993   -21013   -71110 
  -67111   -13350   -11017   -70411   -94226   -43642    15094    31172 
   60445   117634    90601   -16996   -43143    22949    42620     7965 
    4593    34360    49650    47125    64194    75114     2117   -88420 
  -57736    28434     9024   -94779  -141196   -89265   -27079   -39420 
  -98319   -96039   -27180    -1139   -24758    -6015    48995    50813 
   -8611   -37244    12686    64027    35467   -29686   -36744    26851 
   82238    72683    40559    23625     4425     5424    39886    50065 
   17080   -12883   -11876    -4853   -36010   -74716   -52432   -25911 
  -72722  -103274   -66230   -85743  -163225  -141219   -31329    17862 
   -7953   -23791    -2492    45939    79484    27414   -48366    -8559 
   78589    57064    -6060     4677    32091    15252   -15182   -16128 
   14335    24588       57    -1970    21699    20257     4255    -9373 
  -28332   -16466    15487     6744   -21099   -26851    -7687    25689 
   16887   -41632   -52013      285    11585   -35484   -49283    -4512 
   17187    -7710     9529    68410    61138     9699    12413    44174 
   50786    41493    17646   -26210   -71569   -83826   -38458    21799 
   28364    -3828   -21261   -16124     3288      630   -62938  -117757 
  -90496   -39249   -22878   -18123    -4621    13891    40917    58584 
   30540    -9611      548    25395    14892    12223    40672    39488 
   -6634   -28904      183    20813    -8525   -37016   -28207   -26595 
  -31914     3520    54967    71198    47120   -10026   -77838  -103690 
  -63788    -5258    -5096   -60860   -70084   -11754    16649     -566 
    -957    21127    45439    57537    35909    -2266    -5790    28742 
   46168    30409    30792    39946   -15136  -103527  -116499   -66392 
  -38177   -39787   -44754   -36823    10649    68699    39751   -72107 
 -122079   -44083    41036    11959   -57541   -60431   -59639   -79153 
  -20871    59233    18252   -61016   -18457    86737   115165    67754 
   28868    25279    15425    -2708     6995    33085    33416    -1256 
  -29436   -33295   -50891   -80770   -71143   -38205   -55181   -91194 
  -72285   -51116   -90754  -127247   -81660    -5441    -8927   -76302 
  -91404   -35823    -3885   -13929    -3559     9204   -15267   -34428 
  -38602   -66693   -65215     3839    18841   -72329  -125169   -67660 
   -8479   -14518   -31311   -36108   -56906   -57918     5062    50885 
    9578   -26375     1520    14753   -36964   -91874   -55233    31294 
   14857  -101348  -139214   -59719   -19989   -51158   -35616    10132 
  -15124   -60638    -3825    98297    87995     1213    -2729    61354 
   57429   -10367   -36509    -8345    29405    50466    27588   -13124 
  -16506    -5940   -13802      651    48828    56755    -8152   -62441 
  -27183    34778     6378   -68375   -47064    50847    75625     7873 
  -23117    23314    52548    37664    53977    93299    64247   -17693 
  -62034   -61326   -61889   -86069  -104611   -45033    75863   119042 
   42353   -26446    -7827    24513    10176    -9515   -12730    -9595 
    3989   -11412   -51908   -16955    75780    85887    19866    -5640 
  -12115   -76614  -144861  -154153  -132969   -85646    -9629    40615 
   49897    37407     3179    -7015    26231    23111   -20934   -18828 
   15834     4655   -50366   -89331   -93260   -81791   -50791    -9514 
    -827   -26263   -39462   -20672     1379     -631   -23653   -32867 
  -12136   -28045  -105650  -122557   -20362    66359    49707    20239 
   41885    52723    17901   -29651   -65656   -43061    55080   105251 
   16203   -89885   -70813    13452    48921    60247    92499   112249 
   86315    25451    -8547     2843   -30419  -101622   -63135    60544 
   64811   -48982   -77240    -6848    19381    -3890   -29091   -53384 
  -41635   -21824   -77591  -152170  -148770  -118679   -96679   -21469 
   60204    42196   -25605   -28438    13564    15494   -16631   -23531 
   12253    61939    80321    44967    11890    43879    68554    -4434 
  -70029    11127   124114    94102     8550    19655    75479    81544 
   56122     9529   -58642   -69356   -12105     -705   -45427   -42066 
   -1891    -2240    -8004     9311    -5397   -22104    18076    37342 
   -3720   -16017      642   -10264    -4469    33990    31572    -9530 
  -10305    25040    34199    17722     8117    17572    37477    19880 
  -50620   -88091   -41210    11716     9563     3216    24393    16166 
  -35129   -50094    -2853    27408     3447   -21075    -6256    26216 
   40939    47501    53568    16584   -56143   -83405   -56104   -57058 
  -88214   -52783    47428    98532    74353    63285    96240   110760 
   77556    14429   -66136  -122355  -124345  -136636  -187234  -164859 
  -34852    49325     4977   -65165   -88497   -95969   -93366   -71708 
  -71672  -105040  -125571  -102950   -42039     8974     1907   -12413 
   37517    91877    49225   -37441   -31913    52461    79387    19096 
  -20257     5008     4713   -63054   -93185    -7766    84160    62818 
   15901    78612   185348   193613   149943   157213   153239    75880 
   -7648   -29970   -16496   -15684   -25927   -46021   -70416   -62876 
  -25206    -6685   -24667   -47265   -79065  -127513  -125309   -71756 
  -65296   -90454   -47083    14566    -1947   -25246    17500    41661 
  -29973  -119850   -96354    20543    62599   -15888   -40855    74844 
  174198   154274   113905   121114   113492    53723    -7545   -38308 
  -51164   -55997   -66924   -74331   -49907    -8691     5016   -21803 
  -65691  -116498  -143120   -89399     4428    29793   -37052  -117537 
 -149289  -132635   -95461   -85220   -87993   -43756    19528    65368 
  121715   162841   129626    81327   114145   166547   132498    63314 
   60891    85304    33999   -60208   -95088   -73977   -53081   -38300 
  -29661   -55796   -91253   -64461     3826    45403    79099   117563 
   90886     8153    -5901    59028    65505   -15853   -58646    -2432 
   69197    79319    45402     4270   -23428   -19336    -4452   -13962 
  -37022   -41080    -8975    37613    52613    14967   -62795  -109961 
  -51234    44886    39444   -71256  -165613  -179762  -173649  -168877 
 -105435   -27492   -33805   -44988    69430   201917   169481    48506 
   22652    76474   106855    86467    21609    -4899    90774   191809 
  156200    57774     8299   -22145   -49916   -18288     8967   -66851 
 -161775  -184797  -172182  -134381   -71890   -53886   -73298   -26854 
   68357    93405    32901   -37289   -65426   -60660   -40203    16909 
   87643   103007    64047    36954    53330    52199   -32592  -129647 
 -113108   -16567    19703    -9987    -1988    46222    52583    16162 
    -497   -11233   -63842  -127836  -160850  -169298  -140501   -51197 
   39178    59478    52271    46053   -13304   -76816   -43087    14405 
  -31067  -113715  -108017   -58343   -61992   -77147   -12726    85082 
  114226   116065   178489   237269   179995    49112   -36540   -57252 
  -60920   -78940  -107008   -94301    -7788    76821    61236   -14442 
  -60693   -77399   -59661    14294    65843    14732   -63940   -73692 
  -49659   -42026   -55626  -108649  -175739  -195143  -184908  -205869 
 -240128  -214604  -115483    -7668    42934    29651    18454    67118 
  119876   102826    59832    59412    91101   129275   168445   168228 
   96884    20345    14484    67424   122042   104362   -11117  -129901 
 -154511  -105346   -47114    17111    78487    43107   -93909  -171068 
 -110702   -20934   -11507   -55132   -45965    40913   132121   187364 
  197914   128699     8186   -53560   -35427   -49586  -135677  -188091 
 -143375   -67104   -28552   -17401    -4190    23800    64205    95984 
  107959   100710    78977    60876    59882    51642    10782   -39965 
  -79586  -103787   -97931   -62337    -9575    57675   119748   148027 
  148764   119346    57840     2660   -57893  -134682  -148438   -97059 
  -98594  -165731  -165750   -45163    88604   127630    73676     -283 
  -29609   -15519    -9215   -19318    11007    81820   110415    94170 
  132360   206502   159317    21654    -5240    25759   -58230  -152089 
 -125381   -62362   -15661    38878    54748       18   -59793   -78703 
  -79098   -71708   -70235  -105370  -155542  -185453  -176974   -96622 
   19677    92082   111426    63651   -61978  -158432  -131249   -73992 
  -76454   -36445    79478   144311   139333   141113   138463    71645 
  -25304   -55657   -24091   -15684   -53538   -79656   -30099    67994 
  119168   105253    78800    58518    44395    52094    59796    15566 
  -44411   -45758   -16126     -238    33905    93843   100489    25072 
  -34687   -20269    11166     3261   -53963  -135445  -191071  -183179 
 -127919   -93241   -96572   -85953   -46012   -12775   -24881   -69312 
  -73948    -3518    68774    56209    10048    32276   102229   140779 
  138737   135118   127389   100932    90559   106859   112320    84495 
   42858    35039    72115   100374    49045   -81433  -188615  -178040 
  -77593    -4826    -7639   -36583   -40188    19419   116259   159613 
  105100     9782   -26322     6194    49793    71193    16292  -123535 
 -206457  -120933    13248    28093   -39991   -78694   -91489   -90115 
  -44091   -15494   -71088  -149016  -179805  -158627  -102506   -73717 
 -126382  -175525  -117668   -31903   -30594   -51942   -10584    26572 
     -54   -32249   -42694   -49384   -31929     4825    17855    25696 
   75636   124103   120005   122579   151252   104195   -35128  -127011 
  -86406   -13666   -23212   -52187    -5748    63118    67188    33780 
   58242   128954   138104    72780     3652   -38123   -80578  -140014 
 -166464  -138848  -110822  -115155  -120530   -88735   -40550     9911 
   91344   157864   125857    29419   -29291   -39624   -67437  -113408 
 -103982   -25378    35167    31358    28212    76864   126155    99266 
   12510   -65868  -107077   -81624    14536   101189   101156    35681 
   21428   121867   214610   146828   -28812  -128295  -111034   -70885 
  -25151    16811   -19104   -74794   -24629    61698    63028    16016 
   -9702     2699    55131   100334    60374   -34774   -67716   -46596 
  -45769   -14988    57280    49556   -58227  -133711  -109732   -53357 
  -28325   -36413   -43177    -8931    52692    75818    28694    -8178 
   40362    76145    -4976  -113908  -123027   -39853    57608   104130 
   60878   -14937    -6876    66479    81386    25372    -7560    -5929 
  -57839  -159150  -200709  -170646  -146116  -115154   -26771    39867 
  -14598   -97315   -61345    45797    79073    22299   -22823     8631 
   89858   152900   131124    12374  -103560  -101256   -23036   -17358 
 -113876  -162192   -58212    66332    57634    -8019     9474    76948 
   82383    55210    83915    96870    22729   -33772   -11971    22224 
   45480    71710    75300    45212    20733    14141     4998    19899 
   57946    38653   -47976  -106939   -81360   -19471     6664     2219 
    5784     5428    -7754    11634    85321   152833   139137    27589 
 -120514  -185594  -129177   -57778   -47174   -54785   -28830    12869 
    5592   -69969  -142270  -129787   -37841    44997    35774   -65051 
 -160029  -146435   -45375    31438    18376   -47409   -78356   -48247 
   -3766    28936    43517    14850   -38680   -51556   -30889   -34571 
  -24717    51103   111989    74456    -1845   -10806    41039    54904 
   -7596   -89054  -113278   -74870   -52354   -59235   -17520    53890 
   51469    -2207     4688    53493    37202   -30837   -35063    36475 
   53307   -32735  -102978   -78812   -21365    -4800   -31465   -81732 
 -133102  -127159   -47901    28662    72948   120467   141967   121217 
  113927    95514     5505  -100956  -144316  -134104  -105192   -57082 
  -13629    -2700    11462    35505    47610    69762    77679    20889 
  -43683   -12369    81685   117890    97151    61806   -12941   -85067 
  -89754   -85643  -127688  -149012  -113818   -71081   -31272     -250 
  -10854   -39004   -24564    39593    91363    85787    45103    12583 
   34760   115264   157578    97099    32196    56927   110789   105537 
   37968   -21352     2859    95146   153751   109062    26769    13569 
   68369   122644    94750   -33967  -148324  -158247  -115838  -103480 
 -118142  -108080   -77004   -54830   -27613     4655    -1020   -50542 
  -94851   -87155   -23007    41352    48198    20137    12805    19863 
   15770    25522    41677    15140   -17823    11654    69577    87493 
   82682   104336   132470   120198    79255    43599    -4347   -71826 
  -86275   -24560    24951    33505    68782   126793   110839    10572 
  -65670   -64692   -28022    -7906   -25212   -43628   -29055    -9644 
   -2054    27583    78689    97940    64309     5135   -46618   -81703 
