Origin Time       2011/03/11 14:46:00
Lat.              38.103
Long.             142.860
Depth. (km)       24
Mag.              9.0
Station Code      IBR001
Station Lat.      36.7763
Station Long.     140.3582
Station Height(m) 106
Record Time       2011/03/11 14:47:16
Sampling Freq(Hz) 100Hz
Duration Time(s)  277
Dir.              N-S
Scale Factor      3920(gal)/6182761
Max. Acc. (gal)   303.601
Last Correction   2011/03/11 14:47:01
Memo.             
[...]
  -52962   -74170   -75377   -54510   -17547    14798    28366    33063 
   23784    -5762   -23048    -9157     5230    -2355    -9721     6240 
   34038    63546    89678    85392    55744    47296    65989    78996 
   71933    45412     8382   -15723   -22405   -26023   -27430   -31111 
  -36578   -28253   -25499   -58885  -107161  -131834  -123148   -94389 
  -71039   -61573   -37676    14051    61497    89254   109605   116095 
  114873   124431   132585   135969   143715   147766   151991   157794 
  145432   115086    79405    38020    -1334   -31796   -68029  -113290 
 -146613  -159517  -160812  -156551  -145613  -125510  -105126   -86742 
  -53356   -15002    -4420   -13029   -10998     4819    33541    77130 
  122475   157940   178978   179663   168298   158843   142821   111991 
   77381    42268     3335   -26430   -32846   -26242   -33751   -69282 
 -110006  -118835   -96603   -72936   -64495   -71817   -78897   -67549 
  -46535   -34553   -34938   -32191    -2450    45728    80742   104437 
  133002   156293   155984   134139   110141    95808    92285   102863 
  120165   124306   109949    83139    50049    17689   -20373   -67903 
 -104328  -110367  -102585  -114941  -140359  -153850  -163384  -173623 
 -170375  -154359  -140439  -131983  -113979   -81863   -58534   -60047 
  -73669   -75406   -45678     8493    54237    79008    99910   131574 
  173919   212909   220678   177199   112827    81481    77697    66311 
   52021    42339    22897   -12350   -53700   -91494  -133318  -178887 
 -203651  -206416  -204795  -190778  -157239  -121263   -99505   -89829 
  -77145   -56951   -29127    13590    61303    99695   131156   158415 
  185389   210739   228759   251312   277643   281315   260986   246016 
  251245   254042   219326   140554    46739   -15608   -26985   -22050 
  -36614   -63234   -77014   -72988   -65922   -63719   -66859   -88928 
 -135438  -166359  -139479   -75685   -31237   -26644   -22863    12758 
   46586    47144    33764    26106    33872    50054    43828    30912 
   56113    91294    82693    36232   -14080   -40089   -41315   -44823 
  -51084   -43210   -30893   -26626   -25906   -28024   -42116   -67807 
  -86558   -85442   -72241   -57364   -44277   -28730    -3127    20593 
   21964    12155    27962    76964   121464   137690   131447   104345 
   71750    63157    75042    75749    59480    40101    19566    15328 
   32987    32853     -242   -35329   -46289   -49973   -71929   -82467 
  -63373   -47570   -38100   -22418    -7700    12136    33228    29194 
    3610   -13293   -10112     2227     5998   -10302   -35797   -47277 
  -41020   -27593   -16967   -24111   -46037   -54556   -39106   -21222 
  -25610   -53497   -79606   -69369   -10989    57050    92761   110363 
  131957   150310   166844   182533   179669   155864   128915   108788 
   97798   103878   123530   130293   106597    59900    15318    -8667 
  -32183   -75795  -122625  -147528  -138258  -110463   -98809  -106136 
 -108623   -98642   -81848   -71241   -75908   -73351   -37935    19091 
   64149    68354    40786    32207    71084   132764   173233   159173 
  101847    63765    76426    89529    52257   -25458  -100728  -134293 
 -132531  -135797  -151614  -166097  -179487  -178337  -145079  -101703 
  -79263   -68964   -53238   -32583    12743    89497   137276   124763 
  103941   107439   121504   132346   130929   131702   144835   140721 
  119812   105176    86481    68035    46319    -2843   -48911   -71755 
  -90335   -84782   -62995   -68448   -80885   -54973    13051    71905 
   63293    12286   -14705    10097    71724   113650   102051    76080 
   85746   127911   148068   121184    82078    45839     9015   -11518 
  -25585   -58270   -89942   -97349   -87097   -69062   -63883   -80583 
  -93355   -90511   -79678   -60051   -40470   -35475   -37532   -28844 
  -13999    -7038     5729    31139    41926    33877    43136    90096 
  135152   129873    99318    91864   105952   116825   109039    92962 
   95038   112655   124376   126268   116821    96018    68833    30862 
   -3676   -11401   -13961   -41820   -67498   -41021    23476    52388 
   25419       24     1105     1761    -9446   -21565   -23349   -11656 
   12650    39635    49171    41109    30815    15873    -9165   -39037 
  -70179   -93470  -100175   -89839   -63570   -41212   -49792   -76424 
  -90832  -106364  -132273  -127842   -84961   -45504   -38823   -60237 
  -67353   -34244     7828    31063    37679    24160    -7054   -20746 
   12197    63496    86388    95294   122744   135333   102060    64686 
   68629   109579   158253   185161   171014   120411    71378    68733 
  101385   108919    77564    45901    32170    29916     8582   -60609 
 -138914  -173600  -176296  -175399  -170503  -160092  -143661  -106146 
  -53743   -18832   -13484   -21398   -11608    20585    35401    33075 
   61446   124738   195344   245698   238995   181093   124985    96170 
   77982    38098   -21697   -58254   -71121   -87280  -101979  -116231 
 -141592  -181862  -233793  -273961  -279862  -253469  -202902  -129994 
  -44372    26548    63615    91788   137184   162450   141356   125510 
  144778   174277   206605   237538   251385   245448   222725   206107 
  216226   210980   144091    50487   -10447   -37572   -56493   -65841 
  -77454  -127677  -199290  -242135  -243327  -210532  -173490  -174516 
 -199463  -188006  -120692   -48037   -28830   -50674   -32002    60142 
  152773   193049   203394   206272   227813   277911   295372   226042 
   96460   -16811   -49490   -28485   -28212   -50927   -81281  -123306 
 -143259  -141454  -165753  -217506  -268177  -300395  -301706  -286324 
 -289641  -293026  -240474  -149585   -91510   -77818   -58833   -22910 
    1884    34842    98016   163783   227344   302733   368891   397988 
  392461   375998   358707   333012   296402   253414   207166   149075 
   82780    43418    40775    38953     3865   -74778  -174775  -250588 
 -284105  -304138  -332284  -349884  -327203  -246659  -129700   -42589 
  -21166   -22821     5881    36829    13901   -17689     3596    43779 
   80642   130137   168010   166273   138900   114386   101341    80193 
   20050   -75587  -158631  -202358  -216184  -210661  -212652  -228632 
 -198049  -103288   -23786     -679     3448    13112    29248    44645 
   24759   -27869   -51964   -33151    13396    85157   133043   132884 
  122888   104454    81278    88697   112253   115812    97688    75759 
   60925    44930    40467    79326   142267   169075   123797    33154 
  -30340   -37524   -33445   -69179  -142737  -184919  -146664   -87075 
  -79553  -110622  -122138   -80416   -11452    43092    73237    33555 
  -92835  -170391  -128458   -54031    39672   114962    71225    19912 
   82833   147423   118885    15136   -98211  -125735   -85695   -66076 
  -66432   -73112   -69726   -10324    59552    66439    40828    28702 
   20388    -2319   -36236   -62081   -57275   -29533   -15775   -10393 
   21566    60014    57818    31120    52374   130658   180817   166339 
  151981   168819   171970   147043   122102   121686   137144   102641 
   14661   -22395    15453    28737   -33890  -102872  -103402   -64303 
  -41424   -38958   -63892  -112509  -157275  -182767  -152451   -78498 
  -36998   -21722    10723    45179    50717    30217    41490    95067 
  114080    99688   127709   195596   238870   218291   157141   120732 
  125608   118167    57202   -24558   -58720   -62611   -97665  -129936 
 -127373  -124328  -122181  -123102  -140938  -146005  -138833  -147306 
 -157741  -175437  -218787  -254528  -248708  -205784  -162954  -157548 
 -145532   -75975   -12152    11030    46015    71569    57113    57737 
   89522   132115   184883   192595   121573    82184   157904   245913 
  253320   220040   152022    54377     6205   -18198   -75908   -84247 
   -5914    57036    39145     7917    44944    94184    84968    61135 
   27160   -46895  -101622  -109842  -101276   -64572    -7093    52430 
  115758   141408   110219    66465    31116     6265   -10045   -37393 
  -59212   -38460      218    17709    44867   108001   149605   132882 
  117277   146788   194550   212881   163353    90332    88159   130448 
  114520    39372   -27358   -61091   -64798   -65257  -110832  -176278 
 -204290  -201586  -172957  -133282  -142418  -202118  -250930  -247310 
 -189044  -103758   -37105   -17922    -2626    47755    60338    21492 
   54508   176826   264445   221890    80797     -548    59703   153489 
  156653    79328    25902    47978   107620   150013   155422   141180 
   81563   -19101   -57455   -51755   -70414   -36891    13449   -28930 
  -63544   -26360      733    29817    72724    47197   -48501  -117608 
 -110255   -61070   -24728   -44824  -103286  -128192  -115106   -92041 
  -61209   -62241  -105566  -130147  -109511   -57493    22365   106345 
  142593   134001   147275   181751   157317    41943   -95585  -145543 
 -115158  -119138  -153653  -141598   -98921   -78675  -117865  -181571 
 -193611  -179382  -184785  -201823  -230725  -231822  -161879   -71076 
  -13224    17600    27606    18665    23820    64021    95086    87626 
   76743    94348   135526   157476   144404   150103   195397   239599 
  253222   215587   131694    90683   138393   158283    86188     5011 
  -58605  -103094   -79152   -43678   -82217  -138986  -132705   -44706 
   87422   162537   157481   160855   158024    67206   -44718   -51907 
   59158   203640   305348   371551   406869   378199   325887   297594 
  262182   225694   218663   204790   147251    51898   -43159  -109841 
 -174222  -224040  -201641  -153970  -173276  -226158  -249028  -267433 
 -301800  -333396  -336131  -281443  -197511  -143505  -117008   -68529 
   37593   174135   274874   337461   400603   426733   345808   215097 
  178629   224734   218315   172713   198512   290463   359757   343802 
  268522   208109   147170    43142   -75528  -190014  -275970  -299975 
 -283848  -233161  -148832   -98936   -92562   -73848   -91257  -177052 
 -238155  -244784  -238984  -226454  -219971  -230470  -223142  -180226 
 -122184   -53162    11320    35661    35356    59339   110689   144083 
  140021   116230    56455   -32840   -61691    -8691    46777    69112 
   47611   -30327   -94909   -59973    36443    90289    77476    38537 
   -5970   -44548   -62296   -64241   -50311    -5002    57114   113264 
  165171   190668   167954   124139    88876    72406    72627    53290 
  -17476   -88611   -92589   -60188   -68320  -125467  -175977  -203123 
 -220285  -211887  -198637  -216195  -236492  -216191  -139994   -24469 
   82145   126524    99666    66075    73970    84701    79655    96736 
  124629   129123   133700   161956   197901   236355   292102   353823 
  383798   378272   371435   371372   365349   373467   404449   416254 
  390824   337840   243285   136614    93850   103545    86552    23682 
  -51146  -107941  -131590  -122997  -113964  -142909  -186303  -201220 
 -213643  -247601  -267596  -270851  -282858  -280819  -250090  -221806 
 -217063  -216687  -191712  -152272  -121842  -106656  -112822  -138068 
 -179038  -223755  -242187  -239069  -230181  -175672   -55945    58748 
  122191   164272   168992   105033    55087    97634   162672   151134 
   84423    49447    65909    93284   119236   160398   211910   248984 
  260012   231097   140862    25116   -20366    33435    84313    71519 
   69052    88098    68097    31983     2681   -23434   -19902   -16102 
  -57959  -105256  -121808  -141628  -177066  -192795  -189104  -189983 
 -180832  -138682   -64427    19939    78083    98440    88735    37653 
  -27126   -30500    23646    57543    51091    41242    45942    68528 
  119174   173861   180559   174736   231180   291192   291873   281984 
  257094   202044   185937   220511   261497   296841   309273   292799 
  255718   183681   109800   101275   130099   111779    37549   -45417 
 -109722  -149809  -184001  -233444  -282072  -328209  -390729  -434502 
 -431408  -419629  -422375  -432693  -432890  -395629  -347602  -321725 
 -271101  -178420  -126432  -150194  -152366   -81617   -28054   -32312 
  -20432    53633   157679   250220   335078   409586   436095   409051 
  354266   288776   235837   210529   184219   131963    68224    -1828 
  -72103   -99508   -63240     4262    66444   101181   107935   112692 
  122327   120300    99657    46847   -26169   -67407   -81187  -112207 
 -168261  -242607  -311145  -349959  -358845  -318071  -233866  -167931 
 -123032   -33831    81613   141097   172317   238834   288042   263963 
  190419   101103    25540   -32184   -79903   -70900   -18264    -2022 
   29548   119866   170971   179152   210405   235235   252263   281940 
  261804   172939    50921   -93654  -203272  -236072  -202943   -82913 
   58582    92071    52584    62432   104782    80891     2616   -83596 
 -178802  -223801  -219280  -237704  -240052  -232056  -267445  -274890 
 -225634  -189756  -198385  -208393  -141791   -20765    49257    54466 
   58160    94223   142534   182750   224004   261858   306266   368834 
  412538   438973   475584   475629   395696   290286   251600   280634 
  295478   293408   319851   319217   226804    70429   -72624  -140702 
 -175275  -240124  -301850  -329239  -326749  -296608  -273310  -274871 
 -282160  -295586  -308747  -306434  -309040  -329432  -348136  -367263 
 -394241  -393721  -334292  -238784  -173144  -162520  -140060   -79873 
  -33259    -8615    10796    41949   100627   143898   148290   176456 
  252430   319688   351580   368614   397078   453054   487321   455559 
  422029   435469   453116   436727   386079   300844   181911    79067 
   64504   134358   190772   146771    44059   -20130   -47158   -74502 
  -92762  -112061  -144699  -157164  -131668   -83380   -39009   -43983 
  -91709  -116547  -131661  -187916  -241413  -252662  -255734  -257406 
 -249061  -256303  -286047  -314198  -297698  -188775   -32682    30577 
  -12079   -19270    28458    51538    62657    59320    22312    20805 
   56751    34511   -36519   -62652   -37431   -20959   -21101    14356 
   99108   167123   176270   156863   145675   168219   217274   226716 
  163241    94726   101788   159637   185945   183652   183590   149046 
   68485   -14948   -74373   -94309   -45264    46180    78306    26329 
  -36029   -72049   -94898  -119257  -132801  -119761  -109266  -114131 
 -104188   -83710   -91191  -122565  -117794   -59773   -16318   -22226 
  -30967   -11018    15431    24524    30541    59499    86738    55812 
  -20873   -62625   -42470   -11211     4012    30401    75586   106074 
   94932    51264    33640    73780   116837   123787   108883    96397 
   93322    60980    -1462   -29486   -15098   -16595   -68532  -140072 
 -175486  -166480  -135750  -114935  -144155  -186567  -167761  -119633 
 -105829   -90232   -11719    79847   108629   127451   190655   246070 
  258283   249112   244275   236906   192965   120389    71592    65184 
   78351    99911   111383    89511    76518   103838   115531    83228 
   44865    18829    -4023   -33786   -63794   -61131   -30940   -14531 
  -12329   -13636   -23149   -37204   -42315   -12898    39604    62736 
   56768    57857    57844    42262    40089    62247    72411    61778 
   33307   -27994   -84128  -103302  -111482   -91584   -32961     5765 
   13259    30022    60698    86087    92750    83436    81969    96133 
   82707    17993   -31383    -5703    49865    59726    35937    43780 
   83372   120594   149920   162879   151702   111372    54480    38911 
   73968    76056    15692   -33932   -52698   -77086   -92762  -103420 
 -140580  -178138  -189654  -205046  -245320  -277171  -274038  -260321 
 -248360  -207117  -138800  -109585  -137453  -149577  -130451  -131897 
 -134727  -103530   -47614    16120    48714    55240    81098   108246 
  135764   201572   259525   231291   119661    22758    38159    87075 
   62672    67005   146792   197404   225185   259855   277628   305470 
  339878   347944   337979   315594   289141   260808   207159   148478 
  126746   115987    70155    13449    -6923    -6788   -25600   -64576 
  -95542   -99222   -94995  -107212  -127705  -138460  -150336  -190592 
 -238913  -248611  -225735  -204329  -190001  -169499  -136856  -103443 
  -69288   -15533    24687   -24214  -150141  -228059  -211651  -214462 
 -246994  -202421  -145505  -151933  -136275   -91913   -70801   -49512 
  -32325   -26024     7879    56700    77660    70027    52858    50618 
   79571   116749   128258   103668    53843    29434    53606    70096 
  104898   226947   340099   343269   263334   169604   176697   262287 
  237619   137028   111643    95621    42220    11428      888    19395 
   53184    25542   -42798   -65911   -63569  -108633  -178230  -220893 
 -244120  -243181  -224274  -234969  -273916  -294705  -271705  -229985 
 -214751  -210420  -177651  -129522   -96210   -77877   -49617    -2925 
   38374    52290    49509    64433    93802    98669    87651   102621 
  146732   196665   247898   308363   371741   421795   437125   405999 
  357353   324194   295702   255254   194496   100791    16753    -4146 
   -7947   -41030   -70244   -80902   -82592   -68187   -54511   -69899 
 -106833  -146436  -187999  -239872  -300554  -330015  -293921  -242947 
 -231391  -215494  -146675   -63295   -24365   -34381   -45733   -16426 
   37899    83088    96932    67941    45595    79769   141167   210331 
  267468   246692   170654   135985   158116   191047   220723   263014 
  273908   194899   106072   114237   146017    75806   -33665   -78540 
 -111337  -154498  -162766  -164315  -168459  -145731  -110091   -82808 
  -73628   -82588   -97788  -136330  -206891  -242660  -196540  -132024 
 -122900  -137717  -121796  -113296  -125416   -99345   -58787   -49761 
  -28443    26866    73303    90930    92831    97568   128906   188949 
  259405   337484   402738   393081   296334   218313   243692   274632 
  208548   141594   150975   174919   198865   216965   170708    69428 
  -28757   -76067   -54523   -17922   -27177   -69215   -96461  -109302 
 -142257  -174048  -169311  -156611  -162913  -185976  -226540  -265011 
 -275389  -268151  -261336  -233305  -162859   -92413   -59227   -28805 
    9876    27412    40817    68087    94899   119616   127733    98465 
   55785    33443    35075    56982    97388   147932   194394   206451 
  146878    25144   -53241     3371    67541    -4212   -80263   -78751 
 -108099  -137981  -119608  -134424  -157679  -100464     6953    84744 
   96224    61895    24583    10267    36665    74237    73845    57617 
   30698   -41933  -115228  -122507   -61625    17503    29724   -30314 
  -57059    -6346    64467    99818    79620    22358   -34164   -79362 
 -128648  -172952  -184079  -180944  -205343  -250424  -277027  -260236 
 -202540  -123547   -51173    -7730    12397     8965   -30395   -56510 
  -14597    51136    87486   104727   109847   112655   141646   184807 
  206942   205732   201218   204040   208191   210581   213627   211868 
  200373   180737   156796   142012   153858   174378   170435   159309 
  159879   143978   104974    72138    55393    38766    15404     3128 
    7704     5771   -11071   -27992   -48380   -87221  -136736  -176382 
 -188870  -162092  -108534   -73715   -79634   -83371   -64876   -49816 
  -18056    20089     -559   -44406   -52196   -62737   -99521  -135891 
