Origin Time       2011/03/11 14:46:00
Lat.              38.103
Long.             142.860
Depth. (km)       24
Mag.              9.0
Station Code      IBR008
Station Lat.      36.3061
Station Long.     139.9826
Station Height(m) 31
Record Time       2011/03/11 14:47:22
Sampling Freq(Hz) 100Hz
Duration Time(s)  300
Dir.              E-W
Scale Factor      3920(gal)/6182761
Max. Acc. (gal)   290.344
Last Correction   2011/03/11 14:47:07
Memo.             
[...]
  -43703   -81976  -130818  -156777  -164309  -166268  -138969   -87219 
  -50584   -38766   -48044   -78587  -116204  -141572  -142390  -125708 
  -99935   -48768    29328   109245   169412   185767   144374    57156 
  -44281  -113399  -133528  -121088   -82405   -33640     7832    42758 
   55322    33976    -2800   -28444   -24806     7072    54551    97882 
  129814   170015   202421   180432   120051    67145    15134   -46600 
  -87313   -97372   -93505   -65981   -18995    12027    18078     2773 
  -34541   -69719   -84129   -81358   -55789   -14748    13157    16848 
      43   -25342   -43611   -65040   -98708  -120003  -116159  -103811 
  -89360   -64589   -29101     9877    38579    45083    42279    48886 
   65038    88154   109906   117595   120425   128633   129601   109411 
   63818    10128   -14942    -1222    36905    87461   121128   114720 
   85280    50363    16117    -4016    -6674       45    11970    29902 
   44240    35445    12166    -6437   -25308   -41223   -53435   -73818 
  -83505   -68133   -46857   -23803      -24     -928   -33285   -69755 
  -97976  -125443  -134648  -112875   -86040   -66720   -49976   -43256 
  -49101   -57292   -49820   -25197    -4739     8605    20641    14132 
  -23478   -68490   -90958  -100362  -109789   -93802   -39567    30114 
   96787   144021   155232   137961   112558    96829    98168   103351 
  102893   104969   109298    98619    62722    16267   -19676   -37813 
  -41790   -43408   -45883   -39865   -28542   -15082     5288    17414 
   15109    12773      792   -20272   -26741   -26926   -34102   -40913 
  -49666   -64127   -78809   -88303   -79863   -48997   -18943    -3710 
   -2949   -30511   -78218  -110735  -114788   -88482   -28034    41262 
   83112    96595    93233    70449    36871     8152   -10172   -11184 
   11054    48740    74905    68512    48282    39123    40797    54585 
   77992    87910    75494    55779    32140     8395     3961    16785 
   29291    37880    34323     4633   -41128   -78074   -97204  -100769 
  -89024   -64436   -30980     4070    20966     6127   -21042   -38841 
  -56243   -76638   -77273   -50019   -18909    -3380    -4059   -27037 
  -67985  -101716  -123339  -142380  -151252  -134841   -94610   -56110 
  -34423   -30152   -45289   -51544   -24556    17603    70949   138947 
  190369   204929   196596   171163   124711    64234      882   -42886 
  -53341   -46467   -25174     4232     8110   -20749   -75744  -145545 
 -191269  -199366  -166004   -77141    26021   106807   175499   209149 
  190760   147950    87652    13043   -48371   -83395   -96865   -95874 
  -81356   -53008   -33172   -40205   -62651   -88762  -107047  -100795 
  -70784   -35220   -10148     7897    27358    44792    65781    80632 
   51211   -16937   -68321   -66248   -22542    24253    58969    94040 
  123901   132447   126155   109393    76100    40376    20912    20683 
   39609    75934   114880   130917   109975    52471   -33167  -124408 
 -195546  -224175  -197258  -126510   -44988     7888    20433    14429 
    5089    -3067   -10056   -23114   -34112   -23138     8877    47074 
   86784   113706   109423    86331    43940   -35418  -112331  -133949 
 -104008   -41535    30669    75806    83894    62004    17334   -26674 
  -63045   -85020   -58625      854    40765    61740    80353    82813 
   77188    79055    58114     9599   -24088   -31176   -10094    45688 
  111799   152979   147995   104836    53827    15846     3238    16776 
   35143    39257    24220    -7584   -41682   -61178   -71625   -88905 
  -96280   -81312   -82142  -101359   -91725   -55033   -12221    29916 
   37677     9990   -13091   -39709   -79966   -91967   -62208   -22871 
   14728    62916   118826   149384   128293    78569    23793   -33043 
  -52998   -12640    46153    92553   118198   112845    89401    59144 
   24155    -4650   -29977   -47705   -45382   -41371   -48271   -59602 
  -83019  -101040   -79734   -45540   -40239   -55500   -65580   -56884 
  -39629   -22664     -622     6003   -12033   -32066   -48171   -60871 
  -73592   -84603   -74469   -52984   -49224   -70083   -97763  -100773 
  -71936   -30415     5566    27476    31978     5877   -42977   -83301 
 -105138   -92245   -30107    40882    76222    75949    56707    30986 
   12252    24469    62563    88694   100300    93674    51318    18017 
   22985    20602      725    -8833   -16896   -21606    -3304     6631 
  -18112   -50472   -89171  -141285  -171169  -176841  -176885  -143828 
  -80242   -36121   -31117   -48537   -50853   -19370     4605    -8693 
  -29824   -56593  -103233  -109655   -53959   -18942   -33583   -59346 
  -83927  -100641   -96180   -68998   -36968   -12197    24027    74227 
  122142   151721   152310   150114   145166   112978    88462    86843 
   69290    28871    -5683    -8994     9977    28382    48849    57615 
   46534    55612    73450    46187    -2391   -19192    -7932    -2012 
  -19301   -39566   -21983    26868    67595    96787   105340    71111 
    8090   -63437  -116566  -124355  -109682   -97861   -76365   -43656 
  -17604    -2180    23154    58100    59985    28602    -4842   -46845 
  -88163  -103625   -84486   -26838    45603   100266   114699    80751 
   30329   -18097   -66339   -79168   -55259   -35939     3851    82248 
  126780   120805   125569   130762    99975    56226    24319     7045 
    4852    18319    41455    51407    29777   -23348   -99329  -158140 
 -168654  -164812  -159242  -127015   -78353   -35573   -19787   -36945 
  -73869  -130397  -168766  -144900   -82776     4897   101261   143903 
  130063    92717    40363       73     -329    39641    78896    71784 
   46956    28948   -10665   -44184   -30219    -7653     -343    17139 
   33311    25341    17381    38124    74432   100698   103750    64462 
   -5288   -58196   -81570   -78043   -60222   -61031   -74297   -93846 
 -118875  -113860  -100076  -108188   -89326   -41875   -12855     5186 
   18012    19062    18459    -4428   -63032  -118665  -134614  -107577 
  -52416    18329    83437   109791    91326    45070    -4195   -23060 
   -3017    46237   108989   148823   165779   173255   137974    82346 
   58885    44966    27455     -525   -57944   -83469   -56687   -68511 
 -119141  -143001  -167470  -190481  -142164   -52891     3892    43645 
   88478   118058   123669   111438   102528   102771    78506    34694 
   -8052   -72106  -133047  -150188  -147638  -130759   -90328   -55646 
  -38823   -29624   -31650   -47619   -55337   -36644    -6537    28926 
   56093    35811   -14099   -57608  -101502  -125746  -113561   -90992 
  -70203   -57361   -55163   -61686   -87099  -114907  -119650  -106707 
  -76902   -14996    54460    77872    71903    75430    64893    52745 
   74030    86026    78597    94096    96263    49837   -13164   -75566 
 -113349  -102559   -65588   -23387    19990    62864    92005    85821 
   59635    43441    27315    -2439   -16269    -6881   -22800   -67349 
  -91743   -91059  -102710  -126167  -105976   -41666     8726    58370 
  118495   133914   115493   107492   108878   128308   142366   114880 
   85653    66235    30578    17109    34542    45527    68245   108220 
  119863    98481    83342    82512    72402    67825    95878   125886 
  128089   112334   105187   132031   155424   129138    70968   -11136 
  -91431  -120346  -123458  -117035   -71604   -13321    17742    15692 
   -8195   -31294   -53675   -76405   -84859   -95231  -117906  -123275 
  -98020   -59262   -15880    29216    56087    45554     -957   -63908 
 -121158  -160272  -156944  -110071   -69942   -48523   -38119   -55417 
  -66519   -50349   -31070     2856    44210    66224    83598   109333 
  124605   104377    61726    21808   -24182   -60960   -63640   -54037 
  -38632    -1921    45695    62495    13622   -50734   -72897   -78688 
  -69930   -24932    32273    79948   100482    93108    74644    30848 
  -20425   -40328   -46546   -39916     -642    39966    61945    86435 
  106761   104160    88075    59301    14232   -23223   -36896   -32928 
   -9060    35789    74583    68868    20608   -35164   -91809  -134362 
 -128296  -101583   -79509   -38839      -62     6004    -2832    -4964 
   -9752   -26065   -31404   -26807   -30017   -34023   -39779   -31705 
   -4647     1888     -410    -1595   -60295  -148392  -174144  -143145 
  -84562    -9150    34538    36008    13763   -52485  -123077  -110579 
  -43472      666    43546    97595    99130    46956    -4931   -47228 
  -72970   -65383   -53289   -56147   -41004    -1887    29528    51055 
   82167   112268   113921   108938   131124   139360   101622    66854 
   50607    22964    -4222   -19408   -34274   -35706    -9289    16859 
   17750     3039   -35215   -84353   -93038   -77969   -81758   -73762 
  -19966    38028    44585    22455    11112    -6184   -37186   -68864 
 -102369  -145154  -194642  -212113  -184300  -146813   -95538   -36487 
  -14820   -22393   -37798   -60142   -69623   -65702   -51343   -10815 
   26533    30500    23082     9606   -25403   -73338  -108643  -120235 
 -129203  -133075  -105408   -71099   -51973   -22975    24328    74186 
   97185    82337    72066    81623    78026    69517    88534   124349 
  143264   146521   169546   204629   196930   143077    85225    33200 
   -5755    -6285    21215    56594   109645   156525   145981    90003 
   34206     5974    21492    69110   117010   116073    43009   -47362 
 -116545  -149389  -113487   -62699   -62412   -79789   -96606  -120210 
 -135720  -133651  -102966   -56394   -11647    40295    76501    82212 
   83020    69973    30293   -17328   -69325  -113103  -109628   -76478 
  -73828   -87266   -85739   -89402   -76552   -21778    33343    65736 
   85921    80656    43899     7421    -7196     7513    61399   120614 
  150741   176832   199679   196013   193914   188040   133352    67123 
   33428     4857   -19959   -10389    23153    46263    47462    16783 
  -57097  -131177  -173737  -209749  -210314  -143731   -71242   -38361 
  -52299  -124081  -204574  -231385  -229118  -231742  -213790  -184957 
 -183232  -170439  -101086    -1357    87461   144256   154101   131064 
  116987   102971    80993   109975   181359   227518   229339   164745 
   46943   -44162   -87704  -119311  -153491  -188900  -203115  -175711 
 -135475  -119556  -124613  -138118  -166052  -209643  -232891  -204904 
 -149991   -70887    33369    91550    84946    68126    40648   -22296 
  -87814  -105336   -98211  -100552   -70145      806    73450   144802 
  194745   199313   183278   173725   167343   150055   129870   110791 
   85689    80676   101834   121128   131526   112482    41450   -62291 
 -173573  -260191  -278049  -224814  -134996   -26514    84804   148874 
  135423    75156      458   -64431   -83572   -53226    -3411    42100 
   79149   102695    93211    40865   -48258  -135449  -185367  -223903 
 -245281  -216855  -172719  -126889   -63619   -11474    21891    61053 
   94979   103097   107195   139245   174098   169456   154167   151444 
  119340    56866    -8949   -76166  -109715   -82776   -33930     -293 
   26210    49857    49660    43535    72278   110042   108315    82584 
   73594    85868   102009   113996   123276   126784   125820   119722 
   77100       47   -48968   -65737   -93485  -126843  -159464  -201228 
 -242601  -272915  -266148  -216824  -171139  -130406   -70516   -16707 
   21066    47851    50396    36549     5270   -48920   -95400  -121929 
 -126105  -109833  -113143  -133404  -140611  -154444  -172788  -170816 
 -151435  -101954   -25847    29403    43461    22106   -21812   -53764 
  -58057   -43314    -8721    37254    80021   108933   100419    43467 
  -43899  -121181  -161641  -189473  -201008  -156220   -79296   -13792 
   23441    19237     -468   -29479   -97960  -163355  -174282  -137796 
  -54546    71865   204143   286607   303043   287937   245084   181749 
  135108    78967     3429   -27981   -24231   -30166   -22292      831 
    1574     3501    56598   117943   135006   150722   171701   168592 
  161916   134411    76804    29209   -20998   -84789  -125712  -123309 
  -87715   -51377   -25193    -2542   -10403   -49434   -72500   -68217 
  -51680   -21632    17472    43329    30282    -3204    -7455    24197 
   79532   133900   139733    92642    -4575  -142633  -224246  -199457 
 -135557   -57308    36831   107707   147276   165270   153516   108879 
   48131    14455    24001    53751   101578   154891   166093   109591 
   -8912  -159548  -281481  -337365  -350456  -342160  -304364  -237716 
 -157024   -95784   -71836   -46644    -6598     9114   -13160   -57831 
  -99986  -110521   -69232    38958   194796   333896   410585   430693 
  405572   333549   235477   148591    97549    88496   102180   105194 
   97069   112560   139406   129746    91713    31898   -60374  -122433 
 -114912   -77921   -11958    85122   150655   148879    96861     2691 
 -110935  -180662  -191695  -207608  -244780  -239610  -182104  -134821 
 -116577  -104369  -107542  -140848  -175185  -184131  -196535  -241299 
 -286699  -301231  -299102  -281852  -248655  -229603  -230203  -221683 
 -174391   -79028    29965   100795   100104    30246   -55825   -90487 
  -51991    22844   100962   181719   243087   262857   261293   246175 
  211886   195191   212320   223774   221176   210961   179077   139896 
  113737    99958    95047    72467    13614   -28001   -17733     5726 
   43818   111682   169088   200073   227134   243387   210003   116611 
  -11260  -155609  -293244  -393543  -447326  -462390  -447538  -406597 
 -345760  -266753  -190121  -170230  -196385  -200038  -192438  -210370 
 -211253  -163529   -92204     2674   114532   183687   189521   140906 
   21693   -98365  -107192   -27189    65470   143267   171381   134717 
   67459      728   -35379   -23224     7251    26391    35588    32200 
    6878   -42871  -103301  -148619  -172483  -185185  -209670  -251014 
 -270029  -260033  -235394  -171892   -74732    -3313    13216     8485 
     296   -18650   -16048    24788    79694   144279   199649   225653 
  260132   297769   283207   254037   260551   253452   200459   118048 
   -6769  -162798  -277005  -304749  -265591  -173830   -35452    78412 
  105592    88884    56276    -2911   -28728    13368    95331   219074 
  340962   408621   443050   412730   276633    75082  -139775  -305945 
 -396060  -438333  -419423  -325040  -203769  -104674   -50757   -53222 
  -77181   -53958    17621    73470    95798   125781   157215   135525 
   76715    34360    27630    71900   144740   194123   219326   224401 
  165424    45910   -50731   -91069   -89366   -28017    55607    97450 
  110573   103002    81458    87498   107834   123798   169684   237401 
  270134   242943   167345    61237   -43972  -121699  -167822  -163852 
 -114004   -69048   -42275   -19114   -15901   -43270   -85131  -109090 
  -67083    42833   155707   220967   229424   195292   137533    63242 
   -1376   -39783   -82182  -125080  -143924  -175543  -243444  -318835 
 -386640  -408832  -332788  -196615   -76504      107    13990   -37801 
 -108077  -159411  -177885  -134918   -38022    73075   193717   287239 
  290787   216574   107749    12542   -46708  -112054  -164835  -149851 
 -107897   -74944   -38909   -38016   -68716   -75582   -88866  -105048 
  -76643   -35275    21349    91231   101017    59739    33764    48419 
   98619   144570   163241   173824   185525   179692   132012    47069 
  -53219  -147085  -199618  -195272  -177053  -176693  -147677   -67730 
   -1629    13609    14775    10070   -36620   -93396  -101958   -90767 
  -83361   -47935    -5716   -17044   -68239   -96149  -116199  -183369 
 -256462  -279227  -279850  -271994  -227460  -172344  -146749  -125137 
  -96575   -85250   -69848   -25111    19820    35594    42100    61324 
   70134    58058    44997    29315    25499    72278   151585   206279 
  228901   246378   253734   254428   275953   286171   252060   223059 
  226649   237138   245962   250197   240656   202908   105712   -75658 
 -294283  -425209  -423483  -381269  -333887  -237770  -127803   -39668 
   50758    98807    70153    48651    81249   127250   179851   239548 
  262653   245665   214652   160813    92931    36108   -14354   -64361 
 -116672  -180769  -244644  -278206  -264094  -194025   -65533    71940 
  148604   172292   158609    82183    -9864   -57842   -86137   -96053 
  -55770    12899    81309   144295   180054   184074   179791   152684 
   69275   -50182  -161074  -256728  -332662  -359967  -344401  -311720 
 -256367  -201681  -203426  -235651  -231731  -224918  -255835  -268700 
 -250355  -241483  -225519  -194110  -169625  -142350   -77007    41658 
  160417   237171   289893   305889   276385   233982   198891   183990 
  192760   208346   198061   147313    89117    47471    21050     8698 
   19530    63908   110774   152085   196884   175976    80838     4364 
  -35999   -61847   -66497   -83683  -118372  -111526   -61795   -19484 
  -10442   -23786   -25135   -14093   -16712   -17047   -10977   -26678 
  -36059   -16037     5526    35070    75871   102186   103433    81264 
   69618    83783    86025    73053    65827    57405    40621    13551 
  -27091   -60619   -58427   -32888    -3900    32662    76616   135542 
  205721   252900   269531   258773   200856   119980    66956    33372 
    8145     5887   -16228   -92458  -173278  -232554  -284290  -313661 
 -319557  -320103  -301882  -255951  -202669  -141490   -56231    25491 
   60625    56194    29206   -12495   -21814    17313    51245    63573 
   71886    59967    18434   -21824   -27592    -1352    41058   100853 
  160501   196799   220201   224051   195143   164913   157438   164767 
  175103   163575   121503    84987    65148    29240   -26150   -83423 
 -142725  -183464  -181591  -163662  -148403  -111451   -59653   -25131 
   10055    62463    84858    58011    33736    12222   -68874  -171915 
 -195641  -159508  -122674   -55142    39571    87150    78722    51737 
   -2515   -88849  -168312  -208080  -205076  -171852  -116756   -61631 
  -47811   -75505  -115818  -156533  -178421  -175272  -165102  -146231 
 -123494  -112915  -100037   -86151   -90943   -93515   -82031   -77413 
  -82872   -95592  -105281   -92598   -66194   -35179    14973    77553 
  124527   161341   200467   221393   226925   228700   202336   154621 
  117046    76304    19540   -12721     5656    33354    55464   101943 
  156400   193453   204474   185502   180125   200719   197158   177851 
  172360   159691   145790   147979   142964   119442    82999    43604 
   17553    -3011   -26290   -35731   -40050   -72210  -117791  -144307 
 -158283  -149302   -97428   -37463    -7704    -7181   -22206   -39298 
  -67097  -108615  -125614  -108962   -91059   -86610   -90726   -98008 
 -122527  -168509  -204204  -221921  -237926  -230588  -187680  -152508 
 -137748  -117510  -108216  -117811  -120038  -123713  -140185  -152402 
 -142162  -105117   -71717   -54072   -33897   -33507   -60618   -80151 
  -81828   -56099     2391    62651   112742   151549   157735   135750 
  101083    62240    51438    78205   110811   141423   180874   210062 
  204407   185636   184020   189432   198822   213335   204420   169220 
  130510    94036    70200    65337    49296     2125   -46756   -85011 
 -124616  -138812  -115149   -88070   -65557   -31284    -4603   -19572 
