Origin Time       2011/03/11 14:46:00
Lat.              38.103
Long.             142.860
Depth. (km)       24
Mag.              9.0
Station Code      IBR011
Station Lat.      36.1256
Station Long.     140.0901
Station Height(m) 27
Record Time       2011/03/11 14:47:21
Sampling Freq(Hz) 100Hz
Duration Time(s)  300
Dir.              N-S
Scale Factor      3920(gal)/6182761
Max. Acc. (gal)   328.844
Last Correction   2011/03/11 14:47:06
Memo.             
[...]
  -39447   -19277     2972    27167    47149    55821    50120    35310 
   16759    -7069   -33162   -52685   -61102   -58671   -46864   -25287 
    4048    31084    45380    44090    35921    37380    53106    72749 
   85448    85896    76069    55564    22141   -16959   -52555   -69470 
  -56222   -31117   -10691    12685    39416    58834    66554    65807 
   61425    58833    65382    77194    80762    73288    59110    41172 
   19680    -6346   -24325   -18885     4572    31226    50259    55913 
   50680    40538    27563    10202    -9811   -21698   -17310    -5312 
    2302     4805    11472    31053    50162    52011    45849    39620 
   31726    28466    27599    15263   -11914   -41209   -57016   -57190 
  -52747   -48048   -32417    -1338    26016    27293     4472   -27319 
  -55135   -64166   -53705   -47194   -61564   -87529  -114592  -144871 
 -167992  -167441  -150136  -129005  -107469   -88677   -70839   -52709 
  -36161   -18305     2396    28598    58820    82105    92691    90710 
   86542    93854   104717   104536    85187    44109      693   -25591 
  -39320   -40240   -20561     7641    25116    27134    16800    -4400 
  -30736   -44353   -32546     -688    42578    82411    96065    76853 
   37506    -5738   -40304   -48749   -13449    49210   101818   132929 
  150583   156004   143236   115669    83098    48057    24841    30305 
   48656    56337    48105    20929   -21548   -62505   -88073   -89697 
  -68341   -40040   -16470     -251     1180   -14574   -35838   -53700 
  -64969   -59420   -30762    13620    60468    91532    94084    69389 
   25079   -21790   -53522   -66670   -63968   -50823   -34352   -21627 
  -26545   -56774   -94940  -117944  -124540  -124702  -120954  -107834 
  -77785   -37290    -6634      946   -22362   -76800  -134527  -158316 
 -140526   -99678   -59025   -35734   -32369   -41473   -54993   -65672 
  -62173   -32022    14921    55463    81260    84908    60866    19995 
  -19600   -32264    -8814    20346    26961    11836   -16518   -52036 
  -85065  -100087   -85293   -42232    16085    62161    65566    33086 
    -615   -22060   -32403   -26382    -3727    21478    33597    30273 
   10067   -22666   -51193   -72016   -83786   -80219   -65670   -46022 
  -32870   -27029    -6388    30573    65721    92323   109273   119642 
  121384   105039    85663    87695   104790   111785    91507    53378 
   24738    16771    24321    37586    45334    48589    50981    50425 
   56055    74653    93661   103791   105807    94653    71130    51617 
   43576    35453    20559     5427    -5915   -12164   -15359   -19985 
  -22359   -22531   -20197   -16743   -26223   -41707   -48444   -53022 
  -59162   -64145   -60093   -42699   -24968   -12971    -9477   -22121 
  -35662   -33851   -23549    -1744    37236    69789    69258    37787 
   -1776   -28859   -37059   -27725    -7537     9072    10127    -6185 
  -31436   -50895   -62833   -73233   -68237   -41401   -18926   -20314 
  -40576   -65333   -73921   -55975   -21695    15434    43388    51206 
   37386    12066    -7319    -3639    35853   102097   158340   177545 
  158027   115493    79406    64692    63554    71808    87241    92241 
   68456    24253   -17044   -50353   -71397   -64482   -44176   -29706 
  -12498     2081     8361     9943   -11210   -61360  -118131  -154330 
 -153603  -127990   -97119   -76129   -80677   -97891  -110076  -126482 
 -142168  -132331   -87798   -24019    38045    92858   126287   119347 
   93896    75835    56848    38137    34012    39612    43015    40018 
   30887    13831   -11931   -32534   -40284   -45487   -44672   -39289 
  -55456   -90135  -117125  -137976  -157101  -161076  -147157  -137478 
 -141202  -126708   -76846   -16387    20244    14234    -7983   -14922 
  -21212   -32081   -28648   -15851     2050    36776    72600    83941 
   76451    64729    56007    55168    57408    52013    38352    23877 
    6283   -10479    -9429     -689    -2343    -1959     8443    19145 
   30016    49776    72220    70815    36859   -12604   -69340  -118834 
 -131463  -105999   -69177   -36174    -9061     9411    18252    11732 
  -16409   -42930   -34463    -4590     9933     8778    10093    11936 
    3076   -12856   -19972    -7239    18759    37266    36785    18336 
  -10222   -30346   -38513   -42785   -34603   -17647    -4147    13744 
   32730    35494    22624     9424     2516    -1040    -1659    -7435 
  -19931   -20843    -9761     5224    36659    83692   122559   134500 
  125688   118401   110843    96087    88221    84475    80186    90367 
  104731   104474   102271   107198   106710    90291    59544    31384 
   34747    72192   103740   106835    94018    68139    32644     7777 
    4424    20480    47852    68405    64343    32543   -15566   -61262 
  -93667  -113932  -113561   -83555   -41215   -11922   -12658   -49774 
  -99750  -132277  -153150  -167010  -144217   -79963   -23984   -16135 
  -40054   -56026   -41894     1000    55294    99579   115105    96899 
   60318    17735   -22924   -42290   -29193     7092    38178    21190 
  -49441  -124150  -168255  -180207  -156639   -98461   -15340    59566 
   80382    61288    45979    32127    17312    27594    57512    73915 
   81387    90039    71479    23857   -16185   -29745   -19597     -377 
   16003    27708    19951   -11594   -31586   -18588     3904    14200 
   11247    -4713   -35291   -70287   -90352   -99017   -99396   -73048 
  -46698   -56802   -75568   -84848   -98918  -110391  -107987   -91216 
  -63216   -36046   -17310    -2644     7361     3778   -15377   -44414 
  -69768   -68675   -40956   -15255     3810    34925    66089    72258 
   54210    38646    65101   128235   172613   175091   157042   141262 
  128598    96547    37231   -18667   -39840   -35420   -32521   -33263 
  -23290    -1053    26200    52398    69899    81196    93759   100487 
   90016    61709    26920    -8691   -48651   -83145  -108292  -128694 
 -128345   -97401   -49345    -9719     2795     2219     -303   -10628 
  -18641   -22271   -22746    -8789      850    -7000   -16780   -42173 
  -78994   -86183   -71732   -66463   -67987   -61446   -40371   -18883 
   -8994    -9531   -26808   -43462   -27919     7391    37112    66015 
  102332   129296   122925    83207    25744   -28992   -63873   -91236 
 -123970  -143056  -134979  -111481  -104822  -141796  -187873  -185517 
 -140232   -91394   -46983    -1027    39783    70817    78043    43574 
   -6098   -28479   -18909     7732    29710    20273   -21014   -67694 
  -92660   -75551   -18713    39459    55388    26742   -16505   -56433 
  -85609   -92943   -65057    -4543    44052    48722    26889    -2146 
  -17185    -1798    30695    70121   116982   159268   171489   142339 
   91542    30641   -34192   -69603   -59803   -26101     6916    17907 
    3925   -16886   -39164   -64596   -79869   -82586   -86612   -86035 
  -74908   -68100   -58407   -29526    -4729   -11364   -41397   -82309 
 -122337  -131117   -96014   -41732     7152    48116    79870    86392 
   70600    51629    28289    10906    17530    37753    59012    70608 
   58647    23873   -14746   -35764   -49357   -65587   -55794   -21838 
     556    11335    11791    -6728   -16986     4442    38885    55191 
   48234    48252    76252   120570   157264   154121   100513    30840 
  -11749   -14082    -7478   -12759    -2068    19917    12473   -20312 
  -48928   -51989   -22364    17739    47836    70165    89917   108320 
  118990   122651   135685   161382   189892   204344   181609   130392 
   79836    33969    -6158   -32780   -53731   -62897   -38535     1779 
   18909     7973   -14277   -36710   -52300   -61969   -72294   -81377 
  -89906  -105142  -122219  -130721  -129059  -127166  -131176  -120175 
  -77200   -20953    26930    53023    46970    29659    31361    43068 
   43057    40648    56789    86247   109996   125045   133314   130556 
  120009   108306    90916    63942    35478     6597   -18624   -16699 
   10587    32052    39953    49120    57016    38248    -4162   -29556 
  -30555   -30858   -39061   -65748  -114121  -158098  -172113  -160872 
 -152675  -151751  -135567  -111416  -105460  -120490  -129349   -96145 
  -29317    30540    60811    52189    14898   -27403   -55304   -45639 
   -5583    23748    20714   -14836   -71108  -121441  -145236  -138286 
 -101999   -44917    -1999    -8865   -46814   -70965   -79066   -91353 
  -97154   -82225   -56479   -32993   -28154   -52570   -88825  -110042 
 -113176  -109834   -91358   -43186    29992   108918   159210   165223 
  147748   122192    92735    69875    69754    94041   114636   103701 
   54448   -21548  -101633  -171196  -208545  -178666   -87271    18511 
  104034   142045   124560    91059    61221    14141   -30808   -24769 
   21015    48786    38944     4660   -53091  -120472  -159678  -158783 
 -142189  -127973  -113171   -98048   -91250   -88740   -89904   -98909 
  -92872   -59793   -22940     3368    24002    39657    45641    44573 
   36464    16657   -11247   -41050   -68538   -94971  -116907  -123376 
 -130685  -162339  -197396  -191547  -129020   -39532    44431   109447 
  140553   145823   141299   127028   132122   177940   234024   268876 
  262010   201215   110059    36512     7893    12262    29596    49418 
   54502    35389    15623    23841    51254    67054    61850    55993 
   66421    78032    70594    43288     9798    -9168   -22387   -42986 
  -45707   -24637     2280    19488     8511   -18583   -43698   -61736 
  -56522   -26136    24863    89963   135285   124679    56235   -17005 
  -31167     7109    51551    87015   116767   142226   159218   151637 
  108490    34592   -31272   -30488    28130    86753   122070   121360 
   86017    47051     8886   -24902   -29283   -12294    13402    44713 
   56367    50039    55176    64590    63770    73326    98288   108024 
   85045    30482   -38810   -83400   -84673   -59218   -24076    11818 
   36501    34425     2153   -43284   -75814   -81429   -71989   -66364 
  -72306   -96906  -146912  -208646  -246583  -236129  -171038   -50079 
   87170   173585   192186   164146   121403   104907   108795    94392 
   60231    24191    -8246   -34691   -59448   -87698  -115745  -152153 
 -201073  -237380  -242168  -215536  -156798   -66129    34198    85556 
   50610   -43651  -166221  -285271  -328544  -243952   -65550   103886 
  182255   174258   114922    21013   -61518   -63116    28889   168234 
  295789   348029   299389   184299    50796   -56379  -112129  -123447 
  -97804   -45709    -3085     -721   -27871   -52641   -54428   -35569 
  -21309   -31358   -51390   -50959   -20422    35259   100221   133180 
  115216    76615    52364    56754    82921   116501   147473   161796 
  151618   131741   122301   127172   142197   167385   191236   193716 
  178528   155953   127887   113033   117146   114054    86181    37171 
  -16979   -67954  -121335  -167294  -186478  -170649  -123427   -83082 
  -91687  -131933  -164405  -167451  -140417  -107386   -80791   -70204 
  -95587  -133905  -124063   -41533    67465   149977   193914   186852 
  128386    45552   -50276  -133560  -158990  -133420   -99329   -74648 
  -56040   -27354    23747    75646   111639   135173   129907    90141 
   35266   -19527   -56528   -66707   -68306   -83165  -112997  -149787 
 -178585  -164628   -72572    89148   246668   326021   325607   268705 
  179133   106541    59378    -3795   -77222  -127531  -171250  -230864 
 -282516  -311080  -333821  -342474  -324038  -304044  -298824  -297612 
 -285050  -265381  -260814  -244666  -186925  -129108   -85387   -21782 
   59433   135156   189794   219318   223926   191294   134239    99504 
  107549   132352   141600   126406    89576    53363    58700   106060 
  166754   236022   299808   322211   283821   182967    44431   -83710 
 -173884  -211417  -196385  -163362  -120649   -53035    20614    93712 
  183204   277886   341975   336032   262018   168628    85270    25169 
    4131    18569    42243    40457     9745   -26827   -60130   -83587 
  -78424   -24807    55087    91612    62765     4073   -78315  -186359 
 -278055  -303274  -259711  -184797   -84739    51620   171364   208805 
  181499   142266    99041    55954    40827    31892   -15340   -85396 
 -142269  -166208  -155585  -139950  -140202  -141074  -128604  -103838 
  -72640   -44131   -10356    21369     4110   -68335  -163016  -264452 
 -343678  -365684  -324650  -243681  -170387  -137934  -148599  -176016 
 -160521   -84042    16336   131962   251200   331694   348007   288567 
  181491    78782    -9812   -56946   -17437    64870   100813    67341 
   -4226   -84078  -143290  -154622  -114106   -37291    47523    89996 
   30959  -117738  -254819  -307958  -281321  -204395  -114067   -49595 
  -35873   -65094   -97183   -95601   -61790   -14386    46947   100731 
   99916    63562    49537    58211    76386   124301   197749   256867 
  283346   285753   267442   233222   194812   149330    91916    51394 
   54476    76543   101851   137806   145398    90705     7259   -64126 
 -113028  -138663  -136393   -97174   -27409    36717    51138     9257 
  -48494   -84287   -83492   -35113    59169   158688   217886   238968 
  231789   200278   169599   139616    98938    59175     8395   -50932 
  -78839   -88746  -114594  -149448  -198530  -273302  -364106  -455126 
 -513676  -500554  -411222  -277542  -150871   -64986    -6870    40493 
   99628   178750   227224   248907   304972   382822   450841   505973 
  517712   469592   391934   302018   182005    18961  -152403  -253283 
 -238820  -160116  -102614   -96775  -124333  -166509  -222202  -281560 
 -298319  -236012  -116295     9515   104281   152966   134078    39345 
  -69511  -126397  -138033  -122204   -91409   -92112  -143962  -218958 
 -287842  -303127  -231229  -113712    -7776    66021    99731   104939 
  107797   112710   111365   101279    84653    69357    71917    98655 
  121707   124653   125655   122946   116341   139570   200258   268288 
  327410   376929   396210   354177   251633   117969   -24426  -154667 
 -226788  -224093  -204527  -204993  -197616  -170344  -134092   -98454 
  -79006   -61519   -36281   -39947   -59145   -51044   -46592   -82870 
 -160591  -266902  -361075  -418361  -436896  -406658  -338777  -261012 
 -202848  -181085  -174032  -157071  -119807   -50942    45895   153772 
  250933   317269   349123   347006   318035   293868   286925   262250 
  205331   152841   141969   181093   247479   302725   313420   250290 
  108813   -62887  -198626  -268429  -268304  -206117  -136018  -127760 
 -185310  -260317  -335892  -414053  -433328  -337934  -150454    77384 
  257043   311907   239016    73738   -93589  -166639  -120255    35220 
  236817   368869   368077   249643    61815  -131801  -251865  -237012 
 -130233   -30500    37108    73994    67278    49551    66039   115246 
  168070   195143   173621   107548     9037  -129663  -277824  -368107 
 -398871  -402456  -363399  -287920  -219138  -164391  -101276    -8729 
   89599   153455   196330   224649   230432   233954   215842   157485 
   96525    36708   -30186   -81843  -118990  -140579  -128452   -84656 
  -37359   -21676   -31321   -32687   -31282   -34100    -9477    52524 
  132300   215061   275003   298940   312517   320585   302405   274947 
  254512   206276   116391    25123   -35898   -49549    -7543    53006 
   73554    38996   -21979   -91379  -152665  -163447  -111064   -32512 
   35864    67033    33863   -52068  -150411  -238020  -281623  -259703 
 -200403  -132507   -79249   -61506   -74021   -96179  -103505   -92222 
  -59932    23731   140141   228018   283693   325485   335198   295712 
  206836    65465  -109657  -240830  -253172  -161810   -41376    52895 
  113215   144508   136748    91055    32924     3008    31850   102593 
  173740   231907   270304   269859   237244   186001   113331    36185 
     248    42881   145326   245236   300349   296684   235106   142524 
   38266   -77649  -161617  -159117   -91386   -16642    27172    32932 
   34704    59880    87884    91294    57697    -7476   -62954   -86196 
 -106741  -130557  -139668  -154445  -196304  -250636  -303671  -351533 
 -378448  -363904  -314728  -276112  -273123  -277374  -277495  -285793 
 -270231  -210253  -145850   -86947   -17415    34003    48733    52547 
   67779    90184    99601    86822    47804   -14885   -62335   -70782 
  -66018   -63708   -62859   -62355   -44616    -9791    18568    45001 
   81687   118051   134867   109221    50292    11897    25761    75315 
  134199   190240   244614   286109   287055   247354   191442   146889 
  141908   165285   183065   174515   111970       79  -113275  -207913 
 -280116  -310593  -303202  -273139  -221997  -172570  -138746  -101667 
  -73949   -70320   -52053     1473    61456   106950   140619   171601 
  196429   199938   192684   191981   166090    73311   -74575  -215493 
 -272362  -226897  -150059   -97928   -66946   -71284  -109952  -142077 
 -165870  -171745  -122509   -28437    85840   183550   206604   164130 
  105019    40081   -19182   -58958   -86860   -96539   -77819   -42806 
   -7299    13230    12619     7113     4674    -3051   -17981   -35468 
  -42833   -32679   -24600   -36880   -55959   -63463   -51073    -1038 
   84871   164728   205429   193771   123056    19619   -76617  -149743 
 -195715  -224576  -251101  -272873  -303396  -351651  -375819  -352303 
 -301367  -229171  -133948   -29943    57859   104453   105439    90802 
   81181    63251    51368    78100   135208   191276   220948   225369 
  225543   226286   221054   202344   166147   138720   144421   160361 
  156817   121831    54132   -26760   -95123  -131284  -129559  -108825 
  -83886   -52030   -25416   -26528   -40547   -27641    12718    52121 
   86990   122146   143563   143990   144038   158366   164766   152154 
  141260   138786   145760   161130   165781   168672   193835   219142 
  212125   179707   146706   123320   102823    79157    61963    64405 
   78358    76248    38173   -26802   -92718  -135599  -135902   -93802 
  -33697    17634    40140    22348   -35139  -114437  -183329  -214976 
 -188192  -107949   -28779    12271    22535     3730   -34891   -72914 
  -96982   -83993   -31560    28702    73030    86618    63892    16709 
  -36237   -69452   -73224   -69945   -75695   -86037  -103178  -129435 
 -157035  -176906  -173180  -142587  -104249   -67977   -40062   -26799 
  -12724    13146    41312    66657    87141    93099    81496    60081 
   29142   -17047   -73278  -119841  -134067  -118139  -105200  -115666 
 -130277  -122683   -94523   -72839   -67886   -51139   -15959     8063 
   25253    58917   100227   140627   182862   210120   201687   147837 
   52743   -50180  -126432  -172727  -194311  -187049  -162025  -149672 
 -157075  -164974  -168528  -164553  -132058   -65195    19547    94081 
  126694   111784    68532    26310    10401     7716     1565    15086 
   47545    58668    45978    33928    23226    16346    26927    54064 
   82661    95555    88778    76499    77317    96352   116283   119358 
  106981    84273    54986    22543   -11886   -33008   -27829    -6370 
   21536    40350    19144   -38177   -95096  -144886  -187573  -208710 
 -216775  -215421  -187088  -145572  -126628  -130264  -136086  -141301 
 -144900  -131735   -78784    16187   114255   179886   211523   217613 
