Origin Time       2011/03/11 14:46:00
Lat.              38.103
Long.             142.860
Depth. (km)       24
Mag.              9.0
Station Code      IBR019
Station Lat.      36.8808
Station Long.     140.6544
Station Height(m) -9999
Record Time       2011/03/11 14:47:06
Sampling Freq(Hz) 100Hz
Duration Time(s)  300
Dir.              N-S
Scale Factor      3920(gal)/6182761
Max. Acc. (gal)   582.331
Last Correction   2011/03/11 14:46:51
Memo.             
[...]
   48412    16920    -3570    12958    53169    94174   120536   127299 
  114760    54694   -59696  -167655  -191831  -122857   -65667   -82184 
  -90402   -50016   -11268    23781    68050    89341    88508    80689 
   47833     6398   -18088   -27703   -10530    10553    -5160   -25849 
   -3834    58378   115817   132159   125981   107970    80975    68829 
   45045   -12962   -53882   -56199   -54560   -53455   -40190   -22033 
   -4709     9744    21631    28461    13984   -24110   -60847   -77001 
  -64186   -26067      -64    -4729   -11710     -429    20868     5993 
  -62296  -105250   -76650   -24131     2849   -19371   -54945   -33381 
   35038    92592   120312   123073   104547    62708    -3969   -89108 
 -157556  -164074  -117585   -45989    23926    42809    14933   -20853 
  -50645   -53668   -37729    -6969    63067   139380   185601   197709 
  165874   109109    51025    -2159   -27458     -612    44942    41348 
    6601   -18045   -61408   -94407   -67901   -36139   -29936     2716 
   66781   107244   119263   121534   104229   103243   138508   126415 
   31857   -51548   -53613   -15178     7054    17864    43355    88602 
  140059   172630   148157    61660   -18399   -42517   -31664   -15470 
  -29219   -88053  -136982  -131455   -95292   -59892   -45498   -53464 
  -44562    -8179    30380    68203    91757    96817   113006   119499 
   63145   -35089  -110805  -153369  -189767  -228382  -262271  -263677 
 -191847   -74438    10977    53976    76456    78579    74305    56457 
   18512    -4130   -22777   -54316   -44093     4030    14310    -3839 
   22602    87804   132469   146494   138654   108463    73927    44905 
   20289    22415    61105    79493    20268   -62178   -79074   -55314 
  -45090   -33653   -13410    17812    87857   182550   232702   204410 
  145875    89429    15656   -70367  -147496  -195283  -193500  -144600 
  -61578    26906   105725   195277   258115   233171   137201    28753 
  -40049   -77340   -93326   -67153   -58153  -101870  -119686   -56566 
   31227    59989    57001    58589    33053     8614    13210    18018 
   15086     1122   -42740  -109008  -141814  -124616  -109882   -99504 
  -66685   -31074     7692    43425    40184    36856    56732    39952 
    5884    -2605    -6676    13727    54223    77855   104157   117412 
   91347    53035     7877   -43616   -76075   -71281   -41891   -37189 
  -72737  -115997  -147357  -152848  -120338   -57390     8911    68182 
  143003   228991   275989   252050   198895   158576   106099    18272 
  -78129  -110975   -72521   -68986  -118168  -128051   -79847    -6682 
   76353   150907   198550   210237   187472   167177   188394   205873 
  164803    84353   -14517  -124569  -233239  -308514  -321745  -297918 
 -250876  -187200  -124112   -37361    38855    56907    85720   121635 
   72835   -14789   -48687   -36326    -8653     5432   -34806   -98065 
  -88117    -8242    37852    15751   -52539  -133395  -147049   -83628 
  -31757   -35213   -80684  -118798   -72747    37303   115448   135762 
  116195    76566    45061    38862    41513     8145   -60393  -128026 
 -163795  -134087   -55669    23008    72500    87214   112531   164386 
  187937   171052   140175   125723   130132    91962    13336   -65945 
 -148217  -213239  -266988  -301027  -278467  -210781   -73479   103142 
  200032   205944   177470   127431    50026   -22685   -88831  -158987 
 -152989  -149860  -258017  -305419  -268111  -244497  -121748    51690 
  134105   201988   282904   323901   308975   253106   195897   104621 
    3692   -46923   -99753  -136778  -156082  -243634  -303213  -226174 
 -126259   -48499    84946   198955   223400   229956   198731   106467 
   42399    13430     8529    56612    53211   -49532  -131413  -170408 
 -150374   -44334    37126    81886    97638    29008    -1451    62805 
  103344   107689    96258    21147   -89947  -116781   -45208    -5035 
  -27693   -47899   -86856  -118978   -85502   -75571  -112335  -119230 
 -117602  -104330   -32147    52076   112058   196867   300362   363659 
  357697   271306   153541    64226    11095    14452    63501   105746 
  121408    73904    -4189    -6852   -21240  -119157  -167489  -187008 
 -256587  -298624  -304673  -284319  -206140  -115294    -1832   132676 
  203251   242937   291135   293951   219370    73675   -54582   -79467 
  -76878  -125308  -167233  -215284  -265412  -150102    38278    67254 
   68113   132628   130014   111970   141507   134770    83483    40525 
   43182    85950    54001   -56216   -39906    79865   116161   130919 
  150385    75655    -5761   -11409     8350    25012    -7028   -79457 
 -111646  -144935  -208496  -204262  -166088  -192519  -187446   -89090 
   13613   101482   161254   151660    93791    13721   -41495   -52940 
  -65911   -73823   -65809   -73056  -117876  -190322  -217914  -176067 
 -108884    -2254   119367   167043   138967    65080   -54290  -130594 
  -62746    68434   164084   258763   353384   435093   528613   577630 
  526471   402238   252418   127575    21561  -124729  -287203  -391376 
 -443926  -449545  -343435  -155504     -907    98554   187484   281599 
  347837   390863   465008   546697   524633   318553    70698   -49319 
 -110345  -162978  -217137  -242875  -118794   -59064  -267107  -323022 
 -138491  -224430  -356039  -179372   -98658  -117802   -45170   -77289 
 -160446  -197741  -200851  -137381   -98041  -104841   -79620   -29013 
   41336   133397   192916   221146   258176   264235   196602    69700 
  -82049  -195361  -229067  -224238  -208538  -161019  -120755  -133533 
 -139634   -76170    35379   149139   228480   255056   265680   280099 
  245691   181676   130827    77861    64042    89252   110476   121489 
   79423    -6377   -91118  -170099  -218636  -245448  -266760  -247804 
 -197596  -176557  -199939  -195702  -107157    14941   118517   205479 
  274439   331188   377525   389004   380306   393349   375733   254100 
   87366   -50500  -167742  -245502  -240104  -163242   -65350   -20748 
  -44297   -53957   -39176   -15607    41321    59547    11116   -16922 
   25403   116156   162608   151762   146727   105142    25367   -27144 
  -80205  -136244  -148347  -145119  -166638  -172885  -103208    14588 
  124443   202929   215718   181270   126573    35679   -66236  -171914 
 -277582  -344956  -361020  -296955  -193713  -137018   -74440    17684 
   99669   200892   277405   281990   249001   172613    67780   -40245 
 -132883  -161283  -167778  -161572   -56278    19946   -30322    28963 
  208806   265608   252318   244896   163310    81402    46475   -14254 
  -77876  -108348  -120745  -131894  -149652  -117433   -56676   -79610 
 -107562   -80698  -122330  -163367   -95728   -17112    68365   154984 
  120077    19424   -57463  -148994  -234265  -286386  -301205  -279634 
 -289092  -291974  -191240   -41806    99517   226957   285783   281164 
  261981   192268    75949    24453    54109    58686    11227   -42901 
  -92447  -130505  -162759  -146242     4129   168044   195829   180916 
  145457     9586  -123991  -153439  -127115   -53928    71379   143882 
  166208   252733   313138   238416   133086    62144    -2436   -55300 
 -109027  -162975  -166721  -122173   -76501   -45720   -27937      682 
   86693   225227   338980   379531   365511   273679    92550   -33979 
  -45446  -122197  -269195  -263781  -126510   -23416    11978     2062 
   64190   228273   329612   367073   383645   328356   265332   217881 
  137260    41708   -50744  -150980  -239025  -281322  -363331  -487934 
 -448335  -326108  -332090  -260127   -56654    50790   139671   239516 
  278156   357576   405368   294274    77696  -114357  -140090   -55546 
   29676   162148   245570   117520   -74519   -79543    -6220   -84333 
 -119585      -64    59098   141558   269828   260480   170435    43242 
  -46962   -23425   -33862   -88838   -84728   -21244    68266   110308 
  163358   282892   281336   167472   116479    71534    33043    58082 
   51955     3808   -41279   -95543  -156140  -214045  -252379  -295785 
 -356242  -337304  -257096  -252870  -255569  -146780   -26278    32324 
   74318   105936   129874   128192    78187    12901   -64569  -119847 
 -117285  -104730   -68874   -17844   -14158   -12508    22681    62151 
   81662    56599    34860    82913   150029   160291   132228   125747 
  148487   141663    72161     3015   -11326   -13352     -476    58081 
   57325    15996    88450   187840   246102   342107   391934   362338 
  313100   188137    28746   -53721  -104526  -212441  -329938  -322664 
 -217161  -173281  -153337   -54748    -8581    -6071   130724   248676 
  218655   161628    91627    53137    63851    10400   -63500  -125867 
 -229483  -240022  -140289  -151738  -218197  -165339   -67195    95272 
  314615   406525   440559   495740   471173   341754   117987   -82819 
 -177618  -261873  -359817  -428650  -428369  -299616  -150430  -174144 
 -240457  -146045   -19724    56435   178343   334820   440751   455846 
  416003   293235   101065    49169    69622   -27303   -62744    -2618 
  -62957  -215120  -234069  -126996  -163462  -197633      760    96896 
   55537    77944   -14375  -166156  -227539  -296792  -331306  -270137 
 -188410  -122648   -24461   144484   274428   268144   226177   230014 
  238274   228885   199221   169818   148688    79093   -14387   -76292 
 -108981   -69263    18768    71775   102743    86683    61105   191782 
  348658   280024   106139    16528   -12475   -25419   -39795   -83075 
 -147294  -170569  -113679   -19368    46973    28161   -34926   -34040 
    7421    56483   100300    47657   -41020   -65614  -118359  -193722 
 -165017   -86776   -53598    -7682    69086   104629   116480   166011 
  177768    97539    78954   138909   131467   103685    73588   -21780 
  -99458  -139787  -215814  -282811  -268424  -210558  -162423  -115940 
  -45417    43177    48158   -63373  -137193  -109364   -36160    42169 
   99375   185609   291765   335115   340806   317401   208549    36170 
 -107300  -185236  -263914  -302867  -187443   -49879     2116    23397 
  -46947  -119823  -108665  -164817  -228575  -211314  -135105    42578 
  182302   201945   193354   106517    -2091   -13216   -10402    32591 
  177084   284472   329231   397597   439672   412536   329112   165823 
    7283   -24570   -34523  -132862  -208940  -216186  -199820  -119390 
  -59002  -145880  -241562  -190381   -49273    67883   121047   121777 
   57174   -13840    -7649    17942     1947   -71392  -156031  -188441 
 -207874  -167591   -87640   -74989    17518   183287   232248   234357 
  174167   -22071  -193051  -276857  -296442  -221779   -97138    40815 
  174557   258961   278448   306422   357794   262808    58592   -11666 
   25975    30056     1346   -23337   -52240   -64406    12434    88861 
   60758    36626    60834    93411    99752    25207   -43944   -50361 
  -62420   -61730   -20202    27860    26726   -45440  -147730  -241425 
 -244550  -136158   -39488    24891   118504   190236   196631   203368 
  236930   218478   106158   -45670  -142004  -150169  -148213  -148553 
  -79646     9777    41087    75545   112223    37207   -76034  -107012 
 -122467  -134995  -109314   -95680   -85023   -40745    19737   105606 
  224231   298629   298729   290181   239380   119737    26625     4380 
   37058    82970   123429   135975    46285   -95659  -210488  -277795 
 -265679  -275474  -361865  -412420  -410907  -363168  -226683   -69596 
   13784    43951    84568   158238   235017   284859   366080   474837 
  514651   532783   558268   496867   388793   309539   199182    23621 
 -171829  -341152  -418609  -396540  -391645  -375201  -197398    -4001 
   69993   189606   308839   279561   224439   186848    76334   -72321 
 -181229  -236160  -289255  -336326  -252554   -77549   -43919  -140330 
 -109971    36385   103806   163477   247407   230191   209226   215342 
  147177    85390    16184  -129365  -254573  -311220  -289629  -205316 
 -157695  -195529  -261224  -239487  -138812   -46871    69626   188631 
  272701   363255   427342   448816   363603   130935   -70711  -154200 
 -174254  -164769  -161782  -146079  -131770  -123315   -25678   124035 
  244995   350617   367407   265525   134409    -8664  -162606  -304922 
 -412975  -421427  -335815  -224578  -119524   -46206    15167    81598 
  169895   334579   437116   402709   412195   392342   237596    92626 
  -20335   -97625  -130873  -202276  -255748  -216193   -83884   109529 
  151736     5061    19255   195295   245507   275246   344756   321988 
  281158   226083    84989   -78768  -214583  -300558  -338923  -342449 
 -283688  -244928  -300291  -228444    43447   232454   329950   400708 
  261839    28921  -127705  -303478  -458316  -529546  -493736  -333843 
 -168861   -79393  -127119  -207723  -126784     9160   156195   313892 
  363363   391751   406952   294457   144791    73975    61929    40380 
    4282   -33473  -100640  -192235  -288975  -373734  -444666  -487945 
 -369579  -158476   -94959   -44844    69668    77248    64279   131173 
  233518   319600   353374   375682   399965   386613   283693   153646 
  137580   167281   141585    93555    17813   -95012  -203102  -256021 
 -279439  -380677  -521148  -560037  -513032  -408571  -206698   -19721 
  142048   403156   561787   585986   749254   899149   867191   751233 
  533142   258882    -3996  -281637  -519796  -678162  -780461  -768364 
 -635109  -624697  -659222  -305560    11606  -164730   -68604   392047 
  492476   555821   839449   926781   889129   831016   573509   248712 
   34464  -169502  -365686  -453667  -598605  -742887  -482408   -15611 
  213596   240123   213345   299190   315268   -21472  -234699   -96384 
  -55294   -98125   -26394    14204     8976    27560    20244   -16641 
  -50745   -43734   -35619   -93551  -158577  -166506  -101828   -65169 
 -152996  -191282  -130120  -155224  -209432  -195437  -176117  -110654 
    1192    66181   120199   179528   188286   171776   188641   282515 
  400018   427625   376070   265420    74597   -87366  -122832  -130848 
 -183574  -165445   -46773     -676   -49276   -30939    46226   104372 
  161043   208603   271612   338793   309070   189397     3094  -187567 
 -228470  -208161  -318675  -444424  -371220  -238873  -245999  -203128 
  -56759     2615    21679    48701    64361   136304   207267   217942 
  220419   201853   156162    44982  -144765  -234010  -180487   -58141 
  171340   360768   343353   306201   327949   245835   145722    99588 
   -1979   -92477  -123730  -141888  -163985  -230646  -268231  -234400 
 -200121  -107818    25040    42464   -17909   -66854  -140868  -173500 
 -119867   -99424   -33667   165737   286600   316418   417337   478782 
  353821    99743  -105775  -174667  -241563  -387712  -498874  -532058 
 -513204  -398627  -239699  -166774  -148515   -58157   109690   276854 
  397066   455132   499263   583094   606503   484989   343509   249484 
  143670    21664  -105687  -194057  -246459  -322435  -305638  -118593 
   43823    44877    49003   213162   332565   274002   247388   206430 
   54320   -32392  -103305  -217267  -272777  -302866  -332216  -394522 
 -476603  -436304  -318772  -252746  -171686    56130   343726   412306 
  392547   546019   586654   437331   286853    20121  -211365  -188953 
 -126668  -160022  -215842  -257347  -260296  -167763    22300   115860 
  -56330  -280826  -295229  -255725  -320051  -278431  -106790   -31909 
   21611   132760   198865   275132   366597   375117   326356   260934 
  170117    81371    39540    26653     -700   -19384     7275    32876 
   46543   116804   192602   221151   262990   243907    71692  -107644 
 -142927  -125753  -161848  -167541  -155487  -233814  -324350  -360069 
 -329586  -167389    51249   213565   342719   457382   540059   601644 
  643647   635106   556739   421191   231384   -24781  -271053  -410899 
 -491569  -546093  -538177  -556570  -594083  -415660  -174065  -298136 
 -504001  -346079  -146833   -78809   142113   406497   515296   557868 
  548292   447025   237672   -65385  -301503  -355411  -283226  -173268 
  -85307   -56531   -97627  -124306   -32180    86869    98910    24613 
   -8241   127934   289467   284276   244790   228229   155199   123640 
  140885    84408    -8685   -96916  -244129  -376827  -375027  -309581 
 -257708  -234712  -276180  -335931  -317790  -192964   -45146    65798 
  174592   220837   214660   253227   231518   147703   131594   135910 
  146600   183065   180065   140811    94446    51674    45232    56447 
   52385    40661    -1261   -63267   -70519   -61368  -129777  -220432 
 -253119  -240160  -190401  -103611    17186   152650   257421   327395 
  346337   308708   249960   117645   -41423   -59892     7234    50031 
  103665   134998    97597    62116    47586    13158   -24248   -64571 
 -125027  -175756  -191129  -219748  -307320  -343627  -262170  -164663 
  -88129   -13893    84020   195945   229822   233280   268996   250171 
  199487   135516     2375  -122622  -212124  -290988  -306229  -254112 
 -144275    13487   171647   262705   227833   160363   160880   160049 
  142335   143591   124411    54438   -80011  -224709  -292572  -320383 
 -346210  -304306  -202468  -136240  -117695   -96965   -37654    48812 
  138272   250539   313706   260707   175173   108432    63403    40341 
   20706    -8676   -62365  -108733  -102840   -30727    80317   152894 
  178547   220665   285693   308426   249773   164616    87199     -222 
  -67358  -138206  -270360  -376867  -373276  -319202  -279854  -263569 
 -264109  -245801  -163829   -41843    72884   199237   355376   497600 
  587774   629424   586773   417130   216950    75436   -48959  -160102 
 -266762  -421820  -555368  -551628  -386785  -160543   -67116  -122671 
  -96914    91089   231946   247214   279333   297360   238120   173104 
   92898    33664    28139   -30473  -114260  -109715   -43568    38548 
  167473   295631   263829    97550   -40435  -152652  -215550  -178880 
 -185666  -276405  -332838  -351764  -337646  -256701  -161455   -79629 
   37540   165912   229027   265263   324263   346354   308580   247920 
  188763   119950    54209    38630     7241   -70966   -87888   -40177 
   -8319     2387     4148   -29393   -81866   -75438   -28314   -39633 
  -97329  -134833  -147314  -150779  -171152  -176633   -86878    36970 
  104595   151938   183762   198938   243091   291737   301034   245900 
  110895   -44201  -162467  -235124  -260134  -284061  -289570  -216770 
 -142143  -110426   -77963   -29277    47725   107784   132380   168277 
  169339   139311   162135   187807   190302   232114   244372   168477 
   88913    31564   -55248  -158649  -235957  -305577  -352333  -307559 
 -223222  -178611  -154637  -148406  -127425   -38715    66790   164746 
  294173   421781   507829   572297   600446   535914   405112   312086 
  264310   171776    18543  -144991  -289717  -391370  -444147  -418635 
 -260239   -97341  -109831  -185100  -156696   -81052   -47267   -81337 
 -119119   -62216      557   -12413    -2248    24642    -1599    -1594 
   70486   142049   178176   173173   102090    -4961   -82754  -123128 
 -147043  -162945  -169904  -144166   -71143    24785    98837   137610 
  191281   280882   345662   312325   166948     4562   -74788  -111857 
 -170900  -192855  -131878   -37767    48505    50869   -58803  -116114 
