Origin Time       2011/03/11 14:46:00
Lat.              38.103
Long.             142.860
Depth. (km)       24
Mag.              9.0
Station Code      ISK005
Station Lat.      37.2309
Station Long.     136.9041
Station Height(m) 3
Record Time       2011/03/11 14:48:03
Sampling Freq(Hz) 100Hz
Duration Time(s)  223
Dir.              N-S
Scale Factor      3920(gal)/6182761
Max. Acc. (gal)   6.156
Last Correction   2011/03/11 14:47:48
Memo.             
[...]
  -54524   -54695   -54900   -55154   -55439   -55735   -56024   -56285 
  -56491   -56629   -56710   -56744   -56733   -56690   -56615   -56496 
  -56364   -56239   -56089   -55915   -55731   -55537   -55342   -55146 
  -54942   -54721   -54475   -54205   -53919   -53615   -53285   -52941 
  -52593   -52230   -51862   -51507   -51173   -50868   -50605   -50382 
  -50212   -50093   -49971   -49839   -49769   -49767   -49819   -49949 
  -50152   -50400   -50690   -51024   -51372   -51725   -52112   -52530 
  -52928   -53294   -53662   -54030   -54381   -54756   -55188   -55651 
  -56137   -56652   -57168   -57667   -58152   -58602   -59000   -59358 
  -59668   -59917   -60118   -60270   -60372   -60440   -60471   -60434 
  -60331   -60173   -59937   -59630   -59267   -58843   -58384   -57915 
  -57435   -56951   -56470   -56018   -55601   -55212   -54868   -54576 
  -54343   -54177   -54065   -54000   -53960   -53929   -53910   -53875 
  -53799   -53666   -53456   -53173   -52854   -52548   -52284   -52044 
  -51800   -51558   -51350   -51186   -51066   -50972   -50864   -50756 
  -50703   -50723   -50815   -50989   -51240   -51545   -51899   -52297 
  -52729   -53203   -53720   -54268   -54821   -55343   -55804   -56174 
  -56451   -56635   -56735   -56776   -56743   -56667   -56599   -56514 
  -56416   -56319   -56189   -56033   -55857   -55637   -55385   -55098 
  -54769   -54459   -54204   -53991   -53852   -53789   -53764   -53787 
  -53852   -53928   -54015   -54121   -54239   -54344   -54415   -54461 
  -54481   -54481   -54486   -54473   -54406   -54298   -54158   -54005 
  -53901   -53866   -53856   -53854   -53863   -53874   -53900   -53947 
  -53974   -53998   -54041   -54078   -54136   -54225   -54317   -54416 
  -54522   -54610   -54651   -54618   -54514   -54373   -54209   -54043 
  -53917   -53831   -53779   -53791   -53874   -54012   -54179   -54367 
  -54582   -54777   -54944   -55108   -55239   -55349   -55478   -55602 
  -55698   -55735   -55679   -55548   -55369   -55171   -54997   -54857 
  -54736   -54632   -54563   -54534   -54526   -54539   -54571   -54587 
  -54579   -54572   -54582   -54611   -54663   -54739   -54808   -54870 
  -54959   -55054   -55136   -55221   -55299   -55366   -55403   -55397 
  -55365   -55288   -55161   -55002   -54809   -54613   -54458   -54343 
  -54257   -54206   -54185   -54189   -54229   -54281   -54327   -54382 
  -54422   -54436   -54434   -54393   -54314   -54201   -54046   -53850 
  -53615   -53344   -53041   -52714   -52373   -52052   -51781   -51563 
  -51409   -51325   -51302   -51340   -51431   -51552   -51660   -51760 
  -51871   -51973   -52085   -52215   -52358   -52524   -52692   -52865 
  -53051   -53243   -53450   -53668   -53889   -54098   -54297   -54523 
  -54746   -54956   -55194   -55447   -55696   -55945   -56172   -56339 
  -56440   -56465   -56387   -56218   -55968   -55662   -55332   -54971 
  -54583   -54178   -53768   -53367   -52987   -52641   -52329   -52056 
  -51812   -51607   -51443   -51284   -51133   -50998   -50893   -50848 
  -50862   -50969   -51208   -51570   -52041   -52575   -53114   -53616 
  -54076   -54498   -54845   -55106   -55296   -55395   -55402   -55348 
  -55247   -55132   -55034   -54941   -54855   -54776   -54696   -54628 
  -54572   -54539   -54529   -54506   -54484   -54451   -54342   -54165 
  -53959   -53746   -53548   -53367   -53201   -53050   -52884   -52672 
  -52397   -52055   -51680   -51304   -50938   -50582   -50255   -50008 
  -49875   -49876   -50013   -50267   -50636   -51077   -51552   -52063 
  -52611   -53209   -53846   -54463   -55029   -55532   -55970   -56354 
  -56681   -56943   -57159   -57329   -57452   -57563   -57664   -57726 
  -57734   -57675   -57578   -57488   -57394   -57284   -57163   -57041 
  -56953   -56927   -56926   -56891   -56816   -56705   -56560   -56379 
  -56135   -55832   -55485   -55100   -54705   -54336   -54011   -53690 
  -53348   -52981   -52592   -52236   -51954   -51730   -51543   -51368 
  -51201   -51060   -50949   -50880   -50860   -50884   -50954   -51052 
  -51162   -51310   -51516   -51755   -51988   -52220   -52457   -52670 
  -52857   -53002   -53100   -53177   -53221   -53220   -53191   -53144 
  -53099   -53081   -53091   -53138   -53232   -53349   -53473   -53616 
  -53752   -53874   -53993   -54072   -54090   -54062   -54008   -53958 
  -53932   -53906   -53854   -53761   -53580   -53313   -53015   -52718 
  -52418   -52091   -51719   -51318   -50926   -50589   -50311   -50088 
  -49949   -49887   -49882   -49934   -50036   -50167   -50299   -50421 
  -50546   -50685   -50841   -50996   -51142   -51310   -51521   -51757 
  -51998   -52251   -52538   -52864   -53190   -53485   -53753   -53975 
  -54147   -54287   -54425   -54603   -54820   -55017   -55173   -55296 
  -55413   -55554   -55690   -55797   -55882   -55930   -55964   -55992 
  -55967   -55885   -55772   -55653   -55562   -55475   -55358   -55226 
  -55103   -54995   -54880   -54715   -54469   -54142   -53759   -53336 
  -52878   -52399   -51926   -51475   -51057   -50706   -50421   -50194 
  -50031   -49911   -49840   -49830   -49861   -49923   -50029   -50168 
  -50288   -50397   -50537   -50697   -50874   -51083   -51293   -51503 
  -51758   -52047   -52333   -52633   -52964   -53318   -53673   -54019 
  -54365   -54713   -55049   -55369   -55687   -56010   -56319   -56605 
  -56878   -57137   -57362   -57532   -57646   -57710   -57732   -57726 
  -57704   -57656   -57552   -57375   -57160   -56946   -56737   -56524 
  -56318   -56147   -56002   -55856   -55691   -55480   -55223   -54924 
  -54580   -54208   -53805   -53362   -52885   -52376   -51850   -51310 
  -50786   -50336   -49974   -49694   -49489   -49334   -49214   -49135 
  -49102   -49128   -49215   -49358   -49553   -49784   -50053   -50370 
  -50744   -51183   -51636   -52057   -52453   -52839   -53221   -53578 
  -53871   -54095   -54266   -54394   -54502   -54612   -54728   -54846 
  -54954   -55061   -55176   -55309   -55493   -55704   -55880   -56023 
  -56149   -56253   -56338   -56406   -56461   -56498   -56533   -56618 
  -56730   -56805   -56832   -56809   -56743   -56658   -56539   -56355 
  -56109   -55827   -55504   -55130   -54711   -54250   -53783   -53361 
  -52986   -52657   -52376   -52147   -51984   -51867   -51784   -51731 
  -51689   -51674   -51704   -51768   -51826   -51859   -51891   -51931 
  -51990   -52075   -52164   -52235   -52277   -52319   -52382   -52447 
  -52494   -52515   -52512   -52491   -52476   -52474   -52469   -52459 
  -52446   -52468   -52543   -52651   -52780   -52920   -53105   -53365 
  -53662   -53970   -54283   -54627   -55010   -55362   -55656   -55890 
  -56040   -56107   -56125   -56114   -56030   -55854   -55649   -55454 
  -55258   -55017   -54701   -54347   -53997   -53706   -53532   -53457 
  -53444   -53505   -53658   -53904   -54231   -54595   -54946   -55268 
  -55577   -55880   -56155   -56385   -56558   -56673   -56746   -56785 
  -56760   -56665   -56573   -56508   -56419   -56325   -56253   -56195 
  -56159   -56146   -56143   -56125   -56055   -55960   -55893   -55862 
  -55879   -55923   -55936   -55901   -55852   -55837   -55834   -55785 
  -55723   -55700   -55701   -55695   -55713   -55763   -55812   -55834 
  -55802   -55773   -55814   -55875   -55936   -56027   -56121   -56213 
  -56293   -56322   -56314   -56286   -56216   -56107   -55977   -55834 
  -55701   -55561   -55386   -55208   -55060   -54927   -54815   -54756 
  -54729   -54713   -54723   -54741   -54800   -54917   -54996   -55027 
  -55056   -55057   -55013   -54950   -54886   -54798   -54670   -54505 
  -54295   -54072   -53854   -53616   -53352   -53051   -52765   -52562 
  -52396   -52263   -52206   -52246   -52412   -52659   -52914   -53226 
  -53622   -54014   -54397   -54824   -55276   -55754   -56205   -56525 
  -56752   -56992   -57200   -57276   -57270   -57267   -57266   -57248 
  -57188   -57075   -56935   -56750   -56485   -56142   -55760   -55396 
  -55010   -54554   -54091   -53668   -53278   -52868   -52410   -51935 
  -51437   -50950   -50522   -50138   -49790   -49463   -49152   -48879 
  -48666   -48469   -48230   -47949   -47632   -47304   -46964   -46589 
  -46240   -45954   -45746   -45624   -45554   -45553   -45615   -45763 
  -46049   -46404   -46776   -47217   -47751   -48287   -48752   -49245 
  -49807   -50334   -50829   -51337   -51831   -52317   -52809   -53304 
  -53798   -54279   -54723   -55119   -55511   -55898   -56254   -56624 
  -56969   -57221   -57407   -57553   -57663   -57701   -57637   -57514 
  -57347   -57107   -56813   -56499   -56111   -55613   -55052   -54477 
  -53908   -53322   -52699   -52111   -51593   -51118   -50703   -50339 
  -49994   -49693   -49460   -49267   -49073   -48864   -48650   -48468 
  -48336   -48214   -48090   -47998   -47962   -47982   -48060   -48183 
  -48319   -48485   -48727   -49040   -49410   -49834   -50288   -50754 
  -51214   -51657   -52112   -52595   -53080   -53546   -54007   -54471 
  -54912   -55311   -55664   -55976   -56253   -56448   -56541   -56566 
  -56523   -56420   -56277   -56072   -55794   -55468   -55102   -54697 
  -54264   -53803   -53335   -52876   -52417   -51977   -51579   -51241 
  -50995   -50841   -50754   -50736   -50795   -50905   -51031   -51198 
  -51416   -51636   -51820   -51969   -52072   -52102   -52074   -52002 
  -51900   -51820   -51771   -51750   -51763   -51801   -51888   -52036 
  -52250   -52545   -52906   -53310   -53778   -54296   -54792   -55238 
  -55631   -55966   -56251   -56471   -56627   -56709   -56688   -56574 
  -56384   -56124   -55806   -55466   -55106   -54720   -54305   -53836 
  -53363   -52915   -52470   -52053   -51680   -51367   -51122   -50940 
  -50762   -50560   -50430   -50323   -50196   -50145   -50130   -50112 
  -50111   -50130   -50186   -50282   -50443   -50664   -50971   -51393 
  -51849   -52318   -52786   -53233   -53679   -54077   -54428   -54777 
  -55111   -55401   -55635   -55853   -56044   -56194   -56364   -56538 
  -56719   -56951   -57175   -57360   -57508   -57590   -57593   -57507 
  -57360   -57139   -56838   -56517   -56144   -55708   -55268   -54830 
  -54438   -54092   -53787   -53576   -53411   -53254   -53110   -52957 
  -52814   -52677   -52545   -52456   -52410   -52403   -52429   -52504 
  -52639   -52821   -53065   -53336   -53605   -53909   -54218   -54502 
  -54756   -54958   -55164   -55380   -55590   -55837   -56092   -56350 
  -56619   -56827   -57016   -57224   -57387   -57521   -57633   -57697 
  -57706   -57632   -57480   -57296   -57101   -56899   -56759   -56706 
  -56658   -56617   -56611   -56614   -56640   -56671   -56658   -56590 
  -56482   -56324   -56123   -55937   -55768   -55609   -55498   -55420 
  -55373   -55404   -55496   -55618   -55774   -55947   -56138   -56366 
  -56624   -56934   -57258   -57548   -57843   -58117   -58363   -58622 
  -58815   -58932   -59011   -59001   -58904   -58753   -58535   -58226 
  -57873   -57523   -57143   -56755   -56373   -55967   -55580   -55218 
  -54890   -54628   -54425   -54311   -54255   -54224   -54283   -54402 
  -54513   -54647   -54800   -54945   -55087   -55244   -55408   -55522 
  -55574   -55584   -55523   -55388   -55194   -54973   -54748   -54518 
  -54315   -54113   -53881   -53669   -53484   -53350   -53283   -53260 
  -53298   -53352   -53415   -53526   -53623   -53719   -53836   -53895 
  -53927   -53924   -53842   -53740   -53600   -53440   -53305   -53175 
  -53097   -53071   -53077   -53135   -53232   -53414   -53689   -54034 
  -54469   -54934   -55429   -55961   -56458   -56943   -57399   -57769 
  -58093   -58368   -58621   -58897   -59155   -59427   -59729   -59994 
  -60233   -60417   -60512   -60557   -60505   -60402   -60290   -60099 
  -59910   -59713   -59450   -59186   -58854   -58479   -58119   -57705 
  -57306   -56938   -56558   -56203   -55807   -55378   -54957   -54494 
  -54055   -53642   -53226   -52898   -52620   -52391   -52269   -52186 
  -52176   -52235   -52298   -52444   -52602   -52740   -52930   -53086 
  -53286   -53557   -53800   -54144   -54548   -54938   -55407   -55839 
  -56247   -56699   -57093   -57520   -57956   -58288   -58588   -58777 
  -58861   -58939   -58892   -58801   -58748   -58632   -58555   -58494 
  -58364   -58264   -58107   -57886   -57696   -57409   -57077   -56738 
  -56285   -55869   -55491   -55070   -54761   -54496   -54248   -54110 
  -53959   -53842   -53802   -53717   -53706   -53737   -53702   -53735 
  -53775   -53798   -53940   -54097   -54316   -54687   -55024   -55407 
  -55861   -56192   -56536   -56877   -57046   -57206   -57315   -57280 
  -57279   -57240   -57155   -57156   -57096   -57024   -57032   -56968 
  -56934   -56948   -56862   -56808   -56745   -56592   -56504   -56388 
  -56210   -56104   -55956   -55801   -55731   -55604   -55463   -55336 
  -55092   -54813   -54494   -54041   -53564   -53026   -52395   -51820 
  -51228   -50647   -50255   -49985   -49869   -49973   -50165   -50480 
  -50945   -51454   -52071   -52734   -53328   -53956   -54543   -55021 
  -55521   -55960   -56328   -56753   -57113   -57431   -57813   -58118 
  -58400   -58714   -58918   -59110   -59315   -59416   -59533   -59657 
  -59713   -59819   -59913   -59942   -60010   -59997   -59878   -59753 
  -59502   -59168   -58825   -58311   -57702   -57093   -56357   -55606 
  -54897   -54098   -53345   -52666   -51918   -51217   -50547   -49758 
  -48968   -48173   -47300   -46494   -45803   -45243   -44936   -44801 
  -44755   -44895   -45181   -45576   -46150   -46775   -47380   -48071 
  -48759   -49398   -50095   -50783   -51445   -52154   -52826   -53483 
  -54227   -54973   -55710   -56489   -57211   -57896   -58601   -59211 
  -59760   -60261   -60598   -60880   -61148   -61344   -61552   -61664 
  -61626   -61560   -61379   -61082   -60729   -60253   -59764   -59292 
  -58774   -58255   -57671   -57021   -56343   -55586   -54824   -54065 
  -53263   -52514   -51863   -51305   -50860   -50523   -50264   -50074 
  -49964   -49897   -49876   -49929   -50032   -50176   -50368   -50642 
  -50980   -51318   -51654   -51987   -52309   -52613   -52924   -53275 
  -53608   -53912   -54225   -54529   -54829   -55120   -55396   -55669 
  -55923   -56160   -56402   -56646   -56884   -57129   -57382   -57633 
  -57880   -58108   -58275   -58348   -58327   -58227   -58073   -57892 
  -57692   -57488   -57248   -56949   -56647   -56312   -55897   -55449 
  -54982   -54491   -54008   -53561   -53157   -52801   -52498   -52255 
  -52059   -51902   -51812   -51818   -51886   -52012   -52227   -52486 
  -52736   -52992   -53247   -53478   -53716   -53970   -54223   -54474 
  -54706   -54920   -55140   -55360   -55597   -55856   -56111   -56364 
  -56625   -56893   -57165   -57415   -57608   -57750   -57859   -57901 
  -57882   -57835   -57715   -57538   -57345   -57091   -56782   -56443 
  -56061   -55672   -55274   -54858   -54480   -54103   -53695   -53338 
  -53043   -52807   -52672   -52606   -52552   -52480   -52411   -52335 
  -52206   -52091   -52010   -51937   -51893   -51874   -51898   -51936 
  -51993   -52084   -52124   -52132   -52135   -52130   -52169   -52217 
  -52341   -52549   -52730   -53004   -53356   -53693   -54107   -54517 
  -54877   -55218   -55471   -55700   -55881   -55953   -56052   -56151 
  -56193   -56239   -56221   -56164   -56129   -56057   -55991   -55919 
  -55865   -55903   -55888   -55790   -55680   -55518   -55316   -55058 
  -54772   -54513   -54270   -54088   -53907   -53695   -53517   -53328 
  -53159   -53021   -52861   -52736   -52633   -52525   -52423   -52314 
  -52251   -52199   -52109   -52005   -51888   -51807   -51791   -51812 
  -51883   -52016   -52179   -52345   -52529   -52741   -52981   -53249 
  -53512   -53768   -54028   -54295   -54567   -54812   -55072   -55355 
  -55597   -55835   -56042   -56165   -56244   -56253   -56213   -56145 
  -56024   -55941   -55887   -55847   -55869   -55853   -55804   -55781 
  -55750   -55792   -55867   -55889   -55925   -55929   -55893   -55846 
  -55677   -55479   -55339   -55137   -54934   -54760   -54546   -54341 
  -54104   -53851   -53640   -53402   -53179   -52988   -52776   -52599 
  -52421   -52224   -52050   -51886   -51823   -51885   -52005   -52239 
  -52543   -52878   -53286   -53662   -54049   -54498   -54872   -55230 
  -55602   -55918   -56267   -56581   -56833   -57138   -57394   -57609 
  -57861   -58036   -58201   -58364   -58415   -58467   -58491   -58444 
  -58462   -58445   -58350   -58300   -58192   -58036   -57920   -57733 
  -57521   -57320   -57019   -56694   -56323   -55840   -55371   -54878 
  -54321   -53828   -53364   -52911   -52523   -52110   -51685   -51334 
  -50960   -50561   -50219   -49870   -49570   -49359   -49129   -48965 
  -48902   -48874   -48968   -49150   -49385   -49779   -50262   -50792 
  -51436   -52092   -52711   -53363   -53978   -54532   -55081   -55550 
  -55941   -56326   -56651   -56931   -57202   -57392   -57517   -57584 
  -57529   -57399   -57224   -56968   -56693   -56433   -56135   -55833 
  -55533   -55194   -54894   -54644   -54414   -54277   -54191   -54114 
  -54120   -54155   -54176   -54216   -54233   -54241   -54267   -54221 
  -54125   -54065   -53997   -53944   -53931   -53887   -53853   -53824 
  -53761   -53733   -53705   -53677   -53676   -53606   -53548   -53574 
  -53608   -53728   -53903   -54061   -54281   -54500   -54702   -54950 
  -55217   -55546   -55889   -56190   -56487   -56728   -56935   -57131 
  -57242   -57318   -57356   -57335   -57304   -57196   -57005   -56785 
  -56520   -56259   -56007   -55741   -55492   -55245   -55025   -54836 
  -54629   -54447   -54295   -54156   -54091   -54074   -54103   -54184 
  -54232   -54271   -54323   -54348   -54425   -54542   -54654   -54793 
  -54887   -54942   -55008   -55008   -54956   -54867   -54713   -54577 
  -54450   -54303   -54209   -54109   -53996   -53963   -53939   -53925 
  -53991   -54051   -54119   -54232   -54320   -54446   -54645   -54832 
  -55021   -55215   -55358   -55479   -55575   -55584   -55538   -55477 
  -55381   -55256   -55114   -54929   -54689   -54425   -54150   -53844 
  -53538   -53278   -53043   -52845   -52719   -52616   -52503   -52400 
  -52290   -52154   -52017   -51882   -51743   -51649   -51616   -51593 
  -51583   -51617   -51673   -51739   -51855   -52007   -52143   -52287 
  -52479   -52691   -52927   -53231   -53563   -53885   -54248   -54612 
  -54954   -55349   -55750   -56134   -56551   -56913   -57219   -57512 
  -57714   -57865   -57972   -57970   -57951   -57917   -57850   -57808 
  -57712   -57562   -57411   -57223   -56984   -56686   -56355   -56005 
  -55637   -55286   -54934   -54547   -54121   -53668   -53212   -52768 
  -52350   -51925   -51487   -51085   -50695   -50316   -49953   -49577 
  -49180   -48755   -48339   -47954   -47596   -47320   -47150   -47095 
  -47165   -47351   -47644   -48019   -48440   -48874   -49311   -49746 
  -50162   -50568   -50973   -51370   -51757   -52149   -52544   -52930 
  -53303   -53651   -53977   -54314   -54645   -54969   -55305   -55630 
  -55932   -56217   -56470   -56697   -56921   -57137   -57353   -57614 
  -57932   -58276   -58611   -58915   -59194   -59454   -59686   -59893 
  -60064   -60177   -60226   -60221   -60172   -60065   -59875   -59619 
  -59341   -59054   -58756   -58475   -58199   -57892   -57557   -57192 
