Origin Time       2011/03/11 14:46:00
Lat.              38.103
Long.             142.860
Depth. (km)       24
Mag.              9.0
Station Code      ISK002
Station Lat.      37.4473
Station Long.     137.2877
Station Height(m) 4
Record Time       2011/03/11 14:48:02
Sampling Freq(Hz) 100Hz
Duration Time(s)  300
Dir.              E-W
Scale Factor      3920(gal)/6182761
Max. Acc. (gal)   17.705
Last Correction   2011/03/11 14:47:47
Memo.             
[...]
  -58156   -58731   -59426   -60192   -61054   -61890   -62589   -63187 
  -63725   -64128   -64361   -64559   -64806   -65038   -65205   -65302 
  -65281   -65117   -64877   -64565   -64114   -63628   -63291   -63053 
  -62821   -62657   -62565   -62460   -62317   -62176   -62063   -62011 
  -62095   -62344   -62704   -63066   -63365   -63658   -63935   -64057 
  -63999   -63856   -63710   -63610   -63528   -63409   -63209   -62932 
  -62649   -62296   -61784   -61221   -60690   -60158   -59706   -59507 
  -59530   -59591   -59630   -59656   -59668   -59701   -59710   -59582 
  -59328   -59053   -58750   -58333   -57803   -57204   -56484   -55613 
  -54694   -53807   -52927   -52050   -51222   -50450   -49777   -49221 
  -48619   -47905   -47252   -46721   -46236   -45881   -45782   -45879 
  -46092   -46432   -46803   -47016   -47080   -47174   -47336   -47517 
  -47773   -48093   -48349   -48528   -48682   -48796   -48866   -48881 
  -48838   -48790   -48792   -48912   -49171   -49475   -49737   -49946 
  -50149   -50364   -50519   -50589   -50620   -50588   -50426   -50122 
  -49707   -49158   -48443   -47737   -47284   -47056   -46867   -46727 
  -46717   -46721   -46646   -46577   -46500   -46314   -46121   -46099 
  -46213   -46413   -46855   -47539   -48167   -48634   -49079   -49419 
  -49497   -49428   -49350   -49237   -49146   -49220   -49444   -49713 
  -49972   -50192   -50368   -50456   -50380   -50262   -50339   -50557 
  -50665   -50732   -50956   -51217   -51350   -51475   -51720   -52035 
  -52434   -52977   -53567   -54116   -54559   -54706   -54546   -54322 
  -54121   -53854   -53611   -53597   -53850   -54273   -54785   -55371 
  -56019   -56708   -57402   -58021   -58516   -58879   -59132   -59381 
  -59660   -59859   -59982   -60145   -60206   -59982   -59633   -59267 
  -58810   -58369   -58018   -57620   -57081   -56379   -55482   -54418 
  -53344   -52389   -51542   -50756   -50008   -49288   -48584   -47963 
  -47563   -47329   -47050   -46751   -46586   -46515   -46456   -46487 
  -46688   -46948   -47096   -47143   -47153   -47096   -46947   -46669 
  -46196   -45603   -45066   -44633   -44230   -43827   -43451   -43146 
  -42961   -42906   -42997   -43273   -43650   -43962   -44225   -44553 
  -44920   -45275   -45711   -46291   -46910   -47459   -47924   -48360 
  -48804   -49190   -49471   -49686   -49846   -50019   -50355   -50847 
  -51365   -51899   -52528   -53201   -53764   -54187   -54565   -54910 
  -55241   -55658   -56107   -56530   -57088   -57803   -58435   -58969 
  -59646   -60318   -60636   -60727   -60853   -60894   -60691   -60436 
  -60342   -60302   -60197   -60087   -60062   -60169   -60362   -60601 
  -60903   -61270   -61744   -62337   -62986   -63689   -64462   -65298 
  -66168   -66990   -67762   -68525   -69290   -70147   -71089   -71925 
  -72591   -73189   -73768   -74332   -74910   -75439   -75810   -76064 
  -76268   -76419   -76583   -76820   -77124   -77570   -78214   -78962 
  -79685   -80293   -80694   -80864   -80845   -80654   -80309   -79842 
  -79374   -79118   -79065   -78943   -78662   -78343   -77929   -77262 
  -76326   -75161   -73796   -72243   -70542   -68833   -67157   -65490 
  -63947   -62576   -61376   -60413   -59552   -58640   -57855   -57333 
  -56919   -56505   -56154   -55940   -55820   -55633   -55348   -55127 
  -55029   -54912   -54687   -54472   -54431   -54467   -54412   -54355 
  -54387   -54397   -54317   -54130   -53819   -53450   -53055   -52599 
  -52110   -51660   -51230   -50675   -49986   -49342   -48776   -48112 
  -47263   -46323   -45350   -44300   -43214   -42211   -41381   -40761 
  -40340   -40073   -39842   -39496   -39063   -38688   -38433   -38332 
  -38429   -38690   -39069   -39569   -40139   -40667   -41092   -41416 
  -41594   -41619   -41642   -41703   -41631   -41401   -41187   -41105 
  -41131   -41195   -41303   -41475   -41608   -41613   -41569   -41514 
  -41366   -41078   -40640   -40116   -39609   -39147   -38778   -38534 
  -38380   -38353   -38422   -38483   -38617   -38921   -39298   -39729 
  -40345   -41090   -41748   -42347   -43152   -44224   -45453   -46879 
  -48514   -50182   -51697   -52979   -54098   -55132   -55993   -56621 
  -57152   -57672   -58092   -58376   -58611   -58835   -58984   -58982 
  -58816   -58590   -58421   -58343   -58352   -58421   -58525   -58670 
  -58811   -58973   -59278   -59674   -60020   -60369   -60811   -61247 
  -61521   -61680   -61783   -61687   -61387   -61102   -60908   -60696 
  -60371   -59956   -59527   -59114   -58658   -58095   -57563   -57190 
  -56812   -56318   -55861   -55526   -55280   -55178   -55225   -55233 
  -55089   -54847   -54506   -54074   -53729   -53571   -53485   -53453 
  -53565   -53670   -53524   -53222   -53056   -53012   -52932   -53024 
  -53449   -53985   -54537   -55213   -55978   -56694   -57323   -57886 
  -58378   -58870   -59395   -59780   -60029   -60447   -61100   -61700 
  -62140   -62660   -63336   -63943   -64363   -64695   -65042   -65407 
  -65766   -66189   -66746   -67305   -67725   -68083   -68452   -68775 
  -69019   -69201   -69395   -69684   -70057   -70436   -70761   -71055 
  -71310   -71388   -71202   -70777   -70191   -69593   -69116   -68820 
  -68681   -68579   -68472   -68437   -68495   -68563   -68519   -68331 
  -68059   -67654   -67065   -66454   -65963   -65630   -65547   -65670 
  -65767   -65715   -65463   -64964   -64256   -63338   -62255   -61170 
  -60171   -59254   -58420   -57702   -57096   -56472   -55630   -54517 
  -53409   -52620   -52160   -52011   -52232   -52724   -53289   -53787 
  -54109   -54159   -53954   -53619   -53274   -53115   -53364   -54001 
  -54754   -55412   -55976   -56496   -56992   -57560   -58258   -58891 
  -59223   -59228   -59072   -59067   -59429   -60088   -60780   -61225 
  -61378   -61457   -61661   -62002   -62435   -62925   -63346   -63542 
  -63540   -63535   -63609   -63608   -63488   -63429   -63404   -63200 
  -62789   -62253   -61671   -61083   -60391   -59550   -58714   -58041 
  -57570   -57340   -57457   -57907   -58476   -59057   -59659   -60117 
  -60271   -60190   -60042   -60009   -60208   -60468   -60459   -60130 
  -59655   -59145   -58707   -58459   -58370   -58270   -58011   -57543 
  -56780   -55663   -54372   -53098   -51838   -50546   -49244   -48039 
  -46963   -45937   -45022   -44292   -43610   -42844   -41993   -41098 
  -40131   -39051   -37822   -36376   -34812   -33382   -32126   -30975 
  -30004   -29291   -28798   -28470   -28287   -28264   -28491   -29019 
  -29686   -30330   -30989   -31723   -32600   -33649   -34736   -35766 
  -36738   -37638   -38554   -39621   -40840   -42180   -43662   -45247 
  -46886   -48554   -50165   -51642   -52977   -54174   -55288   -56370 
  -57367   -58301   -59287   -60313   -61309   -62296   -63285   -64238 
  -65165   -66089   -66962   -67719   -68253   -68472   -68580   -68860 
  -69272   -69655   -69941   -70079   -70072   -69945   -69722   -69428 
  -69094   -68797   -68520   -68110   -67591   -67119   -66777   -66629 
  -66677   -66790   -66797   -66594   -66144   -65395   -64335   -62985 
  -61338   -59493   -57718   -56227   -55052   -54084   -53132   -52016 
  -50713   -49305   -47868   -46497   -45315   -44437   -43799   -43179 
  -42522   -41865   -41138   -40367   -39676   -39066   -38468   -37833 
  -37133   -36404   -35727   -35159   -34722   -34425   -34275   -34270 
  -34390   -34577   -34748   -34889   -35089   -35436   -35901   -36336 
  -36687   -37130   -37790   -38577   -39445   -40484   -41704   -42995 
  -44293   -45553   -46686   -47664   -48505   -49185   -49737   -50284 
  -50868   -51436   -52032   -52763   -53556   -54318   -55123   -55995 
  -56859   -57656   -58277   -58645   -58864   -59035   -59112   -59074 
  -59016   -58966   -58872   -58802   -58820   -58797   -58623   -58364 
  -58102   -57808   -57443   -57050   -56663   -56284   -55947   -55637 
  -55258   -54839   -54591   -54599   -54760   -55022   -55358   -55650 
  -55868   -56109   -56323   -56381   -56359   -56370   -56385   -56408 
  -56518   -56711   -56907   -57108   -57379   -57752   -58248   -58837 
  -59478   -60166   -60898   -61696   -62532   -63284   -63925   -64516 
  -65097   -65734   -66441   -67153   -67757   -68129   -68262   -68205 
  -68009   -67802   -67651   -67457   -67104   -66623   -66146   -65698 
  -65230   -64794   -64443   -64113   -63783   -63451   -63006   -62443 
  -61960   -61627   -61283   -60797   -60183   -59505   -58862   -58388 
  -58220   -58406   -58910   -59661   -60531   -61473   -62482   -63349 
  -63869   -64060   -64020   -63813   -63544   -63398   -63520   -64008 
  -64874   -65862   -66770   -67650   -68425   -68918   -69118   -69071 
  -68776   -68199   -67315   -66168   -64835   -63412   -62016   -60683 
  -59307   -57818   -56309   -54826   -53328   -51862   -50459   -49074 
  -47676   -46222   -44737   -43379   -42290   -41489   -40958   -40743 
  -40897   -41353   -41974   -42601   -43061   -43275   -43306   -43221 
  -43081   -42995   -43058   -43266   -43543   -43827   -44109   -44382 
  -44621   -44823   -45047   -45333   -45537   -45468   -45184   -44854 
  -44551   -44321   -44277   -44458   -44762   -45152   -45658   -46251 
  -46875   -47370   -47541   -47423   -47261   -47146   -46923   -46540 
  -46163   -45850   -45403   -44734   -43988   -43196   -42264   -41260 
  -40350   -39539   -38677   -37762   -36931   -36152   -35375   -34691 
  -34158   -33809   -33697   -33792   -34052   -34509   -35084   -35616 
  -36098   -36609   -37175   -37798   -38486   -39200   -39818   -40339 
  -40936   -41700   -42619   -43679   -44785   -45824   -46819   -47862 
  -48916   -49931   -51043   -52328   -53679   -55082   -56498   -57763 
  -58920   -60107   -61208   -62097   -62869   -63629   -64363   -65018 
  -65542   -65958   -66353   -66775   -67258   -67843   -68510   -69213 
  -69952   -70765   -71612   -72321   -72815   -73214   -73573   -73826 
  -73958   -74021   -74045   -73980   -73739   -73329   -72785   -72075 
  -71274   -70577   -69976   -69278   -68445   -67614   -66943   -66542 
  -66381   -66289   -66150   -65929   -65593   -65162   -64708   -64253 
  -63736   -63055   -62168   -61110   -59886   -58526   -57143   -55772 
  -54316   -52679   -50875   -48978   -47002   -44985   -43070   -41317 
  -39646   -38062   -36642   -35355   -34166   -33144   -32261   -31388 
  -30577   -29936   -29402   -28932   -28564   -28316   -28273   -28511 
  -29000   -29724   -30626   -31582   -32556   -33544   -34437   -35206 
  -35998   -36876   -37829   -38938   -40120   -41149   -42053   -42970 
  -43784   -44351   -44778   -45211   -45644   -46123   -46801   -47699 
  -48681   -49694   -50830   -52174   -53710   -55341   -56983   -58607 
  -60137   -61417   -62410   -63239   -63894   -64277   -64489   -64732 
  -65031   -65262   -65370   -65506   -65828   -66223   -66544   -66864 
  -67255   -67693   -68077   -68309   -68477   -68691   -68904   -69109 
  -69330   -69490   -69587   -69673   -69724   -69752   -69700   -69394 
  -68742   -67762   -66569   -65331   -64153   -63121   -62308   -61675 
  -61121   -60587   -60095   -59643   -59132   -58546   -57981   -57490 
  -57074   -56695   -56364   -56172   -56044   -55794   -55399   -54869 
  -54166   -53335   -52418   -51449   -50477   -49440   -48365   -47415 
  -46589   -45820   -45178   -44695   -44345   -44178   -44182   -44268 
  -44418   -44553   -44495   -44278   -44085   -43916   -43687   -43441 
  -43281   -43232   -43190   -43129   -43167   -43253   -43263   -43299 
  -43490   -43821   -44309   -45005   -45856   -46758   -47671   -48586 
  -49511   -50511   -51559   -52511   -53355   -54150   -54916   -55726 
  -56639   -57634   -58622   -59499   -60206   -60737   -61134   -61394 
  -61507   -61601   -61688   -61528   -61014   -60290   -59462   -58537 
  -57557   -56548   -55439   -54146   -52687   -51184   -49760   -48475 
  -47329   -46280   -45294   -44458   -43838   -43291   -42752   -42360 
  -42105   -41875   -41660   -41369   -40906   -40380   -39934   -39577 
  -39251   -38930   -38632   -38380   -38189   -38054   -37936   -37782 
  -37644   -37666   -37810   -37921   -38045   -38254   -38464   -38603 
  -38681   -38796   -39036   -39330   -39622   -39932   -40202   -40410 
  -40587   -40653   -40606   -40686   -40962   -41235   -41546   -42048 
  -42622   -43137   -43630   -44233   -45023   -45842   -46587   -47404 
  -48300   -49145   -49960   -50778   -51527   -52188   -52817   -53389 
  -53866   -54306   -54723   -55062   -55338   -55599   -55818   -55906 
  -55882   -55881   -55949   -56044   -56108   -56080   -55954   -55753 
  -55465   -55097   -54704   -54339   -53994   -53639   -53272   -52872 
  -52437   -52024   -51623   -51191   -50769   -50424   -50137   -49833 
  -49545   -49416   -49494   -49743   -50130   -50598   -51077   -51485 
  -51730   -51774   -51641   -51363   -50941   -50378   -49723   -49027 
  -48331   -47687   -47067   -46422   -45825   -45325   -44879   -44541 
  -44388   -44327   -44284   -44319   -44391   -44365   -44223   -44060 
  -43932   -43809   -43683   -43560   -43367   -43083   -42836   -42723 
  -42713   -42753   -42824   -42936   -43152   -43584   -44277   -45151 
  -46121   -47162   -48280   -49467   -50652   -51764   -52824   -53879 
  -54934   -56013   -57130   -58229   -59318   -60465   -61626   -62720 
  -63749   -64775   -65878   -67057   -68240   -69427   -70647   -71878 
  -73121   -74379   -75620   -76839   -78015   -79080   -79974   -80694 
  -81258   -81680   -81954   -82074   -82116   -82112   -81957   -81611 
  -81132   -80505   -79691   -78719   -77619   -76456   -75321   -74193 
  -73062   -72014   -71045   -70119   -69302   -68621   -68006   -67402 
  -66768   -66057   -65260   -64389   -63506   -62715   -62051   -61529 
  -61176   -60970   -60873   -60841   -60794   -60659   -60444   -60175 
  -59833   -59373   -58750   -57983   -57123   -56182   -55168   -54127 
  -53120   -52143   -51108   -50024   -48933   -47765   -46469   -45082 
  -43664   -42288   -40971   -39729   -38630   -37713   -36942   -36311 
  -35918   -35830   -36013   -36436   -37039   -37726   -38453   -39201 
  -39934   -40632   -41352   -42175   -43109   -44155   -45357   -46707 
  -48109   -49442   -50691   -51885   -52968   -53876   -54595   -55125 
  -55487   -55707   -55784   -55809   -55940   -56272   -56784   -57374 
  -57968   -58533   -58992   -59275   -59417   -59507   -59516   -59361 
  -59088   -58806   -58534   -58263   -57998   -57742   -57522   -57358 
  -57251   -57198   -57131   -56977   -56707   -56253   -55605   -54881 
  -54164   -53464   -52819   -52230   -51618   -50969   -50338   -49750 
  -49207   -48717   -48293   -47925   -47539   -47075   -46565   -46081 
  -45661   -45337   -45084   -44796   -44455   -44136   -43818   -43467 
  -43171   -42993   -42878   -42766   -42686   -42710   -42886   -43196 
  -43563   -43910   -44195   -44354   -44327   -44111   -43744   -43323 
  -42946   -42647   -42451   -42399   -42495   -42698   -42963   -43275 
  -43638   -44012   -44327   -44565   -44739   -44865   -44997   -45181 
  -45430   -45758   -46166   -46636   -47139   -47677   -48256   -48838 
  -49388   -49916   -50411   -50786   -50991   -51086   -51085   -50943 
  -50710   -50529   -50524   -50704   -51057   -51628   -52383   -53215 
  -54034   -54749   -55354   -55917   -56447   -56916   -57358   -57828 
  -58323   -58841   -59403   -60003   -60639   -61253   -61738   -62043 
  -62146   -62062   -61869   -61598   -61248   -60907   -60640   -60395 
  -60132   -59885   -59678   -59493   -59295   -59035   -58702   -58328 
  -57923   -57506   -57120   -56832   -56716   -56726   -56755   -56786 
  -56816   -56805   -56782   -56776   -56765   -56750   -56732   -56680 
  -56568   -56397   -56189   -55965   -55753   -55590   -55492   -55457 
  -55471   -55479   -55404   -55225   -54991   -54754   -54485   -54149 
  -53812   -53509   -53179   -52831   -52547   -52358   -52256   -52200 
  -52127   -52037   -51925   -51742   -51429   -50965   -50453   -49972 
  -49472   -48993   -48657   -48419   -48178   -47937   -47678   -47382 
  -47091   -46827   -46609   -46475   -46428   -46426   -46419   -46388 
  -46338   -46252   -46127   -46000   -45887   -45817   -45817   -45892 
  -46069   -46331   -46677   -47147   -47705   -48278   -48817   -49290 
  -49701   -50074   -50442   -50855   -51350   -51910   -52508   -53196 
  -54020   -54946   -55888   -56765   -57547   -58194   -58650   -58964 
  -59226   -59496   -59767   -59961   -60032   -60009   -59957   -59957 
  -60056   -60256   -60565   -60948   -61347   -61809   -62346   -62864 
  -63351   -63860   -64379   -64877   -65328   -65717   -66074   -66410 
  -66683   -66854   -66909   -66867   -66683   -66269   -65605   -64729 
  -63727   -62660   -61586   -60639   -59869   -59170   -58483   -57822 
  -57187   -56590   -56037   -55526   -55102   -54778   -54544   -54406 
  -54326   -54270   -54303   -54448   -54646   -54925   -55382   -56016 
  -56734   -57464   -58171   -58803   -59338   -59813   -60269   -60696 
  -61062   -61400   -61739   -62019   -62192   -62291   -62385   -62510 
  -62636   -62737   -62811   -62869   -62940   -62978   -62928   -62880 
  -62881   -62812   -62648   -62479   -62330   -62188   -62049   -61924 
  -61852   -61833   -61807   -61749   -61704   -61689   -61664   -61624 
  -61571   -61497   -61404   -61307   -61234   -61179   -61120   -61075 
  -61023   -60897   -60733   -60604   -60526   -60464   -60381   -60293 
  -60206   -60096   -59978   -59875   -59797   -59738   -59630   -59409 
  -59099   -58744   -58348   -57944   -57572   -57250   -56992   -56764 
  -56567   -56461   -56414   -56300   -56052   -55698   -55282   -54765 
  -54109   -53416   -52793   -52249   -51715   -51121   -50491   -49882 
  -49270   -48655   -48045   -47398   -46746   -46190   -45731   -45348 
  -45098   -45006   -45037   -45163   -45342   -45532   -45727   -45908 
  -46083   -46292   -46547   -46858   -47236   -47651   -48086   -48551 
  -49009   -49440   -49904   -50441   -51030   -51619   -52162   -52603 
  -52918   -53159   -53347   -53453   -53484   -53472   -53473   -53506 
  -53543   -53570   -53547   -53494   -53474   -53440   -53374   -53315 
  -53243   -53140   -53025   -52951   -52953   -52945   -52904   -52919 
  -52994   -53094   -53209   -53308   -53386   -53478   -53586   -53643 
  -53599   -53526   -53479   -53410   -53329   -53265   -53156   -52993 
  -52840   -52714   -52599   -52497   -52405   -52297   -52127   -51884 
  -51623   -51381   -51121   -50799   -50393   -49943   -49508   -49102 
  -48785   -48623   -48574   -48603   -48707   -48849   -49046   -49344 
  -49720   -50111   -50485   -50875   -51272   -51555   -51658   -51674 
  -51697   -51696   -51645   -51571   -51492   -51416   -51335   -51235 
  -51134   -51035   -50918   -50786   -50673   -50629   -50688   -50838 
  -51073   -51434   -51934   -52538   -53198   -53858   -54455   -55002 
  -55555   -56092   -56583   -57070   -57568   -58028   -58369   -58559 
  -58625   -58581   -58460   -58314   -58160   -58008   -57909   -57838 
  -57731   -57666   -57695   -57713   -57656   -57563   -57505   -57564 
  -57760   -57999   -58250   -58557   -58892   -59167   -59282   -59197 
  -59007   -58756   -58409   -58001   -57601   -57243   -56932   -56621 
  -56282   -55977   -55757   -55610   -55538   -55579   -55724   -55929 
