Origin Time       2011/03/11 14:46:00
Lat.              38.103
Long.             142.860
Depth. (km)       24
Mag.              9.0
Station Code      ISK002
Station Lat.      37.4473
Station Long.     137.2877
Station Height(m) 4
Record Time       2011/03/11 14:48:02
Sampling Freq(Hz) 100Hz
Duration Time(s)  300
Dir.              U-D
Scale Factor      3920(gal)/6182761
Max. Acc. (gal)   9.971
Last Correction   2011/03/11 14:47:47
Memo.             
[...]
  -57765   -58285   -58619   -59091   -59854   -60633   -61382   -62229 
  -62984   -63506   -63994   -64522   -64899   -65053   -65103   -65115 
  -65015   -64746   -64394   -64141   -64072   -63973   -63544   -62982 
  -62740   -62697   -62441   -62090   -61921   -61722   -61251   -60721 
  -60373   -60106   -59683   -59109   -58692   -58497   -58140   -57540 
  -57101   -56927   -56774   -56584   -56419   -56312   -56278   -56321 
  -56643   -57342   -57883   -57986   -58344   -59160   -59632   -59744 
  -60335   -61261   -61738   -61986   -62650   -63477   -63954   -64236 
  -64613   -64972   -65288   -65656   -65799   -65649   -65717   -66051 
  -66073   -65747   -65615   -65665   -65373   -64735   -64220   -63932 
  -63525   -62811   -62036   -61517   -61210   -60835   -60309   -59739 
  -59226   -58879   -58751   -58772   -58808   -58736   -58639   -58793 
  -59243   -59679   -59969   -60381   -61005   -61567   -62062   -62691 
  -63277   -63694   -64290   -65086   -65695   -66158   -66657   -67025 
  -67243   -67434   -67427   -67175   -66921   -66759   -66695   -66685 
  -66452   -65930   -65535   -65497   -65483   -65141   -64596   -64262 
  -64153   -63859   -63434   -63317   -63311   -62982   -62623   -62588 
  -62690   -62740   -62724   -62747   -62942   -63108   -62994   -62782 
  -62758   -62953   -63130   -63059   -62952   -63089   -63227   -63126 
  -63057   -63288   -63627   -63736   -63653   -63715   -64047   -64309 
  -64186   -64049   -64363   -64662   -64407   -64063   -64040   -63926 
  -63476   -62967   -62614   -62349   -61915   -61236   -60596   -60155 
  -59704   -59040   -58185   -57318   -56572   -55897   -55301   -54878 
  -54527   -54183   -53973   -53836   -53601   -53284   -52985   -52798 
  -52697   -52535   -52391   -52386   -52284   -52020   -51911   -51945 
  -51867   -51700   -51523   -51343   -51321   -51553   -51861   -52127 
  -52495   -53072   -53660   -54070   -54458   -54972   -55487   -55873 
  -56326   -57136   -58046   -58587   -58922   -59424   -59991   -60417 
  -60810   -61324   -61770   -61918   -62092   -62674   -63425   -64078 
  -64688   -65227   -65731   -66308   -66804   -67207   -67800   -68517 
  -68981   -69253   -69682   -70172   -70312   -70078   -69806   -69622 
  -69326   -68808   -68254   -67801   -67271   -66637   -66214   -66010 
  -65771   -65604   -65631   -65602   -65414   -65291   -65438   -65805 
  -66086   -66196   -66355   -66462   -66255   -65836   -65417   -65112 
  -64945   -64690   -64128   -63485   -63069   -62731   -62268   -61951 
  -61925   -61789   -61450   -61304   -61477   -61855   -62299   -62567 
  -62741   -63176   -63807   -64368   -64959   -65724   -66388   -66762 
  -67160   -67650   -67830   -67749   -67782   -67851   -67770   -67610 
  -67366   -67031   -66708   -66246   -65484   -64809   -64572   -64259 
  -63241   -62017   -61440   -61054   -60034   -58957   -58509   -57997 
  -56916   -55960   -55569   -55286   -54692   -53878   -53163   -52746 
  -52486   -52080   -51421   -50762   -50402   -50213   -50005   -49987 
  -50220   -50482   -50853   -51455   -52127   -52807   -53504   -54185 
  -54962   -55750   -56210   -56507   -57063   -57756   -58314   -58748 
  -59120   -59502   -59860   -60025   -60116   -60421   -60917   -61393 
  -61767   -62110   -62470   -62656   -62525   -62401   -62569   -62747 
  -62617   -62301   -62080   -61982   -61740   -61351   -61164   -61057 
  -60687   -60345   -60208   -59943   -59713   -59873   -60202   -60455 
  -60624   -60919   -61634   -62391   -62679   -62939   -63613   -64284 
  -64577   -64721   -65148   -65915   -66485   -66604   -66855   -67452 
  -67778   -67729   -67847   -68059   -67938   -67881   -68380   -68937 
  -69013   -68888   -68861   -68795   -68659   -68649   -68756   -68666 
  -68314   -68107   -68229   -68375   -68362   -68392   -68575   -68595 
  -68235   -67925   -68047   -68223   -68071   -67855   -67871   -68059 
  -68280   -68392   -68395   -68534   -68793   -68782   -68365   -67979 
  -68014   -68137   -67980   -67806   -67726   -67524   -67276   -67006 
  -66649   -66406   -66204   -65777   -65319   -65025   -64717   -64375 
  -64260   -64260   -63927   -63383   -63136   -63110   -62988   -62762 
  -62329   -61714   -61391   -61457   -61427   -61088   -60659   -60342 
  -60188   -60125   -60041   -59949   -59935   -59954   -59890   -59769 
  -59720   -59769   -59810   -59727   -59555   -59504   -59625   -59658 
  -59534   -59506   -59594   -59597   -59495   -59289   -59027   -59013 
  -59182   -59065   -58766   -58660   -58442   -57808   -57161   -56796 
  -56485   -56051   -55509   -54907   -54359   -53909   -53557   -53363 
  -53146   -52664   -52222   -52128   -52041   -51719   -51387   -51107 
  -50861   -50771   -50732   -50658   -50697   -50794   -50786   -50788 
  -51006   -51513   -52148   -52542   -52662   -52822   -53061   -53282 
  -53492   -53615   -53686   -53846   -54082   -54386   -54749   -55044 
  -55378   -55968   -56579   -56936   -57396   -58246   -59078   -59589 
  -59994   -60478   -60949   -61259   -61495   -61805   -62095   -62315 
  -62572   -62819   -63051   -63387   -63671   -63802   -64051   -64401 
  -64570   -64639   -64737   -64821   -64976   -65206   -65356   -65445 
  -65541   -65542   -65436   -65408   -65538   -65713   -65880   -66074 
  -66253   -66240   -65998   -65788   -65671   -65337   -64755   -64199 
  -63755   -63444   -63223   -62892   -62527   -62260   -61872   -61377 
  -61071   -60896   -60683   -60409   -59976   -59458   -59059   -58649 
  -58014   -57260   -56632   -56229   -55915   -55441   -54759   -54152 
  -53844   -53594   -53127   -52663   -52418   -52228   -52016   -51908 
  -52001   -52346   -52766   -53025   -53418   -54281   -55174   -55614 
  -55993   -56785   -57665   -58193   -58556   -59112   -59825   -60517 
  -61084   -61434   -61662   -61954   -62274   -62537   -62719   -62753 
  -62668   -62605   -62545   -62354   -62104   -61974   -61916   -61701 
  -61225   -60682   -60266   -59829   -59292   -58845   -58374   -57700 
  -57060   -56555   -56052   -55634   -55329   -54977   -54542   -54049 
  -53499   -53018   -52751   -52633   -52510   -52445   -52631   -52963 
  -53194   -53481   -54070   -54799   -55462   -56131   -56933   -57838 
  -58725   -59621   -60619   -61622   -62559   -63529   -64531   -65513 
  -66467   -67313   -68004   -68615   -69237   -69849   -70321   -70686 
  -71163   -71769   -72250   -72439   -72383   -72194   -71956   -71657 
  -71185   -70562   -69982   -69504   -68929   -68110   -67314   -66822 
  -66308   -65359   -64232   -63382   -62701   -61816   -60760   -59896 
  -59354   -58892   -58304   -57832   -57847   -58165   -58353   -58503 
  -58902   -59465   -60023   -60568   -61063   -61472   -61897   -62404 
  -62900   -63347   -63807   -64261   -64636   -64967   -65311   -65610 
  -65793   -65823   -65745   -65718   -65757   -65694   -65385   -64859 
  -64351   -63930   -63399   -62765   -62135   -61406   -60596   -59926 
  -59388   -58822   -58263   -57765   -57263   -56740   -56238   -55759 
  -55327   -55043   -54932   -54881   -54848   -54838   -54769   -54691 
  -54782   -55012   -55182   -55265   -55439   -55772   -56106   -56309 
  -56522   -56921   -57277   -57328   -57395   -57780   -58130   -58134 
  -58116   -58398   -58735   -58817   -58797   -58939   -59202   -59388 
  -59370   -59196   -59032   -58943   -58808   -58537   -58235   -58025 
  -57833   -57593   -57467   -57497   -57466   -57353   -57340   -57436 
  -57535   -57623   -57748   -57886   -57992   -58100   -58236   -58398 
  -58598   -58741   -58801   -59014   -59448   -59852   -60126   -60371 
  -60589   -60750   -60938   -61131   -61197   -61195   -61211   -61092 
  -60829   -60705   -60720   -60565   -60279   -60183   -60237   -60139 
  -59891   -59697   -59588   -59538   -59532   -59468   -59392   -59409 
  -59364   -59177   -59052   -59058   -59107   -59188   -59238   -59200 
  -59196   -59298   -59455   -59643   -59776   -59766   -59737   -59829 
  -59853   -59520   -58970   -58560   -58256   -57780   -57128   -56532 
  -56045   -55519   -54992   -54718   -54714   -54690   -54552   -54526 
  -54658   -54736   -54810   -55131   -55573   -55865   -56104   -56459 
  -56890   -57357   -57879   -58447   -59009   -59474   -59803   -60012 
  -60165   -60379   -60630   -60800   -60923   -61046   -61144   -61220 
  -61248   -61256   -61272   -61184   -60958   -60663   -60331   -60124 
  -60037   -59640   -58894   -58353   -58037   -57438   -56661   -56184 
  -55899   -55452   -54916   -54543   -54317   -53983   -53564   -53499 
  -53683   -53429   -52949   -53002   -53352   -53461   -53510   -53720 
  -54009   -54283   -54440   -54524   -54697   -54840   -54704   -54415 
  -54274   -54216   -53995   -53721   -53596   -53454   -53157   -52916 
  -52816   -52695   -52563   -52527   -52563   -52714   -52999   -53234 
  -53399   -53676   -53969   -54045   -54018   -54144   -54401   -54594 
  -54676   -54876   -55389   -55960   -56253   -56405   -56736   -57222 
  -57583   -57718   -57845   -58134   -58450   -58663   -58895   -59282 
  -59723   -59991   -60086   -60245   -60500   -60735   -60971   -61161 
  -61248   -61349   -61422   -61378   -61403   -61529   -61498   -61345 
  -61378   -61637   -61861   -61921   -61947   -62115   -62481   -62849 
  -63046   -63365   -63994   -64579   -65015   -65575   -66217   -66788 
  -67325   -67825   -68222   -68432   -68507   -68575   -68445   -68045 
  -67795   -67759   -67507   -66978   -66401   -65859   -65408   -64911 
  -64107   -63187   -62492   -61958   -61410   -60798   -60185   -59760 
  -59503   -59276   -59224   -59348   -59380   -59440   -59710   -59933 
  -60047   -60282   -60507   -60509   -60469   -60575   -60720   -60789 
  -60812   -60904   -61163   -61428   -61420   -61270   -61326   -61479 
  -61480   -61481   -61579   -61649   -61745   -61865   -61833   -61765 
  -61848   -61863   -61634   -61384   -61228   -61010   -60672   -60274 
  -59874   -59580   -59348   -58960   -58471   -58116   -57812   -57358 
  -56845   -56500   -56310   -56045   -55710   -55546   -55486   -55298 
  -55091   -54997   -54915   -54869   -54981   -55152   -55257   -55426 
  -55773   -56069   -56185   -56437   -56937   -57275   -57306   -57450 
  -57896   -58308   -58543   -58912   -59599   -60320   -60870   -61539 
  -62476   -63362   -64136   -65005   -65853   -66607   -67436   -68171 
  -68611   -69044   -69563   -69842   -69850   -69828   -69767   -69485 
  -69009   -68622   -68408   -68025   -67401   -66952   -66707   -66279 
  -65690   -65214   -64852   -64520   -64209   -63873   -63480   -63110 
  -62874   -62672   -62285   -61771   -61345   -60993   -60567   -60055 
  -59628   -59445   -59353   -59086   -58743   -58571   -58527   -58440 
  -58333   -58356   -58553   -58835   -59116   -59392   -59783   -60428 
  -61184   -61833   -62496   -63350   -64255   -65016   -65688   -66416 
  -67170   -67805   -68286   -68670   -68971   -69190   -69303   -69251 
  -69079   -68842   -68493   -68048   -67548   -66942   -66291   -65721 
  -65106   -64337   -63623   -63007   -62247   -61424   -60792   -60225 
  -59545   -58878   -58343   -57834   -57213   -56581   -56124   -55765 
  -55384   -55042   -54764   -54539   -54382   -54237   -54126   -54205 
  -54488   -54808   -55080   -55348   -55665   -56046   -56394   -56599 
  -56734   -56951   -57238   -57501   -57738   -57949   -58098   -58217 
  -58285   -58202   -58013   -57832   -57683   -57552   -57384   -57168 
  -57029   -56951   -56713   -56348   -56106   -55968   -55736   -55388 
  -55043   -54792   -54623   -54471   -54274   -54000   -53759   -53691 
  -53673   -53541   -53439   -53518   -53623   -53631   -53704   -54002 
  -54455   -54894   -55311   -55874   -56612   -57349   -58068   -58968 
  -60043   -61032   -61913   -62913   -64043   -65098   -66016   -66956 
  -68001   -68923   -69512   -69930   -70402   -70848   -71103   -71196 
  -71260   -71349   -71391   -71326   -71202   -71027   -70745   -70348 
  -69840   -69248   -68657   -68037   -67282   -66492   -65854   -65271 
  -64567   -63859   -63282   -62700   -62002   -61298   -60732   -60313 
  -59895   -59407   -59014   -58799   -58638   -58520   -58552   -58721 
  -58962   -59333   -59888   -60511   -61128   -61889   -62839   -63794 
  -64694   -65590   -66385   -66972   -67449   -67953   -68387   -68569 
  -68599   -68691   -68778   -68695   -68496   -68318   -68209   -68126 
  -67989   -67825   -67776   -67863   -67933   -67941   -68002   -68167 
  -68346   -68478   -68655   -68949   -69243   -69430   -69583   -69773 
  -69964   -70120   -70246   -70347   -70408   -70434   -70437   -70399 
  -70286   -70099   -69888   -69624   -69225   -68761   -68348   -67945 
  -67454   -66872   -66299   -65772   -65173   -64468   -63782   -63128 
  -62364   -61465   -60581   -59832   -59176   -58485   -57784   -57242 
  -56870   -56500   -56077   -55701   -55480   -55373   -55251   -55155 
  -55197   -55324   -55420   -55523   -55779   -56197   -56589   -56904 
  -57328   -57929   -58601   -59281   -59979   -60717   -61462   -62150 
  -62803   -63455   -64030   -64484   -64884   -65298   -65706   -66002 
  -66125   -66167   -66189   -66056   -65692   -65213   -64717   -64173 
  -63503   -62727   -61940   -61152   -60349   -59576   -58839   -58169 
  -57657   -57270   -56899   -56628   -56598   -56754   -56990   -57357 
  -57919   -58624   -59380   -60179   -61115   -62271   -63541   -64736 
  -65924   -67308   -68789   -70121   -71310   -72469   -73566   -74508 
  -75275   -75896   -76374   -76698   -76917   -77100   -77195   -77137 
  -77019   -76894   -76611   -76088   -75435   -74666   -73708   -72640 
  -71569   -70492   -69395   -68297   -67245   -66299   -65414   -64491 
  -63578   -62790   -62138   -61570   -61077   -60697   -60435   -60248 
  -60141   -60164   -60289   -60448   -60638   -60840   -61007   -61155 
  -61324   -61499   -61646   -61745   -61765   -61676   -61540   -61454 
  -61337   -61072   -60804   -60659   -60483   -60166   -59802   -59508 
  -59268   -58965   -58611   -58361   -58228   -58096   -57908   -57704 
  -57586   -57517   -57320   -57044   -56905   -56853   -56682   -56408 
  -56195   -56082   -55978   -55880   -55870   -55919   -55955   -56038 
  -56249   -56534   -56854   -57286   -57793   -58252   -58763   -59445 
  -60176   -60845   -61471   -62055   -62631   -63199   -63622   -63886 
  -64141   -64404   -64584   -64671   -64729   -64803   -64834   -64740 
  -64581   -64483   -64460   -64441   -64362   -64235   -64138   -64072 
  -63959   -63841   -63841   -63924   -63976   -64032   -64169   -64364 
  -64588   -64817   -64980   -65100   -65255   -65382   -65422   -65449 
  -65489   -65462   -65380   -65352   -65383   -65364   -65297   -65275 
  -65273   -65216   -65173   -65236   -65344   -65423   -65514   -65624 
  -65688   -65726   -65818   -65929   -65979   -66002   -66025   -65951 
  -65755   -65614   -65608   -65567   -65371   -65130   -64985   -64926 
  -64828   -64681   -64634   -64686   -64729   -64873   -65185   -65496 
  -65805   -66240   -66675   -66999   -67342   -67728   -67989   -68077 
  -68089   -68055   -67916   -67721   -67609   -67578   -67447   -67169 
  -66930   -66776   -66577   -66359   -66176   -65936   -65621   -65295 
  -64959   -64593   -64193   -63786   -63449   -63159   -62765   -62274 
  -61842   -61486   -61114   -60671   -60142   -59600   -59139   -58733 
  -58304   -57867   -57521   -57298   -57131   -56997   -56997   -57186 
  -57443   -57683   -57986   -58355   -58725   -59153   -59672   -60169 
  -60591   -61034   -61569   -62129   -62635   -63125   -63638   -64089 
  -64406   -64636   -64854   -65088   -65274   -65299   -65211   -65105 
  -64918   -64627   -64349   -64122   -63824   -63344   -62752   -62162 
  -61542   -60856   -60148   -59441   -58769   -58146   -57519   -56909 
  -56410   -56022   -55714   -55554   -55552   -55586   -55644   -55895 
  -56389   -56964   -57541   -58255   -59133   -59970   -60723   -61565 
  -62447   -63201   -63928   -64778   -65658   -66440   -67116   -67705 
  -68243   -68764   -69224   -69591   -69923   -70256   -70524   -70697 
  -70854   -71048   -71216   -71330   -71446   -71597   -71775   -71964 
  -72122   -72207   -72189   -72087   -71959   -71840   -71701   -71466 
  -71107   -70681   -70226   -69725   -69189   -68677   -68165   -67526 
  -66825   -66302   -65914   -65388   -64748   -64211   -63757   -63300 
  -62921   -62627   -62298   -61954   -61706   -61507   -61241   -60904 
  -60552   -60231   -59973   -59752   -59545   -59371   -59238   -59167 
  -59143   -59070   -58921   -58788   -58708   -58622   -58452   -58216 
  -58002   -57791   -57511   -57202   -56902   -56546   -56095   -55614 
  -55201   -54873   -54564   -54253   -53998   -53803   -53617   -53474 
  -53402   -53327   -53221   -53150   -53152   -53247   -53424   -53603 
  -53813   -54143   -54500   -54831   -55247   -55754   -56250   -56743 
  -57288   -57834   -58352   -58878   -59375   -59803   -60225   -60702 
  -61186   -61615   -62040   -62553   -63135   -63692   -64187   -64655 
  -65135   -65615   -66062   -66456   -66810   -67185   -67607   -68016 
  -68389   -68759   -69084   -69376   -69736   -70081   -70271   -70417 
  -70637   -70834   -70926   -70924   -70837   -70702   -70552   -70338 
  -70029   -69649   -69209   -68734   -68267   -67825   -67398   -66941 
  -66401   -65844   -65358   -64901   -64412   -63933   -63484   -63026 
  -62584   -62227   -61938   -61649   -61342   -61079   -60921   -60829 
  -60735   -60679   -60702   -60785   -60948   -61201   -61492   -61856 
  -62363   -62889   -63331   -63834   -64457   -65037   -65517   -65993 
  -66471   -66865   -67104   -67142   -67042   -66929   -66778   -66496 
  -66089   -65605   -65043   -64372   -63612   -62837   -62043   -61204 
  -60415   -59739   -59083   -58387   -57704   -57050   -56410   -55846 
  -55384   -54943   -54525   -54217   -53992   -53797   -53668   -53644 
  -53722   -53855   -54012   -54210   -54448   -54716   -55036   -55422 
  -55851   -56317   -56816   -57302   -57802   -58391   -58998   -59536 
  -60079   -60689   -61292   -61806   -62265   -62740   -63184   -63539 
  -63814   -64011   -64139   -64247   -64363   -64459   -64495   -64496 
  -64485   -64397   -64219   -64038   -63897   -63726   -63470   -63181 
  -62896   -62616   -62359   -62132   -61916   -61706   -61520   -61345 
  -61145   -60959   -60840   -60768   -60704   -60627   -60553   -60499 
  -60463   -60434   -60411   -60428   -60488   -60509   -60496   -60551 
  -60636   -60634   -60575   -60519   -60423   -60292   -60192   -60133 
  -60110   -60141   -60239   -60395   -60552   -60681   -60826   -60991 
  -61132   -61271   -61427   -61558   -61667   -61824   -62012   -62174 
  -62339   -62514   -62659   -62761   -62805   -62820   -62866   -62887 
  -62797   -62638   -62499   -62381   -62242   -62084   -61931   -61784 
  -61642   -61506   -61411   -61390   -61388   -61334   -61277   -61298 
  -61345   -61334   -61292   -61269   -61271   -61297   -61313   -61284 
  -61261   -61290   -61295   -61236   -61181   -61137   -61034   -60896 
  -60820   -60786   -60685   -60529   -60402   -60301   -60173   -60018 
  -59895   -59822   -59733   -59591   -59447   -59337   -59234   -59102 
  -58966   -58876   -58845   -58900   -59056   -59255   -59473   -59726 
  -59964   -60172   -60437   -60778   -61108   -61420   -61775   -62159 
