Origin Time       2011/03/11 14:46:00
Lat.              38.103
Long.             142.860
Depth. (km)       24
Mag.              9.0
Station Code      ISK015
Station Lat.      37.2265
Station Long.     136.9087
Station Height(m) 3
Record Time       2011/03/11 14:49:13
Sampling Freq(Hz) 100Hz
Duration Time(s)  137
Dir.              U-D
Scale Factor      3920(gal)/6182761
Max. Acc. (gal)   2.830
Last Correction   2011/03/11 14:48:58
Memo.             
[...]
  -38936   -38893   -38853   -38857   -38899   -38943   -38977   -39041 
  -39139   -39220   -39255   -39292   -39367   -39420   -39444   -39473 
  -39479   -39465   -39448   -39405   -39365   -39338   -39288   -39219 
  -39177   -39192   -39206   -39151   -39062   -38991   -38946   -38947 
  -38967   -38931   -38883   -38891   -38901   -38893   -38883   -38870 
  -38883   -38922   -38956   -38994   -39023   -39023   -39029   -39046 
  -39048   -39034   -38975   -38890   -38857   -38846   -38771   -38670 
  -38613   -38601   -38596   -38542   -38449   -38380   -38351   -38350 
  -38375   -38418   -38483   -38528   -38515   -38475   -38422   -38362 
  -38349   -38364   -38360   -38349   -38332   -38333   -38357   -38346 
  -38315   -38325   -38364   -38412   -38447   -38483   -38554   -38593 
  -38548   -38478   -38453   -38504   -38543   -38477   -38382   -38352 
  -38349   -38334   -38338   -38343   -38298   -38212   -38110   -38045 
  -38008   -37905   -37767   -37685   -37657   -37663   -37672   -37665 
  -37650   -37590   -37520   -37556   -37625   -37632   -37621   -37603 
  -37587   -37612   -37644   -37657   -37672   -37702   -37748   -37784 
  -37825   -37895   -37908   -37816   -37724   -37714   -37754   -37773 
  -37753   -37741   -37763   -37770   -37743   -37711   -37668   -37621 
  -37611   -37606   -37571   -37531   -37494   -37418   -37313   -37253 
  -37213   -37135   -37049   -36971   -36916   -36932   -36998   -37060 
  -37090   -37102   -37135   -37145   -37102   -37106   -37197   -37300 
  -37339   -37267   -37185   -37255   -37370   -37395   -37396   -37374 
  -37314   -37332   -37388   -37330   -37209   -37096   -36989   -36927 
  -36878   -36775   -36662   -36564   -36412   -36272   -36297   -36405 
  -36464   -36523   -36582   -36578   -36556   -36576   -36632   -36699 
  -36725   -36677   -36624   -36662   -36741   -36763   -36732   -36707 
  -36714   -36741   -36777   -36756   -36598   -36425   -36413   -36493 
  -36522   -36503   -36462   -36384   -36301   -36232   -36132   -36034 
  -36015   -36008   -35954   -35907   -35896   -35880   -35845   -35836 
  -35881   -35936   -35984   -36030   -36024   -35977   -35981   -36006 
  -35989   -35963   -35934   -35899   -35886   -35848   -35749   -35691 
  -35720   -35757   -35783   -35794   -35759   -35731   -35758   -35831 
  -35949   -36063   -36088   -36022   -35964   -35955   -35959   -36013 
  -36163   -36299   -36347   -36398   -36506   -36612   -36685   -36742 
  -36861   -37074   -37196   -37138   -37059   -36982   -36841   -36718 
  -36668   -36664   -36664   -36576   -36408   -36283   -36223   -36197 
  -36208   -36233   -36219   -36130   -36007   -35927   -35940   -36015 
  -36028   -35951   -35907   -35898   -35861   -35862   -35920   -35950 
  -35943   -35939   -35931   -35951   -36018   -36041   -36014   -36020 
  -36011   -35943   -35913   -35904   -35816   -35731   -35728   -35719 
  -35667   -35622   -35605   -35617   -35608   -35527   -35471   -35505 
  -35494   -35419   -35370   -35282   -35185   -35163   -35145   -35146 
  -35205   -35224   -35188   -35200   -35264   -35290   -35318   -35449 
  -35610   -35682   -35681   -35702   -35816   -35950   -35970   -35946 
  -36054   -36220   -36302   -36372   -36471   -36542   -36630   -36732 
  -36780   -36817   -36899   -36976   -37029   -37102   -37184   -37236 
  -37293   -37367   -37438   -37478   -37448   -37403   -37407   -37428 
  -37478   -37541   -37527   -37471   -37479   -37512   -37479   -37428 
  -37419   -37403   -37365   -37323   -37238   -37138   -37108   -37146 
  -37206   -37242   -37205   -37131   -37094   -37100   -37100   -37044 
  -36978   -36984   -37025   -37005   -36918   -36838   -36810   -36806 
  -36814   -36824   -36815   -36812   -36810   -36775   -36772   -36822 
  -36832   -36770   -36712   -36737   -36830   -36844   -36698   -36535 
  -36486   -36515   -36546   -36514   -36427   -36403   -36425   -36342 
  -36233   -36256   -36329   -36328   -36294   -36271   -36254   -36249 
  -36203   -36081   -36012   -36051   -36057   -35975   -35833   -35641 
  -35519   -35486   -35403   -35289   -35217   -35194   -35203   -35171 
  -35106   -35082   -35082   -35085   -35133   -35224   -35275   -35246 
  -35223   -35297   -35406   -35467   -35504   -35525   -35561   -35664 
  -35751   -35779   -35827   -35879   -35929   -36050   -36174   -36201 
  -36186   -36175   -36181   -36208   -36227   -36223   -36196   -36164 
  -36160   -36152   -36114   -36077   -36069   -36094   -36141   -36172 
  -36170   -36191   -36246   -36283   -36308   -36297   -36266   -36315 
  -36368   -36401   -36506   -36576   -36566   -36587   -36578   -36527 
  -36538   -36563   -36526   -36457   -36396   -36361   -36332   -36280 
  -36210   -36140   -36082   -36067   -36067   -36041   -36044   -36073 
  -36071   -36099   -36157   -36155   -36163   -36234   -36255   -36215 
  -36193   -36170   -36112   -36022   -35931   -35889   -35903   -35935 
  -35959   -35978   -36010   -36036   -36030   -36007   -36009   -36029 
  -36015   -35990   -36000   -36001   -35965   -35918   -35874   -35840 
  -35797   -35738   -35696   -35648   -35551   -35426   -35305   -35200 
  -35114   -35029   -34927   -34828   -34768   -34736   -34679   -34575 
  -34470   -34409   -34379   -34347   -34321   -34310   -34303   -34290 
  -34315   -34400   -34456   -34431   -34407   -34425   -34468   -34545 
  -34637   -34685   -34708   -34777   -34881   -34996   -35107   -35168 
  -35229   -35331   -35397   -35438   -35486   -35480   -35462   -35474 
  -35446   -35421   -35467   -35485   -35441   -35429   -35434   -35402 
  -35377   -35395   -35457   -35533   -35556   -35540   -35544   -35573 
  -35602   -35607   -35587   -35576   -35607   -35671   -35729   -35742 
  -35718   -35729   -35780   -35803   -35776   -35713   -35679   -35710 
  -35741   -35753   -35764   -35760   -35772   -35830   -35911   -36007 
  -36096   -36155   -36211   -36279   -36340   -36367   -36381   -36443 
  -36528   -36577   -36600   -36624   -36667   -36721   -36774   -36810 
  -36792   -36752   -36767   -36799   -36795   -36774   -36746   -36732 
  -36737   -36715   -36676   -36655   -36641   -36659   -36709   -36728 
  -36716   -36731   -36768   -36798   -36823   -36847   -36881   -36929 
  -36965   -36975   -36998   -37056   -37106   -37106   -37087   -37093 
  -37113   -37108   -37085   -37089   -37139   -37201   -37240   -37235 
  -37215   -37248   -37312   -37313   -37275   -37266   -37260   -37229 
  -37182   -37140   -37127   -37100   -37039   -36993   -36950   -36903 
  -36899   -36924   -36934   -36909   -36892   -36921   -36970   -37019 
  -37075   -37120   -37164   -37208   -37252   -37333   -37437   -37514 
  -37574   -37620   -37627   -37618   -37627   -37637   -37644   -37638 
  -37595   -37564   -37548   -37479   -37402   -37356   -37297   -37243 
  -37216   -37188   -37152   -37125   -37113   -37122   -37144   -37175 
  -37206   -37222   -37225   -37240   -37267   -37257   -37222   -37236 
  -37295   -37312   -37270   -37227   -37211   -37200   -37142   -37026 
  -36955   -36995   -37037   -36977   -36876   -36809   -36722   -36584 
  -36525   -36586   -36620   -36623   -36721   -36856   -36874   -36749 
  -36574   -36451   -36378   -36327   -36372   -36552   -36723   -36785 
  -36823   -36890   -36897   -36778   -36601   -36522   -36584   -36639 
  -36625   -36704   -36925   -37100   -37087   -36973   -36914   -36866 
  -36749   -36671   -36676   -36687   -36715   -36814   -36995   -37186 
  -37230   -37174   -37261   -37394   -37265   -36968   -36816   -36848 
  -36918   -36998   -37190   -37450   -37587   -37661   -37829   -37903 
  -37713   -37458   -37398   -37501   -37524   -37459   -37576   -37869 
  -37949   -37692   -37510   -37656   -37766   -37552   -37277   -37179 
  -37143   -37024   -36878   -36849   -36921   -36980   -37037   -37055 
  -36985   -36900   -36838   -36931   -37218   -37354   -37303   -37461 
  -37822   -37991   -37824   -37596   -37579   -37694   -37794   -37885 
  -37937   -37906   -37820   -37727   -37658   -37586   -37510   -37445 
  -37359   -37417   -37691   -37833   -37859   -38124   -38350   -38213 
  -38053   -38019   -37832   -37562   -37421   -37288   -37179   -37265 
  -37493   -37798   -38065   -38070   -37974   -38024   -38032   -37898 
  -37802   -37814   -37929   -38078   -38181   -38311   -38434   -38425 
  -38365   -38273   -38088   -38024   -38164   -38234   -38211   -38285 
  -38419   -38585   -38804   -38901   -38824   -38790   -38828   -38702 
  -38393   -38272   -38506   -38721   -38594   -38340   -38353   -38623 
  -38810   -38801   -38679   -38476   -38345   -38402   -38458   -38385 
  -38436   -38713   -38926   -38954   -38921   -38906   -38949   -38975 
  -38907   -38884   -38937   -38885   -38646   -38411   -38488   -38707 
  -38610   -38347   -38354   -38557   -38636   -38570   -38505   -38468 
  -38502   -38612   -38689   -38815   -39009   -39076   -39162   -39320 
  -39196   -38909   -38920   -39271   -39648   -39713   -39580   -39642 
  -39782   -39712   -39667   -39846   -40013   -40002   -39893   -39838 
  -40007   -40261   -40229   -40015   -39902   -39811   -39800   -39949 
  -40062   -40070   -39932   -39768   -39825   -39901   -39877   -39858 
  -39718   -39499   -39272   -39026   -39084   -39461   -39580   -39345 
  -39285   -39463   -39501   -39520   -39728   -39916   -40009   -40012 
  -39918   -39938   -40091   -40119   -40012   -39928   -39832   -39811 
  -40020   -40199   -40096   -39862   -39732   -39832   -40061   -40132 
  -40001   -39930   -39980   -39977   -39890   -39794   -39755   -39714 
  -39437   -39114   -39168   -39362   -39338   -39316   -39385   -39298 
  -39095   -38907   -38710   -38656   -38815   -38918   -38915   -38889 
  -38751   -38685   -38856   -39026   -39144   -39261   -39211   -39104 
  -39173   -39267   -39260   -39268   -39297   -39324   -39381   -39404 
  -39345   -39263   -39181   -39090   -39025   -38976   -38910   -38898 
  -39011   -39185   -39355   -39497   -39515   -39333   -39076   -39024 
  -39241   -39406   -39348   -39243   -39129   -39003   -39007   -39072 
  -38951   -38646   -38433   -38480   -38691   -38857   -38784   -38605 
  -38611   -38669   -38655   -38769   -38982   -39114   -39126   -39014 
  -38885   -38926   -39088   -39115   -38950   -38787   -38781   -38900 
  -39011   -39034   -38944   -38777   -38612   -38444   -38267   -38200 
  -38207   -38075   -37868   -37791   -37799   -37850   -37950   -37970 
  -37924   -37961   -38056   -38165   -38331   -38477   -38510   -38492 
  -38460   -38442   -38520   -38600   -38582   -38613   -38736   -38818 
  -38910   -39161   -39483   -39682   -39750   -39762   -39759   -39843 
  -39953   -39893   -39772   -39767   -39776   -39783   -39883   -39962 
  -39966   -39964   -39911   -39777   -39633   -39581   -39658   -39743 
  -39735   -39645   -39587   -39692   -39844   -39830   -39709   -39701 
  -39827   -39920   -39961   -40034   -40120   -40258   -40400   -40363 
  -40268   -40290   -40356   -40465   -40536   -40408   -40255   -40257 
  -40302   -40326   -40372   -40403   -40406   -40416   -40368   -40255 
  -40224   -40304   -40417   -40506   -40479   -40347   -40293   -40400 
  -40568   -40657   -40578   -40408   -40288   -40246   -40333   -40521 
  -40568   -40433   -40320   -40309   -40400   -40559   -40670   -40745 
  -40874   -40972   -40932   -40895   -41045   -41300   -41422   -41353 
  -41261   -41214   -41103   -40936   -40821   -40782   -40786   -40769 
  -40711   -40676   -40658   -40611   -40560   -40518   -40504   -40538 
  -40568   -40556   -40521   -40475   -40409   -40389   -40457   -40469 
  -40397   -40459   -40622   -40591   -40376   -40206   -40101   -40057 
  -40148   -40278   -40329   -40377   -40449   -40436   -40426   -40484 
  -40425   -40336   -40345   -40264   -40156   -40136   -40036   -39913 
  -39914   -39937   -39900   -39869   -39876   -39884   -39885   -39892 
  -39893   -39897   -39977   -40163   -40349   -40418   -40440   -40524 
  -40630   -40659   -40585   -40489   -40510   -40640   -40713   -40659 
  -40620   -40730   -40884   -40903   -40844   -40831   -40834   -40805 
  -40744   -40690   -40690   -40706   -40678   -40602   -40549   -40559 
  -40545   -40466   -40377   -40283   -40170   -40069   -40039   -40101 
  -40186   -40177   -40114   -40119   -40137   -40113   -40111   -40150 
  -40244   -40369   -40384   -40282   -40221   -40219   -40214   -40213 
  -40130   -39945   -39848   -39885   -39939   -39963   -39920   -39853 
  -39871   -39881   -39753   -39615   -39588   -39616   -39632   -39624 
  -39662   -39775   -39864   -39919   -40007   -40106   -40198   -40298 
  -40378   -40379   -40292   -40256   -40390   -40579   -40637   -40542 
  -40442   -40422   -40386   -40247   -40110   -40133   -40258   -40341 
  -40380   -40393   -40417   -40488   -40504   -40466   -40471   -40437 
  -40308   -40174   -40100   -40107   -40135   -40124   -40140   -40195 
  -40177   -40118   -40148   -40242   -40338   -40417   -40433   -40442 
  -40531   -40640   -40731   -40829   -40900   -40961   -41030   -41017 
  -40975   -41066   -41179   -41184   -41230   -41359   -41440   -41443 
  -41445   -41569   -41779   -41808   -41599   -41512   -41716   -41862 
  -41781   -41730   -41771   -41764   -41715   -41655   -41671   -41816 
  -41871   -41765   -41760   -41880   -41913   -41865   -41849   -41868 
  -41898   -41934   -41946   -41954   -42043   -42147   -42173   -42217 
  -42285   -42277   -42263   -42313   -42360   -42379   -42386   -42380 
  -42424   -42490   -42377   -42100   -41951   -42013   -42097   -42020 
  -41765   -41550   -41505   -41464   -41320   -41182   -41107   -41053 
  -41045   -41094   -41108   -41108   -41150   -41119   -40971   -40827 
  -40781   -40830   -40851   -40773   -40722   -40727   -40646   -40488 
  -40379   -40311   -40214   -40119   -40068   -40029   -39995   -39973 
  -39930   -39891   -39853   -39787   -39743   -39727   -39720   -39785 
  -39867   -39811   -39687   -39649   -39638   -39595   -39630   -39767 
  -39907   -40039   -40134   -40120   -40060   -40060   -40120   -40154 
  -40093   -40032   -40057   -40072   -40060   -40071   -39993   -39850 
  -39837   -39891   -39846   -39731   -39608   -39499   -39425   -39394 
  -39344   -39201   -39091   -39156   -39247   -39207   -39123   -39058 
  -38947   -38831   -38788   -38794   -38861   -38963   -38955   -38847 
  -38811   -38850   -38891   -38978   -39060   -39035   -39000   -39045 
  -39109   -39178   -39245   -39262   -39267   -39280   -39244   -39158 
  -39053   -38958   -38927   -38917   -38837   -38752   -38772   -38867 
  -38959   -39011   -39024   -39020   -38979   -38896   -38845   -38864 
  -38878   -38837   -38792   -38745   -38702   -38752   -38857   -38933 
  -38989   -38989   -38961   -38994   -39012   -38964   -38976   -39105 
  -39221   -39214   -39134   -39029   -38929   -38913   -38905   -38777 
  -38639   -38578   -38530   -38564   -38663   -38612   -38492   -38500 
  -38503   -38428   -38408   -38425   -38389   -38272   -38115   -38089 
  -38235   -38357   -38435   -38567   -38661   -38680   -38728   -38796 
  -38821   -38781   -38671   -38567   -38581   -38663   -38649   -38529 
  -38452   -38478   -38533   -38507   -38351   -38202   -38213   -38293 
  -38283   -38233   -38209   -38166   -38128   -38094   -38004   -37942 
  -37981   -38025   -38012   -37998   -38033   -38095   -38098   -38044 
  -38050   -38076   -38044   -38116   -38301   -38366   -38343   -38337 
  -38257   -38138   -38088   -38070   -38075   -38098   -38089   -38098 
  -38138   -38107   -38017   -37942   -37866   -37805   -37796   -37778 
  -37688   -37579   -37520   -37470   -37435   -37481   -37515   -37443 
  -37389   -37451   -37561   -37644   -37653   -37582   -37552   -37620 
  -37656   -37619   -37587   -37563   -37564   -37614   -37604   -37490 
  -37390   -37356   -37307   -37201   -37062   -36977   -37011   -37018 
  -36916   -36871   -36915   -36977   -37022   -36948   -36819   -36807 
  -36851   -36809   -36698   -36623   -36695   -36921   -37057   -36926 
  -36820   -36977   -37181   -37281   -37315   -37268   -37233   -37305 
  -37346   -37285   -37197   -37110   -37066   -37043   -36939   -36865 
  -36993   -37138   -37077   -36942   -36864   -36864   -37023   -37218 
  -37263   -37256   -37295   -37302   -37259   -37223   -37181   -37149 
  -37118   -37043   -37010   -37018   -37014   -37032   -36945   -36761 
  -36685   -36661   -36635   -36629   -36524   -36417   -36521   -36677 
  -36647   -36521   -36433   -36398   -36492   -36682   -36774   -36801 
  -36912   -37015   -37017   -36962   -36866   -36822   -36916   -36988 
  -36959   -36959   -36966   -36923   -36934   -36974   -36930   -36845 
  -36790   -36767   -36778   -36785   -36735   -36680   -36720   -36763 
  -36684   -36620   -36630   -36612   -36616   -36638   -36631   -36699 
  -36790   -36772   -36777   -36881   -36900   -36757   -36576   -36495 
  -36561   -36643   -36607   -36466   -36283   -36185   -36177   -36077 
  -35960   -35976   -35962   -35907   -35956   -36015   -36053   -36104 
  -36042   -35900   -35886   -36009   -36081   -36038   -35979   -35960 
  -35969   -35978   -35939   -35843   -35778   -35813   -35863   -35843 
  -35823   -35853   -35856   -35773   -35651   -35574   -35554   -35554 
  -35571   -35577   -35504   -35444   -35535   -35646   -35585   -35430 
  -35368   -35449   -35560   -35601   -35652   -35792   -35874   -35817 
  -35817   -35952   -36055   -36062   -36053   -36054   -36051   -36072 
  -36073   -36014   -36018   -36110   -36161   -36187   -36207   -36197 
  -36243   -36294   -36221   -36099   -36034   -36047   -36105   -36120 
  -36046   -35958   -35997   -36074   -35984   -35857   -35905   -36026 
  -36142   -36304   -36441   -36425   -36289   -36215   -36278   -36330 
  -36312   -36362   -36505   -36634   -36676   -36607   -36549   -36603 
  -36651   -36644   -36697   -36849   -37006   -37054   -36988   -36880 
  -36796   -36783   -36763   -36697   -36692   -36721   -36697   -36657 
  -36600   -36483   -36407   -36471   -36564   -36579   -36575   -36609 
  -36713   -36836   -36795   -36640   -36638   -36775   -36881   -36967 
  -37031   -37000   -36964   -37026   -37124   -37200   -37308   -37426 
  -37456   -37453   -37507   -37562   -37556   -37491   -37392   -37329 
  -37354   -37388   -37373   -37357   -37313   -37255   -37284   -37245 
  -37027   -36838   -36789   -36798   -36766   -36686   -36683   -36727 
  -36645   -36487   -36457   -36523   -36427   -36210   -36187   -36328 
  -36363   -36242   -36111   -36083   -36111   -36085   -36012   -35996 
  -36063   -36080   -35965   -35859   -35873   -35865   -35737   -35658 
  -35707   -35689   -35494   -35316   -35339   -35403   -35324   -35204 
  -35169   -35237   -35299   -35202   -35036   -34995   -34996   -34902 
  -34803   -34735   -34702   -34828   -34998   -35002   -34968   -34965 
  -34834   -34641   -34638   -34814   -34964   -35082   -35217   -35215 
  -35091   -35077   -35141   -35092   -35008   -35080   -35245   -35361 
  -35413   -35407   -35381   -35377   -35337   -35288   -35364   -35620 
  -35897   -35944   -35789   -35619   -35432   -35173   -35013   -35068 
  -35132   -35159   -35304   -35422   -35402   -35425   -35534   -35651 
  -35685   -35580   -35475   -35434   -35290   -35089   -35033   -35122 
  -35312   -35549   -35661   -35619   -35585   -35634   -35685   -35670 
