Origin Time       2011/03/11 14:46:00
Lat.              38.103
Long.             142.860
Depth. (km)       24
Mag.              9.0
Station Code      ISK012
Station Lat.      36.3579
Station Long.     136.6049
Station Height(m) 187
Record Time       2011/03/11 14:50:21
Sampling Freq(Hz) 100Hz
Duration Time(s)  66
Dir.              U-D
Scale Factor      3920(gal)/6182761
Max. Acc. (gal)   1.278
Last Correction   2011/03/11 14:50:06
Memo.             
[...]
  -25384   -25340   -25289   -25256   -25237   -25204   -25150   -25091 
  -25044   -25012   -24978   -24925   -24848   -24760   -24679   -24619 
  -24584   -24534   -24449   -24385   -24375   -24387   -24388   -24367 
  -24347   -24356   -24393   -24434   -24454   -24466   -24491   -24522 
  -24555   -24581   -24597   -24622   -24652   -24677   -24701   -24705 
  -24688   -24694   -24729   -24758   -24778   -24798   -24812   -24811 
  -24803   -24792   -24770   -24747   -24720   -24673   -24640   -24642 
  -24645   -24635   -24623   -24587   -24496   -24379   -24287   -24220 
  -24162   -24123   -24114   -24128   -24140   -24101   -24026   -24000 
  -24054   -24094   -24007   -23872   -23895   -24089   -24203   -24034 
  -23725   -23625   -23833   -24083   -24100   -23860   -23538   -23382 
  -23506   -23698   -23669   -23476   -23409   -23518   -23603   -23579 
  -23533   -23521   -23550   -23591   -23594   -23581   -23632   -23712 
  -23620   -23283   -23018   -23170   -23541   -23610   -23288   -22956 
  -22914   -23185   -23601   -23842   -23742   -23572   -23551   -23502 
  -23428   -23568   -23783   -23773   -23644   -23673   -23854   -23944 
  -23771   -23503   -23454   -23568   -23614   -23620   -23647   -23671 
  -23799   -24086   -24208   -23935   -23672   -23843   -24211   -24321 
  -24098   -23846   -23973   -24540   -25127   -25227   -24769   -24327 
  -24386   -24636   -24626   -24371   -24029   -23740   -23722   -24013 
  -24236   -24091   -23958   -24241   -24553   -24310   -23664   -23310 
  -23493   -23809   -23893   -23731   -23575   -23673   -23984   -24211 
  -24045   -23593   -23443   -23858   -24260   -24043   -23453   -23211 
  -23626   -24318   -24673   -24505   -24173   -23936   -23762   -23782 
  -23899   -23783   -23725   -24107   -24586   -24649   -24225   -23807 
  -23984   -24497   -24530   -24068   -23770   -23796   -23875   -24038 
  -24343   -24409   -24055   -23736   -23847   -24210   -24369   -24275 
  -24228   -24202   -24175   -24312   -24383   -24314   -24411   -24443 
  -24095   -23713   -23676   -23984   -24352   -24350   -23858   -23435 
  -23778   -24648   -25033   -24518   -23759   -23496   -23704   -23974 
  -24155   -24237   -24178   -24064   -24006   -24082   -24330   -24520 
  -24486   -24437   -24468   -24388   -24158   -24037   -24238   -24550 
  -24558   -24277   -24147   -24414   -24858   -25058   -24807   -24391 
  -24295   -24497   -24518   -24283   -24162   -24258   -24421   -24559 
  -24615   -24599   -24557   -24484   -24440   -24437   -24353   -24263 
  -24388   -24625   -24630   -24324   -24052   -24220   -24724   -24928 
  -24486   -23952   -24068   -24617   -24792   -24495   -24313   -24564 
  -24867   -24628   -24006   -23704   -23935   -24322   -24407   -24237 
  -24257   -24423   -24360   -24120   -24018   -24163   -24354   -24279 
  -23936   -23760   -24054   -24425   -24424   -24255   -24207   -24268 
  -24404   -24571   -24697   -24737   -24634   -24471   -24434   -24606 
  -24944   -25224   -25164   -24795   -24550   -24771   -25172   -25223 
  -24833   -24369   -24213   -24400   -24724   -24977   -25023   -24889 
  -24709   -24584   -24626   -24860   -25039   -24933   -24741   -24829 
  -25059   -24952   -24614   -24582   -24956   -25268   -24915   -24039 
  -23715   -24423   -25261   -25315   -24810   -24496   -24662   -25032 
  -25121   -24800   -24535   -24688   -25023   -25239   -25279   -25118 
  -24891   -24902   -25106   -25155   -25024   -24915   -24858   -24947 
  -25181   -25217   -24929   -24628   -24697   -25050   -25106   -24726 
  -24403   -24408   -24602   -24748   -24651   -24424   -24405   -24616 
  -24679   -24319   -23844   -23801   -24166   -24350   -23990   -23471 
  -23449   -23912   -24190   -23938   -23528   -23500   -23839   -23974 
  -23759   -23713   -24029   -24317   -24360   -24376   -24462   -24416 
  -24134   -23721   -23516   -23953   -24699   -24825   -24366   -24224 
  -24550   -24663   -24275   -23757   -23620   -24083   -24650   -24661 
  -24310   -24112   -24174   -24517   -24904   -24795   -24362   -24372 
  -24832   -25040   -24820   -24633   -24676   -24720   -24715   -24897 
  -25248   -25322   -24918   -24603   -24875   -25239   -25139   -24944 
  -25029   -25198   -25287   -25328   -25306   -25173   -25089   -25251 
  -25516   -25641   -25501   -25223   -25190   -25412   -25557   -25520 
  -25379   -25306   -25457   -25766   -26059   -26081   -25728   -25414 
  -25458   -25647   -25750   -25726   -25631   -25540   -25563   -25837 
  -26142   -26142   -25931   -25664   -25329   -25066   -25111   -25455 
  -25763   -25801   -25703   -25514   -25212   -24999   -25031   -25264 
  -25446   -25338   -25014   -24655   -24487   -24695   -25076   -25232 
  -25026   -24675   -24474   -24518   -24749   -24952   -24953   -24862 
  -24822   -24975   -25272   -25357   -25241   -25191   -25194   -25237 
  -25391   -25596   -25756   -25854   -25855   -25724   -25636   -25751 
  -25905   -25957   -25967   -25966   -25955   -25899   -25808   -25903 
  -26173   -26204   -25900   -25686   -25770   -25854   -25762   -25650 
  -25633   -25671   -25611   -25321   -25012   -25019   -25210   -25237 
  -25188   -25254   -25315   -25235   -25024   -24901   -25093   -25282 
  -25126   -24965   -25015   -24956   -24724   -24598   -24607   -24609 
  -24653   -24723   -24704   -24698   -24718   -24605   -24486   -24539 
  -24654   -24683   -24591   -24474   -24508   -24660   -24680   -24551 
  -24569   -24736   -24696   -24476   -24401   -24535   -24648   -24441 
  -24080   -24117   -24559   -24826   -24564   -24060   -23954   -24450 
  -25029   -25105   -24636   -24061   -23862   -24109   -24484   -24661 
  -24637   -24684   -24863   -24932   -24827   -24684   -24560   -24469 
  -24399   -24363   -24462   -24613   -24546   -24268   -24090   -24135 
  -24189   -24056   -23790   -23570   -23528   -23709   -23913   -23801 
  -23395   -23079   -23136   -23503   -23851   -23856   -23535   -23226 
  -23179   -23356   -23528   -23466   -23252   -23180   -23303   -23501 
  -23641   -23537   -23257   -23173   -23384   -23612   -23641   -23445 
  -23111   -22885   -22948   -23118   -23183   -23165   -23105   -23117 
  -23338   -23501   -23336   -23170   -23330   -23610   -23752   -23828 
  -23956   -24011   -23924   -23829   -23786   -23784   -23869   -23992 
  -24045   -24122   -24358   -24615   -24778   -24909   -24929   -24819 
  -24786   -24845   -24884   -24993   -25124   -25056   -24936   -25072 
  -25305   -25300   -25039   -24726   -24637   -24854   -25078   -25009 
  -24699   -24469   -24518   -24684   -24817   -24938   -24980   -24899 
  -24749   -24634   -24737   -25043   -25262   -25161   -24785   -24446 
  -24440   -24766   -25105   -25075   -24659   -24235   -24170   -24411 
  -24512   -24371   -24339   -24417   -24337   -24118   -23971   -24029 
  -24143   -24033   -23719   -23471   -23502   -23831   -24143   -24045 
  -23648   -23471   -23645   -23780   -23699   -23581   -23512   -23509 
  -23527   -23439   -23311   -23286   -23374   -23529   -23628   -23576 
  -23491   -23511   -23621   -23721   -23702   -23560   -23456   -23531 
  -23708   -23841   -23868   -23812   -23757   -23727   -23632   -23473 
  -23406   -23502   -23614   -23564   -23425   -23418   -23568   -23705 
  -23713   -23660   -23672   -23772   -23913   -23993   -23961   -23924 
  -23960   -24048   -24121   -24119   -24131   -24284   -24519   -24672 
  -24655   -24532   -24437   -24403   -24433   -24545   -24572   -24388 
  -24190   -24139   -24214   -24363   -24432   -24265   -23975   -23857 
  -24022   -24261   -24315   -24115   -23835   -23751   -23890   -23974 
  -23847   -23647   -23578   -23739   -24001   -24113   -24062   -24091 
  -24305   -24528   -24577   -24443   -24290   -24329   -24470   -24491 
  -24504   -24684   -24900   -24946   -24840   -24745   -24782   -24998 
  -25268   -25328   -25120   -24840   -24676   -24716   -24859   -24833 
  -24596   -24432   -24522   -24741   -24816   -24707   -24700   -24844 
  -24878   -24792   -24791   -24830   -24758   -24646   -24576   -24500 
  -24438   -24434   -24424   -24438   -24513   -24442   -24137   -23869 
  -23883   -24171   -24537   -24726   -24699   -24648   -24650   -24652 
  -24688   -24770   -24809   -24832   -24894   -24958   -25052   -25180 
  -25205   -25096   -24951   -24888   -24969   -25107   -25215   -25223 
  -25088   -25001   -25100   -25209   -25183   -25136   -25265   -25523 
  -25629   -25496   -25333   -25351   -25507   -25547   -25432   -25382 
  -25465   -25578   -25603   -25511   -25414   -25388   -25377   -25340 
  -25335   -25468   -25694   -25772   -25571   -25317   -25307   -25441 
  -25382   -25119   -25002   -25230   -25526   -25506   -25152   -24752 
  -24597   -24762   -25002   -25014   -24762   -24481   -24460   -24702 
  -24893   -24887   -24818   -24774   -24750   -24685   -24534   -24393 
  -24405   -24612   -24814   -24752   -24498   -24308   -24282   -24417 
  -24683   -24906   -24862   -24534   -24160   -24010   -24156   -24403 
  -24440   -24203   -23959   -23924   -24057   -24160   -24082   -23927 
  -23922   -24147   -24410   -24447   -24330   -24309   -24365   -24325 
  -24148   -24039   -24187   -24415   -24492   -24433   -24382   -24500 
  -24672   -24583   -24277   -24132   -24344   -24676   -24757   -24592 
  -24471   -24481   -24517   -24528   -24521   -24464   -24378   -24381 
  -24446   -24432   -24387   -24390   -24396   -24392   -24351   -24216 
  -24106   -24132   -24091   -23862   -23708   -23820   -24089   -24287 
  -24214   -23946   -23774   -23815   -23895   -23858   -23830   -23862 
  -23730   -23502   -23505   -23755   -23986   -23943   -23703   -23560 
  -23610   -23747   -23811   -23743   -23689   -23821   -24096   -24248 
  -24045   -23680   -23565   -23767   -24066   -24192   -24073   -23956 
  -24062   -24324   -24461   -24313   -24133   -24242   -24622   -25025 
  -25166   -24995   -24874   -25028   -25199   -25164   -25090   -25235 
  -25554   -25752   -25682   -25482   -25341   -25319   -25411   -25530 
  -25513   -25374   -25261   -25247   -25322   -25392   -25360   -25302 
  -25295   -25260   -25162   -25064   -25045   -25141   -25214   -25132 
  -25004   -24941   -24833   -24605   -24428   -24460   -24574   -24557 
  -24367   -24156   -24133   -24306   -24428   -24319   -24114   -24078 
  -24193   -24275   -24320   -24323   -24179   -23962   -23830   -23790 
  -23806   -23856   -23862   -23813   -23773   -23701   -23581   -23545 
  -23628   -23694   -23642   -23520   -23468   -23531   -23586   -23512 
  -23399   -23420   -23503   -23506   -23515   -23590   -23647   -23606 
  -23444   -23346   -23541   -23841   -23881   -23726   -23718   -23874 
  -23946   -23836   -23574   -23329   -23365   -23572   -23647   -23644 
  -23704   -23749   -23692   -23559   -23392   -23313   -23562   -23961 
  -23979   -23652   -23450   -23504   -23625   -23650   -23580   -23552 
  -23678   -23900   -24040   -24006   -23855   -23720   -23742   -23908 
  -23983   -23906   -23908   -24024   -24083   -24134   -24243   -24210 
  -24011   -23942   -24104   -24305   -24331   -24125   -23916   -23986 
  -24233   -24308   -24128   -23894   -23803   -23878   -23976   -23936 
  -23784   -23685   -23705   -23774   -23813   -23785   -23786   -23931 
  -24135   -24203   -24121   -24047   -24019   -23930   -23778   -23695 
  -23817   -24091   -24242   -24160   -24150   -24294   -24177   -23796 
  -23636   -23835   -24144   -24331   -24378   -24422   -24505   -24480 
  -24296   -24219   -24433   -24667   -24580   -24218   -23929   -24056 
  -24592   -25071   -25075   -24730   -24473   -24468   -24518   -24513 
  -24484   -24387   -24199   -24050   -24167   -24596   -24948   -24847 
  -24457   -24161   -24143   -24338   -24489   -24563   -24787   -25044 
  -25005   -24763   -24638   -24702   -24734   -24530   -24212   -24154 
  -24552   -25083   -25234   -24971   -24687   -24621   -24664   -24627 
  -24558   -24603   -24645   -24605   -24693   -24949   -25107   -25039 
  -24857   -24605   -24342   -24330   -24562   -24771   -24963   -25173 
  -25200   -24974   -24679   -24553   -24682   -24865   -24827   -24625 
  -24599   -24856   -25066   -25016   -24914   -24843   -24761   -24784 
  -24791   -24668   -24668   -24803   -24748   -24507   -24429   -24561 
  -24597   -24497   -24469   -24583   -24782   -24904   -24849   -24812 
  -24925   -24908   -24546   -24170   -24203   -24509   -24760   -24888 
  -24837   -24705   -24750   -24805   -24609   -24400   -24432   -24530 
  -24457   -24334   -24499   -24970   -25309   -25159   -24667   -24332 
  -24452   -24704   -24685   -24543   -24632   -24910   -24991   -24747 
  -24518   -24544   -24603   -24451   -24203   -24187   -24535   -24904 
  -24893   -24525   -24182   -24203   -24441   -24596   -24602   -24446 
  -24287   -24299   -24263   -24096   -24195   -24592   -24777   -24583 
  -24308   -24171   -24065   -23891   -23903   -24202   -24408   -24351 
  -24331   -24561   -24923   -25102   -24932   -24757   -24851   -24804 
  -24445   -24286   -24478   -24640   -24614   -24498   -24453   -24624 
  -24909   -25099   -25124   -25041   -24935   -24702   -24227   -23890 
  -24228   -25002   -25320   -24912   -24551   -24846   -25324   -25225 
  -24640   -24287   -24462   -24762   -24883   -25020   -25323   -25573 
  -25517   -25313   -25334   -25493   -25470   -25356   -25414   -25642 
  -25804   -25729   -25594   -25652   -25805   -25864   -25899   -25956 
  -25912   -25751   -25606   -25528   -25502   -25703   -26182   -26571 
  -26602   -26392   -26069   -25622   -25251   -25387   -25976   -26374 
  -26184   -25741   -25645   -25880   -25909   -25769   -25866   -26064 
  -26063   -25893   -25703   -25617   -25698   -25770   -25559   -25110 
  -24761   -24839   -25285   -25515   -25223   -24802   -24639   -24727 
  -24843   -24864   -24939   -25035   -24904   -24634   -24463   -24442 
  -24564   -24791   -24981   -24890   -24459   -24074   -24157   -24482 
  -24421   -23954   -23636   -23717   -24063   -24370   -24348   -24084 
  -23862   -23754   -23768   -23914   -23940   -23734   -23598   -23619 
  -23701   -23903   -24113   -24202   -24225   -24097   -23752   -23467 
  -23605   -24082   -24449   -24555   -24542   -24458   -24304   -24121 
  -24146   -24533   -24826   -24689   -24445   -24383   -24466   -24539 
  -24516   -24433   -24364   -24466   -24724   -24809   -24634   -24427 
  -24279   -24235   -24403   -24618   -24695   -24821   -25039   -25062 
  -24913   -24872   -24861   -24640   -24417   -24514   -24720   -24775 
  -24857   -25120   -25347   -25265   -24929   -24634   -24563   -24691 
  -24885   -25013   -25082   -25145   -25069   -24834   -24688   -24684 
  -24746   -24944   -25134   -24982   -24584   -24397   -24650   -25104 
  -25220   -24850   -24533   -24658   -24952   -25044   -24940   -24800 
  -24721   -24812   -25034   -25059   -24701   -24327   -24393   -24776 
  -25030   -25010   -24931   -24901   -24759   -24526   -24468   -24621 
  -24756   -24715   -24615   -24713   -24952   -24991   -24807   -24623 
  -24477   -24370   -24395   -24540   -24721   -24820   -24646   -24280 
  -24053   -24015   -24123   -24366   -24479   -24379   -24336   -24412 
  -24427   -24342   -24291   -24306   -24342   -24402   -24393   -24278 
  -24287   -24534   -24753   -24594   -24162   -24000   -24218   -24388 
  -24338   -24158   -23988   -24017   -24151   -24072   -23813   -23737 
  -23926   -24029   -23854   -23718   -23874   -24081   -24060   -23968 
  -24164   -24583   -24735   -24517   -24287   -24225   -24260   -24266 
  -24226   -24257   -24366   -24422   -24387   -24386   -24509   -24645 
  -24713   -24718   -24552   -24257   -24157   -24364   -24623   -24689 
  -24527   -24304   -24213   -24277   -24437   -24644   -24743   -24551 
  -24167   -23960   -24198   -24688   -24959   -24906   -24806   -24817 
  -24928   -24985   -24890   -24826   -24892   -24977   -25052   -25118 
  -25100   -25021   -24997   -24999   -24966   -24987   -25071   -25094 
  -25065   -25038   -25009   -25086   -25291   -25463   -25603   -25724 
  -25575   -25179   -24974   -25120   -25400   -25539   -25329   -24915 
  -24684   -24719   -24809   -24792   -24729   -24695   -24583   -24452 
  -24546   -24777   -24831   -24614   -24316   -24198   -24334   -24587 
  -24737   -24665   -24508   -24494   -24616   -24658   -24535   -24415 
  -24447   -24524   -24495   -24484   -24674   -24895   -24833   -24507 
  -24241   -24264   -24419   -24435   -24369   -24358   -24324   -24223 
  -24123   -24106   -24216   -24391   -24536   -24596   -24605   -24742 
  -25035   -25252   -25296   -25250   -25161   -25094   -25094   -25127 
  -25174   -25208   -25115   -24892   -24756   -24821   -24953   -25062 
  -25128   -25030   -24833   -24815   -24968   -25057   -24997   -24836 
  -24710   -24685   -24682   -24652   -24633   -24685   -24856   -25066 
  -25174   -25189   -25225   -25295   -25256   -25069   -24923   -24949 
  -25101   -25232   -25171   -24985   -24889   -24909   -24933   -24867 
  -24750   -24758   -24919   -25051   -25027   -24910   -24878   -25028 
  -25208   -25191   -25011   -24895   -24926   -25007   -25054   -25047 
  -24967   -24846   -24747   -24716   -24791   -24836   -24663   -24394 
  -24258   -24279   -24407   -24537   -24578   -24640   -24806   -24917 
  -24876   -24784   -24711   -24687   -24768   -24884   -24912   -24892 
  -24884   -24849   -24776   -24686   -24624   -24662   -24742   -24716 
  -24593   -24478   -24424   -24446   -24452   -24334   -24213   -24256 
  -24336   -24250   -24055   -23942   -23985   -24100   -24169   -24186 
  -24247   -24339   -24309   -24102   -23908   -23946   -24181   -24386 
  -24501   -24664   -24834   -24841   -24721   -24609   -24586   -24653 
  -24655   -24492   -24351   -24408   -24597   -24726   -24634   -24385 
  -24200   -24165   -24230   -24314   -24369   -24424   -24510   -24577 
  -24586   -24581   -24543   -24445   -24415   -24525   -24667   -24751 
  -24787   -24852   -24960   -25038   -25088   -25146   -25160   -25134 
  -25141   -25184   -25192   -25112   -25035   -25097   -25217   -25186 
  -25038   -25016   -25120   -25143   -25071   -24981   -24861   -24781 
  -24822   -24892   -24888   -24822   -24727   -24656   -24659   -24727 
  -24811   -24871   -24874   -24797   -24683   -24654   -24753   -24811 
  -24722   -24663   -24783   -24903   -24797   -24551   -24410   -24450 
  -24560   -24574   -24414   -24266   -24350   -24533   -24560   -24494 
  -24499   -24553   -24577   -24527   -24396   -24305   -24355   -24430 
  -24388   -24273   -24224   -24284   -24328   -24260   -24183   -24187 
  -24202   -24162   -24091   -24018   -23964   -23996   -24123   -24234 
  -24244   -24186   -24160   -24178   -24133   -24026   -24000   -24099 
  -24204   -24195   -24108   -24104   -24228   -24315   -24257   -24156 
  -24142   -24206   -24255   -24220   -24127   -24059   -24062   -24116 
  -24156   -24136   -24069   -24036   -24112   -24249   -24276   -24153 
  -24063   -24140   -24321   -24438   -24398   -24265   -24182   -24234 
  -24378   -24490   -24490   -24407   -24303   -24199   -24117   -24141 
  -24345   -24652   -24837   -24781   -24611   -24548   -24648   -24767 
  -24783   -24722   -24663   -24661   -24720   -24763   -24744   -24746 
  -24767   -24685   -24514   -24384   -24323   -24301   -24303   -24284 
  -24224   -24163   -24158   -24228   -24271   -24209   -24166   -24220 
