Origin Time       2011/03/11 14:46:00
Lat.              38.103
Long.             142.860
Depth. (km)       24
Mag.              9.0
Station Code      ISK008
Station Lat.      36.8937
Station Long.     136.7784
Station Height(m) 15
Record Time       2011/03/11 14:48:10
Sampling Freq(Hz) 100Hz
Duration Time(s)  300
Dir.              N-S
Scale Factor      3920(gal)/6182761
Max. Acc. (gal)   9.901
Last Correction   2011/03/11 14:47:55
Memo.             
[...]
  -27453   -27378   -27327   -27287   -27255   -27253   -27265   -27307 
  -27397   -27473   -27516   -27594   -27713   -27815   -27891   -27951 
  -27986   -28016   -28044   -28061   -28068   -28051   -27999   -27929 
  -27876   -27831   -27756   -27643   -27517   -27444   -27389   -27239 
  -27015   -26771   -26499   -26214   -25914   -25556   -25180   -24880 
  -24617   -24294   -23978   -23745   -23509   -23251   -23042   -22839 
  -22601   -22370   -22181   -22040   -21948   -21883   -21838   -21831 
  -21869   -21959   -22099   -22298   -22552   -22798   -23017   -23259 
  -23527   -23723   -23835   -23954   -24021   -23990   -23971   -23981 
  -23947   -23905   -23928   -24011   -24132   -24322   -24572   -24806 
  -24998   -25248   -25581   -25874   -26108   -26360   -26614   -26822 
  -26982   -27100   -27215   -27338   -27473   -27674   -27921   -28160 
  -28398   -28620   -28783   -28862   -28864   -28819   -28775   -28737 
  -28650   -28500   -28347   -28201   -28032   -27861   -27704   -27546 
  -27383   -27258   -27229   -27277   -27337   -27394   -27451   -27498 
  -27523   -27527   -27508   -27446   -27366   -27297   -27212   -27106 
  -26984   -26868   -26796   -26723   -26630   -26555   -26491   -26479 
  -26510   -26530   -26601   -26731   -26880   -27037   -27146   -27232 
  -27350   -27427   -27411   -27352   -27322   -27318   -27330   -27406 
  -27512   -27556   -27556   -27523   -27464   -27435   -27433   -27441 
  -27465   -27502   -27614   -27820   -27996   -28073   -28106   -28126 
  -28092   -28017   -27959   -27873   -27750   -27674   -27604   -27527 
  -27524   -27521   -27441   -27350   -27288   -27263   -27301   -27373 
  -27423   -27444   -27428   -27396   -27390   -27357   -27248   -27123 
  -27016   -26867   -26677   -26486   -26269   -26042   -25821   -25544 
  -25197   -24815   -24435   -24090   -23789   -23532   -23302   -23106 
  -23011   -23010   -23031   -23072   -23153   -23281   -23423   -23495 
  -23530   -23607   -23678   -23728   -23792   -23796   -23729   -23656 
  -23576   -23498   -23418   -23296   -23143   -22995   -22838   -22663 
  -22505   -22355   -22170   -21957   -21739   -21516   -21335   -21186 
  -20976   -20746   -20570   -20372   -20146   -19972   -19826   -19661 
  -19497   -19362   -19278   -19203   -19084   -18951   -18843   -18776 
  -18705   -18567   -18426   -18335   -18239   -18126   -18001   -17870 
  -17771   -17686   -17607   -17588   -17629   -17671   -17685   -17710 
  -17772   -17860   -17960   -18035   -18102   -18213   -18337   -18422 
  -18457   -18421   -18348   -18329   -18329   -18262   -18151   -18008 
  -17830   -17656   -17502   -17385   -17276   -17120   -16984   -16889 
  -16747   -16605   -16511   -16357   -16173   -16104   -16079   -15928 
  -15675   -15458   -15310   -15198   -15121   -15057   -14973   -14874 
  -14772   -14742   -14842   -14996   -15170   -15339   -15465   -15661 
  -15976   -16290   -16525   -16692   -16856   -17065   -17261   -17383 
  -17426   -17449   -17519   -17649   -17829   -18002   -18145   -18340 
  -18582   -18816   -19103   -19491   -19895   -20241   -20589   -21018 
  -21456   -21791   -22065   -22320   -22492   -22608   -22753   -22880 
  -22928   -22918   -22893   -22864   -22835   -22811   -22765   -22720 
  -22724   -22762   -22818   -22932   -23084   -23180   -23213   -23286 
  -23446   -23636   -23804   -23984   -24221   -24471   -24732   -25075 
  -25476   -25870   -26262   -26638   -26949   -27243   -27605   -27945 
  -28164   -28349   -28539   -28685   -28793   -28820   -28754   -28677 
  -28565   -28389   -28245   -28115   -27907   -27655   -27434   -27245 
  -27044   -26859   -26723   -26600   -26507   -26450   -26418   -26479 
  -26622   -26732   -26812   -26919   -27033   -27136   -27209   -27218 
  -27192   -27135   -26998   -26824   -26643   -26380   -26104   -25927 
  -25755   -25532   -25357   -25220   -24995   -24680   -24366   -24083 
  -23824   -23598   -23414   -23279   -23157   -22982   -22745   -22516 
  -22365   -22263   -22137   -21993   -21889   -21806   -21676   -21568 
  -21568   -21555   -21427   -21279   -21176   -21095   -21047   -21013 
  -20986   -21024   -21088   -21105   -21154   -21237   -21226   -21234 
  -21382   -21455   -21387   -21395   -21467   -21473   -21463   -21498 
  -21591   -21719   -21830   -21947   -22117   -22308   -22514   -22769 
  -23006   -23195   -23472   -23787   -23950   -23978   -23949   -23908 
  -23941   -23997   -23974   -23950   -23999   -24071   -24110   -24107 
  -24128   -24200   -24198   -24088   -24007   -23983   -23910   -23775 
  -23653   -23556   -23491   -23490   -23495   -23486   -23533   -23645 
  -23814   -24038   -24295   -24601   -24934   -25225   -25457   -25695 
  -25942   -26124   -26226   -26233   -26120   -25970   -25818   -25578 
  -25260   -24973   -24717   -24412   -24092   -23855   -23700   -23579 
  -23445   -23290   -23128   -22915   -22674   -22500   -22337   -22101 
  -21844   -21572   -21233   -20893   -20610   -20318   -20004   -19725 
  -19464   -19233   -19090   -18950   -18733   -18559   -18468   -18382 
  -18289   -18140   -17956   -17839   -17741   -17634   -17616   -17663 
  -17702   -17782   -17949   -18214   -18591   -18968   -19224   -19509 
  -19954   -20409   -20815   -21220   -21546   -21810   -22100   -22331 
  -22481   -22654   -22782   -22795   -22845   -22981   -23087   -23174 
  -23285   -23369   -23460   -23585   -23656   -23686   -23754   -23838 
  -23939   -24062   -24115   -24056   -23929   -23813   -23773   -23778 
  -23724   -23553   -23335   -23152   -23033   -22963   -22861   -22710 
  -22637   -22702   -22858   -23067   -23288   -23471   -23637   -23798 
  -23934   -24085   -24244   -24321   -24310   -24289   -24261   -24185 
  -24126   -24128   -24100   -24002   -23902   -23894   -24003   -24121 
  -24199   -24255   -24239   -24194   -24213   -24253   -24245   -24207 
  -24165   -24106   -24116   -24250   -24359   -24398   -24463   -24577 
  -24706   -24803   -24905   -25066   -25194   -25233   -25231   -25233 
  -25254   -25296   -25322   -25315   -25326   -25296   -25179   -25145 
  -25210   -25230   -25295   -25531   -25829   -26060   -26244   -26459 
  -26685   -26850   -26997   -27234   -27504   -27657   -27755   -27958 
  -28275   -28585   -28777   -28882   -28985   -29087   -29156   -29232 
  -29376   -29501   -29513   -29515   -29563   -29569   -29496   -29407 
  -29316   -29141   -28884   -28650   -28450   -28220   -27899   -27530 
  -27230   -26975   -26695   -26418   -26156   -25897   -25679   -25501 
  -25318   -25138   -24968   -24786   -24599   -24445   -24329   -24209 
  -24094   -24064   -24116   -24169   -24240   -24399   -24626   -24845 
  -25008   -25155   -25316   -25425   -25444   -25401   -25298   -25175 
  -25077   -24971   -24833   -24662   -24440   -24183   -23941   -23769 
  -23643   -23467   -23259   -23114   -23070   -23110   -23120   -23060 
  -23053   -23119   -23192   -23281   -23376   -23422   -23409   -23416 
  -23493   -23579   -23648   -23727   -23806   -23866   -23901   -23943 
  -24053   -24180   -24226   -24258   -24362   -24438   -24367   -24229 
  -24159   -24090   -23885   -23595   -23394   -23280   -23078   -22850 
  -22755   -22616   -22308   -22022   -21856   -21758   -21642   -21454 
  -21299   -21217   -21089   -20953   -20922   -20931   -20880   -20799 
  -20744   -20696   -20630   -20546   -20490   -20518   -20476   -20233 
  -20042   -20000   -19874   -19681   -19555   -19445   -19275   -19086 
  -18999   -19011   -19018   -19034   -19136   -19341   -19574   -19786 
  -20033   -20269   -20457   -20728   -21040   -21221   -21315   -21417 
  -21563   -21753   -21864   -21897   -21986   -22122   -22269   -22451 
  -22652   -22789   -22808   -22799   -22797   -22772   -22771   -22733 
  -22631   -22569   -22505   -22401   -22347   -22384   -22459   -22512 
  -22557   -22628   -22697   -22773   -22903   -23062   -23141   -23136 
  -23191   -23315   -23385   -23413   -23482   -23539   -23574   -23680 
  -23767   -23758   -23776   -23822   -23836   -23838   -23816   -23821 
  -23885   -23924   -23900   -23856   -23843   -23906   -24033   -24137 
  -24157   -24146   -24157   -24179   -24242   -24301   -24243   -24111 
  -23980   -23811   -23577   -23319   -23068   -22810   -22524   -22252 
  -22036   -21871   -21755   -21673   -21606   -21576   -21594   -21679 
  -21853   -22042   -22219   -22444   -22732   -23045   -23335   -23619 
  -23888   -24095   -24318   -24549   -24689   -24789   -24869   -24840 
  -24726   -24655   -24631   -24515   -24288   -24072   -23877   -23613 
  -23339   -23147   -22953   -22716   -22531   -22352   -22080   -21801 
  -21598   -21410   -21265   -21226   -21171   -21056   -21052   -21167 
  -21244   -21265   -21292   -21360   -21463   -21537   -21566   -21587 
  -21599   -21609   -21674   -21780   -21870   -21980   -22127   -22299 
  -22488   -22602   -22666   -22880   -23165   -23309   -23408   -23576 
  -23728   -23816   -23896   -24008   -24154   -24329   -24516   -24687 
  -24862   -25106   -25411   -25691   -25896   -26076   -26272   -26414 
  -26529   -26730   -26958   -27124   -27309   -27561   -27779   -27906 
  -28009   -28124   -28215   -28225   -28150   -28117   -28184   -28237 
  -28211   -28165   -28156   -28237   -28384   -28491   -28570   -28708 
  -28893   -29088   -29269   -29400   -29482   -29503   -29433   -29343 
  -29303   -29204   -29029   -28931   -28834   -28656   -28557   -28533 
  -28462   -28372   -28328   -28331   -28311   -28245   -28190   -28152 
  -28112   -28062   -28049   -28132   -28246   -28340   -28457   -28622 
  -28819   -29001   -29165   -29321   -29398   -29409   -29422   -29409 
  -29331   -29182   -28990   -28766   -28531   -28337   -28126   -27864 
  -27652   -27440   -27149   -26875   -26667   -26541   -26528   -26575 
  -26610   -26639   -26720   -26858   -27010   -27169   -27333   -27472 
  -27573   -27697   -27901   -28079   -28104   -28053   -28007   -27960 
  -27951   -27949   -27861   -27725   -27623   -27506   -27298   -27099 
  -27046   -27027   -26866   -26596   -26365   -26233   -26151   -26053 
  -25961   -25953   -26004   -25987   -25910   -25912   -26002   -26106 
  -26237   -26434   -26647   -26753   -26770   -26863   -26949   -26893 
  -26889   -26982   -26876   -26548   -26317   -26208   -25910   -25450 
  -25133   -24889   -24454   -23892   -23464   -23189   -22788   -22247 
  -21872   -21561   -21071   -20650   -20522   -20458   -20149   -19744 
  -19649   -19753   -19691   -19587   -19755   -20097   -20235   -20277 
  -20656   -21165   -21390   -21506   -21787   -22093   -22193   -22159 
  -22147   -22111   -21972   -21812   -21749   -21633   -21263   -20907 
  -20827   -20763   -20524   -20304   -20262   -20325   -20325   -20254 
  -20263   -20323   -20305   -20255   -20230   -20191   -20180   -20222 
  -20197   -20118   -20121   -20126   -19987   -19756   -19539   -19378 
  -19286   -19185   -18958   -18674   -18497   -18405   -18288   -18103 
  -17896   -17756   -17685   -17631   -17579   -17565   -17646   -17769 
  -17827   -17830   -17857   -17905   -17913   -17871   -17817   -17764 
  -17694   -17617   -17583   -17591   -17581   -17565   -17594   -17614 
  -17618   -17664   -17709   -17722   -17754   -17835   -17950   -18013 
  -18001   -18040   -18170   -18276   -18311   -18356   -18449   -18577 
  -18734   -18873   -19021   -19242   -19474   -19677   -19838   -19949 
  -20092   -20264   -20362   -20399   -20466   -20567   -20648   -20731 
  -20811   -20847   -20925   -21090   -21255   -21423   -21624   -21857 
  -22131   -22399   -22653   -22906   -23127   -23353   -23549   -23676 
  -23829   -23998   -24158   -24355   -24540   -24714   -24907   -25083 
  -25245   -25376   -25511   -25676   -25739   -25755   -25824   -25857 
  -25878   -25886   -25824   -25746   -25618   -25472   -25388   -25224 
  -24956   -24688   -24422   -24184   -23901   -23527   -23176   -22852 
  -22596   -22469   -22313   -22065   -21849   -21780   -21805   -21741 
  -21682   -21755   -21786   -21724   -21680   -21693   -21685   -21520 
  -21326   -21215   -20987   -20613   -20249   -19957   -19722   -19452 
  -19118   -18787   -18471   -18201   -18036   -17909   -17712   -17490 
  -17352   -17253   -17112   -17006   -16985   -16972   -16943   -16896 
  -16863   -16919   -17038   -17114   -17084   -17025   -17014   -16950 
  -16851   -16849   -16869   -16843   -16765   -16653   -16656   -16699 
  -16631   -16544   -16478   -16456   -16441   -16342   -16295   -16332 
  -16359   -16393   -16386   -16325   -16265   -16240   -16322   -16414 
  -16414   -16405   -16414   -16437   -16439   -16331   -16183   -16104 
  -16064   -16003   -15935   -15961   -16053   -16096   -16163   -16303 
  -16476   -16718   -16978   -17170   -17312   -17479   -17762   -18111 
  -18374   -18549   -18739   -19022   -19372   -19680   -19861   -19986 
  -20226   -20529   -20753   -20973   -21257   -21577   -21915   -22232 
  -22553   -22897   -23204   -23517   -23896   -24244   -24488   -24734 
  -25099   -25534   -25935   -26278   -26578   -26863   -27145   -27460 
  -27847   -28182   -28428   -28742   -29135   -29546   -29944   -30273 
  -30581   -30926   -31277   -31624   -31968   -32352   -32743   -33057 
  -33361   -33685   -33956   -34155   -34305   -34435   -34527   -34630 
  -34773   -34798   -34765   -34868   -34956   -34967   -35081   -35268 
  -35424   -35578   -35786   -36050   -36297   -36485   -36633   -36789 
  -36988   -37169   -37303   -37413   -37511   -37661   -37833   -37967 
  -38175   -38482   -38710   -38821   -38965   -39175   -39342   -39399 
  -39350   -39257   -39164   -39039   -38843   -38597   -38324   -37969 
  -37540   -37149   -36806   -36468   -36160   -35860   -35566   -35344 
  -35179   -35037   -34927   -34811   -34708   -34653   -34549   -34339 
  -34064   -33752   -33400   -33023   -32706   -32425   -32070   -31725 
  -31487   -31266   -30963   -30641   -30428   -30319   -30215   -30077 
  -29953   -29937   -30019   -30051   -29976   -29895   -29867   -29829 
  -29750   -29679   -29607   -29529   -29460   -29370   -29296   -29278 
  -29244   -29187   -29187   -29238   -29276   -29331   -29390   -29359 
  -29298   -29235   -29112   -29014   -28937   -28789   -28647   -28529 
  -28334   -28124   -27972   -27770   -27495   -27254   -27085   -26978 
  -26959   -27032   -27109   -27107   -27117   -27211   -27223   -27027 
  -26799   -26700   -26550   -26227   -25905   -25666   -25415   -25086 
  -24718   -24436   -24308   -24229   -24072   -23907   -23841   -23831 
  -23810   -23793   -23761   -23660   -23514   -23322   -23100   -22890 
  -22625   -22310   -21994   -21635   -21293   -21030   -20787   -20545 
  -20300   -20046   -19825   -19671   -19552   -19403   -19208   -19031 
  -18907   -18785   -18636   -18523   -18503   -18562   -18676   -18836 
  -18991   -19140   -19333   -19560   -19805   -20058   -20276   -20465 
  -20694   -20960   -21157   -21249   -21325   -21449   -21589   -21685 
  -21724   -21796   -21966   -22054   -21961   -21879   -21833   -21696 
  -21531   -21404   -21231   -21022   -20885   -20762   -20641   -20632 
  -20683   -20742   -20817   -20840   -20862   -20934   -20998   -21102 
  -21257   -21354   -21390   -21466   -21544   -21557   -21630   -21767 
  -21843   -21935   -22100   -22291   -22530   -22756   -22910   -23109 
  -23344   -23515   -23673   -23827   -23960   -24131   -24325   -24491 
  -24675   -24928   -25224   -25616   -26136   -26581   -26870   -27185 
  -27545   -27867   -28101   -28223   -28385   -28610   -28746   -28887 
  -29086   -29195   -29233   -29348   -29563   -29728   -29732   -29659 
  -29688   -29854   -29940   -29823   -29657   -29529   -29352   -29060 
  -28717   -28429   -28143   -27769   -27335   -26869   -26404   -26006 
  -25696   -25432   -25158   -24880   -24717   -24730   -24715   -24580 
  -24524   -24572   -24597   -24503   -24282   -24154   -24175   -24093 
  -23864   -23642   -23452   -23239   -22929   -22508   -22116   -21825 
  -21507   -21164   -20903   -20646   -20389   -20259   -20175   -20002 
  -19794   -19638   -19515   -19401   -19316   -19253   -19196   -19179 
  -19211   -19228   -19203   -19210   -19271   -19298   -19298   -19340 
  -19430   -19608   -19796   -19873   -19899   -19923   -19941   -19972 
  -19993   -20016   -19990   -19868   -19817   -19905   -20020   -20095 
  -20132   -20216   -20344   -20427   -20513   -20632   -20799   -20979 
  -21012   -20949   -20938   -20946   -20916   -20758   -20511   -20366 
  -20246   -20049   -19908   -19823   -19701   -19540   -19341   -19167 
  -19114   -19132   -19093   -19068   -19190   -19364   -19540   -19836 
  -20195   -20464   -20674   -20941   -21270   -21551   -21714   -21863 
  -22110   -22312   -22294   -22199   -22205   -22222   -22119   -21861 
  -21536   -21296   -21134   -20978   -20829   -20687   -20520   -20284 
  -20106   -20081   -20016   -19870   -19765   -19632   -19479   -19438 
  -19482   -19497   -19389   -19213   -19166   -19236   -19265   -19331 
  -19565   -19783   -19829   -19950   -20282   -20632   -20981   -21379 
  -21717   -21925   -21988   -21998   -22129   -22373   -22581   -22683 
  -22744   -22847   -22960   -23061   -23219   -23414   -23550   -23625 
  -23745   -23969   -24240   -24478   -24630   -24669   -24716   -24876 
  -25028   -25106   -25224   -25366   -25397   -25354   -25342   -25412 
  -25606   -25874   -26105   -26229   -26250   -26296   -26410   -26471 
  -26421   -26273   -26049   -25818   -25609   -25374   -25098   -24832 
  -24568   -24204   -23766   -23433   -23200   -22921   -22628   -22391 
  -22145   -21873   -21608   -21354   -21076   -20710   -20276   -19896 
  -19654   -19489   -19282   -19015   -18776   -18691   -18736   -18755 
  -18706   -18578   -18365   -18223   -18148   -17920   -17611   -17420 
  -17264   -17078   -16942   -16846   -16744   -16665   -16656   -16714 
  -16793   -16888   -16975   -17057   -17155   -17162   -17103   -17166 
  -17336   -17507   -17632   -17713   -17777   -17767   -17701   -17675 
  -17656   -17599   -17516   -17426   -17354   -17278   -17236   -17284 
  -17330   -17336   -17375   -17511   -17727   -17908   -18070   -18271 
  -18430   -18545   -18716   -18977   -19228   -19340   -19402   -19517 
  -19592   -19651   -19742   -19789   -19801   -19810   -19822   -19874 
  -19959   -20017   -20012   -19986   -20013   -20071   -20135   -20172 
  -20134   -20148   -20298   -20414   -20424   -20417   -20449   -20577 
  -20774   -20988   -21274   -21621   -21952   -22326   -22757   -23057 
  -23198   -23377   -23567   -23602   -23515   -23407   -23293   -23143 
  -22922   -22676   -22448   -22186   -21958   -21855   -21740   -21566 
  -21509   -21593   -21667   -21668   -21688   -21826   -22020   -22172 
  -22247   -22308   -22499   -22816   -23116   -23309   -23419   -23526 
  -23671   -23819   -23882   -23825   -23749   -23745   -23817   -23911 
  -23907   -23847   -23871   -23950   -24094   -24311   -24452   -24541 
  -24694   -24851   -25033   -25276   -25443   -25521   -25637   -25743 
  -25758   -25752   -25804   -25958   -26214   -26475   -26734   -27067 
  -27417   -27737   -28021   -28189   -28277   -28432   -28621   -28673 
  -28540   -28323   -28115   -27885   -27452   -26831   -26375   -26129 
  -25798   -25437   -25248   -25146   -25083   -25077   -25005   -24855 
  -24742   -24653   -24522   -24355   -24186   -24041   -23988   -24032 
