Origin Time       2011/03/11 14:46:00
Lat.              38.103
Long.             142.860
Depth. (km)       24
Mag.              9.0
Station Code      ISK009
Station Lat.      36.7318
Station Long.     136.6989
Station Height(m) 40
Record Time       2011/03/11 14:49:22
Sampling Freq(Hz) 100Hz
Duration Time(s)  176
Dir.              E-W
Scale Factor      3920(gal)/6182761
Max. Acc. (gal)   4.256
Last Correction   2011/03/11 14:49:07
Memo.             
[...]
  -23451   -22712   -22600   -23000   -22931   -22763   -22767   -22582 
  -22522   -22723   -22619   -22352   -22482   -22405   -21819   -21831 
  -22297   -22068   -21497   -21263   -21151   -21043   -20917   -20592 
  -20435   -20640   -20504   -19881   -19585   -19896   -20093   -19721 
  -19304   -19308   -19560   -19633   -19309   -19163   -19514   -19620 
  -19409   -19356   -19368   -19562   -19802   -19718   -19706   -19859 
  -19971   -20230   -20417   -20338   -20434   -20796   -20985   -20979 
  -20963   -20900   -20892   -21026   -21226   -21284   -21160   -21298 
  -21616   -21546   -21318   -21410   -21736   -22117   -22263   -21948 
  -21875   -22494   -22747   -22345   -22431   -22848   -22804   -22808 
  -23014   -22870   -22783   -23154   -23264   -23069   -23306   -23496 
  -23113   -22936   -23054   -22793   -22784   -23330   -23157   -22532 
  -22637   -22724   -22426   -22556   -22699   -22413   -22590   -23095 
  -22816   -22213   -22172   -22337   -22393   -22468   -22432   -22418 
  -22618   -22342   -21528   -21437   -22006   -21775   -20859   -20460 
  -20536   -20551   -20383   -19890   -19527   -19695   -19663   -19077 
  -18682   -18827   -18864   -18496   -18432   -18800   -18832   -18679 
  -18787   -18577   -18338   -18611   -18314   -17846   -18621   -19259 
  -18752   -18671   -19193   -19219   -18939   -18617   -18483   -19061 
  -19517   -18772   -17794   -17941   -18542   -18425   -17871   -17629 
  -17866   -18314   -18619   -18647   -18692   -19070   -19446   -19266 
  -18696   -18365   -18405   -18528   -18744   -19125   -19372   -19312 
  -19266   -19456   -19664   -19613   -19351   -19144   -19033   -18658 
  -17942   -17826   -18758   -19396   -18970   -18475   -18696   -19289 
  -19588   -19293   -18737   -18599   -18853   -18872   -18590   -18496 
  -18904   -19632   -20241   -20188   -19575   -19257   -19157   -18808 
  -18619   -18824   -19182   -19553   -19992   -20666   -21404   -21830 
  -21979   -21663   -20602   -19753   -19931   -20512   -21058   -21520 
  -21646   -21948   -22653   -22701   -22174   -22183   -22306   -21738 
  -21039   -20754   -20563   -20630   -21294   -22035   -22440   -22394 
  -21888   -21501   -21729   -22207   -22242   -21810   -21416   -21183 
  -20942   -20830   -21233   -22101   -22615   -22285   -21751   -21515 
  -21311   -21018   -20687   -20563   -20862   -21034   -20671   -20228 
  -20232   -20584   -20709   -20520   -20503   -20450   -19747   -18992 
  -18935   -19233   -19707   -19996   -19683   -19624   -20137   -20379 
  -20085   -19487   -19045   -19310   -20150   -20942   -21336   -21377 
  -21356   -21455   -21549   -21700   -22029   -22477   -23133   -23513 
  -23167   -23012   -23189   -22916   -22982   -23693   -23843   -23786 
  -24334   -24565   -24285   -24316   -24176   -23521   -23110   -22870 
  -22441   -22357   -22783   -23056   -22785   -22433   -22399   -22211 
  -21625   -20764   -19498   -18578   -18644   -18737   -18348   -18217 
  -18603   -19034   -19147   -18602   -17439   -16645   -16744   -16995 
  -16979   -17277   -17861   -17883   -17431   -16978   -16612   -16729 
  -17108   -16939   -16556   -16712   -16889   -16434   -16199   -16812 
  -17479   -17799   -17933   -17862   -17864   -17976   -17692   -17285 
  -17603   -18219   -18233   -18018   -18141   -18605   -19435   -20162 
  -20142   -19763   -19499   -19025   -18496   -18723   -19394   -19430 
  -19344   -20162   -21114   -21302   -21225   -21255   -21174   -21321 
  -21665   -21340   -21022   -21914   -22831   -22823   -23030   -23532 
  -23570   -23435   -22984   -22039   -21776   -22535   -22935   -22684 
  -22779   -23088   -23003   -22816   -22908   -23265   -23724   -23902 
  -23361   -22466   -22025   -22069   -22217   -22256   -22316   -22600 
  -22709   -22261   -21511   -21004   -21207   -21976   -22439   -22209 
  -21992   -22121   -22279   -22527   -22739   -22725   -22999   -23488 
  -23494   -23280   -23143   -22806   -22583   -22897   -23532   -24042 
  -24152   -23995   -23911   -24047   -24200   -24088   -23973   -24161 
  -24133   -23535   -22956   -22545   -21965   -21577   -21556   -21840 
  -22631   -23302   -23011   -22375   -22527   -23045   -22812   -22101 
  -21884   -22189   -22377   -22287   -22203   -22397   -22982   -23172 
  -22342   -21663   -21750   -21422   -20834   -21229   -22072   -22294 
  -21943   -21262   -20818   -21116   -21211   -20565   -20124   -20142 
  -20260   -20487   -20598   -20495   -20642   -20965   -20850   -20482 
  -20372   -20212   -19938   -20339   -21189   -21394   -21122   -20902 
  -20520   -20319   -20752   -21146   -21099   -21076   -20812   -20182 
  -20235   -20898   -21083   -21010   -21114   -20955   -20595   -20576 
  -20697   -20560   -20425   -20500   -20470   -20312   -20430   -20585 
  -20464   -20585   -20864   -20735   -20674   -21016   -21235   -21472 
  -22051   -22321   -22370   -22962   -23472   -23459   -23770   -24265 
  -24359   -24455   -24337   -23879   -24223   -25063   -25158   -25095 
  -25241   -24953   -24817   -25223   -25304   -25217   -25512   -25595 
  -25340   -25217   -24938   -24312   -23963   -24143   -24164   -23715 
  -23445   -23726   -24143   -24356   -24556   -24758   -24705   -24464 
  -23945   -23277   -23214   -23585   -23494   -23120   -23197   -23543 
  -23667   -23675   -23510   -22976   -22455   -22039   -21569   -21444 
  -21628   -21400   -21010   -21277   -21572   -21303   -21103   -20889 
  -20590   -20722   -20752   -20263   -19939   -20002   -20004   -19896 
  -19975   -20277   -20473   -20295   -19830   -19389   -19256   -19194 
  -18781   -18509   -18877   -19238   -19277   -19453   -19680   -19776 
  -19923   -20129   -20326   -20359   -20280   -20504   -21004   -21454 
  -21654   -21375   -21083   -21528   -21918   -21320   -21019   -21781 
  -22220   -22126   -22228   -22144   -21888   -21759   -21344   -21045 
  -21555   -22072   -21741   -21192   -21375   -21808   -21559   -21247 
  -21534   -21847   -21838   -21671   -21549   -22023   -22854   -22694 
  -21916   -22008   -22548   -22643   -22563   -22537   -22553   -22948 
  -23289   -22762   -22354   -22984   -23392   -22799   -22292   -22417 
  -22529   -22625   -22748   -22432   -22315   -22860   -23058   -23082 
  -23730   -23799   -23232   -23790   -24735   -24676   -24546   -24597 
  -23919   -23411   -23724   -23577   -23236   -23593   -23623   -23136 
  -23120   -23170   -22936   -23319   -23863   -23478   -23103   -23503 
  -23805   -23686   -23559   -23385   -23103   -22952   -22785   -22306 
  -22105   -22604   -22876   -22469   -21976   -21350   -20456   -19788 
  -19185   -18616   -18969   -19764   -19860   -19872   -20172   -19956 
  -19311   -18950   -18994   -19273   -19490   -19222   -18764   -18911 
  -19410   -19465   -19346   -19514   -19530   -19160   -18762   -18531 
  -18779   -19650   -20319   -20180   -19889   -19866   -19726   -19577 
  -19639   -19751   -19804   -19606   -19349   -19472   -19776   -19749 
  -19319   -19131   -19631   -20138   -19871   -19358   -19439   -19641 
  -19169   -18259   -17965   -18645   -19033   -18635   -18490   -18819 
  -19253   -19666   -19727   -19551   -19529   -19278   -18584   -17985 
  -17625   -17439   -17677   -18120   -18346   -18367   -18188   -18003 
  -17990   -17798   -17518   -17650   -18100   -18453   -18505   -18311 
  -18149   -18212   -18223   -17973   -17795   -17844   -17861   -17630 
  -17446   -17942   -18734   -18741   -18180   -17894   -17857   -18117 
  -18750   -19112   -19190   -19597   -19995   -19909   -19813   -19799 
  -19569   -19824   -20665   -20904   -20617   -20622   -20441   -20192 
  -20805   -21280   -20829   -20778   -21151   -20911   -20713   -21216 
  -21806   -22286   -22841   -22969   -22847   -23207   -23354   -22738 
  -22293   -22250   -21958   -21685   -21694   -21588   -21634   -21807 
  -21456   -21219   -21832   -22282   -21690   -20853   -20697   -20964 
  -21023   -21028   -21294   -21684   -22272   -22548   -21881   -21473 
  -21824   -21225   -20003   -19976   -20245   -20032   -20327   -20641 
  -20512   -20680   -20546   -19698   -19332   -19485   -19277   -19076 
  -19471   -20044   -19954   -19232   -18778   -18834   -19046   -19133 
  -18708   -18109   -18118   -18148   -17510   -17078   -17372   -17878 
  -18232   -18120   -17667   -17568   -17903   -18079   -18065   -18357 
  -18758   -18824   -18537   -17925   -17402   -17613   -18320   -18543 
  -18119   -17953   -18292   -18477   -18312   -18004   -17890   -18445 
  -19077   -18826   -18381   -18699   -19070   -18747   -18325   -18324 
  -18603   -18982   -19211   -19191   -19115   -19116   -18948   -18523 
  -18544   -19089   -19288   -19059   -18870   -18924   -19068   -19054 
  -19215   -19617   -19628   -19241   -18943   -18963   -19631   -20577 
  -20642   -20198   -20440   -20857   -20738   -20656   -20827   -21111 
  -21576   -21707   -21497   -21937   -22972   -23394   -23113   -23155 
  -23496   -23532   -23281   -22989   -23135   -23711   -23843   -23477 
  -23557   -24121   -24319   -24161   -24198   -24335   -24158   -23350 
  -22251   -21938   -22376   -22383   -21809   -21561   -21955   -22074 
  -21415   -20935   -20937   -20748   -20501   -20431   -20223   -20136 
  -20360   -20159   -19646   -19728   -20121   -20375   -20935   -21711 
  -21938   -21617   -21244   -20789   -20438   -20438   -20135   -19527 
  -19545   -19905   -19879   -19862   -19853   -19360   -18999   -19209 
  -19228   -18751   -18136   -17564   -17500   -17968   -18072   -17936 
  -18205   -18368   -18049   -17501   -16877   -16557   -16701   -16872 
  -17095   -17533   -17824   -17896   -17688   -17121   -16571   -16056 
  -15786   -16321   -17011   -17254   -17538   -17675   -17400   -17335 
  -17452   -17450   -17798   -18421   -18651   -18442   -18168   -18174 
  -18295   -18098   -18064   -18669   -19217   -19182   -18699   -18238 
  -18482   -19050   -19138   -19057   -19188   -19389   -19519   -19391 
  -19240   -19791   -20533   -20345   -20009   -20430   -20926   -21155 
  -21260   -21258   -21535   -21930   -21830   -21710   -22293   -23127 
  -23587   -23837   -23992   -23856   -23427   -22913   -22899   -23597 
  -24201   -24198   -24022   -24030   -23979   -23649   -23225   -22945 
  -22824   -22656   -22420   -22443   -22693   -22765   -22483   -21989 
  -21621   -21527   -21296   -20509   -19703   -19487   -19387   -19114 
  -18968   -18925   -19060   -19235   -18954   -18655   -18826   -18962 
  -18820   -18703   -18815   -19108   -19464   -19884   -20208   -20157 
  -19922   -19969   -20310   -20668   -20661   -20278   -20333   -20705 
  -20371   -19699   -19461   -19589   -19874   -19947   -19739   -19666 
  -19716   -19668   -19608   -19617   -19751   -19862   -19602   -19449 
  -19877   -20206   -20088   -19972   -19942   -19836   -19699   -19345 
  -18784   -18495   -18533   -18753   -19180   -19498   -19346   -18935 
  -18697   -18729   -18922   -18874   -18430   -18315   -18676   -18802 
  -18763   -18911   -18961   -18797   -18399   -17570   -16887   -17023 
  -17198   -16589   -15951   -15961   -16297   -16777   -17279   -17674 
  -18238   -18844   -19023   -19128   -19510   -19693   -19600   -19481 
  -19300   -19331   -19804   -20514   -21183   -21797   -22286   -22212 
  -21974   -22150   -22017   -21534   -21654   -22059   -22127   -22126 
  -22067   -22097   -22693   -23330   -23391   -23297   -23314   -23246 
  -23165   -23138   -23003   -22644   -22071   -21595   -21428   -21227 
  -20948   -20762   -20511   -20577   -21190   -21585   -21776   -22278 
  -22390   -21920   -21676   -21430   -20872   -20421   -20030   -19744 
  -19993   -20275   -19880   -19397   -19468   -19809   -20027   -19934 
  -19641   -19505   -19598   -19586   -19384   -19081   -18524   -17935 
  -17685   -17778   -18354   -19270   -19767   -19824   -19973   -19961 
  -19671   -19624   -19865   -19916   -19512   -18676   -17454   -16364 
  -15925   -15931   -16438   -17463   -18217   -18377   -18503   -18902 
  -19367   -19804   -20246   -20764   -21478   -21916   -21290   -19987 
  -19254   -19091   -18699   -18546   -19317   -20405   -21036   -21098 
  -20541   -19634   -19196   -19238   -19165   -19242   -19704   -19784 
  -19263   -18835   -18396   -17838   -17844   -18094   -18092   -18502 
  -19309   -19651   -19528   -19225   -18605   -18299   -18941   -19455 
  -18969   -18325   -17926   -17422   -17272   -17531   -17629   -18140 
  -19258   -19670   -19105   -18582   -18546   -19082   -19803   -19767 
  -19010   -18459   -18358   -18427   -18687   -19014   -19150   -19121 
  -18850   -18457   -18427   -19037   -20143   -21080   -21391   -21491 
  -21812   -22106   -21956   -21495   -21305   -21688   -22067   -21703 
  -20993   -20709   -20858   -21089   -21102   -21094   -21630   -22494 
  -23039   -23325   -23513   -23477   -23340   -23332   -23460   -23516 
  -23362   -22850   -22064   -21884   -22573   -23043   -23006   -22957 
  -22494   -21797   -21711   -21494   -20692   -20449   -20679   -20633 
  -20938   -21197   -20090   -18580   -17913   -17607   -17768   -18676 
  -19448   -20029   -20942   -21193   -20275   -19534   -19658   -20080 
  -20502   -21104   -21693   -21733   -21083   -19829   -18513   -18262 
  -19075   -19508   -19164   -18993   -18881   -18495   -18725   -19554 
  -20242   -20963   -21278   -20654   -20223   -20157   -19478   -18959 
  -18995   -18414   -17512   -17546   -18402   -19502   -20608   -21072 
  -20652   -19959   -19234   -18345   -17679   -17659   -17643   -17104 
  -16402   -15394   -14324   -14266   -15051   -15881   -16959   -18161 
  -18736   -19087   -19616   -19603   -19203   -19021   -18878   -18880 
  -18965   -18674   -18711   -19597   -20125   -19873   -19862   -20081 
  -19954   -19774   -19551   -19176   -19459   -20389   -21053   -21610 
  -22263   -22153   -21358   -21122   -21276   -21269   -21651   -21808 
  -21159   -21220   -22380   -23216   -23728   -24479   -24984   -25153 
  -25167   -24868   -24618   -24734   -24718   -24274   -23936   -24064 
  -24209   -24160   -24493   -25099   -25320   -25488   -25608   -25147 
  -24706   -24740   -24678   -24484   -24474   -24038   -23046   -22414 
  -22101   -21841   -22056   -22299   -21945   -21607   -21844   -22323 
  -23033   -23965   -24163   -23502   -23198   -23206   -22605   -22210 
  -22651   -22642   -21855   -21150   -20739   -21032   -22260   -23427 
  -24311   -25414   -25784   -24867   -23858   -23468   -23427   -23176 
  -22461   -21953   -21960   -21801   -21112   -20282   -19775   -19636 
  -19568   -19522   -19866   -20470   -20727   -20444   -19707   -19008 
  -19021   -19271   -18968   -18572   -18293   -17622   -17176   -17506 
  -17909   -18237   -18551   -18382   -18150   -18322   -18348   -18291 
  -18735   -19158   -18817   -18276   -18316   -18562   -18497   -18143 
  -17505   -16973   -16931   -16849   -16697   -17211   -17959   -18058 
  -17649   -17156   -16925   -17041   -16926   -16344   -16108   -16637 
  -17165   -17205   -17133   -17189   -17307   -17490   -17343   -16756 
  -16653   -17167   -17582   -18123   -19025   -19812   -20405   -20791 
  -20586   -20104   -20158   -20572   -20759   -20809   -20761   -20601 
  -20772   -21396   -21862   -21856   -22016   -22445   -22403   -22022 
  -21657   -20949   -20048   -19254   -18387   -18064   -18724   -19242 
  -18998   -18764   -18900   -19169   -19453   -19497   -19298   -19182 
  -19032   -18670   -18490   -18756   -18896   -18913   -19606   -20351 
  -20281   -20203   -20344   -19845   -19045   -18550   -18178   -18357 
  -19124   -19350   -18975   -18770   -18655   -18442   -18357   -18449 
  -18610   -18709   -18583   -18273   -17991   -18055   -18530   -18822 
  -18848   -19206   -19659   -19610   -19286   -19013   -18594   -18158 
  -18051   -18184   -18325   -18431   -18588   -18502   -18263   -18578 
  -19082   -19305   -19834   -20453   -20400   -20066   -20015   -20132 
  -20255   -20265   -20166   -20202   -20446   -20712   -20588   -20107 
  -20165   -20644   -20543   -20341   -20643   -20947   -21414   -22287 
  -22705   -22508   -22167   -21348   -20495   -20377   -20311   -20229 
  -20788   -21256   -21173   -21232   -21290   -20960   -20751   -20638 
  -20190   -19865   -19900   -19794   -19738   -20462   -21506   -21690 
  -21255   -21069   -20955   -20671   -20518   -20426   -20317   -20494 
  -20637   -20371   -20227   -20640   -21067   -20638   -19828   -19611 
  -19487   -19002   -18698   -18855   -19508   -20402   -20717   -20432 
  -20577   -21135   -21147   -20887   -21302   -22037   -22105   -21615 
  -21028   -20383   -20110   -20288   -20345   -20574   -21346   -21717 
  -21277   -20920   -20831   -20579   -20182   -19880   -20014   -20467 
  -20493   -19974   -19627   -19788   -20079   -19929   -19583   -19909 
  -20449   -20158   -19573   -19550   -19877   -20390   -20914   -20908 
  -20736   -20911   -20851   -20402   -20162   -20073   -19950   -19982 
  -20002   -19833   -19660   -19596   -19560   -19585   -19932   -20301 
  -20291   -20466   -21080   -21590   -21780   -21837   -21946   -22118 
  -22197   -22052   -21891   -22158   -22951   -23814   -24172   -24170 
  -24187   -24002   -23987   -24616   -24968   -24851   -25279   -25664 
  -25067   -24449   -24147   -23362   -22776   -23086   -23548   -23952 
  -24346   -24094   -23460   -23441   -23739   -23563   -23302   -23510 
  -23896   -23910   -23421   -22896   -22788   -22862   -22603   -21978 
  -21669   -22136   -22635   -22472   -22184   -22248   -22215   -21774 
  -21310   -21342   -21981   -22698   -22918   -22818   -22789   -22511 
  -21820   -21578   -22051   -22492   -22704   -22781   -22620   -22369 
  -22052   -21481   -21168   -21608   -22139   -22299   -22325   -22331 
  -22478   -22659   -22565   -22531   -22873   -23082   -22791   -22356 
  -22164   -22368   -22679   -22568   -22287   -22479   -22925   -23118 
  -23360   -23867   -24102   -23851   -23386   -23018   -23179   -23796 
  -24175   -24317   -24701   -24864   -24506   -24413   -24743   -24767 
  -24517   -24317   -23786   -23159   -22955   -22748   -22539   -22880 
  -23556   -24005   -24239   -24554   -24811   -24766   -24699   -24977 
  -25258   -25348   -25609   -25603   -25037   -24758   -24806   -24617 
  -24614   -24819   -24662   -24524   -24671   -24725   -24731   -24923 
  -25246   -25494   -25580   -25643   -25979   -26384   -26316   -26072 
  -26207   -26510   -26547   -26267   -25795   -25360   -25309   -25485 
  -25453   -25410   -25539   -25246   -24417   -24052   -24119   -23858 
  -23674   -23475   -22843   -22594   -22704   -22234   -21689   -21751 
  -21761   -21462   -21529   -21938   -21946   -21485   -20974   -20535 
  -20408   -20749   -21216   -21661   -22317   -22916   -22806   -22357 
  -22398   -22415   -21680   -21068   -21250   -21373   -21059   -20773 
  -20723   -21054   -21642   -21963   -22059   -22432   -22929   -22955 
  -22473   -22135   -22339   -22623   -22597   -22556   -22774   -22974 
  -22944   -22907   -22765   -22709   -23329   -23848   -23745   -24010 
  -24404   -24120   -24130   -24941   -25293   -25060   -25213   -25535 
  -25726   -25938   -25677   -24992   -24921   -25351   -25157   -24471 
  -24325   -24798   -25019   -24595   -23998   -23745   -23836   -23777 
  -23397   -23245   -23719   -24136   -23776   -23389   -23489   -23507 
  -23423   -23474   -23617   -23882   -23960   -23555   -23244   -23319 
