Origin Time       2011/03/11 14:46:00
Lat.              38.103
Long.             142.860
Depth. (km)       24
Mag.              9.0
Station Code      ISK015
Station Lat.      37.2265
Station Long.     136.9087
Station Height(m) 3
Record Time       2011/03/11 14:49:13
Sampling Freq(Hz) 100Hz
Duration Time(s)  137
Dir.              N-S
Scale Factor      3920(gal)/6182761
Max. Acc. (gal)   2.570
Last Correction   2011/03/11 14:48:58
Memo.             
[...]
   -4869    -4818    -4709    -4560    -4339    -4052    -3797    -3649 
   -3593    -3587    -3597    -3592    -3564    -3552    -3597    -3650 
   -3613    -3507    -3424    -3386    -3378    -3415    -3507    -3652 
   -3832    -3962    -3993    -3935    -3812    -3749    -3855    -4080 
   -4404    -4834    -5251    -5534    -5686    -5736    -5715    -5657 
   -5588    -5559    -5629    -5787    -5985    -6226    -6520    -6799 
   -6973    -6993    -6845    -6562    -6206    -5860    -5631    -5618 
   -5854    -6264    -6690    -6944    -6865    -6425    -5758    -5031 
   -4353    -3855    -3727    -4068    -4759    -5501    -5983    -6072 
   -5795    -5243    -4575    -3976    -3571    -3473    -3775    -4384 
   -5012    -5388    -5447    -5304    -5061    -4698    -4268    -3978 
   -3928    -4015    -4134    -4261    -4395    -4557    -4728    -4831 
   -4830    -4741    -4637    -4568    -4513    -4513    -4680    -5015 
   -5406    -5689    -5741    -5644    -5557    -5495    -5413    -5346 
   -5430    -5743    -6142    -6394    -6383    -6105    -5623    -5052 
   -4462    -3889    -3455    -3385    -3826    -4632    -5485    -6141 
   -6429    -6291    -5817    -5091    -4223    -3476    -3109    -3245 
   -3888    -4887    -5969    -6864    -7363    -7270    -6504    -5234 
   -3796    -2546    -1785    -1676    -2252    -3385    -4754    -5986 
   -6748    -6802    -6140    -4998    -3722    -2621    -1890    -1636 
   -1942    -2756    -3799    -4780    -5502    -5761    -5489    -4835 
   -4016    -3242    -2672    -2355    -2374    -2874    -3775    -4717 
   -5374    -5672    -5672    -5420    -4946    -4293    -3612    -3181 
   -3229    -3774    -4524    -5038    -5122    -4938    -4651    -4206 
   -3575    -2963    -2662    -2844    -3377    -3856    -3929    -3555 
   -3017    -2692    -2685    -2750    -2655    -2454    -2323    -2257 
   -2104    -1823    -1534    -1358    -1316    -1403    -1644    -1970 
   -2199    -2213    -2050    -1813    -1549    -1275    -1058     -978 
   -1044    -1146    -1180    -1190    -1225    -1185    -1015     -855 
    -801     -754     -670     -684     -859    -1141    -1455    -1673 
   -1714    -1620    -1453    -1291    -1159     -992     -872    -1058 
   -1675    -2498    -3045    -3045    -2659    -2086    -1396     -711 
    -224     -142     -557    -1306    -2075    -2613    -2778    -2568 
   -2212    -1942    -1723    -1501    -1395    -1508    -1797    -2159 
   -2470    -2644    -2753    -2911    -3074    -3124    -3012    -2807 
   -2713    -2889    -3227    -3546    -3831    -4123    -4377    -4487 
   -4380    -4182    -4091    -4149    -4265    -4314    -4269    -4200 
   -4106    -3960    -3835    -3767    -3745    -3799    -3883    -3912 
   -3880    -3734    -3403    -2952    -2571    -2464    -2649    -2888 
   -2984    -2977    -2959    -2874    -2618    -2238    -1897    -1737 
   -1805    -1996    -2116    -2043    -1817    -1596    -1479    -1461 
   -1560    -1781    -2047    -2281    -2498    -2757    -3071    -3346 
   -3467    -3387    -3166    -2972    -2987    -3197    -3357    -3297 
   -3145    -3152    -3431    -3897    -4292    -4367    -4135    -3794 
   -3420    -2989    -2638    -2570    -2865    -3496    -4267    -4846 
   -5045    -4901    -4525    -3985    -3321    -2665    -2289    -2357 
   -2667    -2890    -2946    -2968    -2982    -2847    -2508    -2119 
   -1835    -1679    -1594    -1508    -1405    -1357    -1389    -1409 
   -1346    -1218    -1110    -1115    -1187    -1149     -986     -875 
    -882     -925     -953     -949     -904     -834     -797     -902 
   -1160    -1464    -1731    -1919    -2004    -1988    -1873    -1716 
   -1625    -1596    -1632    -1860    -2279    -2737    -3107    -3274 
   -3184    -2876    -2455    -2122    -2024    -2106    -2269    -2520 
   -2891    -3317    -3658    -3872    -4029    -4110    -4015    -3761 
   -3432    -3086    -2740    -2389    -2101    -2004    -2159    -2558 
   -3118    -3617    -3786    -3510    -2887    -2163    -1561    -1176 
   -1037    -1099    -1264    -1516    -1807    -1993    -2051    -2071 
   -2124    -2240    -2372    -2416    -2385    -2416    -2549    -2686 
   -2791    -2943    -3207    -3552    -3854    -4021    -4051    -3960 
   -3814    -3734    -3758    -3813    -3838    -3865    -3976    -4179 
   -4386    -4556    -4693    -4772    -4795    -4798    -4767    -4625 
   -4392    -4246    -4267    -4323    -4318    -4324    -4449    -4657 
   -4766    -4646    -4366    -4098    -3930    -3855    -3844    -3856 
   -3834    -3755    -3647    -3538    -3430    -3355    -3394    -3566 
   -3792    -3955    -3906    -3610    -3273    -3129    -3145    -3115 
   -2971    -2840    -2850    -3006    -3233    -3456    -3648    -3819 
   -3915    -3817    -3533    -3272    -3206    -3301    -3525    -3894 
   -4276    -4531    -4662    -4715    -4754    -4789    -4722    -4505 
   -4194    -3903    -3729    -3663    -3668    -3785    -4031    -4312 
   -4484    -4395    -4048    -3658    -3396    -3269    -3249    -3281 
   -3333    -3427    -3515    -3486    -3313    -3074    -2870    -2721 
   -2587    -2455    -2336    -2253    -2279    -2442    -2681    -2888 
   -2974    -2912    -2688    -2302    -1845    -1441    -1194    -1150 
   -1274    -1520    -1892    -2322    -2647    -2771    -2704    -2510 
   -2309    -2191    -2129    -2086    -2133    -2314    -2531    -2703 
   -2853    -3028    -3223    -3365    -3384    -3293    -3171    -3100 
   -3110    -3168    -3211    -3183    -3144    -3213    -3346    -3415 
   -3429    -3465    -3520    -3556    -3559    -3497    -3284    -2893 
   -2477    -2267    -2359    -2663    -3024    -3366    -3662    -3783 
   -3594    -3139    -2608    -2204    -2060    -2170    -2418    -2678 
   -2888    -3037    -3127    -3202    -3323    -3455    -3497    -3439 
   -3327    -3186    -3141    -3314    -3583    -3789    -3951    -4096 
   -4198    -4247    -4233    -4187    -4131    -3983    -3682    -3302 
   -2975    -2821    -2888    -3107    -3351    -3491    -3414    -3080 
   -2564    -2037    -1709    -1697    -1928    -2259    -2615    -2924 
   -3072    -2988    -2663    -2218    -1885    -1818    -1973    -2203 
   -2402    -2573    -2741    -2849    -2782    -2495    -2101    -1848 
   -1918    -2227    -2543    -2760    -2907    -2931    -2769    -2505 
   -2225    -1957    -1796    -1827    -2015    -2251    -2432    -2527 
   -2548    -2507    -2386    -2144    -1853    -1661    -1611    -1647 
   -1694    -1727    -1826    -2045    -2315    -2535    -2590    -2396 
   -2070    -1808    -1669    -1651    -1762    -1966    -2238    -2578 
   -2899    -3090    -3143    -3130    -3113    -3094    -3053    -2997 
   -2929    -2887    -2911    -2994    -3168    -3490    -3908    -4281 
   -4491    -4560    -4583    -4554    -4419    -4210    -4005    -3862 
   -3833    -3933    -4108    -4286    -4428    -4522    -4560    -4500 
   -4341    -4170    -4031    -3875    -3696    -3569    -3542    -3583 
   -3644    -3678    -3606    -3442    -3315    -3284    -3293    -3251 
   -3129    -3010    -2921    -2786    -2609    -2467    -2446    -2604 
   -2889    -3192    -3451    -3612    -3623    -3501    -3311    -3141 
   -3035    -2962    -2937    -3027    -3183    -3285    -3333    -3407 
   -3528    -3642    -3671    -3573    -3351    -3079    -2921    -2976 
   -3202    -3509    -3779    -3868    -3716    -3394    -3017    -2675 
   -2473    -2492    -2692    -2959    -3180    -3277    -3248    -3122 
   -2933    -2759    -2654    -2594    -2551    -2531    -2584    -2772 
   -3060    -3332    -3504    -3544    -3434    -3213    -2948    -2679 
   -2481    -2462    -2644    -2942    -3250    -3517    -3714    -3774 
   -3641    -3346    -3040    -2870    -2855    -2960    -3135    -3268 
   -3288    -3257    -3277    -3369    -3501    -3648    -3801    -3958 
   -4080    -4112    -4070    -3971    -3787    -3586    -3498    -3556 
   -3735    -4002    -4294    -4592    -4870    -5015    -4973    -4795 
   -4549    -4330    -4186    -4088    -4072    -4178    -4312    -4378 
   -4374    -4295    -4156    -4033    -3974    -3957    -3927    -3882 
   -3870    -3890    -3856    -3682    -3419    -3227    -3193    -3247 
   -3284    -3302    -3369    -3496    -3569    -3483    -3300    -3154 
   -3077    -3049    -3075    -3130    -3193    -3275    -3332    -3325 
   -3310    -3325    -3336    -3323    -3294    -3275    -3281    -3304 
   -3376    -3523    -3683    -3766    -3753    -3671    -3591    -3567 
   -3591    -3670    -3856    -4123    -4311    -4277    -4036    -3739 
   -3520    -3396    -3326    -3335    -3485    -3732    -3961    -4107 
   -4136    -4052    -3917    -3777    -3620    -3452    -3313    -3212 
   -3163    -3211    -3365    -3578    -3783    -3898    -3902    -3880 
   -3883    -3882    -3828    -3704    -3543    -3406    -3333    -3323 
   -3389    -3555    -3771    -3943    -4043    -4096    -4123    -4126 
   -4104    -4063    -4016    -4003    -4050    -4095    -4096    -4127 
   -4256    -4403    -4418    -4227    -3904    -3611    -3425    -3282 
   -3176    -3237    -3513    -3834    -3962    -3831    -3556    -3263 
   -3011    -2816    -2693    -2653    -2701    -2813    -2910    -2890 
   -2736    -2503    -2295    -2242    -2364    -2537    -2655    -2678 
   -2601    -2458    -2286    -2112    -1991    -1985    -2088    -2266 
   -2475    -2645    -2760    -2829    -2852    -2848    -2794    -2687 
   -2547    -2383    -2294    -2376    -2563    -2760    -2952    -3119 
   -3201    -3129    -2901    -2636    -2524    -2638    -2874    -3127 
   -3369    -3587    -3727    -3666    -3327    -2872    -2620    -2718 
   -3068    -3510    -3927    -4219    -4280    -4064    -3622    -3087 
   -2697    -2673    -3029    -3620    -4218    -4563    -4554    -4291 
   -3897    -3473    -3167    -3130    -3412    -3909    -4401    -4668 
   -4628    -4395    -4172    -4115    -4263    -4539    -4843    -5115 
   -5290    -5287    -5139    -4968    -4815    -4678    -4585    -4521 
   -4454    -4419    -4504    -4783    -5204    -5571    -5709    -5569 
   -5135    -4475    -3872    -3639    -3837    -4293    -4762    -5051 
   -5096    -4903    -4478    -3891    -3334    -3027    -3048    -3314 
   -3669    -3954    -4082    -4059    -3923    -3715    -3529    -3513 
   -3726    -4067    -4322    -4345    -4173    -3936    -3698    -3464 
   -3253    -3157    -3276    -3578    -3931    -4207    -4329    -4332 
   -4307    -4262    -4143    -3965    -3866    -3957    -4165    -4360 
   -4498    -4566    -4538    -4436    -4332    -4276    -4252    -4229 
   -4257    -4371    -4494    -4536    -4486    -4380    -4282    -4263 
   -4343    -4475    -4607    -4690    -4669    -4553    -4413    -4343 
   -4415    -4641    -4919    -5089    -5063    -4881    -4638    -4395 
   -4203    -4139    -4217    -4362    -4475    -4474    -4394    -4350 
   -4384    -4440    -4434    -4355    -4301    -4294    -4191    -3887 
   -3503    -3287    -3302    -3418    -3512    -3549    -3563    -3593 
   -3574    -3398    -3113    -2922    -2951    -3150    -3352    -3418 
   -3373    -3317    -3230    -3055    -2869    -2753    -2674    -2616 
   -2616    -2689    -2784    -2847    -2859    -2788    -2628    -2485 
   -2494    -2696    -3036    -3373    -3530    -3430    -3111    -2692 
   -2386    -2356    -2627    -3120    -3619    -3887    -3871    -3650 
   -3315    -2932    -2585    -2430    -2588    -2988    -3415    -3732 
   -3932    -4011    -3974    -3890    -3819    -3746    -3645    -3566 
   -3611    -3763    -3900    -4010    -4143    -4285    -4384    -4388 
   -4295    -4171    -4037    -3852    -3681    -3638    -3729    -3918 
   -4150    -4319    -4383    -4398    -4405    -4386    -4330    -4287 
   -4295    -4343    -4374    -4353    -4379    -4539    -4734    -4851 
   -4895    -4890    -4860    -4815    -4670    -4367    -4028    -3841 
   -3899    -4119    -4343    -4564    -4846    -5102    -5147    -4940 
   -4641    -4442    -4480    -4808    -5343    -5907    -6259    -6182 
   -5690    -4962    -4199    -3576    -3174    -2995    -3023    -3188 
   -3368    -3475    -3558    -3790    -4239    -4693    -4917    -4932 
   -4798    -4438    -3857    -3173    -2449    -1724    -1132     -860 
    -961    -1356    -2053    -3073    -4232    -5249    -5962    -6290 
   -6148    -5505    -4421    -3012    -1519     -329      205      -62 
   -1108    -2778    -4691    -6242    -6851    -6303    -4882    -3116 
   -1470     -315        8     -635    -1965    -3431    -4595    -5297 
   -5507    -5202    -4363    -3026    -1460     -173      379       11 
   -1152    -2741    -4370    -5688    -6324    -6140    -5384    -4426 
   -3538    -2908    -2578    -2383    -2256    -2488    -3309    -4460 
   -5532    -6361    -6806    -6539    -5421    -3871    -2616    -2173 
   -2583    -3424    -4119    -4359    -4292    -4219    -4206    -4222 
   -4415    -4847    -5243    -5260    -4782    -3894    -2805    -1891 
   -1648    -2405    -3976    -5652    -6592    -6300    -4873    -2952 
   -1380     -715    -1010    -1986    -3269    -4462    -5200    -5375 
   -5204    -4913    -4521    -3913    -3015    -2016    -1339    -1346 
   -2114    -3353    -4555    -5291    -5424    -5056    -4331    -3412 
   -2475    -1700    -1297    -1316    -1551    -1811    -2149    -2699 
   -3347    -3791    -3938    -3969    -3994    -3947    -3779    -3410 
   -2720    -1743     -666      237      607      236     -750    -2038 
   -3223    -3868    -3754    -3077    -2179    -1232     -354      251 
     491      528      572      607      423     -145     -994    -1833 
   -2492    -2982    -3259    -3172    -2704    -2147    -1838    -1776 
   -1624    -1133     -467       33      190      -50     -717    -1786 
   -3062    -4160    -4717    -4565    -3742    -2544    -1545    -1263 
   -1647    -2128    -2323    -2333    -2290    -2120    -1833    -1607 
   -1595    -1883    -2408    -2883    -3059    -2890    -2382    -1601 
    -817     -472     -865    -1805    -2685    -3025    -2824    -2377 
   -1906    -1477    -1152    -1071    -1390    -2098    -2936    -3604 
   -3859    -3582    -2955    -2274    -1685    -1291    -1212    -1489 
   -1996    -2449    -2691    -2841    -3003    -3106    -3044    -2774 
   -2337    -1896    -1621    -1552    -1713    -2246    -3165    -4101 
   -4528    -4229    -3440    -2593    -2026    -1893    -2177    -2752 
   -3437    -4066    -4502    -4540    -4028    -3185    -2515    -2341 
   -2577    -2863    -2890    -2631    -2238    -1897    -1812    -2085 
   -2612    -3239    -3814    -4040    -3587    -2477    -1223     -410 
    -208     -458     -974    -1588    -2111    -2313    -2074    -1614 
   -1351    -1538    -2046    -2450    -2379    -1840    -1227    -1004 
   -1404    -2344    -3440    -4125    -4064    -3390    -2400    -1360 
    -631     -583    -1260    -2318    -3290    -3817    -3767    -3259 
   -2608    -2252    -2535    -3348    -4159    -4546    -4507    -4187 
   -3684    -3070    -2482    -2232    -2547    -3240    -3990    -4602 
   -4882    -4710    -4237    -3762    -3443    -3252    -3179    -3252 
   -3370    -3344    -3102    -2769    -2564    -2616    -2921    -3385 
   -3831    -4063    -3986    -3656    -3195    -2672    -2151    -1824 
   -1900    -2371    -2997    -3428    -3393    -2949    -2449    -2244 
   -2542    -3338    -4228    -4613    -4276    -3464    -2591    -2030 
   -1924    -2186    -2703    -3223    -3326    -2885    -2251    -1849 
   -1945    -2564    -3305    -3687    -3729    -3750    -3835    -3739 
   -3182    -2183    -1202     -825    -1208    -2004    -2889    -3883 
   -5049    -6083    -6389    -5582    -3936    -2255    -1170     -739 
    -850    -1594    -2939    -4427    -5508    -5947    -5799    -5224 
   -4382    -3411    -2509    -1904    -1724    -1985    -2596    -3321 
   -3853    -3989    -3751    -3399    -3295    -3568    -3954    -4079 
   -3800    -3191    -2457    -2009    -2233    -3026    -3894    -4445 
   -4563    -4253    -3519    -2527    -1700    -1365    -1554    -2196 
   -3171    -4171    -4728    -4542    -3812    -3089    -2744    -2724 
   -2815    -2935    -3137    -3434    -3743    -3964    -4071    -4134 
   -4212    -4185    -3863    -3266    -2655    -2369    -2689    -3583 
   -4585    -5166    -5137    -4664    -4052    -3539    -3237    -3162 
   -3367    -3922    -4564    -4868    -4717    -4137    -3197    -2287 
   -1928    -2285    -3080    -3890    -4488    -4883    -5005    -4655 
   -3889    -3057    -2390    -1954    -1888    -2283    -2980    -3686 
   -4170    -4308    -4021    -3358    -2682    -2434    -2696    -3177 
   -3509    -3476    -3074    -2450    -1833    -1417    -1229    -1269 
   -1639    -2276    -2854    -3065    -2837    -2380    -2041    -2008 
   -2213    -2555    -3014    -3431    -3449    -2947    -2237    -1729 
   -1644    -1993    -2579    -3053    -3161    -3006    -2837    -2717 
   -2631    -2684    -3013    -3603    -4253    -4718    -4829    -4509 
   -3787    -2846    -2021    -1646    -1869    -2514    -3168    -3535 
   -3572    -3344    -2970    -2654    -2516    -2427    -2227    -2039 
   -2172    -2788    -3703    -4432    -4603    -4308    -3834    -3320 
   -2838    -2443    -2102    -1780    -1602    -1764    -2254    -2834 
   -3321    -3671    -3858    -3911    -3862    -3684    -3353    -2849 
   -2186    -1550    -1257    -1551    -2459    -3723    -4879    -5537 
   -5488    -4635    -3153    -1653     -797     -778    -1397    -2437 
   -3701    -4899    -5650    -5644    -4912    -3852    -2902    -2321 
   -2227    -2526    -2948    -3274    -3421    -3398    -3253    -3057 
   -2946    -3068    -3383    -3648    -3629    -3282    -2774    -2295 
   -1949    -1864    -2173    -2806    -3492    -3993    -4147    -3817 
   -3119    -2461    -2167    -2250    -2556    -2954    -3330    -3578 
   -3636    -3527    -3390    -3343    -3305    -3168    -2983    -2825 
   -2672    -2511    -2386    -2390    -2666    -3216    -3814    -4253 
   -4508    -4551    -4305    -3765    -3049    -2430    -2227    -2547 
   -3215    -3968    -4627    -5114    -5329    -5098    -4347    -3251 
   -2164    -1528    -1674    -2528    -3645    -4553    -5021    -4989 
   -4495    -3776    -3181    -2930    -2997    -3170    -3230    -3116 
   -2929    -2833    -2950    -3262    -3678    -4179    -4687    -4981 
   -4879    -4382    -3665    -2996    -2585    -2504    -2735    -3256 
   -4000    -4783    -5397    -5651    -5392    -4731    -4007    -3433 
   -3038    -2868    -3040    -3584    -4338    -5049    -5581    -5929 
   -6132    -6169    -5934    -5392    -4741    -4267    -4135    -4355 
   -4825    -5414    -5992    -6365    -6371    -6054    -5574    -5096 
   -4776    -4758    -5146    -5814    -6370    -6470    -6037    -5275 
   -4576    -4318    -4617    -5249    -5898    -6463    -6909    -7076 
   -6889    -6494    -6134    -5961    -5952    -6009    -6089    -6189 
   -6305    -6422    -6509    -6541    -6552    -6559    -6489    -6315 
   -6105    -5905    -5729    -5642    -5705    -5881    -6088    -6254 
   -6317    -6196    -5811    -5229    -4691    -4376    -4307    -4484 
   -4874    -5347    -5763    -5970    -5828    -5378    -4817    -4348 
