Origin Time       2011/03/11 14:46:00
Lat.              38.103
Long.             142.860
Depth. (km)       24
Mag.              9.0
Station Code      ISK013
Station Lat.      36.1804
Station Long.     136.6246
Station Height(m) 476
Record Time       2011/03/11 14:50:32
Sampling Freq(Hz) 100Hz
Duration Time(s)  60
Dir.              E-W
Scale Factor      3920(gal)/6182761
Max. Acc. (gal)   1.238
Last Correction   2011/03/11 14:50:17
Memo.             
[...]
  -17321   -17360   -17419   -17415   -17378   -17389   -17428   -17469 
  -17511   -17551   -17602   -17659   -17669   -17607   -17517   -17478 
  -17483   -17455   -17388   -17345   -17374   -17443   -17465   -17412 
  -17365   -17366   -17365   -17349   -17315   -17245   -17199   -17234 
  -17326   -17407   -17417   -17396   -17418   -17448   -17397   -17300 
  -17265   -17264   -17217   -17129   -17044   -17014   -17039   -17068 
  -17082   -17083   -17106   -17152   -17165   -17173   -17189   -17158 
  -17137   -17144   -17094   -17026   -17034   -17103   -17142   -17105 
  -17067   -17082   -17119   -17183   -17214   -17145   -17071   -17070 
  -17120   -17226   -17353   -17432   -17498   -17566   -17546   -17433 
  -17336   -17342   -17453   -17549   -17572   -17605   -17671   -17739 
  -17803   -17836   -17842   -17885   -17959   -17984   -17947   -17910 
  -17900   -17899   -17912   -17969   -18053   -18092   -18048   -17933 
  -17790   -17666   -17560   -17436   -17364   -17450   -17610   -17661 
  -17595   -17533   -17532   -17536   -17462   -17332   -17253   -17256 
  -17310   -17330   -17274   -17281   -17399   -17472   -17437   -17348 
  -17281   -17295   -17305   -17224   -17133   -17141   -17243   -17311 
  -17275   -17238   -17308   -17413   -17406   -17318   -17289   -17310 
  -17318   -17310   -17270   -17233   -17293   -17418   -17501   -17534 
  -17567   -17620   -17673   -17713   -17734   -17729   -17721   -17708 
  -17681   -17680   -17712   -17744   -17745   -17702   -17637   -17564 
  -17476   -17415   -17407   -17404   -17418   -17482   -17498   -17376 
  -17190   -17041   -16953   -16903   -16850   -16832   -16910   -16982 
  -16944   -16856   -16795   -16757   -16734   -16747   -16821   -16920 
  -16973   -16975   -16978   -17032   -17130   -17189   -17204   -17274 
  -17394   -17488   -17547   -17565   -17580   -17640   -17693   -17718 
  -17758   -17788   -17798   -17800   -17779   -17770   -17820   -17918 
  -18022   -18080   -18085   -18041   -17934   -17820   -17769   -17778 
  -17826   -17883   -17918   -17962   -18047   -18116   -18128   -18129 
  -18115   -18033   -17935   -17900   -17926   -17972   -18005   -18033 
  -18073   -18113   -18124   -18085   -18010   -17912   -17807   -17732 
  -17694   -17707   -17799   -17908   -17983   -18049   -18094   -18094 
  -18082   -18069   -18026   -17985   -18003   -18052   -18089   -18147 
  -18243   -18335   -18390   -18388   -18338   -18300   -18280   -18248 
  -18214   -18202   -18236   -18291   -18321   -18340   -18350   -18322 
  -18300   -18308   -18305   -18298   -18301   -18277   -18224   -18185 
  -18169   -18172   -18185   -18130   -17965   -17823   -17819   -17881 
  -17917   -17931   -17959   -17970   -17915   -17847   -17812   -17791 
  -17788   -17794   -17795   -17812   -17833   -17843   -17868   -17896 
  -17895   -17858   -17802   -17782   -17792   -17746   -17615   -17452 
  -17316   -17210   -17100   -17008   -16990   -17064   -17161   -17193 
  -17151   -17083   -17025   -16965   -16905   -16919   -17018   -17127 
  -17214   -17281   -17323   -17310   -17239   -17159   -17143   -17219 
  -17325   -17381   -17411   -17475   -17531   -17464   -17300   -17195 
  -17189   -17222   -17274   -17389   -17589   -17786   -17872   -17882 
  -17904   -17902   -17763   -17514   -17347   -17356   -17409   -17410 
  -17480   -17679   -17868   -17922   -17839   -17717   -17674   -17678 
  -17661   -17697   -17796   -17882   -17946   -17980   -17960   -17896 
  -17807   -17748   -17765   -17858   -17999   -18088   -18011   -17815 
  -17628   -17477   -17353   -17287   -17290   -17351   -17410   -17358 
  -17209   -17102   -17117   -17246   -17450   -17699   -17969   -18162 
  -18185   -18093   -18001   -17967   -17965   -17943   -17959   -18086 
  -18280   -18423   -18378   -18144   -17886   -17719   -17610   -17478 
  -17289   -17106   -17017   -17043   -17158   -17338   -17551   -17755 
  -17888   -17874   -17727   -17515   -17325   -17287   -17439   -17708 
  -18020   -18295   -18517   -18668   -18633   -18357   -17947   -17599 
  -17424   -17392   -17432   -17492   -17584   -17737   -17910   -18052 
  -18090   -17965   -17747   -17592   -17512   -17384   -17264   -17306 
  -17474   -17683   -17910   -18103   -18197   -18182   -18123   -18033 
  -17857   -17675   -17572   -17480   -17365   -17286   -17296   -17451 
  -17745   -18060   -18273   -18392   -18442   -18348   -18092   -17795 
  -17557   -17381   -17248   -17174   -17159   -17211   -17378   -17581 
  -17689   -17740   -17736   -17621   -17464   -17342   -17236   -17130 
  -17104   -17241   -17464   -17673   -17886   -18087   -18251   -18378 
  -18352   -18039   -17518   -16997   -16677   -16658   -16856   -17182 
  -17594   -17959   -18204   -18331   -18289   -18121   -17862   -17556 
  -17430   -17546   -17743   -17916   -17983   -17974   -18057   -18262 
  -18474   -18602   -18606   -18458   -18179   -17920   -17820   -17811 
  -17801   -17871   -18076   -18245   -18184   -17945   -17724   -17594 
  -17528   -17518   -17604   -17768   -17819   -17662   -17473   -17439 
  -17575   -17772   -17980   -18227   -18431   -18447   -18281   -18086 
  -17955   -17867   -17828   -17828   -17813   -17835   -17974   -18167 
  -18283   -18322   -18384   -18458   -18466   -18384   -18253   -18174 
  -18195   -18191   -18102   -18051   -18031   -17961   -17924   -17930 
  -17932   -18002   -18143   -18260   -18306   -18291   -18250   -18234 
  -18312   -18447   -18483   -18394   -18258   -18031   -17718   -17538 
  -17550   -17625   -17752   -17904   -17969   -17933   -17824   -17681 
  -17559   -17478   -17450   -17461   -17501   -17584   -17659   -17653 
  -17646   -17744   -17901   -18023   -17997   -17780   -17586   -17611 
  -17776   -17926   -18029   -18167   -18326   -18382   -18309   -18119 
  -17888   -17773   -17727   -17625   -17559   -17620   -17721   -17776 
  -17817   -17902   -18032   -18204   -18405   -18549   -18543   -18396 
  -18235   -18143   -18051   -17921   -17833   -17865   -17954   -17912 
  -17712   -17590   -17628   -17655   -17612   -17552   -17531   -17598 
  -17663   -17570   -17352   -17156   -17038   -16984   -16998   -17125 
  -17398   -17742   -17995   -17997   -17754   -17505   -17406   -17366 
  -17312   -17287   -17323   -17427   -17582   -17706   -17713   -17629 
  -17531   -17419   -17290   -17228   -17336   -17572   -17779   -17918 
  -18029   -18078   -18041   -17950   -17863   -17865   -17932   -17977 
  -18018   -18054   -18047   -18054   -18086   -18087   -18071   -18060 
  -18087   -18161   -18190   -18131   -18045   -17985   -17986   -18025 
  -18037   -18056   -18146   -18292   -18502   -18762   -18939   -18984 
  -18971   -18926   -18841   -18753   -18710   -18754   -18864   -18965 
  -19036   -19087   -19067   -18899   -18629   -18436   -18421   -18504 
  -18590   -18676   -18767   -18827   -18762   -18560   -18411   -18380 
  -18335   -18276   -18296   -18338   -18298   -18179   -18065   -18003 
  -17948   -17856   -17794   -17838   -17907   -17894   -17832   -17748 
  -17583   -17348   -17152   -17056   -17040   -17061   -17119   -17239 
  -17355   -17375   -17321   -17238   -17120   -16968   -16816   -16766 
  -16873   -17028   -17161   -17299   -17408   -17425   -17343   -17220 
  -17114   -17049   -17000   -16902   -16817   -16862   -16999   -17152 
  -17312   -17478   -17639   -17766   -17789   -17681   -17568   -17551 
  -17593   -17700   -17912   -18178   -18382   -18418   -18300   -18175 
  -18139   -18202   -18314   -18411   -18497   -18626   -18783   -18885 
  -18879   -18822   -18826   -18921   -19030   -19107   -19145   -19151 
  -19151   -19085   -18934   -18821   -18790   -18810   -18892   -18966 
  -18966   -18978   -19023   -19026   -18998   -19009   -19142   -19363 
  -19501   -19524   -19495   -19420   -19340   -19253   -19118   -19037 
  -19144   -19408   -19664   -19750   -19679   -19612   -19589   -19502 
  -19374   -19321   -19390   -19548   -19686   -19742   -19714   -19554 
  -19295   -19058   -18891   -18823   -18869   -18955   -19033   -19098 
  -19149   -19192   -19192   -19166   -19207   -19307   -19397   -19436 
  -19383   -19240   -19064   -18871   -18677   -18563   -18577   -18683 
  -18839   -19009   -19127   -19113   -18944   -18734   -18555   -18330 
  -18091   -17964   -17952   -18014   -18099   -18122   -18113   -18130 
  -18100   -18015   -17959   -17933   -17954   -18026   -18050   -18031 
  -18065   -18146   -18231   -18313   -18387   -18431   -18436   -18409 
  -18381   -18370   -18328   -18243   -18231   -18324   -18435   -18484 
  -18446   -18369   -18300   -18272   -18320   -18380   -18421   -18518 
  -18633   -18648   -18580   -18546   -18595   -18694   -18799   -18898 
  -18992   -19071   -19098   -19047   -18900   -18679   -18456   -18268 
  -18138   -18100   -18142   -18221   -18309   -18408   -18470   -18431 
  -18348   -18305   -18280   -18237   -18196   -18205   -18288   -18383 
  -18450   -18511   -18592   -18704   -18802   -18860   -18926   -19034 
  -19128   -19144   -19099   -19034   -18974   -18940   -18925   -18932 
  -18975   -19027   -19059   -19051   -18985   -18884   -18805   -18766 
  -18725   -18685   -18666   -18678   -18768   -18879   -18889   -18830 
  -18772   -18738   -18772   -18890   -19052   -19200   -19246   -19185 
  -19083   -18932   -18720   -18502   -18323   -18184   -18080   -18024 
  -18022   -18036   -18020   -17964   -17865   -17729   -17608   -17526 
  -17451   -17381   -17335   -17294   -17274   -17305   -17352   -17362 
  -17361   -17424   -17542   -17619   -17619   -17600   -17605   -17594 
  -17538   -17474   -17406   -17337   -17301   -17295   -17277   -17225 
  -17171   -17117   -17021   -16916   -16814   -16704   -16647   -16597 
  -16514   -16512   -16617   -16757   -16880   -16918   -16858   -16753 
  -16643   -16586   -16643   -16799   -16973   -17087   -17122   -17103 
  -17061   -17022   -17022   -17070   -17151   -17274   -17412   -17516 
  -17575   -17547   -17464   -17441   -17471   -17491   -17486   -17448 
  -17402   -17330   -17204   -17097   -17079   -17159   -17283   -17379 
  -17494   -17670   -17821   -17909   -17967   -18001   -17992   -17920 
  -17805   -17699   -17658   -17727   -17862   -17964   -18035   -18109 
  -18140   -18087   -17979   -17877   -17815   -17811   -17866   -17958 
  -18070   -18192   -18284   -18296   -18245   -18188   -18154   -18156 
  -18191   -18216   -18190   -18134   -18095   -18065   -18022   -17992 
  -17997   -18022   -18077   -18174   -18290   -18384   -18425   -18408 
  -18387   -18396   -18384   -18318   -18250   -18238   -18270   -18278 
  -18268   -18313   -18409   -18512   -18584   -18587   -18563   -18544 
  -18480   -18373   -18260   -18164   -18091   -18015   -17954   -17975 
  -18070   -18164   -18254   -18343   -18349   -18266   -18167   -18075 
  -18017   -18005   -18008   -18063   -18199   -18308   -18325   -18316 
  -18285   -18216   -18160   -18103   -18061   -18110   -18228   -18379 
  -18536   -18631   -18662   -18647   -18592   -18544   -18515   -18494 
  -18476   -18464   -18495   -18556   -18599   -18647   -18711   -18765 
  -18801   -18791   -18734   -18689   -18661   -18608   -18530   -18459 
  -18438   -18477   -18542   -18587   -18601   -18622   -18677   -18739 
  -18792   -18840   -18885   -18917   -18901   -18857   -18823   -18779 
  -18724   -18697   -18732   -18814   -18916   -19029   -19127   -19158 
  -19104   -18978   -18809   -18680   -18622   -18572   -18533   -18528 
  -18498   -18456   -18451   -18406   -18267   -18107   -18011   -17999 
  -18008   -17977   -17948   -17966   -17995   -18001   -17998   -18030 
  -18118   -18202   -18229   -18233   -18245   -18264   -18268   -18223 
  -18144   -18052   -17921   -17790   -17735   -17715   -17694   -17713 
  -17774   -17855   -17915   -17909   -17866   -17799   -17698   -17594 
  -17515   -17490   -17516   -17539   -17556   -17598   -17655   -17708 
  -17755   -17789   -17802   -17806   -17806   -17795   -17788   -17818 
  -17899   -17999   -18087   -18172   -18247   -18283   -18299   -18306 
  -18272   -18217   -18150   -18040   -17909   -17788   -17676   -17609 
  -17606   -17632   -17683   -17742   -17760   -17736   -17707   -17651 
  -17538   -17391   -17277   -17259   -17317   -17396   -17481   -17567 
  -17652   -17713   -17711   -17662   -17597   -17527   -17460   -17404 
  -17378   -17408   -17485   -17584   -17690   -17764   -17783   -17777 
  -17733   -17644   -17560   -17483   -17401   -17333   -17271   -17228 
  -17217   -17233   -17249   -17220   -17171   -17175   -17226   -17266 
  -17273   -17281   -17315   -17352   -17387   -17437   -17517   -17633 
  -17745   -17847   -17957   -18043   -18112   -18184   -18243   -18291 
  -18320   -18343   -18403   -18482   -18520   -18498   -18463   -18490 
  -18558   -18586   -18588   -18630   -18703   -18736   -18680   -18587 
  -18563   -18614   -18645   -18638   -18657   -18719   -18772   -18753 
  -18680   -18649   -18686   -18737   -18750   -18716   -18722   -18811 
  -18892   -18903   -18867   -18825   -18794   -18765   -18736   -18719 
  -18744   -18812   -18880   -18936   -18979   -19006   -19024   -19014 
  -18990   -18970   -18939   -18938   -18988   -19020   -18989   -18918 
  -18870   -18871   -18898   -18947   -19003   -19056   -19120   -19188 
  -19229   -19226   -19224   -19256   -19273   -19279   -19324   -19361 
  -19386   -19423   -19434   -19435   -19459   -19483   -19505   -19550 
  -19622   -19708   -19797   -19872   -19923   -19962   -20003   -20056 
  -20088   -20057   -20003   -19973   -19963   -19968   -19946   -19883 
  -19808   -19725   -19654   -19623   -19646   -19745   -19887   -19967 
  -19971   -19974   -19971   -19932   -19892   -19848   -19822   -19856 
  -19897   -19896   -19861   -19830   -19829   -19799   -19716   -19643 
  -19606   -19618   -19665   -19678   -19668   -19681   -19671   -19609 
  -19551   -19510   -19472   -19434   -19392   -19376   -19389   -19374 
  -19323   -19241   -19130   -19058   -19039   -19020   -19023   -19071 
  -19125   -19179   -19236   -19269   -19256   -19224   -19219   -19209 
  -19162   -19146   -19197   -19246   -19246   -19202   -19134   -19073 
  -19019   -18938   -18837   -18732   -18634   -18552   -18468   -18400 
  -18366   -18314   -18254   -18247   -18271   -18305   -18357   -18400 
  -18396   -18343   -18272   -18197   -18141   -18117   -18097   -18099 
  -18148   -18193   -18205   -18198   -18171   -18137   -18091   -18014 
  -17951   -17926   -17934   -17966   -17988   -18000   -18032   -18039 
  -18022   -18012   -17963   -17885   -17852   -17860   -17888   -17912 
  -17926   -17980   -18080   -18163   -18193   -18170   -18133   -18122 
  -18112   -18070   -18022   -17992   -17982   -17968   -17937   -17946 
  -18027   -18133   -18217   -18253   -18243   -18240   -18247   -18226 
  -18208   -18233   -18280   -18317   -18340   -18353   -18351   -18312 
  -18260   -18242   -18225   -18211   -18256   -18316   -18329   -18336 
  -18375   -18425   -18473   -18533   -18609   -18714   -18831   -18889 
  -18865   -18824   -18823   -18832   -18806   -18809   -18926   -19089 
  -19211   -19307   -19357   -19343   -19303   -19211   -19065   -18956 
  -18899   -18882   -18915   -18974   -19070   -19170   -19176   -19111 
  -19016   -18892   -18792   -18743   -18745   -18815   -18919   -18996 
  -19027   -19021   -19001   -18964   -18883   -18793   -18740   -18733 
  -18778   -18820   -18799   -18779   -18784   -18751   -18715   -18711 
  -18719   -18755   -18810   -18830   -18804   -18755   -18713   -18682 
  -18651   -18643   -18678   -18745   -18827   -18903   -18942   -18940 
  -18914   -18863   -18805   -18756   -18740   -18783   -18839   -18872 
  -18911   -18953   -18956   -18927   -18892   -18877   -18916   -18973 
  -18992   -19000   -19026   -19052   -19075   -19103   -19139   -19190 
  -19219   -19208   -19186   -19152   -19124   -19141   -19123   -19030 
  -18934   -18834   -18710   -18611   -18561   -18548   -18547   -18526 
  -18482   -18423   -18356   -18299   -18246   -18193   -18185   -18209 
  -18222   -18241   -18282   -18314   -18312   -18294   -18288   -18277 
  -18277   -18306   -18321   -18329   -18350   -18345   -18317   -18294 
  -18270   -18228   -18179   -18175   -18192   -18168   -18148   -18166 
  -18163   -18132   -18076   -17978   -17898   -17870   -17860   -17874 
  -17921   -17992   -18068   -18078   -18012   -17941   -17851   -17745 
  -17691   -17669   -17660   -17697   -17752   -17781   -17790   -17800 
  -17827   -17837   -17830   -17832   -17803   -17758   -17762   -17787 
  -17798   -17822   -17861   -17889   -17914   -17915   -17868   -17818 
  -17804   -17842   -17914   -17978   -18034   -18066   -18015   -17896 
  -17748   -17612   -17547   -17535   -17545   -17606   -17694   -17752 
  -17777   -17772   -17773   -17809   -17830   -17827   -17803   -17739 
  -17683   -17661   -17625   -17580   -17552   -17519   -17477   -17435 
  -17407   -17433   -17480   -17491   -17484   -17455   -17418   -17401 
  -17361   -17291   -17233   -17195   -17175   -17180   -17202   -17224 
  -17258   -17301   -17348   -17408   -17444   -17426   -17378   -17305 
  -17250   -17257   -17272   -17273   -17294   -17333   -17364   -17371 
  -17360   -17352   -17363   -17383   -17385   -17397   -17472   -17589 
  -17714   -17805   -17820   -17800   -17803   -17846   -17911   -17951 
  -17980   -18026   -18059   -18063   -18043   -18005   -17972   -17940 
  -17897   -17837   -17765   -17752   -17824   -17880   -17861   -17801 
  -17732   -17671   -17630   -17590   -17561   -17576   -17611   -17630 
  -17602   -17582   -17647   -17714   -17707   -17691   -17688   -17655 
  -17599   -17547   -17529   -17561   -17608   -17635   -17653   -17675 
  -17706   -17748   -17778   -17804   -17847   -17871   -17899   -17964 
  -18001   -18020   -18059   -18066   -18039   -18029   -18043   -18032 
  -17949   -17843   -17790   -17789   -17823   -17873   -17898   -17917 
  -17965   -17976   -17918   -17876   -17898   -17935   -17946   -17948 
  -17983   -18040   -18075   -18086   -18088   -18078   -18057   -18016 
  -17961   -17944   -17983   -18034   -18091   -18170   -18243   -18296 
  -18334   -18321   -18245   -18169   -18125   -18114   -18124   -18119 
  -18119   -18123   -18083   -18031   -17989   -17945   -17923   -17942 
  -18002   -18073   -18139   -18217   -18249   -18223   -18194   -18160 
  -18139   -18161   -18229   -18319   -18367   -18375   -18385   -18379 
  -18361   -18318   -18261   -18269   -18289   -18259   -18252   -18277 
  -18289   -18264   -18179   -18094   -18060   -18038   -18051   -18099 
  -18119   -18118   -18103   -18030   -17924   -17837   -17781   -17782 
  -17819   -17852   -17911   -17971   -17985   -17974   -17929   -17874 
  -17861   -17850   -17818   -17796   -17783   -17787   -17806   -17800 
  -17747   -17674   -17635   -17639   -17618   -17570   -17569   -17599 
  -17591   -17541   -17459   -17383   -17373   -17383   -17363   -17347 
  -17366   -17422   -17468   -17461   -17431   -17414   -17428   -17452 
  -17443   -17425   -17468   -17540   -17560   -17562   -17585   -17587 
  -17545   -17465   -17355   -17262   -17229   -17245   -17247   -17212 
  -17202   -17208   -17174   -17143   -17154   -17181   -17212   -17260 
  -17322   -17373   -17407   -17448   -17467   -17427   -17378   -17366 
  -17373   -17381   -17381   -17383   -17406   -17451   -17516   -17570 
