Origin Time       2011/03/11 14:46:00
Lat.              38.103
Long.             142.860
Depth. (km)       24
Mag.              9.0
Station Code      ISK007
Station Lat.      37.0426
Station Long.     136.9680
Station Height(m) 2
Record Time       2011/03/11 14:48:08
Sampling Freq(Hz) 100Hz
Duration Time(s)  271
Dir.              E-W
Scale Factor      3920(gal)/6182761
Max. Acc. (gal)   5.520
Last Correction   2011/03/11 14:47:53
Memo.             
[...]
   -7228    -7000    -6717    -6532    -6357    -6175    -5993    -5754 
   -5570    -5446    -5362    -5462    -5593    -5662    -5823    -5780 
   -5332    -4908    -4838    -5010    -5102    -5074    -5208    -5338 
   -5201    -4991    -4720    -4315    -3964    -3707    -3567    -3535 
   -3346    -2913    -2475    -2330    -2474    -2517    -2393    -2217 
   -1765    -1299    -1334    -1618    -1769    -1845    -1999    -2224 
   -2472    -2817    -3140    -3305    -3539    -3971    -4552    -5246 
   -5927    -6509    -6987    -7450    -8005    -8571    -9130    -9739 
  -10246   -10628   -11144   -11804   -12355   -12734   -12997   -13165 
  -13306   -13506   -13834   -14234   -14504   -14523   -14273   -13931 
  -13789   -13795   -13780   -13730   -13555   -13277   -13031   -12809 
  -12472   -11891   -11282   -10911   -10673   -10466   -10181    -9640 
   -9077    -8795    -8629    -8396    -8154    -7880    -7468    -6933 
   -6395    -5972    -5694    -5423    -5099    -4942    -5000    -4980 
   -4784    -4549    -4342    -4232    -4181    -4103    -4085    -4158 
   -4299    -4418    -4348    -4305    -4450    -4483    -4485    -4752 
   -5025    -5099    -5232    -5618    -6087    -6371    -6544    -6830 
   -7134    -7384    -7755    -8175    -8408    -8440    -8360    -8391 
   -8687    -9067    -9460    -9852   -10106   -10285   -10403   -10351 
  -10161    -9851    -9506    -9226    -8920    -8673    -8551    -8282 
   -7789    -7298    -7003    -6936    -6916    -6861    -6799    -6636 
   -6422    -6265    -6080    -5855    -5655    -5384    -5074    -4981 
   -5099    -5187    -5258    -5455    -5721    -5924    -6046    -6111 
   -6111    -6120    -6196    -6287    -6411    -6593    -6720    -6730 
   -6711    -6765    -6862    -6940    -6995    -6961    -6899    -6984 
   -7120    -7115    -6940    -6723    -6681    -6804    -6948    -7008 
   -6933    -6957    -7175    -7379    -7571    -7673    -7534    -7374 
   -7326    -7314    -7365    -7422    -7433    -7495    -7637    -7863 
   -8145    -8330    -8357    -8296    -8236    -8301    -8451    -8562 
   -8683    -8779    -8751    -8652    -8511    -8407    -8403    -8342 
   -8255    -8278    -8298    -8223    -8081    -7908    -7793    -7729 
   -7647    -7498    -7137    -6656    -6394    -6297    -6231    -6329 
   -6415    -6274    -6121    -6090    -5992    -5714    -5427    -5289 
   -5291    -5335    -5142    -4612    -4150    -4029    -4108    -4238 
   -4337    -4342    -4224    -4049    -4001    -4093    -4197    -4337 
   -4542    -4746    -4959    -5218    -5540    -5928    -6308    -6617 
   -6879    -7115    -7345    -7557    -7770    -8165    -8676    -8942 
   -9035    -9203    -9362    -9581    -9997   -10462   -10874   -11284 
  -11716   -12069   -12234   -12315   -12460   -12684   -12943   -13156 
  -13266   -13307   -13401   -13538   -13517   -13390   -13368   -13370 
  -13320   -13332   -13461   -13612   -13664   -13607   -13459   -13277 
  -13195   -13133   -12911   -12625   -12462   -12368   -12184   -11950 
  -11773   -11611   -11358   -11065   -10867   -10580   -10065    -9611 
   -9260    -8902    -8634    -8373    -8094    -7898    -7736    -7569 
   -7288    -6987    -6962    -7016    -6967    -6945    -6845    -6740 
   -6848    -6905    -6709    -6536    -6633    -6844    -6917    -6969 
   -7094    -7086    -6924    -6672    -6376    -6243    -6319    -6496 
   -6698    -6817    -6966    -7251    -7458    -7499    -7499    -7561 
   -7714    -7894    -8117    -8369    -8537    -8682    -8923    -9250 
   -9536    -9685    -9859   -10159   -10432   -10698   -11003   -11151 
  -11169   -11283   -11445   -11507   -11541   -11725   -12044   -12276 
  -12408   -12576   -12696   -12713   -12719   -12710   -12699   -12783 
  -12956   -13079   -13028   -12859   -12734   -12712   -12728   -12638 
  -12396   -12221   -12248   -12245   -12068   -11921   -11935   -11999 
  -12025   -11938   -11691   -11344   -10954   -10667   -10653   -10847 
  -11001   -10943   -10815   -10770   -10631   -10317   -10030    -9941 
  -10004    -9979    -9794    -9630    -9523    -9394    -9278    -9264 
   -9349    -9436    -9523    -9642    -9690    -9690    -9804   -10029 
  -10201   -10239   -10255   -10305   -10328   -10378   -10531   -10721 
  -10832   -10778   -10603   -10546   -10700   -10871   -10924   -10796 
  -10570   -10521   -10578   -10533   -10457   -10253    -9940    -9821 
   -9788    -9725    -9806    -9936    -9969    -9869    -9623    -9432 
   -9408    -9421    -9321    -9093    -8951    -8886    -8702    -8543 
   -8488    -8422    -8367    -8221    -7953    -7780    -7719    -7734 
   -7815    -7847    -7819    -7709    -7539    -7575    -7848    -8156 
   -8403    -8517    -8573    -8657    -8713    -8765    -8780    -8820 
   -9020    -9234    -9506    -9927   -10212   -10320   -10403   -10507 
  -10735   -11007   -11179   -11224   -11156   -11116   -11137   -11292 
  -11767   -12250   -12441   -12563   -12663   -12742   -12954   -13193 
  -13328   -13374   -13466   -13754   -14052   -14180   -14151   -13990 
  -13944   -14086   -14128   -13971   -13672   -13427   -13454   -13559 
  -13499   -13309   -13135   -13099   -13051   -12810   -12491   -12201 
  -11864   -11479   -11191   -10997   -10753   -10502   -10296   -10064 
   -9767    -9452    -9169    -8803    -8308    -7861    -7565    -7440 
   -7417    -7340    -7200    -7022    -6823    -6701    -6686    -6732 
   -6723    -6741    -6942    -7170    -7387    -7641    -7817    -8050 
   -8358    -8522    -8631    -8816    -9035    -9180    -9178    -9244 
   -9477    -9703    -9914   -10081   -10247   -10559   -10808   -10903 
  -11042   -11263   -11530   -11707   -11686   -11708   -11958   -12245 
  -12463   -12717   -12965   -13139   -13305   -13447   -13564   -13700 
  -13875   -14186   -14544   -14808   -15018   -15093   -15084   -15092 
  -14939   -14660   -14450   -14306   -14227   -14164   -14090   -14059 
  -13955   -13741   -13598   -13509   -13276   -12895   -12566   -12434 
  -12401   -12354   -12277   -12093   -11902   -11827   -11737   -11598 
  -11460   -11333   -11287   -11314   -11396   -11456   -11386   -11314 
  -11214   -10911   -10577   -10455   -10552   -10698   -10697   -10580 
  -10433   -10280   -10236   -10235   -10119    -9979    -9924    -9924 
   -9862    -9710    -9648    -9655    -9553    -9447    -9384    -9308 
   -9275    -9227    -9152    -9122    -9062    -8986    -8983    -8957 
   -8836    -8741    -8810    -8916    -8801    -8624    -8701    -8873 
   -8918    -8965    -9034    -9027    -9091    -9328    -9567    -9736 
  -10003   -10299   -10386   -10410   -10613   -10939   -11273   -11391 
  -11169   -10980   -11021   -11040   -11040   -11197   -11474   -11732 
  -11861   -11880   -11863   -11939   -12330   -12981   -13588   -14020 
  -14214   -14095   -13827   -13675   -13732   -13900   -13994   -13872 
  -13579   -13302   -13244   -13483   -13835   -14046   -14096   -14042 
  -13892   -13705   -13550   -13461   -13362   -13220   -13171   -13201 
  -13183   -13158   -13126   -13008   -12853   -12773   -12675   -12325 
  -11842   -11617   -11697   -11778   -11536   -10914   -10313   -10203 
  -10667   -11399   -11901   -11945   -11609   -11014   -10689   -11133 
  -11914   -12321   -12070   -11221   -10260    -9869   -10459   -11773 
  -13011   -13690   -13716   -13139   -12484   -12313   -12708   -13446 
  -14027   -14145   -14059   -13860   -13536   -13503   -13849   -14138 
  -14166   -14196   -14520   -14880   -15018   -15265   -15580   -15606 
  -15475   -15306   -15203   -15462   -15921   -16242   -16350   -16021 
  -15207   -14516   -14583   -15342   -16123   -16464   -16385   -15906 
  -15157   -14501   -14038   -13783   -13804   -13885   -13825   -13552 
  -12953   -12206   -11647   -11308   -11063   -10856   -10687   -10560 
  -10394   -10060    -9625    -9444    -9578    -9424    -8725    -8138 
   -8140    -8676    -9524   -10057    -9789    -9139    -8703    -8526 
   -8463    -8541    -8908    -9645   -10538   -11148   -11216   -10828 
  -10231    -9830   -10116   -11104   -12120   -12549   -12430   -12278 
  -12604   -13361   -14090   -14540   -14686   -14844   -15415   -16087 
  -16292   -16055   -15784   -15799   -16127   -16597   -17069   -17521 
  -17958   -18246   -18176   -17752   -17110   -16387   -15789   -15546 
  -15896   -16757   -17440   -17324   -16486   -15578   -15174   -15067 
  -14710   -14068   -13472   -13100   -12838   -12785   -13225   -13645 
  -13468   -13250   -13354   -13495   -13753   -13876   -13295   -12283 
  -11478   -11004   -10475    -9854    -9700    -9854    -9642    -9248 
   -9118    -9232    -9428    -9573    -9765   -10092   -10344   -10473 
  -10446   -10134    -9928    -9987    -9739    -9332    -9494   -10019 
  -10279   -10232   -10106    -9981    -9954   -10116   -10370   -10614 
  -10611   -10059    -9426    -9418    -9633    -9382    -8908    -8566 
   -8412    -8856   -10097   -11369   -11751   -11151   -10222    -9559 
   -9280    -9290    -9444    -9575    -9595    -9624    -9874   -10202 
  -10361   -10485   -10675   -10965   -11402   -11534   -11015   -10247 
   -9800   -10113   -11167   -12197   -12423   -11860   -11257   -11181 
  -11499   -11936   -12419   -12833   -13038   -13154   -13273   -13179 
  -12824   -12530   -12577   -12826   -12936   -12890   -12667   -12334 
  -12494   -13038   -13026   -12542   -12338   -12430   -12522   -12628 
  -12828   -12950   -12783   -12381   -11836   -11297   -11123   -11350 
  -11511   -11338   -11143   -11424   -12085   -12383   -12067   -11698 
  -11623   -11578   -11312   -11003   -10968   -11267   -11793   -12426 
  -13014   -13352   -13168   -12381   -11393   -10768   -10719   -11118 
  -11627   -11997   -12301   -12425   -12089   -11560   -11273   -11278 
  -11516   -11881   -12136   -12073   -11694   -11194   -10762   -10594 
  -10669   -10641   -10515   -10535   -10679   -10946   -11297   -11466 
  -11147   -10345    -9658    -9449    -9465    -9651    -9944   -10005 
   -9732    -9325    -9146    -9281    -9349    -9132    -8864    -9036 
   -9693   -10124   -10099   -10221   -10596   -10712   -10516   -10365 
  -10282   -10221   -10387   -10806   -11404   -12167   -12763   -12769 
  -12306   -11920   -11884   -12188   -12691   -12833   -12370   -11805 
  -11351   -11102   -11440   -12092   -12381   -12202   -11868   -11677 
  -11647   -11682   -11710   -11396   -10676   -10126   -10092   -10346 
  -10521   -10328    -9848    -9585    -9750    -9894    -9571    -8970 
   -8550    -8338    -8073    -7726    -7458    -7387    -7512    -7704 
   -7779    -7687    -7653    -7796    -7751    -7169    -6434    -6227 
   -6508    -6687    -6559    -6392    -6386    -6463    -6569    -6734 
   -6806    -6783    -6963    -7348    -7593    -7539    -7437    -7637 
   -8063    -8306    -8224    -8155    -8488    -9031    -9247    -9066 
   -8861    -9021    -9655   -10445   -10917   -10864   -10589   -10485 
  -10438   -10308   -10348   -10630   -10957   -11255   -11572   -11834 
  -11901   -11901   -11969   -12006   -12061   -12334   -12773   -12974 
  -12704   -12166   -11529   -10966   -10719   -10785   -11081   -11408 
  -11507   -11342   -10986   -10722   -10778   -10855   -10633   -10133 
   -9518    -9066    -9101    -9524    -9716    -9387    -8730    -8007 
   -7600    -7557    -7409    -6996    -6619    -6518    -6703    -7096 
   -7499    -7484    -6977    -6454    -6158    -6094    -6527    -7378 
   -7884    -7738    -7553    -7809    -8299    -8640    -8799    -9014 
   -9378    -9872   -10461   -10942   -11106   -10933   -10641   -10600 
  -10887   -11346   -12008   -12814   -13484   -13918   -14146   -14136 
  -13973   -13883   -13976   -14154   -14335   -14494   -14565   -14687 
  -14936   -14975   -14790   -14784   -14912   -14814   -14397   -13972 
  -13793   -13638   -13537   -13770   -13943   -13569   -12795   -12055 
  -11707   -11674   -11556   -11167   -10602   -10101    -9826    -9652 
   -9347    -8755    -7939    -7341    -7256    -7416    -7402    -7021 
   -6547    -6449    -6584    -6522    -6287    -5987    -5703    -5741 
   -6043    -6170    -6110    -6162    -6338    -6454    -6468    -6522 
   -6699    -6906    -7007    -6863    -6680    -6980    -7538    -7651 
   -7507    -7685    -8064    -8352    -8728    -9343    -9863    -9942 
   -9707    -9504    -9450    -9468    -9565    -9774   -10031   -10253 
  -10470   -10766   -10971   -10846   -10555   -10444   -10730   -11320 
  -11799   -11885   -11599   -11180   -10969   -10952   -10843   -10665 
  -10676   -10925   -11114   -11047   -10948   -11009   -11193   -11329 
  -11144   -10761   -10618   -10791   -11064   -11196   -11041   -10653 
  -10200    -9810    -9307    -8640    -8219    -8065    -7826    -7579 
   -7633    -7922    -7944    -7417    -6649    -6154    -6327    -6986 
   -7491    -7707    -7875    -7962    -7933    -7952    -8091    -8215 
   -8241    -8286    -8578    -9128    -9483    -9379    -9118    -8920 
   -8864    -9057    -9465   -10036   -10649   -11151   -11570   -11796 
  -11664   -11269   -10766   -10495   -10793   -11405   -11934   -12343 
  -12672   -12858   -12776   -12528   -12403   -12353   -12256   -12169 
  -11971   -11641   -11312   -10905   -10444   -10119   -10013    -9977 
   -9769    -9595    -9618    -9387    -8803    -8256    -7917    -7776 
   -7558    -7053    -6456    -5814    -5186    -4739    -4356    -4161 
   -4346    -4572    -4426    -3745    -2917    -2589    -2640    -2654 
   -2719    -2847    -2740    -2335    -1921    -1660    -1387    -1152 
   -1278    -1751    -2340    -3010    -3648    -3950    -3825    -3588 
   -3601    -3913    -4455    -5085    -5459    -5638    -6055    -6720 
   -7455    -8172    -8714    -9170    -9670   -10158   -10641   -10972 
  -11107   -11427   -12025   -12604   -12985   -13153   -13285   -13397 
  -13379   -13590   -14212   -14798   -15147   -15483   -15850   -15943 
  -15684   -15485   -15482   -15438   -15411   -15531   -15699   -15828 
  -15818   -15529   -14968   -14335   -13914   -13748   -13588   -13351 
  -13163   -12997   -12742   -12360   -11894   -11422   -10937   -10539 
  -10392   -10238    -9780    -9210    -8726    -8234    -7665    -7194 
   -6937    -6691    -6406    -6182    -5853    -5429    -5206    -5160 
   -4969    -4554    -4222    -4133    -4039    -3808    -3642    -3650 
   -3781    -3987    -4073    -3907    -3715    -3702    -3913    -4347 
   -4806    -5088    -5211    -5255    -5277    -5344    -5539    -5817 
   -6026    -6212    -6521    -6960    -7415    -7708    -7837    -7984 
   -8242    -8625    -9038    -9372    -9802   -10404   -10957   -11437 
  -11850   -11963   -11887   -12005   -12400   -12944   -13490   -13961 
  -14293   -14368   -14403   -14564   -14521   -14256   -14056   -13927 
  -13881   -13866   -13727   -13549   -13442   -13444   -13478   -13340 
  -13115   -12929   -12662   -12382   -12199   -12022   -11810   -11596 
  -11360   -10994   -10568   -10322   -10191   -10008    -9805    -9518 
   -9137    -8840    -8696    -8716    -8824    -8781    -8543    -8229 
   -7902    -7738    -7805    -7914    -8026    -8134    -8044    -7772 
   -7566    -7567    -7686    -7610    -7307    -7119    -7031    -6767 
   -6435    -6364    -6586    -6832    -6990    -7094    -7025    -6844 
   -6747    -6719    -6786    -6914    -6967    -6943    -6873    -6909 
   -7027    -6885    -6615    -6576    -6748    -7052    -7314    -7463 
   -7729    -8033    -8194    -8300    -8249    -8006    -7858    -7874 
   -7962    -8118    -8316    -8542    -8757    -8954    -9146    -9221 
   -9124    -8915    -8722    -8690    -8819    -9085    -9414    -9551 
   -9531    -9726   -10060   -10172   -10145   -10190   -10327   -10553 
  -10770   -10923   -11035   -11106   -11233   -11374   -11426   -11476 
  -11484   -11377   -11273   -11325   -11597   -11982   -12329   -12558 
  -12646   -12727   -12858   -12816   -12480   -12056   -11836   -11892 
  -12141   -12492   -12713   -12632   -12414   -12200   -11914   -11555 
  -11285   -11104   -10849   -10589   -10360    -9978    -9567    -9410 
   -9430    -9289    -8937    -8660    -8506    -8359    -8211    -7977 
   -7684    -7417    -7076    -6715    -6452    -6191    -5950    -5807 
   -5723    -5682    -5633    -5477    -5169    -4781    -4491    -4292 
   -4107    -4035    -4042    -3947    -3761    -3647    -3712    -3946 
   -4249    -4430    -4362    -4206    -4093    -3966    -3924    -4065 
   -4316    -4596    -4878    -5286    -5863    -6361    -6697    -6994 
   -7237    -7329    -7274    -7355    -7766    -8216    -8553    -8857 
   -9047    -9199    -9424    -9532    -9435    -9373    -9636   -10081 
  -10264   -10187   -10136   -10175   -10283   -10394   -10461   -10606 
  -10812   -10914   -10880   -10802   -10876   -11158   -11484   -11809 
  -12124   -12305   -12193   -11690   -10997   -10433   -10186   -10336 
  -10655   -10917   -11168   -11241   -10959   -10484    -9930    -9507 
   -9480    -9678    -9808    -9810    -9676    -9391    -9002    -8638 
   -8370    -8108    -7827    -7593    -7405    -7301    -7281    -7245 
   -7127    -6916    -6719    -6595    -6444    -6273    -6091    -5880 
   -5814    -5970    -6201    -6425    -6630    -6857    -7110    -7231 
   -7159    -7037    -6963    -6972    -7131    -7412    -7816    -8342 
   -8697    -8668    -8434    -8273    -8294    -8433    -8688    -8996 
   -9209    -9435    -9684    -9799    -9838    -9851    -9986   -10335 
  -10536   -10495   -10508   -10617   -10645   -10471   -10358   -10558 
  -10839   -11098   -11352   -11372   -11193   -11076   -11051   -11085 
  -11193   -11336   -11436   -11468   -11520   -11589   -11462   -11105 
  -10762   -10571   -10587   -10798   -11017   -11103   -11023   -10855 
  -10731   -10701   -10858   -11113   -11265   -11344   -11400   -11518 
  -11728   -11912   -12059   -12083   -11963   -11980   -12120   -12089 
  -11969   -12029   -12273   -12537   -12692   -12708   -12615   -12484 
  -12476   -12572   -12588   -12609   -12667   -12610   -12612   -12827 
  -13054   -13128   -13050   -12902   -12772   -12673   -12603   -12497 
  -12328   -12233   -12263   -12339   -12307   -12026   -11592   -11186 
  -10887   -10692   -10510   -10300   -10108    -9951    -9857    -9860 
   -9937    -9961    -9797    -9514    -9404    -9564    -9687    -9531 
   -9184    -8823    -8594    -8545    -8577    -8658    -8836    -9063 
   -9287    -9433    -9335    -9002    -8654    -8399    -8158    -7887 
   -7700    -7636    -7543    -7502    -7741    -8130    -8408    -8492 
   -8410    -8240    -8122    -8290    -8685    -8872    -8830    -8938 
   -9308    -9889   -10543   -10911   -10841   -10668   -10741   -10953 
  -11070   -11197   -11532   -12014   -12481   -12870   -13077   -12936 
  -12548   -12261   -12267   -12578   -13134   -13736   -14108   -14034 
  -13614   -13274   -13166   -12990   -12681   -12440   -12264   -12156 
  -12052   -11702   -11161   -10730   -10570   -10604   -10563   -10358 
  -10147    -9955    -9716    -9460    -9288    -9255    -9179    -8894 
   -8561    -8322    -8129    -8001    -7969    -7888    -7641    -7448 
   -7572    -7782    -7786    -7682    -7523    -7257    -6931    -6547 
   -6156    -5957    -6159    -6612    -6789    -6551    -6299    -6232 
   -6200    -6185    -6251    -6332    -6388    -6361    -6215    -6118 
