Origin Time       2011/03/11 14:46:00
Lat.              38.103
Long.             142.860
Depth. (km)       24
Mag.              9.0
Station Code      ISK014
Station Lat.      36.3031
Station Long.     136.3154
Station Height(m) 4
Record Time       2011/03/11 14:49:08
Sampling Freq(Hz) 100Hz
Duration Time(s)  184
Dir.              U-D
Scale Factor      3920(gal)/6182761
Max. Acc. (gal)   2.051
Last Correction   2011/03/11 14:48:53
Memo.             
[...]
  -19677   -19649   -19648   -19695   -19686   -19585   -19498   -19500 
  -19486   -19371   -19238   -19118   -19006   -18931   -18851   -18787 
  -18789   -18784   -18757   -18758   -18784   -18836   -18889   -18904 
  -18906   -18909   -18883   -18841   -18830   -18839   -18794   -18690 
  -18658   -18762   -18849   -18846   -18887   -18978   -19040   -19085 
  -19119   -19125   -19103   -19059   -18984   -18901   -18869   -18861 
  -18846   -18876   -18945   -19026   -19182   -19404   -19518   -19530 
  -19689   -19935   -19966   -19941   -20132   -20354   -20445   -20517 
  -20602   -20659   -20729   -20829   -20933   -21068   -21230   -21375 
  -21515   -21650   -21752   -21827   -21904   -21960   -21945   -21891 
  -21842   -21794   -21768   -21766   -21769   -21795   -21829   -21795 
  -21683   -21634   -21745   -21800   -21677   -21691   -21886   -21941 
  -21855   -21835   -21952   -22025   -21988   -22064   -22179   -22169 
  -22150   -22158   -22147   -22152   -22197   -22207   -22165   -22228 
  -22357   -22378   -22448   -22657   -22794   -22873   -22915   -22757 
  -22510   -22272   -21965   -21701   -21549   -21472   -21513   -21644 
  -21802   -21964   -22088   -22156   -22176   -22099   -21915   -21714 
  -21550   -21393   -21228   -21085   -21017   -21043   -21126   -21231 
  -21279   -21199   -21073   -21039   -21101   -21087   -20943   -20844 
  -20767   -20633   -20553   -20473   -20344   -20258   -20190   -20147 
  -20186   -20227   -20188   -20105   -20087   -20202   -20349   -20418 
  -20475   -20461   -20300   -20132   -19897   -19513   -19224   -19075 
  -19027   -19235   -19536   -19633   -19686   -19882   -20039   -20000 
  -19854   -19766   -19805   -19868   -19836   -19718   -19613   -19617 
  -19698   -19742   -19780   -19939   -20132   -20089   -19791   -19509 
  -19344   -19226   -19211   -19368   -19539   -19511   -19419   -19546 
  -19664   -19605   -19747   -19939   -19796   -19616   -19553   -19470 
  -19379   -19292   -19249   -19245   -19325   -19578   -19797   -19742 
  -19533   -19471   -19611   -19640   -19421   -19323   -19527   -19665 
  -19493   -19153   -18931   -18993   -19143   -19150   -19134   -19300 
  -19612   -19956   -20302   -20603   -20838   -20985   -20944   -20802 
  -20708   -20529   -20250   -20116   -20158   -20291   -20525   -20735 
  -20821   -20877   -21006   -21262   -21487   -21492   -21506   -21638 
  -21660   -21729   -22011   -22226   -22200   -22003   -21872   -21842 
  -21580   -21172   -21129   -21588   -22100   -22248   -22322   -22610 
  -22766   -22604   -22322   -21943   -21417   -20897   -20683   -20835 
  -21091   -21308   -21533   -21711   -21651   -21365   -21090   -20862 
  -20668   -20603   -20579   -20571   -20711   -20928   -21112   -21225 
  -21195   -21026   -20698   -20183   -19733   -19603   -19632   -19585 
  -19559   -19667   -19766   -19805   -19880   -19911   -19771   -19574 
  -19544   -19659   -19725   -19708   -19680   -19691   -19666   -19445 
  -19147   -18955   -18877   -18917   -19022   -19176   -19393   -19522 
  -19467   -19322   -19266   -19398   -19515   -19493   -19558   -19808 
  -19986   -19875   -19607   -19364   -19036   -18588   -18287   -18210 
  -18192   -18319   -18814   -19548   -20155   -20485   -20524   -20173 
  -19551   -18995   -18616   -18389   -18394   -18605   -18926   -19425 
  -19996   -20277   -20195   -20036   -19984   -19942   -19776   -19562 
  -19463   -19542   -19810   -20139   -20302   -20365   -20430   -20361 
  -20263   -20240   -20070   -19798   -19673   -19617   -19480   -19441 
  -19696   -20095   -20484   -20920   -21304   -21437   -21323   -21040 
  -20638   -20180   -19757   -19361   -18935   -18718   -18951   -19409 
  -19848   -20294   -20719   -20984   -21001   -20774   -20325   -19682 
  -19095   -18834   -18708   -18490   -18335   -18341   -18530   -18972 
  -19409   -19530   -19554   -19784   -20018   -19988   -19852   -19893 
  -20065   -20136   -20142   -20257   -20431   -20491   -20461   -20628 
  -20973   -21132   -20990   -20673   -20392   -20239   -20147   -20159 
  -20276   -20473   -20822   -21266   -21514   -21407   -21210   -21064 
  -20730   -20234   -19853   -19622   -19512   -19640   -20000   -20290 
  -20344   -20330   -20244   -20014   -19879   -19925   -20043   -20320 
  -20702   -20863   -20716   -20498   -20328   -20104   -19889   -19878 
  -20019   -20060   -19927   -19811   -19907   -20151   -20235   -20096 
  -20075   -20233   -20311   -20360   -20486   -20608   -20773   -20985 
  -21112   -21102   -20946   -20680   -20388   -20195   -20170   -20247 
  -20487   -20805   -20931   -20961   -20924   -20655   -20257   -19884 
  -19661   -19649   -19678   -19668   -19748   -20002   -20290   -20348 
  -20239   -20198   -20004   -19486   -19016   -18743   -18449   -18264 
  -18413   -18751   -19146   -19594   -19916   -19996   -20027   -20077 
  -19962   -19721   -19590   -19523   -19299   -18984   -18831   -18865 
  -18897   -18893   -18955   -19028   -19143   -19437   -19719   -19819 
  -19891   -20091   -20390   -20529   -20412   -20282   -20212   -20045 
  -19750   -19519   -19480   -19483   -19431   -19424   -19448   -19342 
  -19135   -19070   -19179   -19301   -19457   -19707   -19934   -20014 
  -20004   -20011   -19983   -19928   -19968   -19993   -19850   -19640 
  -19465   -19281   -19064   -18934   -18989   -19123   -19213   -19269 
  -19364   -19572   -19815   -19912   -19847   -19740   -19700   -19676 
  -19471   -19106   -18822   -18712   -18761   -18964   -19253   -19562 
  -19785   -19839   -19891   -20029   -20065   -19994   -19876   -19646 
  -19499   -19583   -19674   -19765   -20005   -20266   -20427   -20519 
  -20613   -20680   -20570   -20357   -20270   -20342   -20465   -20546 
  -20640   -20730   -20623   -20442   -20566   -20970   -21254   -21323 
  -21444   -21633   -21736   -21802   -21798   -21649   -21475   -21354 
  -21234   -21091   -20981   -20941   -20871   -20704   -20573   -20591 
  -20687   -20791   -20862   -20861   -20907   -21073   -21189   -21207 
  -21255   -21281   -21160   -20928   -20639   -20313   -20076   -19981 
  -19861   -19721   -19763   -19942   -20054   -20037   -19987   -19983 
  -19940   -19813   -19672   -19571   -19562   -19598   -19582   -19584 
  -19627   -19589   -19510   -19527   -19649   -19768   -19773   -19730 
  -19747   -19754   -19675   -19503   -19335   -19291   -19292   -19233 
  -19136   -19024   -18915   -18860   -18914   -19005   -18901   -18544 
  -18256   -18277   -18405   -18460   -18497   -18533   -18612   -18703 
  -18661   -18597   -18681   -18816   -18939   -19140   -19390   -19626 
  -19872   -20125   -20327   -20413   -20408   -20384   -20335   -20297 
  -20387   -20605   -20834   -21005   -21155   -21318   -21393   -21385 
  -21427   -21394   -21191   -21075   -21206   -21434   -21575   -21622 
  -21645   -21628   -21533   -21403   -21315   -21249   -21121   -20956 
  -20836   -20827   -20932   -21091   -21276   -21462   -21596   -21598 
  -21413   -21189   -21067   -20937   -20769   -20682   -20625   -20547 
  -20531   -20539   -20508   -20535   -20643   -20689   -20665   -20644 
  -20546   -20358   -20255   -20265   -20281   -20377   -20613   -20820 
  -20893   -20941   -20995   -20953   -20831   -20755   -20737   -20673 
  -20531   -20351   -20202   -20149   -20147   -20161   -20242   -20360 
  -20410   -20345   -20197   -20035   -19875   -19716   -19607   -19548 
  -19493   -19500   -19615   -19722   -19720   -19603   -19434   -19320 
  -19198   -18993   -18845   -18799   -18816   -18978   -19167   -19182 
  -19121   -19111   -19109   -19079   -18989   -18837   -18710   -18674 
  -18733   -18854   -18999   -19154   -19303   -19431   -19533   -19612 
  -19675   -19739   -19816   -19840   -19807   -19828   -19852   -19796 
  -19790   -19950   -20194   -20396   -20570   -20814   -21056   -21137 
  -21095   -21071   -21091   -21126   -21156   -21162   -21189   -21285 
  -21407   -21506   -21611   -21755   -21824   -21734   -21641   -21620 
  -21611   -21657   -21781   -21980   -22200   -22239   -22103   -21979 
  -21839   -21594   -21321   -21055   -20778   -20601   -20581   -20630 
  -20741   -20928   -21065   -21087   -21041   -20909   -20700   -20497 
  -20291   -20065   -19881   -19755   -19639   -19521   -19432   -19375 
  -19370   -19430   -19465   -19424   -19399   -19427   -19427   -19374 
  -19319   -19261   -19216   -19215   -19171   -19034   -18914   -18890 
  -18909   -18912   -18903   -18919   -19016   -19173   -19291   -19386 
  -19469   -19422   -19354   -19501   -19671   -19590   -19480   -19539 
  -19592   -19569   -19543   -19523   -19556   -19640   -19713   -19805 
  -19905   -19917   -19860   -19837   -19842   -19797   -19714   -19679 
  -19641   -19443   -19133   -18881   -18698   -18565   -18525   -18545 
  -18579   -18636   -18683   -18689   -18771   -18995   -19232   -19413 
  -19562   -19599   -19464   -19250   -19095   -19064   -19091   -19132 
  -19264   -19458   -19576   -19612   -19662   -19807   -19996   -20030 
  -20002   -20102   -20137   -20060   -20083   -20139   -20096   -19984 
  -19894   -19872   -19867   -19880   -19947   -20044   -20199   -20342 
  -20316   -20228   -20232   -20222   -20127   -20042   -20046   -20121 
  -20134   -20006   -19845   -19791   -19835   -19822   -19707   -19627 
  -19639   -19644   -19594   -19558   -19595   -19699   -19821   -19863 
  -19778   -19670   -19628   -19593   -19505   -19456   -19538   -19682 
  -19782   -19847   -19886   -19820   -19643   -19511   -19486   -19448 
  -19407   -19405   -19333   -19215   -19182   -19213   -19197   -19101 
  -19022   -19047   -19107   -19164   -19293   -19466   -19538   -19493 
  -19437   -19414   -19395   -19342   -19318   -19393   -19446   -19381 
  -19262   -19148   -19078   -19027   -18894   -18677   -18461   -18303 
  -18198   -18119   -18085   -18096   -18086   -18048   -18060   -18185 
  -18368   -18469   -18482   -18520   -18579   -18591   -18558   -18512 
  -18500   -18572   -18740   -18972   -19158   -19267   -19389   -19464 
  -19406   -19356   -19337   -19296   -19399   -19618   -19759   -19896 
  -20141   -20442   -20704   -20867   -20944   -20943   -20870   -20754 
  -20612   -20533   -20566   -20619   -20676   -20794   -20923   -20955 
  -20905   -20916   -20998   -21028   -21008   -20984   -20941   -20936 
  -21016   -21132   -21213   -21242   -21236   -21212   -21211   -21278 
  -21355   -21394   -21468   -21586   -21639   -21586   -21481   -21392 
  -21349   -21334   -21349   -21408   -21431   -21382   -21407   -21556 
  -21704   -21760   -21707   -21682   -21821   -22001   -22088   -22098 
  -22069   -22063   -22085   -22067   -22005   -21921   -21809   -21664 
  -21516   -21427   -21407   -21412   -21425   -21494   -21604   -21678 
  -21710   -21692   -21592   -21429   -21237   -21065   -20939   -20788 
  -20583   -20416   -20351   -20382   -20465   -20542   -20577   -20541 
  -20429   -20267   -20057   -19814   -19597   -19433   -19323   -19253 
  -19162   -19011   -18862   -18742   -18613   -18513   -18465   -18394 
  -18308   -18249   -18186   -18126   -18071   -17967   -17839   -17734 
  -17603   -17432   -17265   -17125   -17035   -16988   -16952   -16916 
  -16920   -17027   -17177   -17232   -17226   -17283   -17379   -17415 
  -17424   -17471   -17464   -17346   -17237   -17215   -17241   -17285 
  -17359   -17465   -17615   -17840   -18099   -18293   -18439   -18601 
  -18709   -18711   -18719   -18829   -18998   -19126   -19190   -19257 
  -19336   -19365   -19345   -19327   -19337   -19367   -19441   -19573 
  -19656   -19646   -19662   -19682   -19603   -19514   -19470   -19391 
  -19320   -19329   -19327   -19232   -19130   -19096   -19029   -18842 
  -18656   -18575   -18533   -18482   -18452   -18438   -18405   -18331 
  -18212   -18118   -18078   -17998   -17878   -17795   -17697   -17591 
  -17597   -17699   -17795   -17881   -17955   -17948   -17859   -17771 
  -17712   -17616   -17479   -17437   -17521   -17562   -17504   -17471 
  -17530   -17658   -17784   -17855   -17936   -18076   -18236   -18391 
  -18495   -18555   -18655   -18740   -18737   -18744   -18825   -18936 
  -19021   -19045   -19086   -19234   -19406   -19514   -19624   -19767 
  -19886   -19973   -20020   -20029   -20083   -20233   -20414   -20548 
  -20635   -20726   -20829   -20864   -20817   -20822   -20926   -21036 
  -21140   -21265   -21356   -21374   -21372   -21434   -21555   -21679 
  -21772   -21809   -21805   -21771   -21681   -21581   -21510   -21460 
  -21484   -21609   -21739   -21824   -21881   -21922   -22035   -22220 
  -22282   -22185   -22099   -22087   -22060   -21944   -21808   -21749 
  -21753   -21794   -21894   -22006   -22040   -22025   -22032   -22034 
  -22013   -21978   -21885   -21748   -21688   -21729   -21790   -21856 
  -21938   -22008   -22091   -22210   -22310   -22354   -22365   -22384 
  -22362   -22230   -22050   -21895   -21741   -21602   -21554   -21614 
  -21718   -21770   -21703   -21567   -21484   -21467   -21415   -21346 
  -21377   -21464   -21504   -21516   -21495   -21434   -21399   -21393 
  -21349   -21265   -21232   -21285   -21328   -21302   -21278   -21313 
  -21363   -21383   -21361   -21286   -21217   -21232   -21287   -21269 
  -21167   -21107   -21147   -21155   -21032   -20892   -20837   -20781 
  -20654   -20538   -20472   -20385   -20240   -20084   -19968   -19851 
  -19697   -19533   -19343   -19092   -18841   -18700   -18658   -18563 
  -18415   -18366   -18392   -18346   -18225   -18090   -17956   -17832 
  -17678   -17422   -17134   -16947   -16873   -16867   -16918   -17033 
  -17213   -17399   -17504   -17551   -17613   -17658   -17639   -17606 
  -17611   -17643   -17691   -17740   -17772   -17805   -17854   -17910 
  -18007   -18167   -18314   -18399   -18507   -18708   -18924   -19039 
  -19079   -19149   -19224   -19210   -19182   -19226   -19245   -19192 
  -19195   -19301   -19363   -19294   -19203   -19234   -19362   -19435 
  -19473   -19611   -19809   -19976   -20085   -20106   -20120   -20179 
  -20128   -19943   -19823   -19807   -19768   -19727   -19806   -19978 
  -20138   -20296   -20440   -20484   -20409   -20269   -20090   -19833 
  -19498   -19205   -19038   -18968   -19000   -19151   -19336   -19474 
  -19566   -19592   -19510   -19317   -19106   -19016   -19032   -19065 
  -19174   -19383   -19565   -19708   -19907   -20148   -20309   -20328 
  -20227   -20081   -19964   -19872   -19832   -19920   -20091   -20250 
  -20417   -20599   -20723   -20794   -20851   -20837   -20706   -20521 
  -20328   -20125   -19914   -19745   -19702   -19816   -20014   -20172 
  -20263   -20408   -20610   -20676   -20531   -20295   -20056   -19831 
  -19623   -19463   -19465   -19700   -20043   -20365   -20650   -20864 
  -20912   -20784   -20618   -20492   -20404   -20422   -20504   -20472 
  -20365   -20317   -20292   -20298   -20362   -20381   -20382   -20488 
  -20574   -20445   -20183   -19964   -19840   -19837   -19921   -19987 
  -20039   -20143   -20257   -20347   -20497   -20654   -20652   -20550 
  -20489   -20509   -20620   -20779   -20921   -21057   -21222   -21403 
  -21488   -21333   -20886   -20337   -20044   -20098   -20246   -20304 
  -20404   -20731   -21181   -21468   -21488   -21337   -21120   -20930 
  -20858   -20856   -20794   -20689   -20692   -20853   -20994   -20939 
  -20814   -20771   -20748   -20816   -21061   -21252   -21235   -21206 
  -21302   -21359   -21184   -20854   -20565   -20338   -20164   -20187 
  -20441   -20758   -20967   -21009   -20917   -20727   -20498   -20340 
  -20358   -20586   -20834   -20869   -20742   -20636   -20611   -20561 
  -20384   -20158   -20047   -20139   -20323   -20422   -20513   -20700 
  -20830   -20846   -20933   -21144   -21276   -21186   -20973   -20740 
  -20412   -19938   -19436   -19137   -19174   -19391   -19590   -19793 
  -20003   -20133   -20161   -20098   -19927   -19648   -19348   -19171 
  -19171   -19276   -19365   -19362   -19289   -19215   -19242   -19432 
  -19615   -19567   -19378   -19243   -19153   -19066   -19043   -19090 
  -19097   -19005   -18926   -18960   -19052   -19078   -18996   -18975 
  -19224   -19674   -20068   -20203   -20049   -19770   -19549   -19443 
  -19434   -19520   -19716   -19947   -20138   -20309   -20410   -20355 
  -20269   -20334   -20441   -20338   -20026   -19709   -19489   -19405 
  -19488   -19625   -19793   -20120   -20467   -20619   -20667   -20682 
  -20666   -20698   -20733   -20686   -20584   -20514   -20498   -20415 
  -20290   -20325   -20465   -20505   -20487   -20497   -20456   -20419 
  -20533   -20722   -20864   -20964   -20993   -20946   -20884   -20759 
  -20496   -20213   -20084   -20131   -20285   -20474   -20575   -20499 
  -20372   -20386   -20490   -20541   -20597   -20820   -21176   -21527 
  -21876   -22123   -22040   -21730   -21482   -21285   -21009   -20727 
  -20583   -20679   -21008   -21384   -21683   -21957   -22186   -22253 
  -22154   -21942   -21658   -21406   -21241   -21086   -20906   -20783 
  -20756   -20688   -20458   -20206   -20069   -19976   -19961   -20079 
  -20098   -19944   -19928   -20138   -20304   -20313   -20237   -20111 
  -20000   -19955   -19938   -19875   -19669   -19375   -19244   -19304 
  -19330   -19357   -19581   -19902   -20105   -20210   -20247   -20105 
  -19840   -19661   -19569   -19458   -19328   -19227   -19199   -19286 
  -19494   -19755   -19956   -20071   -20211   -20405   -20503   -20454 
  -20410   -20451   -20469   -20402   -20376   -20473   -20601   -20715 
  -20847   -20943   -20945   -20921   -20957   -21007   -21020   -21012 
  -20914   -20676   -20421   -20266   -20195   -20124   -20018   -19953 
  -19999   -20110   -20202   -20254   -20316   -20404   -20449   -20433 
  -20428   -20443   -20436   -20422   -20431   -20450   -20490   -20590 
  -20688   -20645   -20476   -20364   -20377   -20381   -20330   -20369 
  -20522   -20625   -20662   -20716   -20683   -20479   -20250   -20086 
  -19949   -19899   -20002   -20168   -20271   -20291   -20314   -20411 
  -20512   -20532   -20527   -20575   -20654   -20679   -20560   -20335 
  -20173   -20162   -20249   -20326   -20326   -20301   -20304   -20285 
  -20259   -20279   -20281   -20228   -20101   -19895   -19791   -19876 
  -19917   -19804   -19710   -19774   -19994   -20253   -20437   -20556 
  -20585   -20485   -20296   -20007   -19643   -19357   -19208   -19150 
  -19213   -19420   -19652   -19826   -19995   -20187   -20329   -20358 
  -20315   -20284   -20277   -20269   -20256   -20253   -20261   -20255 
  -20245   -20316   -20497   -20671   -20749   -20786   -20811   -20780 
  -20671   -20504   -20357   -20309   -20333   -20302   -20144   -19942 
  -19761   -19572   -19446   -19460   -19506   -19485   -19430   -19418 
  -19464   -19530   -19673   -19949   -20211   -20387   -20588   -20807 
  -20934   -20948   -20908   -20835   -20685   -20464   -20286   -20289 
  -20488   -20705   -20803   -20856   -20946   -21034   -21071   -21074 
  -21073   -21025   -20908   -20807   -20760   -20663   -20470   -20316 
  -20284   -20270   -20205   -20179   -20210   -20166   -20006   -19838 
  -19719   -19593   -19435   -19370   -19475   -19610   -19664   -19692 
  -19726   -19691   -19565   -19443   -19389   -19407   -19494   -19624 
  -19750   -19834   -19862   -19890   -19972   -20007   -19880   -19680 
  -19560   -19513   -19488   -19503   -19541   -19535   -19499   -19438 
