Origin Time       2011/03/11 14:46:00
Lat.              38.103
Long.             142.860
Depth. (km)       24
Mag.              9.0
Station Code      ISK010
Station Lat.      36.5421
Station Long.     136.6435
Station Height(m) 29
Record Time       2011/03/11 14:49:12
Sampling Freq(Hz) 100Hz
Duration Time(s)  226
Dir.              U-D
Scale Factor      3920(gal)/6182761
Max. Acc. (gal)   2.869
Last Correction   2011/03/11 14:48:57
Memo.             
[...]
  -33206   -33446   -33740   -33942   -34122   -34148   -33753   -33282 
  -33298   -33632   -33721   -33532   -33594   -34080   -34315   -33803 
  -33084   -32888   -33251   -33708   -33740   -33353   -33194   -33528 
  -34001   -34365   -34425   -34299   -34583   -35128   -35195   -34914 
  -34885   -35020   -35026   -35150   -35518   -35788   -35880   -35896 
  -35631   -35195   -35240   -35715   -35910   -35940   -36177   -36227 
  -35845   -35292   -34744   -34278   -34098   -34380   -34851   -35073 
  -34981   -34613   -34171   -34120   -34385   -34385   -34116   -34025 
  -34010   -33830   -33811   -33965   -33777   -33346   -33202   -33479 
  -34011   -34465   -34570   -34583   -34785   -34765   -34229   -33758 
  -33902   -34366   -34475   -34139   -33924   -34008   -33965   -33742 
  -33718   -33999   -34424   -34769   -34850   -34743   -34559   -34317 
  -34057   -33793   -33632   -33691   -33831   -33884   -33813   -33575 
  -33272   -33109   -33006   -32864   -32920   -33175   -33302   -33358 
  -33557   -33654   -33506   -33460   -33551   -33398   -32970   -32587 
  -32493   -32674   -32836   -32684   -32346   -32318   -32621   -32650 
  -32399   -32512   -32877   -32973   -33064   -33408   -33477   -33065 
  -32824   -33174   -33692   -33775   -33518   -33448   -33575   -33687 
  -33900   -34215   -34413   -34476   -34619   -34826   -34730   -34287 
  -33884   -33692   -33605   -33677   -34102   -34806   -35380   -35526 
  -35453   -35562   -35827   -36010   -36107   -36076   -35851   -35759 
  -35971   -35950   -35419   -34991   -35071   -35340   -35474   -35427 
  -35171   -34704   -34372   -34518   -34810   -34845   -34873   -34981 
  -34824   -34571   -34617   -34658   -34269   -33782   -33887   -34563 
  -35040   -35055   -35059   -35049   -34750   -34517   -34729   -35136 
  -35432   -35659   -35946   -36161   -36024   -35729   -35758   -36066 
  -36321   -36457   -36518   -36476   -36327   -36249   -36511   -36961 
  -37123   -36966   -36723   -36437   -36355   -36680   -37028   -36966 
  -36612   -36362   -36275   -36206   -36239   -36390   -36400   -36137 
  -35807   -35636   -35551   -35513   -35694   -35953   -35827   -35279 
  -34899   -35016   -35163   -35040   -34995   -35129   -35183   -35307 
  -35671   -35699   -35007   -34343   -34342   -34625   -34891   -35370 
  -35916   -35971   -35537   -35114   -34901   -34863   -35078   -35527 
  -35916   -36000   -35889   -35806   -35796   -35801   -35769   -35708 
  -35671   -35682   -35711   -35674   -35562   -35523   -35642   -35842 
  -36092   -36391   -36629   -36660   -36448   -36115   -35971   -36163 
  -36322   -36159   -35978   -36069   -36271   -36293   -36163   -36126 
  -36068   -35689   -35223   -35317   -36045   -36592   -36434   -36032 
  -35860   -35719   -35358   -35093   -35316   -35748   -35828   -35563 
  -35347   -35270   -35256   -35389   -35589   -35616   -35455   -35251 
  -35067   -34902   -34841   -34977   -35155   -35165   -35167   -35472 
  -35874   -35892   -35633   -35536   -35587   -35600   -35630   -35646 
  -35461   -35143   -34963   -34913   -34852   -34987   -35438   -35671 
  -35314   -34907   -34968   -35202   -35242   -35253   -35333   -35220 
  -34886   -34685   -34789   -35004   -35148   -35222   -35251   -35218 
  -35127   -35052   -35132   -35414   -35705   -35751   -35569   -35466 
  -35632   -35758   -35624   -35604   -35837   -35914   -35738   -35623 
  -35687   -35757   -35711   -35655   -35695   -35830   -36061   -36315 
  -36406   -36344   -36351   -36358   -36076   -35568   -35123   -34927 
  -35128   -35658   -36094   -36108   -35865   -35668   -35466   -35150 
  -34928   -35000   -35191   -35237   -35211   -35233   -35133   -34894 
  -34805   -34900   -34892   -34768   -34794   -34974   -35060   -35002 
  -34993   -34953   -34558   -34033   -33971   -34426   -35017   -35415 
  -35415   -35047   -34578   -34187   -33879   -33687   -33684   -33877 
  -34141   -34273   -34148   -33786   -33429   -33412   -33659   -33802 
  -33746   -33610   -33416   -33202   -33113   -33150   -33205   -33329 
  -33522   -33589   -33455   -33194   -32927   -32854   -33030   -33282 
  -33437   -33411   -33218   -32942   -32723   -32729   -32861   -32872 
  -32784   -32707   -32686   -32790   -32889   -32778   -32620   -32682 
  -32788   -32592   -32203   -32000   -32028   -32011   -31833   -31681 
  -31652   -31584   -31440   -31408   -31531   -31659   -31698   -31723 
  -31742   -31546   -31174   -31073   -31274   -31266   -31010   -30949 
  -31051   -30982   -30899   -31065   -31211   -31088   -30970   -31083 
  -31276   -31388   -31386   -31276   -31137   -31185   -31566   -32033 
  -32303   -32610   -33088   -33338   -33294   -33385   -33753   -34169 
  -34444   -34562   -34590   -34565   -34577   -34732   -34937   -35066 
  -35189   -35340   -35428   -35443   -35478   -35705   -36165   -36517 
  -36526   -36506   -36711   -36968   -37122   -37241   -37343   -37323 
  -37207   -37189   -37316   -37407   -37361   -37317   -37348   -37278 
  -37022   -36780   -36733   -36815   -36846   -36718   -36544   -36484 
  -36410   -36189   -36107   -36350   -36503   -36260   -36033   -36187 
  -36364   -36211   -35963   -35845   -35738   -35592   -35622   -35925 
  -36190   -36077   -35677   -35289   -35096   -35196   -35436   -35422 
  -35167   -35071   -35143   -35065   -34709   -34280   -34164   -34422 
  -34755   -35040   -35317   -35514   -35477   -35195   -34899   -34705 
  -34516   -34413   -34541   -34691   -34628   -34523   -34637   -34958 
  -35271   -35322   -35145   -35103   -35377   -35706   -35733   -35423 
  -35019   -34744   -34792   -35231   -35700   -35766   -35548   -35349 
  -35096   -34712   -34400   -34283   -34229   -34110   -34017   -34052 
  -34114   -34081   -33974   -33905   -33971   -34110   -34068   -33735 
  -33434   -33450   -33559   -33542   -33607   -33870   -34002   -33812 
  -33575   -33534   -33647   -33780   -33850   -33894   -33996   -34128 
  -34116   -33911   -33711   -33617   -33599   -33732   -34034   -34344 
  -34595   -34899   -35137   -35010   -34702   -34686   -35039   -35498 
  -35793   -35852   -35899   -36062   -36160   -36098   -35999   -35998 
  -36101   -36169   -36189   -36368   -36741   -37054   -37151   -37124 
  -36993   -36704   -36464   -36553   -36842   -36951   -36787   -36574 
  -36512   -36676   -36944   -37056   -37023   -37110   -37283   -37253 
  -37056   -37039   -37307   -37569   -37489   -37055   -36641   -36598 
  -36845   -37057   -37171   -37366   -37555   -37434   -36993   -36596 
  -36548   -36717   -36771   -36670   -36664   -36860   -37022   -36978 
  -36791   -36474   -36113   -35941   -35911   -35773   -35576   -35607 
  -35843   -35905   -35686   -35519   -35444   -35224   -35040   -35099 
  -35233   -35321   -35261   -34928   -34520   -34310   -34368   -34701 
  -35149   -35422   -35408   -35116   -34701   -34518   -34630   -34719 
  -34634   -34525   -34533   -34622   -34605   -34412   -34259   -34293 
  -34361   -34307   -34162   -34107   -34325   -34682   -34898   -34964 
  -34941   -34781   -34540   -34419   -34525   -34728   -34881   -34944 
  -34816   -34506   -34280   -34256   -34340   -34495   -34601   -34500 
  -34326   -34243   -34078   -33707   -33417   -33521   -33928   -34328 
  -34581   -34726   -34692   -34352   -33877   -33651   -33813   -34171 
  -34526   -34754   -34693   -34410   -34227   -34233   -34298   -34400 
  -34531   -34563   -34490   -34400   -34183   -33768   -33439   -33496 
  -33806   -33924   -33772   -33779   -34080   -34345   -34468   -34623 
  -34847   -34986   -34950   -34865   -34752   -34513   -34488   -35033 
  -35663   -35713   -35353   -35116   -35098   -35143   -35194   -35167 
  -35013   -34899   -34969   -35139   -35194   -35014   -34788   -34775 
  -34909   -34953   -34947   -35135   -35416   -35367   -34920   -34507 
  -34524   -34831   -35040   -35160   -35410   -35734   -35939   -35962 
  -35848   -35655   -35481   -35415   -35443   -35541   -35664   -35581 
  -35255   -35127   -35357   -35531   -35525   -35596   -35598   -35250 
  -34911   -34992   -35218   -35259   -35255   -35332   -35280   -34922 
  -34480   -34353   -34542   -34620   -34442   -34322   -34347   -34269 
  -34047   -33915   -34003   -34156   -34194   -34159   -34165   -34227 
  -34260   -34159   -33884   -33497   -33145   -33068   -33425   -33950 
  -34196   -34125   -33965   -33768   -33532   -33350   -33177   -32944 
  -32813   -32920   -33149   -33281   -33252   -33227   -33289   -33346 
  -33390   -33420   -33312   -33091   -32982   -33088   -33325   -33528 
  -33586   -33562   -33588   -33694   -33767   -33733   -33658   -33601 
  -33590   -33632   -33683   -33669   -33561   -33547   -33789   -34088 
  -34184   -34109   -34155   -34343   -34278   -33886   -33550   -33400 
  -33326   -33396   -33640   -33888   -34047   -34115   -34032   -33887 
  -33956   -34180   -34158   -33898   -33742   -33762   -33857   -33988 
  -34066   -33968   -33868   -34095   -34507   -34671   -34548   -34429 
  -34463   -34510   -34413   -34329   -34506   -34851   -35051   -34967 
  -34698   -34500   -34574   -34868   -35159   -35222   -35019   -34809 
  -34907   -35263   -35422   -35248   -35151   -35287   -35407   -35465 
  -35611   -35766   -35716   -35440   -35143   -35055   -35194   -35486 
  -35914   -36336   -36583   -36574   -36323   -36045   -35860   -35688 
  -35585   -35679   -35971   -36476   -37158   -37656   -37591   -37162 
  -36869   -36845   -36798   -36573   -36499   -36782   -37066   -36998 
  -36644   -36258   -36049   -36146   -36413   -36619   -36763   -36775 
  -36454   -36045   -35997   -36138   -36109   -36111   -36267   -36288 
  -36175   -36107   -36098   -36194   -36341   -36335   -36195   -36145 
  -36197   -36114   -35871   -35662   -35467   -35299   -35396   -35620 
  -35527   -35203   -35054   -35059   -35043   -35074   -35203   -35422 
  -35725   -35855   -35559   -35163   -35195   -35539   -35644   -35458 
  -35388   -35521   -35573   -35378   -35137   -35125   -35287   -35308 
  -35175   -35273   -35529   -35426   -35100   -34990   -34900   -34566 
  -34323   -34493   -34866   -35168   -35385   -35547   -35543   -35204 
  -34679   -34385   -34440   -34666   -34868   -34925   -34993   -35199 
  -35296   -35253   -35285   -35227   -35078   -35183   -35335   -35177 
  -34980   -35048   -35382   -35865   -36185   -36227   -36231   -36163 
  -35903   -35681   -35696   -35940   -36200   -36086   -35646   -35447 
  -35713   -36161   -36562   -36784   -36772   -36712   -36702   -36573 
  -36338   -36208   -36201   -36211   -36194   -36186   -36298   -36509 
  -36663   -36737   -36668   -36283   -35813   -35701   -35872   -35995 
  -36055   -36124   -36078   -35958   -36009   -36118   -35956   -35555 
  -35220   -34968   -34589   -34478   -34852   -34985   -34999   -35447 
  -35639   -35309   -34973   -34615   -34331   -34405   -34540   -34520 
  -34631   -34842   -34803   -34529   -34267   -34189   -34323   -34499 
  -34529   -34468   -34491   -34494   -34359   -34380   -34511   -34326 
  -34126   -34318   -34564   -34621   -34540   -34193   -33598   -33184 
  -33263   -33537   -33609   -33570   -33745   -34238   -34626   -34550 
  -34335   -34098   -33516   -32755   -32216   -32001   -32100   -32368 
  -32473   -32415   -32483   -32610   -32624   -32571   -32453   -32312 
  -32297   -32334   -32209   -32054   -32173   -32443   -32526   -32417 
  -32355   -32379   -32332   -32351   -32680   -33018   -32963   -32691 
  -32550   -32558   -32644   -32842   -33034   -33105   -33107   -33113 
  -33162   -33071   -32720   -32506   -32776   -33273   -33559   -33558 
  -33476   -33511   -33643   -33692   -33644   -33615   -33588   -33509 
  -33372   -33188   -33027   -32982   -33039   -33182   -33529   -33953 
  -34103   -34090   -34230   -34425   -34452   -34401   -34530   -34847 
  -35099   -35173   -35192   -35235   -35233   -35160   -35098   -35135 
  -35291   -35498   -35714   -35949   -36039   -35921   -35938   -36263 
  -36585   -36687   -36714   -36787   -36824   -36772   -36679   -36639 
  -36734   -36996   -37407   -37724   -37674   -37417   -37213   -37105 
  -37232   -37599   -37683   -37279   -37031   -37310   -37618   -37544 
  -37354   -37333   -37334   -37228   -37095   -36932   -36679   -36399 
  -36183   -36030   -35956   -35989   -36039   -36021   -35975   -35975 
  -36020   -35981   -35780   -35585   -35576   -35704   -35800   -35823 
  -35897   -36003   -35937   -35674   -35355   -35104   -35041   -35113 
  -35111   -35055   -35183   -35458   -35606   -35632   -35662   -35553 
  -35239   -34949   -34952   -35259   -35567   -35712   -35756   -35643 
  -35471   -35575   -35844   -35848   -35614   -35529   -35701   -35839 
  -35744   -35545   -35367   -35285   -35368   -35471   -35456   -35390 
  -35403   -35597   -35899   -36061   -35970   -35733   -35583   -35647 
  -35737   -35721   -35763   -35899   -36030   -36234   -36460   -36451 
  -36236   -36123   -36186   -36217   -36099   -35897   -35755   -35814 
  -36075   -36325   -36393   -36364   -36321   -36195   -36041   -36027 
  -36182   -36393   -36535   -36568   -36508   -36371   -36228   -36194 
  -36319   -36545   -36720   -36725   -36637   -36662   -36822   -36861 
  -36696   -36575   -36602   -36655   -36771   -37033   -37300   -37511 
  -37784   -38011   -37993   -37903   -38004   -38229   -38398   -38465 
  -38403   -38277   -38297   -38537   -38865   -39125   -39213   -39173 
  -39189   -39307   -39380   -39333   -39248   -39264   -39408   -39547 
  -39558   -39484   -39430   -39347   -39170   -39036   -39000   -38964 
  -38957   -38945   -38764   -38537   -38523   -38638   -38632   -38461 
  -38235   -38081   -38002   -37826   -37564   -37469   -37514   -37393 
  -37049   -36722   -36618   -36672   -36644   -36466   -36245   -36015 
  -35720   -35385   -35153   -35026   -34859   -34723   -34756   -34849 
  -34820   -34641   -34410   -34152   -33828   -33582   -33545   -33581 
  -33579   -33591   -33611   -33559   -33470   -33481   -33549   -33520 
  -33472   -33532   -33547   -33417   -33314   -33319   -33345   -33426 
  -33603   -33691   -33582   -33459   -33474   -33559   -33670   -33823 
  -33944   -34005   -34032   -33938   -33718   -33554   -33517   -33575 
  -33708   -33724   -33515   -33412   -33605   -33745   -33717   -33755 
  -33795   -33690   -33599   -33683   -33867   -34012   -34092   -34117 
  -34092   -34044   -33994   -34017   -34152   -34243   -34172   -34085 
  -34130   -34211   -34237   -34212   -34094   -33955   -33868   -33778 
  -33759   -33788   -33705   -33685   -33868   -33891   -33633   -33561 
  -33766   -33788   -33657   -33752   -33849   -33641   -33486   -33604 
  -33650   -33529   -33425   -33291   -33126   -33112   -33186   -33188 
  -33177   -33264   -33481   -33748   -33922   -34003   -34041   -34028 
  -34040   -34161   -34326   -34442   -34547   -34660   -34666   -34620 
  -34720   -34856   -34783   -34631   -34662   -34828   -35000   -35206 
  -35407   -35526   -35598   -35697   -35857   -36001   -36058   -36118 
  -36250   -36401   -36532   -36687   -36925   -37193   -37364   -37440 
  -37482   -37464   -37471   -37716   -38096   -38243   -38112   -37994 
  -38034   -38107   -38122   -38168   -38298   -38411   -38483   -38632 
  -38834   -38922   -38906   -38931   -39003   -39024   -38974   -38876 
  -38713   -38582   -38619   -38687   -38578   -38333   -38133   -38082 
  -38086   -38027   -37981   -37989   -38002   -38076   -38207   -38250 
  -38144   -37956   -37766   -37639   -37566   -37451   -37296   -37254 
  -37373   -37473   -37462   -37471   -37544   -37546   -37483   -37482 
  -37538   -37595   -37667   -37689   -37584   -37521   -37616   -37660 
  -37619   -37714   -37904   -38030   -38145   -38230   -38142   -37970 
  -37938   -38050   -38180   -38324   -38434   -38380   -38219   -38084 
  -37944   -37705   -37531   -37623   -37743   -37637   -37471   -37438 
  -37512   -37543   -37450   -37301   -37151   -37045   -37089   -37193 
  -37112   -36904   -36795   -36734   -36581   -36413   -36317   -36234 
  -36143   -36103   -36096   -36043   -35982   -36009   -36094   -36162 
  -36188   -36161   -36145   -36254   -36406   -36406   -36357   -36491 
  -36686   -36679   -36518   -36423   -36432   -36479   -36609   -36796 
  -36914   -36973   -36982   -36889   -36772   -36757   -36798   -36762 
  -36669   -36641   -36695   -36796   -36877   -36823   -36689   -36656 
  -36701   -36653   -36526   -36476   -36516   -36532   -36533   -36587 
  -36617   -36532   -36380   -36236   -36145   -36139   -36166   -36132 
  -36054   -35972   -35863   -35758   -35697   -35597   -35428   -35383 
  -35522   -35551   -35403   -35388   -35462   -35346   -35154   -35049 
  -34955   -34895   -34917   -34904   -34844   -34825   -34773   -34641 
  -34502   -34353   -34213   -34174   -34215   -34226   -34155   -34027 
  -33895   -33756   -33566   -33408   -33386   -33392   -33340   -33303 
  -33266   -33185   -33130   -33130   -33108   -33041   -33046   -33128 
  -33136   -33133   -33233   -33269   -33193   -33193   -33257   -33251 
  -33188   -33111   -33066   -33102   -33140   -33125   -33127   -33159 
  -33193   -33205   -33157   -33109   -33098   -33068   -33027   -33022 
  -33062   -33132   -33177   -33205   -33242   -33229   -33211   -33286 
  -33398   -33493   -33604   -33678   -33661   -33653   -33722   -33786 
  -33780   -33734   -33698   -33718   -33848   -34047   -34187   -34220 
  -34181   -34109   -34033   -34031   -34129   -34203   -34210   -34250 
  -34329   -34373   -34409   -34499   -34591   -34669   -34806   -34895 
  -34856   -34910   -35117   -35203   -35104   -35071   -35205   -35353 
  -35404   -35442   -35585   -35805   -35998   -36095   -36101   -36125 
  -36227   -36286   -36262   -36221   -36159   -36119   -36135   -36115 
  -36027   -35918   -35841   -35840   -35889   -35940   -35919   -35811 
  -35732   -35709   -35697   -35725   -35751   -35712   -35706   -35758 
  -35732   -35635   -35585   -35561   -35518   -35495   -35533   -35635 
  -35713   -35715   -35737   -35790   -35807   -35876   -36007   -36092 
  -36201   -36295   -36242   -36190   -36211   -36216   -36263   -36343 
  -36320   -36234   -36206   -36197   -36107   -36019   -36051   -36079 
  -36002   -35953   -36001   -36007   -35916   -35828   -35772   -35685 
  -35589   -35558   -35571   -35615   -35720   -35835   -35887   -35865 
  -35789   -35687   -35617   -35602   -35598   -35595   -35577   -35534 
  -35557   -35625   -35604   -35571   -35628   -35686   -35701   -35664 
  -35537   -35414   -35376   -35333   -35249   -35194   -35195   -35233 
  -35265   -35252   -35232   -35271   -35326   -35314   -35290   -35293 
  -35242   -35171   -35131   -35067   -35042   -35078   -35040   -34959 
  -34936   -34883   -34791   -34782   -34778   -34677   -34546   -34424 
  -34343   -34339   -34289   -34130   -34019   -34015   -33987   -33859 
  -33687   -33570   -33508   -33427   -33369   -33410   -33484   -33548 
  -33629   -33661   -33614   -33586   -33614   -33646   -33725   -33876 
  -33941   -33885   -33871   -33924   -34006   -34146   -34287   -34349 
  -34332   -34297   -34358   -34464   -34441   -34378   -34436   -34519 
  -34560   -34617   -34696   -34800   -34891   -34911   -34905   -34908 
  -34911   -34939   -34980   -34999   -35018   -35094   -35210   -35255 
  -35271   -35346   -35365   -35347   -35400   -35496   -35618   -35663 
