Origin Time       2011/03/11 14:46:00
Lat.              38.103
Long.             142.860
Depth. (km)       24
Mag.              9.0
Station Code      ISK012
Station Lat.      36.3579
Station Long.     136.6049
Station Height(m) 187
Record Time       2011/03/11 14:50:21
Sampling Freq(Hz) 100Hz
Duration Time(s)  66
Dir.              N-S
Scale Factor      3920(gal)/6182761
Max. Acc. (gal)   2.446
Last Correction   2011/03/11 14:50:06
Memo.             
[...]
   22213    22197    22135    22048    21976    21951    21971    22002 
   22020    22024    22021    22007    21976    21924    21863    21813 
   21778    21758    21754    21743    21713    21695    21711    21731 
   21708    21656    21619    21599    21572    21536    21515    21518 
   21527    21515    21483    21433    21361    21293    21258    21256 
   21278    21300    21309    21311    21316    21312    21287    21254 
   21242    21250    21246    21237    21249    21262    21259    21257 
   21271    21294    21317    21336    21356    21379    21385    21364 
   21351    21375    21409    21421    21436    21481    21525    21520 
   21481    21469    21501    21521    21472    21406    21434    21567 
   21661    21595    21464    21444    21548    21616    21553    21491 
   21555    21642    21631    21566    21509    21469    21509    21660 
   21793    21781    21710    21716    21779    21800    21766    21780 
   21926    22135    22247    22197    22128    22220    22415    22523 
   22532    22610    22823    22993    22943    22781    22731    22822 
   22939    22987    22952    22973    23142    23314    23379    23427 
   23540    23632    23550    23320    23158    23172    23231    23223 
   23289    23545    23791    23816    23627    23259    22833    22635 
   22759    22975    23091    23172    23327    23446    23334    23017 
   22666    22419    22325    22333    22380    22488    22679    22854 
   22791    22504    22262    22105    22029    22248    22609    22571 
   22023    21530    21556    21833    21908    21896    22139    22562 
   22751    22520    22068    21612    21311    21332    21682    22095 
   22265    22292    22420    22437    22006    21314    20950    21170 
   21529    21578    21518    21638    21735    21629    21538    21543 
   21457    21271    21138    21151    21228    21155    21087    21376 
   21806    21973    21898    21694    21382    21012    20739    20812 
   21208    21580    21839    22141    22333    22205    21969    21854 
   21801    21741    21624    21473    21578    22150    22862    23144 
   22892    22544    22417    22347    22021    21539    21386    21713 
   22119    22343    22640    23181    23529    23228    22470    21777 
   21389    21238    21373    21979    22855    23480    23603    23331 
   22927    22586    22271    21975    21982    22533    23317    23761 
   23734    23434    23042    22708    22453    22305    22456    22969 
   23653    24174    24231    23849    23309    22862    22672    22647 
   22554    22606    23132    23794    23984    23601    23083    22839 
   22798    22696    22531    22486    22612    22708    22567    22291 
   22188    22372    22563    22409    22008    21808    21914    22018 
   22019    22086    22307    22614    22743    22437    21850    21292 
   20869    20642    20710    21162    22001    22786    22874    22312 
   21700    21300    21050    20952    21025    21326    21832    22198 
   22230    22165    22130    21989    21693    21381    21261    21373 
   21543    21644    21718    21907    22282    22607    22585    22297 
   22028    21910    21915    21946    21904    21812    21806    22005 
   22423    22937    23218    22981    22397    21947    21882    21967 
   21899    21898    22388    23201    23724    23656    23248    22856 
   22547    22273    22077    22107    22502    23125    23666    23947 
   23968    23837    23596    23229    22825    22480    22385    22744 
   23342    23884    24328    24421    23929    23207    22779    22799 
   23024    23188    23421    23887    24233    24065    23563    23173 
   23113    23302    23499    23514    23428    23522    23779    23715 
   23187    22789    22946    23329    23406    23091    22826    22991 
   23367    23403    22986    22714    23002    23283    23026    22617 
   22475    22476    22374    22172    22173    22562    23110    23471 
   23489    23334    23204    22886    22253    21789    21937    22552 
   23209    23608    23788    23952    24021    23770    23235    22618 
   22142    22081    22564    23325    23885    24094    24142    24039 
   23616    22997    22679    22801    22935    23029    23397    23835 
   23871    23430    22951    22876    23059    23158    23202    23293 
   23331    23190    22886    22597    22497    22591    22831    23182 
   23483    23475    23143    22755    22481    22363    22490    22788 
   23063    23287    23427    23228    22598    21948    21749    21978 
   22316    22711    23184    23381    23058    22515    22113    21886 
   21787    21927    22393    22986    23292    23173    22843    22376 
   21897    21744    21934    22270    22597    22722    22612    22389 
   22168    22020    21945    22002    22269    22593    22701    22481 
   22079    21754    21644    21720    21867    22013    22212    22480 
   22681    22692    22450    22114    21999    22045    22007    21940 
   21922    21920    21969    22046    22170    22453    22708    22597 
   22220    21969    21969    22049    22162    22495    23049    23477 
   23484    23176    22861    22645    22504    22506    22658    22859 
   23067    23267    23443    23574    23529    23249    22976    22923 
   23014    23092    23092    23124    23314    23419    23178    22897 
   22892    22999    23115    23318    23514    23527    23332    23081 
   22993    23113    23231    23184    23119    23176    23271    23323 
   23332    23293    23246    23228    23176    23076    23032    23038 
   23016    22974    22941    22990    23156    23206    22927    22525 
   22391    22546    22644    22528    22438    22582    22851    23008 
   22904    22579    22312    22348    22532    22515    22268    22049 
   21964    21977    22098    22264    22404    22513    22442    22114 
   21798    21665    21602    21602    21756    22042    22309    22312 
   21986    21534    21130    20909    21019    21387    21740    21884 
   21798    21568    21287    20998    20763    20686    20814    21078 
   21337    21454    21400    21257    21068    20871    20763    20742 
   20736    20805    20963    21072    21140    21230    21250    21253 
   21331    21306    21111    20957    20884    20782    20770    20982 
   21232    21291    21183    21013    20803    20597    20501    20597 
   20888    21231    21435    21502    21506    21404    21210    21046 
   20969    20931    20861    20859    21114    21507    21764    21772 
   21587    21406    21283    21062    20797    20772    21127    21663 
   22037    22112    21981    21788    21605    21382    21192    21228 
   21428    21594    21728    21879    21977    21956    21860    21746 
   21664    21678    21753    21822    21893    21916    21860    21851 
   21960    22074    22042    21881    21810    21985    22196    22131 
   21928    22020    22433    22738    22738    22694    22751    22741 
   22617    22506    22463    22489    22552    22581    22642    22901 
   23303    23576    23585    23398    23127    22878    22804    22996 
   23307    23511    23605    23698    23761    23737    23629    23406 
   23130    23052    23303    23736    24195    24540    24583    24290 
   23878    23588    23464    23472    23645    23954    24245    24447 
   24564    24501    24188    23804    23643    23759    23969    24100 
   24098    24020    23942    23860    23750    23638    23607    23674 
   23711    23614    23427    23226    23087    23055    23080    23125 
   23195    23230    23213    23193    23134    22989    22802    22686 
   22742    22898    23041    23162    23210    23132    22989    22881 
   22865    22821    22602    22437    22641    23061    23350    23412 
   23340    23269    23202    22959    22551    22264    22220    22374 
   22708    23051    23196    23166    23030    22745    22312    21944 
   21912    22211    22627    22972    23148    23209    23184    22943 
   22482    22013    21748    21827    22203    22626    22894    22966 
   22923    22825    22595    22205    21884    21832    21981    22230 
   22523    22763    22903    22908    22728    22445    22214    22073 
   21973    21901    21959    22221    22564    22818    22943    22916 
   22698    22342    21983    21771    21773    21922    22161    22480 
   22779    22924    22870    22584    22086    21560    21235    21214 
   21421    21680    21932    22207    22403    22348    21992    21451 
   21036    20989    21093    21063    21119    21436    21652    21483 
   21162    21044    21166    21249    21129    20950    20851    20809 
   20772    20750    20832    21063    21291    21316    21091    20726 
   20473    20513    20727    20947    21245    21664    21976    21949 
   21658    21322    21065    20967    21064    21286    21581    21939 
   22262    22350    22025    21381    20840    20685    20770    20917 
   21152    21407    21467    21337    21199    20993    20626    20345 
   20334    20433    20480    20443    20339    20201    20033    19915 
   19971    20120    20169    20098    20024    20005    19955    19788 
   19590    19538    19670    19854    19946    19910    19837    19832 
   19863    19798    19631    19559    19764    20113    20313    20335 
   20325    20297    20149    19817    19459    19381    19613    19920 
   20141    20255    20336    20448    20497    20382    20204    20116 
   20138    20256    20467    20654    20720    20793    20979    21118 
   21081    20986    20969    21014    20968    20773    20659    20858 
   21246    21500    21491    21456    21591    21683    21511    21196 
   20999    21098    21389    21560    21620    21750    21802    21670 
   21546    21510    21473    21377    21237    21193    21319    21467 
   21487    21389    21217    20937    20625    20509    20613    20760 
   20866    21024    21291    21424    21193    20747    20359    20146 
   20071    20064    20115    20280    20562    20854    20988    20889 
   20700    20648    20728    20689    20439    20195    20153    20283 
   20469    20642    20789    20895    20943    20986    21023    20889 
   20595    20383    20391    20612    20908    21056    21079    21156 
   21215    21086    20832    20651    20637    20750    20932    21143 
   21285    21239    21034    20872    20893    21001    21060    21066 
   21065    21127    21286    21441    21552    21656    21658    21500 
   21334    21268    21217    21136    21195    21521    21902    22016 
   21817    21499    21250    21120    21062    21117    21362    21674 
   21862    21889    21813    21678    21492    21292    21227    21410 
   21716    21901    21879    21718    21544    21495    21560    21637 
   21804    22143    22407    22368    22198    22082    22015    22073 
   22238    22388    22580    22814    22909    22794    22593    22502 
   22633    22947    23279    23452    23440    23273    22916    22408 
   21952    21821    22071    22507    23021    23628    24157    24269 
   23866    23198    22496    21880    21595    21793    22286    22831 
   23300    23584    23640    23525    23355    23177    22866    22399 
   22011    21885    22060    22543    23166    23717    24122    24212 
   23881    23288    22593    22010    21833    22004    22317    22829 
   23535    24118    24238    23845    23233    22732    22358    22036 
   21995    22419    23065    23608    23929    24022    23931    23604 
   22924    22076    21544    21563    21965    22573    23265    23808 
   23929    23493    22553    21395    20552    20453    20995    21851 
   22935    24115    24765    24221    22654    20960    19777    19177 
   19175    19942    21434    23093    24254    24697    24472    23541 
   22005    20378    19319    19246    20179    21771    23497    24853 
   25390    24837    23374    21588    20125    19467    19754    20744 
   22093    23332    23905    23691    23002    22115    21304    20789 
   20433    20202    20506    21482    22586    23226    23268    22875 
   22240    21504    20853    20635    20985    21574    22163    22649 
   22706    22186    21421    20848    20748    21182    22045    23111 
   23959    24158    23607    22577    21586    21026    20902    21225 
   22123    23311    24144    24361    24213    23828    23067    22154 
   21655    21767    22278    22967    23713    24484    25115    25308 
   25062    24643    24199    23735    23293    22967    22892    23124 
   23483    23751    23903    23867    23444    22701    22069    21816 
   21774    21810    22066    22561    23114    23562    23682    23297 
   22554    21850    21555    21772    22305    22833    23061    22896 
   22370    21523    20646    20237    20530    21269    22026    22658 
   23209    23440    22950    21822    20605    19757    19517    20025 
   21299    23120    24793    25368    24598    23196    21790    20540 
   19864    20250    21447    22698    23525    23862    23673    22916 
   21806    20746    20083    19905    20061    20505    21403    22659 
   23596    23523    22554    21392    20489    20005    20078    20741 
   21967    23453    24426    24487    24008    23319    22560    22067 
   22048    22289    22471    22580    22889    23471    24091    24525 
   24571    24040    23095    22191    21562    21283    21657    22837 
   24349    25470    25748    25144    24045    23023    22388    22047 
   21875    22012    22520    23133    23672    24185    24520    24337 
   23606    22698    21911    21273    20843    20807    21263    22097 
   23144    24360    25579    26183    25581    24006    22233    20773 
   19836    19569    20079    21296    22816    24037    24456    23986 
   22893    21398    19853    18936    19029    19881    21124    22518 
   23592    23749    22896    21519    20290    19666    19583    19758 
   20200    20868    21360    21392    21139    20998    21003    20799 
   20410    20270    20470    20622    20442    20185    20171    20347 
   20650    21008    21081    20600    19771    19115    18874    18972 
   19484    20363    21152    21473    21231    20531    19766    19340 
   19358    19875    20714    21155    20893    20569    20531    20295 
   19640    19086    19116    19599    20164    20733    21402    22040 
   22353    22208    21642    20698    19634    18992    19044    19660 
   20571    21458    22236    23032    23547    23248    22290    21435 
   21095    21043    20921    20714    20786    21440    22488    23320 
   23372    22683    21842    21251    20979    21085    21568    22400 
   23396    24097    24268    24042    23582    23016    22478    22015 
   21582    21303    21557    22490    23660    24360    24223    23516 
   22665    21840    21299    21307    21779    22595    23562    24182 
   24079    23225    21879    20701    20277    20555    21243    22149 
   22880    23066    22732    22087    21398    20887    20618    20653 
   20988    21404    21688    21747    21636    21549    21485    21212 
   20760    20482    20678    21344    22072    22433    22393    22086 
   21614    21162    20995    21233    21635    22012    22526    22984 
   22793    22001    21240    20837    20796    20966    21119    21355 
   21786    21973    21650    21282    21231    21315    21449    21746 
   22023    22087    22069    21922    21458    20941    20819    21155 
   21674    22016    21996    21870    22083    22545    22648    22305 
   22020    21894    21613    21095    20678    20924    21972    23108 
   23462    22960    22289    21859    21373    20739    20537    21103 
   21899    22313    22394    22424    22461    22337    21923    21447 
   21191    21131    21158    21343    21794    22213    22104    21496 
   20917    20762    20995    21389    21813    22120    22149    21997 
   21903    21825    21513    20973    20556    20560    20812    20918 
   20824    20743    20730    20747    20906    21344    21930    22326 
   22347    22148    21903    21502    20833    20122    19672    19568 
   19875    20636    21530    22116    22226    21919    21424    21027 
   20909    21154    21580    21870    22069    22397    22709    22638 
   22020    21079    20253    19808    19827    20502    21849    23259 
   23923    23604    22696    21660    20675    19862    19597    20222 
   21535    22855    23530    23288    22377    21293    20346    19755 
   19905    20969    22505    23735    24119    23677    22772    21730 
   20890    20500    20496    20860    21676    22598    23109    23139 
   22892    22439    21819    21245    21024    21339    22024    22600 
   22735    22518    22171    21811    21612    21763    22131    22392 
   22359    22067    21758    21549    21232    20822    20711    21107 
   21911    22877    23610    23851    23717    23393    22842    22072 
   21374    21044    21177    21706    22352    22869    23261    23498 
   23451    23121    22600    21990    21438    21081    20961    21117 
   21625    22359    22935    23123    23020    22733    22345    22037 
   21883    21858    21985    22149    22070    21749    21557    21699 
   21988    22222    22364    22416    22346    22051    21533    21128 
   21211    21762    22455    22967    23107    22836    22332    21870 
   21560    21428    21551    21943    22530    23130    23441    23302 
   22834    22207    21498    20862    20629    21015    21856    22802 
   23588    24023    23984    23459    22620    21753    21109    20896 
   21191    21807    22448    22882    23006    22919    22792    22656 
   22461    22248    22150    22262    22596    23074    23482    23597 
   23396    23060    22824    22808    22955    23143    23316    23500 
   23746    24078    24411    24551    24404    24060    23624    23216 
   22982    22955    23098    23380    23706    23954    24037    23976 
   23915    23887    23741    23443    23184    23087    23143    23374 
   23759    24164    24419    24402    24115    23699    23400    23394 
   23613    23929    24288    24565    24580    24318    23941    23609 
   23400    23390    23558    23746    23897    24070    24241    24339 
   24270    23965    23521    23156    23098    23424    23883    24189 
   24353    24405    24210    23761    23271    22975    22935    23034 
   23185    23386    23554    23555    23424    23335    23358    23407 
   23401    23341    23290    23322    23383    23352    23227    23080 
   22916    22768    22739    22856    23060    23326    23628    23844 
   23835    23625    23396    23304    23339    23363    23356    23469 
   23727    23932    23953    23899    23913    23957    23872    23594 
   23257    23052    23031    23098    23193    23333    23484    23571 
   23617    23668    23663    23552    23392    23238    23113    23097 
   23232    23409    23531    23606    23633    23571    23391    23132 
   22953    22932    22957    22946    22901    22838    22865    23022 
   23105    23007    22891    22834    22711    22478    22226    22020 
   21858    21744    21708    21791    21997    22215    22301    22250 
   22125    21902    21581    21261    21030    20966    21135    21440 
   21675    21754    21742    21676    21548    21370    21116    20813 
   20614    20589    20634    20672    20727    20820    20883    20848 
   20765    20706    20673    20627    20482    20246    20131    20244 
   20430    20554    20624    20638    20564    20434    20286    20101 
