Origin Time       2011/03/11 14:46:00
Lat.              38.103
Long.             142.860
Depth. (km)       24
Mag.              9.0
Station Code      ISK009
Station Lat.      36.7318
Station Long.     136.6989
Station Height(m) 40
Record Time       2011/03/11 14:49:22
Sampling Freq(Hz) 100Hz
Duration Time(s)  176
Dir.              N-S
Scale Factor      3920(gal)/6182761
Max. Acc. (gal)   6.290
Last Correction   2011/03/11 14:49:07
Memo.             
[...]
  -41623   -41385   -41369   -41472   -41469   -41280   -41099   -41222 
  -41323   -41175   -41228   -41327   -41132   -40894   -40724   -40579 
  -40553   -40708   -40897   -40827   -40557   -40639   -41142   -41454 
  -41448   -41421   -41482   -41667   -41806   -41712   -41667   -41972 
  -42239   -42192   -42203   -42336   -42373   -42374   -42342   -42272 
  -42425   -42709   -42710   -42546   -42604   -42778   -42748   -42643 
  -42547   -42327   -42258   -42296   -42176   -42193   -42287   -42123 
  -42011   -42130   -41992   -41715   -41772   -41898   -41902   -41849 
  -41813   -41818   -41756   -41757   -41705   -41501   -41573   -41789 
  -41529   -41202   -41430   -41711   -41793   -41849   -41692   -41758 
  -42253   -42356   -42202   -42459   -42736   -42837   -42952   -43115 
  -43522   -43866   -43807   -43834   -44278   -44799   -44962   -44798 
  -44825   -45236   -45405   -45126   -45200   -45667   -45721   -45171 
  -44670   -44886   -45289   -45116   -44747   -44737   -44832   -44570 
  -44199   -44231   -44677   -44805   -44245   -43854   -44169   -44642 
  -44553   -44033   -44028   -44569   -44673   -44307   -44147   -44308 
  -44537   -44401   -43968   -44002   -44413   -44348   -43801   -43615 
  -43958   -44082   -43758   -43397   -43373   -43665   -43644   -43086 
  -42820   -43226   -43457   -43139   -42738   -42501   -42646   -42863 
  -42398   -41808   -42014   -42239   -41674   -41046   -40911   -40933 
  -40709   -40078   -39527   -39601   -39686   -39021   -38262   -38230 
  -38435   -38079   -37442   -37448   -37867   -37859   -37636   -37440 
  -37323   -37585   -37618   -37106   -37098   -37599   -37585   -37341 
  -37431   -37567   -37669   -37750   -37705   -37720   -37853   -37823 
  -37565   -37438   -37661   -37878   -37883   -37957   -37940   -37780 
  -37908   -37985   -37715   -37652   -37893   -37982   -37877   -37762 
  -37656   -37796   -38171   -38192   -37954   -38001   -38196   -38232 
  -38208   -38379   -38674   -38770   -38674   -38631   -38799   -39110 
  -39169   -38954   -39080   -39620   -39982   -40022   -40019   -40231 
  -40726   -40923   -40641   -40893   -41642   -41821   -41549   -41401 
  -41691   -42317   -42450   -42038   -42087   -42710   -42841   -42370 
  -42324   -42864   -43191   -42868   -42549   -42942   -43633   -43738 
  -43020   -42535   -43172   -43880   -43566   -43054   -43301   -43644 
  -43454   -43175   -43234   -43783   -44317   -44000   -43426   -43722 
  -44416   -44526   -44269   -44346   -44741   -44942   -44873   -44804 
  -45003   -45470   -45585   -45276   -45344   -45792   -45972   -46012 
  -46279   -46537   -46690   -46677   -46416   -46497   -46980   -47101 
  -46810   -46715   -47002   -47163   -46890   -46587   -46684   -47084 
  -47196   -46786   -46560   -46844   -46967   -46738   -46579   -46689 
  -46985   -46938   -46488   -46395   -46712   -46822   -46568   -46307 
  -46330   -46541   -46756   -46952   -47007   -46876   -46895   -47108 
  -47226   -47164   -46915   -46728   -46845   -46921   -46706   -46685 
  -47164   -47476   -47080   -46495   -46333   -46522   -46699   -46519 
  -46217   -46415   -46738   -46487   -46026   -46010   -46325   -46409 
  -46246   -46160   -46106   -45979   -45837   -45761   -45782   -45743 
  -45395   -45072   -45323   -45648   -45601   -45610   -45610   -45323 
  -45023   -44910   -44846   -44836   -44965   -45117   -45309   -45609 
  -45813   -45843   -45833   -45716   -45613   -45654   -45445   -44913 
  -44757   -45304   -45762   -45707   -45605   -45625   -45730   -45778 
  -45513   -44975   -44516   -44321   -44219   -44285   -44477   -44374 
  -44054   -43974   -44121   -43998   -43633   -43576   -43673   -43475 
  -43181   -42992   -42870   -42836   -42666   -42415   -42629   -42956 
  -42635   -42060   -42020   -42394   -42392   -41775   -41214   -41310 
  -41648   -41541   -41200   -41250   -41818   -42205   -41889   -41448 
  -41463   -41584   -41394   -41280   -41590   -42032   -42189   -42085 
  -42362   -43158   -43630   -43298   -42685   -42534   -42783   -42821 
  -42622   -42627   -42820   -42991   -43149   -43175   -43124   -43223 
  -43324   -43363   -43450   -43312   -42683   -41970   -42011   -42854 
  -43498   -43531   -43499   -43665   -43822   -43610   -42885   -42323 
  -42353   -42416   -42361   -42532   -42945   -43292   -43166   -42860 
  -42908   -43054   -43054   -42856   -42594   -42855   -43368   -43368 
  -43169   -43243   -43366   -43491   -43683   -43702   -43683   -43760 
  -43560   -43293   -43444   -43666   -43513   -43127   -42872   -42782 
  -42678   -42700   -42910   -43009   -42847   -42584   -42375   -42267 
  -42261   -42182   -42195   -42658   -43270   -43753   -44046   -43937 
  -43662   -43614   -43733   -43931   -44093   -44038   -43992   -44099 
  -44159   -44108   -43884   -43660   -43876   -44113   -43698   -43173 
  -43047   -43115   -43253   -43136   -42802   -42748   -42765   -42488 
  -42266   -42441   -42709   -42907   -43144   -43234   -43079   -42560 
  -41816   -41616   -42174   -42896   -43276   -43326   -43318   -43289 
  -43101   -42937   -43170   -43604   -43602   -43122   -43204   -44338 
  -45144   -44679   -43860   -43562   -43555   -43237   -42740   -43116 
  -44410   -45090   -44651   -44075   -43952   -43914   -43375   -42772 
  -42910   -43470   -43855   -44072   -44062   -43751   -43330   -42810 
  -42529   -42863   -43204   -43054   -42872   -43158   -43620   -43618 
  -43064   -42401   -42367   -43127   -43750   -43724   -43645   -43886 
  -43981   -43650   -43134   -42685   -42407   -42108   -41716   -41611 
  -41947   -42236   -42069   -41899   -42080   -42047   -41487   -40901 
  -40722   -40935   -41322   -41522   -41521   -41813   -42272   -42173 
  -41704   -41432   -40996   -40325   -40271   -41095   -41985   -42125 
  -41542   -40853   -40619   -40813   -41067   -41307   -41539   -41748 
  -41647   -41042   -40852   -41594   -42319   -42345   -41952   -41738 
  -42076   -42562   -42726   -42891   -43206   -43385   -43458   -43475 
  -43462   -43597   -43806   -43862   -43970   -44554   -45395   -45782 
  -45493   -45131   -45231   -45536   -45739   -45702   -45463   -45630 
  -46319   -46711   -46731   -47098   -47719   -48039   -47903   -47706 
  -47883   -47984   -47713   -47277   -46837   -46925   -47472   -47585 
  -47375   -47675   -48037   -47821   -47546   -47614   -48175   -48889 
  -48817   -48203   -48103   -48490   -48660   -48726   -49232   -49857 
  -49923   -49341   -48617   -48386   -48603   -48654   -48501   -48793 
  -49499   -49571   -48791   -48360   -48642   -48669   -48208   -47719 
  -47430   -47564   -47866   -47864   -47897   -48340   -48620   -48160 
  -47438   -47331   -47660   -47773   -47852   -47923   -47879   -48019 
  -47967   -47715   -48027   -48501   -48355   -48060   -48065   -48001 
  -47781   -47576   -47474   -47565   -47659   -47559   -47403   -47526 
  -47826   -47700   -47394   -47654   -48121   -48074   -47535   -46994 
  -46999   -47388   -47376   -46948   -46824   -47016   -46799   -46221 
  -46064   -46255   -46124   -45652   -45258   -45198   -45259   -44836 
  -44001   -43640   -43816   -43737   -43493   -43675   -43972   -43827 
  -43361   -43041   -43202   -43661   -43963   -44106   -44275   -44413 
  -44387   -44254   -44220   -44220   -44188   -44208   -44214   -44294 
  -44477   -44519   -44329   -44129   -44107   -44134   -44257   -44515 
  -44604   -44733   -45167   -45397   -45370   -45693   -46185   -46442 
  -46674   -46820   -46787   -46887   -47047   -46990   -46993   -47189 
  -47058   -46492   -46071   -46075   -46285   -46667   -47091   -47120 
  -47011   -47083   -47054   -47224   -47921   -48313   -48066   -47913 
  -47803   -47694   -48122   -48528   -48419   -48455   -48763   -48755 
  -48357   -47931   -47689   -47781   -47965   -47797   -47449   -47366 
  -47513   -47322   -46961   -47220   -47567   -47262   -46838   -46727 
  -46894   -47037   -46635   -46149   -46306   -46560   -46220   -45718 
  -45855   -46298   -46168   -45401   -44630   -44503   -44565   -44175 
  -43838   -44062   -44521   -44505   -43996   -43758   -44130   -44514 
  -44275   -43889   -44089   -44558   -44547   -44045   -43649   -43608 
  -43698   -43635   -43389   -43265   -43304   -43090   -42800   -43130 
  -43592   -43297   -42851   -43037   -43430   -43382   -42966   -42561 
  -42416   -42711   -43075   -43083   -43243   -43671   -43472   -42744 
  -42302   -42079   -42129   -42494   -42705   -42911   -43205   -43071 
  -42658   -42809   -43381   -43310   -42744   -42639   -42830   -42836 
  -42829   -42597   -42019   -41814   -41883   -41644   -41660   -42113 
  -42126   -41739   -41614   -41503   -41294   -41217   -40748   -39965 
  -39881   -40271   -40244   -40181   -40671   -41206   -41360   -41258 
  -40923   -40822   -41265   -41389   -40857   -40513   -40659   -41025 
  -41672   -42409   -42565   -42200   -41977   -42036   -42325   -42828 
  -43364   -43781   -43962   -44124   -44535   -45024   -45269   -44914 
  -44093   -43651   -44004   -44666   -45101   -45114   -44632   -44074 
  -43728   -43290   -43228   -43799   -44033   -43652   -43208   -43079 
  -43301   -43483   -43435   -43449   -43667   -43828   -43922   -44286 
  -44758   -44856   -44566   -44275   -44225   -44353   -44555   -44695 
  -44771   -45027   -45246   -45390   -46001   -46495   -46075   -45557 
  -45514   -45310   -44971   -45069   -45556   -46294   -46763   -46312 
  -45676   -45696   -45889   -45814   -45748   -45833   -45857   -45874 
  -46124   -46446   -46621   -46684   -46494   -46139   -46274   -46796 
  -46870   -46596   -46623   -46921   -47085   -46907   -46411   -45997 
  -45887   -45655   -45436   -45794   -46262   -45970   -45196   -44787 
  -44851   -45160   -45308   -45012   -44902   -45364   -45572   -44873 
  -43970   -43625   -43573   -43315   -42730   -42407   -42852   -43219 
  -42694   -42048   -42192   -42674   -42465   -41533   -41041   -41221 
  -41104   -40846   -41095   -41608   -41850   -41441   -40863   -41002 
  -41497   -41533   -41197   -40824   -40663   -40812   -40701   -40187 
  -40060   -40268   -40182   -40020   -40235   -40821   -41312   -41277 
  -40947   -41031   -41776   -42388   -42319   -42295   -42729   -42819 
  -42374   -42307   -42857   -43492   -43753   -43164   -42155   -42011 
  -42583   -42930   -43193   -43507   -43438   -42875   -42343   -42397 
  -43065   -43860   -44050   -43505   -43138   -43834   -44791   -44836 
  -44568   -44538   -44500   -44692   -44980   -45098   -45544   -46005 
  -45476   -44378   -43777   -43799   -44142   -44423   -44342   -44200 
  -44191   -43966   -43559   -43491   -43794   -43792   -43350   -43346 
  -43992   -44519   -44554   -44213   -43810   -43425   -42827   -42288 
  -42457   -43244   -43541   -42904   -42029   -41532   -41650   -41960 
  -42079   -42181   -42244   -42255   -42033   -41323   -40916   -41460 
  -41936   -41781   -41739   -41961   -42129   -41926   -41322   -41228 
  -42024   -42647   -42507   -42180   -42133   -42158   -41595   -40645 
  -40456   -41008   -41332   -41203   -41021   -41115   -41274   -40865 
  -40123   -40144   -40990   -41641   -41577   -41153   -40938   -41075 
  -41335   -41525   -41727   -42115   -42418   -42547   -43051   -43863 
  -44174   -43913   -43978   -44599   -45092   -45345   -45643   -45924 
  -46044   -46257   -46820   -47540   -48288   -48789   -48709   -48427 
  -48430   -48532   -48566   -48757   -48971   -49034   -49152   -49045 
  -48540   -48346   -48594   -48725   -48674   -48583   -48556   -48692 
  -48813   -48706   -48427   -48178   -48125   -48157   -48198   -48423 
  -48446   -47896   -47421   -47212   -46885   -46776   -46980   -47054 
  -46854   -46366   -45766   -45522   -45670   -45679   -45508   -45609 
  -45916   -46100   -45988   -45674   -45488   -45529   -45760   -45971 
  -45962   -45869   -45538   -44855   -44377   -44184   -43813   -43561 
  -43779   -44027   -43944   -43518   -42910   -42420   -42096   -41864 
  -41786   -41808   -41838   -41759   -41410   -41202   -41445   -41571 
  -41327   -41051   -40964   -41068   -41106   -40847   -40621   -40723 
  -40699   -40497   -40538   -40718   -40808   -40605   -40084   -39601 
  -39479   -39714   -39969   -39933   -39597   -39482   -39720   -39598 
  -39169   -38846   -38589   -38626   -38996   -39303   -39298   -39123 
  -38995   -38791   -38473   -38473   -38869   -39092   -39127   -39259 
  -39320   -39360   -39408   -39143   -38812   -38941   -39227   -39286 
  -39393   -39841   -40380   -40268   -39581   -39381   -39994   -40708 
  -40871   -40723   -40940   -41503   -41709   -41415   -41384   -41682 
  -41593   -41213   -41255   -41956   -42721   -42724   -42091   -41947 
  -42709   -43361   -43236   -42844   -42642   -42514   -42384   -42286 
  -42340   -42864   -43464   -43318   -42682   -42518   -42875   -42945 
  -42571   -42279   -42355   -42658   -42819   -42831   -43084   -43353 
  -42888   -42007   -41814   -42400   -42888   -42864   -42940   -43512 
  -44017   -44040   -44092   -44773   -45681   -46065   -46017   -46248 
  -47113   -47900   -47627   -46914   -47081   -47580   -47438   -47298 
  -47568   -47686   -47369   -46780   -46394   -46477   -46659   -46530 
  -46121   -45678   -45283   -44953   -44840   -44918   -44714   -44176 
  -44090   -44804   -45761   -46545   -47060   -47201   -47339   -47586 
  -47484   -47447   -47878   -48422   -49051   -49885   -50770   -51462 
  -51915   -52178   -52157   -51950   -51996   -52420   -52873   -53348 
  -53615   -53142   -52390   -51694   -50694   -49910   -49980   -50420 
  -50830   -51229   -51227   -50599   -49654   -48750   -48213   -48215 
  -48530   -48761   -48854   -48944   -48984   -49166   -49607   -49790 
  -49445   -48969   -48662   -48510   -48579   -48806   -48702   -48043 
  -47281   -46774   -46730   -47365   -48241   -48867   -49171   -48897 
  -48038   -47181   -46630   -46077   -45345   -44669   -44325   -44129 
  -43691   -43257   -43129   -43185   -43168   -42888   -42631   -42536 
  -42047   -40914   -39892   -39962   -40981   -41670   -41180   -40178 
  -39899   -40458   -41155   -41846   -42590   -42854   -42218   -41118 
  -40492   -40888   -41729   -42077   -42083   -42320   -42379   -41796 
  -41345   -41708   -42557   -43625   -44482   -44448   -43846   -43422 
  -43071   -42929   -43812   -45054   -45076   -44022   -43136   -43199 
  -44263   -45384   -45634   -45729   -46430   -46887   -46756   -46924 
  -47465   -47587   -46930   -45660   -44615   -44683   -45228   -45172 
  -44701   -44298   -43791   -43157   -42937   -43082   -42958   -42659 
  -42453   -42133   -41847   -41720   -41421   -41349   -42017   -42565 
  -42577   -42863   -43340   -43531   -43753   -43927   -43688   -43345 
  -43076   -42700   -42481   -42727   -42981   -42591   -41841   -41343 
  -41378   -41893   -42101   -41627   -41198   -41190   -41011   -40332 
  -39646   -38992   -38013   -36837   -35754   -35212   -35741   -36873 
  -37553   -37943   -38677   -39553   -40288   -40599   -40371   -40111 
  -39974   -39825   -39949   -40377   -40867   -41269   -41442   -41470 
  -41448   -41401   -41332   -40912   -40341   -40441   -40994   -41207 
  -41155   -41100   -41114   -41353   -41234   -40348   -39864   -40594 
  -41855   -42901   -43542   -43718   -43217   -42248   -41629   -41696 
  -41802   -41325   -40849   -41726   -43919   -45306   -44625   -43292 
  -42986   -43779   -45038   -46358   -47552   -48260   -47686   -45979 
  -44812   -44967   -45438   -45314   -44961   -44869   -44900   -45014 
  -45245   -45681   -46304   -46474   -45707   -44666   -44343   -44484 
  -44382   -44207   -44145   -44179   -44482   -44698   -44312   -43629 
  -43141   -43000   -43343   -44042   -44544   -44462   -43965   -43378 
  -42938   -43012   -43350   -43332   -43190   -43038   -42510   -42050 
  -42469   -43420   -43812   -43391   -42879   -43002   -43534   -43705 
  -43595   -43710   -43905   -43782   -43358   -43029   -42961   -42886 
  -42544   -41985   -41555   -41424   -41268   -40989   -41251   -42228 
  -42911   -42912   -42709   -42278   -41763   -41440   -41153   -41359 
  -42162   -42368   -41641   -40821   -40227   -39838   -39830   -40137 
  -40600   -41149   -41594   -42125   -42778   -42932   -42350   -41177 
  -40030   -39624   -39704   -39854   -39934   -39826   -39860   -40374 
  -41139   -41851   -42448   -42786   -42868   -43094   -43414   -43411 
  -43303   -43301   -43065   -42531   -41990   -41722   -41916   -42454 
  -42931   -43103   -43229   -43536   -43753   -43664   -43426   -43116 
  -42747   -42654   -42659   -42330   -42071   -41941   -41720   -41685 
  -41628   -41362   -41414   -41897   -42202   -42169   -42106   -42038 
  -41912   -41677   -41507   -41886   -42782   -43490   -43445   -43010 
  -42851   -42582   -41751   -41088   -41097   -41296   -41285   -41135 
  -41258   -41875   -42355   -42029   -41366   -41247   -41574   -41658 
  -41269   -40798   -40792   -41136   -41169   -40722   -40331   -40272 
  -40118   -39763   -39689   -39918   -39965   -39670   -39070   -38282 
  -37935   -38212   -38630   -39179   -39842   -40095   -39645   -38912 
  -38545   -38821   -39425   -39654   -39589   -39712   -39538   -38713 
  -38022   -38211   -38908   -39415   -39598   -39681   -39897   -39991 
  -39676   -39559   -40257   -41128   -41291   -41148   -41399   -41641 
  -41290   -40670   -40376   -40432   -40405   -40132   -40047   -40326 
  -40406   -40007   -39580   -39443   -39567   -39850   -39925   -39625 
  -39362   -39222   -39017   -39184   -39912   -40303   -40068   -40017 
  -40283   -40734   -41509   -42352   -43290   -44378   -45237   -45789 
  -46136   -46471   -46961   -47236   -47210   -47373   -47553   -47337 
  -46898   -46325   -45871   -46121   -46720   -46897   -46933   -47157 
  -47313   -47378   -47371   -47397   -47463   -47166   -46446   -45782 
  -45742   -46283   -46817   -47101   -47259   -47220   -46742   -46126 
  -45803   -45731   -45930   -46222   -46296   -46218   -45952   -45535 
  -45378   -45562   -45904   -46474   -46902   -46708   -46349   -46305 
  -46558   -46988   -47189   -46995   -46789   -46574   -46037   -45425 
  -45149   -45234   -45357   -45255   -45166   -45089   -44497   -43418 
  -42766   -43128   -43829   -43950   -43630   -43507   -43484   -43085 
  -42272   -41491   -41381   -41800   -41900   -41627   -41764   -42409 
  -42726   -42537   -42720   -43691   -44732   -45134   -45177   -45463 
  -46031   -46282   -45855   -45513   -45889   -46347   -46180   -45846 
  -46097   -46597   -46587   -46002   -45497   -45682   -46256   -46570 
  -46554   -46594   -46702   -46440   -45956   -45813   -45867   -45475 
  -44601   -44018   -44244   -44647   -44367   -43697   -43349   -43434 
  -43787   -44133   -44451   -44906   -44938   -44211   -43684   -44056 
  -44802   -45092   -44789   -44599   -44878   -45224   -45379   -45338 
  -45384   -45643   -45550   -44944   -44474   -44591   -44906   -44889 
  -44804   -45099   -45509   -45411   -44833   -44608   -44960   -44915 
  -43956   -42925   -42684   -42936   -42957   -42752   -42874   -43439 
  -43802   -43558   -43094   -43008   -43333   -43323   -43054   -43165 
  -43149   -42850   -42754   -42790   -43158   -43892   -44404   -44674 
  -44846   -44765   -44548   -44411   -44598   -45091   -45345   -45159 
  -44655   -44004   -43712   -43686   -43329   -42852   -42827   -43250 
