Origin Time       2011/03/11 14:46:00
Lat.              38.103
Long.             142.860
Depth. (km)       24
Mag.              9.0
Station Code      ISK004
Station Lat.      37.3080
Station Long.     137.1471
Station Height(m) 9
Record Time       2011/03/11 14:47:53
Sampling Freq(Hz) 100Hz
Duration Time(s)  222
Dir.              U-D
Scale Factor      3920(gal)/6182761
Max. Acc. (gal)   3.046
Last Correction   2011/03/11 14:47:38
Memo.             
[...]
    -768     -811     -811     -799     -875     -975    -1035    -1099 
   -1138    -1127    -1106    -1061     -988     -935     -928     -946 
    -955     -953     -963     -966     -938     -919     -924     -938 
    -955     -962     -991    -1108    -1272    -1381    -1452    -1582 
   -1741    -1781    -1722    -1705    -1686    -1574    -1470    -1447 
   -1421    -1378    -1397    -1473    -1577    -1714    -1812    -1831 
   -1839    -1842    -1801    -1722    -1630    -1550    -1499    -1447 
   -1358    -1292    -1292    -1298    -1329    -1399    -1409    -1397 
   -1382    -1274    -1142    -1068     -985     -835     -633     -438 
    -249      -40      147      321      492      578      596      629 
     610      513      460      414      266      104      -17     -169 
    -372     -621     -887    -1116    -1324    -1542    -1735    -1860 
   -1939    -1990    -2003    -1974    -1896    -1828    -1811    -1739 
   -1605    -1504    -1414    -1367    -1410    -1423    -1386    -1378 
   -1371    -1330    -1245    -1105     -970     -873     -805     -817 
    -884     -933    -1028    -1217    -1407    -1546    -1706    -1945 
   -2195    -2412    -2636    -2815    -2859    -2807    -2745    -2672 
   -2575    -2462    -2324    -2154    -1994    -1888    -1774    -1611 
   -1524    -1532    -1533    -1536    -1538    -1503    -1463    -1374 
   -1175     -968     -826     -670     -489     -345     -204      -52 
      46       71       65       45       12        0       20       28 
       5      -46     -113     -160     -188     -233     -323     -466 
    -627     -781     -918    -1007    -1099    -1248    -1346    -1374 
   -1438    -1445    -1326    -1200    -1083     -952     -835     -708 
    -601     -560     -526     -502     -563     -615     -579     -586 
    -631     -592     -547     -564     -618     -715     -829     -933 
    -991     -955     -902     -929    -1018    -1124    -1230    -1351 
   -1487    -1602    -1668    -1700    -1694    -1616    -1505    -1413 
   -1311    -1177    -1045     -939     -865     -817     -804     -867 
    -977    -1055    -1088    -1105    -1141    -1180    -1160    -1143 
   -1154    -1075     -965     -970    -1018    -1046    -1098    -1143 
   -1170    -1204    -1219    -1235    -1277    -1307    -1335    -1378 
   -1433    -1542    -1676    -1757    -1828    -1921    -1981    -2011 
   -2051    -2083    -2075    -2066    -2068    -2004    -1892    -1807 
   -1699    -1527    -1395    -1322    -1191    -1056    -1015     -974 
    -897     -822     -757     -724     -670     -573     -494     -394 
    -280     -242     -233     -195     -165     -109        2       78 
      97       95       27      -65      -89      -71      -15      108 
     207      210      225      334      450      525      607      658 
     621      556      541      572      599      594      541      444 
     381      372      349      339      381      393      360      330 
     311      333      397      433      445      496      544      477 
     305      160       69      -43     -149     -226     -356     -549 
    -707     -778     -741     -622     -514     -452     -442     -497 
    -545     -516     -449     -369     -202       34      198      261 
     292      332      463      679      897     1113     1289     1361 
    1394     1472     1581     1662     1650     1576     1546     1488 
    1346     1242     1172     1125     1159     1145      998      787 
     546      323      175      121      120      100       62        8 
     -66     -111     -145     -155      -70       52      150      228 
     294      386      509      620      687      713      779      929 
    1063     1124     1197     1307     1432     1612     1824     1993 
    2067     1981     1789     1626     1533     1489     1443     1376 
    1332     1280     1205     1162     1120     1082     1107     1148 
    1225     1342     1395     1400     1384     1287     1182     1104 
     943      786      772      790      745      712      733      753 
     749      805      898      909      890      920      973     1073 
    1204     1275     1273     1216     1151     1147     1181     1237 
    1329     1416     1454     1406     1337     1336     1329     1285 
    1246     1225     1232     1208     1134     1054      898      687 
     555      495      483      585      754      839      846      846 
     804      705      608      593      693      814      930     1097 
    1242     1342     1455     1549     1591     1580     1533     1545 
    1642     1733     1825     1932     1975     1947     1890     1799 
    1677     1551     1482     1507     1584     1652     1712     1774 
    1774     1702     1665     1710     1793     1857     1867     1838 
    1797     1786     1888     2082     2248     2405     2584     2711 
    2797     2847     2847     2870     2879     2812     2748     2698 
    2626     2589     2581     2574     2615     2677     2651     2524 
    2412     2346     2237     2099     1993     1898     1779     1644 
    1591     1642     1661     1636     1657     1713     1760     1774 
    1779     1810     1863     1942     2042     2138     2190     2187 
    2189     2183     2117     2060     2047     1994     1909     1822 
    1663     1436     1225     1074      978      939      997     1123 
    1215     1271     1365     1504     1612     1599     1555     1593 
    1580     1492     1506     1583     1632     1684     1701     1681 
    1677     1686     1684     1617     1471     1307     1147      996 
     896      873      902      913      889      874      832      728 
     655      662      686      691      705      761      835      888 
     912      880      827      845      913      965     1014     1075 
    1136     1226     1364     1510     1650     1769     1823     1811 
    1763     1723     1735     1762     1761     1738     1702     1633 
    1573     1618     1726     1830     1988     2150     2218     2242 
    2265     2240     2173     2123     2080     2038     2043     2061 
    2042     1999     1939     1853     1742     1650     1606     1566 
    1521     1507     1513     1518     1539     1597     1664     1685 
    1672     1672     1694     1745     1818     1885     1948     1989 
    1961     1879     1811     1762     1627     1424     1317     1293 
    1232     1170     1181     1262     1334     1327     1308     1377 
    1471     1526     1601     1688     1744     1757     1688     1565 
    1464     1378     1320     1340     1421     1521     1630     1737 
    1838     1950     2083     2256     2433     2567     2696     2828 
    2924     3043     3215     3345     3406     3480     3556     3547 
    3482     3433     3383     3300     3165     3005     2896     2805 
    2679     2604     2614     2675     2795     2921     3014     3091 
    3106     3059     2988     2903     2843     2801     2773     2782 
    2793     2802     2810     2789     2795     2824     2802     2802 
    2871     2919     2947     2998     3036     3049     3012     2889 
    2737     2616     2516     2463     2504     2593     2644     2657 
    2680     2699     2643     2562     2530     2517     2458     2310 
    2149     2044     1919     1758     1605     1418     1201     1020 
     900      864      855      797      734      693      668      673 
     704      774      861      918      945      915      834      781 
     747      675      651      688      688      696      764      878 
    1022     1156     1269     1364     1445     1492     1482     1467 
    1482     1502     1485     1431     1391     1365     1352     1336 
    1287     1242     1207     1162     1097     1032     1020     1006 
     939      864      840      915     1013     1071     1161     1248 
    1271     1288     1333     1371     1391     1415     1428     1431 
    1440     1396     1344     1340     1260     1158     1142     1080 
     996     1006     1039     1085     1142     1129     1093     1058 
     966      878      820      710      574      475      361      215 
     110       38      -32      -73     -122     -182     -228     -320 
    -427     -524     -653     -748     -799     -876     -911     -882 
    -868     -843     -779     -722     -668     -612     -547     -413 
    -250     -134      -18       93      143      190      286      399 
     492      561      623      648      630      645      662      641 
     621      550      418      333      254      148       83        5 
     -95     -119     -127     -170     -177     -196     -287     -353 
    -367     -437     -539     -572     -595     -650     -668     -666 
    -669     -643     -603     -562     -468     -313     -177      -79 
      33      122      157      196      256      311      340      310 
     229      142       60      -50     -179     -277     -349     -423 
    -490     -548     -556     -507     -486     -488     -446     -383 
    -350     -346     -318     -237     -190     -195     -145      -56 
       8       91      195      287      374      438      472      492 
     517      575      640      688      764      843      876      906 
     965     1029     1087     1149     1202     1194     1124     1034 
     928      824      769      740      698      656      617      600 
     619      625      635      677      683      642      604      557 
     459      333      242      173       89       45       48       30 
      17       29      -18      -72      -35        9       15       50 
     123      186      225      263      277      255      253      253 
     216      186      151      103      115      160      194      277 
     378      394      369      377      344      282      279      264 
     200      168      113      -11      -94     -123     -193     -271 
    -288     -317     -382     -408     -425     -473     -494     -473 
    -433     -389     -371     -361     -330     -296     -280     -303 
    -349     -371     -393     -427     -434     -437     -444     -378 
    -270     -233     -203     -105      -58      -87      -77      -71 
    -150     -250     -369     -499     -562     -627     -726     -754 
    -758     -820     -887     -956    -1057    -1165    -1273    -1400 
   -1538    -1667    -1768    -1834    -1856    -1808    -1718    -1633 
   -1542    -1473    -1467    -1472    -1443    -1418    -1428    -1419 
   -1370    -1352    -1369    -1366    -1342    -1280    -1158    -1030 
    -907     -723     -507     -351     -241     -125      -41       -9 
      -9      -60     -127     -176     -262     -386     -484     -569 
    -672     -762     -817     -859     -910     -958     -996    -1060 
   -1165    -1286    -1425    -1559    -1644    -1714    -1769    -1788 
   -1832    -1888    -1877    -1872    -1935    -1970    -1971    -2020 
   -2072    -2070    -2058    -2057    -2043    -2037    -2066    -2088 
   -2080    -2090    -2133    -2167    -2191    -2232    -2278    -2333 
   -2415    -2488    -2556    -2605    -2577    -2539    -2548    -2510 
   -2445    -2456    -2473    -2428    -2402    -2398    -2344    -2252 
   -2153    -2065    -1998    -1947    -1938    -1966    -1997    -2012 
   -2009    -2035    -2098    -2138    -2187    -2292    -2395    -2468 
   -2548    -2597    -2584    -2593    -2653    -2694    -2710    -2747 
   -2787    -2807    -2828    -2856    -2893    -2941    -2974    -2972 
   -2942    -2915    -2912    -2881    -2814    -2775    -2744    -2687 
   -2651    -2643    -2635    -2651    -2676    -2694    -2733    -2747 
   -2721    -2719    -2728    -2700    -2672    -2682    -2685    -2668 
   -2685    -2699    -2660    -2599    -2547    -2507    -2467    -2428 
   -2392    -2354    -2361    -2387    -2364    -2376    -2424    -2419 
   -2422    -2463    -2488    -2532    -2599    -2641    -2682    -2731 
   -2732    -2710    -2702    -2652    -2572    -2511    -2418    -2283 
   -2167    -2093    -2043    -2023    -2043    -2084    -2135    -2175 
   -2208    -2237    -2259    -2322    -2363    -2319    -2299    -2298 
   -2232    -2168    -2146    -2115    -2091    -2101    -2097    -2076 
   -2060    -2016    -1948    -1910    -1897    -1865    -1825    -1820 
   -1811    -1767    -1734    -1706    -1665    -1655    -1666    -1680 
   -1732    -1794    -1839    -1919    -2024    -2093    -2155    -2229 
   -2272    -2291    -2323    -2366    -2397    -2414    -2426    -2425 
   -2388    -2333    -2293    -2229    -2122    -2025    -1918    -1777 
   -1649    -1516    -1376    -1291    -1221    -1125    -1067    -1041 
   -1015    -1025    -1027    -1002    -1026    -1048     -993     -931 
    -907     -872     -791     -718     -707     -700     -674     -678 
    -700     -726     -786     -865     -930     -994    -1056    -1110 
   -1194    -1292    -1338    -1321    -1317    -1368    -1414    -1441 
   -1489    -1523    -1530    -1530    -1514    -1489    -1469    -1451 
   -1433    -1439    -1463    -1473    -1504    -1582    -1648    -1696 
   -1786    -1908    -2021    -2161    -2337    -2481    -2604    -2733 
   -2809    -2811    -2819    -2873    -2923    -2946    -2968    -3019 
   -3088    -3132    -3163    -3243    -3363    -3454    -3501    -3576 
   -3680    -3735    -3780    -3884    -3979    -4028    -4103    -4206 
   -4294    -4409    -4543    -4630    -4684    -4731    -4768    -4833 
   -4898    -4899    -4896    -4950    -4996    -5012    -5062    -5132 
   -5182    -5229    -5265    -5269    -5262    -5246    -5215    -5183 
   -5159    -5126    -5059    -4993    -4951    -4880    -4788    -4731 
   -4687    -4604    -4514    -4449    -4358    -4224    -4076    -3918 
   -3773    -3683    -3623    -3552    -3514    -3540    -3571    -3590 
   -3594    -3546    -3483    -3451    -3403    -3315    -3255    -3236 
   -3195    -3160    -3166    -3156    -3137    -3147    -3161    -3174 
   -3192    -3178    -3123    -3054    -2959    -2844    -2740    -2610 
   -2453    -2322    -2215    -2111    -1998    -1881    -1795    -1761 
   -1777    -1834    -1901    -1959    -2014    -2046    -2061    -2098 
   -2129    -2140    -2191    -2262    -2282    -2258    -2197    -2082 
   -1964    -1909    -1884    -1864    -1906    -1996    -2063    -2115 
   -2180    -2208    -2173    -2105    -2021    -1949    -1903    -1853 
   -1832    -1879    -1953    -2010    -2085    -2205    -2310    -2404 
   -2542    -2640    -2657    -2687    -2706    -2675    -2683    -2727 
   -2759    -2793    -2776    -2721    -2727    -2767    -2851    -3039 
   -3219    -3342    -3461    -3521    -3493    -3437    -3402    -3440 
   -3540    -3626    -3689    -3748    -3765    -3720    -3641    -3565 
   -3538    -3568    -3633    -3705    -3717    -3655    -3526    -3344 
   -3208    -3103    -2965    -2898    -2935    -2975    -2978    -2935 
   -2873    -2854    -2878    -2944    -3049    -3139    -3191    -3232 
   -3285    -3298    -3211    -3061    -2868    -2619    -2395    -2256 
   -2173    -2123    -2071    -1994    -1959    -1980    -1978    -1945 
   -1979    -2130    -2263    -2245    -2250    -2403    -2481    -2422 
   -2436    -2569    -2727    -2848    -2912    -2922    -2840    -2717 
   -2644    -2568    -2514    -2546    -2519    -2397    -2303    -2186 
   -2006    -1899    -1912    -2005    -2118    -2114    -2007    -1934 
   -1891    -1873    -1948    -2073    -2140    -2145    -2153    -2168 
   -2159    -2152    -2172    -2217    -2273    -2304    -2306    -2335 
   -2372    -2349    -2291    -2196    -2014    -1828    -1720    -1633 
   -1543    -1510    -1528    -1537    -1539    -1563    -1593    -1601 
   -1588    -1619    -1748    -1903    -2014    -2074    -2043    -1939 
   -1853    -1790    -1751    -1795    -1876    -1902    -1868    -1757 
   -1553    -1327    -1174    -1118    -1097    -1116    -1210    -1253 
   -1172    -1095    -1125    -1199    -1247    -1295    -1349    -1385 
   -1413    -1430    -1405    -1360    -1352    -1376    -1412    -1498 
   -1581    -1578    -1530    -1499    -1465    -1422    -1419    -1429 
   -1411    -1392    -1363    -1328    -1350    -1425    -1502    -1568 
   -1622    -1650    -1682    -1720    -1665    -1546    -1492    -1472 
   -1448    -1485    -1547    -1561    -1551    -1510    -1404    -1270 
   -1158    -1145    -1293    -1475    -1527    -1499    -1469    -1377 
   -1211    -1099    -1093    -1098    -1098    -1171    -1326    -1525 
   -1723    -1833    -1843    -1845    -1837    -1780    -1744    -1757 
   -1767    -1778    -1816    -1828    -1770    -1722    -1717    -1675 
   -1651    -1730    -1841    -1929    -2040    -2157    -2231    -2299 
   -2378    -2435    -2535    -2676    -2710    -2625    -2537    -2478 
   -2427    -2383    -2326    -2250    -2174    -2101    -2049    -2051 
   -2061    -2027    -2012    -2062    -2063    -1964    -1859    -1715 
   -1497    -1338    -1268    -1235    -1223    -1148     -980     -825 
    -726     -661     -659     -713     -752     -708     -577     -470 
    -402     -281     -173     -155     -160     -182     -207     -162 
    -119     -134      -75       58      108      102      101       29 
     -88     -148     -164     -157     -127     -155     -242     -285 
    -314     -367     -358     -302     -292     -301     -261     -183 
    -106      -74     -131     -238     -305     -314     -299     -247 
    -121        5       73      125      164      198      267      331 
     332      327      366      374      341      326      312      301 
     300      294      332      437      508      467      418      418 
     387      372      431      470      440      396      393      434 
     459      441      422      395      343      306      272      216 
     132       -1      -79      -34       29       88      156      180 
     174      154      133      158      204      277      433      561 
     587      637      704      674      597      570      591      592 
     585      657      744      732      712      764      791      754 
     735      766      792      808      837      857      869      883 
     872      847      819      775      760      757      707      691 
     752      780      719      654      634      600      508      430 
     407      392      369      336      288      265      282      327 
     400      468      506      544      578      566      545      550 
     527      507      584      698      761      823      926     1008 
    1064     1150     1216     1214     1159     1045      913      809 
     684      529      434      413      420      491      632      752 
     840      987     1171     1285     1346     1402     1421     1418 
    1415     1368     1290     1244     1235     1249     1294     1355 
    1383     1381     1388     1378     1333     1311     1318     1290 
    1232     1203     1192     1194     1254     1331     1371     1414 
    1448     1412     1360     1355     1353     1357     1419     1486 
    1519     1581     1653     1679     1714     1749     1725     1726 
    1825     1951     2074     2226     2366     2464     2544     2570 
    2511     2400     2277     2207     2190     2163     2154     2180 
    2168     2104     2055     2084     2174     2233     2247     2271 
    2259     2201     2193     2193     2121     2050     2000     1934 
