Origin Time       2011/03/11 14:46:00
Lat.              38.103
Long.             142.860
Depth. (km)       24
Mag.              9.0
Station Code      ISK005
Station Lat.      37.2309
Station Long.     136.9041
Station Height(m) 3
Record Time       2011/03/11 14:48:03
Sampling Freq(Hz) 100Hz
Duration Time(s)  223
Dir.              E-W
Scale Factor      3920(gal)/6182761
Max. Acc. (gal)   8.822
Last Correction   2011/03/11 14:47:48
Memo.             
[...]
  -17755   -17340   -16888   -16411   -15964   -15592   -15290   -15048 
  -14871   -14779   -14778   -14840   -14918   -15000   -15099   -15219 
  -15334   -15424   -15505   -15568   -15600   -15618   -15628   -15643 
  -15670   -15697   -15745   -15832   -15940   -16070   -16218   -16375 
  -16556   -16756   -16943   -17104   -17240   -17367   -17504   -17627 
  -17731   -17840   -17976   -18146   -18349   -18575   -18820   -19057 
  -19254   -19414   -19543   -19624   -19649   -19608   -19477   -19268 
  -19012   -18712   -18391   -18089   -17822   -17603   -17447   -17341 
  -17275   -17260   -17268   -17252   -17231   -17226   -17202   -17143 
  -17098   -17088   -17099   -17152   -17251   -17370   -17505   -17613 
  -17642   -17607   -17518   -17358   -17125   -16810   -16425   -16002 
  -15568   -15145   -14755   -14413   -14134   -13930   -13806   -13760 
  -13762   -13768   -13757   -13719   -13643   -13554   -13476   -13389 
  -13301   -13255   -13261   -13320   -13450   -13633   -13853   -14136 
  -14480   -14822   -15130   -15409   -15661   -15914   -16202   -16518 
  -16848   -17187   -17527   -17872   -18240   -18638   -19057   -19504 
  -19976   -20434   -20861   -21243   -21533   -21711   -21763   -21677 
  -21473   -21184   -20821   -20367   -19814   -19162   -18420   -17600 
  -16697   -15708   -14658   -13579   -12498   -11450   -10479    -9601 
   -8826    -8188    -7696    -7315    -7024    -6816    -6668    -6589 
   -6607    -6692    -6848    -7114    -7438    -7819    -8270    -8690 
   -9080    -9471    -9803   -10138   -10534   -10971   -11500   -12123 
  -12816   -13594   -14405   -15221   -16070   -16936   -17819   -18753 
  -19753   -20805   -21871   -22929   -23941   -24855   -25678   -26401 
  -26982   -27419   -27705   -27852   -27906   -27856   -27693   -27420 
  -27016   -26502   -25902   -25234   -24529   -23774   -22966   -22134 
  -21290   -20449   -19637   -18847   -18064   -17306   -16596   -15959 
  -15405   -14929   -14524   -14170   -13854   -13562   -13241   -12856 
  -12416   -11922   -11383   -10811   -10231    -9678    -9138    -8646 
   -8250    -7920    -7672    -7527    -7442    -7437    -7517    -7665 
   -7920    -8311    -8850    -9518   -10278   -11113   -11989   -12865 
  -13712   -14518   -15309   -16079   -16783   -17395   -17889   -18243 
  -18460   -18560   -18563   -18496   -18403   -18326   -18284   -18282 
  -18321   -18405   -18519   -18659   -18833   -19029   -19228   -19402 
  -19527   -19605   -19615   -19542   -19410   -19230   -18997   -18734 
  -18467   -18217   -18006   -17833   -17685   -17538   -17387   -17253 
  -17147   -17075   -17055   -17067   -17090   -17138   -17253   -17458 
  -17735   -18047   -18359   -18625   -18815   -18907   -18887   -18764 
  -18543   -18220   -17791   -17253   -16624   -15906   -15105   -14274 
  -13458   -12688   -11992   -11377   -10852   -10399    -9993    -9636 
   -9315    -9036    -8821    -8665    -8590    -8606    -8717    -8942 
   -9244    -9625   -10132   -10723   -11373   -12080   -12784   -13475 
  -14161   -14815   -15463   -16121   -16770   -17420   -18060   -18682 
  -19303   -19911   -20496   -21064   -21616   -22155   -22663   -23112 
  -23486   -23762   -23922   -23972   -23919   -23778   -23554   -23242 
  -22860   -22413   -21879   -21284   -20663   -20014   -19351   -18680 
  -17978   -17241   -16471   -15698   -14963   -14264   -13609   -13045 
  -12584   -12241   -12020   -11894   -11840   -11854   -11938   -12081 
  -12267   -12480   -12713   -12955   -13188   -13413   -13629   -13831 
  -14010   -14128   -14160   -14118   -14007   -13850   -13680   -13535 
  -13466   -13477   -13528   -13614   -13741   -13916   -14179   -14527 
  -14930   -15380   -15839   -16290   -16759   -17229   -17673   -18083 
  -18421   -18670   -18816   -18844   -18793   -18690   -18553   -18410 
  -18266   -18144   -18067   -18020   -17990   -17972   -17950   -17920 
  -17898   -17915   -17993   -18125   -18306   -18533   -18782   -19012 
  -19184   -19297   -19365   -19380   -19335   -19243   -19072   -18803 
  -18468   -18081   -17659   -17229   -16778   -16300   -15802   -15312 
  -14910   -14652   -14521   -14497   -14563   -14682   -14826   -15000 
  -15209   -15435   -15649   -15835   -15980   -16090   -16174   -16225 
  -16230   -16184   -16093   -15957   -15766   -15545   -15330   -15121 
  -14928   -14754   -14592   -14457   -14337   -14224   -14132   -14040 
  -13944   -13859   -13785   -13749   -13771   -13828   -13907   -14006 
  -14121   -14241   -14356   -14471   -14595   -14715   -14830   -14942 
  -15030   -15096   -15152   -15161   -15097   -14981   -14827   -14633 
  -14416   -14205   -14027   -13892   -13796   -13758   -13785   -13871 
  -14036   -14273   -14541   -14832   -15152   -15497   -15874   -16267 
  -16650   -16997   -17270   -17452   -17552   -17574   -17513   -17372 
  -17176   -16966   -16756   -16556   -16396   -16298   -16281   -16365 
  -16541   -16785   -17073   -17409   -17805   -18256   -18749   -19250 
  -19741   -20221   -20647   -21009   -21331   -21581   -21731   -21805 
  -21793   -21696   -21550   -21335   -21022   -20620   -20147   -19668 
  -19226   -18787   -18326   -17861   -17462   -17203   -17098   -17121 
  -17210   -17319   -17436   -17537   -17630   -17710   -17731   -17692 
  -17623   -17515   -17339   -17067   -16702   -16301   -15924   -15604 
  -15339   -15103   -14885   -14679   -14518   -14452   -14488   -14610 
  -14791   -15018   -15327   -15731   -16207   -16754   -17340   -17931 
  -18537   -19155   -19780   -20382   -20899   -21316   -21643   -21881 
  -22037   -22082   -22014   -21888   -21719   -21513   -21324   -21173 
  -21035   -20900   -20779   -20685   -20629   -20607   -20610   -20637 
  -20677   -20706   -20707   -20672   -20597   -20481   -20328   -20134 
  -19876   -19532   -19110   -18618   -18052   -17429   -16788   -16139 
  -15468   -14782   -14110   -13466   -12832   -12185   -11553   -10958 
  -10409    -9942    -9569    -9299    -9168    -9158    -9234    -9377 
   -9570    -9823   -10145   -10532   -10980   -11492   -12070   -12690 
  -13333   -13993   -14616   -15181   -15700   -16140   -16531   -16918 
  -17299   -17704   -18149   -18596   -19053   -19553   -20098   -20680 
  -21278   -21883   -22504   -23145   -23833   -24536   -25187   -25793 
  -26358   -26846   -27239   -27529   -27715   -27801   -27780   -27637 
  -27350   -26951   -26477   -25911   -25248   -24496   -23668   -22811 
  -21949   -21083   -20238   -19438   -18701   -18053   -17480   -16948 
  -16465   -16034   -15639   -15289   -14979   -14681   -14372   -14057 
  -13740   -13408   -13068   -12732   -12420   -12138   -11858   -11618 
  -11462   -11349   -11272   -11266   -11303   -11365   -11478   -11656 
  -11920   -12279   -12716   -13195   -13676   -14161   -14660   -15159 
  -15651   -16111   -16512   -16848   -17118   -17358   -17589   -17768 
  -17884   -17984   -18086   -18188   -18323   -18496   -18686   -18878 
  -19074   -19300   -19567   -19861   -20176   -20507   -20859   -21256 
  -21674   -22069   -22466   -22871   -23246   -23584   -23855   -24024 
  -24132   -24204   -24179   -24026   -23802   -23573   -23329   -23019 
  -22646   -22250   -21822   -21363   -20906   -20440   -19968   -19529 
  -19120   -18731   -18353   -17996   -17705   -17470   -17237   -17001 
  -16785   -16593   -16429   -16300   -16184   -16054   -15897   -15706 
  -15480   -15209   -14860   -14438   -13996   -13562   -13131   -12723 
  -12362   -12036   -11742   -11507   -11329   -11218   -11222   -11344 
  -11534   -11784   -12122   -12564   -13068   -13586   -14147   -14778 
  -15401   -15964   -16497   -17022   -17510   -17927   -18278   -18614 
  -18938   -19205   -19419   -19618   -19805   -19979   -20147   -20335 
  -20622   -20988   -21351   -21760   -22282   -22836   -23322   -23780 
  -24275   -24767   -25212   -25606   -25916   -26134   -26309   -26391 
  -26295   -26060   -25760   -25406   -24964   -24400   -23800   -23292 
  -22818   -22272   -21704   -21192   -20737   -20283   -19793   -19313 
  -18876   -18461   -18065   -17688   -17358   -17123   -16936   -16721 
  -16506   -16317   -16119   -15889   -15623   -15380   -15259   -15239 
  -15161   -14984   -14887   -14978   -15127   -15232   -15369   -15556 
  -15714   -15882   -16114   -16362   -16625   -16905   -17166   -17463 
  -17856   -18259   -18621   -19028   -19504   -19979   -20430   -20873 
  -21323   -21779   -22240   -22693   -23081   -23380   -23603   -23729 
  -23766   -23724   -23557   -23304   -23033   -22697   -22314   -21929 
  -21442   -20850   -20240   -19532   -18730   -17948   -17202   -16531 
  -15963   -15439   -14929   -14489   -14184   -13915   -13591   -13271 
  -12935   -12556   -12192   -11831   -11456   -11112   -10833   -10635 
  -10515   -10466   -10519   -10674   -10850   -11033   -11323   -11754 
  -12243   -12736   -13285   -13936   -14648   -15367   -16071   -16764 
  -17477   -18197   -18876   -19543   -20208   -20816   -21396   -21980 
  -22487   -22879   -23218   -23480   -23604   -23651   -23666   -23597 
  -23476   -23386   -23284   -23125   -22922   -22664   -22346   -21961 
  -21507   -21047   -20629   -20243   -19849   -19423   -18980   -18546 
  -18108   -17632   -17174   -16796   -16455   -16121   -15824   -15579 
  -15375   -15233   -15157   -15059   -14952   -14930   -14924   -14918 
  -15021   -15200   -15403   -15645   -15896   -16153   -16434   -16708 
  -16966   -17218   -17418   -17569   -17739   -17866   -17892   -17933 
  -18003   -17986   -17937   -17937   -17921   -17892   -17909   -17929 
  -17961   -18036   -18126   -18237   -18354   -18465   -18622   -18802 
  -18976   -19193   -19412   -19591   -19801   -19976   -20040   -20105 
  -20185   -20226   -20251   -20227   -20170   -20097   -19916   -19627 
  -19296   -18913   -18517   -18164   -17822   -17486   -17168   -16870 
  -16665   -16582   -16549   -16555   -16647   -16746   -16800   -16853 
  -16784   -16584   -16414   -16176   -15838   -15526   -15173   -14752 
  -14360   -14010   -13677   -13396   -13182   -12964   -12795   -12746 
  -12739   -12795   -12999   -13298   -13631   -14014   -14426   -14854 
  -15337   -15799   -16204   -16643   -17057   -17406   -17745   -17994 
  -18145   -18274   -18383   -18466   -18530   -18618   -18720   -18826 
  -18974   -19087   -19184   -19324   -19405   -19466   -19548   -19590 
  -19632   -19639   -19625   -19660   -19693   -19739   -19786   -19791 
  -19758   -19658   -19528   -19395   -19217   -18988   -18727   -18456 
  -18158   -17833   -17537   -17225   -16897   -16617   -16340   -16057 
  -15790   -15548   -15374   -15219   -15060   -14922   -14773   -14669 
  -14625   -14581   -14619   -14763   -14949   -15193   -15486   -15810 
  -16128   -16360   -16512   -16621   -16647   -16600   -16586   -16601 
  -16582   -16595   -16644   -16702   -16831   -17010   -17199   -17433 
  -17719   -18039   -18391   -18773   -19134   -19439   -19685   -19815 
  -19833   -19786   -19651   -19487   -19346   -19233   -19199   -19203 
  -19239   -19352   -19438   -19461   -19447   -19372   -19273   -19152 
  -18951   -18689   -18401   -18052   -17634   -17194   -16722   -16189 
  -15670   -15192   -14708   -14254   -13823   -13383   -12984   -12610 
  -12243   -11925   -11673   -11507   -11392   -11318   -11369   -11511 
  -11694   -11961   -12260   -12522   -12755   -12958   -13114   -13189 
  -13200   -13206   -13193   -13164   -13157   -13212   -13346   -13583 
  -13944   -14377   -14873   -15466   -16134   -16857   -17593   -18323 
  -19045   -19699   -20305   -20866   -21319   -21709   -22041   -22266 
  -22427   -22505   -22493   -22422   -22251   -22007   -21725   -21359 
  -20942   -20511   -20057   -19602   -19141   -18674   -18231   -17818 
  -17445   -17094   -16779   -16538   -16320   -16118   -15948   -15760 
  -15578   -15420   -15273   -15150   -15018   -14912   -14869   -14836 
  -14832   -14854   -14863   -14884   -14897   -14933   -15025   -15128 
  -15292   -15492   -15690   -15982   -16331   -16726   -17234   -17768 
  -18332   -18929   -19471   -19975   -20400   -20732   -21029   -21221 
  -21326   -21364   -21280   -21126   -20855   -20461   -20029   -19472 
  -18819   -18136   -17373   -16616   -15861   -15098   -14447   -13881 
  -13461   -13234   -13082   -13077   -13181   -13301   -13541   -13807 
  -14065   -14379   -14621   -14856   -15119   -15278   -15417   -15537 
  -15621   -15768   -15881   -15987   -16156   -16243   -16305   -16357 
  -16314   -16283   -16215   -16104   -16092   -16079   -16114   -16258 
  -16362   -16524   -16727   -16859   -17081   -17317   -17528   -17845 
  -18121   -18375   -18658   -18811   -18954   -19067   -19005   -18923 
  -18763   -18492   -18270   -17958   -17596   -17300   -16893   -16504 
  -16192   -15772   -15421   -15110   -14679   -14338   -14027   -13657 
  -13395   -13111   -12799   -12577   -12286   -12002   -11792   -11520 
  -11308   -11125   -10848   -10626   -10395   -10104    -9906    -9684 
   -9443    -9325    -9235    -9233    -9386    -9577    -9907   -10388 
  -10925   -11646   -12524   -13483   -14591   -15736   -16900   -18155 
  -19324   -20383   -21390   -22195   -22823   -23318   -23574   -23652 
  -23570   -23286   -22925   -22471   -21915   -21414   -20910   -20395 
  -20008   -19637   -19274   -19011   -18704   -18376   -18101   -17723 
  -17293   -16852   -16279   -15666   -15011   -14235   -13469   -12661 
  -11741   -10824    -9825    -8754    -7746    -6720    -5752    -4951 
   -4204    -3616    -3241    -2938    -2848    -3014    -3319    -3913 
   -4780    -5786    -7025    -8408    -9797   -11284   -12787   -14194 
  -15595   -16964   -18233   -19456   -20566   -21464   -22159   -22645 
  -22964   -23238   -23459   -23609   -23749   -23858   -23942   -24063 
  -24166   -24240   -24338   -24375   -24318   -24248   -24123   -23912 
  -23658   -23288   -22809   -22289   -21627   -20848   -20039   -19093 
  -18044   -16982   -15848   -14722   -13652   -12565   -11558   -10649 
   -9789    -9055    -8431    -7940    -7664    -7555    -7627    -7880 
   -8245    -8743    -9349   -10041   -10851   -11723   -12661   -13650 
  -14591   -15528   -16464   -17299   -18102   -18878   -19518   -20066 
  -20518   -20814   -20979   -21009   -20931   -20772   -20536   -20324 
  -20150   -19979   -19888   -19890   -19948   -20018   -20021   -19970 
  -19864   -19652   -19366   -18999   -18513   -17926   -17193   -16316 
  -15364   -14335   -13259   -12204   -11187   -10237    -9375    -8589 
   -7900    -7354    -6946    -6672    -6555    -6587    -6776    -7107 
   -7539    -8117    -8822    -9603   -10492   -11435   -12371   -13329 
  -14262   -15118   -15924   -16664   -17302   -17850   -18342   -18811 
  -19257   -19660   -20033   -20373   -20639   -20843   -21024   -21193 
  -21358   -21537   -21751   -21999   -22261   -22538   -22800   -23029 
  -23234   -23388   -23471   -23483   -23389   -23179   -22869   -22445 
  -21905   -21252   -20493   -19651   -18760   -17881   -17053   -16257 
  -15529   -14903   -14319   -13777   -13306   -12875   -12505   -12199 
  -11956   -11825   -11789   -11851   -12074   -12413   -12821   -13309 
  -13821   -14317   -14815   -15304   -15725   -16058   -16389   -16703 
  -16963   -17229   -17477   -17676   -17832   -17939   -18028   -18102 
  -18184   -18312   -18422   -18490   -18537   -18526   -18473   -18384 
  -18260   -18133   -17961   -17775   -17603   -17377   -17126   -16824 
  -16414   -15964   -15454   -14891   -14320   -13710   -13151   -12677 
  -12255   -11961   -11771   -11662   -11667   -11746   -11935   -12203 
  -12464   -12748   -12996   -13166   -13347   -13498   -13591   -13696 
  -13756   -13781   -13853   -13932   -14021   -14148   -14275   -14426 
  -14626   -14854   -15100   -15341   -15545   -15704   -15834   -15971 
  -16103   -16173   -16188   -16160   -16064   -15909   -15714   -15477 
  -15199   -14892   -14573   -14234   -13904   -13576   -13214   -12883 
  -12588   -12300   -12109   -12024   -11999   -12076   -12265   -12548 
  -12914   -13337   -13775   -14194   -14585   -14950   -15310   -15626 
  -15848   -16011   -16098   -16129   -16165   -16138   -16060   -15980 
  -15872   -15837   -15884   -15927   -16008   -16103   -16191   -16335 
  -16447   -16530   -16646   -16696   -16744   -16834   -16878   -16944 
  -17012   -17028   -17063   -17050   -16962   -16814   -16516   -16123 
  -15654   -15040   -14361   -13631   -12864   -12137   -11409   -10731 
  -10132    -9567    -9113    -8727    -8379    -8124    -7866    -7644 
   -7488    -7311    -7222    -7216    -7244    -7404    -7609    -7875 
   -8278    -8688    -9140    -9652   -10124   -10663   -11225   -11739 
  -12356   -12987   -13571   -14237   -14887   -15527   -16272   -17040 
  -17853   -18740   -19616   -20528   -21451   -22270   -23024   -23682 
  -24190   -24637   -24993   -25211   -25369   -25434   -25417   -25367 
  -25193   -24924   -24598   -24137   -23610   -23060   -22421   -21740 
  -21036   -20318   -19653   -19006   -18379   -17820   -17261   -16716 
  -16260   -15839   -15440   -15097   -14746   -14386   -14037   -13632 
  -13173   -12697   -12187   -11673   -11190   -10746   -10381   -10109 
   -9905    -9783    -9768    -9827    -9957   -10165   -10409   -10703 
  -11064   -11454   -11887   -12352   -12811   -13295   -13789   -14250 
  -14711   -15155   -15525   -15863   -16165   -16390   -16584   -16719 
  -16752   -16755   -16740   -16721   -16766   -16847   -16976   -17161 
  -17348   -17574   -17845   -18110   -18354   -18536   -18676   -18767 
  -18745   -18687   -18588   -18413   -18281   -18175   -18057   -17994 
  -17971   -17988   -18019   -18031   -18072   -18100   -18120   -18198 
  -18274   -18342   -18417   -18466   -18522   -18559   -18580   -18653 
  -18726   -18789   -18879   -18937   -18950   -18946   -18913   -18845 
  -18733   -18606   -18493   -18392   -18352   -18363   -18377   -18418 
  -18467   -18507   -18521   -18455   -18370   -18282   -18143   -18015 
  -17887   -17739   -17641   -17536   -17435   -17406   -17380   -17384 
  -17418   -17387   -17325   -17202   -16968   -16696   -16346   -15946 
  -15588   -15181   -14755   -14395   -14040   -13741   -13532   -13351 
  -13245   -13221   -13238   -13332   -13478   -13636   -13840   -14110 
  -14434   -14783   -15140   -15501   -15832   -16149   -16482   -16779 
  -17028   -17257   -17445   -17620   -17814   -17987   -18151   -18330 
  -18498   -18650   -18817   -19032   -19299   -19602   -19928   -20238 
  -20515   -20788   -21032   -21226   -21423   -21612   -21741   -21838 
  -21912   -21918   -21854   -21715   -21468   -21157   -20862   -20584 
  -20322   -20123   -19963   -19838   -19791   -19765   -19753   -19761 
  -19702   -19606   -19515   -19401   -19315   -19218   -19051   -18855 
  -18600   -18286   -17983   -17664   -17334   -17019   -16692   -16386 
  -16103   -15811   -15521   -15219   -14921   -14647   -14362   -14092 
  -13868   -13642   -13444   -13299   -13159   -13022   -12882   -12712 
  -12528   -12322   -12100   -11870   -11603   -11315   -11003   -10655 
  -10285    -9881    -9476    -9108    -8762    -8463    -8237    -8092 
   -8055    -8159    -8415    -8821    -9379   -10067   -10860   -11741 
  -12674   -13666   -14731   -15832   -16953   -18064   -19093   -20019 
  -20853   -21588   -22226   -22785   -23269   -23665   -23979   -24212 
