Origin Time       2011/03/11 14:46:00
Lat.              38.103
Long.             142.860
Depth. (km)       24
Mag.              9.0
Station Code      ISK014
Station Lat.      36.3031
Station Long.     136.3154
Station Height(m) 4
Record Time       2011/03/11 14:49:08
Sampling Freq(Hz) 100Hz
Duration Time(s)  184
Dir.              E-W
Scale Factor      3920(gal)/6182761
Max. Acc. (gal)   4.255
Last Correction   2011/03/11 14:48:53
Memo.             
[...]
  -58286   -58167   -57842   -57463   -57184   -56969   -56680   -56292 
  -55891   -55543   -55319   -55233   -55175   -55124   -55129   -55181 
  -55252   -55201   -55018   -54958   -54950   -54868   -54945   -55096 
  -55129   -55360   -55877   -56301   -56502   -56632   -56744   -56784 
  -56710   -56619   -56647   -56814   -57042   -57289   -57657   -58082 
  -58360   -58584   -58879   -59154   -59349   -59485   -59631   -59770 
  -59714   -59447   -59245   -59149   -58965   -58856   -58906   -58787 
  -58646   -58978   -59530   -59681   -59409   -59072   -58804   -58551 
  -58285   -57982   -57754   -57803   -57938   -57941   -58018   -58131 
  -58080   -58018   -57971   -57705   -57305   -57118   -57248   -57449 
  -57461   -57316   -57163   -57064   -57063   -57053   -56895   -56660 
  -56426   -56292   -56442   -56717   -56750   -56544   -56368   -56469 
  -56823   -57063   -57111   -57282   -57504   -57504   -57522   -57678 
  -57571   -57232   -57124   -57327   -57691   -58136   -58508   -58723 
  -58931   -59187   -59396   -59543   -59484   -59189   -59009   -59121 
  -59345   -59448   -59530   -60034   -60787   -61175   -61289   -61418 
  -61423   -61263   -61041   -60777   -60531   -60446   -60546   -60677 
  -60753   -60831   -60925   -60996   -61092   -61298   -61488   -61426 
  -61106   -60763   -60572   -60538   -60613   -60584   -60345   -60106 
  -59817   -59440   -59226   -59057   -58858   -58854   -58819   -58541 
  -58321   -58289   -58168   -57898   -57735   -57558   -57096   -56658 
  -56497   -56359   -56194   -56146   -56075   -55860   -55619   -55461 
  -55427   -55417   -55266   -55112   -55123   -55200   -55286   -55439 
  -55664   -55874   -55998   -56102   -56242   -56401   -56623   -56903 
  -57189   -57463   -57637   -57596   -57391   -57188   -57081   -57099 
  -57281   -57595   -57948   -58350   -58706   -58849   -58995   -59229 
  -59237   -59167   -59130   -58765   -58341   -58287   -58395   -58624 
  -58927   -58993   -58927   -58899   -58836   -58841   -58941   -58937 
  -58758   -58564   -58518   -58553   -58497   -58338   -58131   -57894 
  -57672   -57517   -57423   -57362   -57323   -57228   -57030   -56870 
  -56850   -56835   -56755   -56707   -56690   -56624   -56571   -56628 
  -56786   -57006   -57167   -57169   -57103   -57055   -57074   -57161 
  -57207   -57248   -57359   -57518   -57741   -57951   -58154   -58481 
  -58738   -58845   -59095   -59361   -59400   -59544   -59931   -60209 
  -60411   -60733   -60943   -60982   -61062   -61153   -61249   -61402 
  -61479   -61461   -61449   -61483   -61589   -61654   -61594   -61571 
  -61628   -61619   -61499   -61366   -61303   -61197   -60972   -60762 
  -60583   -60346   -60048   -59733   -59474   -59243   -58998   -58832 
  -58724   -58525   -58297   -58155   -58024   -57850   -57631   -57434 
  -57346   -57275   -57200   -57145   -56983   -56775   -56677   -56665 
  -56726   -56788   -56729   -56666   -56699   -56748   -56837   -56965 
  -57005   -56988   -57025   -57098   -57215   -57430   -57659   -57839 
  -57997   -58137   -58301   -58506   -58691   -58781   -58841   -59080 
  -59424   -59678   -59952   -60234   -60355   -60394   -60414   -60371 
  -60328   -60322   -60372   -60521   -60681   -60809   -60963   -61142 
  -61363   -61557   -61569   -61419   -61203   -60992   -60886   -60859 
  -60799   -60656   -60450   -60344   -60406   -60443   -60463   -60538 
  -60436   -60166   -59913   -59595   -59306   -59190   -59040   -58835 
  -58761   -58754   -58708   -58620   -58446   -58186   -57914   -57665 
  -57445   -57245   -57083   -57001   -56968   -56903   -56761   -56599 
  -56524   -56521   -56417   -56115   -55796   -55662   -55645   -55658 
  -55752   -55890   -55985   -56073   -56230   -56436   -56627   -56778 
  -56977   -57279   -57543   -57724   -57993   -58371   -58700   -58940 
  -59170   -59385   -59497   -59585   -59781   -59985   -60116   -60263 
  -60419   -60589   -60864   -61086   -61157   -61243   -61324   -61361 
  -61490   -61657   -61727   -61743   -61812   -61976   -62098   -61983 
  -61679   -61389   -61156   -60889   -60600   -60362   -60187   -60069 
  -59979   -59873   -59712   -59480   -59245   -59019   -58706   -58332 
  -57977   -57610   -57209   -56764   -56287   -55918   -55675   -55403 
  -55033   -54640   -54312   -54046   -53784   -53535   -53389   -53383 
  -53415   -53423   -53461   -53513   -53510   -53507   -53581   -53657 
  -53749   -54001   -54293   -54527   -54845   -55164   -55374   -55634 
  -55926   -56093   -56210   -56356   -56491   -56727   -57151   -57565 
  -57840   -58054   -58243   -58431   -58665   -58921   -59165   -59410 
  -59671   -59901   -60060   -60190   -60318   -60389   -60362   -60268 
  -60192   -60228   -60370   -60510   -60609   -60696   -60732   -60719 
  -60724   -60753   -60773   -60754   -60640   -60422   -60184   -59931 
  -59579   -59231   -59028   -58896   -58773   -58712   -58639   -58480 
  -58344   -58282   -58241   -58207   -58098   -57873   -57683   -57560 
  -57375   -57181   -57137   -57218   -57358   -57561   -57785   -57928 
  -57920   -57865   -57875   -57796   -57515   -57195   -57020   -57017 
  -57079   -57116   -57125   -57136   -57174   -57286   -57488   -57670 
  -57691   -57598   -57534   -57478   -57348   -57244   -57284   -57417 
  -57526   -57579   -57688   -57889   -58008   -57986   -57996   -58118 
  -58272   -58425   -58579   -58662   -58585   -58445   -58465   -58659 
  -58875   -59068   -59281   -59535   -59753   -59888   -60000   -60093 
  -60209   -60401   -60532   -60535   -60522   -60517   -60513   -60506 
  -60464   -60463   -60581   -60752   -60876   -60939   -60981   -60997 
  -60993   -61035   -61148   -61274   -61314   -61226   -61118   -61124 
  -61230   -61338   -61406   -61430   -61395   -61309   -61170   -60994 
  -60835   -60684   -60482   -60280   -60146   -60047   -59975   -59923 
  -59794   -59581   -59423   -59342   -59219   -59047   -58921   -58841 
  -58742   -58595   -58412   -58308   -58319   -58243   -58002   -57759 
  -57636   -57637   -57665   -57645   -57619   -57572   -57485   -57402 
  -57287   -57130   -56960   -56697   -56360   -56140   -56130   -56256 
  -56389   -56403   -56265   -56042   -55827   -55675   -55590   -55550 
  -55497   -55406   -55376   -55441   -55501   -55511   -55517   -55597 
  -55730   -55775   -55772   -55857   -55977   -56064   -56145   -56186 
  -56224   -56382   -56618   -56840   -57006   -57051   -57049   -57123 
  -57177   -57182   -57239   -57340   -57510   -57737   -57918   -58052 
  -58143   -58154   -58065   -57902   -57743   -57608   -57533   -57521 
  -57487   -57436   -57409   -57409   -57483   -57575   -57578   -57489 
  -57319   -57135   -56980   -56818   -56702   -56679   -56703   -56718 
  -56711   -56711   -56741   -56777   -56765   -56702   -56658   -56658 
  -56716   -56869   -57069   -57284   -57565   -57871   -58085   -58232 
  -58439   -58711   -58980   -59249   -59486   -59689   -59999   -60408 
  -60696   -60820   -60877   -60944   -61101   -61270   -61369   -61472 
  -61561   -61583   -61655   -61865   -62094   -62205   -62251   -62301 
  -62297   -62235   -62139   -61976   -61736   -61467   -61215   -60970 
  -60729   -60493   -60235   -59992   -59764   -59522   -59301   -59080 
  -58847   -58662   -58506   -58313   -58020   -57602   -57128   -56675 
  -56269   -55958   -55757   -55588   -55412   -55254   -55152   -55143 
  -55176   -55126   -55002   -54885   -54756   -54691   -54761   -54797 
  -54777   -54819   -54845   -54907   -55151   -55458   -55738   -56002 
  -56207   -56360   -56450   -56453   -56465   -56548   -56639   -56725 
  -56896   -57166   -57421   -57644   -57911   -58214   -58542   -58864 
  -59138   -59443   -59763   -59961   -60072   -60207   -60342   -60450 
  -60638   -60991   -61388   -61686   -61867   -61934   -61924   -61915 
  -61889   -61837   -61804   -61791   -61812   -61836   -61780   -61678 
  -61543   -61299   -60942   -60561   -60316   -60151   -59861   -59538 
  -59264   -58958   -58685   -58447   -58150   -57774   -57306   -56830 
  -56503   -56336   -56242   -56164   -56068   -55966   -55887   -55817 
  -55735   -55647   -55527   -55368   -55248   -55189   -55155   -55152 
  -55144   -55104   -55083   -55085   -55076   -55064   -55113   -55294 
  -55535   -55764   -56038   -56338   -56539   -56633   -56749   -56926 
  -57080   -57180   -57259   -57329   -57415   -57524   -57681   -57962 
  -58249   -58318   -58300   -58466   -58770   -59054   -59256   -59342 
  -59390   -59585   -59932   -60241   -60471   -60686   -60899   -61124 
  -61317   -61419   -61498   -61596   -61676   -61758   -61840   -61896 
  -61968   -62040   -62065   -62084   -62141   -62183   -62121   -61981 
  -61827   -61665   -61499   -61313   -61143   -61050   -60946   -60749 
  -60489   -60177   -59836   -59491   -59199   -59017   -58852   -58635 
  -58399   -58180   -58043   -57985   -57885   -57702   -57445   -57142 
  -56949   -56869   -56689   -56418   -56243   -56192   -56220   -56291 
  -56380   -56490   -56599   -56686   -56746   -56764   -56728   -56688 
  -56657   -56577   -56467   -56422   -56433   -56431   -56466   -56604 
  -56811   -57088   -57397   -57622   -57777   -57944   -58104   -58200 
  -58261   -58401   -58626   -58815   -58934   -59064   -59199   -59258 
  -59253   -59249   -59259   -59244   -59181   -59081   -58973   -58889 
  -58746   -58480   -58215   -58004   -57797   -57633   -57478   -57289 
  -57152   -57092   -57070   -57013   -56859   -56732   -56697   -56620 
  -56469   -56280   -56083   -55975   -55945   -55905   -55885   -55883 
  -55859   -55837   -55788   -55693   -55592   -55489   -55420   -55442 
  -55518   -55575   -55582   -55524   -55449   -55456   -55451   -55314 
  -55168   -55098   -55067   -55053   -55016   -54957   -54892   -54777 
  -54631   -54532   -54441   -54269   -54076   -53901   -53663   -53370 
  -53154   -53083   -53073   -53043   -53049   -53106   -53132   -53093 
  -53049   -53096   -53240   -53383   -53503   -53633   -53733   -53804 
  -53933   -54103   -54244   -54387   -54611   -54900   -55143   -55365 
  -55670   -55969   -56201   -56532   -56977   -57345   -57617   -57916 
  -58279   -58637   -58931   -59221   -59573   -59951   -60350   -60840 
  -61346   -61699   -61900   -62076   -62299   -62524   -62672   -62767 
  -62867   -62948   -62996   -63057   -63128   -63177   -63174   -63115 
  -63102   -63161   -63182   -63162   -63117   -63018   -62890   -62737 
  -62558   -62343   -62082   -61878   -61756   -61601   -61405   -61205 
  -61016   -60886   -60810   -60719   -60548   -60298   -60033   -59800 
  -59633   -59528   -59440   -59373   -59378   -59454   -59532   -59562 
  -59515   -59379   -59255   -59222   -59236   -59246   -59218   -59156 
  -59134   -59177   -59210   -59229   -59294   -59396   -59497   -59616 
  -59806   -60074   -60382   -60710   -61046   -61364   -61651   -61931 
  -62232   -62465   -62513   -62442   -62389   -62417   -62554   -62744 
  -62886   -62894   -62726   -62483   -62322   -62195   -61972   -61723 
  -61553   -61419   -61286   -61177   -61071   -60901   -60685   -60546 
  -60532   -60563   -60494   -60240   -59900   -59537   -59090   -58700 
  -58569   -58540   -58344   -57949   -57387   -56686   -55969   -55318 
  -54760   -54372   -54171   -54129   -54229   -54273   -54044   -53634 
  -53268   -53062   -52976   -52875   -52632   -52221   -51822   -51684 
  -51925   -52426   -52846   -52998   -53047   -53248   -53673   -54069 
  -54101   -53748   -53317   -53128   -53312   -53888   -54715   -55490 
  -55990   -56143   -56109   -56336   -57014   -57739   -58065   -57987 
  -57848   -58068   -58739   -59501   -59940   -59887   -59513   -59157 
  -58916   -58680   -58456   -58378   -58519   -58900   -59499   -60072 
  -60470   -60854   -61165   -61160   -60824   -60234   -59532   -58939 
  -58514   -58153   -57772   -57431   -57308   -57544   -58069   -58693 
  -59243   -59468   -59367   -59176   -58616   -57502   -56252   -55124 
  -54455   -54562   -55170   -56098   -57205   -58129   -58787   -59138 
  -59134   -58679   -57577   -56157   -54939   -54062   -53626   -53801 
  -54625   -55916   -57237   -58161   -58548   -58397   -57723   -56769 
  -55964   -55515   -55332   -55390   -55823   -56535   -57183   -57563 
  -57654   -57614   -57730   -58216   -59104   -60058   -60563   -60468 
  -60031   -59624   -59443   -59295   -58998   -58717   -58689   -59017 
  -59609   -60269   -60850   -61228   -61308   -61127   -60884   -60671 
  -60200   -59356   -58653   -58633   -59303   -60305   -61164   -61398 
  -60826   -59785   -58720   -57719   -56724   -56002   -55984   -56661 
  -57580   -58300   -58558   -58352   -58007   -57790   -57521   -56850 
  -55720   -54546   -53970   -54155   -54714   -55455   -56329   -57080 
  -57536   -57642   -57293   -56505   -55543   -54897   -54828   -55015 
  -55104   -55129   -55235   -55420   -55575   -55675   -55820   -56110 
  -56577   -57204   -57886   -58389   -58500   -58234   -57804   -57603 
  -57929   -58736   -59865   -60927   -61405   -61493   -61699   -62046 
  -62359   -62292   -61750   -61341   -61514   -62109   -62638   -62743 
  -62582   -62355   -62186   -62426   -63022   -63524   -63774   -63706 
  -63310   -62757   -62235   -61960   -61888   -61572   -60844   -60072 
  -59575   -59394   -59491   -59730   -59841   -59716   -59526   -59395 
  -59171   -58545   -57527   -56679   -56362   -56334   -56439   -56611 
  -56553   -56153   -55538   -54812   -54021   -53215   -52543   -52121 
  -51836   -51608   -51610   -51921   -52291   -52500   -52617   -52705 
  -52728   -52757   -52801   -52749   -52741   -53014   -53445   -53787 
  -54016   -54175   -54257   -54229   -54046   -53823   -53884   -54491 
  -55524   -56488   -57002   -57166   -57291   -57615   -58222   -58820 
  -59049   -59091   -59270   -59573   -59927   -60325   -60692   -60938 
  -61139   -61513   -62122   -62763   -63158   -63201   -63058   -62985 
  -63058   -63189   -63243   -63157   -63041   -63033   -63136   -63244 
  -63231   -63054   -62820   -62719   -62733   -62599   -62210   -61690 
  -61142   -60649   -60291   -59949   -59499   -59162   -59194   -59332 
  -59075   -58437   -57840   -57488   -57362   -57379   -57449   -57530 
  -57563   -57589   -57739   -58031   -58503   -59054   -59184   -58658 
  -57933   -57495   -57445   -57722   -58257   -58831   -59150   -59245 
  -59357   -59536   -59665   -59652   -59522   -59406   -59424   -59545 
  -59652   -59734   -59841   -59903   -59878   -59882   -59905   -59774 
  -59482   -59044   -58294   -57191   -55997   -55075   -54517   -54092 
  -53784   -53811   -54084   -54389   -54655   -54801   -54842   -54836 
  -54699   -54410   -54108   -53955   -53977   -54048   -54111   -54125 
  -53933   -53524   -53155   -53041   -53046   -52930   -52769   -52783 
  -53076   -53641   -54252   -54629   -54793   -54962   -55282   -55799 
  -56449   -56985   -57244   -57362   -57513   -57770   -58120   -58338 
  -58184   -57794   -57541   -57581   -57777   -57973   -58072   -57983 
  -57806   -57841   -58205   -58648   -58977   -59303   -59697   -60091 
  -60412   -60595   -60665   -60642   -60540   -60467   -60382   -60097 
  -59651   -59285   -59065   -58850   -58650   -58616   -58654   -58547 
  -58276   -57859   -57269   -56612   -56130   -55931   -55822   -55612 
  -55348   -55098   -54885   -54707   -54521   -54353   -54271   -54278 
  -54373   -54571   -54838   -55043   -54980   -54550   -53953   -53530 
  -53402   -53481   -53707   -53984   -54183   -54366   -54674   -55089 
  -55477   -55724   -55840   -55950   -56097   -56190   -56225   -56340 
  -56587   -56914   -57363   -57902   -58299   -58495   -58662   -58849 
  -59022   -59265   -59667   -60189   -60704   -61150   -61567   -61883 
  -61988   -61957   -61964   -62157   -62441   -62564   -62636   -62919 
  -63364   -63811   -64199   -64438   -64425   -64296   -64294   -64402 
  -64471   -64430   -64239   -63961   -63803   -63909   -64191   -64460 
  -64638   -64706   -64635   -64487   -64253   -63883   -63514   -63270 
  -63135   -63088   -62984   -62634   -62113   -61662   -61374   -61190 
  -61087   -61115   -61252   -61399   -61582   -61860   -62113   -62147 
  -61807   -61070   -60110   -59138   -58265   -57587   -57268   -57329 
  -57530   -57686   -57781   -57796   -57683   -57377   -56824   -56148 
  -55552   -55102   -54876   -54917   -55102   -55305   -55409   -55385 
  -55383   -55444   -55455   -55413   -55318   -55170   -55155   -55361 
  -55601   -55695   -55637   -55533   -55526   -55722   -56027   -56233 
  -56322   -56418   -56617   -57067   -57814   -58506   -58823   -58928 
  -59084   -59292   -59467   -59640   -59870   -60125   -60383   -60641 
  -60823   -60889   -60876   -60776   -60549   -60196   -59835   -59623 
  -59577   -59648   -59750   -59744   -59584   -59281   -58845   -58409 
  -58104   -57893   -57653   -57292   -56899   -56640   -56459   -56225 
  -55963   -55689   -55399   -55190   -55059   -54862   -54459   -53854 
  -53366   -53277   -53449   -53616   -53696   -53713   -53670   -53542 
  -53367   -53247   -53212   -53233   -53340   -53550   -53813   -54081 
  -54397   -54790   -55197   -55632   -56174   -56693   -56924   -56855 
  -56742   -56847   -57195   -57598   -57958   -58290   -58663   -59205 
  -59890   -60508   -60932   -61189   -61361   -61536   -61788   -62088 
  -62337   -62434   -62425   -62481   -62633   -62816   -62976   -63032 
  -63001   -62964   -62894   -62694   -62347   -61970   -61687   -61464 
  -61220   -60983   -60752   -60486   -60192   -59863   -59563   -59389 
  -59296   -59191   -59052   -58913   -58761   -58506   -58187   -57924 
  -57662   -57347   -57094   -57017   -57056   -57026   -56906   -56877 
  -56973   -57074   -57098   -56971   -56709   -56438   -56219   -56027 
  -55801   -55457   -54994   -54572   -54350   -54376   -54623   -54929 
  -55159   -55359   -55563   -55787   -56068   -56329   -56503   -56589 
  -56645   -56762   -56898   -56958   -56943   -56898   -56872   -56880 
  -56922   -56960   -56929   -56863   -56774   -56580   -56330   -56150 
  -56058   -56008   -55957   -55878   -55773   -55701   -55721   -55808 
  -55952   -56143   -56252   -56186   -55973   -55699   -55506   -55406 
  -55354   -55393   -55455   -55473   -55586   -55870   -56218   -56543 
  -56858   -57206   -57552   -57799   -57933   -58012   -58057   -58164 
  -58465   -58911   -59323   -59562   -59641   -59653   -59587   -59470 
  -59454   -59502   -59481   -59438   -59375   -59214   -59015   -58862 
  -58728   -58534   -58284   -58102   -58041   -58003   -57901   -57809 
  -57811   -57758   -57515   -57280   -57320   -57563   -57717   -57659 
  -57443   -57142   -56872   -56747   -56837   -57093   -57282   -57307 
  -57307   -57309   -57284   -57340   -57544   -57784   -57935   -58082 
  -58365   -58762   -59163   -59492   -59713   -59837   -59906   -59972 
  -60099   -60282   -60452   -60614   -60794   -61026   -61378   -61752 
  -62053   -62342   -62581   -62735   -62878   -62979   -63055   -63216 
  -63416   -63590   -63774   -63951   -64128   -64299   -64370   -64315 
  -64148   -63877   -63591   -63357   -63146   -62887   -62547   -62195 
  -61932   -61791   -61699   -61498   -61124   -60732   -60505   -60443 
  -60409   -60295   -60136   -60033   -59980   -59949   -59932   -59869 
  -59783   -59721   -59671   -59662   -59654   -59555   -59397   -59262 
