Origin Time       2011/03/11 14:46:00
Lat.              38.103
Long.             142.860
Depth. (km)       24
Mag.              9.0
Station Code      ISK003
Station Lat.      37.3924
Station Long.     136.9078
Station Height(m) 12
Record Time       2011/03/11 14:48:40
Sampling Freq(Hz) 100Hz
Duration Time(s)  217
Dir.              N-S
Scale Factor      3920(gal)/6182761
Max. Acc. (gal)   5.516
Last Correction   2011/03/11 14:48:25
Memo.             
[...]
  -75941   -75935   -75936   -75971   -76045   -76145   -76241   -76357 
  -76536   -76755   -76997   -77271   -77557   -77851   -78129   -78357 
  -78549   -78742   -78943   -79106   -79201   -79247   -79275   -79339 
  -79450   -79547   -79612   -79669   -79737   -79807   -79877   -79988 
  -80137   -80279   -80407   -80521   -80624   -80721   -80820   -80944 
  -81087   -81225   -81370   -81524   -81691   -81895   -82108   -82281 
  -82406   -82505   -82616   -82746   -82844   -82911   -82994   -83097 
  -83211   -83307   -83364   -83428   -83513   -83570   -83583   -83604 
  -83644   -83607   -83482   -83383   -83316   -83251   -83181   -83050 
  -82894   -82770   -82637   -82487   -82316   -82103   -81876   -81647 
  -81420   -81204   -80974   -80722   -80471   -80235   -80011   -79791 
  -79572   -79363   -79176   -79032   -78947   -78905   -78860   -78786 
  -78721   -78672   -78565   -78386   -78213   -78111   -78054   -78001 
  -77968   -77936   -77872   -77813   -77750   -77647   -77525   -77408 
  -77311   -77229   -77141   -77075   -77020   -76941   -76860   -76782 
  -76692   -76599   -76508   -76417   -76327   -76259   -76239   -76264 
  -76296   -76316   -76339   -76370   -76385   -76375   -76352   -76324 
  -76320   -76354   -76387   -76414   -76473   -76562   -76636   -76671 
  -76685   -76710   -76760   -76861   -77046   -77270   -77443   -77575 
  -77724   -77891   -78055   -78192   -78299   -78402   -78542   -78743 
  -78958   -79118   -79199   -79239   -79300   -79406   -79517   -79592 
  -79637   -79704   -79817   -79949   -80087   -80230   -80361   -80453 
  -80511   -80548   -80536   -80469   -80395   -80335   -80259   -80122 
  -79950   -79814   -79690   -79542   -79404   -79267   -79122   -79005 
  -78917   -78858   -78791   -78653   -78482   -78327   -78177   -78015 
  -77827   -77623   -77415   -77198   -76970   -76722   -76465   -76247 
  -76080   -75926   -75757   -75584   -75434   -75314   -75229   -75174 
  -75121   -75072   -75060   -75093   -75143   -75159   -75131   -75096 
  -75085   -75127   -75205   -75279   -75360   -75468   -75595   -75724 
  -75826   -75917   -76046   -76197   -76347   -76507   -76670   -76843 
  -77051   -77270   -77453   -77582   -77667   -77729   -77774   -77793 
  -77781   -77769   -77774   -77756   -77698   -77630   -77585   -77584 
  -77591   -77576   -77564   -77559   -77526   -77449   -77352   -77251 
  -77119   -76954   -76818   -76731   -76657   -76573   -76484   -76415 
  -76361   -76299   -76237   -76176   -76113   -76057   -76002   -75963 
  -75947   -75890   -75764   -75617   -75471   -75325   -75176   -75034 
  -74920   -74842   -74783   -74717   -74669   -74695   -74759   -74798 
  -74849   -74933   -75038   -75180   -75365   -75568   -75759   -75928 
  -76086   -76256   -76440   -76598   -76736   -76908   -77104   -77308 
  -77513   -77696   -77894   -78149   -78412   -78660   -78913   -79161 
  -79391   -79589   -79755   -79915   -80077   -80237   -80409   -80595 
  -80761   -80883   -80986   -81084   -81163   -81228   -81286   -81352 
  -81443   -81528   -81564   -81583   -81610   -81580   -81460   -81317 
  -81224   -81163   -81071   -80972   -80906   -80849   -80801   -80777 
  -80759   -80757   -80760   -80721   -80664   -80634   -80605   -80550 
  -80484   -80428   -80371   -80278   -80149   -80004   -79850   -79670 
  -79443   -79198   -78978   -78787   -78626   -78511   -78432   -78349 
  -78251   -78149   -78024   -77875   -77740   -77634   -77532   -77426 
  -77327   -77250   -77189   -77131   -77081   -77054   -77066   -77111 
  -77161   -77206   -77265   -77343   -77445   -77562   -77685   -77821 
  -77962   -78109   -78272   -78433   -78558   -78642   -78722   -78828 
  -78944   -79066   -79192   -79287   -79346   -79377   -79386   -79384 
  -79365   -79339   -79318   -79294   -79279   -79282   -79292   -79297 
  -79284   -79251   -79205   -79151   -79096   -79047   -78983   -78879 
  -78759   -78667   -78614   -78588   -78566   -78549   -78573   -78653 
  -78757   -78860   -78967   -79075   -79154   -79194   -79219   -79245 
  -79269   -79280   -79286   -79330   -79412   -79492   -79549   -79588 
  -79643   -79732   -79848   -79973   -80069   -80132   -80188   -80229 
  -80258   -80265   -80216   -80131   -80038   -79961   -79891   -79778 
  -79651   -79550   -79464   -79398   -79323   -79250   -79231   -79225 
  -79221   -79225   -79191   -79145   -79106   -79069   -79073   -79099 
  -79141   -79220   -79305   -79421   -79597   -79812   -80069   -80340 
  -80627   -80948   -81240   -81466   -81649   -81811   -81959   -82076 
  -82148   -82179   -82187   -82197   -82202   -82179   -82147   -82145 
  -82153   -82102   -81976   -81832   -81713   -81582   -81404   -81196 
  -80958   -80709   -80477   -80232   -79982   -79763   -79563   -79362 
  -79154   -78961   -78809   -78694   -78611   -78527   -78396   -78228 
  -78110   -78109   -78175   -78202   -78150   -78062   -78006   -78014 
  -78053   -78084   -78107   -78142   -78199   -78283   -78387   -78473 
  -78498   -78459   -78403   -78374   -78368   -78376   -78394   -78390 
  -78358   -78307   -78244   -78192   -78146   -78079   -78000   -77948 
  -77938   -77935   -77930   -77957   -78005   -78028   -78024   -78004 
  -77950   -77879   -77838   -77815   -77772   -77729   -77708   -77686 
  -77636   -77547   -77444   -77384   -77366   -77338   -77298   -77269 
  -77255   -77273   -77317   -77349   -77344   -77289   -77194   -77084 
  -76966   -76828   -76662   -76489   -76339   -76194   -76039   -75876 
  -75700   -75555   -75490   -75473   -75442   -75381   -75299   -75185 
  -75048   -74916   -74788   -74666   -74582   -74521   -74446   -74344 
  -74231   -74139   -74069   -73980   -73893   -73869   -73923   -74005 
  -74066   -74115   -74195   -74331   -74490   -74595   -74625   -74654 
  -74745   -74882   -75015   -75144   -75303   -75489   -75660   -75801 
  -75939   -76085   -76255   -76489   -76775   -77057   -77302   -77482 
  -77594   -77722   -77921   -78140   -78346   -78541   -78724   -78947 
  -79244   -79557   -79821   -79981   -80034   -80048   -80067   -80120 
  -80239   -80385   -80501   -80566   -80561   -80495   -80407   -80313 
  -80214   -80101   -79947   -79755   -79574   -79456   -79417   -79412 
  -79376   -79281   -79162   -79043   -78872   -78606   -78314   -78067 
  -77871   -77689   -77499   -77332   -77197   -77066   -76927   -76751 
  -76537   -76339   -76185   -76082   -76068   -76151   -76296   -76483 
  -76727   -77057   -77473   -77913   -78292   -78587   -78824   -79030 
  -79237   -79472   -79766   -80125   -80464   -80706   -80881   -81000 
  -81034   -81015   -81019   -81091   -81206   -81307   -81404   -81537 
  -81708   -81898   -82052   -82122   -82148   -82161   -82164   -82210 
  -82323   -82474   -82624   -82728   -82751   -82713   -82670   -82626 
  -82547   -82473   -82466   -82502   -82568   -82649   -82679   -82643 
  -82596   -82579   -82620   -82730   -82882   -83016   -83080   -83052 
  -82927   -82764   -82703   -82797   -82930   -82973   -82927   -82830 
  -82680   -82512   -82385   -82318   -82320   -82373   -82419   -82461 
  -82545   -82664   -82756   -82790   -82781   -82751   -82719   -82695 
  -82654   -82585   -82526   -82489   -82464   -82414   -82303   -82185 
  -82115   -82031   -81893   -81793   -81801   -81848   -81815   -81675 
  -81494   -81364   -81350   -81400   -81404   -81336   -81222   -81089 
  -80945   -80799   -80715   -80683   -80598   -80434   -80270   -80215 
  -80304   -80456   -80604   -80746   -80839   -80832   -80734   -80585 
  -80449   -80389   -80413   -80450   -80419   -80318   -80182   -80016 
  -79852   -79711   -79532   -79310   -79110   -78992   -78952   -78885 
  -78747   -78612   -78557   -78639   -78773   -78809   -78742   -78661 
  -78634   -78649   -78624   -78565   -78540   -78514   -78440   -78381 
  -78420   -78590   -78821   -79010   -79172   -79352   -79515   -79596 
  -79572   -79500   -79452   -79430   -79427   -79447   -79485   -79506 
  -79451   -79319   -79202   -79160   -79149   -79118   -79110   -79132 
  -79097   -78991   -78884   -78832   -78832   -78828   -78795   -78749 
  -78705   -78676   -78638   -78531   -78385   -78278   -78234   -78219 
  -78153   -77995   -77784   -77564   -77376   -77205   -77006   -76815 
  -76688   -76630   -76587   -76482   -76342   -76233   -76131   -76038 
  -75966   -75883   -75822   -75827   -75880   -75949   -76012   -76073 
  -76099   -76031   -75904   -75805   -75783   -75827   -75887   -75964 
  -76100   -76265   -76391   -76491   -76625   -76800   -76969   -77121 
  -77284   -77476   -77716   -77991   -78275   -78588   -78909   -79184 
  -79422   -79638   -79833   -80031   -80223   -80392   -80551   -80670 
  -80724   -80749   -80781   -80835   -80905   -80963   -80979   -80949 
  -80908   -80894   -80902   -80929   -81018   -81194   -81389   -81504 
  -81550   -81615   -81723   -81865   -82021   -82160   -82284   -82393 
  -82479   -82545   -82579   -82583   -82571   -82553   -82559   -82564 
  -82513   -82432   -82341   -82216   -82067   -81943   -81864   -81753 
  -81553   -81337   -81168   -81069   -81063   -81085   -81062   -80987 
  -80854   -80704   -80604   -80571   -80589   -80609   -80604   -80576 
  -80481   -80338   -80241   -80225   -80285   -80381   -80445   -80472 
  -80497   -80546   -80611   -80656   -80693   -80732   -80777   -80853 
  -80911   -80937   -80997   -81083   -81148   -81156   -81084   -81015 
  -81022   -81038   -80983   -80869   -80785   -80755   -80696   -80578 
  -80441   -80301   -80163   -80033   -79913   -79804   -79716   -79652 
  -79610   -79566   -79491   -79402   -79308   -79201   -79098   -79023 
  -78970   -78901   -78808   -78733   -78698   -78707   -78771   -78851 
  -78892   -78904   -78919   -78931   -78944   -78993   -79070   -79127 
  -79152   -79152   -79147   -79169   -79193   -79188   -79197   -79257 
  -79346   -79430   -79499   -79556   -79575   -79595   -79711   -79891 
  -80047   -80175   -80305   -80446   -80601   -80809   -81092   -81376 
  -81635   -81920   -82239   -82571   -82903   -83217   -83514   -83807 
  -84082   -84259   -84297   -84269   -84252   -84267   -84299   -84304 
  -84286   -84257   -84191   -84117   -84056   -83982   -83932   -83900 
  -83840   -83778   -83703   -83578   -83449   -83376   -83393   -83466 
  -83528   -83598   -83701   -83826   -83961   -84059   -84129   -84213 
  -84262   -84239   -84191   -84148   -84098   -84031   -83956   -83891 
  -83814   -83689   -83527   -83362   -83205   -83058   -82912   -82751 
  -82576   -82398   -82227   -82065   -81887   -81670   -81466   -81334 
  -81257   -81236   -81270   -81302   -81302   -81275   -81220   -81190 
  -81215   -81256   -81284   -81271   -81206   -81120   -81013   -80916 
  -80886   -80891   -80866   -80783   -80676   -80606   -80577   -80604 
  -80696   -80779   -80831   -80872   -80915   -81005   -81106   -81148 
  -81149   -81158   -81189   -81215   -81222   -81256   -81312   -81351 
  -81386   -81421   -81438   -81419   -81353   -81272   -81190   -81089 
  -80996   -80962   -80990   -81023   -81000   -80949   -80917   -80905 
  -80919   -80940   -80953   -81000   -81075   -81133   -81194   -81267 
  -81321   -81353   -81366   -81353   -81320   -81317   -81353   -81363 
  -81342   -81326   -81300   -81260   -81225   -81205   -81195   -81178 
  -81164   -81178   -81177   -81121   -81011   -80880   -80763   -80644 
  -80519   -80412   -80274   -80074   -79871   -79702   -79570   -79470 
  -79373   -79260   -79150   -79063   -78995   -78934   -78886   -78841 
  -78767   -78680   -78596   -78500   -78413   -78361   -78350   -78358 
  -78347   -78340   -78387   -78472   -78546   -78596   -78653   -78722 
  -78783   -78853   -78921   -78958   -78981   -78995   -79007   -79035 
  -79031   -78962   -78866   -78763   -78649   -78515   -78355   -78202 
  -78091   -78024   -77996   -77970   -77929   -77894   -77849   -77795 
  -77772   -77776   -77788   -77802   -77818   -77841   -77842   -77812 
  -77776   -77739   -77713   -77697   -77672   -77650   -77638   -77648 
  -77707   -77799   -77900   -78008   -78125   -78276   -78462   -78652 
  -78821   -78944   -79042   -79161   -79281   -79378   -79493   -79661 
  -79847   -79983   -80060   -80132   -80221   -80315   -80394   -80454 
  -80511   -80594   -80699   -80787   -80838   -80878   -80900   -80883 
  -80850   -80806   -80756   -80710   -80638   -80539   -80436   -80323 
  -80195   -80060   -79942   -79835   -79700   -79546   -79386   -79201 
  -79025   -78871   -78717   -78567   -78407   -78233   -78048   -77845 
  -77652   -77481   -77302   -77103   -76906   -76718   -76549   -76398 
  -76258   -76144   -76066   -76028   -76006   -75979   -75985   -76002 
  -75988   -75974   -75953   -75914   -75898   -75938   -76023   -76125 
  -76223   -76297   -76348   -76377   -76383   -76400   -76446   -76521 
  -76608   -76707   -76826   -76935   -77037   -77139   -77232   -77321 
  -77380   -77400   -77415   -77432   -77456   -77481   -77502   -77524 
  -77520   -77487   -77446   -77415   -77431   -77487   -77544   -77598 
  -77653   -77739   -77868   -77993   -78114   -78270   -78474   -78739 
  -79048   -79381   -79740   -80111   -80457   -80765   -81059   -81380 
  -81709   -81995   -82255   -82532   -82829   -83130   -83427   -83740 
  -84065   -84364   -84647   -84928   -85190   -85436   -85671   -85909 
  -86151   -86350   -86516   -86714   -86935   -87127   -87248   -87300 
  -87355   -87450   -87566   -87695   -87817   -87903   -87957   -87995 
  -88022   -88033   -88028   -88000   -87942   -87873   -87808   -87745 
  -87670   -87580   -87490   -87401   -87290   -87144   -86951   -86737 
  -86539   -86334   -86081   -85803   -85537   -85268   -84955   -84615 
  -84294   -83981   -83673   -83389   -83120   -82867   -82648   -82434 
  -82202   -81961   -81725   -81529   -81371   -81190   -80991   -80828 
  -80718   -80626   -80511   -80398   -80312   -80214   -80084   -79947 
  -79829   -79729   -79632   -79557   -79511   -79480   -79475   -79485 
  -79485   -79487   -79488   -79507   -79579   -79666   -79728   -79773 
  -79812   -79855   -79900   -79933   -79941   -79912   -79870   -79852 
  -79844   -79826   -79787   -79721   -79650   -79586   -79517   -79432 
  -79323   -79226   -79159   -79080   -78976   -78854   -78736   -78668 
  -78635   -78593   -78528   -78448   -78397   -78390   -78375   -78345 
  -78323   -78323   -78368   -78423   -78443   -78445   -78461   -78507 
  -78558   -78562   -78522   -78474   -78433   -78395   -78340   -78272 
  -78222   -78198   -78179   -78165   -78180   -78234   -78286   -78297 
  -78282   -78264   -78261   -78248   -78180   -78081   -78003   -77943 
  -77888   -77808   -77676   -77524   -77386   -77277   -77197   -77128 
  -77074   -77050   -77057   -77098   -77144   -77168   -77185   -77211 
  -77253   -77311   -77371   -77420   -77460   -77498   -77521   -77493 
  -77424   -77368   -77347   -77332   -77300   -77263   -77218   -77157 
  -77099   -77042   -76953   -76827   -76694   -76569   -76422   -76244 
  -76058   -75872   -75675   -75457   -75229   -75031   -74841   -74619 
  -74375   -74125   -73886   -73678   -73494   -73315   -73121   -72934 
  -72798   -72692   -72587   -72511   -72466   -72442   -72439   -72444 
  -72439   -72409   -72352   -72278   -72184   -72103   -72078   -72076 
  -72076   -72112   -72200   -72323   -72458   -72602   -72789   -73016 
  -73234   -73425   -73605   -73802   -74027   -74269   -74514   -74749 
  -74975   -75208   -75431   -75633   -75828   -76010   -76182   -76374 
  -76570   -76728   -76862   -77008   -77171   -77339   -77520   -77692 
  -77816   -77903   -77954   -77964   -77952   -77934   -77936   -77972 
  -78019   -78072   -78138   -78215   -78301   -78397   -78508   -78656 
  -78835   -79010   -79162   -79305   -79467   -79654   -79825   -79985 
  -80174   -80351   -80468   -80579   -80746   -80949   -81137   -81296 
  -81444   -81590   -81735   -81879   -82017   -82150   -82294   -82428 
  -82513   -82558   -82595   -82632   -82657   -82653   -82606   -82505 
  -82373   -82258   -82155   -82038   -81900   -81724   -81501   -81234 
  -80944   -80659   -80369   -80072   -79800   -79553   -79327   -79122 
  -78916   -78735   -78600   -78461   -78292   -78126   -77981   -77857 
  -77759   -77685   -77629   -77552   -77432   -77320   -77245   -77184 
  -77170   -77221   -77243   -77183   -77107   -77114   -77236   -77387 
  -77442   -77392   -77341   -77343   -77363   -77335   -77248   -77172 
  -77127   -77059   -76971   -76911   -76910   -76969   -77036   -77058 
  -77059   -77093   -77149   -77160   -77089   -76971   -76886   -76885 
  -76960   -77075   -77188   -77310   -77444   -77500   -77422   -77285 
  -77210   -77257   -77353   -77370   -77299   -77272   -77335   -77380 
  -77370   -77386   -77479   -77601   -77634   -77513   -77338   -77238 
  -77239   -77267   -77216   -77034   -76806   -76673   -76672   -76716 
  -76704   -76592   -76460   -76439   -76519   -76597   -76652   -76764 
  -76961   -77128   -77180   -77184   -77230   -77342   -77479   -77550 
  -77517   -77451   -77476   -77626   -77763   -77754   -77668   -77638 
  -77674   -77767   -77926   -78060   -78068   -78010   -78053   -78244 
  -78457   -78579   -78605   -78606   -78700   -78967   -79343   -79626 
  -79673   -79573   -79524   -79645   -79923   -80233   -80469   -80621 
  -80721   -80823   -80968   -81145   -81326   -81483   -81646   -81903 
  -82272   -82674   -83004   -83205   -83317   -83396   -83440   -83486 
  -83579   -83653   -83604   -83462   -83356   -83371   -83500   -83675 
  -83842   -83924   -83888   -83827   -83811   -83818   -83836   -83839 
  -83817   -83844   -83956   -84053   -84008   -83876   -83838   -83923 
  -84012   -84029   -83969   -83880   -83770   -83591   -83410   -83347 
  -83361   -83315   -83136   -82899   -82709   -82525   -82303   -82100 
  -81877   -81581   -81339   -81289   -81405   -81528   -81526   -81405 
  -81236   -81086   -80967   -80770   -80435   -80077   -79808   -79672 
  -79704   -79849   -79950   -79902   -79767   -79678   -79677   -79753 
  -79892   -80038   -80101   -80088   -80122   -80250   -80370   -80402 
  -80390   -80406   -80486   -80645   -80850   -81040   -81172   -81214 
  -81184   -81160   -81185   -81265   -81387   -81469   -81434   -81327 
  -81233   -81168   -81165   -81243   -81294   -81229   -81127   -81091 
  -81117   -81155   -81161   -81122   -81037   -80913   -80790   -80695 
  -80618   -80574   -80586   -80628   -80675   -80740   -80802   -80776 
  -80586   -80315   -80151   -80127   -80141   -80132   -80056   -79864 
  -79607   -79420   -79368   -79403   -79451   -79451   -79369   -79231 
  -79126   -79109   -79118   -79060   -78919   -78731   -78544   -78424 
  -78397   -78415   -78424   -78411   -78393   -78407   -78477   -78575 
  -78635   -78606   -78516   -78475   -78562   -78738   -78899   -78935 
  -78826   -78685   -78618   -78641   -78720   -78772   -78709   -78571 
  -78501   -78555   -78660   -78751   -78816   -78856   -78883   -78914 
  -78923   -78873   -78810   -78807   -78885   -78977   -78947   -78772 
  -78575   -78428   -78325   -78235   -78164   -78151   -78185   -78213 
  -78176   -78042   -77905   -77883   -77919   -77882   -77750   -77620 
  -77611   -77773   -78049   -78296   -78441   -78550   -78667   -78774 
  -78866   -78947   -79044   -79196   -79417   -79685   -79933   -80110 
