Origin Time       2011/03/11 14:46:00
Lat.              38.103
Long.             142.860
Depth. (km)       24
Mag.              9.0
Station Code      ISK006
Station Lat.      37.1603
Station Long.     136.6896
Station Height(m) 75
Record Time       2011/03/11 14:49:56
Sampling Freq(Hz) 100Hz
Duration Time(s)  90
Dir.              N-S
Scale Factor      3920(gal)/6182761
Max. Acc. (gal)   1.978
Last Correction   2011/03/11 14:49:41
Memo.             
[...]
  -12665   -12759   -12885   -13032   -13141   -13175   -13150   -13075 
  -12955   -12802   -12648   -12534   -12431   -12318   -12280   -12337 
  -12397   -12438   -12494   -12572   -12649   -12708   -12751   -12791 
  -12861   -12928   -12893   -12741   -12565   -12450   -12403   -12418 
  -12497   -12557   -12538   -12486   -12468   -12554   -12729   -12883 
  -12932   -12871   -12823   -12939   -13197   -13392   -13333   -13051 
  -12771   -12692   -12830   -13060   -13243   -13301   -13248   -13132 
  -13009   -13012   -13174   -13336   -13406   -13406   -13343   -13229 
  -13126   -13140   -13286   -13428   -13446   -13381   -13361   -13440 
  -13571   -13675   -13697   -13597   -13392   -13231   -13227   -13317 
  -13446   -13552   -13510   -13385   -13329   -13307   -13348   -13503 
  -13587   -13465   -13233   -13004   -12839   -12750   -12704   -12691 
  -12665   -12587   -12575   -12731   -12951   -13123   -13196   -13066 
  -12726   -12381   -12210   -12221   -12356   -12537   -12700   -12855 
  -13040   -13218   -13261   -13130   -12936   -12730   -12534   -12431 
  -12384   -12361   -12462   -12606   -12650   -12685   -12752   -12779 
  -12807   -12857   -12860   -12822   -12761   -12620   -12373   -12106 
  -11912   -11843   -12010   -12447   -12860   -12914   -12653   -12324 
  -12070   -11941   -11839   -11631   -11421   -11312   -11236   -11224 
  -11286   -11273   -11174   -11132   -11168   -11234   -11397   -11608 
  -11635   -11445   -11215   -11066   -11060   -11132   -11120   -11074 
  -11178   -11370   -11495   -11582   -11619   -11600   -11755   -12113 
  -12363   -12401   -12342   -12272   -12330   -12558   -12773   -12817 
  -12741   -12695   -12729   -12840   -13035   -13154   -13035   -12851 
  -12830   -12891   -12849   -12666   -12398   -12161   -12117   -12301 
  -12572   -12767   -12843   -12896   -12997   -13132   -13282   -13383 
  -13287   -12936   -12485   -12145   -11993   -11947   -11942   -11975 
  -12004   -12040   -12137   -12220   -12252   -12344   -12452   -12393 
  -12226   -12142   -12188   -12382   -12656   -12790   -12709   -12565 
  -12472   -12398   -12291   -12172   -12028   -11785   -11534   -11470 
  -11545   -11580   -11616   -11802   -12059   -12184   -12142   -12022 
  -11881   -11716   -11547   -11491   -11598   -11741   -11866   -11970 
  -11893   -11585   -11205   -10797   -10306    -9862    -9661    -9723 
  -10033   -10552   -10997   -11226   -11466   -11736   -11822   -11743 
  -11626   -11499   -11375   -11202   -10898   -10601   -10554   -10781 
  -11127   -11465   -11706   -11808   -11867   -11962   -12014   -11976 
  -11889   -11788   -11761   -11848   -11937   -12010   -12172   -12356 
  -12498   -12670   -12782   -12733   -12662   -12682   -12747   -12808 
  -12894   -13023   -13166   -13345   -13571   -13742   -13758   -13619 
  -13381   -13111   -12874   -12739   -12750   -12877   -13003   -13082 
  -13200   -13325   -13265   -13002   -12775   -12738   -12852   -13069 
  -13314   -13470   -13541   -13506   -13294   -13062   -12975   -12901 
  -12755   -12646   -12615   -12652   -12722   -12746   -12792   -12959 
  -13092   -13057   -12931   -12786   -12658   -12573   -12498   -12385 
  -12244   -12163   -12174   -12197   -12206   -12267   -12393   -12526 
  -12664   -12816   -12932   -13032   -13166   -13288   -13349   -13342 
  -13294   -13313   -13482   -13749   -13975   -14033   -13914   -13738 
  -13629   -13637   -13678   -13556   -13248   -12986   -12883   -12897 
  -13001   -13089   -13136   -13257   -13422   -13545   -13597   -13524 
  -13332   -13108   -12897   -12713   -12569   -12474   -12477   -12565 
  -12633   -12667   -12674   -12653   -12695   -12802   -12869   -12830 
  -12644   -12392   -12244   -12222   -12286   -12421   -12595   -12789 
  -12966   -13064   -13071   -13020   -12971   -12930   -12915   -12996 
  -13045   -12910   -12773   -12771   -12792   -12834   -12944   -13062 
  -13184   -13327   -13425   -13454   -13386   -13164   -12901   -12766 
  -12699   -12579   -12447   -12344   -12249   -12213   -12306   -12507 
  -12698   -12758   -12697   -12588   -12469   -12387   -12355   -12305 
  -12171   -11951   -11752   -11655   -11599   -11589   -11655   -11717 
  -11761   -11826   -11848   -11784   -11687   -11542   -11362   -11269 
  -11221   -11085   -10946   -10914   -10935   -10970   -11085   -11247 
  -11330   -11354   -11395   -11375   -11251   -11169   -11219   -11300 
  -11332   -11320   -11258   -11246   -11371   -11511   -11612   -11738 
  -11799   -11733   -11628   -11524   -11432   -11407   -11438   -11440 
  -11399   -11381   -11371   -11332   -11337   -11385   -11396   -11396 
  -11407   -11377   -11316   -11267   -11186   -11040   -10928   -10941 
  -11064   -11260   -11463   -11610   -11704   -11731   -11699   -11678 
  -11696   -11744   -11752   -11669   -11570   -11474   -11394   -11467 
  -11671   -11828   -11917   -12002   -12044   -12033   -12036   -12030 
  -11969   -11917   -11888   -11867   -11909   -11987   -12046   -12092 
  -12073   -11985   -11941   -11969   -11996   -11984   -11925   -11805 
  -11685   -11678   -11765   -11821   -11807   -11722   -11579   -11472 
  -11442   -11403   -11300   -11179   -11062   -10926   -10799   -10712 
  -10634   -10551   -10464   -10355   -10249   -10205   -10230   -10273 
  -10305   -10327   -10345   -10376   -10410   -10412   -10364   -10231 
  -10023    -9848    -9766    -9739    -9749    -9776    -9767    -9746 
   -9795    -9888    -9915    -9906    -9955   -10029   -10077   -10105 
  -10102   -10075   -10069   -10056   -10001    -9969    -9996   -10050 
  -10174   -10362   -10457   -10419   -10378   -10378   -10358   -10282 
  -10184   -10130   -10125   -10124   -10119   -10112   -10147   -10255 
  -10362   -10438   -10510   -10539   -10507   -10460   -10395   -10304 
  -10258   -10304   -10398   -10492   -10600   -10748   -10908   -11006 
  -11028   -11021   -10980   -10916   -10868   -10781   -10609   -10447 
  -10333   -10192   -10055   -10027   -10065   -10086   -10144   -10285 
  -10404   -10437   -10457   -10522   -10616   -10721   -10825   -10834 
  -10672   -10460   -10353   -10321   -10320   -10338   -10281   -10165 
  -10136   -10174   -10205   -10281   -10395   -10446   -10451   -10487 
  -10520   -10498   -10459   -10434   -10383   -10275   -10197   -10251 
  -10370   -10445   -10467   -10404   -10235   -10071    -9980    -9882 
   -9799    -9843    -9948   -10010   -10066   -10131   -10194   -10292 
  -10412   -10488   -10483   -10432   -10399   -10357   -10258   -10178 
  -10187   -10274   -10429   -10575   -10657   -10732   -10784   -10770 
  -10750   -10731   -10676   -10635   -10653   -10679   -10652   -10555 
  -10454   -10406   -10373   -10349   -10405   -10525   -10615   -10644 
  -10628   -10565   -10474   -10414   -10428   -10502   -10589   -10660 
  -10715   -10746   -10741   -10723   -10690   -10641   -10633   -10689 
  -10743   -10721   -10616   -10523   -10528   -10597   -10672   -10737 
  -10773   -10795   -10840   -10855   -10810   -10756   -10716   -10701 
  -10725   -10740   -10702   -10635   -10595   -10590   -10588   -10583 
  -10589   -10579   -10554   -10540   -10489   -10375   -10252   -10125 
  -10000    -9922    -9854    -9776    -9764    -9817    -9902   -10044 
  -10190   -10266   -10286   -10308   -10376   -10474   -10581   -10705 
  -10763   -10696   -10567   -10440   -10347   -10304   -10283   -10226 
  -10128   -10095   -10168   -10210   -10138   -10056   -10070   -10186 
  -10415   -10740   -10997   -11037   -10957   -10930   -11013   -11218 
  -11466   -11561   -11431   -11170   -10925   -10796   -10752   -10711 
  -10611   -10427   -10273   -10276   -10382   -10477   -10524   -10519 
  -10459   -10383   -10337   -10348   -10419   -10541   -10670   -10728 
  -10723   -10721   -10723   -10756   -10855   -10945   -10980   -11034 
  -11123   -11080   -10810   -10483   -10246   -10110   -10125   -10259 
  -10351   -10325   -10214   -10103   -10114   -10255   -10396   -10500 
  -10615   -10700   -10730   -10719   -10580   -10337   -10210   -10269 
  -10432   -10638   -10771   -10674   -10369   -10065    -9898    -9854 
   -9883    -9887    -9786    -9667    -9635    -9659    -9708    -9826 
   -9988   -10121   -10234   -10308   -10287   -10228   -10217   -10190 
  -10066    -9939    -9865    -9781    -9778    -9937   -10061   -10043 
  -10036   -10081   -10120   -10164   -10204   -10217   -10231   -10278 
  -10350   -10427   -10517   -10571   -10517   -10431   -10374   -10312 
  -10280   -10273   -10176    -9999    -9827    -9688    -9616    -9636 
   -9743    -9908   -10080   -10205   -10220   -10147   -10089   -10045 
   -9991    -9984    -9970    -9898    -9840    -9803    -9734    -9644 
   -9596    -9607    -9651    -9728    -9843    -9974   -10058   -10019 
   -9918    -9914   -10008   -10094   -10241   -10465   -10551   -10465 
  -10384   -10359   -10411   -10559   -10690   -10759   -10803   -10795 
  -10744   -10670   -10543   -10416   -10395   -10506   -10666   -10800 
  -10921   -10981   -10921   -10866   -10911   -10978   -11030   -11115 
  -11199   -11189   -11092   -10965   -10821   -10706   -10687   -10734 
  -10796   -10886   -10950   -10931   -10878   -10831   -10783   -10725 
  -10656   -10641   -10664   -10633   -10631   -10736   -10842   -10914 
  -11011   -11126   -11266   -11455   -11623   -11683   -11655   -11598 
  -11536   -11483   -11484   -11584   -11720   -11766   -11723   -11683 
  -11681   -11719   -11789   -11842   -11839   -11770   -11623   -11442 
  -11373   -11481   -11612   -11629   -11589   -11559   -11565   -11658 
  -11784   -11843   -11857   -11854   -11836   -11844   -11815   -11669 
  -11477   -11312   -11173   -11096   -11122   -11225   -11352   -11415 
  -11336   -11195   -11153   -11227   -11371   -11575   -11733   -11756 
  -11724   -11717   -11733   -11730   -11720   -11764   -11802   -11802 
  -11834   -11822   -11728   -11679   -11689   -11707   -11778   -11837 
  -11783   -11741   -11805   -11821   -11715   -11599   -11500   -11398 
  -11375   -11409   -11339   -11169   -11038   -10984   -10997   -11053 
  -11091   -11115   -11150   -11145   -11133   -11218   -11363   -11430 
  -11428   -11456   -11494   -11527   -11618   -11696   -11668   -11571 
  -11427   -11253   -11113   -11026   -10987   -10992   -10984   -10936 
  -10962   -11150   -11366   -11447   -11427   -11387   -11334   -11293 
  -11258   -11135   -10961   -10877   -10877   -10897   -10949   -11027 
  -11044   -11000   -10982   -10939   -10812   -10686   -10603   -10530 
  -10470   -10434   -10418   -10443   -10514   -10553   -10552   -10609 
  -10702   -10762   -10781   -10667   -10385   -10102    -9915    -9795 
   -9761    -9812    -9896   -10006   -10108   -10109   -10033    -9967 
   -9923    -9898    -9875    -9789    -9631    -9488    -9431    -9424 
   -9396    -9370    -9381    -9377    -9350    -9329    -9286    -9229 
   -9206    -9199    -9185    -9158    -9128    -9136    -9193    -9248 
   -9275    -9277    -9274    -9298    -9331    -9341    -9331    -9300 
   -9264    -9261    -9326    -9480    -9635    -9692    -9705    -9719 
   -9660    -9532    -9414    -9315    -9258    -9256    -9240    -9206 
   -9249    -9368    -9474    -9596    -9755    -9819    -9792    -9778 
   -9715    -9588    -9506    -9483    -9480    -9497    -9489    -9458 
   -9498    -9634    -9772    -9825    -9804    -9777    -9796    -9884 
  -10042   -10199   -10237   -10175   -10161   -10193   -10195   -10229 
  -10250   -10158   -10054   -10014   -10020   -10094   -10159   -10201 
  -10320   -10436   -10470   -10508   -10512   -10413   -10301   -10217 
  -10127   -10077   -10091   -10105   -10095   -10097   -10117   -10144 
  -10171   -10162   -10094   -10039   -10057   -10093   -10082   -10032 
   -9995   -10037   -10138   -10201   -10268   -10415   -10553   -10593 
  -10610   -10635   -10606   -10568   -10611   -10679   -10715   -10773 
  -10832   -10852   -10895   -10957   -10983   -10999   -11012   -11005 
  -10979   -10923   -10826   -10705   -10588   -10489   -10451   -10510 
  -10599   -10679   -10816   -11000   -11131   -11219   -11332   -11394 
  -11329   -11242   -11165   -11005   -10790   -10619   -10519   -10475 
  -10516   -10647   -10796   -10940   -11126   -11335   -11467   -11481 
  -11436   -11402   -11422   -11516   -11645   -11690   -11578   -11444 
  -11462   -11580   -11661   -11680   -11655   -11635   -11715   -11873 
  -11977   -12007   -12012   -11967   -11874   -11809   -11772   -11702 
  -11598   -11531   -11555   -11661   -11812   -11920   -11873   -11715 
  -11580   -11471   -11380   -11374   -11401   -11371   -11355   -11400 
  -11446   -11519   -11645   -11711   -11631   -11441   -11206   -10995 
  -10894   -10910   -10988   -11122   -11276   -11330   -11255   -11106 
  -10938   -10848   -10864   -10866   -10825   -10816   -10795   -10743 
  -10762   -10832   -10866   -10908   -11052   -11270   -11428   -11483 
  -11474   -11424   -11420   -11534   -11667   -11731   -11744   -11687 
  -11549   -11416   -11334   -11333   -11512   -11843   -12126   -12298 
  -12413   -12447   -12418   -12387   -12256   -11977   -11718   -11617 
  -11652   -11791   -12011   -12211   -12339   -12451   -12571   -12672 
  -12718   -12672   -12556   -12450   -12375   -12293   -12230   -12222 
  -12261   -12377   -12608   -12868   -13030   -13101   -13166   -13266 
  -13365   -13343   -13149   -12879   -12635   -12487   -12508   -12666 
  -12798   -12827   -12827   -12830   -12843   -12916   -13037   -13152 
  -13245   -13333   -13485   -13741   -14021   -14161   -14056   -13832 
  -13644   -13457   -13266   -13086   -12798   -12464   -12311   -12317 
  -12386   -12552   -12780   -12962   -13059   -13104   -13192   -13346 
  -13444   -13361   -13081   -12698   -12336   -12120   -12149   -12362 
  -12573   -12729   -12865   -12942   -12966   -13019   -13093   -13153 
  -13181   -13068   -12749   -12328   -11886   -11439   -11052   -10815 
  -10775   -10949   -11318   -11769   -12177   -12438   -12473   -12375 
  -12228   -11947   -11606   -11386   -11196   -10912   -10635   -10499 
  -10572   -10815   -11090   -11325   -11500   -11593   -11685   -11820 
  -11801   -11511   -11107   -10746   -10510   -10455   -10540   -10714 
  -10950   -11161   -11320   -11476   -11534   -11392   -11176   -11025 
  -10882   -10710   -10559   -10454   -10431   -10526   -10653   -10752 
  -10939   -11219   -11382   -11350   -11246   -11116   -10936   -10742 
  -10567   -10416   -10357   -10463   -10709   -10970   -11146   -11271 
  -11389   -11450   -11428   -11335   -11174   -11022   -10991   -11064 
  -11060   -10910   -10757   -10684   -10651   -10678   -10782   -10927 
  -11151   -11448   -11620   -11535   -11351   -11212   -11104   -11133 
  -11327   -11446   -11440   -11483   -11583   -11608   -11565   -11555 
  -11565   -11614   -11846   -12225   -12512   -12513   -12198   -11768 
  -11470   -11375   -11474   -11688   -11778   -11676   -11603   -11636 
  -11622   -11483   -11221   -10884   -10671   -10750   -10985   -11142 
  -11176   -11156   -11167   -11222   -11215   -11146   -11084   -10934 
  -10693   -10558   -10552   -10589   -10721   -10941   -11183   -11534 
  -11992   -12293   -12244   -11934   -11515   -11052   -10645   -10394 
  -10308   -10420   -10742   -11142   -11514   -11827   -12024   -12116 
  -12167   -12158   -12044   -11752   -11277   -10771   -10310    -9939 
   -9826    -9989   -10232   -10473   -10737   -11020   -11271   -11360 
  -11208   -10925   -10660   -10421   -10153    -9921    -9822    -9900 
  -10180   -10640   -11190   -11668   -11914   -11883   -11568   -11013 
  -10432   -10034    -9841    -9787    -9858   -10099   -10504   -11003 
  -11521   -11947   -12205   -12344   -12365   -12156   -11741   -11267 
  -10790   -10319    -9949    -9782    -9823   -10020   -10325   -10673 
  -10981   -11216   -11390   -11536   -11660   -11703   -11588   -11313 
  -10975   -10636   -10321   -10194   -10356   -10630   -10869   -11069 
  -11224   -11324   -11286   -11102   -10974   -10952   -10849   -10603 
  -10311   -10027    -9861   -10002   -10359   -10632   -10762   -10867 
  -10935   -10918   -10850   -10743   -10558   -10378   -10344   -10402 
  -10397   -10334   -10230   -10031    -9809    -9700    -9728    -9859 
  -10044   -10227   -10395   -10586   -10780   -10864   -10739   -10417 
  -10049    -9856    -9877    -9882    -9693    -9369    -9117    -9087 
   -9165    -9161    -9092    -9046    -9076    -9272    -9592    -9819 
   -9926   -10058   -10179   -10168   -10066    -9959    -9845    -9716 
   -9596    -9403    -9096    -8898    -8890    -8775    -8480    -8294 
   -8385    -8741    -9249    -9637    -9744    -9717    -9763    -9904 
   -9998    -9963    -9880    -9796    -9676    -9580    -9610    -9786 
  -10052   -10280   -10342   -10234   -10104   -10147   -10386   -10575 
  -10425    -9891    -9242    -8809    -8698    -8845    -9156    -9525 
   -9868   -10145   -10337   -10473   -10598   -10741   -10891   -10922 
  -10687   -10252    -9846    -9618    -9571    -9611    -9585    -9471 
   -9437    -9552    -9679    -9775    -9942   -10149   -10377   -10710 
  -11108   -11426   -11529   -11359   -11038   -10740   -10521   -10375 
  -10285   -10228   -10242   -10348   -10431   -10410   -10396   -10500 
  -10693   -10913   -11125   -11266   -11278   -11190   -11083   -10963 
  -10780   -10526   -10225    -9969    -9893    -9957   -10031   -10168 
  -10446   -10764   -11036   -11316   -11573   -11695   -11740   -11768 
  -11647   -11389   -11155   -10920   -10593   -10231    -9935    -9785 
   -9846   -10087   -10415   -10763   -11048   -11200   -11267   -11312 
  -11315   -11219   -11015   -10802   -10648   -10465   -10235   -10028 
   -9859    -9801    -9862    -9930   -10023   -10191   -10343   -10408 
  -10432   -10525   -10759   -11042   -11191   -11174   -11131   -11142 
  -11186   -11206   -11085   -10798   -10474   -10201   -10015   -10017 
  -10201   -10443   -10702   -10972   -11150   -11193   -11193   -11157 
  -11017   -10881   -10887   -10982   -11101   -11269   -11417   -11435 
  -11338   -11185   -11018   -10879   -10767   -10633   -10490   -10438 
  -10503   -10650   -10906   -11228   -11479   -11626   -11677   -11572 
  -11349   -11135   -10968   -10847   -10793   -10774   -10765   -10844 
  -10989   -11046   -11032   -11070   -11149   -11226   -11265   -11195 
  -11039   -10964   -11082   -11311   -11517   -11667   -11735   -11659 
  -11444   -11152   -10836   -10537   -10275   -10087   -10027   -10092 
  -10240   -10398   -10518   -10608   -10649   -10618   -10609   -10664 
  -10649   -10487   -10294   -10195   -10213   -10322   -10469   -10575 
  -10615   -10659   -10729   -10740   -10669   -10611   -10597   -10552 
  -10503   -10541   -10615   -10670   -10767   -10867   -10896   -10901 
  -10902   -10843   -10763   -10727   -10719   -10740   -10785   -10761 
  -10668   -10604   -10580   -10553   -10484   -10349   -10227   -10220 
  -10316   -10452   -10573   -10617   -10566   -10470   -10389   -10319 
  -10241   -10188   -10188   -10247   -10343   -10431   -10510   -10623 
  -10747   -10796   -10728   -10588   -10432   -10289   -10214   -10244 
  -10354   -10536   -10771   -10979   -11159   -11373   -11568   -11635 
  -11562   -11430   -11305   -11215   -11183   -11212   -11272   -11370 
  -11500   -11620   -11693   -11714   -11732   -11816   -11945   -12006 
