Origin Time       2011/03/11 14:46:00
Lat.              38.103
Long.             142.860
Depth. (km)       24
Mag.              9.0
Station Code      ISK003
Station Lat.      37.3924
Station Long.     136.9078
Station Height(m) 12
Record Time       2011/03/11 14:48:40
Sampling Freq(Hz) 100Hz
Duration Time(s)  217
Dir.              U-D
Scale Factor      3920(gal)/6182761
Max. Acc. (gal)   3.342
Last Correction   2011/03/11 14:48:25
Memo.             
[...]
    -795     -816     -823     -825     -828     -799     -757     -723 
    -667     -588     -500     -404     -317     -247     -169      -76 
      18      122      240      360      499      675      860     1037 
    1199     1322     1433     1554     1630     1648     1647     1614 
    1544     1463     1364     1239     1082      893      718      558 
     383      197        0     -217     -424     -597     -760     -929 
   -1082    -1222    -1369    -1518    -1668    -1813    -1933    -2045 
   -2157    -2237    -2297    -2376    -2439    -2464    -2488    -2509 
   -2485    -2418    -2350    -2282    -2204    -2137    -2080    -2013 
   -1947    -1888    -1827    -1759    -1670    -1548    -1426    -1337 
   -1252    -1152    -1062     -976     -879     -803     -749     -672 
    -571     -471     -360     -222      -96        4      108      206 
     284      362      415      415      395      382      353      310 
     274      249      216      153       65      -10      -45      -71 
    -125     -205     -296     -405     -536     -661     -765     -867 
    -986    -1103    -1188    -1248    -1293    -1300    -1276    -1264 
   -1278    -1292    -1283    -1285    -1324    -1360    -1374    -1384 
   -1391    -1400    -1412    -1410    -1382    -1340    -1319    -1324 
   -1322    -1295    -1242    -1182    -1131    -1099    -1091    -1093 
   -1084    -1084    -1110    -1133    -1165    -1250    -1348    -1393 
   -1420    -1443    -1424    -1409    -1423    -1404    -1346    -1277 
   -1184    -1080     -996     -916     -805     -688     -592     -479 
    -363     -301     -245     -145      -46       22       80      137 
     163      137       72        5      -64     -155     -255     -314 
    -323     -340     -379     -376     -325     -275     -232     -178 
     -96        0       80      147      202      223      200      139 
      79       41        1      -53      -98     -124     -143     -157 
    -137      -61       32      106      183      292      412      519 
     609      690      760      812      845      857      863      884 
     908      920      918      913      910      911      931      984 
    1063     1141     1208     1289     1387     1479     1570     1660 
    1713     1722     1708     1692     1703     1730     1736     1735 
    1767     1829     1908     2020     2150     2271     2373     2478 
    2602     2723     2829     2933     3052     3172     3256     3332 
    3418     3485     3548     3627     3702     3776     3876     3963 
    3994     3995     4001     4007     3992     3955     3902     3845 
    3812     3792     3754     3685     3559     3391     3263     3188 
    3088     2956     2835     2736     2675     2653     2622     2578 
    2564     2553     2502     2437     2384     2331     2289     2257 
    2216     2140     2036     1940     1832     1672     1526     1421 
    1301     1169     1052      926      819      749      695      668 
     662      660      650      592      513      498      523      532 
     538      532      521      557      629      665      666      669 
     680      704      742      751      706      644      600      571 
     547      531      521      518      500      445      378      319 
     241      145       54      -31      -90      -71       22      119 
     186      252      343      446      527      564      589      642 
     708      765      796      774      734      719      683      616 
     571      532      459      382      316      223       89      -49 
    -150     -186     -171     -156     -160     -198     -289     -415 
    -561     -718     -860     -994    -1109    -1168    -1223    -1316 
   -1406    -1484    -1539    -1552    -1567    -1630    -1753    -1902 
   -2010    -2043    -2022    -1991    -1945    -1822    -1624    -1452 
   -1328    -1194    -1039     -875     -700     -522     -363     -239 
    -133      -30       69      173      261      295      303      332 
     371      386      363      312      221      126      105      118 
      88       42       13        0       14       55      104      132 
     121       78       35       55      163      308      458      578 
     641      691      722      693      661      693      765      844 
     942     1055     1158     1236     1272     1248     1210     1207 
    1205     1199     1221     1228     1182     1115     1033      934 
     836      750      706      704      727      797      899      977 
    1048     1136     1215     1298     1381     1445     1552     1697 
    1784     1845     1927     1986     2001     1959     1850     1746 
    1701     1683     1644     1598     1573     1545     1519     1541 
    1571     1555     1526     1532     1567     1611     1647     1669 
    1685     1722     1805     1890     1946     1971     1958     1958 
    2010     2038     2020     2006     1986     1940     1897     1885 
    1885     1862     1823     1804     1801     1810     1847     1901 
    1950     1994     2058     2172     2320     2495     2694     2862 
    2999     3148     3319     3512     3718     3927     4126     4257 
    4297     4299     4292     4277     4256     4231     4218     4222 
    4208     4162     4102     4033     3943     3838     3758     3712 
    3676     3632     3588     3549     3503     3470     3486     3501 
    3482     3473     3459     3430     3427     3430     3427     3484 
    3581     3637     3667     3681     3643     3591     3573     3564 
    3554     3543     3521     3500     3496     3491     3468     3443 
    3417     3379     3356     3373     3387     3381     3375     3345 
    3279     3204     3122     3042     2980     2919     2864     2837 
    2821     2811     2854     2943     3034     3126     3203     3258 
    3333     3421     3496     3579     3668     3723     3738     3748 
    3781     3817     3816     3800     3802     3817     3831     3824 
    3786     3731     3682     3646     3626     3622     3630     3646 
    3657     3656     3629     3552     3457     3386     3285     3137 
    3017     2924     2814     2686     2556     2430     2288     2155 
    2078     1986     1851     1777     1751     1696     1640     1594 
    1542     1513     1513     1533     1577     1652     1765     1887 
    2008     2164     2324     2457     2606     2776     2933     3078 
    3224     3358     3457     3522     3572     3616     3668     3726 
    3768     3786     3798     3815     3823     3805     3785     3784 
    3775     3733     3681     3643     3610     3575     3537     3482 
    3444     3443     3428     3400     3403     3434     3485     3547 
    3575     3576     3593     3605     3580     3554     3540     3529 
    3540     3581     3644     3721     3808     3911     4014     4084 
    4136     4173     4160     4129     4112     4058     3965     3899 
    3838     3769     3741     3732     3691     3643     3613     3600 
    3593     3593     3608     3601     3545     3483     3431     3349 
    3253     3175     3090     2982     2880     2794     2700     2595 
    2518     2458     2380     2308     2248     2167     2086     2020 
    1918     1786     1670     1567     1491     1458     1426     1367 
    1290     1224     1195     1188     1205     1271     1366     1450 
    1532     1632     1742     1844     1940     2052     2170     2267 
    2342     2417     2496     2547     2561     2564     2568     2586 
    2640     2709     2761     2817     2900     2982     3044     3111 
    3177     3217     3257     3317     3365     3388     3406     3432 
    3431     3372     3312     3292     3249     3170     3110     3068 
    3031     3019     3015     3005     3010     3010     2978     2937 
    2906     2869     2808     2757     2750     2760     2766     2795 
    2838     2857     2863     2892     2938     2965     2980     3006 
    3051     3129     3231     3325     3426     3542     3648     3740 
    3831     3922     4009     4108     4223     4329     4428     4532 
    4635     4745     4842     4887     4913     4966     5026     5072 
    5122     5167     5202     5254     5312     5342     5355     5379 
    5389     5372     5369     5378     5356     5325     5292     5225 
    5156     5101     5012     4893     4772     4641     4502     4369 
    4233     4103     3994     3885     3779     3705     3644     3577 
    3533     3515     3487     3427     3365     3314     3246     3180 
    3149     3108     3046     2997     2942     2878     2833     2791 
    2759     2745     2725     2703     2699     2700     2694     2681 
    2659     2623     2590     2560     2493     2399     2342     2290 
    2204     2147     2125     2088     2063     2061     2043     2007 
    1958     1891     1833     1794     1753     1706     1683     1679 
    1660     1641     1664     1702     1729     1756     1753     1700 
    1657     1659     1654     1633     1636     1652     1671     1725 
    1790     1830     1872     1927     1977     2027     2063     2065 
    2059     2069     2057     2001     1934     1874     1803     1706 
    1618     1560     1500     1427     1355     1279     1197     1112 
    1023      926      813      702      613      533      462      417 
     379      348      332      308      270      227      173       99 
      20      -56     -136     -217     -303     -405     -520     -667 
    -844     -993    -1122    -1273    -1395    -1459    -1516    -1561 
   -1565    -1563    -1573    -1568    -1543    -1519    -1512    -1509 
   -1476    -1434    -1414    -1386    -1353    -1325    -1280    -1232 
   -1203    -1186    -1165    -1147    -1140    -1123    -1101    -1085 
   -1059    -1025     -989     -960     -935     -899     -870     -861 
    -860     -858     -835     -799     -758     -704     -655     -606 
    -527     -414     -283     -147      -12      109      228      334 
     412      485      548      596      639      669      683      677 
     653      639      625      599      580      573      595      643 
     672      688      713      720      718      742      768      782 
     819      893      986     1086     1202     1333     1446     1538 
    1636     1726     1792     1839     1877     1913     1948     1969 
    1984     2010     2045     2085     2116     2117     2110     2111 
    2086     2027     1960     1888     1802     1709     1635     1574 
    1497     1422     1361     1286     1224     1187     1139     1096 
    1067     1042     1040     1063     1088     1117     1157     1213 
    1277     1322     1349     1363     1353     1339     1335     1306 
    1250     1192     1139     1089     1036      958      887      869 
     854      802      772      777      771      772      812      851 
     877      923      974     1006     1021     1018      997      973 
     957      943      926      907      869      818      775      725 
     664      600      547      522      527      545      565      583 
     600      624      671      747      833      907      977     1069 
    1179     1285     1390     1519     1649     1761     1881     1994 
    2068     2137     2226     2317     2405     2488     2556     2616 
    2690     2766     2804     2825     2852     2857     2837     2806 
    2751     2664     2560     2450     2328     2195     2055     1918 
    1804     1721     1646     1569     1513     1471     1428     1405 
    1380     1323     1252     1179     1114     1051      969      897 
     845      796      779      798      815      830      850      864 
     885      919      925      901      883      879      874      844 
     779      709      640      536      420      319      194       62 
     -39     -129     -213     -285     -364     -442     -500     -546 
    -578     -584     -574     -584     -638     -727     -838     -965 
   -1097    -1235    -1375    -1499    -1598    -1678    -1749    -1817 
   -1883    -1952    -2041    -2138    -2208    -2266    -2345    -2423 
   -2482    -2543    -2616    -2692    -2750    -2793    -2835    -2883 
   -2933    -2978    -3019    -3052    -3063    -3057    -3048    -3020 
   -2970    -2916    -2854    -2784    -2721    -2678    -2656    -2647 
   -2651    -2669    -2703    -2749    -2788    -2817    -2843    -2866 
   -2894    -2918    -2937    -2961    -2969    -2938    -2901    -2872 
   -2840    -2820    -2797    -2750    -2701    -2658    -2630    -2626 
   -2618    -2607    -2614    -2615    -2614    -2626    -2622    -2610 
   -2607    -2593    -2578    -2562    -2520    -2468    -2425    -2382 
   -2338    -2291    -2246    -2218    -2202    -2190    -2191    -2188 
   -2170    -2153    -2143    -2144    -2177    -2234    -2283    -2314 
   -2306    -2245    -2156    -2060    -1955    -1841    -1726    -1615 
   -1491    -1364    -1268    -1183    -1111    -1119    -1182    -1221 
   -1246    -1296    -1374    -1460    -1535    -1598    -1632    -1626 
   -1612    -1614    -1623    -1647    -1699    -1768    -1875    -2028 
   -2161    -2254    -2350    -2405    -2359    -2292    -2295    -2313 
   -2299    -2317    -2377    -2426    -2462    -2485    -2476    -2466 
   -2489    -2545    -2639    -2753    -2797    -2717    -2630    -2690 
   -2850    -2982    -3080    -3131    -3077    -2983    -2968    -3021 
   -3075    -3118    -3174    -3266    -3378    -3456    -3526    -3664 
   -3830    -3914    -3912    -3949    -4101    -4296    -4455    -4580 
   -4659    -4663    -4575    -4420    -4277    -4156    -4028    -3931 
   -3866    -3768    -3656    -3610    -3626    -3649    -3632    -3546 
   -3401    -3240    -3053    -2815    -2570    -2379    -2203    -2001 
   -1871    -1887    -1945    -1944    -1870    -1666    -1350    -1096 
    -951     -812     -718     -744     -750     -630     -486     -373 
    -282     -202      -67       90      184      279      317      113 
    -221     -400     -378     -263     -159     -196     -399     -638 
    -791     -783     -607     -430     -383     -405     -441     -504 
    -598     -714     -830     -966    -1189    -1450    -1613    -1647 
   -1625    -1570    -1431    -1218    -1019     -892     -883    -1030 
   -1224    -1295    -1257    -1261    -1340    -1386    -1345    -1285 
   -1274    -1344    -1493    -1694    -1916    -2079    -2135    -2123 
   -2077    -2041    -2060    -2131    -2262    -2417    -2496    -2477 
   -2418    -2335    -2223    -2118    -2064    -2039    -2036    -2122 
   -2294    -2459    -2543    -2504    -2391    -2370    -2504    -2666 
   -2736    -2714    -2659    -2600    -2525    -2464    -2452    -2426 
   -2340    -2278    -2333    -2493    -2668    -2766    -2762    -2712 
   -2694    -2701    -2704    -2710    -2713    -2752    -2847    -2905 
   -2885    -2791    -2592    -2445    -2518    -2632    -2628    -2622 
   -2635    -2572    -2470    -2439    -2488    -2458    -2280    -2119 
   -2073    -2097    -2203    -2329    -2326    -2220    -2140    -2111 
   -2076    -2001    -1888    -1748    -1589    -1435    -1315    -1207 
   -1081     -989     -986    -1009     -978     -907     -883     -947 
   -1020    -1070    -1153    -1227    -1224    -1220    -1317    -1466 
   -1530    -1507    -1505    -1530    -1499    -1430    -1367    -1279 
   -1171    -1094    -1078    -1080    -1026     -934     -815     -658 
    -555     -541     -545     -521     -409     -230     -123      -93 
     -44       28       93      129      131      139      131       73 
      18      -25      -51        0       69       66       41        8 
     -49      -75     -125     -293     -454     -501     -530     -582 
    -623     -726     -919    -1062    -1110    -1177    -1291    -1398 
   -1483    -1518    -1469    -1410    -1461    -1626    -1817    -1967 
   -2059    -2092    -2061    -1995    -1988    -2053    -2099    -2133 
   -2197    -2237    -2284    -2412    -2499    -2474    -2454    -2436 
   -2344    -2266    -2237    -2149    -2017    -1945    -1900    -1798 
   -1669    -1553    -1399    -1199    -1030     -915     -799     -658 
    -522     -426     -411     -464     -492     -467     -415     -317 
    -207     -126      -52      -15      -25       -5       75      162 
     204      230      279      311      328      368      359      259 
     187      209      229      225      245      253      237      251 
     302      364      409      418      414      423      467      541 
     566      534      531      567      598      652      742      770 
     717      693      716      741      759      755      709      622 
     532      492      465      382      283      238      201      117 
      39       -8      -88     -204     -286     -323     -348     -353 
    -309     -261     -293     -354     -378     -439     -551     -626 
    -678     -744     -790     -824     -858     -846     -803     -776 
    -743     -684     -613     -493     -303     -128      -31        9 
      43      125      210      236      251      284      337      432 
     504      506      514      529      466      342      245      187 
     119       50       14      -14      -47      -49      -16        8 
     -23     -108     -219     -332     -428     -500     -552     -583 
    -611     -650     -648     -575     -494     -488     -549     -585 
    -572     -545     -463     -310     -184      -96       37      180 
     245      268      302      316      327      408      524      609 
     692      795      890      965      992      935      848      815 
     829      826      780      705      619      554      532      530 
     510      493      505      505      474      428      378      336 
     293      234      189      181      203      271      400      570 
     749      894      990     1072     1154     1217     1291     1396 
    1480     1530     1597     1662     1693     1753     1868     1965 
    2033     2121     2197     2210     2190     2170     2156     2170 
    2233     2309     2338     2323     2330     2371     2419     2478 
    2548     2621     2696     2733     2711     2691     2702     2702 
    2704     2729     2732     2707     2687     2651     2570     2478 
    2421     2380     2275     2118     2034     2035     2044     2079 
    2130     2095     1992     1950     1963     1939     1905     1891 
    1823     1707     1650     1646     1619     1575     1508     1405 
    1321     1245     1114      980      905      839      758      694 
     616      511      431      386      342      321      336      317 
     256      209      175      150      157      179      198      221 
     236      229      198      151      127      159      205      224 
     256      351      499      630      699      737      790      885 
    1032     1192     1313     1377     1407     1455     1534     1586 
    1610     1667     1753     1812     1826     1817     1806     1806 
    1814     1804     1767     1737     1727     1746     1811     1887 
    1923     1939     1959     1988     2038     2099     2160     2231 
    2325     2427     2510     2573     2638     2722     2843     2998 
    3122     3157     3151     3178     3205     3195     3173     3131 
    3049     2971     2892     2753     2608     2510     2384     2204 
    2017     1832     1643     1446     1245     1057      888      725 
