Origin Time       2011/03/11 14:46:00
Lat.              38.103
Long.             142.860
Depth. (km)       24
Mag.              9.0
Station Code      ISK008
Station Lat.      36.8937
Station Long.     136.7784
Station Height(m) 15
Record Time       2011/03/11 14:48:10
Sampling Freq(Hz) 100Hz
Duration Time(s)  300
Dir.              U-D
Scale Factor      3920(gal)/6182761
Max. Acc. (gal)   5.244
Last Correction   2011/03/11 14:47:55
Memo.             
[...]
   11921    12032    12106    12152    12180    12176    12170    12199 
   12250    12288    12297    12316    12332    12272    12157    12036 
   11920    11822    11703    11563    11499    11521    11543    11538 
   11527    11503    11457    11424    11398    11352    11329    11344 
   11325    11257    11189    11108    10974    10797    10615    10460 
   10341    10270    10225    10170    10137    10153    10156    10120 
   10084    10048     9997     9940     9894     9888     9942    10034 
   10150    10261    10324    10329    10288    10201    10063     9894 
    9735     9613     9543     9525     9546     9565     9544     9489 
    9432     9352     9209     9029     8853     8693     8551     8417 
    8304     8240     8188     8108     8009     7902     7808     7730 
    7638     7538     7461     7418     7393     7346     7243     7109 
    6984     6848     6680     6516     6387     6285     6194     6113 
    6039     5940     5823     5709     5570     5393     5226     5113 
    5038     4992     4993     5024     5068     5130     5175     5179 
    5150     5111     5100     5137     5219     5362     5556     5758 
    5968     6204     6424     6570     6654     6714     6767     6836 
    6964     7174     7428     7695     7972     8209     8403     8611 
    8779     8873     8979     9123     9287     9465     9634     9798 
    9981    10179    10344    10439    10509    10600    10694    10775 
   10870    10987    11070    11088    11101    11153    11242    11342 
   11385    11374    11379    11419    11507    11646    11766    11830 
   11854    11843    11800    11772    11803    11873    11960    12059 
   12134    12199    12313    12486    12661    12763    12822    12887 
   12941    13017    13134    13215    13241    13239    13178    13077 
   13045    13143    13305    13419    13465    13511    13611    13737 
   13832    13855    13791    13673    13546    13427    13338    13304 
   13295    13209    13024    12857    12779    12729    12650    12510 
   12322    12171    12119    12158    12203    12173    12153    12231 
   12312    12327    12317    12300    12270    12213    12102    11959 
   11851    11793    11743    11652    11501    11347    11235    11097 
   10905    10703    10522    10370    10207    10008     9812     9665 
    9585     9557     9500     9371     9223     9099     8998     8933 
    8888     8839     8810     8804     8777     8697     8587     8482 
    8378     8260     8158     8086     7983     7849     7736     7613 
    7453     7309     7192     7065     6916     6771     6635     6484 
    6354     6284     6232     6197     6206     6267     6357     6403 
    6401     6412     6431     6451     6480     6498     6523     6566 
    6600     6597     6532     6418     6292     6154     6003     5839 
    5681     5556     5454     5379     5336     5244     5087     4951 
    4816     4628     4446     4320     4244     4203     4166     4127 
    4115     4122     4116     4106     4128     4194     4284     4395 
    4536     4700     4883     5094     5321     5536     5705     5828 
    5933     6041     6184     6369     6548     6704     6877     7090 
    7283     7420     7563     7720     7836     7919     7978     7999 
    7998     8005     8009     7986     7960     7958     7966     7973 
    7985     7989     7987     8008     8036     8049     8051     8038 
    8044     8112     8172     8154     8131     8133     8087     8012 
    7939     7857     7824     7860     7885     7896     7955     8055 
    8157     8259     8356     8452     8563     8677     8767     8854 
    8971     9082     9168     9258     9361     9475     9605     9728 
    9818     9896     9972    10015    10052    10101    10094    10041 
   10021    10006     9954     9929     9966     9998    10003    10029 
   10090    10174    10273    10345    10364    10364    10358    10307 
   10197    10100    10049     9961     9797     9607     9411     9212 
    9033     8880     8741     8604     8497     8425     8332     8238 
    8177     8092     7972     7872     7782     7697     7665     7687 
    7709     7740     7814     7906     7974     7980     7913     7823 
    7728     7589     7387     7144     6952     6885     6902     6930 
    6941     6949     6977     7001     7009     7002     6955     6906 
    6922     6969     7006     7074     7180     7269     7319     7356 
    7404     7486     7594     7688     7766     7845     7910     7926 
    7873     7790     7747     7728     7680     7601     7518     7458 
    7415     7369     7300     7222     7190     7240     7353     7485 
    7591     7652     7630     7461     7170     6877     6643     6438 
    6248     6091     5980     5963     6045     6098     6069     6019 
    5950     5862     5810     5792     5792     5815     5832     5848 
    5907     5982     6050     6130     6181     6175     6149     6130 
    6123     6126     6120     6141     6204     6226     6203     6222 
    6240     6166     6063     6005     5955     5924     5969     6059 
    6174     6325     6443     6474     6487     6526     6515     6453 
    6480     6629     6797     6956     7158     7372     7540     7692 
    7850     7939     7971     8067     8207     8302     8414     8627 
    8865     9023     9094     9094     9064     9075     9115     9120 
    9128     9234     9440     9632     9727     9762     9781     9755 
    9655     9531     9444     9422     9485     9590     9666     9726 
    9806     9870     9883     9874     9868     9858     9853     9862 
    9897     9955    10021    10092    10136    10092     9990     9934 
    9952     9989    10015    10051    10117    10196    10263    10326 
   10379    10398    10380    10340    10322    10360    10421    10456 
   10464    10478    10502    10499    10447    10388    10345    10298 
   10250    10231    10261    10352    10488    10614    10723    10862 
   11012    11137    11250    11348    11430    11523    11630    11768 
   11931    12052    12158    12321    12470    12551    12666    12865 
   13060    13201    13313    13421    13520    13597    13660    13734 
   13834    13926    13943    13901    13871    13845    13794    13722 
   13593    13402    13211    13071    12976    12903    12824    12718 
   12618    12568    12547    12499    12331    12022    11706    11463 
   11246    11035    10887    10830    10807    10736    10631    10525 
   10367    10172    10024     9900     9748     9589     9470     9357 
    9159     8870     8547     8186     7829     7581     7430     7279 
    7124     7007     6890     6762     6701     6708     6671     6548 
    6420     6360     6371     6415     6432     6415     6420     6458 
    6501     6514     6463     6358     6223     6072     5932     5872 
    5933     6048     6133     6169     6170     6175     6209     6237 
    6195     6090     6019     6023     6037     6024     6023     6087 
    6187     6265     6325     6377     6403     6442     6522     6580 
    6573     6601     6767     6999     7152     7201     7210     7258 
    7426     7685     7889     8005     8146     8325     8459     8514 
    8500     8477     8515     8604     8714     8866     9075     9276 
    9410     9459     9438     9389     9342     9306     9304     9375 
    9524     9687     9792     9863     9944    10009    10019     9965 
    9846     9722     9683     9737     9819     9913    10028    10120 
   10138    10100    10034     9941     9826     9698     9578     9484 
    9434     9446     9482     9503     9522     9557     9608     9633 
    9597     9551     9532     9527     9551     9625     9738     9863 
    9993    10134    10248    10315    10362    10390    10392    10401 
   10438    10489    10533    10568    10632    10744    10853    10946 
   11046    11128    11172    11193    11152    11022    10858    10714 
   10604    10563    10602    10666    10738    10820    10837    10767 
   10668    10559    10440    10309    10201    10193    10270    10356 
   10446    10513    10534    10579    10648    10624    10501    10419 
   10447    10547    10677    10767    10798    10870    11027    11172 
   11210    11167    11155    11212    11292    11373    11444    11557 
   11773    12016    12168    12213    12216    12235    12233    12163 
   12037    11896    11809    11794    11753    11628    11478    11332 
   11193    11085    10975    10818    10658    10529    10368    10122 
    9847     9607     9371     9115     8906     8773     8663     8567 
    8492     8381     8215     8054     7957     7908     7843     7772 
    7731     7719     7732     7732     7686     7624     7551     7435 
    7314     7244     7216     7244     7385     7608     7847     8095 
    8313     8483     8651     8770     8787     8782     8831     8889 
    8911     8932     8968     8970     8911     8793     8633     8491 
    8368     8217     8036     7847     7660     7481     7333     7246 
    7203     7165     7139     7133     7145     7160     7159     7162 
    7136     7002     6869     6857     6867     6824     6791     6789 
    6798     6832     6874     6876     6872     6942     7061     7092 
    7001     6944     7012     7143     7245     7280     7276     7275 
    7314     7382     7398     7362     7370     7457     7575     7714 
    7944     8248     8494     8633     8719     8808     8907     8988 
    9079     9237     9444     9630     9721     9700     9633     9603 
    9652     9748     9815     9837     9858     9902     9961    10002 
    9947     9808     9708     9705     9768     9862     9958    10090 
   10255    10379    10486    10617    10679    10618    10559    10622 
   10800    10997    11105    11105    11071    11077    11114    11114 
   11079    11057    11068    11146    11273    11345    11343    11274 
   11103    10875    10623    10283     9904     9681     9671     9694 
    9640     9582     9593     9605     9542     9456     9378     9274 
    9193     9167     9146     9127     9120     9154     9255     9343 
    9379     9389     9351     9279     9198     9116     9098     9208 
    9440     9676     9759     9704     9567     9291     8953     8765 
    8750     8766     8771     8785     8802     8816     8758     8585 
    8369     8204     8131     8100     8080     8158     8369     8588 
    8732     8812     8866     8926     8948     8916     8913     8987 
    9128     9295     9399     9370     9231     9109     9079     9034 
    8910     8786     8745     8800     8889     8938     8920     8898 
    8938     8961     8898     8830     8830     8868     8883     8860 
    8799     8715     8614     8474     8298     8077     7793     7575 
    7540     7608     7653     7660     7651     7599     7529     7435 
    7239     7018     6902     6873     6891     6928     6957     6970 
    6978     7000     6977     6857     6726     6687     6705     6688 
    6655     6708     6857     7032     7161     7229     7319     7469 
    7581     7553     7446     7419     7433     7352     7210     7060 
    6941     6947     7007     7048     7127     7236     7378     7547 
    7620     7631     7685     7698     7693     7770     7819     7846 
    7956     8026     8047     8142     8203     8180     8192     8225 
    8266     8371     8484     8594     8761     8941     9111     9273 
    9335     9282     9188     9087     9011     8991     9008     9056 
    9180     9399     9671     9934    10182    10420    10604    10716 
   10766    10768    10755    10778    10840    10894    10921    10940 
   10956    10950    10899    10795    10664    10554    10469    10386 
   10307    10244    10216    10203    10120     9966     9863     9905 
   10046    10160    10195    10228    10339    10518    10685    10790 
   10870    11004    11166    11266    11336    11443    11578    11734 
   11887    11987    12059    12180    12406    12661    12796    12810 
   12838    12917    12962    12927    12864    12865    12941    12991 
   12994    13015    13053    13087    13082    13008    12925    12896 
   12917    12983    13044    13038    13019    13053    13092    13048 
   12869    12616    12412    12252    12057    11869    11741    11585 
   11361    11149    10984    10817    10600    10308     9964     9685 
    9585     9599     9559     9420     9280     9189     9081     8916 
    8715     8481     8243     8101     8062     8002     7887     7805 
    7765     7715     7658     7575     7413     7226     7062     6875 
    6687     6573     6476     6271     5987     5783     5696     5664 
    5653     5589     5481     5445     5530     5747     6013     6166 
    6201     6211     6239     6267     6237     6170     6166     6254 
    6361     6403     6352     6165     5854     5579     5451     5430 
    5513     5849     6542     7440     8231     8621     8474     7827 
    6842     5802     4947     4430     4422     4959     5875     6846 
    7383     7207     6516     5613     4671     3915     3660     4180 
    5579     7504     9283    10470    10831    10236     8958     7467 
    6015     4829     4252     4480     5460     6936     8450     9726 
   10808    11530    11525    10682     9189     7535     6269     5548 
    5355     5847     7188     9322    11727    13484    14056    13474 
   11854     9630     7394     5445     4424     5160     7380     9961 
   12139    13647    14325    13993    12414     9771     7112     5598 
    5582     6861     9099    11781    14391    16534    17481    16318 
   13430    10559     8670     7485     6939     7333     8583    10426 
   12530    14028    14235    13533    12520    11240     9763     8470 
    7650     7629     8649    10226    11677    12783    13412    13530 
   13158    12014    10213     8558     7610     7534     8318     9551 
   10882    12300    13414    13554    12615    11074     9535     8425 
    7874     7804     8018     8530     9638    10864    11098    10518 
   10221    10254    10062     9582     8846     8005     7511     7526 
    7908     8483     9050     9586    10005     9971     9594     9326 
    9152     8907     8680     8429     8079     7952     8347     9014 
    9647    10262    10679    10566    10010     9503     9394     9536 
    9559     9196     8627     8573     9287    10108    10351     9943 
    9299     8898     8875     8745     8167     7853     8406     9439 
   10294    10565    10711    11528    12623    12941    12109    10588 
    9302     8763     8549     8233     8307     9465    11484    13239 
   13489    12277    11002    10274     9559     8813     8589     9218 
   10548    11969    12553    11953    10990    10415     9938     9130 
    8309     8147     8803     9868    10715    10894    10746    10891 
   11107    10779    10179    10180    10825    11292    11131    10621 
   10239    10053     9681     9013     8529     8721     9445    10060 
   10211    10174    10292    10454    10410    10085     9458     8684 
    8276     8461     8758     8903     9198     9632     9786     9511 
    9006     8543     8351     8299     8068     7990     8607     9690 
   10609    11005    10870    10471    10048     9530     8887     8492 
    8606     8981     9438    10037    10553    10861    11327    11921 
   12110    11913    11817    11829    11625    11285    11131    11203 
   11343    11508    11658    11573    11441    11797    12425    12759 
   13031    13556    13969    14055    13987    13785    13534    13506 
   13714    13856    13807    13895    14257    14451    14224    13885 
   13617    13231    12683    12161    11830    11894    12509    13446 
   14229    14650    14744    14473    13874    13052    12053    11194 
   10790    10654    10639    10953    11523    12020    12394    12613 
   12429    11916    11514    11235    10740    10230    10169    10405 
   10542    10651    10796    10644    10226     9887     9472     8861 
    8498     8697     9279     9870    10200    10271    10319    10388 
   10136     9436     8663     8163     8022     8152     8375     8656 
    9219    10110    10766    10612     9913     9332     8991     8555 
    7972     7555     7530     8052     9043     9751     9529     8827 
    8380     8091     7468     6587     5986     5950     6316     6746 
    7037     7282     7632     7961     7886     7275     6605     6520 
    7040     7508     7464     7118     6775     6479     6170     5702 
    5090     4800     5147     5796     6407     7047     7737     8348 
    8655     8478     8056     7681     7356     7104     7018     7153 
    7414     7586     7617     7559     7542     7860     8563     9254 
    9692    10120    10664    10988    10828    10295     9748     9555 
    9765    10140    10531    11011    11642    12152    12193    11839 
   11511    11525    11775    11909    11897    12044    12538    13290 
   13970    14288    14306    14218    14021    13586    12883    12157 
   11847    12086    12394    12395    12418    12793    13372    13917 
   14204    14085    13701    13283    12892    12541    12352    12381 
   12549    12832    13173    13367    13313    13119    12857    12487 
   12128    12030    12207    12441    12684    13008    13254    13323 
   13327    13199    12923    12774    12846    12892    12774    12746 
   12935    13011    12803    12528    12419    12438    12274    11812 
   11300    10998    11040    11354    11643    11751    11835    11986 
   11948    11496    10819    10270    10001     9949     9985    10049 
   10193    10462    10691    10608    10142     9481     8905     8536 
    8288     8103     8055     8254     8735     9204     9251     9073 
    9022     8862     8380     7778     7241     6941     7041     7398 
    7802     8234     8634     8882     8828     8361     7749     7291 
    6911     6688     6880     7369     7920     8559     9143     9271 
    8886     8350     8039     7957     7776     7532     7545     7725 
    7894     8111     8339     8551     8788     8928     8858     8711 
    8702     8877     9076     9163     9361     9827    10164    10189 
   10166    10031     9632     9213     8952     8816     8808     8940 
    9293     9893    10425    10591    10549    10570    10642    10652 
   10544    10329    10124    10077    10124    10021     9784     9671 
    9753     9964    10219    10350    10350    10411    10523    10513 
   10289     9897     9624     9709     9950    10003     9840     9824 
   10202    10522    10343     9949     9666     9526     9537     9606 
    9643     9693     9773     9832     9793     9694     9776    10044 
   10242    10433    10665    10711    10744    11006    11196    11130 
   10973    10817    10684    10522    10316    10255    10405    10604 
   10740    10824    10960    11203    11343    11248    11077    10878 
   10631    10477    10487    10701    11096    11424    11605    11752 
   11808    11750    11638    11501    11462    11516    11504    11502 
   11659    11900    12091    12147    12133    12230    12463    12667 
   12709    12544    12313    12254    12314    12301    12252    12197 
   12165    12259    12294    12077    11862    11894    12109    12290 
   12304    12272    12340    12460    12542    12458    12106    11736 
   11701    11862    11940    12066    12312    12436    12428    12413 
