Origin Time       2011/03/11 14:46:00
Lat.              38.103
Long.             142.860
Depth. (km)       24
Mag.              9.0
Station Code      ISK003
Station Lat.      37.3924
Station Long.     136.9078
Station Height(m) 12
Record Time       2011/03/11 14:48:40
Sampling Freq(Hz) 100Hz
Duration Time(s)  217
Dir.              E-W
Scale Factor      3920(gal)/6182761
Max. Acc. (gal)   4.686
Last Correction   2011/03/11 14:48:25
Memo.             
[...]
  -55162   -55151   -55218   -55341   -55466   -55579   -55710   -55862 
  -56033   -56223   -56400   -56526   -56620   -56725   -56839   -56946 
  -57046   -57114   -57129   -57111   -57076   -57008   -56893   -56743 
  -56540   -56261   -55959   -55706   -55491   -55291   -55094   -54873 
  -54654   -54494   -54363   -54222   -54101   -53989   -53850   -53745 
  -53739   -53753   -53696   -53610   -53559   -53545   -53521   -53445 
  -53373   -53369   -53402   -53417   -53419   -53462   -53527   -53532 
  -53492   -53423   -53278   -53095   -52950   -52832   -52702   -52564 
  -52439   -52294   -52109   -51923   -51738   -51539   -51332   -51115 
  -50911   -50731   -50561   -50424   -50319   -50202   -50073   -49970 
  -49922   -49925   -49946   -49953   -49955   -49986   -50022   -50007 
  -49947   -49860   -49729   -49570   -49416   -49286   -49193   -49126 
  -49074   -49025   -48958   -48904   -48900   -48912   -48903   -48857 
  -48757   -48651   -48619   -48653   -48700   -48726   -48721   -48706 
  -48708   -48722   -48734   -48764   -48851   -48982   -49125   -49279 
  -49450   -49655   -49900   -50154   -50400   -50665   -50970   -51281 
  -51532   -51749   -51987   -52212   -52399   -52550   -52642   -52733 
  -52890   -53045   -53168   -53314   -53461   -53594   -53749   -53906 
  -54027   -54132   -54243   -54365   -54516   -54679   -54812   -54913 
  -54980   -55022   -55064   -55083   -55078   -55089   -55125   -55187 
  -55285   -55420   -55582   -55743   -55901   -56075   -56234   -56374 
  -56528   -56702   -56851   -56915   -56888   -56820   -56729   -56612 
  -56465   -56254   -55989   -55754   -55566   -55364   -55133   -54884 
  -54622   -54375   -54150   -53909   -53684   -53511   -53342   -53175 
  -53048   -52968   -52945   -52976   -53028   -53072   -53100   -53128 
  -53147   -53119   -53031   -52932   -52874   -52872   -52913   -52994 
  -53112   -53237   -53366   -53525   -53681   -53789   -53872   -53959 
  -54031   -54077   -54123   -54201   -54297   -54376   -54429   -54466 
  -54519   -54602   -54674   -54723   -54804   -54916   -55008   -55059 
  -55053   -55003   -54956   -54911   -54827   -54731   -54692   -54699 
  -54734   -54815   -54899   -54920   -54891   -54835   -54760   -54686 
  -54604   -54496   -54411   -54391   -54375   -54302   -54215   -54145 
  -54033   -53839   -53591   -53312   -53009   -52720   -52479   -52251 
  -52008   -51797   -51628   -51481   -51376   -51321   -51299   -51301 
  -51314   -51324   -51300   -51207   -51068   -50931   -50784   -50586 
  -50365   -50197   -50082   -49956   -49853   -49830   -49840   -49833 
  -49852   -49954   -50128   -50328   -50524   -50725   -50962   -51249 
  -51542   -51817   -52083   -52334   -52578   -52824   -53065   -53292 
  -53483   -53635   -53770   -53904   -54051   -54214   -54360   -54469 
  -54550   -54620   -54704   -54816   -54911   -54952   -54994   -55083 
  -55162   -55141   -55043   -55001   -55042   -55058   -55005   -54925 
  -54830   -54718   -54591   -54421   -54210   -54019   -53858   -53684 
  -53479   -53268   -53086   -52929   -52773   -52611   -52453   -52331 
  -52260   -52199   -52120   -52033   -51974   -51991   -52036   -52025 
  -52023   -52117   -52301   -52509   -52689   -52881   -53109   -53319 
  -53497   -53638   -53714   -53779   -53866   -53941   -54011   -54089 
  -54167   -54250   -54328   -54379   -54405   -54447   -54525   -54598 
  -54626   -54605   -54556   -54519   -54478   -54394   -54299   -54234 
  -54179   -54122   -54099   -54098   -54022   -53887   -53828   -53830 
  -53813   -53830   -53893   -53941   -54007   -54135   -54255   -54315 
  -54342   -54350   -54341   -54301   -54229   -54172   -54155   -54144 
  -54093   -53992   -53883   -53773   -53628   -53449   -53273   -53123 
  -52997   -52897   -52829   -52778   -52721   -52658   -52614   -52607 
  -52628   -52676   -52785   -52947   -53096   -53199   -53297   -53428 
  -53538   -53560   -53540   -53565   -53651   -53758   -53877   -54085 
  -54400   -54708   -54947   -55169   -55392   -55578   -55706   -55791 
  -55866   -55966   -56092   -56239   -56431   -56634   -56774   -56878 
  -57037   -57241   -57411   -57549   -57700   -57859   -57995   -58103 
  -58208   -58334   -58467   -58550   -58551   -58504   -58429   -58296 
  -58090   -57860   -57632   -57361   -57065   -56811   -56578   -56338 
  -56133   -55990   -55918   -55912   -55926   -55951   -55995   -56003 
  -55940   -55853   -55795   -55754   -55672   -55549   -55435   -55341 
  -55253   -55155   -55017   -54845   -54678   -54528   -54377   -54184 
  -53945   -53769   -53712   -53672   -53621   -53627   -53652   -53650 
  -53676   -53722   -53715   -53679   -53716   -53840   -53985   -54133 
  -54278   -54394   -54481   -54519   -54490   -54446   -54454   -54534 
  -54658   -54786   -54903   -55022   -55207   -55490   -55785   -55998 
  -56118   -56184   -56259   -56358   -56445   -56501   -56536   -56588 
  -56669   -56736   -56772   -56809   -56819   -56727   -56520   -56282 
  -56083   -55912   -55785   -55712   -55597   -55373   -55059   -54680 
  -54271   -53850   -53415   -53027   -52744   -52548   -52392   -52254 
  -52116   -51955   -51815   -51762   -51743   -51682   -51590   -51494 
  -51409   -51311   -51183   -51116   -51210   -51480   -51904   -52405 
  -52886   -53268   -53475   -53527   -53572   -53706   -53887   -54014 
  -54041   -54021   -54076   -54267   -54501   -54668   -54796   -54983 
  -55243   -55479   -55584   -55584   -55611   -55728   -55900   -56063 
  -56195   -56322   -56438   -56534   -56628   -56686   -56673   -56648 
  -56664   -56699   -56757   -56843   -56910   -56941   -57012   -57143 
  -57252   -57328   -57420   -57500   -57507   -57450   -57405   -57394 
  -57327   -57153   -56916   -56623   -56252   -55823   -55441   -55216 
  -55104   -54937   -54611   -54172   -53740   -53359   -52973   -52534 
  -52056   -51602   -51237   -50940   -50644   -50314   -49935   -49529 
  -49192   -49008   -48928   -48816   -48607   -48326   -48008   -47684 
  -47401   -47214   -47129   -47148   -47309   -47557   -47753   -47868 
  -47940   -47984   -48032   -48069   -48089   -48188   -48476   -48944 
  -49435   -49798   -50063   -50302   -50521   -50705   -50863   -51024 
  -51158   -51248   -51359   -51482   -51573   -51652   -51714   -51795 
  -51906   -51940   -51883   -51791   -51648   -51516   -51490   -51546 
  -51591   -51568   -51539   -51622   -51816   -52004   -52124   -52179 
  -52182   -52203   -52295   -52394   -52457   -52518   -52563   -52587 
  -52615   -52594   -52499   -52348   -52186   -52172   -52342   -52500 
  -52523   -52433   -52268   -52079   -51946   -51901   -51887   -51842 
  -51785   -51756   -51789   -51908   -52047   -52118   -52137   -52121 
  -52059   -52025   -52061   -52067   -52011   -52004   -52128   -52385 
  -52733   -53111   -53461   -53708   -53833   -53911   -53992   -54085 
  -54228   -54419   -54623   -54806   -54937   -55018   -55078   -55135 
  -55202   -55270   -55312   -55350   -55426   -55491   -55446   -55283 
  -55095   -54936   -54765   -54563   -54359   -54134   -53834   -53478 
  -53142   -52879   -52720   -52685   -52701   -52652   -52518   -52359 
  -52240   -52203   -52219   -52276   -52419   -52624   -52807   -52924 
  -52957   -52956   -52991   -53048   -53094   -53156   -53298   -53510 
  -53706   -53883   -54093   -54339   -54616   -54908   -55173   -55415 
  -55695   -56065   -56475   -56809   -57024   -57143   -57215   -57286 
  -57354   -57403   -57456   -57504   -57493   -57426   -57360   -57339 
  -57359   -57370   -57321   -57210   -57088   -57001   -56959   -56982 
  -57044   -57050   -57004   -56979   -56943   -56840   -56692   -56540 
  -56430   -56400   -56402   -56353   -56284   -56288   -56372   -56452 
  -56467   -56416   -56332   -56259   -56204   -56149   -56092   -56019 
  -55930   -55855   -55807   -55766   -55718   -55694   -55718   -55744 
  -55708   -55612   -55541   -55554   -55604   -55646   -55711   -55802 
  -55879   -55942   -56012   -56057   -56039   -55957   -55815   -55634 
  -55474   -55395   -55391   -55388   -55355   -55312   -55261   -55203 
  -55132   -55005   -54829   -54652   -54503   -54417   -54395   -54355 
  -54258   -54133   -53992   -53843   -53733   -53699   -53686   -53614 
  -53485   -53314   -53115   -52964   -52908   -52864   -52769   -52710 
  -52741   -52803   -52844   -52886   -52967   -53063   -53124   -53152 
  -53172   -53182   -53172   -53185   -53268   -53384   -53461   -53485 
  -53456   -53398   -53351   -53274   -53167   -53134   -53202   -53320 
  -53449   -53563   -53659   -53765   -53923   -54118   -54266   -54332 
  -54359   -54412   -54499   -54534   -54479   -54402   -54319   -54200 
  -54075   -53989   -53919   -53860   -53852   -53873   -53858   -53813 
  -53774   -53731   -53701   -53715   -53749   -53791   -53868   -53973 
  -54075   -54134   -54122   -54078   -54033   -53964   -53883   -53832 
  -53823   -53813   -53734   -53601   -53467   -53301   -53036   -52716 
  -52455   -52266   -52088   -51867   -51580   -51261   -50941   -50622 
  -50335   -50091   -49860   -49623   -49384   -49186   -49043   -48901 
  -48743   -48618   -48575   -48602   -48609   -48569   -48547   -48550 
  -48504   -48392   -48292   -48248   -48198   -48097   -47991   -47934 
  -47931   -47939   -47895   -47800   -47690   -47576   -47499   -47512 
  -47590   -47679   -47762   -47859   -47988   -48167   -48387   -48612 
  -48834   -49064   -49286   -49487   -49682   -49907   -50183   -50502 
  -50843   -51163   -51435   -51694   -51998   -52319   -52556   -52678 
  -52755   -52855   -52983   -53103   -53211   -53320   -53396   -53432 
  -53465   -53516   -53567   -53563   -53503   -53447   -53376   -53264 
  -53187   -53175   -53167   -53119   -53070   -53080   -53123   -53113 
  -53031   -52930   -52861   -52815   -52758   -52699   -52642   -52534 
  -52361   -52202   -52139   -52128   -52051   -51885   -51720   -51601 
  -51493   -51367   -51210   -51037   -50918   -50883   -50881   -50898 
  -50950   -50998   -51014   -51061   -51179   -51302   -51370   -51403 
  -51425   -51432   -51430   -51417   -51420   -51482   -51560   -51598 
  -51609   -51590   -51534   -51504   -51527   -51578   -51647   -51692 
  -51639   -51514   -51419   -51371   -51297   -51197   -51120   -51039 
  -50935   -50852   -50792   -50721   -50644   -50575   -50489   -50364 
  -50248   -50173   -50100   -50014   -49930   -49866   -49886   -49997 
  -50108   -50176   -50230   -50288   -50353   -50387   -50373   -50411 
  -50568   -50759   -50935   -51124   -51292   -51407   -51514   -51631 
  -51690   -51677   -51664   -51702   -51783   -51849   -51837   -51780 
  -51772   -51830   -51880   -51882   -51832   -51744   -51674   -51651 
  -51645   -51647   -51660   -51653   -51626   -51603   -51576   -51501 
  -51380   -51269   -51206   -51174   -51148   -51125   -51147   -51240 
  -51338   -51402   -51488   -51604   -51687   -51711   -51727   -51795 
  -51900   -52041   -52238   -52420   -52533   -52627   -52721   -52799 
  -52832   -52793   -52735   -52714   -52716   -52724   -52732   -52730 
  -52690   -52585   -52435   -52259   -52084   -51928   -51733   -51499 
  -51329   -51239   -51152   -51047   -50943   -50875   -50872   -50921 
  -50988   -51038   -51056   -51068   -51101   -51159   -51229   -51292 
  -51316   -51313   -51294   -51251   -51226   -51199   -51119   -51003 
  -50874   -50774   -50687   -50590   -50512   -50457   -50434   -50403 
  -50360   -50332   -50293   -50288   -50331   -50367   -50389   -50399 
  -50394   -50358   -50295   -50244   -50195   -50152   -50135   -50109 
  -50071   -50023   -49942   -49844   -49771   -49734   -49693   -49644 
  -49638   -49654   -49638   -49587   -49498   -49383   -49294   -49244 
  -49227   -49260   -49371   -49559   -49783   -50013   -50223   -50396 
  -50549   -50712   -50872   -51003   -51148   -51333   -51502   -51617 
  -51701   -51764   -51788   -51777   -51763   -51739   -51711   -51700 
  -51653   -51563   -51482   -51395   -51281   -51165   -51056   -50988 
  -50956   -50905   -50848   -50824   -50804   -50750   -50673   -50604 
  -50556   -50518   -50483   -50467   -50477   -50475   -50423   -50373 
  -50365   -50339   -50255   -50166   -50126   -50120   -50119   -50136 
  -50163   -50149   -50099   -50052   -50024   -50012   -49955   -49819 
  -49682   -49621   -49600   -49553   -49469   -49362   -49260   -49180 
  -49086   -48962   -48823   -48658   -48521   -48460   -48383   -48265 
  -48199   -48171   -48120   -48054   -47982   -47918   -47914   -47954 
  -47962   -47958   -48009   -48122   -48273   -48413   -48519   -48671 
  -48913   -49182   -49427   -49667   -49936   -50250   -50595   -50940 
  -51270   -51606   -51954   -52297   -52648   -53009   -53355   -53720 
  -54127   -54519   -54878   -55226   -55547   -55845   -56131   -56380 
  -56606   -56845   -57081   -57270   -57395   -57471   -57521   -57541 
  -57526   -57482   -57398   -57274   -57133   -56969   -56778   -56597 
  -56439   -56286   -56138   -55998   -55858   -55733   -55627   -55500 
  -55315   -55062   -54747   -54390   -54006   -53628   -53289   -52981 
  -52686   -52409   -52170   -51982   -51822   -51655   -51476   -51308 
  -51173   -51052   -50929   -50809   -50689   -50561   -50420   -50247 
  -50033   -49794   -49551   -49323   -49094   -48830   -48562   -48327 
  -48086   -47823   -47589   -47405   -47270   -47191   -47136   -47073 
  -47026   -46994   -46939   -46855   -46738   -46580   -46420   -46294 
  -46183   -46072   -45988   -45929   -45840   -45733   -45686   -45700 
  -45723   -45744   -45774   -45844   -45991   -46207   -46475   -46794 
  -47128   -47422   -47692   -47980   -48240   -48410   -48546   -48725 
  -48921   -49069   -49171   -49247   -49321   -49426   -49562   -49715 
  -49900   -50086   -50235   -50382   -50554   -50703   -50817   -50922 
  -51004   -51073   -51134   -51143   -51116   -51121   -51138   -51119 
  -51088   -51073   -51064   -51055   -51073   -51137   -51241   -51378 
  -51506   -51598   -51736   -51949   -52134   -52262   -52396   -52531 
  -52644   -52756   -52859   -52922   -52969   -53016   -53052   -53079 
  -53103   -53124   -53143   -53177   -53237   -53301   -53366   -53450 
  -53553   -53641   -53708   -53797   -53927   -54050   -54130   -54201 
  -54299   -54392   -54452   -54500   -54547   -54601   -54680   -54771 
  -54848   -54934   -55051   -55181   -55304   -55435   -55594   -55760 
  -55915   -56076   -56250   -56423   -56587   -56719   -56806   -56854 
  -56844   -56778   -56710   -56638   -56527   -56416   -56361   -56359 
  -56362   -56340   -56304   -56231   -56096   -55927   -55742   -55536 
  -55331   -55146   -54960   -54752   -54536   -54353   -54188   -53996 
  -53793   -53590   -53352   -53119   -52943   -52779   -52602   -52468 
  -52404   -52381   -52377   -52388   -52402   -52427   -52488   -52570 
  -52620   -52616   -52596   -52604   -52636   -52639   -52580   -52504 
  -52458   -52450   -52471   -52479   -52450   -52415   -52397   -52391 
  -52379   -52336   -52284   -52282   -52339   -52406   -52465   -52482 
  -52431   -52364   -52290   -52170   -52037   -51924   -51773   -51564 
  -51374   -51262   -51222   -51237   -51251   -51175   -51037   -50968 
  -50990   -50994   -50911   -50772   -50630   -50535   -50510   -50517 
  -50475   -50329   -50123   -49974   -49894   -49759   -49556   -49441 
  -49471   -49491   -49383   -49236   -49215   -49359   -49552   -49669 
  -49710   -49757   -49828   -49878   -49914   -49998   -50152   -50341 
  -50540   -50727   -50841   -50876   -50951   -51141   -51319   -51352 
  -51306   -51345   -51529   -51757   -51933   -52091   -52272   -52365 
  -52242   -52002   -51894   -52019   -52222   -52256   -52109   -52029 
  -52126   -52276   -52437   -52602   -52641   -52536   -52474   -52512 
  -52509   -52442   -52442   -52520   -52501   -52271   -51960   -51822 
  -51916   -52033   -51988   -51780   -51516   -51354   -51370   -51482 
  -51580   -51629   -51661   -51724   -51811   -51833   -51742   -51651 
  -51683   -51788   -51877   -51987   -52140   -52225   -52163   -52021 
  -51895   -51817   -51751   -51653   -51551   -51504   -51498   -51504 
  -51516   -51490   -51383   -51258   -51264   -51439   -51600   -51576 
  -51392   -51176   -51024   -50935   -50887   -50892   -50910   -50829 
  -50654   -50525   -50498   -50498   -50500   -50557   -50682   -50872 
  -51125   -51380   -51566   -51661   -51704   -51823   -52076   -52333 
  -52513   -52709   -52960   -53172   -53302   -53439   -53647   -53838 
  -53879   -53788   -53710   -53716   -53731   -53703   -53725   -53851 
  -53995   -54103   -54206   -54310   -54380   -54405   -54428   -54516 
  -54664   -54728   -54630   -54488   -54378   -54259   -54212   -54315 
  -54406   -54323   -54143   -54029   -54054   -54183   -54329   -54418 
  -54447   -54512   -54687   -54920   -55099   -55142   -55044   -54878 
  -54729   -54689   -54821   -55017   -55103   -55102   -55162   -55308 
  -55467   -55609   -55685   -55645   -55563   -55530   -55510   -55512 
  -55704   -56096   -56469   -56718   -56902   -57066   -57252   -57468 
  -57608   -57613   -57577   -57580   -57575   -57552   -57624   -57848 
  -58098   -58243   -58309   -58363   -58414   -58450   -58478   -58487 
  -58444   -58415   -58492   -58598   -58633   -58589   -58486   -58400 
  -58371   -58311   -58190   -58069   -57955   -57820   -57653   -57471 
  -57299   -57113   -56912   -56744   -56599   -56446   -56309   -56188 
  -56016   -55769   -55489   -55230   -55075   -55061   -55050   -54885 
  -54641   -54477   -54435   -54496   -54554   -54453   -54214   -54013 
  -53939   -53945   -53974   -54025   -54094   -54120   -54067   -53993 
  -53963   -53905   -53743   -53611   -53631   -53683   -53613   -53412 
  -53168   -52988   -52918   -52918   -52910   -52856   -52764   -52672 
  -52621   -52567   -52463   -52377   -52367   -52357   -52298   -52276 
  -52355   -52460   -52478   -52380   -52244   -52170   -52116   -51957 
  -51749   -51673   -51760   -51871   -51952   -52104   -52376   -52722 
  -53080   -53368   -53563   -53756   -54027   -54351   -54660   -54919 
  -55142   -55379   -55683   -56013   -56236   -56342   -56478   -56725 
  -57028   -57282   -57416   -57477   -57560   -57671   -57807   -57997 
  -58194   -58357   -58543   -58777   -58972   -59086   -59165   -59228 
  -59237   -59189   -59138   -59126   -59116   -59052   -58931   -58795 
  -58690   -58598   -58478   -58366   -58293   -58187   -58006   -57875 
  -57868   -57863   -57792   -57694   -57557   -57366   -57150   -56884 
  -56521   -56091   -55681   -55357   -55142   -54990   -54782   -54476 
  -54180   -53956   -53748   -53556   -53385   -53188   -52961   -52757 
  -52580   -52413   -52293   -52236   -52200   -52183   -52190   -52193 
  -52207   -52266   -52301   -52213   -52051   -51936   -51865   -51760 
  -51644   -51623   -51723   -51830   -51833   -51756   -51709   -51751 
  -51833   -51881   -51883   -51866   -51866   -51900   -51965   -52067 
  -52194   -52276   -52284   -52280   -52340   -52445   -52537   -52613 
  -52669   -52701   -52765   -52903   -53076   -53191   -53221   -53290 
  -53486   -53716   -53859   -53916   -53972   -54106   -54292   -54460 
  -54584   -54657   -54707   -54759   -54765   -54719   -54702   -54727 
  -54748   -54772   -54821   -54894   -54994   -55129   -55286   -55436 
