Origin Time       2011/03/11 14:46:00
Lat.              38.103
Long.             142.860
Depth. (km)       24
Mag.              9.0
Station Code      IWT017
Station Lat.      39.6339
Station Long.     141.4379
Station Height(m) 617
Record Time       2011/03/11 14:46:56
Sampling Freq(Hz) 100Hz
Duration Time(s)  300
Dir.              U-D
Scale Factor      3920(gal)/6182761
Max. Acc. (gal)   122.338
Last Correction   2011/03/11 14:46:41
Memo.             
[...]
  -52054   -13458    34328    64181    37169   -19995   -68691   -91733 
  -75742   -30604    13499    37369    30583   -11594   -51648   -49191 
  -25385    -4120     9799    -1648   -26073   -35233   -42940   -60520 
  -65572   -44328    -9343    14153     6654   -25466   -54803   -67822 
  -65283   -52203   -44745   -32755      502    26854    20757   -10964 
  -47976   -80015   -99766   -73794    -4478    53148    61551    13228 
  -52187   -78872   -72048   -54645   -29464   -22061   -41254   -42268 
  -10568    17747    27590    15958   -30847   -88282  -111212   -98299 
  -55422     8668    40841    25118    -6752   -51049   -87169   -83595 
  -51958    -8119    29448    32827     4057   -41207   -87152   -92399 
  -43293     2113     5751    -9378   -30983   -55752   -58454   -40153 
  -29860   -24386   -17619   -34561   -67131   -68235   -29073     6269 
    8508     1739     3742    -5831   -37024   -69659   -66914   -24497 
   14244    32215    25117   -25515   -75868   -77444   -61476   -38429 
   15226    63507    58152    12901   -34322   -62573   -53869   -14556 
    6240    -3716    -5073     7612    13108     7590    -9341   -41506 
  -78055   -88265   -62737   -25675     6328    17267    -7367   -47459 
  -76897   -91944   -84250   -40632    12155    23636    -2757   -24584 
  -38858   -53149   -46804   -33095   -37670   -37538   -29700   -40456 
  -55748   -51431   -32404    -7190    26860    55686    42520   -15101 
  -73306   -96451   -79804   -32363    23643    50797    38584     1205 
  -48388   -69809   -48610   -34766   -38678   -24081    -1192    -7305 
  -29511   -36490   -48560   -71543   -66106   -39113   -16912     8023 
   18555    -9166   -43829   -53214   -41105   -16076     7263    14999 
   -1013   -39572   -69324   -70941   -55407   -19401    34798    63089 
   22559   -51387   -82689   -70870   -52071   -25446    -1623      961 
   -9019   -33579   -77972  -100238   -62600    -3063    22104     4111 
  -43610   -91443   -94469   -55041   -10281    21816    19197   -15902 
  -44851   -51025   -30011     2786     3910   -30543   -59498   -60938 
  -41110    -9300     6372   -18506   -52387   -62605   -64325   -60570 
  -33436     9781    49420    59515    18686   -49909  -108967  -132448 
  -97622   -22846    44350    72021    48390    -9088   -68511   -96932 
  -75294   -37891   -13943    15701    33468     9617   -25356   -55634 
  -87267   -87134   -51465   -26483   -12928    15802    37294    28181 
    4885   -31843   -82410  -106600   -89057   -46073    16206    61199 
   56970    14964   -61965  -133723  -128493   -67900   -14558    30023 
   54989    30881    -6181   -26371   -61606   -89919   -61818   -11103 
   15437    14324    -5472   -27232   -42579   -53045   -56549   -54353 
  -45899   -35389   -34786   -33086   -12568     5837    -6506   -41061 
  -72087   -86418   -77370   -40241    -2272     6102    -2963   -26379 
  -63309   -76698   -61760   -54748   -57416   -45957   -28346   -11871 
   15238    21429   -13294   -45329   -67260   -98425  -108912   -82322 
  -39783    17636    68959    54839   -11260   -55208   -65304   -58769 
  -38062   -31438   -47379   -54523   -43413   -29050   -20339    -6683 
   18968    35936    19508   -35169   -80174   -55416     3240    22437 
    1616   -26607   -46207   -44175   -18123     4294     6269     6223 
   -1094   -40195   -80185   -70003   -29066    -4375     6224     4070 
  -33757   -88171  -114649  -106526   -68481     1365    53666    40408 
    8201    -7622   -38086   -71614   -77239   -56380    -3438    53300 
   49523    -4300   -37066   -30899   -24846   -37810   -47135   -47475 
  -57541   -62695   -46308   -20866    11030    29735    -6061   -71056 
  -89840   -50393      922    36537    44618    23675    -1463   -19346 
  -37727   -55654   -65001   -42942     4636    29282    24994     6487 
  -37127   -78195   -78445   -56331   -30908      950    19725     -212 
  -50660   -90074   -89474   -56654   -11399    15575    18629    16274 
  -19384   -79767   -90855   -55617   -22597    -2077     3869    12206 
   25790     7167   -38644   -68433   -59593   -21176    11061    27955 
   31476    -6703   -68969  -109530  -116502   -68397    15307    55441 
   28849   -24297   -64519   -78085   -70486   -50310   -29301    -5384 
   16453     3643   -39025   -57817   -34230       75    26803    25357 
  -21348   -72437  -103842  -111236   -66075     1058    37958    42139 
   18925   -18546   -47083   -58097   -60761   -66622   -67173   -48871 
  -19492    -2557   -12576   -28401   -20984    -5657    -1705    -2565 
  -18807   -46169   -55748   -51548   -38583   -10035     -208   -37402 
  -75471   -59019    -9594    12174   -13421   -62887   -98056   -86265 
  -26172    40786    60330    26616   -32180   -87723   -93581   -43278 
    1697    -4033   -43070   -59134   -34486    -7226    14835    34718 
   16967   -34335   -79832   -98968   -69762    -7814    43387    69613 
   49935   -20296   -97700  -143794  -132141   -64678     4464    27247 
    2718   -31223   -46929   -58088   -55430   -17571    24558    35592 
    8345   -37145   -50038   -31310   -17958    23471    82345    73674 
    8977   -69554  -143332  -143744   -73695   -27341   -20268    -5909 
   11908    12056    -6314   -50443   -98274  -108476   -76331   -21330 
   16771     9613   -27701   -69524   -85818   -57526    -8064    27738 
   31799    -3457   -52460   -67916   -40746     5399    37547    15452 
  -64210  -132917  -115545   -26977    54538    71956    22100   -32479 
  -27135     8024     3504   -38452   -63477   -33957    24655    39325 
   -7963   -63242   -84798   -62710   -19536    -9713   -37984   -53295 
  -49644   -52087   -40973     -592    25886    19243     4351   -21891 
  -53159   -73301   -89201   -62279    18490    65016    47817     8785 
  -39043   -70957   -59623   -26472   -10250   -12553   -25061   -56694 
  -78148   -76421   -78902   -72296   -47590   -18965       85   -14778 
  -50079   -67169   -56241   -30186   -22932   -34757   -19489     8762 
   10133      175   -10740   -20283   -14285    -8624   -19977   -27319 
   -6237    24791    19417   -23631   -73202  -117001  -127226   -81287 
   -9852    52909    87930    67367    -8033   -84853  -118163  -110581 
  -77267   -33554     5995    32706    22130   -28781   -63742   -56370 
  -47923   -36839    12686    50689    18677   -37404   -70328   -71974 
  -20110    43558    47066     8134   -39201   -80997   -87198   -60524 
  -21060    13435    11731   -10057   -18442   -25027   -30401   -32587 
  -37547   -22189     6885    18929     3284   -45878   -75811   -44447 
  -19099   -32940   -49024   -58711   -54962   -21108    27272    50354 
   35077   -10464   -80704  -135869  -128772   -60538    20230    53873 
   37172    14726    -2174   -37473   -76842   -79628   -52655   -16486 
   18315    17827   -21682   -60913   -71906   -49629   -20667    -2065 
    7965   -28402  -103003  -116207   -40329    36133    49308    10134 
  -56829  -109130   -82544    -3514    35762    38805    35642     8566 
  -13890   -16136   -32590   -52234   -49668   -31970   -12512   -15527 
  -54148   -85475   -74309   -37135    11266    42657    34769    17097 
    6091   -14274   -47935   -69247   -69721   -70234   -38914    25759 
   40180     5929   -26087   -74185  -119923  -105368   -56159   -14279 
   32806    57699    32545     2298   -16791   -43873   -71137   -75551 
  -37935    15674    48720    57595    26685   -24757   -38586   -25280 
  -28368   -49378   -63746   -57519   -54921   -55449   -28410    -3111 
   10336    32783    11949   -52435   -98282  -136752  -157436  -111817 
  -17970    68350   100280    69194     9937   -44094   -76467   -87554 
  -81027   -44090     1861     6224   -24884   -52768   -59147   -44001 
  -23094    -9583   -11590   -24628   -31283   -32509   -26532    -8511 
    1256    -5690   -17702   -28783   -36398   -35006    -4346    49323 
   59695     3776   -65654  -112570  -108152   -45493    12261    29311 
   19649   -19468   -62887   -65495   -33871     8936    44955    34819 
  -17808   -59010   -89300  -110910   -69338     9729    39491    18381 
  -21789   -70116   -92817   -66293    -6824    59664    91180    50009 
  -37999  -110277  -132180  -108202   -66268   -35215   -13660     9527 
   11635   -10138   -19868   -17591   -28415   -53559   -79885   -86499 
  -49880     9425    38668    27012    -4695   -33931   -45835   -44319 
  -36534   -37204   -42868   -32793   -20424   -20087   -29259   -37244 
  -12733    29860    30635      796   -14405   -34339   -65804   -74339 
  -67237   -57674   -24210    17219    19796     8486    25171    12895 
  -46205   -65696   -48777   -55448   -64527   -71594   -90620   -61700 
   16244    45312    15846   -22035   -66748   -96398   -87025   -53682 
   -5147    37541    42058    15758    -9433   -35415   -69974   -78396 
  -58380   -37076     1191    41148    30374   -25574   -68383   -63680 
  -58793   -72216   -39203     9114     6034    -6315   -15290   -45553 
  -68150   -64157   -36804     -639    10749    -4482   -32130   -63003 
  -61028   -29149   -16677   -13143    13388    35940    18134   -34240 
  -89161  -104702   -55426    19001    57698    50450    11015   -37114 
  -58338   -44354   -17199     1057     4724     -115   -16361   -50403 
  -81970   -91621   -90481   -61664    -1100    22825     7962    -4451 
  -44925   -79106   -43812    -3781   -20440   -61366   -82993   -74225 
  -47608   -21760   -23513   -53564   -65354   -42360   -11886    27087 
   65424    37706   -58801  -134673  -146425  -104355   -26826    30563 
   33823    16402     2363   -15827   -34499   -36063   -18383   -16095 
  -38394   -37902   -13229     3868    15278     8520   -19340   -43170 
  -44490   -18873    -1585    -1939     5631    -4271   -31729   -29531 
   -1973     7420   -20230   -49609   -46604   -34719   -31673   -21099 
    5271    34467    34788    -2341   -38397   -44914   -38505   -41900 
  -39256   -13037    12044    20710    14321   -22995   -76718  -106962 
 -103389   -74651   -47069   -49910   -69167   -79315   -76848   -51403 
  -16870   -13509   -32219   -61365  -110450  -135734  -113370   -82302 
  -55450   -33725   -34222   -45722   -41908   -29900   -34273   -53712 
  -70400   -72464   -60648   -53161   -49823   -32908   -12532     5829 
   27428    34779    22416      222   -21458   -25832   -11305    19987 
   59630    69335    34940    -8478   -39279   -72196  -100997   -88355 
  -48386   -35044   -37677   -26596   -28924   -40845   -38136   -46538 
  -57714   -50175   -49239   -60448   -57826   -20352    28245    47290 
   34576     5364     -307    37314    70766    65414    26140   -23033 
  -44144   -21458    23096    52948    44011     3567   -30647   -50096 
  -73715   -74548   -50372   -45069   -48155   -38560   -29427   -38908 
  -76154  -110676  -118348  -116619  -106124   -80471   -50623   -10632 
   33144    32535   -15455   -62414   -98212  -102429   -39407    53107 
  122448   137295    71023   -27268   -76850   -69463   -25905    36523 
   73890    59404    24044    -6578   -40542   -57693   -28471    18012 
   37757    25043    -7667   -44134   -81220  -122028  -141457  -116294 
  -54996    16733    56214    36770    -6394   -22434    -6737    18741 
   29463    16159    -7805   -41078   -75567   -82378   -65341   -55979 
  -69295   -91636   -94999   -73518   -48360   -34625   -24237     -634 
   31964    42579     5416   -64356  -135763  -192976  -195503  -117854 
  -21577    32675    47481    29121   -18117   -63076   -86481  -100389 
  -99971   -71037   -32355    -9698    -2655    -5423   -23861   -55674 
  -86135   -93875   -57114    19325    93976   122067    95290    27111 
  -50594   -88863   -93007   -90763   -73098   -45148   -19030   -11122 
  -32708   -44473   -35766   -33763   -25488    -4938    -2003   -20430 
  -24874   -17195   -23691   -13843    16944    26428    26376    21261 
   -5341   -28375   -49472   -79327   -95074  -101134   -99108   -69131 
  -11811    56887    92675    65757    12210   -40312   -91277  -118069 
 -101739   -51403    -5127       47    -9553   -10832   -43258   -93298 
 -110875  -110389   -95586   -54426   -11096    26855    53907    60340 
   57575    22737   -56025  -121186  -132492   -90281    -1299    92948 
  127739    84877    -2121   -89210  -125736   -93284   -38859    -8789 
  -10319   -32863   -57790   -70497   -67624   -58262   -58139   -66573 
  -69842   -65151   -52396   -30363    -8071     9792    18365      398 
  -35543   -43396   -10664    11777    -7243   -47689   -95343  -133116 
 -123454   -55934    21922    41878    -2588   -65412  -119632  -147498 
 -139074  -103866   -48888    14514    74681   112920   103358    63737 
   20433   -29655   -62997   -53396   -12057    40937    69712    56867 
   32859     9033    -9477    -2952      889   -17582   -19613    -4139 
  -10963   -31120   -40241   -53503   -70962   -72597   -66412   -57688 
  -41811   -25886   -14136   -32297  -106448  -191284  -215284  -164028 
  -72584    31441   120879   135127    66789   -13127   -68108   -88257 
  -60216   -22910    -5642    28727    85013   110312    76289     8417 
  -55500  -105650  -123814   -81135    -7005    50425    84297    78888 
   18476   -49747   -69620   -42848   -12329   -23695   -68763  -102563 
 -118317  -118186  -100284   -93255   -86506   -25457    60669    71555 
   -1232   -71575  -108147  -114356   -71849   -18530     6011    21315 
   29420    35154    33685   -19992   -85040   -85102   -58875   -41808 
    2913    68246    94118    41918   -61130  -158590  -219726  -219725 
 -153889   -58052    26943    66577    49854      -44   -55415   -88213 
  -83490   -67878   -67820   -71101   -64314   -55108   -39179    13342 
   89966   121890    99365    63227    17143   -20292   -28188   -50089 
  -97643  -123880  -130767  -125688   -77943   -22119   -21741   -56411 
  -80783   -87980   -75235   -48391   -32209   -29195   -28627   -44951 
  -75948   -67586     -990    62725    86024    82968    67093    51233 
   24656   -22627   -54912   -52973   -29874    -2701     1983    -1455 
   17141    24892    11580    12606     5831   -19241   -16548    -4474 
  -23396   -51138   -79091  -102954   -93780   -54532    -5606    25366 
   18879    -3150   -42660  -114297  -172636  -180339  -142871   -59451 
   44504   115112   136003   113734    58648     4968   -29481   -49173 
  -36575    -1341     5276   -16987   -36060   -55785   -73784   -65300 
  -18084    48659    78262    52456    23882     9732    -3579    11745 
   49874    59789    45989    24174   -34968  -117376  -169104  -178569 
 -163057  -146390  -129267   -80876   -24078    -2962    12040    24311 
  -16504   -82626  -115621  -110223   -72849   -19929    33479    82862 
  101849    73125     8024   -75381  -140647  -159907  -159584  -159101 
 -130773   -78797   -34328    20762    99178   154625   160807   132108 
   74108     7153   -35812   -52372   -52683   -40948   -13741    36881 
   90096   112128   103607    70087     5439   -72577  -144276  -191456 
 -178647  -118125   -62110   -19058    19787    38736    28416    -1315 
  -30468   -27704     7185    17668   -11428   -22210     3926    34083 
   45403    13465   -66963  -140043  -160479  -147246  -112248   -49259 
   15672    48641    36016    -7600   -50348   -74586   -73642   -62943 
  -74463  -103174  -104720   -54778    12092    52617    54535    10819 
  -60731  -113537  -123663   -98911   -60553   -27818   -11749   -20787 
  -46870   -63755   -63189   -57955   -49105   -38532   -33214   -19161 
   -4916   -30378   -86798  -127724  -134593  -110732   -62629    -1608 
   54076    82066    69659    17201   -59177  -104537   -71380    -1587 
   41682    52804    31443    -9097   -23515   -26380   -72701  -137766 
 -160078  -133604   -80190   -20512    23528    41773    37943    13561 
  -23357   -48129   -58175   -55753   -20851    15176     7673    -5070 
    8087    19852    15499   -21094   -94319  -150676  -160156  -143561 
 -114579   -79278   -23430    56392   117359   142599   140030   102813 
   51333    16968    -4293   -31696   -65459   -78939   -50570     1492 
   35238    26349   -17359   -66037   -87703   -72813   -31534    14033 
   34155    20863    -9067   -37589   -56467   -74804   -89078   -77520 
  -57414   -43078   -13261      923   -26732   -36342     3298    45821 
   58960    59265    47731    -9929  -100094  -155198  -150109  -116212 
  -81426   -55849   -39349   -19057    11845    43313    56977    29691 
  -32884   -73782   -49673    11882    53052    50865    14883   -52720 
 -132087  -168605  -145404   -85458   -12391    30125    29957    14131 
  -30504   -99105  -128544  -106877   -79324   -50282    -7558    24843 
   35314    32743     9514   -39303   -91844  -111028   -90941   -66491 
  -41784    -2514    11591   -26018   -70770   -93845  -108887  -105351 
  -75715   -56126   -54611   -38125    -7288    16578    40999    61062 
   50432    30141    14729   -27790   -66602   -63544   -66901   -83290 
  -72703   -61233   -65974   -55239   -32909   -23101   -32689   -57155 
  -62079   -23347    19888    29922    24810    11406   -35272   -94168 
 -110530   -74024   -16706    25781    31833    -8239   -87058  -156188 
 -170667  -144126   -86445     7925    96192   135374   123391    59756 
  -44598  -139506  -172438  -147646   -95762   -11234    87222   126127 
   87402    29602    -6478   -28682   -38394    -9416    49705   103313 
  137596   125002    46864   -48884  -117270  -159543  -155399   -84889 
   19323   114379   151064   101817    11408   -82304  -163227  -178760 
 -120758   -44511    39711   130618   164129   111533    21849   -69948 
 -138024  -137828   -68086    30059   108103   111873    36803   -54180 
 -118737  -158056  -152449   -79038    20815    69471    32291   -49795 
 -113294  -141367  -131612   -84414   -41529   -18575     8000    28647 
   39217    45442    17482   -44776   -84600   -69335   -29095    -6613 
   -2141    11558    43385    74293    79650    54269    15387   -18925 
  -42749   -51892   -50721   -66911   -97413   -87764   -35839    12063 
   48692    52646     4625   -41640   -61089   -86452  -110425   -98800 
  -56566   -15980     9477    20495    10150   -24523   -67724   -90417 
  -76710   -41290   -14300    -4712      833    -1665   -20085   -45503 
  -72950   -90828   -82356   -46379     6059    45602    50714    34575 
   15342    13750    27197    12351   -14402    -3056    15030    17805 
   29267    19902   -19537   -31330   -19021   -26326   -32146   -15937 
   -1786    12085    36776    41622     6835   -39246   -62846   -57492 
  -45828   -50612   -67970  -100506  -156440  -193415  -164537   -98297 
  -33485    28614    52565     6032   -63395  -114550  -156470  -171809 
 -129870   -46564    36137    87655   101794    83716    20818   -70263 
 -110964   -79106   -26915    36471   102413   114441    48328   -60857 
 -147276  -169676  -131308   -54692     4492    20082    29394    25287 
  -14414   -41532   -34300   -37082   -46994   -26533    10842    45083 
   56648    24322   -11458   -27273   -51983   -60478   -18827    43820 
  103412   153609   159861   100838    11355   -66077  -119363  -144825 
 -137770  -101509   -47141     4558    33004    30836     1365   -39839 
  -74951  -100540  -109375   -81658   -22177    31664    53821    43794 
    2672   -49405   -62535   -31214      604    28746    64212    73982 
