Origin Time       2011/03/11 14:46:00
Lat.              38.103
Long.             142.860
Depth. (km)       24
Mag.              9.0
Station Code      IWT010
Station Lat.      38.9334
Station Long.     141.1173
Station Height(m) 37
Record Time       2011/03/11 14:46:52
Sampling Freq(Hz) 100Hz
Duration Time(s)  300
Dir.              N-S
Scale Factor      3920(gal)/6182761
Max. Acc. (gal)   997.780
Last Correction   2011/03/11 14:46:37
Memo.             
[...]
  -88713  -112909  -122713   -70614     9138    38268    14504   -17033 
  -49611   -68880   -47631   -29268   -30387     9692    58331    44263 
   11986     9944    23133    32689     1926   -73175  -112351  -103761 
 -128760  -171656  -170189  -154269  -153796  -144746  -129941  -135893 
 -143123  -114309   -59739   -26246   -48105   -93893   -87903   -25022 
    4188   -45877   -92003   -70382   -49409   -83145  -111548   -87753 
  -64912   -97684  -136720  -114301   -75307   -69825   -46644      426 
    2259   -28297   -39107   -62554  -104616   -89845   -54168   -91729 
 -130502   -97902   -71498   -77367   -62222   -33793   -15042    -1791 
    5447     7440    -6972   -32088   -41485   -42054   -30322    -4004 
    2179    -6084    -8378   -20862   -37113   -37974   -38477   -56314 
  -83418   -95201   -89756   -97805  -101016   -59067   -22047   -30441 
  -31967   -24946   -40021   -25160    16078     7249   -20772    -8400 
    2830   -29043   -77547  -108979  -117006  -110596   -98295   -71773 
  -32591    -7273    -3327   -12114   -22357   -14895    -2862   -21027 
  -49955   -32038    26515    59689    58534    61795    42481   -12734 
  -26866    -9091   -30654   -40305      -34    24668    13211    -5779 
  -17854   -20686   -36516   -62805   -51014   -11731    -8952   -36787 
  -50510   -67436  -116172  -159979  -143676   -65733     3509      575 
  -31359   -34868   -33355   -39979   -39154   -30474     4430    60708 
   75053    39087     9537   -12547   -59837  -104072   -96866   -69096 
  -72194   -70148   -29905   -10633   -42493   -71060   -78208   -69532 
  -22639    33906    62588    73817    70123    66312    70663    42081 
   -8381   -34829   -63224   -86573   -53281   -26134   -70078  -104265 
  -91199  -109754  -158465  -183157  -207247  -220024  -164351   -87912 
  -66723   -68366   -24166    62494   131231   145953   112423    73472 
   72071    57887   -14031   -65731   -53709   -25516    12024    49793 
   24153   -43052   -55175   -28252   -36587   -61055   -70292   -66517 
  -45031   -30457   -34393   -42611   -68228   -98072  -101004  -102617 
 -128611  -140616  -109973   -64381   -32255   -27966   -39270   -17451 
   38001    65265    47221    27903    20957     2077   -31191   -67682 
 -100300  -119820  -120702  -102202   -76824   -66029   -61977   -45049 
  -35674   -50031   -62990   -63236   -46358     -561    22660   -14148 
  -40998   -31143   -32016   -32371    -6408    14530    -8140   -57580 
  -69746   -37003   -23110   -36375   -22972    21798    50666    56751 
   58958    24668   -42559   -58073   -23426   -34728   -91142  -103525 
  -68137   -58821   -84950  -100814  -104033  -117118  -140923  -172604 
 -212395  -233284  -200158  -142204  -115815  -109750   -78675   -25135 
   13485    29211    41973    53564    48701    19583    -3590    29902 
   77947    66650    48841    55085    23364    -9968    11571    23013 
  -17737   -49259   -33976   -19735   -34019   -44830   -47910   -61377 
  -72899   -80240  -112815  -167622  -192280  -170084  -144720  -131125 
 -110368   -98492  -101668   -82891   -55054   -70942  -102279   -89780 
  -59748   -50423   -28533    22077    48525    36495    37746    57325 
   42196   -22905   -61685    -3180    73344    71951    56642    87488 
   98772    57029     3474   -62803  -135500  -154888  -137515  -141875 
 -140554  -106818   -65338   -21802    27566    77375   112971   130964 
  155542   159442    80958   -56481  -165717  -201885  -199682  -203910 
 -203922  -181690  -145597   -98486   -46802   -27153   -56017   -67879 
  -21777     5396   -21864   -28611    10487    30628    -2380   -43976 
  -66041   -81148   -77608   -79377  -122621  -144338  -108389   -83065 
  -95643  -104446   -70914     3241    51586    27112   -18854   -36845 
  -46515   -62041   -80130  -108298  -131997  -154306  -210751  -261046 
 -229556  -143675   -82377   -54852   -31788   -15758    -7390    -2243 
   -5796    15648    71263    93541    59067     3867   -47584   -73604 
  -70702   -59794   -71150  -114336  -131834  -100031   -93770  -127310 
 -126014   -78929   -26559    32466    95901   126270   115613    98941 
   99110    96657    70999    48833    76899   137672   158937   142776 
  133227   113842    86159    87946   102284    85477    58265    57376 
   44879    -1814   -32702   -42044   -73592  -122693  -171966  -227548 
 -271298  -289145  -269479  -177025   -41390    65278   140767   202298 
  217856   171494   112151    63255    -3294   -54069   -51045   -38633 
  -28302     5541    25171   -20946  -124250  -248343  -366639  -434643 
 -399216  -266988  -109484   -15143   -17195   -49840   -79350  -152688 
 -243822  -285170  -259545  -167018   -55524   -13802   -70848  -143816 
 -118103   -31183   -21899   -37000    73734   239515   294218   168402 
 -100340  -292890  -229214  -108331  -188809  -298570  -186783   -20676 
   11310    -3916   -38633   -94922   -94392   -70450   -73422   -59930 
  -33608   -24573   -14650    -1877     3240     9961    -2423   -62987 
 -135164  -159946  -154264  -174375  -181897  -106380     2669    74030 
  128923   200135   268505   280143   210993   151147   190444   217226 
   97429   -49830   -64740   -11069    -6080   -63940  -139494  -160769 
 -124855   -84634   -32750    42049   115115   142562    95582    29582 
    6087    20422    42776    43319    23387     1374   -30004   -85911 
 -162095  -209123  -186242  -148647  -129987   -71367      560    -4219 
  -50898   -52493   -11004   -13078   -97955  -168722  -154507  -100929 
  -76468  -104520  -131691  -116836   -91695   -75289   -43754    13784 
   75884   134418   186715   210172   210963   212688   198275   149685 
  107201    97988    74507     7673   -79990  -167326  -240609  -306030 
 -357852  -378772  -417417  -496255  -511338  -399816  -257476  -185115 
 -153365   -71275    68763   187287   245403   255649   207728    89555 
  -47380  -127431  -164157  -208148  -262756  -331281  -351514  -240385 
 -103342   -65572   -63420   -44033   -48567   -62096   -51260   -59955 
  -72155     8754   128661   189014   256446   334091   287142    86175 
 -149745  -244944  -168644  -145084  -251560  -239812   -40423   104128 
   95203    15719  -132240  -299663  -389180  -449801  -442780  -221928 
   92389   259404   286971   325878   401376   421849   356613   292961 
  300350   327563   324613   260811    60157  -186872  -260911  -193836 
 -204133  -319760  -338434  -144448    60667    46676   -74841  -146945 
 -254493  -357273  -281874  -132941   -75278   -36217    60387   114169 
    6387  -187910  -265638  -128062    63779    76082    18921   102179 
  207223   204185   107473   -85145  -253887  -256798  -190680  -225470 
 -326923  -323539  -201207   -97929   -73962  -115097  -162680  -114254 
   62137   272910   384703   399927   427892   472613   411998   174862 
  -86542  -192057  -233967  -355883  -511628  -609696  -573039  -338574 
  -30849    99854    74269   118415   182338   130820    81853    71477 
    4025   -64087   -44116     7882    -9080   -80616  -165942  -283168 
 -382428  -358514  -198497   -40006     1350   -11214    15125    98004 
  164103    67338  -132427  -171871   -51499   -18374  -119390  -188977 
 -147386  -100740  -135100  -163961   -99468    27635   146349   214664 
  224360   142921   -13155  -112612  -106460   -63066   -14490    44395 
  127124   195605   149190   -23031  -211351  -303521  -258490  -154151 
 -133091  -158418   -44200   150328   232192   259876   323173   339797 
  242419    38732  -145063  -153372  -105998  -207431  -345779  -286825 
  -47962   116925    47128  -127726  -208022  -183958  -203486  -322737 
 -387701  -290977  -152879  -109376  -102066   -11176   126405   228398 
  304341   326042   263134   189743   141689   107184   110340   127918 
  109562    50332   -41516  -146159  -222814  -235198  -204668  -202740 
 -230914  -200294   -71641    74623   162406   222761   307203   395414 
  413563   347633   299140   331147   359346   280468   137367    47391 
   25086     4374   -77909  -212045  -296296  -283850  -215743  -132557 
  -75497   -75591  -139495  -243830  -318663  -330082  -389476  -597195 
 -774944  -667252  -303831    53058   184488   193324   278600   289718 
  141324    50308    27355   -25032   -71765   -80064   -23052    55413 
   85597    57747   -19859   -82135   -93868   -92076   -80250   -23226 
   61979    72799     -896   -44484   -20814    42949   114640   111938 
    2980  -100187   -90383   -41556   -71064  -108333   -44560    43588 
   38116   -58593  -169336  -217155  -232063  -312739  -425196  -454299 
 -359153  -139977   105128   196577   162204   148997   120283    53450 
   64579   139782   161513   151199   175511   206547   222353   185838 
   58344   -19057    75392   183562   151753    63271    11563   -21363 
  -48204   -60157   -89331  -152395  -169996  -129186  -124076  -141420 
 -132100  -133374  -171077  -221391  -265393  -321301  -377279  -387402 
 -334158  -209079   -80298   -68447  -134367  -163137  -154203  -118547 
  -63939   -39895   -31603    -1054    55403   130721   183793   216291 
  258860   288517   336456   430481   446295   281887    38141   -90881 
  -71379   -87433  -263251  -470660  -503499  -373015  -278157  -249434 
 -138842    39944   162465   216597   190189    64284   -52468   -65215 
  -23642    -2555    41403   174254   299741   300891   194950    33730 
  -66361    -8368    77494    71668    39961    37638    47766    15808 
  -58913  -106688  -143830  -196522  -249235  -347562  -447777  -403763 
 -212076   -12876    69437    35765     8442    25243    28239   108117 
  343927   561094   583510   439549   246439    72637   -40453   -54563 
  -57315  -158615  -277447  -284865  -194155   -96492   -59317   -91414 
 -136548  -174270  -226335  -220562  -105090    40069   145563   213220 
  270841   281983   179070    52675    38262    90331    82920    36372 
  100956   249552   295346   229387   150277    90938    69215    58177 
    1116   -86135  -131642   -95132   -54265  -123988  -243863  -290239 
 -288048  -259213  -192121  -187513  -274923  -310939  -239880  -212577 
 -348797  -484024  -426528  -319940  -346563  -442545  -506806  -479108 
 -309740   -73442    63341    63291    31513     1955   -29593    -9688 
   17308   -21730   -59063   -60930   -82653  -117610  -161875  -258519 
 -388247  -449774  -348285  -114161   122656   281742   387080   492746 
  577320   534817   256537  -132884  -261427   -88443    -3173  -211607 
 -572787  -810726  -788619  -712480  -819518 -1040966 -1143969  -953179 
 -472506   -32258   107379   314837   749574   831996   556576   568570 
  838344   894951   804001   928164  1103076  1009019   888179   893591 
  748669   351138  -105141  -368173  -403739  -392990  -406564  -411381 
 -389586  -365285  -449207  -581684  -551273  -422557  -315986  -269907 
 -382706  -367574    40289   376329   267294   -23655  -199743  -203445 
 -101536   -33397   -22755    23066   123132   261806   375626   364297 
  210885    29777    19412   162544   191899    11218  -179346  -223641 
 -243816  -366304  -529339  -728263  -972837 -1109384  -949596  -466729 
  -47543   -48774   -84366   143122   209829    22772   -61329   -71223 
 -161432  -213686  -170448  -175782  -227366  -172112   -37195    73379 
  123260   123036   149672   198395   203101   161755    75551   -16314 
  -56321   -79244  -134905  -201017  -242296  -272396  -301306  -260823 
  -83282   139766   213836   123207    29359    -8644    -4020    38485 
   65760    88314   125970   123570    97021    79441    50523    40609 
   80703   102993    71281    83178   183124   293576   376229   436887 
  448082   366959   188176   -25026  -163697  -169110  -145172  -235299 
 -401774  -574191  -788412  -922111  -734784  -334402   -99044  -114419 
 -133610   -37774    26426    -3630    45006   221361   319167   241771 
  148149   191282   308186   398238   531856   714653   743369   506818 
  167138   -36813   -51534   -10155   -47609  -163890  -242353  -231757 
 -160952   -71203   -62528   -94568   -54474   -56604  -122697  -118341 
  -61590    30268   149273   227065   266698   273937   249745   230417 
  225089   222454   187580   140234   161763   194241   130737    10403 
  -95338  -175122  -260342  -387173  -544567  -688915  -778682  -752591 
 -515486  -194322  -171117  -390288  -420030  -332136  -315672  -215904 
 -134723  -194276  -197992  -129333   -82947   -31653    45687   143850 
  181700    77878  -110807  -216374   -85799   153301   224127   173843 
  207037   314125   408299   444417   397163   286028   156609    86507 
  100762    89954   -21287  -180444  -300022  -315457  -253266  -201041 
 -161418   -78379    33535    96364    76349     4094   -86720  -158844 
 -200163  -219247  -177682   -89489   -51091   -92271  -158267  -189779 
 -170943  -114700   -48381   -17548     9080   109197   237187   314049 
  371777   414719   349628   168494   -13197  -114995  -136250  -123961 
 -151714  -210719  -189424   -81856   -58020  -195580  -289352  -156004 
   37151    93373   130128   275075   401770   362498   160270   -96716 
 -219762  -159954  -109153  -178057  -319288  -468142  -546638  -521925 
 -402523  -244761  -157401  -105644   -12683    43027    34431    -9871 
 -116025  -236229  -317843  -374138  -387858  -354937  -298156  -195146 
  -56911    16511     2835     8990    57697    70630    68158    98673 
  109149    95798   120739   196349   335621   515187   642807   666425 
  585828   403983   125124  -142942  -236890  -236234  -359099  -632912 
 -991150 -1378523 -1613050 -1395788  -704583   -41570   106067  -156951 
 -285916   -60468   151018   241401   353326   273220   -44459  -218991 
  -71775    54608   -97992  -320289  -432417  -353615  -116759   -53300 
 -227626  -253277    -6426   216805   286745   350735   418065   414239 
  403788   371852   233922    90230    73716   145382   153821    18515 
 -122546  -104479    43805   185208   221073   190934   188687   206894 
  191709   136058    72807    29420    45463   187141   378246   435829 
  389116   366604   324238   245028   216573   199468   123280    70585 
  100268   165985   273967   410738   432846   237374   -69450  -222276 
 -129380   -63266  -228314  -470900  -635976  -767494  -880181  -905943 
 -899334  -982037 -1069365  -925939  -552586  -224394   -33781   149349 
  290349   256551    76500   -51816    35123   151862    61834   -79088 
 -148400  -199744  -130041    75430   234322   245731   163776   144170 
  206324   193876   117645    90013    74567    31702   -13940   -64926 
  -78636     5169   133888   216674   234098   232489   269395   366827 
  497521   600394   649270   623821   465499   239440   135286   185003 
  227333   146691   -11541  -133244  -202310  -240595  -222786  -227929 
 -302472  -345731  -372900  -447030  -518248  -571168  -646064  -739141 
 -784927  -701377  -487782  -277293  -184901  -117709    50813   257378 
  423385   517314   434088   204296    66961   118181   213541   181398 
   -8936  -185343  -202368  -132632  -107485  -194420  -346576  -467417 
 -565211  -664158  -738910  -775297  -718660  -482477  -156527   -13254 
  -24231    87115   197967   129522    85820   141974   186156   206895 
  168363    37955   -68498   -33459    87233   172977   198934   190267 
  154389   132985   174258   227158   226498   217839   239071   226908 
  120327   -66201  -224121  -282071  -325779  -370294  -365863  -426012 
 -586116  -695028  -669873  -512198  -317018  -240326  -252292  -206137 
  -90778     5119    39472    24647   -43711  -133690  -158604  -126447 
 -122184  -167002  -210569  -210442  -196193  -205861  -193387  -103509 
    9406    48149    14484   -15492    -7305    12487    20357    12403 
  -21054   -77224  -115992   -79244    24650    99997   114198   118473 
  110708    83644    86420   140466   226395   324176   405741   415917 
  334445   248227   236766   252262   222476   146233    44340   -48596 
  -97700  -126897  -157758  -187845  -228289  -226869  -107065    83319 
  215991   264462   294126   283081   211452   184185   226899   247619 
  227989   193481   130459    70254    57670    18355  -119948  -272709 
 -330451  -307374  -298082  -333787  -316169  -185148   -53333   -27900 
  -71465  -109355  -118452  -117110  -127153  -166553  -239322  -291123 
 -264569  -175728   -93034   -86067  -133124  -143353  -117805  -116076 
 -136159  -141182  -111274   -78327   -81124   -82470   -34899    39621 
   99329   149241   217924   283250   294913   250349   179897   113116 
   76637    61037    29068    -1839     8519    32518    23275   -31905 
 -114972  -174766  -165670  -100776   -42365   -14768    32250   106902 
  110965    13593   -64546   -56943   -25913   -26362   -44417   -49702 
  -80662  -163556  -208286  -183081  -187285  -249583  -318128  -383211 
 -436562  -443154  -391844  -324332  -313907  -366699  -384240  -296655 
 -170324  -107978  -104668   -96466   -73755   -46233    -4549    33899 
   46319    32227   -19886  -101754  -150545  -119109   -31109    57500 
  121761   181816   255383   318483   320453   258158   216171   237797 
  239129   178747   129207   103824    55101    -6750   -55394   -84305 
 -102743  -121667  -104773   -25423    68170   121498   133029   117144 
   78397    27653   -35322  -113712  -173089  -172967  -136609  -120872 
 -113463   -76179   -38312   -33927   -36802   -17462   -10944   -35498 
  -31078     3095     -278   -31197   -30718     5126    44741    71128 
   62420     7618   -50866   -81828  -118579  -192163  -271662  -294646 
 -231336  -125204   -70640   -99253  -146617  -168589  -161928  -140159 
 -161294  -231780  -278833  -285432  -262673  -179875   -55511    14769 
  -21527   -88663   -98218   -79933   -98832  -148047  -161689  -128769 
 -124591  -141502  -110315   -65408   -46798   -24985     -412     6534 
    8454    25705    58687    88384   107470   118337    97647    13354 
 -124383  -222134  -202917  -146740  -131867   -72655    88415   246991 
  317251   340299   357459   363718   355212   316292   268161   277881 
  319877   298586   212532   121934    61316    32699    -6799   -73445 
 -133834  -180968  -202142  -176342  -157679  -198262  -230031  -190415 
 -128336   -86418   -70288   -78424   -80570   -66685   -39457    -1783 
    9694     9016    48407    94729    94470    50749   -28942  -128582 
 -204098  -237704  -262076  -295084  -315139  -315452  -294520  -250140 
 -206179  -152744   -54484    46859    96807   133221   187284   215254 
  189282   134489    95340    96773   100091    53892   -12420   -54332 
  -94152  -144937  -174215  -150087   -74723    -4122    25977    43108 
   60053    62618    31699   -31297   -74225   -68116   -30857     4032 
   -5683   -31358   -24175   -24656   -63627  -111956  -146006  -146842 
 -113033   -85262   -94513  -130408  -175665  -218693  -257205  -306860 
 -373480  -425822  -427845  -385835  -319562  -249176  -211502  -183841 
 -105733   -17714    14786    28074    62188   118207   215089   342148 
  444394   465257   377410   221592    99009    81968    94736    29421 
  -54467   -72642   -40641     -393    -5751   -53645   -87238  -107070 
 -144184  -205422  -259569  -266310  -217530  -140090  -109211  -134708 
 -121829   -56695     1722    33837    36572    22701    15159    20219 
   30290    34228    31952    15584   -23073   -49408   -22846    28984 
   36754    -1112   -20271    -4959     6420   -12385   -56200   -82260 
