Origin Time       2011/03/11 14:46:00
Lat.              38.103
Long.             142.860
Depth. (km)       24
Mag.              9.0
Station Code      IWT003
Station Lat.      40.0083
Station Long.     141.8885
Station Height(m) 7
Record Time       2011/03/11 14:47:02
Sampling Freq(Hz) 100Hz
Duration Time(s)  300
Dir.              E-W
Scale Factor      3920(gal)/6182761
Max. Acc. (gal)   148.472
Last Correction   2011/03/11 14:46:47
Memo.             
[...]
   28146    25858    19444    13510    14077    24402    40323    50430 
   48379    38042    27647    24108    26598    27426    22834    16550 
   13203    14290    17000    17835    19157    22621    22005    13426 
    2962    -2911    -3652     2121    15318    28773    33630    29004 
   20887    14880    10350     6245     7587    16736    28823    35625 
   29754    16271     8820     9142     9631     8999    11543    19902 
   32114    42312    46336    44342    37105    27253    21538    22368 
   22369    15364     7102     7103    13913    19533    23716    31095 
   38379    37137    30173    30011    37761    41189    33686    22209 
   17085    18194    18485    17322    16273    11942     1840   -10508 
  -15557    -5242    16353    34317    37233    28230    19026    17294 
   20355    18662     9877     3051     5500    17301    32783    40917 
   36152    27086    26269    34828    43361    45174    39066    26912 
   15974    15307    29656    54842    75208    73812    50511    22796 
    6991     8538    22781    34750    30890    14293     -610    -1730 
   16432    44575    58570    47113    23702     6537     2799     4699 
    1824    -1850       17     4281    10230    17086    17202     7904 
   -7060   -20797   -21204    -5128    15921    30777    33093    24093 
   17155    21185    27227    24735    16362    11586    18336    36077 
   51911    52254    35120     9596    -7428    -2010    21534    46537 
   62515    67164    61149    49406    38584    33012    33806    36332 
   34060    27929    24398    25052    25508    22827    17913    12010 
    5739     2164     5147    12090    15722    13592     8819     5020 
    4821     8715    12421     9955     3347     1172     4071     7166 
   11636    17038    18547    16965    15619    13599     9081     3957 
    1462     2196     5767    11620    17515    21129    23376    27260 
   31599    33539    35567    38819    39732    38097    36468    36824 
   41065    47681    51205    47439    38344    31761    34911    47932 
   61393    63276    52183    36862    26957    29615    42410    51830 
   49662    40722    33331    32104    34235    32998    27202    18677 
    7690    -1999    -4136      615     4348     3290     2422     7266 
   14539    14527     5695    -2776    -6556    -7950    -3657     7262 
   11708      937   -14674   -21068   -14386     2626    24724    41227 
   41709    26733     5698    -5339     7608    36323    57597    58229 
   41948    25044    25448    44064    62573    66874    56443    34602 
   12217     6411    21370    43044    56229    55915    43631    26132 
   15142    19725    36396    49225    45983    30650    16595    12662 
   18281    25646    23953    10820    -6043   -20567   -27489   -21417 
   -5529    10998    21480    23240    16269     2533   -11335   -17418 
  -18422   -20333   -18593    -8923     3902    12114    11240     7518 
   12188    23987    32958    35624    32853    27686    26055    27700 
   29592    34284    41587    48455    55269    60625    63602    67250 
   69918    65391    51677    34139    23605    26327    36760    47261 
   54484    54649    47033    36037    24189    14226    11779    18663 
   30118    36644    30927    18560    12015    13688    16694    16378 
   11501     1229   -12472   -22478   -20384    -6288     8398    13752 
    9452      491    -4868    -1538     4928     8383     9344     6507 
    -352    -4746    -4936    -5606    -5703      -63    11090    22794 
   31110    34972    33549    26482    17946    14452    20899    36754 
   53074    62722    67574    69282    64654    52283    35876    20985 
   12307    12656    21002    32257    42173    50574    57097    58518 
   54734    50886    48889    45190    39237    36412    37943    34666 
   20106      504   -15342   -26421   -34167   -34562   -26612   -19524 
  -20285   -23807   -19783    -4916    13393    24514    24609    18294 
   11069     7948    14127    27209    37441    37111    26660    15654 
   13403    17580    18803    11917     -772    -9024    -2279    16847 
   36943    50885    57925    61512    65502    70906    75976    75289 
   64836    49662    37065    27696    19468    12142     7954     9853 
   16995    27178    39417    47878    45432    34498    25180    25988 
   35028    40826    37129    27068    14744     5351     3750     6928 
    7146      273   -10253   -14892   -12192   -12564   -16005   -11964 
   -3087     5321    20578    40014    49523    47370    36817    21304 
   15047    25875    40385    41706    26679     6209    -3333     4864 
   20379    26645    18599     8067     8957    21794    37520    47916 
   49721    43393    33090    27716    32724    43369    49130    42234 
   27413    16484    12307    12599    17501    23109    23051    15973 
    7867    10155    24325    35195    33844    29723    30380    31977 
   33430    35446    31698    18581     1595   -10764   -13430   -10156 
   -9272   -12413   -13346    -6524     7004    21022    27823    21429 
    4624    -7977    -3899    12383    25796    27400    21057    14541 
   10088     8647    13907    24257    29240    23449    15306    15042 
   24682    39872    55209    65678    63938    50864    42448    47977 
   57468    60574    58801    54309    44046    29794    20412    20609 
   24235    21470    10192    -2200    -6528     -980    10631    25638 
   37869    39419    32400    23930    17748    18057    26916    37709 
   42307    40357    33190    18977     -407   -19243   -33253   -41521 
  -43919   -34595    -9047    20108    30181    16308    -1759    -8573 
   -7550    -3172     4457    11884    16260    18419    20218    23961 
   28050    27127    21881    18814    20871    27851    38963    47571 
   43515    25549     7532     8402    30717    57461    74883    83538 
   86818    83573    73954    63559    56179    48999    39649    30327 
   23410    19415    18332    20182    26400    37345    47486    51179 
   49100    42507    30659    16553     6881     4707     5489     1537 
   -8960   -18545   -21466   -23797   -32987   -44955   -49879   -44266 
  -34253   -28184   -26384   -23222   -18150   -15029   -11490    -1992 
   10429    18944    21719    19352    16374    19626    28375    35304 
   33382    21278     7418     2568     9364    24474    42152    52231 
   49210    41567    41783    55791    80619   104563   116378   115986 
  110688   104369    97919    92675    85084    68381    44161    23506 
   14917    16366    18774    14489     5113    -2145    -5328    -2541 
   13045    36902    48994    36728    10858    -6114    -3413    11660 
   25256    25044     7438   -16213   -29367   -26940   -20028   -21882 
  -33070   -46592   -57623   -61366   -52181   -33662   -17017    -6220 
     745     5336    11362    24703    46922    68099    73340    60203 
   39623    22702    12803     7118     5606    12701    26915    38482 
   39974    33940    27610    24412    25296    30949    38516    43338 
   46793    54590    67539    83046    94770    92394    77231    62618 
   55038    50197    42941    32505    21025    11708     7625    10324 
   18778    30217    41760    47811    43940    37243    37102    37556 
   25832     2404   -19847   -28579   -19528     -781    13043    16315 
   12885     3982    -8857   -18726   -25136   -34619   -43769   -39850 
  -19566     6357    25791    32841    28481    19777    13100     9351 
    7586     9185    15724    22499    24223    26113    34193    44920 
   54310    61497    63548    59882    56690    60173    69789    78057 
   76091    65676    60925    69784    84763    94099    89387    68891 
   40963    17185     3619     -675      879     7390    16560    22418 
   20578    10753    -1376    -9494   -17564   -32951   -53111   -69446 
  -74913   -64931   -40880   -13409     3165     2394    -7937   -15310 
  -17548   -19144   -17855    -8150     8181    24538    38014    49375 
   58661    65638    67047    56525    36183    17790    12492    24380 
   45495    60799    65268    67984    75366    83132    85873    82192 
   74199    66216    62361    65005    70921    74637    76465    75926 
   67487    53086    42071    34720    22760     4095   -15019   -28698 
  -36619   -38408   -29767   -12149     5445    17299    21509    16117 
    3750   -10516   -25780   -41013   -52827   -58978   -57271   -44402 
  -22505    -3252     6274    12098    17020    14238     3333    -4502 
    1400    22400    50237    72602    81445    77579    67588    55113 
   40988    29475    22565    16124    10139    11132    21734    40045 
   63574    83501    89994    85575    79022    74824    73719    73962 
   75384    78972    78743    69582    56875    46887    40141    33823 
   25615    15578     3248   -11266   -25333   -35696   -38760   -30941 
  -12638     8351    20497    15320    -5480   -28901   -45003   -56260 
  -66798   -74291   -74137   -64116   -46050   -23014      976    17494 
   19130     5255   -18880   -42005   -51538   -41768   -13830    24859 
   57344    69869    66707    58641    51496    49364    53754    59271 
   57983    53482    57738    72838    92107   108254   114763   110031 
   97059    80829    70913    76056    89428    93393    84421    75416 
   74410    79932    89493    97307    92771    68368    29056    -5717 
  -21249   -23554   -24087   -25365   -26920   -30136   -35390   -42200 
  -49795   -55053   -56582   -55969   -52618   -48545   -51199   -60458 
  -65841   -60144   -43538   -23344   -12743   -13824   -13600    -6280 
    3182    13165    20132    17174     7515    -2271   -13148   -22438 
  -21696   -11498      599    12029    21467    24776    22233    21357 
   28886    43134    59014    75149    90839   104562   114891   118694 
  115575   110290   104754    97223    88355    78884    67334    52964 
   38301    29325    28066    27632    22924    19220    20431    19611 
   10826    -2555   -14947   -23264   -27009   -28766   -31320   -34015 
  -34400   -31386   -26356   -23073   -24781   -30285   -36020   -43055 
  -56229   -73953   -85941   -80956   -51907    -2747    47622    79493 
   86567    73073    47731    21311      765   -12416   -15557    -3954 
   22978    58616    92236   114454   120455   111327    90048    59242 
   29896    18620    30958    59720    93306   121692   142355   157440 
  166685   169124   163306   143770   107474    59800    10882   -28461 
  -51130   -56854   -49457   -34370   -18796    -7484       -6     2996 
      58    -5394    -9959   -13976   -16129   -12660    -2360    12665 
   28456    39859    42662    34925    19217     1043   -19359   -45021 
  -72985   -94860  -101906   -87299   -47570     9819    62034    88461 
   86169    65711    44699    33231    24137    12830    10123    25492 
   56389    92793   122847   139724   142363   130495   103997    68176 
   37303    21854    19631    28494    49051    72252    80032    62783 
   32186     7907    -4503    -8505    -1756    13910    24688    21593 
   10128     1625     2109     5720     1877   -10218   -22138   -27532 
  -27429   -27982   -34044   -43743   -50295   -52536   -55963   -60121 
  -60045   -53726   -40371   -22975    -7920     2466    11340    22360 
   35516    46022    47416    39636    28759    18200     7008    -7710 
  -25356   -37590   -36989   -20800    12251    52238    80864    89346 
   79110    60305    49152    52824    65736    80023    95228   116048 
  140784   159070   156960   124657    67321     3696   -48487   -79988 
  -86116   -67223   -33448     1164    24433    27560    18381    17289 
   29209    44807    56037    53609    36223    18745    10710     6102 
      77    -8225   -20097   -30488   -35726   -43313   -58734   -77247 
  -91794   -97104   -90034   -70235   -39783    -4224    27919    47986 
   52145    44921    33044    22942    25301    46263    77818   105729 
  118372   108765    78194    39045     9983     1597     6947    13238 
   15543    15460    18243    26864    35026    36347    32377    27615 
   24799    19405     4784   -14262   -30003   -44641   -60891   -73746 
  -74816   -57021   -20831    20757    51830    67688    71260    67800 
   69240    82520    97957   106149   109552   111593   113191   115578 
  116866   113031   101932    83330    59505    38268    30743    41630 
   65610    92289   110966   117400   116597   113416   104445    85029 
   58697    33769    18156    17930    31145    45724    50168    42265 
   25456     3414   -19694   -39161   -54068   -66416   -75884   -84030 
  -95952  -112366  -128955  -141581  -148252  -149589  -147871  -142884 
 -130454  -105737   -66938   -23777     4042     6772    -9519   -32670 
  -49561   -52325   -38383    -3455    51947   114241   165159   190630 
  183337   146948    95839    46492     9303   -10881   -10334    12616 
   52963    96841   127905   139860   138463   132839   130176   131516 
  130460   121504   108723   102168   107708   123462   138741   140406 
  125972    98227    57768    13339   -21835   -42713   -46332   -30701 
   -2530    30421    62794    82238    77228    51917    19018   -14004 
  -46678   -77944  -101527  -114289  -118356  -112613   -97458   -80602 
  -70049   -69089   -76784   -90391  -105815  -116194  -114970   -99740 
  -73338   -42438   -13548     8365    21561    30810    40762    47494 
   42771    21046   -14378   -47238   -59854   -46395   -11664    31308 
   65357    80482    78067    65571    53108    50889    63233    86831 
  115835   145030   171884   197606   220300   234919   243555   251184 
  256128   251484   228520   186085   138771   106540    95633    95012 
   92778    85141    71719    54866    38753    26316    19049    14776 
    8479     -301    -6995   -12062   -22773   -40619   -59615   -75232 
  -84160   -86512   -87629   -91935  -102915  -121779  -142253  -155359 
 -158357  -156286  -153520  -148734  -144279  -144570  -143382  -130726 
 -104044   -67490   -28850     5423    31930    47015    48371    39179 
   25437    12270     3799     3337    15065    39954    68699    90584 
  105325   115629   120040   119298   118151   121758   132504   144981 
  148625   137898   117250    96942    82331    70269    60036    58943 
   72044    94995   120137   142062   156798   160603   150398   124451 
   81080    24163   -28841   -58687   -59544   -37308    -7206    11216 
   11960     5196    -6075   -28507   -57722   -82444   -97994  -104913 
 -107406  -107941  -103767   -93771   -78981   -59377   -37766   -22351 
  -19766   -27061   -38338   -54795   -77868  -100919  -115252  -114763 
  -94741   -56304    -9904    32308    65055    88270   105813   123043 
  134334   126866    98978    62147    33186    23162    32607    58917 
   92008   115318   126998   138343   152618   162349   157189   130978 
   88350    44190    15471    12174    35387    76787   118247   144461 
  153111   147179   128422    99757    67217    38641    17545     1223 
  -10698   -14798    -8031    13334    44161    65092    61975    40381 
   18350     7602     2403    -5474   -15373   -29313   -49098   -67991 
  -81668   -89797   -91185   -85671   -73227   -57402   -47474   -51579 
  -68165   -86974  -102363  -115589  -123445  -117052   -88533   -38124 
   19480    62933    78819    66782    39500    16128     9416    17928 
   31824    45080    56279    64639    70446    72080    67175    56756 
   41824    23445     6440    -3139     -743    15839    42151    65127 
   74616    72141    60923    43240    26919    17614    15020    20735 
   37765    63748    91169   113164   123232   117822   103479    87972 
   73518    65056    68532    83026   103025   122692   134515   130149 
  106933    70758    32687     2568   -16394   -23863   -16908     2533 
   22009    30044    26636    19013    13793    13068    12778     9540 
    6705     4680    -1858   -13779   -27113   -37246   -42691   -47161 
  -52902   -58644   -63315   -66266   -68487   -71388   -74790   -79130 
  -82628   -78093   -60921   -35486    -8293    18728    44738    64479 
   69835    57482    31023    -3974   -40991   -71577   -88171   -87100 
  -70743   -45980   -15245    24136    66807    99177   114980   119686 
  121221   122578   121169   113907   102373    89519    76574    68128 
   69437    77581    85994    92643    97044    95846    87287    75299 
   65725    64630    75885    92905   103701   107802   114853   127380 
  137149   133826   109661    65056    12576   -35273   -75749  -104744 
 -116043  -113994  -106774   -96642   -84127   -70554   -58698   -51681 
  -48331   -44544   -39814   -39218   -47080   -61343   -76417   -87494 
  -92555   -92081   -87190   -77681   -58700   -25735    15739    54475 
   82178    92360    79153    45430     8056   -15863   -22844   -10859 
   26090    78471   126330   160575   176352   166519   133753    93041 
   58864    37811    31230    37974    58237    90672   123800   145268 
  154954   157904   156122   149797   138742   126126   118744   116877 
  110114    90668    62679    33147     6626   -11483   -19050   -19843 
  -18602   -21428   -35707   -60475   -87740  -114711  -138527  -149396 
 -142636  -124840  -105547   -89288   -73111   -52334   -31452   -22098 
  -25097   -29973   -34029   -41684   -51074   -55507   -50065   -32983 
   -7231    18637    35497    40518    38808    41349    57498    83352 
  106610   121256   126367   123646   118752   113887   108316   104621 
  102955    98080    84998    61880    35187    20089    28025    57185 
   93422   121594   138058   145595   142625   128171   109012    93097 
   82688    76730    74184    72309    63293    39654     4632   -29951 
  -54768   -67773   -72840   -75290   -77398   -78269   -75449   -69072 
  -64065   -63307   -65534   -72046   -85600  -103794  -119487  -124506 
 -110239   -72359   -20216    27821    59783    70948    57707    25741 
   -6471   -24966   -28510   -17901     4635    28811    45638    58879 
   76592    97308   112336   117757   119786   126546   134212   130391 
  113218    95006    87059    88324    88881    85188    83978    87819 
   92075    92594    87903    80470    71831    60370    48510    40423 
   35012    27460    15821     3648    -6913   -17870   -30440   -43961 
  -55563   -61499   -61009   -56078   -50991   -50825   -55918   -62473 
  -68175   -72312   -74442   -74791   -74348   -75206   -77880   -78674 
  -73015   -57681   -29316     9689    45534    63988    62369    47441 
   28902    13604     4893     6228    17141    32070    48747    68092 
   86887    97516    95155    82094    64400    47975    37569    36363 
   45090    62803    87025   112558   133673   143740   133942   102312 
   60232    23781     2122    -5897    -6894    -8234   -15178   -23890 
  -23016    -7795    16014    39202    53499    56577    53035    47958 
   45005    47959    59555    77843    92628    92256    76038    51841 
   25052     -803   -21177   -35922   -47952   -57904   -65606   -68701 
  -63446   -51152   -36447   -22001   -10820    -8358   -15419   -25900 
  -34357   -37601   -34873   -29250   -23008   -15838    -8023    -1034 
    3528     3878    -3251   -22361   -52432   -82144   -99445  -101362 
  -88843   -60193   -16626    32680    76520   106213   116859   108537 
   85308    58553    42823    43090    57486    83802   115077   141644 
  158492   162695   149968   121156    85437    52157    24949     6276 
    2743    20952    57711    98131   127637   143963   151708   149692 
