Origin Time       2011/03/11 14:46:00
Lat.              38.103
Long.             142.860
Depth. (km)       24
Mag.              9.0
Station Code      IWT011
Station Lat.      39.1453
Station Long.     141.1527
Station Height(m) 43
Record Time       2011/03/11 14:46:51
Sampling Freq(Hz) 100Hz
Duration Time(s)  300
Dir.              U-D
Scale Factor      3920(gal)/6182761
Max. Acc. (gal)   167.096
Last Correction   2011/03/11 14:46:36
Memo.             
[...]
  -36528   -34402   -25013   -19778   -23070   -30556   -38343   -45343 
  -50778   -48963   -39942   -37022   -38648   -21361    12395    16076 
  -28972   -65210   -43068     3098    13264   -16943   -42656   -35760 
  -15554   -12846   -30292   -40497   -22674     1862     1934    -3754 
   25839    69528    63496    12918   -13485      130    10488     8186 
   25418    57275    55073    20667    20413    70678   103558    76601 
   34394    29922    47719    49034    41006    49467    69218    76060 
   60202    40853    42067    52793    41707     7261   -18842   -16565 
    2182    19454    31086    42423    50577    39060    10082    -4975 
    9643    33934    50093    59565    52316    11807   -38958   -52047 
  -24978    -3215    -8477   -19315   -19349   -16894   -17304   -12817 
  -12582   -40438   -83537   -96859   -68286   -29963   -11466   -15976 
  -27639   -27787   -21613   -29264   -38620   -25624   -12237   -26490 
  -40596   -24005    -4106    -7151    -2529    29752    42711     2337 
  -41680   -36000   -10409   -17729   -45269   -46665   -17757     7533 
   10549     4378     8382    18714    11406   -10051    -9479    16982 
   32103    18921     -675   -10981   -20695   -18493    21624    70665 
   64238     5816   -25609     6218    39590    23202     3187    31634 
   65025    46334    16999    37070    67114    45138     5590    14836 
   52260    51480    15470     4581    33142    51878    28484   -16293 
  -50234   -57989   -39447   -11198     -460   -17997   -39924   -39105 
  -20510     -432    19011    33661    22316   -23298   -68203   -74465 
  -51156   -30796   -27858   -38258   -51948   -52337   -31832   -16832 
  -32949   -54018   -37244     4720    17217    -9786   -29706   -17726 
    6816    24456    31459    27053    11126    -3387     4717    29346 
   36123    17686     5400     8561     2929    -5854    14434    49858 
   51397    18949     6971    34440    53224    32948     6516     6745 
   19800    18526     2860    -5062    11244    33952    24523    -9013 
  -16960     2866     5112   -18691   -31570   -12561    27959    69438 
   80181    44542     5948    10160    26149     9808    -6852    15062 
   34858     8880   -27868   -35828   -42843   -74249   -89924   -59700 
  -24631   -24115   -37631   -37300   -36548   -51936   -58070   -23341 
   31683    54314    36479    22527    29008    24091    -2714   -19272 
  -10114    -5399   -24095   -34949   -17070    -6342   -32389   -61926 
  -60130   -49768   -55523   -65185   -71498   -76868   -68230   -42702 
  -27886   -37315   -44804   -32859   -17618   -12026   -10826    -6640 
    2082     4516   -13042   -36041   -28549     7741    22006    -4619 
  -27533   -26105   -33639   -53375   -48251   -21064    -8245    -7408 
    4574    10830   -15617   -56781   -72302   -50871   -20511   -14903 
  -29059   -20874    22530    51012    26829   -11672   -13355     8671 
   13478     5302    16959    44668    59168    60158    58582    36083 
  -16703   -54263   -40449   -17429   -28641   -43839   -28139    -5819 
  -11616   -34281   -45695   -39631   -19730     2304    10495     8066 
    9500    20960    43201    73536    92088    76090    44761    41360 
   62754    65409    40091    18503    18470    34076    52100    56620 
   38308     5916   -14038    -7611     1194   -15679   -44341   -50416 
  -32293   -13598    -7905   -23181   -54545   -62109   -13702    54700 
   78469    57971    49821    69743    77284    55397    36058    36430 
   29508     5967    -3287    14569    42311    56051    33008   -18776 
  -58065   -62098   -50081   -46446   -44091   -32300   -31297   -53554 
  -73936   -65047   -30088     -473      857    -9039     2639    39891 
   68654    59892    29894     8291     -429    -5182   -12179   -12732 
    7608    38301    56641    57231    41642     7015   -32716   -44694 
  -28710   -22277   -33472   -36420   -27379   -30584   -54096   -70185 
  -55517   -29773   -27543   -48244   -56758   -32905    -9523   -25648 
  -52295   -43401   -20676   -25562   -47061   -47159   -30398   -44108 
  -84961   -80033    -7389    45565     1416   -82679  -101417   -63291 
  -41821   -39065   -16565    10719    -1954   -53666   -98570  -102721 
  -74994   -50946   -56350   -81830   -87530   -47107    13271    45313 
   34547     4658   -19231   -29455   -20464     6494    27883    26957 
   21786    35020    51684    44341    19296    -3666   -19986   -27576 
  -21919    -8001     2934     6996     5938     1845     1951    11632 
   21938    19727    10511    18444    46068    57632    36655    18911 
   40434    84884   101224    71895    33659    21664    29368    28146 
   12736    10227    22135     9140   -28912   -40309   -16806   -11295 
  -37069   -38191     3783    28275     5570   -11197     5790    -3597 
  -64993   -96241   -55597   -11151     4630    32749    66176    45335 
  -21617   -51562   -14961    31306    53034    75606   103048    95073 
   38928   -18043   -29364    -9077     -775   -14319   -24826   -18442 
  -16743   -40427   -67354   -62904   -29305    -3147    -6911   -10193 
   14432    29779     6010   -10538    27087    79332    80251    45581 
   34711    49320    46421    13023   -19827   -31413   -28559    -6741 
   30850    45639    14905   -31649   -52851   -52671   -64250   -87977 
  -89952   -51503     -201    14760   -18410   -62951   -82776   -83508 
  -90423   -96132   -77414   -51602   -50789   -63937   -73880  -100779 
 -137078  -124487   -62363   -30337   -45281   -28689    35601    64805 
   26494   -14337   -11549     9613    25754    36480    32566    21659 
   23721    28000    15539    -8792   -38761   -72672   -80234   -43245 
  -15713   -35605   -58019   -57660   -63870   -71846   -55925   -45725 
  -68677   -78325   -42326    -9458   -18198   -35148   -14485    43170 
   94543   100465    66778    25722    -2972    -4987    26254    55455 
   39514    -1971   -12307    11752    14769   -21486   -50065   -37801 
    -168    31101    37287    29912    36064    53617    48691    22609 
   25017    55092    53444    20884    15756    42866    55046    46043 
   52321    68972    59597    39547    41227    33878    -9813   -31375 
   19510    79666    61671   -11780   -50312   -33017   -18518   -29089 
  -21665     8224     4688   -31230   -26336    26737    51114    24655 
    5403    16219    18279    -1745   -12529    -2949     6899     8713 
   13321    24306    29072    15154   -13407   -34510   -29568   -12167 
  -10518   -21767   -24955   -19883   -13826    -4772     3305     -784 
  -15703   -24427   -19618    -9464     7496    28918    28503    -5390 
  -40594   -31562    21288    61991    47433    -5859   -44681   -42957 
  -26378    -7734    31223    80460   102801    83156    44320    17784 
   11213    15250    19717    20289    20626    18019     4847    -7690 
    1877    27795    32702     1034   -29026   -28243   -17554   -12760 
   -6112    -1941    -3670     9949    41893    45613     5726   -17235 
    3819    12424   -19055   -36026    -4404    25573     2100   -45369 
  -50747   -17905   -17354   -61396   -76571   -30527    10823    -9774 
  -48534   -30836    26887    44669     5211   -30393   -21459     3169 
    5023    -5186    -2926     3774     -281   -11867   -22842   -26633 
  -14720    12787    31446    12814   -35505   -72949   -65464   -25073 
   -5785   -35958   -75524   -70335   -28024     1067    -1838   -19187 
  -36599   -48540   -51404   -46132   -35254   -19756    -7651   -18295 
  -61432  -106030  -101218   -47183    -1369    -5163   -35525   -30140 
   23254    49289     3309   -39565    -6707    49553    57262    48553 
   67426    75426    37297    -7008    -5079    36218    71676    66849 
   15926   -45776   -73631   -65136   -46887   -35403   -24793    -4937 
   30103    73762    87857    54604    12492    -5143     1169    19514 
   40281    53827    51951    45797    41839    21825   -12715   -29507 
  -10910    25606    54692    61959    31436   -35910   -92129   -93522 
  -72628   -84015  -101147   -61197     7323     8680   -56094   -78570 
  -18839    54359    86742    88964    88134    84282    69764    52018 
   35310    27581    36519    43856    35034    20674    10799     5347 
   10288    29649    32658    -1302   -26885   -15297    -8175   -23883 
  -24168    -4536    -9336   -47461   -86604  -107457   -99847   -69854 
  -57040   -65964   -50659   -17741   -25503   -68234   -66162     8061 
   65832    40267    -2214    18112    76588   101312    74397    44846 
   45052    52317    46493    36024    34559    41057    42416    41088 
   50492    69014    84265    82874    55341     6905   -32400   -29513 
    1505     5706   -33376   -65760   -61357   -55002   -70090   -81671 
  -65804   -28915    -1693   -18613   -67580   -79129   -26563    23299 
   24005    16959    42001    78328    86824    54833     7699   -15925 
   -4162    26572    53594    57878    38186    16665     8555      -17 
  -26767   -62681   -80120   -55912     7035    55948    28450   -50711 
  -79687   -21363    42641    42022     3206   -27121   -40039   -46784 
  -47383   -12745    55593    85940    30876   -53923   -67953     6318 
   76361    70063    18407   -13577   -10628    -5904   -15697   -10975 
   22805    43950    13282   -50660  -105006  -128657  -129861  -128914 
 -127667  -105347   -58824   -33524   -64262   -99941   -73829   -13411 
    6988   -17423   -34696   -34964   -41562   -39148    -2230    42069 
   43775     4780   -23314   -14564     5005     7289    -4531   -12167 
     832    37641    65608    44375     -399    -9597     1089   -25255 
  -63199   -39412    20815    15947   -57975  -100520   -77338   -51449 
  -46132   -23372     5383    -1065   -20492   -19537   -13099   -10041 
    8331    35093    33613     7434      523    15403    17206     9985 
   29279    68818    84020    60266    19428   -11826   -15867    -9736 
  -30782   -69269   -72671   -31975     -489    -6317   -11910    12548 
   34351    11639   -30082   -23796    35966    75263    51103    17980 
   40272    95339   123647   118030    98021    69030    49414    51486 
   47917    32037    41315    70171    62275    13797   -22486   -30205 
  -36488   -39811   -10074    35081    41837     4066   -39080   -58534 
  -63070   -74209   -69924   -20358    40014    61217    50988    48495 
   58443    51058    17056   -29074   -63702   -58189   -31020   -21317 
   -5423    40241    65389    30533    -4646    33726   100569    98345 
   23658   -50253   -79971   -88075  -104689  -110237   -70579    -7420 
   11477   -32261   -71785   -52065    -1586    27986    36902    52511 
   63908    47751    34315    58543    83444    58718     7769   -11639 
   14088    53015    74864    87598   106259   116131   112613   101878 
   65223     3802   -28360     7378    58635    46310    -7809   -29161 
  -16508   -21134   -55292   -75024   -56086   -33485   -28141   -11966 
   34121    82713    83498    26805   -28609   -28742     2175     -944 
  -53823   -98909   -86329   -45638   -27715   -21001     8962    33106 
    1963   -45197   -45029   -25127   -26840   -36989   -42277   -37055 
  -16823    -5149   -29984   -68457   -63449   -16855     4470   -24566 
  -64751   -77480   -52065   -14831   -13863   -44895   -43209     7474 
   38182     2561   -40636   -16268    31991    21779   -15585   -19345 
  -19043   -46866   -63520   -39566    -4199    16324    33816    45490 
   12840   -54520   -69334     9936    95255    84950    20986    15093 
   58303    61786    18224   -12096    -3975    19771    36374    36434 
   20704     8868    10167     9996    15296    45569    74695    55388 
   -3159   -40875   -32037   -18056   -39312   -72135   -68579   -32296 
   -8368    -7558    14208    77255   125180   109348    71826    76021 
  105548    98614    54941    27100    20904      997   -31035   -42204 
  -22801     2149     8587     6083    26411    71837    78572    -8975 
 -119619  -128786   -55929   -24416   -52283   -61984   -31796    -8465 
  -18991   -33229   -22754    -1049    18815    39788    52289    28121 
  -40400  -100769   -90344   -23643    19887    -5914   -63827   -83912 
  -40963    15299    31825    36072    67821   106314   128008   129822 
  108335    72865    34803    -3496   -38669   -64756   -55069     4451 
   42817    -7431   -87669  -112875   -85495   -33140    43606   125122 
  150235    84180   -19989   -89207  -111657  -106418   -96347  -107903 
 -134610  -132459   -79939   -24219   -20668   -31090    11003    59828 
   35251   -21092   -12974    59889   113374    95808    52114    58581 
   95634    76289     3994   -40665   -35005   -19731   -17709    -2701 
   37331    48320    -8794   -80510   -86985   -20745    63143   117237 
  129790   117992    98670    73465    59848    78751   109511   105465 
   45233   -29564   -48457    -4430    42530    45185     9952   -14481 
   -3543     3676   -14620   -24611   -20010   -40546   -86601   -98213 
  -46401    23521    59109    39694   -29115   -93491   -88326   -29586 
    8143     2863     7781    56021    93053    55948   -25615   -73649 
  -66581   -45436   -35968   -24399   -13967   -32249   -69020   -80202 
  -59793   -53635   -98313  -159273  -159735   -95880   -51226   -67522 
  -92238   -81359   -75299  -118698  -174132  -188189  -162247  -114233 
  -53276    -5348    -8454   -53075   -66313   -13495    46405    55556 
   23867    -7420   -16417   -27175   -68518  -103979   -69896    17638 
   73875    60798    12194   -37724   -84191  -123180  -124394   -55014 
   58535   132520   128515   105568   130650   202202   261150   235726 
  141245    88058   110348   127406    91793    39696    23256    33869 
   15266   -26934   -29521     8267    21223   -10181   -36420   -31863 
  -25184   -39817   -57393   -40663    -1655      528   -44663   -86407 
  -90439   -75369   -71504   -76058   -82643   -92288   -76878   -15771 
   54501    75023    27724   -48488   -96871   -81244   -19515    20588 
    8863   -26797   -63792   -73879   -26160    42043    53228    -5603 
  -74832  -103771   -97953   -85308   -60658    -3566    59802    74115 
   39193    14450    16576     1028   -33819   -37445    -9565    -9542 
  -42703   -42622     2918    40326    43330    13744   -33221   -56017 
  -24097    30605    36621   -17478   -57469   -29205    30958    49582 
    2762   -59302   -73540   -44329   -18138      868    30419    50784 
   36774     7641    -1973     8167    30426    76265   122949   109494 
   38536    -1646    29367    70285    79121    81688    94385   109059 
  122166   121474    97176    74071    75906    85296    77070    52295 
   28583    11743   -12427   -54893  -105956  -123062   -68355    19989 
   71563    67615    26400   -30672   -83904  -119422  -137600  -142819 
 -119528   -69139   -43644   -69758   -96437   -71682   -31616   -54935 
 -122032  -131121   -74263   -40717   -56669   -64575   -26376    31252 
   53510    31583    12087     1469   -39079   -83284   -77707   -52583 
  -67345  -121544  -170239  -191710  -200462  -186567  -139813  -103334 
 -105471  -109819   -72354   -22380   -45905  -137060  -168944   -84286 
   18774    43004    23330    40926    82505    88218    62891    30098 
  -19308   -74350   -86493   -29154    46983    66953    32071     -365 
     565    17776    19614    -1311   -24336   -27206   -20276   -24610 
  -17168    29263    77054    62014     1511      253    84256   139037 
   96760    40621    50368    79277    61223    19589    13833    67547 
  149631   199405   173239    67496   -52091   -88377   -35102    20700 
   16607   -25821   -42035    -6502    42271    58329    40818    29584 
   45163    47650     -867   -65457   -81805   -46275   -21896   -41009 
  -46270    11615    75737    68251    10655   -19684     5901    62985 
  116833   126078    66073   -15516   -36995     9630    61290    77190 
   73836    86563   110390    99579    60304    61020   101761   103281 
   54230    32277    63308    83718    63284    48354    68617    98833 
  110655    98995    65285    24253    13987    42195    55834    12872 
  -55276   -83717   -63234   -51115   -74837   -86073   -47458     1732 
    5413   -30963   -47667   -13247    26703    31178    29129    34058 
    2637   -73066  -137468  -153791  -147550  -148841  -145410  -130478 
 -130019  -145670  -133198   -70301     -876    28205    22625     6721 
   -2149     4608    17970    21502     6234    -9809     3025    24558 
   11255   -28144   -58883   -66397   -53036   -37576   -29971   -15766 
     743    -3427   -26163   -45419   -52923   -65242   -91805  -110380 
  -95341   -42268    19200    28367   -36172  -113661  -136678  -114891 
 -104518  -109133   -85215   -39571   -17094   -24274   -34896   -27169 
   -1758    23113    37699    43554    45049    56739    87547   115410 
  115116   103591   116198   140038   117050    39277   -15379     4288 
   49850    59203    40483    37416    54723    65991    67317    67771 
   71472    85068    89632    47051   -27688   -65250   -36000     2685 
  -13107   -64209   -88701   -66866   -38531   -53729   -94401   -95567 
  -57060   -34847   -38371   -28993    12363    61043    70470    26325 
  -19269    -1110    70879   115304    91894    45713    15789    -1355 
   -6855     -991     3527    -3014   -15654   -18449    -5274     7988 
   12988    36035    84164   106529    77881    41884    30796    23058 
    6316    16722    65403   100615    91388    65638    58016    68531 
   61000    14864   -30698   -35127   -19311   -25317   -54035   -62756 
  -30191      320    -3595   -12889   -13661   -29934   -53136   -39851 
   17656    67425    63709    29523     9506    -7412   -49844   -80244 
  -47999    10164    28498    12027     5717    15837    12665    -2436 
      42    16699    23818    27249    50563    75191    41339   -56621 
 -134767  -121332   -52498   -24085   -60285   -95203   -82538   -51254 
  -49722   -73740   -79458   -67280   -86170  -138269  -163963  -142869 
 -122168  -126887  -130476  -116320   -98062   -94200  -109940  -132160 
 -138878  -109298   -52433   -14147    -6774     5111    32788    57224 
   69559    76049    80748    75289    56868    36806    17502    -1673 
  -11464   -13961   -10937     8385    36999    58174    57833    19143 
  -37432   -52336    -1479    67532    92975    80895    83994   106660 
  104504    70919    60457   108346   166342   171926   144376   137911 
  146122   126558    89212    93875   140257   144226    78059    11639 
  -17468   -36250   -47660   -20616    28958    30063   -24490   -47312 
    5572    79170   108536    81174    33103      107   -24677   -52282 
  -62754   -37885    10066    34385     -423   -60821   -88806   -72017 
  -34775    -2765     8439   -12757   -60454   -91312   -69289   -24836 
  -13576   -35228   -49374   -47159   -50529   -60680   -63678   -68369 
  -86794  -100026   -74945    -4700    61201    54271   -18741   -73089 
  -51644     9548    35485    15496    -3616    -2618    12301    30908 
   24459   -16328   -52105   -40284     9979    48126    55116    60288 
   77588    86339    72352    45507    25012    23119    35633    50897 
   59594    51568    31866    20012    16458    15023    24494    40351 
   39773    19523     5812    17512    43556    67182    78108    58436 
    6952   -36303   -39433   -24165   -27454   -45653   -46726   -27632 
  -22643   -45864   -65373   -50648   -13372    16261    27443    25029 
