Origin Time       2011/03/11 14:46:00
Lat.              38.103
Long.             142.860
Depth. (km)       24
Mag.              9.0
Station Code      IWT016
Station Lat.      39.6000
Station Long.     141.6790
Station Height(m) 198
Record Time       2011/03/11 14:46:54
Sampling Freq(Hz) 100Hz
Duration Time(s)  300
Dir.              U-D
Scale Factor      3920(gal)/6182761
Max. Acc. (gal)   89.771
Last Correction   2011/03/11 14:46:39
Memo.             
[...]
   47265    50959    77388    88008    68142    48839    35166    14343 
     349     1558    12260    42817    86460   112417   107218    69654 
   13716   -24114   -19425    17899    52435    57824    50850    57981 
   66523    57730    42938    37179    43070    52511    45480    17756 
    -858    11181    33808    46177    68425   109596   116226    65942 
   21907    13488    13860    25907    52553    67246    64793    50427 
   15631   -17611   -13958    13267    30689    31592    31225    42273 
   54005    59230    66674    59695    28359     7037    17859    49474 
   76801    83170    82453    77484    47576     6580   -15301   -26660 
  -32835   -14981     9074    16370    22370    26790    27503    37149 
   40445    36695    52437    68191    38383   -13109   -15785    23616 
   45462    52240    70653    75016    40339    -2166   -17870    -7380 
   17216    41782    50891    43216    40830    49182    39406    18089 
   31398    72432    82232    51670    25544    16847    12819    26294 
   57380    63197    39780    38007    53775    46223    35838    41949 
   37199    36342    59996    56394    20061    19703    44114    40684 
   30071    37742    53236    57837    33771    10326    28979    58424 
   52212    23933    12352    30256    53148    50472    33489    41089 
   64780    53763    15526    11102    44854    73069    81519    69674 
   44656    31238    20840     2588    15483    64435    97229   100153 
   92850    70749    38067    16513     5609    11989    56291   108185 
  112613    76484    40089    14613    10500    42237    80588    91549 
   95859   103642    76900    24147     5203    27407    57188    83486 
   90085    60740    30352    30740    36485    32477    36645    39192 
   24833    16308    29398    48557    57483    56463    57714    61071 
   48085    18553    -4317    -8101     8956    46580    85738    98312 
   81802    59056    43471    21078   -11294   -13981    25486    51897 
   40484    29916    41868    60962    60679    38048    28021    30799 
   13015    -2621    14528    36928    43571    45974    43988    32880 
   33119    50378    47005    20091    19921    50715    61049    31200 
    1964    26704    88963   107987    77077    67500    82528    74735 
   47110    22690     9840    27405    68878    81041    57420    63048 
  104613   108782    63170    22620     2263    -5228    12560    47654 
   73387    79993    59426    11418   -29245   -39164   -35469   -21598 
   12459    46275    51249    31762    17506    18606    23428    33062 
   42606    29816     1937   -11004    -6740     9942    43714    76414 
   86331    78662    64898    47716    38605    55598    82595    89480 
   84960    70191    30561     4972    20681    32171    21575    28446 
   68217   109383   110078    69819    35101    30469    34040    31279 
   35946    48577    44468    24790    21824    33504    31381    29795 
   44758    38894     5999    -6613     1267     5644    28147    62265 
   62301    47419    53352    43967     4231   -11014     9764    25796 
   45058    85720   105062    77542    43764    32834    25335     8272 
    7795    40508    76143    81792    57907    27256    11232     5391 
    5146    35106    93238   124345   101921    61308    26965    -1496 
     893    43894    84099    92182    69542    24066    -7423     1600 
   21673    30120    37371    34610    13902     1892     5317    11210 
   27905    38200    18505     2768    15717    39571    60383    58510 
   29728    18340    42124    63709    68000    61703    46737    45791 
   69261    84246    67927    43704    43638    58952    50770    14858 
   -9165    -5346    11530    39238    74292    99147    99783    67783 
   21400    -7240   -21721   -13621    34032    67175    56149    46254 
   31485    -5499    -2119    52077    66632    25114     2582    10376 
   11161    15876    27655    15907     9626    46082    70218    41983 
   16859    39787    76994    72129    28860     2901     9697    27184 
   48975    62541    61249    66441    80670    75143    37329    -1728 
   -7249     4138     1706    -6848   -11098    -9006     9722    39447 
   59171    53345    35406    43519    66107    49843     4000   -19322 
   -6285    32053    77930   102944    91118    61548    45907    37088 
   14299    -4647     6746    43694    65973    53421    54628    85300 
   91031    81606    95536    85884    30771    -8864    -8491    14995 
   58020    95720    94309    69828    47423    11962   -19840    11915 
   75510    73908    26176    19011    41829    48107    64019   105575 
  120701    90510    50136    13791    -8966    -3166     6850    10245 
   41865    81702    66853    22292    15455    19850   -10617   -24100 
   18446    54071    38476    17612    28374    33960    16990    28361 
   61430    36782   -27594   -31925    24345    62147    59762    49139 
   45456    37882    20208    -1576   -18182   -12312    14577    31458 
   30534    30702    37329    34862     7779   -14058    13836    63834 
   92538   104963    83886    22573   -15601   -10468    -4955     1842 
   24443    45269    63043    69835    41897     9908    16997    48369 
   63491    45055    23437    31555    50570    54351    55291    66536 
   64447    34135    16657    39090    55736    38795    28827    45556 
   50372    28084    20035    33729    33784    27225    30075    30163 
   33710    44984    55462    71297    77109    54178    26910    17270 
   25860    41664    40072    40477    79399   104818    73168    41139 
   29086    10206     8632    32744    53084    66332    58285    20190 
   10255    45950    60866    52980    78473   115940   106017    59538 
   29445    29170    37170    48500    60377    49078    20406     5810 
   -2522   -14272    -2792    32324    55307    48452    18227   -17757 
  -32034   -10213    37783    88062   113810   102879    53909   -14404 
  -49124   -24820    17232    38167    49050    64632    61795    15048 
  -41634   -41776    13405    60268    71802    67424    62040    54621 
   44359    37449    24037    10081    43934   103732    96263    32917 
    1580    12142    36889    61316    63629    55251    53672    36006 
    1518   -16567    -6339    21700    50354    60903    46100    15433 
   -5416    14656    76382   125099   111742    66663    37267    18428 
    7420    22293    52861    81491   111828   124446    88855    38825 
   26053    36046    35580    22128    17485    50902    89007    73191 
   48716    58580    46210    14897    11483    -1075   -26672    -5039 
   49422    71871    49752    25638    28338    22045   -22983   -57619 
  -39604      592    36797    74309    94099    77983    45311     2361 
  -54425   -85300   -55846      518    38975    59160    69810    69402 
   60368    53006    54462    54156    45572    23388   -12917   -13719 
   32941    48013    40057    87171   121329    60800   -14543   -33918 
  -14346    32755    86389   109234    92503    52274    32676    55741 
   65067    57446    94267   112412    42960   -21291   -16411    16445 
   58605    95477    99556    83575    56119    10661   -14854     3543 
   22235    19862    29462    53001    47132    14613     -196   -10525 
  -20461    35232   129573   143992    80021    37925    19354   -27933 
  -46838     6671    51074    52350    64686    80283    50052     8816 
   13425    34878    35957    26680    10575    -7501    -7507    11755 
   42309    67095    59366    39025    20365   -24605   -54906   -13068 
   51982    70511    46117    15733    -2175    -5907     6444    32207 
   63085    91659    85769    22072   -33278    -7787    49518    61619 
   56274    79573    86489    44986    21099    42865    54408    48613 
   48164    40886    44867    69043    58064     5846   -21216     5872 
   46089    47743    31754    47385    53512     8900   -13547    30568 
   74609    77994    69191    68687    65459    49393    46466    73452 
   87404    70073    62266    60903    30908    -2121    -2788    21234 
   67540   108946    90783    44880    37584    39722     3058   -45319 
  -59003   -27381    35984   102756   130208    98831    48084    16260 
   -9392   -33064   -33937   -14848     1037     5256    14575    49607 
   98737   122088   103699    64177    26237    -1797   -26555   -55920 
  -58881     2173    72312    72035    36916    35094    47685    39170 
   19795     3286     1982    24134    33857     2983   -12076    41026 
  106865   112474    72075    51122    65453    46492   -23750   -52259 
   -1418    74316   134153   136783    74308    28413    34455    44021 
   55549    84690    82595    29062    -1083    33293    67761    45502 
    2394      -31    21069    24445    30935    44152    39673    50161 
   76260    50894     3277    22233    60476    13073   -63681   -43945 
   30128    41953    15599    26180    50379    57420    69338    80341 
   78073    76114    49584    -9292   -18316    43275    86600    96876 
  115657   109374    63456    15577   -49136  -102091   -63260     4246 
   14510    27748    75135    83561    32978    -9017   -11496   -12219 
  -18571     3767    53382    88190    89692    83666    74766    36618 
  -18233   -44211   -31405    -1976    36690    69951    74192    64529 
   68183    78243    75026    60525    55128    65536    60227    22501 
    4939    36880    66749    66465    60797    59728    61823    71083 
   77801    72834    61674    47345    42214    68361    95110    69037 
   32012    40679    45639    18992    13664    43388    78990   101392 
   92295    52463    24289    42060    73498    70692    40880    10236 
   -7459      103    33034    66719    69935    53521    51109    55976 
   42524    13148    -5196      530    15952    24382    12818    -6602 
   11015    64451    90990    73855    56902    51476    37359    13760 
  -15456   -40943   -34440    -8280    -6501    -3339    40746    81944 
   63871    -6442   -61156   -34565    44725    89294    76071    48078 
   40501    51518    54839    42010    31992    37668    48529    34061 
  -14504   -41741     1697    75726   115700   113790    99080    83662 
   48131     3845     4798    52027    89879    98716    99492    90329 
   45280   -25468   -63123   -44778   -21763    -4266    53380   101989 
   66259    18331    42625    79465    65653    48117    74715    97697 
   62779    22537    31791    39481    17607    16572    33452    14400 
  -24649   -27061      924    25166    51184    74663    59748    15722 
   -6260    -2366    -3147      992    25979    46973    47496    42660 
   38706    29343    28274    40666    38505    28938    49131    79437 
   72379    30368    -9400   -20258    -6526    -3120   -13627     9153 
   65691   109177   119726    85595    33245    37785    94685   116782 
   81045    57363    83217    99872    67598    44345    65313    75849 
   58290    54769    62538    61697    60546    41491   -11418   -45062 
  -21513    22881    62178    86520    84877    87688   101113    92232 
   67899    25447   -31499   -45388   -21785    -5149    20601    51110 
   50303    26828     9568    11700    27316    47127    78938    99229 
   70165    24382     5031     7565    23171    42686    53383    52244 
   53695    63347    51516    28638    32136    21877   -20815   -17197 
   51516   110518   127397   110257    62986    18264     -655   -10846 
   -7060    27809    52929    25692   -16357   -22954    -3262    12367 
   22350    31942    21175    -6472   -16210    -2535    25525    63864 
   88824    77161    41366    13440    -1266   -14686   -15239     9517 
   33183    23332     -723    -6284    -2176     5248    36634    83732 
   95096    76071   103958   158552   138819    73115    54097    61595 
   50463    38277    38659    46776    58135    61917    50070    34370 
   28309     8888   -23385    -2702    76890   130606   123224    87918 
   46156    13656     6027    19604    38240    34573    16615    20924 
   27871    14222     7483    19396    44947    84583   103458    60857 
   -3772   -23673   -11329     3081    38846    87693   112527   119595 
  105990    44251   -28622   -46825    -5052    47013    50834    14779 
    5262    19200     5797    -4086    35220    77367    60931     6340 
   -4132    41917    62828    48000    56903    87418    99395    86307 
   64335    44104    36816    41444    30790   -12753   -52971   -33008 
   32946    84134   102388    95135    64512    32869    34996    72707 
  111590   133059   141776   117605    41953   -42280   -56939    11959 
   77206    77958    60342    65922    62441    29710     4857    16682 
   57831   100220   105948    72325    43973    42995    34702    12022 
   26870    81243   114439   103048    67702    38710    53594    98947 
  113698    94416    55698   -15827   -71127   -43270    41264   106050 
  118600    95421    51964     4347   -26367   -37348   -16543    45120 
   93965    77550    37439    28913    38207    45947    39620     5076 
  -11208    19753    23873   -26713   -51533   -14274    49938   108109 
  132746   116693    80502    47428    39925    51106    38290     1088 
  -19019   -19769   -17904    -8575     5879    19263    36505    44370 
   23266    -6229     3020    57199    98092    86618    54517    39748 
   45966    62714    76625    74481    59730    59741    78483    70396 
   28183    10206    39717    81451    92714    62227    19502    -2074 
    6324    25800    34178    28523     9476   -16279   -24411    -1283 
   33876    53885    58198    75836   102369    80443    21216    -7335 
  -18271   -29747    20526   131330   179803   119373    52700    33557 
   15964   -11462   -18458    19063    96596   155755   154235   116038 
   73791    52135    57383    49395     1653   -35287    -5274    39409 
   29116    19808    56952    81234    77672    71523    37248    -3942 
    8944    31021     7086    -8420    18360    44737    48978    56538 
   91832   120473    85758    16202   -24090   -34516   -25380    12687 
   68272   119462   134511    83063     6298   -29992   -37219   -38947 
   -8131    66996   141806   162891   127988    76789    44231    27210 
    7790     4623    24279    30860    27646    43485    66759    81892 
   84535    61087    34476    55111    89704    68552    26365    28266 
   62196    85018    83566    65055    37318    24018    35401    47105 
   40406    26814    31321    35064    11207     2417    31039    51839 
   57558    75409    78668    41142    21532    46498    46942    20335 
   23413    38480    43677    51010    44686    38570    65690    88829 
   70091     9110   -77017   -96869     -386    96554   111854   111443 
  131149   121733    66637    -1580   -52977   -54856     4004    70258 
   95237    96591    95271    74781    27762    -6759     7788    44013 
   69328    84002    76681    61577    74374    96259    95237    80783 
   68041    50747    29398    33236    68446    92782    85255    67298 
   47824    24475    18256    25364    15381    12390    31143    28658 
   19159    51309    94879    94377    48083    -7374   -32207   -15627 
   21749    57492    83898    90102    64147    41551    57569    68727 
   48299    39674    47334    43506    47211    68135    69181    43859 
   21399    11152    16144    32666    41944    33567     8941    -5316 
   20669    61637    65410    38128    30139    44993    54338    53745 
   42033    32552    50098    57767    19930   -11769    -5579    19029 
   51888    65297    45542    20278     6389     6877     9491   -14668 
  -32454    26411   116268   135925    93078    55800    46665    38562 
   16125     7951    21703    26537    32274    64083    89420    75484 
   35398    -8754   -36901   -31706    -2952    23064    48512    86680 
  116812   115357    88722    53899    33966    38982    43241    38610 
   47698    63075    61189    41098    19267    20218    45271    61295 
   52594    42388    39095    35806    48915    73908    85748    83899 
   63290    28063     4817   -15311   -34957    -2930    69605   101023 
   86359    61105    29532    15814    21012     8139   -13376   -12935 
    3669    21892    33566    34409    38693    46502    44078    50765 
   66213    55600    38798    47415    48391    30573    33004    44333 
   30015    26795    59501    76986    69788    77647    88856    74992 
   46412    24669    18098    12989     6301    33097    81153    77069 
   23725    -3629     9486    26350    38295    50286    47766    27514 
   19139    27905    27768    28871    46554    52267    27230      728 
    5205    22380    17769    -1279   -12022    -1345    36245    70768 
   66779    48866    48724    47178    37136    39426    51197    58276 
   54472    41581    40415    64093    95034   105535    77570    24741 
  -15499   -37119   -52837   -35243    24664    67471    63312    45808 
   31414    18773    23134    39770    56380    92067   130390   115498 
   68136    50173    50370    47385    58323    71201    58073    22678 
  -15785   -43232   -36681    15175    56945    47438    40680    58889 
   46633     6261    -4869    11202    24338    42630    48924    14129 
   -8751    21705    46223    30070     9569    -8577   -23178     3179 
   55458    90371   103527    78383    21399   -12652    -8756    20303 
   73790   109186    70311    -1188   -19823     9397    26380    28830 
   63034   104194    79433    15277   -21427   -34446   -31167    -6043 
   26457    62233    86483    76307    55487    54867    50923    21127 
    3776    22625    47968    56444    33706    -1745    12946    72842 
  106654   103955    99501    95459    82281    64095    40474    31030 
   65862    93938    45520   -30123   -40221    19987    81842    96992 
   81092    54444    16442    -8250      109    20619    34645    41745 
   45254    44848    38612    30951    23920    11366   -11800   -27172 
   -4904    36403    53980    58676    60680    31616     -358    11204 
   44063    73157    87469    67044    37657    47191    61761    27295 
   -9431     5367    44784    60494    32512    -3948    -7909    -2123 
   -4994    23735    79485    94290    75977    71751    50279     9024 
   10386    27195    -5857   -40257    -7953    45549    43195     8934 
   16798    51124    40648    -3729   -18624      559    18739    21181 
   24600    49540    77344    90785   101431    86624    42375    31760 
   53777    57647    62197    73912    56551    21021    -6283   -19016 
   -2678    40387    81242   104317   103776    76721    34208   -11383 
  -28008    12830    61459    59124    27352    -3651   -29735   -27052 
   16426    66269    87561    79419    56834    30569     3390   -16926 
  -16801    -5053    10699    51178    93527    74532    15407   -12762 
  -11581     1105    37549    67996    62524    60289    65337    15274 
  -60514   -60450     6354    53222    57328    48775    33560    -7933 
  -62465   -79722   -35203    47668   114452   112951    53953     1962 
   -3582    16670    25765    33255    52588    51581    15616   -24429 
  -24968    29183    88930   101147    82217    55869    15324    -8340 
    9518    24052    23615    54195   100528    99470    61531    44689 
   39757    13171     2333    38423    72238    74025    74936    71194 
   32880    -6540       43    22840    15614    -1629    13636    51033 
   62091    39966    20916     8698   -15069   -35745   -32013    -4283 
   33944    54717    40111     9923    -7848    -6147    12926    26726 
