Origin Time       2011/03/11 14:46:00
Lat.              38.103
Long.             142.860
Depth. (km)       24
Mag.              9.0
Station Code      IWT008
Station Lat.      39.0815
Station Long.     141.7093
Station Height(m) 24
Record Time       2011/03/11 14:46:47
Sampling Freq(Hz) 100Hz
Duration Time(s)  300
Dir.              N-S
Scale Factor      3920(gal)/6182761
Max. Acc. (gal)   241.035
Last Correction   2011/03/11 14:46:32
Memo.             
[...]
  -67673   -74882   -76362   -68799   -66757   -73137   -78447   -77225 
  -74300   -76055   -74343   -64144   -52338   -49177   -58543   -66975 
  -66963   -62574   -57593   -60636   -67147   -64291   -56469   -53808 
  -51657   -38649   -27284   -39347   -62786   -73157   -70120   -63069 
  -58665   -62424   -66134   -59526   -56551   -66645   -74504   -72656 
  -61714   -50794   -60435   -81899   -87717   -75883   -64044   -59025 
  -54570   -56735   -69363   -77383   -73563   -65856   -59379   -51989 
  -47871   -54955   -68167   -72827   -58374   -40990   -48361   -63560 
  -61457   -58348   -63258   -69241   -71269   -60344   -43073   -38260 
  -54962   -78885   -81716   -61217   -43783   -45653   -58676   -67473 
  -68163   -71776   -84912   -95679   -88333   -65809   -48567   -52059 
  -71060   -80124   -69118   -56486   -47783   -41269   -46958   -62356 
  -70315   -66092   -57436   -45106   -42956   -59446   -65606   -62206 
  -72392   -77526   -73204   -79287   -84618   -78773   -74590   -74619 
  -66907   -47204   -29936   -36229   -62983   -78853   -71142   -66572 
  -78381   -79630   -62097   -45314   -39519   -54688   -69362   -54801 
  -44961   -59927   -66929   -58968   -57817   -66393   -74044   -73465 
  -66325   -68615   -76559   -72938   -66987   -70622   -83079   -86128 
  -71124   -62385   -56261   -42177   -41853   -58114   -77521   -83925 
  -73815   -72912   -76397   -64329   -58904   -70548   -75709   -63552 
  -47138   -48232   -66033   -73491   -64427   -56822   -50597   -38000 
  -33979   -42821   -53074   -73705   -90799   -77275   -59487   -56468 
  -53214   -59853   -84877  -102285   -90216   -59421   -38466   -42602 
  -50892   -35446   -20421   -40029   -63224   -57579   -48088   -54988 
  -68974   -72156   -55780   -43823   -52180   -66845   -74464   -68012 
  -63684   -71319   -80453   -88164   -77167   -63636   -74579   -71672 
  -46323   -32562   -39285   -59375   -76645   -90159  -101126   -99736 
  -92854   -85210   -77218   -75065   -68101   -52602   -50177   -56098 
  -59100   -71277   -71868   -51761   -46812   -56784   -63457   -69174 
  -69867   -71593   -80700   -74815   -48871   -24517   -16210   -32036 
  -53846   -53572   -49807   -61287   -68833   -69639   -67031   -59291 
  -53011   -42762   -49032   -84386  -103374   -97576   -92408   -88658 
  -89866   -85471   -65603   -56999   -71094   -77287   -63601   -62751 
  -80592   -84895   -67834   -50097   -57373   -81533   -80197   -56972 
  -49297   -54209   -57219   -57271   -60529   -73299   -75714   -65506 
  -56557   -38332   -31029   -47027   -55091   -60567   -68212   -59810 
  -50625   -58482   -77942   -84344   -72395   -71166   -66907   -54052 
  -64364   -72301   -64958   -58977   -52884   -63553   -65066   -42364 
  -44933   -62053   -65575   -74068   -85698   -79939   -56841   -45951 
  -70016  -100494  -100118   -83273   -78735   -83731   -84111   -66435 
  -32320   -17755   -41867   -70517   -75445   -74934   -92457  -105841 
  -82480   -54815   -69310   -92412   -69181   -19314    -4560   -38822 
  -72379   -71656   -63438   -61779   -46220   -37163   -52847   -52338 
  -35384   -46296   -82649  -108455   -85454   -32351   -33335   -72914 
  -55797   -24624   -59023   -98689   -87200   -56572   -43081   -55501 
  -64782   -42404   -13497   -15237   -41699   -67175   -89944  -104553 
  -84860   -49601   -55331   -87356   -84354   -64685   -71793   -84858 
  -87608   -88093   -83005   -78150   -72681   -52859   -40573   -58285 
  -72826   -53922   -30003   -36436   -63388   -92526  -107617   -90790 
  -85321  -119999  -125214   -86906   -60521   -50150   -62607   -85804 
  -73972   -51843   -43911   -37182   -43912   -55636   -61497   -74242 
  -80869   -67113   -44970   -44633   -66255   -54542   -24004   -46535 
  -95924  -114032  -101912   -85130   -83227   -83018   -71621   -63903 
  -62992   -45185    -6095     -896   -54572   -87437   -45102     2688 
  -12977   -68176  -109157   -98999   -65534   -75525  -107611  -106923 
  -86936   -68641   -62199   -72836   -77070   -66445   -55377   -56049 
  -68820   -65639   -42838   -35400   -41661   -35765   -31203   -49199 
  -71116   -84291   -78924   -35831   -13883   -63389  -109272   -78854 
  -14901   -26823   -98894   -92653   -44198   -69232  -101523   -85095 
  -68176   -62662   -72458   -84761   -62379   -50805   -87415  -109293 
 -101066  -102896   -98871   -76898   -66744   -59933   -36369   -47496 
  -92000   -84638   -43674   -18846   -15772   -43702   -58088   -65091 
 -109385  -134201  -103961   -54474   -27424   -36582   -37563   -24725 
  -50348   -96296   -90884   -34368    10628    19925   -12313   -63808 
  -53634   -15204   -38170   -59718   -36958   -29175   -43142   -59608 
  -87457  -115661  -110811   -85310   -75360   -59836   -42716   -71133 
 -104809   -94403   -74409   -65799   -60251   -58115   -69932   -97746 
  -99509   -67285   -62915   -89166   -91731   -71947   -55827   -46711 
  -45656   -46074   -45149   -40328   -32515   -42537   -56355   -57312 
  -76010   -95345   -64740   -24077   -36646   -71370   -81864   -75180 
  -61754   -43917   -43356   -71841   -86654   -74145   -71535   -70123 
  -70909   -80861   -66929   -62326   -85139   -67362   -27365   -27952 
  -46738   -74797  -107879   -92962   -51253   -37128   -44055   -65269 
  -74453   -52204   -42764   -69288  -106077  -120718  -105853   -90735 
  -89453   -83245   -59712   -38025   -52139   -86682   -90761   -59891 
  -24742   -25670   -70899   -85567   -62092   -75576   -81732   -49531 
  -57314   -85671   -80995   -63347   -49275   -63434   -80995   -54470 
  -43799   -68648   -67045   -44944   -32292   -46030   -81440   -88414 
  -66380   -64092   -84630   -89984   -60522   -41480   -67256   -79507 
  -55834   -57030   -91449  -105110   -69675   -34093   -50130   -80091 
  -82090   -68326   -62849   -62967   -48659   -35894   -34825   -42257 
  -67148   -79463   -77325   -82323   -60195   -27041   -29108   -39999 
  -50221   -75038   -81439   -62422   -55892   -60685   -62468   -60404 
  -47524   -55608   -99949  -113338   -82360   -63720   -66199   -75985 
  -69892   -34863   -11344   -29140   -71720   -93465   -90640  -104552 
  -98758   -45359   -15758   -23950   -25686   -27941   -34732   -54835 
  -90852   -73021   -24475   -40650   -77974   -83729   -86668   -88287 
  -94903  -117716  -105563   -55922   -48524   -80625  -102467  -111392 
  -97155   -70195   -56384   -48978   -46586   -39748   -26612   -37831 
  -67203   -86699   -85859   -68898   -69010   -80243   -64167   -38217 
  -26508   -18699   -22605   -60407   -95509   -91347   -81319   -78373 
  -72366   -56597   -36027   -42384   -57456   -56002   -56060   -57994 
  -51261   -42316   -54753   -66123   -35687   -22974   -79306  -126522 
  -88180   -19472   -21393   -79492  -102975   -73946   -45537   -50200 
  -68584   -84641  -103225  -100384   -63602   -23371      405   -17139 
  -76477  -103206   -88042   -81645   -59618   -49185   -89668   -90584 
  -61021   -72248   -57090   -32887   -51962   -50933   -59262  -100010 
  -97863   -78560   -84654   -72932   -42303   -52577   -85855   -60645 
  -24956   -60528  -105421  -111395   -95114   -58849   -35374   -38145 
  -26244   -14105   -49899   -90125   -78857   -53811   -27636    15761 
   12118   -49991   -82653   -73767   -67380   -64315   -55843   -30814 
    4211    -5004   -62988  -105886  -103825   -75761   -66198   -88399 
  -98751   -88597   -81778   -69900   -65090   -92691  -110283  -101522 
 -108198   -95417   -39766   -13267   -41650   -75772   -75596   -47613 
  -27438   -49264   -86631   -69349   -42223   -65407   -71720   -37359 
   -8954   -20936   -74533  -101872   -82352   -71413   -72039   -67850 
  -67942   -74160   -80808   -73713   -64051   -63727   -47111   -33398 
  -44830   -40359   -32622   -55131   -58323   -27986   -10262   -20628 
  -57622   -86298   -69651   -44943   -64918  -104806   -95445   -47876 
  -22262   -25776   -50857   -77663   -75623   -60964   -50647   -50992 
  -81235  -109563   -91170   -54614   -58395   -94661   -84806   -35200 
  -41079   -70459   -58669   -58779   -64874   -56707   -70181   -66215 
  -45452   -48871   -54657   -82219  -123772  -107182   -63957   -76658 
 -121178  -120549   -76229   -60930   -86763   -86016   -51057   -30836 
  -29711   -39390   -52143   -31499    27961    66134    36766   -34726 
  -94522  -104917   -74081   -60487   -76160   -73641   -54842   -44645 
  -33220   -25126   -45666   -92455  -134155  -141173  -103100   -56912 
  -43905   -35352   -12752    -8080   -20951   -43576   -90658  -132961 
 -112212   -57126   -57112   -80059   -59811   -55771   -59002   -29466 
  -52895   -92153   -54982   -30424   -55837   -58061   -43890   -52569 
  -75027   -86386   -85413   -77983   -66785   -74954   -86639   -63689 
  -42494   -58057   -76917   -79316   -69913   -57709   -74390   -89030 
  -63696   -51072   -25601    21252    -8930   -47274   -29651   -53076 
  -92707   -82628   -55378   -43088   -58885   -73766   -59426   -58412 
 -112564  -166755  -139119   -81294   -81528   -94238   -65866   -36806 
  -39151   -47937   -26561     1802    -5726   -13907     1869     3440 
  -17875   -42017   -47759   -33209   -35951   -52158   -46839   -54065 
  -92972  -107153   -85051   -74352   -91534  -105968   -88513   -77241 
 -100271   -97724   -74466   -86772  -103121  -104673  -102505   -63999 
  -10985   -31174  -121515  -183711  -179232  -152404  -133932  -109012 
  -62696   -31461   -50494   -76242   -65365   -29957    13330    26177 
  -18521   -77647  -123834  -151632  -130870   -95623   -97138  -116255 
 -139369  -138455  -103266  -102623  -138730  -151396  -122966   -64723 
  -25703   -41382   -69976   -45409    23425    50974    33605    43610 
   63262    49916      613   -74681   -97305   -47553   -42101  -101878 
 -125561   -97267   -77859   -74952   -51810   -11761    -3923   -22964 
   -9309      487   -43635   -61444   -38643   -42927   -35790     -400 
    9815    -4198   -43842   -94587   -82239   -32221   -47181  -101436 
 -118716  -127937  -157320  -171752  -163939  -146043  -112532   -68055 
  -29719   -16582   -11779    21219    36229   -28563  -104033   -91089 
  -43873   -33400     1100    57260    60584     9590   -76380  -147611 
 -163047  -164370  -152090   -88286   -37144   -45406   -31462    23520 
   37614    13447    -8374   -57080  -113859  -111196   -63636    -6672 
   45250    48436    15423     8897     2277   -36165   -64326   -86462 
 -122183  -144344  -156412  -142581   -49759    62030    70711   -29455 
 -152422  -224165  -221007  -198218  -206635  -173736   -74278    -5855 
   15426     8767   -35141   -79835  -130215  -201273  -216231  -124351 
  -10191    18164    10591    35834    17167   -63327  -118623  -118676 
  -95818   -78816   -84790  -139349  -191609  -155530   -67655    -7937 
   -3990    -9327    30308    33993   -35342   -54932   -10759    -9306 
  -59289  -100109  -116821  -117706  -103617   -94239   -93206   -65238 
  -15736     4667     -105     2786    -1650   -25959   -57532   -76439 
  -59428   -28123   -14148    -4608    13478    24273    -7372   -72299 
 -119101  -152919  -178557  -153314  -112518  -114492  -102892   -31969 
   30629    20476   -22784   -34970   -19438    12639    52621    64057 
   27247   -50006  -128517  -146118   -95007   -54648   -84954  -116508 
  -83849   -83780  -152142  -150615   -92781   -83218   -36160    67905 
  103425    65936    20256     1758     4752   -21890   -66494   -71786 
  -23892    35905    33412   -30714  -106355  -193263  -265168  -263775 
 -183451   -73983    10558    50812    13773  -103454  -180599  -140684 
  -80071   -88645  -112779   -84733   -61495  -109747  -167449  -184915 
 -211442  -228366  -175864   -77588    30461   101822   109863   105034 
  107682   122715   141064    91404      352   -28768     8854    49856 
   43691    -3263   -51424   -88570  -135157  -198765  -225601  -203971 
 -186013  -150272   -84802   -45998   -54964   -80655   -61948    18300 
  115550   184049   173451    61391   -89231  -191901  -245653  -280134 
 -261649  -150104     2890    83373    98353   111669    51687   -99152 
 -235277  -297057  -276396  -223791  -140223    35015   175736   105373 
 -118699  -299271  -305113  -228747  -211588  -172331  -119781  -148911 
 -136107  -135738  -252488  -276879  -186763  -126519   -51489    55758 
  136836   169507   151613   134625   180658   262707   296429   271156 
  239329   200105   160111   129309    49852  -111586  -286354  -317185 
 -206263  -176071  -242419  -211591   -78543    45484   149018   220170 
  218144   157891    73374    12792    -8054   -68441  -187104  -300000 
 -391632  -429298  -354215  -199559  -113986  -179293  -228492  -161706 
 -125189  -133651  -118616  -115907  -100875   -66033   -61428  -108456 
 -208005  -225946  -107226   -64446   -97192   -15800    76338    76671 
  107883   209812   290934   267545   151575    33246   -38903  -128027 
 -258455  -299420  -221316  -145256  -120860   -62453   141663   309605 
  175393   -64802  -122254   -55167    28121    71660   -20762  -224890 
 -363250  -328488  -195958  -125227  -222903  -355237  -300162  -133697 
    4005   147280   275092   295883   136405  -110276  -192099  -152596 
 -170462  -193128  -253128  -339067  -308780  -223358   -65008   178773 
  258719   183564   166580   136771   -38120  -240952  -280628  -195151 
 -178914  -217820  -152565   -39617    11154    84560   197384   218445 
  132058    42628    30296    89254   130578   111628    67284   -24440 
 -178726  -315388  -409689  -443007  -339595  -198465  -183093  -201294 
  -83840    47363    11287   -44373    -8501   -16033   -53074   -44943 
  -82373  -150110  -126565   -62524   -25556    20785    42728    40693 
   78966    84419    16518   -19177   -38935  -127117  -192236  -181158 
 -160766   -57685    95058    66569   -79005  -143562  -156171  -121517 
  -63459   -82095   -84518   -55387  -104273  -122036   -79688  -103232 
 -102303   -11323    11670   -26596   -26922   -76387  -152250  -133911 
  -76441    13478   178361   278506   232964   127271   -12332  -169278 
 -254549  -243541  -163588     3604   163627   116844   -60154  -112832 
  -58876   -78010  -138755   -69639    52090    58339    59333    84554 
  -14856  -140638  -138121   -96480  -116010  -165170  -195405  -192126 
 -169479  -150047  -115429   -46816   -19233   -85668  -149833  -155874 
 -146031   -99430    15992   154554   195542    74933   -64008   -91739 
  -94091  -137349  -114598   -33917   -69532  -175932  -193751  -132537 
  -18498    82810    43489   -69519  -106881   -83667    -2975   113910 
  151791   178570   211726   100860   -80757  -190784  -190726  -130126 
 -165808  -235365  -202671  -191644  -236403  -269779  -324309  -339231 
 -266037  -172020   -94375   -63591   -72099   -74851   -90875  -120017 
 -108718   -67116   -50575   -43421     1731    57030    85061   110636 
  130595   125174   103611   -33829  -287313  -347944  -222496  -264222 
 -342838  -215500   -81312   -29869    35616    81551    50916   -27533 
  -80838   -93254   -55194    27545    69696    29469   -61660  -102830 
  -60185   -70419  -138757  -143683  -150949  -196103  -110580    58975 
  101909    87290   119244   155435   189295   159894    52563     -547 
   40263    88892    82090    53422    37013   -13823  -113730  -245151 
 -348737  -347696  -281600  -137223    76550   146824    56500    -8193 
  -28500   -23359   -21074   -91730  -137742  -139429  -216028  -256418 
 -170469   -91842   -32135   109313   221559   143538     4384   -83760 
 -170711  -146752   -53295  -118114  -192250  -128980   -99954   -97897 
  -38368    -5095   -13762   -33461   -39597    13156    12185  -142039 
 -285833  -267376  -142623   -63918  -118304  -208142  -223543  -212498 
 -200903  -122243   -16122    11063    15192    78073   117051    65800 
  -43565  -118698   -80041     4210    77436   122842    69380   -22466 
  -58874   -73986   -63121   -14767   -23258  -120256  -214386  -254176 
 -263197  -272690  -223371   -57839    48522   -15232   -88227  -109361 
 -141542  -167534  -142038  -104076  -129320  -155201  -120285   -87783 
  -65824   -85830  -183291  -221073  -172935  -143303   -69143    57350 
  128820   164887   174375   114604    25426   -59110  -121716  -112120 
  -35736    44794    67494    13706   -60490  -122803  -169869  -147077 
  -26800   111928   101962   -66194  -145449   -96013   -62760     9168 
   48518   -36799   -21240    62868    -1981   -88325   -83671   -49100 
  -58527  -140242  -142734   -22371    33221    36857    81875    33124 
 -103614  -169257  -196562  -162463   -32657     4742   -51692    -8810 
   58414   -18480  -156617  -219528  -199778  -146135  -108799  -101411 
 -110453  -112537   -98365   -77957   -71656  -116146  -176449  -166610 
  -75712    17430    34657    -4853   -58512   -85999   -34303    37225 
   58037    33777   -14358    -5024    14224   -90359  -210782  -223428 
 -173529   -83400    -9095   -19943    -6472    72166    60559   -52700 
 -144500  -150711   -96544   -67615   -36637    39661    34238  -107359 
 -228012  -211674  -134613  -101280  -129563  -199560  -217046  -112241 
   -4623     3103   -14221      432    -7477   -49737   -93222  -165018 
 -214887  -154551   -68466   -39390   -18439    20920    66741   102630 
   78179   -32779  -136306   -89784    55102    93669   -36223  -226951 
 -310240  -237869  -180471  -166942   -57134    68834    90091    42351 
  -16147   -40349   -66941  -138124  -219069  -243125  -178606  -145163 
 -157000   -68673    32237    38646     8994   -94477  -200960  -172766 
 -153091  -227991  -234516   -78364   145617   251285   180648    98025 
   81494    -2241  -128409  -129044   -36313    11393   -14234   -59390 
 -118083  -187825  -165172   -23509    89139   111710   112312    63255 
  -35309   -60418   -33058   -90397  -205331  -224113  -104277    19960 
   27697   -18794   -14949     4501   -34646  -100875  -131199  -135329 
 -132372  -127907  -114861   -86471  -131343  -240577  -274007  -271977 
 -260810  -166665  -120543  -175111  -151792   -67659   -40320   -12651 
   -4210   -83072  -126551   -51649    44238    23944  -117473  -190607 
 -129146   -77130   -69315   -24010    64988   107761    81512    47772 
   15443     3980    17645    12630    -4199    -9561     -892     7855 
   43229   103007    40389  -151243  -238682  -168887  -126169  -129418 
  -61787    13454    46282   120451   139886    -9351  -159351  -198082 
 -271242  -406356  -400305  -220805   -73021   -27938   -48007  -144531 
 -199005  -145934  -126733  -108433   -26679   -17390   -44646    10503 
   84645   103567    36350   -46532   -33528   -48693  -196140  -249008 
  -85997    54474    46466    30160    52160    26886   -42096   -65747 
  -29998   -22876   -59037   -67423   -61048   -48661   -31106   -79094 
 -113247   -46339   -15878   -97765  -169965  -143209  -123352  -126821 
   16401   173717   138939    53597   -32045  -171741  -247972  -218500 
 -151371   -50834   106164   240132   227211   119188    41960   -24374 
 -146968  -236818  -163056   -76890  -172931  -264468  -218502  -229034 
 -281736  -269757  -264634  -186596   -34355    19127    57872   160498 
  142911   -43579  -227648  -312307  -307114  -256550  -215675  -158814 
  -39385    93269   186552   254091   282455   230030   103972   -83638 
 -261486  -284720  -214154  -179469   -64195   110112   111743    16160 
