Origin Time       2011/03/11 14:46:00
Lat.              38.103
Long.             142.860
Depth. (km)       24
Mag.              9.0
Station Code      IWT016
Station Lat.      39.6000
Station Long.     141.6790
Station Height(m) 198
Record Time       2011/03/11 14:46:54
Sampling Freq(Hz) 100Hz
Duration Time(s)  300
Dir.              N-S
Scale Factor      3920(gal)/6182761
Max. Acc. (gal)   229.055
Last Correction   2011/03/11 14:46:39
Memo.             
[...]
  -32176   -22996   -10704    -4123    -3501    -2734    -6478   -19499 
  -33682   -44046   -49973   -47843   -43935   -49350   -62001   -75740 
  -90227   -99276   -92393   -73707   -56942   -45148   -33349   -19650 
   -5389     4568     4801    -2202   -11019   -20623   -26344   -22004 
  -13845   -14134   -23958   -36065   -48022   -57673   -55932   -42172 
  -29188   -23334   -25522   -39399   -55795   -56868   -41304   -23167 
  -13103   -11117   -15274   -27350   -43710   -57224   -65520   -64571 
  -55321   -48828   -46052   -40371   -34652   -33700   -39050   -50500 
  -62300   -66322   -58742   -45097   -36922   -38187   -44775   -51618 
  -50318   -37352   -22634   -15275   -15854   -22592   -31371   -37658 
  -39048   -33630   -25546   -26844   -41533   -54856   -51461   -35620 
  -19098    -7229    -7343   -23345   -43605   -54230   -50842   -36117 
  -19648   -11559   -14736   -26707   -35853   -27601    -9764    -2630 
   -6491   -15699   -35284   -55765   -58344   -50650   -51646   -59827 
  -67131   -76057   -85366   -80214   -54333   -26497   -14314   -13328 
  -16826   -25504   -33333   -32837   -26321   -20173   -21554   -30357 
  -34936   -31704   -27714   -26976   -34307   -50127   -61804   -55212 
  -30190    -8994   -13129   -32813   -45920   -42969   -27450   -14967 
  -13771   -14881   -16528   -23866   -32510   -35571   -29333   -18946 
  -19011   -30430   -38929   -40676   -41070   -40897   -39870   -37715 
  -34067   -32197   -32365   -31502   -31219   -33553   -38496   -46371 
  -53198   -53872   -50032   -46638   -45395   -44105   -45108   -54179 
  -61242   -50860   -32709   -25721   -31304   -42992   -53181   -53127 
  -44716   -37529   -36923   -43387   -50403   -49882   -44281   -38459 
  -31005   -21452   -12117    -6199    -6966   -13469   -20340   -24281 
  -26707   -25362   -16278    -9736   -16067   -23264   -22749   -24855 
  -29221   -30487   -40909   -58942   -58225   -32057      -32    21742 
   26242     9257   -26854   -63559   -77848   -71053   -59989   -47724 
  -32514   -24380   -26701   -26606   -23992   -34890   -57733   -79356 
  -92963   -82063   -40376    -1796     2759   -19289   -49948   -71898 
  -67870   -45443   -24545    -7630      569   -10574   -35233   -64305 
  -84616   -68537   -16451    28463    37036    17941   -15844   -55646 
  -82457   -82085   -57738   -23763    -6942   -23511   -55072   -75480 
  -74081   -51582   -21065    -1887    -5794   -30598   -59908   -71871 
  -55987   -24534    -1366       57   -19544   -50158   -74979   -80661 
  -65537   -40860   -28576   -40178   -61632   -78881   -89632   -83868 
  -53342   -12398    10449      673   -22936   -35586   -39688   -46382 
  -53867   -55760   -48626   -36165   -28590   -27854   -29684   -37578 
  -48258   -47707   -37809   -29752   -21626   -14266   -16794   -25717 
  -35059   -48757   -60704   -58359   -44218   -29122   -20909   -21499 
  -27007   -33121   -34142   -28283   -25285   -27936   -25799   -19741 
  -19530   -24348   -29678   -34933   -38654   -36415   -28167   -26586 
  -39282   -51832   -49374   -33659   -13831    -2960   -13782   -44411 
  -77363   -93168   -84109   -56915   -24662    -5761   -13183   -29153 
  -26975   -15904   -17562   -29082   -45413   -66149   -75119   -64056 
  -48773   -37034   -25766   -19884   -18849   -15322   -12313   -14486 
  -18228   -22735   -33027   -46985   -52424   -46199   -45036   -60164 
  -79120   -86974   -78886   -55797   -25911     3486    26790    34461 
   26572     8627   -18224   -39470   -38989   -27055   -19242   -15407 
  -17952   -35062   -57963   -66436   -61295   -59346   -61711   -63487 
  -69586   -74868   -70581   -65583   -63034   -52639   -37940   -28588 
  -20674   -10756    -5623    -5428     -538     5638     2052    -2998 
   -3142   -14380   -34875   -40699   -34399   -34476   -37212   -34119 
  -32913   -42313   -59602   -73892   -76583   -69888   -59047   -48003 
  -47226   -60731   -71972   -63480   -36176    -5444    17264    36672 
   52794    49256    20805   -17621   -46577   -50386   -32247   -17755 
  -25252   -47714   -68277   -81094   -90294   -94173   -85327   -62546 
  -34254   -12522    -5348   -12884   -26075   -33970   -35335   -34168 
  -28371   -17258   -13762   -31029   -61781   -87864  -100691   -99820 
  -88991   -75318   -58761   -37454   -22844   -23884   -32137   -40918 
  -47629   -41744   -21930    -1997     8558     6160   -12175   -37808 
  -48994   -34695    -8727     9520    11609    -4096   -28453   -45613 
  -52033   -50287   -37159   -13912     4345     1596   -17535   -37855 
  -52506   -55211   -46436   -41002   -39302   -24853    -3202     2397 
   -9166   -23679   -42136   -71421  -103070  -118475  -108314   -79958 
  -45949   -17379    -1184     5349     5385     -574    -3144     6156 
   16582    10087   -14323   -40505   -55834   -61496   -59487   -49074 
  -42540   -51642   -62310   -59256   -50880   -45495   -40768   -39385 
  -43598   -45537   -39408   -31020   -24792   -14676      472     9797 
    8610     3759    -4072   -19520   -40185   -65650   -94949  -111878 
 -107147   -95637   -85111   -69410   -55462   -47447   -32008    -7495 
   12649    19984    13304      256    -7681   -11598   -21222   -33909 
  -36970   -30722   -28076   -34200   -45394   -60345   -75172   -82459 
  -87284   -95880   -96038   -76468   -39627     4346    35881    40804 
   24183    -2289   -26407   -37589   -37407   -33868   -27960   -20485 
  -23727   -44767   -67320   -76309   -77164   -75085   -69169   -61484 
  -53145   -44772   -34665   -22826   -19653   -25902   -27841   -23933 
  -19129    -7901     7385     8514    -8623   -23349   -21676   -14373 
  -19340   -42191   -74501   -98913   -95884   -65580   -36551   -30230 
  -40936   -59860   -80604   -88875   -76507   -47344   -14258    -2959 
  -19297   -34057   -34835   -35102   -33884   -21013    -2399     6886 
    3940    -4272   -13546   -19054   -20176   -28640   -49193   -63375 
  -55202   -35751   -24056   -26118   -40800   -61222   -67796   -50085 
  -27210   -14011    -1752     7308      955   -13188   -21328   -20215 
  -10730     2503     9187    -5083   -43305   -81321   -92081   -79343 
  -67744   -63762   -51930   -36462   -35271   -38506   -33520   -28203 
  -22520   -16060   -22378   -38564   -42753   -29917   -17359   -16781 
  -20658   -20649   -21837   -25185   -19917   -10946   -18939   -42279 
  -64002   -82632   -93087   -76963   -37959    -4094    11919    18165 
   15159    -1216   -19687   -27447   -29244   -32233   -29525   -17887 
  -12292   -24669   -50183   -78204   -96812  -100485   -91675   -65941 
  -28992    -5224    -1393   -10148   -25665   -26942    -5875    12172 
   13543     6508    -3214   -10795   -17343   -32184   -53794   -71160 
  -77608   -72972   -63680   -56938   -56251   -59958   -59611   -54636 
  -53843   -51975   -36788   -17712   -14137   -24695   -36491   -45485 
  -50747   -53065   -54438   -45718   -21426    -1184    -3682   -21143 
  -39072   -50081   -44877   -19824     6455     9299   -11066   -39701 
  -63475   -58442   -15076    27916    28219   -14835   -81746  -146277 
 -170984  -139991   -78344   -21820     5650     -624   -24234   -41519 
  -35410    -4765    35557    64062    64117    36035   -10942   -64063 
  -99561  -107556  -104060   -95301   -73717   -47917   -29770   -13684 
    1555    10949    15957    13418     6507     8173    13553     9171 
   -2878   -18064   -38722   -61426   -79035   -88520   -84956   -64213 
  -35369   -17597   -22762   -41938   -52418   -44352   -26838    -6925 
    7554     2949   -15361   -31909   -46703   -55028   -48483   -40628 
  -41328   -40355   -36526   -35060   -32153   -29517   -30592   -32544 
  -40741   -54171   -53366   -36447   -26542   -30670   -33599   -31772 
  -34970   -43469   -54580   -67987   -75085   -72838   -69512   -67341 
  -65342   -59523   -41591   -17864      720    15056    23272    23789 
   21544    17756    14748    11032    -6210   -37255   -65473   -79878 
  -78308   -71198   -78902  -103707  -124184  -117739   -80487   -31018 
   10168    36704    47893    43078    26381     9365     9124    29636 
   45749    30569   -11097   -57532   -99562  -131150  -133475  -103830 
  -70306   -52253   -48493   -61091   -81568   -81368   -53503   -22578 
   -4458     2097    -1066    -3543    10862    34861    43984    28405 
   -7049   -53302   -96226  -118569  -107466   -66323   -22510    -7006 
  -21202   -46429   -67744   -69291   -46051   -14998    11106    32042 
   40455    24103   -12275   -44824   -53119   -37879   -18496   -12749 
  -22225   -42978   -69556   -86074   -80435   -58145   -29999    -7009 
    -779   -11452   -28977   -42923   -41390   -22838    -7906   -16894 
  -45653   -70137   -71599   -60368   -53764   -44876   -32009   -35699 
  -60216   -82131   -76688   -47674   -26677   -23415   -22982   -31950 
  -56167   -74144   -75718   -68629   -52711   -34899   -34335   -48923 
  -58400   -55412   -41970   -21409    -1355    13714    16905    -1142 
  -29777   -46097   -43254   -31982   -27118   -30274   -27671   -18091 
  -15361   -23841   -44181   -76039  -104264  -115401  -110892   -89837 
  -46823    10912    60220    80968    72385    44144     9406   -12022 
  -11895    -5283    -8375   -24014   -49290   -80209  -104218   -96283 
  -50275    -1457    17806     9312   -12587   -31215   -35264   -32188 
  -35177   -51025   -81814  -115944  -128531  -101881   -44356     7155 
   26365    25370     8920   -34529   -81359   -95446   -77596   -47761 
  -22733   -18606   -41926   -76776   -95750   -81624   -35496    21013 
   52842    39192    -6561   -53964   -84902   -99595  -101814   -92392 
  -79567   -73052   -67539   -53375   -34781   -23666   -22090   -25937 
  -38999   -61227   -77185   -74731   -60561   -51744   -58647   -73497 
  -81545   -80999   -75691   -64861   -51768   -40220   -27714   -11970 
    7467    28174    43159    51362    58865    62513    49305    15099 
  -26904   -61729   -88402  -103441   -92277   -58629   -27408   -14472 
  -17376   -21814   -15100    -2892     -131   -11546   -32399   -51062 
  -48290   -18101    17693    35876    28498    -6377   -53471   -80821 
  -75456   -51315   -22985    -1001     -142   -27488   -72716  -111273 
 -116441   -86796   -51323   -37883   -48411   -67762   -89774  -108878 
 -102174   -59300    -4195    27133    19244   -16329   -67759  -120106 
 -143602  -126631   -86303   -41997    -6418     8699    -4244   -39446 
  -77679   -98383   -93743   -67729   -30745     3834    33482    58124 
   65171    48877    17472   -20108   -49912   -54196   -32754    -7786 
    -200   -12126   -36518   -63248   -75564   -69711   -60877   -58615 
  -66230   -85545  -106898  -115309   -98526   -52330     6481    53708 
   82717    88973    57204    -9518   -74003   -99458   -90451   -75798 
  -69063   -74443   -93742  -113095  -114539   -97209   -73236   -52286 
  -41142   -46207   -63878   -77457   -74362   -61334   -45932   -21602 
   10223    35265    48356    57165    68509    79433    82020    72079 
   52062    31528    19195    12513     3847   -12739   -46737  -102231 
 -164253  -210773  -225646  -197765  -128574   -42809    22758    51883 
   53187    35182     7023   -20272   -40652   -44121   -28596   -10515 
   -6406   -22166   -53536   -91923  -131724  -166197  -185384  -184647 
 -168608  -142105   -99627   -35792    32933    80268    96931    82410 
   39699   -11733   -46646   -53565   -41613   -26912   -11763      288 
   -6735   -29336   -44581   -46694   -39232   -14465    27089    64099 
   74736    52693     2387   -61466  -110175  -123080  -106067   -71202 
  -24220    16957    23147    -9999   -49247   -64583   -57931   -45416 
  -40174   -51391   -79249  -105794  -109521   -91402   -64571   -35839 
  -10934     6809    20959    35212    50331    63044    67471    62708 
   49384    27292     4316   -11304   -22123   -33584   -51157   -82425 
 -123141  -152451  -152680  -115418   -45518    20180    44339    31829 
   -3043   -52194   -82109   -63234   -14525    24711    38206    27926 
   -8266   -64530  -114372  -137691  -138160  -130942  -127773  -128904 
 -137502  -161680  -181816  -165202  -110809   -35388    43370   100171 
  122715   120108   103081    77997    47677    15237    -6099    -3241 
   18670    40220    42232    22175    -5289   -34842   -70737  -106904 
 -140883  -175768  -197393  -180395  -113305   -18316    62791   112595 
  137764   139391   118799    84672    42354    -2394   -37261   -51522 
  -43509   -23552   -14303   -27033   -45222   -58781   -74147   -87627 
 -101666  -133076  -172807  -184468  -155103  -110168   -73997   -46644 
  -22365    -1635    17927    35288    34674     8453   -18929   -17780 
    4139    15290     6826    -8959   -26623   -42281   -45765   -36662 
  -29992   -37038   -49203   -54764   -58808   -66123   -69333   -66085 
  -58620   -40858   -17358   -17223   -54700  -103985  -138468  -157477 
 -159734  -131814   -76403   -14843    44444   106520   162666   192064 
  184126   143215    88159    45098    16995   -16875   -62436  -110215 
 -154065  -180300  -175058  -148608  -126239  -124456  -138957  -151419 
 -146731  -121329   -91699   -80365   -80349   -70789   -50940   -23527 
   17220    67490   114294   142462   133434    86272    34007     9831 
    6877    -3236   -25606   -47424   -68610   -92689  -108382  -102991 
  -82384   -68190   -70352   -68508   -39292     9005    51873    75919 
   78876    71044    70698    80400    78532    41388   -23793   -84912 
 -137103  -207095  -295323  -366673  -396666  -383872  -333129  -259228 
 -185025  -116616   -50944     3603    52275   110985   165113   189075 
  176359   126469    48076   -36864  -109727  -157229  -167837  -137231 
  -77684   -21586     4847     6548    -2782   -20426   -37246   -33814 
   -2954    38843    67264    70144    55111    44042    47041    56722 
   71582    91744   106099    95282    40135   -48537  -125464  -156987 
 -141983   -95908   -47030   -24882   -26536   -38116   -76524  -141271 
 -194428  -221820  -221761  -174643   -88533    -6884    42354    55984 
   34881   -11947   -55127   -65022   -47840   -29608   -16708    -6267 
    5290    34270    81780   119835   126828    92462    14507   -74373 
 -131499  -155611  -155622  -111302   -26328    45158    67214    43569 
  -20560  -100875  -148168  -141882   -99794   -56733   -44537   -55997 
  -60661   -54434   -51172   -52267   -51678   -47359   -36168   -16418 
    -792    -7217   -28590   -36594   -24742   -12177   -12243   -29154 
  -55503   -68814   -60399   -50502   -63201   -97359  -133892  -165880 
 -188394  -179065  -128066   -55651    17329    86355   148570   192079 
  201507   167425    99473    30009   -12286   -23699   -12640     9744 
   29544    37346    25991    -7810   -51290   -82196   -90777   -84202 
  -65055   -30575     4664    25598    40854    60286    78147    86176 
   81486    63196    27503   -27290   -95398  -171133  -245562  -298949 
 -315652  -299791  -270140  -242194  -211445  -167042  -124468  -102321 
  -81313   -41556     3932    46730    98444   160995   216271   244497 
  232751   168431    57357   -58027  -135373  -163574  -142458   -85119 
  -30315     -650    13670    14215    -7549   -48142   -92638  -106765 
  -62722     6669    41075    26304   -11953   -50233   -75281   -84758 
  -88337   -84886   -59371   -12929    35094    69025    79969    56408 
  -11065  -107449  -186441  -202151  -148030   -60414    20195    81284 
  115455   107694    66862    23658     -742   -15364   -42904   -78334 
 -103912  -108821   -79551   -22825    33415    64864    56727     9234 
  -65255  -137565  -164077  -127825   -49787    35650    92938   104986 
   77539    20945   -43886   -88144  -104323  -109344  -120984  -136846 
 -133326  -100612   -69760   -71267   -89848   -98156   -93544   -80638 
  -64281   -49577   -25027    19993    66976    90864    85280    44617 
  -39865  -147599  -231007  -254302  -210749  -124450   -37325    16170 
   28512    24538    13746   -27294   -86108  -122340  -128407  -111807 
  -78330   -36354     9269    51132    85642   119009   146365   141535 
   85655    -2465   -80335  -115281   -95019   -22843    75159   150536 
  170200   132512    41339   -81007  -177875  -211048  -187721  -129801 
  -74698   -64369   -91770  -117548  -124935  -108784   -61112    11959 
   86597   137153   152611   130380    71316   -13175  -106987  -191204 
 -240291  -232009  -168821   -84769   -16639    22750    35284    25315 
    2879   -27904   -71021  -118561  -154706  -157287  -108522   -30098 
   38097    76181    75804    33995   -37432  -104411  -126742  -101627 
  -68373   -62088   -83720  -109089  -118359  -113525  -105613   -91904 
  -49994    28773   110247   162686   190377   184703   123101    24673 
  -60955   -99633   -96171   -77947   -59435   -51021   -65066   -96568 
 -132433  -158991  -159937  -135468   -98868   -54855   -16424    -1810 
    -572     7331    26534    53746    75194    75286    51261     8775 
  -37094   -66255   -64969   -22537    53293   118002   125743    66878 
  -40242  -158924  -247268  -284330  -266505  -200844  -110771   -19963 
   56682   105925   112857    76338    27732    -4531   -21928   -26030 
   -9233    28763    68627    88315    89637    72167    25714   -35533 
  -90152  -135228  -169951  -185626  -169635  -120739   -64184   -29241 
  -20029   -20416   -16841   -15586   -34588   -79311  -133965  -165497 
 -148764  -104556   -79454   -91946  -126939  -155310  -155792  -135004 
 -103602   -54877     3977    53428    91942   111815    91043    35800 
  -21002   -59754   -75320   -61597   -26926     4170    21398    30364 
   28564     9660   -17599   -33525   -29469   -22597   -33339   -51831 
  -60514   -62023   -55598   -35245    -8725    14618    25729     9534 
  -35618   -87472  -117606  -115410   -92192   -56242    -2679    59086 
  103009   116430   100395    60296     7738   -53362  -124752  -191646 
 -230349  -229319  -192654  -135033   -75045   -29519    -2814    13293 
   19011    15481    23894    54141    83991    92400    80402    58008 
   33487     7192   -22175   -43909   -54171   -67830   -91269  -113393 
 -120791  -111956  -103837  -108801  -110540   -87289   -47022   -18438 
  -14485   -24530   -37026   -45991   -47963   -48006   -50775   -52875 
  -49367   -30798    10186    58977    88036    83347    44244   -20749 
  -83400  -115993  -119537  -104885   -74357   -35765    -5138     7959 
    5600    -2285    -6931   -12772   -25271   -36204   -46046   -65775 
  -86056   -85877   -63789   -32847     3247    36244    35410    -9196 
  -70051  -132084  -187596  -204403  -163319   -87328   -12913    34708 
   45166    26426    -2015   -28738   -48471   -42428     9050    87970 
  148434   170508   160113   117775    53983   -12130   -83634  -167041 
 -235273  -245383  -190098  -107479   -40524    -3776    11840     8819 
  -21435   -73003  -119609  -129903   -87418    -7546    66946    97846 
   79767    25911   -46313  -102642  -115238   -90578   -48241    -9715 
    5243     -861   -10707   -11483    -1211     9810    15599    20848 
   23884    16205    -9352   -57693  -123606  -188935  -232228  -232978 
 -183346  -108655   -50107   -28145   -39254   -64323   -76421   -66949 
  -50215   -31127    -8976     -146   -10552   -20793   -17237    -8214 
   -8062   -12282    -8669    -4639    -9694   -17068   -15028     2942 
