Origin Time       2011/03/11 14:46:00
Lat.              38.103
Long.             142.860
Depth. (km)       24
Mag.              9.0
Station Code      IWT025
Station Lat.      39.5169
Station Long.     140.8299
Station Height(m) 367
Record Time       2011/03/11 14:47:01
Sampling Freq(Hz) 100Hz
Duration Time(s)  300
Dir.              E-W
Scale Factor      3920(gal)/6182761
Max. Acc. (gal)   137.043
Last Correction   2011/03/11 14:46:46
Memo.             
[...]
  -15800    -8943     3100    10706     9427     5475     4666     6614 
    8499    11079    15188    12509    -2554   -17633   -22858   -24419 
  -25296   -22496   -16747   -10613    -4183     5455    15296    18747 
   19263    21701    20484    11910     2573    -3336    -9217   -18555 
  -29218   -31735   -22266    -9657    -1594      863       33    -2303 
   -6820    -8521    -3411      975     1602     2088      233    -2908 
   -2621     -452    -1266    -9210   -19320   -20485   -14921   -10825 
   -6599    -1719      538     2517     7094    12378    13400     7585 
    1858     2037     1141    -6366   -13607   -14927   -14595   -14406 
  -10827    -6754    -5859    -4757    -1467     2636     6663     9306 
    9913     9026     7475     5585      380    -6595    -4271     8479 
   17832    14177    -1190   -19003   -30181   -33483   -30546   -22879 
  -13577    -6349    -1615     4506    10635     9502     2007    -3619 
   -4620    -2870     1281     5859     5894     1284    -1154      505 
     714     -547      652     1952     1343     1392     -169    -8509 
  -18688   -20838   -15028    -6686      576     2706     -564    -3053 
     597     6512     6550     2167       63       97    -1472    -3817 
   -2721     -396    -3981   -10818   -12129    -9623   -10146   -12095 
   -8419     3109    16279    26305    34178    36165    27643    12972 
   -1050    -8476    -6396    -1659    -2003    -7170   -11057    -6180 
    4822    11674    13026    12228     7250    -1166    -5923    -4424 
   -2477    -4583    -6496    -5026    -5956    -9511    -7561    -3648 
   -8225   -15475   -12152     -156     9199    11075     7378      469 
   -6772   -10138    -8921    -4326     3038     7181     1834    -9915 
  -20965   -27097   -27336   -22776   -15154    -8044    -4712    -2468 
    2049     5726     5310     3218     3321     7512    16594    29385 
   40099    41690    32540    15830    -3064   -18891   -29763   -33814 
  -29245   -19392   -10794    -7011    -5919    -6380   -10201   -13113 
   -8327     2584    13405    19896    18859     9475    -5124   -18698 
  -26128   -30091   -34013   -35118   -31248   -22841   -13176    -5834 
    2037    11220    15220    14230    15507    17255    12216     4577 
    4448     9885    10454     3668    -3396    -3238     4957    14049 
   18789    23128    28686    29675    26436    22519    13542    -1197 
  -12815   -18104   -23109   -29556   -32457   -31181   -30910   -31908 
  -27859   -18159    -7650     3831    16099    24922    29424    30264 
   27734    23491    13959    -5716   -28134   -40112   -38949   -32976 
  -29927   -28860   -23408   -11714    -1005     -848   -11210   -19448 
  -15576    -6075    -1080     1688     6231     8490     7644     7792 
    7311     3037      133     5485    15363    20359    18700    15949 
   16633    19960    20930    16498     8963     1782    -2507    -1936 
    1097      398    -5809   -11751   -14095   -16553   -17087    -9615 
     186     3132      758    -2663    -9065   -19832   -26098   -16648 
    3032    16255    16669     9768     3642     1288      169      701 
    2595     2070      176     -277     2918    11225    18416    19365 
   17312    14069    10187     6904     4266     5144    12062    22282 
   27643    19106      279   -14169   -18591   -19832   -23434   -27031 
  -23802   -13604    -7097   -10406   -19112   -25494   -23319   -16356 
  -12028    -9936    -9523    -9701    -6502    -1535     2541     5573 
    5760     4883     7472    12998    19846    28507    34966    33953 
   26314    14056     -389   -10804   -14115   -15921   -24166   -35497 
  -36087   -23643   -10098     -976     6549    13498    18557    20344 
   19642    20377    23322    21016    11120     4996     7101     5821 
   -5923   -18140   -18090   -10375    -8053   -11440   -14995   -18879 
  -21696   -18777   -10095     -921     3220     1671      707     4057 
    3751    -6047   -16228   -17196   -10458    -1661     6441    12884 
   14529     9859     1680    -6952   -13056   -15375   -14281   -10433 
   -7368    -6682    -6750    -6347    -3191     2315     7448     8881 
    2305    -6654    -6570     2373    11745    17258    19240    16914 
   12089     9299     6651     1378    -2599    -1740    -1037    -7906 
  -17234   -19388   -17312   -15660   -10828    -1886     6833    12980 
   17053    17583     9439    -4433   -11509    -9114    -2239     7308 
   11260     1428   -14282   -21868   -18080   -10943    -7838    -6852 
   -2365     4208     7705     7249     3128    -2425    -5892    -8137 
   -7220     -455     4696     2846      -54     1317     5245     5215 
   -2585   -10563    -9147    -2902    -4505   -14695   -21148   -17732 
   -9449     1580    16946    28984    25843    11137     1572     2446 
    4102     3148     1599    -2795    -8117   -13819   -24164   -36539 
  -46091   -49730   -45762   -36916   -22558    -2072    14407    19397 
   19579    23492    30533    33784    30841    28066    28675    27532 
   20706     9810     -573    -7550   -12317   -15979   -18166   -18410 
  -14434    -3663    11729    22526    19779     6216    -7561   -13821 
   -9601      578     5724     1108    -6631    -9627    -6217      660 
    5125     3143      217     5360    18331    29656    29653    18760 
    6906    -2020   -11778   -21356   -27741   -32400   -36798   -39441 
  -37304   -28776   -15227     1180    16193    24810    29131    33612 
   35636    28096     8364   -12059   -19495   -16087    -8648    -2427 
   -3205    -8546   -12916   -11972    -3627     3140     2032     1454 
    6775     9870     3111    -8131   -16660   -24160   -30131   -29492 
  -22815   -14151    -6841    -2547     2569    12114    22471    26872 
   22939    17164    14664     9862    -1866   -18287   -34135   -43259 
  -46085   -45427   -38194   -23605    -6904     7647    20515    33807 
   46971    55920    55517    46525    33310    15031   -10196   -36638 
  -51826   -49116   -35800   -24853   -22667   -22805   -14497     2805 
   20254    31343    36795    39092    38165    32445    21997     9055 
   -5352   -20595   -35600   -48852   -53991   -44990   -27116   -10943 
    1460    14734    28059    36031    40095    42057    35009    19981 
    9936     8130     5654    -1704   -11174   -24441   -41730   -51154 
  -46488   -35938   -24920   -14880    -9122    -7741    -6550    -2240 
    2013     1802    -1177    -4528    -9318   -16299   -21593   -21745 
  -19826   -17170    -8121     9654    26570    32299    28977    21818 
    9753    -5249   -12139    -5315     4248     5250     1499      838 
     234    -7139   -20052   -33801   -44862   -49248   -43416   -27008 
   -6868     6343    10088    10638    11007     8616     4259     1563 
    -174    -3199    -8219   -16113   -25553   -33265   -35493   -29000 
  -18334    -9544      277     8010     5786     2927     9324    17499 
   23219    31569    41688    45619    38945    26190    13631     3407 
   -5911   -17400   -28548   -32094   -25734   -14087    -3989      625 
   -2186   -12110   -22411   -26607   -23765   -14208      209    15662 
   27584    31533    27582    18473     5615    -7047   -14446   -15077 
   -9176    -2176    -5183   -20430   -39653   -55463   -60036   -49112 
  -29897   -11893     3330    20934    37623    39605    29688    23927 
   21884    13392    -1537   -14815   -21436   -23441   -21867   -15165 
   -7730    -5731    -9807   -17662   -25440   -29734   -28814   -23503 
  -17088    -6858     8996    20179    19305    10018    -2429   -15779 
  -29002   -35539   -27547   -10977    -1658    -5063   -12575   -17037 
  -19444   -21263   -19833   -12768    -1855    10019    20532    26180 
   23995    15441     6945     3525     3212      825    -4889   -10272 
  -10760    -5044      660     -343    -1815     6356    19483    23940 
   18584    13540    10154     2864    -6264    -9734    -6878    -5428 
   -8271    -9494    -4675     2605     5320     5471    10451    16998 
   20408    27424    40167    47307    40281    22970     3636   -15862 
  -35829   -49887   -53055   -46005   -29245    -7943     8889    19330 
   28089    41140    60788    77606    77370    58835    34244    15308 
    3457    -5377   -13964   -26595   -43765   -56036   -55707   -47730 
  -43065   -43024   -38365   -25480    -8631    12158    37645    58671 
   64104    51422    23891    -9493   -34411   -41235   -33067   -22074 
  -16728   -18597   -28117   -41017   -46707   -41584   -34957   -32597 
  -29674   -23511   -17557   -16019   -16617   -11465    -1384     7247 
   17617    32950    45129    46915    40380    29873    16295    -2043 
  -22957   -36586   -34506   -16852     9235    29672    34098    28434 
   23877    22478    21316    19147    14251     5415    -3973   -10344 
  -15430   -23645   -35087   -42541   -39056   -26100   -14487   -16491 
  -26061   -23714    -8096    10467    29419    43169    45535    37778 
   21900     3765    -9921   -18743   -20594   -13814    -2855     8309 
   14604    11299      822   -13309   -26947   -34252   -34600   -29655 
  -23001   -21784   -25929   -29232   -30692   -28789   -16346     7344 
   31456    46124    53404    59950    62687    55649    41187    20078 
   -8773   -38011   -59908   -71966   -73086   -65482   -52483   -36663 
  -23375   -15923    -9070     3648    20033    33827    42131    43649 
   39716    38628    46439    55289    54206    41318    19506    -3351 
  -16714   -18196   -14389   -15997   -25333   -29475   -22646   -17394 
  -22570   -29945   -26377    -9874    11962    33882    52863    62558 
   59495    48073    32417    12282   -11956   -36710   -57391   -72917 
  -83244   -82708   -66062   -40309   -19199    -6154     4481    14541 
   25239    42225    65976    87826    99756    99961    89298    67060 
   33068    -4914   -34634   -51121   -55961   -52619   -45897   -39316 
  -35493   -33933   -29052   -18462    -6563     1303     4104     5002 
    8993    20882    39488    57501    67887    68373    63726    57337 
   45153    23319    -8691   -46762   -78410   -90307   -82004   -66301 
  -54874   -47256   -33704   -10253    13997    31873    45013    52716 
   51746    42430    25178    -1132   -32607   -62349   -86842   -99913 
  -95620   -78155   -56023   -36091   -18742     4620    37351    70021 
   92403   101375    99560    92752    82708    65877    41799    13122 
  -16368   -37706   -42776   -34020   -19406    -8466   -10011   -17734 
  -18095   -11174    -1095     9984    15136    10042    -3403   -19620 
  -33441   -45177   -53558   -53787   -46779   -37351   -25473   -10004 
    2792     7500     7081     7073    12650    20562    18270     3654 
  -11015   -16380   -11454     2725    21225    34672    37430    31106 
   23561    20042    14873       68   -25212   -52306   -68368   -65491 
  -39952     1517    39219    62858    75192    79455    78353    61371 
   16301   -35195   -60453   -55098   -34279   -15629    -7029     -101 
   13885    28710    31337    21451    13854    18019    27499    35227 
   45172    59533    69306    66018    49501    22367   -13276   -53423 
  -90891  -116274  -124109  -118716  -106636   -91308   -75698   -58083 
  -34305    -5020    27715    59432    80386    84419    74485    61880 
   60145    67223    65033    45508    17720    -8805   -33063   -59885 
  -87878  -104381  -101846   -82515   -48813    -8453    28081    55470 
   68917    71693    71131    59350    31769     2095   -22220   -43126 
  -55301   -51298   -33586   -21848   -41781   -89068  -129368  -140136 
 -120582   -76830   -20376    30961    62368    76890    86674    91427 
   82967    61015    37680    26168    26780    30038    27404    18310 
   12038    21733    47607    63309    41849    -3826   -38821   -54226 
  -62411   -69420   -78238   -88398   -86267   -58942   -11207    39099 
   73369    78041    53815    21268        2    -7488    -7140    -8715 
  -16338   -19901   -12731    -1862     2308    -4663   -13608    -5770 
   26594    65816    84947    79091    61513    37923    10409   -15181 
  -38609   -59346   -74224   -89556  -111745  -135759  -152732  -150098 
 -114282   -47006    32284   102859   156415   191204   206262   205391 
  185965   141479    82612    25299   -28314   -80457  -126275  -155228 
 -156139  -122739   -62113     4049    50789    64949    55956    50180 
   68351   103359   126799   121205    85058    23176   -44324   -95047 
 -124813  -138002  -137901  -128453  -113032   -90621   -60684   -32240 
  -17861   -23322   -42983   -59092   -58236   -45085   -28636   -10516 
   10254    37309    72156   101032   107393    95463    82628    78857 
   81850    82915    75236    58032    32994     1732   -31397   -62773 
  -93502  -120718  -133815  -121924   -83343   -34171     1271    12885 
   10620     9884    16955    33999    59768    76888    69700    44719 
   13414   -17173   -39472   -50785   -54257   -54173   -49686   -34513 
  -13344    -2798    -7777   -16382   -15302     -505    21815    43771 
   56825    48058    14684   -26720   -55342   -61130   -46885   -22885 
    1556    21582    32363    31715    25951    20269    15609    14522 
   12222     1709   -10298   -13605    -5155    11107    24049    24483 
    9539   -19453   -53660   -79025   -86422   -79558   -68406   -56542 
  -42514   -26326    -8178    15286    47340    84914   118322   134910 
  125412    84885    16699   -58417  -117590  -152010  -160034  -150032 
 -137338  -125011  -110387   -94995   -75428   -47164   -11003    32770 
   84680   140232   188237   214322   208110   168344   103118    33473 
  -17333   -47149   -66971   -86092  -114163  -148398  -171968  -171353 
 -134712   -61217    20500    80901   119317   139678   136039   114214 
   86855    57749    33662    17564    -4930   -41375   -82930  -121283 
 -146225  -147660  -128054   -96590   -63159   -36133   -16057      276 
   15237    33173    53849    70278    82392    90656    85273    64464 
   38481    16909     8897    17040    32821    46564    50493    38628 
   13980   -12402   -30711   -38612   -41328   -41566   -38055   -35676 
  -38812   -45124   -52054   -53003   -39412   -14564     9572    25446 
   34701    46140    64351    77787    67196    25377   -32752   -78454 
  -95387   -87536   -61341   -24252    13735    48108    74591    89175 
   94545    93979    88315    78313    62698    40416    17080    -3202 
  -30192   -70914  -113971  -147392  -166238  -164236  -139538   -96048 
  -44352    -3491    21188    42239    61213    67723    59418    40935 
   23060    19551    25586    23174     7723   -12730   -26053   -23299 
  -11628    -4046    -4012   -11190   -20972   -23954   -17006    -1838 
   18531    35511    39404    26264     5187     -125    22026    53640 
   73560    77046    65709    46269    31347    23622    12040   -11658 
  -40210   -57990   -60575   -55777   -51733   -54487   -66031   -82395 
  -91654   -79478   -49263   -17387    11632    38694    60069    79408 
   99417   110292   105231    84919    53464    21931    -3004   -26369 
  -50711   -68744   -71102   -58103   -44808   -43138   -46527   -44642 
  -30949     -826    35596    60171    70176    76013    83482    87550 
   79996    56757    20697   -15672   -37810   -42399   -40547   -50060 
  -76248   -99806   -96407   -65607   -28108     -646    12143    11659 
    3376    -5648    -7007     5369    25282    39461    40499    32385 
   30489    44937    65961    76465    65860    37657    11340      595 
    3490    16080    29950    33800    29439    27818    29881    19088 
  -17554   -64169   -91348   -88226   -64980   -38560   -20444    -8738 
    1365     7495     9986    11319     8023    -2622   -19778   -40938 
  -58266   -62721   -50834   -24955     3579    20059    21820    16098 
   11082    14138    25414    37385    44153    47731    51783    49951 
   35219    12628    -8573   -24337   -38623   -54300   -63723   -60968 
  -49905   -36488   -23579   -10433      685     6848    12736    17533 
   12968      942   -11269   -22532   -35330   -53021   -73352   -86561 
  -91383   -95880   -96853   -85264   -65956   -47638   -28782    -7430 
   13423    33279    50630    57080    48322    34290    27880    31436 
   38520    36914    18802    -5329   -22146   -30892   -29658   -15737 
    5957    33543    63281    82028    85362    77328    53847    10232 
  -45936   -95857  -121526  -117816   -88469   -43074     1375    35050 
   61516    83866   102329   119276   132501   133871   118925    89320 
   52838    19912   -10257   -46937   -89354  -125532  -144162  -140977 
 -118491   -84942   -51336   -20575    16949    62833    97222   106917 
  102818    96075    87790    77122    59066    25157   -25391   -78367 
 -117838  -142681  -155304  -149586  -118580   -61451     9023    69310 
  106632   123519   123516   108863    85904    62454    42419    22582 
   -5978   -48735  -101824  -148612  -164743  -143303  -100748   -57817 
  -29046   -13276      326    14232    30074    49403    61085    55616 
   36210     8751   -22689   -56421   -86897   -99920   -88731   -62182 
  -32257    -5552    18683    41649    57303    61143    56586    47818 
   34920    19427     4935   -13443   -40914   -66951   -77971   -75508 
  -72478   -77149   -83553   -79958   -59257   -23102    13552    33987 
   35593    26920    22077    28410    32174    16902   -16687   -59852 
  -98182  -115636  -106428   -66071     1232    65433   100665   112232 
  114785   114140   112994   111341   108611   107474   104850    95887 
   80230    50599      -20   -63262  -124648  -172119  -192678  -178773 
 -137676   -86142   -40866   -10013    11226    32191    57824    84927 
  107026   124715   140170   150476   149032   123761    68617    -2417 
  -67713  -115371  -139056  -135259  -112752   -86010   -61766   -40271 
  -18740     4372    26224    46948    71455    98581   119387   124776 
  106601    63455     6148   -52223   -99903  -124961  -123895   -99924 
  -57945   -12065    22998    48364    70481    86346    87319    68528 
   36709     8369    -5151    -5122      130     -110   -12202   -32262 
  -50833   -59481   -55576   -43712   -28008    -4123    36262    89754 
  137297   160106   148402   100338    29917   -34731   -76762   -96081 
  -91462   -70572   -55303   -55920   -68215   -86635  -105744  -118942 
 -113767   -80657   -28574    25446    71856   105217   122532   124730 
  105568    55685   -11544   -65877   -89726   -82396   -53948   -20122 
    5332     9331   -11318   -39658   -58424   -64499   -61603   -55715 
  -46455   -22358    21678    73332   115535   136924   134286   113542 
   80163    33865   -19044   -64053   -90760   -90935   -59675   -15145 
    6894    -7634   -38390   -58110   -52728   -23953    12039    36349 
   43843    43213    40331    33003    17711    -9420   -43649   -66872 
  -66257   -48054   -29351   -19838   -14809    -4122    18663    48799 
   73537    87556    92968    91847    87592    81194    69554    50988 
   26702      159   -25624   -52508   -83209  -110590  -120860  -105805 
  -64415    -7080    43723    75014    90697    92200    78780    56077 
   27026    -4337   -27974   -37798   -35043   -29021   -30631   -39553 
  -45105   -38240   -21547    -8371   -12716   -33930   -51213   -44873 
  -17699    12553    30519    30732    22651    23207    32485    32692 
   12482   -24551   -64250   -87472   -83948   -60687   -34452   -18968 
