Origin Time       2011/03/11 14:46:00
Lat.              38.103
Long.             142.860
Depth. (km)       24
Mag.              9.0
Station Code      IWT026
Station Lat.      39.2569
Station Long.     141.0983
Station Height(m) 76
Record Time       2011/03/11 14:46:52
Sampling Freq(Hz) 100Hz
Duration Time(s)  300
Dir.              E-W
Scale Factor      3920(gal)/6182761
Max. Acc. (gal)   396.171
Last Correction   2011/03/11 14:46:37
Memo.             
[...]
  -36297   -36184     -249    72091   134998   149718   132183   102748 
   48064   -24175   -62702   -44652    -7566    13995    22596    25794 
   24786    21108    14014    14112    38217    75612    93850    68829 
   -7714  -110422  -176548  -172071  -123930   -60426     5970    54121 
   78918    93163    98042    97377   104049   113938   105535    64305 
     775   -59895  -107606  -147321  -171815  -163388  -121864   -59364 
   13852    74486   107593   129679   145014   139574   118005    93054 
   74771    66596    54976    34707    12151   -19671   -61214   -92195 
  -98206   -88495   -85979   -92244   -84328   -63970   -55503   -58041 
  -55063   -37692     8138    77709   114341    77593     9729   -36239 
  -57347   -56228   -36803   -22594   -10616    15019    29967    24461 
   32065    60546    86052    86308    50484     6806    -3591    12600 
   23568    17349      479   -13004    -7222    29508    85616   123418 
  122218    94238    52039     3478   -39609   -72285   -87917   -76087 
  -52374   -44666   -49832   -50001   -36684       31    47315    69070 
   67573    68909    73916    79442    71382    15172   -75225  -129518 
 -114475   -67206   -32152    -9200    27109    74639   103612   110318 
  120417   145568   177141   195190   173466   101967    -2188  -101647 
 -158968  -174403  -178486  -180211  -161472  -107727   -25340    53273 
   95717   108279   110585    90384    44548    11925     7534    -1484 
  -31188   -62249   -74248   -47818    28370   130336   216920   255118 
  226253   143612    38315   -65038  -145979  -201027  -228495  -205731 
 -132100   -37584    49333   104264   127038   133797   119932    93287 
   83248    80096    51742     -324   -49914   -63409   -30935    10836 
   37871    57200    61235    53372    51629    34973   -17284   -68401 
  -75805   -58533   -57621   -59155   -36843   -15583   -22160   -41786 
  -44011   -30918   -43325   -83793  -102948   -88334   -62138   -18669 
   49595   119414   162907   157252    92111     2525   -61515   -96921 
 -119384  -126379  -122753  -123868  -135829  -146914  -134814  -100385 
  -56282     9622    92255   156506   197516   219076   194246   122141 
   38300   -45176  -114075  -124440   -74477   -11912    36749    72276 
   98983   120624   135502   138220   128958   111201    75636     7136 
  -83089  -157436  -185602  -164781  -118617   -74964   -38045     6303 
   66911   128009   156243   147946   137287   140519   136399   114919 
   94501    71995    31523   -10715   -44263   -76260   -90453   -72881 
  -50061   -64440  -115470  -140025   -93643   -18433    23540    34727 
   55693    91688   113712   110723    89252    56945    36003    45284 
   69977    77202    59649    44595    42519    33414    12283    -7677 
  -14102    -6066    -3981   -15040   -14584     3976    17922    28836 
   61580   103995   119187   105852    79201    29768   -53747  -148408 
 -203641  -195485  -156991  -132092  -130460  -129393  -103906   -56801 
    3666    85571   180247   251250   261007   193767    74390   -32194 
  -69097   -54094   -58355  -102420  -134269  -114749   -70162   -52753 
  -73922  -103442  -120448  -122926  -112703   -99781   -93363   -89450 
  -79159   -53382    -3791    64105   128950   173052   191114   182308 
  144722    81183    18760    -6486    -6883   -34985  -114480  -214940 
 -264023  -204017   -69211    55930   131911   166499   188959   213668 
  212153   169380   112320    69024    45442    29425    20167    22033 
   14616   -11794   -33993   -33476   -24845   -42229   -82571   -97511 
  -75883   -61093   -68902   -69520   -39721    14377    52369    40213 
   18180    41717    84022    93995    73625    46737    23711     3388 
  -16384   -34279   -42366   -24551     7842    19349    16070    33454 
   72334    95036    68903    12999   -19718   -13870    10597    49325 
   95223   118336   107065    82080    61124    43459    35887    54340 
   84230    98586    99950    91176    52606   -24460  -101816  -122013 
  -98836   -99958  -122217  -114639   -81545   -52230   -31058    -2367 
   62674   154037   198400   160268   101946    78883    71265    62939 
   72104    81550    43976   -34617   -93478  -106563  -111799  -132903 
 -133629   -85145   -17530    35624    78965   118583   149086   168882 
  155659    82386   -14737   -71993   -81300   -69099   -56653   -59260 
  -65603   -49248   -21132    -7646     3845    37334    85964   117210 
   98147    40059    -1409    -1106     5381   -23869   -81451  -118437 
 -110122   -78054   -46212   -28869   -32023   -32417   -11204    -2586 
  -40931   -95563  -116775  -101165   -74358   -49481   -29447   -13427 
   11647    48716    81023   100762   106194    94272    71074    35532 
  -11815   -47160   -61763   -68603   -64047   -51951   -51575   -49706 
  -21438    22038    56027    72223    73998    70187    74506    96387 
  127456   150699   156234   135482    84426    17499   -37757   -65427 
  -85400  -129159  -187204  -211738  -167977   -79367    -7012    41400 
  108461   180406   212359   220412   231768   225095   178664   107967 
   37340   -32278  -112541  -188281  -212862  -176437  -131147   -96356 
  -42390    18636    62897   110402   156344   155122    91594    -2207 
  -71767   -83727   -69990   -71883   -66444   -31823   -10285   -22159 
   -7858    68824   144757   154728   115231    56844   -26593  -126236 
 -197075  -210918  -181628  -128346   -56840    25494   101010   148082 
  167909   174892   157872   109604    63752    55764    71733    67889 
   37068     4702   -26016   -57492   -67287   -42573    -2478    24996 
   30178    35029    59044    80931    82921    86430   103982   117063 
  110300    84518    52633    34864    26238    -5202   -58912   -97588 
 -100063   -66921   -12316    30325    37742    33890    60175   101422 
  111175    94650    66841     8972   -69521  -130151  -164388  -187174 
 -198204  -177565  -108710    -8749    68709    88258    69220    45090 
   26956     3484   -47309  -116283  -160909  -171890  -173942  -169973 
 -147753  -101519   -23594    78455   162134   189638   168890   119012 
   42508   -32430   -59753   -56176   -87758  -162099  -219136  -228093 
 -211859  -182814  -124271   -32508    62885   127251   158563   173164 
  170228   146606   107014    61292    37437    47094    69969    91644 
   93106    48867   -26713   -85820   -99188   -72788   -27687    22369 
   64599    67173    24377    -2297    29728    79166    93648    71194 
   42849    27341     -466   -62647  -117450  -115377   -79257   -52236 
  -23176    23630    60607    61953    35403     9186     5761    27168 
   72004   127620   152580   126741    84949    59296    40370    15952 
   -3076    -3114    10695    13937    -7371   -36185   -47892   -32668 
   -1169    26513    43380    49537    45229    33232    10827   -14582 
  -14043    33687   111509   171863   181632   146268    89697    35401 
    2781    -1421     4972      244    -9458   -15578   -33585   -65989 
  -75846   -28900    49641   100482   106994    97206    89940    71540 
   16343   -64618  -115632  -104739   -63837   -34845   -24893   -28890 
  -38542   -43031   -54765   -84498  -101838   -76209   -18812    41072 
   74724    63784    29266     7589     4139    16195    41740    53838 
   40396    29737    28940    13565    -8640   -10111     -363    -2063 
   -9286    -6520     7526    32740    68809    96388   102568    96020 
   78192    65784    82906    99771    86126    67484    56990    34901 
     -37   -30678   -47280   -53903   -61844   -73438   -85001  -105024 
 -137386  -156880  -138494   -98031   -72933   -60196   -15013    60856 
  105436    98145    79301    71908    53699   -12014  -116859  -185856 
 -181282  -153454  -121338   -50818    39317   100008   126153   129169 
  110395    75924    26624   -31568   -61108   -49827   -40297   -54105 
  -82112  -119480  -134942   -88246    -3895    58466    98370   151428 
  201350   207098   159370    55302   -83545  -169257  -136990   -39048 
   45167   112335   166344   167611   109945    45418    12907      714 
  -13127   -26093   -24989   -10766    -5216   -29371   -70733   -78316 
  -21508    60614   106809    88758    32174     -623      917     -835 
    8318    66633   154603   217203   223116   180037   100100   -18843 
 -156890  -262346  -296400  -258904  -178331   -96262   -39854     -588 
   44282   107212   189330   274613   325636   308992   226071   101833 
  -32593  -141273  -201481  -217898  -220096  -220745  -178079   -76127 
   24084    86050   133287   170654   175958   144428    91820    34810 
  -28454  -102127  -158477  -169412  -136484   -66913    14074    58282 
   59020    58976    71222    72536    63059    50608    22944   -17011 
  -44070   -49431   -58357   -87001   -99028   -66536   -30673   -23620 
    4108    93083   185042   213361   180945   101698    -1984   -67763 
  -62362   -32518   -33981   -60377   -90093  -122910  -143594  -140457 
 -125053   -91818   -21959    70077   134119   143865   135914   140726 
  120702    46451   -42608  -102330  -125068  -121090  -121979  -153957 
 -179426  -141855   -56778    17721    60895    97747   150913   198538 
  198191   146513    87718    55972    35753     5183   -19377    -9544 
   22208    29506     7974    -6765    -9857   -13241   -18870   -34039 
  -54733   -61110   -45788   -16969    10237    23531    35590    73343 
  134280   184725   198570   170938   103378     3000   -99256  -155928 
 -151249  -116662   -85319   -66434   -47268    -2674    64252   115769 
  128121   119312   121224   125271   100229    54386    21426    17554 
   29672    32179    24202    18105     1806   -28185   -40494   -26058 
   -6208    13529    30957    49558    82443   109762   109858    96836 
   81377    65186    51699    39276    30413    22776     8107    -3143 
   -2233   -11148   -41985   -69000   -71757   -47519    11050    94482 
  167355   198149   171028    93473     2923   -55062   -60984   -45450 
  -54525   -81319   -88537   -72282   -49047   -27714   -10798     5587 
   17388     9743    -7369    -6047    14246    42064    69678    76613 
   63377    56323    44366   -16646  -127378  -229103  -280837  -305681 
 -333293  -349579  -330364  -275237  -196575  -115894   -58105   -26057 
  -12487   -16601   -16623    10891    49986    84811   122202   156466 
  180858   209707   245721   262959   241086   194991   165547   173412 
  193868   198996   186115   154872    99286    23622   -56041  -136898 
 -234171  -336708  -397009  -395465  -364946  -331096  -289348  -239074 
 -179595   -98254     1651    94607   161802   200948   217836   221255 
  210806   179369   134908   101449   101974   128668   140273   122572 
  102541    93164    87945    86737    95505   115317   129051   117230 
   83871    44353    11522    -6100   -12642   -21225   -41393   -82751 
 -158416  -253579  -312071  -298270  -227306  -120517    -7510    70539 
  122598   192599   280475   351035   384662   378628   335063   278380 
  246309   235700   212005   172073   142950   144581   173226   198805 
  195913   177360   168270   168694   162099   130046    52368   -70074 
 -193008  -267393  -293922  -310209  -337283  -359657  -355235  -329983 
 -313214  -319059  -320427  -284994  -224308  -162330   -93739   -15537 
   58442   130451   216296   304303   343072   299500   202953    84246 
  -57379  -193283  -278892  -311810  -305454  -272995  -240442  -221858 
 -208608  -175679  -103957   -29737   -13945   -55367  -102690  -127179 
 -141517  -160177  -170813  -163268  -146550  -134029  -140897  -157221 
 -149061  -116191   -77207   -22105    56052   142245   229648   311561 
  363344   360988   302781   208329   107932    35919   -11186   -73010 
 -125907   -97519    16204   139981   189796   161194   116642    67707 
   -4056   -72088  -119599  -159075  -183056  -192065  -218736  -255781 
 -254024  -216102  -181775  -152716  -109655   -56423   -16293    -3374 
   -2475    23385    91840   167010   205871   213717   205714   188183 
  188015   213319   231430   227401   223060   237503   257651   254737 
  227780   205614   206760   221385   226942   207141   164267   123858 
  118179   154263   206917   240988   235222   198361   153011   104426 
   46579   -20072   -87955  -146026  -187658  -204928  -176022   -87688 
   28389   119093   170985   188509   156568    81955   -13488  -126449 
 -242687  -327798  -357739  -341184  -308347  -279734  -253449  -220690 
 -183952  -141412   -80314    -2990    64169    88121    62923    10021 
  -59254  -135701  -191603  -205523  -179389  -130254   -78310   -42056 
  -41714   -78617  -123879  -154655  -169411  -172841  -172740  -166860 
 -137621   -75241    14849   114905   190830   208955   174975   146079 
  162239   183903   167390   142492   147242   178208   221192   250975 
  241137   200803   159502   130815   112484   103439    96149    64534 
   -9798  -111765  -208348  -275727  -310003  -316395  -301677  -286970 
 -295249  -321846  -339671  -322597  -268842  -196440  -105758    17773 
  159920   266118   286394   219670   101106   -16560   -78285   -68327 
  -12574    44883    73725    94174   130476   174867   218049   249411 
  266390   277075   275010   263189   271789   312366   351636   357580 
  332307   278764   192574    87617   -10648   -71461   -73397   -38689 
   -4093    31619    76235   100861    78881    24547   -33611   -76322 
  -90195   -69251   -22147    23452    40622    33941    27050    31034 
   57246   129586   239060   327941   356150   330984   256134   125028 
  -35893  -191273  -335412  -461560  -545933  -589048  -615120  -618292 
 -562735  -417883  -192064    23971   122295   132010   165693   210526 
  184365    90802   -44996  -185070  -259038  -271550  -251708  -153816 
   11283   130410   189033   258681   301717   256339   154740    50841 
  -13928   -36422   -47741   -44548   -24642   -14608    -9915      174 
     556    -2069     2857   -10670   -55156   -99502  -114604  -100909 
  -72103   -35320    18694    99390   182342   223087   210605   165885 
   98621     7925   -97518  -198555  -279227  -346882  -403027  -405661 
 -290256   -21339   309918   516640   572452   597122   569594   441145 
  296936   132016  -105804  -319515  -409321  -386954  -329650  -311711 
 -331718  -345651  -332659  -287646  -203020   -82154    50496   177035 
  295761   373690   365158   302164   258642   245274   234341   223327 
  215143   198387   164955   126552   113660   140762   188515   228018 
  237092   212268   174427   137250    88092    18709   -58696  -122345 
 -150758  -144606  -135222  -152543  -186955  -211457  -233265  -272822 
 -319257  -344168  -331655  -286316  -218464  -133522   -50249    -5512 
  -20065   -70596  -107108  -101403   -72136   -54492   -61126   -84171 
 -125828  -207299  -320129  -401897  -397723  -303506  -144917    48071 
  240038   384103   453379   452510   377046   223623    26237  -151459 
 -241380  -242014  -222166  -192058   -93668    76823   232737   293426 
  299708   332860   374623   384847   374105   361444   358857   346851 
  296815   215130   109648    -4715   -79525   -80083   -29299     9598 
     857   -25595   -34135   -33476   -40678   -46276   -29938     3147 
   17850   -17335  -109786  -234697  -344664  -407593  -417372  -382662 
 -315825  -211824   -66952    89319   217586   298902   318225   248895 
  104773   -29602   -67513    -1296    90637   158173   233179   300456 
  301614   265908   247028   225997   171381    79415   -56368  -219971 
 -352613  -409542  -379880  -262880   -78656   112659   240998   298508 
  319057   295683   225656   157471   130253   153933   214705   267152 
  271026   221057   117958   -44671  -222478  -306229  -245239  -140481 
  -98922   -90219   -63681   -23395    30120    84692   117661   129742 
  125646   102843    62661    12191   -40185   -99066  -183388  -280623 
 -336831  -332156  -292644  -212001   -54898   146731   286095   297852 
  182356   -49379  -305821  -444276  -483981  -541329  -589896  -546782 
 -424022  -272321  -152012   -84529    -3512   131695   286202   411196 
  456267   397933   265810   100593   -59983  -166092  -191010  -162680 
 -124999   -85194   -31853    11450     4205   -48082  -104600  -130665 
  -99406   -17491    62898    98108    84842    46654    16658     8396 
   12466    42550   108020   160693   161730   109257    -7195  -162236 
 -282725  -335988  -331863  -265037  -132882    44278   226847   363596 
  450428   515068   531465   479879   406878   350978   318743   290958 
  231241   140183    36942   -70809  -150222  -163255  -122350   -66336 
   -9156    37940    39913    -3239   -29422    -2320    51445   118721 
  209451   302875   361294   358754   293530   191390    63684   -96180 
 -242193  -294501  -243792  -129962    19089   148194   211561   239821 
  261510   251151   197651   129292    71917    33340    -1665   -55910 
 -119454  -181908  -263448  -353088  -402542  -396344  -344251  -249656 
 -134501   -26494    76874   187695   283401   312430   264574   193204 
  145440   127849   133992   135844    85043   -16549  -114281  -183877 
 -245974  -315665  -376751  -392220  -338859  -240470  -152549   -92862 
   -9287   132841   265352   289367   193685    46461   -87331  -181746 
 -226587  -206150  -129697   -41729    24773    53027    29842   -25983 
  -68061   -72994   -55590   -27889    16891    75827   130113   165446 
  184000   183386   142461    57081   -46854  -141352  -208382  -231334 
 -188325   -81766    39688   125835   158806   143243   105795    75243 
   61189    64475    68143    55640    35162     3029   -48414   -97549 
 -114494   -84742   -21186    47320   100786   117985    69551   -46464 
 -177151  -248768  -207318   -21449   241362   402235   431347   461748 
  454058   307965    97356   -97014  -220478  -242015  -243663  -272006 
 -283640  -265976  -243267  -242502  -260198  -236138  -120424    57215 
  226918   340728   384144   356743   259991   121531    -8436   -93358 
 -118644  -103047   -80528   -60053   -54926   -92391  -159139  -204951 
 -203259  -163150   -93904   -11582    47064    65864    66919    68485 
   62315    44127    18563   -18789   -56470   -71778   -74752   -91761 
 -122677  -149872  -166944  -171000  -136961   -44413    69947   139543 
  131999    60500   -31272  -104430  -158902  -202107  -211821  -156567 
  -38798    79256   127496   113796   100364   121684   174966   234601 
  258153   224488   153103    77478     6740   -84935  -208836  -320583 
 -362652  -331938  -273457  -217430  -162663  -116826   -99907  -101767 
  -95019   -84020   -77194   -48948     6664    52026    76541   108905 
  157542   203202   227897   221902   186931   142389   114245   113775 
  123336   110575    71470    35097    18854    12732     4029    -2357 
    9383    43071    91344   151956   221036   286785   344814   389731 
  383901   289265   138697    25754    24755   124009   231669   282936 
  308222   345762   376750   384168   364203   294771   167554     6024 
 -144256  -234662  -250824  -194474   -65702    95382   223656   282902 
  273019   222798   164063   110922    63978    -5950  -128330  -264280 
 -341835  -344121  -301237  -238476  -176299  -142565  -156267  -190675 
 -194698  -173379  -164806  -171953  -181296  -176416  -142098   -90278 
  -46571   -23409   -21729   -41440   -76782   -97779   -65210     9471 
   56753    47864    40930    64524    69736    47121    42538    71041 
