Origin Time       2011/03/11 14:46:00
Lat.              38.103
Long.             142.860
Depth. (km)       24
Mag.              9.0
Station Code      IWT023
Station Lat.      40.0370
Station Long.     141.4501
Station Height(m) 402
Record Time       2011/03/11 14:47:03
Sampling Freq(Hz) 100Hz
Duration Time(s)  300
Dir.              U-D
Scale Factor      3920(gal)/6182761
Max. Acc. (gal)   34.066
Last Correction   2011/03/11 14:46:48
Memo.             
[...]
   -5760    -8466    -9271   -10112   -11129   -10294   -11319   -14947 
  -21055   -30221   -36042   -32855   -25172   -16678    -3996     7783 
    8712     4849     3578    -2568   -12647   -14349   -10332   -11243 
  -15702   -19406   -22230   -23172   -22599   -19533   -11288    -3252 
   -4785   -13292   -13886    -5003    -1353    -3326    -1694     3077 
    7465     7321      313    -5606    -2150     3637     3686      546 
   -5046    -9361    -7389    -2891      462    -1341    -7318    -9201 
   -8213    -8102    -6390    -2634     1690     3090    -1444    -5894 
   -3709    -1262    -2800    -2593    -3662    -6443    -1373     4388 
    1345    -1506     1046     6822    12447     9740     2455     4273 
   12017    13953    11293     7149    -1702    -9080    -6903    -2920 
   -3988    -7672   -12373   -16067   -19324   -23339   -23317   -18308 
  -14796   -14747   -15120   -16996   -18681   -14726   -10929   -14191 
  -19080   -23405   -30222   -33538   -30237   -29934   -34911   -37911 
  -37581   -32906   -24556   -22434   -26669   -25452   -17982   -12876 
  -14630   -16827   -10142    -1892    -3175   -10083   -15806   -13801 
   -1950     6233     4471     3857     4716      476    -3516    -1990 
    4553    10679     6561    -5447   -15261   -20596   -19785   -14827 
  -13516   -13610   -10259    -8869    -8752    -1917     8137    15518 
   21576    22444    17685    18019    22833    23534    20312    14555 
   10396    12637    14934     9784     3418     4407     7853     8431 
    5618     -947    -5362    -7823   -13316   -15577   -10380    -6654 
  -11400   -15676   -11724    -6606    -5356    -7830   -14252   -18638 
  -15832   -14790   -20128   -18168    -6717     -887    -4020    -7958 
   -9588   -10450   -11728   -13020   -10261     -848     7563     3637 
  -10824   -20093   -17702   -14784   -16660   -19025   -22324   -25449 
  -24715   -22302   -18931   -12644    -7641    -7008    -7670    -7484 
   -4816     -460     1021    -1425    -4566    -3887     -400     -694 
   -3208    -4035    -4552    -3537    -2604    -3185      262     6210 
    6495     1375    -4488   -10616   -11757    -3188      403    -9045 
  -12554    -5692    -2222    -1514    -4500   -12349   -11975    -4039 
     266     2536     3517    -1142    -8313   -11634    -9833    -3304 
    4109     3644     -274     3431     7172     6182    10209    12787 
    5618     3346    10033    12779    11548     5615    -7186   -11107 
   -4684    -4753    -9470   -12149   -15329   -17351   -14189    -6529 
   -3222    -8731   -14322   -15809   -15276    -9987    -1901    -3018 
  -13353   -16488   -11031    -7106    -6118   -11479   -20237   -21344 
  -18534   -17926   -12655    -1903     2127    -1864    -1607     3262 
    4261     3070     6690    14709    22396    25709    18937     7090 
    1728    -2054    -7948    -8184    -5553    -7023   -13788   -23272 
  -25264   -17637   -13045   -12673    -6655    -1071    -6020   -10716 
   -5703      626     4253     5979     4680     5290     8035     7186 
    6302    10668    13000     4184    -6561    -6575    -3407    -2295 
    2991     8955    12169    11664     3288    -3194    -2370    -8249 
  -18811   -21121   -18938   -14336    -9975   -16291   -23476   -17658 
   -9658    -8138    -3915     6740    13689    13357    12403    12021 
   14120    16443     6390    -7990    -9866    -5927    -2169     1806 
    -227    -4400    -4565    -4606    -2253     1193    -2305    -5012 
   -3781    -9037   -12956    -9023   -13397   -23360   -21890   -18042 
  -17868   -17159   -27316   -40953   -38677   -31460   -29366   -28092 
  -30121   -29610   -22050   -18429   -16628   -13267   -16992   -18355 
  -11011    -8490   -10887   -12937   -17131   -21489   -26977   -32324 
  -25952   -13190   -11421   -13381    -7442     -858     1243    -2481 
   -9779    -8029      979     -430    -9142   -11311    -8950    -7304 
   -7546    -6722    -3468     -845     2061     4034     6905    12097 
   12334     8102     3326     2585     7869     7893      445    -3442 
    1313     6818     1893    -6941   -11160   -13352   -11139   -10022 
  -14870    -9654     5792    12421     5846    -5726    -9374    -2773 
    5393    12012    12853     8960     6175     3352     -815    -5940 
   -5182     2762     8356    15065    20639    10930    -2539    -4010 
   -3512    -6832    -6980    -2776     2996     3339    -8145   -21713 
  -22541   -15125   -14373   -19854   -20017   -14076   -14744   -21881 
  -19821   -13271   -12745    -9745    -5411    -6742    -5722    -2031 
   -5734   -11286    -8454    -1544     4056     8902    10082     5074 
   -1682    -7017   -11212   -14341   -14181    -9508    -9556   -14415 
  -11541    -8325   -12745   -11524    -4477    -5514   -13216   -17719 
  -15608   -10018    -5115    -2012    -1835    -1724     4018    11278 
   13638    15306    17226    11786     3191    -1349    -7877   -14313 
  -10737    -4492    -6477    -8271    -3693    -4930   -13924   -16006 
  -10367    -8826   -10452   -10376   -12546   -14631   -14678   -16499 
  -13622    -5919    -3463    -7347   -15997   -19596    -7858     5890 
   10980    15479    18265    12820     9294    13911    13718     5492 
   -1437    -7466   -13218   -11300    -2071     4348     7113    10692 
    8294      724     2649    14711    22304    15797     2716    -1081 
     930    -3400   -11564   -22842   -30615   -18946    -1676      142 
     -56     6128     5130      304      317    -1699    -3192     1692 
    1617    -7481   -14926   -17241   -18935   -20792   -15686    -5026 
   -2907    -9034   -12543   -15558   -21174   -23482   -23269   -24438 
  -23388   -21017   -21568   -21720   -17795   -12101    -8484    -5591 
   -2105    -1224    -1310     2022     9058    11690     3037    -6155 
   -9548    -9757     -688     7773    -1152   -12908   -13408   -10628 
   -4739     1225     -971    -2017     -613    -6476   -13495   -16720 
  -20582   -19718    -9078      286     1015     3619    11193    12171 
   10842    15511    16959    17558    21839    15189     2608     1843 
    3100    -1682    -2966    -1331     2281     9131     7117    -4931 
  -11005    -9370    -9136    -8875    -3932     6382    14966     7357 
   -8128    -7921     2358     7339    10356    10520     2856    -3278 
   -2926    -5496   -13120   -19547   -24059   -27216   -22938   -12772 
  -12886   -21396   -19830   -11901    -7155    -3447    -8696   -23462 
  -30239   -31614   -35659   -29728   -19532   -23443   -30473   -29185 
  -30795   -35089   -32608   -29244   -25448   -16696   -16309   -24513 
  -24016   -17881   -11048    -1737    -1677    -9709   -11364   -12521 
  -15625    -4441    12465    13399     4840    -3458    -6057     2813 
   10725    14326    21033    19511     7924      500    -3261    -8880 
  -12730   -11507    -5619      112     2308     6698    13743    17317 
   19331    23027    26106    26417    24120    18805    15928    20779 
   19834     8690     4125     8206    14586    21747    25438    27146 
   29842    27831    20329    15229    11866     7854     7688     8579 
    6537     4218     1244    -2161    -2936    -3135    -5010    -9417 
  -14528   -11936    -6445   -12795   -27044   -32662   -22805    -9951 
  -11276   -23187   -29778   -27355   -22050   -18219   -16962   -13451 
   -2100    10056    12419     9531     8309     4567      256    -1168 
   -6348   -11032    -8776    -7958    -9956    -9000   -11662   -21844 
  -24689   -16820   -12222    -7364      537      435    -2967    -7663 
  -21519   -30920   -26561   -20508   -12099      178     3455    -1031 
   -2733    -3746    -5689    -2287     1370    -3203    -4255     5544 
   12445    15561    23461    24211    13724     7673     7456    11169 
   20804    23684    13428    -2528   -17977   -18976    -1413     9003 
    1292    -5524    -6048    -2137    13219    27315    25670    22632 
   21854    12246     5522     5928    -1842   -13479   -14126    -4688 
    1598     -534    -3229    -2889     -894     -118      848     8080 
   11926     3932    -4738    -8541   -10279   -11725   -14849   -14765 
  -11675   -14166   -16300   -13054   -15274   -21648   -18169    -5004 
   -2138   -17308   -25992   -15477    -2388     1510     -214      810 
    4525     4263    -1143    -1818     9473    13696      216    -9389 
   -7991    -4841    -4162    -9242   -11086    -4667    -3276    -5744 
   -3231    -2005    -2295     -776    -1476    -1269     3040     5044 
     273    -4373      804     8060     4871     -167     -392    -3331 
   -7458    -9056    -8928    -3979      505    -5637   -13888   -15743 
  -19736   -23055   -21278   -20596   -18136   -17899   -22054   -20036 
  -18781   -20738   -14234    -7334    -7004    -5732    -6623   -15454 
  -23144   -18179    -7984    -8101   -17297   -27105   -32820   -31617 
  -30491   -34230   -32685   -24224   -21181   -23197   -21707   -21688 
  -24426   -20727   -14054    -7917      227     4643     3329    -1587 
   -7227    -9835   -11995   -13404   -11989    -9116    -2933     4455 
    6321     1308    -8880   -17814   -17355   -10614    -4022    -1441 
   -4776    -6754    -4149    -2771    -4254    -7466    -8162    -4341 
   -3500    -5968    -4961    -3982    -4667    -3195    -5488   -12516 
  -14066    -8110     -636     5718    10269     9308     6364     7718 
    7954     6318     5383      835    -3591    -5704   -14422   -27074 
  -29207   -23766   -21925   -17274    -9335    -8658   -10772    -7607 
   -3780   -11665   -27716   -29746   -18346   -12746   -15846   -19010 
  -16427   -10444    -2147     9404    14515    11664    12439    17345 
   20859    20165    11644    -2857   -14191   -16348   -15008   -15763 
  -16492   -18522   -19107   -11694    -3656    -2422    -7722   -19084 
  -25060   -19276   -13785   -12829   -14235   -19010   -23534   -25999 
  -25107   -19496   -12607   -11106   -21896   -31327   -21450    -9902 
  -12909   -15304    -6696     5087     6335    -2524    -3609     4614 
    8462     6501     4031     2796     4083     7629     7697      617 
   -6500    -4612     3524     7987     6203     -783   -10848   -12335 
   -1603     7852    11705    16252    17657    12809    11072    11358 
    3720    -4380    -5492    -7437    -8402    -1850     2731     1780 
    3992     8938    13943    15673     8328      215     -121     -515 
   -7170   -14889   -17842   -18161   -19032   -21741   -28307   -32651 
  -28888   -22306   -20404   -23052   -21758   -16226   -14027   -11979 
   -3980     3526     1779    -2817    -1753    -1024    -6423   -15523 
  -24499   -28755   -28832   -30601   -33100   -33963   -36824   -37791 
  -29908   -19719   -15508   -15154   -11890    -3353     3556     4017 
     658    -4089    -6971    -7961    -9729   -11311   -14541   -20366 
  -22484   -15682    -4038     3060     4866     6233     3360    -3843 
   -2333     6318     5402    -1164     1269     8494     9346     3743 
   -2998    -5345    -2718    -5060   -10282    -5286     2467     5451 
    9747    11784    13399    19622    19850    17963    22701    20038 
    9940     7200     8958     7452     1084    -5700    -5826    -2872 
   -1786     -276      906     -354    -3372    -6396    -6780    -7509 
  -10233    -7136      647     6778    10401     7131     1566     3822 
    9248     9516     1354   -15659   -30909   -33286   -32647   -38574 
  -40762   -34282   -25936   -22504   -28987   -35946   -29075   -18562 
  -19702   -21346   -13773    -7525    -6082    -8266   -13984   -12451 
   -3883    -2152    -6605    -9266   -10175    -8449    -3909    -4605 
  -13364   -21167   -20490   -15956   -15638   -16407   -13843   -11840 
  -11134    -8204    -6251    -9157   -10041    -3343     4450     4860 
      16    -1438     -474    -2349    -7708   -14688   -16848   -16249 
  -22028   -27605   -24697   -23303   -28247   -29975   -30142   -33388 
  -30734   -22432   -20757   -25331   -30004   -35344   -39661   -42772 
  -44416   -40405   -35669   -32250   -24990   -20178   -22855   -25454 
  -22274   -18761   -22119   -29342   -37180   -45378   -47326   -42223 
  -37962   -35170   -32006   -28127   -19566   -11118   -12296   -18002 
  -18536   -11295     4298    18420    14130    -1670    -6734      287 
    6812     7532     5465     4182     4154     6359     7680     4237 
    1913     4122     7847    13773    20184    25161    32205    38293 
   37673    38578    45583    45620    40288    39859    36511    30235 
   26673    16501      964    -3545     2629     6011     6787    12507 
   22066    27332    24737    18623    13962    15260    17339    12499 
    6738      876    -6616    -9039   -12648   -22333   -27976   -29818 
  -29058   -19064    -7924    -4498    -2521     1932     2125    -8251 
  -20914   -26119   -27557   -26600   -23722   -27603   -35251   -34001 
  -27329   -24334   -22564   -17002    -8343    -1554     1909     1298 
   -3272    -5423    -6973    -9896    -5548     1546      387    -6186 
  -12355   -15674   -17222   -18665   -17233   -13459    -9767    -7746 
  -14330   -26952   -24081      -52    18159    15113     6132     4497 
    7769    10236     7188    -3286   -10864    -8642   -11597   -26305 
  -35967   -37680   -43076   -42794   -32566   -32007   -36488   -28093 
  -15514   -10780   -11346   -12671   -16090   -17579    -9252      525 
    2716     7027    17871    22986    21654    22363    23800    23731 
   17143     5385    -2015    -4268    -3506   -10113   -20864   -12145 
    5145     9918    14120    25008    31896    33653    40548    48277 
   45734    42398    44043    37884    22125    10893     7980     5115 
    6834    14675    12012     3300     6698    14655    15411    11664 
    7705     4722     -379    -8540   -17046   -25248   -28099   -25110 
  -23544   -17698    -5834    -1074     1428    11689    18035    18043 
   21577    21273    15945    16288    13307     1893      269     5886 
   -4474   -20966   -24853   -24055   -18733   -10954   -14110   -16691 
   -8871    -5975   -10115   -13417   -21382   -31286   -34809   -34337 
  -27068   -14807   -10280   -12319   -14127   -19726   -25474   -20262 
  -10116    -3481     1339     2432     4199     8793     5890     -461 
    -305     1539     1465     2152     4300     6217     6241     6352 
    4936     -556    -2677    -2290    -5135    -2049     7593    13710 
   16178    16199    13181     5000    -7719   -11506    -2582     2229 
   -3217    -3334     5208     6190     3649     8994    11758    10091 
   11852    11273     8189    10612    10235     -277    -8345    -7958 
   -6300    -6358    -5428     -125     5420     7643    10551     8131 
   -2793   -11208   -15861   -17258   -15636   -22163   -33314   -34784 
  -26905   -16543    -8776    -7712    -7891     1088    12694    17253 
   19430    18279    12061     8897     9471     8952     3655    -7118 
  -14591   -16845   -18287   -16420   -13830   -10358    -3497    -2787 
   -7662    -5019     2300      386    -9733   -17484   -20920   -20027 
  -18339   -22476   -22648   -10324      815    -2512   -14378   -15329 
     -94    10545     5944    -2673    -8664    -9700    -5473    -5726 
  -10066    -6960    -3213    -5984    -5573    -5999    -9467     -802 
    7271    -3646   -13563   -10550    -8285    -9899   -13427   -20510 
  -21787   -14158   -13245   -18266   -13549    -5096    -2646     -150 
    3975     5599     2428    -1668     3132    13327    20669    28287 
   31396    17802    -5710   -17161    -9950     2632    10323     9073 
     382    -5312    -6434    -6170    -3161     -922     3061    11827 
   18189    17829     9929    -3090   -12336    -9027     3886     9062 
    -233    -9122    -8345    -1228     7972    16811    26906    33084 
   27474    17718    12884    11527    12506    15292    14753     8298 
     835    -3925    -6152    -3151     3825     5793     4571     8227 
    8824     1002    -2346     1913     4739     6236     4617       63 
    3903    10655     7076     3740    11032    14210     7035     7106 
   13957    15588    17912    20060    16431    12592     6365    -4606 
   -9954    -8823   -11937   -19777   -22007   -12650      -57     7796 
   14411    15399     6650      949      339    -5704   -11667   -11651 
  -13865   -16369   -12013    -8457    -9527    -8627    -6441    -3269 
    4262     7897     2875      206     2543     4740     8807    11816 
   10391    12186    16592    12925     5048     1106    -5089   -11316 
   -5270     4122     5681     8047     7437    -2296    -9716   -17684 
  -27023   -24743   -24031   -36648   -42622   -37057   -35357   -38501 
  -41102   -36666   -23557   -18162   -24246   -28358   -30211   -31873 
  -33585   -38141   -36334   -26072   -21317   -20828   -14488    -5937 
    1026     8314    11607    11323    14788    16478    12172    10040 
    8304     -950   -11538   -12373    -9666   -17899   -29771   -27522 
  -14861    -8422   -16701   -28588   -24486   -11168    -7444    -8019 
   -3931      698     8488    16895    11183      984      213     -720 
    3264    17858    25995    26036    25247    21643    20335    21066 
   14906     3828    -7403   -17041   -20477   -18068   -13038    -5269 
    -366    -4457   -10722    -8625     3968    18516    23029    19874 
   18857    17648    13734    15287    24148    28910    24407    18647 
   17535    20417    21486    16330    10761     6840     3249     4938 
    8829    10182    10862     9841     8622     7461     4542     5136 
    6463     -661    -8675    -6566    -2054    -3121    -2095     2499 
    1502    -2383    -3123    -5139    -9121   -15030   -24303   -28927 
  -28685   -30071   -30740   -30175   -24940   -15915   -16499   -20321 
  -14336    -8924    -9001    -8480   -12008   -19026   -19046   -15164 
  -16767   -19026   -14569    -7280    -3484    -5841   -10349    -8898 
   -4981    -2103     1253    -6144   -19185   -19536   -19558   -29158 
  -33264   -27785   -21513   -19013   -15425    -4099     8338    10884 
    6434     6991    12670    12490     6511     4641     7442     2791 
  -12344   -22722   -21521   -17799   -13209    -5374      640     7835 
   17325    15724     6482     7025    14592    15627    10437     7849 
    9034    12952    19397    22283    23432    29644    31045    21214 
   12468     5955    -4117   -10065   -10234    -9627   -11388   -19429 
  -27388   -32058   -36617   -30838   -14811    -6182    -5870    -3498 
    1123     8028    15431    13222     7120     9836     9892    -2738 
  -17049   -24758   -24013   -16316    -9423    -4337    -2399   -10409 
  -20062   -21736   -19257   -15869   -12745   -11838   -16691   -23634 
  -26232   -28853   -28247   -19930   -11584   -11301   -24499   -38412 
  -41778   -43774   -42064   -35223   -29738   -21523   -17239   -23931 
  -25576   -16657   -13581   -16852   -15856   -16249   -19768   -19604 
  -21085   -24287   -19775   -11007    -5719    -5515    -9436   -11363 
   -8111    -4527    -5717   -12021   -13891    -6080     1738     7688 
   11630     3380    -8712    -9670    -5674    -1900     1770      771 
   -2383    -2874    -1882    -4002   -11772   -18578   -18623   -14945 
  -11856   -13164   -20234   -26589   -26658   -22311   -15448    -8042 
   -3870    -4831    -6320    -2182     2502     3612     6542     9106 
    7478     6886     8532     8468     5776     -837   -13426   -25281 
