Origin Time       2011/03/11 14:46:00
Lat.              38.103
Long.             142.860
Depth. (km)       24
Mag.              9.0
Station Code      IWT019
Station Lat.      39.8491
Station Long.     141.8034
Station Height(m) 120
Record Time       2011/03/11 14:46:56
Sampling Freq(Hz) 100Hz
Duration Time(s)  300
Dir.              N-S
Scale Factor      3920(gal)/6182761
Max. Acc. (gal)   316.199
Last Correction   2011/03/11 14:46:41
Memo.             
[...]
  -16637    -5397     4318     6386     1871    -3494    -4166    -2186 
   -3943    -4109     8287    23968    25060    19330    27395    46507 
   56207    49407    38496    34150    32549    26788    18447    13154 
    9767      483   -10911    -9103     3918    10087     4738    -2265 
   -7653   -17569   -30636   -38114   -40924   -45600   -48451   -40794 
  -26382   -17921   -15339    -3793    21959    41130    29996     1093 
   -9697     1889     6229    -4361    -4786    12506    22737    11590 
   -3257    -2234     8443    10764     3344     1369    10946    19747 
   17923    13143    18452    35597    54837    67585    72064    68113 
   59812    53170    41950    18886    -3747   -12153   -15443   -29980 
  -52517   -66122   -65101   -58205   -52040   -42808   -24045    -1279 
   10665     8977     4024     1417      -54    -1106    -3130    -7916 
  -11565    -8010    -1095        8    -2732     -492     6186     9520 
    6855     2978     3872    11063    20767    26990    27911    29950 
   38651    45924    37612    16396     1951     1352      949    -9621 
  -27974   -44636   -49145   -43349   -40887   -44640   -39939   -20706 
   -2907     1421      140     4580    14018    18696    17459    21932 
   35811    47734    48545    42705    39390    38274    33148    22526 
    7193    -9856   -18956   -16244   -13136   -15975   -13377     1512 
   18421    28225    34516    41011    40633    30206    23028    25773 
   24564    12220     1644     1462    -1060   -18892   -37284   -33835 
  -15371    -4519    -5838    -4611     8602    22471    22486    14510 
   16007    30122    40177    34055    19718     7659     -290    -5142 
   -9814   -14717   -16665   -14216    -6477     1756    -1619   -17184 
  -27775   -23314   -16296   -19320   -24018   -20410   -17834   -25472 
  -33483   -30287   -17980    -6249    -3234    -8500   -14931   -16887 
  -12029    -1123    12301    25078    36773    46184    48928    47299 
   50577    56785    53901    43257    39237    40078    27073     3485 
   -4299     5662     6756    -7000   -12355    -2821     -135   -12122 
  -18271    -6702     8056    14847    21400    32299    40406    40719 
   35992    29386    20461    13337    12693    10490     -519   -10896 
   -8733     1861     6239      327    -4755     -662     4945     -749 
  -13578   -17762   -13538   -16514   -32492   -50607   -59653   -60652 
  -58819   -52728   -39272   -19297     4200    24939    35267    34849 
   32699    37135    43115    38369    27088    26401    33361    24939 
   -2394   -22384   -17661    -2579     3147     1506     5241    10812 
    1579   -18567   -25274   -11742     5892    15755    21045    27169 
   27755    15311    -1227   -10582   -16089   -21084   -20209   -15072 
  -18736   -36193   -50026   -42659   -25753   -21268   -26859   -24472 
   -7525    13272    24041    26835    36842    56572    73297    82280 
   88370    91709    89180    81092    71253    62485    52816    41468 
   29114    10905   -12542   -29221   -33950   -33416   -32743   -32043 
  -31433   -32119   -33302   -31111   -25570   -23739   -25060   -16553 
    1567    10076     5224     5447    16578    23519    16414     2632 
   -5848    -5996    -2906    -2638    -8124   -14643   -15478   -16897 
  -28971   -42300   -38139   -19782   -11978   -23474   -30916   -16633 
     812     -262    -5681     7850    31383    40454    33196    29293 
   40140    54406    56179    48609    47285    53889    54566    43040 
   26216    12069     5941     7318     9744    13082    21501    31899 
   39622    43488    40026    26978    11516     2241    -4397   -17340 
  -32789   -36465   -24915   -11469    -8281   -10717    -5004     8577 
   15053    11978    12021    17851    19842    15324    12759    15293 
   13875     4433    -5750   -13389   -22648   -35161   -46194   -49394 
  -44201   -34848   -24477   -14901    -5891     4993    16994    23480 
   19454    11386     9865    12746    10001     3065     2212     6949 
    6853    -2597   -17330   -28696   -31031   -32546   -43765   -56613 
  -56164   -45148   -38830   -41870   -42902   -32060   -13131     5108 
   20473    35287    45562    42245    28502    21454    29178    38772 
   35594    25479    23744    30388    36091    41341    51501    64739 
   73617    71831    59347    42983    29532    17471      488   -18713 
  -29374   -29188   -26087   -25007   -21530    -9551     4892     7069 
   -4692   -14961   -12247     -263    12442    21154    22875    16879 
    9463     8147    10102     8461     6244     8207     9211     5553 
    2834     4378     4068    -4865   -16739   -17667    -5639     7219 
   13074    15492    18868    19554    10345    -4799   -10364    -6293 
  -12999   -33988   -48272   -47086   -43325   -45729   -47023   -38295 
  -22979   -10993    -7245    -8587    -6627      720     3064    -6427 
  -17758   -16551    -2924    10144    16408    22667    32722    40721 
   42188    41881    48856    62499    73489    80201    85827    87159 
   79458    62197    43321    34911    33761    26843    14432     3792 
   -4953   -15964   -30541   -41151   -39599   -31813   -28805   -29462 
  -25103   -16564   -16122   -26292   -32880   -28123   -18968   -11675 
   -7775   -10894   -22981   -35767   -38227   -31211   -23577   -18703 
  -14824   -11300    -8897    -8666    -9135    -8292    -9249   -10962 
   -4943     5617     8695     7126    10580    14794    11634     3971 
   -2110    -5166    -5888    -5839    -5814    -5370    -5528    -7408 
   -9799    -9061    -1338    11134    20080    21383    18937    17298 
   17065    19436    28728    43715    54474    56809    58429    64480 
   68065    60799    48983    47462    55271    56614    45753    31804 
   23594    19805    11441    -7409   -31718   -47869   -47901   -40477 
  -38492   -44164   -51077   -51087   -44108   -42792   -55183   -67719 
  -65661   -60273   -65628   -68866   -54563   -30084   -10245     2512 
   18059    38285    47159    36737    24320    28570    43883    51089 
   46548    41746    38761    29276    15002    11349    23831    35334 
   29593    10726    -2972     3406    21789    30727    28542    33100 
   50341    62455    53493    35265    28217    30480    27383    15658 
    4977    -2397   -20357   -51334   -76046   -85026   -86769   -87323 
  -83180   -68148   -45786   -26934   -14173    -6337    -6947   -15040 
  -21431   -19064   -10055    -1949     -319    -3284    -2537     6612 
   20629    36527    54343    68502    69637    59698    54738    64590 
   78313    79961    71812    66655    62068    43272    10675   -15083 
  -23214   -29853   -50395   -74459   -83936   -78812   -72469   -72390 
  -73348   -65615   -49916   -39858   -42835   -49743   -49942   -42622 
  -31877   -20732   -10462    -4175    -4294    -3367     8673    27240 
   37949    38582    43485    60633    76264    74792    62748    58123 
   61151    51715    24239     1596    -4483   -12178   -31308   -43001 
  -31283   -10310    -5449   -17386   -21820    -5823    10237     3630 
   -9862    -2023    18455    24588    15770    12726    21170    22089 
    2799   -21121   -29186   -24094   -19428   -16298    -7832     6128 
   19253    30169    42580    52950    53616    44925    33404    24630 
   19972    14933     3047   -13509   -23422   -23226   -23064   -28498 
  -31170   -23400   -11901   -11725   -25264   -32535   -13998    20055 
   39215    33775    25383    31288    40118    30379     1327   -22628 
  -24726   -17884   -18423   -24232   -26128   -17939    -3185     7638 
   12854    20232    38183    66575    90309    94783    82947    67761 
   56987    48494    36194    19859     7202     5391     9811     3822 
  -19379   -41708   -42418   -26119   -16895   -25913   -36388   -31971 
  -23463   -29134   -45410   -53921   -49255   -47281   -60979   -79393 
  -83655   -70934   -55079   -51680   -59684   -64066   -61446   -62122 
  -63806   -49916   -18186    13918    36089    56534    84456   116303 
  144082   165753   179498   180622   167213   141098   110367    86795 
   73756    65381    53285    33324    12842     -816   -13433   -29826 
  -46673   -62807   -77931   -91805  -106944  -122626  -133196  -132053 
 -117979   -98758   -81733   -67375   -56223   -50215   -45763   -36470 
  -20139     2686    29573    54136    69120    75190    82132    94229 
  104328   104476    93277    79584    74706    73715    60309    28711 
  -11177   -42415   -53979   -49655   -40026   -31416   -25685   -19394 
   -9987    -7908   -21738   -39795   -48282   -50322   -51819   -46075 
  -26911    -2944    10220     5115    -7388   -10507    -7498   -12704 
  -22342   -19390    -1184    13247     5036   -19775   -35052   -25728 
   -5327     4181     1126     -183     6672    13896    12661     8371 
   16824    40173    60349    65497    65806    75508    93253   101979 
   91067    75180    71207    74233    72028    61757    50897    45058 
   37119    20919     2206   -13500   -27143   -39461   -49371   -57322 
  -64177   -69088   -72964   -80968   -96148  -111244  -114088  -102370 
  -85078   -69642   -53373   -29715    -2217    16849    22792    21016 
   15721     8718     5388    10118    19978    29383    36565    41927 
   42811    38504    34120    29347    19784     9590     5161     6994 
   14721    29015    45165    48159    28308      466   -16040   -23438 
  -33066   -48330   -64228   -74790   -82558   -91970   -96960   -86081 
  -54525   -10468    28842    50916    54943    46866    34540    23856 
   16303    13533    22136    45647    72328    86367    87092    79835 
   61575    26671   -19800   -57310   -71100   -71750   -75022   -81996 
  -86827   -83846   -71243   -49858   -15199    36824    99860   160548 
  204977   221433   207276   177656   151758   127531    93875    53812 
   13820   -21560   -47205   -69384   -96933  -126311  -150773  -168085 
 -179263  -183418  -177999  -168640  -163108  -157737  -144917  -124577 
  -99444   -70301   -39084    -6761    27498    63008    97407   123128 
  133674   136821   141108   139122   120898    89536    57909    34761 
   18043     6433     3952     7674     5883    -8472   -27478   -37394 
  -40061   -51748   -78030  -103323  -109048   -94038   -68395   -33041 
   20540    89719   152514   189324   202869   203611   189596   159429 
  129399   114788   106073    81964    39300    -4708   -38619   -65832 
  -87194   -94310   -79817   -45224      127    40903    63483    68995 
   62959    45198    22106      744   -22501   -50206   -79759  -111912 
 -145751  -172880  -186780  -187718  -176144  -149098  -107793   -63110 
  -26521     -115    24132    55086    92307   125556   140694   133441 
  115714    98984    81092    56806    31726    19700    26006    36390 
   32630    16008     6591    18161    40000    50747    39260    11156 
  -12138   -13769    -4529    -6028   -19300   -28008   -21227    -4044 
   11898    28175    51770    70109    66584    48744    33712    24007 
   15015     5394    -8815   -31998   -64433  -104873  -147400  -183202 
 -208599  -224689  -233178  -233322  -224382  -211180  -198033  -181224 
 -155519  -121503   -80579   -29574    32521   100958   172360   244354 
  309051   355903   378410   374163   342688   290980   240274   211430 
  201332   190350   164620   120537    66503    18987   -13618   -32444 
  -44475   -64670  -101725  -149449  -198754  -240362  -264376  -266402 
 -248506  -220102  -192641  -167910  -140756  -108762   -72000   -32399 
    5783    41846    76703   106204   126489   138132   140837   129070 
   98013    53972     8757   -32143   -64281   -76348   -57490   -12377 
   32837    50402    39289    19240     2258   -11075   -16740    -9355 
    6877    19930    19155     7697     1472     8186    23489    42938 
   62616    77448    82222    73494    53013    25966    -4542   -37230 
  -68747   -97318  -124733  -150231  -170339  -182199  -181910  -163029 
 -121862   -62603     4820    66603   109398   126828   122428   110053 
   98967    79590    42828     2104   -18831    -7348    31779    82250 
  130661   174954   216731   253447   278814   286909   280069   266248 
  244418   202747   131353    39457   -42407   -95113  -132549  -174323 
 -225955  -280299  -313732  -313549  -296345  -276996  -258669  -238028 
 -201818  -143709   -80290   -37411   -21273   -15798    -6315    10188 
   26743    34917    37972    43473    50182    51573    43536    32930 
   32523    39579    40161    31128    19066    11137    11641    19018 
   28552    34320    28360     6185   -26234   -57922   -84091  -105613 
 -124041  -141339  -156620  -163326  -156907  -140675  -122222  -108592 
  -97018   -75732   -39619     8957    67322   129196   188460   249379 
  313862   363370   376847   356999   324257   296277   276376   252030 
  216492   183916   156900   119482    74606    40356    27014    36031 
   55166    63035    49365    21078    -5776   -20319   -30245   -51148 
  -83761  -112795  -126090  -132190  -154536  -203156  -260545  -301261 
 -312120  -292775  -254476  -210711  -162059  -106308   -50852     -652 
   45462    87634   124762   151817   164225   165944   162375   154147 
  141190   127850   122704   127590   135343   143425   149776   143653 
  120320    87652    55728    29286     1943   -35750   -81024  -122802 
 -156176  -188368  -224716  -256948  -279745  -296938  -308471  -311789 
 -307563  -297848  -283310  -264850  -242763  -208962  -155766   -93612 
  -41396    -5095    23360    56320   102295   159030   218469   276094 
  329389   382407   440572   487305   501653   488292   456392   407265 
  348839   283186   204113   122406    55704     7429   -24762   -50691 
  -83184  -119406  -152464  -177309  -182735  -164266  -125839   -77830 
  -42400   -34226   -46866   -67847   -92157  -118581  -141123  -150095 
 -140502  -117843   -91956   -66365   -40087   -14515    10180    38742 
   73238   106978   127114   126062   110932    93608    80307    71844 
   62518    49551    41697    43793    46862    43543    36629    30522 
   27863    25728    13183   -14993   -54555  -100778  -144792  -174077 
 -183880  -180379  -173571  -166082  -153089  -132630  -107754   -85193 
  -73035   -74477   -85939   -98866  -107924  -117163  -128909  -138498 
 -143169  -142712  -137702  -129660  -113684   -82155   -41813    -8431 
   15718    39739    64907    87503   111819   143133   178870   210589 
  227296   225949   217453   215612   222979   224734   202357   160960 
  128626   122311   132852   144979   155768   169202   179242   170231 
  132509    72332    10238   -36066   -63469   -77133   -85989   -95262 
 -101990  -105243  -106428  -104013   -97163   -88874   -84886   -86106 
  -86475   -78513   -55751   -20539    12032    25732    15818    -8639 
  -32259   -43659   -41853   -30970   -10501    22088    62989    98464 
  111201    96757    69237    42128    10210   -33063   -70686   -81468 
  -72246   -69674   -91310  -128015  -152788  -155695  -153465  -157505 
 -159073  -149222  -133303  -119955  -109645   -99866   -87624   -66072 
  -28232    24443    79684   125628   161525   192928   216825   218227 
  193696   165089   153828   157978   163249   158640   134742    89492 
   42441    20332    28118    47596    58241    53624    45825    50794 
   63435    66667    57654    41807    24117    11698     2342   -16663 
  -47054   -77683  -103511  -126497  -149429  -175810  -204032  -226712 
 -236278  -227460  -199999  -160909  -118748   -75465   -31777     6967 
   38300    63318    81255    93236   102951   113762   129129   148836 
  167477   179922   183531   175192   154135   126658    98119    70252 
   47317    26866      715   -29600   -58945   -81570   -85714   -69386 
  -45221   -24914   -16280   -21881   -36309   -55431   -75131   -86323 
  -86568   -83055   -85054   -98820  -121184  -141681  -151109  -147619 
 -134162  -109073   -72350   -33623      854    34468    68576    98033 
  119750   136586   148626   149070   136712   121709   108678    89284 
   61234    33101     7291   -18750   -44466   -71611   -99550  -121022 
 -133386  -138799  -137197  -125640   -96835   -48755     6646    55667 
   91766   112722   118237   111158    99724    91068    85976    83137 
   81883    81451    77328    64925    50940    48092    59536    79889 
  106739   139087   169029   188261   196481   194570   178865   143803 
   87210    20184   -39969   -89791  -133947  -175056  -214767  -248007 
 -268486  -280011  -288046  -283129  -250252  -195926  -139697   -93695 
  -62866   -41993   -25680   -18178   -21796   -34256   -50860   -66852 
  -82481  -100310  -121377  -141504  -153612  -155910  -151032  -139183 
 -115405   -76184   -28183    18431    62872   108671   155214   202018 
  247534   287170   317206   329499   316697   289682   263362   234112 
  196311   156128   120826    97573    84434    63375    30386     1196 
  -18552   -27881   -24099   -16537   -14129   -20301   -38607   -58857 
  -65432   -61686   -65795   -89629  -124533  -148183  -149985  -143680 
 -149009  -164418  -165809  -136752   -89097   -45448   -14762     7811 
   27602    46120    65086    85060   103949   120406   136573   155572 
  174608   182992   170761   141925   111039    85036    59248    31590 
   13497    12602    13078    -2661   -30350   -56053   -72324   -80555 
  -87743   -98200  -108188  -112647  -111027  -103913   -92168   -77084 
  -59108   -43861   -39712   -42717   -40736   -29538   -11746    10035 
   33539    56666    77159    89527    86861    70234    50719    40157 
   38228    32233    17278     3969     3742    15829    26288    24943 
   16767    10534    11524    18205    19346     6450   -18065   -44306 
  -59386   -61809   -64440   -73037   -80947   -82470   -76230   -66458 
  -59959   -53466   -36424    -5477    32175    64583    86121   102671 
  120159   138402   157540   175280   186213   192640   201625   213803 
  223060   222641   215428   211517   206183   180149   127572    65820 
   20288    -1088   -19094   -55256  -106494  -155990  -192202  -216242 
 -234596  -249482  -259876  -264936  -266289  -267496  -269898  -274927 
 -284389  -293404  -296428  -294064  -285927  -273251  -263533  -260008 
 -255555  -239049  -202795  -148251   -86962   -28854    28051    89187 
  151844   209795   260809   302867   337356   371556   403003   419762 
  419271   408235   390468   367068   341127   312030   269727   206494 
  133830    73573    35600    17357    13769    16504    16448    14281 
   15404    18250    20541    21878    19114    12645     6514     -978 
  -15015   -34622   -54751   -74259   -94957  -117881  -142914  -166636 
 -184707  -198319  -206696  -204486  -192601  -173028  -145051  -110962 
  -71443   -27520    13993    46256    66497    78205    88206    95362 
   92190    75838    51149    26592     3010   -26281   -59237   -86654 
 -107879  -128442  -150275  -171377  -186551  -190752  -183906  -169838 
 -150298  -118242   -65356     2396    68071   117297   142669   148060 
  145468   136959   118592    98686    88834    90455    94263    82768 
   46421    -2364   -42066   -63035   -67890   -59814   -41410   -15298 
   15927    45462    67420    79191    80046    79311    89231   106902 
  116484   106367    83333    67046    65129    64787    55979    45912 
   42632    39819    26927     6194   -10645   -17601   -18990   -23806 
  -35264   -46122   -48869   -43875   -35384   -26987   -20128   -14060 
