Origin Time       2011/03/11 14:46:00
Lat.              38.103
Long.             142.860
Depth. (km)       24
Mag.              9.0
Station Code      IWT005
Station Lat.      39.6478
Station Long.     141.9465
Station Height(m) 6
Record Time       2011/03/11 14:46:54
Sampling Freq(Hz) 100Hz
Duration Time(s)  300
Dir.              U-D
Scale Factor      3920(gal)/6182761
Max. Acc. (gal)   236.118
Last Correction   2011/03/11 14:46:39
Memo.             
[...]
  -33231   -42861   -34033     3357    46884    66516    77889    92530 
   85802    50471    14845     -355   -11627   -36221   -51841   -43430 
  -39336   -49057   -42887   -17936     1985    19859    49300    72353 
   60637    28632    16461    23979    24751    15235     5076    -1602 
   -2216    11045    37445    53275    46988    33178    11914   -20878 
  -41304   -31387   -12892   -12962   -19770   -15779   -14847   -14834 
    5857    34773    54262    72983    87627    81495    54337    19303 
   -7126   -22053   -36450   -43518   -38879   -40048   -39829   -22280 
   -4114     8138    27020    44700    49897    45976    30034      597 
  -21067   -21505   -17188   -12814     2550    19604    35050    60537 
   81947    77302    48284    10649   -13762   -16753   -14714   -17860 
  -19107   -14182    -6286    -1658    -2111      118    13563    39338 
   55836    33240    -6438   -17591    -8052     1598    16506    27005 
   18525     -901   -16598   -17406      711    26903    43843    46952 
   47442    54613    57245    39094     6973   -28956   -61165   -66742 
  -49664   -42351   -42462   -31797   -12151    13473    37147    49244 
   59594    73628    70516    39969    12731    13292    14691    -3156 
  -11820    -4135    -4015    -1743    13013    16866     2119   -17330 
  -27512   -19161    -3854     6392    22456    40339    35106    13730 
    5912    13950    25723    35472    31861     9314   -12386    -8613 
    7640     4423    -8138    -4417     5195     7174    13139    34509 
   58333    63965    50244    21105   -13824   -31255   -26775   -10466 
    6068     9108     7287     9675     9711    11903    16597    13686 
    8072    13609    27774    33564    25445    10473    -1550     4382 
   21471    17073    -8350   -22495   -20636   -15386    -5344     6154 
    6967    -3574   -10598     1789    19645    18083    12538    16639 
   10859     5990    29088    60383    66063    42234     6270   -23203 
  -40089   -40064   -20050     1710     6262    -3618   -11714    -1965 
   13458    18199    30134    46118    38025    21435    18967    17734 
   11500     3817      159    12155    25888    24017    17650     8836 
   -6580   -17927   -18512   -10821   -11588   -27275   -29788   -12745 
    -850     1048     -899    -1364    13244    42371    59302    51391 
   41316    38007    25715    12530    13358    16827    14957    11862 
    7316     4087     4925     5217     4265     3086    -2989   -13034 
  -19296   -17364    -7475     8201    29832    57458    78806    75990 
   59118    47097    22690   -14651   -31872   -29326   -22157   -20357 
  -35068   -46926   -39363   -17286    22884    64682    78764    67927 
   52288    35831    14371     3974     5608    -6958   -18237    -8435 
   -5001    -8069     3564    12885     7057     -926    -2866     6697 
   29462    46287    24847   -36422   -85433   -87649   -65312   -29121 
   18544    48625    61586    77455    86112    85021    73964    39198 
    1583   -11119   -13240   -27668   -51492   -56052   -23033    22649 
   53371    64535    50943    28686    21635    10879   -13244   -25530 
  -30942   -46445   -54149   -39952   -11225    22835    49835    63585 
   61302    43934    33709    40855    50025    51892    40189    22701 
   19010    12691   -18164   -48750   -57499   -58806   -52580   -29480 
  -11572    -3992    17783    41846    43368    33510    25626    20869 
   28326    46688    58274    57528    48788    38313    34484    33517 
   20744    -5358   -22116   -26948   -39695   -36221    -1966    10790 
  -10214   -12565    10089    20204    17331    23788    41427    59553 
   64498    56571    49630    43308    42348    48191    28646   -18552 
  -53102   -64387   -59348   -38907   -21676   -11230    16798    50577 
   56578    41474    22335    -6637   -46138   -73982   -72555   -48762 
   -4910    55411    89219    70687    48978    56743    55532    30270 
    2474   -23688   -41551   -45011   -39828   -23661     8747    49901 
   70138    49123    14825    -2248   -14080   -27232   -22790    -6911 
    -469     1534     7212     9382     7980    13146    25378    38730 
   42958    28881    20051    35116    44085    32095    19146    13965 
   11853     5232    -5744   -15530   -28659   -45205   -50411   -37886 
  -18052    10956    58270    96043    96506    84337    73999    49446 
   28090    28417    25901     6924   -15592   -34670   -39270   -20862 
   -3029   -14870   -44635   -54664   -43978   -38337   -25679     7415 
   35772    48213    55268    55435    44784    40282    58698    78241 
   78499    66091    27339   -33061   -63522   -56356   -48741   -43252 
  -25258      648    23109    38957    59095    70660    44648     3389 
  -26221   -49953   -55662   -40055   -21859    -1942    21589    46133 
   69274    80933    83702    78549    51535    16026   -11707   -38858 
  -48414   -27043    -3965     3489     6256     8898    12521    25157 
   39806    28631   -14412   -56423   -67804   -50141   -21037     2699 
   11033    15598    34595    52401    50751    45840    49104    53060 
   50303    28670    -9839   -33419   -31554   -30571   -29671    -1281 
   41305    53268    30021     8996     3698    -2236   -11341   -12831 
    4679    40842    65861    59071    43913    34107    13472    -7380 
   -5225     8380    13429    17767    30527    24770    -9008   -33595 
  -41884   -51287   -50719   -31368     5082    48108    61863    47531 
   45590    44285    33531    47869    65547    51652    29194     5388 
  -23496   -42291   -50757   -52748   -49705   -37428     3606    51631 
   61761    59791    73937    62346    10293   -34736   -39151   -14970 
    5250     -456   -24784   -37304   -24921    -1642    23428    41258 
   45388    48836    50156    31087    -1863   -26098   -31539   -23486 
  -14580    -6052     9514    15574     4279    11636    34316    22746 
   -3135     7729    28826    25193    30324    63583    78386    55069 
   35256    34530    32259    19889     -224   -20626   -38787   -52250 
  -43289   -14828     6865    21201    36981    40075    13730   -28181 
  -39252   -14056    -1794   -13985   -31405   -40536   -20287    21056 
   58998    90724   113835   123792   101886    47031    12793    10755 
   -3980   -27146   -27984   -19192   -18001   -18865   -28505   -38393 
  -22069     4882    22499    31086    22340    16851    41012    63363 
   56874    46311    38290    16347    -5186    -7867    12723    51144 
   69252    47683    26997    25264     8144   -39100   -87776   -97935 
  -65961   -36149   -27099   -15402    -2488    -2648    -6523     3892 
   31423    46583    34767    29364    39217    41699    36876    24830 
    9669    12569    30360    47358    55129    50431    52299    67489 
   63616    24316   -16609   -35842   -61871   -89308   -67719   -24265 
  -26331   -56933   -68195   -59400   -33872    20523    83108   107261 
   89962    73222    74203    74565    68573    67212    58988    26726 
   -2849     -829     6655   -18643   -66204   -95264   -96400   -76937 
  -34331    -2296    -5090    -6449     2119      892     3543    17729 
   30965    39635    48066    53222    39126    10098      321    12545 
    6993   -17679   -22955   -20230   -35847   -30419    14763    38603 
   19258    14097    42921    60099    55527    55419    36039   -11064 
  -25115     5352    28149    21985    10225    13922    12325    -5380 
   -4768    25255    58029    67593    48311    20059     1148    -2299 
   10921    27039    33880    31129    21687    22860    22586   -10960 
  -37052   -24467   -20677   -36208   -33924   -12643     -963     3897 
   33251    73596    77798    41722     -192   -19782    -5540    25391 
   35722    25574    21584    14267    -9224   -20717   -11001   -11608 
  -19069   -10437      180    12596    41540    63216    49531    11575 
   -7063    15718    38622    16349   -33792   -59233   -51726   -40028 
  -15213    23725    44951    56202    63684    36103   -15298   -35049 
  -21463   -20291   -22181     2012    28357    34618    29785    35118 
   52599    49290    17956    -7315    -8822   -14922   -41912   -48595 
  -29185   -18618    -5578    14671    16503     7958    18450    34377 
   14756   -19381   -24494   -14777     2605    39060    70966    84256 
   87592    69159    24096   -20214   -39643   -38774   -26731    -2293 
   14305    10748    10523     9917    -3645    -5117    13701    26298 
   23220    26297    44594    60129    62878    58693    57393    58344 
   44570    16129    -2562    -4694     -500    10274    23322    20936 
    6611     7970    17537     2917   -27838   -57755   -78111   -76008 
  -74463   -78895   -55101   -18722     5231    33437    63692    77046 
   78308    79441    78074    66962    43555    18167     7913     4885 
   -5978   -12409    -8179   -11086   -27400   -35191   -16934    -2756 
  -23075   -38640   -20054    -8081   -17654   -27786   -50310   -71807 
  -34337    45178    82002    67150    59882    73180    75849    63400 
   60426    60316    34079    -6908   -36629   -47317   -33397    -5014 
   10724     9075    17737    39517    35894     3818   -16807   -10454 
    1768    -1743    -6820     2500    -1023   -27275   -40433   -28215 
  -15159    -7563     3074     4508      568    11771    30762    54721 
   80010    80819    64246    54279    46875    40448    27428   -13463 
  -58224   -62309   -28231    11192    27561    22939    13546     3066 
    2436      233   -22279   -31267   -10439    10343    22999    31171 
   24142     2538   -10797     4747    44923    76598    72228    47258 
   19614   -11771   -25835   -13777   -12800   -32683   -39311   -24735 
   -8692    -1968    -5427   -14105   -23667   -32400   -20023    21902 
   44051    26991    11988    -1025   -14555     2877    28696    26742 
   20859    31264    42570    52674    71854    83812    65761    43518 
   53442    63943    36147     4096     1613     2851   -14744   -42228 
  -59358   -45433   -24725   -36724   -65811   -81917   -70130   -37189 
  -10385    10146    24346    23408    34459    67191    97002   112896 
  103639    78483    69162    50118    -4832   -44780   -52520   -73670 
 -106258  -108865   -83464   -66495   -59487   -35236    -2638    16990 
   42401    81387   107107   115665   114666   102256    79994    39877 
   -7366   -44230   -92583  -146850  -154639  -106003   -48481   -14436 
   12495    42311    57923    60298    62256    53995    19872   -17972 
  -25174   -19663   -26435   -26497   -18238   -10626    21014    58149 
   45643     4935    -9244    -1692     1666     2807     8868    12817 
    8633    -3822    -2238    40353    83807    86752    80793    71793 
   34226    -5647    -9695     4834    -6751   -38101   -54576   -68234 
  -97126  -115705  -104923   -88717   -84848   -77153   -54593   -17342 
   30420    69029    93475   118052   130936   111743    74226    40010 
    -635   -63621  -114201  -104106   -64650   -48062   -31356     6013 
   28946    28431    35783    52407    56549    56624    57538    35925 
   -5138   -38338   -57718   -71340   -71202   -50222   -34635   -36632 
  -22667    16014    52016    82288   110712   126307   125327    99624 
   52033    16474     7494     3951    -8768   -30129   -58601   -88931 
 -117093  -139289  -128454   -63193    23077    89603   136109   159182 
  153033   148144   150009   117354    56661     8164   -26178   -45221 
  -44481   -42609   -30853    18088    79770   109881   107849    88228 
   48876    -4652   -54698   -83135   -74675   -48210   -49738   -84508 
 -114365  -116924   -92826   -41720    21104    72842   117708   153968 
  160323   144454   137131   135937   110137    65350    37011    22268 
   -9323   -35989   -12017    18315     2991    -6630    10888    16158 
   17200    13654   -22327   -61223   -67127   -75564  -116624  -153594 
 -163448  -161950  -146543  -120303   -99730   -68692   -16830    28183 
   50378    61748    78518    99676   101711    81321    74522    87702 
   75871    33118    -3107   -30915   -56354   -63471   -46872   -10008 
   31335    60728    88259   118427   148816   184716   203329   192239 
  173759   135018    66973    20522    17115    11904   -23561   -75062 
 -118538  -141516  -163994  -197201  -212011  -199736  -169896  -111956 
  -38967     6765    30806    82939   154682   187792   179359   167202 
  163589   158854   129380    77324    50470    51664    38151    17118 
    5593   -22589   -62336   -73273   -71889   -95039  -108170   -77296 
  -43227   -32724   -19429     1887    14630    24646    33699    17820 
  -13991   -17100     2066    12685    23988    33685    21625    -7671 
  -35310   -37770   -18890    -8953     4475    51080   105778   129106 
  134389   150016   162614   150631   107304    33716   -49782  -129023 
 -198445  -240337  -253384  -251589  -229230  -181755  -134674  -101120 
  -63974   -19720    21825    59302    94084   119263   137262   167894 
  193796   185292   169889   171565   172729   159466   130865    97251 
   62786    13456   -46776  -105344  -159629  -185924  -180379  -181393 
 -181015  -144093   -99923   -80125   -44699    30370    89342    96223 
   86626    81987    75442    77784    87201    78258    44918     -551 
  -43779   -66675   -75790  -105533  -159045  -189128  -169809  -144174 
 -153565  -177680  -171542  -121489   -61021   -10644    50541   122038 
  181933   229370   264005   282767   303667   333302   341555   310914 
  252658   166856    70688    -1353   -75908  -175467  -254314  -308482 
 -358190  -362909  -314417  -268772  -235323  -172239   -81900     1920 
   83429   171729   243368   279248   294966   313989   312942   260549 
  194459   149715    99469    30123   -53554  -148171  -221378  -258040 
 -277353  -288430  -287219  -247854  -163009   -82780   -26602    34729 
   97294   147137   186515   199793   188332   176794   152293    95283 
   32167   -13462   -57817  -107250  -129750   -99765   -28780    51960 
  117159   163108   190157   180529   130453    80320    63437    59317 
   40135    10066   -16517   -28098   -19482    -1865    10134    13291 
    4683    -8500    -3364    22507    52558    74938    84962    80810 
   42941   -24426   -68210   -87656  -121448  -142179  -119422   -76908 
  -25479    30349    63072    75782    85490    74406    36140   -14187 
  -63840  -102293  -144361  -188783  -195492  -174969  -174089  -184652 
 -167071  -105475   -19305    55809   120587   197161   265177   294656 
  300527   304333   300503   283479   234340   131426    27776   -16694 
  -28971   -43675   -64890   -84711   -69389   -22111    -1806   -22216 
  -41218   -36501   -12588    20175    46251    60310    60779    30836 
  -28554   -93064  -150567  -184975  -174830  -123281   -51886    14224 
   60763    84416    97206   135906   193090   203261   164268   137121 
  125872    90627    29607   -23790   -49935   -70019  -101496  -114858 
  -92728   -60527   -27454    20024    70933   101105   113102   117266 
  115987   115013   104764    82523    71655    65350    46122    26026 
  -12019   -88065  -154342  -177490  -197100  -239983  -276151  -268630 
 -220144  -173588  -154561  -127154   -56026    35323   120596   199070 
  248701   244171   200271   145949    99759    65398    26925   -21857 
  -63689   -81236   -73461   -52450   -18489    23558    43726    32331 
   -1542   -48312   -71513   -51300   -17250     6057    14744    13957 
   16681    29532    64341   120969   154807   145785   122540    89102 
   49803    44008    86453   138990   146276   104592    63850    40536 
   15227   -16453   -50027   -74479   -75017   -49259    -6052    34865 
   53990    55879    64523    80390    75334    55506    50747    49383 
   34906    21593    16236    15409    13307    -9836   -60360  -114022 
 -152083  -171609  -167270  -145999  -123042   -96823   -70285   -49652 
  -22284     6057    17407    30331    65984   108404   126392   118157 
  120122   132628   115013    72272    30055   -11712   -47905   -71959 
  -85870   -86709   -72390   -49075   -22921    16180    77298   134394 
  155742   142708   109805    68456    24461   -23230   -61095   -77859 
  -90685   -91574   -55578   -15664     1605    16947    21953     3281 
  -21100   -31001   -18379    -6262    -6270     8415    38791    62160 
   71003    75971    98783   124398   115071    79825    46335    32318 
   43045    51468    57079    88448   114197    99515    87467   111039 
  142200   157643   150517   114595    62723    18891    -5517   -14641 
  -17697   -30144   -73405  -134412  -164934  -155711  -139432  -127867 
 -114762  -111038  -127078  -133235  -111696  -104218  -105518   -60692 
   -5671     2413    -2918    17827    57953    96363   125256   149518 
  153033   131383   102061    56090     5183   -20492   -40847   -66375 
  -75159   -71180   -55078   -21027     4343     3122   -11134   -18872 
   -9811     2974    10541    22956    32846    28686    23467    30229 
   36740    35226    44150    63192    83395   116494   144237   138692 
  122377   119005   114648   104384    96371    78406    53616    47975 
   55145    53694    28391   -33214   -96633  -116496  -108252  -101880 
  -98930   -97860   -94780   -65565    -3789    52587    84116   100067 
   92382    63398    33435     3336   -36526   -73938   -82772   -72171 
  -73066   -76867   -53055    -9055    22127    48323    84391    97345 
   89059    99677   113485   110170   111797   107886    74233    46504 
   46828    33148    -2427   -28548   -45842   -58303   -65612   -78990 
  -92194   -99310  -108846  -116090  -106573   -74897   -37244   -21099 
  -27302   -23893     1997    20226    18709    20068    28679    41514 
   67346    98685   109850    91017    70780    59836    29404    -4041 
  -16034   -37483   -58560   -38744    -2458    23839    60971   111337 
  140359   129796   101080    73475    45425    13515   -20811   -43134 
  -53033   -68050   -84186  -101845  -119028  -109237   -84140   -72107 
  -59578   -37517   -16977     6091    39848    80824   124796   163216 
  184202   190319   187617   175094   154687   127175    91676    56488 
   28038    -4246   -41966   -74766  -110977  -148121  -159118  -133947 
  -89631   -54474   -35514   -18207    -5136     3008    24252    60360 
   92949   106996    97239    62107     8756   -40638   -74958  -107678 
 -136082  -133575  -103881   -75147   -50975   -25089    -1053    11371 
    1387   -14944   -12913    -6166   -16538   -33281   -37492   -28597 
  -15677    -7495    -7437    -8564     4388    38778    74430    93073 
  101058    98615    92165    93777    83010    49729    19763     5660 
     188     3632    25433    56434    64042    40966    13645    -3558 
  -17627   -33917   -42040   -29255     5005    58002   110178   127155 
  106472    79226    68694    62767    39262    19623    28786    44234 
   42112    18306   -16872   -44394   -63469   -69173   -56473   -51081 
  -56388   -59679   -82433  -120122  -134362  -123155  -105304   -85187 
  -57500   -20525    11293    33992    59581    77155    81617    84425 
   69550    43588    41674    47817    36884    17350    -4681   -15460 
   -8771    -8832   -19276   -25996   -35097   -45467   -47272   -41389 
  -29652   -12558    14751    47093    63155    57987    39481    20665 
   20611    31606    33476    31409    30957    25317    13623    -5620 
  -33792   -58375   -64540   -53907   -39658   -26888    -5773    27711 
