Origin Time       2011/03/11 14:46:00
Lat.              38.103
Long.             142.860
Depth. (km)       24
Mag.              9.0
Station Code      IWT003
Station Lat.      40.0083
Station Long.     141.8885
Station Height(m) 7
Record Time       2011/03/11 14:47:02
Sampling Freq(Hz) 100Hz
Duration Time(s)  300
Dir.              N-S
Scale Factor      3920(gal)/6182761
Max. Acc. (gal)   114.802
Last Correction   2011/03/11 14:46:47
Memo.             
[...]
  -29574   -32505   -29206   -25894   -30419   -40203   -42248   -27787 
   -1963    20962    30539    25871    12139    -1477    -8652   -11307 
  -14734   -20197   -22471   -20000   -16630   -12588    -9587    -8649 
   -3851     5564    13138    16229    15720    11529     5954     5243 
   12200    21622    25260    20950    16933    21500    29935    31549 
   23599     9327    -7187   -20727   -27723   -28570   -26772   -23522 
  -14829    -1483     8849    10989     2510   -14680   -31877   -42333 
  -44865   -42201   -41102   -43341   -43100   -39132   -36160   -39368 
  -51542   -63872   -62806   -49531   -34469   -24619   -20417   -14146 
   -3091     5011     7807     7936     7464    11300    18835    22967 
   18754     5091   -12428   -25022   -27813   -23568   -20961   -21642 
  -22784   -25804   -22994    -4475    17942    25603    16165    -1351 
  -14881   -15242    -6049     -774    -4431    -9456    -9075    -2983 
    2953     1090    -7683   -15840   -19469   -19976   -21264   -24684 
  -27595   -27256   -19215    -2723    11246    11352    -3418   -27476 
  -49523   -56584   -49350   -39172   -31721   -28693   -28798   -26368 
  -21628   -20744   -25956   -32710   -32619   -20608      891    25037 
   42706    48091    45025    39348    33536    29190    24631    20177 
   19979    22149    22193    18558    12072     6976     4630     2846 
    2053     1897    -1477    -8158   -11124    -7937    -5874    -8175 
  -11115   -15228   -22644   -31416   -40596   -47257   -46633   -41806 
  -38273   -37462   -37659   -33994   -26582   -19579   -15156   -15869 
  -18080   -15098    -7297     2994    11524    13489    10228     4646 
   -1481    -6227    -7156    -1469     6751    10106     8174     1289 
  -10082   -22179   -32885   -36597   -28657   -16451    -8798    -7588 
  -11720   -20150   -33795   -50390   -61477   -61273   -50419   -32581 
  -14819    -5642    -8786   -18969   -25388   -24565   -24547   -28119 
  -25278   -10520    11686    32291    36974    20961    -1571   -14232 
  -11429      939    12359    17006    15457    10979     7098     7157 
   10426    14330    19950    25468    28600    33411    36802    25450 
   -3748   -36493   -55282   -54136   -40512   -23442    -6869     5030 
   10561    11452     4695    -9756   -21443   -20778    -8551     5041 
   11298     8886    -3132   -23323   -43799   -56759   -61054   -63281 
  -68535   -73125   -73023   -68986   -60265   -45279   -27338   -12654 
   -6524    -8757   -13121   -16152   -18884   -21848   -22183   -15637 
   -3740     9008    19761    25705    27458    26875    22459    12902 
     -67    -9922   -10120    -1294    13219    29025    38979    40026 
   35371    30364    28851    28257    20244     1013   -22964   -41324 
  -48302   -47107   -42069   -33595   -25875   -19684   -10883    -5413 
  -13019   -32777   -50422   -48512   -28222    -8868    -2117    -6771 
  -16738   -14842     8953    34034    41481    38470    36434    41163 
   52612    60857    54234    31524     6087    -6236    -3345     6705 
   16559    20899    16223     5188    -3439    -7070   -12414   -21944 
  -28514   -25190   -15331    -7463    -8746   -21176   -35130   -42047 
  -43792   -43651   -46560   -55126   -60598   -58008   -58260   -66570 
  -74618   -78479   -77014   -64623   -39064    -8736    13001    22718 
   26522    30397    38893    50345    56375    53462    47309    43720 
   42231    38940    28996    11605    -5868   -12929    -2530    19196 
   33868    32107    19045     3961    -2512     2075     7147     3739 
   -9046   -26243   -34421   -28237   -24929   -36220   -53538   -68307 
  -74609   -69563   -62639   -65012   -76597   -87710   -87391   -75007 
  -60906   -52384   -46050   -37100   -29591   -31743   -42704   -49460 
  -41006   -18170    10239    32579    42889    42950    35746    24861 
   10444    -6860   -14788    -7951     2701    11927    18586    19927 
   21349    26745    33138    37754    33736    19428     8672    11507 
   25937    45916    59834    60848    54343    43740    27895     8800 
   -9406   -23254   -30989   -32570   -31393   -31572   -32577   -33364 
  -33816   -32142   -28486   -25123   -22814   -20397   -16158   -10627 
   -7698    -9437   -12491   -13934   -13070    -8244    -1130     2111 
   -5447   -26677   -54073   -74621   -80389   -71987   -53858   -31256 
  -13020    -3127     3931    10699    11362    -2607   -28340   -50698 
  -65520   -78496   -87698   -87967   -76981   -55428   -24125    12372 
   37444    39321    22144    -5554   -29886   -35539   -21548     -995 
   15930    31355    48337    63135    68786    60517    42185    22014 
    8487     7326    13104    17203    18192    17589    17854    23645 
   36463    50390    58268    55928    41733    20873     4121    -4252 
   -9995   -19007   -31444   -42825   -48637   -46380   -36254   -25193 
  -21004   -25329   -34243   -40099   -39205   -32466   -20055    -5293 
    3481    -1990   -23249   -50110   -64399   -56783   -37169   -18541 
   -4713     1017    -1419    -3025      607     6572    14061    18454 
   15229    11019    12146    18967    30729    42271    46822    40552 
   22691    -2005   -25315   -43086   -54605   -55205   -43758   -25945 
   -3061    18405    23401     4937   -30178   -59301   -63374   -47975 
  -26941   -11675    -5471     3364    17470    23531    15141    -2619 
  -17984   -21386   -11631     6492    21722    28104    28598    26321 
   27477    34508    42328    45910    42114    35094    29927    23438 
   14624     8830     9751    14986    17365     9105    -9913   -29274 
  -43175   -55531   -67057   -73606   -73054   -63698   -41735   -12822 
    8664    16607    11447    -1289    -7890    -1093    10225    12068 
   -1882   -27077   -50966   -64322   -65646   -54815   -36191   -18670 
   -6964     1433     9061    11705     5955    -6045   -17263   -14723 
    6509    32882    48118    49462    40308    23026     5471    -6937 
  -16768   -23111   -21903    -9006    17786    47118    60426    53468 
   35789    16946    -4020   -37188   -78092  -104581  -105113   -85243 
  -55292   -24880     -795    10404     2591   -20655   -41721   -48314 
  -56283   -80475  -102739  -106477   -89915   -49073    -2999    17502 
    8528   -21841   -55742   -64010   -44137   -22944   -19748   -27252 
  -23650    -2091    24513    43934    53770    59463    66792    77202 
   87531    87097    70760    49951    37498    35105    36119    35990 
   34738    29536    20662    14599    10947     2733   -10746   -22380 
  -23345   -12095      -77      821    -5734    -6773    -1634    -3678 
  -18624   -38670   -55071   -64545   -68751   -70064   -68660   -68028 
  -69359   -61690   -41177   -21737   -14184   -21982   -43764   -65229 
  -72867   -67734   -56854   -44319   -27584    -6653     7820     8727 
     915    -9475   -23710   -45282   -68298   -80119   -72720   -45884 
   -8220    27965    57360    79317    89185    83393    69293    58832 
   53636    47664    40831    35874    33765    37196    44002    48064 
   48004    45928    45651    48083    48242    42533    33051    24710 
   20605    19665    18183    14278    10573     9931    12188    13259 
    6841    -4677   -12760   -18839   -27051   -34542   -41934   -48500 
  -49340   -52956   -68435   -89751  -113148  -133688  -139883  -133486 
 -123983  -113840  -104644   -94535   -77314   -58302   -48095   -44962 
  -43745   -43595   -44755   -51026   -64346   -78894   -85868   -79200 
  -62167   -44569   -31063   -18003     1692    27906    52433    71002 
   82056    82365    74415    65855    61663    63528    72200    86475 
  100811   110139   113719   110845   102262    90890    80972    79822 
   86041    86041    70309    39652     4990   -21233   -38336   -46638 
  -43201   -33368   -21680    -9563    -3422    -4804   -11024   -20821 
  -28139   -30177   -32637   -39579   -51125   -65446   -79793   -89547 
  -88633   -77330   -63272   -54276   -52151   -53168   -55437   -60023 
  -65123   -65562   -60000   -51429   -42384   -36069   -34290   -37773 
  -47674   -59312   -66612   -70233   -70123   -61136   -42086   -18826 
     256     6610      152    -8462   -15480   -26500   -37546   -37788 
  -22667     6848    40869    65859    76645    72851    59981    47232 
   35372    20303     1705   -15307   -22110   -13551     5157    22735 
   34350    39381    34970    25665    21675    24089    25809    21061 
   13081    11424    16680    19582    13113    -3884   -26902   -48368 
  -63231   -71205   -77413   -87467   -98738  -104883  -105681  -103954 
 -101535  -100736  -100875   -95855   -80430   -56442   -31644   -15692 
  -13941   -21628   -30778   -38697   -44072   -44105   -37477   -24557 
   -6584    11138    21687    26310    33886    48374    61467    65067 
   63444    63649    68689    78269    87259    90300    87267    82820 
   78437    70826    59617    43491    20862    -3294   -26329   -47464 
  -58725   -53613   -32940     -993    31817    51837    53304    39162 
   15292   -11541   -34160   -47039   -49886   -43901   -28850    -9416 
    6532    13519     8812    -5671   -26582   -52283   -76972   -91783 
  -93476   -82714   -59942   -31770    -8455     5104     6625    -1053 
   -9317   -14546   -19899   -27838   -33856   -33796   -29614   -20805 
   -7499     6212    21164    39371    56545    67851    70689    61912 
   40316     9502   -20538   -38670   -43201   -38395   -24637    -1409 
   21926    32968    33223    27856    14473    -8568   -38014   -63780 
  -74342   -66356   -48031   -36239   -38629   -46765   -52299   -51090 
  -39913   -24265   -15734   -18092   -23865   -21911   -10222     1727 
    7760    12065    19069    26824    31290    27364    10437   -14080 
  -30949   -29098   -12222     5775    14781    13080     4139    -4920 
   -9971   -14332   -23587   -41213   -64772   -85943   -97574   -97689 
  -91529   -86264   -79605   -65744   -46665   -24931    -1452    15179 
   16369     4749   -10095   -19458   -23445   -30545   -44488   -59051 
  -65864   -59205   -38663   -10365    16617    32974    38247    41753 
   46896    51564    56189    62663    71147    74989    69879    59256 
   45676    35830    36585    43566    48915    48675    40121    21148 
   -2858   -22964   -38229   -51490   -62984   -70780   -74386   -76585 
  -76041   -65226   -42555   -20162   -11050   -15246   -26176   -40962 
  -60447   -83795  -107097  -126728  -138785  -139089  -127814  -110527 
  -94488   -83697   -77092   -73514   -73230   -73327   -70372   -64730 
  -58337   -53680   -51571   -50284   -50102   -50787   -49887   -47350 
  -42738   -33666   -18936    -1015    12617    17759    18648    19110 
   19162    21089    29371    45647    66901    87221   103568   114858 
  114982    99677    78013    63312    55939    49715    43660    37343 
   30101    21451    16243    27175    50053    63974    62428    50248 
   29041     1525   -27953   -55768   -77561   -89206   -89916   -83366 
  -74006   -66312   -67366   -78636   -92134  -103623  -113176  -115867 
 -109944  -100785   -90838   -79314   -63740   -41586   -17762      244 
    8422     5811     -549    -1923     1967     9939    22245    36102 
   50019    63413    73076    76063    70357    57945    44518    32787 
   23173    15778    11165     9752    10377    15624    30004    48487 
   57244    51675    42074    35908    33425    31805    23661     7297 
  -14513   -41193   -64499   -73631   -68782   -58408   -49775   -42448 
  -33608   -25951   -23362   -25139   -26887   -25075   -20720   -16266 
  -14191   -19276   -32078   -45257   -51516   -48293   -37860   -26023 
  -17523   -15093   -18926   -23294   -23111   -20287   -16032    -9754 
   -4731    -1391     4602    14108    26345    39271    46090    44217 
   37692    29842    24992    25982    27878    24594    15979     6278 
     -66    -3183    -6400   -11533   -20715   -35372   -49557   -55854 
  -56546   -57185   -58409   -59175   -56366   -45197   -26832    -9161 
    1444     2759    -5702   -22550   -43690   -61827   -70606   -68310 
  -57804   -46784   -40472   -37396   -35233   -32661   -30231   -29106 
  -26653   -22752   -25511   -37556   -46866   -43224   -29514   -12495 
    5318    22907    35748    40144    36453    28657    25359    30131 
   40362    56543    75977    90453    94560    88639    77569    63499 
   46905    35281    34127    39657    46948    51872    52333    51605 
   53358    58472    65190    69328    68718    63713    54683    41585 
   22053    -3271   -26064   -39415   -43290   -41458   -37747   -34842 
  -38182   -52212   -73984   -98492  -119945  -129861  -126327  -115997 
 -102758   -85969   -68553   -56798   -53610   -58046   -66599   -73786 
  -78917   -86781   -98766  -111553  -120922  -122585  -114293   -97376 
  -74915   -49373   -22274     3956    24648    34772    35859    38259 
   50714    73800   100879   121130   131080   135321   137855   144427 
  155289   159545   151754   136039   115450    94107    77029    62324 
   48113    38814    35175    32989    30328    24679    12358    -3323 
  -12503   -11450    -7817    -8903   -14823   -25799   -41335   -59038 
  -81489  -108296  -133073  -154017  -170463  -179766  -180856  -174495 
 -165053  -158871  -159102  -162369  -163221  -162230  -161464  -158171 
 -148641  -130923  -104889   -72796   -40580   -16232    -2911     1729 
    1613     -739    -5109    -9872   -13947   -15287    -6808    11707 
   31595    48728    65137    84228   105541   125444   144581   162106 
  171066   168656   160102   152854   149312   144377   133834   123153 
  120607   121580   114801   101253    87202    69625    44282    17650 
    -374   -12000   -28631   -52317   -73061   -83164   -83199   -81159 
  -85023   -92904  -103762  -121268  -140728  -156089  -168220  -178054 
 -182937  -178539  -167001  -155438  -145709  -138265  -134225  -130028 
 -120995  -106719   -89379   -69450   -48500   -33945   -32100   -39983 
  -48974   -50889   -40580   -21505    -3287    11351    25598    40109 
   53711    64458    71074    73137    68772    57649    43670    32383 
   27007    28470    37973    53897    70310    81626    84300    79458 
   74693    73930    71842    62328    43045    18203    -1812   -13166 
  -21288   -27953   -30632   -32330   -35225   -34161   -30343   -32205 
  -40656   -50690   -56735   -54923   -50004   -48144   -48593   -51269 
  -55730   -56619   -50408   -38594   -25234   -13512    -4516     -279 
     308     2858     6211     3800    -4865   -15121   -22329   -24612 
  -24125   -25294   -30404   -34401   -29740   -16910    -2872     7314 
   14335    23721    37619    49664    53493    48778    40363    34079 
   32367    37361    46032    48761    42831    31451    17623     3839 
  -10401   -23288   -31450   -36771   -39616   -34864   -20413    -3063 
    6069     2585    -7104   -15886   -25827   -41423   -58711   -70255 
  -73087   -65523   -48042   -28602   -16576   -13946   -15446   -15223 
  -13217   -13175   -18564   -29298   -40608   -49299   -54078   -54104 
  -50401   -42083   -29530   -17451    -9307    -4723     1541    16246 
   38738    61081    74623    72926    57516    38601    26383    27177 
   35281    35589    28777    26947    34652    53617    75470    84272 
   78940    65167    46758    33749    30366    29419    29964    36155 
   45443    56163    67568    71386    62030    40476     8170   -28044 
  -59454   -81812   -90316   -82972   -66881   -52240   -44268   -42872 
  -47867   -59678   -74432   -87056   -96715  -103659  -110249  -119141 
 -126579  -129509  -126686  -117142  -108563  -106664  -107890  -110801 
 -113697  -110676   -99365   -83532   -67942   -53730   -40025   -25649 
   -6746    17393    39790    56124    68287    80231    96018   110192 
  112127   104114    95137    89511    89658    92150    88333    75900 
   60774    48553    38682    29213    20861    13269     8290    12334 
   26349    43816    57057    59118    49938    37540    27315    19241 
   11362     1046   -12238   -27535   -44835   -61244   -69472   -69002 
  -66612   -62026   -53032   -43894   -37752   -34539   -34629   -42230 
  -60383   -80508   -90621   -87694   -74288   -55074   -35511   -18697 
   -7051    -2059    -1088     -685    -1650    -7737   -18486   -26734 
  -26714   -19415    -8531     3068    13137    19655    21346    18116 
   11479     4864     1241     2141     6301     8782     8689     9643 
   11786    11698     7189     1519    -1772    -4468    -6680    -5484 
   -3889    -9973   -24363   -40134   -52453   -56320   -50801   -43747 
  -36516   -27723   -23921   -23347   -18074   -10139    -6552   -11180 
  -19379   -23602   -23914   -21893   -17661   -11782    -2846     8437 
   17546    20341    15680     6034    -3461    -4906     8123    32169 
   55910    69980    74612    79727    88568    90361    79095    62107 
   48865    41397    34161    22199     7417    -5108   -13764   -18873 
  -20936   -22969   -26546   -29368   -28730   -23333   -15276    -8606 
   -4122    -1644    -3602   -11132   -22553   -35532   -48238   -58020 
  -60933   -57243   -49946   -40392   -32363   -29472   -31502   -37325 
  -43653   -47059   -48952   -50355   -48130   -40950   -31136   -23806 
  -25489   -35909   -46362   -49481   -45583   -40146   -37433   -37073 
  -36138   -31562   -21294    -8763     -521     2366      991    -3422 
   -6016    -4196     1687    11876    24448    36731    46235    50478 
   51147    50644    46957    37619    23251     8222    -2065    -4997 
    1374    19535    48266    78459    98950   108186   109916   101371 
   80563    58112    45099    41127    42197    41827    33572    18670 
    -114   -20112   -37802   -52287   -61830   -65247   -65508   -66118 
  -68528   -69707   -62985   -48894   -37979   -36781   -43790   -58835 
  -80165   -99996  -113455  -118537  -111641   -93993   -70851   -48041 
  -31925   -24124   -23257   -29035   -39808   -51036   -54350   -43837 
  -24801    -5603    11352    23877    28568    24947    17545    14503 
   18624    26179    36117    50394    67327    81154    86643    81738 
   67238    47863    31910    20980     8381    -5419   -12699    -9597 
    4045    24286    43290    54837    56962    52450    44813    35739 
   27281    18632     7942    -2263   -11154   -20635   -30143   -40196 
  -51539   -61124   -67273   -70592   -70187   -67438   -66308   -67338 
  -69181   -70624   -67756   -57415   -40615   -20181    -4342    -4313 
  -16999   -28655   -39187   -58490   -83113   -98663   -97498   -80633 
  -55014   -30306    -9599     6808    16168    20133    21105    17970 
   13088     9399     3381    -8429   -20512   -23916   -18103    -8011 
    5150    20252    30131    26366     8951   -13074   -30463   -39020 
  -38980   -33382   -26936   -21561   -14470    -5795     2461    11036 
   18138    22714    26744    27273    19793     4070   -17259   -36820 
  -47453   -49541   -45551   -37016   -27846   -22903   -26316   -38083 
  -51651   -61936   -66245   -59204   -40436   -16213     7515    26354 
   37863    41149    36979    27986    16803     3083   -13362   -25587 
  -28700   -25200   -16385    -4336     8324    20058    25452    20909 
    8761    -6762   -19440   -26147   -31555   -37831   -41254   -41040 
  -36117   -26440   -21210   -25723   -36355   -52072   -69717   -83166 
  -91225   -95426   -99154  -105893  -112401  -110904   -97986   -74754 
