Origin Time       2011/03/11 14:46:00
Lat.              38.103
Long.             142.860
Depth. (km)       24
Mag.              9.0
Station Code      IWT021
Station Lat.      39.9203
Station Long.     141.0822
Station Height(m) 283
Record Time       2011/03/11 14:47:03
Sampling Freq(Hz) 100Hz
Duration Time(s)  300
Dir.              U-D
Scale Factor      3920(gal)/6182761
Max. Acc. (gal)   114.274
Last Correction   2011/03/11 14:46:48
Memo.             
[...]
  -35643   -33420   -17537     4536    16700    20178    18619     5766 
   -8648   -11593   -11249   -12857   -14764   -20709   -25913   -23386 
  -15974    -8100    -4709   -10075   -20884   -28330   -26951   -19248 
  -12405    -8777    -4395    -3296   -11381   -19743   -21431   -20700 
  -21510   -25071   -24543   -16071   -10571   -10711    -9804   -10194 
  -12859   -14482   -15648   -16727   -20370   -28806   -35200   -35639 
  -31753   -22274   -14648   -16628   -19584   -20161   -24568   -28416 
  -24855   -17261   -12930   -11853    -8576    -4023    -1313    -3073 
  -14295   -31191   -46908   -57863   -54810   -42859   -40666   -46259 
  -51631   -57293   -54630   -41919   -33933   -34288   -34354   -30715 
  -21033    -7248    -2330   -11099   -22488   -27846   -30599   -35567 
  -38126   -35678   -33269   -29197   -19959   -10186     -543    10232 
   15818    16589    16335    11117     4445     2240     5657    18208 
   29640    24913     9217    -7499   -20655   -25543   -21425   -12631 
   -7011    -7489   -10480   -17211   -23776   -19119    -7037      382 
   -2500   -16330   -32501   -41753   -44331   -42979   -42002   -40595 
  -32549   -22028   -13155    -4067      707     1832     5797     9644 
   11969    18079    21970    16332     9028    -2022   -24889   -45585 
  -52570   -50728   -46895   -48568   -54152   -55861   -54242   -53299 
  -51992   -44972   -36348   -36305   -42806   -50196   -53279   -47700 
  -40912   -38350   -41088   -52616   -63635   -65273   -56308   -32859 
   -9897    -4137    -7761   -16468   -26615   -27667   -21829   -11654 
    -920     -548    -3258     1653     8862    16615    21835    19016 
   12127     1455   -12135   -22713   -30560   -35771   -38932   -40325 
  -36516   -31238   -27842   -22608   -13999    -3782     2878     3999 
    3398      457    -2727     -201     4063     5408     4060      386 
   -3089    -9207   -18533   -23887   -25264   -22528   -16768   -16900 
  -23119   -33858   -47682   -52554   -48112   -43289   -32134   -12250 
    2547     2343    -8057   -16631   -20027   -23634   -26997   -26593 
  -19389    -5912      604    -2361     2484    15793    22768    18720 
    4360   -16572   -35960   -51272   -61900   -61117   -47768   -31414 
  -21044   -22845   -34690   -43204   -43033   -37556   -27015   -16079 
  -11328   -14181   -23429   -33228   -37531   -37346   -39671   -48740 
  -56519   -52556   -36985   -17658    -2587     9012    18717    19558 
   13575    10238     8526     4982      902    -1441    -1694    -1682 
     -40     2103     -980   -10311   -25717   -38787   -32728   -13551 
   -1644      745    -1883    -7542   -10455    -9453    -3377    11471 
   23543    17928      304   -18171   -33627   -40743   -39631   -34960 
  -24546   -11611    -4644    -4894   -12695   -24273   -30297   -27557 
  -18101   -10300   -15167   -30304   -44421   -50233   -46263   -35861 
  -22328    -8090     4196    12157    12339     7471     5414     7595 
   11818    15747    15848    10285     -539   -13624   -24131   -28485 
  -27193   -25798   -29750   -39894   -52386   -60967   -66420   -73952 
  -78364   -73365   -63406   -55547   -53437   -53026   -49016   -41896 
  -31972   -24838   -22328   -13861    -1047     8784    20002    30322 
   29871    19498     8532      946     -750     5506     9557     5903 
     564    -8140   -18618   -21997   -20239   -18813   -18712   -22502 
  -29148   -33113   -32729   -28278   -20007   -10437    -4984   -10316 
  -24863   -39678   -48889   -50936   -48824   -45596   -41769   -39671 
  -36770   -26404   -11623    -2287    -1243    -3312    -3041        6 
     217    -2897    -1056     3561     4101     4678     1988   -10465 
  -23326   -27547   -19618      227    17637    19549     9293     -983 
   -3797    -3546     -981     6101     9370     4186    -6980   -18334 
  -25016   -33615   -45077   -53260   -55758   -46792   -33013   -26407 
  -24212   -28366   -38808   -44476   -45330   -46063   -48586   -55711 
  -60166   -54173   -41972   -29441   -21807   -22022   -25480   -26944 
  -25995   -25176   -25266   -23666   -19817   -15073    -7703     5057 
   19522    28512    34957    42960    44654    36131    20316     1508 
  -11170   -17690   -24623   -33925   -48242   -62804   -67369   -59410 
  -44406   -34797   -36522   -41007   -41728   -41240   -42942   -46117 
  -47826   -48590   -52438   -58144   -58203   -50892   -41182   -35103 
  -36032   -35769   -26728   -14810    -5886    -3063    -8393   -18075 
  -28244   -34317   -30915   -22482   -15262    -8221    -2675      644 
    5420    12011    19529    26666    30024    24321     4099   -20903 
  -33659   -33771   -23776    -6494     4803     6069     1571    -4562 
   -3112     6562    16285    19476     9058   -15672   -44159   -61991 
  -61657   -45803   -21226     -333     3948    -4351   -12500   -17296 
  -16091    -8492    -4955    -7440   -12948   -23595   -26965   -13827 
    2984    14365    14143    -3710   -23811   -29411   -26840   -22367 
  -14749   -12243   -19530   -27779   -30377   -26607   -19860   -13067 
   -1889    11164    15813    11276    -2595   -27412   -51508   -63773 
  -67191   -66743   -66046   -71385   -81781   -86012   -81205   -74707 
  -66377   -53898   -38093   -19590    -8894   -11977   -19436   -27917 
  -33693   -26922   -11174     2644     7853     1721    -8247   -10964 
   -8953   -11509   -18007   -22108   -20072   -13274    -5323     4800 
   14749    15711     6287    -5874   -13118   -11163    -1291     9353 
   15144    14487     4884   -14143   -32938   -39222   -35438   -31177 
  -28246   -25555   -18703    -3624     9559     8721    -1550    -9431 
  -10776    -7862    -4288    -2137      786     2096    -7062   -21893 
  -30522   -35920   -38960   -30498   -13026     4846    18868    19812 
    7022    -5050   -12885   -18797   -18567   -18732   -28422   -42788 
  -52744   -54565   -49429   -38406   -23786    -9726    -1179    -5520 
  -17468   -22384   -22101   -21353   -16227   -11486   -10177    -8892 
  -11864   -18766   -26500   -39830   -51879   -51803   -44576   -36508 
  -32112   -31261   -24391   -15069   -14151   -19271   -26719   -30837 
  -25065   -17374   -10553     3361    17935    24439    25371    24895 
   26350    24100    10753    -4070   -10464   -14825   -23655   -33921 
  -39502   -36508   -28963   -22619   -15082    -7132    -6883   -16505 
  -29552   -34706   -26767   -17053   -15021   -15750   -16411   -20016 
  -27908   -38317   -44168   -39105   -27393   -20574   -24400   -34409 
  -44719   -50777   -47885   -38168   -27258   -16434    -6808     -298 
     743    -4071   -11248   -21131   -33175   -39931   -38223   -33306 
  -32974   -38932   -42872   -38651   -29500   -20975   -15783   -12862 
  -11538   -13972   -18699   -21533   -25114   -33684   -41586   -41602 
  -39277   -45826   -60225   -70542   -68379   -55250   -40126   -29568 
  -23781   -20043   -12401     1855    16782    22544    15365     3619 
   -7391   -19166   -26322   -26435   -23296   -20401   -24861   -35942 
  -43731   -44098   -41111   -41674   -43508   -37925   -22348    -1399 
   11369     8204    -3079   -17703   -32980   -42937   -47554   -44324 
  -32776   -27649   -35625   -45706   -52096   -54189   -49441   -40741 
  -30263   -18129   -12958   -18654   -23579   -21571   -19138   -16495 
  -14463   -21370   -27028   -18845    -7766      773     4190    -5548 
  -15003   -15356   -15648    -8701     8869    23413    31345    29559 
   14919     2604     3118     8859    10901     -840   -30390   -60608 
  -75762   -79598   -74534   -60719   -46566   -36245   -31399   -32577 
  -29821   -20659   -15395   -13169    -7913    -3272    -2851    -6875 
  -12241   -14738   -15957   -13741    -6169    -2070    -1484     3577 
   10234    17936    25883    20905     6398    -1332    -3004       -1 
    7803    13846    20247    26110    22779    13544     6989     5465 
   11511    23718    27864    17672     4947    -5358   -10750    -4522 
    2181    -2342   -15065   -37131   -58289   -61253   -55023   -48674 
  -40264   -40698   -48849   -49677   -45729   -42599   -41878   -50312 
  -64778   -77326   -84359   -78481   -62132   -47562   -36018   -29267 
  -34056   -43830   -50590   -55055   -51380   -33641   -12305    -1022 
    1444      419    -5017   -12473   -16225   -12331    -3149     1424 
    1759     3059    -1803   -13750   -24949   -32725   -36881   -43415 
  -56092   -67312   -72341   -70849   -61286   -45043   -29523   -23145 
  -25339   -30617   -33771   -25556    -4774    14088    24578    32687 
   34390    27697    22218    16650     5931    -7107   -20899   -30280 
  -28718   -16993    -1093    11818    18856    17738    10341     6636 
    7958    10889    12033     2067   -14116   -26791   -38003   -42216 
  -38577   -34789   -30553   -30614   -32843   -24032    -4655    20318 
   42690    48363    38017    22199     7271    -4530   -13309   -20417 
  -27608   -31850   -34520   -42963   -50289   -49281   -47668   -46577 
  -42469   -44711   -57917   -67689   -66179   -57678   -42244   -28642 
  -23142   -16432   -15303   -24692   -24543    -9335     9669    26241 
   32160    22231     4963    -7749   -17460   -27673   -29918   -25247 
  -21296   -16437   -15253   -18491   -17645   -16281   -16574   -15197 
  -15518   -11927      924    10434    11031    10559    10249     8505 
    2971    -7024   -11050    -9061   -11118    -8209     7099    22556 
   30887    30265    13828   -14157   -35095   -38247   -29902   -21452 
  -19563   -27559   -46037   -68881   -86987   -95135   -88528   -66719 
  -47661   -49009   -60294   -68634   -80140   -93378   -98387   -92709 
  -74638   -51951   -40379   -38966   -40236   -44924   -50260   -53136 
  -56862   -61799   -65657   -66765   -60951   -51243   -47290   -43277 
  -28109   -12346    -8623   -12379   -18480   -21817   -19019   -18487 
  -19760   -13062    -1127    10260    17645    16412    10352     6816 
    5458     1800    -4730    -9348   -10844   -13326   -18029   -24859 
  -30564   -31230   -32742   -34494   -28157   -19154    -9540     3526 
    5988    -3442    -8732   -15891   -28614   -27734    -8542    18310 
   43127    55623    57976    59036    56798    50121    42970    36378 
   32193    30176    25507    15202     -403   -19128   -38314   -52290 
  -55752   -50944   -42133   -35376   -34948   -33370   -30812   -36555 
  -41764   -41971   -47710   -52447   -51745   -54769   -58343   -62219 
  -71470   -74964   -64492   -48219   -34020   -25979   -27371   -36396 
  -46839   -51349   -49127   -45233   -39172   -34001   -34268   -33573 
  -31951   -30428   -22950   -17872   -22037   -27808   -33693   -36432 
  -25834    -4415    17681    34267    37985    28223    16902    11873 
    9929     8489     5912    -3925   -15734   -17346   -13096    -6950 
    1105     -953   -13971   -24525   -29867   -31733   -27916   -20195 
  -10541     3469    13632     5143   -11990   -18703   -19669   -16967 
     333    25696    45083    57660    59825    46265    25833     6839 
  -10032   -22786   -30920   -37132   -47278   -61543   -73244   -81924 
  -82080   -67091   -49217   -36783   -27379   -29348   -40397   -40245 
  -32539   -35110   -42214   -50642   -67715   -79862   -77981   -75329 
  -74430   -70654   -67503   -64002   -61007   -66064   -70823   -59392 
  -35880    -9601    12571    17263    10358    11820    15995     6846 
  -16314   -42961   -55397   -53425   -48214   -22373    26580    61200 
   73586    78104    67384    46673    36515    34733    28289    13809 
   -8842   -35591   -50835   -40385   -12723    16960    48567    74663 
   82860    81333    75741    59937    38887    19446     -947   -22969 
  -42381   -57234   -71767   -89485  -106790  -118937  -126825  -135304 
 -140919  -132672  -112071   -88464   -64704   -45396   -32850   -18256 
     905    17529    33090    49854    62707    73163    83565    88707 
   88284    83344    67106    39159    10030   -12619   -26810   -34066 
  -38623   -47276   -65018   -85625  -104819  -122264  -122649  -102551 
  -83064   -69992   -57370   -51559   -52592   -45475   -27422   -11632 
   -3605    -7140   -24241   -41118   -53384   -64995   -68688   -69571 
  -76294   -80662   -80745   -76171   -57342   -29453    -7465     3759 
    4822     1266     -935    -2910    -3512     2134    15823    37252 
   63597    86101    93082    83620    70767    65066    68143    78269 
   88936    88777    76981    71715    72348    49058     6095   -30101 
  -67626  -104324  -115760  -109311  -104106   -97937   -85044   -74075 
  -75912   -79207   -70524   -60783   -59515   -66216   -81963   -88520 
  -66489   -33719    -6340    12194      580   -36603   -68626   -91369 
  -97931   -75489   -44717   -20368     5431    20495    12507    -9342 
  -39519   -64299   -66135   -53505   -33269    -3459    19890    27742 
   30042    28405    22148    17221    15749    20838    36058    60167 
   86510    97075    80513    48297    15714    -5680    -6090    13974 
   43446    67220    77318    75394    66630    59545    54264    41382 
   17916   -13590   -42790   -63031   -87612  -116401  -134735  -149167 
 -164078  -171123  -173717  -169711  -151351  -129817  -112094   -94466 
  -84501   -80777   -69700   -54671   -42564   -33915   -40167   -59790 
  -74349   -84176   -84711   -61852   -33593   -14942     4869    21899 
   30181    35098    32989    24518    15893     4097    -9065   -14522 
  -10867    -6164    -6489    -7095    -2477     7761    22053    25956 
   -1942   -60745  -127809  -180980  -199122  -172157  -122441   -77906 
  -46714   -33513   -30547   -18950      754    30037    77115   114023 
  108785    68587     9249   -47616   -72977   -67745   -41090     9078 
   56940    74145    70084    59267    44594    32674    37338    66101 
  102678   122274   119315   102552    78040    50347    27518    18351 
   26355    39967    43455    37023    26909    14562    -1017   -22623 
  -46471   -64186   -74737   -79642   -79019   -75671   -72550   -70115 
  -64795   -52645   -37939   -27697   -25930   -38467   -62361   -83123 
  -93690   -90480   -73284   -56768   -48876   -46637   -51791   -55577 
  -47641   -40542   -41844   -42974   -46832   -54127   -56023   -58902 
  -67728   -73700   -77359   -80453   -78444   -73416   -61381   -39113 
  -18602    -3171     8167     9412     6117     6256    10342    21545 
   41055    61307    69904    65213    58297    54165    54239    57333 
   52591    39051    25433    11667       16    -5677   -11413   -20176 
  -31713   -48031   -64956   -76513   -80737   -77097   -66760   -55346 
  -50653   -54800   -68920   -89754  -100416   -95012   -81533   -57244 
  -29580   -18565   -18699   -16535   -15762   -17312   -16809    -9447 
    4892    14220    15514     7592   -20427   -54535   -76649   -92746 
  -94515   -75218   -52475   -29684    -5592     9899    18975    27963 
   38688    50673    56777    54971    52643    56274    64632    67850 
   57568    38530    23335    14328     7028     4147     4396     1458 
   -4377   -14564   -31207   -49803   -66852   -81916   -95438  -104503 
 -102701   -91192   -75440   -54739   -26561     4730    27724    35104 
   30291    21904    14655     9349    11691    19483    20451    19481 
   22289    19894    19266    27441    29289    24036    23470    20238 
    6906   -12528   -37683   -62099   -71876   -65718   -54806   -50073 
  -57741   -77563   -99650  -110802  -107278   -88823   -52103    -7123 
   24476    35733    35072    27817    16737     6888    -1645   -10045 
  -12207    -4588     3348     2010    -3474    -8241   -17412   -26693 
  -26452   -23459   -23716   -18208   -15479   -34627   -59894   -71118 
  -75883   -72461   -56002   -41942   -30756   -10237     7624    11708 
   10095     2567    -9846   -10595     2997    14500    17435    17329 
   13251     3916    -1305     4496    20791    44589    64700    67194 
   49652    19793   -15166   -47151   -65269   -69223   -64198   -50069 
  -37787   -41753   -55128   -66200   -73194   -71654   -59269   -44215 
  -32353   -25024   -30566   -52175   -68836   -60158   -35184   -10461 
    4800     -310   -15766   -15064    -5831    -8834   -12862   -10954 
  -19153   -40080   -64901   -90560  -108440  -111719  -110939  -115052 
 -117236  -109356   -93600   -80497   -76965   -77863   -73350   -59835 
  -43415   -36281   -44857   -56329   -52392   -32619    -4590    24539 
   43334    51216    59371    66952    65641    59576    56891    58938 
   67029    79994    89069    89124    81535    67317    52623    44614 
   41806    39776    31680    13606    -8030   -27046   -37964   -35017 
  -24071   -19687   -26799   -36054   -44536   -55730   -65954   -79275 
  -91559   -77565   -46970   -36991   -37827   -27079   -24763   -38570 
  -51930   -65781   -77804   -79715   -74501   -56872   -25962    -1368 
    6233      600   -14780   -34271   -52905   -64907   -61327   -42506 
  -17084     8340    27881    35949    31968    18422    -2253   -20353 
  -25037   -19338    -8614     3832    11586    17955    24014    23233 
   22895    24021    16034     4702    -5623   -19755   -33127   -43000 
  -48950   -47356   -44804   -51406   -68354   -88493   -99595   -97040 
  -85031   -67599   -55679   -56182   -53566   -39534   -27024   -20849 
  -20575   -24776   -23337   -19524   -23232   -30828   -42451   -53105 
  -50766   -49360   -53991   -38086    -7948     9719    23992    40251 
   48518    57942    65705    53516    29392    10216    -2600   -13186 
  -21553   -22059   -17690   -16836   -20607   -34469   -54824   -63308 
  -60269   -52007   -33775   -16832   -10816    -1622    13568    23063 
   26577    27201    25694    23402    17865     9784     2687    -4755 
   -9747    -8156    -6307    -7997   -10145   -17445   -32257   -39597 
  -26570    -2426    13852    14525     6067    -6593   -22818   -31976 
  -27203   -18021   -11367    -5057     4213    11409    11085    14074 
   23890    31109    40183    54060    64075    67434    62995    48775 
   25984    -4966   -38702   -64589   -77933   -81354   -79109   -74328 
  -70633   -71073   -75120   -79106   -80245   -83298   -91565   -96951 
  -99103  -108306  -118571  -117331  -106513   -83826   -47301   -17392 
   -5981     3214    18521    32851    46744    58759    61937    53626 
   26161   -14230   -42119   -50920   -45288   -30510   -24084   -31971 
  -46229   -61579   -70728   -73123   -72058   -61955   -42701   -22157 
   -6022      307    -3616   -10828   -14110   -12123    -7022     5464 
   22347    29716    33127    41652    43375    35820    27064    15569 
    4407      181     -341    -4741   -13782   -17760   -15660   -17721 
  -19892   -12776     -460     8501    10780    12222    16399    15943 
   13073    18285    22684    10211   -11637   -22575   -15866      221 
   16367    33531    50984    50856    30446    17730    21156    25097 
   29589    35144    29848    15715    -2464   -34246   -69309   -80777 
  -73707   -67867   -62045   -53858   -46919   -40257   -38880   -48635 
  -66368   -89044  -112972  -132833  -147802  -156524  -156090  -148974 
 -138884  -125698  -112475  -104746   -97884   -85768   -73863   -59662 
  -33476    -4161    17652    35915    50456    57479    60434    59815 
   49212    30445    14249     6245    10285    26421    41131    46516 
   47562    42813    30292    16323     5893     4900    17979    34612 
