Origin Time       2011/03/11 14:46:00
Lat.              38.103
Long.             142.860
Depth. (km)       24
Mag.              9.0
Station Code      IWT015
Station Lat.      39.3183
Station Long.     140.7794
Station Height(m) 247
Record Time       2011/03/11 14:47:00
Sampling Freq(Hz) 100Hz
Duration Time(s)  300
Dir.              E-W
Scale Factor      3920(gal)/6182761
Max. Acc. (gal)   94.530
Last Correction   2011/03/11 14:46:45
Memo.             
[...]
  -41549   -44001   -45640   -42921   -34784   -26593   -20410   -12499 
   -3983     -819    -4189   -10361   -15796   -18726   -20064   -22310 
  -26449   -31297   -34421   -35122   -35123   -33945   -30616   -27954 
  -28110   -30219   -32406   -31055   -25258   -21157   -23557   -29867 
  -35212   -36112   -32221   -27316   -23580   -18090   -11395   -10788 
  -18354   -27521   -32825   -34315   -34145   -32702   -29557   -25403 
  -21851   -21345   -24001   -26045   -24268   -18768   -13828   -15731 
  -22575   -24465   -19576   -13998    -8900    -4923    -6690   -13284 
  -19070   -24086   -30577   -34889   -33615   -30726   -31578   -36212 
  -42122   -47319   -48857   -46544   -45518   -46244   -43538   -38655 
  -35457   -32524   -30021   -29009   -25599   -19375   -16126   -17317 
  -19958   -22828   -25236   -25384   -22031   -16819   -12910   -11138 
  -12134   -17800   -25374   -28284   -26113   -23057   -19531   -17385 
  -21205   -27305   -29033   -28426   -28523   -28434   -30158   -34003 
  -34092   -30157   -29415   -31556   -28590   -20888   -18584   -25681 
  -33575   -32703   -23402   -12719    -5721    -2503    -1683    -3780 
   -8809   -15164   -22944   -30045   -29752   -23385   -22244   -28918 
  -34772   -35721   -34477   -34199   -36197   -36903   -31697   -23727 
  -18668   -14758    -8586    -2535     -112    -1934    -6370   -10113 
  -11594   -12666   -14637   -17645   -21595   -23963   -23810   -25123 
  -28746   -29498   -25723   -22036   -21114   -22220   -25123   -27777 
  -27442   -25747   -24340   -21845   -21499   -27848   -34048   -31735 
  -26388   -25493   -27150   -29462   -33671   -37137   -36246   -32718 
  -30275   -30103   -31615   -33145   -32604   -29137   -23768   -20998 
  -25503   -34136   -39855   -41043   -39534   -37119   -35868   -35204 
  -32382   -29074   -30248   -35520   -38915   -36487   -29815   -24376 
  -25475   -32525   -38362   -37516   -33318   -31925   -33111   -34211 
  -34461   -30931   -23077   -16469   -12952   -10540   -11435   -16401 
  -19735   -16334    -8727    -6133   -12818   -21793   -26891   -28909 
  -27507   -22403   -19818   -24563   -31353   -33531   -31832   -28346 
  -22451   -17280   -18944   -25264   -28762   -30044   -32601   -33795 
  -33516   -35599   -37347   -35283   -33815   -35049   -34145   -30649 
  -30273   -33311   -32769   -26700   -22069   -23616   -27906   -29880 
  -28767   -26398   -23898   -21801   -22109   -27767   -37586   -44680 
  -45077   -41660   -35296   -26121   -21212   -23418   -25020   -21901 
  -18091   -16121   -13370    -8646    -7465   -15081   -25912   -28838 
  -24552   -23600   -26829   -28425   -29921   -31045   -25577   -17104 
  -16096   -21697   -25502   -25947   -25974   -26515   -27520   -26793 
  -22813   -20996   -25825   -31665   -30160   -21901   -16604   -20748 
  -29129   -34144   -36913   -40407   -41316   -38260   -35214   -33100 
  -29100   -23312   -20867   -24492   -28330   -27459   -25673   -25248 
  -23693   -24110   -30673   -38437   -40950   -38238   -33577   -29727 
  -26644   -23288   -21949   -23365   -23519   -21958   -21198   -21438 
  -24491   -29021   -28240   -24545   -26936   -33945   -38015   -37923 
  -36806   -36753   -37836   -37583   -34861   -33786   -35996   -36145 
  -32112   -28286   -26857   -27213   -29949   -34443   -38877   -42526 
  -43232   -37371   -26782   -20176   -20022   -17938   -12170   -11084 
  -14611   -16193   -19103   -27136   -32868   -32471   -32341   -34520 
  -33004   -25309   -17506   -15724   -17947   -17788   -14287   -14113 
  -22054   -31932   -32950   -26080   -22231   -23278   -24680   -28680 
  -34932   -36256   -31462   -23485   -12890    -4893    -6952   -17958 
  -30402   -37519   -38006   -36374   -36650   -39934   -45242   -49050 
  -48381   -42902   -33489   -23010   -15780   -11769    -6597     -983 
      63    -1599     -792     1242     1537      468    -2346    -7899 
  -12798   -13028   -11377   -12490   -16164   -21078   -26644   -30544 
  -30965   -30165   -31320   -33894   -35726   -35477   -34191   -34585 
  -35032   -33425   -32756   -32928   -31509   -33171   -41638   -49836 
  -51829   -51937   -52957   -51455   -46973   -42796   -41416   -43667 
  -47253   -47457   -41800   -32737   -25031   -20358   -17336   -15652 
  -14649   -12842   -12235   -14914   -17560   -17810   -18758   -22306 
  -28091   -36035   -42172   -42611   -40585   -38923   -36681   -35202 
  -33169   -26630   -20584   -20352   -19599   -14410   -10732   -11261 
  -13523   -17578   -21806   -20247   -12472    -6223    -6697   -10665 
  -14348   -19526   -26352   -30124   -30317   -30795   -30628   -27788 
  -25770   -25848   -23344   -16450    -8718    -4825    -8268   -16115 
  -20614   -20995   -21622   -23657   -29184   -39677   -48728   -50124 
  -46340   -41070   -34386   -28835   -28738   -32036   -32522   -28889 
  -24289   -21149   -20538   -21041   -18605   -13722   -12825   -16531 
  -17887   -15757   -15086   -14534    -9679    -5219   -10303   -25254 
  -41044   -48203   -43552   -32529   -24926   -24826   -26713   -24600 
  -21301   -21688   -22194   -19234   -17712   -20896   -25794   -29714 
  -31728   -30888   -27121   -24214   -26301   -28943   -24929   -17786 
  -14348   -11325    -5806    -4696    -9188   -12018   -14687   -20391 
  -23555   -26155   -34653   -40765   -37386   -34261   -36447   -36827 
  -35319   -35907   -34672   -30403   -28102   -27393   -25178   -22256 
  -18924   -14750   -11002    -8385    -7464    -8346    -8607    -6700 
   -5615   -10095   -19506   -26082   -24924   -21375   -21615   -23322 
  -24107   -26282   -27701   -25205   -22576   -21386   -19788   -21532 
  -27383   -30855   -31875   -33810   -31287   -19430    -4475     5092 
    7302     3829    -3443   -13402   -24788   -35454   -43912   -48507 
  -49778   -51269   -51960   -48672   -42873   -35686   -27629   -23328 
  -23451   -21631   -17610   -16462   -17937   -20768   -24075   -24261 
  -22964   -25269   -28489   -28651   -28778   -30914   -31579   -27154 
  -19818   -17226   -22446   -29370   -31657   -28788   -24340   -21998 
  -20629   -17526   -15105   -16029   -18823   -22888   -30423   -42017 
  -52146   -53619   -47967   -43723   -44962   -47611   -45698   -38685 
  -30937   -24260   -18234   -16541   -21389   -27538   -30435   -31031 
  -30256   -27250   -24482   -25771   -27741   -24708   -19464   -18549 
  -22145   -26751   -32605   -40214   -44930   -43029   -38880   -39472 
  -43625   -44393   -41945   -43029   -46884   -44978   -34953   -22294 
  -11607    -5367    -4787    -8016   -13386   -20567   -26175   -27234 
  -24204   -17910   -13990   -18936   -27017   -30440   -32752   -36966 
  -39033   -38340   -37944   -36803   -32039   -24596   -17566   -11649 
   -6064    -2485    -2731    -4414    -4641    -4364    -4976    -5970 
   -8171   -13323   -19855   -25792   -32562   -39297   -40790   -34747 
  -24544   -16241   -16126   -24865   -33714   -35383   -33176   -31661 
  -30368   -30087   -31552   -32209   -34254   -41669   -47082   -41453 
  -29877   -21726   -18587   -18712   -19366   -17251   -15401   -18792 
  -24637   -29737   -33386   -31207   -25812   -27331   -31076   -24787 
  -14859   -13514   -17312   -18424   -16800   -16322   -17851   -17442 
  -15884   -18025   -18548   -11601    -6350    -9852   -15157   -17933 
  -19289   -17522   -16115   -21702   -29524   -30824   -27389   -24970 
  -25424   -31137   -41389   -47128   -43367   -37492   -36352   -37079 
  -36530   -35622   -32473   -27467   -27564   -33779   -39541   -40769 
  -34530   -22121   -14944   -19046   -27121   -33937   -38858   -38626 
  -33864   -30207   -27972   -24669   -21503   -18760   -15675   -13158 
  -11744   -12366   -14862   -15728   -14143   -14311   -17851   -22341 
  -27036   -31773   -36026   -41818   -46811   -42083   -28222   -17592 
  -15189   -16005   -16982   -16083   -11161    -6234    -5476    -5779 
   -4440    -3477    -5606   -11433   -16394   -17253   -19422   -25451 
  -31207   -37151   -44124   -48840   -53314   -59296   -60133   -56192 
  -56022   -55413   -45711   -33630   -26893   -22116   -18542   -19795 
  -24940   -31742   -37221   -36042   -30283   -27370   -25974   -22806 
  -20879   -19516   -17730   -22324   -34227   -43525   -45592   -44108 
  -40555   -34138   -24977   -13628    -4497    -2481    -3644    -2482 
   -1746    -3723    -6940   -12468   -18407   -20479   -22170   -26461 
  -27899   -24218   -19201   -15087   -13809   -15949   -17036   -15514 
  -16362   -20235   -21813   -20138   -18630   -19728   -24586   -28990 
  -26586   -22617   -26375   -33198   -34390   -32091   -31079   -31303 
  -32371   -35753   -41630   -45973   -44465   -38619   -33130   -29793 
  -26626   -20678   -11888    -3058     3187     2283   -10477   -28373 
  -35540   -28282   -21934   -27296   -34639   -35903   -38983   -46332 
  -51008   -55068   -62497   -64496   -54698   -44688   -44661   -44993 
  -35338   -23762   -21628   -25407   -25702   -21000   -14595   -10735 
  -12789   -17497   -19306   -19292   -22664   -30198   -36475   -38806 
  -41677   -49619   -60625   -65858   -58124   -41132   -24834   -15202 
  -13477   -19211   -28598   -36667   -42023   -43091   -38401   -32917 
  -31565   -30585   -25328   -20163   -21611   -26494   -28751   -32251 
  -40378   -44329   -39499   -34885   -35191   -35152   -31138   -22711 
  -11260    -3332    -4005    -8153    -8683    -6433    -6128   -10681 
  -19396   -27821   -32557   -36604   -43897   -49542   -45969   -35820 
  -27549   -24321   -23824   -22743   -20258   -19334   -22613   -28671 
  -34624   -39444   -42812   -44177   -43296   -39104   -31174   -23591 
  -22331   -26144   -26500   -22376   -23268   -30724   -36418   -41021 
  -49872   -55781   -50379   -40347   -33592   -25172   -12847    -5607 
   -6104    -7792    -6851    -2126     4204     5678      526    -7325 
  -14150   -16915   -16813   -18071   -19035   -17445   -17615   -20273 
  -20000   -16975   -16943   -23526   -37992   -58093   -77061   -89767 
  -95968   -97796   -97694   -95905   -89155   -74279   -52909   -31527 
  -16359    -8076    -2676     3516    10855    16851    19175    19190 
   21617    27210    31274    30689    23180     8635    -7276   -21689 
  -34184   -40674   -44747   -55998   -70612   -80796   -91009  -101076 
 -101615   -94575   -87210   -75433   -54743   -32319   -17707   -11039 
   -6177      449     8512    14247    10286    -6231   -25293   -32709 
  -26962   -17693    -9437    -2254     -557    -5469   -12965   -21552 
  -27513   -24180   -13628    -6183    -6430    -9769   -13601   -22614 
  -39693   -60448   -78330   -86558   -81856   -69590   -55499   -41885 
  -34322   -36022   -41224   -44807   -48267   -52206   -55825   -60992 
  -64795   -60519   -51830   -48260   -46811   -35157   -11003    16553 
   37962    46407    43244    36741    27746    12910    -3594   -16404 
  -23368   -24163   -25682   -35907   -51101   -62311   -66659   -64939 
  -57255   -42930   -21252     3736    20859    23250    18002    15393 
   16689    18313    17581    12655     2953   -10341   -22036   -25533 
  -22499   -20991   -24650   -31940   -42647   -59275   -80227   -96730 
 -101178   -93320   -77358   -58425   -41437   -29036   -19866   -12772 
   -9917   -10615    -9688    -5049     -818    -3396   -13689   -23991 
  -28069   -28201   -28314   -30410   -37323   -50347   -66569   -79318 
  -79860   -64316   -38928   -15606    -3744    -3744    -8139   -11073 
  -11282    -7062     2924    16056    28302    36372    36558    29894 
   24974    25531    24401    15903     2760   -10839   -24339   -36793 
  -44866   -50009   -59110   -74184   -89682   -98939   -98319   -88161 
  -72203   -57099   -49264   -49626   -54107   -54288   -43130   -28833 
  -25838   -33066   -41554   -49510   -54720   -50832   -40283   -34455 
  -36943   -40667   -39518   -32502   -23204   -18960   -24220   -34686 
  -41802   -42566   -40326   -36848   -29524   -17816    -6643     1448 
    8978    15671    18013    15967    14565    17929    25448    35055 
   42999    42906    31690    14527     -410   -14042   -34115   -59037 
  -78708   -89169   -91285   -84605   -74103   -68986   -70883   -75321 
  -81983   -89877   -89087   -74948   -55942   -37072   -17936    -2841 
    4484     3979    -4650   -17770   -26772   -27487   -24402   -22534 
  -20324   -14783    -6912     1349     7614     8457     2343    -9364 
  -22370   -31903   -35560   -32367   -23913   -15538   -10001     -967 
   17503    37095    44445    37912    25041    13366     7298     5186 
     821    -8163   -18495   -26706   -30781   -31432   -32938   -37230 
  -42954   -50180   -56487   -56820   -52515   -48874   -46177   -43535 
  -43614   -42554   -29468    -8222     1429    -8483   -28960   -50430 
  -63493   -59199   -41246   -25005   -22096   -31672   -43607   -46424 
  -37732   -28849   -31942   -45221   -57010   -59913   -55843   -50062 
  -44658   -39619   -38129   -41627   -46851   -55046   -65451   -67549 
  -59126   -51774   -50921   -53977   -61264   -68271   -66657   -58682 
  -52051   -51160   -55554   -57350   -48678   -30611   -11821    -2832 
   -5751   -10131    -6181     5999    23421    43447    59904    65640 
   57179    35850    11153    -2261    -1818    -1415    -9100   -16803 
  -19668   -23463   -29298   -30443   -21055      213    27901    50631 
   59247    54601    46338    43218    44057    38659    22222     2461 
  -15009   -30523   -40039   -42465   -44830   -50343   -56830   -66276 
  -85924  -117229  -149761  -171090  -175567  -165296  -146427  -121576 
  -91462   -59658   -31519   -13691    -8498   -10154    -9504    -2097 
    5005     5900     5315     1428   -11989   -28033   -36966   -35792 
  -23319    -3847    12067    16227    11512    10374    17029    22733 
   22499    20452    23055    33450    46355    53621    53870    48344 
   36792    21905     7275    -7739   -24704   -39443   -43340   -34484 
  -21323   -12872   -13073   -18586   -20479   -18029   -17992   -20286 
  -23625   -31731   -44945   -58278   -66111   -67476   -65045   -60052 
  -57457   -63919   -73821   -76859   -74514   -72400   -72969   -77911 
  -82254   -79653   -72315   -64385   -59934   -63021   -70113   -74084 
  -70622   -55461   -30103    -6703     4064     2294    -6920   -21137 
  -38717   -54144   -61038   -58109   -51514   -49249   -50548   -47078 
  -37253   -28067   -20882   -10693     3583    15528    14501     1544 
   -7781    -9417   -12147   -12301    -4783      783     5208    19275 
   35909    44653    48434    49216    41680    21910    -4428   -27768 
  -44291   -53874   -59715   -66584   -72765   -71932   -59519   -34770 
   -5026    16824    24697    19979     5274   -12392   -26611   -42509 
  -66612   -89508   -92821   -74037   -48662   -27468   -12757    -6762 
   -8077   -13602   -20836   -24547   -20938   -10280      669       47 
  -12602   -25681   -35333   -45136   -52821   -54652   -52436   -47197 
  -39191   -34308   -36217   -38120   -32506   -20615    -7486     4374 
   13080    14145     5158   -10494   -28479   -42526   -45267   -42768 
  -49831   -67368   -84890   -93657   -88650   -74444   -63868   -63652 
  -68351   -66204   -53318   -41133   -40002   -46117   -52481   -58801 
  -66807   -72920   -74144   -76206   -79771   -77489   -74125   -77768 
  -79947   -70063   -51440   -32251   -14970        9    10002    14050 
   14522    12901     7381    -4528   -21402   -36356   -40913   -32763 
  -18311    -4422     7505    16704    20292    18086    12729     3935 
   -9682   -21460   -20189    -7864      710     -819    -5884    -7768 
   -4342     4183    15662    23700    20250     5457   -10944   -19682 
  -19087   -13744   -10254   -14139   -25402   -37465   -44477   -45241 
  -40117   -32405   -26994   -20603    -8125     1773     -689    -8613 
  -12532   -14720   -17873   -19669   -23488   -33036   -40867   -40129 
  -33366   -24262   -13778    -1693     9598    13648     7652    -4152 
  -18872   -38039   -57486   -67049   -66617   -64848   -60570   -48628 
  -35477   -26700   -19501   -17124   -25727   -39638   -47168   -46895 
  -46466   -48015   -48185   -46918   -46475   -48099   -50145   -48759 
  -42680   -32712   -18875    -2890    12469    26099    35496    37157 
   32540    27026    22048    12531    -5919   -29027   -46449   -53072 
  -53447   -53392   -51195   -41564   -26062   -10690     1565     7227 
    3540    -4016    -8009   -10185   -15310   -20233   -22573   -28548 
  -39917   -47531   -43334   -30200   -18309   -16379   -29286   -56118 
  -86102  -104745  -108461  -107257  -107249  -102384   -91145   -81268 
  -72506   -58500   -42464   -29528   -17393    -4053     9893    21850 
   25410    17073     3251    -4910    -1271    11862    26010    32645 
   29632    19487     1491   -25394   -50344   -56861   -44096   -29786 
  -30991   -46333   -60518   -66003   -68345   -70072   -67203   -60938 
  -56287   -52361   -44930   -33589   -23285   -19733   -20544   -18840 
  -16302   -19768   -29100   -36300   -33235   -20019    -4679     5983 
   10383    10239     8261     3531    -7448   -22670   -35394   -42953 
  -45874   -41087   -29088   -21003   -25290   -39906   -59647   -76779 
  -82615   -77573   -72005   -72165   -71853   -65216   -56290   -49262 
  -44094   -40073   -34637   -27688   -25217   -30528   -39074   -43558 
  -39432   -27654   -14539    -7329    -7216    -8266    -4194     5189 
   13580    15379    11759     4544   -10286   -31552   -45585   -44746 
  -38023   -36889   -45362   -57508   -60460   -49201   -32974   -23392 
  -22718   -27752   -37302   -47773   -55084   -61988   -69356   -71723 
  -66987   -57011   -43173   -29282   -21457   -22879   -31066   -38456 
  -39069   -34502   -30705   -32644   -40264   -50008   -58896   -61848 
  -54308   -37736   -17516    -2641     -380    -5259    -4582     4836 
   15921    23015    24638    21780    16670     8329    -5133   -20277 
  -29654   -27294   -14100      927     8678     9154     8146     8111 
    8293     8568     8430     6171      743    -6421   -10154    -6698 
   -1136     -622    -5697   -13380   -18422   -16424   -11277   -10729 
  -18344   -33533   -51207   -63699   -69437   -73886   -81488   -91522 
  -97754   -92295   -73377   -49524   -33163   -28173   -30507   -34848 
  -34724   -29306   -26348   -30657   -38585   -44424   -46557   -47766 
  -50598   -52421   -48410   -39949   -34145   -34771   -38525   -40436 
  -38570   -32699   -24415   -17650   -12895    -7834    -5289    -8540 
  -14751   -21902   -32670   -48773   -66323   -77260   -74072   -54340 
  -25011      177    11112     8774     2340    -1431    -2967    -3581 
    -846     7496    20211    34758    49534    62903    69462    61784 
   39880    11142   -18199   -40965   -47306   -35164   -13784     3856 
    9719     7201     3578    -3495   -19372   -37963   -48122   -47710 
  -40664   -28313   -11234     6731    21655    31401    31927    19602 
   -1824   -23217   -37928   -45306   -49133   -51868   -51096   -45602 
  -41684   -46980   -60122   -73462   -79679   -72241   -51870   -28797 
  -11095      804     8971    12988     9171    -4941   -26783   -50616 
  -70553   -82388   -85953   -83657   -77878   -73863   -76680   -83526 
  -88415   -89477   -85457   -73377   -54090   -34164   -20138   -14465 
  -15397   -16997   -13861    -7221    -3411    -6685   -10808    -5509 
