Origin Time       2011/03/11 14:46:00
Lat.              38.103
Long.             142.860
Depth. (km)       24
Mag.              9.0
Station Code      IWT011
Station Lat.      39.1453
Station Long.     141.1527
Station Height(m) 43
Record Time       2011/03/11 14:46:51
Sampling Freq(Hz) 100Hz
Duration Time(s)  300
Dir.              E-W
Scale Factor      3920(gal)/6182761
Max. Acc. (gal)   341.967
Last Correction   2011/03/11 14:46:36
Memo.             
[...]
   -2819   -17906   -20203   -17766   -17283   -13817    -6529    -1861 
   -3747    -8226    -8756    -5493    -3536    -6156   -11429   -16189 
  -26261   -47355   -65595   -62852   -45330   -31082   -21341    -7408 
    7895    17380    24193    28565    20166     1397   -10412   -11883 
  -14387   -20384   -25877   -32835   -40135   -44047   -47937   -48709 
  -36465   -16185     -872     6607    12065    21420    30859    32939 
   28644    17058    -3465   -21340   -25825   -21629   -16982   -13456 
  -12281   -15271   -16597    -9695     1445     8534    11655    18288 
   25436    21540    11772     7048       41    -9975    -7329      552 
   -6837   -17167   -11849    -4501    -8149   -14402   -18759   -20794 
  -15837    -9757    -7640     1729    17360    21487    12361      179 
   -9593   -13789   -14630   -13572    -5143     9416    20656    22396 
   15702    10244    14681    20296    15752    10852    15590    22508 
   26468    26246    20418    15573    10776    -3491   -18553   -18965 
  -12153   -10179    -4106    10132    16538    12976    14191    19258 
   17964    15041    16581    12263    -3283   -13732    -6848     5242 
    6762       11    -7708   -18490   -30593   -35846   -35089   -32379 
  -22846    -4168     9973     6233    -2050     4630    12453      440 
  -17571   -20260   -10498     2290    11601     5985   -14759   -31879 
  -35523   -30657   -20060    -7531     5379    20898    27548    17700 
    9902    15047    18838    19661    32588    48889    45799    27857 
   13928    10366    14393    13451    -3024   -21547   -27983   -32350 
  -40829   -41870   -31016   -13260     8038    22123    17375     4439 
     711     5116    16462    35677    42648    24688     3170    -3347 
   -2497    -6938   -15841   -17678    -7484     3531     1637   -10670 
  -18105   -15990   -16411   -24653   -29270   -22664    -9719     4083 
   11788     4695   -10431   -18716   -20323   -20582   -21544   -27492 
  -31907   -26984   -28283   -44517   -52819   -41182   -28819   -31659 
  -42153   -42436   -32978   -29489   -24429    -5246     9275     8506 
    8764    15418    28021    51287    69606    62626    40816    25866 
   16821     2239   -10391   -10698   -13401   -29974   -46831   -55777 
  -56143   -33127    13252    45592    36074     3028   -18704   -19096 
  -13524   -10279    -1765     9950    13851     9089    -1694   -10643 
    3086    36696    50294    30254     8400    -3074   -21677   -39939 
  -36410   -22032   -14168    -6704      227    -3030    -8180    -2213 
   12603    29133    42557    50807    57572    63025    61611    53362 
   39963    19935      376    -2046    11031    12808     -997    -3829 
    7625    13588     8552    -7778   -33705   -46853   -37198   -35743 
  -56861   -66186   -45965   -24217   -13661     5829    28851    26434 
    7165     1705     4147    -5687    -9220    18428    54594    68226 
   66348    56848    29202    -7232   -28133   -34388   -40001   -41674 
  -37578   -43986   -65284   -82837   -88475   -92395   -93466   -82882 
  -71773   -72079   -69283   -45064    -3527    33533    46598    38226 
   26606    19479    12522     5177     1368     6806    24016    38758 
   32534     8672   -16989   -35437   -44235   -47057   -51316   -58079 
  -60328   -50252   -32466   -22808   -15976     9196    40720    50992 
   46915    46341    43325    34690    37530    51780    52160    35547 
   21689     9383   -14513   -37884   -37554   -19613    -8146    -8043 
  -16047   -35805   -57126   -61909   -54958   -53643   -56602   -54354 
  -52290   -52735   -42746   -19134     5015    25135    50583    77144 
   84228    73369    68100    67352    49021    19720      992   -13454 
  -24456   -16513    -7262   -17793   -29156   -26661   -21699   -20325 
  -17544   -19043   -35112   -47554   -32448    -8800    -4372    -7212 
    2705    13484     5080   -15405   -29112   -31120   -23790    -9665 
    2818     4833     4809    19214    36111    34403    27205    19293 
   -9207   -32881   -14157    16443    21568    15476    14814    20472 
   35846    52473    54947    49776    51697    51742    34360     6154 
  -22506   -45384   -43176   -15898    -1168   -10091   -10049     5934 
   13475    10872     6665    -2069    -5915      883      851   -11208 
  -16267    -5722     2791    -3339   -12557   -17773   -21328   -13541 
    8293    20537     7534   -11852   -18758   -21589   -30546   -37688 
  -29558    -8359     6777    10242    16864    27249    31227    38606 
   54945    57054    32208     -261   -22176   -30682   -23057    -3975 
    9080    12556    14766    10480    -1340    -7716   -10829   -20240 
  -23546    -9784     3943     1977    -5400    -5931    -7849   -21475 
  -36063   -35756   -21899    -3871    11749    17718    12197     5460 
    1120   -13957   -37964   -50640   -56118   -70387   -80678   -73828 
  -62463   -53623   -38297   -15146     4493    13441    18927    30103 
   46869    59249    50502    25286    11821    11613      917   -13524 
   -2045    25320    27399     6751     -641    -1369   -19197   -33646 
  -26273   -17888   -17471   -12085    -3932      465     6697    10398 
   -1665   -23544   -37677   -44758   -58014   -72478   -67637   -43474 
  -25473   -24768   -27809   -31481   -38314   -32681   -15664   -12695 
  -22541   -27445   -28146   -19189    12445    49656    62307    57350 
   66169    86219    88071    75142    72776    77707    74525    63721 
   43742    14905    -4643   -12232   -26360   -35281   -13077    17906 
   22044    13585    13882     7972    -7709   -13022   -13586   -24931 
  -31551   -23740   -19200   -19381   -14200   -11019    -6982     8216 
   14608    -4953   -29558   -39342   -36530   -26359   -18305   -20708 
  -24629   -21961   -19431   -20625   -20632   -15929    -5191     8750 
   12329    -4094   -25227   -37161   -52285   -69065   -64474   -44166 
  -27796   -13124     -638     6191    19279    36333    37269    27850 
   33151    43205    23649   -14222   -28900   -26817   -40737   -62554 
  -64783   -45614   -18792     4992    15324     9499     3952    10932 
   16907    10632     9213    30460    54131    43695     6438   -14188 
   -9295    -9764   -21647   -22141   -13791   -18656   -35882   -50981 
  -52999   -29987    10730    39541    47028    50405    58802    67277 
   70263    64575    55715    51404    41347    15903    -9163   -22663 
  -37181   -60766   -86146  -101858   -98818   -81447   -62635   -42119 
  -18266    -8651   -20939   -32403   -25391    -2919    30012    61240 
   70549    55711    36956    34297    44894    50038    45514    31977 
    2182   -29431   -34167   -10644    14142    22003    21651    19113 
    8764    -2441    -3430     7293    28270    52187    59608    36873 
    7543     6363    19746    13139    -6326    -9776     1860     -860 
  -28377   -51627   -47117   -28559   -16950   -11811    -5697    -5562 
  -17973   -33087   -39944   -34747   -21646   -15623   -20333   -21232 
  -17719   -20315   -22280   -13119     3444    17361    19929    13434 
   10478    12678     8048    -3891    -9028    -9579   -19027   -23002 
   -3701    11823   -10598   -51704   -71863   -76732   -90220  -102015 
  -96022   -80761   -63658   -38318   -13481   -18767   -53521   -77747 
  -74738   -57078   -30096    -5546     5128    20529    48544    57687 
   35864    16483    22145    33629    25041     1357    -4341    24020 
   54634    60518    62870    73487    68212    44103    20927     -788 
  -18825   -17261    -4907      835     6781     9520    -7182   -26015 
  -18747     6742    32504    54773    65067    59526    48742    37050 
   26730    27044    36408    43639    49226    57890    57873    39227 
   20571    18860    18804     9284    -1665   -23044   -63691   -98211 
 -111668  -128964  -155543  -156551  -121271   -82200   -62496   -50679 
  -30599    -5980    17297    37605    45471    46446    59002    66022 
   33822   -20489   -48550   -41251   -22144    -7136    -9558   -35861 
  -70375   -99976  -122633  -123040   -88469   -38627    -4662     6892 
   13669    24781    27733    21017    24888    41542    48943    45039 
   43337    31609     2520   -14935   -13194   -21975   -48128   -70590 
  -76750   -69734   -58553   -43617   -13848    25467    42606    35905 
   46959    68228    47948     6324    -5136   -11308   -42325   -63164 
  -49082   -16906    15767    28606     9388   -13557    -7660    15306 
   31149    44553    61331    71609    73811    64470    42890    33341 
   35917    14586   -25875   -42888   -35598   -35926   -41387   -31595 
  -14639    -3256     5547     9126     2746     3461    26907    49566 
   51868    57019    75466    83649    70699    49374    31462    13903 
   -8741   -27359   -30799   -27642   -37965   -61775   -76145   -71441 
  -60901   -53674   -47363   -36671   -18480    -3130    -7221   -22689 
  -23605   -10290    -1954     5995    25617    46291    53866    48772 
   37125    17868    -5675    -9001    18853    44412    42755    42628 
   62073    63749    35161    16337    18627    20259    19078    16974 
    1119   -27078   -45810   -45708   -44618   -60122   -79263   -75567 
  -43307     2950    37989    42317    31197    31353    36022    32475 
   34843    45459    40826    18476    -2972   -15680   -11241    11657 
   21975     2886   -10065     5156    13131   -10630   -33584   -25163 
   -4299    -2700   -21740   -42933   -59012   -66994   -47327    -1037 
   30201    32068    33442    37916    26625     8842     4198     9630 
   16178    27379    45870    64127    75156    78488    80833    91675 
  102806    90323    56308    33491    34012    36996    31431    25305 
   13827   -11905   -39137   -64661  -103496  -141482  -152461  -143882 
 -136082  -134312  -121622   -79410   -29609    -8649   -10194    -6954 
    6978    27088    46053    50342    46609    51852    54538    40419 
   18469    -1646   -12304   -11045   -12587   -21393   -27418   -36004 
  -45699   -35414    -8949     2120   -19106   -58836   -89192   -97428 
  -91677   -76115   -50251   -23901    -3557     6993    -3000   -22047 
  -19804    -1282    -1135   -24340   -47224   -64378   -83420   -93823 
  -83847   -65125   -58610   -73187   -96353  -104806   -91686   -64908 
  -22089    33636    70214    74697    83117   109882   123966   125369 
  143938   159152   131826    89328    74563    71021    57987    51615 
   50314    31824    -3200   -44402   -82699   -97941   -79417   -49302 
  -40513   -52772   -63861   -77829  -105508  -124758  -114525   -84719 
  -51627   -25611    -8550     9931    30050    39484    38181    33969 
   28366    19654     9298     4788    12263    25105    27380    17415 
   12952    11785   -12247   -53733   -70654   -44196    -2433    29066 
   62900   102094   117439   108556    97638    69316    21752     2239 
   17148    31447    52988   100247   154379   192960   203758   187726 
  174236   185142   200427   196839   186957   191461   200861   191249 
  154453    96184    27478   -34506   -74502   -94459  -113438  -149135 
 -197884  -240064  -270846  -301650  -333448  -360164  -383671  -403075 
 -404445  -368685  -283527  -158073   -31511    54161    89754    87466 
   61958    36445    32935    53068    84358   118965   144496   133673 
   80988    13737   -39396   -58902   -52028   -51468   -63864   -55821 
  -13095    22180    17468    -2277   -16847   -34857   -52596   -59768 
  -56633   -37752     2865    42674    48384    17415   -29455   -66493 
  -82269  -105071  -153524  -187346  -173091  -134368  -103384   -81058 
  -54948   -26333    -5701       59   -15678   -46331   -61772   -42527 
   -1728    41265    75337    93705    99502    94587    79532    71938 
   84020    99350    89834    49133     5964   -14597   -12305     7583 
   25554    18321     2995    10488    22775     1762   -39336   -53224 
  -25202    21145    53255    43969     2400   -22579   -11049     4126 
   -1537   -17839   -30156   -33392   -26302   -17518   -19432   -14022 
   30230    90759   117975   117218   125277   143137   147432   146356 
  166300   190492   190240   175714   152257   104711    40631   -16136 
  -63433  -112431  -152753  -176460  -213210  -272184  -306125  -290428 
 -262387  -256553  -260770  -239394  -174778   -86610    -8162    46614 
   81241    97082    89351    66462    49702    44470    43522    37997 
    9550   -43532   -84899   -89853   -86145   -97431   -95226   -62512 
  -32961   -24810   -17841    -4318     3199     2820    10454    35831 
   68225    98125   123089   138411   157258   205044   268430   300285 
  288129   269459   272117   272556   239486   185423   126652    56667 
   -9610   -49751   -76071  -102746  -118455  -113797   -96420   -79441 
  -63116   -33528     7293    37821    50357    52050    46788    35605 
   23098    18037    11104   -22722   -65866   -75423   -69128   -88926 
 -124701  -157655  -194432  -231718  -252729  -257424  -269887  -297777 
 -307965  -270818  -194898  -119245   -84346   -86214   -84531   -64713 
  -46536   -38772   -24802     6902    43367    64205    69664    78257 
   87935    74661    37099     3316    -5019     3398    13706    33490 
   64718    93480   120812   149594   165427   167383   183331   224897 
  257507   252273   220219   159828    51708   -66884  -126306  -138176 
 -170768  -234601  -310230  -405677  -492132  -498126  -395393  -202828 
   49442   289265   402256   376888   358650   405308   426096   421620 
  405725   305581   169701    87030    18654   -52823   -80964   -88044 
 -143314  -246486  -360038  -471036  -543380  -540069  -475790  -366581 
 -215245   -54884    67281   136660   179837   222864   250297   235600 
  183109   111605    42263     2101     1761    25139    39254    22837 
   -9041   -55842  -151204  -284754  -395745  -442948  -418225  -325116 
 -170702    18977   180104   262809   294132   327129   359305   363932 
  358373   353966   293339   128350   -96536  -282124  -376619  -412592 
 -429109  -437335  -450088  -456739  -421939  -330055  -198527   -63796 
   43093   101294   118796   138487   157110   135813   113004   134226 
  135488    59542   -44551  -116163  -147547  -170497  -204551  -206719 
 -146702   -64735    -6773    28175    69005   116322   154812   186089 
  202761   204623   205058   206849   222554   256119   290949   333165 
  390935   442200   464046   441992   359077   218652    68304   -42628 
 -122195  -177917  -161718   -70117    18801    43013     6120   -29816 
  -33986   -67801  -144161  -186777  -184710  -191404  -220076  -243685 
 -228232  -162193   -73134     3062    50032    65422    44346   -14097 
  -81101  -109988   -88367   -53827   -31268   -12415   -11526   -49953 
 -120225  -206251  -281239  -315562  -312064  -286857  -237010  -171080 
 -122230   -96251   -58632     4921    59535    78378    83326   103384 
  130605   137145   126659   129697   154318   192423   244054   310478 
  380122   427102   438915   415284   337448   200132    53867   -42776 
  -85671   -93171   -70079   -44423   -57185  -116589  -204335  -281113 
 -308796  -287114  -236233  -168950   -93516   -28050    15321    52518 
   81387    71406    33145    -1766   -38075   -81457  -117017  -129732 
 -110695   -71601   -42227   -42823   -70416  -107027  -138345  -156819 
 -154372  -122163   -60480     6388    47793    57732    47413    34645 
   44704    85618   134867   172047   200277   225657   240959   237392 
  215788   183596   149781   124219   113045   107510   106504   121942 
  123017    86145    55904    39427     5475   -30512   -51152   -47149 
  -11383    26069    39611    35261    18131   -11947   -48593   -77545 
  -81577   -56917   -24399   -14365   -38699   -74674   -90600   -92772 
 -112771  -145877  -148000  -107938   -72603   -70223   -67765   -42539 
  -22983   -28799   -42460   -46293   -45155   -49462   -49092   -33039 
  -17814   -15589   -12066     2392    21975    41943    57322    60726 
   52002    39585    35645    46821    60332    58316    51084    56686 
   61492    52885    47474    48461    34905     4032   -22979   -36443 
  -54939   -95497  -143393  -173357  -181085  -172889  -145126  -103069 
  -80344   -96038  -120644  -126664  -125751  -131207  -135494  -127991 
 -110070  -100518  -114080  -134744  -137815  -121898   -99045   -73485 
  -43418   -18724   -18266   -39938   -60273   -71714   -86422  -101194 
  -95704   -71720   -54509   -42684    -9783    35840    55396    41754 
   27129    30425    33917    23559    15637    22673    22521    -7893 
  -45718   -56384   -46171   -30193     1003    45794    69740    49846 
   18122    21495    56080    93095   124923   149830   172505   206942 
  246486   267416   251818   196762   123631    55306   -14781   -86838 
 -126766  -121041  -104533  -113049  -131666  -106140   -37815    14917 
   48835    86799   115597   135373   158052   194117   250800   299802 
  320528   320105   285590   213999   135167    57090   -30253   -97435 
 -104697   -74112   -58916   -68865   -82177   -93029  -101314   -91586 
  -61089   -29803    -9292     3785    16559    32388    51398    75960 
   94053    86605    66114    61117    74574    88477    89966    84455 
   80709    68820    38720     4827   -10655    -2469    16995    36897 
   57222    71427    64309    39755    24074    30533    45876    55982 
   57139    47385    30443    14655      860    -7273     2508    29190 
   53542    52004    17578   -26331   -54317   -64495   -68780   -83763 
 -120052  -172829  -223964  -253012  -258684  -252546  -228617  -169871 
  -84678   -15711     7404     4775     4794    10066    22552    52062 
   92405   119131   125436   123995   101260    39845   -24088   -45519 
  -42348   -51558   -68249   -85633  -112510  -136054  -141686  -138291 
 -128977  -101174   -63317   -49145   -66546   -82908   -69479   -31635 
    3970    25026    44737    68935    82299    81639    85144    93931 
   92920    91385    99380    97828    79875    61752    48855    38052 
   30562    23168     6462   -20689   -48003   -70146   -96150  -141490 
 -205399  -257812  -278572  -287959  -304047  -315744  -308562  -275449 
 -217762  -158563  -133154  -147667  -168389  -167228  -150582  -133166 
 -109022   -68337   -23101     9930    27564    29579    18293     8287 
   13908    23768    14202     -828    12479    42017    58826    76454 
  116332   160625   175670   158958   138507   128013   114184    87218 
   49117     8551   -13695   -10997   -11791   -34162   -53825   -49748 
  -38136   -33517   -27902   -22816   -27571   -35022   -36220   -38503 
  -50485   -60808   -53571   -36227   -20674    -3218    10635     2066 
  -26053   -47021   -50781   -51818   -56762   -57196   -46732   -26795 
   -4661     6945    -1939   -21622   -29952   -24120   -22173   -29011 
  -28203    -9136    22825    54446    70480    68401    60449    55938 
   58259    61298    45004     5758   -24575   -17718    15427    50541 
   81550   109238   135343   162215   183602   198391   209007   211127 
  202974   170226    98110    12708   -50632   -90465  -113401  -112567 
  -93680   -88353  -117277  -160045  -185817  -189571  -175388  -139262 
  -82572   -15421    49760    98752   121041   123708   129514   143098 
  144259   130423   120745   117732   108902    93590    78687    63560 
   48416    38466    26431    -1296   -34016   -43438   -20789    16668 
   45638    47684    19650   -16258   -34908   -35857   -27578    -9043 
