Origin Time       2011/03/11 14:46:00
Lat.              38.103
Long.             142.860
Depth. (km)       24
Mag.              9.0
Station Code      IWT022
Station Lat.      40.1009
Station Long.     141.0528
Station Height(m) 296
Record Time       2011/03/11 14:47:07
Sampling Freq(Hz) 100Hz
Duration Time(s)  300
Dir.              N-S
Scale Factor      3920(gal)/6182761
Max. Acc. (gal)   111.257
Last Correction   2011/03/11 14:46:52
Memo.             
[...]
   22125    28970    33604    37351    39053    37159    32771    28619 
   27156    28215    27991    22296    10322    -5150   -20478   -32795 
  -39562   -40217   -37137   -32505   -27109   -21711   -17815   -17587 
  -20745   -23148   -21871   -19029   -18938   -22776   -26830   -26780 
  -22049   -14258    -3942     8671    20656    27341    27650    24699 
   20234    13172     3467    -5814   -10466    -8822    -2647     5066 
   11952    16962    19626    19285    15329     6681    -6955   -22016 
  -32480   -34991   -30572   -21362    -8638     4514    13583    18233 
   22000    25641    25852    20474    12185     6261     5536     8595 
   11522    10259     2703   -10141   -24468   -35809   -41718   -41567 
  -35091   -23526   -10718    -1129     3297     3095    -1825   -11563 
  -22734   -30544   -33778   -34104   -31923   -26442   -18838   -11785 
   -6453    -2705     -562      314      690     1101     2005     3833 
    7008    11705    16854    21041    24722    29211    33547    34910 
   32407    27682    21217    11792      158   -11069   -21154   -30653 
  -38171   -41142   -38269   -30221   -19118    -6763     5201    13135 
   13399     6682    -2458   -10500   -17949   -26077   -32754   -35203 
  -34612   -33612   -31774   -27441   -21290   -15166    -9424    -3022 
    4247     9673     9811     5551      844    -3025    -6779    -8297 
   -3750     5257    10411     6263    -3711   -13603   -21752   -28600 
  -32605   -31304   -24695   -14500    -1778    11818    22806    27667 
   25420    18873    12063     6547     1657    -2695    -4280     -224 
    9490    21852    33796    43505    49137    48364    40394    26996 
   10914    -5120   -18043   -24685   -23232   -14961    -3631     7365 
   16519    23454    27316    26085    18773     7847    -2632   -10874 
  -17746   -23799   -28731   -33573   -38821   -41674   -39354   -31966 
  -20377    -5285    11300    26546    38784    47518    51193    45982 
   29268     4837   -19004   -36988   -48653   -53541   -50428   -41033 
  -30066   -22167   -19924   -22802   -27827   -32360   -35582   -37248 
  -36938   -35301   -33886   -33175   -31680   -26837   -18261    -9226 
   -2120     4091     9868    13301    13941    14231    15064    14349 
   11159     6625     1405    -4373    -9257   -10745    -8672    -6094 
   -5478    -6431    -7199    -6850    -5123    -1327     3893     8207 
   10435     9634     4094    -4791   -12179   -14944   -14169   -12494 
  -10562    -7981    -6265    -6945    -8955   -10375   -10085    -7326 
   -1529     7370    18083    27825    34097    36074    34585    31423 
   28222    26137    25495    24666    20951    13064     1374   -13150 
  -28381   -40866   -48002   -50079   -49732   -49102   -48023   -45606 
  -42315   -39858   -39503   -40214   -39087   -33698   -22903    -7135 
   10543    25697    34992    36627    30936    21685    13978     9907 
    8320     8698    11883    16950    21133    22939    22267    18241 
   10139       21    -8165   -12509   -14472   -15740   -15637   -13240 
  -10394   -10260   -14100   -21452   -31309   -41468   -49007   -51920 
  -49076   -40271   -27260   -13264    -1204     7445    12197    12583 
    8799     2831    -2593    -6364    -8927    -9744    -7272    -2059 
    2707     4913     6356     9811    14297    16708    16546    15292 
   13520    11243     8822     5962      969    -6672   -12665   -10932 
   -1623     8268    13422    14741    14124    10575     3762    -3854 
   -9993   -14095   -15924   -15059   -11569    -6186      534     9394 
   20747    31247    36342    35434    30683    22928    12694     3202 
   -1518     -649     3664     8461    10873    10513    10491    13303 
   17401    19376    18488    16962    15736    13236     8283     1627 
   -4515    -7612    -6570    -3042     -314      143     -149      193 
     694     1077     2018     3920     6511     8854     9929     9470 
    7399     3403    -2315    -8752   -14924   -20891   -27318   -34055 
  -40192   -44967   -47910   -48650   -46680   -41950   -35843   -30540 
  -27586   -27320   -29526   -34260   -40542   -45087   -45218   -42062 
  -38144   -33299   -25891   -17069   -10289    -6522    -2977     2867 
    9951    14975    15592    11292     2185   -11038   -25072   -34457 
  -36128   -31048   -21012    -7750     5404    15270    22091    28129 
   33813    37166    36070    30307    21385    10920      668    -6640 
   -8203    -3184     6226    16700    26679    36200    44331    47908 
   43606    30885    12086    -8487   -25700   -36573   -41191   -40783 
  -36793   -30678   -24875   -22853   -24743   -25951   -22876   -15715 
   -5302     8144    23084    35935    42796    42362    36990    30036 
   22925    15368     7394      619    -3291    -5444    -8984   -14869 
  -19682   -18941   -11999    -1163    12383    27428    39373    41825 
   31192     9674   -16211   -41126   -63616   -83015   -96493  -101004 
  -96415   -84159   -65388   -43262   -23217    -8736      349     4810 
    3930    -2050    -8979   -10582    -3663     9033    21738    30827 
   35491    34978    28718    18156     5934    -5675   -14988   -21373 
  -25064   -25314   -21261   -14871    -8920    -2592     6827    18535 
   28401    34266    37002    36831    32368    23649    14130     7677 
    3977     -711    -8841   -19455   -30607   -41711   -51624   -57158 
  -56134   -49500   -39123   -26025   -12033     -228     7158     8477 
    2906    -6565   -14169   -16316   -13773    -9135    -3684     2269 
    8044    13093    17858    23263    28300    29958    27479    22967 
   17510    10499     1299    -9393   -18411   -22403   -21878   -19890 
  -17390   -14161   -12651   -15754   -22325   -28087   -29224   -24070 
  -13297      579    14255    24862    31323    34261    33438    27091 
   15084      427   -13004   -22897   -28769   -30091   -25133   -13227 
    3362    21075    36187    45202    47264    44258    37279    25915 
   10925    -4688   -18059   -29380   -40092   -49099   -54869   -58601 
  -61247   -60774   -55486   -46501   -34430   -18344      613    18850 
   32044    35960    29101    14612    -1747   -14715   -21277   -21853 
  -20018   -18586   -16807   -13079    -7713    -2165     2838     7954 
   13797    19497    23507    24780    22037    13955     1904    -9743 
  -16873   -18408   -16676   -14690   -13072   -10983    -8306    -4912 
     -72     5209     7145     2855    -5848   -14309   -20073   -23696 
  -24942   -21767   -13496    -3513     1578    -2994   -16395   -33914 
  -49965   -60097   -62367   -56829   -44319   -26065    -3544    21266 
   45306    65206    78907    85964    87103    84092    79284    74063 
   67670    58052    43910    26564     9705    -3175   -10617   -12795 
  -10012    -1930    10374    22210    28101    25864    15503    -2965 
  -27781   -53988   -75616   -88337   -90272   -82009   -66671   -48974 
  -33055   -21107   -12792    -5741     1813    10515    21221    33057 
   42591    47042    45137    36338    22431     6912    -7273   -16524 
  -16948    -8200     5399    17821    25693    29504    30550    28890 
   24704    19734    15796    12830    10270     8815     8156     5067 
   -2204   -10449   -16386   -21577   -29099   -37680   -42910   -43639 
  -43290   -44599   -45945   -43983   -37401   -27112   -14993    -2078 
   10941    20462    21940    14997     3026   -10184   -21914   -30185 
  -34050   -34616   -33587   -30845   -25481   -18811   -14168   -13530 
  -16605   -21814   -25889   -25024   -17416    -4192    10592    21142 
   22289    11991    -6440   -25021   -36108   -37108   -30037   -17461 
    -266    19763    37879    49838    54339    51356    41466    26351 
    9027    -6760   -18423   -25302   -27516   -25232   -19273   -11694 
   -5609    -4566   -10699   -22633   -35816   -44999   -46722   -40374 
  -27389   -10144     8245    24562    35673    39388    37677    34769 
   31693    27738    23142    17258     8466    -2702   -11473   -12449 
   -6111     2345     9995    17507    24342    26205    19176     4665 
  -11656   -23325   -25035   -14992     3544    23978    39665    46376 
   43227    31154    11461   -11827   -32092   -45072   -50505   -50648 
  -47485   -39805   -26327   -10312     3016    11992    18359    23234 
   26982    30818    35795    42059    47872    48576    39494    19188 
  -10916   -46895   -81933  -108411  -121094  -118780  -104631   -83609 
  -59254   -34743   -13204     5367    23379    41038    55237    63200 
   64819    61430    53908    42013    26643    11491     -278    -8683 
  -14689   -18142   -19169   -20154   -24495   -32472   -40431   -45358 
  -47443   -48121   -48785   -50743   -54878   -61743   -70587   -77633 
  -77804   -68896   -52867   -33478   -13869     3810    17870    26900 
   29970    26966    19439    11601     8834    14552    29304    50852 
   73743    90670    94537    80132    47469     3287   -42782   -81737 
 -106131  -112712  -104071   -85170   -60143   -32576    -5916    16352 
   30946    36424    33605    23426     6326   -13912   -28263   -28696 
  -14878     8003    35466    64120    88154   100559    97653    80884 
   55562    28000     3623   -12645   -17069   -10672    -1249     1416 
   -7019   -24401   -45446   -63647   -73322   -72150   -60713   -40508 
  -15154     8104    22427    26678    24856    20419    12583      922 
   -9134   -11592    -7147     -636     3888     4233     1228     -554 
    4551    19189    40776    63287    82057    95656   103126   103261 
   96690    85273    70253    52279    31472     7074   -20994   -49604 
  -72595   -83655   -79211   -59487   -27780     9362    41868    60589 
   63200    53373    35761    13592   -10697   -34743   -57138   -77124 
  -94306  -110289  -125613  -135562  -134044  -118319   -87502   -41517 
   15131    71272   113911   135103   134244   114519    79156    33654 
  -12224   -49906   -76360   -90631   -91576   -81167   -63714   -41997 
  -19826    -4221    -1705   -15116   -42493   -76861  -108039  -127772 
 -133814  -127204  -108299   -78239   -42197    -8195    18683    38969 
   54616    65960    73715    78683    79198    73557    63103    50519 
   39241    33480    33859    36778    40126    43407    44202    41133 
   36116    30886    25464    18749     9721     -240    -9213   -18219 
  -29474   -43289   -57594   -69166   -75499   -74921   -65369   -45401 
  -16810    15551    46697    72833    91354   100965    99657    84457 
   56464    22734    -8811   -33448   -48729   -52925   -46325   -32810 
  -17991    -5477     4301    12333    20736    33014    50758    71131 
   88577    98414   100195    95705    83596    60567    26380   -15497 
  -59997  -101246  -133240  -152001  -155937  -144086  -116735   -76776 
  -28574    22746    69092    99820   110573   107734    96637    74988 
   43259     8169   -24015   -48826   -63073   -66985   -64056   -55961 
  -41166   -20229     3689    26351    41465    43897    32865    10746 
  -18482   -48214   -69317   -76525   -71533   -57513   -36636   -11449 
   15467    40935    61456    75716    84172    86422    81587    70170 
   53124    30302     1691   -30438   -61227   -85315   -99348  -103004 
  -98728   -90305   -81460   -74191   -66572   -53955   -32524     -494 
   40984    85724   122950   141336   133820   100385    47480   -15394 
  -78025  -128516  -156231  -158527  -139305  -103702   -59005   -16254 
   13344    25416    24070    16438     9300     3958    -4349   -14360 
  -20428   -24312   -29397   -34832   -40724   -47618   -52366   -50763 
  -44124   -38735   -37534   -37547   -35184   -30135   -24717   -20836 
  -18805   -17613   -14761    -7465     6634    27746    50641    67983 
   75987    73878    62616    44959    25393    11143     9141    19928 
   38003    57327    73902    84522    85752    75911    57506    35752 
   15807     1370    -7515   -14728   -24734   -40670   -63801   -92431 
 -122722  -149788  -168167  -173716  -163888  -138016  -100239   -59167 
  -23445     2474    19269    29490    35415    40698    51002    70093 
   95687   120536   136456   137548   121345    88737    45383      875 
  -36247   -60585   -69718   -65488   -53933   -41787   -32112   -26446 
  -28482   -38594   -50772   -59467   -63053   -61027   -54284   -46704 
  -42261   -42923   -48689   -56525   -62552   -65277   -63145   -53494 
  -37359   -19978    -5092     8605    24712    43570    62168    78039 
   89880    96272    95849    89355    80665    73685    69020    64479 
   57993    49348    38886    26521    12627    -2404   -19819   -41337 
  -65765   -89029  -105924  -110529   -97732   -65007   -16155    35660 
   74899    93342    91739    76394    53578    25446    -6869   -38135 
  -61380   -73519   -74832   -66663   -53269   -41088   -33068   -26386 
  -15805     2545    29211    60392    89081   108722   114043   100570 
   68294    24170   -20140   -52444   -64576   -56086   -34483    -9251 
   13704    30677    38158    35309    26541    17868    11806     8119 
    4901     -938   -10402   -22792   -39146   -61008   -86871  -111375 
 -127391  -129439  -115534   -86974   -47402    -1386    44010    77376 
   89203    80732    63274    48122    39413    35971    35248    36124 
   38173    37431    28356     9358   -17310   -47514   -75682   -95744 
 -103054   -95744   -75193   -46923   -18505     5539    24146    36343 
   41533    42058    41512    39720    32270    16386    -5421   -28429 
  -48612   -60979   -59068   -39139    -3703    40730    87697   130416 
  160812   171999   159944   125195    74758    17920   -38036   -84709 
 -110865  -110974   -92603   -66740   -35959     -121    36211    67307 
   89657   101626   102506    91579    68615    35513    -2642   -38608 
  -64725   -75125   -69814   -54844   -36789   -19662    -5700     3294 
    4907    -1670   -12552   -21622   -24138   -16234     4085    32996 
   61429    80829    86380    76358    52356    19249   -16943   -51194 
  -80074  -101172  -114045  -120886  -123610  -122432  -116924  -105921 
  -87910   -62208   -30522     2843    33959    59880    77181    83449 
   78137    62787    41181    16725    -6548   -23235   -33437   -42076 
  -50064   -54843   -55486   -52312   -45350   -34992   -22981   -12845 
   -8251   -10339   -18888   -33524   -51921   -71136   -89342  -104938 
 -117910  -129305  -137203  -137636  -128658  -110104   -82955   -51173 
  -20203     5376    22547    33741    46313    63607    82174    97306 
  105541   103912    90497    65874    34443     3985   -16469   -19004 
   -1397    29421    61057    82482    88327    79078    58574    32521 
    7775   -10742   -24363   -38888   -55753   -69514   -74910   -70532 
  -57359   -38230   -16977     2603    17027    25533    31608    40099 
   54039    72226    88904    97615    93425    75008    48407    24852 
   15000    23987    47570    75279    97938   109354   105180    86720 
   61745    37784    18964     6524    -2160   -11112   -21573   -32828 
  -44600   -56273   -65919   -69055   -58317   -30072     8826    43940 
   61577    55081    26583   -16412   -65264  -110119  -142781  -162576 
 -171900  -170024  -156503  -134416  -109052   -83779   -57614   -29068 
    1786    35110    70000   102372   126036   135343   127479   103591 
   68910    31286    -2498   -28945   -47042   -56741   -57068   -46560 
  -26107      222    25596    41839    42013    23701    -8226   -44084 
  -74527   -95336  -109312  -118310  -118440  -108644   -93621   -77598 
  -62819   -49968   -37839   -24047    -6119    14870    33641    45208 
   45923    33643    10678   -17468   -45737   -69329   -84246   -89392 
  -85053   -71167   -48314   -17351    20352    60594    97418   125086 
  137833   131364   105499    65515    19959   -22069   -50811   -59734 
  -49310   -24012     9871    44292    70069    79733    73794    61164 
   51146    46900    46087    45430    43020    39215    36126    34774 
   35790    41302    52316    66411    78393    81771    72512    52675 
   28458     5791   -11441   -21553   -24892   -22780   -17492   -12733 
  -10525    -8590    -3796     4355    14475    23353    26339    21532 
   11014    -2536   -17152   -31335   -44589   -56963   -67953   -76603 
  -82075   -83121   -78128   -66675   -49579   -28197    -5766    12671 
   23705    28718    32845    39912    49954    61100    71007    78356 
   83095    83427    76560    63606    49051    35833    23938    12059 
    -313   -10715   -14588    -9238     4659    24437    45747    61780 
   64730    49962    18845   -22127   -64739  -101701  -126568  -134391 
 -123316   -95265   -56991   -17766    14831    34969    39145    28403 
    8329   -12091   -23045   -18905    -2129    19064    35778    40412 
   29160     4337   -28490   -63149   -92611  -111125  -116180  -108267 
  -90503   -66624   -41061   -19921    -7083    -2375    -3421    -6505 
   -8856   -10509   -13005   -16727   -20377   -23421   -25355   -24415 
  -21091   -19570   -25101   -40406   -63138   -88118  -109990  -123235 
 -123797  -111179   -89495   -65653   -44311   -27151   -14759    -6185 
     219     6605    15333    25603    33365    35035    29970    20384 
    9340    -1054    -9956   -16478   -17869   -10832     4285    23725 
   44253    62034    71507    69940    59169    43074    25240     7442 
   -9076   -21894   -29453   -33808   -39528   -49611   -62696   -73769 
  -77578   -71357   -55228   -33745   -15276    -5299    -2835    -3700 
   -3749     -879     4234     9419    11978    10259     5632     1040 
   -1910    -2962    -1632     2888    10610    19602    26219    27667 
   23845    17226    11760    10395    14100    22606    33684    43751 
   51257    57355    62595    65682    65904    64548    62312    56727 
   44693    24714    -4141   -40502   -78466  -109750  -127719  -129606 
 -115619   -88316   -53865   -21214     1196     9206     4717    -7282 
  -22095   -35891   -46319   -52737   -55275   -54583   -52714   -51481 
  -48760   -41090   -28034    -9483    15682    46333    78837   109369 
  135470   155815   168075   168144   152664   121906    79298    28985 
  -24775   -76619  -119760  -148697  -162339  -161739  -147005  -118440 
  -78278   -32497     9412    39589    54431    52693    35162     6244 
  -25263   -49548   -60632   -57347   -42492   -20382     5355    30807 
   52545    69577    82986    94602   104056   108490   106561    98522 
   85409    70714    57805    47143    38097    31184    28056    28833 
   30566    29855    26467    23840    25141    29831    35003    37729 
   35446    26840    13725     -278   -13056   -23197   -28750   -29084 
  -24585   -15809    -5392     2141     2806    -5566   -21450   -39301 
  -54038   -63247   -65011   -58883   -48395   -39394   -34973   -33214 
  -31599   -29823   -27466   -24323   -21286   -17778   -12180    -4786 
    2549     7642     8754     6185     2000    -1597    -3106    -1765 
    3104    11473    21892    32248    39819    42959    43381    43122 
   42153    41659    44606    51726    59510    63135    60881    53744 
   43299    31951    21757    14009    10808    13778    22877    37165 
   54082    68606    74789    69057    51939    26981    -1117   -28224 
  -50390   -62686   -61449   -46332   -20065    11214    39624    59105 
   66224    59879    42442    19518    -2959   -21396   -35661   -48035 
  -59605   -69341   -77113   -84485   -92946  -101845  -108121  -109683 
