Origin Time       2011/03/11 14:46:00
Lat.              38.103
Long.             142.860
Depth. (km)       24
Mag.              9.0
Station Code      IWT009
Station Lat.      39.0190
Station Long.     141.4053
Station Height(m) 148
Record Time       2011/03/11 14:46:47
Sampling Freq(Hz) 100Hz
Duration Time(s)  300
Dir.              N-S
Scale Factor      3920(gal)/6182761
Max. Acc. (gal)   569.855
Last Correction   2011/03/11 14:46:32
Memo.             
[...]
  -33021   -33443   -41572   -13216    46351    57595   -11392   -80562 
  -73114     3455    74266    74250    30969    -3714   -43241   -91316 
  -93438   -25211    61644   101697    76555    29336    12310     7978 
  -16277   -32351   -30833   -54103  -104563  -124481   -81148   -18423 
   15039    29760    42460    48137    56659    71215    40654   -55649 
 -113553   -62507     8788    28255    27024    16972   -20456   -56219 
  -32512    32120    40980    -6400    -4305    44388    45225     -492 
  -40896   -78514  -121611  -138464   -87058    16716    97221   112465 
   78641    31377     4830    -9402   -34879   -40881   -20230   -19724 
  -28589   -15230     8725    33906    31359   -13366   -29054    19103 
   53977    27836   -21172   -61242   -67940   -19259    18468   -20013 
  -59359   -26099    18713    -1914   -76036  -124606   -66166    81151 
  193893   202502   142155    40066   -78358  -144051  -134495   -77867 
    5296    50470     3985   -64537   -69337   -19728    53511   125102 
  120497    -3857  -144765  -173080  -112288   -60670   -28726    30651 
   96754    96880    23331   -47439   -46601      525    22858    24301 
   41153    45348    10318   -23970   -28607   -43741   -90235  -108936 
  -48028    61492   118760    55556   -49289   -66140     9622    97732 
  140218    94428   -53909  -228983  -305197  -243222  -115421    21704 
  147427   203538   165783    93224    44612    28587    -4458   -90478 
 -161999  -152641   -85642     7259    70706    38747   -11139    25295 
   73691    50561     6301   -18421   -42055   -66590   -73317   -57451 
  -36800   -21974   -11714    -8318    -8015   -25857   -60979   -46104 
   30683    85552    74578    22273   -35366   -80252  -104621   -75580 
   13117    91417   102752    40157   -65313  -112990   -77043   -76613 
 -115606   -66548    55297   131165   117975    28039   -80247  -114179 
  -70425   -18828    21212    35057   -15066   -89051  -114480   -77841 
   -3483    58619    88887   111613   101193    33318   -32076   -53544 
  -56799   -61660   -67228   -37142    58983   123977    43935  -106832 
 -157445   -54526    83635   113457    61705    42145    39626    -4621 
  -56984   -82513   -86940   -68914   -30699     1537    -6298   -41273 
  -47434    -9011    62134   137672   120057   -24460  -161933  -176129 
  -91045    14794    83299   106570   109675    79871    -8343  -122585 
 -194139  -182204  -122039   -40171   100465   252797   282701   152779 
  -50687  -227933  -292794  -189357    -6503    84301    74984    72004 
   74063    42861   -14091   -91764  -123874   -68850   -23701   -32759 
  -24608    24331    80534   122596   125082    68340   -27948  -138051 
 -222054  -206628   -90800    23264    74385    88623    86552    66551 
   32738   -12419   -47045   -24757    38283    39872   -39311   -83662 
  -37617    29852    52365    21403   -36197   -57122    -9938    33767 
   13785   -34119   -57650   -51708   -46033   -37628    -4541   -11431 
  -91177  -114871   -48571   -15580   -18559     2809    23958    15906 
   -1490    18369    50522    19508   -42585   -50201   -22269   -30659 
  -52594   -28178    20865    57320    72588    51952    -3892   -62959 
  -81270   -41417    19805    40818   -22486  -129885  -159266   -80394 
   20736    92439   112329    70583    -5238   -95353  -166306  -187304 
 -169201  -101618    17650   165397   308635   330886   170554   -41624 
 -166607  -171183  -100352   -42497   -45209   -93053  -119719   -67503 
   10329    63051   144925   215264   142706   -16403   -82026   -42703 
  -68611  -195830  -211616   -51768    77865    86542    53033     6255 
  -60131  -130155  -165982   -78335   105294   166738    72745    20216 
   54985    69764     6028   -78438  -110668  -131534  -122031   -14669 
   65121    45391    46971    67719    23182   -59069  -111599   -71121 
   30867    57413    34201    88234   140600    59632   -96841  -190501 
 -159317   -54140    18935    24224    22214    61707   131350   157322 
   57728  -109593  -209386  -179658   -24656   130076   139884    68208 
   22581    -9313   -21791    -4208   -17531   -61980   -74587   -72422 
  -47324    52535   128002    65826   -56513   -98633   -43042   -16377 
  -75050   -79489    18690    61844    20925    32729    98998   104383 
   20485   -99398  -197335  -196075   -86162    -7701     -880    59693 
  157497   177786   113915   -22358  -205030  -301763  -209571   -20107 
   81745    60871    57312   129906   143197    45060   -33978   -75898 
 -144219  -172099  -111871   -15075    47072    13449   -76045   -99007 
   13621   187047   242641   131038    -2765   -58083   -95773  -172997 
 -208457  -159562  -122621   -92562    32093   213069   320656   275822 
   98427   -97926  -215505  -237257  -178524   -83290     5269    96836 
  136704    65925     2771     3238   -14782   -28682    -2724    44658 
  108940   102625   -39394  -177786  -199278  -185276  -146031     3444 
  178725   242764   232880   228325   185565    43951  -127610  -217648 
 -231193  -236606  -233122  -165383   -22677   121596   222105   288466 
  258502   123846     -155   -65409   -62628   -31388   -99172  -236417 
 -283157  -209299   -97666    -5797    87677   202974   268276   213707 
   97839    45735    50846   -15034  -137895  -214071  -255816  -232265 
  -98610    19531    75058   181373   323087   339405   172378   -42854 
 -179387  -222236  -166009   -62554   -19427   -34992   -21231    44029 
   89506    55434   -24996   -84769   -97503   -68741   -11245    51126 
   78913    78984   103370   123999    49212  -106677  -227182  -269292 
 -242519  -128852    26017   150063   190340    94015   -71450  -170451 
 -177429  -127344      537   199319   328213   273147    85004  -114948 
 -234651  -248780  -171945   -32171    97189   130384    67968     4669 
   12083    40229    16842    -3878    30823    46325   -19841  -112972 
 -125422   -48342    31269    80902    89748    34839   -40448   -96266 
 -155276  -177150   -82809    28170    15567   -20739    42744   151678 
  253015   293095   162188   -89616  -285336  -338268  -232572   -80794 
  -14449    71204   210714   236438   139977     7736  -110718  -120933 
  -46647   -19953   -52196  -109137  -178572  -186213   -84487    78868 
  220324   275295   217175    44616  -149961  -228516  -179976   -62020 
   72299   136646    89246   -12394   -78405   -86742   -74042    -5924 
   93774    56445   -83255  -121119   -56078    15595    56755    21595 
  -65029   -72964     2139     5062   -41489    11165    79992    41007 
  -49264  -127942  -112198    12940    43320   -49635   -55179    31474 
   93550   125292   138890   104049     2326  -107377  -145861  -107999 
  -42766    16402    58844    65354    35955   -20101   -97443  -142421 
  -76526    89506   238964   286505   199434   -13746  -209287  -250636 
 -193440  -140503   -83072    22940   140726   174196    79875   -51426 
  -92566   -75808   -94808  -103820   -35890    59697    71968   -16606 
  -48198    63819   170780   128842   -16560  -127567  -146156  -123444 
 -111065  -100563   -71313   -27359    26156    72252   109606   173827 
  229320   185032    47040   -72201  -114772  -160404  -226781  -209965 
 -122650   -30988   115859   280273   269161    75236   -78891  -109515 
  -84900   -30271   -13293  -100470  -202881  -221401  -149180    -1242 
  139795   217468   274428   261934   141451     9713  -119730  -284267 
 -355398  -226015   -41352    73854   156239   181305   123759    42088 
  -16727   -26488   -24196   -73246  -152718  -189423  -124883    16377 
  131351   152079    86143   -14589   -93493  -104534   -40366    37819 
   96550   131283    83955   -43572  -152142  -156836   -52197    62026 
   74092   -18118   -95889   -96279   -89452   -55674     4855    -5071 
   17559   137921   183183   113320    38219   -18740  -106218  -214114 
 -242734  -184297  -134489   -74223    80723   299678   457746   450870 
  266836     -365  -229881  -387193  -452308  -362267  -165286    10003 
  151527   290497   372785   365798   284177    83084  -249837  -532238 
 -542939  -333484  -103366   104684   283259   357006   299357   104430 
 -175205  -327256  -212683    -1404   136834   266608   328983   164440 
  -59964  -141997  -184272  -198981   -38492   179249   225399   141750 
   11744  -189892  -363830  -415574  -383203  -232896    -2121   136689 
  186484   164050    10442  -116268  -125568   -99916    50869   279223 
  355153   327719   279549   139867   -59273  -212233  -239048  -145769 
  -23999    55649    60624    -5240  -147121  -336196  -429997  -373199 
 -239014   -74051    57397   142798   249003   315245   239028    83703 
  -21691   -37439   -15610   -18304   -56610   -81288    -3831   171171 
  299283   304740   199229   -20272  -265144  -420270  -452169  -367912 
 -249729  -139328     3359   143744   245940   300605   279989   229442 
  181272    84813   -69616  -223315  -292633  -257570  -193036   -53286 
  229752   408354   329161   184087   -11813  -263162  -336881  -215582 
  -67728    46238   114187   121762    39230  -104996  -168294   -90200 
   28329   161401   305083   264541    30570  -116551  -206418  -392833 
 -421202  -178511    19860    85089   158640   210079   224647   250166 
  196799    52159    -2831    56460    50751   -83555  -262703  -396655 
 -442698  -402159  -264199   -36846   201463   332006   314860   279398 
  278955   193934    39019   -51639   -40531    28502   121771   272601 
  453773   507411   374393   122162  -194638  -467064  -606565  -632908 
 -565259  -465514  -385002  -265646  -104451    49081   215149   345075 
  313930   198566   151790   113748    80087   158392   240260   204394 
  114340     2443  -109703  -148201  -104466   -68895  -119067  -197891 
 -220435  -174506   -84855   -10439    12647   -14158   -45177    -9055 
   64484   111386   130210   148915   174761   137742    48394   -28562 
 -173235  -334582  -347069  -292418  -234359   -91348    49585   100948 
  160408   263324   369673   438504   344756    82165  -175726  -369678 
 -479254  -418909  -265795  -147627   -44078    51002   125540   190921 
  188020   143387   153998   153040    41054  -147579  -274407  -235654 
 -123125   -15272   134801   225101   146538     9723   -75527   -66807 
   17082    64842    77755   138332   212888   212854    66621  -187646 
 -328955  -262888  -187649  -135292     8501    44265   -86012  -110224 
  -69391   -62698    52921   203355   283145   360754   359450   225638 
   62146  -112195  -324998  -514435  -557030  -430182  -276229  -154366 
   -5262   128071   214076   324772   430087   445975   396458   289744 
   69458  -201215  -317535  -226757  -129633  -119012   -79603    24900 
  127896   147330    25239  -138229  -179250  -114973   -54668   -25509 
  -15973    19932   101268   160550   165549   108166    46238    43833 
  -29551  -193587  -295105  -324799  -263836   -71828   143936   316427 
  418838   326869    46573  -221943  -359943  -358462  -225667   -45112 
   76122   172250   323861   436480   400954   267282    54094  -228528 
 -455147  -550428  -506654  -351751  -200709   -95934    27234   175552 
  279520   280568   220220   214392   267992   232754    49811  -157394 
 -307885  -423762  -453570  -307576   -70936    66412   109067   189187 
  245892   171121    45881   -46683  -100547   -90236   -24299    -4624 
  -78363   -99117    -4643    25903   -43817   -78435   -88685  -112706 
 -108483   -52705    84259   246420   326663   364868   386212   340164 
  239820    30693  -290944  -488512  -475452  -419855  -341389  -172822 
   45687   265330   380356   307119   139933   -25187  -135006  -158648 
 -161734  -150622   -72638    33956   144912   278344   356702   255229 
   24833  -148698  -238617  -263582  -125346    73923   102518   -15176 
 -131062  -196826  -212405  -143221    29599   241530   405388   456142 
  371500   163789  -126483  -361116  -429864  -393728  -322598  -171423 
   79498   274548   296598   239957   145045    -6384  -153308  -212505 
 -110351     2794   -44943   -93924   -61343   -16258    83341   215297 
  345061   464584   488103   428896   310491    70319  -210125  -388219 
 -453592  -466710  -479912  -485516  -419837  -280999  -170381   -55888 
  216053   467630   450263   350651   275315    71897  -143160  -199903 
 -186767  -172359  -157587  -189710  -202876   -71751    90193   123609 
   91848    35036   -62504  -121114  -119794   -61989   110256   312114 
  372950   257497    12938  -262192  -415804  -374065  -180022    28645 
  121367   155643   202249   203004   180469   125553   -50917  -196711 
  -97614    92499    54492  -155138  -225874  -132344   -19656    58000 
   74264   111318   253320   386722   446088   483934   416301   242192 
  187615   249962   208445    77170   -10323   -99218  -250176  -413406 
 -562706  -647967  -562362  -335496  -156917   -97855    -1208   155249 
  186389   101319     4274   -90907  -103279   -49725    -6896   115711 
  292480   377570   377564   345101   294091   165883   -99730  -334969 
 -406812  -447219  -479682  -395088  -218931   -51438    35904   132170 
  305667   326477   138357   -48647  -252119  -440044  -381302  -113396 
  115157   209636   218140   100755  -160168  -344895  -329747  -234555 
 -122122    38212   276780   515320   608968   578574   495057   328276 
   70659  -215012  -442134  -573703  -602005  -504835  -338930  -176447 
  -14777   103607   127411    63292   -82756  -178665   -60504   150697 
  264890   354812   547126   703143   613205   371619   118861  -213834 
 -578934  -817073  -907396  -864962  -649556  -333964  -121218    18049 
  241531   445427   555282   633767   623849   478234   262585    94583 
   -1163  -153652  -346472  -407489  -290835   -81753    54871    66803 
   79909    56740   -44525   -46937    56010   117644    97113     5520 
  -64777   -73504  -110335   -92746    75426   186440   141404   127341 
  168159   151647    85051   -10895  -101989  -114234   -39067    82032 
  182009   221335   194515    50861  -148710  -228521  -233398  -347482 
 -470505  -357061  -115742     2751    52840   159611   314568   425733 
  399285   299373   114915  -206001  -393770  -335252  -322625  -423057 
 -442516  -343220  -159171    76586   244397   335289   430618   477420 
  449528   382658   218069   -26494  -229541  -375418  -463826  -433147 
 -327603  -210125   -33211   164827   260036   247750   201723   170405 
  166981   154128    75406   -52669  -134599  -163203  -266216  -417875 
 -410081  -238285   -75724    60472   226651   367050   428790   430183 
  364953   194016   -39107  -224404  -366520  -480206  -452575  -297487 
 -171834  -100322    12532   224924   436423   447277   281199   121751 
  -47072  -238087  -259995   -95543     6861   -36931   -61488   -44127 
  -92299  -115187   -52675   -34529   -46248       73    33421    15859 
   19514    23787     2576    92361   284328   363172   329626   289265 
  130493  -206931  -491266  -513389  -369151  -236858  -174921  -147747 
  -27589   170708   258720   231122   169983    73129   -13046   -85347 
 -197912  -278197  -257564  -237202  -281613  -269817  -129385    17550 
   82062   121702   202666   337083   462955   528545   549165   452534 
  177983  -175293  -514810  -764300  -834298  -750654  -550107  -239843 
   15397   141164   340247   612712   705375   574405   383071   240974 
   91918  -116495  -233924  -152382   -12151    47738    48363    26935 
  -20279   -95342  -181733  -204317  -132433   -58199   -38245   -77024 
 -169865  -215009  -161566  -127428  -148315  -133498  -101761   -98713 
  -30051   152072   327346   393030   397519   383730   219936  -103757 
 -275970  -193924  -121580  -113833   -32728    71386   134405   188352 
  204001   143526    28865  -113846  -240240  -298480  -359627  -453763 
 -382629  -125993    53560   142489   323074   495740   477368   353792 
  242425   117618   -54153  -256947  -369060  -288775  -187250  -262800 
 -382188  -317181  -111178     5196   -14353     1546    82868   129513 
  127596   122531   167452   227071   231046   207705   165979    62198 
  -96815  -264651  -396502  -450529  -399818  -247029   -39901   137073 
  273544   407828   487360   462150   359686   218336    47508  -178785 
 -398550  -482359  -438872  -335848  -195720   -77584    29775   213292 
  408582   477857   363910   101844  -129943  -255543  -400332  -460387 
 -253437    -1524    89082   178992   287576   229578    67805   -40154 
  -76202    -5939   156560   290327   351123   294776    48044  -235438 
 -396281  -508001  -510294  -286285   -16734   148128   317061   497945 
  508565   326847    88456  -146455  -290599  -256219  -147717   -75997 
  -14649     1420   -76690  -144465  -154322  -161337  -160439  -151022 
 -121167   -81117   -73603   -10299   130480   219825   222838   127356 
  -63169  -213603  -293890  -389441  -384879  -161819    75484   143204 
  195099   327070   376083   342790   337461   270669    82284  -174619 
 -428313  -543399  -483945  -373868  -238250   -33161   120523   153642 
  180132   197139   143365    86071    90465   142921   161619    84042 
  -70772  -243949  -319316  -264760  -227150  -252758  -168440    62955 
  184350   147297   176997   226453   206300   194334    86962  -135783 
 -281410  -310450  -265442  -176033   -82288    89023   312593   362315 
  228229    47135  -183534  -319187  -165933    45329    33913    22932 
  179039   196573    24082   -46978     6389    65933   115787   168302 
  208650   153872   -14373  -179267  -304780  -455351  -561893  -478190 
 -227045     6290   134211   265748   380930   317337   171022   111958 
   27917  -165575  -236966   -61468    84538    45858     -660    16049 
   35092    10406  -109144  -190793   -39796   175577   212603   219340 
  308371   270993    66912  -159302  -374918  -454353  -282307  -112996 
 -145391  -114013   114046   256723   248105   235506   154019    27436 
   19805    50647    -4219   -73409   -68258   -27816   -42369   -50237 
   20494    57760    36674    54522    82419    24811  -126240  -244307 
 -194816   -54118    -9114   -24213    75150   169070    37612  -161812 
 -261425  -306461  -199001    33472   163913   237929   309329   219683 
   15326  -151498  -318450  -430378  -334725  -116416    47230   147417 
  307565   522453   572494   403634   186839   -28133  -277318  -497452 
 -562591  -419754  -192990   -56042     5670   129761   276208   274645 
  143879    -2108  -161490  -297135  -312491  -216434   -90356    26390 
  131273   212669   235635   173494    65208   -35085  -116337  -154177 
 -118679   -41776   -24874  -112588  -198268  -197602  -130713   -21470 
  104975   215684   275399   284924   255699   105186  -134508  -200568 
  -75961   -68114  -179520  -134383    64397   209832   199596    73693 
  -54377  -124703  -155176  -126444     1334   143691   203362   217404 
  183186    80363   -10122   -97276  -204190  -216297  -127740   -55909 
  -19454    51859   159663   162185    17000  -134105  -244625  -255562 
  -97918     6645    -5290    78339   123344   -16553  -116138   -74226 
   18522   100652   136571   160078   140918     5786  -109032  -116819 
 -179718  -291585  -263098  -153459  -133436  -158968  -173422  -194945 
 -108286   101317   241904   288730   314351   300365   222523     5069 
 -287689  -397984  -334553  -260933  -151324    -9667   114161   231451 
  301366   304158   279665   215272    72951  -143109  -376522  -479177 
