Origin Time       2011/03/11 14:46:00
Lat.              38.103
Long.             142.860
Depth. (km)       24
Mag.              9.0
Station Code      IWT017
Station Lat.      39.6339
Station Long.     141.4379
Station Height(m) 617
Record Time       2011/03/11 14:46:56
Sampling Freq(Hz) 100Hz
Duration Time(s)  300
Dir.              E-W
Scale Factor      3920(gal)/6182761
Max. Acc. (gal)   329.488
Last Correction   2011/03/11 14:46:41
Memo.             
[...]
   38849    27570    19661    15011     6645   -10709   -29703   -33696 
  -23875   -12889    -2616     7237    13520    17254    19052    16029 
   13442    18690    25493    26106    23581    20434    14433     8897 
    4065    -6358   -12700    -5304     3047     5299     8045    10850 
   11713    13461     9785    -3774    -8849     2335     9740     8252 
    7446     8492    15654    25418    22954    13483    11228    10184 
    3912     4292    13469    10613   -11449   -37846   -56825   -55800 
  -27529    10660    34743    37261    26738    18034    19535    20919 
    8744    -2308     8330    23962    17110    -2500    -8886    -3397 
    -123    -2771   -12622   -19088    -5031    16562    21070    18341 
   24247    22317     5806    -3198    -4432   -12499   -15786    -5171 
    5365     9814     8350    -5811   -24213   -30174   -23580    -9323 
    8788    24640    39195    50454    44158    22289    11203    20357 
   27918    17643    -1359   -15195   -18466   -11150    -3624    -7417 
  -14118   -13518   -16112   -27717   -33129   -17053    16607    44764 
   51181    42112    26500    11170    10138    23851    29786    20079 
   10750     2386   -15742   -32977   -35772   -27488   -12734    -4899 
  -18723   -32445   -23790    -9120     3943    22867    35196    35225 
   32958    23579     5409    -5647    -6044    -5528    -3287     3666 
    3476   -12065   -32105   -47445   -51279   -31659     2489    29202 
   43485    46000    36123    21349    10003     2879     3373    15036 
   20659     4700   -20602   -40932   -50133   -40879   -17266     2944 
   14299    23271    22888    12143     5609     9200    25495    46348 
   53276    48326    38062    14834   -17323   -38955   -41312   -30418 
  -15736    -4749     4914    20924    39230    45694    37111    24264 
   11970      355    -6507    -9513   -11726    -9761    -1381     9151 
   19917    28669    27277    17201     7411    -2139    -8836    -4841 
    5752    14003    19918    25052    21942    11248     7684     5837 
   -8471   -18375    -3322    18740    19206     7560     8052    15919 
   14675      -35   -21071   -31355   -24096   -15461   -16546   -19749 
  -17036    -6577     7963    15453    10705     7155    19758    45033 
   68941    80345    72986    52330    36572    31581    21368    -3885 
  -28854   -37192   -41662   -57948   -68099   -49760   -12636    25307 
   54678    57976    32790     5018   -10126    -8936    18248    58329 
   71964    51333    23021    -9383   -47064   -66364   -61175   -44088 
  -13951    20847    35095    26608    10752    -7507   -23709   -32517 
  -32925   -21679    -3352     6873     4896     2715     8210    18826 
   28692    29537    15140    -8348   -21490   -13625     2911     8265 
   -6272   -28211   -37197   -29960   -17346    -8122     2403    31284 
   72471    87102    58774    13685   -17190   -19152     3616    28382 
   35991    31889    29136    26423    17491     6343    -5006   -17598 
  -20209   -15371   -16350   -13850    -8352    -8189     7659    40093 
   52841    34271     1086   -29647   -40694   -28125   -13857    -8104 
    4656    15613    11721    11505    15108    10174    10190    18269 
   14381     -190    -5437    -5482   -13840   -23955   -30821   -34480 
  -22439     3543    21301    26719    25212    14136     3510     4268 
    2490   -14704   -31166   -28204   -14055    -5174    -5057   -10202 
  -11626      734    22105    39481    51817    64244    70762    59942 
   32567     6090     -526     9582    15146     6693    -8651   -24265 
  -35053   -34885   -23650    -2447    27576    49461    43420    19634 
    5431     7765    16679    22143    10219   -20300   -47383   -60249 
  -59805   -32177    21316    70658    97505    99563    75315    33985 
   -8116   -47220   -84268  -103200   -91187   -62731   -34058   -10977 
    2731    14140    28558    39591    47226    57177    64671    58228 
   42972    30397    13480   -12971   -42172   -68026   -82113   -75395 
  -50329   -24783   -13684   -12411    -7838     1068     7231    19047 
   43033    66066    85825    97437    74859    18446   -40413   -79771 
  -92521   -78462   -44924   -10601     9986    25719    49883    74659 
   77270    55294    35116    26353    15419      993   -12681   -22897 
  -23722   -24942   -34413   -33416   -11831    11510    20443    18218 
   13350    17778    33498    39314    30432    25645    23141     4992 
  -25661   -47116   -52215   -53574   -59267   -58886   -41280   -17754 
    2566    26407    44656    49347    56141    65580    64466    64296 
   68881    54255    29045    17177    -1821   -36865   -59477   -64473 
  -63983   -55513   -40514   -30960   -23062    -3415    17667    25584 
   25760    20031    10393     8981    14534    19254    22811    20399 
    8828    -8670   -24093   -25601   -21997   -22452    -7574    22415 
   45624    59945    63375    46571    13707   -23829   -57068   -76642 
  -74386   -53126   -28329    -6203    21100    46527    54420    48096 
   39104    31330    25790    21186     7552   -18997   -43771   -57264 
  -62000   -53990   -31521    -4270    19333    31549    24019     6791 
    2773    14731    26672    31406    35217    42722    52232    56936 
   43236    12672   -10664   -21641   -38133   -58029   -65789   -61105 
  -48299   -34353   -30208   -24590     3838    49082    90590   114861 
  112425    87369    59194    32283    -6841   -53088   -87599  -103054 
  -94630   -66586   -38974   -18952     3196    28315    44971    47077 
   40022    32256    27968    27984    30041    32103    40023    48944 
   37461     3357   -30206   -48025   -58594   -72373   -81211   -69929 
  -37145     4236    41303    62261    69650    84244   100285    94090 
   70141    40176     4774   -32112   -69962  -106078  -116091   -86515 
  -42356    -5867    22444    38410    41258    41626    36489    21653 
   17071    21317     3202   -25165   -29509   -21873   -17453    -4616 
    7861     7469     8555     2703   -27701   -52430   -50412   -36972 
   -5085    48629    85942    84533    61450    27627    -5551   -11875 
    3591    12891    10512     1927    -5285    -4633    -4397   -11189 
  -14202    -2646    10768     8899     6323    21136    39525    43336 
   26043   -12535   -48094   -47636   -14342    25270    53345    60180 
   52678    49594    50414    44772    36219    21837    -6884   -30791 
  -33012   -31554   -42816   -63506   -73313   -45707     4439    31622 
   29007    22426    23007    27784    27661    12088    -8767   -15828 
  -16640   -33316   -62577   -76085   -65797   -49281   -26912     3078 
   23668    34710    42017    37140    28817    28452    20144    -2280 
  -20155   -33684   -50279   -45707   -10722    22517    37476    43867 
   47924    60403    87492   103326    84867    47113     6663   -33801 
  -60049   -60361   -46372   -31172   -15121    -2918      348     8206 
   30451    50123    56133    64204    75546    72315    63674    61692 
   51088    24826    -6929   -30421   -35694   -21895     7811    38686 
   57653    67568    59967    22101   -31538   -71251   -78781   -55326 
  -16800    13993    25587    32446    49259    63015    58159    45659 
   39283    24282   -20567   -79386  -113616  -113647   -96859   -78065 
  -67351   -63290   -52066   -28729    -3245    14074    28635    51409 
   70634    66376    42886    14541    -9344   -22277   -32462   -50002 
  -62548   -53067   -22341    17442    52881    73967    82253    85281 
   81687    71097    61836    58260    64641    81782    87685    59657 
    3035   -61832  -111177  -122173   -90323   -30744    39456    99951 
  127376   118878    86434    33628   -33451   -98310  -142159  -149477 
 -124765   -88971   -54397   -28724   -20164   -22848   -23820   -11282 
   31303   100548   160639   184178   176966   153187   112032    55666 
   -1751   -51060   -83479   -91382   -76994   -46933   -11326    16378 
   29810    46850    83057   114531   119503   105838    80054    47427 
   18504   -12969   -62328  -111247  -124599  -107505   -85358   -67226 
  -58750   -64814   -79964   -85864   -66279   -26951    19559    67100 
  105807   127650   132549   114755    71223    23573   -11110   -40228 
  -58702   -51785   -23961     6294    16995     5536    -2947    10695 
   41172    71002    85468    73178    25587   -44657  -103355  -122076 
  -93030   -29355    40387    89134   107301    98495    66321    23005 
   -6694   -17330   -23601   -30307   -46697   -88455  -140026  -163202 
 -136148   -61499    35291   111069   140020   134919   121577   114560 
  108481    83401    35103   -12686   -36507   -37777   -37274   -52897 
  -78740   -87303   -60579   -13804    15619     5543   -31548   -75033 
 -103147   -87123   -36751     3474    22804    42371    75432   118700 
  156168   172977   166777   146848   119390    77687    22976   -27508 
  -61102   -69043   -44428    -4965    18581    20356    13197    -1850 
  -30428   -54427   -43488     3529    55408    76376    52702    -3907 
  -64070   -90333   -71413   -24172    35734    87823   109745   100118 
   75172    44725     6300   -34554   -65717   -80343   -76149   -66493 
  -70031   -83571   -96922  -108796  -105591   -66177    -4978    34922 
   48441    71477   117900   172118   208084   193412   126663    46419 
  -17947   -61618   -89894  -111449  -118267   -89678   -30031    25635 
   41033    11119   -35747   -75448   -94887   -72976       83   110886 
  230233   306387   293469   200482    71752   -63470  -179150  -229061 
 -188867   -91657     4566    52694    39697    -5745   -60506  -117865 
 -149660  -130526   -73393   -15158    15753    19351    12075     9953 
   15751    12337    -7334   -20845    -7387    30259    73401    98977 
  102370   101318    98054    76424    43926    29645    45405    73093 
   80882    54280    20596    22497    57372    77244    56969    21667 
    3370     7099    16375     9235   -19144   -51018   -73037   -85792 
  -94737  -107025  -126535  -153245  -174840  -165452  -103480    14890 
  144450   204055   171756   100446    33957   -20955   -67622  -105389 
 -116622   -72882    20871   106893   118289    44151   -58649  -126271 
 -139300  -117465   -89628   -70581   -56129   -32366     4023    29862 
   12763   -41440   -72314   -28234    67978   151980   190954   196561 
  194389   200786   216486   224585   199184   135500    60639     1743 
  -44340   -99568  -163903  -202144  -170759   -52729   105005   204642 
  184908    71163   -68031  -185843  -270100  -318105  -330053  -299614 
 -207219   -60753    91573   192762   193546    99641    -2254   -36523 
  -12014    28713    63901    93243   128361   168493   188653   160215 
   69532   -63656  -187560  -256114  -251363  -181405   -79642     6762 
   45183    50928    83891   174026   268394   298221   257878   178443 
   85184      346   -62377  -102073  -115864  -102821   -81461   -68941 
  -53657   -37999   -60916  -115573  -130702   -71333    29819   121408 
  177367   214353   236318   208236   123762    26947   -36112   -55790 
  -59330   -83577  -135742  -173163  -152775   -80880     8836    75924 
   88933    64279    47845    46672    20609   -56221  -155723  -232229 
 -275899  -299953  -291879  -220108   -74737   120548   298441   378106 
  343559   234491    87955   -56241  -153809  -183275  -150197   -77406 
    -129    49197    63194    54317    42621    49384    67682    78023 
   98068   140699   166597   132807    42587   -58550  -129494  -162847 
 -155240  -110476   -63239   -28478    12666    44337    37912    20050 
   27315    56530    90607   114396   120474   116176   107514    88153 
   45516   -27296  -115162  -186133  -223416  -231586  -210677  -160303 
  -98323   -34155    49709   149579   217519   227939   213234   204793 
  193381   163212   121104    72099     6002   -73204  -143167  -188245 
 -207541  -213341  -217407  -208835  -173969  -134579  -118943   -98598 
  -15833   124235   257527   335930   348228   314749   272068   225680 
  144584    21007  -114127  -236337  -328519  -367505  -349612  -287731 
 -186243   -47461    99716   191637   185283   120629    79689    86875 
  103603    92528    33027   -61130  -130552  -141976  -114946   -62552 
   19999   121657   208185   249604   245786   205242   121264     1877 
 -113860  -194036  -234237  -236517  -194394  -106610     -147    74786 
   87441    66622    72943   120623   168280   177639   136847    64613 
   13229    23688    70211    81909    33253   -35160   -85311   -99187 
  -67214   -11716     9949   -51923  -168800  -250764  -265377  -241404 
 -178779   -79892    -3165    17068    22769    57406   111152   145851 
  145189   122406    75356     7896   -16420    47281   145698   206810 
  217085   194460   146301    69237   -12904   -56218   -57973   -47812 
  -36689   -24467   -17309   -15215   -13298   -17319   -31798   -39924 
  -24341     9855    49525    82543   101392   111504   108716    81358 
   55920    66231    81702    44395   -51156  -161609  -235874  -249439 
 -214228  -128584    20872   176427   241953   205688   134118    75227 
   41637    46061    88377   138830   165968   160406   133830    97648 
   43677   -39413  -145632  -252226  -327038  -348385  -327114  -288569 
 -230872  -146081   -74143   -62183   -86652   -76507     3958   122492 
  228640   301715   332879   322603   290823   239755   146668    14033 
 -112928  -193470  -228449  -236662  -228608  -213501  -199708  -185200 
 -166848  -155158  -156562  -135056   -33475   144826   330225   465389 
  525559   501630   425012   349474   283353   190027    52426   -92891 
 -202165  -278736  -342699  -381897  -373541  -338696  -322417  -315124 
 -259750  -130895    35812   177092   254395   277013   272392   245583 
  194026   139133    80176   -20029  -144718  -224511  -233551  -200811 
 -171009  -174401  -186886  -145927   -39240    64307   102856    97476 
   94667    93921   104613   157802   216748   232763   222641   191959 
  116899     7857   -84793  -116324   -82545    -6244    65115    65948 
  -14573  -107562  -160598  -205386  -270827  -317093  -302247  -201977 
  -24477   146782   245658   291570   309449   284526   215240   144492 
  101412    72473    48731    36625    32615    22536    -2646   -42515 
  -92438  -138295  -147643   -92180     6438    88489   124635   127869 
   99098    23981   -64787   -96279   -43224    59391   149184   162640 
   71427   -84971  -221426  -282549  -271370  -191797   -48818    89754 
  145802   125541    94588    93632   107954   115005   110589    81890 
   24219   -49452  -137295  -235790  -328277  -391385  -383744  -263758 
  -46712   171514   280357   252626   161042    88833    38365   -25614 
  -80263   -80097   -19483    72210   137182   151642   145153   116376 
   56535     2189   -12084    22715    84164   122293   103414    24319 
  -87422  -181908  -229531  -211373   -96975    81029   206569   213688 
  152178    86547    24900   -36913   -83788  -101559   -81997   -38911 
  -17878   -36158   -62545   -69462   -45670    11028    85922   149283 
  171209   144405    82984     1410   -84699  -158295  -214168  -249878 
 -253832  -222724  -167732   -93953   -11810    41271    47631    50594 
   93898   158163   196953   192001   148816    87407    41386    16376 
  -24735   -94494  -149322  -150329  -110266   -70527   -53198   -53093 
  -61776   -58486   -18254    41229    86615   122343   162641   186846 
  148704    37646   -83087  -132079   -86633    11235   103840   155058 
  154391   109743    43015   -17489   -55689   -65669   -43043    -1030 
   30218    25659   -12370   -53626   -67620   -42609    12629    83015 
  150513   182671   157597    94549    33101   -15160   -71281  -138969 
 -191262  -207592  -181640  -116211   -41986    -7677   -28605   -56780 
  -30701    39763   103368   155190   199365   210257   188232   153052 
  105147    52805    20494    16176    22125    16500    -8707   -48702 
  -87046   -98080   -65869    -1975    56326    67941    24470   -42744 
 -100155  -134226  -143676  -124017   -65375    20976    98992   141043 
  142452   108626    46780   -14846   -32280    -5298    12880   -23574 
 -109409  -197145  -248772  -248600  -174404   -31814   113134   182826 
  143343    40439   -32037   -43580   -17481    48200   121634   138479 
  112593   105368   130339   160481   177157   166475    97048   -37032 
 -180876  -274462  -308398  -305253  -279551  -228669  -140814   -10503 
  134723   231124   232277   161468    77023    12563    -7809    41553 
  134740   199340   196870   138757    46989   -45590   -99665  -109485 
  -93693   -58857   -17066    13200    40154    71839    84937    63712 
   22043   -32255  -105703  -182708  -226669  -219037  -170627  -108864 
  -52029       36    37570    57125    82203   110718   124716   142089 
  173571   198761   195758   140243    30940   -80994  -144213  -158680 
 -139744   -88956   -24894    27385    67168    91885    92395    82388 
   71966    52335    45767    81943   130818   144867   118394    64086 
  -14011  -100592  -166033  -201822  -214794  -201175  -160159  -103304 
  -44345    10483    57887    86559    95532   105955   127085   141113 
  133253   100706    43754   -22129   -76494  -118181  -143924  -128733 
  -55456    52249   136271   156737   133160   106954    89114    67798 
   36065     8400    14656    55509    89629    86960    55944    17844 
  -13088   -29378   -27680   -10638    10510    22297    20902     9755 
   -9028   -32356   -56235   -78384   -95599  -101703   -89413   -56238 
  -10169    25378    29492    24293    60628   145629   223579   238939 
  182937    78511   -34424  -108107  -125011  -112924  -109329  -125046 
 -143572  -152628  -153331  -136333   -91407   -32993    20774    69496 
  106852   121413   125919   135253   141094   129538    96166    55218 
   26833     8084   -17575   -54679   -92205  -118998  -142555  -177353 
 -214769  -227625  -196792  -119706   -15909    71795   108414   102048 
   97279   125530   172382   213065   245934   267696   263357   225954 
  157926    67928   -30282  -124735  -203756  -249902  -242718  -171230 
  -59158    24189    19059   -55360  -122837  -134105  -101203   -53727 
  -11651     -459   -18093   -22288     2915    32216    36789     7775 
  -26471   -30367   -11846    -5225   -21465   -48091   -68596   -56325 
    2162    74238   113041   105214    83275    95276   145318   192857 
  214792   211983   176333   108515    38559    -4856   -29829   -60990 
  -99376  -133903  -159028  -160104  -114491   -19574    89300   166595 
  200467   206478   195280   165773   108705    21461   -69490  -127554 
 -145856  -145059  -140008  -127755  -101740   -56561     3276    48127 
   50161    11366   -52121  -108428  -117661   -85945   -58440   -51755 
  -39677     2709    63511   108288   111274    71476    23855    14975 
   50108    94506   121371   120666    87525    35192   -14314   -53674 
  -80370   -87033   -76393   -62926   -51084   -37220   -26360   -20212 
   -7408    20040    52148    71324    76065    80446    90985   102782 
  111164   103043    62855    10628   -12883    -6490     -724    -5426 
  -16416   -41534   -77015   -94756   -78796   -43363    -5623    27737 
   48168    49362    37904    27990    27908    33518    33531    14624 
  -24359   -64869   -95407  -119677  -130375  -108702   -51671    12520 
   45921    40640    19555     9044    28111    72736   111363   122795 
