Origin Time       2011/03/11 14:46:00
Lat.              38.103
Long.             142.860
Depth. (km)       24
Mag.              9.0
Station Code      IWT024
Station Lat.      40.2632
Station Long.     141.2901
Station Height(m) 94
Record Time       2011/03/11 14:47:06
Sampling Freq(Hz) 100Hz
Duration Time(s)  300
Dir.              E-W
Scale Factor      3920(gal)/6182761
Max. Acc. (gal)   134.217
Last Correction   2011/03/11 14:46:51
Memo.             
[...]
  -10626     2322    10550    13475    15243    18072    21063    23363 
   25378    27163    26549    21388    12469     2279    -6454   -10998 
  -10030    -5246      -15     4307     8617    12644    14535    12927 
    7429     -550    -8002   -11769    -8793      -94     7425     9777 
   11716    19961    33855    45036    45889    37585    29493    28008 
   29533    28789    24267    15226     3777    -5817   -11874   -12560 
   -5276     7902    20373    25810    21092     8875    -2943    -8979 
   -8512     -502    13218    25647    32782    36708    39287    39212 
   35780    32950    36809    47748    58787    61748    53923    40080 
   26355    14806     5611     -880    -4244    -4915    -4799    -1999 
   10533    33495    57477    72530    72240    60081    51450    47990 
   33459    10589    -2883    -6739    -8069    -8375    -7694        2 
   17163    34472    45421    47781    38026    24125    23353    32046 
   29519    19625    21736    32945    40724    41317    35953    32129 
   33811    36695    40765    44826    42040    36624    39271    43032 
   34961    21873    13672     8876     9215    14660    18324    20034 
   24006    31759    42178    49244    49131    46693    45454    41145 
   30530    18700    11509     8133     7324    10028    14120    15222 
   10849     3041    -3028    -6638   -12831   -22912   -30693   -30854 
  -23729    -9410    11728    33230    49180    59278    63298    60888 
   53284    41539    28044    16605     9969     9628    15367    25835 
   39501    53203    63693    69886    69630    58993    37949    12946 
   -7145   -16839   -17306   -13592    -8398    -1628     4298     4065 
   -3529   -12908   -18377   -19479   -18208   -14486    -7153     3300 
   15715    28713    38163    39121    32098    22628    16254    16430 
   21871    26580    26777    24714    23831    24108    23556    20450 
   14560     8490     4553     2681     4374    11994    24492    38673 
   51067    57946    57644    51473    40284    24672     8802    -3125 
  -11417   -17504   -22106   -25978   -27200   -21897   -10055     3824 
   15471    22981    25649    22632    14459     5142    -1934    -6895 
   -8590    -4359     4693    13834    20093    26156    36322    49416 
   59561    60343    47277    23614     2316    -5567    -1726     4512 
    8028    10951    15547    20508    24685    27781    29442    31798 
   38704    48891    54037    49341    40805    36754    38421    40522 
   36715    25923    14702    10505    13515    18669    22236    24110 
   27715    34981    41213    42054    39921    37539    33578    26881 
   18819    12207     8954     7665     5731     2809      230     -615 
     405     1910     4227    10128    21165    36333    52251    64236 
   70141    70498    65494    57258    50296    45090    37662    27010 
   18010    14735    14168    10777     3706    -3686    -7945    -7587 
   -2130     8324    20683    28399    26994    19544    12983    11258 
   14650    20927    27559    33477    35023    26636     9173    -9262 
  -20735   -22979   -18839   -11310    -1274    10123    21255    32218 
   43329    51376    51084    41553    28560    18819    14218    13590 
   17605    27674    41448    53631    58835    53640    41219    29514 
   21401    14898    10819    11153    14625    18411    21177    23435 
   25519    26824    26631    24262    20911    19042    16592     8895 
   -3072   -13920   -19297   -17486   -10975    -5190    -3154    -2960 
    -112     8828    23272    38116    48062    51847    49952    41522 
   27116    10854    -2817   -12176   -18156   -20980   -16674    -1450 
   21321    42530    53386    50504    38741    26428    16527     7587 
    1202     1186     7628    16731    24505    28293    27562    24101 
   20365    19732    24399    30179    30508    24599    16722    12189 
   15268    25774    37622    44248    44670    41889    38303    35958 
   36595    39063    41716    45195    48717    48206    41013    29630 
   19301    13696    12775    13193    11401     7750     6469     9279 
   12378    12888    12310    11690     9978     7882     8457    13110 
   19040    22766    25199    28948    32923    34930    34877    31668 
   25257    21826    23765    22597    17032    16216    19843    23073 
   26275    27139    25654    26777    29986    31521    28866    20768 
   12350    11708    19931    31664    42354    50646    54886    53371 
   47301    37980    24685     6859   -13155   -29224   -36480   -35607 
  -29166   -18968    -6794     8373    28675    50327    67036    75870 
   73732    59116    37481    15955    -1967   -14925   -22890   -23640 
  -13327     2679    14944    25041    36755    47994    60059    70427 
   66713    48401    29040    13253      278    -5673    -8649   -17093 
  -21019    -8500     6233     8989     6559     2204    -3676    -3532 
   -2005    -8374   -16065   -19361   -20958   -16067      -20    16553 
   22908    28264    43062    55702    55564    46497    27457      -30 
  -23960   -39212   -45074   -37080   -16885     7595    30942    49662 
   61234    65434    63030    55820    46520    38800    37297    42046 
   45657    41390    30684    20244    14930    14574    16391    19580 
   24392    28599    30578    31869    34494    39851    47869    56847 
   65587    72381    75067    74110    70411    62568    49325    30864 
    9013   -11877   -27108   -33154   -26981    -8498    18169    47133 
   71993    88097    95474    97906    99595   100186    93434    75506 
   50822    25901     4127   -11600   -19718   -23513   -26888   -29773 
  -29902   -25617   -19146   -16252   -19848   -26889   -29967   -21487 
   -2283    17030    28457    33397    35243    34844    33069    30163 
   25335    19307    12586     5138     -304    -1672    -1933    -5593 
  -11898   -12726    -3395     7981    13292    15773    20880    30556 
   44721    58958    66937    66280    58825    46844    30661    11324 
   -6811   -19393   -25740   -26732   -21420    -9775     4373    19155 
   37966    61156    80109    84039    71041    49359    28206    12534 
    4334     2443     4230     8796    15854    24398    31784    34139 
   32114    30976    32137    32381    29843    24759    18765    14873 
   14020    14144    13603    12860    13820    17313    21168    22880 
   22725    22359    22312    21469    17721    10001     -177    -9513 
  -14195   -12001    -4486     4179    10624    14357    15517    11442 
     211   -12905   -18699   -14058    -3684     7601    18615    28715 
   36019    37961    31855    17648      787   -10740   -12518    -5563 
    6553    21226    35683    43620    40533    30778    20871    11055 
    1237    -2896     2535    13897    26599    39455    52029    64218 
   76223    85068    85980    79751    71654    62975    52454    42731 
   37357    36089    36520    36429    35284    35557    40086    47107 
   51620    51994    50403    47300    39705    25036     4645   -18007 
  -40143   -57971   -66074   -60781   -43716   -21860    -1199    17938 
   36561    53375    65756    70471    65264    49028    21033   -14801 
  -48676   -72810   -84350   -81660   -66360   -44111   -18680     7876 
   29932    42602    49111    54921    59619    58992    48998    31082 
   14821     8969    15062    31000    51562    68353    76320    74919 
   63660    44865    25201    10176     2286     1784     7285    17819 
   31979    46577    59175    68368    70963    63957    48951    29834 
    8166   -15171   -37238   -54429   -63771   -63038   -52844   -36869 
  -17949     1812    18330    29079    35419    37818    33912    22052 
    4329   -13434   -24852   -26277   -18265    -3603    17089    42717 
   65905    78118    77815    68870    55598    41281    27415    13699 
    1189    -6147    -5404     1875    11387    18660    20487    17189 
   12991    11631    14023    21847    37775    59796    80966    96061 
  103163    99642    85254    67301    52284    38853    27487    23436 
   23909    19348    11209    12113    27309    50694    75401    95140 
  103934   103542   101041    97365    86033    62778    33044     5388 
  -18715   -38446   -48062   -46445   -38528   -25874    -5630    21452 
   47800    66411    75918    76336    67522    51127    25307   -13501 
  -55665   -84662   -98739  -103786   -97952   -84196   -74700   -70531 
  -63810   -55144   -45566   -30625   -12997     2050    16320    27701 
   29013    20934    11474     6615     3682    -2751    -9749   -13879 
  -20055   -29719   -36025   -35353   -27922   -12631     8514    30954 
   54418    81124   109839   136368   155605   162688   156213   136567 
  103030    58382    11332   -27313   -48054   -46532   -28794    -9387 
    2688    11326    21802    32874    41171    44204    42113    37360 
   32813    32771    36453    35467    29222    25399    23572    20871 
   22829    29393    28071    15210     2405    -3617    -3450     4369 
   17338    28279    34888    39103    40752    38455    31615    20392 
   10430    10020    18694    29841    39958    48528    56700    67186 
   80314    89754    85614    65440    39406    20684    13763    12107 
    6990      409    -3293   -10169   -19472   -21597   -22052   -29515 
  -32845   -20318      685    17644    26440    27749    21233     7303 
   -4988    -1965    18611    43961    60633    67039    62149    38993 
    6866   -13976   -21536   -22871   -18630   -12799   -10003    -6902 
   -2335     1931     8020     7960   -13894   -47545   -64270   -62218 
  -56332   -38708    -2009    35929    61414    74729    76694    72007 
   66949    62322    59052    60726    64332    57461    39506    29753 
   32263    31891    30562    35153    38494    41338    51534    66744 
   81173    94317   106582   114634   113956   100145    69469    27479 
  -12523   -44963   -69386   -83457   -93622  -107559  -114953  -100754 
  -65811   -20023    26924    61364    73472    71008    66526    58028 
   39400    17323     1550    -6425    -7977    -6375    -7035   -12160 
  -19795   -26287   -30169   -30590   -23641    -8697    11191    37700 
   72897   109943   135856   141873   130502   108541    75686    32876 
   -5914   -28369   -39743   -49042   -51767   -39434   -15289    13428 
   45638    77155   100730   114394   114264    95000    62172    27727 
   -4909   -37287   -60480   -61996   -44509   -18525    12736    45592 
   71639    90444   107567   123420   136737   144908   137003   105164 
   61299    25646     6977     4772    13896    23279    27247    30147 
   31668    28448    25220    23205    14349    -5349   -34756   -69919 
  -96872   -98804   -75474   -40757      -18    50160   102445   141077 
  156941   149281   121456    78304    26144   -25707   -67546   -93642 
 -102733   -95636   -73633   -36380    17264    79726   134613   171746 
  188183   178316   138663    77922    15050   -33115   -61131   -72502 
  -73364   -69339   -64926   -60155   -51228   -43380   -47977   -64671 
  -85235   -99816   -95789   -72996   -46384   -24416    -5972     5334 
    3468    -9696   -27916   -47451   -68035   -86932   -91616   -74018 
  -46547   -24185    -8601     -459    -3037   -15177   -36970   -69996 
 -105795  -128405  -127834  -103429   -61838   -15392    25897    59792 
   86479   106341   119657   121349   105811    74525    34264    -1794 
  -18363   -14182    -2598     9680    28348    51457    67659    74891 
   75946    70751    66877    69887    71199    68583    72009    81768 
   89375    94378    98596    95236    84951    85056    99226   108349 
  105222    99739    95865    91827    86134    74679    54620    31050 
   14401    10829    18053    29222    38831    47528    60069    77748 
   94746   104070   105693   104106   103908   107179   107211    93996 
   65752    29299    -4799   -30282   -46398   -50162   -40266   -22887 
   -6432     1889     1236     1066    12129    40980    87815   138184 
  171992   180664   161618   115243    53325   -10400   -67912  -110481 
 -136447  -153818  -161496  -150385  -119885   -74443   -18582    36026 
   69637    69766    46987    16150   -26707   -78643  -116733  -131015 
 -129926  -120525  -104249   -76880   -37190     5397    44510    81649 
  112379   124776   109969    69717    15494   -41282   -91936  -124318 
 -126834   -99501   -54934    -8267    33248    68790    95915   113759 
  126330   132599   125619   102880    66639    22845   -16470   -42275 
  -54767   -55073   -44262   -28041   -11963     2425    14336    20797 
   19933    17650    24005    40371    58779    76146    97918   122248 
  136005   132883   118396   102391    95294    89762    62705    18844 
  -14987   -34280   -39916   -21211    14444    50211    86054   119543 
  136438   135447   127791   115671    94528    60880    12606   -39123 
  -73984   -86958   -81434   -55886   -20092    11165    42049    78674 
  108360   117553   104205    68830    16919   -36954   -81112  -112215 
 -129004  -130583  -115866   -84193   -39442    11381    62172   108112 
  143666   160905   153678   122163    72230    13829   -44088   -94642 
 -127543  -133375  -110291   -64643   -11411    35044    70304    93294 
  103378   104173    97881    81813    53385    13921   -28704   -62442 
  -78474   -75668   -61696   -46320   -30248    -8346    16859    35595 
   42380    37108    20550    -4950   -34812   -59307   -67379   -59925 
  -42586   -12488    30209    76554   117880   145660   153186   139492 
  104552    51918    -6468   -56347   -84044   -79881   -46761     4307 
   64538   125673   177187   212635   231528   230058   201545   148009 
   77685      -94   -66517   -99159   -92584   -56704    -4679    46897 
   86452   114501   131885   137070   130902   112986    82367    41401 
   -1767   -34597   -48717   -43199   -23184     3144    32721    64780 
   92389   108448   108784    88863    51844    10687   -24001   -49055 
  -66129   -79680   -91523   -98349   -97009   -86968   -68290   -41880 
  -13078     7952    12370     -809   -22528   -40918   -51357   -54220 
  -49741   -41416   -38556   -48917   -64826   -69860   -61936   -44401 
  -14720    17400    37771    44085    34162     8241   -23941   -54098 
  -76216   -82289   -67866   -34648     7321    42498    66874    80215 
   68686    32937    -3507   -29490   -45782   -51218   -47700   -30268 
    9306    58447    98319   127340   148030   159477   158696   135634 
   90024    38532   -10720   -56434   -87127   -96123   -89331   -75156 
  -59711   -39756   -11159    16173    32773    40701    40238    29845 
   15904     7268     7493    15611    32175    60532    95662   121561 
  128376   121551   109988    94400    71719    45081    21464     3755 
   -8299   -13980   -12676    -6803      752    10112    21824    36515 
   56449    80652   102637   114169   109312    91426    72944    61226 
   52851    43645    35051    31405    36243    48718    62443    72404 
   80866    90977    98207    92410    67146    26047   -20003   -58631 
  -79363   -81881   -77284   -69887   -53948   -33564   -19288   -10525 
   -3977    -1698    -1779    -1983    -4505    -6604    -2354     9694 
   28655    50959    67133    68449    58916    51439    50250    50736 
   51522    51768    47356    35856    18834     1305   -13910   -30183 
  -49880   -67354   -71091   -53930   -20637    17372    48036    61095 
   56403    43778    30449    19334    13914    16412    26742    42053 
   56695    66137    69872    70304    68860    63789    52842    36432 
   16804    -4004   -22146   -31040   -26739   -11193     9700    29078 
   43081    50500    48865    36307    15461    -7449   -25758   -36392 
  -41556   -43517   -41243   -34088   -23814   -13092    -4368      235 
     715      887     2249     1622      632     5934    20499    43420 
   69497    88857    96435    95557    90701    82777    68964    47599 
   22471    -1020   -19239   -31533   -41178   -49382   -52898   -50518 
  -42626   -28570   -10795     7475    28674    55229    80619    94766 
   95589    86994    71142    52502    35372    12625   -18451   -40407 
  -43086   -38935   -36973   -35125   -35731   -42976   -51537   -52883 
  -48113   -42941   -36864   -26832   -11472     9917    32792    48327 
   51250    40776    21245      504   -18031   -33258   -41142   -40433 
  -35541   -31697   -31344   -32967   -31194   -18792     8078    44892 
   80803   107716   125346   133793   129753   116277   103465    97691 
   99388   105334   110233   111453   109240   102878    92266    79590 
   67116    56855    49748    44150    37682    29557    22633    23045 
   33602    51158    72172    92899   107207   111950   107460    91891 
   63484    24453   -19313   -58963   -86724   -99081   -95229   -75805 
  -43570    -5071    29730    51448    55460    43392    20870    -6155 
  -32697   -54288   -65523   -58947   -30038    15413    64217   102661 
  117399   102988    69397    30319    -7892   -40743   -62554   -69905 
  -58913   -25648    24479    76267   112802   122005   106270    81494 
   57254    29845    -2345   -31132   -47182   -48587   -40566   -29475 
  -18119    -4622    16755    48377    81687   106456   121120   126186 
  121000   107898    91383    76268    62810    44758    19268    -8931 
  -34515   -55033   -69946   -78869   -80566   -74605   -64490   -56613 
  -52581   -48541   -42865   -34472   -18196     7658    34010    49210 
   49443    37242    16714   -10133   -43049   -77155  -101967  -108836 
  -97829   -75532   -48626   -21594     5449    33879    58545    73016 
   80423    86550    90042    88400    82235    71174    55077    37198 
   22771    17259    22005    28746    27711    19840    13212    14603 
   22772    29261    34396    48166    71416    92586    99330    89994 
   76613    67394    54482    36706    30397    38551    42268    32149 
   18531     7732    -7571   -27976   -43174   -50488   -53318   -50603 
  -40619   -24838    -6822     9457    22368    33250    42045    43275 
   30629     5030   -25640   -51923   -66092   -64330   -47944   -22756 
    4562    31024    56631    81190   103296   120135   127506   120745 
   99368    71273    46619    30671    24858    26468    30586    34927 
   34479    21454    -2461   -27419   -46379   -55239   -49395   -27771 
    2523    31695    53703    64632    66341    68389    75882    85351 
   92730    96256    95027    87258    72014    51974    29883     6068 
  -18162   -37920   -47766   -47821   -42892   -36245   -27720   -14099 
    7194    33439    59652    82012    98298   108433   111829   105786 
   87428    57309    22683    -7158   -29656   -48380   -63224   -67959 
  -60329   -44084   -22047      -33    12450    13584     7530    -6165 
  -29145   -55883   -75160   -78955   -69855   -57226   -46570   -36432 
  -24502   -12363    -2417     4366     5918     1735    -3007    -3429 
     658     9908    23854    37611    48897    58543    63854    62129 
   55452    46295    36334    28495    23785    21752    23613    29311 
   35565    38122    34353    25397    14700     5026    -1373    -4460 
   -9009   -18711   -29351   -33746   -29096   -17089    -2825     9042 
   20568    35427    50941    63068    71602    77730    82722    85963 
   82890    69717    48260    24444     3886   -10339   -15749   -10781 
    3710    26550    55786    87502   117435   140572   151383   146639 
  126970    97615    66796    41632    26533    21167    19640    17301 
