Origin Time       2011/03/11 14:46:00
Lat.              38.103
Long.             142.860
Depth. (km)       24
Mag.              9.0
Station Code      IWT011
Station Lat.      39.1453
Station Long.     141.1527
Station Height(m) 43
Record Time       2011/03/11 14:46:51
Sampling Freq(Hz) 100Hz
Duration Time(s)  300
Dir.              N-S
Scale Factor      3920(gal)/6182761
Max. Acc. (gal)   199.145
Last Correction   2011/03/11 14:46:36
Memo.             
[...]
   -3772     1593     5219     3529     1587     2918     3664     2829 
    5559    10474    12054    12372    13516    13194    12466    11374 
    6941     2939     4296     4798    -2773   -13046   -18652   -22242 
  -25381   -23330   -19399   -21320   -25135   -22802   -14915    -5805 
    3271    12022    18367    21802    25045    30368    35838    35042 
   26990    19474    15903    14092    11491     3865    -5113    -6026 
    -656     5140    10779    15693    19007    17769    10269      441 
   -7628    -8424     -281     6451     4431    -1335    -4725    -6117 
   -7533    -5855    -2056    -5644   -15105   -18855   -18934   -23649 
  -27559   -24131   -20600   -22318   -21892   -14757    -6787    -3049 
   -1821     1905     9217    14744    15592    13494     8826     2363 
   -5178   -11575   -10260    -2787     1916     2581      376    -5344 
  -10875   -13975   -18296   -24841   -27461   -23107   -17530   -13802 
   -9487    -3745     3661    11494    17324    22392    26672    22848 
    6553   -11916   -21338   -24567   -24957   -20434   -16941   -22094 
  -29734   -30286   -26545   -24945   -22519   -14460    -5133      147 
    5552    13647    16357     9944     1430    -5740   -12355   -12974 
   -2725     9974    12017     5820     2859     1243    -6567   -15917 
  -18181   -14186   -10323    -6596     1238    11279    18995    22750 
   23000    20392    14041     6971     2423    -4481   -13434   -16437 
  -15343   -17642   -21369   -17702    -5695     2850     3392     6073 
   12856    15515    11167     2555    -3466    -3508    -4821   -11562 
  -18816   -22856   -22075   -15474    -6372     -189     1578     1172 
     829     2383     5183     4022    -4900   -17890   -25613   -23526 
  -17988   -13979    -9081    -4461    -3303    -3682    -3894    -3559 
   -2846    -6953   -18909   -32576   -43241   -50245   -48230   -33370 
  -11195     9783    23412    28313    28524    27959    27584    27186 
   26047    23782    21939    21774    20098    12720     1271    -6391 
   -6571    -8997   -19059   -24155   -19199   -15685   -17026   -17620 
  -18268   -22672   -29853   -35586   -38082   -38464   -34124   -23415 
  -10422     4273    19490    26933    23756    13804    -1341   -16447 
  -21631   -14119    -1495     6654    10705    16299    16200     2411 
  -13215   -18988   -20708   -24447   -27426   -28652   -30475   -32160 
  -35186   -43258   -48287   -37693   -18151    -9311   -12490    -9172 
    6184    20723    28972    34874    37637    36523    36788    40034 
   39874    31908    19490     4833   -13410   -27576   -26921   -15299 
   -5091    -4204    -9864   -14087   -19223   -25145   -18360     1857 
   21310    30024    23293     7265    -2367    -1645    -2938   -14528 
  -28889   -39650   -54370   -70240   -64897   -35810    -8756     3613 
    9069     8689       83    -4108     6744    20398    25100    29189 
   36075    30391     6180   -18493   -28528   -30351   -33642   -36059 
  -34851   -32268   -25082   -11151     2266    12630    22050    24315 
   16194     7578     7941    16776    27760    34784    35119    27215 
   11061    -5704   -13465   -10435      961    16290    27610    28608 
   22532    22058    32111    41572    41025    31660    15618    -5048 
  -22858   -30656   -28036   -15994      364     6246      136     2090 
   17806    31412    36524    40278    43396    37641    23033    10117 
    1632    -6235    -7490     3113    12499     7503    -5048   -14457 
  -20005   -23833   -25905   -23632   -15591    -2739    13537    26771 
   30461    27121    20523    13163    12847    22135    29007    24890 
   17212    10711    -1879   -19935   -30592   -29307   -24301   -19939 
  -14070   -10955   -15100   -20528   -21230   -18611   -17525   -20319 
  -26718   -37460   -46337   -45096   -41491   -45548   -49825   -43532 
  -30880   -22212   -14332     -632     9551     9679     6853     2299 
   -3795    -2579     7182    15079    16286    14429     4939   -15587 
  -27738   -18136    -5287    -7043   -17515   -24217   -24022   -20401 
  -15491   -11401    -9613    -4497     6930    19736    34806    49638 
   51727    41410    26144     4754   -14693   -17436    -9272    -4893 
   -3847    -3303    -7597   -15861   -19662   -14117    -7138    -9814 
  -24846   -51422   -77908   -83305   -66687   -43835   -18542    12137 
   39183    49405    44780    38618    37661    40263    45194    52002 
   53313    40821    22308    12921    13158    14302    15321    19556 
   22459    17966    10532     3605    -6583   -16447   -20509   -21885 
  -21012   -17884   -20275   -29771   -40219   -50561   -58853   -58276 
  -48037   -36224   -29603   -22758    -9857    -2356    -5778    -3028 
   11916    23370    21548    11299     2809     2227     9281    17708 
   16596     4108   -10386   -22095   -29496   -26980   -13816     1506 
   10996    16747    27270    40747    46277    41596    28999    10509 
   -5344   -16709   -31471   -48290   -62417   -74689   -77596   -59759 
  -31850   -17641   -13263     2552    23665    32079    32636    34581 
   29330     9539   -13237   -27115   -35045   -40460   -38766   -29038 
  -16134     -598    13210    10755    -7637   -20111   -15455    -2929 
    7113     9172      742   -12893   -21011   -20479   -18114   -15670 
   -9432    -4647    -6804    -9968   -13492   -25794   -38973   -32789 
   -9950     7426    14403    20836    23410    17612    15389    20942 
   23160    18180     8695    -2012    -5987     -740     2925    -3798 
  -12362   -14185   -19540   -31638   -33587   -21479    -8265     1972 
   10548    14983    17594    21700    24774    29669    41572    54728 
   61158    58593    46900    27309     3679   -16072   -26715   -29495 
  -25313   -17568   -11667    -7664    -4598     -291     9416    20489 
   25791    29720    37801    41783    37115    33417    32622    28768 
   24656    21372    12623    -1127   -15072   -29132   -40714   -42604 
  -37669   -37080   -33867   -13107    11985    22000    24003    30447 
   39606    42904    37180    24974     6571   -12580   -23472   -30150 
  -40896   -49200   -45047   -38146   -41689   -44504   -31948   -12640 
   -2008     2742    15213    33878    44989    44988    37354    22016 
     443   -23044   -42624   -51090   -48033   -43033   -46422   -59592 
  -68926   -54427   -18567    13022    28820    35859    37159    30347 
   12657    -9767   -21185   -20259   -19492   -20835   -19233   -16864 
  -17010   -15882   -10744    -6753    -6898    -8434   -11707   -16602 
  -19714   -18141    -8336     2637     3622     4163    12948    18775 
   17634    20829    35470    52327    57067    52381    47348    38700 
   25453    13115      319   -11119    -9970     1503     4815    -2394 
   -6471    -8655   -17199   -27899   -32457   -27923   -21622   -22435 
  -25569   -25720   -25717   -21524    -4390    24008    47832    52240 
   40720    23779     7626      644     2137    -1501   -13078   -25317 
  -36143   -42787   -41435   -32797   -21287   -14070   -11946    -7254 
    3972    17861    28614    32922    28391    16948    10248    15061 
   19361    12778     7919    15654    20835    12880     7302    13574 
   17845     9783     1260     6642    19252    28485    37948    43383 
   33304    14837    -1000   -13752   -19131   -14199    -8156    -8049 
   -8050    -1737     6754    10986    12025    12901    11515     7561 
    8251    16978    25321    24380    16518     9156     3457    -1494 
   -3056     -575     3482     4610    -2384   -14804   -24995   -30967 
  -32109   -26348   -14202     2371    17603    24629    23200    14540 
    3247     -686     1052      161    -1189    -1157    -1286     1417 
    5079     5138     7842    18634    26176    19384     9130     8170 
   10783    12208    16753    24502    26752    13622    -8893   -28369 
  -46961   -64528   -72686   -73686   -72177   -65036   -54043   -46648 
  -40921   -28337   -12456    -4592    -3714    -2568    -2595    -4221 
   -3875    -7601   -20578   -33980   -39457   -36734   -24452     -785 
   22977    31029    31516    43331    62360    72665    71822    64481 
   49493    30122    18387    15561     9672    -4236   -17528   -21579 
  -22449   -28763   -30402   -16355      699     2431    -6364    -7609 
   -5126   -14202   -22645   -16402   -14028   -29309   -44477   -41619 
  -28005   -19811   -15976    -9329    -5076    -3271      570    -1867 
  -11367   -17299   -17412   -12118    -6099    -7508   -13503   -23874 
  -46122   -71076   -75109   -53631   -27957   -11006     3122    12372 
    7892    -4940   -16631   -26171   -27932   -17833   -10302   -14443 
  -19225   -17924   -14694   -14446   -16467   -16330   -19920   -31075 
  -39722   -43583   -44900   -41133   -35016   -24062    -5457     8599 
   12051     9299     -160   -10645   -12921   -12696   -16375   -18795 
  -20886   -27222   -29568   -19499    -1764    14753    27912    39364 
   44334    38945    32311    31596    25504     6048    -6377     3200 
   10327    -3679   -19535   -22291   -18597   -10128     6547    22048 
   21323     7538    -4050   -14337   -28914   -37098   -34157   -27752 
  -18810   -11300   -13853   -21350   -27026   -33421   -34008   -15644 
   16003    37022    34201    17780     2798    -3402     -318     3454 
    1586      986     5216     4502    -6849   -19151   -20072   -12954 
   -9846    -9229    -6740   -12758   -28274   -35549   -31359   -28415 
  -24855   -10136    10193    20675    18376    11989      311   -22600 
  -41825   -38974   -22802   -10761    -6551    -3384    10196    33584 
   52587    66018    79637    83852    68787    41942    21527    15127 
   11176     2291    -9296   -24591   -38485   -42205   -35854   -20968 
    2024    29016    49984    50474    33881    25069    30525    33829 
   29076    20066    13288    17035    21546    15480    14875    30621 
   48361    55935    47683    26922    15125    20926    32410    48182 
   66667    75208    66839    37546    -2212   -21699   -12618     6847 
   29239    50564    64040    75654    82373    66358    32070     2165 
  -14488   -24429   -35119   -41759   -37624   -31244   -24456    -6235 
   15909    26260    24634    10981   -13999   -38118   -51604   -46701 
  -19383    15161    45935    78861   102108    97971    81657    72058 
   58246    25597   -18279   -54239   -76826   -94770  -104493   -96878 
  -78979   -55518   -26098    -3656     3283     3733     4694     2697 
     611     7516    13613     4205   -13299   -32439   -57011   -79422 
  -88919   -85658   -76374   -70561   -70719   -71100   -71832   -77027 
  -84887   -89495   -86488   -77186   -66803   -57935   -45631   -23646 
    2004    20833    35814    56736    81271    90434    70140    33494 
   -2963   -40399   -61310   -40103    -1852    23081    48884    77625 
   92144    93881    90800    90967    93304    85477    72164    63275 
   52301    32985    10699    -1227     6668    24746    31487    18126 
   -6807   -37088   -70398   -90235   -81121   -55790   -31726    -4595 
   28345    56301    77710    98845   117928   129913   128453   107652 
   76320    49970    26023    -5304   -33598   -42241   -39069   -47234 
  -70086   -89235  -100168  -108304   -97057   -57363    -7003    44673 
   89554   110582   107793    91606    62397    22782    -2435     2531 
    6800   -14984   -42203   -62665   -86615  -103761   -99166   -83805 
  -76404   -89222  -124165  -163065  -182021  -171447  -134188   -89342 
  -65039   -62930   -62307   -53078   -33971    -7873    20094    52404 
   83384    94962    87000    76124    67894    64073    73366    88045 
   84727    56044    11469   -37161   -78426  -103658  -111617  -113271 
 -115845  -111139   -93059   -61834   -23312     9667    32283    46690 
   53572    56042    54259    42604    23007     8989     9531    18773 
   23644    15040    -8956   -44341   -77512   -92671   -88573   -71631 
  -44781   -14540     8952    21851    31769    47631    67460    89688 
  113593   125251   119645   112329   105778    91521    83229    95848 
  111571   109486    99153    92968    84715    69481    46817    12842 
  -28289   -59178   -65822   -55518   -41152   -12687    39592    92295 
  119730   124873   114217    79373    19506   -43428   -79727   -74952 
  -43169    -9596    13776    15110   -11129   -37934   -47808   -61426 
  -80881   -81375   -68263   -69695   -83782   -77139   -30869    36556 
   98846   147895   179814   183558   152462    92838    21361   -39475 
  -71563   -78297   -80672   -88138   -90295   -81707   -75146   -82046 
  -95065  -103090  -110707  -128159  -155179  -181746  -193031  -178044 
 -140646   -97113   -64176   -48797   -45670   -44758   -37009   -16696 
   11156    31360    33241    18572     -799    -9475    -6249    -3786 
   -4413    -8390   -20652   -21651     8614    48652    77015   101307 
  123551   136906   142815   149116   162957   173342   157168   105978 
   30860   -42280   -94954  -126029  -124582   -83827   -31957    -2668 
     310    -3179     4053    22008    46550    77467   107112   122885 
  122457   111339    93959    76477    58357    32758     7968    -6063 
  -13227   -11073     2563    14208    15392    11068     1907   -19486 
  -50605   -72557   -70874   -44790      850    44762    57583    47844 
   47866    59107    72912    93691   116476   141472   175124   202208 
  198154   158225   118514   118911   154245   211224   259618   236611 
  147388    57782    11729    46277   136323   179192   147451    94352 
   42493    11768     8432   -27235  -109384  -187308  -259742  -316168 
 -289626  -170753   -32833    66670   121195   120190    58986   -28162 
 -120733  -205257  -246681  -246215  -228412  -192280  -147659  -114574 
  -87507   -61146   -34363    12615    88882   164046   193764   163142 
   81854   -25983   -94483   -76987   -18911    24053    37497     9097 
  -46935  -102037  -160657  -206558  -201432  -165324  -149536  -166481 
 -197315  -211877  -171145   -64046    58819   124569    98048     3619 
  -97082  -163449  -185390  -159573  -120163  -117052  -146701  -181899 
 -201931  -174303   -95654   -16140    24688    38635    54314    88173 
  137892   177903   195365   200870   190705   167598   144364   103332 
   43191      314   -22134   -42131   -53368   -54836   -54961   -53748 
  -51462   -39664    -7923    34073    73814   102431   103902    79327 
   49940    28772    33715    75343   122270   158386   195370   204551 
  158751    89099    37409     8449   -27263   -91066  -162443  -198872 
 -178386  -116594   -32662    63929   142195   174058   163672   122192 
   64157    15661    -9011   -24166   -33183   -22267   -19613   -47850 
  -71758   -78014   -82943   -85202   -87424   -89121   -81949   -82315 
  -99037  -105787   -91560   -70747   -43566    -7372    20745    29190 
   23096    11704    13450    33447    46723    46413    47527    40575 
   11677   -27540   -67331  -113572  -158524  -169477  -131024   -72564 
  -19124    38533    91351   110473   104499    99384    99636    95038 
   69034    16871   -46221   -97610  -115542   -90688   -45036   -21821 
  -25634   -25893   -25710   -35808   -38713   -34411   -38086   -47005 
  -54385   -58880   -55467   -36186    -5912    14100    12591    -2442 
  -19524   -28942   -27316   -25737   -39843   -74687  -125613  -176097 
 -208167  -225777  -234346  -224331  -191911  -139086   -76199   -23143 
   17164    56362    92068   102929    86497    95439   155205   187767 
  157371   136331   137898   131067   134239   143603   148578   156608 
  142314    96711    50721    25721    20832    20375    15711    12810 
   12409    10020     7985    12132    21902    31387    33552    21341 
     706    -6683     2206    -2448   -35637   -72690   -90076   -94102 
 -100729  -100574   -70265   -17732    29273    57537    61006    37663 
    1077   -24213   -20350    11855    60409   114168   167053   214085 
  244714   257596   264173   257453   216973   145361    65506    -1739 
  -43595   -55760   -40853    -3921    49685   112682   169633   195466 
  173483   112091    30833   -53848  -117411  -135835  -116450   -90226 
  -79301   -83230   -88486   -90884   -88413   -71572   -50221   -51778 
  -91934  -155459  -203543  -222530  -223491  -201671  -154721   -97054 
  -47849   -26282   -28660   -35874   -48024   -63637   -61564   -41484 
  -25258   -16923   -12944   -12474    -7581    -4167   -13358   -25215 
  -34489   -53284   -80890   -95828   -86167   -63698   -35593     2569 
   40205    53550    31215    -7435   -27995   -27994   -27686   -20284 
    1146    12582     3772   -16587   -43260   -61952   -71189   -86417 
 -105969  -125795  -144445  -145616  -122009   -87985   -51376    -4288 
   45715    76610    96779   135135   192104   232499   220970   159004 
   75328    -2226   -57936   -87194   -85447   -65252   -56129   -61469 
  -64798   -55972   -31631    -5396     1214   -11853   -26935   -34121 
  -34812   -30036   -13633    21696    64061    93970   111663   121708 
  125409   129565   137432   147433   154136   154208   152544   150380 
  147192   147620   158379   183022   204190   197337   165098   119146 
   61780      895   -51421   -83402   -91370   -94989  -115716  -150366 
 -190723  -238845  -285645  -308991  -303133  -277255  -226578  -144096 
  -56813    -1482    27761    50903    60891    63376    78151    91325 
   91454    98385   109660   102537    79546    54647    36248    28550 
   21859     8133    -7813   -25580   -44827   -56558   -47830   -11801 
   32008    60162    83126   106180   110422   106991   117307   127717 
  130312   133487   131085   111527    70230    17537   -22395   -39570 
  -43123   -36334   -19429    -7514   -12379   -29263   -56363   -90317 
 -116252  -133269  -156537  -184024  -191279  -157776   -91776   -30390 
   -1248     5223     1276   -20598   -49246   -59014   -56327   -61009 
  -71335   -81704   -91927   -91660   -69824   -29742    20290    70450 
  106579   124750   131985   123424    87502    32257   -21895   -61906 
  -76582   -57813   -19283    15104    41729    68867    92696   103689 
  102355    95499    84698    69778    48664    10733   -38951   -71095 
  -76303   -74750   -73049   -57150   -28326    -7539    -3676    -7701 
   -9366      224    24106    51182    69006    77841    85214    95102 
   97075    78187    50503    32322    21560    12606     4561    -1525 
    1368    14345    23869    19426    13472    25335    50895    75733 
   99912   123285   136313   137791   133508   123438   107400    89539 
   71497    50885    25238     -966   -17190   -28030   -46937   -65493 
  -68868   -56952   -35380   -11587    13705    42014    64064    76478 
   81552    74592    60675    48040    29078     -243   -32230   -60486 
  -81953  -101953  -129145  -163182  -201567  -240880  -269943  -275172 
 -246902  -188271  -122977   -80161   -70345   -81253   -93814   -97653 
  -85421   -53295   -24114   -25984   -50957   -81622  -117647  -156157 
 -192370  -226915  -251619  -253693  -233596  -200994  -164378  -134152 
 -122431  -126730  -124529  -100112   -60878   -19685    15713    38784 
   47179    43171    27443     1637   -25692   -48611   -77025  -123591 
 -180210  -225453  -243626  -229648  -194729  -154037  -106383   -51812 
   -5598    22253    34907    36898    32068    26146    18139     3733 
   -9015   -14916   -21183   -22803   -11948     3506    21151    42733 
