Origin Time       2011/03/11 14:46:00
Lat.              38.103
Long.             142.860
Depth. (km)       24
Mag.              9.0
Station Code      IWT003
Station Lat.      40.0083
Station Long.     141.8885
Station Height(m) 7
Record Time       2011/03/11 14:47:02
Sampling Freq(Hz) 100Hz
Duration Time(s)  300
Dir.              U-D
Scale Factor      3920(gal)/6182761
Max. Acc. (gal)   71.632
Last Correction   2011/03/11 14:46:47
Memo.             
[...]
   -1721    -2857     -107     8155    17690    20614    16248    10616 
    8802    13754    22779    26900    19507     3113    -9909    -8633 
    1631     3320   -16054   -48118   -66272   -53555   -18880    17470 
   36288    26716      188   -19509   -21586   -12480    -5495    -6069 
  -10178   -12021    -5995     1886    -1119   -13356   -26193   -38005 
  -48006   -50890   -43594   -30676   -19703   -15906   -20198   -25799 
  -20757    -1128    21146    26255     8054   -14993   -24124   -18489 
   -5071     3781    -2593   -19739   -33218   -28054    -4745    13246 
    9674    -7087   -25189   -35662   -27563    -5067    10945     8767 
   -6428   -22154   -26310   -15022     6321    26632    33414    20244 
   -6118   -26624   -26766    -7769    19319    35697    25338    -4381 
  -29203   -33513   -19658    -1410     5922    -6456   -32172   -51721 
  -54084   -41591   -20651    -5311    -5824   -15783   -25476   -29775 
  -26092   -18822   -15483   -18105   -25007   -31818   -34698   -32915 
  -23911   -11704    -7724   -11657   -12830    -5245     8733    19699 
   19925    10757    -3737   -17864   -21610   -12048    -1300    -2278 
  -11112   -15602   -13817   -10599    -8334   -10162   -15726   -15896 
   -6852     5322    10949    -1561   -24647   -30086    -9735    17170 
   31680    23858    -3421   -29141   -31150    -9458    17506    33965 
   32964    13732   -15813   -42457   -53024   -38528    -5973    19606 
   17212   -10458   -41463   -53374   -41397   -18717     1529    12878 
    9999    -4226   -17841   -24207   -22770   -12602     3838    18276 
   23126    17666    10039    10717    18590    23477    19183     4433 
  -17197   -34290   -32224    -9384    13717    17689     4133   -15269 
  -28673   -28907   -17588    -4675    -4073   -18106   -33522   -38045 
  -28404    -9630     9045    21961    21344      453   -28117   -45547 
  -46459   -32406   -10222     6503     7322    -5216   -17130   -16071 
   -2050    12718    16729     9357    -3962   -12343    -7155     1829 
    1154    -7804   -17754   -22237   -22205   -26077   -32013   -35359 
  -37889   -32662   -14953     2645     4114   -11338   -25344   -24307 
  -13303     -150     6854    -2160   -23630   -38594   -33267   -17048 
   -9913   -16342   -23591   -18991    -2798    13372    17882     8876 
   -4695   -12062    -6529    10067    22824    20241     2762   -24814 
  -45175   -40399   -13947    17009    30049    13166   -15285   -25293 
   -9646    11643    15184    -1496   -19714   -20207    -1371    18454 
   18267    -2948   -25939   -33528   -26888   -19818   -23807   -37699 
  -47872   -42588   -26819   -18530   -29963   -51705   -57874   -36645 
   -6622     7058    -1194   -19452   -33841   -34147   -16951     6902 
   21924    23883    19018    13523     8109     4773     7053    11502 
    9646    -3961   -23268   -35711   -37585   -30567   -17720    -8805 
   -7521    -8001   -10146   -14607   -19031   -24414   -26351   -15950 
    4707    20260    17677     2542    -7983    -3820    13665    34534 
   46821    43269    18488   -20678   -46706   -43122   -23799   -10335 
  -14951   -34467   -50549   -45973   -20346     7593    12843   -11490 
  -44622   -58214   -44068   -21974   -16999   -31931   -46787   -41514 
  -18138     3712     6914    -8632   -22093   -16049     4136    25322 
   32641    15415    -9834   -14768     3708    26588    35562    24688 
    -698   -29040   -46066   -43154   -25103    -8932    -5058    -6769 
  -10205   -17867   -24431   -23794   -20026   -22121   -32388   -43102 
  -44443   -32635   -11676     8816    21290    26308    27401    27283 
   29144    30007    19791     -811   -17226   -21467   -17630   -11165 
   -7558   -13936   -26823   -29288   -13672     6372     9524   -12237 
  -43194   -58471   -46531   -17682     4806     5331   -13436   -33174 
  -33298   -13478     7700    13763      979   -15903   -14795     4240 
   20192    21669    13670     3989    -1415     -342     3602     3769 
   -6803   -29767   -53749   -58194   -35924    -5362    14254    18295 
    4603   -20677   -37424   -31206    -6489    16164    18114     4545 
   -6303    -7616    -2761     3761     8368     9106     3139    -6017 
   -8165    -4654    -1495     5872    19888    28594    19251     1788 
   -1444     9706    14654     5402    -8878   -22880   -34381   -39009 
  -37134   -28559    -9116    15084    22174     -590   -36825   -60308 
  -54733   -22321     8475    10316    -8786   -21252   -12951    11386 
   34346    36886    18936     -913    -4586    13203    35628    35396 
    7521   -24475   -34236   -13910    22724    46223    31940   -13286 
  -54747   -58015   -19641    23190    32472     6001   -34067   -58567 
  -47618   -11585    23339    40993    32245     3892   -17170   -18081 
  -11058    -9348   -10171    -6880    -7164   -13192   -12606    -2962 
    5179      109   -20791   -45032   -55159   -41818   -12733    11386 
   18622     6049   -23639   -45124   -35030      323    43057    66848 
   46520    -9130   -63278   -85099   -64718   -14103    31654    37329 
    6542   -25251   -35584   -28351   -17120   -16382   -31870   -50113 
  -50057   -28163    -1461    13239    14461    15697    23477    25120 
   15177     4937     -990    -6473    -9743   -11799   -23074   -44212 
  -58764   -53006   -28549     2908    27394    34255    21365    -2862 
  -23551   -28203   -19298    -9061     3162    24122    47040    57690 
   46100    15058   -19053   -36997   -28202    -3136    13108     6841 
  -17543   -45132   -58693   -54320   -36709    -6349    24705    33061 
   13188   -17695   -39918   -42541   -19397    23253    55940    53299 
   22216   -14070   -31040   -12911    21611    37173    22063   -12151 
  -38089   -32624    -7002     7978    -1503   -22093   -31474   -17917 
   13174    35570    21047   -22750   -55762   -47857    -3921    43637 
   65083    50377     2967   -54451   -87450   -78166   -31587    27217 
   63373    57623    15443   -32807   -42363    -2045    48614    70580 
   54866    16026   -13780   -19127   -18441   -20104   -15860   -13458 
  -17372   -18413   -22960   -39607   -52303   -40893   -13467     1199 
   -8127   -25224   -31023   -23707   -16858   -20979   -32773   -38213 
  -23089    10107    35694    27964    -5636   -31022   -26296     -566 
   21537    24171     6187   -20798   -33372   -18349     7478    19099 
   11454    -7293   -28720   -40905   -36423   -22463    -8632    -2318 
   -8259   -18387   -22780   -24133   -27207   -24482    -6412    16766 
   25075    10686   -20434   -47516   -43852    -6561    34617    45999 
   16982   -32019   -62956   -55521   -20712    19238    42100    31862 
   -2466   -28542   -24759    -1505    17898    22917    12767    -4669 
   -8224     5957    15203    10741     4017     3159    11223    24167 
   29445    20376      978   -16785   -20640   -12639      862    21933 
   42331    41292    12640   -30755   -66412   -69426   -38897    -3762 
   12181     5241   -17575   -39228   -41007   -21480     1663    10589 
    5227     2289    13546    26267    20210    -3302   -27411   -38764 
  -29761    -1699    26303    31013    10213   -20799   -46417   -55697 
  -47198   -30102   -10986     5996     8497   -10424   -36935   -46822 
  -32400   -13701    -9300   -18647   -35895   -45202   -30399    -8824 
   -9791   -32207   -54362   -53747   -20593    23008    41198    21484 
  -17149   -39050   -24732     8974    31582    29002     7605   -15467 
  -22742   -12519     1065     7527     2632   -11516   -25295   -32314 
  -28075   -15890    -9765    -9160    -2329     8909    14959    12085 
    1684   -10551   -15114   -10802    -8282   -13345   -18353   -11011 
    7578    16470     2025   -20858   -29099   -15985     7710    23244 
   15669   -15039   -47964   -58556   -52733   -51932   -52030   -42809 
  -29514   -16477   -10748   -17139   -24699   -25436   -19700    -8820 
   -2636    -6764   -10200    -6566     1002    11759    18779    17206 
   15982    16860    13993     6734    -6580   -20128   -23213   -16686 
     838    28732    47845    41706     7673   -37050   -53359   -24932 
   20507    44080    26561   -18597   -55271   -51135    -7810    32279 
   33486     3451   -30200   -44144   -31858    -8874     8891    18407 
   19799    11619    -4487   -25147   -48072   -59612   -39477     7540 
   49638    58681    30252   -15235   -46755   -41267     1301    52197 
   75537    54973     1563   -51286   -72148   -58774   -31176    -6894 
   -2430   -19585   -27573   -13437     -114     4299     8859    12730 
    9832      448   -12906   -28862   -40547   -39860   -29946   -22772 
  -23154   -26624   -27782   -20981    -9006    -1128     1148     -464 
   -3619    -8317   -18162   -23549   -10773    10505    15701    -3291 
  -31150   -48810   -44099   -17873     9255    15963     4868    -5037 
   -3129     3686     -301   -20167   -42925   -56511   -56065   -40339 
  -17720      338     3517   -10495   -28428   -35867   -21441    13274 
   42472    45905    28671     6493   -11050   -26862   -44861   -58718 
  -56840   -34946    -8014     4720     3061    -6826   -18803   -21748 
  -17245   -13364    -5908     5026     5367   -14815   -46677   -63772 
  -47137   -11889    11743     9614   -12544   -28714   -13583    21823 
   45155    39385     9136   -18058   -13233    15959    43029    50217 
   27523    -9989   -30480   -23451     1932    28423    31653     6209 
  -20091   -20271     2268    23794    21922    -7135   -42039   -51969 
  -29188    -3677    -6668   -32695   -52829   -46001   -16655    11580 
   19631     4574   -24956   -52256   -60594   -52703   -45235   -43285 
  -42392   -37400   -24007    -3031    23257    45551    46835    27514 
    8222     4992    16142    22411     4839   -29084   -54057   -56705 
  -39527   -12055    11107    18878    13771     5209    -2686    -8557 
  -10882    -9551    -2874     5044     5622    -1253   -11496   -15499 
   -4403     8857     5036   -17237   -42845   -51529   -39543   -21800 
  -11178   -12255   -18461   -17118    -6915     4675    10279     2659 
  -16055   -28400   -20457    -3513    -4685   -30688   -52171   -43860 
  -14088    16039    22974    -7033   -50697   -59320   -10201    57565 
   82283    45975   -22360   -73077   -64870    -9214    42592    63078 
   48908     6533   -28968   -32572   -20795   -13587   -19169   -33036 
  -36152   -24134   -11255   -10348   -30049   -56955   -55281   -16397 
   25330    38701    23290    -6027   -28859   -35232   -32675   -18307 
    9316    32300    39182    25910    -8686   -46361   -54400   -19827 
   30247    55916    41206     1901   -33531   -47914   -42106   -24319 
   -2774     3773   -16667   -42382   -48261   -32513    -7019    10184 
    9640     1317     2132    17771    33870    25240   -11663   -47057 
  -50997   -17570    27437    38193     1549   -42773   -51614   -20559 
   22137    43177    24598   -21920   -54306   -42227    -2503    28240 
   31520    12553   -12334   -31442   -44585   -55194   -57600   -43235 
  -19887    -4783    -4239   -11989   -16390   -13387   -12420   -22014 
  -35983   -38183   -22701    -4481    -3225   -20370   -38157   -37128 
  -13428    16846    34978    31586     8075   -13210   -13103    -9003 
  -22183   -47973   -70477   -70691   -43275    -6705    16883    10999 
  -22581   -51300   -47981   -19668    14534    37633    41256    37232 
   37151    37154    32962    23051     8898    -1469    -1275     7742 
   14717    13257     7516    -3644   -22977   -40762   -46245   -39102 
  -23157    -4104     9284    10270    -2981   -22919   -34417   -28668 
   -7171    19021    33496    28305     8566   -10792   -14863    -1694 
   17257    23915     6523   -26514   -45495   -24301    23941    58962 
   58018    29112    -3286   -17114    -8776     1379   -11367   -42649 
  -60941   -44136    -6105    13525    -3493   -31701   -42504   -33264 
  -10324    17471    31856    24114    10959     6750     7219    10222 
   13458     8934    -2488   -13827   -18596   -15894   -15083   -23230 
  -37755   -50972   -49862   -24704    10937    29393    15768   -25153 
  -63751   -63393   -22939    27939    63250    67185    40669     6606 
  -14117   -16879    -8046     3693     8794    -4415   -29567   -47134 
  -47155   -22715    17728    39919    20248   -25540   -59757   -60063 
  -32091     3944    25760    18547   -15803   -54533   -69317   -56331 
  -30994    -3010    11431    -4732   -36883   -55768   -47602   -18693 
    9447    20752    14797     3602     7966    31805    46794    25153 
  -20234   -45170   -24737    19171    43280    26894   -15779   -55427 
  -65003   -41893   -12596     3437     7115    11915    34143    58361 
   50749    12654   -28451   -46880   -27081    20148    61025    59644 
   11493   -41784   -63976   -57091   -32801     2876    32229    27762 
  -10838   -53373   -73025   -61822   -29562     6175    24490     7994 
  -31693   -56232   -41404    -3611    23539    26146     4564   -33812 
  -63720   -60620   -25884    17808    40587    18584   -35338   -72094 
  -65339   -28815    15809    47196    50610    37826    34050    41262 
   37979    10630   -24559   -39146   -27607    -6349     3348   -10129 
  -38029   -62385   -63149   -28355    18516    38580    30125    15776 
    3661    -2231    -3631   -14584   -28746   -27234    -9877    10774 
   17117      799   -19419   -17685     5483    27866    26439    -6848 
  -49186   -66175   -44664      808    32094    11782   -55337  -116723 
 -121491   -62082    28333    91285    81857    11712   -59274   -66962 
   -7553    49596    58403    34922     -654   -24150   -15067     5377 
   11712     7630     9791    23595    27759     5909   -25079   -41483 
  -35969   -12099    23009    55642    61605    28850   -20706   -53790 
  -53265   -25738     6513    25662    22142      394   -17832   -21982 
  -22050   -22855   -17370    -4888     3683    -1331   -14848   -17093 
    3848    34583    50964    41662    15494    -4801    -2982    12485 
   19725     5205   -24945   -44258   -30294     2368    19155    11364 
   -8744   -32871   -49275   -44012   -18918     8028    15271    -2001 
  -27568   -45065   -41248   -11223    26366    45878    35268     1344 
  -33970   -53431   -52552   -33037    -2984    20010    16039   -11105 
  -31109   -24091     -145    15033     6463   -14955   -30185   -32801 
  -24532   -13646    -8167     -284    17599    37978    45508    24605 
  -15980   -44205   -49313   -45315   -37264   -23128    -8574     1847 
    2880   -11791   -29176   -26457     3633    47029    65962    27546 
  -44412   -84212   -59460      970    47685    52120    18179   -20347 
  -24531     2582    19098     3463   -30379   -57395   -54553   -22182 
   11281    23034    19604    20498    28949    31538    18527    -5383 
  -24848   -28346   -19383   -12388   -18161   -32207   -38697   -25606 
   -1064    13142    14031    12898     8687      903    -5142   -14356 
  -31609   -47848   -47620   -25750     1122    11529     7014     4999 
   10109    16419    28458    44363    43062    20019    -3606   -13157 
  -11693   -12229   -21666   -30685   -33174   -30883   -19289     -778 
   10479     3435   -19063   -30799   -14097     9779    18820    13432 
    1243    -7843   -11053   -14397   -22171   -34758   -45003   -39695 
  -16046     8672    14954     2303   -13168   -18271   -16939   -18814 
  -26608   -36237   -41192   -41430   -37761   -30970   -30147   -34281 
  -27841   -11472     -860     6218    23469    45770    54943    39380 
    2676   -29953   -30486      -84    37549    57453    38775   -13565 
  -57386   -55709   -17427    24833    49642    42182     5867   -23529 
  -19392     6458    27845    31094    12007   -22481   -45002   -40504 
  -21501    -1339     6923      230    -2905     2457      931   -10903 
  -22922   -22903    -5990    13425    15982     -643   -23048   -31817 
  -18284     3904    16351     8904   -16976   -37676   -35053   -24089 
  -19234   -18164   -20184   -19771    -9530      277    -1973    -7003 
   -3983     1720      274   -12669   -29476   -31393    -9300    24588 
   48487    46291    19667    -9855   -21636   -14259      -59     7311 
    3343    -6474   -13226   -11323    -6074    -6475   -15459   -31683 
  -45986   -48534   -40474   -22468     1934    14750     8552    -1571 
   -2195     7338    17999    17566     4064   -14036   -28183   -34976 
  -37749   -40195   -40551   -36152   -27440   -12939    10299    31863 
   32258     7081   -30735   -60438   -63026   -42258   -20533   -10536 
  -15847   -35967   -50968   -40637   -17072    -2628    -4101   -16490 
  -27066   -28494   -21791    -8511     2533     1845    -3077     2610 
   19311    31367    20361   -14777   -52795   -70196   -55232   -16753 
   15386    13976   -21555   -61145   -69616   -39952     3989    31299 
   26063    -9700   -55596   -79531   -68536   -41540   -22689   -20090 
  -32010   -49440   -56755   -45901   -23464    -6794    -4063     1346 
   24297    47213    37588    -7231   -53178   -64741   -34403    11447 
   34585    15137   -32673   -66271   -56024   -17641    10802     6037 
  -27310   -61020   -68170   -51535   -30712   -19792   -32889   -68906 
  -96388   -90361   -56955   -16098    10585     6558   -23760   -49953 
  -42295    -4455    31254    40119    25810     8272     5821    17973 
   22554     6871   -15464   -30933   -40840   -45201   -36526   -13645 
    6295     2215   -26590   -60985   -74508   -50707      703    46646 
   52614    14412   -41951   -85943   -93826   -65302   -19625    26482 
   51651    39251    -5942   -56362   -69075   -36235     9946    47236 
   57633    29702   -14179   -46294   -60125   -55580   -34323    -4396 
   22774    35159    23915    -6862   -32441   -30123    -8373     9644 
    9998    -6865   -21574   -17608     -870    17549    27442    20169 
    3311   -10465   -19475   -21339   -11632     4275    15632    16139 
   12684    21935    44447    63106    68485    63108    51780    36477 
   22588    20168    24847    21263     7921    -7235   -21343   -28070 
  -15021    18055    49228    49798    15236   -26099   -39113   -13530 
   25463    43159    24216   -21340   -60235   -56351    -3850    56572 
   74410    43961    -6173   -40055   -30012    11227    49284    64619 
   44405    -1505   -30417   -18045    12810    29107    24791     8673 
  -11543   -20152    -9202     6359    11682     5548    -2354     3907 
   22807    29665    16486     5338    16149    46508    71812    64316 
   20847   -30066   -49700   -29366     1350    14532     2561   -29903 
  -54492   -36726    13347    51388    50802    17636   -26070   -58918 
  -67059   -47674   -12193    15745    18626     7811     4942    13993 
   29873    41157    37648    21758    -5877   -32172   -30566    -6135 
   15868    27799    28004    12539   -10120   -22523   -18247    -5621 
    3946     2708    -7266   -17553   -27763   -36659   -35916   -27629 
  -18635   -10658    -7921   -11098   -17337   -26055   -29938   -23616 
  -10861    10136    33873    39533    23491     1438   -16577   -25362 
  -25030   -23539   -22443   -19145   -16232   -11065    -1325    -1281 
  -21226   -41341   -30454    14741    59163    62476    20205   -34967 
  -64690   -53217   -14316    23401    37021    21386    -9648   -33090 
  -35285   -21583    -5034     4982     -652   -23210   -47648   -61425 
