Origin Time       2011/03/11 14:46:00
Lat.              38.103
Long.             142.860
Depth. (km)       24
Mag.              9.0
Station Code      IWT001
Station Lat.      40.4101
Station Long.     141.7193
Station Height(m) 14
Record Time       2011/03/11 14:47:08
Sampling Freq(Hz) 100Hz
Duration Time(s)  300
Dir.              E-W
Scale Factor      3920(gal)/6182761
Max. Acc. (gal)   242.299
Last Correction   2011/03/11 14:46:53
Memo.             
[...]
  -36928   -44639   -51885   -59345   -66566   -69733   -69358   -68218 
  -59500   -37983    -7457    26927    58083    77771    82146    75037 
   63355    49680    36250    26132    17978     9956      646   -15098 
  -39041   -66368   -94469  -120319  -133684  -125775   -96350   -51117 
     -13    45667    77005    92099    95259    86464    63097    28067 
  -12685   -49805   -74146   -84650   -83926   -76534   -69725   -63494 
  -50046   -25995     1911    21106    24484    15061    -2394   -23267 
  -40152   -50335   -56060   -54142   -40509   -22122   -10096    -5701 
   -3034     4327    18164    27680    22698     8266    -6427   -14323 
  -13916   -12789   -14344   -16317   -19842   -23331   -20697    -9015 
   11374    36059    55563    64713    65244    59135    46192    24156 
   -5667   -35266   -59346   -81007  -102986  -120534  -128081  -122281 
  -97638   -56163   -13913    17115    37336    46178    41798    29750 
   17304     6234    -3570   -10562   -12635    -8437      268     8876 
   13315    11980     6851     1912     1241     6419    12987    15021 
   12465     8443     2042    -9732   -25006   -38293   -46596   -48692 
  -42247   -29160   -17730   -14327   -20012   -34969   -55937   -70745 
  -67322   -44690    -9406    30299    66151    91184   100273    93417 
   78696    64609    52709    42017    31541    20078     8969    -1403 
  -12365   -23199   -35891   -51905   -63892   -65842   -60973   -56761 
  -62178   -77346   -88233   -84384   -68582   -49575   -37881   -39260 
  -47731   -50667   -38142   -10323    21791    47587    62269    65641 
   62890    55064    39119    20848     8934     7862    19668    40714 
   64259    81842    83632    69083    46821    22741     -846   -22114 
  -41021   -56312   -65965   -74904   -90336  -108802  -120846  -122358 
 -111259   -88372   -62254   -37271   -11647    10757    27956    42774 
   50039    43634    27725     9614    -7265   -23568   -39342   -49666 
  -48894   -38322   -24934   -11598     2725    17832    34800    53582 
   70540    83355    90705    90392    81245    62851    36915     8572 
  -17327   -38804   -54636   -61228   -56438   -46452   -41505   -46673 
  -59199   -69551   -68042   -54499   -36675   -19161    -1478    15325 
   29938    42745    51758    54661    53728    52685    49924    41292 
   27934    13085    -3027   -20295   -36314   -47381   -50623   -45203 
  -31748    -9529    21425    54404    81318    97324    98634    87228 
   69870    50517    31137    12616    -5496   -22999   -40440   -57207 
  -69364   -75534   -76556   -69118   -50720   -26193    -2301    16158 
   25307    25078    18649     8504    -3252   -14757   -26048   -38913 
  -52259   -58860   -53162   -38029   -17846     6400    30046    41345 
   32078     8744   -13212   -25743   -32811   -42145   -56646   -71122 
  -77514   -68572   -42315   -11254     7724    10060      186   -13689 
  -20910   -16319    -2974    12475    21145    14999    -6402   -33155 
  -54165   -69303   -82446   -91696   -95781   -95316   -88477   -75376 
  -57632   -33134     -251    38121    76673   109015   128768   131025 
  115514    88809    59978    34524    12291    -9025   -29252   -46798 
  -60168   -67146   -68328   -68164   -67982   -65926   -61137   -51310 
  -36436   -21463    -7036     9874    28275    47099    67092    85411 
   95942    91290    67634    32830     -179   -25588   -43912   -57461 
  -68718   -78145   -82072   -75411   -57413   -32562    -7829    11910 
   27803    43203    58085    70008    75707    71762    58029    37896 
   15393    -6420   -27378   -48981   -71105   -92932  -114085  -132738 
 -147177  -157461  -161624  -156361  -140181  -112329   -73725   -29255 
   13525    49481    78949   104733   127492   145261   155618   153009 
  129308    82629    22585   -32493   -70424   -93198  -103531  -104425 
 -104668  -106452  -107546  -108864  -105081   -89292   -63866   -32063 
    6014    44370    73905    93577   106471   111018   105029    91336 
   74255    54539    33835    18916    11838     6150    -4601   -24930 
  -53446   -80020   -96247   -99368   -90898   -78628   -66545   -49565 
  -26098    -1126    20223    33659    35526    24022     3118   -15960 
  -26150   -30597   -29314   -18922    -4224     8175    14657    11813 
     548   -14022   -26441   -33861   -37013   -34844   -26621   -16892 
   -9452    -6391   -10096   -19881   -31968   -40487   -42103   -40215 
  -38293   -33367   -19097     6989    40014    70840    93333   107194 
  112842   110233   100970    85849    64638    37017     1784   -39783 
  -82417  -121049  -151136  -169422  -177510  -174305  -151235  -105588 
  -48913     2860    41491    64642    71864    69526    66839    65488 
   63652    63523    65062    63515    56956    44197    23853        2 
  -21098   -35643   -43136   -47027   -51363   -57436   -65948   -78534 
  -94238  -106637  -108105   -97141   -77994   -53979   -25571     3390 
   25266    38265    45871    50741    55352    58264    55098    46351 
   33294    12452   -17837   -50772   -76883   -94431  -107064  -117063 
 -124619  -125835  -115524   -92017   -57216   -21401     1719    12023 
   20296    33673    53424    74894    88999    91596    84405    68976 
   45799    13613   -24838   -61087   -90478  -108418  -109191   -92912 
  -62027   -23080    15210    48964    71683    74846    61456    43626 
   31513    31024    38667    43751    43399    41870    41566    42624 
   42597    37343    25375     6661   -19035   -45932   -67918   -88385 
 -107857  -119305  -121832  -120036  -118262  -119184  -116548  -100533 
  -70206   -30745     9981    42734    63224    70937    65599    49960 
   31782    23068    31676    53722    79464    97911    99157    81362 
   50508    15722   -14602   -37810   -56109   -71464   -83087   -88103 
  -83801   -69842   -51151   -35834   -27320   -21724   -14158    -6225 
    -234    10356    29889    48146    52771    42687    21341    -8003 
  -35986   -52850   -59123   -59479   -56341   -52199   -48513   -45485 
  -41085   -30073   -11150    10055    26961    36822    41244    43221 
   43497    41705    38986    35628    30749    24035    14708     2216 
  -13941   -32063   -44044   -43897   -36794   -31457   -32267   -39531 
  -50131   -61030   -72445   -83290   -88694   -85577   -72837   -47711 
  -11420    29066    68372   101248   119862   121266   108650    84732 
   52748    19719    -9011   -33772   -54772   -70170   -81019   -89882 
  -97155  -101121   -96788   -78425   -47072   -11087    22264    51227 
   72735    79800    69810    45485    14139   -10889   -22457   -22802 
  -13931    -3435    -1905    -7983   -14657   -18874   -20711   -23179 
  -28126   -35526   -45956   -55995   -57661   -48414   -36055   -28157 
  -23219   -15100      831    22649    40925    48651    45555    31247 
    6743   -22605   -50806   -70329   -75028   -64609   -40750    -7230 
   26287    48997    58240    58739    56590    57971    63176    64679 
   57441    42958    24677     4701   -16410   -38081   -59889   -80706 
  -95492   -97454   -82964   -53498   -18879     6943    20207    27890 
   36295    49044    65707    78062    79236    71406    59935    49097 
   39646    27871    11989    -5206   -21159   -36870   -56574   -83194 
 -113222  -141212  -165649  -184336  -192732  -187370  -164261  -123312 
  -74208   -27339    13980    50551    85448   120089   147500   156376 
  142426   109511    65083    18924   -22632   -60682   -96928  -129505 
 -156297  -175483  -184886  -183413  -170853  -145969  -106284   -54745 
    1247    62724   131105   196023   245814   272150   273364   256485 
  221934   163685    84205    -1946   -79303  -142905  -187065  -210375 
 -224975  -225211  -199531  -158457   -99872   -20260    51868    96839 
  122478   136976   146002   157461   171065   173520   152642   107299 
   44538   -20064   -72377  -112659  -145186  -169737  -185102  -187172 
 -171866  -141480  -105120   -71787   -40947    -9521    20509    50507 
   83278   114404   139998   157588   155648   126835    78027    16436 
  -50044  -109750  -156021  -188513  -205984  -201905  -174779  -131882 
  -83039   -40498    -9247    13544    32084    55674    85267   111746 
  130986   136241   120369    88439    52660    25935    11469     -753 
  -20647   -50859   -80488   -90917   -76918   -44826    -4992    29217 
   53446    70483    77204    69115    49522    26194     5361    -9681 
  -20663   -32426   -46001   -59272   -70720   -77684   -76694   -68051 
  -58062   -50822   -40468   -23939   -10151    -6226    -9719   -14757 
  -15706    -8811     3919    15020    17988     9625    -9587   -34447 
  -58521   -76886   -86294   -83994   -68844   -45717   -21888      100 
   19661    36437    53082    68669    78005    80359    74617    58094 
   35575    12918   -10280   -32858   -51376   -67165   -81951   -94398 
 -106532  -121084  -131461  -126622  -104463   -69095   -25350    16954 
   50390    75096    89998    93865    88683    77787    65380    53938 
   45944    42584    38208    26788     7167   -17446   -37819   -49125 
  -58359   -69659   -79112   -85173   -86882   -79454   -61565   -37675 
  -12400     8942    22988    33528    44287    55410    67006    78929 
   90541    97369    94318    82418    63456    39586    16634    -1728 
  -17043   -32608   -45914   -48175   -37370   -22147   -12932   -18275 
  -39684   -67210   -90816  -107839  -117251  -120095  -118409  -109605 
  -92935   -72653   -47849   -16270    13678    32477    40794    45311 
   50279    50198    40792    29949    21494    12000     4040    -3534 
  -17249   -32564   -40853   -41451   -40125   -47175   -68058   -94728 
 -116260  -130549  -135925  -124826   -92747   -46644    -2844    27142 
   43483    52740    65121    86429   112145   135397   150298   148472 
  123857    79833    26794   -23520   -63830   -95875  -123224  -147351 
 -168050  -176188  -163289  -134886  -101168   -65830   -25994    21439 
   73082   118727   150628   169523   178526   178765   167220   138417 
   92250    33110   -31240   -86680  -121420  -136911  -142755  -139081 
 -117164   -81931   -49901   -30377   -26106   -34827   -47546   -55895 
  -55819   -43597   -15364    23044    54923    71040    75275    72011 
   61449    45434    31787    26336    23812    13960    -8642   -42149 
  -80151  -114139  -134514  -135992  -121865   -97840   -63711   -18380 
   28576    65170    90194   104464   107431   103172    92624    72534 
   43254     8127   -26046   -52831   -73012   -88284   -96856   -99681 
 -100586  -100136   -96826   -90608   -80574   -66324   -48727   -25514 
    1499    21983    30242    26984    12430    -9273   -30398   -44741 
  -47533   -39398   -29697   -28776   -37502   -49029   -58755   -66701 
  -73417   -75443   -67970   -52730   -32536    -7079    18693    39721 
   57957    76164    97845   123258   144472   156383   155906   134391 
   88434    24509   -46753  -107980  -144202  -159267  -160812  -149757 
 -135117  -118821   -87557   -39379    15259    62186    88185    96022 
   99860   104618   105183   101221    93583    75067    38181   -16089 
  -74222  -119080  -147721  -163862  -161154  -139986  -117616  -100536 
  -80736   -55125   -25451      137    16185    31642    52213    77661 
  107018   130514   139219   133004   114879    86749    50413    14231 
  -13549   -35582   -58510   -85915  -117647  -146054  -163628  -172896 
 -171962  -156343  -133580  -102691   -56823    -4537    42913    72389 
   75782    69069    65643    62026    62966    74342    90309   108212 
  126002   136018   132186   106990    57415    -5472   -66477  -113296 
 -143012  -167943  -193838  -207623  -202616  -184539  -156583  -127718 
 -108746   -93984   -74747   -51651   -24957     8709    54576   115500 
  185818   251946   294295   293132   241378   152309    53369   -29600 
  -79654   -99814  -116648  -135834  -139869  -139377  -145332  -145008 
 -136273  -116032   -81178   -47809   -22602      958    21054    36833 
   52082    64323    67091    55158    29711    -1701   -32273   -54918 
  -66470   -70043   -68036   -62381   -50934   -30252    -4423    20715 
   38063    41224    33454    22361    13719     9493     7946     7866 
    8378    10206    13549    15253    16616    20027    22242    23214 
   24679    23928    19428     8806   -13034   -45319   -79385  -105185 
 -117671  -118628  -113111  -103993   -91402   -74798   -54882   -36564 
  -24675   -19247   -15338    -3813    21328    61234   114031   165854 
  193231   185039   146904    86012    14625   -47037   -93743  -132624 
 -154909  -153460  -142631  -131800  -124567  -124778  -120412  -103300 
  -78502   -41246    10913    64337   109608   143453   158611   153416 
  132147    94855    42671   -12077   -56411   -88166  -106962  -115403 
 -118097  -111958   -95429   -70932   -43374   -20519    -5429    -2120 
  -12729   -26159   -27645   -12501    11133    36009    61610    80213 
   82895    70320    46915    19910    -5819   -31969   -57025   -75484 
  -85622   -88553   -87685   -90624  -101895  -118737  -136328  -147351 
 -144258  -125775   -94050   -52345    -5065    44227    91924   134224 
  169803   200950   227622   244635   248288   234230   198446   147689 
   90973    27894   -44492  -121966  -192087  -244522  -278301  -294565 
 -291888  -268874  -225648  -166019   -97486   -26439    45108   117250 
  186644   243634   281970   307817   323738   318280   283092   220510 
  141594    63383   -11386   -96180  -190933  -276573  -337932  -374478 
 -391783  -389633  -364710  -317562  -246722  -152150   -46724    52568 
  136150   197773   234905   253845   264062   269744   266626   247008 
  206956   141094    44868   -69179  -174352  -250436  -300455  -335850 
 -347333  -331909  -305083  -256194  -175716   -89689   -11639    58794 
  106793   134612   169890   218331   260374   290377   312208   317904 
  299970   258850   196997   123317    47456   -30314  -106921  -173697 
 -226373  -259628  -271888  -270751  -257645  -230283  -193271  -149882 
 -101247   -50000     4402    61317   112900   149438   167288   172378 
  172061   163836   141119   101358    45233   -19338   -81710  -135687 
 -173353  -191109  -193665  -184036  -168688  -152679  -126976   -88942 
  -49109   -10004    24467    45459    59844    73951    82598    89229 
   97112    99703    96465    90449    73725    36453   -14893   -64127 
 -103484  -132726  -149126  -152804  -151018  -142547  -116932   -72961 
  -18582    36999    82518   109978   122599   128344   128717   121270 
  105615    84659    62537    37154     4550   -30327   -61295   -87361 
 -107833  -123595  -133594  -130673  -111987   -83109   -53073   -28251 
   -6329    17044    43562    73092    97251   105149    93756    64619 
   23660   -17013   -46140   -62336   -71613   -77625   -84565   -97061 
 -112171  -125385  -132409  -127053  -109546   -81555   -40222    10728 
   59944    97807   117162   113845    92951    68180    48792    31587 
   12738    -5340   -22307   -37935   -50455   -61578   -71537   -76611 
  -73835   -61734   -40112   -12091    15792    36687    46860    46943 
   39138    25854    12066     2241    -1640     3412    16798    31040 
   38860    35976    20300    -5222   -30761   -45764   -48069   -41061 
  -27939   -14835    -8751   -10627   -17568   -26722   -34262   -39267 
  -46222   -58448   -75908   -95050  -107104  -104946   -86526   -53321 
  -12869    25917    57209    77283    88618    96337   100458   100741 
   98872    93186    80579    60051    31183    -5006   -43564   -78136 
 -104564  -121007  -128146  -127917  -119168   -99657   -72406   -43438 
  -18423    -3992    -1914    -5740    -8809    -8111    -4734    -1602 
    2602     9364    17829    27453    34644    37176    38009    38626 
   37194    32224    25402    18598    11872     7216     6245     6596 
    5417     2995      435    -2074    -2024     2520     8009     9737 
    6937     3087     3261    11434    28844    51811    71939    79295 
   69929    50621    30022    10907    -7116   -26398   -48484   -68499 
  -79623   -79847   -70014   -51935   -29758    -9534     4636    12125 
   10714    -2706   -24524   -46805   -63592   -72392   -76602   -82186 
  -91755  -103877  -113563  -116730  -112801  -101413   -82520   -58659 
  -32929    -3130    34707    74143   103942   121701   127903   118080 
   88769    44941     1697   -24425   -28033   -16680    -3537     1785 
   -4526   -19703   -29713   -23496    -7000    10306    23135    32360 
   48377    72958    92809    96417    80573    52576    26526     7803 
  -11582   -36749   -59833   -74019   -77476   -69102   -56970   -50131 
  -49392   -55366   -63959   -64852   -55618   -42527   -32474   -28058 
  -22738   -11498    -1792     -680    -8715   -25156   -43945   -56223 
  -57976   -50433   -37453   -23021   -13424   -13349   -19448   -29392 
  -43906   -58029   -67700   -73123   -71317   -62891   -54561   -48045 
  -41459   -33942   -24775   -14052    -1268    15125    36858    63715 
   90731   109846   117888   120764   120264   108498    81823    42693 
   -1760   -35766   -52183   -60283   -64399   -65084   -69489   -77828 
  -83263   -82361   -71518   -48670   -17126    18253    49760    67459 
   67390    54318    36555    20337     9645     6083     3374    -5707 
  -15106   -16860   -14462   -11399    -7238    -4651    -4651    -3600 
   -1747    -4407   -14803   -31315   -48938   -65169   -78752   -83939 
  -78845   -68809   -59062   -52596   -46968   -37799   -27394   -18783 
  -10460    -1430     8709    19898    28898    31715    26211    13698 
    -821   -13576   -22236   -23996   -18875    -7365     9120    22401 
   25815    22620    19289    19027    20359    18743    11690     -735 
  -18154   -36911   -51402   -61607   -72075   -83725   -92632   -95721 
  -92229   -81229   -62432   -38212   -14486     1497     7657     9786 
   16297    29584    45811    63487    81974    97319   107960   115346 
  118949   117026   108317    90622    63872    32124    -2261   -38561 
  -73908  -105772  -132251  -150075  -156879  -152068  -132509   -93986 
  -40837    14230    60943    94181   111572   116185   112976   100131 
   74872    42873    12516   -10811   -24952   -34719   -48746   -70582 
  -96822  -120549  -134235  -133483  -122969  -110895   -97439   -78445 
  -53588   -28201    -9061     2736     8292     9053    11955    22596 
   39475    57376    69705    72940    67339    53291    30269    -2525 
  -43134   -86973  -129735  -164365  -180489  -171930  -140068   -91442 
  -36370    13964    53711    84399   107981   123995   134575   141648 
  143352   138289   125487   100374    58330     5062   -46873   -92689 
 -131475  -156129  -160746  -144306  -105356   -50862    -1073    28669 
   44597    61819    77145    79451    68813    44917    12268   -15918 
  -34311   -42219   -41273   -37894   -37036   -43101   -53529   -57931 
  -54213   -46255   -34305   -20195    -8138     2959    16013    24151 
   20491    12202     7190     8117    20063    41269    59478    64773 
   53912    25980   -14462   -56608   -93400  -118984  -126235  -119712 
 -109745   -95423   -70306   -36807    -5131    18107    31352    35910 
   40324    51324    62727    66728    64176    58593    49611    34363 
   13372    -8843   -30997   -53987   -72948   -81627   -77219   -58027 
  -27388     3319    22725    29876    32274    34644    36137    33509 
