Origin Time       2011/03/11 14:46:00
Lat.              38.103
Long.             142.860
Depth. (km)       24
Mag.              9.0
Station Code      IWT016
Station Lat.      39.6000
Station Long.     141.6790
Station Height(m) 198
Record Time       2011/03/11 14:46:54
Sampling Freq(Hz) 100Hz
Duration Time(s)  300
Dir.              E-W
Scale Factor      3920(gal)/6182761
Max. Acc. (gal)   236.154
Last Correction   2011/03/11 14:46:39
Memo.             
[...]
  -51728   -56541   -50658   -40024   -41708   -56657   -68840   -74990 
  -83250   -92147   -95471   -90233   -78081   -67042   -64230   -68441 
  -74274   -73135   -56480   -31208   -13216    -8904   -18403   -39891 
  -66878   -86733   -86429   -72258   -68450   -79636   -82061   -65443 
  -48550   -44832   -49614   -62817   -87498  -109174  -107422   -85966 
  -69686   -68555   -68542   -61077   -52012   -47163   -48520   -51649 
  -46970   -40183   -48449   -64066   -69436   -74946   -86561   -85216 
  -70588   -62051   -60684   -55154   -43880   -33950   -31185   -34487 
  -41003   -54612   -76998   -94302   -93302   -83666   -79493   -76253 
  -67950   -60125   -54971   -47629   -40190   -43400   -59830   -80859 
  -99481  -108564  -101754   -83943   -63186   -45041   -40070   -49107 
  -53010   -45379   -41764   -43268   -40798   -38840   -38618   -36258 
  -37762   -45408   -51596   -54674   -60121   -65397   -62828   -59750 
  -66988   -73662   -68338   -61522   -62676   -66191   -64493   -53923 
  -40118   -38527   -52070   -65761   -71911   -76369   -81346   -82288 
  -79649   -77932   -78385   -83160   -87980   -79476   -65164   -68684 
  -85822   -90758   -72828   -41559   -13685    -2757   -10487   -26396 
  -40475   -50818   -58702   -65967   -76155   -90371  -101768  -101295 
  -88052   -69821   -59165   -65916   -82789   -89090   -79237   -70918 
  -77075   -88436   -89243   -78778   -72669   -77906   -81840   -77314 
  -68867   -57142   -41517   -23414    -5725     -730   -20635   -54468 
  -75997   -73350   -59961   -62143   -89793  -118381  -119245   -96154 
  -71101   -53993   -38022   -19271    -9120   -10501   -14615   -26383 
  -46582   -59755   -64619   -70254   -72634   -66775   -61293   -64390 
  -68532   -67177   -68704   -77291   -86798   -91340   -86226   -73084 
  -63717   -65047   -65371   -55314   -50026   -61329   -70025   -59377 
  -50344   -62620   -76738   -77609   -81849   -93908   -90454   -63672 
  -39314   -38396   -53164   -66155   -68884   -69703   -79159   -85662 
  -79707   -74651   -74632   -67817   -53596   -43303   -38655   -29214 
  -16281   -16556   -35272   -58774   -74891   -82506   -81963   -71043 
  -54465   -45310   -47831   -51478   -49178   -49899   -65379   -88818 
 -100998   -93419   -74964   -61405   -54843   -44688   -33619   -30671 
  -30242   -28157   -31050   -35756   -35170   -41968   -64049   -80290 
  -79706   -79490   -88926  -100869  -108396  -105146   -84856   -48927 
  -12815     -373   -21246   -55806   -72739   -62436   -46479   -50197 
  -69744   -79219   -66917   -43113   -20095    -7497   -17595   -55041 
 -103689  -133978  -127643   -94999   -66083   -63407   -80906   -94820 
  -91692   -73651   -52689   -42130   -41141   -44428   -53437   -62469 
  -62353   -55614   -53988   -61876   -65201   -53117   -34664   -22589 
  -27948   -58607  -101671  -123726  -103836   -60756   -32484   -32574 
  -43510   -51386   -59095   -60825   -48844   -42413   -62420   -94961 
 -111813  -102297   -70053   -29602   -10950   -33139   -74006   -97336 
  -95798   -78314   -51287   -33913   -47041   -78865   -97870   -95122 
  -86190   -81645   -78465   -75261   -72847   -61143   -34835   -10523 
   -5391   -22570   -56596   -91617  -109101  -104299   -87791   -74926 
  -67719   -52310   -32064   -33101   -56218   -68181   -52410   -30807 
  -25390   -32164   -47836   -70971   -82067   -75683   -69607   -66746 
  -60531   -55678   -54200   -52382   -55055   -66103   -76401   -82342 
  -92406  -101743   -95828   -80665   -72547   -64832   -43262   -23720 
  -23863   -30193   -39144   -63940   -91150  -101120  -103548  -106378 
  -93616   -59212   -24847   -12068   -17015   -24294   -36459   -63893 
  -97828  -122506  -131474  -116092   -74544   -35762   -28319   -39275 
  -45911   -54976   -73024   -77171   -60483   -53302   -60232   -54568 
  -36820   -28700   -32224   -30064   -16505    -1661     7785     4771 
  -16244   -47590   -79137  -106455  -124026  -126074  -116005  -103873 
  -92619   -77909   -61394   -46755   -31626   -23442   -35819   -63340 
  -89207  -100892   -88951   -57171   -29485   -29143   -57110   -94998 
 -115859   -95390   -41269     2463    11515     -734   -29992   -73028 
  -96600   -79567   -47505   -37950   -61028  -101850  -137052  -138639 
  -96656   -43024   -21431   -46978  -103144  -155396  -166527  -121800 
  -56713   -25006   -28685   -31198   -21303   -17763   -26343   -28027 
  -21175   -27158   -42811   -48030   -46648   -50973   -59065   -71196 
  -87390   -88733   -65960   -44177   -41924   -46129   -46226   -48417 
  -53897   -55587   -53065   -57378   -79112  -106716  -116038  -111057 
 -112552  -111996   -87735   -47739   -14912     8230    23723    21858 
    6640   -11307   -35394   -59151   -62282   -47078   -42314   -61446 
  -91078  -117145  -123913  -102993   -79040   -72524   -66415   -48757 
  -37641   -48754   -73616   -91599   -87736   -66772   -50689   -47268 
  -46815   -54699   -75460   -86762   -73234   -46864   -27709   -32707 
  -59001   -79885   -82616   -86789  -109707  -136077  -142089  -127828 
 -101011   -65860   -36807   -24354   -19550   -10825     -478     3247 
     -54    -9377   -30724   -60244   -79525   -80803   -69134   -51830 
  -43013   -52138   -72848   -95095  -114212  -122786  -104919   -56361 
   -4101    14636    -8212   -46929   -70603   -66194   -46432   -32442 
  -27716   -31678   -51206   -73721   -75799   -61294   -47710   -35413 
  -23318   -28612   -56573   -78645   -75310   -64016   -65813   -78737 
  -89443   -93267   -89299   -73577   -52996   -37728   -30783   -39070 
  -66308   -99539  -115681  -105802   -83253   -55657   -24381    -9194 
  -28994   -66892   -82026   -60831   -32756   -22245   -23462   -31305 
  -51379   -78631  -104575  -126834  -128959   -94818   -47831   -29840 
  -50079   -82131   -98276   -90349   -67650   -47779   -44929   -62879 
  -89108   -95633   -67935   -24954     2828    -3463   -46253  -104660 
 -141958  -144744  -135170  -129348  -117984   -92362   -62085   -43046 
  -36707   -31894   -21867    -7893      775    -9888   -37046   -61233 
  -71217   -61395   -33236    -6713     7195    18807    29710    29896 
   17849    -2381   -26876   -48202   -67493   -99790  -147117  -179886 
 -163461  -104591   -49417   -27219   -30852   -51761   -88952  -126795 
 -136997  -108550   -72090   -72741  -106437  -123494   -98295   -50223 
   -7746    16554    22081     6629   -31128   -72960   -83991   -58552 
  -35443   -43595   -78689  -122070  -144352  -125432   -77197   -31774 
  -13011   -17779   -34115   -57016   -72674   -70931   -66823   -72108 
  -79238   -93277  -121554  -133601  -100668   -42883     3325    16713 
   -1913   -30662   -53424   -69302   -75337   -64429   -35962    -2859 
   23164    46770    66529    67974    50945    24220   -12801   -58939 
 -107996  -156318  -193770  -202125  -172353  -118205   -74101   -63792 
  -72090   -76683   -85000  -107400  -128494  -130439  -118372  -105502 
  -90501   -68761   -47256   -29442   -13932   -13344   -40012   -79832 
 -104800  -104928   -91410   -69370   -32381    15008    52594    59280 
   27950   -27399   -75238   -86053   -68488   -66868  -103824  -153498 
 -178296  -169740  -142621  -111641   -88716   -76400   -68009   -58915 
  -39930    -4621    32606    50356    39821     3757   -44544   -78867 
  -78920   -52839   -23191    -4065    -2406   -25236   -70470  -108066 
 -100692   -51537       22    24118    19134   -11204   -66686  -122573 
 -143620  -133120  -114898   -94062   -77498   -77153   -79664   -68707 
  -52795   -39505   -22584    -8247   -17261   -44801   -59909   -51503 
  -32190   -15716   -11987   -22789   -39957   -52843   -59272   -62692 
  -63681   -73875  -113924  -177905  -227598  -226081  -168027   -91171 
  -50507   -59243   -74779   -60680   -24096     9534    24867    33766 
   53812    70171    54817     5491   -41155   -40770    -4401    10024 
  -28524   -97570  -153997  -173621  -159749  -128225   -99611   -88763 
  -91539   -97023   -99064   -88161   -65512   -53718   -67810   -98582 
 -122474  -115993   -73034    -9888    48486    86329    96207    71673 
   15559   -58327  -130806  -183420  -206308  -192449  -137100   -51615 
   31698    77344    79426    60380    33602    -2645   -42614   -72956 
  -82285   -62282   -22164     7643     6334   -16696   -39701   -60117 
  -90085  -123544  -140053  -133647  -115392   -95356   -72905   -46739 
  -27279   -36331   -88450  -154277  -173062  -130755   -72971   -35012 
  -20981   -29383   -49024   -62739   -70574   -79178   -86018   -86700 
  -79960   -69444   -57781   -44043   -32489   -27705   -35175   -60816 
  -89452   -97831   -92619   -98816  -121292  -145233  -159890  -158536 
 -129505   -74019   -20004    12499    34101    55145    75260    92106 
   86888    37072   -44679  -113825  -137260  -118025   -76857   -29486 
    4080    -2007   -45326   -93078  -125195  -144002  -156239  -171897 
 -186624  -167005   -99549   -24045    16114    14563   -14487   -55367 
  -94252  -122625  -136936  -134238  -115932   -94348   -81865   -74033 
  -64675   -61798   -57217   -22549    31666    55158    23774   -58180 
 -174069  -273571  -315723  -317208  -301843  -265681  -210178  -159251 
 -133937  -120695   -91409   -52394   -27688   -18877   -17200   -11581 
   10477    45410    80649   105221   113501   114276   117558   120231 
  109686    74872    27419    -7062   -25795   -42244   -63440   -92314 
 -120366  -133476  -134023  -131265  -128785  -127560  -120531   -97713 
  -63130   -29641    -4132     9250     6806    -5912   -18392   -32640 
  -65055  -121351  -176029  -193523  -169379  -132989  -107540   -87726 
  -64496   -45845   -36454   -25712   -10405       51      364   -15387 
  -56235  -108120  -137400  -132443  -108530   -78121   -43876   -14103 
    1368     9875    24092    44761    70508    95038    95635    54946 
  -10264   -66501  -107104  -143847  -168078  -167381  -154796  -149131 
 -143563  -113651   -62426   -19678     4279    10342   -14386   -66649 
 -113605  -137766  -152904  -168360  -182473  -197749  -206843  -183250 
 -108702    -6241    74252   110925   116861    90794    12940   -95944 
 -163723  -153450  -106592   -73541   -61888   -41840     9961    57191 
   50982    -6674   -86510  -150900  -180285  -196277  -212552  -213646 
 -195731  -178000  -170686  -158885  -133887  -108180   -87591   -60186 
   -9981    61575   128003   163637   162869   136037   103260    78873 
   58098    29216   -10569   -54932   -95897  -134937  -182721  -240729 
 -293809  -321223  -305267  -238681  -136783   -35151    40452    94369 
  131250   130807    84365    21158   -29345   -66094   -96191  -118706 
 -133774  -142964  -140303  -122109  -103873  -113271  -157889  -206032 
 -222500  -210008  -187086  -156542  -114231   -61985    -6707    46625 
   93216   124540   137815   134834   119460   106463   111467   134219 
  152370   131627    59847   -39886  -134462  -208419  -264480  -293939 
 -284445  -247873  -193973  -129131   -73190   -28200    11822    24513 
  -17022  -101667  -181208  -219936  -222749  -200077  -149957   -79204 
     990    85766   161239   192539   148720    50021   -48429  -120432 
 -165169  -167490  -111464   -16264    73689   129863   145393   113928 
   39131   -53029  -134189  -186843  -197275  -154677   -72654     1909 
   30336    15795   -18153   -53081   -79111  -102052  -138031  -187877 
 -233100  -256401  -254434  -234579  -208900  -184935  -155222  -112777 
  -73664   -59254   -65555   -73246   -83075  -112101  -153030  -175977 
 -163865  -119470   -59556    -6616    32142    68449   105998   128034 
  117638    78838    48922    68783   123278   160139   156776   122447 
   62593   -27054  -136661  -238647  -309809  -331511  -297033  -236052 
 -180605  -131402   -93105   -72654   -57499   -49166   -50688   -29703 
   29181    83092    86418    38572   -34379  -103592  -151312  -180496 
 -200499  -222347  -253877  -274563  -252526  -180568   -80225     4374 
   37340    24267    -5705   -30782   -48462   -66311   -78423   -73259 
  -52213   -25936    -3985    16147    37689    56992    79141   105682 
  117013    92193    34162   -32492   -85795  -121573  -144220  -154179 
 -146524  -116663   -69839   -19192    25000    45376    17690   -46453 
  -93279   -88749   -48539    -5753    17332    11772   -27457   -97969 
 -172214  -217909  -230246  -210614  -150280   -60588    23744    81111 
  112372   123987   115349    73610   -13083  -136540  -262990  -353235 
 -392421  -380637  -316589  -200358   -35498   139493   253946   274531 
  218039   121402    27299   -40592   -82759  -109192  -118193  -101681 
  -90479  -124407  -184671  -214957  -181123  -104938   -44075   -33056 
  -61266  -100675  -136919  -164286  -166365  -140181  -114581  -108842 
 -114579  -124111  -127650  -105859   -59129   -10927    14247    -5526 
  -63402   -97428   -49799    54532   142013   181671   182869   138178 
   32853  -110740  -239496  -323352  -373455  -397818  -377925  -300868 
 -191484   -88015    12361   128955   221579   222563   128325    -8535 
 -140089  -247778  -324377  -341781  -272827  -131004    33338   151457 
  180985   140983    76974    25804      884   -23404   -76899  -151869 
 -211302  -215717  -162921   -99378   -68104   -62403   -45513   -10344 
    9593    -7375   -52237  -105074  -139204  -141782  -132224  -131106 
 -140945  -152586  -143423  -103166   -60625   -50356   -61275   -51823 
  -18014     2552   -12046   -54886  -109766  -166455  -227512  -281860 
 -286605  -204121   -45289   130458   257975   310528   290180   202666 
   75381   -40073  -114884  -166352  -220057  -268269  -281084  -244118 
 -177857  -121071   -91942   -82594   -90443  -117710  -142274  -130611 
  -76366   -12074    20396    21840    20885    13425   -18860   -61309 
  -79739   -55127      945    62235   112670   141138   137928   108917 
   67649    21650   -23496   -59472   -83524  -115259  -166418  -195816 
 -153160   -42696    79318   150459   154940   114134    42627   -45062 
 -128382  -194716  -232402  -243267  -251088  -264810  -271569  -261386 
 -233617  -196211  -148805   -80780    -3789    57043    94797   105917 
   80502    30883    -8360   -24377   -38068   -66368  -101711  -123197 
 -111582   -64865    -2217    51093    80921    86315    69360    35824 
    1154   -17165   -12932     4777    20879    17212   -23117   -90145 
 -153186  -202635  -242922  -255611  -214685  -131244   -53267   -16561 
  -19528   -49329   -98035  -149434  -177654  -162280  -103801   -33500 
    3967    -4962   -30171   -35769   -14580    11190    22054    27462 
   36455    35619    30874    45163    56989    26864   -27988   -51094 
  -18126    25968    11524   -64158  -140305  -180390  -201112  -235885 
 -292287  -342228  -349302  -298070  -212099  -138181   -98804   -77851 
  -51301   -10641    34944    67113    72312    41872   -18579   -73131 
  -88760   -65372   -17638    33089    61980    60840    39120    10271 
  -16025   -44512   -89349  -146526  -186215  -179851  -131302   -73470 
  -31776    -7877     2792    -3356   -35099   -92064  -155630  -197332 
 -196414  -155418   -93231   -29236    21772    59767    86790    89553 
   60196     8199   -47146   -93984  -140681  -186830  -209294  -191272 
 -134957   -61873    -7054     6096   -26993   -95031  -161931  -198180 
 -213528  -212216  -174413  -105319   -32023    30339    66944    53756 
  -11804   -91379  -144058  -162565  -149724  -102770   -36785    23797 
   74467   120827   151827   132318    35923  -104144  -218304  -277673 
 -289498  -253030  -181058  -105942   -50653   -30107   -42458   -61699 
  -69110   -66740   -60553   -53282   -45153   -33237    -9801    29264 
   64805    66987    22388   -64261  -158849  -208084  -196884  -157984 
 -123795   -99519   -68696   -20211    35781    86243   118798   120822 
  100635    78373    66722    74105    90944    89460    52531   -20666 
 -112344  -185484  -214366  -199106  -156384  -113531   -90277   -83455 
  -76942   -61605   -42925   -30098   -31930   -60904  -112908  -157371 
 -173984  -170760  -160251  -142822  -106845   -50010     2980    30093 
   34521    16131   -33738   -94841  -128428  -124132   -92495   -43150 
    2809    21718    10082   -23250   -67817  -111608  -144028  -153008 
 -123081   -52615    26984    74226    82249    72825    64887    64978 
   62944    44207     6865   -45950  -111563  -179507  -231734  -254931 
 -237284  -163827   -53464    30808    43382   -13938  -107170  -178234 
 -197116  -198890  -212900  -219590  -197521  -147772   -86084   -32687 
    2329    14209    -2492   -40807   -77740   -91813   -82369   -63767 
  -46619   -31281   -12129     7434    15774     8629   -12365   -36555 
  -48594   -57269   -87118  -134535  -165540  -154497  -109913   -64599 
  -38251   -21577    -5074      174   -23396   -77668  -138080  -165008 
 -139164   -80988   -22288    27467    75985   118310   128321    91035 
   27760   -21252   -38731   -53263   -97352  -158428  -195184  -172056 
  -93806   -20552    -1164   -16614   -30557   -44166   -71617  -108019 
 -137071  -148292  -146113  -142066  -138443  -120473   -72212   -11029 
   24167    24910    17048    23088    40589    48954    36593    17695 
   10428     2083   -37141  -102816  -157272  -171891  -138782   -71155 
   -4842    23288     -806   -63014  -128764  -165832  -170818  -159034 
 -135503  -104597   -77708   -50265   -13450    16195    13204   -28644 
  -94043  -151379  -170508  -144731   -84775   -12663    39089    56754 
   54085    38266     5149   -40507   -89084  -127740  -141076  -133359 
 -122362  -111913   -97883   -86011   -94060  -131934  -178729  -196978 
 -164628   -93026   -21901    20730    39804    39550    13485   -32981 
  -87314  -132344  -143718  -114790   -65553   -20268     9813    26184 
   27732     8691   -20680   -41052   -48326   -47940   -48382   -58000 
  -68878   -66896   -55334   -51745   -71790  -109817  -138924  -139826 
 -109367   -56708   -13320    -9271   -31250   -40878   -25366    -3816 
    3861    -1879   -11279   -27471   -63154  -115190  -155097  -153186 
 -105311   -36658    13380    22736     3477   -22483   -45765   -72241 
 -115563  -162870  -174440  -139736   -91258   -65101   -63354   -53647 
  -15239    38266    84460   108781   106026    78594    27853   -40923 
 -110047  -160684  -174509  -137972   -73920   -29585   -19105   -19873 
  -19053   -27862   -54888   -90657  -113912  -103964   -62830   -22835 
  -16037   -41746   -74010   -96300  -113087  -127017  -129427  -115820 
  -88375   -52848   -26951   -21972   -18013     4480    36044    57194 
   49726     6788   -54299  -108133  -141022  -155437  -161290  -165038 
 -167205  -160577  -142890  -122005   -93787   -53847   -20352    -7886 
  -12682   -28459   -47982   -63181   -72359   -74194   -62453   -39356 
  -19558   -16530   -34762   -64180   -84290   -87580   -87589   -99353 
 -121894  -137856  -133142  -112979   -86332   -57869   -44022   -60238 
  -96713  -134080  -161325  -167943  -143858   -94488   -46600   -24038 
  -22714   -28054   -36410   -48551   -65242   -85003   -98270   -96633 
  -83329   -66909   -58452   -68215   -90645  -113128  -131278  -135195 
 -110902   -59541     5314    66632   106284   109674    75547    18769 
  -46995  -120269  -200563  -275998  -321428  -313980  -250215  -146527 
  -39569    36530    82841   100158    68103      763   -55819   -76440 
