Origin Time       2011/03/11 14:46:00
Lat.              38.103
Long.             142.860
Depth. (km)       24
Mag.              9.0
Station Code      IWT020
Station Lat.      39.7844
Station Long.     141.3296
Station Height(m) 695
Record Time       2011/03/11 14:46:58
Sampling Freq(Hz) 100Hz
Duration Time(s)  300
Dir.              U-D
Scale Factor      3920(gal)/6182761
Max. Acc. (gal)   115.983
Last Correction   2011/03/11 14:46:43
Memo.             
[...]
    1356    -2116     6408    16020    14618     2346   -13974   -28469 
  -33400   -24758    -7470     6076     5514    -3240    -7880    -4988 
    6837    25975    41161    40781    23015    -1800   -18389   -19614 
  -11103    -4201    -4764    -6502     5625    35345    59125    51902 
   20824    -9254   -26182   -31922   -29524   -18116     -814    14311 
   24113    27452    21056     3922   -19730   -38252   -39989   -25031 
   -3049    12856    11891    -1091    -8707    -3995     4565     6668 
   -1099   -14929   -23741   -15599     2785    10060     2103    -3107 
    7636    24774    29732    19880     7065     2200     9434    24581 
   38535    43684    38841    28736    14285    -5711   -22888   -26957 
  -19772   -10235    -2854      769     -708    -3581    -4819    -8401 
  -15564   -20106   -16945    -8919    -3385    -3292    -5709    -7945 
  -10441   -12951   -13303   -11294    -8106    -3131     5982    18696 
   30334    37826    38665    31670    20289     6480    -5797    -7537 
    4306    21543    29061    21422     9819     5897    12344    20503 
   20807    14828     2064   -17664   -33330   -36316   -25732    -5751 
   14278    26239    25445    10769   -10755   -24276   -19683    -1814 
   18664    31603    27554     9338    -9308   -16461    -6057    15347 
   29281    22698     1129   -16861   -20116   -14326    -6997     4131 
   20520    30281    22614     8023     1131      342    -3062   -13054 
  -22980   -24313   -19210   -11254    -1283     7588    14814    20271 
   20549    15339     9005     4540    -1893   -14038   -23444   -18001 
     727    17444    17456     -953   -28537   -50455   -52058   -34426 
  -14759    -6308    -8036   -10054    -4834     4380     7411     -572 
  -14534   -22755   -15102     6142    28756    41604    42340    38643 
   39175    42997    39684    22654     -921   -17478   -18648    -8301 
     319      214    -2346     1819    10998    11849    -2600   -23562 
  -35810   -26351     3675    34785    48139    37873     6657   -34471 
  -66339   -70923   -44230    -1479    31569    36481    19392      635 
  -11310   -17135   -12886     4738    26006    38270    46114    52521 
   43201    16498    -7730   -14538    -4476    12971    23146    14578 
   -6989   -22047   -18109    -4506     -539    -7305    -7862     4072 
   14109     8556    -7418   -16781   -12100    -4521    -2653     -700 
    5244    11885    12442      -60   -23561   -44460   -48602   -36597 
  -19007    -1232    15477    28350    29629    14317    -5162    -9994 
    1508    14115    18465    23775    38878    53433    50210    28679 
    8632     6990    17038    18217       96   -29456   -53341   -58833 
  -45579   -19159    15079    44169    49980    27874    -8901   -40466 
  -50406   -34859    -4755    22513    34800    33573    28131    21187 
    9991    -1026    -5180    -6915   -13016   -19333   -21292   -23927 
  -30559   -36986   -39562   -35690   -23985   -11252    -4977     -616 
    9938    24800    36242    41037    38583    29840    24250    26795 
   23610     4286   -18649   -26227   -12641    11562    28317    24917 
     813   -29586   -45776   -38972   -17295      119     2251     1381 
   12267    28603    33269    22295     5040   -12031   -22664   -22141 
  -17836   -16772   -16036   -13840   -14746   -19790   -21135   -14313 
   -3026     8503    13663    10477     9571    16943    25192    25328 
   16294     6899    11002    32588    49073    30442   -17409   -55467 
  -54725   -17475    30008    56151    45573     7746   -30241   -42929 
  -26232     1028    13847     3745   -11452    -9333     5392    10093 
    -509   -12376   -14444    -8937    -5427    -6047    -3628      833 
   -6755   -31357   -52993   -48688   -22876     3440    20470    29539 
   33820    33531    24217     9984     6914    21235    38830    41976 
   25386    -4945   -33753   -42763   -27567      185    25857    40859 
   40421    24192      808   -22608   -42686   -52258   -45306   -22660 
    4260    19839    19167     9427     2337     6249    17897    27390 
   30723    26175    14617     7951    14047    23419    25381    22279 
   20776    18671     9979    -1024    -7396   -10468   -10493    -7623 
   -8222   -13896   -15123    -6176     1689    -2670   -13507   -19567 
  -15133    -3226     4948     2708    -5620   -12202   -10298    -1375 
    1514   -10148   -29647   -40684   -30689    -8334     5549     4232 
   -2946    -3382     3652     5331    -3233   -11983   -11030    -1537 
    5141     1030   -10156   -22342   -32200   -38481   -41076   -35318 
  -19084    -2061     4445    -1711   -13369   -20501   -18082    -7860 
    6313    20424    29412    33675    39141    48436    58868    64090 
   57575    39796    25315    29931    49488    65013    57116    22475 
  -16663   -37055   -37028   -29063   -25550   -29737   -35316   -36525 
  -35980   -37883   -37412   -24338     1268    22106    21695     5041 
   -8997    -9583      910    14982    24796    28943    30787    28299 
   20883    15432    15871    16242    12425    12673    21098    25873 
   12457   -18994   -48712   -55838   -37258    -5191    25991    48949 
   59270    55271    43682    30062    15016     1899    -5560    -6677 
   -8027   -18059   -29089   -26362   -11776     2303    12580    21140 
   22906    11533   -10653   -33216   -44057   -36978   -14654    12843 
   34879    46196    45345    35228    19378      336   -12341   -12291 
   -5295     3125    14091    28090    33715    21035    -1839   -24638 
  -40858   -45692   -40202   -24077    -5260    -2138   -13751   -22846 
  -22356   -15848   -11045    -9158    -2249     9431    19881    28105 
   35883    46411    55272    55427    49674    40083    29147    20461 
    7691   -10485   -19284    -6349    17775    25788     7633   -14373 
  -20021   -23657   -47205   -76653   -78775   -51595   -18939     8509 
   27179    30264    21041     7610    -3709    -5071     8961    34083 
   53525    51651    27330    -8673   -41658   -59811   -51278   -12723 
   30176    45145    28956    -1550   -27151   -37389   -35967   -24883 
   -2949    22621    41758    44987    29302     7625    -6599   -10527 
   -3776    10347    29266    48618    48737    17801   -26101   -55782 
  -59188   -43712   -20116     8430    30240    24443   -12867   -56894 
  -72851   -54788   -24069    11232    46920    68903    75610    69455 
   53714    42698    42143    43144    31481     4023   -14694    -2420 
   26863    41148    26815     -387   -17630   -19074   -15531   -19084 
  -29526   -38669   -41845   -38776   -32525   -25365   -17045   -11483 
  -10607    -8335    -1973     4039     4931     3124     6187    11825 
   14061    15755    20159    28975    41499    53643    60969    55067 
   35302    13551    -2622   -12249   -17380   -15600     3025    30860 
   39500    17103   -16526   -34287   -27401    -8105     5741     5663 
   -4248   -13298   -13849    -4869     8914    16356    11686      113 
  -14535   -26726   -27562   -17810    -3279    13433    29690    40757 
   38012    16137   -15962   -38614   -37001   -18227     -921    10621 
   23552    38257    41199    23389    -1911   -20650   -30704   -30364 
  -19640    -3023    10009     9111    -8145   -34434   -50912   -44126 
  -22865    -1452    10383     7783      517     3463    14050    18070 
   15206    16476    22502    27599    31091    31194    27527    28379 
   36874    40321    27939     9610     3400     5996     1708    -4096 
    -273     7501     7508    -8016   -28653   -36829   -32542   -22455 
  -17061   -26004   -38877   -38604   -21040     3344    17796    14734 
    2087    -5098    -3346     -731     1457     5144     7717    10370 
   20523    39532    55501    57014    44794    25084     3178   -12793 
  -12969     4492    27045    34322    21258     3335    -6608    -7634 
   -5709    -6668    -8069    -8951   -17947   -35862   -45226   -30013 
    1682    25192    24286     3010   -18676   -23067   -14999   -13991 
  -24410   -31896   -23865     1615    30793    43310    36851    24750 
   18660    22841    34822    48450    51707    38038    20950     9082 
   -2294    -4117     8682    15676     2957   -17014   -24914   -18513 
  -11538   -11297   -17286   -26358   -25650   -12340    -6973   -22806 
  -42716   -40809   -20312    -5254     1535    12310    18849     6337 
  -14396   -19977    -5007    13038    17785    12859     7012     6812 
   21728    45899    56453    42260    17887      678   -11409   -13985 
    7347    37607    46812    29997     4613   -12263   -17377   -16368 
  -16614   -22773   -30505   -30039   -17319    -4255    -6411   -19418 
  -26034   -15647     8130    32299    42205    29358     8569     2063 
    8054    14093    15074    11422     3527    -9132   -21070   -22308 
   -6817    18457    37974    43699    35609    18934      296   -18787 
  -32824   -34614   -26679   -13965    -2166    -1191   -12867   -24605 
  -24118   -10623     7964    18384     9268   -14746   -32490   -33253 
  -26564   -16701    -1646    10701     7579   -10862   -23340   -16268 
   -3522    -2090    -7217     6887    47876    82523    76118    30153 
  -19217   -36225   -24091   -13328   -17618   -26345   -27558   -18873 
  -10436   -11036   -15102   -17010   -14857    -9699    -6588      310 
   17531    36311    47806    48442    37751    20805     6180     4434 
   10435     5248   -10370   -23842   -31149   -27591   -16747    -9923 
   -5818    -1125     3738     9169    12813    14632    10280    -2381 
   -9008     -671    17444    36735    45748    40044    27955    23312 
   32427    40063    25944    -5281   -33987   -51748   -60350   -58950 
  -45270   -28222   -21093   -23381   -27292   -29934   -29882   -20597 
   -1823    12473    17266    21409    25880    24242    17405    14667 
   22092    35206    42199    33497    11752    -8678   -12369     3046 
   21974    24718     5306   -22172   -41380   -52099   -52595   -35033 
  -10851      443     -531     -739     8409    22975    24505     2360 
  -24154   -28621   -12389     5056    16200    24258    26241    18388 
    2707   -17470   -34196   -39878   -34716   -21188      204    26285 
   45016    47968    41551    33937    27612    22934    15653     4251 
   -1661     2060     6521     4358     -971      327     5279     1241 
   -8088    -9880    -6300   -11812   -31236   -45833   -35350   -12863 
   -9554   -28593   -42789   -34790   -12770    12587    34368    43773 
   43563    41471    34940    24170    15529     9620     2429    -7762 
  -17885   -22814   -18438    -5156     6709     7502     3097      971 
   -4817   -21759   -45172   -57611   -46281   -21661    -3711     1887 
    5458    17991    34029    39397    33249    25099    17973     7945 
   -3139    -7148    -4009     1087     6695     5994    -4986   -14625 
  -16203   -14353   -12106   -11404    -8385    -2597    -5836   -15234 
  -16098    -8583    -1744     2548    13037    31002    44913    48263 
   42813    38971    46152    53000    36993    -4074   -42578   -56355 
  -54126   -46993   -28548     2237    28411    33267    16104    -7992 
  -19641   -10315    10431    21177    10350   -10075   -18267    -6442 
   12064    22689    22027     9586   -10713   -29675   -40090   -37980 
  -28869   -21700   -12466     5409    28660    44662    38160    10538 
  -20811   -39372   -34156   -10373    13616    31698    45064    50837 
   51034    43628    28922    22094    22115    15004     4370    -1745 
    3602    18974    24513    16065     9217     8089     4421   -12486 
  -40727   -61879   -63395   -46252   -22668   -13228   -21053   -28145 
  -24180   -11084     3349    13851    22627    24186    14125     1481 
   -6777    -7736    -2861    -2600    -9253   -10469    -1483     4284 
   -1455    -8706   -15545   -29877   -42652   -39539   -22314    -3791 
    5140    -1257   -27337   -59623   -62350   -21662    33365    67763 
   70989    61651    66445    81381    82424    64170    41554    33784 
   44663    57971    56890    33360    -5800   -45390   -78369   -97379 
 -101296   -97262   -80038   -50639   -26286   -16137   -16349   -20629 
  -29129   -37762   -31926   -14354    -7323   -13512   -14883    -7368 
    5296    21044    30185    33796    37727    38222    35123    24908 
    5815    -9696   -14990   -14743    -7175     8136    23530    41231 
   60775    69219    60354    33187    -3764   -33003   -49262   -55746 
  -53870   -43328   -28130   -15981    -4675     7433    15308    18012 
   14509    13547    25350    34546    29931    21015     9828     2259 
   10034    25716    37102    36278    20130      503   -17511   -38337 
  -55329   -61309   -53767   -33493   -12829    -4595    -4243      481 
    2577   -15365   -49641   -82041   -95838   -84230   -67580   -74118 
  -97966  -104505   -75242   -30267     -484     6526     7293    17849 
   33296    44157    52111    56641    62106    81001   107159   121833 
  125862   133041   139984   138174   132322   115312    78276    45303 
   41934    56654    65358    58114    28252   -24804   -78614  -102279 
  -87902   -60140   -51867   -72842   -97832   -99711   -92461   -91174 
  -86472   -85866   -90088   -83923   -75255   -70404   -63600   -53977 
  -31781     6791    37528    38174    23675    24003    39306    53304 
   65995    79377    90224   103705   120364   132622   131710   104667 
   67240    59509    78639    91542    88398    72582    48027    22371 
   -2339   -30213   -60665   -83701   -93554  -101329  -118683  -142330 
 -163194  -176926  -181507  -170977  -139539   -87814   -31979       25 
    4550    -3171   -17231   -22068    -7200    11613    23566    25299 
   18614    17481    26551    38858    53172    79628   118200   140036 
  119631    67052    16975    -7600   -14413   -18836   -27767   -41461 
  -51146   -50373   -43409   -33073   -13880    18087    51470    66052 
   57374    39355    26416    23324    18646    -1489   -24087   -25356 
   -5779    19718    35618    34980    37708    55113    65481    61621 
   51927    40472    37232    40005    42764    44568    34479    14460 
  -10095   -41668   -68268   -83815   -93615  -104475  -124836  -140520 
 -134414  -113686   -84344   -47151    -8734    19081    23483     2328 
  -33160   -58549   -51664   -25879   -18833   -40624   -70167   -92221 
  -95378   -75317   -47409   -15263    21034    48411    69097    86497 
  101372   122485   138125   138406   135776   131564   122294   108429 
   87096    66717    54085    45670    44889    45286    30305     -344 
  -37741   -68286   -79713   -72184   -50386   -28729   -18839   -14350 
   -8892     3678    21293    37765    63984    81218    51306      255 
  -28980   -43492   -47508   -29641    -3369    11610     7303   -14002 
  -30572   -28715   -17935    -5669     2599    -4250   -27382   -49866 
  -55231   -39631   -15931    -8810   -14688   -11079     -593    12831 
   29620    41507    55543    74488    78878    61096    38062    35849 
   66520   108118   120867    93979    53482    22219     9313     9867 
   -2798   -34584   -55348   -56537   -59652   -75733   -97983  -110542 
 -105904   -95364   -84832   -70116   -57658   -51029   -40721   -29721 
  -31175   -45972   -61588   -60477   -44325   -32018   -26023   -19680 
   -9252    11163    39393    67631    85737    84037    73934    76805 
   95798   117923   126187   118888   115033   122599   129185   126963 
  112236    78798    40908    24069    25416    20366   -10719   -60845 
  -95681  -101599   -94485   -80651   -66245   -67087   -79478   -92521 
 -110804  -129553  -133093  -111682   -61665    -6498    15402     1333 
  -23905   -35592   -14526    26006    50912    56904    59461    60734 
   63890    67242    59611    43943    29507    18292    17336    31552 
   44930    39922    23069     4897   -11023   -13038    -2897    -2507 
  -20212   -54479  -104605  -149613  -163811  -152858  -128797   -91724 
  -59681   -41183   -13892    16395    25503    25047    26797    18255 
    4063     -126     1145     4389    14939    23937    20762    13060 
    6093    -3965     -687    31951    75570   112952   139983   143497 
  126018   108337    97469    93979    98362   100034    88021    62338 
   31832    11953    14236    23031    15810     2768   -13064   -49206 
  -92220  -126502  -154474  -158338  -142663  -149562  -171203  -170628 
 -161155  -150121  -116178   -74432   -48544   -33362   -21642    -4946 
   23075    48138    60395    68287    69913    59489    42980    24857 
    8800      307     1880    13364    31125    51185    71907    89961 
   96194    81899    53512    28098    14405     7337    -5685   -26121 
  -41645   -47981   -47143   -42182   -38991   -35845   -34152   -39766 
  -45079   -44088   -37182   -20109      415    12549    17461    17447 
   12669     2837   -13281   -26261   -28940   -23944    -7941    14221 
   29394    36239    36789    38804    55610    86321   120281   150687 
  172225   173625   150678   112391    62766    10389   -33836   -69716 
  -86352   -83858   -84031   -81129   -64630   -51145   -42775   -32488 
  -30505   -39447   -51854   -67067   -81869   -89904   -91366   -89152 
  -84283   -74545   -61191   -47607   -26712     6692    45057    75522 
   88993    87227    69676    41295    22708    11083   -10093   -35935 
  -62964   -86433   -93333   -88112   -80936   -65992   -34307     1790 
   20093    21236    12913      465     4368    31702    65149    93530 
  110255   106262    84988    62957    46914    30446    16912    12428 
   13238    24680    46785    56384    53039    60264    70029    67283 
   61518    50739    28007    -1139   -35069   -62716   -69105   -59689 
  -44488   -29168   -18247    -6475     8135    15562    19293    26765 
   21083    -5802   -35212   -49825   -36669    -6303     6974     3471 
    -526   -13676   -32493   -46992   -68356   -97228  -112898  -106566 
  -84148   -44012     6462    47923    76913    91238    84815    67945 
   58610    67960    85620    87848    73789    58989    48480    42010 
   38775    31907    19145    10282     6160    -1357    -3508     4306 
    3256   -14035   -40202   -63819   -56688   -13691    33698    73614 
  104558   113706   104904    83847    44020    -4163   -39785   -61269 
  -78797   -94863  -108614  -117906  -115129   -98393   -73145   -45935 
  -28484   -21782    -7477    17783    38274    48604    45559    29853 
   25534    45042    69741    84006    74910    36618     -525    -7892 
    4939    18251    14274   -10303   -31158   -35986   -32437   -17792 
    6363    29158    51193    69161    65152    37366     6651   -11580 
  -11369     3739    14724    15900    23035    32078    24933    11383 
    8201    12096    21171    24388    -1708   -42312   -63533   -58903 
  -27045    19242    46176    49290    46684    41161    31461    22640 
   14481     2520   -16833   -47769   -82880  -103397  -100659   -74181 
  -34920   -14617   -24018   -39809   -46786   -39444   -18050     5707 
   22161    21412     3736   -13748   -22119   -23361   -21692   -16976 
    -884    20619    24490     4805   -21561   -39557   -38114   -10256 
   33319    79542   119372   134968   127243   114104    96787    81794 
   79725    78620    68542    47445     9814   -31021   -48328   -40359 
  -21978     3771    20441     3668   -29854   -51350   -54190   -40066 
  -21637    -5214    15478    28400    18948     1207    -8239   -17148 
