Origin Time       2011/03/11 14:46:00
Lat.              38.103
Long.             142.860
Depth. (km)       24
Mag.              9.0
Station Code      IWT012
Station Lat.      39.3206
Station Long.     141.1388
Station Height(m) 62
Record Time       2011/03/11 14:46:52
Sampling Freq(Hz) 100Hz
Duration Time(s)  300
Dir.              U-D
Scale Factor      3920(gal)/6182761
Max. Acc. (gal)   197.570
Last Correction   2011/03/11 14:46:37
Memo.             
[...]
  -27640   -43503   -54594   -35657     4759     6390   -49502   -87600 
  -57492    -2637    18009    -5794   -25642    -7128    14816    12488 
     584    -9649   -18913   -33402   -54130   -59566   -35890    -3349 
   10529    -2224    -6873    20961    25408    -4862    11372    52520 
   22173   -36842   -30726    10703    29999    31862    18509   -11515 
  -38461   -53155   -58306   -55168   -47427   -43826   -48163   -44072 
  -11959    39049    60976    42600    56347   106094   107711    69027 
   47057    32179     1803   -32176   -48940   -65494  -109774  -145447 
 -118732   -59185   -44957   -56571    -3309    79384    80169    16190 
  -25180   -39873   -44517   -28854   -39799   -86782   -94301   -75310 
  -75440   -60440   -27201   -13168   -14617     2369    41560    61565 
   50167    24893   -14344   -47565   -54598   -60027   -90489  -133668 
 -136720   -78123   -15393    17228    38501    53182    70794    88225 
   74619    46471    24943   -19618   -56776   -24016    20800    11190 
     488    14403     5351   -14981   -17493   -40494   -93528  -110815 
  -74661   -52180   -56809   -34762    11791    47712    85223   132338 
  140960    99773    61930    44621    20361   -37000   -80520   -44275 
  -12881   -48018   -42184    26335    66804    67983    59451    46598 
   32939    24752    26606    24738     3582   -26191   -46362   -69489 
 -113547  -133861  -111519  -103204  -102446   -89534   -95172   -81141 
  -28446    -8225   -17036     -833    20366    22864    36886    71761 
   79480    33541   -23535   -57250   -79677   -98818  -109177   -98474 
  -62999   -29295    -1238    37134    69259    96051   114989    69024 
  -21272   -50832   -26824   -35278   -76213   -99642   -98981   -94722 
  -77780   -34428      -68     6162    26655    56030    46708    36614 
   45979    15597   -23509   -21149   -25546   -33881    -5804    16201 
   12273    15619    10307    -7066    16849    73059    82534    37760 
   31051    94049   122488    72736    37084    40930    38716    35697 
   33048    10533   -20285   -32591   -37586   -61397   -80094   -76996 
  -67370   -39897     1157    35229    58571    46595      412   -41077 
  -73382   -95800  -112374  -162069  -216810  -191098  -105794   -37865 
   19296    73301    94440   102184   110741    85454    28134   -22215 
  -46619   -39170   -13808   -16525   -60910   -80862   -31529    14353 
   -1755   -17116    -4193    -7824     3395    49453    50086     1339 
   -7874    31010    47523    15071   -24623   -50055   -64400   -30026 
   42191    74715    80410    92600    59677      872   -22790   -60687 
 -122122  -114804   -43188    11148    38531    49776    35660    18785 
   11425   -10292   -39790   -53954   -57690   -40845     4031    29747 
   12008    -1723    13476    22757     8506   -21982   -61787   -84064 
  -71334   -35383    -3336     9733    43509   107873   127186    81889 
   40790    17279   -38932  -118508  -162190  -158794  -138005  -107173 
  -52777     3048    23220    27057    52285    74762    45743     2544 
   13394    35468     5592   -48313   -80739   -74832   -46990   -33660 
  -46073   -73332  -100780  -119736  -123145  -101355   -75318   -69601 
  -43053    46492   138197   146949    86836    26047   -11069   -39242 
  -57503   -57632   -57332   -62044   -46426   -21777   -37535   -66172 
  -13449    73979    63643    19672    52264    90710    72979    30382 
  -10953   -30595   -28186   -47801  -106026  -120520   -41171    27415 
   21870    15838    14443   -15580   -16518      402   -45398  -122635 
 -150715  -125565   -89135   -34628    36375    53372    42670    66859 
   54354     1569     6257    38902    24052   -13622   -37773   -43430 
  -10815    47046    67955    34633   -16952   -52645   -52283   -42846 
  -66399   -83056   -42694     1988    -9659   -45083   -55505   -46135 
  -35262   -31050   -30410   -23143   -24790   -33773    -6296    51642 
   84287    63790     5671   -21340    24151    73847    67725    19911 
  -39597   -68875   -57805   -48359   -57110   -81868  -105577   -72877 
     314    48192    73291    72236    46084    34295     4035   -78661 
 -142027  -134423  -105674   -81805   -35219     7047    17884    19925 
    8337   -19058   -19513    14372    37284    51178    76156    70255 
   27456     2237      -90    -9910   -31413   -69276  -130447  -171842 
 -156816  -117006   -75664   -34943   -13104    -1257    30665    74433 
   74445     2015   -77574   -92481   -66819   -70349  -111114  -134090 
 -121385   -86479   -19251    54757    71504    34757    24066    59751 
   62022    -2640   -66643   -76900   -50555   -22331     8428    39357 
   35449    22617    58154   105198   103667    70508    47627    24464 
  -16203   -38868   -31988   -24270   -27454   -41046   -34899    12456 
   45488    27112     2360   -10490   -27902   -35457   -54865  -111192 
 -133292   -82227   -30880   -38211   -70897   -45722    37779    77081 
   31062   -22300    -4320    48705    57195    35904    21531     5467 
    1428    34004    80616    87251    40335   -16607   -41724   -29286 
   -7528    -5641   -13014    -7076    -2931   -15679   -26862   -34616 
  -57610   -82649   -65228     -991    50616    53148    18468   -28441 
  -47083   -31315   -18099    -4638    12771   -11987   -53230   -35900 
   -2714    -7226     3170    32130    20035    -9994    -5529    14246 
   21190    28792    39258    30021    20943    53248    71009    -8174 
 -117237  -149064  -125074   -92111   -51604   -28546   -39719   -55716 
  -39496    18052    57591    24736   -32346   -55451   -39267     7432 
   45337    39667    21054    22960    38142    51500    34000   -16651 
  -48323   -40275    -3149    47353    65231    38125     -163   -28265 
  -29499    -9020    -1509   -11828   -28080   -46640   -44110   -33839 
  -57626   -78154   -60676   -52820   -46238     6550    42033    19499 
    2846    -1798    -9804     8481    36829    34709    15194    20342 
   30171    -3492   -27450     5333     7815   -56057   -83068   -35728 
    8439    14163    10868    23613    57889    84053    61542     8382 
  -22256   -17829    -3192     1397    -1480    -3815    -3661     7643 
   23610    22238    -2580   -38040   -49757   -15420    30345    43712 
   34112    18349   -10331   -31381   -34168   -55592   -98308  -115105 
  -93895   -79303   -96769  -107152   -69698   -20832   -30347   -83177 
 -101359   -69471   -33045   -10302    17996    64234   116116   152077 
  158449   138081   111593    86887    50567    -7553   -75852  -106902 
  -99861  -117790  -139038   -96613   -32595   -18018   -21024     7277 
   44270    78907   121620   146900   129961    82808    51653    60389 
   64816    32424   -12085   -47010   -71841   -79436   -58429   -23792 
   -2393     4766     2394   -14617   -38205   -58295   -82582   -91415 
  -63350   -59134  -100376   -93282   -31133   -13356   -23353    20020 
   68849    53296    10213    -2306    37127    88302    90828    72452 
   82160    96609    90406    81692    70792    27431   -25052   -30684 
  -21573   -66070  -123666  -118866   -88902   -85534   -77819   -59827 
  -54098   -33364      512     3003    -2189    15929    15611   -27667 
  -84877  -110837   -82680   -36008    -8578     3919    17222    36035 
   36500    32454    70543   101710    84840    80652    96769    77850 
   24389   -14666   -18975   -24417   -59763   -89641   -74241   -37999 
  -20433   -21350   -14875      117   -20846   -65207   -57601    -6579 
   34039    49339    37177    41259    83279    90826    42056    -7658 
  -48080  -101254  -154202  -170621  -145185   -88946     5715    98685 
  115032    64571    24310    37872    70868    61552    33263    43203 
   51472    15309   -19169   -31388   -45175   -62877   -78977   -70221 
  -46890   -43437   -21387     -254   -44883   -83425   -63252   -46742 
  -55591   -64637   -64378   -58588   -67920   -84019   -59194     1269 
   57856    92961    89184    69618    75910    86102    75057    64513 
   57386    51025    61527    48596   -11247   -52277   -55644   -54280 
  -56214   -73439  -105176  -117489   -87787   -55153   -69824   -99611 
  -88620   -42602    -8736   -21477   -46241   -19695    35870    45387 
    2366   -23742    25147   105672   129373    99389    74306    70957 
   61862    32583    10431    -5233   -40697   -72573   -82254  -100795 
 -125081  -114802   -93795  -111054  -114142   -54784   -33201  -101152 
 -134393   -61490    32797    52725    15743    10644    19292   -29127 
  -65792   -38024   -23783   -47131   -71028   -72539   -30350    16023 
   18221     5783   -10021   -43630   -61111   -47290   -19339    19776 
   36381    15561    11244    31326    43698    52300    50878    32600 
   21454    20154     9641     9731    48072    89889    91243    69424 
   65772    72647    25981   -80787  -155329  -151746  -109698   -69483 
  -54492   -55789   -36824     5287    21420    -5176    -2242    45767 
   38427   -29732   -61745   -61760   -87817  -122337  -115940   -57596 
    7204    40099    75676   135827   182330   206666   218842   185407 
   99716    28274     5680   -13590   -55946   -98146  -111018   -85668 
  -64343   -59870   -19676    29111    14580   -30691   -42989   -30360 
  -22757   -17117   -11357   -18153   -22466   -16783   -33224   -61629 
  -57896   -31015    -9741    -7132   -36938   -89514  -117400   -93569 
  -69136   -91352  -127671  -132071   -90007   -28131    12301    19793 
   -6400   -32194   -19588      443     3479     7117    19601    24243 
   25834    69564   118770    94289    38197    12390   -13115   -53904 
  -63346   -47787   -72638  -117008  -101123   -37159    10321    25786 
   12627    -7133    -4181   -14759   -49354   -56721   -64785  -101664 
  -98247   -55434   -36574   -23873    -7855   -12420    -5035    30838 
   62321    80135    88617    86398    66860    17591   -29146   -32228 
  -22197   -35780   -57248   -55725   -23505    12062    18670   -17247 
  -73541  -108260  -120536  -117426   -91720   -70636   -62838   -44639 
  -22892     6053    59393   105869   103200    60762    21022      -38 
   -7271     1185    -4509   -51524   -82025   -33920    46771    84263 
   94890   121763   128282    86389    46771    32696    21490     7601 
  -12550   -28446   -18274     5414    27029    45478    48215    26777 
  -12303   -50263   -68024   -79973   -98982  -109271  -123043  -142067 
 -131810  -102918   -74380   -27979    19243    19560   -13237   -25076 
  -24693   -23095    14505    40003    -8711   -54558   -16737    44799 
   36762    -8182    -8269    19823    51019    98249   128908   117937 
   75763    18023   -20260   -43981   -87716  -128129  -125239   -84352 
  -50688   -40731    -9149    36738    37431    17304    22604    19477 
  -11559   -31825   -35231   -45923   -52289   -42585   -41012   -45602 
  -28920    -8901   -16933   -42215   -54460   -46420   -42809   -52103 
  -52411   -32555    -6708    16506    56497    89510    73713    52159 
   43645     5208   -42612   -66049   -77752   -80494   -72624   -58474 
  -36309   -18926   -21743   -32783   -28840    -5938    19728    26925 
   13671     2588      225   -13704   -45601   -67028   -53147   -19324 
   14749    32078    15931    -4089    -4993   -10216   -14008     2203 
     303   -47725   -86168   -80436   -82108  -100757   -87208   -55489 
  -34587     4177    52385    74754    86986    85392    43136   -13215 
  -36212   -20450     5313    26400    44369    59354    75496    79145 
   51825    19133     9074     4943     -718     5015     7488   -11435 
  -42506   -61749   -49158   -22541   -21472   -45757   -63978   -62180 
  -47772   -35583   -44751   -68164   -64769   -20280    41571    79090 
   59758    33581    49923    59761    39170     4062   -44161   -63428 
  -56671   -85952  -127147  -146950  -157650  -121088   -42043     -725 
   -5508   -14117    -7685    19166    35570     9421   -36322   -58174 
  -24998    40347    73395    59001    19072   -15105   -17162    -4244 
   25393    66686    46887   -20126   -31971     9540    33692    13002 
  -38002   -75522   -72539   -38725       98    -2877   -48674   -71227 
  -66481   -76137   -74446   -53810   -61047   -79850   -68590   -36679 
    3508    48736    88526   112979   126935   143118   150558   140196 
  115736    81361    62450    43715   -26007  -110709  -149532  -157696 
 -147818  -111642   -70378   -51154   -65539   -92950   -96241   -77949 
  -64159   -62263   -68143   -79066   -73884   -27717    27826    52237 
   48704    14298   -18055    21778    88720    85780    56807    65882 
   58286    10215   -23560   -24722   -24753   -42547   -37082    13265 
   53683    71405    87451    73801    37165    24907    34067    46148 
   56654    46137     7215   -29485   -21840     5414    -7747   -29599 
  -22071   -16768   -11830     9430    23969    28758    45759    54164 
   30760    11005     -669   -38574   -77611   -84329   -90899  -128568 
 -158755  -154832  -151684  -146786  -121371   -85643   -24637    37864 
   48154    42634    69272   104455   122224    96697    14638   -51585 
  -50394   -52238   -99015  -135085  -129038   -97795   -60243   -24422 
   21724    83542   143344   184579   196949   182337   159108   137902 
  111725    65883     3803   -36584   -47304   -70215  -104110  -118889 
 -120092   -99959   -46452     9726    46385    67122    70815    48569 
   -8493   -80909  -139421  -190009  -242692  -282505  -291942  -278709 
 -269865  -259517  -215147  -152174  -106359   -66183   -17117    32477 
   74773    96989   107768   143691   217897   290631   300986   253614 
  227998   257033   267243   212064   158898   136434    92622    39113 
   27641    46113    37647   -20023   -84773  -112297  -126153  -180012 
 -246625  -258585  -246045  -256854  -223714   -90274    48643    87869 
   72875    85115   104887    85681    14181  -100939  -185536  -166274 
  -92062   -41037    -7070    37508    94118   152716   180651   159480 
  124713    92393    38948   -17995   -41757   -41280   -45225   -70662 
 -106293  -110281   -68531    -7528    37453    34194    11077    18906 
   28520    10887     2286    17591    31012    40050    48060    32845 
   12886    16485     5582   -32682   -62239   -82062   -93290   -72744 
  -44029   -54757   -95094  -145813  -195666  -195088  -143944  -114297 
 -112146   -85649   -34298    12659    28530    15125    34588    90682 
  103872    72917    52857    55695    72190    67199    26362     -545 
    5306    24492    44920    42529    21109    16852    28325    31199 
   29867    37781    52810    58652    45993    30923     7988   -36001 
  -81117  -123133  -143218  -119828  -111722  -138205  -120422   -46195 
    2279   -12191   -52218   -88247  -105990   -94534   -73966   -67815 
  -89148  -111238   -70351     3571    38199    43207    36029    29128 
   47244    66031    47404    23782    49577    90106    97895   104695 
  121336   116756    92672    84758   107803   115087    85569    58905 
   26761   -25477   -58779   -74463   -91458  -102991  -124335  -137843 
 -107312   -48886    22624    67992    46676    13624    -2334   -22445 
  -23744   -31154   -76503  -100870   -84940   -83029  -108067  -110142 
  -73673   -56292   -56309   -20202    18933    33324    52302    61700 
   66096    99809   129073   129093   132417   144435   135839    93616 
   39254    -7428   -41240   -50220   -42026   -41053   -52597   -64651 
  -61552   -44666   -36127   -40733   -43011   -50337   -64540   -58336 
  -40380   -57385  -125555  -195189  -204132  -176317  -171416  -172561 
 -150850  -126311   -97247   -60013   -39738   -32035   -23633     8858 
   85994   149576   160488   164859   191493   217111   204126   149132 
   93760    73486    71383    43100   -12253   -58493   -57885    -3140 
   39719    19103   -25761   -48212   -40811   -22708   -23350   -31821 
  -18118     -823   -10315   -27335   -19826    -9604   -29150   -53223 
  -63285   -75227   -84275   -84813   -77506   -64059   -66821   -88648 
 -112415  -122683   -93671   -50262   -42816   -44746   -20349    15572 
   45128    63791    83790   102381    92208    66425    61758    67437 
   62996    59329    56686    50880    48537    39400    18696     3301 
    3231     7830    -7477   -46878   -75394   -64650   -29244    -6465 
  -13375   -21775    -9396    10318    41643    73068    57881    13666 
  -11016   -21296   -25256   -27878   -38104   -36604   -40179   -78305 
  -94808   -55823   -23037   -15141     2290     5624   -17919   -26079 
  -34365   -60281   -65490   -68672   -86691   -81754   -62796   -50199 
  -23894    28032    64355    44258    23512    38980    32254     7076 
    -959   -19216   -37197   -31270   -37871   -62207   -66447   -69062 
 -118171  -169359  -150352  -100397   -64455   -24412     -912    -2511 
   14034    46393    75327   107073   120113    98344    77099    85036 
   99717    89896    63392    41841    32368    47862    80605    78519 
   29799   -12322   -28761   -56260  -111921  -163057  -168734  -132315 
 -104211  -106960  -108511   -95669   -74226   -48612   -40922   -49242 
  -58070   -58516   -29433     1130   -14582   -56014   -86278   -92466 
  -71054   -37699   -14546      673    33599    89786   133996   139926 
  122567    99864    70502    50097    58990    60426    28943    18942 
   33815     5021   -53563   -80404   -77026   -65813   -47324   -19435 
   -4441   -32168   -72811   -72556   -33074    14350    38715    26217 
   -3173   -23675   -21615    -3153    -1648   -40209   -79143   -69531 
  -37066   -20192   -21030   -32559   -41373   -45537   -31756    23452 
   83822    90695    50879    28353    49754    61051    26564   -27506 
  -64574   -50769   -12296   -17601   -47213   -49803   -27980    10566 
   33076     7680   -28525   -45571   -48841   -40888   -38964   -47168 
  -51208   -51030   -30315    17762    52672    43433     1682   -25462 
   -7531    29783    64498    82535    79939    94844   119928   113268 
   83897    31486   -41264   -79607   -80416  -100392  -132752  -136035 
 -122259  -108761   -91465   -84366   -83839   -58826   -18845     8188 
   23149    18553     -741     9198    36656    33639    30863    42024 
   14350   -34169   -51378   -50183   -60117   -80782   -89516   -76324 
  -43677     4801    44577    75924   108470   105813    75560    62842 
   59543    48297    20665   -16952   -23960     1600    15984    -3664 
  -41932   -54345   -30765   -10992   -11613   -38827   -82961   -90402 
  -68069   -67949   -78320   -75731   -57088   -27051   -10190   -10342 
  -16802   -32028   -48693   -66819   -92348   -97710   -64526   -25524 
   -6089    12034    35895    41451    33891    30887    21243    14840 
   16498     5066     4065    27035    46599    63853    64538    31758 
     209   -26522   -53313   -50243   -47692   -74496   -80340   -60051 
  -62876   -89310  -100284   -70653   -28516   -19869   -29817   -24947 
   -2311    44817    92006    91554    72628    72891    49729   -13385 
  -79883  -129227  -141040  -113054   -73290   -31227    18957    76854 
  133816   186785   225062   221508   190305   162127   126633    67405 
   -7840   -61261   -66392   -50947   -49783   -60217   -55271   -35949 
  -32528   -35600   -27357   -31775   -53988   -64670   -54729   -49970 
  -62857   -67867   -66373   -94702  -137017  -134848   -89545   -60895 
  -64327   -63578   -40110     6628    55000    68582    68362    85814 
