Origin Time       2011/03/11 14:46:00
Lat.              38.103
Long.             142.860
Depth. (km)       24
Mag.              9.0
Station Code      IWT021
Station Lat.      39.9203
Station Long.     141.0822
Station Height(m) 283
Record Time       2011/03/11 14:47:03
Sampling Freq(Hz) 100Hz
Duration Time(s)  300
Dir.              E-W
Scale Factor      3920(gal)/6182761
Max. Acc. (gal)   261.492
Last Correction   2011/03/11 14:46:48
Memo.             
[...]
    9558     5659     5720     6114     8192    12657    14813    14294 
   14796    17374    22662    32829    45351    55624    62788    62796 
   51967    35985    16492   -10833   -38478   -56201   -61770   -51725 
  -27773      694    26733    43176    43671    28897     4503   -21450 
  -40392   -46022   -35162    -9315    21733    45054    54086    48002 
   31730    14140        6    -9431   -16149   -23589   -29541   -29195 
  -17267     8006    36384    57061    66494    60898    42826    22895 
    7014    -2979    -5590    -3200     2450    10759    17648    23593 
   31847    38732    40672    36050    23267     6157    -9354   -18525 
  -19897   -15844    -5267    11295    28101    40718    41138    25481 
    4416   -11615   -17282   -10393     2354    14050    23347    27995 
   27125    24050    19134    10545     4057     6947    16374    25043 
   29682    28809    19456     3344   -11203   -20696   -27360   -29677 
  -26305   -18595    -3620    16744    31974    38779    38271    30389 
   18600     2422   -19991   -46219   -74709   -99614  -112582  -109837 
  -88214   -49651    -4621    34805    59667    70161    70650    61103 
   46694    34144    21779    11788     8269     8909    13879    22313 
   28177    27022    17691     4393    -9688   -26013   -40710   -49794 
  -53985   -49655   -34414   -14710     4706    22685    31958    31220 
   28792    23201    12618     3859     -327     1069     6344    10598 
   14642    22265    36268    53939    68258    74987    69108    48481 
   17301   -17407   -42933   -52328   -50280   -41147   -33122   -31192 
  -26121   -12729     8740    35998    57196    66403    64224    50885 
   36278    26421    19098    18537    22183    19991    12489     1774 
  -12049   -23800   -31391   -34510   -32071   -24703    -9374    14384 
   39977    57700    57728    41121    17144    -6211   -21055   -25067 
  -20643    -9798     2698    14240    25166    34363    43295    51712 
   56574    58374    55961    48825    38744    24702    10636     1583 
   -1012     5946    17135    23564    24136    16717     3704    -5200 
  -10081   -16834   -24902   -31044   -33653   -33689   -30727   -21652 
   -8315     4615    13773    15997    16486    22088    28669    35056 
   43732    48296    44276    33757    17466     -832   -12224   -13373 
   -9869    -7152    -7285    -9084    -8165    -3971     2376    12594 
   24804    34626    37408    29383    14749     1372    -6182    -5537 
    1205     5489    -1283   -18408   -36672   -44768   -32796    -2617 
   31896    60658    76748    75339    61739    42264    21621     7617 
    1928     1139     1651    -1685   -10664   -23549   -36636   -46951 
  -55886   -60489   -54734   -40309   -21459    -1790    13057    21361 
   24972    22683    14364     4478    -4764   -14984   -26868   -38551 
  -43023   -33006   -12317    10304    29567    41832    49070    53371 
   50125    37234    16905    -4809   -17295   -16287    -5917     7382 
   16690    18442    12976     4368    -1739    -4870    -7514   -12738 
  -22305   -29239   -22758     1434    38131    73314    92444    88896 
   64662    27682   -11682   -41668   -51046   -36870    -9162    15079 
   26964    31486    32996    31268    29541    29276    27335    18630 
    1556   -14675   -21125   -15284     1731    18399    26114    27753 
   23080    13714     7865     7758     8096     6170     3352     -679 
   -3979    -4327    -4367    -2465     4395    14025    25476    36688 
   42154    37268    19482    -5430   -25024   -33575   -29926   -14183 
    5240    19341    25480    22279    11385    -1542    -9727    -7547 
    7251    34021    65123    85408    84769    65614    37867    11362 
   -9725   -25763   -34785   -34236   -27867   -19366    -9457    -4347 
   -7396   -13261   -19943   -25510   -26574   -26432   -24795   -16494 
   -1611    16261    31112    39672    42883    41809    40672    40430 
   38707    35264    26727    12562    -3847   -18221   -24323   -23671 
  -17913    -5433     7091    18754    32867    41986    44108    46080 
   49710    52881    51053    41862    29874    17467     2943   -13991 
  -33449   -53346   -68975   -78212   -79261   -67288   -39710    -1117 
   36530    57069    51024    24044   -12846   -50173   -74484   -77302 
  -59360   -22496    23530    65860    97334   110756   106982    92573 
   67076    31468    -6469   -36002   -49138   -47788   -38051   -22491 
   -2099    21267    43052    57656    63193    59272    44844    23226 
    2133   -10686   -10471      -41    12588    20218    20010    17382 
   17127    15039     6881    -6977   -21726   -27346   -17794     4759 
   36009    64681    73503    58571    30546      283   -24472   -39241 
  -41531   -32012   -17060    -1402    12854    24225    34150    40062 
   38506    31556    19534     3017   -14738   -28932   -30992   -17564 
    5563    29369    44258    45517    34406    13755   -12455   -39160 
  -60150   -68788   -65027   -53021   -30087     1811    30514    50088 
   54237    36709     8795   -15305   -29285   -28348   -16980    -3611 
   11204    24788    29430    22706     5294   -21929   -52211   -75753 
  -84839   -76606   -57096   -32049    -1193    32281    65233    95769 
  112847   107224    81995    43938     3499   -25309   -36951   -38597 
  -36912   -29388   -15808     3090    32734    69382   102451   124728 
  124667    98747    58963    15723   -23819   -53281   -68850   -66049 
  -46794   -20170    10805    45389    76668    99865   113068   111297 
   91222    54934    10352   -31578   -62101   -75425   -72155   -60724 
  -48847   -38327   -28430   -18320    -8548    -2123    -2363    -9842 
  -17955   -18305   -11654    -2745     3908     3253    -1441    -3338 
   -4543    -8685   -14038   -20515   -29766   -38255   -41304   -37944 
  -25875    -6136    13131    29360    44187    54555    59477    59336 
   51679    40821    36378    40139    49183    59654    62700    54342 
   39090    20754     3880    -5686    -6085        7    10380    23777 
   35278    42564    45583    39803    25871     7641   -14684   -34309 
  -44685   -47352   -40459   -25509   -11737     -518     9105    13916 
   17404    24808    38018    55920    68277    67720    58398    45927 
   37515    36933    37643    35404    28705    13019    -8526   -28049 
  -40553   -41149   -31709   -18594    -2993    12832    25159    33495 
   34456    24132     5058   -19147   -43121   -55841   -52807   -41000 
  -27519   -14183     -410    11913    18972    22063    24738    25552 
   23565    19539    10567    -3742   -18761   -30710   -36374   -33470 
  -23716   -11269     1113    12045    18596    18691    12918     1871 
  -12520   -28191   -43759   -55375   -59942   -57449   -49939   -39235 
  -23307     -949    24068    46616    61255    64496    59175    52528 
   50729    55862    66777    80404    91515    94935    90809    84738 
   79271    71560    60890    47936    30748    11477    -3531   -11595 
  -11188    -1865    13109    33541    58989    81102    91970    91951 
   85496    73826    56498    35677    11708   -14672   -38585   -55554 
  -61220   -55681   -45676   -34753   -21943    -5333    14572    33554 
   47721    52182    45222    30946    10755   -13167   -36940   -60018 
  -77622   -84976   -84157   -74803   -56821   -36374   -16350     5114 
   26582    45778    61176    68821    71519    79037    90626    96720 
   92769    76043    45474     9072   -26237   -56329   -70410   -67670 
  -57937   -42542   -26949   -18891   -10757     2444    18032    38142 
   58713    71630    77572    77476    70361    59612    48597    39713 
   34176    24779     2590   -28773   -59104   -81683   -91322   -87316 
  -75903   -65184   -63338   -71540   -78920   -78188   -72510   -63496 
  -53062   -45312   -37828   -25136    -4613    19670    38847    52124 
   62111    66674    67569    64548    50509    27070     1111   -25704 
  -46540   -51790   -39690   -14557    14119    39396    60547    75605 
   83378    82967    69303    39018    -1330   -39775   -69924   -84494 
  -75531   -48960   -14793    19379    44895    65252    85591    99724 
  108478   114014   111420   104639    95096    73691    41515     4199 
  -38155   -75170   -95156  -101632   -98805   -88075   -71176   -42334 
      -2    44580    79790    97659    96607    85977    74412    62375 
   49558    35080    15309    -8145   -28121   -42622   -54588   -66324 
  -77512   -81621   -72737   -49407    -9139    39750    77854    95628 
   93524    77411    58165    40002    19817    -2494   -21685   -34391 
  -41903   -41840   -31475   -14084     6746    24025    27291    15080 
   -8069   -38496   -66340   -82312   -86944   -78434   -53954   -18176 
   25250    70858   105822   119069   107278    74654    28722   -19174 
  -55955   -77353   -80810   -63861   -35220    -2828    27635    48016 
   60858    69201    72204    74775    75148    70470    63392    51263 
   34265    14942    -5921   -20976   -25083   -22275   -19671   -20365 
  -19272   -11765     3095    21499    30024    23025     8862    -7659 
  -22681   -29614   -28677   -22376   -10735     2875    14465    21435 
   18626     8639     3119     4860    13870    32621    49842    53169 
   43658    23397    -2321   -19785   -19074    -2991    19458    41681 
   57464    67536    77543    81510    76848    68803    52703    31417 
   18169    13229     9613     1638   -13990   -30014   -36552   -33590 
  -23504    -9032     1826     8064    13465    11896    -1429   -24129 
  -53039   -79579   -94908   -99335   -97902   -95278   -96410  -104388 
 -112857  -108388   -85118   -49179   -12198    15942    32047    36795 
   34237    29927    24967    21913    23248    26085    32635    46419 
   64771    86151   105779   117717   125607   131688   130823   118370 
   90843    49589     3147   -39399   -71018   -88449   -96978  -105746 
 -115768  -119800  -110259   -79177   -23078    46439   110369   153848 
  169466   164411   150952   132819   114578    99204    83555    71389 
   65699    63041    66890    79566    92823    96940    86303    60699 
   23832   -17477   -58152   -99643  -136148  -155848  -154119  -122317 
  -57142    20657    90482   138111   141372   101520    47939    -7341 
  -66041  -122670  -173142  -212087  -232204  -229807  -202488  -154098 
  -92790   -24020    42095    91672   118591   123524   109555    83552 
   54888    27967     1380   -23260   -42113   -49500   -36817    -9164 
   18934    47229    76187    99393   122182   147149   167829   185906 
  199896   203814   198163   181924   154981   122219    87497    54620 
   27983    10256     1539     -160     2751     6208     5187     -380 
   -8172   -19238   -29137   -28660   -16718     5367    33166    52429 
   56852    52148    40048    20792    -3572   -35141   -72250  -104115 
 -121475  -121797  -108412   -90103   -75915   -70473   -77477  -100654 
 -134116  -166087  -188746  -193223  -176495  -148437  -118493   -90288 
  -64876   -41797   -20214     1635    25745    54721    89069   120639 
  139636   142447   123679    80869    25592   -31155   -84722  -123568 
 -138015  -129359  -101227   -56948     -304    62208   122198   172341 
  205946   226496   241464   245169   230854   197914   145483    79453 
    9253   -62181  -128569  -175958  -198903  -197744  -165005  -101226 
  -17710    81943   187584   274283   325876   341285   323568   272794 
  187450    75608   -43458  -154097  -247754  -306565  -311263  -274687 
 -227309  -181344  -139673   -94762   -32814    33972    92880   143607 
  164751   145793   103360    45522   -17293   -70466  -113092  -143914 
 -160097  -161883  -148383  -126762  -105776   -88457   -82530   -86978 
  -86153   -72535   -46443    -7816    36600    80063   124425   167994 
  204470   234920   259785   269717   258644   231440   189506   128536 
   53712   -23614   -96927  -162809  -216529  -253385  -276501  -290800 
 -286560  -250105  -181220   -83643    37914   167033   280815   358225 
  387822   376191   335945   275910   206591   132212    46208   -46795 
 -123478  -167423  -176750  -149820   -92614   -28834    19003    49873 
   71517    84363    92298    99644    97800    80617    53501    18768 
  -25605   -75364  -124721  -168406  -193520  -193634  -173557  -128364 
  -55242    29618   110597   179237   226422   246364   234340   189741 
  121874    37841   -54892  -142926  -219202  -277580  -314132  -336626 
 -347308  -341524  -318599  -274159  -203408  -108780     4649   127719 
  239795   314623   341718   332543   305026   271137   225073   153509 
   62437   -38148  -143750  -235914  -298083  -327182  -326640  -308479 
 -272422  -199868   -86863    45233   171005   269971   315707   298878 
  256707   221958   187602   152746   122030    87762    58351    46848 
   56326    83300   102700   100346    90875    75767    53276    41355 
   45736    49636    44917    37498    24096    -2743   -36238   -63034 
  -70155   -48927    -9844    29250    65112    90791    93587    79603 
   55264    15907   -31917   -73282   -96218   -94847   -73228   -42439 
  -15909    -1334     3263     4800    10157    19220    26731    29971 
   27344    16410    -3100   -26919   -51553   -78678  -104209  -116355 
 -107762   -72311   -11063    54453   105959   138358   140393   112479 
   72122    23721   -29212   -71381   -98181  -108337   -96004   -72240 
  -51683   -33249   -20856   -18131   -18573   -29883   -56925   -84193 
 -107570  -130047  -144794  -148864  -136079   -94592   -24630    65077 
  162820   254477   332048   390187   419939   414468   373707   302837 
  205875    87418   -35185  -137000  -200264  -217458  -200624  -177792 
 -157798  -133262  -112887   -96763   -62840    -4222    76750   178785 
  275980   329161   320282   263812   186200    96328    -1841   -96744 
 -184251  -251165  -280280  -285283  -267799  -204098  -117272   -37060 
   50858   124391   145044   128420    93853    50364    11821   -20884 
  -51127   -85524  -119476  -127492  -104964   -70767   -34011      731 
   26201    40990    41542    27877    16258    11796     4366    -2141 
   -3206    -6010   -10615   -13868   -15464    -6527    18682    49767 
   74290    85354    83297    72563    48588    11721   -21731   -38244 
  -29512     7595    63151   126194   191633   249855   290461   312689 
  316198   298061   261944   211508   149451    83398    18921   -39903 
  -90666  -135967  -172237  -191782  -191684  -166727  -116348   -55495 
    -450    41744    67070    74510    71059    64501    51887    24658 
  -19826   -78451  -142571  -198313  -234307  -244383  -228136  -189598 
 -130589   -56271    20323    91113   150335   176823   152586    94348 
   26317   -47446  -112114  -146787  -157504  -156105  -144061  -123350 
  -94910   -59063   -14489    43581   110525   167191   194939   188086 
  152833   103729    58014    25999     8392     3855    17650    52995 
   96140   128255   138576   122742    90903    61877    45993    45135 
   51404    54073    52386    48528    44609    42722    39881    31596 
   13833   -12657   -39491   -59594   -70561   -73290   -73577   -79824 
  -96193  -118487  -134543  -125984   -81934   -15658    45465    81430 
   83948    53925     2819   -53190  -103783  -145872  -180464  -209085 
 -228731  -232420  -217177  -190922  -162681  -127330   -76974   -14696 
   57766   135740   199016   235037   244218   222197   178768   135077 
   90926    45718    10607   -19976   -54086   -85725  -112940  -137339 
 -155471  -161472  -148651  -110584   -47181    25875    87156   127126 
  139878   121163    80992    33458   -15771   -65160  -107703  -125681 
 -104677   -48109    27368   101844   162149   209846   249054   267198 
  254817   224581   185318   139496    99127    67832    41422    29045 
   38555    59892    80177    90293    80649    52187    14948   -27736 
  -76340  -128180  -179281  -221386  -242265  -233936  -197821  -147844 
 -108701   -99409  -115667  -140416  -166314  -186226  -182770  -152980 
 -109562   -53105    17309    84490   130558   151837   152135   137201 
  115015    89778    54214     -696   -74939  -161325  -244810  -310818 
 -354293  -371114  -354540  -301097  -215098  -107596     6091   104933 
  172779   207007   208004   182339   152502   135092   126030   121132 
  120273   115937   107641   110577   131888   160375   184392   195408 
  181153   135254    66290    -7610   -67821   -99161   -91943   -45543 
   23470    82262   110103   112365    99771    79429    55954    31681 
   17812    25723    51112    90482   146566   209715   257642   266465 
  224041   143914    48761   -50777  -133981  -169292  -155421  -116665 
  -73700   -40314   -23272   -27522   -55075   -96819  -144151  -188933 
 -215460  -218025  -196535  -135931   -34317    71712   144454   174579 
  159551   101184    23829   -47928  -105750  -140241  -140493  -106861 
  -53820     2596    50639    77242    82840    79404    74595    78604 
   95480   119340   144497   159193   154218   132078   101236    75245 
   59693    48887    40872    35921    33837    34166    32603    31177 
   38329    48092    45620    32415    15018   -11261   -40621   -55975 
  -53336   -35252    -6332    22260    47583    68381    75707    68380 
   46156     7172   -36618   -74221   -98840   -96675   -70647   -42580 
  -24642   -17168   -15486   -14323   -13296   -11129    -9101   -15681 
  -32412   -55900   -81457   -89694   -66340   -20267    35917    82552 
   93214    68330    28792   -13930   -52044   -77818   -86957   -73281 
  -37913     9295    57776    93443   108045   107948   103376   100489 
   98085    90095    80113    77909    83036    90954    98633   101503 
   99092    88481    65124    39129    18499     1046    -4387     5988 
   19375    29855    37435    43424    59148    95166   148492   202944 
  235857   228437   173281    85197    -3369   -71428  -113343  -124619 
 -109690   -81907   -52067   -30380   -21567   -22031   -30193   -36582 
  -22734    11395    50597    84022    98382    81593    39292   -15755 
  -73889  -120590  -143186  -139338  -113854   -75402   -27557    32585 
  101604   167304   220502   256962   270110   258970   230880   187284 
  129479    60684   -24496  -118433  -200337  -270187  -330097  -362326 
 -362545  -343088  -306011  -251951  -187281  -116699   -48439     8905 
   56987   102052   142567   172307   187976   187168   171056   143462 
  102811    45938   -23123   -90934  -144697  -179485  -194218  -196959 
 -202971  -219146  -240833  -258462  -264221  -250132  -204460  -127416 
  -42060    27332    72346    90202    83261    65780    50580    42305 
   47919    72653   106121   131773   139381   114320    48662   -36753 
 -113958  -162786  -156677   -79414    44352   169137   274736   354985 
  390115   383736   363431   328247   269906   198032   116548    32935 
  -41753  -109493  -165729  -201183  -218005  -210612  -162595   -73976 
   28067   119840   200690   255194   261487   231658   175025    90393 
    1839   -65305  -108230  -131403  -130950  -105860   -71834   -36747 
   -1834    16595    14563     8951    11815    31423    70023   114800 
  155391   192176   220903   231730   219860   184794   126186    46794 
  -44535  -138377  -225313  -286494  -305962  -287409  -236334  -156542 
  -67131    12847    72786   105559   120932   127145   112381    72983 
   13920   -66319  -158036  -241987  -306171  -340813  -343268  -328299 
