Origin Time       2011/03/11 14:46:00
Lat.              38.103
Long.             142.860
Depth. (km)       24
Mag.              9.0
Station Code      IWT018
Station Lat.      39.6954
Station Long.     141.1477
Station Height(m) 120
Record Time       2011/03/11 14:46:58
Sampling Freq(Hz) 100Hz
Duration Time(s)  300
Dir.              U-D
Scale Factor      3920(gal)/6182761
Max. Acc. (gal)   111.657
Last Correction   2011/03/11 14:46:43
Memo.             
[...]
  -25885   -23324   -40242   -58051   -43030   -19104   -41266   -73694 
  -59242   -26231   -11025    -9061   -12666    -3967    14936    -3239 
  -53724   -70004   -44983   -28736   -38648   -49422   -44428   -36108 
  -31081   -28346   -31195   -29202   -20570   -19224   -22782   -20584 
  -14860   -21638   -47084   -65552   -51228   -23783   -26646   -56974 
  -60443   -23074   -13636   -55513   -65487   -24847    -6060   -17968 
  -25317   -13082    14131    18348   -10682   -31884   -28089    -8097 
   14685    10607   -17836   -22111    -2383   -12665   -52010   -72456 
  -63455   -48152   -51185   -65437   -48864   -10038    -5285   -24931 
  -17781       72   -13637   -36932   -39199   -33282   -24661   -16848 
  -18162   -13861   -10631   -28481   -51482   -68720   -76183   -54993 
  -22688   -15439   -26620   -36775   -43076   -45301   -41042   -23660 
     -46     5805    -7562   -26148   -43067   -33996      378    10390 
    3211    17989    19377   -14106   -38095   -33800   -16826   -10176 
  -32212   -54927   -34664    17911    50689    30306   -18788   -47060 
  -38777   -16186   -15843   -36459   -32894    -3842    13353    17861 
   16789     1975    -8990    -8817   -33930   -68967   -51045    -1929 
   15496      447   -19817   -19221     3725     6789   -21972   -51825 
  -72443   -65578   -14972    23349     6603   -14183    -9277   -13666 
  -23464   -18008   -24839   -45450   -48475   -39883   -29155   -13414 
    2111    15559     7032   -30722   -52108   -32988    -2640     9341 
   -3372   -23775   -29919   -22151   -15729   -18831   -21377    -4066 
   17542     6783   -15310   -11229    -8870   -34259   -51673   -35360 
  -14932   -17853   -29939   -30379   -18772    -4727    -6910   -28314 
  -29509    -7733   -19233   -54811   -52456   -18516    -6206   -25708 
  -32596   -10213     8454    18361    18621    -8698   -36513   -36544 
  -20099    -6985   -24398   -62234   -63122   -26546   -15228   -36719 
  -41399   -26536   -25869   -39354   -42874   -20720     7052     5507 
  -11826   -19145   -34360   -63266   -68582   -43954   -28629   -26340 
  -15829    -9035   -14461   -23625   -40736   -47301   -15776     4337 
  -30644   -47838   -15489    -5185   -12839    -1657   -12540   -38369 
  -28523   -17944   -28514   -19628    -5337     3903    29972    26984 
  -10233    -6152    19078     3522   -25909   -38848   -32710    -6293 
   11984    13555     5886   -25856   -44993   -17634    13271    29678 
   32347     1635   -33053   -36147   -27822   -34191   -50750   -48690 
  -22238   -12851   -38530   -62257   -58156   -38771   -22781   -22344 
  -29530   -24947   -18423   -18766   -13460    -5762     2763    10556 
   -2025   -28838   -45931   -55613   -61395   -53875   -43313   -36176 
  -17886   -17213   -64168   -95123   -54896     2514    12430   -15682 
  -36989   -24763    -1142   -13756   -45950   -37197    -6056    -3725 
   -9467    -5435   -17407   -34683   -29013   -18903   -26673   -30148 
  -13224    -6724   -28729   -44822   -27105     5368    21133     3494 
  -30577   -32947    -4450      760   -25870   -48824   -49271   -33723 
  -22936   -29524   -44307   -50247   -40453   -25295   -18945   -24823 
  -39300   -49146   -35054    -5268     7327     -112    -8801   -23176 
  -34132   -16403    -4988   -34408   -45906   -13700   -11270   -50747 
  -63511   -39092   -15321    -4974    -3810    -2687    -7303   -39851 
  -80848   -84178   -49714   -14944     -590    11832    20260   -18285 
  -75773   -80865   -47527   -22916   -22224   -33984   -30824   -20921 
  -15315     5309    12105   -25770   -50065   -24387    -8539   -24697 
  -16556    14575    15055     4394    23476    28418   -14685   -44774 
  -30198    -7219    16108    31634    15993    -8367    -6311     1182 
  -25030   -45325   -19868    -5822   -16230   -10602   -16591   -34886 
  -26698   -20530   -37713   -51113   -46536   -19634    10799    12971 
    7241    18353    15459    -6408   -10000    -8421   -23292   -18960 
    1206   -17523   -54093   -51163   -28967   -21822   -21603   -24574 
  -26397   -18022   -13875   -28348   -64018  -101192   -85741   -29135 
  -15214   -41705   -45963   -34056   -32114   -18302    11185     7521 
  -32163   -49022   -26596     9032    29914    10889   -17736    -9464 
   -5485   -44061   -67655   -35031    10811    15074   -18034   -44504 
  -63820   -85596   -52961    31750    48018   -25123   -60363   -19616 
    6829    -4015     3524    23245    16004    -7758   -34385   -56510 
  -53068   -32979   -12382     9287    15799     6021    -9029   -38320 
  -60327   -48762   -30274   -21669   -16906   -26154   -35124   -26835 
  -37197   -74920   -84352   -46687    -2683    18798     5236   -52366 
 -113148  -115899   -58174    17641    50894    11422   -38494   -36600 
  -10954    -3276   -20468   -53246   -66455   -36524    11965    38127 
    7879   -44801   -32147    22853    25803   -25229   -80521   -94683 
  -53231   -20719   -32558   -31780    -1356    12441   -12164   -51328 
  -56451   -25016    -3924     5967    12917   -11655   -39163   -30971 
  -32234   -45936   -18735    12766    -1002   -27656   -43035   -39049 
   -6361    12345    -9993   -30396   -33988   -44039   -48912   -31874 
    -543    28243    24094   -16260   -47720   -42027   -19998   -13134 
  -19065   -27440   -55213   -79576   -57798   -31729   -33484   -25847 
  -23106   -43025   -37351     1054    19148   -20146   -72822   -67121 
  -51066   -85583   -95976   -32347    29939    33874    18507    15925 
    4946   -10185   -18983   -46608   -83612   -83014   -42357    -5707 
    5582     3277    -5079   -16233   -26217   -22541    -4718   -13098 
  -47878   -62540   -52023   -16928    24882    21219    -7951   -16878 
  -18976   -23519   -23508   -27098   -43476   -57401   -39174     6338 
   43864    43578      579   -38631   -22927    11371    -5161   -44383 
  -54124   -64641   -70909   -40860   -34034   -56590   -28038    14851 
   -9996   -53471   -49488   -30517   -39563   -54494   -27459    24729 
   29414    -9120   -14842    13546    19609     1255   -19423   -37294 
  -43896   -49184   -47656   -13355     3403   -26057   -24907    -1208 
  -23583   -49093   -46395   -52308   -60607   -51791   -26193    -2036 
   -4298     1380    32007    21710   -30815   -54670   -44869   -26012 
   -8383   -19218   -39615   -27159    -7277     1784     3487   -19880 
  -37658   -34446   -44591   -32239    17252    29771    -4470   -33136 
  -25475    18779    39020    -6825   -58088   -65849   -53009   -42726 
  -38029   -29061   -21250   -31764   -36793   -32408   -45046   -40529 
   -6952    -1221   -30910   -57880   -57460   -38661   -44238   -56575 
  -26745    -6722   -38070   -59007   -59568   -80413   -86087   -57223 
  -44325   -47957   -31221    -5534     3894    -6126   -38689   -64543 
  -26357    28337     5962   -41831   -50672   -56300   -47532   -11619 
   -2041   -23042   -47402   -66862   -59252   -27592   -15933   -33222 
  -46711   -51130   -43904    -5723    23459     3036   -21178   -21172 
  -29874   -48129   -46843   -32913   -32154   -27730     8575    34123 
    2282   -34869   -25399    -7153   -16731   -44129   -67326   -63205 
  -32965    -5129     1515     1723    12369     9275   -16374   -28316 
  -16957    -5489    -7434   -16961   -24005   -26554   -13623    11205 
   11375   -19688   -37342   -12351    17701     8849   -15617   -27767 
  -44783   -73232   -82994   -52910   -10575     8735     6537    -6237 
  -22457   -26508   -13838    -6800   -13351   -14201   -18221   -32607 
  -24279    -3563   -13829   -29643   -15082    -7494   -33307   -51749 
  -39393   -27397   -41719   -71298   -82888   -61990   -39511   -36707 
  -30686   -17436   -22651   -31042   -15554   -10828   -33953   -37494 
   -9529    20630    23161   -19649   -44563    -1559    21152   -18353 
  -39410   -30798   -36900   -37754    -5474    37261    53730    29238 
  -23025   -60357   -56910   -42133   -34453   -36988   -59796   -63951 
  -31953   -10228    -3542       17   -10847   -20974   -34007   -63023 
  -58597   -15008   -14790   -62162   -70951   -29059       77    -3327 
  -23060   -46040   -41931   -22227   -31191   -37045   -12771    -1338 
   -5190    -6173   -17092   -15822    11575    24460    17263     6742 
  -17470   -30778    -3500    25636    15996    -9051   -14429   -11287 
  -21362   -35145   -32650    -7770    16641    13138    -7272   -27718 
  -47545   -51106   -32847   -18069   -15730   -21129   -45477   -77424 
  -80862   -56334   -33391   -13734     5570      521   -20880   -25518 
  -18217    -7729    -1863   -26863   -58047   -49095   -37673   -56066 
  -46904    -4241      486   -39185   -69264   -54716    -7715    11717 
  -26123   -56728   -27931    -5859   -37227   -51476   -29254   -23432 
  -26966   -34832   -51417   -22134    40361    41114   -16994   -50527 
  -41739   -28399   -25940   -29084   -34509   -36711   -32688   -32570 
  -42084   -42190   -31430   -43297   -62702   -40136    -3410    -6541 
  -24152   -20867   -25635   -41991   -16319    33014    27594   -12712 
  -14224     5514      253   -23459   -55701   -67857   -38151   -24173 
  -38669   -24689     3146    13100     5147   -23898   -35770   -21341 
  -29585   -37606   -16152    -8478   -12696    -5796   -14865   -31591 
  -28089   -18507   -12580   -17823   -29466   -18860   -11114   -39194 
  -56133   -23547     8883    -9243   -36666   -29559   -30292   -66480 
  -97654   -94744   -64423   -36988   -44786   -63301   -50886   -36614 
  -49075   -45506    -7754    19624    11485   -17690   -37221   -30297 
  -28546   -52472   -62668   -40487   -22874   -21965    -3818    30220 
   31769    -2513   -17332     1593    -1079   -45145   -75580   -57428 
  -25579   -27194   -44927   -27715     8519     9852   -22965   -53948 
  -62070   -44376   -26875   -34414   -44509   -45955   -46461   -20532 
   14196     4552   -31432   -67720  -104413  -100838   -52061   -26088 
  -36727   -36225   -15812     -495    10337    30707    40665    16695 
  -16675   -23681   -13102   -10900   -13002   -23387   -50455   -58132 
  -43246   -42584   -34580      928    22684     4069   -36049   -61818 
  -51967   -31275   -35176   -54006   -59613   -42293   -23130   -34967 
  -52906   -39045   -18892   -12150   -16422   -33839   -38191   -22788 
  -22618   -30221   -15251     3632     4121   -11715   -39916   -58972 
  -56049   -46736   -39880   -26644     3659    19842    -5422   -27478 
  -30925   -33692   -17529    -9912   -37579   -48200   -25729   -15512 
  -32593   -46750   -34480    -5845    32621    71411    65371     8148 
  -46667   -80460   -86062   -46276   -13140   -25780   -41051   -46663 
  -55682   -53316   -52264   -70380   -91114  -104132  -103071   -77567 
  -41516   -19439   -15382   -19041   -32657   -54784   -51398   -14415 
    4044   -23708   -58732   -46308    19737    71209    67726    53287 
   33257    -9257   -31704   -27956   -22472    -7533     6841     5769 
  -15999   -54737   -57938     7781    70605    46219   -30396   -66659 
  -46652   -21748   -34434   -82516  -116784   -90598   -32987    -2678 
    5979     9012    11971    55110   112918    97238    30164      404 
    4770    -3982   -34862   -75874   -83567   -28960    33820    40559 
   -7172   -54757   -59204   -31373     4453    13961   -24000   -59918 
  -58499   -38589   -20363   -42587   -93817   -94106   -49165   -27695 
  -32030   -31441   -33175   -55914   -80847   -87824   -62993    10962 
   68678    43709    22649    73066    94678    38108     7330    41175 
   70590    52947   -18841   -83244   -53511     9549     4166   -18643 
    9923    37179     8778   -45790   -70643   -38849     4306    -8597 
  -48068   -40774    -6007    -9845   -42765   -58046   -50556   -24581 
    2040    -4525   -13860    18571    47464    15290   -51171   -88459 
  -78604   -51363   -35763   -41977   -52664   -28471    13626     6648 
  -30101   -24712    13410    49805    70856    46520    -9367   -48200 
  -58461   -39018   -16435   -42001   -91708  -102189   -75566   -41014 
   -2437    10771   -42712   -98517   -58396    26790    52237    32126 
   37979    64510    32237   -57524   -85062   -20428    31582    22234 
  -19981   -62751   -56346    -8204    -1029   -32623   -41217   -33473 
  -15898    16591    22648      188    -3869    -3951   -37044   -67810 
  -61143   -44192   -38556   -45826   -57548   -42842    -9509     -368 
   -9820   -13024   -12891   -11615   -17716   -45601   -67736   -48007 
    -567    40451    43595     4141   -32302   -47478   -53242   -36670 
  -22008   -35462   -43351   -40966   -44397   -40767   -36073   -37550 
  -32546   -29272   -32948   -17730    16758    29086     8568   -17679 
  -43211   -62444   -50477   -22855   -26267   -61036   -88492   -73110 
   -6777    46697    13268   -53620   -46231    15084    33922     3081 
  -18734   -16673    -7613     6771    19493    10108   -19294   -33149 
   -7037    31153    35150     6989     1107    39422    59163    22653 
  -21942   -41366   -39233   -35907   -60292   -80270   -58318   -40652 
  -49839   -44144   -31130   -37491   -37385   -19832    -3653    -8643 
  -46724   -82211   -88967   -89844   -77505   -38497    -7243   -21840 
  -70091   -74812   -15369     -502   -59313   -79292   -35981    -4442 
    -523     3706    -1679   -37608   -58895   -26026     1055   -18588 
  -51287   -69480   -46506    16539    59231    48728     5382   -47615 
  -82238   -77224   -62203   -68115   -59058   -23494   -13655   -20773 
  -11610   -22534   -66388   -93591   -55617    44225   132215   153439 
  120038    62962    30283    29036    -6900   -77621  -104619   -77031 
  -36413    11889    47563    25869   -23910   -48656   -54425   -32430 
   18669    28675   -19144   -56365   -60294   -43171    -7894     4417 
  -17958   -16491    -3400   -28342   -41665   -12722    -4231   -40785 
  -78459   -74048   -29129     6552     9344     2629    -6888    -1594 
   45943    84309    61648    17230   -30879   -90147   -98796   -40842 
   -4192   -26869   -66791   -80150   -54858   -31780   -38135   -37508 
  -14605    -2462   -14471   -22507   -12619    -3050    14374    44702 
   49032    21676    -7661   -34214   -56524   -67717   -68226   -58073 
  -51873   -61442   -59984   -25085    16985    29097    15069    11370 
   26260    32077     8489   -51428  -102767   -80982   -35623   -27047 
   -2881    36696    39234    31493     9792   -47815   -78348   -83218 
 -118198  -125447   -62117     2872    29023    33338    34811    36346 
   20554     -402    -7289   -21798   -41114   -56939   -75697   -50740 
   10435    21215    -2264    -1119    12660    35232    45665     4865 
  -45277   -63899   -70172   -61364   -28022     9605    33997    35310 
    -363   -55131   -77043   -65360   -61665   -59877   -36956   -15629 
  -20370   -21186     7118    33484    43876    42466    14210    -8024 
    7248    -3745   -71518  -107869   -66584   -21266   -27270   -53651 
  -55744   -26569     6725    16980      807   -20836   -14517    14952 
   20093   -18701   -68652   -81062   -49504   -28111   -49271   -76330 
  -74213   -42633     6645    43166    49337    48672    52325    52527 
   51583    35196    -3534   -35783   -52164   -56430   -40574   -26692 
  -37324   -48032   -30231    -4770   -25092   -78493   -85576   -46191 
  -35708   -50659   -32495   -13506   -37887   -38092     7684    21174 
   -1026   -23059   -46029   -35614     9405    16152   -17653   -27225 
    -826    34067    53934    38245   -13548   -69944   -92190   -85975 
  -79225   -61263   -26199    11505    45899    58786    53352    44025 
    9662   -34847   -48321   -49237   -61703   -61035   -27267    11771 
   15178    -4524    -4207    10710     9477   -13757   -44014   -48016 
  -36125   -62480   -87377   -38398    27563    33925     5832    -7929 
    2986    12310    -4614   -32652   -55211   -67871   -58599   -39799 
  -41325   -56018   -51228   -23221    -4760   -18137   -36617   -32439 
  -33286   -51868   -49361   -25082    -5467    17543    33840    21381 
    4936     4709     3470   -11387   -30610   -43468   -57436   -64478 
  -48664   -44329   -63287   -55269   -22978    -9762    -6441     5267 
   18874    31625    29128     6283    -4251    -1286   -13134   -15910 
   10262    20148    -6915   -31657   -40056   -56947   -74616   -69991 
  -58015   -34388    20557    48453     2463   -43271   -36141   -22834 
  -17723    -4592    -8964   -25992   -20745    -6628     -643    -3894 
  -31922   -56881   -43241   -31596   -33557    -7950    10836   -13715 
  -32768   -40361   -73181   -95094   -76916   -46595     2995    52998 
   27387   -28414   -11707    30444    31757    11925   -26004   -62615 
  -55254   -20220     7587     9295   -13991   -26538   -25319   -43694 
  -66283   -62782   -43629   -19910     2237      -28   -20152   -15497 
    6078     5489   -10057   -39458   -82637   -86744   -45456   -20131 
  -14547     2828     7442   -21882   -51986   -55354   -36828   -16338 
  -13768   -31364   -49471   -37430    -1604     2657   -34123   -54411 
  -47115   -48456   -42835   -15416    -6332   -16472   -19472   -28850 
  -42613   -46550   -50435   -42925   -14904    -5326   -26474   -31163 
  -14198   -18751   -39077   -46651   -42871   -33997   -28584   -29082 
  -29113   -31582   -29778   -23953   -31724   -30644     -253    15688 
     712    -9843    -8043     7033    39323    50769    12321   -38433 
  -59086   -56168   -48579   -39816   -28059   -19906   -26174   -39279 
  -47288   -53129   -57822   -55314   -37201   -10469     -295    -5609 
  -10653   -17096    -9803    14192    15643     3137    18521    27940 
   -6580   -38532   -28428     6862    34848    19768   -23918   -32186 
   -8612   -10500   -32931   -33195   -15718   -17880   -41548   -47047 
  -22902     2642    15685    11770   -17891   -61584   -85619   -71397 
  -42669   -24107   -22933   -45179   -58461   -40065   -30379   -39081 
  -44939   -56381   -63809   -48579   -19201    14117    34214    20350 
  -15715   -31403   -12480    -6915   -33494   -40796   -21321   -13492 
  -18457   -31469   -43783   -25052    10610    15944    -7728   -22744 
  -18260   -10071   -11563   -27783   -40366   -25989    -6201    -5806 
     -69    12191    -7588   -36933   -38715   -41780   -50718   -37966 
  -20602   -14781    -9056   -11343   -31470   -39967   -18297     3335 
   13263    14373   -12377   -40562   -34834   -30067   -37948   -16909 
   25226    43887    30135    -4931   -37694   -38844   -27751   -26018 
  -19372   -27713   -54958   -55769   -38681   -39863   -55396   -69189 
  -59105   -27980   -20355   -45884   -67113   -62054   -45059   -36524 
  -26057   -10956   -22677   -61291   -96605  -118195  -119814   -89997 
  -36792    -2369   -21858   -65521   -77190   -43771     2101    21838 
   14680      924   -14177   -22780   -18510   -10884    -7207   -11721 
  -17972   -14819   -16896   -35848   -49232   -37059   -16786   -14798 
  -17692    -4323     2057   -12110   -14619     1191     9207     7552 
    2880   -14169   -40263   -45559   -31709   -38804   -45618    -7896 
   34855    40638    38506    46606    20853   -53966  -104003   -85514 
  -46077   -31777   -39793   -38137   -26553   -29706   -19429     4960 
   -2943    -2897    27882     5666   -64488   -86761   -59364   -32999 
  -17325   -10022    -8156   -12079   -27097   -50709   -84849  -118238 
