Origin Time       2011/03/11 14:46:00
Lat.              38.103
Long.             142.860
Depth. (km)       24
Mag.              9.0
Station Code      IWT015
Station Lat.      39.3183
Station Long.     140.7794
Station Height(m) 247
Record Time       2011/03/11 14:47:00
Sampling Freq(Hz) 100Hz
Duration Time(s)  300
Dir.              N-S
Scale Factor      3920(gal)/6182761
Max. Acc. (gal)   94.094
Last Correction   2011/03/11 14:46:45
Memo.             
[...]
  -22080   -22350   -27132   -33819   -37818   -37658   -35165   -33080 
  -32458   -32520   -31406   -27539   -23068   -21203   -21671   -23902 
  -28194   -33604   -38736   -41836   -40202   -33282   -26907   -27538 
  -32953   -36723   -36704   -34462   -32471   -32764   -35230   -38186 
  -40628   -41845   -40213   -35328   -30233   -27862   -26797   -25154 
  -24427   -25136   -25455   -25522   -26203   -26970   -29326   -34797 
  -39108   -37702   -34191   -34910   -39961   -45730   -50037   -52170 
  -53046   -55000   -59366   -63931   -64194   -58953   -50489   -40605 
  -31217   -24568   -21736   -21978   -22827   -23623   -25975   -28981 
  -30322   -30271   -31682   -37032   -43184   -44432   -40585   -34217 
  -27373   -22487   -18628   -12890    -7277    -6756   -12284   -19484 
  -24101   -27144   -31351   -36015   -39378   -42357   -46854   -50455 
  -47842   -39790   -33150   -31760   -33745   -35944   -37164   -37204 
  -34925   -29910   -25404   -25315   -28665   -32049   -34960   -38007 
  -40298   -40514   -37815   -32811   -26971   -21779   -19529   -20385 
  -22123   -24917   -28945   -31077   -28586   -22011   -15990   -16644 
  -24251   -32423   -36280   -36925   -37339   -37107   -33764   -28080 
  -24298   -25825   -31389   -34743   -31699   -25619   -21310   -20023 
  -22519   -27530   -30147   -28553   -26431   -27988   -32559   -34341 
  -31792   -29752   -29816   -31595   -36040   -39137   -36049   -29152 
  -22885   -19603   -20545   -24854   -30098   -33322   -33306   -33178 
  -35829   -39841   -43963   -47947   -49567   -48624   -47805   -46841 
  -43263   -37603   -33548   -32420   -30143   -24186   -18345   -16866 
  -20668   -27574   -32433   -32419   -30374   -29453   -29794   -30435 
  -30360   -29300   -29027   -31175   -34375   -36092   -34725   -30296 
  -24961   -21149   -20075   -21810   -26695   -34603   -40850   -40714 
  -36518   -34169   -36925   -42087   -44154   -42102   -39050   -35830 
  -30175   -24513   -24971   -29319   -31081   -31275   -33196   -36552 
  -39968   -41813   -41210   -38938   -36596   -34165   -29695   -25474 
  -25975   -29049   -30333   -29601   -28666   -29097   -30105   -30492 
  -32107   -35014   -34780   -29775   -24274   -22719   -25957   -32057 
  -37665   -38977   -35528   -32261   -31851   -30727   -26612   -20907 
  -15891   -15363   -21116   -29098   -34097   -34250   -31854   -31332 
  -33481   -35278   -35419   -35440   -36341   -36968   -36634   -35566 
  -32953   -30112   -30267   -32355   -32921   -32204   -31585   -29494 
  -25842   -23928   -25071   -28475   -32887   -35719   -35852   -34207 
  -29745   -20959   -11307    -6505    -7979   -13866   -20424   -22525 
  -20593   -20558   -23201   -24473   -24682   -26594   -29771   -32348 
  -33676   -35441   -39423   -42960   -41593   -35438   -29600   -28859 
  -32666   -37248   -41236   -44277   -44055   -41135   -39616   -40062 
  -39653   -36478   -30662   -25447   -24429   -26586   -27670   -27237 
  -30386   -38277   -44652   -47096   -48903   -49312   -45369   -38185 
  -29851   -20537   -12502   -10918   -16024   -23745   -31721   -35868 
  -33931   -30604   -29641   -32360   -39707   -48238   -52134   -47932 
  -38180   -29893   -25445   -23084   -21417   -18947   -18321   -23085 
  -29566   -33264   -34694   -33915   -30041   -26413   -26800   -29219 
  -29895   -27714   -24181   -23204   -26617   -29899   -29344   -30033 
  -36240   -43224   -47467   -48563   -44087   -36863   -33354   -33637 
  -33335   -29519   -24971   -25535   -30634   -35206   -37849   -39586 
  -40008   -38542   -37101   -37091   -36475   -33911   -29526   -24459 
  -23166   -26522   -29166   -28866   -27122   -25486   -25855   -28628 
  -33641   -40267   -44947   -45296   -42916   -39875   -36185   -30929 
  -26583   -27305   -31804   -35401   -36320   -35643   -35316   -37853 
  -43123   -45634   -42068   -36526   -32816   -31094   -31262   -31480 
  -29714   -27187   -24658   -22211   -23459   -32459   -46481   -56734 
  -57619   -50921   -42903   -39878   -42620   -46623   -48142   -45842 
  -38338   -25945   -13348    -5135    -2472    -5080   -11045   -16869 
  -21098   -25551   -30718   -34068   -34921   -34257   -31946   -29540 
  -28401   -26493   -23424   -21082   -19464   -18835   -21204   -27602 
  -37377   -48181   -57246   -64370   -68866   -67054   -58421   -46913 
  -35685   -25732   -16311    -6519     1469     2078    -7307   -20000 
  -28001   -32859   -39222   -47040   -55102   -60889   -59068   -47395 
  -30680   -17494   -11145    -6575    -1263      420    -2982    -7782 
  -12094   -17148   -24062   -31210   -34766   -34639   -37068   -45314 
  -51773   -49089   -41725   -35971   -31080   -26429   -25552   -30391 
  -37689   -44379   -51150   -56781   -57855   -55825   -55769   -58951 
  -62246   -63444   -61832   -56353   -47241   -35195   -22002   -13898 
  -14841   -19552   -21332   -20502   -20772   -22924   -24643   -23490 
  -20200   -19719   -24247   -28446   -28751   -28352   -28977   -29026 
  -27890   -26152   -25528   -27940   -33544   -40113   -44102   -45333 
  -46793   -48481   -49248   -49772   -48000   -40683   -30770   -23074 
  -16938   -11936    -9746    -9730   -11545   -15309   -21131   -29653 
  -37380   -40370   -41502   -44992   -49620   -51947   -52495   -55088 
  -60364   -64225   -62845   -56537   -49755   -47116   -47314   -43202 
  -32316   -22690   -21671   -26281   -29907   -31339   -33253   -35897 
  -37769   -38715   -37097   -31100   -24667   -23256   -26082   -29638 
  -32178   -32261   -30419   -28476   -26446   -25254   -26010   -26945 
  -27531   -31048   -39311   -47926   -50129   -45029   -37308   -29004 
  -19946   -13462   -12176   -13671   -14576   -14884   -18164   -25795 
  -32669   -34579   -34287   -34043   -31018   -25040   -20979   -21140 
  -22885   -23362   -22067   -19812   -16987   -14177   -14398   -19110 
  -25055   -29898   -33363   -34429   -32511   -27563   -21632   -20078 
  -25405   -32997   -37686   -40207   -43356   -47430   -50421   -49497 
  -45724   -43822   -44687   -46029   -47008   -46646   -43984   -40268 
  -38180   -40415   -46670   -52219   -53060   -49989   -46399   -43634 
  -39455   -33402   -28618   -26010   -24816   -24686   -23439   -21625 
  -23909   -30446   -36389   -39077   -39447   -38874   -36617   -31647 
  -26029   -22996   -23201   -23647   -21415   -19200   -20380   -22388 
  -22377   -20912   -19925   -21634   -24144   -23611   -22240   -23376 
  -26015   -30034   -34889   -36788   -33785   -27226   -21204   -19680 
  -20950   -23070   -27992   -34359   -38167   -39575   -41200   -43075 
  -43926   -45140   -46427   -42950   -34153   -25067   -18845   -16814 
  -19047   -23163   -26583   -27836   -27924   -29419   -33015   -39029 
  -46789   -51369   -48878   -40713   -29123   -15916    -5185     -565 
   -1566    -6619   -14132   -20360   -24227   -28810   -33645   -34584 
  -31458   -28999   -31123   -36962   -42672   -45226   -43852   -41874 
  -43801   -48962   -54770   -60079   -62223   -59299   -53167   -46123 
  -39150   -34959   -35822   -38152   -37471   -34257   -29985   -26243 
  -26220   -29348   -31448   -32732   -36838   -43847   -50417   -52907 
  -49294   -41897   -36424   -35965   -37700   -37300   -35605   -37125 
  -42800   -48735   -51240   -50022   -45513   -38865   -34585   -32676 
  -27031   -18036   -10809    -5990    -3075    -3657    -9072   -18396 
  -28984   -37494   -39169   -31733   -20532   -14627   -18154   -25979 
  -29736   -27765   -24137   -21742   -19963   -16768   -13265   -13041 
  -17239   -23283   -26427   -24611   -19961   -14285   -10240   -11565 
  -16818   -21710   -25888   -30454   -34607   -37670   -39987   -41881 
  -42895   -42152   -41438   -44344   -47839   -44161   -34607   -27836 
  -27101   -30005   -33759   -37127   -40467   -42729   -42656   -43159 
  -46220   -47629   -44340   -38630   -32832   -28211   -26769   -30399 
  -37672   -42928   -43946   -45182   -49106   -52957   -54026   -52399 
  -49325   -44962   -39510   -33852   -28887   -27452   -30956   -35335 
  -37326   -36684   -31685   -23333   -17514   -16702   -19121   -23701 
  -28463   -30307   -28141   -23151   -17159   -12060   -10495   -12372 
  -13538   -14228   -20135   -31013   -38971   -40118   -38272   -36089 
  -32287   -27593   -24740   -24965   -28691   -34692   -39626   -42755 
  -45769   -47281   -44332   -36457   -26649   -20220   -18324   -18279 
  -20256   -23493   -25818   -28388   -31487   -33527   -33365   -29667 
  -23504   -17438   -12493    -9932   -10276   -12092   -14102   -14432 
  -11282    -5442      887     4508      427   -14328   -33274   -43631 
  -41810   -35557   -31341   -30425   -31678   -32366   -30446   -26901 
  -23851   -21872   -22644   -28514   -36239   -40942   -42385   -40942 
  -36875   -33106   -31232   -28332   -21767   -13369    -6106    -1076 
     618    -1840    -7872   -17997   -31595   -42527   -44542   -38028 
  -28713   -23592   -26931   -37058   -47522   -53515   -55796   -55912 
  -53163   -48139   -42143   -36539   -35415   -40162   -45491   -47898 
  -48600   -46323   -37613   -24390   -15225   -15411   -19874   -23130 
  -26508   -31799   -38190   -42738   -43003   -39888   -34616   -29747 
  -27442   -22923   -13874    -6663    -4345    -3511     -600     4651 
    9083    12163    16471    21492    25147    26505    24862    21412 
   18772    16666    10473    -4989   -27882   -48020   -58234   -61240 
  -62956   -66813   -72717   -77091   -77482   -76682   -77122   -75260 
  -68227   -57884   -45862   -35491   -32760   -39155   -52397   -69017 
  -80200   -76861   -61007   -42117   -24361    -7743     3680     5276 
   -2819   -16098   -26928   -31278   -32615   -34869   -39331   -44430 
  -44246   -37399   -29866   -21615    -7757     8528    21225    29421 
   30953    21045      309   -25799   -53264   -76598   -89349   -92790 
  -90404   -79842   -60759   -38323   -17775    -1855    10393    20016 
   25217    25786    21926    12095    -2672   -18875   -31680   -37168 
  -37994   -38030   -35046   -27775   -21478   -20069   -19604   -15097 
   -8137    -4142    -7376   -17840   -31439   -43809   -51960   -56128 
  -59757   -64591   -69326   -70215   -63404   -50839   -37627   -24695 
  -11119     -974    -2057   -14016   -26679   -35159   -42366   -50495 
  -60007   -67854   -69545   -67163   -66920   -69464   -67815   -57388 
  -44387   -38153   -41158   -49718   -58219   -62889   -63092   -59101 
  -49733   -33190   -12369     6306    19307    24204    21106    17408 
   19353    22892    19757     8291    -7524   -23693   -34862   -37538 
  -35871   -35758   -37296   -37458   -35069   -29958   -21546    -9293 
    6496    21126    27386    24346    17152    10122     5168     1593 
   -2967    -9875   -21040   -37028   -53758   -67459   -75152   -73241 
  -64148   -54832   -48563   -45480   -45215   -45995   -46414   -46327 
  -41974   -28994   -12746    -4208    -8046   -19170   -27606   -29204 
  -28744   -30840   -34347   -36220   -36289   -36386   -37677   -40501 
  -45736   -54837   -67018   -77342   -78441   -66834   -47885   -29876 
  -17427   -13543   -17373   -22234   -24757   -24679   -19094   -12487 
  -16163   -29861   -42262   -45622   -39744   -31079   -28282   -32769 
  -38577   -39978   -35536   -29022   -24765   -22091   -19197   -16587 
  -13488    -8810    -4460    -1849    -1177    -5688   -17497   -32275 
  -44451   -51998   -56260   -58288   -53377   -36955   -13931     6189 
   17039    15795     4804    -7130   -14801   -23395   -36310   -47863 
  -52162   -48574   -39969   -29498   -16921      739    22902    42570 
   52596    51836    42500    25287      992   -24109   -40116   -44217 
  -43011   -42891   -45101   -47866   -49449   -50081   -51608   -55031 
  -58279   -61831   -71761   -87556   -99154  -100094   -93394   -88444 
  -91142   -95887   -95246   -90329   -85644   -82779   -81063   -80374 
  -82536   -88435   -94510   -95144   -86933   -69991   -48922   -31267 
  -22981   -26572   -38901   -51153   -57606   -60401   -62271   -60030 
  -48706   -28800    -4808    19261    38491    46984    45375    44065 
   51367    63336    70041    65421    49701    27602     5767   -10539 
  -19128   -19581   -15093   -14671   -23090   -32350   -33274   -26913 
  -19838   -17338   -20721   -26102   -28540   -27385   -23403   -17303 
  -14304   -20262   -35629   -57668   -80853   -96984  -100394   -90906 
  -73850   -58464   -49972   -44139   -35871   -26989   -19565   -11785 
   -5786    -6264   -10848   -16586   -25645   -37391   -48976   -58243 
  -62758   -63440   -60995   -51641   -36373   -25039   -25532   -37319 
  -54521   -68495   -73443   -70861   -63829   -55023   -47759   -40950 
  -34163   -34206   -42301   -47349   -40965   -27298   -17760   -21849 
  -38388   -55485   -61009   -51017   -31567   -12446     1518     8721 
    7271    -3595   -24641   -54304   -83729  -102446  -107259  -101915 
  -93296   -85393   -74060   -54633   -31604   -14737    -5265     8251 
   30494    49900    55855    45541    20773    -7120   -25346   -34562 
  -41034   -46813   -55335   -68610   -81877   -89036   -83398   -61938 
  -36739   -24759   -26848   -31342   -28550   -15854      581    12374 
   17219    15938     8318    -9047   -37559   -66301   -81298   -84282 
  -88944  -102907  -123231  -143840  -158621  -162729  -156428  -143867 
 -127921  -108835   -85999   -59811   -33891   -15465    -9506   -14411 
  -25782   -37977   -43859   -38850   -21013     7544    35585    54759 
   70312    87077   102096   112546   116507   110732    95894    79791 
   70226    69219    73844    77505    74964    64978    44532    12936 
  -19019   -40505   -52929   -61589   -70177   -83038  -100340  -115350 
 -120712  -116416  -109436  -103944   -97371   -85693   -69190   -52621 
  -39947   -32729   -32996   -46503   -76376  -110715  -130150  -125183 
 -101034   -70891   -44374   -24634   -11607    -3725     1644     9341 
   21524    31934    33320    25493    10128   -10019   -23348   -17612 
    4228    29151    48235    58039    59208    55798    47406    27165 
   -4740   -33791   -48022   -50217   -48446   -50949   -60677   -69022 
  -70451   -69837   -70176   -71276   -73225   -75499   -81030   -92975 
 -107778  -119903  -125865  -125029  -120238  -114173  -108341  -102161 
  -92289   -76806   -57205   -37529   -20837    -5665    10355    24992 
   33846    36123    32464    21654     3587   -17751   -34015   -39938 
  -41048   -43930   -46328   -44036   -35535   -20977    -4989     4561 
    2308   -10589   -24974   -31357   -31842   -35008   -41368   -45372 
  -44944   -40083   -27685    -5998    16710    28258    26107    15832 
    3329    -5181    -6985    -8984   -17345   -27487   -33490   -34730 
  -33067   -32847   -36645   -39668   -35715   -25199   -14228    -8945 
  -10203   -12608    -9429      627    12204    18907    16817     4896 
  -14367   -36167   -54129   -62793   -63603   -64147   -70471   -82886 
  -96235  -104780  -109687  -116893  -128120  -139432  -144283  -136478 
 -115409   -85540   -52728   -27272   -17940   -17969   -11895     6398 
   32105    56249    69910    72231    70585    68630    65090    59018 
   48137    31237    10628   -12572   -40209   -73169  -106492  -130925 
 -140774  -137001  -124565  -107737   -88775   -72393   -64235   -63750 
  -64202   -59390   -48833   -36776   -29228   -31338   -41634   -51672 
  -54004   -45135   -26191    -4945     9950    12590    -1621   -29674 
  -59411   -79591   -85158   -76901   -61864   -50182   -46838   -45718 
  -36396   -19740    -7662    -3952       47     9761    23377    39164 
   54230    63867    66686    62762    50255    29677     6614   -13276 
  -30250   -49072   -70460   -86511   -87201   -69647   -41657   -19759 
  -17920   -33580   -52102   -61973   -60055   -51083   -42841   -37672 
  -33552   -29449   -24009   -15985    -7055     -184     2090    -1209 
   -6853    -8996    -6333    -4860   -10570   -21843   -30992   -31376 
  -23103   -12616    -5405    -1927    -1931    -4034    -1810     7800 
   15968    10390   -12274   -43835   -70992   -85779   -90934   -94048 
  -97143   -94937   -83766   -67176   -50254   -34260   -20065    -9980 
   -4999    -6793   -16517   -29722   -41989   -51340   -53582   -49108 
  -43957   -38149   -28494   -18384   -11548    -6973    -6032   -10011 
  -14031   -14549   -14428   -18467   -28168   -39264   -48207   -57176 
  -64637   -62174   -45787   -19439    10024    33933    43531    36483 
   19096     1765    -8213   -14259   -25681   -43285   -60276   -72482 
  -81070   -89134   -94312   -91827   -85367   -82643   -86393   -93705 
  -98589   -99037   -99103  -102019  -106950  -110219  -107063   -93596 
  -69135   -39967   -17123    -5771    -2565    -5417   -14529   -25392 
  -34417   -42692   -49858   -57908   -70795   -83711   -88953   -87193 
  -83432   -80801   -78280   -68994   -45337    -9431    26834    54113 
   71544    82300    88244    87457    78508    63803    45897    27302 
   11591     2329     3084    11927    20422    24792    26753    24753 
   16103     -201   -22500   -42013   -53078   -60784   -68210   -74500 
  -80478   -83247   -77806   -64822   -49408   -35062   -20367    -3709 
    9775    12573     3720   -11978   -30355   -48596   -61573   -65852 
  -65627   -66017   -65967   -62867   -58152   -56854   -61930   -67849 
  -65659   -54457   -40323   -29876   -26944   -28239   -28782   -29621 
  -31906   -33369   -33113   -34726   -44541   -63045   -82089   -93646 
  -96476   -95881   -96204   -94392   -84555   -64220   -40048   -28824 
  -37903   -51607   -51573   -36119   -15956    -3014    -1857   -10065 
  -23116   -35877   -44946   -50301   -52732   -49419   -35483   -12095 
   12359    30630    41781    46650    44554    35872    21794     5859 
   -5259    -8849    -7896    -5677    -3973    -3559    -2343     5060 
   21067    41145    58808    69167    70293    66337    63339    61291 
   55987    46078    32289    13153   -11160   -36196   -59040   -79995 
  -98144  -108852  -106031   -88314   -62662   -40589   -30096   -31944 
  -43508   -61056   -78564   -90083   -93145   -89508   -83791   -80831 
  -84081   -93570  -104663  -111633  -111563  -105098   -93977   -77981 
  -59799   -48145   -46221   -47313   -45871   -41079   -34943   -31123 
  -29848   -29065   -28289   -28341   -31409   -38416   -49602   -65637 
  -80983   -86464   -79770   -64816   -47592   -34203   -25264   -16192 
   -5388     5001    14983    25775    34325    35202    26471     9444 
  -11833   -30018   -39991   -41317   -34118   -20111    -5797     2041 
    1704    -3468    -7833    -9101    -9005    -9373   -13734   -23461 
  -32334   -35090   -33028   -29013   -26769   -31685   -44018   -54144 
  -53180   -44626   -37368   -35721   -38711   -39848   -33993   -24373 
  -15275   -10247   -14652   -26779   -39231   -48113   -50058   -43216 
  -32256   -25296   -30860   -52017   -79275   -99181  -108562  -111756 
 -111637  -110950  -112843  -114939  -110027   -94219   -69732   -42709 
  -23085   -19082   -26151   -31715   -32555   -34129   -39227   -47443 
  -53761   -52056   -46682   -44177   -42186   -37490   -28736   -16868 
   -8992    -8766   -11333   -13276   -14187   -10746      -35    13707 
   22001    20399    10162    -4809   -17796   -21851   -16530    -6197 
    6029    18735    30048    37324    39204    35173    25374    14557 
