Origin Time       2011/03/11 14:46:00
Lat.              38.103
Long.             142.860
Depth. (km)       24
Mag.              9.0
Station Code      KGW004
Station Lat.      34.3473
Station Long.     134.0375
Station Height(m) 2
Record Time       2011/03/11 14:51:48
Sampling Freq(Hz) 100Hz
Duration Time(s)  60
Dir.              N-S
Scale Factor      3920(gal)/6182761
Max. Acc. (gal)   1.759
Last Correction   2011/03/11 14:51:33
Memo.             
  -67309   -67335   -67349   -67378   -67430   -67478   -67459   -67355 
  -67226   -67117   -67046   -67009   -66991   -66990   -67001   -67001 
  -66971   -66899   -66792   -66671   -66541   -66403   -66279   -66211 
  -66203   -66213   -66189   -66096   -65950   -65828   -65758   -65695 
  -65604   -65490   -65414   -65406   -65413   -65418   -65436   -65452 
  -65425   -65321   -65168   -65058   -65043   -65077   -65080   -65038 
  -65000   -65011   -65061   -65071   -65028   -65014   -65056   -65126 
  -65216   -65307   -65393   -65477   -65554   -65622   -65674   -65735 
  -65845   -66000   -66185   -66388   -66571   -66704   -66746   -66734 
  -66745   -66775   -66848   -66990   -67115   -67198   -67305   -67457 
  -67611   -67710   -67740   -67724   -67704   -67697   -67677   -67667 
  -67736   -67885   -68022   -68060   -68019   -67990   -67977   -67933 
  -67848   -67727   -67631   -67612   -67627   -67639   -67636   -67605 
  -67547   -67445   -67305   -67153   -67010   -66899   -66809   -66707 
  -66616   -66564   -66538   -66521   -66479   -66366   -66201   -66069 
  -65986   -65895   -65804   -65739   -65700   -65683   -65641   -65561 
  -65491   -65437   -65402   -65393   -65372   -65320   -65241   -65133 
  -65001   -64884   -64843   -64845   -64820   -64781   -64749   -64730 
  -64727   -64701   -64628   -64522   -64421   -64391   -64424   -64464 
  -64530   -64617   -64664   -64668   -64662   -64671   -64700   -64736 
  -64784   -64845   -64918   -64977   -65013   -65068   -65167   -65293 
  -65415   -65491   -65544   -65599   -65639   -65667   -65683   -65693 
  -65722   -65772   -65843   -65913   -65935   -65934   -65954   -65967 
  -65944   -65899   -65869   -65853   -65827   -65803   -65764   -65698 
  -65664   -65682   -65708   -65708   -65671   -65603   -65513   -65412 
  -65345   -65334   -65382   -65456   -65510   -65540   -65548   -65531 
  -65500   -65424   -65308   -65230   -65231   -65299   -65404   -65487 
  -65519   -65527   -65558   -65594   -65570   -65506   -65480   -65512 
  -65581   -65647   -65681   -65692   -65713   -65748   -65764   -65760 
  -65768   -65797   -65847   -65884   -65888   -65890   -65899   -65924 
  -65962   -65989   -66023   -66071   -66132   -66208   -66259   -66274 
  -66295   -66320   -66347   -66385   -66428   -66471   -66498   -66499 
  -66510   -66510   -66483   -66476   -66497   -66524   -66550   -66565 
  -66568   -66562   -66545   -66525   -66499   -66494   -66529   -66561 
  -66566   -66545   -66537   -66584   -66653   -66692   -66683   -66655 
  -66644   -66635   -66615   -66593   -66578   -66581   -66592   -66585 
  -66561   -66546   -66583   -66658   -66707   -66709   -66680   -66649 
  -66646   -66665   -66682   -66717   -66789   -66875   -66912   -66877 
  -66816   -66768   -66755   -66773   -66801   -66844   -66869   -66851 
  -66834   -66788   -66719   -66701   -66686   -66633   -66585   -66559 
  -66559   -66574   -66593   -66603   -66590   -66565   -66532   -66510 
  -66503   -66475   -66455   -66468   -66490   -66518   -66531   -66514 
  -66509   -66514   -66520   -66540   -66542   -66517   -66492   -66474 
  -66459   -66444   -66427   -66407   -66373   -66351   -66364   -66382 
  -66403   -66453   -66497   -66494   -66472   -66467   -66474   -66489 
  -66508   -66549   -66629   -66705   -66737   -66730   -66693   -66674 
  -66694   -66692   -66684   -66724   -66766   -66778   -66775   -66762 
  -66744   -66728   -66729   -66737   -66716   -66693   -66689   -66679 
  -66652   -66617   -66604   -66601   -66575   -66552   -66531   -66499 
  -66470   -66433   -66387   -66343   -66288   -66251   -66253   -66269 
  -66298   -66336   -66354   -66324   -66257   -66200   -66161   -66130 
  -66123   -66112   -66078   -66051   -66043   -66044   -66039   -66011 
  -65966   -65912   -65873   -65874   -65908   -65955   -66009   -66076 
  -66135   -66164   -66172   -66167   -66157   -66163   -66181   -66206 
  -66244   -66274   -66298   -66328   -66343   -66342   -66327   -66300 
  -66293   -66304   -66308   -66313   -66333   -66359   -66383   -66394 
  -66369   -66323   -66294   -66298   -66322   -66333   -66321   -66307 
  -66280   -66232   -66202   -66186   -66153   -66134   -66112   -66056 
  -66011   -65980   -65956   -65950   -65951   -65948   -65929   -65908 
  -65906   -65888   -65851   -65834   -65825   -65801   -65763   -65733 
  -65712   -65673   -65649   -65656   -65636   -65596   -65567   -65526 
  -65467   -65427   -65435   -65454   -65439   -65417   -65405   -65394 
  -65389   -65368   -65336   -65326   -65332   -65351   -65374   -65375 
  -65379   -65388   -65385   -65379   -65382   -65412   -65453   -65487 
  -65548   -65601   -65592   -65582   -65607   -65623   -65633   -65677 
  -65741   -65792   -65826   -65832   -65806   -65800   -65826   -65856 
  -65897   -65932   -65945   -65958   -65957   -65934   -65930   -65960 
  -66010   -66064   -66115   -66159   -66197   -66239   -66281   -66309 
  -66320   -66331   -66364   -66405   -66424   -66441   -66476   -66514 
  -66559   -66589   -66584   -66592   -66636   -66677   -66707   -66753 
  -66811   -66855   -66895   -66941   -66978   -67026   -67086   -67126 
  -67143   -67157   -67191   -67248   -67324   -67420   -67497   -67541 
  -67575   -67585   -67604   -67682   -67757   -67789   -67832   -67910 
  -67992   -68055   -68105   -68155   -68215   -68304   -68404   -68462 
  -68468   -68458   -68476   -68519   -68553   -68575   -68586   -68589 
  -68608   -68627   -68619   -68597   -68564   -68534   -68505   -68475 
  -68474   -68478   -68461   -68445   -68419   -68362   -68277   -68186 
  -68128   -68105   -68088   -68068   -68033   -67985   -67933   -67866 
  -67812   -67788   -67761   -67702   -67617   -67555   -67529   -67503 
  -67476   -67444   -67393   -67357   -67342   -67320   -67291   -67279 
  -67277   -67247   -67197   -67149   -67106   -67084   -67097   -67124 
  -67143   -67159   -67194   -67229   -67233   -67226   -67242   -67301 
  -67378   -67419   -67439   -67467   -67520   -67618   -67730   -67801 
  -67856   -67935   -68006   -68048   -68081   -68122   -68190   -68290 
  -68383   -68424   -68429   -68441   -68476   -68525   -68556   -68559 
  -68558   -68554   -68536   -68501   -68456   -68421   -68381   -68336 
  -68297   -68237   -68182   -68179   -68190   -68171   -68111   -68020 
  -67945   -67888   -67817   -67718   -67600   -67502   -67441   -67404 
  -67365   -67291   -67214   -67153   -67072   -66982   -66885   -66766 
  -66671   -66618   -66555   -66464   -66365   -66282   -66210   -66138 
  -66061   -65962   -65860   -65780   -65707   -65645   -65587   -65515 
  -65457   -65412   -65350   -65281   -65219   -65183   -65163   -65129 
  -65076   -65029   -65026   -65043   -65016   -64960   -64937   -64969 
  -65005   -64986   -64967   -64984   -64989   -64996   -65023   -65046 
  -65106   -65196   -65261   -65304   -65320   -65340   -65406   -65470 
  -65494   -65503   -65521   -65568   -65635   -65704   -65774   -65824 
  -65855   -65888   -65916   -65935   -65961   -65997   -66031   -66077 
  -66150   -66214   -66245   -66273   -66311   -66355   -66402   -66435 
  -66463   -66489   -66498   -66498   -66492   -66493   -66528   -66575 
  -66607   -66631   -66654   -66672   -66682   -66698   -66714   -66719 
  -66741   -66783   -66819   -66838   -66857   -66881   -66893   -66894 
  -66895   -66882   -66845   -66832   -66871   -66888   -66853   -66845 
  -66857   -66830   -66816   -66816   -66776   -66743   -66732   -66699 
  -66651   -66610   -66581   -66556   -66512   -66477   -66466   -66431 
  -66369   -66318   -66275   -66240   -66196   -66133   -66087   -66067 
  -66052   -66047   -66034   -66001   -65965   -65931   -65900   -65878 
  -65862   -65828   -65783   -65752   -65744   -65767   -65810   -65842 
  -65858   -65858   -65844   -65856   -65891   -65921   -65964   -66019 
  -66072   -66130   -66183   -66245   -66331   -66406   -66461   -66503 
  -66545   -66600   -66654   -66713   -66790   -66858   -66903   -66914 
  -66912   -66942   -66992   -67034   -67063   -67074   -67083   -67103 
  -67121   -67122   -67094   -67064   -67054   -67026   -66969   -66909 
  -66848   -66787   -66738   -66693   -66634   -66565   -66507   -66440 
  -66350   -66285   -66242   -66179   -66112   -66056   -66004   -65965 
  -65930   -65871   -65787   -65720   -65692   -65668   -65644   -65625 
  -65592   -65558   -65531   -65493   -65451   -65411   -65382   -65368 
  -65358   -65353   -65357   -65372   -65370   -65317   -65264   -65244 
  -65216   -65203   -65196   -65152   -65124   -65135   -65130   -65085 
  -65031   -64999   -64972   -64936   -64907   -64882   -64848   -64799 
  -64745   -64706   -64676   -64662   -64676   -64693   -64687   -64660 
  -64625   -64600   -64591   -64605   -64644   -64681   -64716   -64756 
  -64776   -64792   -64843   -64922   -64995   -65051   -65109   -65171 
  -65218   -65263   -65326   -65410   -65501   -65579   -65640   -65678 
  -65729   -65833   -65945   -66021   -66074   -66121   -66190   -66276 
  -66353   -66408   -66440   -66485   -66565   -66630   -66667   -66723 
  -66809   -66896   -66951   -66979   -67021   -67087   -67157   -67205 
  -67224   -67258   -67304   -67317   -67306   -67299   -67330   -67381 
  -67393   -67398   -67422   -67416   -67380   -67335   -67287   -67244 
  -67203   -67164   -67111   -67049   -67016   -66988   -66933   -66874 
  -66829   -66789   -66731   -66642   -66553   -66474   -66384   -66306 
  -66261   -66208   -66098   -65965   -65858   -65761   -65671   -65589 
  -65490   -65394   -65319   -65237   -65142   -65043   -64955   -64899 
  -64851   -64782   -64714   -64667   -64633   -64577   -64501   -64454 
  -64447   -64459   -64453   -64423   -64413   -64436   -64460   -64469 
  -64460   -64468   -64513   -64572   -64630   -64684   -64726   -64782 
  -64854   -64913   -64957   -65013   -65101   -65199   -65272   -65337 
  -65412   -65497   -65578   -65638   -65707   -65799   -65885   -65952 
  -66001   -66052   -66132   -66217   -66290   -66340   -66349   -66357 
  -66386   -66403   -66400   -66385   -66385   -66403   -66419   -66441 
  -66459   -66449   -66416   -66365   -66306   -66259   -66229   -66203 
  -66178   -66154   -66143   -66132   -66105   -66064   -66015   -65981 
  -65957   -65915   -65865   -65826   -65806   -65786   -65743   -65701 
  -65678   -65673   -65680   -65661   -65617   -65589   -65581   -65592 
  -65602   -65590   -65562   -65519   -65466   -65421   -65392   -65366 
  -65324   -65264   -65199   -65131   -65075   -65043   -65011   -64986 
  -64978   -64966   -64941   -64912   -64897   -64906   -64910   -64923 
  -64953   -64971   -64981   -64990   -65006   -65036   -65047   -65035 
  -65016   -64996   -64997   -65006   -64999   -64995   -64994   -64981 
  -64967   -64968   -64995   -65013   -64989   -64949   -64939   -64966 
  -64995   -64982   -64939   -64904   -64911   -64952   -64971   -64966 
  -64973   -64997   -65043   -65087   -65087   -65072   -65071   -65051 
  -65010   -64973   -64941   -64923   -64937   -64961   -64968   -64969 
  -64952   -64921   -64912   -64916   -64918   -64923   -64926   -64937 
  -64961   -64992   -65027   -65050   -65068   -65090   -65116   -65146 
  -65155   -65152   -65159   -65162   -65172   -65189   -65181   -65164 
  -65169   -65176   -65158   -65111   -65061   -65022   -64993   -64969 
  -64923   -64875   -64877   -64898   -64899   -64879   -64839   -64803 
  -64775   -64732   -64688   -64661   -64654   -64656   -64653   -64649 
  -64631   -64592   -64548   -64503   -64456   -64421   -64404   -64399 
  -64378   -64346   -64331   -64321   -64332   -64378   -64390   -64347 
  -64303   -64290   -64310   -64320   -64308   -64316   -64363   -64456 
  -64549   -64575   -64549   -64537   -64589   -64667   -64688   -64714 
  -64820   -64905   -64919   -64954   -65032   -65097   -65140   -65167 
  -65194   -65243   -65301   -65348   -65376   -65390   -65410   -65435 
  -65445   -65447   -65465   -65515   -65578   -65605   -65604   -65622 
  -65653   -65674   -65695   -65707   -65708   -65715   -65732   -65765 
  -65790   -65806   -65863   -65939   -65978   -65987   -65989   -66005 
  -66034   -66069   -66101   -66110   -66126   -66183   -66252   -66295 
  -66301   -66299   -66319   -66341   -66352   -66350   -66358   -66382 
  -66376   -66364   -66401   -66444   -66471   -66497   -66511   -66511 
  -66502   -66490   -66483   -66468   -66470   -66512   -66542   -66531 
  -66503   -66502   -66528   -66529   -66504   -66486   -66478   -66500 
  -66522   -66501   -66462   -66415   -66371   -66349   -66312   -66261 
  -66236   -66223   -66188   -66108   -66013   -65949   -65904   -65861 
  -65820   -65764   -65700   -65640   -65570   -65485   -65404   -65359 
  -65341   -65290   -65199   -65125   -65083   -65047   -65008   -64963 
  -64907   -64853   -64830   -64826   -64789   -64730   -64713   -64729 
  -64727   -64719   -64724   -64750   -64806   -64829   -64785   -64763 
  -64785   -64808   -64822   -64820   -64802   -64805   -64854   -64895 
  -64870   -64839   -64867   -64913   -64934   -64946   -64958   -64983 
  -65010   -65026   -65058   -65113   -65175   -65222   -65244   -65275 
  -65325   -65401   -65494   -65530   -65517   -65548   -65621   -65685 
  -65729   -65764   -65810   -65858   -65901   -65932   -65951   -65988 
  -66027   -66043   -66056   -66075   -66110   -66129   -66096   -66066 
  -66098   -66160   -66206   -66229   -66243   -66249   -66264   -66321 
  -66385   -66389   -66377   -66423   -66492   -66531   -66551   -66568 
  -66601   -66667   -66727   -66732   -66706   -66676   -66653   -66641 
  -66616   -66590   -66579   -66549   -66491   -66422   -66365   -66345 
  -66310   -66239   -66180   -66118   -66052   -66022   -65989   -65911 
  -65826   -65788   -65772   -65715   -65620   -65541   -65504   -65472 
  -65386   -65271   -65175   -65077   -64989   -64928   -64847   -64741 
  -64662   -64639   -64612   -64526   -64445   -64391   -64313   -64212 
  -64119   -64101   -64180   -64231   -64182   -64097   -64068   -64118 
  -64180   -64202   -64191   -64176   -64210   -64298   -64391   -64478 
  -64584   -64711   -64811   -64871   -64935   -65036   -65161   -65271 
  -65351   -65447   -65587   -65734   -65853   -65946   -66030   -66140 
  -66283   -66393   -66446   -66530   -66669   -66792   -66896   -67023 
  -67144   -67231   -67307   -67370   -67434   -67514   -67578   -67635 
  -67697   -67745   -67793   -67839   -67865   -67866   -67843   -67835 
  -67865   -67888   -67878   -67840   -67789   -67738   -67708   -67693 
  -67647   -67587   -67540   -67480   -67431   -67399   -67330   -67258 
  -67224   -67178   -67090   -67000   -66949   -66902   -66834   -66793 
  -66770   -66731   -66681   -66602   -66496   -66405   -66344   -66288 
  -66213   -66133   -66067   -66001   -65925   -65824   -65694   -65591 
  -65543   -65475   -65350   -65227   -65147   -65081   -64996   -64912 
  -64849   -64792   -64732   -64679   -64640   -64607   -64583   -64571 
  -64543   -64492   -64449   -64437   -64466   -64492   -64486   -64507 
  -64571   -64628   -64666   -64699   -64753   -64841   -64923   -64971 
  -64993   -65024   -65102   -65218   -65316   -65369   -65423   -65517 
  -65592   -65600   -65604   -65658   -65762   -65887   -65971   -66022 
  -66089   -66153   -66197   -66236   -66300   -66411   -66529   -66630 
  -66714   -66756   -66774   -66800   -66838   -66888   -66936   -66977 
  -67016   -67080   -67172   -67221   -67231   -67268   -67305   -67307 
  -67305   -67343   -67418   -67483   -67510   -67534   -67572   -67579 
  -67539   -67472   -67433   -67464   -67507   -67510   -67491   -67446 
  -67395   -67376   -67330   -67200   -67051   -66970   -66932   -66859 
  -66719   -66558   -66456   -66407   -66331   -66206   -66065   -65928 
  -65801   -65695   -65624   -65555   -65461   -65359   -65252   -65157 
  -65097   -65051   -65004   -64954   -64912   -64898   -64883   -64850 
  -64802   -64730   -64684   -64689   -64699   -64696   -64685   -64697 
  -64758   -64825   -64862   -64875   -64867   -64864   -64910   -65007 
  -65107   -65210   -65338   -65445   -65487   -65526   -65616   -65722 
  -65815   -65900   -65997   -66113   -66230   -66343   -66449   -66538 
  -66615   -66675   -66727   -66785   -66833   -66852   -66863   -66892 
  -66936   -66998   -67068   -67098   -67096   -67114   -67151   -67174 
  -67174   -67155   -67144   -67173   -67220   -67224   -67178   -67144 
  -67155   -67203   -67249   -67247   -67202   -67151   -67138   -67193 
  -67256   -67249   -67211   -67177   -67133   -67103   -67094   -67097 
  -67121   -67144   -67136   -67079   -66988   -66914   -66880   -66841 
  -66771   -66685   -66604   -66520   -66428   -66355   -66306   -66257 
  -66196   -66102   -65972   -65829   -65703   -65628   -65571   -65505 
  -65452   -65380   -65287   -65227   -65191   -65170   -65159   -65101 
  -64995   -64935   -64964   -65006   -65010   -65000   -64977   -64948 
  -64919   -64856   -64774   -64715   -64693   -64719   -64769   -64803 
  -64821   -64829   -64831   -64837   -64859   -64911   -64973   -65025 
  -65074   -65124   -65186   -65261   -65324   -65356   -65375   -65420 
  -65485   -65526   -65543   -65559   -65570   -65583   -65594   -65603 
  -65639   -65701   -65757   -65765   -65712   -65654   -65635   -65650 
  -65675   -65684   -65687   -65708   -65754   -65800   -65808   -65806 
  -65814   -65796   -65773   -65785   -65813   -65830   -65820   -65774 
  -65708   -65657   -65640   -65629   -65571   -65471   -65386   -65338 
  -65301   -65239   -65149   -65079   -65064   -65072   -65061   -65043 
  -65035   -65012   -64974   -64953   -64959   -64980   -65004   -65012 
  -64999   -64991   -65013   -64992   -64875   -64743   -64672   -64667 
  -64697   -64697   -64661   -64615   -64561   -64521   -64482   -64425 
  -64383   -64371   -64392   -64431   -64456   -64473   -64474   -64453 
  -64432   -64409   -64392   -64396   -64394   -64370   -64323   -64289 
  -64322   -64379   -64378   -64355   -64361   -64384   -64385   -64321 
  -64199   -64107   -64111   -64177   -64220   -64201   -64138   -64073 
  -64058   -64090   -64130   -64165   -64178   -64160   -64122   -64095 
  -64126   -64197   -64269   -64322   -64337   -64360   -64435   -64538 
  -64639   -64731   -64806   -64843   -64846   -64840   -64817   -64815 
  -64894   -64985   -65022   -65051   -65098   -65165   -65225   -65263 
  -65331   -65440   -65564   -65685   -65755   -65791   -65880   -66030 
  -66177   -66262   -66312   -66379   -66441   -66472   -66481   -66513 
  -66624   -66773   -66861   -66864   -66838   -66850   -66872   -66827 
  -66744   -66723   -66798   -66897   -66924   -66882   -66836   -66817 
  -66819   -66805   -66758   -66703   -66676   -66681   -66657   -66561 
  -66454   -66395   -66359   -66290   -66168   -66035   -65955   -65939 
  -65947   -65940   -65936   -65943   -65916   -65789   -65544   -65267 
  -65074   -64986   -64954   -64948   -64971   -65020   -65009   -64870 
  -64692   -64576   -64533   -64525   -64505   -64461   -64393   -64348 
  -64384   -64426   -64418   -64411   -64405   -64406   -64444   -64516 
  -64644   -64773   -64799   -64739   -64674   -64655   -64696   -64777 
  -64866   -64965   -65085   -65151   -65090   -65006   -64990   -64998 
  -65013   -65067   -65174   -65317   -65435   -65484   -65479   -65467 
  -65485   -65546   -65632   -65686   -65696   -65727   -65825   -65957 
