Origin Time       2011/03/11 14:46:00
Lat.              38.103
Long.             142.860
Depth. (km)       24
Mag.              9.0
Station Code      KGW004
Station Lat.      34.3473
Station Long.     134.0375
Station Height(m) 2
Record Time       2011/03/11 14:51:48
Sampling Freq(Hz) 100Hz
Duration Time(s)  60
Dir.              U-D
Scale Factor      3920(gal)/6182761
Max. Acc. (gal)   0.967
Last Correction   2011/03/11 14:51:33
Memo.             
[...]
  -22550   -22558   -22607   -22623   -22612   -22632   -22648   -22622 
  -22619   -22657   -22651   -22617   -22593   -22583   -22614   -22607 
  -22533   -22511   -22540   -22543   -22506   -22460   -22451   -22442 
  -22402   -22381   -22391   -22390   -22380   -22387   -22390   -22379 
  -22378   -22380   -22368   -22373   -22389   -22371   -22357   -22370 
  -22383   -22410   -22394   -22349   -22398   -22468   -22461   -22486 
  -22572   -22588   -22534   -22549   -22611   -22600   -22571   -22601 
  -22671   -22745   -22769   -22751   -22740   -22759   -22791   -22754 
  -22684   -22718   -22806   -22836   -22829   -22819   -22820   -22857 
  -22875   -22831   -22824   -22859   -22826   -22798   -22840   -22838 
  -22785   -22757   -22741   -22714   -22721   -22740   -22681   -22631 
  -22693   -22732   -22686   -22668   -22675   -22665   -22684   -22677 
  -22611   -22624   -22678   -22625   -22593   -22651   -22673   -22664 
  -22632   -22587   -22582   -22581   -22558   -22550   -22563   -22580 
  -22601   -22615   -22572   -22515   -22505   -22488   -22482   -22527 
  -22546   -22541   -22556   -22561   -22547   -22512   -22459   -22417 
  -22416   -22444   -22453   -22454   -22473   -22474   -22456   -22434 
  -22383   -22346   -22342   -22319   -22304   -22311   -22319   -22336 
  -22352   -22323   -22250   -22238   -22257   -22204   -22179   -22202 
  -22181   -22160   -22168   -22134   -22068   -22072   -22095   -22038 
  -22021   -22048   -22013   -22000   -22009   -21961   -21925   -21935 
  -21935   -21896   -21867   -21874   -21876   -21869   -21878   -21852 
  -21801   -21846   -21900   -21843   -21820   -21864   -21867   -21839 
  -21812   -21809   -21818   -21817   -21802   -21757   -21755   -21791 
  -21749   -21713   -21728   -21708   -21687   -21676   -21663   -21660 
  -21633   -21617   -21634   -21607   -21555   -21538   -21535   -21531 
  -21502   -21465   -21454   -21458   -21470   -21452   -21424   -21444 
  -21445   -21391   -21366   -21377   -21381   -21382   -21380   -21380 
  -21392   -21402   -21399   -21374   -21346   -21372   -21429   -21430 
  -21399   -21420   -21449   -21436   -21438   -21457   -21448   -21474 
  -21555   -21573   -21542   -21574   -21607   -21591   -21591   -21601 
  -21608   -21643   -21684   -21686   -21678   -21718   -21748   -21725 
  -21709   -21700   -21715   -21778   -21825   -21820   -21813   -21849 
  -21895   -21917   -21902   -21844   -21832   -21890   -21967   -21999 
  -21919   -21872   -21931   -21945   -21915   -21888   -21883   -21931 
  -21948   -21895   -21868   -21943   -22032   -22000   -21916   -21876 
  -21892   -21942   -21945   -21926   -21948   -21963   -21952   -21937 
  -21925   -21922   -21922   -21909   -21908   -21970   -22062   -22095 
  -22098   -22114   -22115   -22123   -22150   -22153   -22148   -22186 
  -22230   -22254   -22286   -22290   -22290   -22320   -22312   -22290 
  -22308   -22353   -22423   -22512   -22580   -22584   -22554   -22514 
  -22503   -22564   -22573   -22515   -22553   -22653   -22685   -22659 
  -22636   -22618   -22599   -22619   -22658   -22661   -22682   -22722 
  -22701   -22696   -22759   -22758   -22718   -22740   -22746   -22720 
  -22690   -22664   -22687   -22695   -22642   -22600   -22579   -22560 
  -22538   -22510   -22484   -22460   -22468   -22495   -22487   -22459 
  -22432   -22417   -22404   -22386   -22389   -22383   -22352   -22328 
  -22350   -22410   -22381   -22274   -22245   -22281   -22324   -22346 
  -22304   -22260   -22263   -22257   -22246   -22239   -22195   -22158 
  -22169   -22212   -22278   -22298   -22237   -22193   -22194   -22177 
  -22148   -22151   -22173   -22195   -22214   -22175   -22110   -22103 
  -22088   -22047   -22062   -22088   -22090   -22097   -22088   -22098 
  -22163   -22195   -22157   -22126   -22135   -22136   -22107   -22085 
  -22084   -22094   -22091   -22085   -22119   -22164   -22166   -22148 
  -22148   -22153   -22142   -22132   -22166   -22235   -22280   -22278 
  -22263   -22268   -22287   -22292   -22265   -22265   -22306   -22306 
  -22284   -22317   -22341   -22323   -22330   -22339   -22341   -22378 
  -22395   -22385   -22406   -22408   -22367   -22352   -22376   -22386 
  -22355   -22324   -22329   -22364   -22386   -22312   -22210   -22200 
  -22218   -22218   -22238   -22243   -22219   -22202   -22203   -22201 
  -22170   -22120   -22095   -22117   -22152   -22160   -22165   -22187 
  -22181   -22126   -22076   -22091   -22140   -22156   -22146   -22159 
  -22171   -22165   -22172   -22177   -22183   -22218   -22224   -22188 
  -22187   -22231   -22266   -22255   -22214   -22206   -22260   -22324 
  -22308   -22253   -22289   -22356   -22333   -22285   -22292   -22311 
  -22318   -22337   -22358   -22363   -22388   -22398   -22342   -22330 
  -22419   -22491   -22493   -22467   -22454   -22480   -22518   -22523 
  -22489   -22467   -22486   -22503   -22524   -22560   -22591   -22650 
  -22718   -22731   -22730   -22760   -22784   -22781   -22804   -22879 
  -22919   -22860   -22772   -22770   -22827   -22829   -22798   -22792 
  -22782   -22765   -22764   -22760   -22733   -22709   -22716   -22749 
  -22774   -22749   -22688   -22666   -22685   -22663   -22642   -22697 
  -22727   -22686   -22680   -22714   -22694   -22613   -22549   -22532 
  -22536   -22565   -22596   -22570   -22536   -22531   -22509   -22502 
  -22508   -22481   -22465   -22476   -22467   -22436   -22436   -22480 
  -22495   -22454   -22427   -22456   -22500   -22515   -22495   -22443 
  -22404   -22437   -22509   -22545   -22531   -22499   -22501   -22547 
  -22562   -22505   -22434   -22391   -22392   -22411   -22407   -22388 
  -22367   -22358   -22368   -22371   -22316   -22241   -22242   -22279 
  -22274   -22269   -22261   -22204   -22151   -22162   -22225   -22269 
  -22252   -22210   -22169   -22151   -22150   -22123   -22072   -22024 
  -22006   -22005   -21977   -21958   -21987   -22011   -21997   -21962 
  -21909   -21871   -21875   -21880   -21852   -21831   -21865   -21913 
  -21911   -21863   -21803   -21766   -21786   -21830   -21821   -21765 
  -21736   -21743   -21764   -21789   -21777   -21741   -21745   -21758 
  -21745   -21738   -21746   -21749   -21741   -21717   -21681   -21678 
  -21737   -21800   -21839   -21839   -21786   -21749   -21730   -21693 
  -21682   -21682   -21669   -21689   -21740   -21777   -21791   -21795 
  -21744   -21639   -21607   -21676   -21720   -21713   -21726   -21779 
  -21820   -21806   -21740   -21680   -21727   -21843   -21878   -21834 
  -21818   -21843   -21868   -21884   -21899   -21902   -21900   -21935 
  -21993   -22030   -22044   -22039   -22047   -22079   -22080   -22072 
  -22121   -22209   -22281   -22278   -22220   -22181   -22151   -22162 
  -22237   -22277   -22278   -22303   -22301   -22223   -22131   -22099 
  -22135   -22201   -22238   -22238   -22223   -22178   -22121   -22100 
  -22113   -22141   -22168   -22160   -22146   -22182   -22244   -22263 
  -22193   -22073   -22004   -22020   -22108   -22206   -22237   -22242 
  -22264   -22243   -22173   -22119   -22106   -22093   -22073   -22112 
  -22229   -22347   -22345   -22228   -22149   -22153   -22180   -22220 
  -22266   -22293   -22281   -22241   -22229   -22289   -22365   -22368 
  -22335   -22351   -22400   -22412   -22384   -22362   -22360   -22378 
  -22401   -22415   -22441   -22404   -22275   -22233   -22347   -22493 
  -22540   -22432   -22291   -22280   -22357   -22347   -22240   -22173 
  -22180   -22239   -22329   -22388   -22386   -22360   -22352   -22372 
  -22423   -22461   -22429   -22377   -22377   -22428   -22462   -22437 
  -22429   -22476   -22540   -22549   -22436   -22308   -22291   -22337 
  -22401   -22456   -22475   -22480   -22465   -22411   -22359   -22386 
  -22432   -22379   -22303   -22279   -22285   -22329   -22366   -22358 
  -22362   -22395   -22397   -22301   -22126   -22013   -22019   -22063 
  -22111   -22133   -22140   -22163   -22136   -22052   -21987   -21956 
  -21974   -22043   -22117   -22171   -22183   -22165   -22151   -22143 
  -22126   -22093   -22089   -22144   -22213   -22227   -22197   -22219 
  -22252   -22212   -22168   -22160   -22164   -22173   -22178   -22209 
  -22267   -22299   -22274   -22211   -22192   -22223   -22228   -22212 
  -22215   -22293   -22452   -22564   -22544   -22433   -22337   -22327 
  -22331   -22303   -22265   -22242   -22327   -22481   -22539   -22504 
  -22448   -22382   -22337   -22316   -22318   -22354   -22401   -22467 
  -22528   -22516   -22475   -22471   -22505   -22548   -22523   -22452 
  -22425   -22373   -22268   -22226   -22265   -22373   -22509   -22536 
  -22400   -22196   -22074   -22079   -22114   -22143   -22188   -22220 
  -22258   -22282   -22199   -22080   -22054   -22053   -21996   -21959 
  -22030   -22173   -22267   -22284   -22251   -22126   -21965   -21872 
  -21836   -21865   -21981   -22091   -22135   -22141   -22131   -22105 
  -22030   -21926   -21871   -21902   -21996   -22068   -22062   -22027 
  -22082   -22265   -22413   -22364   -22203   -22128   -22179   -22230 
  -22210   -22200   -22264   -22359   -22454   -22534   -22521   -22394 
  -22262   -22218   -22236   -22237   -22239   -22328   -22457   -22509 
  -22461   -22383   -22380   -22449   -22486   -22435   -22305   -22164 
  -22113   -22208   -22362   -22427   -22400   -22339   -22286   -22306 
  -22330   -22262   -22153   -22063   -22017   -22073   -22202   -22308 
  -22337   -22270   -22129   -21966   -21885   -21972   -22064   -22010 
  -21994   -22136   -22277   -22281   -22098   -21828   -21743   -21930 
  -22222   -22361   -22144   -21736   -21560   -21757   -22077   -22271 
  -22341   -22361   -22282   -22083   -21883   -21773   -21744   -21803 
  -21948   -22104   -22216   -22285   -22317   -22338   -22305   -22145 
  -21947   -21844   -21892   -22091   -22261   -22303   -22341   -22323 
  -22196   -22146   -22227   -22323   -22349   -22279   -22153   -22061 
  -22114   -22293   -22413   -22406   -22381   -22435   -22531   -22482 
  -22269   -22166   -22271   -22427   -22514   -22518   -22521   -22568 
  -22582   -22486   -22305   -22235   -22426   -22685   -22743   -22652 
  -22577   -22534   -22482   -22389   -22290   -22307   -22451   -22605 
  -22632   -22457   -22183   -22040   -22173   -22450   -22573   -22534 
  -22538   -22507   -22333   -22158   -22065   -22023   -22010   -22054 
  -22253   -22541   -22706   -22689   -22521   -22263   -22060   -22014 
  -22082   -22138   -22191   -22315   -22386   -22325   -22244   -22232 
  -22262   -22227   -22179   -22273   -22374   -22314   -22251   -22292 
  -22279   -22139   -22060   -22186   -22401   -22542   -22571   -22449 
  -22169   -21885   -21813   -22010   -22314   -22572   -22758   -22834 
  -22759   -22551   -22282   -22108   -22145   -22341   -22530   -22597 
  -22636   -22748   -22834   -22794   -22684   -22569   -22495   -22547 
  -22659   -22658   -22578   -22540   -22539   -22584   -22693   -22789 
  -22785   -22725   -22686   -22614   -22484   -22409   -22463   -22565 
  -22548   -22410   -22345   -22428   -22502   -22443   -22339   -22293 
  -22289   -22352   -22422   -22300   -22072   -22009   -22100   -22197 
  -22238   -22201   -22144   -22136   -22164   -22182   -22086   -21844 
  -21706   -21860   -22092   -22132   -22046   -22102   -22323   -22415 
  -22249   -21955   -21660   -21506   -21586   -21844   -22133   -22361 
  -22548   -22686   -22678   -22445   -22082   -21820   -21669   -21602 
  -21838   -22290   -22575   -22585   -22407   -22227   -22243   -22365 
  -22374   -22236   -22068   -21982   -22036   -22232   -22457   -22508 
  -22316   -22146   -22269   -22489   -22461   -22192   -21892   -21767 
  -21946   -22272   -22449   -22448   -22413   -22426   -22471   -22408 
  -22117   -21755   -21677   -21949   -22197   -22221   -22147   -22024 
  -21930   -21970   -22058   -22177   -22290   -22222   -22023   -21816 
  -21633   -21621   -21799   -21920   -21869   -21812   -21914   -22091 
  -22159   -22073   -21860   -21587   -21462   -21625   -21845   -21755 
  -21472   -21465   -21721   -21863   -21857   -21809   -21727   -21696 
  -21693   -21658   -21683   -21703   -21653   -21747   -21960   -22007 
  -21877   -21696   -21605   -21727   -21855   -21793   -21720   -21688 
  -21565   -21518   -21697   -21923   -22038   -21986   -21759   -21568 
  -21598   -21683   -21607   -21420   -21283   -21319   -21539   -21766 
  -21811   -21744   -21717   -21726   -21683   -21517   -21257   -21099 
  -21191   -21386   -21467   -21457   -21424   -21412   -21496   -21540 
  -21484   -21551   -21612   -21367   -21029   -20863   -20814   -20939 
  -21303   -21628   -21587   -21227   -20932   -20974   -21206   -21275 
  -21084   -20849   -20778   -20953   -21282   -21423   -21216   -20958 
  -20942   -21111   -21246   -21196   -20933   -20656   -20741   -21139 
  -21360   -21306   -21235   -21219   -21195   -21119   -21087   -21195 
  -21304   -21282   -21174   -21014   -20859   -20898   -21146   -21306 
  -21214   -21010   -20867   -20871   -21007   -21168   -21172   -20976 
  -20808   -20783   -20812   -20880   -20968   -20986   -20949   -20891 
  -20805   -20735   -20726   -20784   -20868   -20816   -20580   -20461 
  -20650   -20853   -20820   -20714   -20680   -20673   -20676   -20676 
  -20655   -20652   -20666   -20620   -20548   -20576   -20640   -20626 
  -20659   -20813   -20855   -20652   -20495   -20611   -20797   -20849 
  -20778   -20651   -20571   -20569   -20670   -20900   -21006   -20783 
  -20538   -20610   -20852   -20957   -20849   -20639   -20482   -20501 
  -20668   -20825   -20880   -20867   -20853   -20827   -20674   -20521 
  -20634   -20840   -20823   -20655   -20520   -20499   -20600   -20773 
  -20928   -20899   -20663   -20480   -20482   -20558   -20637   -20691 
  -20713   -20746   -20719   -20643   -20670   -20729   -20679   -20639 
  -20729   -20837   -20870   -20914   -20950   -20813   -20610   -20639 
  -20842   -20915   -20861   -20861   -20889   -20871   -20863   -20893 
  -20932   -20968   -20999   -20983   -20876   -20715   -20674   -20871 
  -21105   -21161   -21102   -21014   -20893   -20803   -20860   -21018 
  -21108   -21104   -21058   -20998   -21021   -21124   -21137   -21037 
  -20984   -21014   -20999   -20931   -20958   -21096   -21202   -21247 
  -21304   -21347   -21360   -21348   -21242   -21114   -21117   -21193 
  -21251   -21298   -21329   -21354   -21353   -21287   -21236   -21246 
  -21310   -21432   -21499   -21444   -21367   -21292   -21204   -21204 
  -21321   -21384   -21292   -21196   -21223   -21325   -21433   -21483 
  -21445   -21380   -21292   -21153   -21135   -21329   -21435   -21283 
  -21118   -21095   -21123   -21181   -21315   -21426   -21390   -21284 
  -21211   -21204   -21257   -21284   -21281   -21326   -21367   -21337 
  -21276   -21241   -21236   -21236   -21278   -21400   -21498   -21432 
  -21281   -21268   -21420   -21505   -21433   -21411   -21514   -21582 
  -21608   -21689   -21749   -21684   -21527   -21421   -21503   -21675 
  -21738   -21710   -21667   -21631   -21639   -21682   -21752   -21804 
  -21760   -21705   -21707   -21665   -21585   -21593   -21681   -21741 
  -21745   -21712   -21635   -21558   -21500   -21470   -21595   -21840 
  -21957   -21866   -21664   -21484   -21431   -21466   -21491   -21516 
  -21591   -21684   -21722   -21705   -21670   -21633   -21558   -21410 
  -21347   -21472   -21549   -21448   -21374   -21397   -21426   -21519 
  -21699   -21785   -21665   -21483   -21363   -21292   -21308   -21418 
  -21546   -21667   -21691   -21587   -21539   -21608   -21647   -21630 
  -21624   -21639   -21717   -21806   -21761   -21673   -21690   -21700 
  -21671   -21743   -21822   -21761   -21666   -21655   -21714   -21784 
  -21827   -21848   -21826   -21719   -21539   -21433   -21545   -21748 
  -21817   -21734   -21609   -21557   -21614   -21699   -21751   -21749 
  -21673   -21585   -21561   -21603   -21638   -21613   -21621   -21713 
  -21770   -21744   -21685   -21632   -21598   -21544   -21512   -21605 
  -21762   -21831   -21756   -21602   -21500   -21487   -21489   -21485 
  -21549   -21732   -21918   -21913   -21720   -21517   -21417   -21401 
  -21396   -21400   -21489   -21616   -21609   -21493   -21472   -21600 
  -21775   -21870   -21765   -21550   -21470   -21521   -21527   -21472 
  -21447   -21530   -21686   -21751   -21650   -21514   -21510   -21573 
  -21503   -21347   -21361   -21607   -21855   -21867   -21687   -21552 
  -21504   -21447   -21404   -21421   -21529   -21693   -21756   -21693 
  -21635   -21603   -21537   -21453   -21395   -21416   -21506   -21545 
  -21475   -21388   -21382   -21447   -21526   -21563   -21495   -21361 
  -21278   -21225   -21137   -21073   -21113   -21251   -21414   -21524 
  -21533   -21432   -21292   -21203   -21152   -21141   -21222   -21328 
  -21309   -21191   -21179   -21315   -21388   -21345   -21368   -21475 
  -21518   -21453   -21371   -21402   -21576   -21699   -21608   -21456 
  -21405   -21375   -21330   -21377   -21519   -21636   -21651   -21594 
  -21575   -21673   -21761   -21636   -21417   -21350   -21362   -21325 
  -21350   -21494   -21619   -21627   -21555   -21450   -21366   -21367 
  -21395   -21371   -21348   -21302   -21183   -21116   -21203   -21359 
  -21441   -21373   -21239   -21153   -21058   -20943   -20941   -21093 
  -21300   -21448   -21493   -21450   -21311   -21099   -20903   -20842 
  -20949   -21096   -21174   -21205   -21240   -21290   -21340   -21388 
  -21416   -21390   -21305   -21170   -21046   -21012   -21037   -21086 
  -21171   -21282   -21417   -21506   -21417   -21220   -21130   -21141 
  -21098   -21064   -21184   -21339   -21347   -21247   -21163   -21146 
  -21145   -21113   -21088   -21081   -21099   -21175   -21254   -21311 
  -21401   -21493   -21515   -21430   -21300   -21218   -21157   -21121 
  -21175   -21251   -21263   -21268   -21365   -21492   -21510   -21434 
  -21338   -21248   -21198   -21187   -21181   -21198   -21259   -21317 
  -21283   -21179   -21170   -21278   -21329   -21301   -21302   -21318 
  -21292   -21219   -21148   -21149   -21179   -21146   -21081   -21075 
  -21145   -21189   -21141   -21127   -21245   -21350   -21291   -21142 
  -21032   -20980   -20945   -20900   -20879   -20936   -21042   -21107 
  -21123   -21171   -21245   -21215   -21086   -21021   -21025   -20979 
  -20909   -20906   -20952   -21034   -21155   -21214   -21191   -21201 
  -21219   -21155   -21060   -21018   -21065   -21146   -21170   -21186 
  -21254   -21267   -21168   -21059   -21035   -21090   -21139   -21131 
  -21112   -21130   -21172   -21218   -21262   -21290   -21296   -21290 
  -21242   -21129   -21022   -20970   -20957   -20997   -21080   -21133 
  -21163   -21247   -21358   -21379   -21276   -21122   -21018   -21016 
  -21049   -21074   -21127   -21189   -21216   -21165   -21045   -20988 
  -21076   -21183   -21209   -21246   -21351   -21406   -21337   -21217 
  -21144   -21108   -21049   -20977   -20963   -21045   -21149   -21220 
  -21315   -21440   -21531   -21528   -21441   -21360   -21327   -21290 
  -21226   -21185   -21236   -21353   -21443   -21500   -21593   -21702 
  -21734   -21677   -21604   -21560   -21531   -21493   -21445   -21443 
  -21520   -21591   -21593   -21615   -21706   -21786   -21773   -21680 
  -21636   -21688   -21746   -21728   -21627   -21569   -21588   -21542 
