Origin Time       2011/03/11 14:46:00
Lat.              38.103
Long.             142.860
Depth. (km)       24
Mag.              9.0
Station Code      KNG013
Station Lat.      35.2642
Station Long.     139.1521
Station Height(m) 11
Record Time       2011/03/11 14:47:47
Sampling Freq(Hz) 100Hz
Duration Time(s)  300
Dir.              E-W
Scale Factor      3920(gal)/6182761
Max. Acc. (gal)   163.590
Last Correction   2011/03/11 14:47:32
Memo.             
[...]
  -53927   -46451   -37611   -28219   -18700    -9303    -1129     5453 
   10873    14697    15568    12626     6726     -133    -6798   -13183 
  -18940   -23544   -26583   -28094   -29110   -30895   -34151   -38160 
  -42006   -46863   -54074   -63253   -72494   -79609   -83124   -81926 
  -76698   -67517   -53626   -42984   -46610   -55260   -53122   -51062 
  -57838   -62639   -68717   -79561   -88791   -98427  -107161  -112489 
 -117580  -121567  -122400  -120708  -117899  -114927  -111519  -106730 
  -99430   -89356   -78127   -67344   -57159   -48830   -44200   -42427 
  -41793   -41727   -42574   -45487   -51557   -61061   -71580   -80249 
  -88257   -96617  -101699  -100047   -95550   -94220   -93724   -91705 
  -91111   -90056   -86242   -81485   -75718   -69276   -62577   -54243 
  -45069   -36305   -28044   -21739   -17923   -15180   -14172   -16543 
  -21425   -27525   -34617   -42353   -50304   -57983   -65126   -71819 
  -77945   -83122   -86451   -87556   -87121   -84837   -80217   -74777 
  -68796   -60499   -52371   -48547   -46889   -45008   -44542   -44901 
  -44402   -43459   -42362   -40825   -38271   -33572   -27362   -22189 
  -17765   -13124    -9134    -3489     4780    12790    20673    28970 
   36276    41692    45293    49062    53635    56976    57829    56262 
   53486    50072    45958    43106    42809    44144    45626    45366 
   43668    42099    39172    33795    26776    17528     5756    -7304 
  -20173   -32806   -46714   -62740   -80070   -96579  -111432  -125546 
 -138540  -149571  -158245  -163568  -165170  -163259  -158291  -150833 
 -140505  -128748  -118473  -107993   -98467  -105035  -124834  -122150 
 -103721  -109711  -117584  -107049  -105723  -104888   -95632   -94688 
  -92499   -85601   -82576   -78632   -73578   -70320   -67326   -63653 
  -59943   -57559   -56429   -56122   -56275   -56278   -55628   -52332 
  -45010   -34927   -24616   -16148    -7546     3303    12805    18829 
   22681    23233    21334    20598    21417    22711    23561    22758 
   21111    20112    19496    18459    15401     9629     4116      555 
   -2965    -8121   -15215   -22571   -27362   -29652   -32650   -37157 
  -40051   -39387   -37578   -37385   -36797   -33258   -27677   -21773 
  -16905   -13430   -10135    -6873    -6831   -11013   -18226   -29226 
  -41851   -54874   -68985   -81878   -92503  -101534  -114627  -139212 
 -167012  -177429  -170006  -168698  -175323  -170690  -161525  -157993 
 -152261  -147556  -145786  -139978  -134584  -132020  -127938  -123563 
 -120421  -116986  -112594  -107642  -102263   -95734   -86538   -74446 
  -62083   -52008   -43883   -36843   -31798   -29577   -30008   -32161 
  -35140   -38888   -41898   -42861   -42333   -39319   -32862   -23247 
  -10392     5029    22303    40025    55428    67276    75760    81857 
   87596    93309    97561    99931    99392    94607    88127    82255 
   74927    66036    57743    48599    37656    26867    15905     4483 
   -5495   -14218   -23753   -34400   -45056   -55902   -66788   -77527 
  -91086  -109042  -127445  -143471  -157240  -164305  -164448  -164053 
 -159355  -146756  -128679  -104446   -85700   -82941   -80533   -69525 
  -62859   -58888   -48660   -40928   -35298   -25054   -20260   -22272 
  -24641   -31618   -41770   -49047   -53327   -53289   -48079   -39883 
  -28400   -13497     2356    18333    32465    40574    43587    46053 
   48795    50945    53997    57736    59627    60229    60992    61369 
   61160    59458    54824    48334    41105    32321    22465    12721 
    3557    -4352   -11105   -16706   -21628   -27734   -36182   -47244 
  -59888   -72145   -81873   -87354   -89630   -89965   -86106   -79907 
  -86650  -118751  -159531  -181138  -188593  -207921  -231759  -228778 
 -205921  -194518  -190752  -180180  -171340  -166859  -161858  -157409 
 -152939  -148981  -145699  -143143  -141420  -135596  -129195  -126594 
 -120292  -113018  -110983  -108912  -106931  -107214  -106538  -105459 
 -106235  -107609  -107639  -106851  -106262  -107107  -112077  -119519 
 -120451  -109244   -94845   -86319   -75189   -58335   -49635   -47030 
  -39115   -35516   -39825   -38607   -34011   -31779   -27404   -25997 
  -25783   -13162     3351     9684     8541     3518     2944    10259 
   15733    20771    29035    36489    44504    53922    61519    66830 
   71854    76471    79573    81927    83831    85034    85568    85806 
   86219    85461    82236    77758    73137    68195    63090    57212 
   49263    40252    32213    24902    17342    10019     3548    -2238 
   -7599   -13371   -20765   -29296   -37447   -44508   -49771   -52734 
  -54027   -54862   -56233   -58262   -60980   -64929   -70040   -75433 
  -80723   -85764   -89811   -93640   -98113  -101110  -101733  -100468 
  -96206   -89563   -82043   -74355   -68936   -67285   -65868   -59920 
  -51162   -44982   -41576   -38474   -35083   -31245   -27778   -25525 
  -23341   -20400   -16702   -11965    -7905    -5835    -2864     3092 
    9793    14157    16060    18028    21862    27495    33746    39565 
   44613    49562    55448    60409    63061    66080    70478    76125 
   83463    88618    88636    85592    79545    70663    63002    59213 
   58219    56388    50906    41529    29702    17598     4904    -7948 
  -20072   -34295   -48771   -59665   -67292   -70095   -69811   -70853 
  -72861   -76619   -85683  -103720  -128995  -145339  -144219  -146656 
 -160636  -166603  -167835  -174723  -177847  -180008  -187474  -193890 
 -198603  -204213  -209896  -214752  -217995  -219859  -220440  -218431 
 -213248  -206285  -199114  -191599  -183000  -173738  -164989  -157459 
 -150590  -143740  -137567  -132178  -126753  -122082  -120039  -119242 
 -115455  -109309  -104230   -97992   -89658   -83305   -79218   -76405 
  -75536   -75167   -75646   -78558   -82538   -86612   -90123   -91819 
  -92926   -94960   -96810   -97066   -95737   -93070   -89164   -85292 
  -81921   -77413   -72080   -67884   -64768   -61982   -60219   -59795 
  -58643   -56188   -55102   -56040   -58273   -61560   -62688   -60043 
  -57073   -53873   -47912   -40825   -33337   -24985   -18472   -14549 
  -10854    -6441    -2175     1452     3667     3849     3842     3359 
     495    -3870    -9047   -14694   -21771   -31267   -40647   -48743 
  -56316   -63817   -72100   -80989   -89874   -97881  -104429  -110094 
 -114297  -116227  -116568  -115642  -112533  -106290   -96548   -83178 
  -67936   -54223   -42653   -32648   -25395   -20776   -17718   -16081 
  -15876   -16370   -16635   -17099   -18162   -19114   -18720   -16633 
  -14031   -11098    -8142    -6133    -4098    -1321     1743     4834 
    6881     6716     5074     4541     6562    10312    15003    19475 
   22458    24619    26721    28505    29720    29765    28169    24997 
   20268    14403     8383     2850    -3085   -10134   -16394   -19805 
  -19462   -16411   -13527   -10444    -5762       22     7644    16567 
   24539    30995    36953    43131    48283    51235    51532    49480 
   47154    45151    42812    39522    35386    31972    28235    24236 
   24275    29006    33166    32691    30726    31197    33947    39260 
   45287    50082    55792    62498    68914    74978    79797    83411 
   85942    86768    85980    83273    78442    71670    63105    53535 
   43918    35164    28017    23284    20915    19129    16452    11937 
    6717     4181     4245     5409     8748    13335    17547    21696 
   23907    22746    18825    11011     -433   -13405   -27029   -40029 
  -51378   -61696   -71946   -82621   -93655  -104868  -116518  -128695 
 -140883  -152502  -163217  -173068  -181890  -189618  -196630  -202430 
 -206235  -207835  -207114  -204275  -200420  -197799  -197256  -196361 
 -192911  -187382  -180607  -172243  -162325  -151447  -140284  -129858 
 -119848  -109795  -101096   -94342   -88358   -82743   -78959   -77807 
  -77988   -76804   -71970   -65731   -60046   -53350   -47978   -44328 
  -38712   -33439   -29993   -24723   -16629    -6385     5178    16399 
   27885    39953    47935    49698    53643    68260    89410   103603 
   98436    83963    83676    85061    71630    62125    54658    38629 
   27130    18978     9049     1420    -6589   -15105   -22198   -29216 
  -36696   -44756   -53848   -64109   -74703   -84614   -93411  -103847 
 -118106  -131817  -144481  -160977  -181802  -208510  -239658  -257418 
 -245904  -226114  -228596  -233316  -217734  -205848  -200320  -188182 
 -183684  -184493  -180443  -177044  -173608  -170697  -169354  -165915 
 -159086  -145543  -130065  -123923  -123107  -119300  -116608  -117584 
 -118655  -120460  -121972  -119031  -114195  -110794  -107682  -104490 
  -99962   -92456   -84972   -80270   -73962   -63843   -57831   -58432 
  -57161   -51502   -46571   -43982   -41541   -37391   -31596   -25440 
  -17370    -5353     6752    16693    27282    38048    49603    64447 
   80052    94047   106352   112997   110825   107862   109612   110832 
  112581   115129   112761   109463   109895   109326   106580   106303 
  106801   104420   101862   100888    99885    96656    91100    85297 
   78459    70153    61238    50600    38818    28127    18428     7247 
   -6480   -21139   -33590   -42888   -53123   -63223   -67550   -70656 
  -79083   -89858   -98366  -103734  -108338  -114333  -120717  -127343 
 -134890  -142219  -148438  -153400  -157646  -161807  -164200  -163355 
 -160279  -155138  -148573  -143632  -140703  -137268  -132369  -127162 
 -123583  -122571  -123324  -124306  -124396  -123185  -120517  -116159 
 -111002  -107640  -105224   -98515   -87097   -77529   -78063   -85909 
  -77182   -48583   -31645   -21189     4563    23559    30156    42646 
   53742    58339    62261    64829    66945    71372    79237    87387 
   89683    86898    83922    80467    75792    72847    71035    66907 
   61729    57845    55421    54272    50987    45421    43637    44874 
   45626    43576    31901    13609    -2875   -20219   -37587   -48040 
  -54071   -64671   -81389   -94800   -99686  -102115  -104004  -102171 
 -101368  -105322  -109873  -112058  -109582  -103773   -99681   -95928 
  -89572   -81263   -72120   -63275   -54088   -44961   -38231   -32791 
  -27062   -21902   -16995   -10747    -3215     2975     8085    15008 
   20829    21910    19886    16363    12077     7707     4096     2351 
    2199     4052     6775     6107     5731    15319    31605    43255 
   50503    55237    49637    35489    22500     9711    -3201   -13553 
  -25054   -39527   -55474   -71304   -83665   -91374   -97576  -103727 
 -107229  -108047  -107008  -102641   -97474   -93432   -87327   -79933 
  -75118   -73466   -76268   -84527   -94295  -102121  -107350  -107110 
  -96651   -74248   -48404   -42730   -71554  -104302  -103411   -91082 
  -97782   -99859   -89951   -88382   -83335   -72239   -67810   -60857 
  -48476   -35520   -21135    -5054    10720    21338    27673    31886 
   33213    36656    43064    44932    43686    44403    44139    43659 
   47313    54317    60080    61813    62746    66305    71436    74031 
   72538    68050    59637    49704    41535    33880    25375    14343 
   -3389   -28159   -51069   -66904   -81159   -95103  -103703  -108262 
 -112383  -112958  -109104  -104621   -99409   -92929   -87884   -85319 
  -82437   -79749   -85360  -102705  -123787  -137826  -138093  -130597 
 -131096  -140701  -147756  -151056  -153720  -154213  -155053  -158925 
 -161650  -161290  -160857  -160315  -159426  -159020  -156996  -154633 
 -154265  -152838  -150587  -149998  -148867  -146888  -144923  -140979 
 -136175  -132949  -129941  -126181  -122483  -118978  -116158  -114160 
 -111984  -109864  -108601  -107120  -103747   -98690   -92505   -84699 
  -75859   -67361   -60335   -55726   -52724   -49576   -45825   -42380 
  -40541   -40120   -39809   -38870   -37501   -39163   -47653   -59246 
  -68528   -76871   -85093   -93290  -103307  -109299  -109270  -112176 
 -118625  -123190  -125078  -125534  -125712  -125051  -123756  -122394 
 -120388  -117997  -115131  -111059  -105160   -96937   -86435   -76836 
  -71893   -68476   -62970   -57451   -52858   -48883   -45810   -42677 
  -39696   -36764   -32636   -28916   -26255   -22779   -18471   -12788 
   -5413     2011     9929    18426    25691    31651    36386    39282 
   42121    47469    53330    56025    57031    57933    55912    49583 
   40218    30405    21879    12939     5302     2232     1074      800 
    2297     4593     8808    14717    20610    25999    29849    32422 
   34139    34479    34045    32820    30864    29721    29412    28776 
   27612    25912    23797    21769    19837    17464    14629    12302 
   11686    13076    15857    18994    21340    22932    24990    28724 
   34194    39545    44116    50337    59783    69511    74793    76124 
   77677    80181    83438    88736    95305   101499   105614   106635 
  107273   109262   111311   112927   112264   108322   104274   102325 
  102269   102135    99250    95769    94046    91907    90482    91102 
   92086    93434    94059    94605    96540    97184    95514    93127 
   90299    86598    82189    76814    70460    64897    60082    53240 
   44627    36532    29006    23104    19549    16799    13824     9874 
    6736     5612     4236     1867    -2507    -9501   -16692   -23379 
  -30449   -37918   -46305   -56164   -67487   -81479   -99195  -118645 
 -137629  -156483  -175672  -193506  -208420  -222155  -236209  -250604 
 -265555  -278127  -285770  -290202  -293468  -296545  -298884  -299244 
 -298542  -298422  -297393  -294017  -291129  -288665  -283613  -278511 
 -275179  -270983  -265120  -257331  -248589  -241018  -232939  -223634 
 -214151  -203007  -191335  -181423  -171808  -161582  -151191  -140596 
 -130298  -120110  -109660  -101001   -94546   -87217   -79820   -75817 
  -73604   -71207   -70613   -71540   -71707   -70797   -68819   -65796 
  -62372   -58823   -54561   -49491   -44603   -41442   -39846   -35296 
  -27095   -21529   -20071   -20254   -21263   -20286   -17464   -17187 
  -19010   -20693   -23230   -25694   -26450   -28431   -33265   -36636 
  -37421   -38703   -40449   -43131   -46902   -49088   -47960   -41558 
  -31551   -25851   -32639   -50637   -63214   -59878   -53147   -56611 
  -65985   -70134   -70968   -74935   -77010   -77345   -79524   -78775 
  -76610   -74587   -70187   -66033   -61684   -55512   -48234   -39013 
  -27726   -13541     4121    20392    27614    28228    33190    39054 
   36742    32729    29829    27818    35031    40679    31564    24575 
   26783    25766    25498    30557    35245    40032    44243    47745 
   53958    60433    65911    72972    80088    82375    81758    88887 
   98872    93289    82892    85029    83953    77017    75591    69117 
   59605    55623    48746    39196    31815    24982    17110    10102 
   10332    17058    20779    20100    20616    19292    15422    12220 
    6004     1947     3417     4441     4364      499    -6491   -10790 
  -11127   -11078   -15460   -22633   -28837   -31965   -31945   -31856 
  -32737   -34123   -34697   -32815   -29488   -26349   -23897   -22147 
  -21172   -20836   -20487   -19692   -18680   -18597   -19680   -20993 
  -22712   -24210   -25104   -26971   -30044   -33940   -38852   -44122 
  -49009   -54376   -60918   -67294   -73268   -79545   -85747   -92248 
  -98966  -104814  -109266  -111724  -112793  -113593  -113252  -110873 
 -106157   -98175   -87088   -74194   -60611   -47651   -35730   -24053 
  -12074       33    11879    22970    32032    38163    41654    43809 
   45915    46785    44964    41227    36597    32012    27854    23307 
   18665    14260     8897     3319     -571    -3061    -4360    -4921 
   -7629   -12916   -17908   -22392   -28880   -39403   -52952   -65918 
  -78125   -93074  -110743  -127973  -142724  -154261  -166004  -181296 
 -197904  -213267  -225581  -235146  -244256  -248357  -239521  -230960 
 -250699  -279559  -274018  -259300  -267172  -268645  -258847  -256112 
 -251194  -242951  -236289  -225823  -212694  -199561  -187666  -180962 
 -178868  -175979  -170605  -165248  -159456  -151849  -144610  -136642 
 -125340  -114592  -105873   -97718   -92858   -88137   -77882   -64630 
  -51093   -38265   -26597   -13543      763    14554    28014    39608 
   48680    56905    63678    68549    74394    83164    92944   100781 
  106300   111903   118315   122145   122740   123978   126570   128664 
  129419   128422   126674   126308   129372   136016   143356   147965 
  149568   149746   148061   145745   140712   128540   117792   111058 
  100148    89462    80334    68168    55721    44508    36688    31612 
   23481    14898     9444     2420    -5685    -9345   -12036   -17823 
  -21986   -23575   -25866   -27140   -26664   -26580   -26771   -27486 
  -29447   -31755   -34834   -39289   -44795   -51491   -57107   -60056 
  -64131   -72188   -82105   -91902  -101616  -110826  -118989  -125375 
 -129201  -131192  -131525  -130253  -128401  -124778  -120762  -123248 
 -131712  -134979  -129508  -125563  -126066  -121983  -114851  -111263 
 -107444  -102236   -98542   -96000   -94956   -94949   -95179   -95695 
  -95883   -96616   -98146   -98798   -97933   -96396   -94800   -92126 
  -88527   -86053   -85178   -86944   -92969   -99477  -100052   -95790 
  -93553   -93037   -89729   -86851   -87352   -86650   -83986   -83701 
  -84118   -81954   -79968   -78271   -72883   -65031   -57320   -47727 
  -35869   -25742   -20368   -20198   -22680   -23632   -24498   -28947 
  -33471   -34735   -34712   -32395   -26920   -21313   -16563   -13419 
  -10583    -4728     1613     7206    14168    21477    28830    35400 
   39823    44168    49812    54248    55475    55388    54779    52760 
   51230    51853    52700    51789    50477    50225    50412    50756 
   50978    49696    47928    48829    51035    51561    51771    52136 
   51406    50550    47997    39820    27875    16151     3691   -10060 
  -22756   -33992   -44759   -55856   -67699   -78447   -86725   -93856 
 -100088  -105511  -111560  -116896  -118945  -118181  -116221  -113497 
 -110538  -108042  -105422  -102907  -102344  -103840  -105852  -107979 
 -110919  -114902  -118620  -119871  -118787  -116715  -112354  -106205 
 -101469   -97967   -94690   -91269   -86324   -81282   -77641   -73513 
  -68143   -62384   -57196   -53412   -49971   -45606   -40728   -35819 
  -30563   -24607   -18280   -12473    -7631    -3440     -420     1421 
    4959    10692    13937    14476    19168    28084    33964    36910 
   41084    44789    46619    49722    54105    55687    53647    50816 
   50459    52850    54643    54129    53299    53449    52278    48923 
   45078    40523    34031    27075    21886    16743    10938     5375 
   -1003    -7938   -14980   -21534   -27108   -32891   -39388   -46208 
  -52773   -58904   -64776   -70806   -77772   -85729   -93876  -101270 
 -107597  -113084  -117981  -122547  -126850  -130740  -134404  -138356 
 -141914  -143919  -144414  -143461  -140909  -136475  -130494  -124436 
 -117952  -110586  -103663   -96702   -88929   -80702   -71517   -61713 
  -52907   -45943   -40239   -34507   -28663   -24047   -20946   -18359 
  -15767   -13058   -10516    -8604    -7095    -5551    -3250      -32 
    1782      533     -962     -510     -700    -2520    -3843    -4778 
