Origin Time       2011/03/11 14:46:00
Lat.              38.103
Long.             142.860
Depth. (km)       24
Mag.              9.0
Station Code      KNG005
Station Lat.      35.3191
Station Long.     139.5461
Station Height(m) 10
Record Time       2011/03/11 14:47:43
Sampling Freq(Hz) 100Hz
Duration Time(s)  300
Dir.              U-D
Scale Factor      3920(gal)/6182761
Max. Acc. (gal)   26.259
Last Correction   2011/03/11 14:47:28
Memo.             
[...]
    1316    -1340    -1904      681     2959     3571     3807     3409 
    1234    -2155    -4864    -6202    -8191   -12178   -15569   -16896 
  -19329   -23602   -26043   -25980   -25261   -24068   -23131   -22702 
  -20768   -17579   -15048   -12283    -8967    -8062   -10210   -11394 
  -10015   -10113   -12636   -12844   -10836   -11311   -12698   -10509 
   -6296    -3375    -1383      253      418     -469     -166     1629 
    2947     2862     1761      336     -515     -961    -1252     -779 
    -210     -582    -1749    -3405    -4702    -5125    -4936    -3100 
      88     1847     1725      296    -3604    -8326   -10396   -11175 
  -12791   -12635   -10471   -10186   -10841    -9310    -8101    -9187 
   -9887    -9977   -10998   -11360   -10675   -10865   -11812   -12995 
  -14568   -15394   -14794   -13367   -12198   -12218   -11689    -9242 
   -7676    -7848    -7194    -5908    -5381    -5646    -6988    -8026 
   -7009    -5679    -5047    -2895      943     4451     8244    13600 
   17827    18362    17388    16212    13049     9259     7664     6420 
    3612     2234     3774     5502     6465     6665     4393      164 
   -3846    -7066    -8825    -8872    -9183   -10707   -12150   -13418 
  -15338   -16502   -15164   -12742   -11224    -9674    -7647    -7830 
  -10951   -13359   -12153    -8450    -5481    -4887    -5028    -4491 
   -5379    -9102   -12493   -12424    -9588    -5954    -2678      -67 
    1711     1470    -1728    -6459   -10202   -11569   -10736    -9261 
   -8099    -6388    -4306    -2854    -1042     1019     1210      772 
    2260     3731     2637      -21    -2788    -5334    -7776   -10111 
  -11619   -13102   -16463   -20614   -23181   -23589   -22264   -20746 
  -19741   -17556   -14829   -14525   -16270   -17951   -19580   -21274 
  -21432   -19316   -16389   -13198    -9509    -6984    -5405    -2008 
    1453      513    -4067    -8600   -11991   -14297   -15033   -14401 
  -12555    -9016    -4678    -1243     1172     3085     4435     5679 
    7403     8861     9810    11603    13628    13458    11495     9902 
    8190     4317    -1409    -6543    -9044    -7931    -4277    -1249 
     699     3713     5411     2965      830     1870     1525    -2119 
   -5686    -8448   -12488   -17116   -19707   -19467   -17483   -15274 
  -13687   -13256   -14197   -14615   -13005   -11850   -13605   -15998 
  -16083   -15539   -16464   -16975   -15976   -15365   -15731   -15481 
  -13995   -12964   -13760   -15452   -16896   -17707   -17263   -14776 
   -9569    -3287     -794    -3764    -7689   -10074   -13269   -16826 
  -17840   -17257   -16605   -14485   -11454   -10156    -9624    -7329 
   -4009     -905     1953     3186     1965      278     -546    -1985 
   -5037    -8094    -9266    -8759    -8264    -8259    -7439    -5488 
   -4122    -4889    -7079    -7966    -5519    -1241     1400     1706 
    1372      662     -629    -1392    -1384    -2181    -4453    -6808 
   -8256    -9961   -13745   -18299   -19193   -16178   -14455   -15085 
  -14315   -12141   -10767    -9759    -8891    -8196    -5671    -1594 
    -170    -2395    -4305    -4312    -5029    -8496   -13711   -16975 
  -15933   -12913   -10341    -7679    -5673    -6071    -7730    -9005 
   -9784    -9526    -7978    -6201    -5567    -6755    -7807    -6546 
   -5724    -7893    -9493    -8100    -6255    -4847    -2705    -1105 
   -1965    -4875    -8630   -12464   -15772   -19386   -24428   -29035 
  -31755   -34697   -37737   -38077   -37224   -38736   -41369   -41663 
  -39896   -38083   -35783   -32462   -28885   -24339   -18238   -12870 
  -10146    -9195    -9322   -10567   -10627    -7569    -4509    -3475 
    -994     2521     1744    -2198    -3868    -3514    -3896    -3305 
     773     5628     7878     9271    10664     8747     3868      507 
      31      958     2858     6606    12624    18663    21464    21101 
   19497    17033    13939    11378    10100     9941    10478    11241 
   11281    10333     8723     5168     -495    -5404    -8794   -12366 
  -15774   -18198   -20785   -24278   -28035   -31335   -33310   -33147 
  -31155   -28190   -24959   -23025   -23794   -25670   -26252   -26704 
  -28891   -30549   -29385   -28574   -30958   -32823   -31134   -29056 
  -28029   -25039   -20904   -19074   -17430   -13535   -11866   -14701 
  -16390   -14829   -14585   -15431   -13693   -11807   -13028   -14933 
  -15638   -17102   -19026   -17627   -13635   -12561   -14746   -16020 
  -15880   -15698   -14939   -13974   -14957   -17875   -19633   -18088 
  -14082   -10121    -7661    -5598    -3961    -4493    -5731    -5390 
   -4393    -3503    -2384    -1288     -103     1032     1357      656 
   -1560    -5216    -7939    -8387    -8071    -7552    -6578    -5877 
   -4359    -1347      -99    -1879    -3744    -5104    -7455    -9066 
   -8072    -7094    -7778    -6975    -4469    -4549    -6418    -5471 
   -2869    -2164    -2176    -1041       94      523     1141     2031 
    2523     2571     2519     2963     3747     3483     2975     4974 
    8905    11440    11328    10646    12267    15528    16398    13778 
   11314    11397    11612     9070     4874     1883     1289     2417 
    3854     5135     6501     7761     9273    11156    11890    11215 
   11603    13834    15136    14002    12201    11023    10092     9622 
    9964    10122     9825    10375    11189     9538     5108      873 
   -1754    -4905    -9757   -14108   -16615   -18304   -18286   -15001 
  -10383    -6385    -2680      525     3004     5062     5841     4743 
    3474     3484     3202     1207     -735     -858     -280     -837 
   -2072    -2618    -3360    -5358    -7209    -8063    -8721    -9218 
   -9895   -12085   -15366   -18509   -22023   -25972   -29515   -33404 
  -37317   -39079   -40003   -42470   -44695   -45420   -45508   -44321 
  -42415   -41306   -39921   -38632   -39807   -42058   -42279   -40393 
  -37626   -34865   -32416   -29420   -26864   -27375   -29182   -28883 
  -28083   -28531   -27803   -24995   -22515   -20715   -17634   -13525 
  -10010    -6818    -3833    -2723    -3574    -4418    -4702    -5181 
   -5688    -5000    -3016    -2456    -4723    -7089    -8088    -8990 
   -9626    -9548    -9148    -6965    -2297     1658     2590     1529 
    -854    -4599    -9068   -12908   -13716   -10778    -6949    -4849 
   -4502    -5153    -6619    -8908   -12040   -16030   -19705   -22079 
  -24552   -27214   -27633   -26356   -26050   -26788   -28318   -31139 
  -33677   -34909   -36208   -37000   -35900   -35421   -37391   -38394 
  -36125   -32915   -29957   -26404   -23457   -22523   -22994   -24211 
  -24698   -22452   -19325   -18625   -19304   -18963   -17545   -15899 
  -15246   -15611   -15434   -15302   -16528   -17226   -15453   -12555 
  -10588    -9284    -7018    -3680      105     4980    10317    13652 
   14669    14522    12748     9275     6353     5461     5206     4487 
    3833     2683      123    -3286    -7602   -14024   -21592   -26881 
  -28876   -30460   -33326   -36282   -38923   -41832   -44193   -44945 
  -44299   -42205   -38121   -33217   -29238   -25519   -20965   -16500 
  -13263   -11395    -9639    -6158    -1999      531     1926     3361 
    5089     7277     9169    10626    12645    13618    11024     7028 
    5060     4036     2451     1295      184    -1199    -1057     -188 
    -957    -1606     -366      552      629     1252     1286      795 
    2352     5157     6149     5770     5772     5121     3154     1567 
    1266     2229     4267     6061     7316     8951    10206    10571 
   10825    10039     7178     3212     -577    -2381    -1187      727 
    1724     2962     3758     2462      830      825     1360     1590 
    2532     4125     4604     3890     3609     3580     3366     4062 
    4518     2619      336      -22     -148    -1402    -2723    -3581 
   -3919    -4305    -6352    -9095    -9762    -9063    -9402   -10529 
  -10885   -10222   -10372   -12790   -14714   -13225   -11240   -11602 
  -11863   -10864   -10824   -12098   -13628   -15406   -17514   -19585 
  -21102   -21924   -22590   -22836   -21648   -19911   -19427   -19724 
  -19504   -19241   -19915   -21207   -22548   -24261   -26320   -27738 
  -27598   -25716   -23242   -21605   -19622   -16109   -14291   -15820 
  -16280   -14120   -12963   -12669   -10907    -9333    -8692    -6603 
   -3563    -2199    -2181    -1520      -11      898      521      864 
    4107     7948     8849     8185     8245     7742     6076     5053 
    5641     6583     5778     3926     3982     5659     6530     6676 
    6907     6469     4939     2999     1242      -55    -1022    -1968 
   -2438    -2634    -3841    -5005    -3868    -1628     -983    -2098 
   -3657    -4882    -5832    -6853    -7631    -7694    -7388    -7376 
   -8180    -9913   -11478   -11813   -11724   -11763   -11348   -11733 
  -13897   -15195   -14500   -14823   -16916   -18198   -18546   -20545 
  -25355   -31347   -36290   -40163   -44104   -47541   -49056   -48709 
  -47611   -45771   -42316   -38558   -37312   -38085   -37711   -35489 
  -33025   -30931   -28827   -26630   -25116   -25519   -26957   -26523 
  -24158   -22384   -21326   -20322   -20284   -20207   -18466   -17433 
  -19239   -20749   -19713   -19510   -21755   -22878   -21608   -20418 
  -19611   -17764   -15642   -14601   -13972   -12762   -11280    -9821 
   -8297    -7063    -5630    -2733      309     1088      870     1505 
    1204     -793    -1790     -986     -316     -263      -13      591 
    1449     2590     3815     3943     2155      636     1269     1518 
    -959    -3883    -4807    -5935   -10134   -15015   -17137   -18152 
  -20152   -21406   -20733   -19799   -20221   -21555   -22799   -24636 
  -27700   -30549   -32359   -34142   -35951   -36482   -35468   -34227 
  -33395   -31839   -29145   -26796   -25726   -24717   -22157   -19187 
  -18346   -18848   -18440   -17835   -17859   -16859   -14439   -13024 
  -14295   -17212   -19869   -21786   -23643   -25287   -25816   -25530 
  -25696   -26682   -27820   -28710   -29654   -30640   -30952   -30184 
  -27978   -24001   -19696   -16545   -13723   -11204   -10438   -10468 
   -9359    -8308    -9478   -11894   -12937   -12207   -11251   -11199 
  -12174   -12807   -11548    -9967   -10421   -11280   -10094    -8572 
   -9502   -12261   -14738   -16557   -18426   -20339   -21422   -21207 
  -20287   -18618   -15549   -12316   -10053    -7328    -4123    -3024 
   -4046    -4543    -4143    -4345    -5126    -5691    -6421    -7888 
   -8803    -7110    -3617    -1406     -785      949     4139     6126 
    6433     7537    10352    13349    15288    16249    17626    20291 
   22185    21554    20644    21944    24527    26647    27808    27963 
   27306    25855    23717    21810    19798    16490    13046    10433 
    7406     4131     1524     -952    -3386    -5880    -9159   -12692 
  -15268   -16108   -14891   -12399   -10020    -8396    -7286    -6401 
   -6018    -6348    -6828    -6800    -6379    -6121    -6181    -6595 
   -7609    -8887   -10222   -12590   -15872   -17848   -17712   -17073 
  -16785   -15866   -13630   -11339   -10292    -9619    -8118    -6271 
   -5279    -5271    -5274    -5193    -6149    -8076    -9189    -8648 
   -7729    -7931    -9497   -11463   -12602   -13051   -14121   -16364 
  -19355   -22224   -24251   -25915   -27420   -27708   -27325   -27885 
  -28633   -29105   -30743   -32444   -32300   -31854   -32018   -31176 
  -29334   -27935   -27511   -28126   -29571   -31511   -33426   -34060 
  -32951   -30846   -27762   -23516   -19494   -17918   -19499   -22456 
  -24694   -26032   -27148   -28144   -28532   -27482   -25628   -24982 
  -24606   -21825   -18143   -16000   -13637   -10337    -8745    -9117 
   -9640   -10281   -11020   -10889   -10391   -10793   -11874   -12386 
  -11611   -10157    -8888    -7362    -5639    -5845    -8321   -10391 
  -12068   -15568   -19037   -19392   -18146   -18012   -18555   -18531 
  -17964   -17259   -17073   -17336   -17082   -16818   -17686   -19393 
  -21386   -22756   -22218   -20812   -20292   -19901   -19230   -19398 
  -19707   -18401   -16175   -15401   -16069   -15928   -15152   -15863 
  -16964   -15656   -12769   -10539    -8540    -5872    -3040     -556 
    1522     3162     4204     4481     4385     4433     3851     1751 
    -650    -1901    -2386    -2310    -1042      955     2620     3367 
    2156    -1083    -3671    -3797    -2681    -1950    -2583    -4255 
   -5576    -6989    -9548   -11551   -11101    -9524    -8662    -7611 
   -4907    -1461      824     1947     3299     4776     5204     5260 
    6113     6647     6045     5448     4869     3836     3349     2673 
     371    -1079       -4      187    -2083    -4233    -5694    -7384 
   -8294    -8194    -7681    -5619    -2427     -799     -585      280 
    1150      104    -2274    -3847    -4491    -5383    -5739    -4198 
   -2025    -1002     -203     1106     1221     -329    -2031    -3406 
   -4719    -5651    -6155    -6444    -6168    -5688    -5960    -6011 
   -4420    -2066     -610    -1221    -4210    -7608    -9073    -9309 
   -9998   -10568   -10439   -10831   -11793   -11726   -10737    -9995 
   -9163    -8366    -8817    -9790    -9745    -9287    -9928   -11892 
  -13794   -14514   -15066   -16611   -18372   -19919   -22274   -25305 
  -27803   -29496   -30767   -32372   -34815   -37332   -39172   -40139 
  -40141   -40485   -42711   -45386   -46608   -47843   -50009   -50903 
  -50478   -50740   -50547   -48674   -47040   -46496   -46117   -45863 
  -45946   -45775   -43939   -39840   -35411   -32388   -30024   -27820 
  -26657   -26188   -24898   -22663   -20419   -18411   -16417   -14272 
  -11538    -7859    -3302     2106     7417    10952    13714    17657 
   20962    21864    22428    23565    23065    20256    17524    16986 
   17584    17146    16292    15506    12420     7641     5099     4689 
    3510     1776     1267     1344      113    -1991    -2856    -2458 
   -2124    -1841    -1764    -2570    -3647    -4202    -3902    -2564 
   -1586    -2394    -3444    -3063    -2212     -744     2969     7418 
   10367    12589    14180    14223    13909    13587    12033    10309 
    9501     8226     6482     5549     4426     2249      123    -1943 
   -4344    -6278    -8420   -12173   -16224   -18385   -19069   -20060 
  -21527   -22348   -22351   -22155   -21533   -20512   -20352   -21168 
  -22292   -24648   -28307   -31180   -32521   -33335   -34280   -36087 
  -38836   -40835   -41503   -42511   -44121   -44352   -42244   -38891 
  -35777   -33400   -31415   -29630   -27935   -26553   -26117   -25581 
  -23276   -20290   -18216   -16515   -14872   -13509   -11903   -10470 
  -10215   -10656   -11183   -12187   -13848   -15778   -17402   -18398 
  -18933   -19328   -19666   -19430   -18403   -17600   -17260   -16275 
  -14797   -13479   -11944   -10508    -9210    -7219    -6377    -8789 
  -12070   -13924   -15773   -18503   -21328   -23987   -25890   -25917 
  -24785   -24645   -25042   -23463   -20677   -19332   -18977   -18005 
  -16370   -14911   -15225   -17611   -19522   -19585   -19295   -19012 
  -17275   -13913   -10780    -9682    -9795    -8956    -7468    -6187 
   -4183    -2008     -807      456     1836     2388     2987     3878 
    4307     5198     6830     7799     8349     8962     8241     6616 
    6481     7714     9027    10835    12533    12507    11666    11285 
   10638     9827     9909    10403    10170     8947     6603     2970 
   -1134    -4335    -6457    -8643   -11211   -12805   -12742   -12123 
  -11363    -9975    -9242   -10156   -11109   -11915   -13684   -14744 
  -14318   -14544   -14829   -13051   -10803    -9878    -8752    -6560 
   -4890    -4665    -5712    -8074   -10649   -11797   -12265   -13111 
  -12987   -11590   -10985   -11529   -11606   -10990   -10643   -10474 
  -10134   -10244   -10459    -9502    -8214    -8136    -8744    -9537 
  -10438   -10042    -7971    -5936    -4809    -3846    -2572    -1897 
   -2403    -2748    -2410    -2833    -4047    -4871    -5428    -6129 
   -6888    -7583    -7723    -7061    -5918    -4618    -3822    -3881 
   -3879    -3338    -3021    -3182    -3331    -3282    -3419    -4389 
   -5667    -5589    -4160    -3313    -4038    -5242    -5585    -5864 
   -7655    -9932   -10909   -11413   -12517   -13549   -14410   -15472 
  -16462   -18121   -20973   -23252   -23807   -23628   -23871   -25208 
  -27135   -28251   -28767   -29546   -29455   -27603   -25797   -25672 
  -26079   -25554   -24906   -24978   -24633   -23924   -24801   -26709 
  -27765   -28528   -28999   -27549   -24608   -21682   -19233   -17821 
  -17452   -17272   -17414   -18187   -19033   -19690   -19897   -19314 
  -18622   -18320   -17917   -17300   -16925   -16972   -16760   -15432 
  -13544   -12344   -12317   -13311   -14343   -14192   -13076   -12230 
  -12108   -12130   -12005   -12251   -12829   -12883   -12459   -12155 
  -11634   -10625    -9639    -8521    -6531    -4652    -4911    -6548 
   -7308    -7956   -10367   -13389   -14762   -14962   -15738   -16559 
  -16429   -16453   -16947   -16652   -16021   -16398   -17124   -16840 
  -15702   -14772   -14590   -14738   -14681   -15160   -17082   -18747 
  -17828   -15747   -14764   -13441   -10768    -9079    -8885    -7731 
   -5139    -2756    -1211     -446     -284       46      848     1574 
    1613      932      184     -463    -1452    -2679    -3551    -3261 
   -1597      399     2483     5672     9413    11969    13098    13596 
   13753    13575    13224    12594    11706    11313    11224    10589 
   10651    12422    13632    12812    12272    13673    15169    14920 
   13735    13144    13256    13147    12615    12331    12181    11608 
   10863     9662     7013     3763     1892     1358      606    -1000 
   -3064    -5449    -8567   -12413   -15760   -16677   -14906   -12827 
  -12007   -11445   -10569    -9991    -9881    -9974    -9685    -9206 
  -10153   -12676   -15027   -16341   -16619   -16379   -16354   -15570 
  -13000   -10058    -7863    -5545    -3075    -1679    -1118     -690 
   -1552    -3823    -5189    -5475    -6789    -8846    -9655    -9045 
   -8503    -8873    -9126    -8402    -8155    -9037    -8904    -7612 
   -8163   -10891   -13230   -14847   -17083   -19285   -20294   -21249 
  -22916   -23681   -23343   -23738   -24632   -24511   -23980   -24277 
  -24748   -24296   -23469   -23314   -23421   -23133   -23343   -24607 
  -25452   -24973   -24310   -23879   -22568   -20178   -17641   -15723 
  -14538   -13082   -10705    -8474    -6785    -4907    -3390    -3055 
   -2995    -1664      865     3030     4604     6720     9124    10617 
   11458    13003    14776    14882    13648    12092     9666     7280 
    6487     6170     5377     5190     5667     5505     4416     3008 
    1547      -52    -2093    -4647    -6622    -6960    -6848    -8031 
   -9920   -11408   -12979   -14779   -16035   -16902   -17981   -18741 
  -18519   -17890   -17211   -15986   -14706   -13988   -12982   -11517 
  -10636   -10140    -9410    -9140    -9419    -9338    -9147    -9270 
   -9071    -8662    -8915    -9494    -9536    -9577   -10239   -10314 
   -9431    -9453   -10511   -11314   -12653   -14672   -15481   -15045 
