Origin Time       2011/03/11 14:46:00
Lat.              38.103
Long.             142.860
Depth. (km)       24
Mag.              9.0
Station Code      KNG003
Station Lat.      35.2731
Station Long.     139.6582
Station Height(m) 25
Record Time       2011/03/11 14:47:50
Sampling Freq(Hz) 100Hz
Duration Time(s)  300
Dir.              E-W
Scale Factor      3920(gal)/6182761
Max. Acc. (gal)   40.627
Last Correction   2011/03/11 14:47:35
Memo.             
[...]
    6251     -860    -8398   -15537   -20918   -21562   -16792   -10460 
   -6730    -6505    -7734    -8457    -7585    -2784     6867    18697 
   30065    38496    41041    37647    29979    19338     9205     3062 
     -22    -2332    -4652    -7717   -11215   -13793   -15219   -15196 
  -13469   -11803   -11799   -12653   -12935   -11977    -8721    -2616 
    4393    10342    14927    17105    15726    12346     9969     9741 
   10549    10568     8451     3997    -1615    -6022    -7968    -8777 
   -8999    -6868    -2730     -822    -3676    -8720   -12552   -13494 
  -10268    -3793     2097     4104     1500    -3413    -6697    -5767 
    -787     4848     7019     5109      740    -5293   -12135   -18177 
  -22148   -23698   -24188   -25781   -28360   -29753   -28164   -21866 
   -9826     5457    19497    29678    34491    32766    26309    18933 
   12844     8819     7303     6959     4663       -3    -4056    -8338 
  -16900   -27562   -33510   -32190   -25656   -17105   -10467    -8234 
   -8914   -10444   -12443   -12940   -10338    -6844    -3455      571 
    2873     2240     1106     -182    -2659    -5092    -6272    -6381 
   -5542    -4479    -5941   -12237   -21606   -29515   -32500   -30239 
  -25495   -21188   -17420   -13779   -12024   -12732   -13474   -12228 
   -8313    -1601     5496     8881     7534     3805     -254    -4043 
   -7105    -8388    -7841    -7352    -7584    -7062    -6269    -7176 
   -9073   -10091    -9577    -6542     -695     5507     9696    11639 
   10674     5703    -1705    -8378   -12718   -14604   -14442   -12816 
  -10569    -9617   -10653   -11341   -10428    -8870    -6914    -5059 
   -4481    -4945    -4829    -2886      510     3940     5952     5553 
    3449     1973     2727     4653     4812     2330     -134      210 
    4518    12486    22425    31807    37634    37970    31479    17634 
    1803    -7970   -10233    -8967    -7960    -8790   -10289   -10774 
   -9600    -5468     2009     9836    14519    15088    12138     5981 
   -2722   -12159   -20660   -26103   -25832   -19931   -11372    -3246 
    1830     2732     1380      385      874     2818     3974     2131 
    -919    -3200    -6442   -12305   -19993   -27463   -31911   -31536 
  -27080   -20631   -14533   -10727    -8602    -4968      952     6371 
    9727    11266    11196     9920     7653     4861     2274      -17 
   -1016     1198     6159    10525    12368    13459    15662    18246 
   19340    18178    16123    14749    14321    14938    16221    17065 
   17134    16169    13946    12346    12810    13340    12738    12302 
   11131     8854     9327    13155    16634    18694    17964    12075 
    4270     -776    -3352    -4445    -3358    -1353    -1955    -6633 
  -12537   -16181   -16715   -14495   -10195    -5111     -588     2001 
    1998      229    -2210    -3701    -1849     3027     7036     7388 
    5490     4189     3178       66    -5449   -11453   -15088   -14874 
  -13127   -12178   -11120    -9064    -7029    -6063    -6721    -9931 
  -15842   -22209   -25361   -23042   -16668   -10681    -8625    -9456 
   -9802    -8282    -4767      215     5420    10519    14334    14623 
   12223     9908     7995     5643     2874     -731    -5166    -9045 
  -10828    -9212    -4846      290     7005    16114    24546    29633 
   32104    34329    37647    40564    40742    37459    32004    26340 
   20361    13138     6274     1482    -2730    -7943   -13270   -18147 
  -22946   -27185   -30530   -33212   -34923   -34924   -32360   -26431 
  -17496    -7978     -302     5403     9579    11698    11968    11997 
   13344    16842    21972    25530    23711    17008     9224     2659 
   -1058     -282     3180     4711     1288    -5749   -11895   -14116 
  -12451    -8313    -4440    -2897    -2742    -3540    -6878   -12551 
  -18205   -21854   -23049   -23102   -22798   -20513   -14724    -6414 
    1283     4317     1074    -5010    -9921   -13366   -15615   -15700 
  -13365    -9023    -3534     1713     6587    11462    14061    11622 
    4935    -2702    -8785   -12861   -14386   -11836    -5792      -75 
    1050    -3803   -11824   -18351   -20498   -18233   -14423   -13307 
  -16538   -23150   -31448   -37863   -39507   -37800   -34664   -30052 
  -25868   -25902   -30681   -37121   -42227   -43302   -39247   -33245 
  -28865   -26848   -26964   -27887   -27501   -24909   -19980   -13442 
   -7583    -3505      -44     3040     4602     4808     5157     6148 
    6578     5551     4245     4658     7322    10678    12616    12387 
    9400     2973    -4563   -10037   -13295   -14189   -11709    -7996 
   -7155   -10448   -15642   -19715   -20707   -17934   -12168    -5356 
    1450     8339    13860    15620    13412     8807     3424    -1727 
   -7000   -12322   -15199   -13767    -8595     -419     9348    17825 
   23261    26662    29739    30919    26968    19504    13805    11682 
   10594     7865     2501    -5337   -14484   -23252   -30652   -36545 
  -40509   -42146   -41947   -40247   -37861   -36883   -37225   -36750 
  -35382   -33415   -29448   -22974   -14774    -5976     2106     9400 
   16184    21234    23645    23533    20766    15648     9187     3375 
    1023     2638     6850    13219    19641    22210    20764    18334 
   16194    14042    12158    10645     8225     3873    -2107    -9660 
  -17879   -24230   -27680   -28496   -26214   -21502   -16533   -12453 
   -9701    -9016    -9558    -9924   -11179   -13502   -14439   -14247 
  -15207   -17493   -20736   -24289   -26253   -24912   -19729   -12605 
   -7204    -5039    -5250    -7073    -8942    -8065    -3322     3352 
    9254    12983    13593    10819     7691     8513    13131    18186 
   22311    25265    26178    25082    22063    16342     9200     4492 
    4323     6938     9560    10758    10227     8982     8569     8463 
    7368     6580     7781     9525     8569     2664    -7501   -17915 
  -24513   -27298   -29560   -33089   -36850   -38909   -37203   -31776 
  -25352   -20282   -18511   -20956   -25009   -27460   -28106   -28151 
  -27571   -25460   -22147   -19029   -16218   -12156    -5312     4227 
   14039    20489    21240    16579     8777      323    -6612    -9210 
   -6098       76     5433     8443     9400     7958     3874     -622 
   -3844    -7145   -11084   -14286   -16042   -16231   -14158    -8979 
   -1876     4380     9420    13751    15296    12519     6134    -2091 
   -8863   -12293   -13928   -14669   -13815   -11552    -8638    -6376 
   -6393    -8634   -11369   -12706   -12725   -14499   -19922   -27077 
  -33349   -35956   -32553   -24927   -16746   -10029    -6489    -6840 
   -9854   -13755   -16347   -15562   -11422    -6785    -5153    -7827 
  -13818   -21206   -28415   -34129   -36377   -33753   -27253   -20276 
  -16358   -16855   -20879   -26060   -30596   -34094   -35489   -33416 
  -27202   -16848    -4609     5696    10881    10326     8233     9688 
   14828    21606    29244    36316    41133    42682    39118    29911 
   17992     6725    -2247    -7973    -9973    -9470    -8760    -9223 
  -12230   -19400   -29303   -37951   -42245   -40098   -31478   -20089 
  -10308    -3772      134     2483     3940     5260     7464    10017 
   10758     8814     4490    -2137    -9628   -15872   -19946   -21563 
  -21331   -20109   -17769   -14275    -9857    -4363     1925     8045 
   13309    17718    21409    24196    26062    27429    27917    26025 
   21846    18041    16455    16407    15892    12726     7301     2787 
     492     -872    -2127    -2987    -2749    -1340      233      693 
    -196     -580      966     2844     3414     2656      274    -3383 
   -6467    -7666    -7472    -7038    -6059    -3440      844     6389 
   12589    18510    22946    24417    23685    23255    23668    23987 
   22207    16162     7297    -1697   -10515   -18088   -22319   -23119 
  -20972   -16600   -12307    -9162    -6359    -4029    -2155      800 
    5563    11004    16347    22179    27887    30550    28754    24327 
   18465    10995     3348    -2338    -5281    -6237    -6788    -7344 
   -7188    -5831    -1939     5752    15396    23531    28832    31697 
   31960    29875    26977    23811    19975    16118    13234    11778 
   11215     9199     4052    -2805    -9782   -16778   -22975   -27693 
  -31558   -34297   -35016   -34391   -33196   -30567   -25672   -18417 
   -9308     -533     5890    10256    12988    13747    13776    15203 
   17908    20559    23061    24453    22802    19225    16303    14740 
   15540    19523    24622    29159    33839    38548    42586    46656 
   51211    55781    59737    61227    57745    48357    33737    15206 
   -5750   -26791   -43864   -53837   -57451   -57714   -57324   -56612 
  -53158   -45612   -35602   -25714   -17366    -9792    -2145     4978 
   11035    15751    19266    21841    21778    18223    14780    13894 
   12957    10457     8128     6696     5951     5793     4991     2013 
   -2803    -6671    -7169    -5323    -3661    -2703     -584     4670 
   12213    18742    21943    21749    19080    14978    10383     6036 
    2839     2042     3664     5365     4420     -192    -7558   -14392 
  -15922   -10139      108     9650    13917    11895     6967     2853 
    1000     1772     4595     7569     8077     3670    -5822   -16817 
  -24740   -28066   -27900   -25246   -21596   -19969   -21591   -24097 
  -25586   -26026   -24178   -19128   -12930    -7094     -653     7048 
   16014    26017    35106    41246    44486    45034    42529    37276 
   29752    20392    10089       57    -8535   -15285   -20200   -22477 
  -21040   -15871    -8064     1027    10196    18393    25664    32959 
   39850    44379    44952    40676    32050    22152    14401     9120 
    4250    -1932   -10446   -21609   -33738   -43717   -49775   -52154 
  -51303   -48069   -44685   -42556   -40790   -38255   -34680   -30115 
  -25213   -20741   -16517   -12113    -7589    -3125     1327     6253 
   11880    17133    20666    22599    24009    26160    29992    34299 
   36403    34953    30119    23024    15339     8225     2836      600 
    1195     2119     1114    -2119    -5987    -8259    -7885    -5488 
   -2687     -809      323     1154     1550     1983     2547     2922 
    4222     7098    10415    12975    13806    12615    10294     7157 
    2959    -1013    -3190    -4245    -5720    -7675    -9102    -8835 
   -6189    -2094     1836     5261     8936    13967    20761    27464 
   31431    32273    30502    24827    14822     3671    -4368    -6580 
   -2733     4175     9967    12182    10517     6689     3186     1075 
     -93    -1450    -3828    -7139   -11684   -17541   -22447   -24476 
  -24602   -23598   -21161   -17926   -13844    -7657      831    10996 
   21478    28851    29974    25554    18532    10737     3080    -3468 
   -8236   -10998   -12254   -13492   -15813   -18953   -21872   -22381 
  -17828    -8482     2610    12902    20265    22946    21823    19147 
   15544    10595     4779     -238    -2858    -2182     2006     8600 
   16271    24115    30819    36283    40833    43628    46004    50406 
   56047    60745    62217    57916    48003    35202    22156    11455 
    5345     4442     7560    12159    15493    16149    13840     8705 
    2409    -2615    -5950    -8380   -10071   -12096   -16126   -21500 
  -25631   -26309   -23010   -17539   -12281    -8418    -6606    -6746 
   -7557    -8185    -8625    -8651    -7534    -4591     -870      802 
    -448    -2452    -3749    -4544    -4342    -2316      936     3755 
    4485     2248    -2102    -6080    -7652    -7060    -5994    -5765 
   -6754    -8911   -11726   -13724   -13165    -9389    -3148     3912 
    9938    13467    13894    11471     7063     1965    -3070    -8296 
  -13502   -17618   -20224   -21749   -22092   -20358   -16750   -13197 
  -10721    -8775    -7494    -6769    -5242    -3078    -1811    -1615 
   -1892    -2297    -2460    -2071     -349     3180     7313    10625 
   12422    12648    12285    12044    11370     9150     4351    -2821 
  -10302   -15655   -17655   -16320   -12475    -7684    -3534     -487 
    1658     2934     3153     1904     -228    -1644    -1979    -1971 
   -2740    -6051   -11933   -17648   -20911   -20957   -17223   -10191 
   -1636     7042    15025    20840    23059    22155    19035    13716 
    7051      131    -7017   -14098   -20165   -24622   -27406   -28703 
  -28558   -26477   -22152   -16923   -13177   -12061   -13188   -15778 
  -19044   -22175   -24068   -23734   -21253   -17241   -12474    -8571 
   -6909    -6562    -4999    -2017     -754    -3112    -8289   -15572 
  -23728   -30306   -34294   -36218   -36369   -35031   -32218   -27813 
  -23349   -20582   -18558   -15203   -10178    -4520      356     2874 
    2503      632     -746     -852     -687    -1629    -3339    -4586 
   -5161    -4971    -3015      707     4449     7920    12860    18722 
   22422    23311    23720    24418    23224    18139     9449    -1399 
  -12714   -22341   -28710   -31271   -30016   -26583   -23547   -22266 
  -23585   -27528   -31538   -32959   -31996   -30472   -30272   -32122 
  -34461   -35651   -35290   -32691   -27440   -20141   -11969    -5141 
   -1956    -2254    -3781    -5458    -7734   -10148   -11266   -10228 
   -7194    -3099      553     2446     2989     4198     7750    14636 
   24431    34095    41291    46691    50779    52982    53732    54260 
   55612    58261    61440    63636    64440    64767    64985    64150 
   61445    57418    53639    51473    50824    50323    48754    45707 
   41915    39264    39084    40967    43952    47551    51296    53988 
   54128    51655    47861    42856    35757    26985    17675     8850 
    2006    -2192    -4695    -6317    -7138    -7366    -7435    -7461 
   -6333    -2173     4982    12762    19005    22514    22369    18123 
   10816     3568     -495    -1157     -391      292     -199    -3183 
   -8011   -11548   -11383    -7040      693     9674    17686    23746 
   27933    31542    35641    39341    42019    44720    47809    50449 
   51814    51082    47620    41474    33613    25870    19109    12703 
    7187     4056     3506     5408     9430    13907    17328    18775 
   17161    12519     6359      396    -4549    -9334   -14751   -19904 
  -24002   -26553   -26677   -24890   -22969   -22360   -23245   -23546 
  -21683   -19178   -17197   -15132   -13569   -14106   -16932   -20873 
  -25271   -29661   -31554   -28544   -22171   -15416    -8723    -1633 
    5092    10971    16595    21950    26129    28884    30296    29471 
   25593    19349    12079     4625    -2171    -7237   -10289   -11825 
  -11921   -10103    -6609    -2786      326     3130     6428     9656 
   11715    12899    14095    15664    17928    20645    22783    23871 
   24160    24026    24038    24776    26480    28823    30898    31499 
   29504    24772    18382    11760     5828      681    -3272    -5180 
   -6145    -8195   -11276   -14680   -17991   -19440   -17760   -14472 
  -11407    -8529    -5718    -3998    -4193    -5899    -7583    -7398 
   -4562      -45     4261     7185     9189    11495    14322    16772 
   18611    20351    21819    23016    24192    23511    18688    10914 
    3651    -1101    -3385    -3710    -2589     -942      474     1257 
     634    -1676    -3837    -3556    -1158     1423     3392     4529 
    3704      222    -4599    -8601   -10032    -7991    -3569      930 
    4025     4706     1836    -4865   -14154   -23582   -30943   -35829 
  -38821   -40268   -40873   -41554   -42351   -42367   -40822   -37876 
  -33657   -28160   -22757   -19221   -18129   -19380   -22285   -25443 
  -27952   -29606   -30186   -30300   -31129   -33370   -37456   -42322 
  -45722   -47476   -48048   -45787   -40162   -33190   -26213   -19608 
  -13779    -9107    -6829    -8332   -13353   -19927   -24980   -26480 
  -25845   -25365   -24706   -23184   -22155   -22659   -24103   -26087 
  -29252   -33762   -37718   -38794   -36739   -32181   -26007   -20877 
  -18746   -18292   -17854   -16939   -14501   -10641    -7647    -5937 
   -3628     -835      536     -314    -2884    -5672    -7085    -7135 
   -6870    -6819    -6918    -6952    -6738    -6272    -6018    -6569 
   -7705    -8827    -9172    -7216    -2455     3459     8729    12515 
   14728    16141    17883    20686    24695    29194    32829    34937 
   35838    35931    35713    35866    37006    39632    43062    45395 
   45784    44879    43029    39987    36399    33663    32028    31251 
   31850    33336    34222    34190    33467    31622    28951    27127 
   27266    29192    32508    36346    39525    41844    43363    43286 
   41726    41181    43640    47658    50953    53492    55835    57336 
   57220    55717    53881    52706    52642    53794    56066    59110 
   62193    64173    63562    59126    51384    42655    35206    29958 
   25977    21821    17844    14958    12744    10851     9606     9482 
   11297    14852    18180    19933    21065    22961    25114    26429 
   27009    27065    26411    24957    22553    19904    18798    20114 
   23882    30567    38961    45723    49192    50077    49040    45956 
   40465    33696    28211    24599    21205    16881    11164     4456 
   -1108    -3809    -3788    -1466     2320     5934     8623    10066 
    9665     8039     5780     2169    -2362    -6177    -8705   -10170 
  -10782   -10849   -10668   -10091    -8382    -5438    -2407     -357 
     189     -668    -1863    -2877    -4255    -6420    -9917   -15029 
  -20808   -25847   -28584   -27671   -23524   -17869   -12152    -7403 
   -3812     -837      856      -65    -3171    -7288   -11828   -15672 
  -17612   -17594   -16634   -16214   -16343   -15465   -13099   -10159 
   -8113    -8285   -10088   -11877   -13308   -14604   -15944   -18003 
  -20677   -23037   -24907   -26367   -27177   -27369   -26892   -25512 
  -23486   -21192   -19126   -18235   -18596   -19469   -20565   -21147 
  -19914   -16535   -12047    -8493    -7265    -7393    -7329    -6851 
   -5707    -3157      512     4379     8381    12177    14378    14923 
   15010    14834    14386    14296    14771    15601    16475    16700 
   15860    15115    16496    20466    25627    30149    32542    32464 
   30217    25770    19967    14835    11816    10905    11206    11550 
   10937     9147     6777     4973     4955     6519     8078     8795 
    9199    10269    12539    15535    18052    18930    18103    16276 
   13675    10802     8061     4065    -2469   -10681   -18642   -24711 
  -28520   -30916   -32548   -33767   -35356   -37553   -39327   -39940 
  -39785   -38967   -36662   -32582   -28246   -25688   -25193   -25672 
  -26140   -25663   -23494   -19971   -16453   -14215   -13551   -13754 
  -13534   -11622    -7765    -2738     2680     8017    12829    16613 
   19649    23375    28071    32066    34765    37267    39822    41885 
   43045    42479    40019    36699    32892    28042    22340    17339 
   14723    14688    16177    18566    21326    22379    19685    13340 
    4651    -4367   -10877   -12579    -9158    -3034     2159     5380 
    8157    11089    14435    19054    23946    27498    29722    30393 
   29270    27104    24170    21376    20780    22512    25149    28425 
