Origin Time       2011/03/11 14:46:00
Lat.              38.103
Long.             142.860
Depth. (km)       24
Mag.              9.0
Station Code      KNG010
Station Lat.      35.3355
Station Long.     139.3504
Station Height(m) 7
Record Time       2011/03/11 14:47:46
Sampling Freq(Hz) 100Hz
Duration Time(s)  300
Dir.              N-S
Scale Factor      3920(gal)/6182761
Max. Acc. (gal)   91.952
Last Correction   2011/03/11 14:47:31
Memo.             
[...]
  -47396   -47156   -47688   -49380   -52353   -57343   -63948   -70084 
  -75128   -79377   -81946   -82927   -83962   -84672   -83054   -79164 
  -74421   -70109   -67517   -66412   -65587   -64142   -60899   -55941 
  -50356   -44119   -37236   -30553   -24643   -19366   -14497    -9842 
   -5167     -884     2649     6111     9751    12569    14299    15455 
   15875    15839    15905    15733    14940    13523    12117    11262 
   10512    10417    12281    15624    19496    23449    26455    27500 
   26001    22433    19038    17513    16841    15630    13890    11197 
    7806     5564     4473     3472     2939     2879     2739     2508 
    2543     3561     5348     6529     5788     2302    -2681    -6418 
   -8011    -7742    -5416    -1998      527     1092      309     -444 
   -1018    -1160      354     2845     4791     5415     2969    -3105 
  -10322   -16453   -20554   -21613   -19960   -17272   -14326   -12168 
  -12298   -13766   -14771   -14889   -13999   -12696   -12037   -12561 
  -14557   -17411   -20693   -25332   -31512   -38316   -44529   -48765 
  -50752   -50948   -50186   -49728   -49662   -49930   -50861   -51792 
  -52898   -55569   -59947   -64928   -69197   -71507   -71174   -67890 
  -62114   -56000   -51285   -47237   -42555   -37618   -33307   -28735 
  -23202   -17367   -11123    -5618    -4010    -7122   -12708   -17862 
  -20485   -21088   -22388   -25393   -28548   -30260   -29238   -25545 
  -22104   -21545   -23168   -24157   -22198   -17475   -11842    -6433 
   -1668     1763     3708     5235     6572     7074     7570     7966 
    6723     4126      438    -4708   -10440   -16005   -21067   -25259 
  -28598   -30817   -31604   -31281   -30200   -29032   -28230   -26374 
  -22052   -15932    -9305    -3317      900     3808     7042    10288 
   11759    11222     9835     8673     8475     9323    11074    13632 
   15765    16241    15557    14503    13410    12129     9718     6293 
    3200      557    -2462    -5815    -8854   -11101   -11939   -11380 
  -10061    -7672    -4158     -465     2712     4815     4781     1336 
   -5149   -12714   -20479   -28744   -36893   -43291   -47250   -49555 
  -50923   -51470   -51737   -52769   -54641   -56267   -56957   -56786 
  -55488   -52830   -50028   -48496   -47905   -47997   -49659   -51834 
  -52460   -52582   -53901   -55536   -56405   -56437   -55404   -53247 
  -50940   -49250   -46297   -39089   -27603   -15334    -6379    -2198 
   -1556    -2407    -2936    -2771    -2857    -4158    -7296   -12691 
  -20927   -31870   -43528   -53309   -60262   -65528   -70266   -75058 
  -79458   -81195   -80946   -80868   -78605   -74190   -71843   -72071 
  -73333   -74700   -75184   -74921   -74358   -73296   -71391   -68623 
  -65319   -62323   -60568   -59548   -58374   -57296   -56480   -55846 
  -55519   -54572   -51825   -48782   -48094   -49153   -49418   -47996 
  -44410   -38549   -32682   -28532   -25397   -22724   -20431   -18550 
  -17492   -17349   -17832   -18141   -17732   -17504   -18902   -22560 
  -27339   -30743   -31200   -29271   -26504   -23691   -21010   -19114 
  -18408   -18511   -19471   -21309   -23034   -24169   -25243   -26200 
  -26465   -25868   -24107   -21269   -18063   -14323   -10056    -6320 
   -4076    -3751    -4646    -5527    -5659    -4984    -4230    -3505 
   -2062     -440     -172    -1519    -3274    -3958    -3192    -2051 
   -1506    -2383    -5818   -11533   -17404   -21431   -23495   -24513 
  -25126   -27054   -32569   -41071   -49565   -56002   -59793   -60900 
  -59522   -55998   -51228   -46228   -40737   -33533   -24070   -13282 
   -3386     3327     6474     7332     6802     5409     4034     3407 
    3361     2882     1415      -65     -124     1100     2482     3553 
    3804     3087     2158      706    -1809    -3980    -4332    -3658 
   -3511    -3903    -4358    -5467    -7725   -10716   -14316   -18614 
  -22428   -24096   -23348   -20663   -16760   -13352   -11256    -9660 
   -8796    -9460   -11304   -14072   -17990   -22664   -26570   -27470 
  -24490   -19198   -13062    -6582     -959     2968     6510    11644 
   18310    24798    30589    36415    42100    47166    52122    56697 
   59551    60792    61548    62065    62020    60639    57071    51710 
   45579    39444    34292    30187    25619    19999    13929     6883 
   -1670   -10441   -18281   -25038   -30315   -34393   -38004   -40740 
  -42390   -43526   -44381   -45515   -47855   -51397   -55980   -61927 
  -68662   -74777   -79090   -80885   -80541   -79655   -79840   -81693 
  -84469   -86907   -88660   -89465   -88301   -86012   -84358   -83103 
  -82846   -84506   -86968   -89133   -89415   -86977   -83181   -78308 
  -71679   -63562   -54916   -46731   -39218   -32459   -26391   -20179 
  -13716    -8339    -5549    -5351    -6077    -6648    -6823    -6246 
   -5917    -6990    -8653   -10234   -11886   -13353   -14608   -15762 
  -16108   -14509   -10336    -4221     2383     8258    11960    12434 
   10307     6514     1902    -2060    -4515    -5669    -6209    -6610 
   -6234    -4281     -485     5256    11744    17042    21201    25491 
   28660    28446    26217    23363    18487    12672     8431     6566 
    7291     8613     8866     9480     9989     7330     2079    -1390 
   -3076    -6739   -12289   -17951   -22862   -26416   -29399   -32020 
  -33793   -35899   -40260   -47021   -54545   -62143   -69412   -74720 
  -77888   -80398   -83088   -86087   -88966   -91385   -93682   -96024 
  -97790   -98121   -97239   -95803   -93564   -89560   -82587   -72978 
  -62690   -53008   -45135   -40580   -39595   -40903   -42221   -42194 
  -41793   -42107   -42889   -43919   -45362   -46878   -47723   -47677 
  -46847   -44684   -40414   -33887   -25866   -17981   -11191    -4695 
    2181     8396    13015    16137    17321    16892    16754    17196 
   17035    15670    12471     7342     1037    -5605   -11343   -15231 
  -17439   -18811   -20125   -22588   -27642   -34783   -41820   -45901 
  -45569   -43245   -40407   -35384   -29086   -23561   -17938   -12006 
   -7613    -5558    -5502    -6868    -8178    -8075    -6266    -3107 
      71     2043     2268       53    -3891    -7462   -10209   -12347 
  -12845   -12918   -15427   -20019   -24774   -28865   -32276   -35444 
  -37325   -35736   -30237   -22034   -13008    -5867    -1807     1181 
    4157     5685     5948     5665     3650     -232    -4777    -9715 
  -15272   -20698   -23747   -22677   -18341   -12781    -7663    -4300 
   -2996    -3355    -5449    -9349   -14006   -16894   -15960   -11156 
   -3169     5244     9557    10023    10403    11016    11904    15009 
   19059    21381    22107    21583    19751    18622    19482    20569 
   20291    17982    13014     6077    -1109    -6822   -10799   -14434 
  -17993   -21176   -24789   -28858   -32519   -35829   -38935   -41599 
  -44577   -47982   -50167   -49785   -46879   -43145   -40254   -38108 
  -35473   -31317   -26401   -22087   -18905   -17374   -16868   -15553 
  -12784   -10066   -10044   -13489   -18669   -24139   -29605   -36009 
  -44781   -55327   -65465   -74140   -81387   -85779   -85683   -82364 
  -77592   -71952   -66113   -59785   -52623   -45933   -40575   -35857 
  -30945   -25640   -20490   -16529   -14117   -12190    -9101    -5256 
   -3584    -5573   -10571   -17690   -24633   -29390   -32371   -33788 
  -34085   -35736   -39992   -45908   -52722   -59198   -64161   -67997 
  -70999   -72865   -73366   -72860   -72086   -70562   -67875   -64605 
  -60133   -53466   -45003   -35897   -27219   -19742   -14029   -10091 
   -7604    -6229    -5478    -5204    -5094    -4417    -3427    -3276 
   -4644    -7077    -9005    -9031    -7156    -3894      -96     2076 
     597    -4610   -11546   -16882   -18902   -19240   -19715   -20354 
  -21945   -25474   -29437   -32184   -33433   -32938   -30709   -27378 
  -24131   -21243   -17840   -13946    -9927    -5848    -1599     3786 
   10142    15359    18695    20659    21290    21578    22238    23015 
   24685    27395    30418    33887    37214    39381    40677    41535 
   41922    42335    43401    44877    46058    47024    48816    51596 
   54920    58786    62141    64468    66711    69118    71777    74102 
   74149    70667    64041    55288    44731    32919    21726    13198 
    8388     5895     2727    -1767    -5994    -9117   -10400    -8737 
   -5086    -1832      169     1309     1068    -1311    -5038    -9762 
  -16045   -22060   -25542   -26611   -25315   -22910   -22782   -25310 
  -28920   -33796   -38952   -42479   -44272   -44552   -43266   -40773 
  -38397   -38188   -40696   -44783   -49331   -54232   -59525   -64163 
  -67899   -71480   -75065   -78850   -82359   -83991   -82562   -78320 
  -72832   -67748   -63829   -61939   -62868   -64737   -65369   -65913 
  -67471   -68823   -69091   -68758   -67157   -63081   -58416   -55102 
  -52630   -51838   -53361   -55203   -56398   -57216   -56963   -55293 
  -52260   -47639   -42206   -37192   -33185   -30856   -30700   -32261 
  -34494   -37273   -41915   -47685   -51214   -52960   -55796   -57239 
  -55886   -55251   -53452   -47113   -38452   -28618   -18614   -11360 
   -6392    -2103     1010     3902     8521    13754    17742    20800 
   23340    25621    28039    30052    31861    34690    38549    43348 
   49510    55390    58217    57772    55727    52342    47217    41380 
   35239    27997    20616    14542     9500     5917     3989     1828 
   -1209    -4977   -10478   -16795   -21362   -23403   -23409   -21687 
  -19303   -18179   -19097   -21146   -23441   -25893   -28693   -32228 
  -36862   -42644   -49384   -56209   -61562   -64859   -67124   -69048 
  -70551   -71815   -72581   -72938   -73806   -74927   -75734   -76176 
  -75400   -72906   -69468   -65928   -62715   -59933   -57353   -54508 
  -50972   -47217   -44651   -43514   -42006   -39748   -38678   -39258 
  -41019   -44024   -46778   -47469   -46267   -44198   -41875   -39611 
  -37696   -36383   -35800   -35669   -36060   -37752   -40941   -45211 
  -49404   -52137   -53333   -53166   -52306   -52479   -53738   -54603 
  -54366   -52431   -48074   -42026   -36239   -31762   -27801   -23161 
  -17764   -12583    -8697    -6128    -4168    -2605    -1570    -1379 
   -2511    -4905    -7987   -10668   -11887   -12611   -15231   -20689 
  -28181   -36098   -42662   -47764   -52580   -57410   -62387   -67336 
  -70897   -72562   -72884   -72542   -72741   -73660   -73895   -73237 
  -73175   -73384   -72318   -70632   -69186   -68533   -69385   -70325 
  -70225   -69822   -69783   -71056   -73410   -74024   -71350   -66459 
  -60021   -52755   -46185   -40539   -34518   -27449   -20508   -14717 
   -9460    -4573     -699     2366     4932     6763     8164     9849 
   11677    13083    14079    15053    16949    20587    25450    30658 
   35541    39662    44151    49426    52994    55068    58472    60677 
   58474    55328    54549    54903    54747    53401    50882    47205 
   41697    35137    29498    25228    21793    18786    15149     9730 
    2944    -3842    -9599   -13495   -15244   -15283   -14189   -12788 
  -11661   -10662    -9966   -10327   -11872   -13971   -16290   -18610 
  -20780   -23225   -25807   -27295   -27257   -26790   -26574   -26275 
  -25970   -26055   -26259   -25918   -24708   -22711   -20280   -17511 
  -14439   -11818   -10102    -8904    -7607    -5442    -2133     1950 
    6537    11219    14894    16881    17399    16740    15733    15188 
   14549    13057    10832     8377     6015     3684     1400     -308 
   -1031    -1277    -1516    -1528    -1464    -1111     -115      868 
    2449     5973    10257    12781    12314     8836     2915    -4606 
  -12708   -19640   -24140   -26336   -26545   -25839   -25878   -26882 
  -28180   -29581   -31377   -34350   -39053   -44888   -50622   -55241 
  -58216   -59489   -59412   -58410   -56970   -56116   -56611   -58171 
  -60535   -63793   -67522   -70825   -72631   -72053   -68721   -62719 
  -55045   -47143   -39720   -33447   -28525   -23577   -18170   -13468 
   -9846    -6769    -3494      114     3992     8863    14743    21200 
   28480    35900    42221    47027    50085    51579    52256    52707 
   53237    53329    52169    49830    46728    43016    37963    30526 
   21403    12061     3348    -3887   -10241   -16906   -22146   -24147 
  -24400   -23842   -20807   -14547    -6272     2335     9313    13483 
   15275    15597    15001    13637    11791    10135     8683     6162 
    1244    -5983   -14241   -22330   -29716   -36298   -42743   -50316 
  -59350   -69232   -79629   -90099   -99303  -106031  -109879  -110834 
 -110170  -110246  -112183  -115007  -117202  -118458  -118840  -117991 
 -116678  -116018  -115558  -114657  -113641  -112791  -112310  -112779 
 -114339  -116504  -118797  -120843  -122638  -124651  -127374  -130993 
 -134581  -137156  -139601  -142271  -143782  -144119  -144209  -143829 
 -142763  -141263  -138927  -134999  -129277  -122006  -113902  -106190 
  -99918   -95534   -92860   -91330   -90065   -87935   -84816   -81946 
  -79740   -77476   -75225   -73055   -70023   -65773   -60453   -53802 
  -46477   -39785   -33608   -27028   -20112   -13593    -7604    -1973 
    2889     7022    11442    16243    21019    26573    33198    40145 
   47444    55186    62178    67318    70921    73723    76485    79776 
   83161    86143    89032    92929    98212   102844   106327   111293 
  116538   118720   119927   121841   122409   122075   121526   119803 
  117629   115583   114104   114212   115464   116796   115364   108936 
  102655   100330    97132    92681    90606    88834    86889    85043 
   80700    73761    64686    55291    46416    35204    24488    16389 
    5402    -8412   -21987   -36439   -49404   -59889   -68099   -61758 
  -45326   -52142   -71664   -68456   -67011   -74491   -55581   -34819 
  -39815   -45637   -43729   -38573   -30326   -24925   -19238   -11903 
   -7626    -4303    -2019    -3026    -6702   -13992   -23021   -28996 
  -31120   -31108   -29806   -27154   -24170   -23031   -24448   -28873 
  -36619   -45145   -51377   -54475   -55209   -55070   -53826   -50212 
  -46099   -44167   -43518   -42224   -40149   -37008   -32652   -28704 
  -25585   -22609   -20966   -20753   -20207   -19102   -17619   -15243 
  -12469   -10145    -8037    -6025    -4869    -4793    -5562    -7470 
  -10523   -13903   -16759   -18709   -19917   -20911   -21807   -22755 
  -24641   -27597   -30698   -33418   -35387   -36056   -35422   -33872 
  -31597   -28457   -24364   -19580   -14730   -11078    -9564    -9897 
  -11087   -11804   -11594   -11487   -12436   -14591   -17635   -21010 
  -24181   -26802   -28776   -30223   -31253   -31956   -32866   -34555 
  -36981   -39888   -42851   -45430   -48007   -51217   -54841   -58499 
  -62363   -66119   -69176   -71782   -73938   -75036   -74960   -73665 
  -70795   -66493   -61677   -57476   -54438   -52722   -52390   -52518 
  -51818   -50164   -47849   -44832   -41328   -38163   -36462   -36797 
  -39033   -42270   -44493   -44469   -43141   -41559   -40313   -40579 
  -42905   -46484   -50046   -53183   -56369   -59431   -62404   -66032 
  -70196   -74369   -78293   -81588   -83818   -84683   -84342   -83108 
  -81151   -78892   -76401   -73268   -69774   -66363   -62774   -58561 
  -52715   -44200   -34268   -25575   -19163   -14748   -11922    -9755 
   -7429    -4522     -218     5793    12643    19080    23911    26829 
   28777    30460    32005    33721    35417    36493    37183    37873 
   38279    38129    37431    36565    35776    34719    33345    31644 
   29125    25887    22768    19989    16891    13270     9478     5477 
    1466    -2004    -5535   -10390   -16801   -24072   -30853   -35642 
  -37917   -37844   -35995   -33539   -31558   -30807   -31216   -31583 
  -31452   -31182   -29899   -27299   -25321   -25202   -26357   -28059 
  -30082   -32690   -35785   -38523   -40212   -40744   -40582   -39995 
  -38479   -35834   -32414   -28580   -25323   -23623   -23366   -24100 
  -25111   -26100   -28101   -31303   -34750   -38591   -43198   -47598 
  -50595   -51670   -50540   -47601   -44138   -40657   -36370   -31373 
  -26917   -22981   -19212   -16123   -13216   -10004    -7339    -5857 
   -5634    -6516    -7976    -9494   -10772   -11151   -10208    -8725 
   -7128    -5265    -3812    -3592    -5100    -8160   -11531   -14376 
  -16648   -18434   -20234   -22580   -25766   -29932   -34469   -38045 
  -39712   -39674   -38748   -37609   -36438   -35249   -34227   -33395 
  -33027   -33282   -33651   -34030   -34429   -34681   -35516   -37678 
  -41088   -45599   -50523   -54550   -57217   -58913   -59945   -60477 
  -60916   -61390   -61280   -60403   -59247   -57982   -56626   -55269 
  -53886   -52732   -52401   -52886   -53622   -54290   -54152   -52320 
  -49026   -44879   -40291   -35879   -31986   -28694   -26091   -23956 
  -22258   -21529   -22152   -23910   -26464   -29564   -32656   -35008 
  -35936   -35023   -32550   -29385   -26706   -25596   -25720   -25629 
  -25348   -25878   -27168   -28446   -28920   -28379   -27111   -25488 
  -24074   -23383   -22956   -21845   -20585   -19397   -17169   -13994 
  -10256    -6627    -4202    -2254     -311     1465     3759     6689 
   10334    14123    16731    18400    19693    20638    21754    23328 
   24983    26309    26937    26765    26367    26164    26173    26445 
   27090    28154    28962    29145    29038    28026    26010    23889 
   21350    18302    15825    14561    14284    14169    14240    15306 
   16938    18247    18740    18273    17573    16836    15698    14475 
   12811     9920     6033     1345    -4315   -10409   -16384   -22502 
  -28738   -34571   -39838   -44387   -47858   -50387   -52764   -55519 
  -58526   -61370   -63747   -65777   -67338   -68431   -69482   -70076 
  -70472   -71885   -74116   -76629   -79232   -81148   -81902   -81541 
  -80398   -78747   -76209   -72723   -68953   -65667   -62888   -59978 
  -57686   -57039   -57080   -57139   -57738   -57683   -56104   -55125 
  -54629   -53297   -52809   -53351   -54105   -55004   -55377   -56022 
  -57668   -60054   -63272   -66579   -69187   -69884   -67423   -63226 
  -58821   -54347   -50261   -46147   -41047   -34931   -28372   -22263 
  -17071   -12527    -8116    -3371     1730     6739    11165    14879 
   18101    21140    24411    27942    31073    33333    34855    35589 
   35493    35170    34718    33850    32867    31608    29606    26992 
   23973    20601    16734    12290     7624     3164     -357    -2331 
   -3195    -3619    -4062    -4804    -5778    -7021    -8506    -9874 
  -10802   -11265   -11415   -11384   -11688   -13150   -15521   -17578 
  -19023   -20387   -21920   -23562   -24813   -25634   -26749   -28353 
  -30561   -33152   -34698   -34901   -35261   -36604   -38819   -41760 
  -45228   -48795   -52042   -54928   -57338   -59172   -60590   -61479 
  -61514   -60315   -57560   -53228   -47794   -42144   -36797   -32260 
  -29042   -26573   -24498   -23189   -22125   -20779   -19351   -17650 
  -15430   -13104   -11374   -10553   -10247    -9826    -9065    -8022 
   -6344    -4027    -2252    -1573    -1230     -831     -358      784 
    3067     5903     8321     9666     9610     8412     6476     4019 
