Origin Time       2011/03/11 14:46:00
Lat.              38.103
Long.             142.860
Depth. (km)       24
Mag.              9.0
Station Code      KNG002
Station Lat.      35.4372
Station Long.     139.6334
Station Height(m) 2
Record Time       2011/03/11 14:47:36
Sampling Freq(Hz) 100Hz
Duration Time(s)  300
Dir.              U-D
Scale Factor      3920(gal)/6182761
Max. Acc. (gal)   58.663
Last Correction   2011/03/11 14:47:21
Memo.             
[...]
  -20584    -8799    -4688    -8068   -16907   -26849   -32151   -31031 
  -26245   -20173   -12170    -2665     2495    -1304    -8546    -9960 
   -3735     4815    10046     9926     3816    -7650   -16961   -15054 
   -4347     2180    -4512   -18418   -27338   -27845   -23823   -20530 
  -21863   -26588   -29109   -24946   -13820     1413    15034    19499 
   12348      746    -6702    -8497    -7271    -7164   -11992   -20105 
  -26990   -31763   -37084   -43356   -46738   -45380   -40246   -33293 
  -30631   -37265   -49528   -58199   -56967   -48346   -37898   -27607 
  -21617   -25615   -38035   -51020   -55643   -46951   -29289   -12804 
   -5471   -10051   -23004   -35735   -40291   -35027   -25875   -19011 
  -13827    -7537     -204     4884     3584    -3402   -11708   -17614 
  -19135   -17973   -17265   -18264   -21035   -24056   -24907   -24290 
  -27240   -37853   -53125   -64467   -65287   -55348   -38828   -20802 
   -5373     4727     8172     6454     3548     1691      176    -1482 
   -3041    -4521    -5170    -4724    -4900    -6733    -8892    -9823 
  -10982   -15211   -21540   -25531   -24507   -22137   -25200   -35297 
  -48345   -58735   -63319   -63482   -59913   -51330   -41872   -38294 
  -39962   -43286   -49141   -54864   -53230   -46051   -40322   -37827 
  -40467   -48318   -54554   -53480   -46491   -39312   -36481   -37153 
  -36486   -32340   -25786   -16792    -8328    -7380   -14253   -20662 
  -21757   -19678   -16826   -15293   -16337   -15642   -10239    -4843 
    -349     6289    10313     8785     7382     7517     6359     4742 
    4611     6936    10521    12384    12959    12967     7974    -3989 
  -17880   -29368   -36930   -38277   -34349   -33212   -43298   -64428 
  -87593  -102501  -104243   -94744   -81007   -69473   -60731   -54160 
  -52431   -54232   -53197   -46456   -34184   -17568     -514    12434 
   16782    10430    -1599   -11939   -18552   -22114   -20442   -11320 
    1682    10688    10200     1321   -10461   -20522   -26099   -26717 
  -26128   -28196   -33424   -40811   -46950   -47998   -44171   -36650 
  -25764   -15125   -10190   -10966   -11533    -8654    -4841    -1007 
    4491     5997    -4504   -18682   -25403   -31874   -37859   -32391 
  -23766   -21107   -22691   -30512   -38436   -36713   -27127   -14723 
   -3266     2835      -56   -11576   -24380   -31390   -34456   -35731 
  -32449   -27129   -24925   -24703   -24298   -23054   -19011   -12677 
   -8450    -9955   -17667   -28339   -35077   -32846   -24636   -18399 
  -18271   -22814   -30423   -38386   -40461   -34343   -24650   -16326 
  -11786   -10502    -8844    -3418     6305    17035    23553    24571 
   22462    18381    12771     5305    -5881   -20151   -33335   -41547 
  -44195   -44481   -45759   -47901   -48329   -44838   -39607   -39253 
  -45803   -52365   -51290   -42087   -32312   -31321   -39882   -48717 
  -47584   -33114   -11038     7993    15820    11238     -224   -11897 
  -20380   -23226   -19492   -13040    -9057    -9555   -13348   -18701 
  -24867   -28806   -27007   -21421   -15523   -11895   -14491   -21240 
  -22826   -15585    -4726     3620     5848      738    -8557   -15995 
  -20380   -25633   -32408   -36301   -32384   -20774    -9169    -6283 
  -15059   -32034   -48063   -52897   -43807   -29317   -22632   -28733 
  -39355   -44078   -40301   -28984   -12566      644     2233    -7889 
  -24066   -38001   -40607   -29536   -12933    -2787    -3188    -5952 
   -1921     9015    21123    26645    19807     3749   -12122   -21394 
  -23180   -21642   -24620   -35713   -49412   -57239   -54873   -44975 
  -35484   -32280   -33797   -33629   -27459   -16899    -6456      384 
    1947     -962    -5031    -6631    -3901     2002     5841     3452 
   -2006    -6918   -12390   -16551   -15155   -10564    -8667    -9621 
  -10170   -11735   -18761   -31683   -45104   -51232   -46242   -34107 
  -21964   -13534   -10596   -15692   -28095   -42499   -52175   -51287 
  -41384   -33168   -35088   -46079   -60087   -71956   -78337   -75996 
  -64179   -45940   -25730   -10813    -8465   -18788   -36397   -53135 
  -58773   -49889   -35273   -25946   -24644   -28716   -37991   -53163 
  -69010   -77124   -73803   -61224   -44827   -30805   -23174   -22635 
  -27258   -33752   -39425   -42907   -43601   -41229   -35083   -25786 
  -16518   -10370    -9887   -15594   -23451   -29328   -31788   -29379 
  -21994   -13207    -8156   -10321   -19314   -30272   -37603   -40975 
  -43576   -46111   -49264   -55428   -62415   -63041   -53437   -38763 
  -29285   -30225   -38087   -47285   -55605   -61321   -59396   -46335 
  -27162   -10824    -1237     1838    -1204    -7785   -11871    -9642 
   -4125     -189     1773     3724     5729     6324     5603     6016 
    7614     5321    -4477   -17040   -23560   -22346   -19727   -19801 
  -22458   -28063   -35112   -39852   -41217   -39601   -35617   -31945 
  -29288   -25549   -19759   -11851    -3986     -184    -3146   -13551 
  -26830   -34794   -36029   -37221   -41000   -42925   -43234   -46382 
  -51443   -56028   -59174   -57300   -48031   -33966   -19806    -9788 
   -5980    -6075    -4045     2171     6236     2130    -9256   -23247 
  -34727   -39927   -36023   -22900    -7205     3759     9844    14163 
   17407    18024    14606     7101    -1942    -6628    -2920     5245 
    8605     1032   -14960   -30885   -37568   -29252   -10850     4948 
   11604     8417    -5460   -25501   -40415   -41162   -30250   -18680 
  -10248    -2162     1001    -6327   -20570   -35208   -45600   -47155 
  -35668   -14724     2066     4795    -5642   -22955   -37117   -41526 
  -40444   -39867   -41050   -44483   -51243   -64206   -82885   -96634 
  -97376   -89454   -79096   -70309   -66674   -66038   -63766   -59829 
  -52812   -37849   -17515    -2516     1819      738      950     5086 
   15263    30272    41405    42306    35876    27349    19972    15790 
   15523    17732    17214     8351    -8073   -26047   -40965   -51206 
  -55486   -52222   -42954   -33453   -28400   -28760   -33856   -41724 
  -50546   -60053   -68493   -71971   -67536   -53417   -31647   -12193 
   -5825   -14489   -33172   -53407   -64040   -59320   -44537   -27369 
  -11590     -275     3877      419    -7387   -12454   -11135    -6728 
   -3336    -5057   -14679   -27067   -34912   -38253   -39473   -38703 
  -38801   -44560   -54573   -60940   -59101   -53077   -48307   -44304 
  -39151   -34322   -30629   -28200   -28672   -31300   -33568   -33070 
  -26562   -15973    -8872    -7695    -8563    -8753    -9337   -14732 
  -28466   -46990   -61806   -67140   -63283   -53510   -41034   -30968 
  -27988   -30097   -32178   -31893   -29260   -26320   -25174   -23785 
  -18567   -12343   -10282    -9005    -3771     3932    12661    19712 
   21880    22198    24104    26243    27541    29607    34360    40430 
   40675    27159      929   -26338   -42623   -45698   -41419   -36235 
  -34120   -37162   -47624   -65191   -81792   -89361   -87895   -78837 
  -63017   -47324   -41146   -44918   -51852   -58849   -61879   -51719 
  -30942   -15944   -13955   -18685   -24895   -30807   -34346   -35505 
  -35979   -36532   -37017   -35669   -30094   -20539   -10140    -3149 
   -4213   -13740   -23472   -25533   -19978    -9772    -1965    -6842 
  -22426   -32408   -27337   -15528    -9151   -12529   -23334   -33533 
  -35635   -31967   -29993   -32067   -35362   -36650   -33266   -25499 
  -19733   -22013   -30604   -38492   -38926   -30465   -18704   -10351 
   -6964    -5678    -4796    -6989   -16087   -30932   -44148   -49628 
  -48196   -43520   -38618   -36452   -37779   -40398   -40966   -35691 
  -25086   -15317    -9404    -5469    -2882    -1789    -1235     -869 
    -505      531      294    -4301   -11439   -17391   -20933   -23431 
  -29980   -40269   -45736   -46877   -49107   -46680   -38573   -34364 
  -35004   -36912   -39571   -41171   -43154   -46835   -51622   -62265 
  -75483   -77894   -70634   -61530   -47660   -31248   -22856   -25849 
  -34255   -39258   -35315   -23334    -9877    -2351    -3616   -10492 
  -16333   -16042    -8717     4033    17308    23634    23137    20696 
   14011     3691    -2972    -3647      131     2708    -1693    -9557 
  -17279   -25450   -31262   -32455   -31946   -32177   -29681   -20388 
   -9554    -6789   -12790   -20253   -22350   -16503    -7279    -4405 
  -11725   -20353   -19490   -11116    -3210     -400    -8433   -27036 
  -47609   -65524   -75432   -73563   -68930   -68250   -69153   -70399 
  -70016   -66560   -62303   -59891   -60934   -62113   -57140   -46564 
  -35020   -22948   -10556    -1804     1067      989     1191     1077 
    -228    -1955    -5210   -10883   -14670   -12021    -4753     3171 
    9274     8886    -1342   -14607   -19256   -13602    -7560    -9841 
  -19914   -32594   -43221   -47086   -42012   -32049   -23657   -21395 
  -25909   -30747   -26848   -12634     4743    15381    13234     -392 
  -19903   -37342   -44597   -40997   -31944   -22819   -20162   -26146 
  -32901   -33261   -30263   -30542   -34414   -37964   -40905   -46053 
  -54163   -63181   -70246   -71750   -64933   -51802   -37625   -28234 
  -30590   -47229   -69071   -81144   -75320   -55956   -37198   -31924 
  -38495   -46450   -51360   -50493   -39621   -24071   -14662   -14454 
  -19333   -24420   -27449   -29497   -33208   -40943   -52084   -60061 
  -57594   -45344   -29519   -15438    -8322   -12964   -26689   -37382 
  -34169   -17948      982    12393    13627    10111     6603     2024 
   -4644   -12307   -19607   -22549   -18234    -9742    -3131    -4561 
  -14683   -25705   -29621   -22939    -8385     3373     3793    -5714 
  -19425   -30159   -30665   -20420    -5804     5728     9451     5283 
   -3944   -12722   -14281   -10224   -11012   -23101   -44133   -67514 
  -83146   -81278   -65426   -50353   -44157   -45128   -47746   -44904 
  -34741   -21007    -7390     -898    -7972   -24022   -39560   -48658 
  -47953   -38441   -26169   -17361   -15374   -20429   -29233   -35954 
  -36209   -29781   -19446    -9227    -2881    -1888    -4550    -6565 
   -4286      248     1739    -1247    -7476   -15347   -19942   -15766 
   -2980    12182    21945    22526    14593     1464    -9430   -11434 
   -6684    -1852     -118    -2250    -7842   -11666    -8357    -1295 
    2514     1996     1763     6738    15308    17573     5388   -18327 
  -42625   -56808   -57356   -49812   -41700   -37717   -40723   -47392 
  -50504   -49244   -46640   -46088   -52098   -62416   -69151   -68501 
  -59570   -43290   -26221   -17694   -21503   -31925   -39226   -37207 
  -25988   -11574    -2489    -3355   -10401   -16338   -18005   -16046 
  -13016   -12725   -16934   -24935   -35872   -46941   -51486   -44749 
  -30570   -16725    -6492     -158      992    -3025    -7682    -6729 
     424     7231     7108      303    -7839   -14558   -19975   -23140 
  -24941   -29486   -38246   -47199   -52098   -53335   -52692   -49033 
  -41006   -29990   -19373   -14182   -16809   -22514   -23617   -16432 
   -5429     1358     1744    -2442   -10678   -21630   -31168   -36058 
  -36529   -33045   -27848   -24821   -23620   -24539   -30692   -39060 
  -40375   -29402   -11986     2012     8874     9096     3907    -4669 
  -14353   -21643   -23731   -24555   -32509   -48191   -61370   -62058 
  -49062   -30456   -18315   -17780   -24092   -31148   -35205   -34251 
  -29172   -24500   -26298   -34279   -40651   -40604   -36142   -29231 
  -18898    -6512     5619    18224    26764    23280    11036     -631 
   -8759   -12311    -9845    -5920    -7699   -16666   -29581   -43082 
  -53550   -57009   -53300   -46935   -41185   -34321   -25686   -20775 
  -23362   -29366   -32674   -30180   -22193   -13050    -8232    -8936 
  -11449   -10479    -1861    14541    31513    39460    35419    20612 
   -2479   -25453   -37975   -36604   -24493    -9263    -1911    -7695 
  -20918   -33211   -38852   -36900   -31763   -27059   -25672   -29641 
  -35727   -38551   -33916   -23625   -16558   -17247   -23462   -31868 
  -37783   -39877   -42731   -47731   -49898   -45127   -34750   -23354 
  -15058   -11875   -11638    -9377    -3173     5537    11911     9157 
   -1458   -14719   -29685   -40190   -39619   -33337   -28259   -25464 
  -25424   -28883   -35678   -43125   -46910   -44685   -34939   -17742 
     -35     7298      563   -14247   -30582   -44367   -51385   -51724 
  -48408   -40590   -30125   -25230   -29792   -39113   -47233   -52624 
  -54589   -50603   -42256   -34370   -27920   -21677   -15289   -10034 
   -9215   -12247   -14231   -13250    -7991     2065     9783     6456 
   -9529   -31894   -50664   -62011   -68898   -72998   -76644   -82961 
  -86774   -81969   -74085   -67957   -59853   -49984   -40048   -25680 
   -8646      181     -666     -154     5113     9201    10867     9319 
    4858     4449     6361      742   -13184   -32008   -53050   -69539 
  -75800   -71771   -61332   -49904   -40638   -34952   -33474   -33972 
  -35373   -38189   -37461   -30855   -26882   -28591   -29522   -29893 
  -32888   -36137   -39437   -45353   -53067   -59535   -59977   -49911 
  -32298   -18135   -18868   -35517   -55309   -64363   -58982   -44478 
  -29384   -20125   -21402   -33851   -45824   -44558   -34837   -26823 
  -18745    -8654    -2642    -2366    -4193    -7934   -12280   -11170 
     935    22729    42553    51206    50294    41307    28579    20007 
   14755    13305    22619    40612    58135    68992    68433    54827 
   36530    25260    21889    22816    27217    28743    21454     6760 
  -13631   -39259   -66762   -86894   -92848   -85513   -71773   -66888 
  -74360   -80372   -78178   -66716   -48528   -33023   -24574   -23734 
  -30263   -39173   -43409   -37271   -24177   -15871   -15821   -19192 
  -25414   -34359   -39944   -37111   -28244   -19458   -15341   -17684 
  -24938   -31947   -32429   -26984   -24934   -28750   -31706   -32368 
  -29388   -21429   -14367    -9756    -9473   -17524   -27278   -34247 
  -39125   -38867   -36522   -36525   -34369   -26964   -17302    -7653 
    1583     8156     9667     9036     9988     8928     -945   -21160 
  -46638   -66577   -69564   -56997   -42496   -37327   -45744   -60339 
  -66574   -62503   -54664   -45900   -39399   -36385   -33959   -29382 
  -20031    -5279    10982    24793    34290    36417    29998    19675 
   11976     9559     9548     8217     2546   -11403   -32641   -54107 
  -70688   -80156   -80281   -72262   -61238   -50316   -40899   -37217 
  -37798   -31500   -16291       46    14296    23365    26099    24173 
   16564     8190     6117     7878     7101     1184    -6849   -10358 
   -7413    -4175    -6447   -13626   -21775   -28502   -33805   -37398 
  -39144   -40664   -41812   -40429   -37882   -37832   -41466   -47546 
  -53195   -55941   -55605   -52483   -46729   -39685   -34514   -34072 
  -36027   -34867   -29681   -24070   -20460   -18593   -17933   -18555 
  -19285   -19320   -20435   -22515   -22892   -20761   -16545   -12762 
  -12745   -14584   -14788   -13217   -10770    -8190    -5787    -4655 
   -7120   -12257   -15161   -13727   -11805   -12978   -16705   -23552 
  -35927   -52170   -67310   -76601   -75468   -63886   -50491   -43612 
  -42635   -43763   -43625   -36318   -18744     3771    22313    31544 
   32416    27945    19663    12504    10816     9188     3870      241 
     109      607     -855    -7879   -14864   -12178    -7671    -9972 
  -13819   -17896   -20997   -19704   -18265   -17229   -13781   -11049 
   -9003    -4140     3311    11436    16440    16284    14076    11007 
    6386      223    -8524   -18888   -28012   -32804   -30317   -22799 
  -15292    -8679    -2598     1432     1735    -1776    -6667    -9873 
  -10229    -9681   -11763   -17067   -23420   -30007   -37176   -43902 
  -48274   -49860   -51064   -55348   -62356   -68005   -69461   -65061 
  -53956   -37764   -19646    -4225     5489    12239    19032    24303 
   27423    29812    29750    26182    21359    15819    10024     4875 
   -1367    -9048   -15452   -18564   -18497   -17154   -17002   -19479 
  -24022   -28672   -31419   -29607   -22005   -12299    -6900    -9612 
  -17437   -24489   -28838   -28697   -22496   -14823    -9852    -7462 
   -8643   -13966   -21044   -27528   -33748   -41384   -50402   -58186 
  -61460   -60984   -60427   -59281   -55463   -50045   -42451   -31508 
  -20745   -14061   -13091   -17805   -22761   -21053   -13996    -8790 
   -7518    -5692    -2174    -1612    -6039   -14332   -28069   -46220 
  -59121   -59633   -52484   -46045   -44639   -49168   -57679   -65297 
  -67297   -64089   -60212   -57788   -55121   -50602   -43807   -34519 
  -23257   -10627     2432    12409    17097    18504    16327     8300 
   -2171    -8910   -10105    -7225    -1949     3349     4934      304 
   -7712   -15903   -24675   -29078   -22995   -11949    -5156    -2517 
    1784     6480     5620     1235    -2074    -4339    -4006      518 
    4945     5796     5520     2978    -6833   -20541   -31767   -40113 
  -45258   -46446   -43936   -36026   -23706   -12892    -9901   -16769 
  -28250   -40109   -53106   -63445   -65862   -61727   -54726   -48173 
  -44788   -42744   -39355   -35831   -31122   -24386   -20350   -19027 
  -17124   -17207   -17507   -11738    -2500     5392    12433    17687 
   18594    14578     6775    -2645   -12791   -25389   -41428   -57555 
  -67964   -69513   -63712   -54080   -44756   -41167   -44739   -48459 
  -45019   -36233   -29574   -28097   -27336   -22339   -16686   -16342 
  -14058    -1718    12411    21171    25772    23833    15453     7822 
    4583     2252    -3810   -14156   -22641   -28692   -38172   -43095 
  -37997   -31787   -26844   -23543   -21808   -16452    -8157     -932 
    2738     1672    -1970    -5767    -9885   -14911   -19757   -23968 
  -29019   -36794   -46077   -51452   -52412   -53025   -52819   -51143 
  -47363   -40544   -35579   -34165   -32237   -28888   -24535   -19597 
  -14931   -11289    -9617    -8153    -5506    -4304    -5793    -7569 
   -7136    -4523    -1123     3930    10813    14034     7433    -8143 
  -25258   -35794   -35180   -24794   -12412    -5062    -2913    -4555 
   -9585   -13751   -12983   -10734   -13074   -20411   -29021   -35866 
  -36810   -29766   -20319   -12921    -7795    -6807    -8568    -9216 
   -9551   -10812   -10703    -8139    -3747     2382     5187     1455 
    1014     1944   -11820   -29867   -36918   -42414   -49041   -54532 
  -63875   -76410   -90220  -101462  -104524  -100373   -94690   -92804 
  -92708   -89970   -84811   -74631   -58514   -43783   -36518   -38595 
  -48634   -58640   -58315   -46927   -35004   -28332   -23190   -18004 
  -13318    -9060    -7037    -6760    -6201    -8381   -14664   -17647 
  -13386    -7498    -3355     -421      650      542      960     2000 
    2393     1696     1868     3066     4341     8718    16308    22298 
   26848    30890    29889    24315    19059    12728     3176    -8718 
  -20892   -24858   -15276    -1908     5734    11612    20390    26848 
   27791    27500    25587    19619    14004    14608    21157    23672 
   15351     6180     1106    -7216   -15134   -19857   -27685   -37759 
  -48669   -58856   -64894   -70924   -77704   -80735   -82917   -85820 
