Origin Time       2011/03/11 14:46:00
Lat.              38.103
Long.             142.860
Depth. (km)       24
Mag.              9.0
Station Code      KNG009
Station Lat.      35.4425
Station Long.     139.3621
Station Height(m) 19
Record Time       2011/03/11 14:47:47
Sampling Freq(Hz) 100Hz
Duration Time(s)  273
Dir.              U-D
Scale Factor      3920(gal)/6182761
Max. Acc. (gal)   48.144
Last Correction   2011/03/11 14:47:32
Memo.             
[...]
    -754    -1494    -5538   -10367   -13707   -17195   -19467   -17402 
  -12560    -7873    -4319    -3897    -8553   -15971   -22088   -26819 
  -32306   -37295   -38004   -33113   -26006   -21452   -19636   -17629 
  -15882   -15920   -15353   -12188    -8604    -6332    -4217    -2297 
   -2590    -4615    -5392    -4195    -2341     -392      398    -1752 
   -6241   -11297   -15548   -17159   -16540   -17682   -21764   -25134 
  -25802   -24211   -20058   -15673   -15575   -18382   -19431   -20896 
  -27115   -34220   -35262   -30038   -23582   -19717   -18529   -18139 
  -18096   -19014   -18907   -14483    -6665     -867       21       45 
    3343     6942     6251     1899    -3640    -9871   -16145   -21315 
  -26147   -30952   -32816   -30493   -27645   -26900   -26676   -25587 
  -23093   -17500    -9201    -2175    -1085    -7489   -16211   -21249 
  -24442   -28645   -30767   -30091   -30316   -30971   -29606   -27339 
  -24535   -18875   -10178    -3199    -2842    -7109   -10699   -12044 
  -11175    -8320    -5424    -3200    -1253    -1061    -3242    -5924 
   -8047    -9726   -10298    -9173    -7403    -7063    -8959   -11493 
  -13591   -17556   -26089   -37569   -46569   -49978   -50216   -49761 
  -47536   -42464   -34864   -25877   -17669   -11622    -8456    -9290 
  -11780   -10487    -5641    -3154    -4385    -5399    -4992    -5818 
   -9404   -14357   -18241   -19222   -17439   -15443   -15559   -16965 
  -16919   -14571   -11316    -7897    -4704    -4179    -8786   -16637 
  -22576   -23856   -21878   -19354   -19354   -23787   -29382   -31478 
  -31688   -33360   -34531   -32633   -28512   -23367   -18077   -13942 
  -10711    -6474    -1418     1037    -1442    -6930   -10813   -10691 
   -9409   -11154   -16388   -21645   -25315   -31502   -40680   -45243 
  -42762   -38879   -36175   -34030   -32987   -33361   -35431   -38204 
  -37361   -29981   -19566   -12395   -10121    -9278    -7357    -5947 
   -7769   -12065   -13979   -11655   -10466   -13803   -19266   -26677 
  -35228   -38315   -33413   -26546   -21699   -16146    -8712    -2944 
     528     2927      784    -5708   -10684   -14833   -19227   -20847 
  -23304   -28797   -31725   -28945   -23267   -21299   -25930   -32317 
  -36144   -36982   -34214   -27348   -19386   -14466   -12832   -13088 
  -16037   -21294   -24211   -21751   -17261   -14378   -12886   -12295 
  -12132    -9771    -3422     3570     5925     3860     2477     3449 
    2619    -1404    -3106     -314     1015    -2232    -6098    -7866 
   -9163   -11666   -13839   -13381   -11483   -10039    -7967    -4718 
   -2209    -1776    -4049    -8870   -11863    -9668    -7934   -11104 
  -13158   -10505    -7451    -5557    -4030    -4882    -8464   -11979 
  -14825   -18079   -20051   -18200   -12192    -3477     5396    12384 
   16241    15786    12076     8066     4478     -145    -6066   -11670 
  -15609   -19164   -25670   -36036   -45846   -49397   -45975   -40098 
  -36109   -34234   -31544   -26920   -24816   -28262   -31459   -29025 
  -23970   -20131   -16540   -11150    -5451    -3400    -5530    -8234 
   -9968   -12865   -17633   -22076   -24809   -26145   -26630   -27420 
  -28941   -28972   -25529   -19941   -14912   -11756   -11507   -15969 
  -24079   -30676   -31920   -28756   -25970   -29331   -39636   -50543 
  -55032   -50872   -39857   -26161   -14213    -5444       -1       -2 
   -4255    -6586    -6577    -8680   -11113   -10973   -10565   -11326 
  -13159   -16954   -20398   -19205   -15428   -14358   -15116   -14991 
  -15585   -17873   -21404   -27243   -33921   -37421   -36642   -32641 
  -25876   -17510   -10787    -8587   -10211   -12806   -14012   -12496 
   -8445    -3328      392      805       26     2577     9121    14447 
   13625     9221     7438     7898     3349   -10020   -26015   -35274 
  -35861   -32358   -27296   -19858   -11372    -5113    -1840     -127 
     239    -1075    -2333    -3416    -7301   -13489   -18168   -20179 
  -21209   -22679   -24300   -25855   -27824   -29868   -31975   -34235 
  -35232   -33455   -28823   -23234   -18709   -15012   -10886    -5183 
    2166     8008     8684     5695     2865      -46    -3762    -5763 
   -5359    -6020   -11692   -21485   -28793   -31761   -35419   -37808 
  -32310   -21473   -13440   -11582   -12403   -11144    -9091   -10965 
  -16291   -20454   -21836   -23039   -26954   -32174   -34224   -32076 
  -28175   -24654   -22573   -20306   -15725   -10537    -6680    -3498 
    -720      896      631     -516      793     5627     9608     8469 
    4350     1611     -239    -4492   -11978   -21529   -32147   -41474 
  -46399   -47396   -46785   -44851   -42190   -40163   -38224   -35010 
  -29715   -21929   -12276    -2016     7964    16331    21199    21537 
   16731     7346    -2890   -10777   -16454   -19767   -20403   -20546 
  -21820   -23622   -25551   -27687   -29624   -29454   -25419   -19502 
  -14625   -11636   -12425   -18372   -25630   -28851   -27803   -26536 
  -27988   -31514   -35218   -37654   -37971   -37817   -38656   -38046 
  -34908   -31900   -30364   -29649   -28460   -25472   -21815   -19846 
  -19736   -20578   -21938   -22475   -20153   -14763    -8702    -6534 
  -12153   -22907   -31116   -33433   -32846   -31239   -27694   -24207 
  -22413   -19545   -16023   -15494   -17811   -20535   -21217   -18885 
  -16738   -18398   -22538   -25352   -25395   -23195   -20329   -19671 
  -21721   -24076   -26105   -27618   -27231   -26050   -25483   -24164 
  -21446   -17293   -11528    -7011    -5518    -3267     1964     6028 
    5281     2246     1200     1972      991    -3134    -7247    -8612 
   -8947    -9292    -7726    -5739    -8948   -19365   -31600   -38464 
  -38352   -35470   -33796   -31702   -23956    -9600     4704    11753 
   12984    15044    19398    22790    22672    17752     9982     3799 
    -912    -7498   -15038   -21279   -27595   -34031   -36240   -31561 
  -24212   -20671   -20691   -20479   -21570   -24831   -25702   -24201 
  -25563   -30204   -34231   -35794   -34852   -30180   -20519    -8025 
    2809     8810     8272     2450    -3211    -5434    -6111    -6687 
   -7156    -9997   -16442   -21770   -23122   -24989   -30780   -37519 
  -40244   -36921   -29627   -21990   -17187   -15905   -15598   -14973 
  -14328   -14425   -17317   -21626   -24789   -28685   -33349   -34122 
  -29111   -21808   -14862    -7990    -2957    -2049    -3133    -2751 
    -669     1432     2337     1361      143     1806     4349     3844 
    1727    -2277   -10962   -18853   -19017   -15095   -13077   -11501 
   -6616      791     6798     8231     5177     1742      798     -402 
   -4065    -7204    -7075    -5240    -4843    -5822    -4685     -374 
    4195     7063     7886     5485      -60    -4981    -5932    -5316 
   -7808   -12536   -15147   -15971   -18650   -24935   -36111   -51839 
  -66691   -74407   -72622   -63771   -54249   -47682   -42149   -36586 
  -30919   -22975   -13253    -7055    -7265    -9599    -8772    -6541 
   -8858   -15504   -19790   -19901   -19871   -19153   -14128    -8132 
   -7135    -9069    -7871    -3169     1162     2922      891    -6679 
  -19505   -35037   -49969   -60481   -64387   -62690   -57461   -51038 
  -45783   -41377   -36236   -30082   -21755   -10896     -826     5753 
    9674    12762    15285    15597    12570     7653     3331     1247 
    2194     5874    10817    13318     7639    -6213   -22277   -37523 
  -47894   -50918   -52455   -52877   -48973   -44824   -41676   -37034 
  -30820   -23236   -14719    -6855    -2124     -981      -23     2694 
    5165     6235     6498     5328     2067    -1972    -5187    -7635 
   -8456    -4959      901     3331     1132    -4429   -12861   -20450 
  -24287   -27158   -30671   -32448   -31508   -28345   -22964   -16156 
   -9503    -4607    -3358    -7179   -13955   -17616   -15050   -10246 
   -7444    -6394    -6612    -9183   -14194   -19310   -20912   -18539 
  -15835   -15814   -19431   -25604   -30055   -29833   -27493   -25872 
  -23915   -20887   -18508   -17708   -17887   -18157   -16844   -12163 
   -4583     2968     6634     4611      662     -114     1461     2295 
    2909     4190     4685     4454     5380     5570     1757    -5156 
  -15402   -28830   -39206   -44823   -48622   -47984   -42125   -35616 
  -30970   -28554   -29780   -34627   -38147   -36224   -30293   -23173 
  -17179   -13383   -10925   -10466   -14302   -19884   -19011    -9438 
    1485     9461    14572    13971     8976     6407     7433    10098 
   15461    22148    25854    25059    20876    14863     9083     4734 
    1501     -145     -159    -1665    -7991   -18248   -29313   -40901 
  -53046   -63078   -70399   -74761   -71876   -60020   -44530   -32218 
  -25032   -19581   -10724     2589    13649    15252     7902    -2619 
  -10855   -15532   -19836   -25011   -28741   -31956   -36168   -39757 
  -42933   -44206   -39774   -31052   -21152   -10768     -667     6990 
    8590     3297    -4636   -11626   -18416   -25884   -31911   -34949 
  -34053   -26210   -10565     9218    27280    37957    40033    37314 
   32850    25808    16700     9582     4670    -1973   -11338   -22018 
  -33082   -42691   -47317   -45680   -41646   -38636   -38260   -42876 
  -49834   -53940   -55099   -54811   -53136   -49548   -45042   -40962 
  -35149   -27607   -22431   -19350   -13623    -3570     5930     8454 
    4080    -1659    -4226    -2689     -230    -1964    -9024   -17208 
  -22971   -26719   -30807   -36108   -38727   -34624   -27754   -24800 
  -24341   -20632   -13486    -6127     -565     1535      892     -445 
   -3339    -7906   -10757   -10537   -10159   -10915   -10494    -8192 
   -4830     -460     2366      948    -1630     -591     4771    12663 
   19836    21967    19724    18787    19845    19160    16590    12851 
    6991      787    -4773   -14268   -29105   -42730   -49452   -48610 
  -42754   -36351   -30449   -22070   -14015   -13666   -18894   -20689 
  -16900   -11102    -6968    -7025    -9805   -11918   -13199   -15968 
  -20218   -22374   -20500   -16573   -13945   -15481   -19798   -22169 
  -21666   -20489   -20051   -21719   -24928   -26163   -23499   -19721 
  -18710   -19138   -17453   -15593   -16170   -15426   -10233    -4302 
   -1842    -1997    -1699      440     4398    10057    15971    19400 
   20343    21147    21628    21504    21366    19165    15840    13564 
    9024     2808      247      726     1091     1344      573    -2109 
   -2501     1433     3793     1880      578     -253    -9731   -28742 
  -39097   -31183   -24222   -29066   -33612   -37089   -45854   -55696 
  -61791   -60721   -52570   -43359   -36832   -33769   -32074   -26016 
  -14495    -2462     7086    14146    17618    15866    10193     4551 
    2021     2291      826    -6322   -14963   -18452   -18356   -17816 
  -15213   -11868   -11577   -14076   -16560   -15971   -11337    -6319 
   -4066    -3037    -2675    -5271    -9627   -11044    -8132    -4337 
   -3181    -4862    -7106    -8488   -10957   -17001   -24750   -30007 
  -31433   -29715   -25753   -21270   -16400    -9986    -4268    -2577 
   -4433    -7227    -8935    -8477    -6419    -5590    -8063   -11177 
  -11152    -9464   -10551   -15119   -19780   -22291   -23220   -23774 
  -25310   -27901   -29115   -27717   -25889   -25908   -27222   -27494 
  -26621   -27431   -30116   -30663   -26312   -19201   -13844   -11733 
  -11209   -10769    -9398    -8234    -9842   -12341   -12830   -13533 
  -15661   -17358   -19579   -23514   -27354   -29811   -29903   -25866 
  -19250   -13515    -8723    -5225    -6360   -12172   -18799   -23853 
  -26842   -28191   -28721   -27571   -23870   -19481   -15376    -9436 
   -2174     1436     -681    -4282    -5338    -5481    -8242   -13687 
  -19147   -21883   -21192   -19776   -20408   -22107   -22274   -20198 
  -17200   -14166    -9657    -2947     2539     2708    -3350   -14207 
  -26628   -37244   -45234   -50488   -51740   -48355   -41593   -33702 
  -25886   -17916    -9842    -2627     2186     3363     1239    -2256 
   -5241    -8382   -13760   -20284   -25058   -28558   -31857   -32911 
  -31804   -31834   -33400   -34217   -32013   -25804   -18940   -15875 
  -15151   -12637    -9109    -8248   -11112   -16010   -19884   -20788 
  -20179   -19141   -15864   -10119    -4308     1047     7059    12181 
   13755    12613    11236     9990     7890     4042    -2005    -9555 
  -17099   -24110   -30513   -34383   -34840   -35346   -38481   -41478 
  -40865   -37044   -32706   -30225   -30131   -30045   -27484   -23645 
  -21412   -21104   -20274   -18034   -16729   -16134   -12708    -7244 
   -4319    -3792    -1600     1559     2818     4504     7979     9040 
    5545     1802     2444     4570     2681    -1740    -5751   -11822 
  -21354   -29971   -33035   -31137   -28323   -26470   -24229   -21580 
  -20943   -23077   -25555   -25322   -22117   -19408   -20699   -24687 
  -26186   -24539   -24806   -27235   -26606   -21174   -13405    -7027 
   -6432   -13223   -22341   -27218   -28039   -27857   -26470   -25308 
  -28274   -33920   -35942   -31654   -23804   -15276    -6909      854 
    6831     9295     8918     9037    10593    11932    11491     7790 
    2655     -364    -2558    -6162    -9979   -11838   -11056   -12397 
  -20511   -29382   -30774   -26422   -22911   -23580   -27681   -32177 
  -33335   -29485   -24374   -22607   -23034   -21832   -16464    -6813 
    4386    16151    30408    45549    56461    61033    60617    57332 
   53579    49590    43485    36532    31189    25144    15970     6829 
    1324    -2171    -7819   -16935   -26231   -30294   -27254   -20820 
  -14348    -8388    -4559    -4898    -8574   -12750   -15747   -17982 
  -20486   -23100   -23679   -20913   -15582    -8383    -1624     1960 
    3164     2866     1850     3076     5466     4816     2348     1548 
    3120     7870    12721     8495    -6240   -22966   -38807   -54598 
  -64182   -64243   -61630   -60434   -57507   -52461   -46453   -36191 
  -21278    -7963      -83     4729     8583     9340     5637      174 
   -4845    -9004   -11386   -12606   -14866   -17826   -19726   -20752 
  -22267   -25681   -30648   -34097   -33073   -27580   -22058   -20650 
  -20987   -18924   -14353    -9886    -7710    -7002    -5993    -5618 
   -7393    -9967   -10765    -8873    -4788    -1158    -2400    -8391 
  -12280    -9162    -3319    -1786    -4209    -6285    -8108   -10573 
  -10441    -6854    -3656    -2915    -5197    -9336   -11040   -11992 
  -18431   -26252   -25898   -20156   -18285   -20077   -24357   -32496 
  -35561   -26493   -10596     6915    22327    31137    32200    28167 
   20419     7595    -4999    -7391    -1513     -651   -10388   -20480 
  -19306    -9291      338     8696    17669    21921    18598    13438 
   11254    11546    10713     5554    -2957   -13123   -25750   -40249 
  -54197   -66204   -74043   -75377   -72221   -65893   -54060   -39785 
  -27895   -16057    -3937     3862     7121     7621     5074     1205 
   -1086    -1080      845     4096     7007     6760     3451     1892 
    3733     5841     7425     7064     1115    -8607   -18973   -32626 
  -48156   -55249   -49533   -38197   -27997   -22255   -21702   -20269 
  -14052    -7997    -6627    -9571   -14619   -21590   -31058   -38717 
  -38449   -31310   -24031   -16968    -5523     7685    16427    19761 
   20637    21041    19611    13813     3060    -9851   -20055   -24825 
  -25139   -23243   -19483   -13914    -9521    -8177    -9470   -14607 
  -23186   -31329   -35681   -34987   -31206   -28548   -28166   -27707 
  -26342   -25754   -26360   -25985   -22942   -18543   -16832   -20858 
  -27749   -32080   -33063   -33189   -34121   -35207   -32837   -25303 
  -16249    -8417     -773     6994    13037    16478    18795    20184 
   19846    18667    16853    15310    15915    17278    18842    22039 
   19076     -568   -25823   -35847   -34194   -36328   -42600   -51620 
  -65266   -75403   -76278   -71285   -64050   -57872   -52529   -47201 
  -42402   -34965   -26368   -21702   -18768   -12103      497    14013 
   20786    20246    16909    15436    15009    12115     8646     4318 
   -3721   -11680   -14963   -15351   -15208   -12778    -8487    -6066 
   -4400      433     6795    10868    12928    13885    13505    12359 
    9884     6023     2969      714    -2442    -6467   -11099   -15005 
  -15251   -13462   -15581   -23187   -33141   -42744   -50178   -54510 
  -54689   -49170   -39884   -30605   -22775   -18214   -18473   -21156 
  -23255   -25097   -29430   -37205   -44259   -45874   -42958   -39924 
  -39646   -41717   -42488   -38585   -32066   -27427   -25211   -23316 
  -21104   -18480   -13116    -4063     3871     6917     7922     8543 
    6967     4591     1910    -4940   -15861   -26194   -33197   -36565 
  -37670   -38320   -38325   -36227   -31223   -23860   -15455    -6636 
    3280    14318    23982    30260    34028    35702    33502    26414 
   16132     5599    -4064   -13571   -21612   -25496   -26361   -28435 
  -32960   -36927   -38030   -36863   -33691   -27730   -20617   -16320 
  -15994   -17114   -18675   -21749   -25375   -27227   -27220   -27884 
  -30576   -31861   -27677   -19636   -11938    -5212     2103    10373 
   19529    28888    36586    41370    43143    42585    40430    36424 
   30343    23789    19005    16102    13474     7969    -4661   -23274 
  -40728   -53850   -64563   -69241   -61799   -48243   -38531   -33099 
  -29918   -28214   -27269   -27251   -27887   -29301   -29813   -27835 
  -26464   -28653   -34377   -41594   -46866   -49383   -51768   -54369 
  -53472   -47695   -40188   -33422   -26503   -17896   -10290    -8127 
   -9926   -11432   -11581    -9706    -5984    -3263    -2502    -2777 
   -3953    -5358    -5895    -3772     2985    12839    21238    25608 
   26971    26529    25364    25497    26068    25317    23922    20077 
   10749    -2269   -13916   -21472   -26315   -28729   -27823   -26502 
  -26715   -26040   -23347   -19900   -16169   -11648    -6784    -3916 
   -3797    -4063    -4404    -6338    -9047   -12019   -15828   -19784 
  -23798   -27770   -30094   -31092   -32169   -32026   -29751   -26304 
  -21051   -14071    -8317    -5262    -4248    -5146    -7625   -11026 
  -14957   -17814   -17821   -15882   -14019   -12154    -8450    -3622 
   -2281    -5870   -11101   -15451   -16254   -12717    -8492    -4354 
    1977     9009    12991    13636    14140    14774    12815     9174 
    5654     -146    -9744   -20835   -31602   -41086   -47204   -49522 
  -50196   -49595   -47212   -44597   -41258   -35492   -29478   -25992 
  -24523   -22878   -21062   -23171   -31535   -42131   -49748   -52662 
  -52224   -50523   -47668   -43067   -37714   -33123   -29900   -27162 
  -24779   -22808   -16964    -6961    -2958    -8216   -14466   -18364 
  -19524   -16525   -14923   -19607   -26448   -31181   -33513   -33934 
  -34093   -33731   -29788   -23352   -17776   -13290   -11169   -12785 
  -15965   -20365   -27979   -38402   -48437   -52339   -46913   -37046 
  -28676   -23413   -22327   -23706   -22562   -18884   -16825   -16635 
  -16224   -16659   -18234   -16099    -8043      266     4731     8115 
   11270    10592     6105      128    -8381   -18348   -25146   -28069 
