Origin Time       2011/03/11 14:46:00
Lat.              38.103
Long.             142.860
Depth. (km)       24
Mag.              9.0
Station Code      KNG014
Station Lat.      35.3609
Station Long.     139.0828
Station Height(m) 107
Record Time       2011/03/11 14:47:43
Sampling Freq(Hz) 100Hz
Duration Time(s)  297
Dir.              E-W
Scale Factor      3920(gal)/6182761
Max. Acc. (gal)   82.354
Last Correction   2011/03/11 14:47:28
Memo.             
[...]
  -33637   -33683   -34904   -34689   -30543   -23643   -17121   -13577 
  -14023   -17462   -22695   -29001   -33320   -31932   -26341   -21063 
  -18645   -21016   -28170   -36225   -41907   -44821   -45875   -45952 
  -44666   -40500   -33483   -28395   -29964   -35294   -38551   -38404 
  -36553   -33790   -29654   -24790   -20257   -14884    -7484     -329 
    2544     -343    -5773    -8677    -8274    -8858   -13632   -21363 
  -29166   -34940   -36542   -33432   -29503   -28428   -29183   -29956 
  -30099   -28526   -25331   -21792   -18834   -17820   -18394   -17141 
  -12194    -5005     1719     4913     2980    -2673    -9076   -13753 
  -15867   -16691   -18953   -24457   -31688   -37268   -40665   -44215 
  -48319   -50951   -50260   -46121   -40735   -35983   -31859   -28625 
  -27536   -29252   -31463   -29471   -21622   -11513    -2560     5055 
   11039    14040    13568    10680     7518     4787      902    -5107 
  -12117   -18702   -25018   -31269   -36681   -41281   -44566   -44924 
  -42780   -39802   -36392   -32953   -30421   -28222   -24558   -19005 
  -13102    -8740    -6365    -5121    -4807    -5506    -6001    -4933 
   -2514    -1126    -3628    -9205   -13879   -16318   -18596   -21122 
  -21696   -19761   -17318   -15502   -13663   -11525    -9831    -8913 
   -8053    -7071    -7783   -12115   -18323   -22090   -23263   -26097 
  -31550   -36678   -39966   -42007   -43196   -42340   -39486   -38421 
  -41085   -43953   -43274   -39430   -35697   -34220   -32993   -28585 
  -21755   -15867   -11393    -7220    -4057    -2965    -3097    -2551 
    -467     2842     6811     9933     9844     5903     -791    -8811 
  -15258   -17748   -17477   -16411   -14915   -13367   -12290   -11836 
  -12639   -15202   -18665   -21219   -21198   -17194    -8811     1202 
    8832    12703    13346    11609     9680    10784    15406    19712 
   20543    19177    17201    12836     5123    -2213    -4942    -4116 
   -4325    -7562   -12803   -19561   -27320   -33483   -34799   -31030 
  -25760   -21515   -17484   -13230    -9171    -5102    -1417     1039 
    1515       74     -603     1607     5101     8158     9804     8095 
    2637    -5052   -13412   -20196   -23731   -25480   -28028   -31771 
  -35816   -39748   -42888   -44260   -43169   -39027   -32694   -26649 
  -21930   -17388   -12395    -8021    -5368    -3915    -2177      381 
    3454     6531     7691     4586    -2295    -9026   -11133    -7760 
   -2099     2678     5630     6397     4008     -998    -6085   -10379 
  -14470   -17320   -17924   -16939   -15069   -13201   -12476   -12582 
  -12945   -14572   -17673   -20148   -20862   -21444   -23659   -27877 
  -33341   -37838   -39278   -38273   -37391   -38010   -39222   -39734 
  -39481   -39478   -40660   -42389   -42880   -41523   -39303   -36707 
  -33028   -28557   -25689   -26530   -30282   -34321   -37467   -40091 
  -41642   -40824   -38234   -36807   -38358   -41292   -42744   -40997 
  -36728   -32985   -32447   -35050   -38024   -38465   -36779   -35379 
  -34843   -34259   -33326   -32124   -30067   -26745   -23750   -23498 
  -25898   -28491   -29776   -30359   -30898   -30797   -29723   -28662 
  -28332   -28296   -28209   -28753   -30640   -32845   -34028   -34331 
  -33156   -29774   -26045   -24144   -23892   -22801   -17845    -9143 
    -584     4215     5360     5744     6969     7866     6858     4254 
    2263     2358     3921     4970     2133    -6340   -17516   -27611 
  -35358   -40998   -45479   -49060   -51027   -52063   -54092   -57736 
  -61840   -64883   -66321   -65901   -62711   -57118   -50548   -42974 
  -34806   -28455   -24688   -20942   -15175    -8163     -994     5664 
    9779     8980     2938    -6197   -15331   -21928   -24992   -26356 
  -28432   -30976   -33062   -34716   -35735   -36340   -37445   -39315 
  -41817   -44561   -46304   -45851   -43170   -39645   -36775   -34416 
  -31744   -28585   -24816   -20297   -15520   -11862   -10922   -12544 
  -14318   -14393   -13624   -14209   -16582   -18503   -18374   -17219 
  -16244   -16055   -17531   -19849   -20010   -16335    -9972    -3504 
    1452     5812    10176    13036    13892    14366    15866    17850 
   18860    18608    17153    13644     7999     2096    -1257     -367 
    3140     5745     5450     1601    -5465   -13886   -22679   -32243 
  -41588   -48644   -52313   -53176   -53708   -55704   -57632   -57896 
  -57865   -58541   -58085   -54882   -50400   -47260   -45266   -42128 
  -37951   -35073   -34482   -34800   -33246   -27651   -18577    -9554 
   -4443    -3666    -4520    -4611    -2542     1632     4171     1325 
   -3581    -3870      975     6193     8686     8933     8273     6257 
    2292    -2273    -5967    -7973    -8596    -9366   -10042   -10991 
  -15412   -22737   -29239   -35093   -41761   -47426   -49634   -48596 
  -45614   -41161   -36158   -31671   -28215   -27306   -30164   -35154 
  -39214   -40412   -39221   -38183   -38320   -38484   -39580   -42956 
  -46477   -48293   -49442   -49982   -48123   -43540   -37823   -32523 
  -28417   -25392   -23487   -24066   -26760   -27092   -21777   -13872 
   -9056    -9693   -14697   -21725   -27641   -29704   -27737   -23717 
  -19334   -15617   -12573    -7432      459     5052     2596    -2477 
   -5678    -6220    -3971     -254     1787     -436    -7290   -16501 
  -25171   -31674   -35630   -37991   -40121   -42542   -44841   -45944 
  -45249   -43274   -41324   -41080   -42624   -43499   -41715   -37474 
  -31982   -27491   -25996   -26441   -25859   -22196   -15760    -9223 
   -5451    -4988    -5953    -6102    -3752     1651     7672    10762 
   10317     7739     3656    -1209    -4732    -5517    -5129    -6276 
   -9485   -12635   -12918    -9390    -4040     1437     7108    11310 
   11600     8676     4400    -1445    -9348   -17705   -23883   -26215 
  -25621   -25770   -29279   -34686   -40764   -49792   -61979   -72520 
  -77018   -75999   -72607   -67562   -60329   -53494   -50379   -49378 
  -44040   -30942   -15702    -6314    -3171     -773     4257    11181 
   18284    23816    25333    21818    16359    14202    16807    20495 
   22411    22940    22123    19335    15417    11820     9295     8076 
    8281    10490    14964    20065    23551    24529    22606    18407 
   15081    15393    19168    24959    31044    35068    35281    32361 
   28282    23790    19109    14204     7206    -2499   -11836   -18180 
  -22366   -27815   -37243   -48884   -59100   -66796   -71171   -70257 
  -64508   -58644   -58298   -64257   -72125   -78013   -81060   -81403 
  -79009   -74794   -70654   -67191   -64145   -63481   -67895   -76131 
  -83610   -87005   -85380   -78040   -64862   -49352   -37363   -31291 
  -28035   -22713   -13828    -4132     4246    12714    23326    35593 
   46777    53693    54480    50373    44816    40219    36815    33036 
   26434    16448     5419    -3731    -9245   -11435   -12999   -16339 
  -20797   -24137   -25316   -25828   -28526   -33051   -35916   -36567 
  -36754   -36432   -36168   -38314   -43547   -49998   -55295   -58222 
  -58862   -57533   -54116   -49114   -44694   -42209   -39573   -33787 
  -24034   -11682      470     9826    15198    16429    14969    13999 
   15679    18601    20236    20604    19855    16344    10572     5814 
    4178     4865     4819      863    -6830   -14021   -17588   -19477 
  -22746   -27232   -31079   -33513   -34621   -33935   -32088   -32670 
  -38139   -45606   -50463   -51599   -51287   -52350   -55781   -60586 
  -64985   -66792   -64508   -58813   -52040   -46484   -43187   -41232 
  -37623   -30326   -21717   -15719   -12933   -10047    -3072     7698 
   17709    23948    26035    23170    15587     7043     2651     3688 
    6016     5722     2642    -2303    -8518   -15344   -21456   -25143 
  -27250   -31055   -37123   -42292   -44868   -46460   -48603   -51105 
  -53429   -55846   -58426   -58631   -52351   -39522   -25645   -16537 
  -13979   -15279   -16111   -14140    -9339    -2873     3716     9987 
   16541    23574    29586    31257    27438    20711    12164     2066 
   -4640    -2614     6581    15671    17684    11828     2701    -6042 
  -12393   -15194   -16296   -18207   -21401   -25397   -28076   -26675 
  -22274   -18885   -18955   -22876   -29088   -34215   -36067   -34848 
  -32877   -34263   -40534   -48450   -53738   -53407   -46690   -36029 
  -25650   -19213   -17992   -20218   -22514   -22907   -22329   -22433 
  -23249   -23800   -24119   -24526   -22645   -15877    -6375      806 
    2583     -353    -5589   -11592   -15824   -14911   -10505    -8502 
  -11804   -18357   -24263   -27569   -29539   -32066   -35181   -37524 
  -39005   -41065   -44197   -48002   -52471   -56564   -56877   -51301 
  -42467   -34237   -27966   -23518   -21823   -25627   -35789   -48631 
  -59418   -65629   -67096   -65225   -61871   -59656   -60759   -63995 
  -66745   -67735   -65830   -59968   -51166   -42034   -33815   -26434 
  -20196   -14412    -7466      307     7057    12608    18954    26487 
   31995    33212    31690    29883    28900    28567    29022    29746 
   26826    17916     6892    -2676   -11820   -20844   -27405   -30415 
  -31552   -33438   -36865   -41215   -46055   -49816   -50919   -49662 
  -46451   -41370   -35329   -29986   -27196   -27588   -29373   -30246 
  -30174   -30232   -30147   -29720   -29912   -30556   -29980   -26911 
  -21462   -15385   -10625    -6989    -3718    -2572    -5419   -10431 
  -14235   -15185   -12584    -6391     1642     8937    13277    14080 
   14477    18091    23750    28379    31622    34399    36861    37924 
   35564    28301    16309      903   -16120   -31223   -41050   -47415 
  -54945   -65143   -76079   -84731   -89865   -92513   -93040   -90473 
  -83833   -73819   -62584   -49533   -31950   -12449     1389     7174 
    9945    13892    19291    25269    30081    31162    27327    19840 
   10597     1587    -5044   -11110   -21084   -33732   -43523   -48492 
  -50268   -50424   -50160   -51756   -56527   -62297   -66949   -70154 
  -70712   -67726   -62252   -55685   -48104   -38761   -28664   -19738 
  -12329    -6696    -2235     3860    12570    22334    32088    40161 
   43832    42929    40870    40728    41936    41800    38672    32629 
   24446    15638     7994     2348     -505     -923    -2919   -10594 
  -23204   -36166   -45684   -51698   -56328   -60847   -65083   -67635 
  -66053   -60127   -55198   -58162   -69962   -84606   -94875   -96836 
  -89937   -76718   -62651   -52799   -48021   -45464   -41487   -33380 
  -21793   -11315    -3537     5131    16247    28854    42122    53714 
   61174    62667    57944    52222    51327    54576    58400    60396 
   58111    50448    38287    22536     5876    -8963   -23102   -37271 
  -49392   -58167   -63588   -66400   -68640   -72823   -80972   -92361 
 -103144  -111112  -116163  -116992  -112491  -103133   -90185   -75891 
  -63031   -53993   -49813   -48843   -47371   -42894   -36146   -29732 
  -25358   -22648   -21622   -23744   -27951   -30766   -31389   -31660 
  -33107   -36800   -42328   -47056   -49199   -49255   -48528   -48534 
  -49694   -51129   -52545   -52117   -46117   -35615   -26833   -23700 
  -26235   -33828   -44584   -52853   -53041   -46107   -38791   -36968 
  -40492   -44513   -46006   -45370   -42473   -37646   -33100   -29082 
  -23780   -16152    -6637     1542     4428     2588     -214    -1659 
    -567     3966    10734    15452    13393     4290    -7102   -15528 
  -19401   -21405   -23753   -25383   -25957   -26721   -27555   -28144 
  -30308   -36547   -45262   -51211   -53958   -57560   -62460   -65810 
  -65814   -63759   -63428   -66733   -71668   -76047   -79520   -81277 
  -80119   -76326   -71233   -66172   -61477   -55592   -47062   -37992 
  -31903   -28973   -27077   -24599   -21177   -17553   -13552    -8841 
   -5511    -4389    -2982     -406     1918     3008     2555      697 
   -3221    -9620   -15696   -18017   -16198   -11005    -3285     3746 
    6616     4920      -50    -6260   -11630   -15989   -20729   -26605 
  -32065   -34729   -34662   -34028   -35311   -40849   -50434   -60696 
  -68952   -74004   -74620   -70469   -62367   -52237   -42845   -34229 
  -23252    -9344     4394    15514    22419    24015    22111    20135 
   19889    20990    22039    22507    22954    23460    23332    21541 
   17746    13912    13312    17108    23082    27117    24672    15521 
    6600     2567      680    -1441    -5051   -12964   -24833   -37281 
  -48582   -57952   -64110   -67009   -68649   -70832   -73002   -73582 
  -71745   -66941   -58656   -47355   -34733   -23533   -17723   -19418 
  -25140   -29777   -32122   -32804   -31434   -28139   -23998   -20204 
  -18902   -22188   -29568   -38544   -47091   -54395   -59018   -59040 
  -55703   -52451   -50331   -48328   -45583   -42012   -38412   -34048 
  -27628   -22015   -20314   -20666   -20011   -17085   -12120    -6729 
   -1332     5539    14220    24611    36240    45638    51078    55056 
   58982    63665    70253    77152    81499    81533    77387    71214 
   63708    53049    38671    22434     7649    -2954   -11000   -21407 
  -36261   -53443   -71300   -89388  -104337  -112128  -114161  -114157 
 -113047  -110587  -106589  -101464   -97327   -94785   -91039   -84527 
  -77034   -69274   -59890   -50669   -45405   -42229   -35815   -25878 
  -16001    -7676     -450     5772    12338    21686    32958    42390 
   48409    52594    57569    66542    80532    95419   106122   110119 
  105389    90903    69625    47392    27773    10488    -3714   -13395 
  -22648   -36359   -53045   -69927   -85648   -98231  -107969  -116294 
 -121710  -123081  -121996  -118764  -111911  -102087   -90950   -77245 
  -58891   -37943   -19502    -6231     2585     7801    10808    15541 
   24757    35900    43210    42922    37305    32318    31512    34283 
   36758    33993    23721     7914    -7373   -15163   -15456   -14781 
  -15551   -15913   -16420   -18416   -21469   -24005   -24846   -24297 
  -22991   -22253   -23681   -26265   -27702   -27255   -26133   -27889 
  -35002   -44996   -54635   -63229   -70583   -76357   -79714   -80654 
  -81098   -80109   -74191   -65120   -57389   -50748   -44262   -39581 
  -36902   -35244   -34645   -34916   -34400   -31811   -28904   -27736 
  -27090   -25227   -22592   -20061   -17814   -15407   -11981    -8735 
   -7574    -6648    -4025    -1871    -1504     -904      174    -1854 
  -10286   -24840   -42139   -57685   -69146   -78135   -86708   -95159 
 -103655  -111536  -116372  -116493  -112629  -106109   -97270   -85862 
  -72331   -57887   -42417   -25535    -9230     4704    17080    27925 
   34140    34105    30804    27987    27612    29435    30911    30783 
   30251    29813    29593    29909    28477    22280    13407     7770 
    7648     9678     9241     4313    -3369   -10617   -15708   -17957 
  -17617   -16505   -15600   -13627   -10142    -6590    -3427    -1317 
   -3315   -11151   -21974   -30488   -33954   -34018   -33578   -34767 
  -38525   -44034   -49364   -52294   -52185   -51015   -49670   -45734 
  -37247   -25653   -14232    -4961     2701     9789    16228    22078 
   27566    31975    35269    38840    42336    42314    36085    25247 
   14213     6294     1887     -251    -1246    -1565    -1076      578 
    3209     5516     5753     3848     2360     3688     7216    11342 
   15466    18984    21637    23267    23093    20590    15726    10474 
    8024     7732     6810     5842     6335     6498     2524    -7191 
  -18871   -27111   -30809   -31239   -29333   -27436   -28094   -31602 
  -37290   -44367   -51514   -58723   -67222   -75228   -78524   -75581 
  -67940   -59074   -53020   -49712   -46041   -41151   -34581   -25139 
  -14496    -5657      800     6454    12572    18588    23140    25651 
   26022    23996    20423    17527    16641    16570    14561     9488 
    3173    -1347    -2960    -4020    -6766   -10603   -13577   -14436 
  -14831   -17932   -23707   -28631   -30419   -30844   -33204   -38408 
  -44891   -50939   -55159   -57036   -58063   -60646   -66486   -74874 
  -82045   -84574   -82974   -80524   -79504   -79790   -80226   -79558 
  -76953   -72422   -65666   -56480   -46564   -37984   -31695   -28217 
  -27450   -28571   -30043   -31032   -33583   -39739   -47693   -54198 
  -58382   -61570   -65152   -69327   -73271   -75286   -74143   -70685 
  -66327   -61883   -57711   -53999   -51834   -52398   -54842   -55927 
  -52715   -46608   -42402   -42867   -46224   -47954   -44872   -37685 
  -29036   -21511   -17370   -17212   -19135   -20269   -19060   -16035 
  -12312    -7665    -2018     2848     6317     9106    10240     9031 
    6887     5359     4611     4005     4092     5656     7642     8420 
    7037     3319    -2136    -8130   -13129   -16678   -19625   -22312 
  -24532   -25577   -23556   -18099   -11620    -5914     -779     4980 
   12622    22012    31383    38425    41757    41747    39706    37496 
   36338    34642    30027    22932    15875    10231     5241      245 
   -3901    -6024    -5158    -1140     4684    11588    18795    23186 
   23165    20722    17263    12505     6376    -1701   -12007   -22400 
  -31297   -39480   -47828   -57090   -66783   -74752   -79535   -80834 
  -80147   -78452   -73793   -66666   -58433   -46275   -30622   -16683 
   -7087     -676     5493    12698    20122    27065    32105    35164 
   38576    42960    47357    51864    55469    55040    49629    42369 
   37095    35613    37660    40773    40946    36538    30260    25213 
   21320    16620    10577     5120     1492    -2011    -7283   -13715 
  -19355   -23591   -28115   -34663   -43084   -52050   -60054   -66724 
  -72688   -77439   -80099   -81113   -80855   -78977   -76288   -74475 
  -73253   -70698   -65797   -58704   -50049   -40690   -31656   -23762 
  -16926   -10810    -5957    -3496    -3964    -6235    -7896    -7434 
   -5569    -3856    -3387    -5354    -9814   -14426   -17454   -19368 
  -21236   -24635   -30923   -39253   -47310   -53275   -56545   -58050 
  -59089   -59410   -58202   -55679   -52749   -50673   -50156   -51001 
  -52914   -55049   -57134   -60353   -64657   -68334   -70268   -70827 
  -72147   -76591   -83299   -89309   -93885   -97602   -99659   -99261 
  -96802   -92706   -86960   -79746   -71612   -63376   -55881   -49604 
  -44019   -36682   -25419   -11612     1312    10320    13458    11060 
    5349     -820    -4613    -4909    -2728     -690    -2161    -7520 
  -14475   -22826   -32585   -41410   -47838   -51918   -53766   -53589 
  -51998   -50824   -51417   -52494   -52167   -49755   -44953   -37484 
  -27756   -17338    -9095    -5683    -6362    -7078    -5016     -689 
    4672    10540    16343    21825    27201    32345    36446    38199 
   37545    36090    34211    31463    29834    31771    36267    39189 
   36951    30133    22401    16570    13502    12786    13124    13581 
   14650    16711    18885    20341    20283    17299    10768     1442 
   -9882   -22142   -32795   -39069   -40491   -39228   -37951   -37897 
  -38742   -39468   -39548   -39179   -37901   -34016   -26058   -14804 
   -3582     4848    10913    16641    23954    32913    39934    42116 
   41226    39948    38740    36789    33125    26698    16717     4819 
