Origin Time       2011/03/11 14:46:00
Lat.              38.103
Long.             142.860
Depth. (km)       24
Mag.              9.0
Station Code      KNG006
Station Lat.      35.4541
Station Long.     139.5391
Station Height(m) 60
Record Time       2011/03/11 14:47:43
Sampling Freq(Hz) 100Hz
Duration Time(s)  300
Dir.              E-W
Scale Factor      3920(gal)/6182761
Max. Acc. (gal)   100.244
Last Correction   2011/03/11 14:47:28
Memo.             
[...]
  -46980   -55700   -61686   -64851   -67514   -71633   -76651   -81346 
  -85156   -86866   -84543   -78138   -70118   -62420   -54808   -46139 
  -35509   -23154   -10630      750    10399    17412    20349    18232 
   12297     5713      615    -4080   -11547   -23097   -36638   -49666 
  -61654   -72552   -80359   -82491   -79050   -73053   -68103   -65428 
  -63391   -61075   -60039   -61584   -64322   -65260   -62943   -58451 
  -53162   -46803   -38321   -28178   -18376   -10054    -2648     4206 
    8967     9158     4367    -2312    -7425   -11100   -15521   -20788 
  -24390   -23989   -20196   -16647   -16555   -18715   -19097   -16294 
  -12233    -9242    -8525    -9691   -11437   -13092   -15126   -18411 
  -23070   -28359   -33789   -39210   -44208   -48263   -50569   -50003 
  -46626   -42494   -39685   -38233   -36714   -34386   -31921   -29398 
  -25205   -18549   -11443    -6862    -6079    -8447   -12633   -18586 
  -27850   -39799   -50706   -57828   -60828   -60629   -58760   -55892 
  -51752   -46761   -42044   -38936   -38492   -39823   -40345   -38507 
  -35557   -34403   -36351   -39903   -42807   -43629   -42233   -39743 
  -37452   -35458   -32471   -27538   -21430   -15369    -9777    -4385 
    1819     9255    16177    20573    22957    25919    30720    35033 
   35442    31292    24192    15403     5657    -4491   -14966   -25599 
  -36069   -46578   -57296   -67332   -75333   -80867   -83979   -84088 
  -81055   -75987   -69763   -62700   -55683   -50356   -48837   -52161 
  -58833   -66287   -72690   -77858   -83002   -88523   -94000  -100003 
 -106524  -111386  -112186  -108321  -101853   -95682   -89192   -78815 
  -63401   -45205   -26844   -10296     2663    10890    14058    12545 
    7568      180    -9330   -20370   -31820   -42910   -53199   -62433 
  -71018   -79112   -85942   -90534   -91725   -88531   -80893   -69731 
  -56111   -40573   -24597   -10404      911     9014    14124    15976 
   12409     2716    -9683   -20905   -29851   -37291   -44298   -51647 
  -59715   -67835   -73955   -75590   -71818   -65563   -61348   -59181 
  -54521   -44962   -32980   -22427   -14989    -9743    -6012    -4994 
   -7495   -12095   -16212   -19846   -26241   -37123   -50625   -63237 
  -72291   -77251   -78364   -75316   -68284   -59038   -49340   -39382 
  -28185   -15152    -2567     5761     9082     9653     9246     7840 
    4132    -2883   -11973   -21158   -29848   -37852   -45062   -51367 
  -55525   -56271   -53682   -48592   -42629   -37737   -34294   -31409 
  -28362   -25037   -22666   -22351   -22609   -21608   -20435   -21762 
  -27024   -35727   -45845   -54734   -61376   -67216   -72733   -75115 
  -71916   -64239   -54758   -45408   -36913   -28631   -19658   -10153 
    -330    10532    22511    33670    41395    44423    43165    38908 
   32667    24211    12707    -1729   -17200   -30603   -39480   -42935 
  -41811   -38972   -36840   -34493   -28922   -18807    -6451     4062 
    9922    11523    11691    12099    12424    12288    11538    10258 
    8345     4423    -2791   -12205   -21554   -29867   -37071   -42994 
  -46954   -47921   -46271   -44152   -43912   -46893   -52457   -58718 
  -64138   -67296   -67477   -66273   -65648   -64926   -62202   -56982 
  -49992   -42502   -35966   -31047   -27862   -26182   -23677   -17309 
   -7816      599     4671     5176     6269    10795    16701    19541 
   17273    10847     2039    -7127   -15086   -22341   -30592   -40645 
  -51973   -62788   -70396   -72777   -70414   -65907   -61749   -58953 
  -56343   -51178   -42421   -32981   -27779   -29931   -39127   -52495 
  -66002   -76521   -82795   -84062   -80049   -71674   -59629   -44132 
  -26515    -8972     6722    19696    30054    38185    43868    46224 
   43550    33525    14714   -12220   -43519   -73367   -97980  -116523 
 -128106  -131257  -127392  -121343  -115530  -107576   -95512   -81097 
  -67599   -56873   -48332   -40552   -34016   -30825   -32771   -38935 
  -43206   -41602   -38393   -34114   -25951   -18385   -12324    -5332 
    -117     4703    10653    12337     8833     5558     1982    -6673 
  -18378   -30385   -43733   -54556   -60371   -66053   -72365   -76340 
  -78406   -77522   -72220   -66101   -62702   -61482   -60251   -56872 
  -52177   -49287   -47107   -41392   -31581   -20807   -11706    -4908 
     521     5615     8513     6572     -338   -12049   -25747   -36490 
  -44282   -50659   -54427   -55729   -56541   -57672   -58668   -59119 
  -58858   -57295   -52036   -41166   -26182    -9511     5894    16350 
   21934    25788    28469    29602    30494    29732    25362    21081 
   20575    21914    21677    17833    11355     6666     4848     1147 
   -7572   -19743   -33069   -46588   -60622   -77094   -96242  -113594 
 -124755  -129833  -130564  -126583  -116347  -100968   -84243   -67628 
  -50146   -32706   -16655    -2199    10373    20786    27597    30867 
   34184    38575    41709    42539    40838    35913    28504    20843 
   12666     2091    -9952   -22689   -37121   -51140   -61050   -67019 
  -70576   -70861   -67530   -61634   -53445   -43799   -33960   -23966 
  -14628    -9049   -10569   -18835   -29178   -38541   -49475   -66070 
  -88029  -109324  -122885  -127420  -127620  -126503  -121848  -111926 
  -98793   -84495   -71005   -61684   -56944   -54940   -56351   -62183 
  -70769   -78632   -82935   -82141   -75017   -62918   -49436   -36504 
  -24706   -14332    -5359     1758     6408     9247    12502    17540 
   24101    31350    36487    37235    35320    32666    29257    25352 
   21572    17618    11419     1060   -11800   -23680   -33648   -42627 
  -50424   -55715   -58448   -60432   -62047   -61770   -58602   -51649 
  -41253   -30181   -20378   -11610    -3713     2620     7476    11805 
   15326    17609    19938    22647    23955    22485    17681     9521 
    -725   -11525   -23099   -36584   -51526   -66473   -80024   -89486 
  -92241   -88909   -81019   -68472   -52937   -37028   -20963    -5998 
    5594    13867    18304    16587     8805    -1982   -14252   -26717 
  -36386   -43322   -47453   -47337   -44494   -39544   -34405   -30387 
  -23788   -15065    -5368     5220    12650    18482    24894    29497 
   33831    36975    34927    29100    24355    23727    25358    26898 
   27383    23946    16955     9798     2690    -4263   -10349   -16600 
  -23477   -31809   -40921   -46001   -45361   -40578   -30918   -17268 
   -3182     9147    18817    25333    29188    31855    33014    28738 
   17460     3725    -9377   -23431   -38894   -54305   -67328   -73922 
  -73708   -71741   -70392   -69062   -70123   -73910   -75814   -74687 
  -71252   -63751   -54768   -47368   -38121   -25181   -10928     3191 
   14860    20010    17817    11736     6172     5117    10712    21397 
   33272    42476    45979    43649    38310    30989    20695     8444 
   -2807   -10159   -12607   -12913   -16206   -25332   -37438   -48023 
  -57186   -66661   -76069   -84170   -89980   -94027   -95684   -94129 
  -92639   -93757   -98385  -102695   -98457   -91183   -88915   -87924 
  -91101   -99591  -104421  -103504  -102905  -108473  -114466  -113296 
 -110887  -108104  -100715   -91967   -81325   -67003   -51371   -35273 
  -19732    -5089     8463    19456    28500    34896    37295    37567 
   37703    39909    44319    47497    48985    50959    53646    55044 
   52550    44643    30385    12580    -2344   -15419   -33975   -57857 
  -79241   -93075  -102123  -109368  -111983  -110558  -107782  -100360 
  -86694   -70527   -57298   -48466   -41247   -38818   -43288   -48736 
  -54185   -63389   -75371   -86390   -94813  -100317  -101219   -97143 
  -90045   -81214   -71221   -59924   -47312   -35482   -27225   -23758 
  -24094   -26121   -28627   -33090   -41995   -53902   -65233   -73688 
  -76667   -74541   -71115   -68064   -65194   -61414   -57339   -56273 
  -56832   -56389   -57339   -60077   -63126   -66983   -70426   -71345 
  -70041   -68980   -70092   -72715   -76725   -82209   -86378   -87540 
  -84582   -75430   -62801   -51202   -41825   -33881   -25456   -16897 
  -10619    -7440    -7283   -10255   -15352   -20183   -26329   -35641 
  -41340   -40487   -37602   -32167   -26444   -24431   -21428   -16676 
  -15708   -19133   -24542   -31021   -38888   -47634   -57551   -69128 
  -78252   -83968   -90312   -95830   -98967  -101772  -101953   -96181 
  -85897   -73639   -59212   -43218   -29215   -18745   -11954    -8814 
   -6243    -2436     2427     7684     8108     1078    -8696   -18712 
  -29469   -41030   -54333   -69537   -83880   -92810   -94810   -91466 
  -83940   -75019   -66875   -58542   -50572   -43831   -36757   -28818 
  -22192   -20265   -24369   -32278   -40580   -45975   -47768   -48690 
  -49262   -47771   -45074   -42700   -40315   -36995   -32795   -29377 
  -28547   -30517   -33876   -37249   -40433   -43183   -44995   -45425 
  -43374   -38513   -32208   -26131   -22625   -23927   -29371   -37736 
  -49237   -61170   -69816   -75575   -79079   -79959   -79441   -77966 
  -74672   -68984   -62139   -56900   -53433   -50179   -46129   -40037 
  -32390   -24613   -17697   -13343   -11553   -10496    -8596    -4783 
     229     5446    11191    16727    20057    19880    17866    18590 
   24447    33639    42609    47989    49361    48757    47323    44748 
   39337    30057    18890     9328     4139     2875     2541     1886 
    2087     3653     4820     4863     3814     -657    -7357   -13809 
  -25675   -46321   -68319   -86599  -102066  -113695  -122262  -128362 
 -126797  -117392  -103492   -85342   -65405   -42185   -16257     2500 
   13684    25389    38115    46281    46262    40726    32782    23188 
   15659     9306    -2304   -16415   -27286   -36771   -46035   -54679 
  -63304   -70791   -76050   -78751   -76900   -67725   -53287   -39178 
  -27943   -19194   -12456    -7143    -1845     4463    12145    19064 
   21372    17104     4216   -14865   -32823   -48668   -64205   -78072 
  -89655   -96383   -94851   -86941   -76794   -66274   -55947   -47732 
  -42238   -38185   -36075   -34345   -31422   -30008   -29745   -28718 
  -29340   -31652   -31395   -28213   -25463   -24197   -23643   -22918 
  -20450   -15412    -9984    -6602    -4825    -5574   -10388   -16783 
  -23493   -30496   -34894   -36339   -36408   -33249   -25501   -17209 
  -12761    -8620    -1215     3020     2279     4688     9632    13476 
   21446    31691    37489    43735    52421    57961    63641    70158 
   69383    62281    55613    46924    32442    18689     7514    -5801 
  -15622   -19429   -23407   -25907   -23953   -20693   -17626   -13309 
   -9281   -10392   -17193   -25807   -34758   -44584   -53560   -58905 
  -63081   -69195   -73249   -73212   -72508   -71793   -68899   -63413 
  -57623   -52105   -45410   -41146   -44787   -50567   -50184   -48444 
  -46810   -43055   -44208   -47870   -48345   -48418   -46970   -45467 
  -45705   -45609   -46448   -48109   -51836   -58209   -63684   -69907 
  -78619   -87696   -96210  -102351  -104599  -102471   -95598   -85093 
  -71863   -58052   -45468   -31545   -15261      330    12516    19711 
   23014    25656    27817    28432    27948    25439    21839    20629 
   21143    19613    15940    13027     9648     3574    -4609   -16180 
  -28821   -37911   -44571   -48069   -46647   -43109   -39239   -35616 
  -33121   -33532   -38634   -44717   -47879   -49239   -48089   -42856 
  -35007   -25178   -13708    -2660     6555    13333    17582    19929 
   20471    18583    11964    -1448   -18247   -32833   -44067   -52159 
  -54892   -52897   -49465   -43952   -36496   -30853   -27102   -23347 
  -20450   -19192   -18901   -20010   -25705   -38584   -54409   -66771 
  -77374   -88735  -100238  -113886  -124728  -126283  -122277  -115454 
 -105738   -92330   -72836   -50516   -32189   -20561   -12229    -3477 
    2453     2149    -2176    -9290   -19511   -32108   -47013   -62071 
  -73718   -82804   -90662   -95064   -94976   -88363   -72361   -53363 
  -37896   -22651    -8920    -2264    -1922    -7445   -19228   -33711 
  -46065   -54786   -63821   -73951   -79482   -79127   -76342   -72700 
  -70651   -71729   -73363   -74453   -74653   -75286   -80477   -88094 
  -93909   -98817  -103580  -107330  -108225  -106249  -103814   -99043 
  -90251   -80220   -68065   -52737   -37908   -24560   -11208     2137 
   15218    27022    36377    43612    48428    50031    49629    48978 
   48526    47756    47300    47722    46842    44979    44542    44180 
   43087    42717    43132    43972    44815    46277    50450    56494 
   62396    68306    73076    74512    72449    68769    64650    58353 
   48409    34611    16682    -3219   -20873   -32690   -37945   -39615 
  -39890   -38232   -34597   -29616   -24227   -20977   -20697   -20617 
  -19611   -18691   -17221   -13732    -6988     3044    13497    20689 
   23795    25336    27696    30191    30936    29294    25002    17537 
    7113    -6056   -21674   -38199   -54649   -70681   -86285  -101972 
 -113659  -116568  -113841  -108309   -99538   -89371   -77127   -61982 
  -47396   -36229   -28086   -23781   -26650   -32762   -38112   -46042 
  -53879   -59430   -67017   -77150   -86216   -90869   -91573   -87600 
  -78645   -69091   -59518   -52074   -47793   -39045   -26923   -19002 
  -14090   -10649    -8977    -5876    -1775     -285     -610      706 
    6148    16405    30685    48133    67773    86899   101612   111058 
  118911   126037   128609   124835   113082    93801    73387    54613 
   37080    22939    12836     6060      914    -3898    -7191    -9458 
  -12855   -18007   -23339   -28521   -36095   -45819   -55782   -66490 
  -79779   -96195  -106164  -101319   -93035   -82716   -59551   -38533 
  -25614    -3037    19965    30015    38387    45000    42607    38617 
   35130    22685     1826   -15811   -31463   -50284   -62462   -69395 
  -80039   -86827   -89467   -95953  -100956   -97850   -88058   -74526 
  -57702   -38645   -22888   -10207     5556    18442    19172    13013 
    5005    -8170   -24000   -38235   -54493   -73143   -88700  -100470 
 -109598  -113201  -110152  -101993   -87083   -69312   -58181   -50385 
  -40980   -34973   -29911   -24624   -27535   -37665   -49758   -61853 
  -68956   -71608   -76910   -84770   -87918   -84819   -78959   -71037 
  -63423   -57191   -49158   -41365   -38091   -39524   -42151   -39868 
  -32951   -27374   -22835   -16507   -10211    -5524    -3252    -5349 
  -10380   -15288   -19034   -20748   -21087   -23044   -30072   -42241 
  -54769   -63557   -69010   -74965   -82234   -87162   -89262   -89114 
  -84358   -76009   -69838   -68013   -66109   -61856   -58692   -57857 
  -56227   -53694   -53454   -53680   -50055   -43653   -37896   -33900 
  -30461   -25986   -20250   -14549    -9542    -4090    -1483    -4690 
   -6048    -1799     1724     3833     6262     4947     -911    -6843 
  -11607   -16674   -22654   -30752   -41417   -52093   -59918   -65648 
  -70212   -71443   -70250   -68509   -64260   -58672   -54781   -52491 
  -51931   -52623   -52393   -50077   -46302   -43413   -42632   -41694 
  -39390   -37127   -34277   -30950   -29512   -29075   -28719   -29626 
  -31694   -34460   -37275   -41072   -47693   -55822   -63228   -68441 
  -71070   -72747   -73980   -73475   -69531   -60985   -50415   -41487 
  -35525   -32908   -30494   -25415   -20381   -16298   -11586    -7609 
   -5228    -2725       30     -386    -5184   -10911   -16390   -22263 
  -26887   -30397   -33485   -33805   -30722   -25877   -20150   -13943 
   -6411     2502    10617    16234    18984    20653    22925    24540 
   24613    23588    21932    20100    17051    10648     -541   -15175 
  -29760   -43405   -56369   -66976   -74935   -81451   -86775   -90654 
  -92735   -92641   -90631   -88136   -85538   -80305   -71479   -62019 
  -53726   -45837   -37923   -29872   -21992   -15904   -11366    -5370 
     937     3407     3422     3818     2844     -403    -3057    -3802 
   -5242    -9602   -15393   -21217   -27905   -33887   -37721   -41322 
  -44664   -45485   -42337   -37314   -34688   -32673   -27406   -20680 
  -14905   -11906   -13036   -15771   -18851   -22847   -25798   -27590 
  -28552   -25948   -20079   -13472    -4668     7643    19034    24455 
   23466    17730     8184    -5637   -23399   -41957   -58776   -74142 
  -89279  -103993  -116103  -124146  -126410  -120278  -108201   -94038 
  -75894   -52943   -29075    -7339    11136    24466    29974    27851 
   20389     8038    -9235   -32046   -60781   -89406  -109404  -118601 
 -118197  -110985  -102269   -92824   -78616   -59422   -39536   -22340 
  -10989    -8867   -13203   -18525   -24437   -32472   -43351   -55979 
  -67196   -75306   -80140   -81426   -79367   -74514   -66625   -55526 
  -43194   -31632   -20567   -10295    -3010     -622    -3072    -7961 
  -13759   -20208   -24138   -24009   -23755   -25168   -25981   -26192 
  -27530   -27629   -24531   -23251   -26390   -29714   -32779   -38303 
  -44728   -49614   -52431   -53342   -52994   -51288   -48607   -45073 
  -37880   -26562   -16072    -9448    -4866    -2253    -4621   -10988 
  -17183   -22452   -27153   -30306   -32322   -34092   -35086   -33966 
  -30207   -24757   -17628    -7813     3621    14675    25109    35018 
   43372    48638    49574    46944    42373    35634    25553    11712 
   -2949   -15010   -24715   -30372   -31244   -31305   -30205   -25451 
  -17838    -7960     2322    12886    24724    29881    29268    35937 
   40656    31391    20055     8972    -7610   -20618   -29096   -41416 
  -50641   -46445   -31846   -14169     2203    13997    23169    35038 
   45413    48282    45526    39366    32858    27522    21069    12495 
    2189    -6376   -10249   -10701    -9294    -7158    -4911    -4053 
   -4985    -4324    -3792    -7499   -11942   -15579   -21807   -30687 
  -41252   -52963   -63757   -71717   -75464   -74219   -70058   -64563 
  -54782   -41195   -30022   -22823   -15572    -7612    -2206     1061 
    3857     3727       26    -4238    -8125   -13082   -18900   -24727 
  -31280   -37450   -41323   -42338   -40821   -39988   -40809   -40537 
  -40496   -42969   -46179   -48355   -49223   -49899   -53512   -58704 
  -59450   -57620   -57487   -56362   -55544   -55626   -50826   -42515 
  -33603   -23667   -17176   -14465   -10507    -5716    -1115     3661 
    7145     9472     9585     6716     3426    -1555    -8169   -11582 
  -11769   -11240   -10512    -7417      747    10796    19486    24404 
   20763    12405     5083    -3287   -12907   -23092   -32978   -39173 
  -42116   -43973   -46536   -51889   -58001   -60595   -59523   -57751 
  -55867   -54319   -54376   -53692   -51341   -49655   -49724   -53155 
  -58520   -61672   -64413   -68829   -72951   -76636   -79820   -82179 
  -83671   -82746   -80226   -76746   -70610   -63763   -58674   -54294 
  -49858   -45407   -40751   -36044   -32070   -30291   -30801   -32868 
  -37376   -43725   -49597   -55101   -60235   -62218   -59749   -54505 
  -47028   -36877   -25630   -14151    -2096     8275    14949    18575 
   18654    14340     7134    -1753   -11536   -20282   -26871   -31455 
  -35511   -40204   -43212   -41690   -35351   -25422   -13927    -3071 
    5943    13882    21635    28498    33251    34717    32811    28017 
