Origin Time       2011/03/11 14:46:00
Lat.              38.103
Long.             142.860
Depth. (km)       24
Mag.              9.0
Station Code      KNG007
Station Lat.      35.3385
Station Long.     139.4901
Station Height(m) 14
Record Time       2011/03/11 14:48:02
Sampling Freq(Hz) 100Hz
Duration Time(s)  300
Dir.              U-D
Scale Factor      3920(gal)/6182761
Max. Acc. (gal)   36.909
Last Correction   2011/03/11 14:47:47
Memo.             
[...]
   13189    19259    24303    25662    22653    17581    14595    15626 
   17724    17003    12152     3641    -5677   -10928    -9898    -4974 
     240     3503     4538     5628     9755    17192    25378    31810 
   35879    37678    36882    34076    30820    27875    25052    21362 
   15239     7014      251    -1219     2262     6022     6012     1921 
   -3942    -8148    -8508    -6373    -4440    -3180    -1763     -505 
    -162     -508     -590      586     2912     4802     5017     3889 
    2480     1137     -577    -2239    -3028    -3791    -5969    -9536 
  -13284   -16261   -18089   -17991   -16155   -15200   -16881   -19602 
  -20245   -16453    -9030    -2069     1370     1722     1147     1680 
    3963     6991     9514    11135    12302    13514    14724    15734 
   16028    14407     9947     2983    -4568    -9561    -9470    -4735 
     939     3680     3253     2618     3468     3984     2366     -262 
   -2562    -4497    -5090    -3538    -2355    -4953   -10766   -15876 
  -17269   -14421    -9020    -4573    -3656    -5632    -8201    -9451 
   -8582    -6193    -3724    -1876     -296     1043     2447     5030 
    8684    12171    14697    15330    12882     7478     1169    -2824 
   -2200     1253     2121    -2454    -8763   -10224    -3726     6813 
   13497    13446    11790    13911    19005    22911    23637    21990 
   19661    18371    18803    19047    16848    14740    17117    22387 
   24498    20126    12536     8919    11557    14732    12558     5447 
   -1263    -2473     1992     7719     9956     6431    -1294    -8673 
  -12061   -11704   -10449    -9376    -6776    -1280     6086    12196 
   13801    10177     5316     4700     8565    13320    16407    16529 
   14503    12962    12635    11516     8165     5008     5748     9560 
   12649    12904     9361     2456    -3955    -6449    -5849    -3658 
      35     3766     5265     5396     7629    13060    19429    24316 
   25478    21111    13361     6877     3679     3643     6022     8960 
   11297    13027    12812     8001    -1710   -11956   -16652   -12887 
   -3395     4337     3990    -3597   -12362   -16214   -12467    -4195 
    1979     1840    -2500    -4948    -2780     1459     4644     5371 
    4254     3381     4325     6848     8856     9135     8400     6226 
    1085    -6665   -13314   -14425    -9792    -3192     1509     2118 
   -1405    -7026   -12322   -15263   -13494    -7445    -2100    -1259 
   -4696   -10678   -16595   -19036   -16021    -9712    -4750    -3073 
   -3773    -5804    -6955    -4438     1334     6247     6294     1938 
   -2156    -1939     2641     8698    14421    20092    25022    27688 
   28007    26377    22883    18901    17245    19527    24085    27621 
   27972    24483    17785    10516     6538     7740    12577    17922 
   20823    20343    18842    18958    19796    18094    12197     3622 
   -4433    -9161    -9904    -9419   -11502   -15676   -17917   -16525 
  -13384   -11602   -13088   -16093   -16266   -11934    -6772    -5004 
   -6603    -9092    -9213    -4387     2374     4546      953    -3489 
   -3590     1760     6885     3886    -7134   -17782   -20861   -15294 
   -5150     2506     1949    -6681   -16794   -19469   -11497       82 
    5246     2524      194     6072    18075    26436    24039    12536 
     652    -2277     5585    16259    19870    14915     8272     6295 
    9820    14655    14554     8050      751    -1445     2434     8819 
   11908     8329     1551    -1204     2214     6445     5891      590 
   -5681    -8870    -5827     2175     8344     8564     5534     2595 
     901      625      869     1314     2399     3594     4799     6649 
    7665     5279     -112    -5243    -7190    -5652    -2576      172 
    1016     -948    -3983    -5739    -5735    -4210    -1640      945 
    2729     3503     3560     3651     3877     2536    -1931    -8620 
  -15637   -21437   -23888   -21502   -16199   -11862    -9968    -9111 
   -7670    -4975    -1630      550      303    -1869    -4823    -7356 
   -8012    -6000    -1660     3762     7814     8150     5651     3816 
    4890     8785    13486    15581    13110     7583     2603      876 
    1977     3484     4190     5006     6834     8626     8003     2836 
   -7045   -17589   -22669   -20793   -16234   -13292   -12525   -12013 
   -9974    -5786     -788     1554     -959    -6253   -10349   -10562 
   -5688     2770    10013    12992    13936    16316    20540    24399 
   25352    22598    17875    14095    13634    16987    21523    23357 
   21032    15648     8911     2486    -2322    -5172    -6414    -6450 
   -5992    -5606    -5380    -6186    -8595   -10907   -11036    -8425 
   -3759      653     2456     2670     3708     5880     9014    11914 
   11324     7336     4078     3523     4516     5096     3893     1528 
    -738    -2196    -1448     2076     6452    10100    13778    18374 
   22861    25953    27410    26486    22744    17819    14702    16346 
   22307    27420    27261    22950    19067    18477    19289    16538 
    7366    -6104   -18152   -22938   -19294   -12629   -10329   -15078 
  -22705   -26347   -22387   -12769    -3746    -1119    -3948    -6200 
   -4507       -9     4220     5036     2109    -1281    -2796    -3772 
   -5953    -8853   -10637    -9671    -6048    -2053     -766    -3477 
   -7734   -10237   -10834   -10497    -9975   -11446   -15618   -19573 
  -20696   -19453   -17455   -15022   -12036    -9479    -7868    -6404 
   -4782    -3419    -2477    -2121    -2213    -1508     1241     5344 
    8399     9350    10299    14286    22230    31878    39298    41847 
   40316    38171    37617    37238    34568    28893    20941    12504 
    6127     2386     -835    -4702    -8461   -11920   -15479   -18654 
  -20253   -19574   -16802   -13110   -11250   -13251   -17137   -19421 
  -19304   -18144   -17525   -18441   -20218   -20953   -19819   -18124 
  -17666   -18288   -18099   -15804   -12456   -11122   -13218   -15726 
  -14370    -8255     -312     5879     9599    12109    13254    12928 
   12885    14279    17335    21070    22677    21205    17634    12340 
    7521     6372     7844     7364     1790    -8467   -20469   -30827 
  -36641   -36467   -32304   -28285   -26389   -25323   -22987   -17930 
   -9501      425     7313     8427     5537     2760     3538     8047 
   12400    12403     8716     5891     6245     7917     7981     5696 
    3737     4722     7914    11311    12085     6811    -2523    -8222 
   -6550    -1700      344    -2671    -7789    -9140    -4206     3588 
    9254    10393     8070     5317     4104     3801     2456     -480 
   -2908    -2169     2108     6849     7549     3463    -1619    -4363 
   -3380      994     4853     4144     -123    -4059    -4615     -503 
    5513     7525     3403    -2936    -6793    -6293    -2839     -486 
   -1935    -5364    -7225    -6107    -3116      -27     3123     8230 
   16029    23816    27702    26669    22762    18069    13730    10906 
    9825     8274     4015    -2587    -9228   -12189    -9104    -2582 
    2289     2031    -2617    -6188    -4096     3129    11663    16349 
   13592     5398    -1305    -1178     4498    10329    12189     9477 
    5001     2821     4391     6856     5705     -255    -7958   -14646 
  -19749   -23392   -26590   -29880   -31563   -29982   -25568   -20159 
  -15668   -13529   -13865   -14253   -11301    -3693     5664    11057 
   11121    10894    14841    22990    31739    35396    30880    21997 
   16182    17087    22316    26292    23875    15043     5770     1914 
    3639     5823     4297     1134      848     3660     6102     5886 
    3317      540      763     4473     7606     6886     3198     -535 
    -351     5908    14373    18682    16889    11796     6899     4334 
    4772     6701     7869     8328     9658    12517    16029    18452 
   18867    17538    14627     9979     4314      456     1650     7352 
   12798    13161     7203    -1072    -5470    -4365     -962     1496 
     641    -3768    -8144   -10297   -13139   -19228   -26945   -32263 
  -31051   -22654   -10997    -1027     3773     3052      119    -1691 
   -1528    -1048    -3998   -11421   -18840   -22440   -22425   -19822 
  -16903   -16652   -17792   -16754   -13771   -11468   -10552    -9846 
   -8146    -5117    -1921     -748    -2661    -6725   -10940   -12858 
  -10885    -6009     -789     3524     7840    12933    17154    18251 
   16993    16161    16858    18467    20106    20377    18875    18202 
   21429    28191    34503    35571    29145    18117     9543     8201 
   12177    16409    17020    12386     4297    -2713    -5411    -4428 
   -2363     -657      537     1377     2290     2910     2181      455 
    -807    -1198    -1871    -4146    -7064    -7262    -2925     3914 
    9054     8804     3173    -3552    -6925    -5393      281     7627 
   13564    16446    16153    13428     9701     6595     5549     6458 
    7248     6256     3794     1999     2929     6296    10445    13810 
   15095    14374    13064    12430    13638    18347    26692    34764 
   37484    33964    26498    17629    11051     9163     9575     9204 
    8214     7591     7157     5956     2719    -3026    -9891   -14835 
  -15713   -14067   -13606   -16210   -20854   -24961   -25850   -23673 
  -22167   -23439   -25513   -26084   -24026   -19209   -14412   -13754 
  -16883   -18145   -13636    -6109     -928     -164    -2408    -4795 
   -3487     2908     9774    12004    10095     6853     4511     4641 
    5618     4679     2693     2296     4083     6755     8935     9450 
    7497     4485     3062     3651     4714     5131     4762     3793 
    2607     2556     4978     8957    11944    12088     9716     7077 
    5778     5498     5345     4413     2027    -1314    -4349    -6128 
   -6373    -6288    -7747   -10338   -11952   -12032   -11439   -10473 
   -9116    -8008    -7739    -7753    -6493    -3340      117     2002 
    1882      427     -626      571     3572     6322     8460    10961 
   13741    16315    18467    18779    16203    12969    11522    11476 
   12150    12955    13081    13897    16731    20121    22680    24245 
   24302    22532    19492    16165    13863    12897    11110     6021 
   -1858    -9211   -12917   -11839    -7028    -1926     -137    -1767 
   -3798    -3439     -510     2784     4799     5542     5114     4434 
    5278     7570     9740    11083    11655    11314     9865     6889 
    2144    -1938    -1188     4686    10117     9074     1846    -5691 
   -8344    -5428    -1080     -354    -3576    -6065    -3010     5745 
   15752    22212    23054    20277    18653    20374    22793    22775 
   20039    16583    15387    17264    19578    20921    22679    25235 
   27024    26303    22530    17049    12653    11328    11308     8634 
    1837    -7241   -15245   -20005   -22765   -25735   -28916   -30258 
  -27563   -21454   -15310   -12129   -12749   -14821   -14740   -11779 
   -7287    -2428      424     -558    -2995    -4074    -3971    -2622 
      84     3030     6620    11406    15149    14877     9746     2436 
   -2223    -1817     1830     5086     4485    -1135    -8078   -10669 
   -7141     -151     5778     6250     1054    -4622    -6405    -4480 
   -1222     -376    -4913   -11956   -15056   -11527    -4239     1035 
      33    -6178   -12223   -12881    -7462     -627     2476      916 
   -3208    -7570   -10258   -10648    -9822    -8714    -6983    -4329 
   -1025     2771     6225     7098     3720    -2460    -7899   -10622 
  -11222   -10806    -9946    -8576    -5772     -701     6542    14920 
   22239    26672    28829    30563    32694    34239    33201    28804 
   22796    18491    17320    15789    10021     2305    -2596    -4021 
   -4365    -5949    -9265   -12171   -12927   -12902   -14564   -19036 
  -25524   -31295   -32851   -28567   -20666   -14396   -13759   -17421 
  -20009   -16839    -7455     3181     8139     5323     -843    -4757 
   -4388    -1131     2287     3056      366    -3033    -4101    -2830 
    -423     2696     6724    12128    17922    21787    23586    24985 
   26925    30410    35507    39611    39621    34208    25535    18716 
   15793    13459     9166     4601     1891      738       25     -973 
   -2691    -4338    -4096    -1315     2248     3465     1302    -1197 
    -836     1735     3454     2415      274      -49      604     -846 
   -4904    -9645   -13039   -14725   -16745   -21747   -29025   -33574 
  -31166   -21848    -9412      499     4788     5132     5622     9002 
   13944    16803    15357    10169     4339     1300     1975     5463 
   10683    15722    18303    17314    13095     7434     2784     1193 
    3488     8331    12888    14703    13684    12480    13730    18289 
   25727    33970    39994    42249    41662    41010    41987    42670 
   40694    36819    33409    31336    28987    24292    17026     9236 
    4433     5017     9828    15274    17906    15772    10014     4151 
      32    -2688    -4101    -3936    -1687     3098     9120    14152 
   17462    19719    21938    24985    28795    31288    29739    24925 
   20691    18797    18167    17654    16790    15515    14329    13756 
   12823     9798     4990      489    -1952    -1697     -102     -357 
   -4141    -9419   -13261   -14498   -13122   -10293    -8567   -10042 
  -14482   -20179   -26159   -32203   -37859   -42663   -46291   -48822 
  -51061   -53472   -55392   -55882   -54821   -52906   -50909   -49572 
  -48649   -46552   -42626   -37416   -31547   -25936   -20716   -15106 
   -9397    -4336      661     6024    10320    12247    13154    15769 
   20659    25689    29239    31338    32085    31779    31111    30436 
   29959    29182    27148    24687    23381    23178    23584    23996 
   23468    22434    21572    20339    18822    17157    14074     9555 
    5622     3365     2410     1891      567    -1750    -3455    -3180 
   -1129     2116     6138     9407    10212     9626    10143    11656 
   12123    10271     6113      870    -3675    -6133    -6046    -4198 
   -3189    -5606    -9732   -11724   -10919    -8767    -7120    -7935 
  -11048   -13736   -12936    -7721     -689     3865     4056     2216 
    1949     4788    10220    15631    17110    13762     8819     6125 
    7387    10062     8244     -387   -10546   -15962   -16045   -13640 
  -11668   -12295   -15383   -17900   -16950   -13518   -10356    -7723 
   -4767    -1323     3084     8467    13605    17595    20813    23616 
   25464    26585    27885    28604    27305    23659    18038    11572 
    5683      471    -5014   -10536   -14187   -14433   -11500    -7110 
   -2927      432     2911     5560     9422    13211    15658    17589 
   19761    21911    23960    26106    27495    27323    27086    28010 
   28935    29244    29346    28928    28168    27161    24129    18110 
   11047     5297      893    -4169   -10936   -17890   -23065   -25924 
  -26818   -26878   -27615   -28424   -26913   -22468   -16857   -12277 
   -9662    -7690    -4225      986     5943     8143     6549     2747 
      -6      232     2322     3604     2717      980      328      123 
   -1469    -4190    -6723    -8514    -7967    -2791     5357    11470 
   13321    12767    12445    13422    14526    14424    14254    15962 
   18993    20983    20924    19571    17264    14216    11853    10744 
    9435     7279     5561     5071     4985     4203     2007    -1340 
   -3851    -4395    -4543    -5436    -6221    -5749    -3388      536 
    4768     7989     9846    11326    12926    13451    12495    11645 
   11415    10970    10578     9768     6745     1579    -4023    -8631 
  -11619   -13091   -12928   -11532   -10965   -12511   -14464   -14093 
  -10828    -6761    -3998    -1998     1388     6372    10679    12086 
    9761     5034     1288      799     1864      501    -4281    -9017 
   -9887    -5570     1145     4592     3193     1331     2812     7473 
   13238    17548    18488    17116    16847    19086    21377    21540 
   20569    19268    17416    15983    15827    17371    20794    23924 
   23684    20117    16485    15888    18985    24115    28093    28214 
   24690    19897    15690    12793    10946     8602     5191     2800 
    2959     4651     6049     5484     2464    -1047    -2446    -1465 
    -352    -1923    -6184    -9133    -7568    -2533     2521     4490 
    3266     1196      215     1929     6855    11533    11644     7826 
    3639      826     -662    -1332    -2282    -5142   -10287   -15894 
  -19676   -20523   -19196   -17981   -18103   -18005   -15716   -11441 
   -6391    -1543     2384     6137    10970    16302    21121    25635 
   30199    34737    38589    40754    41093    39287    34822    29612 
   25808    22302    17038    10120     3445     -337     1547     8902 
   16955    21515    22199    19939    16652    14864    14519    13264 
    9709     4757      344    -2573    -4242    -4977    -4577    -2830 
    -260     2097     3564     4571     5968     7589     8933    10270 
   11277    10289     6930     3619     2541     2913     2425      -46 
   -3921    -7919   -10861   -12220   -12242   -11384   -10155    -9416 
   -9937   -11787   -14168   -15465   -14474   -11906    -9470    -7856 
   -6778    -5372    -2640     1328     5976    10283    12517    13252 
   15306    19314    22503    22517    20650    19680    20790    22951 
   23347    20329    15576    11969    11055    12097    13081    12665 
   10438     7153     4523     3054     2301     2242     2197     1622 
    1640     3442     6988    11210    14275    14597    11829     7380 
    4327     4561     6142     5782     2539    -1656    -3768    -2453 
     527     2158     1123    -1296    -2486     -637     3415     6624 
    6447     2622    -2358    -4276    -1426     3186     5830     5502 
    3068      -61    -2992    -5749    -8078    -9300    -8986    -6902 
   -3853    -2134    -3129    -5287    -6522    -6695    -6284    -6120 
   -8111   -12656   -17305   -19841   -20158   -19202   -18148   -17350 
  -15988   -14098   -12813   -12335   -11827   -10304    -7680    -5439 
   -4443    -3926    -3344    -2955    -3279    -3624    -2111     1248 
    5190    10084    16811    25314    34750    43276    48800    50771 
   50503    49636    49265    49922    50902    50630    48776    46561 
   44766    43855    44228    44030    40991    36160    31356    26427 
   21332    16870    13215     9835     6375     2996      127    -1687 
   -2596    -4062    -6803    -9388   -10512   -10644   -10961   -12242 
  -14368   -16363   -17500   -17374   -15192   -10844    -5906    -2084 
     717     3243     5093     5672     5178     4836     5828     6318 
    3077    -3467    -9803   -13259   -13085   -10381    -8086    -8194 
   -9739   -11402   -13027   -14521   -15637   -16507   -18202   -21908 
  -27004   -31716   -35083   -36366   -34780   -31072   -27134   -24622 
  -23980   -23689   -22062   -19070   -15491   -12566   -11322   -10676 
   -8530    -4089     2221     8779    13341    15213    15689    16861 
   19971    23866    26290    26038    22630    16441    10010     6368 
    5951     7694    10752    13202    13549    12930    12477    11768 
   10974    11190    12739    15049    17362    18544    17673    15809 
