Origin Time       2011/03/11 14:46:00
Lat.              38.103
Long.             142.860
Depth. (km)       24
Mag.              9.0
Station Code      KNG011
Station Lat.      35.6151
Station Long.     139.1554
Station Height(m) 214
Record Time       2011/03/11 14:47:47
Sampling Freq(Hz) 100Hz
Duration Time(s)  279
Dir.              E-W
Scale Factor      3920(gal)/6182761
Max. Acc. (gal)   44.376
Last Correction   2011/03/11 14:47:32
Memo.             
[...]
  -45726   -38877   -32109   -29686   -29609   -27406   -22227   -18539 
  -20606   -25148   -23388   -19399   -26530   -38223   -41125   -40817 
  -43926   -47713   -48580   -44020   -38889   -39963   -42825   -40267 
  -34680   -34029   -38359   -38544   -34606   -35336   -40669   -46954 
  -50423   -46286   -40437   -37512   -33547   -31298   -33123   -33733 
  -30846   -29390   -32095   -33979   -33984   -35696   -37911   -40009 
  -43776   -46639   -44921   -39733   -33573   -27657   -23716   -22101 
  -21675   -22198   -21786   -18783   -17841   -23598   -32266   -38873 
  -43786   -47503   -48677   -47679   -47230   -48180   -46866   -41869 
  -37797   -36965   -36001   -31524   -24814   -21815   -24093   -25832 
  -24785   -24025   -26050   -29440   -29316   -27864   -30836   -33774 
  -33618   -34964   -37606   -38965   -38946   -38463   -39097   -41157 
  -43572   -43704   -41857   -41826   -42519   -42275   -42786   -42540 
  -39685   -36891   -35399   -32186   -29181   -31366   -34719   -34782 
  -36664   -42863   -46381   -43634   -40413   -39863   -39203   -37790 
  -37069   -38095   -39785   -38647   -34086   -28495   -25299   -27780 
  -32660   -34905   -37518   -41520   -40974   -37763   -38832   -41857 
  -43500   -46149   -48243   -46720   -45265   -46168   -45629   -44328 
  -45089   -44411   -42418   -42938   -43764   -44218   -44928   -42337 
  -37848   -35192   -33116   -30994   -29340   -29428   -34119   -39884 
  -40133   -38631   -40618   -41345   -39563   -40385   -42919   -43934 
  -42993   -41811   -43964   -47191   -45932   -43794   -46429   -48990 
  -45377   -39778   -38097   -38078   -37218   -36664   -35196   -35699 
  -40921   -42150   -37415   -35317   -34913   -31906   -28337   -24434 
  -20521   -22261   -29087   -32650   -33449   -36938   -40813   -41235 
  -39220   -38585   -41042   -45268   -50134   -53508   -53489   -52092 
  -51866   -51201   -48616   -47292   -48449   -48558   -46268   -43347 
  -39942   -35913   -33354   -31860   -29584   -28115   -26312   -20994 
  -15946   -15797   -19330   -24360   -28873   -31786   -34693   -37611 
  -38527   -36821   -33471   -31365   -32009   -31767   -28224   -24514 
  -23551   -24516   -24621   -22617   -21201   -23494   -28399   -31834 
  -31288   -29976   -33291   -40498   -46037   -46145   -42525   -39253 
  -37547   -38448   -40148   -36027   -27020   -21731   -23988   -28353 
  -27226   -25303   -30105   -33406   -29796   -27683   -27358   -26587 
  -32546   -39304   -36025   -31873   -32852   -33331   -36722   -39414 
  -29575   -20151   -22502   -25825   -31451   -35912   -28712   -23044 
  -24637   -25778   -25421   -21190   -19393   -25926   -28748   -23261 
  -21905   -29941   -38883   -41849   -41070   -41786   -45569   -49271 
  -51417   -53520   -54328   -54137   -55251   -56945   -59368   -61514 
  -58627   -52199   -50224   -51342   -49405   -48960   -51547   -49624 
  -43240   -37386   -32821   -29066   -25998   -22498   -18807   -17902 
  -18344   -17864   -19672   -20240   -16733   -17936   -23483   -26638 
  -30448   -34678   -34351   -31553   -32022   -35639   -34991   -28890 
  -25880   -28262   -31798   -33364   -31014   -28317   -29035   -31471 
  -33050   -33449   -36942   -40916   -36845   -31780   -36024   -43687 
  -47313   -48497   -49038   -47541   -45913   -46865   -46766   -43223 
  -39802   -39079   -39615   -38932   -39578   -43425   -45661   -45943 
  -48061   -49380   -45591   -39210   -36259   -37867   -39299   -37563 
  -34600   -30915   -26623   -24179   -22809   -23113   -27192   -31052 
  -31940   -30875   -30364   -33751   -36922   -34777   -30974   -29708 
  -30885   -32370   -32764   -32244   -30850   -29559   -28333   -27574 
  -29903   -31888   -31872   -35096   -37551   -34703   -30849   -26742 
  -21955   -17778   -16634   -22021   -29006   -29260   -24237   -21182 
  -22737   -24530   -24850   -28848   -34740   -35639   -33951   -33027 
  -31952   -30427   -28032   -28203   -31393   -30737   -26447   -25618 
  -29907   -34205   -34960   -35287   -37844   -39647   -39984   -43216 
  -47908   -47858   -43935   -41632   -42440   -41513   -36258   -33601 
  -37760   -43033   -44314   -42436   -40222   -39776   -41429   -43621 
  -46002   -49625   -52620   -50827   -45264   -41817   -40354   -37313 
  -36149   -39765   -42522   -39658   -35845   -38568   -46048   -50843 
  -52787   -54963   -55523   -54232   -54449   -56128   -54731   -46941 
  -38009   -34503   -31610   -25161   -20981   -22033   -24882   -25436 
  -22578   -20290   -22202   -25376   -25280   -26269   -34009   -41454 
  -41963   -40761   -40781   -38676   -35738   -36835   -40558   -38680 
  -30772   -27659   -30809   -33282   -34371   -33800   -33647   -35349 
  -33734   -30698   -30223   -30304   -29652   -25441   -18805   -16989 
  -18786   -18140   -17117   -18302   -18672   -17584   -17700   -18707 
  -18921   -21075   -27721   -34322   -37166   -40464   -46474   -49304 
  -45312   -39006   -35096   -34865   -37748   -39198   -37000   -35652 
  -35331   -33523   -32039   -29986   -26897   -25420   -24636   -23895 
  -23878   -24668   -27781   -31671   -33607   -36770   -42761   -45674 
  -42473   -37971   -36152   -35588   -34682   -33865   -33219   -33422 
  -33799   -32720   -32848   -35194   -36258   -37120   -42103   -48970 
  -50711   -47748   -47295   -49397   -47760   -42452   -40203   -43610 
  -46576   -44425   -40752   -39544   -42773   -48226   -49275   -49671 
  -53639   -52683   -45956   -40588   -37618   -35299   -31632   -29634 
  -34240   -39171   -38108   -38734   -45275   -49190   -49424   -51932 
  -53979   -52247   -46295   -37884   -33163   -30634   -26066   -22949 
  -23660   -23694   -17020    -8854    -9452   -16100   -20498   -19732 
  -18270   -24067   -32679   -33817   -31670   -34788   -41117   -43769 
  -41144   -38461   -39608   -42857   -45850   -49496   -54984   -57638 
  -54091   -49359   -45966   -43806   -45099   -47572   -46640   -41948 
  -37433   -37404   -40981   -43126   -40950   -38599   -40567   -40147 
  -33163   -29423   -32932   -37631   -40223   -39847   -37982   -38276 
  -39896   -38883   -37596   -41016   -45786   -46120   -44303   -45580 
  -46908   -41601   -33758   -31330   -30520   -26102   -22664   -22450 
  -22261   -23697   -28024   -29477   -28721   -34500   -42375   -41887 
  -37409   -36692   -40219   -43829   -41331   -34773   -32862   -34464 
  -29958   -19837   -14126   -15837   -19866   -20518   -19630   -25380 
  -33699   -32840   -28173   -32321   -40341   -42188   -43577   -50440 
  -53591   -47233   -40526   -39772   -39296   -36582   -35439   -33615 
  -30290   -30348   -31100   -28715   -26789   -30192   -36591   -37272 
  -35625   -38010   -35794   -30160   -33964   -43162   -46152   -43216 
  -39266   -35990   -34507   -33893   -32654   -34167   -36413   -33614 
  -31780   -35443   -36671   -32860   -33710   -40652   -42079   -38604 
  -40572   -45194   -44621   -40828   -40440   -43991   -44691   -41044 
  -39392   -39329   -37970   -36924   -34833   -35107   -43194   -51762 
  -52790   -50805   -53618   -60007   -63018   -61752   -60177   -58683 
  -57851   -57838   -51286   -40307   -34684   -27873   -19840   -20943 
  -21709   -15933   -12275   -10858   -11772   -16195   -16458   -13308 
  -15258   -17447   -12714    -7158    -7176   -10063   -10733   -10212 
  -14421   -23784   -29932   -25521   -20922   -30809   -39895   -34452 
  -32019   -36513   -38709   -41341   -41473   -38448   -39843   -41928 
  -36654   -28322   -25586   -28100   -32921   -39996   -44307   -41594 
  -38879   -40983   -42362   -40584   -38295   -37493   -38594   -39492 
  -38328   -35365   -32551   -31467   -32067   -34085   -35912   -37269 
  -39209   -39437   -38300   -39452   -42281   -45572   -47933   -44553 
  -35607   -28300   -27319   -31020   -35641   -39965   -42943   -41449 
  -36120   -31635   -29559   -27092   -22716   -20786   -24876   -29160 
  -28564   -28994   -34109   -37147   -34828   -31765   -30724   -30727 
  -30619   -30979   -31672   -30147   -28401   -31466   -37097   -41148 
  -45536   -51332   -54886   -55135   -56068   -57927   -56721   -53899 
  -52183   -49883   -48458   -50941   -54086   -55107   -55647   -51791 
  -41932   -36230   -37960   -43798   -52825   -58033   -57109   -53491 
  -46690   -39701   -34217   -30465   -32118   -35566   -33652   -28128 
  -24968   -26416   -30389   -32887   -32727   -31858   -29645   -25503 
  -23897   -25425   -25873   -26275   -28063   -31006   -35790   -38137 
  -35015   -33004   -38276   -46679   -52590   -56850   -58769   -54422 
  -44373   -37174   -42731   -52209   -46136   -34250   -35187   -40116 
  -41053   -37936   -33650   -37241   -41198   -39368   -40685   -45522 
  -50566   -54629   -54671   -48770   -39080   -31789   -29089   -28449 
  -30747   -34849   -32989   -28990   -31249   -31915   -32791   -37927 
  -34436   -30330   -36861   -44502   -48423   -42121   -29085   -24296 
  -21324   -13263    -8717    -9891   -13728   -16785   -14732   -11381 
  -15395   -26261   -34563   -37570   -41512   -44837   -42695   -39808 
  -38577   -38741   -42918   -45834   -41448   -33590   -25737   -18490 
  -16785   -21257   -22381   -19824   -25477   -37689   -41631   -35458 
  -31811   -36227   -40200   -37167   -32165   -30865   -32872   -37049 
  -41713   -43475   -42637   -43665   -46847   -46534   -42050   -40785 
  -44000   -45690   -46118   -45967   -41011   -31843   -22362   -17970 
  -22739   -29151   -30041   -33709   -47443   -62842   -70499   -70747 
  -66045   -59107   -51758   -42890   -37318   -36229   -29016   -20216 
  -20347   -19492   -14093   -15765   -27616   -39285   -40365   -37777 
  -41598   -46490   -45702   -40323   -35665   -32236   -22730   -13171 
  -22457   -38462   -28034   -10224   -19322   -31867   -30945   -25056 
  -14596   -14808   -28630   -40728   -43839   -40342   -44311   -50023 
  -47892   -50500   -55562   -56315   -58361   -61039   -66210   -70161 
  -62498   -57456   -57460   -49317   -56004   -69646   -55049   -43158 
  -53468   -53768   -43541   -37818   -32702   -34772   -51437   -65166 
  -62784   -56019   -54713   -54887   -54204   -51846   -44092   -41094 
  -48306   -44258   -30684   -27843   -24942   -16626   -11125    -5661 
   -8010   -21211   -26078   -19347   -19497   -27622   -32937   -39508 
  -51862   -65315   -74736   -77546   -76748   -75751   -71868   -64503 
  -60029   -56489   -46133   -38467   -41680   -44311   -39549   -31848 
  -27520   -29422   -29866   -27019   -34719   -50735   -58362   -61843 
  -68888   -71837   -68118   -63408   -61269   -60707   -60484   -58926 
  -49048   -32813   -23446   -21444   -20195   -21278   -26404   -36963 
  -48387   -49969   -49229   -59424   -69131   -66147   -58386   -51993 
  -47761   -47246   -44910   -38444   -35925   -37131   -34760   -29557 
  -24793   -28055   -42982   -55031   -57493   -56467   -51659   -47890 
  -48894   -43632   -31179   -25549   -30185   -36126   -33835   -25004 
  -21785   -24027   -27076   -37983   -53577   -63612   -69535   -72834 
  -69786   -59687   -49558   -45714   -42624   -33237   -21779   -17223 
  -18126   -13423    -4194    -2786    -9177   -21387   -40805   -54793 
  -60447   -70055   -79175   -77545   -68353   -62815   -64953   -61534 
  -47220   -37146   -39229   -42244   -35995   -26703   -17488    -3743 
    3890    -3253   -15232   -25079   -35200   -45663   -50539   -51087 
  -54760   -55578   -50347   -47774   -45145   -39352   -36167   -33907 
  -28882   -21517   -10995     -284     3007     1983     6882    13283 
   11165     3587      122      308    -4780   -13863   -22875   -35749 
  -48426   -52094   -50064   -51578   -57374   -55912   -40815   -30763 
  -36639   -38290   -31634   -25830   -18806   -22293   -38684   -53547 
  -63781   -63603   -59566   -69027   -75649   -58185   -35658   -38477 
  -55259   -45499   -21838   -20391   -13554     5776     3270    -2503 
    -267   -13951   -36140   -50893   -54053   -46194   -42067   -51194 
  -59583   -46656   -16214    -2621   -32919   -73849   -54672    -7588 
  -21004   -24606    31094    24405   -34596   -37818   -16683   -17112 
  -23779   -26548   -33238   -42555   -40412   -44170   -60013   -60016 
  -43896   -30786   -37141   -66975   -87251   -70662   -57210   -71401 
  -55171   -15432   -21526   -47298   -55582   -53812   -40001   -36600 
  -51492   -62488   -60611   -49234   -53028   -70039   -68263   -54162 
  -46945   -51377   -69553   -82951   -71721   -57544   -55618   -36414 
   -8708    -8386   -18312   -21025   -21458   -19328   -21637   -29725 
  -31276   -23158   -26493   -46813   -55828   -46142   -34134   -30542 
  -33974   -32268   -25370   -22594   -26098   -30372   -23686   -20207 
  -37080   -42942   -33441   -45539   -64859   -60925   -49301   -53539 
  -62583   -55985   -42026   -38425   -53937   -75721   -73492   -58983 
  -64371   -70876   -63964   -62277   -58816   -52936   -61685   -71121 
  -66985   -56755   -51063   -53264   -47340   -23134    -3256    -7749 
  -19090   -11102     8528    14941     8678     4422     4108     3390 
   -6275   -28260   -48053   -53367   -48931   -45860   -48470   -50755 
  -46166   -37898   -32592   -32297   -44613   -67505   -67130   -42725 
  -40421   -40498    -7591      946   -36450   -55593   -40731   -30669 
  -37488   -42310   -41647   -41233   -34264   -34571   -50348   -55247 
  -47006   -44946   -47468   -49735   -56184   -63764   -65816   -68056 
  -66342   -48471   -30352   -23220   -21536   -25230   -18492      133 
    5570    -1168     4065    25372    32768    15188      316    -7048 
  -18872   -29120   -32527   -29418   -24253   -26621   -37471   -49004 
  -57128   -61963   -61913   -57009   -50765   -45290   -39421   -34861 
  -36898   -37739   -27753   -19937   -22479   -22604   -17944   -18586 
  -21343   -16531    -9060    -9310   -16173   -21205   -22163   -25348 
  -32430   -37279   -38043   -38646   -41830   -47477   -54271   -60986 
  -65743   -68384   -69797   -65441   -56495   -54014   -54921   -50116 
  -46575   -47502   -45019   -39119   -36884   -39263   -41122   -43174 
  -47504   -47619   -42068   -39351   -40125   -35421   -24340   -17724 
  -20760   -27461   -32923   -32619   -25280   -20062   -16854   -13367 
  -19805   -24905   -17449   -14319   -12970    -5953    -6368   -11316 
  -14102   -23672   -39262   -50940   -58469   -64315   -64929   -58584 
  -56086   -69931   -77895   -56971   -46141   -56643   -39475   -15500 
  -22541   -30093   -25924   -19752   -15746   -19752   -24865   -34366 
  -43466   -37563   -39492   -56754   -56084   -35386   -21329   -25748 
  -50176   -74441   -65227   -47874   -57366   -48339   -14655   -14313 
  -32678   -37987   -36494   -31221   -32237   -37606   -46182   -56532 
  -44014   -25279   -27681   -27504   -14500    -8055   -14733   -26314 
  -30863   -26045   -19313   -10185     1432    -4708   -27934   -29642 
  -17407   -25362   -31751   -25801   -27799   -27679   -21724   -25151 
  -32716   -33741   -27798   -19375   -15677   -17885   -21878   -23820 
  -21713   -20306   -23091   -26562   -28315   -28559   -30335   -34861 
  -38670   -42686   -49084   -54363   -55613   -53411   -49410   -47340 
  -49729   -51542   -46953   -40123   -38191   -41019   -44687   -45086 
  -41426   -39942   -43588   -46653   -46612   -47875   -53087   -59591 
  -64634   -67032   -64194   -57845   -56156   -59733   -58451   -49560 
  -40554   -35629   -36593   -37839   -29942   -22392   -23915   -26423 
  -27938   -29832   -30133   -32665   -41230   -49877   -49593   -42906 
  -39149   -38074   -38502   -47180   -54986   -47050   -38979   -40084 
  -39320   -46830   -55578   -45218   -36243   -35660   -29589   -25496 
  -21965   -14497   -15060   -23471   -24128   -13995    -6923   -11378 
  -21913   -28584   -28102   -27232   -28772   -30553   -34317   -34987 
  -30766   -31810   -34945   -32104   -30390   -35750   -42361   -43421 
  -42509   -46401   -53439   -57567   -57888   -60938   -66194   -63613 
  -54708   -51762   -55781   -55241   -46923   -38567   -35700   -39004 
  -41632   -41756   -48043   -54810   -54188   -54128   -54205   -50160 
  -49573   -52121   -48005   -36840   -25948   -20502   -22694   -30424 
  -33452   -28975   -30663   -40266   -47435   -51446   -50379   -46656 
  -46337   -43579   -41557   -43930   -40159   -33935   -35872   -42240 
  -47362   -49653   -49691   -51399   -54751   -55781   -54331   -51736 
  -48872   -46867   -45983   -45173   -43264   -42506   -45331   -49965 
  -53071   -52867   -53293   -59584   -68297   -73000   -73366   -73085 
  -73092   -68081   -56316   -46695   -45125   -45283   -39604   -29746 
  -22489   -19824   -19300   -22353   -30944   -39303   -41993   -41287 
  -40469   -41399   -43402   -44087   -48141   -58847   -67641   -69281 
  -68011   -65831   -62313   -60556   -63815   -68911   -70404   -70868 
  -74439   -75805   -71931   -69368   -70278   -69576   -64474   -56606 
  -49268   -44742   -41686   -36208   -29279   -27871   -32904   -37076 
  -37677   -38113   -41043   -47411   -54643   -58250   -57523   -55113 
  -53873   -54945   -57167   -57558   -55244   -55465   -58240   -51865 
  -36465   -29013   -33602   -39765   -42852   -44195   -45973   -49666 
  -54156   -56899   -56540   -55246   -55668   -57276   -57116   -56132 
  -64011   -77954   -76581   -64830   -69387   -79785   -73625   -63245 
  -57714   -49728   -44991   -48402   -50140   -46183   -44028   -44519 
  -43726   -43891   -44701   -43264   -40567   -36929   -30702   -21671 
  -14524   -12330   -10116    -6916    -4817     2212    13729    16856 
   10389     6483     5525     2608      833    -4762   -15935   -18871 
  -15785   -19732   -24260   -21416   -15717   -12696   -15437   -20483 
  -22948   -23900   -23908   -21904   -19036   -17695   -15754   -11735 
  -14178   -23108   -29355   -37187   -43273   -36285   -29486   -32181 
  -32123   -30554   -36555   -43649   -41544   -32124   -25442   -23325 
  -21487   -22673   -28624   -34854   -38301   -39544   -41904   -46381 
  -51594   -56789   -59163   -57802   -53015   -45336   -41862   -45592 
  -47461   -41700   -35778   -36567   -36733   -30503   -25336   -24458 
  -23765   -23591   -24443   -22464   -16995   -14268   -17285   -20061 
  -18858   -17874   -21701   -28809   -32889   -32100   -31377   -33560 
  -35719   -34308   -30641   -28488   -27896   -26484   -24260   -23539 
  -24848   -26132   -27087   -29035   -31311   -32392   -32476   -33337 
  -36538   -41682   -46019   -47458   -46991   -45226   -41844   -39420 
  -39786   -39777   -37557   -35787   -34000   -30130   -27818   -29537 
  -32066   -33797   -37091   -43779   -50970   -52778   -48786   -46802 
  -51499   -57383   -59165   -58826   -60018   -61156   -57565   -52260 
  -51950   -54956   -57313   -58689   -59703   -61459   -62324   -60112 
  -57742   -57435   -56798   -54470   -52715   -55203   -61469   -64752 
  -60725   -53843   -50194   -47995   -44392   -45894   -55076   -62130 
  -63269   -63333   -61650   -56937   -52882   -50737   -49299   -49819 
  -52968   -54180   -49886   -45136   -44285   -42857   -38571   -35762 
  -35358   -36463   -39873   -40897   -37326   -36852   -40708   -42069 
  -41714   -45030   -51793   -59452   -67720   -74149   -75544   -75642 
  -81024   -90145   -93635   -92846   -98271  -102242   -96207   -89420 
  -81801   -70481   -63196   -60033   -57777   -56908   -53843   -46440 
