Origin Time       2011/03/11 14:46:00
Lat.              38.103
Long.             142.860
Depth. (km)       24
Mag.              9.0
Station Code      KNG012
Station Lat.      35.3793
Station Long.     139.2044
Station Height(m) 139
Record Time       2011/03/11 14:47:42
Sampling Freq(Hz) 100Hz
Duration Time(s)  300
Dir.              N-S
Scale Factor      3920(gal)/6182761
Max. Acc. (gal)   53.944
Last Correction   2011/03/11 14:47:27
Memo.             
[...]
    5409     6355     6284     7843    10959    13213    13440    13413 
   15145    17032    15572    10610     5744     3210     1681      215 
     -45     1241     2775     3141     1263    -3120    -8701   -14731 
  -22449   -31718   -39433   -42110   -38808   -32863   -28763   -27835 
  -29588   -32766   -33771   -29500   -21838   -15762   -14040   -15804 
  -18638   -20966   -22550   -23510   -24072   -23903   -22650   -21772 
  -22016   -21396   -18423   -13402    -7102     -848     4371     9125 
   13498    16598    19244    22007    22562    19448    14100     8623 
    5045     4308     4935     4826     3653     1815     -945    -3331 
   -2680     1383     8152    17550    27074    32738    33527    31039 
   27359    24421    22896    21975    20682    18023    12978     5943 
   -1311    -7536   -12981   -18162   -22599   -25495   -26881   -27529 
  -27232   -25040   -21556   -17869   -14384   -12198   -11876   -11656 
  -10407    -9960   -11270   -11792    -9875    -8427   -11468   -18573 
  -24583   -25336   -21760   -17084   -13328   -11412   -11222   -10738 
   -6941     1051    10209    16233    17667    16568    15117    13134 
   10516     9532    11333    12553     9068     1771    -4478    -6942 
   -6681    -4470      711     8407    16071    22400    28339    35041 
   41789    46867    50752    54358    55762    53113    47253    40209 
   33258    26478    20585    16934    15004    13322    12348    13692 
   16648    18032    16889    16170    17933    21015    24163    27478 
   30420    30462    25256    16615     9954     7977     8002     7157 
    5512     2919    -2433   -10814   -19049   -24149   -26944   -29660 
  -32669   -35500   -37904   -39252   -39465   -39209   -38790   -39148 
  -41165   -42516   -39125   -31074   -23561   -20305   -19745   -19193 
  -18375   -17378   -15102   -11250    -7049    -3367       38     3088 
    4635     4111     2923     3062     4362     4413     2715     2896 
    7861    14959    19138    19347    18400    17416    14838    10897 
    8948    11363    16564    21525    25156    27633    28884    29219 
   29485    30864    34404    38981    41416    39307    33474    27456 
   23509    21282    20258    19949    18990    16368    12163     7167 
    2835      -61    -2377    -4575    -5323    -3778    -2304    -4205 
   -7696    -6649     -152     5255     5013     1234    -2696    -6322 
  -10145   -13510   -15477   -15676   -13983   -10735    -6728    -2895 
   -1390    -3370    -5619    -5209    -4309    -5726    -7708    -6302 
   -1498     2031     1551     -367     -554     1092     2673     2281 
    -173    -2615    -2979    -1863    -1714    -3032    -4641    -6451 
   -7835    -7035    -4012       71     4727     9349    12876    14597 
   14120    11491     8317     7035     7304     6215     3022     -798 
   -4199    -6251    -7128    -9078   -13141   -17362   -19657   -19998 
  -19289   -17466   -14124   -10131    -7370    -7478    -9366    -9174 
   -5572    -1921    -1275    -3256    -7221   -13584   -20451   -23942 
  -22997   -21142   -22192   -25045   -25750   -23541   -20293   -16906 
  -13505    -9887    -5317     -427     1542    -1491    -5636    -5065 
    -942      356    -2850    -6277    -6766    -5683    -6079    -8025 
   -7975    -4106     1234     6351    12002    17488    20246    19575 
   17633    15924    12666     6140    -1247    -6108    -9144   -13222 
  -18760   -23816   -25996   -23450   -17549   -12442    -9191    -5687 
   -2414    -1784    -3828    -6974   -10334   -13395   -15751   -17302 
  -17700   -16718   -15691   -16719   -19461   -21293   -21091   -19538 
  -16480   -11150    -4034     3225     8836    12123    14346    16445 
   17235    16574    17107    19644    20869    19396    18392    18694 
   17154    13272    10186     9554    10178    10815    11090     9938 
    5401    -2675   -10862   -14927   -14216   -12189   -12274   -14362 
  -15511   -14277   -12999   -11907    -6584     3276    11730    15279 
   14902    12249     9575     8761     8490     6669     4402     3646 
    4149     4992     5467     4641     2524      623      421     1278 
     556    -3295    -8613   -11379    -8015      275     7945    12602 
   16622    20724    23069    23395    22530    20487    17966    15929 
   13026     7382      -40    -7167   -13338   -17668   -18825   -17778 
  -16630   -14983   -11407    -6921    -3875    -3410    -4844    -5585 
   -3025     1655     4744     6290     9832    15389    18859    18329 
   15985    14254    12934    10300     6361     2802     -176    -2940 
   -4161    -3630    -4033    -6773    -9373    -9459    -8178    -7427 
   -6868    -4958     -863     3970     6352     5634     5410     8639 
   13732    16980    16463    12450     6769     2797     2497     3564 
    2906     1024     -971    -4334    -8492   -11720   -16850   -26220 
  -34725   -36834   -35198   -35839   -39451   -41621   -38707   -32624 
  -29382   -30312   -29546   -23889   -17579   -14795   -14661   -14376 
  -12735   -10360    -7695    -4173      -42     3725     7869    13170 
   16510    14077     7727     3032     2326     2632      183    -4361 
   -6745    -4465      580     4842     7011     7857     8402     9391 
   10270    10108    10134    11965    14544    15008    11694     6197 
    1590     -788     -763      991     1350    -1666    -5422    -7932 
  -11392   -17130   -23187   -27975   -31035   -31679   -30591   -29470 
  -28355   -26268   -22447   -15318    -3790     9100    18369    23398 
   26687    28616    28739    28378    28231    26095    18778     5868 
   -8988   -21122   -29414   -36741   -44594   -49881   -49499   -43810 
  -34005   -21939   -11359    -2977     7531    21514    33547    39968 
   43009    43667    40579    35039    29711    25765    22049    15308 
    4759    -5427   -12106   -16947   -21209   -22928   -21108   -17841 
  -16184   -16390   -14388    -7071     3686    14585    23535    29380 
   33557    39024    45546    51057    56084    61160    63898    62434 
   57681    50713    42077    33731    27333    22727    19826    17422 
   12569     5288     -191    -1230       21      873     1107      829 
    -905    -5334   -13075   -22840   -31507   -37384   -41673   -45148 
  -46621   -45201   -41746   -38375   -35823   -32203   -26684   -20954 
  -15930   -11262    -7571    -6462    -8289   -10318    -8654    -3536 
     135      125     -330      976     2431     2010     -640    -3178 
   -2701    -1016    -2321    -5202    -4312     1206     8419    17114 
   27769    36651    40268    39552    36019    29674    20366     8826 
   -1203    -3830     2078     9847    12777    11186     9555    11365 
   16599    22578    28203    33830    37488    36985    33300    28464 
   23749    20060    16334    10363     2973    -3590    -9697   -16171 
  -21870   -25563   -27213   -27557   -27531   -26646   -22754   -15176 
   -6393      601     5340     8918    11313    11750     9735     4773 
   -2879   -11552   -18616   -21937   -22719   -24685   -27808   -27469 
  -22232   -16311   -12860   -10610    -7141    -1631     4752    10987 
   18188    26834    34926    40955    45251    48102    48799    46484 
   40601    31128    19176     5901    -8081   -20719   -29725   -36203 
  -42388   -46781   -45668   -38515   -29529   -22926   -18218   -13052 
   -7648    -3716    -2386    -3687    -6566   -10720   -17198   -24737 
  -29475   -30627   -30835   -30361   -26809   -19472    -9160     3392 
   16476    28127    37012    40788    37493    29816    23188    18737 
   12608     2715    -8468   -18688   -28039   -35455   -38450   -36686 
  -32292   -27825   -25932   -27325   -28343   -24877   -17161    -7826 
    1105     7198     8229     5420     2418     1701     3592     6837 
    9536    10100     8431     6514     6382     6958     4326    -3497 
  -13166   -19705   -22581   -25056   -28788   -31974   -32460   -31537 
  -32238   -34025   -34180   -32519   -29533   -24127   -16070    -7065 
    1457     9639    17682    23731    24745    21481    19705    22991 
   28080    29150    24631    17462     9066    -1097   -10639   -14628 
  -10383     -119    10623    18046    23270    29201    37556    48687 
   60506    69156    71671    67941    60534    51518    40536    27473 
   15332     7942     5575     4770     2218    -1383    -2534    -1098 
   -2126    -8991   -18398   -26022   -31663   -35627   -36623   -34558 
  -31759   -31295   -33890   -36479   -35635   -31481   -26016   -20142 
  -14324    -9401    -5670    -2518     1024     4643     5979     3906 
     518    -2365    -5415    -9209   -12091   -12659   -12572   -14192 
  -16893   -17361   -12921    -4483     4638    12880    20360    25363 
   25481    21619    17039    12578     6730      976     -719     1805 
    4394     3837      705    -2440    -4255    -5456    -6346    -5589 
   -3714    -4432    -9556   -16319   -21316   -23974   -25102   -23765 
  -17825    -7967     2071     9581    14714    19059    22580    23238 
   20547    16183    11755     7792     3788     -714    -6191   -13408 
  -20946   -25362   -25819   -24974   -23704   -18716    -7989     5044 
   14919    19425    20658    20982    19459    15381    12432    13357 
   14794    12779     7905     2513    -2932    -9275   -15372   -17884 
  -15548   -10899    -7187    -4488      678    10244    20537    26370 
   27439    27313    27476    26004    21613    16186    12629    11639 
   11030     7822     1858    -4702   -12435   -23842   -37416   -48396 
  -54200   -55012   -51177   -43207   -33484   -25636   -21665   -20062 
  -16881    -9862    -1616     3600     6090     9669    15076    19661 
   22659    26393    31988    36692    37276    33404    26533    19053 
   13934    11250     6650    -2837   -14110   -22248   -25718   -25789 
  -24020   -20698   -14730    -5828     3846    12195    19297    24987 
   28118    29378    31000    32460    30245    24165    18245    13917 
    9613     5447     2352      259     -430      601     1854     1577 
    -886    -5809   -12139   -16880   -17864   -16167   -13819   -10176 
   -3460     4339     7924     5502     1172     -474     1174     3910 
    6868    11543    18759    27485    35396    39695    39669    36771 
   31872    25458    18520    10934     2355    -5131    -8906    -9357 
   -9439   -10904   -12534   -12628   -10285    -4806     2815     9131 
   11259     9975     7780     4610     -855    -6829   -10158   -11314 
  -13880   -19006   -23322   -22592   -15531    -5052     5285    15342 
   25561    34111    39177    40656    39187    34342    26008    17593 
   12390     8528     3495    -1005    -2868    -2996    -3316    -5321 
   -9426   -14348   -19282   -24038   -26539   -25346   -22809   -21073 
  -18275   -12356    -4724     2777    10545    18802    25956    30799 
   33842    36784    41734    48035    51740    51694    50952    51226 
   51489    50085    45875    39804    33326    25257    14562     3526 
   -5493   -12934   -19251   -22559   -21660   -18130   -14031   -10655 
   -8887    -8881    -9722    -9837    -7754    -3262     1526     3782 
    2760      752     1055     4031     8045    13110    18629    21837 
   21662    19263    15365    10769     7626     8182    13018    20683 
   29005    36265    41251    43657    43372    39925    34317    27976 
   20289    11030     2414    -3380    -6706    -9561   -12643   -15117 
  -16727   -18030   -19704   -22178   -25728   -29884   -32045   -29652 
  -23768   -18170   -15114   -12907    -9767    -7591    -8096    -9773 
  -10945   -12547   -16625   -22617   -27512   -30492   -33641   -37290 
  -39493   -39923   -40098   -41325   -43150   -42681   -37474   -28817 
  -20701   -16156   -15365   -16701   -18266   -18942   -18182   -15294 
  -10799    -6824    -4254    -2555    -2184    -3468    -5551    -7005 
   -5355     -164     4869     7273     8082     8106     7367     6753 
    7398     8891     8070     1270   -10398   -20928   -25451   -24023 
  -19828   -15082   -10188    -5376     -858     3301     7977    14997 
   23597    29909    32131    31542    28770    24009    18964    15748 
   14489    12831     9260     5601     4033     3870     3288     2646 
    3751     6960    11367    16068    20257    23820    27220    30299 
   32338    32501    30107    25544    20397    16922    16968    20188 
   23326    22109    15627     7289      -26    -6726   -14233   -22087 
  -28302   -32391   -34768   -34392   -31648   -29297   -28303   -27840 
  -27483   -26588   -24681   -22027   -18020   -11401    -3085     4175 
    9688    14537    18052    19261    18633    16142    11237     4174 
   -3011    -7207    -7730    -6807    -5233     -616     8199    18454 
   27881    37172    46732    55510    61863    64065    63211    63164 
   65116    67517    70213    73333    75099    73176    67115    59018 
   51195    44752    40055    36599    33811    31167    27556    22887 
   18742    15829    12693     8190     3728     1839     2614     3771 
    5323    10168    19199    29390    37371    42264    44757    45767 
   45704    44407    42209    39831    36860    32483    27041    20818 
   13686     6469      987     -858     1197     4562     6312     6199 
    4794     2776     2950     7650    15951    24145    27607    24536 
   17357    10628     7827     8314     9201    10308    12762    13873 
    9676     1253    -6216    -9338    -9377    -9744   -11830   -14365 
  -16701   -20798   -27526   -33681   -36229   -36701   -39208   -45857 
  -55322   -65471   -75119   -82309   -84979   -84018   -81922   -80074 
  -78482   -76330   -73255   -69804   -65994   -60805   -53997   -47203 
  -42350   -39813   -38034   -34693   -28747   -21079   -13467    -7569 
   -3800     -939     2802     9098    17609    25166    29770    30963 
   26563    15453      822   -12298   -21496   -28998   -37709   -46941 
  -54285   -57867   -55673   -46978   -33936   -19284    -5360     5134 
   11348    14670    14882    11123     5882     2226      -11    -2402 
   -5601    -9154   -12440   -15630   -18654   -20174   -18674   -14307 
   -9305    -5161     -975     3921     7820     8298     5330     1385 
   -1701    -4676    -9234   -15510   -21710   -25319   -25410   -24107 
  -23775   -23478   -20323   -13850    -7579    -4858    -4719    -4016 
   -1940      191     2425     6362    12472    18528    20856    17830 
   11365     4378    -1146    -4432    -7222   -11572   -16046   -18689 
  -20515   -22936   -26005   -30709   -38050   -45109   -46923   -41965 
  -32884   -22724   -11984      251    12522    21263    25804    28860 
   31613    32363    30655    29521    31733    35679    37364    35936 
   34152    33611    33383    33212    34573    37297    38056    34860 
   30161    27797    29129    31905    33396    34730    38302    42763 
   44993    44908    45742    49597    54828    59252    62736    65517 
   66510    64556    60753    57265    54040    48697    39929    29863 
   20886    12130     2174    -7390   -13937   -16792   -16442   -13451 
   -8836    -3774     1316     6331    10716    14120    16430    18469 
   22336    28305    34302    39136    43118    46063    46291    43100 
   39290    37291    35240    30134    20593     7590    -4787   -13011 
  -16834   -16420   -11266    -2605     5994    11543    14063    14658 
   13369    10286     5623     -715    -7553   -13542   -19875   -27880 
  -35513   -40838   -45790   -52321   -59066   -63963   -66673   -66841 
  -63158   -56182   -47819   -38359   -28203   -18786   -10117    -1975 
    3677     4796     1470    -4356   -10445   -16659   -23312   -28146 
  -28925   -26318   -22492   -19111   -15795    -9889    -1288     5140 
    7019     7105     6232     2575    -3548    -9324   -12060   -11128 
   -7952    -5023    -4406    -5616    -6661    -6644    -4612      778 
    7945    12401    11299     6225     1072    -1991    -3905    -7779 
  -15752   -25205   -31159   -32350   -31468   -30743   -30099   -28611 
  -26677   -26102   -26683   -25298   -20684   -14838    -8988    -2852 
    3197     7678     9045     7271     3693     -449    -4897   -10757 
  -18655   -26644   -32038   -34611   -35954   -35587   -30787   -21517 
  -11105    -1428     7303    13891    17168    17210    15513    14467 
   14981    15307    13253     9692     7859     8202     7914     5536 
    2191      276     1552     4220     5047     4228     3308     1518 
   -1960    -6118    -9629   -11679   -12168   -11580   -10447    -9145 
   -7341    -4288      565     7794    16976    26293    33601    36800 
   35179    30291    24278    18329    12404     6441     1941      521 
    1874     5210    10125    15644    20591    23999    25335    24975 
   23437    20836    17810    16016    16642    18732    20273    20189 
   18813    17584    17399    17411    16568    14666    11900     8285 
    3293    -2242    -5159    -4067    -1399      890     3352     5741 
    6066     3678      789      -71      694     1207     2410     6962 
   14088    19864    22348    22980    23523    23657    21769    18011 
   14682    12445     9670     6170     2991     -838    -6399   -11342 
  -12293    -9522    -6750    -6674    -7785    -5682     1190     8574 
   12831    15478    18429    20809    21628    21479    20071    15906 
    9986     5609     4546     6280     9241    10854     9101     4113 
   -4193   -15701   -27015   -34663   -39007   -42152   -44980   -46382 
  -44702   -40257   -35541   -32738   -31600   -30624   -29173   -27482 
  -25854   -23572   -18908   -11051    -1517     6667    11381    13089 
   14206    16379    18902    20999    23344    26117    28675    30628 
   31487    31815    33387    35864    37362    37397    35857    32489 
   28548    26093    25564    25524    24692    23465    23098    23899 
   24880    24186    20538    15666    12618    11951    12731    14563 
   16927    19743    23829    28152    29813    27820    23100    16845 
   10287     3710    -2493    -6564    -7532    -6526    -5752    -7049 
  -10768   -15901   -21164   -25900   -29789   -32423   -33439   -32746 
  -31520   -31376   -31213   -28250   -22403   -16407   -12495   -10886 
  -10282    -9116    -7218    -5094    -1894     2993     7653     9217 
    6688     1413    -4587    -9892   -13739   -16563   -20054   -25352 
  -32134   -38592   -41174   -37443   -29610   -22614   -19824   -20982 
  -22939   -22646   -18592   -10807    -1570     6468    12195    14732 
   13889    11587     9614     7962     6771     6028     3191    -3330 
   -9761   -11517    -8758    -4070      720     4044     4596     2352 
    -955    -2656    -1789      259     2782     6598    11273    14978 
   17462    20283    24325    28198    29338    27699    26660    28378 
   30633    30774    29594    27444    21964    13089     3573    -4726 
  -10055   -10855    -7738    -1520     6955    14341    18037    19351 
   19409    17065    12132     6426     1885    -1170    -3599    -6046 
   -9337   -13687   -17229   -18084   -17484   -19354   -25588   -33506 
  -39438   -41568   -40113   -37571   -35721   -32366   -25509   -17578 
  -12024    -9926   -10468   -11956   -13136   -14426   -16584   -17483 
  -13557    -5345     2790     8222    11926    15954    20610    24185 
   26146    27568    27177    22826    16871    14638    18183    24460 
   29468    32175    34381    37917    42143    46158    51090    56411 
