Origin Time       2011/03/11 14:46:00
Lat.              38.103
Long.             142.860
Depth. (km)       24
Mag.              9.0
Station Code      KNG012
Station Lat.      35.3793
Station Long.     139.2044
Station Height(m) 139
Record Time       2011/03/11 14:47:42
Sampling Freq(Hz) 100Hz
Duration Time(s)  300
Dir.              U-D
Scale Factor      3920(gal)/6182761
Max. Acc. (gal)   26.134
Last Correction   2011/03/11 14:47:27
Memo.             
[...]
    4441     9433    11452    10860     9386     8532     8786     9152 
    7926     4793     2766     5317    10292    11772     8544     4849 
    2986      542    -4152    -8628   -10518   -10481   -10197   -11171 
  -13257   -13775   -11617    -9330    -8022    -5269     -779     2141 
    2303     1457      563     -736    -3371    -7647   -11736   -13487 
  -12874   -10590    -6593    -2584    -1872    -3814    -4862    -5560 
   -7651    -8258    -5272    -1776     -365      146      940     1009 
    -436    -1885    -2003    -2307    -4438    -6528    -4812      706 
    5343     6532     6275     6204     5349     2375    -2140    -6051 
   -8063    -8542    -8479    -8812    -9508    -8979    -6227    -3726 
   -5780   -11898   -14729    -9941    -3630    -2237    -2693     -617 
    1185     -885    -5053    -8103    -9207    -9278    -9091    -8125 
   -6207    -5171    -6817   -10068   -11203    -8313    -5230    -6538 
   -9689    -9118    -5270    -2146     -894    -1207    -2580    -2913 
   -1928    -2317    -4260    -4727    -2565      315     2313     3416 
    3494     2436      879    -1106    -3442    -4673    -3883    -1465 
    2364     6155     6529     3015      315     1058     1665      394 
     260     1107       26    -1758    -1655     -110     1999     3568 
    2117    -1485    -2142     2017     8198    14882    21705    26114 
   26377    25578    28058    32102    31669    26531    22870    23140 
   23582    20947    15810    10909     8512     8162     7518     5897 
    5073     5816     6025     4238     2112     1733     4022     8591 
   12134    11565     9294     8908     8745     6486     4065     2844 
     821    -2722    -5904    -7978    -9478   -10395   -11098   -11714 
  -10599    -7586    -6030    -6927    -6340    -3077    -1113    -1739 
   -2479    -3004    -3778    -3954    -4909    -8343   -11559   -10962 
   -6887    -1717     2874     5500     5084     2823     2350     5402 
    8372     6873     2634     1129     3360     5167     4451     3742 
    4554     5281     5858     7943    10408    10316     7503     4464 
    3152     3470     3627     2741     2361     2686     1140    -1935 
   -2481     -543    -1265    -5871    -9772   -10458    -9408    -7607 
   -5612    -4725    -4359    -2269     1024     1909     -824    -4173 
   -6255    -8320   -10664   -11793   -10788    -7920    -4635    -2194 
     285     2795     1536    -4496    -8846    -6998    -3887    -5309 
   -8226    -5719     2046     7373     5601     1131      116     2158 
    3466     3195     2469     1270     -588    -1750     -696     1890 
    4056     5826     8764    12194    13650    13042    12828    14547 
   17110    17701    15133    12786    14638    19264    22382    22735 
   22027    21709    21182    18837    15084    12387    11662    11743 
   12545    14231    14849    13353    11259    10342    12471    17462 
   20402    18274    15148    13956    11919     8561     6651     4563 
    -735    -6266    -7629    -5688    -3516    -2060     -500     2177 
    5036     5362     2806      111    -1447    -3305    -5589    -6302 
   -5443    -4894    -4400    -3224    -3630    -7511   -12768   -16231 
  -16798   -14816   -11524    -8217    -4753    -1943    -2372    -4205 
   -2638     -652    -4753   -11575   -13923   -12744   -11545    -9487 
   -5955    -3261    -3386    -5361    -5097     -293     5709     9755 
   11803    11327     9922    11222    14182    15662    16493    18289 
   19845    19582    17798    15916    15309    15601    13821     8856 
    3957     1149     -408     -259     1872     4349     6970    10408 
   13078    13226    11775     9927     6996     3166      479     -590 
   -1928    -3623    -2106     3930     8954     7817     3641     2395 
    4220     5417     5097     5465     7762    10615    12143    13026 
   15208    17405    16821    14575    13789    15135    17340    17971 
   15854    14977    18779    22039    18146    11209    10361    15381 
   18272    15626    11026     8302     7894     7558     4837      348 
   -3132    -4277    -2609     2462     9095    13222    13138    11164 
   10274    11382    13908    17255    21481    26738    31902    34677 
   34283    32923    32572    31750    28529    24794    23692    24642 
   24823    23995    23843    24390    24677    24694    24159    22095 
   18974    15677    10866     5181     3693     7537    10734     9080 
    4989     3081     4955     8314    10038     9040     6064     2196 
   -1093    -1741      206     1222    -1224    -5273    -7256    -5974 
   -5067    -8957   -15328   -17813   -16377   -16676   -20282   -23848 
  -25201   -25273   -26262   -28535   -30032   -29797   -28744   -26857 
  -23986   -21630   -20877   -21222   -20918   -18553   -16791   -19605 
  -25070   -27659   -25693   -22704   -23062   -25967   -26003   -22254 
  -19460   -18305   -15251   -10354    -6157    -3506    -2241    -1066 
    1906     5064     4751     2409     2702     4831     4427     2505 
    4508    11357    17789    19982    18968    16502    14069    13867 
   15938    18890    22775    25508    23032    17216    14497    16592 
   20405    23650    25247    24714    24545    28196    34354    38668 
   39356    37163    34152    33689    37129    40940    40254    34439 
   27180    22175    20503    21211    21928    20030    16367    15197 
   17810    20308    19528    17257    16965    18106    16127     9847 
    4300     2958     3144     1086    -2997    -5911    -6390    -5712 
   -2633     5218    14457    19026    18775    18399    19859    20240 
   17244    13179    11086     9902     6564     1636     -791      281 
    1022     -320     -585     2310     5991     7382     6439     5492 
    5608     4896     2046     -856    -2049    -3236    -5206    -4696 
     482     6824     8518     5010     2132     3472     6016     6175 
    3777     1016      702     1829     -239    -5035    -6916    -6169 
   -8830   -14816   -17661   -15442   -13026   -14667   -19421   -23738 
  -26626   -30030   -34236   -36340   -34154   -29111   -24419   -21916 
  -21711   -23350   -25568   -26309   -25104   -24134   -24749   -24993 
  -22882   -20129   -20239   -23416   -25803   -24661   -21916   -20597 
  -19916   -17120   -12926   -11260   -12956   -12923    -6743     2205 
    8200    12314    17481    20923    20100    17903    17142    16613 
   14291    10973     9243     9960    11400    11955    12728    15732 
   19663    20301    16002    10721     9711    13024    16038    16125 
   15128    15079    14934    12617     8573     5359     4025     3723 
    4322     5674     6225     5954     7915    13195    16640    13115 
    6240     3444     5255     7057     7326     7953     9330     9142 
    5979     2037      158     -225    -1704    -4961    -7786    -7993 
   -6669    -6245    -5968    -3321      388      704    -3408    -7792 
   -8333    -5600    -3849    -5599    -8016    -7504    -5737    -6168 
   -8443    -9688    -7375    -1726     3125     3820     2503     3134 
    4958     3914      230    -1277      462     1410      206     -305 
     503      205    -1660    -2969    -2212     -125     1218     1294 
    2069     4671     7436     8812     9469    10180    10317     9805 
   10376    12844    15524    18126    22872    28671    30433    27005 
   22938    20590    17855    14682    13901    15340    16594    17693 
   19035    18949    16931    14632    12680    10965    10460    10555 
    8835     6587     7565    10676    12244    12389    11958     9211 
    4428     1122      156     -690    -1994    -3180    -4165    -4613 
   -4809    -5884    -7859    -8872    -7692    -6167    -6835    -8873 
   -8847    -6080    -3604    -2417     -657     2012     4877     8615 
   13181    15735    14511    11574     8519     4754      877    -1300 
    -590     3025     7817    11870    14819    16291    15682    14019 
   13049    13715    15573    16607    16345    17035    18639    17841 
   14383    12785    15171    17369    15722    13585    16497    22885 
   25423    21606    16014    12770    11683    10732     9931    10990 
   12436    10549     6042     2874     1370    -1365    -6182   -11107 
  -14467   -15705   -14276   -11330    -9365    -7636    -3846      111 
     702    -2022    -5495    -7018    -4915     -797      733    -2028 
   -4746    -3720    -1221     -500    -1298    -1600     -306      579 
   -1326    -4102    -5881    -8216   -10548   -10375    -8398    -6156 
   -3538    -1950    -2837    -3774    -2425     -373      672     1417 
    1905      -72    -4667    -7294    -4784     -495     1708     3221 
    6281    10093    13279    14711    13471    10868     9154     8598 
    8682     9993    12552    14526    15387    17191    19460    18099 
   12192     6099     3551     3664     3422     1874      132    -1132 
   -1671    -1049     -231    -1588    -5480    -8794    -8782    -7027 
   -6612    -6837    -5635    -4676    -6325    -8919   -10113   -11491 
  -14724   -16378   -12760    -6285    -1839     -611     -240      877 
    1519      285    -1885    -3224    -3957    -5499    -6699    -3816 
    3235     7838     4998    -1584    -5697    -6496    -6836    -7996 
   -8698    -7757    -5767    -4414    -4884    -6234    -5610    -2007 
    1194     1222     1135     4587     9421    12164    13737    15650 
   15874    13157    10942    12894    16719    16981    13644    12078 
   15177    20628    24416    24309    21566    19107    17253    14066 
   10281     9387    11791    13575    11923     8368     5771     3666 
    -420    -5735    -8924    -8964    -7832    -7192    -7133    -8169 
  -11628   -16488   -18963   -18112   -17721   -20195   -23671   -26130 
  -27228   -25953   -21687   -17356   -16211   -16811   -15303   -11054 
   -7209    -5557    -4226    -1890      537     2693     4303     3824 
    1435       -1      856     2572     3875     4727     5801     8083 
   11297    13476    13689    13001    12219    11185    10535    12004 
   15080    16628    16082    15888    17054    19086    21788    24045 
   24169    22367    20073    18821    19861    21670    21931    22527 
   26183    31311    34491    34304    32411    31547    31150    28816 
   26161    26777    30300    34066    36551    36176    31969    26226 
   22299    20810    20260    19431    18373    17945    18430    19021 
   19065    19263    21141    25200    29434    30453    27624    24514 
   23637    23040    20900    18458    16621    14305    10269     4869 
     582     -552       -5      154     1214     4141     6730     8341 
   10886    13582    13724    12290    12688    15654    18774    19385 
   17792    17328    19981    23865    25886    25089    23450    23648 
   25564    27193    28178    29216    29948    28705    24571    20306 
   19597    21758    22671    19566    15135    15509    20889    24294 
   22936    21983    23962    24200    20342    16737    16956    19439 
   20994    20577    19193    17684    15394    11060     5363     1032 
    -306      364      955      835      906     1163     1531     3443 
    6868     9058     8597     7677     9004    12557    16290    18331 
   17921    15688    13404    12479    12890    13726    13494    10480 
    4870      -72    -1045     1203     2787     1866      272     -290 
    -258     -528    -1496    -3435    -6554    -9800   -10944   -10307 
  -11041   -13371   -13975   -12351   -12167   -15416   -19670   -22293 
  -23225   -22699   -20847   -18643   -16190   -13209   -11500   -13088 
  -16328   -17464   -16135   -15635   -17350   -18598   -17477   -15943 
  -15290   -13873   -11365    -9254    -7724    -6619    -6839    -8456 
  -10011   -10950   -12349   -14461   -15926   -15577   -13988   -13144 
  -14046   -15404   -15793   -15911   -16418   -15173   -10680    -5877 
   -4228    -4754    -4237    -1729     1175     2401     1175    -1318 
   -3335    -4285    -4514    -4568    -5720    -9298   -14523   -19175 
  -21931   -22238   -20175   -17806   -17121   -16202   -12978   -11472 
  -15641   -20286   -17852    -9780    -3507    -2401    -3884    -5024 
   -5802    -6631    -6428    -5238    -5101    -6338    -6343    -3180 
    1901     5829     6891     6719     7899    10094    11713    13398 
   15713    16201    12767     8193     7587    11704    15912    15712 
   11863     9213    10023    11508    11296    11666    15075    18214 
   17396    16038    18379    21842    22300    21020    21634    24188 
   25704    24806    23481    23950    25713    26844    26317    24535 
   22291    20279    19675    20620    21063    19556    17426    16958 
   18574    20772    22683    24707    26686    27603    27042    26766 
   29276    32749    32712    30365    30603    32891    33549    33016 
   33347    34657    37321    41096    43328    42989    42612    42972 
   41065    36478    33176    32118    30015    26505    24154    22603 
   20151    17784    16832    17029    18337    20262    20756    19531 
   18828    19120    18918    17610    15294    12897    12084    12845 
   13525    13606    14226    15898    16798    14402     9741     7204 
    7876     8131     6680     6302     7981     9972    11062     9716 
    5312     1872     2348     2656     -240    -2274     -632     1403 
    1310      373     -576    -2331    -4414    -4557    -2441     -592 
    -604    -2254    -4558    -5995    -6730    -9037   -13789   -18754 
  -21319   -21545   -21629   -23505   -26979   -29721   -30609   -31999 
  -35292   -37691   -37404   -35982   -34291   -32585   -31340   -29107 
  -24762   -20959   -20469   -21359   -20219   -17829   -17155   -18184 
  -18908   -18931   -19266   -20315   -21002   -19946   -18080   -18159 
  -20325   -21021   -18264   -15205   -15234   -16440   -15327   -12571 
  -10762   -10548   -11706   -13862   -16085   -18818   -22760   -25193 
  -23724   -21222   -21191   -22704   -22780   -20016   -15433   -11246 
   -8635    -7394    -7672    -9389   -10691   -10717   -11650   -14103 
  -14844   -12591   -10364    -9945    -9659    -8590    -8042    -8613 
   -9653   -10448   -10149    -8599    -6411    -3923    -2167    -2089 
   -2210     -812     1370     2686     2587     1932     2007     2952 
    3970     4967     6310     8019    10575    14155    17423    19493 
   21234    22648    21301    16668    12980    13059    13914    12512 
   10661    11255    13388    13735    11814    11252    14502    18832 
   19762    17164    15076    15257    15740    15993    17439    19767 
   20951    20705    22010    26296    29568    29172    28961    32264 
   36600    38527    38733    39424    39774    38267    36633    37649 
   40610    41751    40550    40625    42404    42771    41040    38922 
   37671    37403    36959    35399    34288    35605    37179    34991 
   30323    28628    30975    32584    30281    26085    22884    21417 
   21194    20785    19434    18780    19375    18585    15410    12611 
   11770    11635    11203    10494    10003    10099    10332     9985 
    8944     7987     7928     8893    10543    11897    12405    12973 
   13563    12529    10202     9078     9743    10687    11409    12290 
   13154    13806    14327    14423    13463    11791    10780    10108 
    8061     5216     3144     1158    -1493    -3671    -4948    -6583 
   -9078   -11504   -13004   -13404   -13037   -12473   -12139   -12635 
  -14788   -17785   -19326   -19485   -20623   -22604   -22694   -20484 
  -18278   -16739   -15128   -14221   -14591   -15251   -15893   -17148 
  -18950   -20351   -20165   -18121   -15574   -13977   -13439   -13410 
  -13505   -13800   -14702   -16321   -18352   -19449   -17365   -12436 
   -8328    -7578    -9263   -10903   -10869    -9221    -6881    -4265 
   -1572      229      912     2225     5077     7091     5711     1867 
   -1607    -3092    -3028    -2058      269     3618     7224    11186 
   13797    12586     9384     8054     8577     9063    10364    13306 
   15183    13892    11534    10341     9223     6664     3211       82 
   -2045    -3224    -3880    -3709    -2453    -1241    -1115    -1467 
   -1083     -599    -2618    -7620   -12206   -13744   -13693   -13729 
  -12244    -8605    -5941    -5761    -5608    -4036    -2931    -4459 
   -8292   -11936   -13711   -14801   -16723   -18225   -17719   -16649 
  -16258   -14759   -11967   -10446    -9994    -8470    -6904    -7856 
  -11548   -16260   -19583   -19113   -15187   -11378    -9380    -7551 
   -5420    -4354    -4584    -4570    -3207    -2076    -2768    -3542 
   -2604     -433     2579     5897     8031     9369    12374    16796 
   19163    18848    19299    21785    23668    23490    22941    23645 
   24250    22336    19164    18237    19387    19576    18389    18267 
   19858    20482    17992    14190    12759    13410    11435     6020 
    3197     6514    11630    12937     9725     5209     2595     1590 
     229     -158     2173     3918     1828    -1169     -922     2084 
    4894     5901     6070     7601    10382    12185    12495    11735 
    9289     6593     7429    12050    15332    13453     9741     9955 
   13885    16987    18017    19183    20868    21254    19378    16079 
   13105    11335     9720     7294     5486     6642    10603    13772 
   13373    12181    14592    19303    21435    20019    18190    16997 
   14399    10530     8328     8716     9724     9737     9040     9161 
   10923    12684    12558    11671    12020    12923    12640    12137 
   14068    18040    20555    19800    17424    15753    14574    11293 
    5012    -1037    -3359    -3136    -3924    -5972    -7404    -8930 
  -12191   -15834   -17607   -17632   -16979   -16070   -14852   -12831 
  -10631   -10357   -12348   -14348   -14748   -14420   -15303   -17793 
  -20089   -20821   -20719   -20731   -20935   -21499   -21989   -20852 
  -18237   -16671   -16820   -17068   -17441   -18158   -17706   -16645 
  -17037   -17904   -17011   -14396   -11358    -8559    -6138    -4627 
   -4135    -2926      317     3374     3264     1053      143     1483 
    3628     5425     6905     8713    10611    11037     9296     7069 
    6256     6939     8687    11416    14296    15811    15545    15150 
   16058    17130    17050    16571    16221    15795    16348    18525 
   20668    21039    19544    16863    14368    14326    16771    17967 
   16054    13756    12966    13192    14207    15246    15296    15050 
   15455    16164    16419    15861    14701    13334    11348     8415 
    6277     6406     7096     6526     5494     5274     5796     6242 
    6368     6817     7659     7201     3949      309      191     2196 
    2104      140    -1302    -2077    -1946     -220     1606     2410 
    3271     3936     3283     2678     3691     5327     6221     5839 
    3655      104    -3478    -6099    -7124    -6964    -6811    -6823 
   -6824    -7227    -7394    -5982    -4085    -4437    -6795    -8355 
   -7975    -6152    -3790    -2620    -2998    -2905    -1630     -705 
    -740    -1221    -2536    -4644    -5678    -5097    -5030    -6581 
   -7999    -7122    -4201    -2028    -2846    -5279    -6029    -4162 
   -1701     -607     -409      471     1984     3708     6483    10058 
   12465    12862    12063    11080    11190    12597    12578     9629 
    6897     6592     6433     4690     2895     2836     4133     4764 
