Origin Time       2011/03/11 14:46:00
Lat.              38.103
Long.             142.860
Depth. (km)       24
Mag.              9.0
Station Code      KNG012
Station Lat.      35.3793
Station Long.     139.2044
Station Height(m) 139
Record Time       2011/03/11 14:47:42
Sampling Freq(Hz) 100Hz
Duration Time(s)  300
Dir.              E-W
Scale Factor      3920(gal)/6182761
Max. Acc. (gal)   43.826
Last Correction   2011/03/11 14:47:27
Memo.             
[...]
    -334    -1417    -1149     -839    -2015    -4482    -8341   -14829 
  -22549   -28281   -32073   -35890   -38477   -37136   -32565   -27070 
  -21053   -14260    -7618    -2743     -884    -1957    -4818    -9413 
  -16036   -22015   -23482   -20181   -15939   -15082   -18765   -24122 
  -27319   -27397   -25307   -21352   -17108   -16288   -20820   -27980 
  -32453   -31491   -26949   -21362   -14935    -8422    -5145    -7332 
  -12889   -16782   -15174    -8904    -2570     -335    -3423   -10352 
  -17623   -21205   -19954   -15854   -11267    -9544   -13352   -19476 
  -21873   -19014   -14108   -11313   -12616   -16646   -20285   -20695 
  -17262   -12423    -8951    -8086   -10268   -14524   -18634   -21101 
  -21655   -21040   -19907   -17672   -14885   -14528   -18272   -23915 
  -27613   -27299   -24180   -21691   -22543   -25827   -27945   -27343 
  -25315   -22171   -17987   -15473   -17266   -22776   -28660   -31134 
  -29472   -25815   -21065   -15425   -11530   -11682   -14619   -18011 
  -19972   -18065   -11754    -4305      692     2309     1066    -2361 
   -6658   -10467   -12836   -12368    -9255    -7151    -8694   -11227 
   -9897    -3871     1622     1079    -4441   -10103   -13298   -13406 
  -10734    -6622    -2199     1301     1524    -2515    -7454    -9276 
   -8565    -7873    -7904    -8898   -11332   -15012   -19735   -24433 
  -26623   -26032   -24528   -22259   -18534   -14036   -10769   -10570 
  -12688   -14213   -13617   -12183   -11203   -10450   -10710   -13216 
  -16333   -17460   -16848   -17741   -23463   -32609   -38637   -37340 
  -31152   -24180   -18561   -15196   -13224   -11639   -11681   -13622 
  -15183   -15494   -15526   -15132   -13202    -9734    -5881    -1937 
    2378     6017     7231     5272     1602     -737       90     3002 
    5239     4544      331    -5341    -9250   -10867   -11699   -12162 
  -12449   -13693   -15939   -17734   -19035   -20853   -22022   -20513 
  -16643   -12428    -9614    -8905    -9769   -11548   -14767   -19701 
  -25075   -28795   -28147   -22287   -15222   -12279   -14730   -19706 
  -23583   -24736   -23456   -20031   -14889   -10444    -9079    -9192 
   -7629    -4962    -4198    -6392   -10039   -12722   -12868   -11203 
  -10105   -10983   -13336   -16465   -19922   -22785   -24650   -26140 
  -28082   -30709   -32416   -31502   -29504   -28881   -29584   -30206 
  -29751   -28017   -25880   -25442   -28601   -34151   -37606   -35216 
  -27634   -19409   -14575   -12895   -12002   -11197   -11082   -12455 
  -15195   -17359   -17924   -17928   -18073   -18298   -18158   -17553 
  -17670   -18936   -20057   -20510   -20654   -19441   -15243    -8327 
    -776     5031     7969     8790     8605     7693     6561     5783 
    4933     4399     5448     8033    11606    14919    14769     9082 
     162    -7603   -12125   -13555   -12297   -10022    -9342   -11176 
  -15184   -20421   -23848   -22261   -16778   -12633   -13636   -18808 
  -25281   -31123   -35103   -37488   -39662   -41401   -41000   -37771 
  -33128   -30087   -31306   -36806   -44065   -49579   -51011   -49010 
  -45673   -42192   -38747   -35239   -31587   -27459   -23279   -21054 
  -22117   -24979   -26642   -25586   -22956   -21147   -21578   -23885 
  -27100   -30054   -31364   -31475   -32535   -34891   -36571   -35818 
  -32500   -27639   -21662   -14317    -6422      -69     3080     3948 
    5189     7396     8486     6766     2516    -3003    -8076   -10566 
   -9788    -7559    -5463    -3304    -1099      725     2212     3204 
    3421     2399     -418    -3277    -2264     3236     8618     9947 
    7838     4370      145    -4585    -8408    -9558    -7982    -5812 
   -4447    -3112    -2245    -3708    -6418    -7435    -6552    -5686 
   -6047    -7449    -8895   -10081   -11289   -11833   -11260   -10321 
  -10060   -11737   -15158   -17881   -18474   -17550   -15957   -14093 
  -12254   -12319   -16387   -22608   -27755   -31334   -33236   -32360 
  -28489   -22313   -14555    -6843    -1517      870     1926     3489 
    6416    10287    13382    13595    10516     5541      -88    -5720 
  -10510   -12990   -12340   -10263    -8604    -6247    -2153     2153 
    5364     7727    10095    12873    15146    16128    16379    16700 
   16989    15982    13129     9927     7448     4334    -1516    -9343 
  -15179   -16303   -13325    -7640     -923     3399     2537    -2218 
   -6587    -7483    -5640    -3581    -2830    -3771    -5186    -5684 
   -6902   -10992   -16662   -21246   -24433   -28420   -34450   -40565 
  -44185   -44572   -42137   -37746   -32708   -28503   -26468   -26870 
  -28447   -29006   -26559   -21166   -14222    -6611      -20     3083 
    2040    -1644    -6342   -11114   -14190   -12940    -6773     1050 
    5724     4509    -2176   -11680   -20921   -27774   -31561   -32988 
  -33048   -32548   -32509   -33735   -36921   -42756   -50446   -57224 
  -59975   -56904   -48290   -36820   -26980   -22414   -22822   -24631 
  -25492   -25824   -26146   -26693   -28064   -29702   -30507   -30453 
  -30059   -30196   -31655   -34063   -36426   -38172   -38889   -37737 
  -34094   -28826   -24284   -22025   -21584   -22342   -23526   -23566 
  -22182   -20335   -18816   -18852   -21508   -25722   -28063   -25658 
  -19384   -12710    -8789    -8810   -11588   -15635   -19957   -22219 
  -20187   -14862    -9758    -8320   -11497   -16998   -22758   -28712 
  -33896   -35933   -33165   -26403   -19432   -15727   -15691   -18201 
  -21744   -24040   -22842   -17855   -11394    -5876    -1717     1547 
    4032     5698     6374     5646     3979     3064     3547     3989 
    3157     1496      -21     -905    -2094    -5129    -9123   -12313 
  -15131   -18050   -19770   -18899   -15431   -11423   -10358   -14155 
  -21628   -29981   -36578   -40318   -41312   -39273   -33887   -26856 
  -22024   -21985   -25576   -29527   -31243   -30434   -28672   -27146 
  -26052   -25709   -26496   -28011   -29368   -30460   -32262   -34858 
  -36848   -38553   -41922   -45881   -46557   -42660   -36984   -33096 
  -32788   -34639   -34444   -29591   -21918   -15530   -13107   -13855 
  -14942   -14625   -12790    -9791    -6731    -5597    -7807   -12722 
  -17930   -21498   -22880   -22209   -20658   -19494   -19009   -20280 
  -24602   -30411   -33887   -32754   -28289   -23188   -19034   -16945 
  -17596   -19635   -21283   -22910   -25529   -28690   -30952   -31061 
  -28827   -24670   -18598   -10882    -3045     2789     5556     6180 
    6755     8413     9885     9765     9230     9381     9010     7332 
    5431     4213     2089    -3390   -11419   -18595   -22164   -21542 
  -19029   -18032   -20141   -24252   -27789   -29201   -28666   -26619 
  -23592   -21003   -20863   -23919   -27857   -29515   -28544   -26709 
  -25462   -25631   -27136   -28911   -31283   -35665   -40383   -42061 
  -40380   -37680   -36381   -37407   -39528   -40405   -38334   -33331 
  -26436   -18403   -10578    -5940    -6324    -9807   -13383   -15484 
  -15890   -15761   -15322   -12759    -8285    -5341    -5568    -6398 
   -5365    -2768      655     4205     6582     7808     9056     9909 
    8301     3110    -4008    -9910   -12988   -13868   -14569   -17236 
  -21911   -26908   -31187   -34742   -37739   -39719   -39968   -38623 
  -36387   -33670   -30755   -28563   -28005   -28197   -26988   -23629 
  -19508   -16592   -15618   -15398   -14397   -12214    -9355    -6876 
   -5673    -6175    -8251   -10178   -10076    -8245    -5642    -2551 
    -146     -291    -3172    -7357   -11800   -15912   -19207   -21833 
  -23713   -24575   -25682   -28587   -32481   -35735   -38573   -41717 
  -44793   -46796   -45981   -40533   -30548   -18610    -8665    -4585 
   -7811   -15620   -23665   -29512   -32389   -31990   -29510   -28380 
  -30924   -35282   -39174   -42795   -45762   -46815   -46135   -44651 
  -43056   -41861   -40411   -37471   -33771   -30664   -27614   -23795 
  -19359   -14508    -9073    -2515     5364    12863    17051    17291 
   16186    15384    14093    13149    15055    20088    26149    30035 
   29083    24940    22732    24697    28844    32821    35164    35518 
   34752    32811    29044    24785    21527    17915    11899     3549 
   -6048   -15727   -23726   -28314   -29740   -31362   -36347   -43567 
  -50033   -54784   -57946   -59028   -56436   -48079   -34209   -19408 
   -9408    -5583    -5251    -6643    -9985   -15396   -22790   -31602 
  -39513   -44237   -44764   -40284   -32818   -27925   -27805   -28500 
  -26260   -21914   -17950   -15309   -13788   -12501   -10842   -10052 
  -11630   -15349   -19889   -23944   -27022   -29344   -31161   -32530 
  -33177   -33436   -35019   -38431   -41187   -40528   -35303   -26247 
  -16946   -10715    -6720    -2795     1255     5052     8589    11459 
   13364    13756    11284     5875    -1029    -8408   -15168   -19261 
  -19598   -17235   -13810   -11036   -10379   -10897   -10312    -9216 
  -10569   -14926   -19830   -23164   -24486   -24352   -23493   -22346 
  -20760   -17786   -13134    -8782    -7030    -8130   -11381   -15992 
  -20451   -23378   -24806   -25813   -27241   -30036   -35990   -45312 
  -54832   -60567   -60860   -57218   -52390   -47012   -40331   -33879 
  -30231   -29178   -28358   -26369   -23840   -21740   -19735   -17264 
  -14890   -13477   -12930   -12268   -10796    -8293    -4152     1255 
    5427     6666     5927     4575     2775      481    -1821    -3347 
   -2392     3040    11727    18870    21387    20210    16605    10813 
    4165     -572    -1351      612     1840      880    -1125    -3744 
   -7483   -11856   -16074   -20257   -24794   -28937   -30264   -26391 
  -17102    -4780     6077    10653     7530      265    -6151    -9358 
   -9559    -7653    -6206    -9556   -18874   -30508   -39991   -44195 
  -42227   -36287   -30503   -28870   -31700   -33953   -31149   -24696 
  -18173   -12882    -9042    -6944    -5421    -2617      193     -538 
   -5600   -12405   -17529   -18833   -17235   -15900   -16996   -19874 
  -22732   -24344   -23827   -22332   -24337   -32954   -44846   -52750 
  -52174   -44154   -32671   -21176   -11439    -4285     -277      807 
     359     -547    -1490     -688     3275     8419    12099    13081 
   10436     5035     -741    -5906   -10291   -13859   -16748   -17836 
  -16471   -14292   -13263   -14493   -16927   -16163    -8950     1399 
    8414     9612     6702     1973    -3558    -9833   -15065   -15416 
  -10045    -4238    -3865    -8864   -15484   -20978   -24363   -25927 
  -26021   -24254   -20774   -17277   -15265   -14775   -16104   -20104 
  -26842   -35537   -44618   -52363   -57604   -58996   -56417   -53249 
  -53466   -57363   -62057   -64973   -66066   -65871   -63252   -57113 
  -48191   -39032   -32723   -30123   -29608   -29762   -29606   -28405 
  -28285   -33086   -42879   -53023   -59049   -60297   -59056   -58256 
  -59144   -60618   -61313   -60070   -55602   -48167   -39345   -29912 
  -19695    -9004      543     6384     7397     6423     7149     9010 
    8954     6323     3356     1833     1458     1972     3677     5854 
    7424     7681     6060     3253     1602     3079     6941    10171 
   10217     6978     2715    -1334    -6415   -12046   -15576   -16549 
  -17074   -19309   -23372   -26700   -26215   -21175   -13943    -7942 
   -4880    -4306    -4854    -4953    -2736     2263     6791     6439 
     279    -8528   -16362   -22640   -27908   -31624   -34464   -38320 
  -43034   -46006   -44952   -39498   -31246   -24223   -22092   -23419 
  -23345   -19889   -15323   -12045   -10508   -10265   -11254   -14231 
  -19171   -24791   -29899   -34695   -41902   -52840   -63738   -70168 
  -70294   -64540   -55989   -48134   -42574   -39596   -38663   -38020 
  -35180   -28655   -18770    -7959      358     5683    10106    13977 
   16181    16636    16587    17805    20299    21480    19513    15227 
   10462     6944     5510     5327     4662     2019    -3040    -9650 
  -17036   -24896   -31572   -34339   -31620   -23979   -13595    -2834 
    6381    12783    15845    15432    11954     5504    -3621   -12237 
  -16877   -18273   -18836   -19049   -18055   -15347   -12193   -10754 
  -11469   -12363   -10765    -6102     -362     4808     9025    11382 
   11203     8764     3305    -5444   -14737   -22103   -27671   -32137 
  -36236   -40036   -41976   -41426   -39997   -39275   -39429   -39737 
  -39525   -38351   -35886   -32769   -30527   -29442   -27950   -24694 
  -20376   -16887   -14255   -11354    -9555   -11043   -15223   -19760 
  -23268   -26185   -28441   -27639   -22514   -15683   -10938   -10025 
  -12354   -16012   -19177   -21441   -21890   -18475   -11892    -5176 
   -1020    -1507    -6216   -12741   -19228   -24028   -25828   -24540 
  -21889   -20568   -20661   -19927   -18442   -18127   -19728   -23699 
  -29740   -34930   -36089   -33393   -30086   -28745   -29407   -31653 
  -36099   -42890   -49537   -52293   -50019   -44011   -35969   -28945 
  -26584   -29388   -34680   -40038   -43649   -43457   -40141   -38095 
  -39807   -43090   -45278   -45210   -42282   -37626   -34126   -33403 
  -33482   -30761   -24088   -14927    -5115     4390    13698    22614 
   29313    31539    30295    29941    32386    34978    34715    30533 
   22271    11219      856    -6310   -11733   -18788   -28367   -38068 
  -45678   -51086   -55428   -60289   -66312   -72868   -79293   -84257 
  -85791   -83386   -77354   -67783   -56584   -47610   -43195   -42699 
  -45000   -48944   -51447   -49993   -45645   -41464   -39799   -40635 
  -41996   -42214   -41654   -41463   -40934   -38288   -33501   -28590 
  -25053   -22541   -20488   -18863   -17249   -14479   -10310    -7008 
   -6973   -10592   -16563   -22558   -27579   -32475   -37063   -39810 
  -39937   -37901   -35176   -33404   -32072   -29141   -23898   -17210 
  -11015    -7646    -7986   -10486   -12415   -12768   -13538   -16369 
  -19710   -22206   -25398   -31029   -38957   -47083   -52672   -55829 
  -59282   -63366   -64526   -59806   -50897   -41886   -34066   -26529 
  -19980   -15784   -13905   -13857   -15063   -16500   -17127   -16168 
  -13555   -10950   -10934   -13969   -18009   -20420   -18843   -12270 
   -2161     8042    15362    19112    20077    19742    19790    21214 
   23907    26535    27861    28091    27596    25439    21274    17389 
   16252    18493    23562    28964    31388    30470    28402    26066 
   22324    16041     7469     -944    -6338    -8970   -11535   -15951 
  -22749   -31452   -40542   -48217   -53800   -57594   -58726   -55893 
  -50312   -44258   -38638   -34025   -31274   -30868   -32429   -33824 
  -31409   -23302   -11865     -807     7459    11289    11403     9999 
    6782     1082    -5076    -9317   -11176   -11637   -12530   -15843 
  -21053   -25582   -29373   -33892   -38381   -41654   -43796   -44167 
  -42065   -39005   -36681   -34880   -32679   -29968   -27944   -26444 
  -22661   -15677    -8586    -4498    -2917    -1481      292     1574 
    2931     6563    13444    20794    24123    21319    14464     8577 
    7726    11350    15291    16644    15293    11745     6280     -172 
   -4802    -4276     1425     8920    14795    16833    14287     9200 
    5080     3125     1811     -203    -2907    -5519    -7329    -8340 
   -9227   -11505   -16281   -22781   -29834   -36605   -41574   -44342 
  -47665   -53607   -59405   -61599   -61453   -62308   -64210   -64371 
  -61307   -55792   -49576   -44912   -42967   -42900   -43695   -44902 
  -45782   -45665   -45372   -47240   -52090   -57140   -59110   -57953 
  -56112   -55627   -57168   -60274   -63188   -63975   -61795   -56595 
  -49111   -40505   -31969   -25233   -21458   -19838   -18070   -14139 
   -8214    -1798     4407    10049    13769    14249    12831    12915 
   15832    19899    22918    23859    23499    22797    21109    17525 
   11479     3020    -5268    -9078    -7051    -3600    -3925    -7727 
  -11633   -13611   -13290   -12147   -12289   -13088   -12150    -9899 
   -8667    -8229    -6307    -1866     3863     8152     8764     6105 
    2567      167       59     2538     5737     5801      -76   -10861 
  -22826   -32658   -39162   -43867   -49125   -55073   -59965   -62690 
  -63923   -65034   -66366   -67230   -66925   -64727   -59455   -50239 
  -38357   -27434   -20834   -19175   -20367   -22197   -24252   -27352 
  -31896   -37065   -42493   -49223   -57571   -65370   -69506   -68482 
  -62660   -53874   -45218   -39391   -37238   -38020   -39759   -39282 
  -34394   -26828   -20532   -17096   -15479   -14434   -13056   -10594 
   -6622    -1879     1192      631    -2429    -4900    -4705    -2044 
    1103     2971     3336     2746     2074     2182     2372      849 
   -1484     -674     5055    13027    19740    24214    26901    27840 
   27514    26438    24217    20533    14612     5766    -3687   -10263 
  -14202   -18937   -25387   -29995   -30256   -27621   -24391   -22050 
  -21015   -20914   -20429   -16709    -8711      720     8039    11753 
   12758    13231    15389    20018    25030    27356    25722    20181 
   11301      754    -9212   -17494   -24522   -30398   -33981   -34878 
  -34152   -32423   -29869   -27680   -26544   -24907   -21048   -15145 
   -8258    -1480     3262     4393     2213    -2972   -10551   -17228 
  -19892   -19391   -18651   -19000   -19644   -19786   -19231   -17374 
  -14768   -13480   -14185   -16196   -18514   -20163   -20618   -18380 
  -11827    -2119     7005    12039    12161     8419     2097    -4817 
  -10536   -15341   -20304   -25156   -29167   -32929   -37444   -41545 
  -42354   -39291   -35295   -32761   -30539   -26424   -20287   -13425 
   -7443    -3813    -2833    -4282    -8608   -15327   -21165   -22664 
  -20505   -18219   -18314   -21687   -26842   -30736   -32914   -34557 
  -35333   -35057   -34225   -32151   -27881   -22743   -19778   -20672 
  -24539   -28673   -30718   -30640   -28827   -24380   -17088    -8364 
    -347     4896     6661     5703     3046     -456    -4695   -10558 
  -18335   -26903   -34735   -40594   -43826   -44314   -42203   -38223 
  -33788   -29070   -22359   -13614    -5063     2652    11472    22583 
   33292    39931    42068    40773    36860    31309    24658    17551 
   10792     4400    -1412    -6199    -9963   -12388   -13946   -16161 
  -17995   -16912   -13884   -11985   -12458   -14205   -15307   -15599 
  -16813   -19964   -24243   -28140   -30767   -32208   -33146   -34743 
  -38166   -43333   -49210   -54664   -58141   -58464   -55779   -51330 
  -47140   -45056   -45534   -47154   -47915   -47182   -45538   -44017 
  -43208   -42136   -40295   -39172   -39078   -38739   -37878   -36020 
  -32304   -27608   -23658   -21424   -20650   -20072   -19437   -20185 
  -22515   -24720   -25912   -25966   -24594   -21760   -17171   -11516 
   -7343    -6691   -10399   -18327   -28448   -37581   -42821   -43161 
  -41010   -40552   -43223   -45703   -44633   -40898   -36752   -33244 
  -30805   -28797   -25919   -21606   -16296   -11180    -7271    -4388 
   -1923     -182      334      554     2833     8128    13651    16340 
   16552    16239    16703    18689    23201    30004    36198    39446 
   38841    33761    26241    19775    15384    12271    10620    10339 
