Origin Time       2011/03/11 14:46:00
Lat.              38.103
Long.             142.860
Depth. (km)       24
Mag.              9.0
Station Code      KNG001
Station Lat.      35.5291
Station Long.     139.7061
Station Height(m) 2
Record Time       2011/03/11 14:47:49
Sampling Freq(Hz) 100Hz
Duration Time(s)  300
Dir.              U-D
Scale Factor      3920(gal)/6182761
Max. Acc. (gal)   87.294
Last Correction   2011/03/11 14:47:34
Memo.             
[...]
  -47999   -53756   -53764   -48015   -43277   -46272   -60979   -80944 
  -91343   -86136   -70179   -50377   -34722   -26346   -20143   -14687 
  -14489   -20246   -27475   -29846   -25175   -20595   -22245   -25490 
  -26483   -29434   -35491   -40678   -45408   -54260   -66639   -75814 
  -78802   -77951   -72529   -59959   -46548   -43238   -46857   -46054 
  -43621   -46277   -47038   -41271   -38104   -43246   -49972   -50409 
  -44989   -39400   -36877   -38718   -46260   -53657   -50970   -41452 
  -37760   -39921   -37993   -31143   -25380   -21636   -17466   -14044 
  -16901   -27259   -37092   -41129   -43103   -44819   -44334   -43842 
  -46649   -49473   -45065   -32991   -22875   -21287   -22630   -20705 
  -18334   -19646   -22522   -21853   -16166    -7915     -310     2523 
    -556    -4290    -6224   -11105   -20216   -28523   -34841   -44801 
  -63821   -90426  -113240  -118635  -105385   -82577   -56629   -32980 
  -18771   -15448   -19916   -30007   -42335   -51024   -51373   -43620 
  -31364   -17274    -5177     -403    -1224    -2027    -7464   -23894 
  -40576   -42344   -31748   -19327    -6389     8331    18799    17000 
    1742   -17819   -28619   -28498   -26733   -27976   -29236   -30158 
  -34688   -45015   -56021   -57875   -47599   -31989   -19118   -10362 
    -549     8246     3594   -13855   -25657   -23621   -18195   -18402 
  -21574   -22864   -25653   -33872   -42734   -47740   -47970   -41599 
  -32099   -27774   -28996   -27701   -24115   -30480   -49876   -68912 
  -77645   -78794   -76441   -69984   -60358   -52104   -45928   -39342 
  -34514   -33659   -34463   -35682   -36828   -36710   -36030   -35059 
  -32617   -29148   -26721   -25732   -23973   -21242   -20361   -22034 
  -25271   -30002   -35105   -39359   -43707   -49034   -55007   -59326 
  -57199   -48530   -40158   -35158   -30966   -27158   -26156   -29682 
  -34132   -32408   -25376   -18959   -12085    -3902     -188    -2077 
   -4274    -6544   -13504   -23059   -27939   -28981   -32499   -37545 
  -39755   -41974   -48755   -55471   -54152   -46047   -38709   -36887 
  -41454   -48328   -51457   -51783   -52679   -51236   -45127   -38259 
  -34293   -32286   -31136   -33092   -37105   -35265   -25785   -17358 
  -10557     2783    18150    25073    24787    20596    12113     3475 
    -759    -3385    -9625   -17987   -23923   -30910   -44803   -63271 
  -82642   -99498  -104305   -94346   -82094   -76151   -71197   -62697 
  -54234   -47193   -39499   -34335   -32522   -24882    -8387     4853 
    5637      616    -1014    -2938   -13088   -25625   -26126   -13250 
     560     6348     3584    -5064   -18139   -35813   -53299   -61814 
  -60826   -58610   -59706   -59025   -49880   -38428   -39702   -53116 
  -62633   -62575   -59463   -56464   -52159   -45415   -37337   -29968 
  -22587   -15683   -13956   -16562   -16390   -14206   -17421   -25721 
  -34363   -44801   -57843   -68442   -75416   -82384   -88568   -88424 
  -79704   -67783   -58994   -54666   -55445   -62744   -72376   -75210 
  -69477   -63744   -61561   -54704   -39358   -25952   -20798   -14986 
   -4338     3045     4347     3583      -89    -7339   -10859    -6353 
    -458     1254      256    -2740    -7759   -11968   -11916    -5671 
    2324     1677   -11048   -28363   -42141   -50189   -54475   -56150 
  -55609   -55833   -58217   -60097   -60609   -59732   -53855   -43388 
  -35640   -31335   -23767   -13570    -8567   -11884   -19670   -28111 
  -36034   -39506   -34150   -25601   -24622   -32947   -44558   -52866 
  -52670   -46428   -44702   -50759   -54103   -46904   -34573   -23918 
  -15738   -11401   -12592   -17731   -25238   -33474   -39150   -41416 
  -40537   -34196   -25414   -23856   -31139   -39299   -44691   -48389 
  -46469   -34607   -18637    -8657    -6282    -5854    -4904    -6634 
  -13385   -21664   -24321   -20570   -20335   -29980   -43773   -57402 
  -71751   -80375   -76134   -67505   -67113   -72187   -72050   -64184 
  -53136   -43729   -40327   -43526   -45037   -34327   -13659     2568 
    8236     9903     8733      -22   -14419   -29583   -43281   -53437 
  -58765   -59275   -56341   -55355   -63087   -79763   -95807  -100019 
  -91340   -76687   -61691   -50548   -45831   -45134   -45431   -47537 
  -50527   -48926   -42043   -36961   -35511   -32125   -28724   -31294 
  -32516   -22229    -9590   -10378   -20551   -25504   -24669   -24684 
  -22888   -17012   -13092   -12511   -10774    -8413    -8639   -14746 
  -29563   -45501   -49599   -41489   -30427   -22650   -20218   -22688 
  -27982   -34195   -40157   -44937   -45528   -38556   -27308   -20589 
  -23047   -30776   -36496   -37428   -37088   -39059   -41279   -40364 
  -37754   -36146   -35440   -34556   -32706   -28719   -21985   -16160 
  -14076    -9163      170     -543   -18794   -43206   -63180   -77798 
  -86643   -88964   -87735   -82385   -66900   -43281   -22394   -11045 
  -11083   -21745   -35199   -41841   -40538   -36592   -33558   -31065 
  -28112   -25202   -24699   -27424   -28889   -26284   -22236   -17595 
  -14112   -16908   -22575   -21800   -16627   -15179   -13986    -6305 
    -623    -8052   -22219   -31952   -35945   -36826   -37801   -40265 
  -40535   -35621   -26412   -14327    -1881     5438     4235    -2362 
  -10456   -20683   -33150   -44535   -53501   -59030   -56883   -47415 
  -37596   -32537   -32348   -36018   -43753   -50249   -45755   -35059 
  -35342   -48787   -60643   -61535   -54679   -47848   -47408   -56020 
  -69934   -78909   -75239   -61436   -43938   -26739   -13443    -7574 
  -12100   -26989   -43711   -53018   -57109   -59880   -56112   -45408 
  -39655   -44541   -51165   -52793   -55371   -64645   -72829   -68920 
  -54529   -39092   -28959   -25497   -25936   -26645   -27666   -32009 
  -39803   -47148   -51935   -54512   -55386   -54593   -49587   -40896 
  -36592   -40000   -43806   -41887   -35595   -28325   -21523   -18038 
  -22394   -31787   -36240   -32028   -26550   -28649   -37706   -44134 
  -39618   -26332   -16767   -18631   -23732   -23401   -23101   -30034 
  -41014   -50549   -59012   -65971   -64179   -49732   -32956   -28719 
  -37034   -42745   -35497   -21482   -12887   -13264   -19918   -30618 
  -39647   -41296   -36867   -28906   -21129   -20748   -27936   -35035 
  -39812   -47273   -56476   -54149   -31338     -299    17649    14692 
   -1079   -19351   -34268   -40362   -37581   -37597   -47547   -58410 
  -62732   -65986   -73230   -79632   -77682   -66338   -50447   -37293 
  -35889   -48482   -62448   -61942   -46539   -31768   -26996   -23457 
  -16663   -15167   -18302   -19144   -21848   -30917   -41031   -45090 
  -41959   -39523   -46152   -59549   -73881   -87926  -101167  -109650 
 -106028   -89352   -70988   -58883   -48679   -36670   -24767   -13881 
   -4634      364     2108     7517    18594    24960    17910     5051 
    -963    -1159    -5717   -16018   -25187   -32802   -43472   -52994 
  -51990   -45033   -46604   -55630   -60669   -64666   -74360   -80160 
  -72116   -59247   -55936   -62376   -69022   -69068   -60528   -46966 
  -37830   -39079   -47103   -56479   -62822   -59089   -45467   -35800 
  -40083   -52260   -62466   -66562   -60537   -45036   -35826   -45606 
  -60776   -60909   -49806   -44267   -45557   -43881   -39176   -38347 
  -41431   -44064   -45182   -45150   -44915   -47732   -53213   -55788 
  -55245   -56210   -56074   -49510   -41035   -38835   -41003   -37718 
  -26480   -16957   -15619   -17880   -22261   -33106   -44863   -47477 
  -45610   -48814   -53625   -53066   -47991   -42983   -41249   -40295 
  -34793   -27350   -26232   -32307   -36822   -30195   -10321    13801 
   27375    24335    12902      258   -17769   -39798   -51071   -47863 
  -42196   -39659   -37935   -35707   -36455   -45964   -58407   -60577 
  -51562   -40499   -32257   -25748   -21006   -23349   -35042   -43233 
  -34996   -20368   -15615   -19096   -23840   -31713   -42750   -47468 
  -38386   -23142   -15930   -16824   -15542   -11919   -12111   -12610 
   -7000      339     1442     -212     3191     4823    -5875   -20750 
  -28047   -33334   -44979   -57981   -63379   -60194   -53647   -51664 
  -59674   -70986   -75929   -78337   -82219   -76929   -57701   -41477 
  -43329   -54914   -59915   -55296   -47624   -39277   -29377   -25566 
  -36456   -52491   -58920   -59216   -63108   -67859   -65557   -56928 
  -50652   -49688   -45921   -36158   -29229   -28872   -29771   -30569 
  -30679   -26411   -23660   -33421   -50551   -57049   -44828   -25024 
  -12257    -3554    10662    22659    22061    16151    12483     7003 
   -3081   -12962   -14235    -8413   -10254   -22475   -32282   -36338 
  -40132   -45468   -51486   -55064   -53387   -50841   -53837   -60518 
  -65306   -66336   -63548   -57554   -47740   -32751   -20542   -22592 
  -34077   -43757   -52231   -59373   -57765   -46525   -33211   -25374 
  -23281   -20578   -18531   -26858   -44215   -58049   -62155   -58560 
  -51206   -45481   -44427   -43154   -36659   -31269   -32851   -31622 
  -18154    -1202     5684     2103    -5518   -17234   -33199   -45541 
  -48923   -47285   -48127   -57131   -73797   -91529  -102261  -101229 
  -93423   -91365   -99068  -105150   -97388   -76043   -47752   -16751 
   11060    27418    30172    24056    13970     3570    -1438     1760 
    5506      542   -11984   -24736   -35873   -50089   -65741   -74343 
  -75900   -76575   -73532   -60513   -45268   -40408   -43706   -49666 
  -60566   -72256   -74187   -64082   -48693   -34427   -22098   -13222 
  -13300   -17781   -11519     5048    13367     8340     4583     7339 
    4932    -8836   -27676   -44410   -55650   -58109   -48006   -28771 
  -13826   -14898   -30447   -48684   -60017   -62285   -56956   -46320 
  -31969   -15919    -5260    -8190   -22141   -35509   -41539   -39281 
  -28352   -12186     4266    13665     3575   -21737   -39796   -45666 
  -49699   -51917   -48784   -38886   -22241    -7557    -1302      874 
    1594      206    -2326    -9253   -24382   -41897   -54039   -61697 
  -67111   -66922   -62692   -67172   -86394  -106578  -112357  -104760 
  -88727   -60792   -23363     9669    30307    41767    49306    53955 
   50485    36885    23431    18735    16373     6737    -8812   -22542 
  -33945   -50404   -72123   -89082   -96492   -98408   -96947   -91118 
  -80095   -62516   -42278   -26525   -12596     5087    20516    25147 
   22653    21821    20262    11361     -840   -11845   -24676   -38878 
  -51151   -62157   -72204   -79691   -83559   -83172   -78047   -68910 
  -60709   -56500   -49257   -33627   -16359    -7421   -10706   -22966 
  -38650   -53639   -66135   -77921   -88996   -95229   -97436  -101592 
 -105902   -99669   -80172   -57212   -36483   -16739    -1279     7215 
   12735    14471     5469   -12712   -31239   -47176   -58805   -60781 
  -56118   -55125   -60629   -65938   -63907   -57551   -59510   -70663 
  -70904   -49968   -26477   -15357    -7915     1605     4761    -3459 
  -17935   -30287   -35677   -34054   -28523   -25803   -32688   -48611 
  -65460   -75477   -75620   -64630   -44351   -22978    -6146     8747 
   21559    24105    12407    -5131   -21356   -37702   -48494   -44765 
  -32150   -22047   -19495   -22398   -24805   -28989   -42291   -60854 
  -71401   -63616   -42217   -26027   -24156   -26836   -24695   -18670 
  -13401   -11031   -10644   -13229   -20791   -31492   -44597   -60776 
  -75456   -84834   -90415   -92806   -91340   -86752   -80937   -74644 
  -63523   -45521   -31133   -29951   -35361   -38186   -40598   -45222 
  -46140   -37147   -20234    -5919    -3838   -12300   -24813   -38850 
  -50739   -54834   -51014   -44684   -39740   -38218   -44708   -60845 
  -78605   -88107   -88895   -87155   -83785   -75007   -62425   -49734 
  -35640   -20460    -9956    -5430     -307     9359    21422    32734 
   38068    32659    18806     2433   -10929   -19278   -28360   -43219 
  -59391   -68079   -63372   -47317   -30374   -19537   -11032    -3241 
   -3395   -15228   -33733   -52811   -69346   -79313   -79557   -74229 
  -66893   -53785   -34914   -20495   -19896   -27143   -25884   -12439 
    1298     9358    15799    20029    17294    10404     7515     8805 
    2817   -18274   -46006   -69880   -91802  -112669  -124421  -125561 
 -125572  -131072  -136323  -129415  -110739   -91720   -75047   -60005 
  -51450   -46301   -35754   -23815   -21828   -26913   -22502     1103 
   34990    60492    69020    65049    50355    25003    -2240   -26448 
  -54224   -85178  -108634  -118983  -115993  -102500   -87236   -76905 
  -68391   -52619   -25885     1938    20011    31559    40100    37742 
   21087     -702   -19512   -36082   -50708   -56400   -49177   -36488 
  -28804   -31277   -41473   -49225   -47804   -43150   -42982   -44718 
  -39581   -25239   -10304    -3151    -4297   -11631   -22675   -34323 
  -43672   -47343   -46088   -46166   -48961   -47699   -37963   -23523 
  -12283   -11012   -19661   -29928   -34867   -35889   -37373   -41041 
  -46564   -54944   -65884   -73857   -76640   -73521   -57502   -33712 
  -20502   -20361   -23001   -26192   -32961   -44389   -56786   -63398 
  -64110   -64641   -66586   -66668   -62884   -57663   -53628   -49677 
  -44246   -36046   -24442   -14058   -10462   -14113   -22659   -32624 
  -40274   -43320   -43644   -45451   -47660   -50294   -62684   -83615 
  -97272  -106211  -121141  -127259  -110534   -81173   -50860   -18051 
   22909    64379    91752   102436    98371    81653    59934    39799 
   24308    12376    -2046   -20752   -40541   -61949   -86514  -110266 
 -125994  -131912  -132051  -125127  -107536   -83036   -54720   -20433 
   15584    42316    52348    42239    19578     2574    -5214   -13581 
  -24960   -37978   -50866   -59410   -62271   -60661   -53562   -38771 
  -21356    -9133     -417     2551    -9789   -31013   -44081   -43807 
  -36980   -34036   -37453   -37699   -33329   -33954   -36848   -31915 
  -22744   -19657   -24426   -30947   -35685   -43729   -59605   -78969 
  -93435   -95928   -85959   -69655   -52854   -41513   -37076   -30392 
  -16506    -3730     1935     6003    12384    14625     9070     2052 
   -2839    -7952   -12836   -17147   -23095   -29493   -35502   -41518 
  -43186   -38477   -32817   -30924   -31340   -32644   -38226   -47051 
  -53585   -59585   -68032   -70997   -58857   -36429   -17300    -6347 
     644     6378    10535    12369     9486     1129    -7215    -9810 
   -5348     4745    13707    13372     3455   -11297   -27684   -45577 
  -67558   -93811  -115560  -121014  -110072   -94705   -85512   -81280 
  -71939   -56442   -48144   -52707   -55956   -45680   -31265   -26831 
  -29521   -31853   -35977   -40990   -39282   -29688   -15926       82 
   16205    31688    46333    53658    45825    25021    -1227   -30690 
  -61770   -86713   -99761  -104064  -103587   -97010   -84455   -71086 
  -59795   -48789   -37305   -26434   -18239   -15164   -14879   -10089 
    2845    16928    22699    22890    24499    23561    15160     5002 
   -2217   -11796   -27071   -40115   -41602   -31741   -19421   -18045 
  -34792   -56832   -64351   -58114   -52819   -51006   -44635   -31884 
  -19037   -12611   -14227   -20732   -26806   -28228   -24822   -18790 
  -11307    -4523    -2311    -3683    -2101     2654     -331   -17520 
  -38734   -51392   -56753   -60777   -61812   -58808   -56292   -53735 
  -48254   -44347   -46232   -52149   -58067   -58929   -55535   -57692 
  -68745   -77965   -77531   -71992   -65754   -56735   -43951   -29525 
  -15102    -3184     3332     5542     7367    12218    18653    16562 
    1347   -13919   -19760   -23791   -31532   -40859   -51470   -61269 
  -65227   -61100   -51219   -42330   -40139   -41653   -37897   -27520 
  -19700   -17418   -12513     -274    16337    32828    44754    48949 
   45226    34944    20851     7537     -562    -2198    -4339   -16548 
  -35479   -52614   -70555   -90670  -103580  -104751  -101078   -97819 
  -90207   -76258   -65511   -60191   -49398   -29197    -5437    16880 
   33777    41674    39334    26498     7269    -8754   -20004   -35096 
  -56760   -81016  -105254  -125217  -134381  -129747  -114746   -94603 
  -69349   -39989   -16049    -4474     -574     3332     8665    11736 
   11725    12105     9620    -4153   -24838   -42780   -61870   -85212 
 -103405  -108334  -101734   -91337   -79196   -59866   -34572   -10020 
   14998    43443    66400    71561    61009    47402    36560    25229 
   11291    -3875   -20152   -39827   -63394   -86665  -105656  -118990 
 -122996  -113935   -93426   -66946   -39192   -11269    14072    29313 
   30816    21957     7115    -8952   -19471   -20773   -17125   -15760 
  -19185   -25773   -34475   -44534   -52365   -53140   -46285   -37682 
  -35384   -42508   -55020   -66796   -74517   -78550   -80504   -78607 
  -67918   -48625   -30603   -21473   -17639   -16644   -19651   -20991 
  -16338   -10174    -8232   -11372   -16223   -23898   -39318   -60725 
  -81974  -100135  -115651  -125501  -124384  -116284  -105934   -87674 
  -62939   -43674   -31989   -24082   -23432   -30829   -38592   -41444 
  -39536   -34934   -30199   -25484   -20917   -17676   -12220    -1857 
    5272      275   -11263   -18835   -22839   -26902   -28110   -23875 
  -17751   -12289    -3882     4728     2018   -13355   -32411   -50361 
  -64884   -71798   -70756   -67371   -67007   -70668   -77273   -83391 
  -82737   -74565   -65745   -59647   -53079   -45069   -38371   -33521 
  -30490   -31560   -36012   -36344   -26145   -10507     1641     9519 
   14526    16053    15336    11807       12   -24006   -53235   -74290 
  -85651   -95857  -105588  -108832  -103039   -90561   -76099   -62213 
  -48822   -35862   -24112   -16019   -11819    -6986      -55     4226 
    3166     -601    -5003   -11393   -20120   -26923   -28796   -30866 
  -37916   -44024   -41724   -33084   -23686   -15410   -10346   -13723 
  -26316   -39531   -44458   -39837   -29730   -20931   -20079   -28320 
  -39783   -45467   -41133   -29891   -14795     2539    16348    20041 
   15069     9929     7573     4708     3466     5470     4773    -2123 
  -13840   -28438   -42601   -52475   -56618   -55015   -46170   -30194 
  -13009    -2609    -2424   -10506   -23912   -41150   -59922   -74937 
  -81543   -80238   -73464   -62572   -50767   -41167   -32817   -24264 
  -16919   -12594    -8186     3536    23591    43439    54287    54176 
   44927    26246     -427   -26346   -43680   -51897   -52747   -50065 
  -49855   -53817   -57338   -54328   -45372   -38607   -41344   -53676 
  -67411   -75347   -77589   -74769   -69442   -67262   -65720   -57124 
  -44154   -36738   -37230   -40912   -44097   -44036   -39543   -33798 
  -29685   -26192   -23163   -21804   -20999   -20963   -24954   -32223 
  -37985   -42417   -49463   -58270   -64803   -67782   -68060   -66389 
  -63261   -58637   -53066   -48751   -46359   -42919   -34766   -20957 
   -3155    17624    38689    52046    53890    50940    49901    48553 
   39272    19329    -2801   -12252    -9841   -25806   -65384   -84819 
  -80093   -79720   -74407   -65558   -63883   -58908   -56046   -56103 
  -46729   -31642   -18408    -9648    -2139     9495    19701    20440 
   13763     5657      -26    -2090    -5186   -13392   -21761   -26742 
