Origin Time       2011/03/11 14:46:00
Lat.              38.103
Long.             142.860
Depth. (km)       24
Mag.              9.0
Station Code      KNG007
Station Lat.      35.3385
Station Long.     139.4901
Station Height(m) 14
Record Time       2011/03/11 14:48:02
Sampling Freq(Hz) 100Hz
Duration Time(s)  300
Dir.              N-S
Scale Factor      3920(gal)/6182761
Max. Acc. (gal)   62.530
Last Correction   2011/03/11 14:47:47
Memo.             
[...]
  -12959   -19597   -26173   -33737   -43438   -55145   -66600   -74764 
  -78576   -79913   -81009   -81307   -79283   -75127   -70185   -65258 
  -59162   -50961   -42302   -35063   -29534   -25402   -22933   -22380 
  -22848   -23323   -23219   -21726   -18743   -14491    -8250     -639 
    5742     9803    12410    14245    15672    17154    19337    22252 
   24336    23800    20026    13660     6375      -20    -5001   -10511 
  -18685   -28736   -37973   -44394   -48532   -51842   -53369   -51391 
  -46431   -40826   -36969   -35950   -37198   -38851   -39355   -38648 
  -37163   -36100   -36911   -38419   -38000   -35219   -32065   -30567 
  -30424   -29131   -24844   -18360   -11500    -5154      121     3954 
    6656     8667    10500    12634    15145    17927    20935    24165 
   26473    25934    22489    17917    13791    10471     7265     2919 
   -3745   -12806   -22279   -28471   -29676   -28002   -25619   -22786 
  -19710   -17645   -17999   -21083   -25752   -29972   -32366   -32973 
  -32454   -31211   -29307   -27262   -26263   -27119   -29671   -33083 
  -36747   -41322   -47162   -52503   -55688   -57006   -57819   -59684 
  -62691   -64601   -63111   -57302   -47370   -35574   -25717   -20214 
  -18374   -17153   -14107    -9446    -5137    -2604     -409     4075 
   10371    15998    19761    20974    19339    15796    11184     6587 
    2965     -219    -2376    -2510    -1116     1807     5670     9375 
   12308    13228    11793     8804     5081      369    -7411   -18241 
  -28826   -36753   -41046   -42381   -44032   -47413   -49993   -49935 
  -47761   -44257   -40392   -37685   -37096   -38147   -39569   -41066 
  -43644   -47133   -49414   -48929   -45491   -39783   -33519   -27802 
  -21653   -15139   -11197   -11133   -13352   -16438   -19026   -19698 
  -18739   -18176   -19758   -23528   -27993   -30905   -30965   -28525 
  -24775   -20616   -16437   -14014   -14798   -17280   -20131   -23020 
  -25660   -29111   -34057   -39952   -45723   -48995   -48552   -46865 
  -47203   -49709   -51693   -51204   -48388   -44164   -39695   -34875 
  -28236   -20067   -12467    -7252    -4869    -3997    -3544    -3808 
   -4843    -6449    -8706   -11215   -13592   -15914   -18338   -21526 
  -26140   -31318   -34807   -34536   -29974   -22540   -14817    -8963 
   -5405    -3492    -2715    -2776    -3603    -5007    -6513    -7519 
   -7772    -8407   -10804   -14859   -19293   -22409   -22621   -19243 
  -13487    -7723    -3320     -184     2155     3364     2616      428 
   -1632    -3401    -6076   -10034   -14354   -17619   -19046   -19581 
  -20612   -22653   -26475   -32373   -38421   -42168   -42902   -41694 
  -40534   -41112   -43440   -45841   -46853   -46717   -46432   -46338 
  -46033   -44255   -39664   -32688   -25061   -18219   -13125   -10294 
   -9824   -11648   -14937   -17235   -15646    -9757    -2126     3959 
    6788     7186     6530     5406     4764     5758     8870    13313 
   17004    18291    17002    13916     9840     5026     -365    -6362 
  -13371   -20658   -26519   -30337   -32260   -32515   -32188   -32428 
  -33179   -34178   -35637   -36505   -34545   -29779   -24843   -21837 
  -21192   -21588   -20508   -17575   -14955   -12735    -9154    -4819 
   -1834     -976    -1499    -2754    -5183    -8739   -11680   -12436 
  -11575   -10422    -9445    -8504    -7037    -5313    -4833    -6316 
   -9358   -12741   -14080   -12265    -8522    -4191     -686     1181 
    1855     1767     1678     1358     -315    -2191    -2066       32 
    1361     -531    -5601   -13248   -22711   -32112   -39967   -46390 
  -52085   -56782   -60254   -63969   -69116   -75125   -81061   -86084 
  -89937   -92720   -93399   -91588   -89230   -88166   -87890   -86655 
  -83779   -79209   -72407   -63942   -55737   -48675   -42254   -36329 
  -31636   -28349   -25101   -20520   -14701    -8379    -1279     7625 
   17271    24273    26810    25885    22867    18418    13030     7530 
    3062      170     -961       95     3393     8295    13032    15304 
   14726    13061    11112     7353     1209    -5273   -10349   -13610 
  -14902   -14860   -14730   -15089   -16082   -18315   -22507   -28606 
  -35553   -41997   -46955   -49789   -50058   -47657   -43558   -39769 
  -37848   -38385   -41510   -46938   -54219   -62656   -70822   -77191 
  -80469   -79610   -74699   -67070   -58548   -50209   -41662   -32360 
  -23092   -15900   -12404   -12980   -17517   -24105   -29391   -32347 
  -32852   -29422   -22745   -15513    -8764    -2576     2493     6051 
    8867    12867    18585    23309    24507    23260    22128    22127 
   22019    19700    14627     9076     6770     8496    11587    13954 
   14959    14386    11903     7285     1054    -6130   -13208   -18485 
  -21257   -22265   -22575   -22937   -23650   -24531   -25292   -25984 
  -27410   -30287   -33362   -34833   -34889   -34446   -33552   -31336 
  -26410   -18795   -10411    -3123     2154     6121    10541    15538 
   18637    16832     9741      307    -7636   -11656   -11184    -7186 
   -1932     2943     7975    13261    17017    17640    14067     6443 
   -2282    -8935   -12940   -14851   -14936   -13747   -11969   -10313 
   -9534    -9467   -10384   -13412   -18081   -23239   -28323   -32517 
  -35129   -37001   -39606   -41545   -40485   -36912   -31968   -27026 
  -24707   -25595   -27103   -26537   -23016   -17792   -13357   -11685 
  -12685   -13748   -12302    -8581    -4831    -2064      819     4671 
    9713    15105    18163    17472    13818     7831      976    -3938 
   -5869    -6559    -8594   -13348   -19865   -27050   -35303   -44210 
  -52179   -57662   -59010   -55659   -49191   -42321   -37566   -36478 
  -39218   -44377   -49523   -52710   -54130   -56092   -59922   -63539 
  -64806   -65124   -66893   -69709   -70699   -67948   -61901   -53810 
  -44986   -36141   -26869   -17247    -8438    -1586     2781     5762 
    9530    14985    21290    25871    25769    21460    16577    13452 
   11953    10677     6957     -576    -9312   -15823   -19170   -20914 
  -23222   -25874   -27666   -29130   -31448   -35354   -40690   -46424 
  -51522   -55372   -58031   -59981   -61739   -64019   -67081   -70575 
  -74747   -79997   -85828   -91235   -95255   -97147   -96295   -92739 
  -87309   -80520   -72543   -63503   -53393   -43233   -35122   -29470 
  -24596   -19665   -15295   -12537   -11514   -10302    -7515    -3744 
     244     3128     3560     2557     1591      200    -2076    -4087 
   -3821     -424     4358     7786     9520    12123    16659    22266 
   29432    37108    42105    42835    38913    30972    21262    11045 
    -287   -11843   -21139   -27034   -30037   -31571   -32431   -32401 
  -31463   -29952   -28298   -26345   -23612   -19917   -15149   -10048 
   -6504    -5946    -8573   -13446   -18484   -21902   -23054   -22071 
  -19827   -17623   -16666   -16949   -17524   -18009   -18612   -20351 
  -23788   -27156   -29018   -30080   -30899   -31328   -30481   -27629 
  -24516   -22064   -19050   -16067   -14017   -12826   -13163   -15088 
  -17780   -20930   -24082   -25162   -21703   -14163    -5779      788 
    5005     7561     8424     6585     1658    -5548   -13513   -20908 
  -27063   -31830   -35628   -39062   -41980   -43497   -43352   -42111 
  -40349   -38898   -38556   -39258   -40690   -42578   -43948   -43373 
  -39841   -33009   -23059   -11083      845    10964    18320    22961 
   26088    27696    26861    24207    20804    17250    13069     7910 
    3540     1162      595      646     -810    -4059    -8051   -12052 
  -15845   -19906   -24054   -27331   -28630   -27408   -25588   -25262 
  -25132   -23303   -20237   -16819   -12530    -6626      443     7757 
   14449    19487    22659    24546    24821    23119    21075    20084 
   19790    20198    21043    21361    20680    17627    11055     2084 
   -7725   -16757   -23826   -29297   -33169   -34927   -34856   -33588 
  -31733   -29622   -27023   -24221   -22518   -21599   -20342   -19055 
  -16693   -12915   -10336    -9873   -11319   -14585   -18574   -23571 
  -29539   -35349   -41357   -46560   -48746   -48581   -47869   -47186 
  -46893   -46652   -45001   -41039   -35593   -30594   -27076   -23983 
  -19551   -13172    -5144     3846    12793    20955    27912    34191 
   40534    44989    44443    38636    29622    20044    11803     4319 
   -4191   -15361   -29247   -42647   -51970   -56432   -58249   -59851 
  -61054   -60865   -59614   -58629   -58777   -59708   -61612   -64887 
  -67459   -66544   -61405   -52186   -39959   -27609   -17920   -11563 
   -7483    -5358    -5131    -5316    -6475   -10809   -17617   -26113 
  -36284   -45908   -54010   -60784   -64880   -66044   -64710   -60699 
  -54151   -45215   -35278   -26830   -19854   -12930    -7253    -4614 
   -4715    -6301    -8296   -10213   -11491   -11705   -12143   -14388 
  -18081   -22108   -25966   -29629   -33800   -38954   -44371   -49477 
  -54146   -57695   -59820   -61287   -62521   -63364   -63571   -62452 
  -59622   -55439   -49803   -42545   -34736   -27764   -22201   -17598 
  -12803    -7315    -1848     2207     3899     3761     3338     4035 
    5872     7535     8183     8283     8581     8876     8358     6961 
    5335     3595     2027     2128     4568     8185    11769    15381 
   19808    25318    31746    37996    42530    45885    49452    52719 
   54083    52806    49260    43998    37249    28969    19682    11229 
    5404     2099     -323    -3314    -7453   -12637   -18346   -24134 
  -29634   -34489   -38232   -40622   -42439   -44312   -46370   -48971 
  -51250   -51836   -50896   -49364   -47903   -46635   -45407   -43963 
  -41902   -39622   -38330   -38636   -40467   -43650   -47389   -50214 
  -51239   -50311   -47082   -41406   -33646   -24114   -13727    -4176 
    2978     6832     8070     8546     9029     8270     5011      613 
   -2296    -2988    -2707    -3254    -5049    -6806    -7854    -7741 
   -6190    -4924    -5943    -9851   -15625   -21591   -27211   -32045 
  -35399   -36898   -35869   -32453   -29097   -28469   -30549   -33770 
  -37598   -42464   -48175   -53545   -57227   -58830   -59689   -60912 
  -61461   -59976   -56467   -51908   -47772   -45617   -46229   -49189 
  -52896   -55067   -54589   -52377   -49880   -48099   -47044   -45697 
  -43566   -41044   -39055   -38369   -37713   -35537   -32799   -31150 
  -30907   -31139   -29711   -24569   -16296    -7219      481     4910 
    6453     6902     6913     6777     6515     6100     5930     5619 
    4067      897    -3668    -9419   -15366   -20075   -22711   -22835 
  -20977   -18602   -16957   -16987   -18476   -19969   -20740   -20790 
  -19877   -17752   -14653   -11463    -9126    -8175    -8685   -10297 
  -12606   -15164   -17276   -18454   -18574   -17348   -14546   -10525 
   -6020    -2308    -1315    -3927    -8297   -11871   -14436   -16726 
  -18308   -18577   -17339   -14545   -10996    -8352    -7238    -6514 
   -5095    -3060     -582     2394     4754     5450     5545     6119 
    6717     7182     8494    11257    15120    19452    23310    25932 
   27124    27008    26631    27471    29611    31663    32400    31696 
   30374    29205    28172    26788    24421    21057    17166    12707 
    7810     3487      926      -59    -1032    -3069    -5723    -6913 
   -5088     -827     4621     9260    11508    12554    14559    18174 
   22230    25501    27871    28603    26670    22288    15827     7394 
   -2146   -10725   -16372   -18784   -18129   -14757   -10410    -6443 
   -3080    -1041     -894    -2459    -5964   -11349   -17279   -22161 
  -24791   -24902   -23681   -22603   -22191   -21991   -21563   -21323 
  -21759   -22532   -23046   -23114   -22817   -21983   -20221   -18644 
  -19730   -23576   -26996   -27102   -23626   -18519   -14346   -12360 
  -12447   -13961   -15835   -17738   -20629   -24794   -29253   -33268 
  -36687   -39739   -42238   -43602   -45005   -47719   -50885   -54277 
  -57802   -59809   -60171   -59911   -58717   -56424   -53632   -50252 
  -45593   -39657   -33153   -27161   -22600   -19331   -17032   -15130 
  -12672    -9868    -7604    -5728    -3194       52     2897     4777 
    6164     7565     8339     7708     6224     4384     1625    -2511 
   -8025   -14586   -20770   -24974   -27872   -31528   -36252   -40843 
  -44591   -47330   -49034   -49847   -49650   -48152   -45625   -42418 
  -38401   -33749   -28888   -24102   -19877   -16517   -14392   -14031 
  -14876   -16067   -17310   -17974   -17412   -15193   -11228    -6269 
   -1334     2723     6392    10583    14096    15968    16237    14079 
   10016     5687     1067    -4306    -9679   -14435   -18265   -20043 
  -20272   -20551   -20366   -20256   -22139   -25760   -30371   -36551 
  -44837   -53808   -61180   -66186   -69378   -71202   -70675   -67104 
  -61811   -56732   -52955   -50545   -49750   -50267   -50935   -51542 
  -52016   -51891   -50968   -49353   -47728   -46592   -45238   -43218 
  -41364   -39544   -37145   -35000   -33524   -32441   -31416   -28985 
  -24187   -17364    -8645     1066    10238    18747    26924    34048 
   39570    44103    47625    49092    48645    46912    44345    42320 
   41405    41182    41482    41248    39522    36894    33987    30764 
   27351    24284    21684    18986    16044    12467     8006     3860 
     193    -4152    -9878   -17023   -24676   -32391   -40507   -48825 
  -57230   -66215   -76598   -88507  -100192  -109378  -115167  -117639 
 -117151  -114729  -111427  -107031  -101068   -93801   -85644   -77457 
  -70133   -63588   -57611   -52586   -48767   -45853   -43366   -40487 
  -36434   -32124   -29036   -26458   -22586   -17435   -12507    -8601 
   -6047    -5172    -5527    -6227    -6203    -4776    -2532     -373 
    1137     1718     1880     1725     -311    -5314   -12347   -19989 
  -26914   -31904   -34665   -35298   -33993   -31976   -30876   -30991 
  -31471   -31640   -31203   -30058   -28458   -26696   -24923   -23324 
  -21645   -19515   -17696   -17280   -17758   -17248   -14607   -10959 
   -8405    -7168    -5890    -4311    -3379    -3886    -5808    -8149 
  -10262   -12525   -15351   -19212   -23585   -26791   -29117   -31269 
  -32020   -31087   -29145   -25556   -19827   -14178   -11149   -10740 
  -12592   -15820   -19206   -22961   -25961   -26017   -22796   -16853 
   -8768     -195     6664    11200    14028    14830    12900     8818 
    3738    -1613    -6698   -11134   -14090   -14559   -13930   -15220 
  -19247   -25165   -31623   -37395   -43373   -49352   -53214   -54992 
  -55128   -53214   -49949   -46429   -42729   -38510   -34451   -30953 
  -26574   -20370   -12911    -4382     4168    10964    16610    21454 
   23846    24163    24301    24348    24179    24981    26570    27230 
   27229    27784    28660    29638    30625    31470    32448    33147 
   33095    33299    35230    39016    43262    46065    46225    43979 
   40818    37795    34593    31085    27711    24316    20669    16970 
   13002     8843     4836      195    -5663   -12506   -20057   -27650 
  -34553   -39995   -43168   -43804   -42293   -39904   -37910   -36230 
  -34565   -33362   -32426   -30670   -27101   -21626   -15322    -8966 
   -2627     2836     6116     7332     8057     9054     9472     8639 
    6844     5103     4316     3755     2512     1039     -512    -2106 
   -2799    -2426    -1286      709     2091     1956     1668     1489 
    1245      961    -1214    -6644   -14385   -22860   -30281   -35024 
  -37018   -37885   -39106   -40981   -43741   -46831   -49416   -52178 
  -55133   -58169   -62194   -66922   -71029   -73490   -74521   -74962 
  -75451   -76212   -75746   -72960   -69258   -65722   -62730   -61055 
  -60337   -60327   -61857   -64499   -67035   -69286   -71359   -72792 
  -73296   -73363   -73514   -73844   -74727   -76257   -77741   -78609 
  -78374   -77078   -75492   -73424   -69569   -63331   -55286   -46041 
  -35954   -25898   -16750    -7892     1147     8853    14115    17118 
   18296    18655    19302    20434    21524    22381    23132    23520 
   23264    22051    19143    14486     9817     6886     5344     3783 
    1726     -115    -1019    -1202    -1367    -1744    -2401    -3700 
   -5411    -6894    -8069    -9246   -10879   -12889   -14451   -15335 
  -16014   -16620   -16962   -16293   -13607    -9466    -5597    -2944 
   -1310     -279     -168    -1310    -3420    -6115    -9129   -12110 
  -14243   -14805   -13715   -11413    -8635    -5825    -3204    -1028 
     473      679    -1131    -4349    -7474   -10373   -13728   -17489 
  -21695   -25988   -28886   -30146   -31605   -34723   -38810   -42321 
  -45247   -48389   -51204   -51938   -49429   -44149   -37395   -30362 
  -23519   -16859   -10888    -6184    -3270    -2152    -1457     -600 
    -128      612     2281     4411     6956     9921    12566    14832 
   17172    18989    19631    19267    17831    15703    13374     9835 
    4970      -16    -4585    -8436   -12261   -17271   -23169   -28681 
  -33192   -37123   -40819   -44415   -47480   -48692   -47597   -44408 
  -39416   -33932   -28822   -23797   -19301   -16333   -15397   -16636 
  -19180   -21182   -21589   -20652   -19153   -17752   -16488   -14959 
  -13367   -12643   -13393   -15766   -19371   -23413   -28138   -34107 
  -40392   -45712   -49428   -50901   -49605   -45485   -39036   -31173 
  -23056   -15528    -8466    -1857     3532     7308     9872    12394 
   16189    21357    27336    33245    37582    40031    41147    40898 
   39634    37803    35191    30959    24574    17699    12529     8934 
    5571     1666    -2819    -7693   -12013   -14425   -15823   -17899 
  -20431   -22865   -25113   -27145   -28989   -30297   -30676   -30078 
  -28470   -26449   -25300   -25598   -26949   -28471   -29814   -31490 
  -33372   -35109   -37012   -39329   -42088   -44496   -45532   -45621 
  -45463   -45264   -45637   -46636   -46927   -45382   -42204   -38516 
  -35242   -32003   -28266   -24098   -19622   -15541   -12178    -8524 
   -4161      -54     3245     5958     7825     8266     7387     5413 
    1924    -2857    -8149   -14201   -20598   -25627   -29235   -32388 
  -35266   -38087   -40899   -43909   -47796   -52568   -57367   -61234 
  -64244   -66751   -68272   -68881   -69239   -69365   -68863   -67244 
  -64817   -62793   -61250   -58983   -55885   -52439   -47482   -40833 
  -34406   -29016   -25029   -23113   -22885   -23644   -24786   -25544 
  -25611   -25107   -24011   -21946   -18398   -13212    -6392     1202 
    7626    11602    12515    10382     6589     2573     -625    -2269 
   -2995    -3117    -1493     1524     3481     2370    -1651    -6765 
  -11698   -16183   -20141   -23741   -26865   -28948   -30134   -31353 
  -32894   -34188   -35400   -36392   -35613   -32626   -27838   -22095 
  -17484   -14329   -11560    -9652    -9707   -11726   -14160   -15293 
  -15006   -14312   -13965   -14679   -17465   -22438   -28368   -34399 
  -40572   -46357   -51058   -54098   -54954   -54528   -53648   -51707 
  -48710   -45448   -41905   -37612   -33023   -29491   -27740   -26713 
  -25127   -23370   -22097   -21329   -21242   -21558   -21501   -20409 
  -18056   -15649   -14686   -14710   -14727   -15151   -16759   -19458 
