Origin Time       2011/03/11 14:46:00
Lat.              38.103
Long.             142.860
Depth. (km)       24
Mag.              9.0
Station Code      KNG007
Station Lat.      35.3385
Station Long.     139.4901
Station Height(m) 14
Record Time       2011/03/11 14:48:02
Sampling Freq(Hz) 100Hz
Duration Time(s)  300
Dir.              E-W
Scale Factor      3920(gal)/6182761
Max. Acc. (gal)   48.203
Last Correction   2011/03/11 14:47:47
Memo.             
[...]
  -86317   -85969   -86315   -87295   -89272   -92158   -95771   -99591 
 -102868  -105771  -108561  -110929  -113009  -115008  -115931  -114534 
 -111424  -108701  -108080  -109953  -113622  -117864  -120669  -119533 
 -113649  -105657   -99664   -96976   -95578   -94223   -94520   -97924 
 -102470  -104641  -103341   -99904   -96227   -93932   -93148   -92421 
  -90856   -89256   -88153   -86361   -83201   -79973   -78024   -77231 
  -76434   -74686   -72600   -72041   -73469   -74725   -74355   -73682 
  -73395   -71934   -68898   -65840   -63319   -60916   -58615   -55692 
  -51591   -47833   -46152   -46423   -47391   -48130   -48493   -48463 
  -47599   -45345   -42351   -40740   -41352   -42777   -44243   -46557 
  -50178   -54076   -57068   -59449   -61957   -64938   -68825   -73754 
  -79628   -86001   -91446   -94596   -94917   -92580   -89569   -88842 
  -91086   -94493   -97332   -99205  -100057  -100094  -100630  -102282 
 -103879  -104331  -103382  -101402   -99392   -97987   -96785   -95583 
  -95058   -95185   -94729   -92682   -88933   -84368   -80158   -76369 
  -71997   -66632   -61917   -59522   -58324   -56159   -52587   -48317 
  -43135   -36346   -29019   -23328   -20377   -20123   -21686   -23319 
  -23312   -21284   -18589   -16689   -15354   -14296   -14894   -17852 
  -21273   -23139   -24046   -25604   -27887   -30312   -32939   -35784 
  -38632   -41163   -42567   -43131   -44580   -46727   -48373   -50134 
  -52467   -55109   -57864   -60023   -61779   -63992   -66479   -68702 
  -70039   -70715   -72293   -74910   -77552   -80643   -84533   -88313 
  -91701   -95399   -99739  -103680  -105648  -105867  -105746  -106280 
 -108392  -111742  -114755  -116879  -117690  -116044  -112028  -107076 
 -102492   -98808   -95921   -93822   -92315   -90766   -89081   -87418 
  -85241   -81892   -77871   -74183   -71003   -69078   -69435   -71073 
  -72600   -74006   -75744   -77501   -78253   -78139   -78327   -79356 
  -80764   -81467   -81276   -81559   -83249   -85443   -86570   -86284 
  -86090   -87725   -91164   -95089   -98262   -99813   -99486   -98043 
  -97098   -97271   -97288   -96224   -94117   -91506   -89740   -89378 
  -89178   -87314   -83157   -77402   -70850   -64870   -61033   -59342 
  -58971   -59849   -61934   -63740   -63529   -61609   -59592   -58351 
  -57651   -56625   -54351   -51009   -48184   -47020   -47216   -47907 
  -48383   -48323   -47685   -46751   -45807   -44567   -43256   -43384 
  -45598   -48573   -51149   -52728   -52768   -52021   -51493   -50756 
  -49453   -48391   -48296   -48842   -48885   -48157   -48198   -50300 
  -53844   -57372   -60371   -62904   -64831   -66402   -67388   -67146 
  -66510   -66750   -67916   -69479   -70868   -71674   -72174   -73302 
  -75394   -77337   -78223   -78646   -80040   -83823   -90163   -97874 
 -105407  -111250  -114691  -116005  -115526  -113543  -110505  -106670 
 -102165   -97004   -90930   -84305   -78282   -73150   -68392   -64240 
  -61218   -58973   -56216   -52296   -48849   -47704   -48288   -49548 
  -51738   -54586   -56635   -56690   -54781   -52343   -50821   -49691 
  -47440   -44491   -42322   -40912   -40177   -41168   -44256   -48004 
  -50388   -50642   -49396   -47962   -47836   -49532   -51805   -53566 
  -55475   -58454   -62420   -66547   -70771   -76162   -83004   -89751 
  -93464   -92630   -89276   -86368   -84930   -84200   -83727   -84505 
  -87476   -91177   -92414   -90641   -89012   -90204   -94009   -98946 
 -103773  -107782  -111150  -114130  -116435  -117556  -116760  -113784 
 -109776  -106825  -105450  -104139  -102126   -99962   -98595   -98552 
  -98854   -97998   -95713   -93165   -91392   -90342   -89798   -89254 
  -88279   -87039   -84930   -81133   -75972   -70312   -64727   -59853 
  -56303   -53951   -53018   -54092   -56871   -59947   -61100   -59498 
  -55941   -50872   -45131   -39634   -34543   -30855   -29883   -31303 
  -33643   -35962   -38157   -40422   -42639   -43759   -42949   -40956 
  -39441   -39647   -41266   -42808   -43546   -44075   -44842   -45911 
  -48118   -52270   -58514   -66523   -74568   -81166   -86850   -92173 
  -96728  -100304  -103548  -106969  -109316  -109164  -107951  -108652 
 -111865  -115780  -119124  -121488  -122949  -123699  -123392  -122528 
 -121442  -120196  -119517  -117561  -113341  -109878  -108007  -106599 
 -105753  -105036  -104002  -102707  -101290  -100381   -99711   -97815 
  -94517   -91582   -89338   -85729   -80213   -74009   -68041   -63721 
  -61781   -60198   -56545   -50656   -43380   -35685   -28625   -22749 
  -18334   -14808   -11527    -9674   -10813   -14805   -19867   -24588 
  -29645   -36064   -43279   -49513   -53550   -56889   -62050   -68635 
  -74366   -78619   -81903   -84481   -86818   -88843   -90100   -90980 
  -92017   -93887   -97474  -101649  -104554  -106439  -107846  -108044 
 -106057  -102995  -101719  -102689  -104489  -106198  -106885  -106224 
 -104196  -101244   -98857   -97498   -96811   -96101   -94316   -92668 
  -93187   -95788   -99417  -102693  -104139  -103184  -100749   -98664 
  -97722   -97627   -98421  -100359  -102925  -104826  -105640  -105687 
 -104523  -101841   -98219   -94750   -93091   -93476   -93544   -92307 
  -90976   -89204   -86504   -84024   -82377   -81775   -82500   -83950 
  -85447   -87046   -88913   -91171   -93675   -95736   -96959   -97292 
  -97153   -97619   -98422   -98284   -97514   -96963   -95659   -92199 
  -87440   -83191   -79791   -76774   -74270   -73121   -73481   -73653 
  -71598   -66719   -59702   -51941   -45287   -41623   -41444   -42803 
  -43032   -41206   -38207   -34935   -31649   -29036   -28020   -28373 
  -29247   -30741   -33828   -39178   -46073   -52602   -57157   -58685 
  -56858   -53316   -50795   -51202   -54912   -60642   -66458   -70886 
  -73489   -75362   -77872   -81224   -84661   -86896   -87153   -86415 
  -86370   -87407   -89117   -91279   -93263   -94628   -95608   -95979 
  -95470   -94999   -95910   -98411  -101188  -102472  -101785  -100548 
  -99734   -97986   -94100   -88909   -83694   -79482   -76807   -74104 
  -69157   -62792   -57609   -54213   -51582   -49398   -49091   -52524 
  -59374   -67473   -74403   -78069   -78429   -77328   -75783   -74029 
  -72885   -73424   -76358   -80916   -84688   -85866   -84221   -80333 
  -75215   -70341   -67254   -65944   -65514   -66173   -68042   -70545 
  -73101   -75528   -77929   -79443   -79421   -79210   -80584   -83323 
  -85373   -85494   -83830   -80333   -75044   -68952   -63409   -59321 
  -57302   -58057   -61613   -66623   -71310   -74908   -77846   -80046 
  -80586   -79314   -77046   -75352   -75437   -76758   -78396   -80040 
  -81233   -81404   -80542   -79093   -77357   -75977   -76198   -78389 
  -81196   -83161   -84301   -85226   -86073   -86967   -88160   -89232 
  -89951   -90941   -92303   -94553   -98627  -103474  -107404  -110082 
 -111645  -111812  -109888  -105799  -101384   -99114   -99242  -100411 
 -102137  -104342  -106598  -108563  -109065  -106629  -102034   -97375 
  -93156   -88605   -83388   -77626   -71500   -65516   -59904   -54153 
  -48088   -42380   -37891   -35289   -34777   -35808   -37519   -39684 
  -42836   -47031   -51438   -55486   -59170   -62303   -64518   -66184 
  -68190   -70581   -72384   -72446   -70857   -69035   -67618   -66835 
  -67631   -69959   -72474   -73834   -74004   -75016   -77687   -80176 
  -81606   -82440   -83028   -83517   -83863   -84625   -86160   -88495 
  -92008   -96129  -100000  -103262  -105426  -106439  -107212  -108785 
 -110278  -110049  -108332  -105991  -103988  -103854  -105139  -104721 
 -100786   -94795   -88927   -84245   -80767   -78063   -76402   -76783 
  -79202   -82247   -84837   -86708   -87661   -87479   -85966   -83112 
  -79869   -77919   -77639   -77657   -76839   -74759   -70783   -65077 
  -58806   -52685   -47193   -42215   -36993   -32102   -29163   -29245 
  -32394   -37169   -41145   -42887   -43008   -42947   -43594   -45393 
  -48660   -53881   -61153   -69127   -76158   -81486   -84588   -85405 
  -84726   -83472   -82885   -84277   -86645   -87500   -86710   -85761 
  -85632   -86210   -86070   -85685   -87140   -90333   -93922   -96311 
  -96445   -94431   -90426   -85578   -81915   -80541   -80216   -77680 
  -71805   -64659   -58173   -53152   -49596   -47278   -45806   -44140 
  -42221   -40585   -38883   -36873   -34255   -30756   -27398   -25960 
  -26847   -28621   -30314   -31818   -33136   -34639   -36312   -38418 
  -41860   -46398   -51272   -56537   -62404   -68762   -75101   -80680 
  -84822   -87020   -87362   -86542   -85356   -84150   -82944   -82662 
  -84663   -88395   -91516   -92741   -92574   -91274   -88957   -86705 
  -85316   -84834   -84746   -83724   -80988   -77433   -74679   -72897 
  -70685   -67996   -66318   -66718   -69484   -73350   -76422   -79379 
  -84539   -91527   -96875   -98717   -99214  -100839  -103216  -104760 
 -105397  -106436  -107928  -108608  -108667  -109770  -112880  -117053 
 -119331  -117612  -113537  -109173  -104392   -99618   -96156   -94715 
  -95085   -96064   -97101   -98492   -99545   -99534   -99317   -99759 
 -100461  -100903  -100703   -99347   -96794   -93339   -89241   -84419 
  -78102   -70042   -61753   -55560   -52692   -52342   -52845   -53418 
  -54360   -56133   -58303   -59674   -60184   -61675   -65371   -70512 
  -76051   -80872   -83827   -84862   -84403   -82881   -80820   -78338 
  -75266   -72326   -70935   -70139   -67999   -65400   -63813   -63660 
  -63882   -62631   -61298   -62273   -65209   -68725   -71814   -74352 
  -76553   -78010   -78371   -78273   -77788   -75912   -72827   -68133 
  -60472   -51418   -44374   -41106   -41290   -43482   -46289   -48715 
  -50021   -50769   -52591   -56406   -62483   -70476   -79201   -87255 
  -93665   -98177  -100615  -101027  -100156   -99190   -98599   -96674 
  -92060   -86372   -81808   -79273   -78433   -78380   -79348   -81361 
  -83533   -85586   -86699   -86967   -88390   -91359   -95028   -98695 
 -100888  -100451   -97487   -93145   -89065   -86439   -85691   -85673 
  -84555   -82306   -79797   -76947   -73164   -68337   -63010   -57686 
  -52920   -49142   -45635   -41738   -38376   -36810   -37642   -41046 
  -46683   -54166   -63166   -72942   -82462   -90824   -98119  -104930 
 -110932  -115867  -120226  -124169  -127939  -131835  -134798  -136341 
 -137486  -137792  -136322  -132857  -127202  -120228  -113000  -106694 
 -101767   -96934   -92502   -89268   -86398   -83947   -81968   -79899 
  -78342   -77655   -76995   -75729   -74113   -72484   -70682   -68739 
  -66769   -64825   -63485   -63207   -64020   -66140   -69684   -74068 
  -78241   -81265   -82820   -84120   -87011   -91688   -96609   -99982 
 -101810  -103693  -105749  -106865  -106952  -106786  -106872  -106139 
 -103568  -100745   -99318   -98959   -98933   -99034   -99804  -102120 
 -106128  -110856  -114826  -116774  -115764  -112217  -107651  -101988 
  -94607   -86724   -79533   -73308   -68475   -65640   -65294   -66747 
  -67801   -66353   -62593   -58921   -56499   -54580   -53445   -54345 
  -57435   -62186   -68713   -77388   -87096   -95225  -100552  -104340 
 -107711  -110498  -112749  -114656  -115743  -115883  -115517  -114896 
 -114536  -113569  -109919  -104211   -98248   -92989   -88695   -84526 
  -80401   -75681   -68582   -59266   -49555   -41337   -34853   -28904 
  -23990   -21915   -22564   -24293   -26388   -28225   -28577   -28043 
  -28346   -29410   -31039   -34231   -38398   -41729   -43200   -42883 
  -42438   -43058   -44247   -45385   -45701   -45183   -45457   -47506 
  -50410   -53132   -55592   -57828   -60041   -63154   -66457   -67781 
  -68424   -70814   -74452   -78902   -84068   -89134   -93860   -98602 
 -103623  -108305  -112370  -117091  -122927  -129101  -135247  -140921 
 -145471  -148766  -150956  -151672  -150712  -149280  -147980  -145332 
 -140219  -133384  -126139  -119270  -112862  -107087  -102717   -99567 
  -96139   -91523   -86069   -80553   -75653   -71649   -68296   -65848 
  -65052   -66122   -68779   -72283   -75963   -79551   -82603   -84619 
  -85231   -84450   -82771   -80288   -76991   -73537   -70193   -66460 
  -62099   -57765   -54860   -53888   -54131   -55323   -57002   -58498 
  -60831   -65258   -71252   -77330   -82359   -86226   -89905   -94340 
  -98304   -99463   -98233   -96837   -95555   -93114   -89368   -86135 
  -84898   -84932   -85046   -84853   -84540   -84948   -86160   -87080 
  -87179   -86488   -85024   -83069   -80921   -78968   -77429   -75777 
  -74017   -73320   -73863   -74154   -73268   -71262   -68453   -65640 
  -63072   -60591   -58897   -59005   -61442   -65168   -67650   -67162 
  -63863   -59155   -54735   -51735   -50945   -53344   -59378   -67896 
  -76304   -82317   -86082   -89968   -95541  -101751  -106790  -110661 
 -114628  -119199  -123489  -125721  -125426  -123813  -121648  -118881 
 -114503  -107602   -98372   -87325   -76131   -66429   -58026   -50883 
  -45845   -43719   -44839   -47797   -50056   -50904   -51147   -50995 
  -50359   -48904   -46318   -44020   -44314   -47514   -51789   -55876 
  -59769   -63473   -67313   -71022   -72734   -71502   -68375   -64846 
  -62756   -63665   -67197   -72368   -79103   -86656   -93735   -99497 
 -102557  -102502  -100636   -98058   -95628   -93625   -91860   -90920 
  -91359   -92825   -94652   -96470   -98495  -101206  -104639  -108973 
 -114696  -121300  -127642  -133397  -139251  -145358  -150005  -151951 
 -152351  -152162  -150625  -146840  -140976  -134735  -130453  -128572 
 -127239  -125192  -122449  -118450  -113055  -107740  -103817  -101079 
  -98850   -97568   -97751   -98795   -99989  -100883  -100944   -99814 
  -97737   -95347   -93023   -90888   -89131   -88005   -87255   -86191 
  -84597   -82847   -81393   -80145   -78092   -74185   -68825   -63643 
  -60163   -59571   -62363   -67448   -73267   -79137   -84603   -89485 
  -93753   -97033  -100146  -104179  -108081  -110928  -113371  -115297 
 -116074  -116015  -115485  -115124  -115652  -115953  -114848  -113273 
 -112184  -111054  -109207  -106578  -103259   -99429   -95103   -90495 
  -86456   -83395   -80879   -77842   -73084   -66577   -59650   -53744 
  -48877   -44013   -39150   -35289   -32554   -30276   -28478   -27251 
  -26178   -25356   -24720   -23706   -22274   -20693   -19292   -18175 
  -17086   -15964   -14536   -12576   -10631    -9336    -8722    -8479 
   -8725    -9583   -10756   -12257   -13857   -15264   -17209   -20277 
  -24068   -27837   -31159   -34284   -37119   -38888   -39335   -38790 
  -37929   -37905   -39100   -40270   -40548   -41283   -43834   -46886 
  -48483   -48902   -49332   -49849   -49850   -48811   -46698   -44345 
  -42770   -42138   -42293   -43501   -45926   -48961   -51397   -53230 
  -55411   -56907   -56874   -57291   -59036   -60746   -62046   -63298 
  -64523   -66502   -70505   -76512   -83066   -88890   -92907   -94452 
  -94929   -95549   -96019   -96956   -98625  -100166  -101332  -102229 
 -103038  -103712  -103875  -103311  -102233  -101693  -102466  -104352 
 -107021  -109689  -111271  -111200  -109155  -105253  -100030   -93747 
  -86920   -80809   -76570   -74285   -73384   -73483   -74001   -74238 
  -74055   -73655   -72866   -71007   -67871   -63831   -58818   -52904 
  -47427   -43613   -40989   -39032   -38567   -39864   -41908   -44308 
  -47232   -50588   -54868   -60351   -66119   -71508   -76423   -79946 
  -80858   -79636   -77445   -74198   -70707   -68846   -68266   -68325 
  -69715   -71592   -72690   -72659   -71308   -69424   -67878   -67022 
  -66882   -66873   -66277   -64428   -62349   -61419   -60777   -60012 
  -59512   -60027   -62209   -64294   -64782   -63965   -62828   -61976 
  -60730   -59864   -60910   -63239   -65114   -65635   -65351   -65106 
  -65409   -66107   -66754   -67456   -68318   -69887   -72334   -74411 
  -75291   -75237   -74637   -73538   -72250   -71189   -70413   -70130 
  -70318   -70782   -71304   -71542   -71108   -69403   -67013   -65342 
  -64723   -64738   -64659   -64544   -65496   -67959   -71985   -77337 
  -82797   -87401   -90820   -93386   -95747   -97428   -98347   -98741 
  -97191   -93470   -89290   -85419   -82496   -81550   -82622   -84829 
  -87284   -90306   -94289   -98171  -101005  -102716  -103489  -103377 
 -102422  -101239   -99819   -97488   -95074   -93890   -94074   -95414 
  -97372   -99163  -100321  -100736  -100739  -100888  -102112  -104700 
 -107288  -108682  -108637  -107111  -105021  -103439  -101759   -99834 
  -99173  -100154  -101926  -103883  -105421  -106092  -106017  -106125 
 -107497  -110025  -112751  -114877  -116175  -117162  -117854  -117098 
 -114916  -113602  -114680  -116794  -118222  -119132  -119574  -118437 
 -115577  -111791  -107757  -104113  -100584   -95998   -89716   -82832 
  -77224   -72871   -68541   -63957   -59312   -54809   -50894   -47895 
  -45888   -44802   -43766   -41557   -38683   -36997   -37144   -38244 
  -39513   -40985   -43251   -46963   -51970   -57385   -63109   -69654 
  -76432   -82007   -85315   -86096   -84540   -80814   -75949   -71358 
  -67019   -63289   -61514   -61203   -61215   -61136   -60647   -60150 
  -58853   -55539   -51138   -46817   -43031   -39148   -34468   -29951 
  -27114   -27237   -30158   -34724   -39884   -44037   -46231   -47212 
  -48521   -50670   -52799   -54822   -57380   -59523   -59458   -57458 
  -55305   -54304   -54810   -55939   -57346   -60084   -63749   -67066 
  -69914   -71821   -73001   -74523   -76008   -77184   -78382   -80134 
  -82842   -85206   -86288   -85889   -84158   -82895   -82739   -82883 
  -83263   -84067   -85785   -87839   -88587   -88360   -88026   -87393 
  -86965   -86980   -87374   -88593   -90448   -93162   -96906  -100968 
 -104694  -107034  -108522  -110435  -111275  -109948  -107635  -105018 
 -102298   -99925   -98160   -97165   -96890   -96515   -94967   -92392 
  -89590   -86953   -85414   -85714   -87232   -89106   -90481   -90719 
  -90205   -89257   -87254   -83905   -79587   -74236   -67755   -60705 
  -53803   -47722   -42844   -39115   -36506   -34958   -34218   -34171 
  -34276   -33354   -31178   -29082   -28459   -29203   -30567   -33068 
  -37489   -43149   -48594   -53227   -57417   -61030   -63516   -64901 
  -65323   -64738   -63559   -62502   -62013   -62294   -62934   -63830 
  -65724   -68105   -70007   -71043   -70773   -70089   -69760   -69462 
  -69622   -70207   -70752   -71247   -71663   -72550   -73787   -74962 
  -76760   -79003   -81511   -84060   -85426   -86481   -88475   -91055 
  -93701   -95516   -96846   -98247   -99669  -102089  -104928  -106575 
 -106617  -105263  -103710  -102603  -101512  -100362   -99055   -97899 
  -97414   -97149   -96419   -95334   -94642   -94596   -95012   -95998 
  -97291   -98810  -100789  -102486  -103093  -102313  -100072   -97263 
  -94939   -93326   -92273   -91517   -90699   -89007   -86082   -83272 
  -81602   -80836   -81059   -81975   -82585   -82349   -81059   -79081 
  -77318   -75913   -74172   -71746   -69143   -66703   -64356   -62575 
  -61928   -62459   -63182   -62583   -61356   -61401   -62110   -61857 
  -60895   -60209   -60454   -62175   -65019   -68108   -71305   -74602 
  -77592   -80264   -82826   -85133   -87205   -88875   -89285   -88315 
  -86791   -85200   -83680   -82540   -82422   -83700   -85899   -88434 
