Origin Time       2011/03/11 14:46:00
Lat.              38.103
Long.             142.860
Depth. (km)       24
Mag.              9.0
Station Code      KNG014
Station Lat.      35.3609
Station Long.     139.0828
Station Height(m) 107
Record Time       2011/03/11 14:47:43
Sampling Freq(Hz) 100Hz
Duration Time(s)  297
Dir.              U-D
Scale Factor      3920(gal)/6182761
Max. Acc. (gal)   26.136
Last Correction   2011/03/11 14:47:28
Memo.             
[...]
     207    -6924   -14915   -20927   -22798   -20146   -15540   -11932 
   -9837    -9243   -11043   -14320   -15816   -12013    -2417     7182 
   10209     7582     5003     5634     8634    12338    15692    16197 
   11534     4877     1813     1400     -710    -2378      765     5344 
    4297    -2802    -9064    -8759    -3881     -985    -2925    -6601 
   -8716    -9923   -11670   -13389   -14696   -16325   -19059   -22856 
  -24653   -21011   -14746   -11562   -11268   -10202    -8892   -10125 
  -12979   -13750   -10733    -6291    -4093    -5156    -8058   -11872 
  -16637   -20533   -20672   -18120   -16301   -15102   -12543    -9570 
   -8690   -10037   -11146    -9752    -5977    -1761     1386     3071 
    2948     1694     2239     5629     7962     5894     1863      229 
    1318     2278     1200    -1124    -1899     -308       74    -3608 
   -8827   -10869    -8296    -4422    -4839   -12730   -23860   -28902 
  -24329   -16593   -13509   -15850   -18990   -19893   -19718   -20127 
  -19518   -15512   -10103    -8290   -11214   -13965   -12500    -8266 
   -4188    -2922    -7061   -15802   -24300   -27403   -24196   -19307 
  -18209   -22731   -30726   -36897   -37027   -32776   -28987   -28378 
  -29440   -28694   -25910   -22930   -19219   -14014    -9004    -6639 
   -7329    -9030   -10387   -11519   -11550    -9125    -5087    -2502 
   -2799    -3761    -3917    -5006    -7696    -9391    -8508    -7974 
  -11129   -15848   -17306   -15063   -12832   -12507   -11561    -7324 
   -2223     -902    -3561    -5786    -3702     2039     6799     5876 
    -484    -5733    -4538      -52      672    -4088    -9028    -9217 
   -6779    -6581    -7806    -5382     1450     7343     8050     4997 
    1668     -701    -2562    -4464    -6891    -9768   -11922   -11814 
   -9937    -8781    -9624   -12236   -15298   -16214   -13766    -8983 
   -3047     3139     8182    10925    12134    13970    17522    21320 
   21617    16119     8784     6126     8177     9680     8457     6232 
    3839      -10    -5473    -9432    -8898    -5467    -3882    -6470 
  -11406   -16483   -20977   -24153   -25333   -24999   -24792   -25539 
  -25635   -23314   -19582   -17902   -20321   -24112   -24490   -19450 
  -10987    -2861     2251     3462     2365     1966     2057      282 
   -1994    -1698     -331    -1605    -4775    -5947    -4206    -2302 
   -2237    -2509     -669     2245     2888      729    -2144    -4399 
   -4891    -2156     2945     6384     4294    -2359    -7906    -8764 
   -6585    -3503      122     2485      822    -2721    -2536     1116 
    2937     1535      195     1524     3555     1215    -6746   -15737 
  -21375   -23352   -23463   -22712   -21531   -21493   -23807   -27007 
  -28274   -26274   -22449   -18615   -14487   -10858   -10304   -11737 
  -10915    -6926    -3293    -3437    -6641    -7651    -2736     3458 
    3652     -950    -2813     1181     6854     9624     9219     6630 
    2436    -1281    -2683    -2482    -2845    -5835   -10468   -13137 
  -14706   -19690   -26667   -29710   -28338   -27652   -30409   -33673 
  -32865   -27899   -24263   -25781   -28210   -25197   -17098    -9330 
   -6777   -11104   -19006   -23358   -18837    -6932     4556     7886 
    3204    -1810    -2184     -799    -1255    -1921      -50     2526 
    1809    -2721    -8259   -11818   -12129   -10464    -9212   -10158 
  -13492   -16720   -16684   -13661   -11173   -11521   -13502   -14550 
  -13349   -10756    -9357   -10794   -13597   -15126   -13571    -8277 
   -1688     2190     3121     3614     4384     4557     3865     3131 
    3083     3436     3589     3233     2429     1924     2261     2446 
     682    -4071   -10505   -14705   -13936   -10463   -10111   -16324 
  -25012   -27937   -22033   -12100    -4888    -3617    -6941   -10244 
   -9756    -6707    -4522    -4533    -6496    -8128    -6638    -4251 
   -5454    -9372   -11931   -12016   -10261    -6171     -471     3611 
    4185     3197     3524     4895     4292     1065     -287     2839 
    4516     -273    -5909    -5363    -1447    -2189    -8624   -12640 
   -9660    -5857    -6760    -8003    -4141      520    -1658    -7543 
   -6671     2234     8732     4877    -4804   -11003   -11963   -11220 
   -9489    -5945    -2485    -1437    -1287     1123     5418     8248 
    8625    10221    15789    21432    21865    18055    13978    10808 
    8440     7772     9243    11953    14761    16859    17252    15181 
   10709     4922      549     -946    -1801    -3253    -3511    -2433 
   -2124    -3066    -4149    -5677    -8551   -11343   -11266    -7653 
   -3986    -5210   -10686   -14100   -13414   -13412   -16023   -16721 
  -12304    -5731    -1802    -1740    -4131    -8680   -15255   -20733 
  -21146   -16414   -10442    -7134    -6669    -6272    -5431    -6483 
   -9694   -12785   -13393   -10155    -4193      756      528    -5121 
  -11140   -13799   -14179   -13936   -14044   -15526   -17688   -19225 
  -20203   -20322   -19163   -18049   -19306   -24974   -33639   -39179 
  -37496   -31230   -25414   -22602   -22136   -21795   -20563   -19063 
  -16696   -11379    -3920     1664     3429     2107    -1365    -4934 
   -5888    -3157     1517     3420     -187    -4493    -2227     5981 
   11531     9644     5033     3701     6225     9336    10444    10201 
    9919     9146     6772     2140    -4975   -14024   -21911   -24646 
  -23202   -22905   -25993   -29311   -28631   -23684   -19317   -19041 
  -19682   -16789   -11431    -7707    -5949    -3832    -2202    -2621 
   -3181    -1648     1372     2835      407    -3648    -5370    -5130 
   -5360    -5351    -3049     1783     7257     9773     7537     2725 
   -2103    -5767    -7290    -6311    -3762    -2216    -4361    -9609 
  -14288   -15211   -12906   -11394   -11948   -10707    -6700    -4613 
   -6580    -8787    -7910    -6196    -7033    -7780    -2863     6089 
    9946     4758    -1768    -1391     3651     7024     8973    12883 
   17267    18729    18574    21181    26856    29792    26109    20353 
   18104    17075    12516     6211     3995     6699     8596     6680 
    5488     8478    11535     9210     2786    -1719    -1894      -29 
    1802     1685    -2988   -12191   -21849   -27688   -29410   -29309 
  -28442   -26120   -22595   -21053   -24180   -29165   -30234   -25429 
  -17893   -11620    -7696    -4802    -2997    -4045    -7923   -13023 
  -17292   -17768   -14047   -10048    -9457   -12236   -14641   -12425 
   -6171    -1784    -2642    -4486    -2461     2546     7153     9588 
   10176     8874     4794     -879    -6366   -11831   -17258   -21127 
  -20962   -16460   -13394   -17196   -24195   -27103   -24756   -21534 
  -20578   -21066   -21228   -20821   -20429   -19909   -18955   -18328 
  -18010   -15883   -11007    -7374   -10107   -16453   -17511   -10934 
   -4500    -5671   -13177   -20376   -23309   -22944   -21011   -17391 
  -13058   -11226   -12533   -14026   -14998   -18496   -25581   -31517 
  -31334   -27693   -26366   -26556   -23193   -16255   -12843   -18175 
  -26711   -27912   -20169   -12377   -10696   -11539   -10022    -7559 
   -8616   -14074   -19402   -19161   -12572    -3962     1902     3254 
     498    -4052    -6417    -5416    -4111    -4433    -4904    -4297 
   -3202    -1900      261     3232     5755     6680     6091     4967 
    3961     3463     4419     6272     5204    -1376   -10169   -14953 
  -13563    -9826    -7112    -4561    -1687      175      979     1068 
   -1020    -5476    -7725    -3907     1789     2397    -1752    -4893 
   -4658    -4232    -6788    -9993    -8668    -2316     4396     8097 
    9222     8008     3500    -2021    -4050    -2031      178     -892 
   -4379    -6741    -7277    -7412    -6100    -1699     3206     3602 
    -492    -3594    -3291    -2363    -2349    -1128     3174     8679 
   10760     6781     -383    -5486    -7725   -10375   -13526   -13260 
   -9082    -6503    -9041   -12617   -13080   -12586   -13510   -13598 
  -10204    -4509      287     2683     3231     3454     3647     1536 
   -1970    -1889      447    -1360    -6718   -10235   -10130    -6940 
   -2344      332      489     1046     3800     7707    10453    11161 
   11596    13647    16549    17836    15616     9451     2227    -1314 
    -881     -439    -2543    -7652   -14783   -20139   -20068   -15437 
  -10040    -6356    -3713     -723      943    -1394    -6323    -9195 
   -7760    -4809    -4990   -10246   -17971   -22647   -21183   -16588 
  -13216   -11674   -11425   -11387    -8837    -4511    -1939     -193 
    4150    10575    14302    10484      228    -8214    -8007    -1696 
    3000     2566    -1308    -7309   -15114   -20716   -18816   -11508 
   -7812   -12751   -20396   -21572   -16191   -10379    -5652      239 
    5927     6453      542    -6285    -9452   -10974   -13000   -14015 
  -14563   -17739   -22640   -23063   -14951    -4046     -657    -5969 
  -11544   -12197   -10180    -7920    -5201    -2540    -2534    -7170 
  -14084   -18166   -18177   -18039   -20555   -23615   -23820   -20348 
  -14856   -10799   -10435   -11440   -10478    -8542    -9670   -14223 
  -17030   -15487   -13809   -16689   -22797   -26116   -24046   -20455 
  -18765   -17733   -15239   -11938    -9648    -8043    -6540    -7477 
  -12833   -20491   -24727   -21093   -13214    -8771    -9449   -11343 
  -11772   -12087   -13730   -13703    -8145      329     3614    -2283 
  -11835   -16187   -14196   -11964   -11897   -13514   -18022   -22290 
  -20945   -14829    -9453    -9377   -13052   -13178    -7285    -1941 
   -1984    -4153    -4005    -1341     1651     2735     1718      203 
   -1614    -3306    -2657     -727    -2253    -6785    -6618     -163 
    3904     1964     -698     -939     -698    -3069    -7670    -8622 
   -2628     3964     3604    -3592   -13192   -20958   -23575   -18244 
   -5358     6394     6525    -3112    -9504    -4913     4725    10437 
   11620    12778    15902    18208    16304    12954    13405    15489 
   12905     4689    -4298    -7942    -5304    -2258    -3501    -8497 
  -14745   -19317   -20496   -19886   -20596   -24444   -30543   -34873 
  -34122   -30725   -29528   -30151   -27756   -20650   -12948    -9297 
   -9984   -11352    -9334    -4353    -1054    -1202    -1961     -681 
    2705     5364     3690    -1458    -5216    -5517    -4014    -2398 
   -2045    -2241      597     7055    12410    12771     9445     6435 
    6976    10531    11173     5433     -817     -604     5014    10240 
   11365     7696     1720     -998     1294     3954     3836     2853 
    3269     5253     8503    11172     9860     5030     1466     1487 
    2172     -900    -9149   -18565   -22766   -20583   -16866   -15211 
  -14847   -14665   -14948   -14160    -9591    -2447     1188    -3408 
  -13595   -22176   -24186   -20034   -14109    -9446    -5000      111 
    3524     4159     5244     7782     7665     4113     3072     8755 
   15876    14256     4259     -473     5705    10821     5238    -4014 
   -4303     5125    12657    10384     2461    -2385     -719     3169 
    4599     4368     4577     5324     6506     7680     7449     5656 
    3441     1990     3663     8728    11952     9137     3523     1767 
    5392     8099     3544    -4548    -5752     2370    11789    17033 
   20897    25829    28541    26337    21696    18978    20476    24021 
   24882    21155    13396     2163    -9085   -15174   -16310   -17030 
  -18347   -17939   -15700   -12346    -6825      553     7271    10673 
    8755     3348      142     1015     2136     1263      493      637 
   -2039    -9144   -15371   -15656   -11133    -6069    -3194    -2556 
   -4078    -7132    -8388    -6097    -2257      138    -1206    -4059 
   -3232     1353     5811     8351     8576     6476     3638     1160 
   -1426    -3239    -2674     -554      856     -378    -4937   -10921 
  -15685   -18071   -17487   -13873    -8643    -4485    -4391    -8973 
  -14341   -15501   -11996    -7804    -5788    -5215    -5247    -5115 
   -1735     3750     3525    -4272   -12249   -14319    -9192     -162 
    6015     5739      574    -6168   -11060   -11587    -8334    -4841 
   -2795    -1602    -3287    -9957   -18193   -22530   -22081   -20020 
  -18497   -17580   -18106   -21594   -26466   -28067   -24966   -21126 
  -20081   -21366   -23593   -27264   -32318   -36682   -37957   -34575 
  -30078   -31864   -39984   -46732   -46851   -41235   -35323   -34050 
  -35379   -33610   -29067   -26514   -25741   -23111   -18971   -15760 
  -12769    -8601    -6531   -11519   -22446   -32263   -34844   -29990 
  -23469   -20956   -22089   -23236   -22274   -18254   -11340    -4302 
    -793     -643      266     3039     3454     -778    -6126    -8573 
   -7281    -2876     2139     3555        2    -5791    -9948   -10245 
   -8549    -8079    -8052    -6838    -6296    -6874    -4689     2016 
    7952     7295     2629      576     2574     5951     8899    11231 
   12388    10811     6114      842    -1203      476     1899     -397 
   -5145    -8232    -7483    -4502    -2464    -1835       95     3644 
    6070     6787     7632     9659    11733    11860    10067     7923 
    5599     2413      217     2504     8775    13997    14938    14316 
   16791    21450    23361    21776    20284    21239    24097    26721 
   26953    24242    20514    18706    20121    23629    26235    25304 
   22078    20581    22641    27164    32239    34742    32247    26794 
   21976    18025    13501     9241     7605     8543     9189     6816 
    1060    -4513    -5247    -1485     1948     1606    -1002    -1417 
    1539     4370     4715     4197     4621     4329     1061    -3197 
   -4791    -4109    -5001    -9637   -15613   -18507   -16902   -13223 
   -9524    -6108    -4478    -7280   -14457   -21467   -23745   -22019 
  -19864   -18756   -18729   -20859   -26342   -33348   -37488   -36926 
  -33876   -31375   -30982   -31509   -30629   -28747   -27835   -27616 
  -26761   -26004   -26766   -27767   -26274   -22725   -20441   -20942 
  -23026   -24265   -22671   -19854   -19475   -21809   -22911   -19709 
  -15234   -14547   -17153   -19063   -18670   -17163   -15307   -12757 
  -11176   -13572   -19426   -24289   -25079   -24302   -26574   -31269 
  -32915   -28582   -21213   -15886   -14267   -13113    -8853    -3250 
   -1603    -4757    -7899    -7450    -4045     -300     1313     -417 
   -4374    -6695    -4289     1350     6113     7071     4483     2626 
    5506    10613    12133     8609     3497     1456     4217     8180 
    7991     2567    -3741    -6247    -5615    -6325    -9644   -11900 
  -10653    -8499    -8658   -10391   -10952    -9181    -5969    -2378 
    1261     3487     2802     1343     2627     6859    10637    10365 
    6542     3123     2496     3340     2702     -330    -3969    -7155 
   -9503    -9207    -6320    -4168    -4670    -6381    -6886    -4724 
    -523     2825     2937      586    -1769    -2439    -1732    -1916 
   -4454    -8424   -12513   -16086   -18566   -19421   -18484   -16155 
  -13625   -12084   -11620   -12293   -14483   -16429   -14479    -7697 
     -96     3588     2897     1103      782      870    -1081    -4748 
   -7630    -8991   -10827   -14168   -16050   -13387    -8162    -4568 
   -4058    -6187    -9271    -8957    -2520     6469    12493    13039 
   10400    10757    16221    22883    26384    23263    15094     7600 
    1949    -2065    -1524     3241     7362     7827     5906     4504 
    4887     6421     9594    14482    17400    16062    13621    13569 
   15268    15252    11468     6039     3064     3762     4742     2079 
   -2677    -3983     -863     2071     2052      921     1942     6004 
   10185    11038     9138     7843     7727     5816      744    -4646 
   -7603    -9758   -13551   -16879   -15475    -9809    -6039    -8272 
  -13152   -15013   -13909   -14595   -18384   -21905   -23047   -22474 
  -20880   -17847   -13614   -10632   -11402   -15400   -19286   -20169 
  -17561   -12112    -5789    -2858    -6355   -13861   -19201   -18342 
  -12261    -5149    -2259    -5597   -10608   -12431   -11399    -9058 
   -5590    -1594     1591     2781     2352     2673     5484    10163 
   14715    16414    13688     8563     4427     2136      127    -2464 
   -4506    -5398    -6148    -7474    -9482   -11227   -10719    -8696 
   -8581   -10640   -11560   -10006    -8018    -7862   -10179   -13817 
  -17692   -22577   -28494   -33013   -33775   -31019   -28475   -29974 
  -34341   -37192   -36407   -33388   -30607   -28719   -27034   -26126 
  -26770   -27366   -24880   -18231   -10793    -7723    -9244   -10859 
  -10836   -11404   -13135   -13794   -12644   -11404   -11323   -12570 
  -14662   -16261   -15711   -12374    -8446    -8212   -13274   -18998 
  -19208   -14434   -11209   -13585   -18281   -19425   -16512   -14469 
  -17617   -25644   -34012   -37801   -35263   -29501   -26417   -28245 
  -31735   -33645   -34202   -35033   -35794   -34630   -31607   -28790 
  -27593   -27905   -28358   -27120   -23350   -17508   -11312    -7946 
   -9201   -11892   -11333    -7513    -3513     -490     2436     5504 
    6997     4958      801     -805     2689     8827    13484    14641 
   13105    10808     8984     8168     8038     7220     4936     2251 
     433    -1338    -4433    -7789    -9334    -8888    -7518    -6040 
   -5127    -4789    -3720     -639     3859     7713     9605     9870 
   10367    12407    13517    10926     6705     4570     5855     9753 
   13385    13262     8811     2712    -1901    -3227    -1813     -165 
      46     -129     1638     5146     7347     7435     7800     9887 
   12852    14870    15413    16349    19606    24510    28164    28848 
   27660    26372    25911    25777    23978    19819    15255    11853 
    9709     9579    12208    15524    16692    16708    17646    17796 
   14866     9553     3761       -8      520     3747     5024     2186 
   -2059    -3787    -3018    -2687    -3726    -4446    -3110       18 
    2402     1835    -1024    -4017    -5753    -5661    -4051    -2645 
   -4088    -9334   -15134   -17397   -16319   -15027   -15609   -17463 
  -17889   -15684   -13593   -14644   -17641   -19229   -18947   -19135 
  -20924   -23465   -26478   -30275   -33423   -33801   -32115   -31686 
  -34405   -37519   -36039   -29583   -23556   -21871   -22033   -19868 
  -16032   -14029   -14646   -15484   -14675   -13999   -16761   -22451 
  -26159   -24465   -19743   -16878   -18068   -21933   -25641   -27391 
  -27029   -25244   -23070   -21614   -22324   -25485   -28000   -26877 
  -23651   -21467   -20333   -17952   -14231   -12759   -16061   -21300 
  -23858   -23607   -24156   -26262   -26354   -23669   -23038   -26847 
  -30345   -28506   -23449   -21554   -23975   -24853   -20987   -16837 
  -16396   -16691   -13452    -8160    -6143    -9416   -13320   -12253 
   -6972    -2223      401     2448     3316     1170    -1919    -2169 
     395     2570     2026     -116     -596      945     1299     -103 
     148     3729     8561    11555    11137     8488     6327     5666 
    4765     2156     -942    -2765    -3343    -3611    -4118    -4311 
   -3541    -3087    -3925    -4837    -5236    -5477    -5080    -3568 
