Origin Time       2011/03/11 14:46:00
Lat.              38.103
Long.             142.860
Depth. (km)       24
Mag.              9.0
Station Code      KNG001
Station Lat.      35.5291
Station Long.     139.7061
Station Height(m) 2
Record Time       2011/03/11 14:47:49
Sampling Freq(Hz) 100Hz
Duration Time(s)  300
Dir.              E-W
Scale Factor      3920(gal)/6182761
Max. Acc. (gal)   147.872
Last Correction   2011/03/11 14:47:34
Memo.             
[...]
   19180    24743    34363    46588    59250    68078    70905    68571 
   61692    53279    46531    40322    33733    26446    16782     6728 
    -471    -5444    -8405   -10080   -13901   -19819   -24800   -27636 
  -28918   -29978   -31414   -32159   -29383   -23063   -19330   -21923 
  -29077   -40399   -55217   -69159   -77846   -80542   -79839   -77102 
  -72869   -71525   -73360   -69338   -56889   -45186   -39381   -37082 
  -36001   -33994   -28866   -20158    -8925     1687     9076    14458 
   18330    18022    14883    14350    16145    16703    17221    18159 
   17188    16065    17439    20807    25516    30445    34706    37855 
   37075    30933    22400    14299     7313     1267    -4904   -11670 
  -18615   -25820   -31674   -33408   -31375   -28796   -28562   -31093 
  -35146   -39131   -41083   -41407   -41995   -40400   -32761   -20166 
   -6305     6206    15360    19030    16060     7519    -3606   -12298 
  -15037   -14853   -14842   -12965    -9904    -9133    -9637    -8648 
   -5312      813     8012    11933    10292     5162     1046     -202 
   -1111    -1450     1646     5306     5468     4695     5735     6510 
    5866     4363      627    -5455   -11094   -14678   -15162   -10708 
   -3834     -665    -2746    -7964   -15182   -22565   -28553   -32818 
  -32551   -24899   -13452    -5971    -4653    -4888    -5064    -6188 
   -5360    -1389     2792     5163     5060     4598     7032    11922 
   17819    23336    24995    20918    12200    -1133   -18465   -34073 
  -42497   -46037   -49339   -51490   -49805   -45052   -39018   -31223 
  -20927   -10567    -1206     9890    20616    25655    25144    20312 
   10672    -1402   -11822   -17779   -17513   -10903    -1250     6619 
   11546    14457    14556    13667    16181    22408    29089    33079 
   32344    27240    20184    11788      463   -12475   -22581   -26776 
  -24886   -18855   -11686    -7642    -9587   -15293   -22798   -32024 
  -37253   -32346   -21254   -11476    -4373      463      196    -5685 
  -13138   -19955   -27136   -34495   -38955   -38288   -35557   -34880 
  -35156   -33907   -32202   -31031   -28233   -21160    -8701     6707 
   19779    29397    38649    47712    53778    55877    55615    53053 
   46149    37036    32375    33239    35048    38448    44362    48011 
   50042    54819    60149    63337    64594    61504    51314    36880 
   24271    13817      435   -14977   -26552   -35792   -47616   -58697 
  -64115   -64622   -58893   -45532   -31914   -24757   -21168   -19198 
  -22292   -29135   -34548   -38097   -41375   -43498   -43228   -40633 
  -38372   -40274   -44991   -48465   -51245   -53885   -53847   -49881 
  -40867   -27012   -13433    -4052     2615     8949    13814    12654 
    4724    -4773   -13904   -22622   -24784   -17146    -7070    -1127 
    2046     4988     7184     7389     6922     8961    13246    16699 
   20257    25976    29975    28779    25273    20691    13200     6214 
    3529     1481    -2537    -4571    -3559    -2939    -1997     2543 
   10720    19142    22955    21958    22038    26031    29808    30427 
   31243    32825    28983    19973    12629     7179     1923      255 
    3234     5938     4765     1562    -2849    -8773   -12091    -9861 
   -2847     8752    22661    35355    47462    59390    67332    69323 
   67210    63005    58598    54999    50838    44201    35043    24408 
   11874    -3371   -17681   -23946   -20142   -10600     1511    15758 
   30885    44930    57568    69506    79071    83233    82222    78345 
   73164    68104    62762    54048    40245    22558     1273   -24811 
  -51729   -71168   -81986   -89222   -93677   -94015   -91049   -85491 
  -79634   -76786   -75046   -70518   -64736   -60249   -55838   -51808 
  -51226   -54144   -58839   -66952   -79596   -92453  -101261  -105143 
 -102422   -93334   -82263   -70393   -56705   -43797   -32906   -21197 
   -8966    -1309     1625     5753    11291    14908    19591    27820 
   35207    37869    36572    33327    30145    29349    31340    34363 
   36827    38456    40723    44668    50079    58656    71720    85822 
   96136   101119   100843    94461    82284    68037    56464    48381 
   40478    29335    13743    -3414   -17206   -26110   -31308   -32907 
  -30428   -24304   -14612    -1695    10772    19084    24161    26104 
   22482    17914    20296    27625    34032    40285    46846    46855 
   35910    21128    10235     2013    -3918    -3882       89     3457 
    6643     8776     7851     7560     9166     7559     2417    -3158 
  -10967   -21640   -30907   -35987   -36695   -33490   -28331   -23807 
  -21161   -20614   -22340   -25987   -30674   -36109   -41920   -46568 
  -49479   -52414   -55961   -57799   -56655   -53179   -47774   -41454 
  -35199   -29004   -22491   -16536   -15679   -20558   -24547   -26873 
  -32405   -40498   -48214   -56167   -65393   -73328   -76826   -76003 
  -70497   -58023   -39771   -19295     3363    27867    50949    71859 
   88458    94432    88147    73403    55677    42430    37445    37694 
   40194    43393    42943    37106    31554    29222    26253    23400 
   25366    29625    31544    34218    41330    49638    56283    61794 
   63836    60294    53703    46559    40319    36030    31609    26114 
   23938    27296    32453    35876    36170    32120    23069    10405 
   -3607   -17503   -28214   -33379   -36749   -42866   -49842   -53268 
  -53847   -54922   -53997   -47904   -41626   -39823   -39010   -34104 
  -25583   -18069   -14319   -14872   -20019   -26950   -30499   -27973 
  -19251    -5151    11724    28228    42628    52211    54652    52886 
   48767    38404    23111    11511     6724     5476     7772    15807 
   27088    36731    43188    47007    48257    46731    42435    38751 
   41323    50935    63107    71965    73410    67872    57662    43889 
   28003    12177     -649    -7961   -12942   -20346   -28075   -32730 
  -35516   -39983   -47725   -54412   -54655   -48142   -38212   -28628 
  -20553   -13769    -8796    -5104     -551     6573    14841    21419 
   26080    29060    27494    18310     3991    -8978   -18457   -28963 
  -44326   -60346   -68749   -67354   -59372   -47532   -33105   -16009 
    1587    16626    31742    48087    60533    66981    68470    65736 
   62201    59349    53929    44342    31367    15116    -4119   -23455 
  -38626   -48272   -53728   -56647   -56914   -52035   -43390   -35923 
  -27943   -15555    -2606     7855    19018    30304    35774    33371 
   26807    19046    10818     3233    -4780   -16264   -31258   -46651 
  -57485   -61063   -61289   -59860   -54625   -51023   -52881   -52166 
  -44067   -32102   -18891    -6696     2491     9467    15040    19081 
   21484    21356    16314     4080   -12782   -27056   -35321   -38742 
  -35931   -24885    -7720    11007    26655    37032    42914    45062 
   44269    41421    35228    25823    18721    18723    23558    28460 
   33235    41066    52003    60249    62870    65093    67385    63201 
   53891    46086    39726    33174    30383    33235    37168    40573 
   45293    47218    41631    32487    24071    14285     3343    -5331 
  -13932   -25319   -35251   -39375   -38151   -33409   -28557   -29913 
  -41337   -57158   -67678   -71751   -73382   -71022   -62345   -52655 
  -48345   -47825   -46874   -45520   -45068   -46021   -47874   -48095 
  -44311   -37879   -33680   -33002   -31904   -29863   -28273   -23456 
  -12074     3411    17782    27684    34146    38293    36961    31155 
   30386    37457    44181    47897    51469    52299    49409    47039 
   45880    44536    42873    39555    35345    33846    34718    33999 
   30986    28619    28631    30276    32477    36248    43966    53329 
   57249    51806    39602    27253    20085    19006    21796    24953 
   26557    25318    19887    14101    12773    13772    13895    13318 
   12912    15256    21413    28804    38438    50567    57092    53894 
   46513    38021    27066    15123     6540     3745     4727     5104 
    2481    -3432   -14062   -29649   -45523   -56217   -61062   -62066 
  -58925   -52126   -46215   -41999   -35140   -26765   -23572   -28352 
  -38712   -51333   -61732   -65380   -63659   -59817   -50933   -36269 
  -23675   -17202   -12238    -7061    -5613    -9560   -17140   -27239 
  -41126   -61460   -85920  -105159  -114105  -116661  -117029  -116553 
 -115083  -109899   -98114   -78729   -51652   -20530     7527    28544 
   42455    50349    55778    62580    70082    77181    83841    84163 
   73727    59497    49502    43752    37873    30123    25524    27710 
   31949    34520    37396    40241    39771    35068    29173    27871 
   33725    45240    61541    79282    92926   100242   100036    90344 
   71579    47044    19997    -6270   -27913   -47067   -68498   -89394 
 -106171  -117811  -121601  -119563  -114544  -102413   -83529   -66320 
  -54619   -45448   -36218   -28277   -24514   -23812   -23235   -25630 
  -35481   -50196   -64671   -78348   -91828  -103513  -113358  -122189 
 -125358  -118854  -108149   -98524   -87052   -70332   -50108   -28756 
   -3579    27695    59579    87272   112414   134613   152025   165336 
  170844   162674   140676   109821    80657    62795    54825    50784 
   47412    41726    31455    17570     4233    -5373   -11017   -10110 
    1250    19325    35173    46691    56500    62333    63042    64299 
   69112    72691    70259    63494    55815    45122    27312     5859 
  -11442   -24020   -34487   -42747   -53749   -74456  -101783  -126269 
 -142841  -153285  -160056  -159251  -147486  -130764  -115756  -100176 
  -79748   -58240   -40291   -23715    -7524     6634    18583    27486 
   30604    23788     6960   -12639   -29474   -43665   -53761   -57833 
  -58286   -56525   -51981   -47366   -45369   -42747   -32776   -14205 
    8245    32936    58180    76085    81895    77546    64342    46048 
   30882    21785    17599    18138    17580     8940    -6109   -22551 
  -37175   -47064   -47468   -32829    -4505    28197    58037    81775 
   95858   101075   103289   104760   104794   104225   102756    98325 
   87044    65723    38075     8206   -25221   -58213   -80830   -90342 
  -90053   -81734   -68934   -55675   -40072   -19789     1619    19238 
   31311    36969    36181    33545    33946    36694    37930    32406 
   16558    -7593   -34966   -58720   -73533   -79526   -77275   -68500 
  -58626   -47829   -31321   -11453     4178    13624    18085    16012 
    8665     1232    -4600    -8926   -10517   -11295   -14484   -20524 
  -29019   -38592   -44641   -41369   -28317   -12176     2074    17197 
   35966    54710    70220    83171    91961    93128    85383    68458 
   44634    21703     5201   -10559   -32435   -55893   -73015   -81377 
  -79079   -63889   -40109   -16237     5469    27890    48982    64017 
   73355    78568    78470    72603    62719    50893    36682    18104 
   -2568   -18192   -22582   -14695      481    15970    27348    31429 
   30487    30411    28004    20578    15964    19248    28979    42841 
   57332    67123    68173    60616    46099    26455     3801   -18714 
  -33771   -36460   -31028   -24494   -20971   -22882   -32981   -49830 
  -65134   -76038   -87092   -98541  -109411  -119973  -128309  -133422 
 -133402  -126911  -116944  -104511   -89379   -73383   -55706   -36734 
  -21602   -12162    -5686    -1039      977     1406     4393    13482 
   27097    40662    51221    58047    63699    71762    80810    86486 
   85987    77537    60904    39082    18842     8218    10689    22226 
   36299    50920    65541    77446    86964    95664   101744   103192 
   99408    91808    84612    81984    84065    86437    85086    78484 
   65449    45451    18307   -15333   -52447   -88877  -119977  -142685 
 -157837  -166511  -168547  -168371  -172504  -176896  -170916  -151946 
 -121452   -79879   -33326     8146    38711    58205    66688    60993 
   40141    12105   -10412   -22111   -26220   -25695   -23186   -23753 
  -29847   -37911   -41341   -36061   -23970   -11020    -3483    -4489 
  -13892   -28791   -40493   -40437   -31049   -20791   -12094    -4161 
     226    -1617    -9536   -20444   -32024   -47023   -64417   -75379 
  -76059   -73659   -76188   -82866   -88412   -91896   -93765   -88920 
  -75323   -59907   -45523   -29905   -14213      205    12978    26459 
   42681    52896    48944    37391    26917    18956    16585    24106 
   38951    56442    75112    92914   107238   118266   126852   133725 
  140025   143714   141999   133544   112606    72853    19211   -34677 
  -79582  -110141  -119747  -109202   -87749   -63621   -41930   -24753 
  -12017    -2105     9508    25670    43020    57620    69844    77742 
   73916    57131    35803    11568   -20918   -56045   -86109  -113485 
 -136277  -146160  -139926  -119732   -90983   -62558   -45425   -44938 
  -54514   -62038   -56834   -36683    -9502    19960    51673    82491 
  110158   133440   148757   154260   149506   132812   103740    65184 
   25346    -7958   -37424   -68385   -97027  -118242  -132245  -138810 
 -140557  -143088  -142183  -129509  -104290   -67540   -22202    24106 
   64101    89340    92975    77708    52170    22070   -10538   -37290 
  -48307   -48449   -47097   -47365   -52519   -62675   -76892   -94492 
 -101512   -81886   -34942    28955    88641   129253   159298   183366 
  191443   180319   152889   115927    79488    41044    -4175   -51016 
  -99644  -147988  -185426  -211411  -229189  -235296  -230311  -213866 
 -178980  -129290   -78202   -30857     9657    34606    42857    40919 
   31527    18188     7863     3896     4509     5964     5944     1638 
  -11210   -29862   -44370   -50604   -49938   -40627   -26008   -14471 
   -8614    -8651    -7942     7329    37629    70582    98326   119188 
  132229   135698   127543   106814    75315    36394    -3977   -32120 
  -34294   -11456    23652    58741    85287   100085   103869    96775 
   83916    73436    64813    55518    47453    40124    32562    26043 
   22105    21009    20143    17241     8650    -9153   -33065   -60620 
  -90225  -114524  -128571  -134530  -134799  -126586  -105457   -72156 
  -30179    16069    55729    77108    79871    68394    42443     6829 
  -26988   -51863   -64098   -61336   -45186   -20869     1737    10577 
    -760   -27185   -56087   -79032   -91706   -90908   -83417   -79517 
  -77167   -70934   -62664   -53136   -37951   -15439     9212    31142 
   49105    58913    56621    46214    33798    22128    12867     7769 
    8473    15122    26646    40992    54632    64891    69667    68504 
   65350    64806    68832    76150    83144    88174    90365    86007 
   72088    50048    24161    -1640   -22973   -36238   -44546   -53020 
  -59601   -59650   -54037   -46162   -36851   -26694   -16502    -6136 
     930     -624    -9681   -21489   -35602   -52270   -68030   -80412 
  -89219   -92956   -88211   -75143   -60807   -50497   -45184   -47324 
  -57817   -74495   -93806  -109638  -115824  -108509   -90248   -69068 
  -47423   -26707   -15222   -16690   -24343   -29359   -27398   -17201 
    -498    14797    22303    23325    19091     9769      716    -1910 
     430     1660     1157     2549     5484     8633    14883    26510 
   40596    53513    63887    69249    67763    61068    50243    34846 
   18577     8653     6458     4884    -1546   -10066   -17563   -25031 
  -29167   -22713    -7106     8973    23163    36478    45540    49835 
   52708    55004    58044    62342    63033    57451    49265    40952 
   32490    25168    18305     7068   -10963   -31333   -49880   -66402 
  -78115   -82667   -79564   -65735   -44075   -20689     5124    32658 
   58056    79570    95089   101209    94778    76482    50602    21193 
   -7590   -34585   -61004   -83860   -99486  -106855  -105604   -97095 
  -83327   -64801   -39576    -6656    31509    72409   109388   133200 
  141760   135849   118051    95788    71447    42379    10408   -22234 
  -57938   -96463  -128970  -147556  -154814  -153597  -139672  -111333 
  -72605   -28132    17054    57956    92199   120714   146000   166529 
  179248   186858   190468   185078   167757   139979   103511    58820 
    9963   -32655   -60871   -76739   -86437   -88129   -75575   -52108 
  -28014    -6328    18401    44915    62255    67355    65562    59962 
   55061    55152    58758    61607    57435    41480    16817   -12408 
  -46195   -80379  -107166  -125350  -141001  -155461  -161081  -154526 
 -139747  -118677   -92960   -67237   -45121   -29111   -21032   -19073 
  -19383   -17763   -10071     5290    25688    43173    49029    41149 
   25532    10970     1499    -1397     4789    18079    31756    40814 
   43733    42144    40211    39683    40416    45717    58199    74823 
   90539   101617   103918    93577    70930    38984     1538   -34816 
  -62726   -79388   -86779   -86777   -81489   -76478   -76717   -82733 
  -90195   -89990   -76757   -54597   -27765     2235    30412    51541 
   63993    65782    55982    36967    10374   -18761   -41476   -58082 
  -73464   -83193   -84124   -78013   -61046   -37069   -18977    -5196 
   10616    22175    28192    35066    42627    52804    70668    94438 
  118478   136267   142064   134757   117105    91931    63595    37112 
   13212    -7413   -23381   -35743   -45626   -55825   -67311   -76629 
  -82897   -83792   -74350   -58138   -43493   -32120   -20070    -7440 
   -2555   -10781   -28252   -50689   -74502   -93735  -107694  -120250 
 -130581  -138051  -146540  -156181  -159826  -148816  -121249   -82835 
  -39256     4624    41680    67044    80823    86099    87841    89667 
   93036    99563   108350   116406   121980   121484   110347    89599 
   66062    44642    25921    14184    15655    28558    46217    63195 
   76422    86283    93181    96795    99701   102996   103807   101744 
   98291    90979    76720    57399    36139    14041    -5229   -17350 
  -23246   -25218   -25099   -28152   -40760   -65139   -97278  -129616 
 -155064  -167298  -162593  -142093  -111393   -80196   -55532   -37368 
  -26000   -21902   -20842   -20650   -23105   -25776   -24407   -20983 
  -18833   -17509   -18664   -26499   -41337   -59020   -75124   -86733 
  -91798   -90515   -85122   -76771   -65892   -53506   -40096   -25301 
   -8679     9297    26480    39589    45322    39526    19106    -9697 
  -34909   -54630   -74054   -91499  -103105  -111411  -120150  -128945 
 -134282  -132487  -122597  -106689   -88055   -69050   -52131   -39503 
  -29603   -20456   -13353    -7956       89    12621    27222    45255 
   70868   102838   134880   159698   173739   178245   174286   163721 
  150777   137473   124869   115056   106045    93719    78697    62777 
   44642    24331     4399   -14047   -30349   -41926   -46244   -42657 
  -31023    -9745    21428    56122    83969    98414    98066    84192 
   60330    30884     -743   -30680   -55417   -78161  -105359  -133813 
 -156309  -174660  -191410  -204622  -214879  -222182  -224341  -221506 
 -215123  -205034  -188565  -163905  -132628   -97458   -63151   -35131 
  -12052     9310    24712    32142    35108    32443    25300    21537 
   24375    33106    47051    61715    72568    78462    79191    74461 
   65234    58740    62480    73919    87756   101534   111911   117946 
