Origin Time       2011/03/11 14:46:00
Lat.              38.103
Long.             142.860
Depth. (km)       24
Mag.              9.0
Station Code      KNG202
Station Lat.      34.7396
Station Long.     139.8393
Station Height(m) -2339
Record Time       2011/03/11 14:47:36
Sampling Freq(Hz) 100Hz
Duration Time(s)  300
Dir.              N-S
Scale Factor      2000(gal)/6182761
Max. Acc. (gal)   94.919
Last Correction   2011/03/11 14:47:21
Memo.             
[...]
  118499   128131   136399   142151   143318   139611   132616   122285 
  107120    88341    71146    61651    62971    74508    94058   118359 
  142478   161629   173397   176073   166201   140830   102038    57786 
   17480   -12803   -30930   -37770   -36200   -29167   -19151    -8279 
    2359    12253    21467    30508    37790    39731    34305    21541 
    1763   -23095   -48097   -68024   -79221   -78115   -61822   -31290 
    8701    52579    94333   126609   143118   141430   123642    96081 
   67185    44060    30163    24454    21438    14086      -10   -16213 
  -27382   -28407   -17594     2931    27786    50140    64211    67303 
   61187    51831    45621    45312    49048    52075    50372    42710 
   29662    13019    -3905   -17180   -24083   -24543   -21181   -17194 
  -13572    -8492       30    11569    24253    35995    44083    46392 
   42135    31011    14834    -1700   -14930   -24333   -30188   -32421 
  -31730   -29487   -26219   -21611   -16376   -12201    -8549    -1956 
   10212    27513    47032    64698    77792    85565    87177    81732 
   69912    54512    40120    31288    29776    33117    35586    31530 
   18813     -126   -20743   -39302   -52011   -56097   -53267   -46522 
  -36574   -24017   -10112     3840    16053    24921    29579    29449 
   25412    20344    15167     7582    -3720   -17965   -32840   -44379 
  -50453   -52474   -51852   -47806   -38506   -22683     -835    24009 
   47683    67909    84765    98695   109833   118715   126071   130813 
  128830   115559    89902    55027    16731   -18392   -45308   -62052 
  -68715   -66519   -58075   -46645   -34505   -21810    -6929    10830 
   29758    48194    65244    78270    83279    77919    61762    34925 
    -876   -40841   -78080  -106517  -123460  -128445  -121453  -104182 
  -79888   -51016   -17828    20810    63940   106437   141553   164326 
  173260   170882   161031   144384   119275    85781    46441     6209 
  -27043   -45753   -47623   -36274   -18569    -1937     9253    16040 
   21891    28754    37620    50120    66077    80570    87487    84804 
   73598    55801    34947    15801     3043     -216     4808    12526 
   17023    15059     6219    -7579   -22574   -34307   -39349   -36964 
  -29893   -23588   -23276   -30046   -40469   -50393   -57141   -58487 
  -52329   -38633   -20788    -2891    14179    32133    51854    71912 
   89131    99921   102294    96999    86963    76807    71442    73239 
   80982    90621    97033    97016    89899    76265    59063    43047 
   30647    20962    11539     -513   -16603   -35025   -51262   -59357 
  -53807   -31594     5980    52226    96180   126930   137987   127400 
   97102    53780     6452   -36803   -68583   -82830   -77138   -53644 
  -18468    21306    61013    98355   131621   158563   177011   186868 
  189838   186900   177483   160648   137324   111876    89435    71962 
   58861    49679    44575    43246    43970    43975    40992    34660 
   27281    22553    23144    29788    40473    49725    50852    39441 
   15441   -16933   -51744   -83393  -106295  -116227  -113023   -98737 
  -75166   -46484   -19912     -243    13498    24783    35514    45662 
   54302    59407    58310    50498    39252    29780    26561    32198 
   47106    68789    92554   114591   132849   145053   148215   139282 
  116887    84899    51935    24605     3871   -10586   -17839   -18926 
  -16448   -12110    -8042    -5754    -3254     3380    17381    39982 
   68983    99443   126695   147683   160261   163309   157172   142825 
  121384    94879    66205    37543     9849   -15815   -37145   -50441 
  -52357   -43010   -27156   -12477    -5770    -8995   -19337   -32323 
  -43524   -49659   -49041   -40503   -24478    -4762    13672    28653 
   41167    51938    61110    69909    78909    88033    98072   108692 
  117145   119409   111825    94065    70260    46141    26838    16208 
   14642    17813    18313     8874   -12923   -42706   -73008   -96660 
 -108021  -105427   -92829   -77660   -65919   -58655   -53854   -49533 
  -44271   -37944   -31803   -26604   -21304   -13504    -1036    16146 
   34912    51039    63004    72862    83696    96347   108742   117869 
  121556   119493   113319   105816    99292    93608    86798    77333 
   64628    48386    28207     4330   -21137   -45158   -65673   -81596 
  -92753   -99818  -102046   -96069   -79110   -52915   -22783     6849 
   33511    54916    69453    77661    81765    83819    83773    79508 
   68699    49959    23765    -6494   -36149   -62178   -83974  -101958 
 -115466  -122270  -120095  -107688   -85241   -54459   -18372    18644 
   51935    78131    95325   102952   102202    97213    94972   100911 
  114924   133059   150522   161795   160835   144071   113125    73827 
   33993     1847   -16515   -18928    -7012    13870    36039    53481 
   64494    70354    72906    73943    74312    72611    67221    59256 
   51226    44818    41906    45064    55909    73827    95515   116049 
  130681   135451   129047   114540    97259    82353    73340    70025 
   68510    63152    48723    22740   -13242   -52722   -85625  -104181 
 -106061   -93357   -73378   -56075   -48051   -51671   -65371   -83185 
  -97848  -103497   -95664   -72371   -36497     4646    43950    78445 
  108280   133360   152071   162458   163869   157841   147521   135588 
  123035   109600    94170    75888    54997    31041     2271   -31470 
  -66366   -95037  -109995  -108328   -93713   -74838   -61006   -56745 
  -60055   -65469   -67404   -61926   -47989   -27380    -3810    18501 
   36770    48727    50916    41608    23732     4047    -8842    -8634 
    5167    28432    53888    73120    80911    76068    59883    36972 
   14033    -3528   -11818    -9240      562    10798    17374    20708 
   23138    26404    31162    36794    41807    46053    50824    56398 
   62494    70225    80427    91200    99116   100878    93406    75699 
   50939    25308     4672    -8662   -16327   -21488   -26637   -32703 
  -39212   -44264   -45858   -44839   -44616   -48332   -56216   -64327 
  -67471   -62923   -50724   -32493   -10800    10277    25780    32402 
   29194    18203     5721    -1124      612     9354    21835    35555 
   49566    64304    80147    95022   105242   108058   101260    83112 
   54817    21430    -9869   -31775   -38495   -28034    -3691    27588 
   58161    82243    97710   105220   106909   105955   104571   102667 
   98118    87781    70632    48928    24726    -2177   -31130   -58061 
  -78959   -93431  -103515  -111213  -115761  -113288  -100154   -73847 
  -33306    17106    67809   110472   141141   158293   161897   153673 
  135737   110655    83693    60988    44916    33429    22733    10009 
   -5589   -22813   -38169   -47083   -45476   -32490   -13422     4037 
   16085    21988    20770    11615    -4474   -24355   -44387   -61922 
  -74511   -80148   -79313   -74471   -67458   -58455   -47111   -33596 
  -17920       94    19378    38034    55058    70161    82483    90723 
   94273    93452    88425    78572    64053    47315    31996    20809 
   14049    10192     9217    13671    24911    40532    57258    73160 
   84190    84119    71035    48063    19164   -10239   -34863   -55391 
  -75008   -92228  -102943  -102966   -89007   -62949   -30648     3149 
   35672    65722    92031   110913   117335   107613    81812    44832 
    4398   -31625   -56549   -66339   -61088   -45603   -28640   -19081 
  -21741   -36057   -55854   -72240   -79569   -77557   -69253   -58898 
  -50023   -43744   -38071   -29429   -15754     2419    23649    46135 
   66955    82759    90921    91537    89353    89734    92574    93929 
   91181    83198    68988    48919    25171     1624   -15328   -18823 
   -5904    20462    52302    80283    98036   104207   103130   101892 
  104730   112081   122384   132015   136432   132837   119718    95766 
   63156    28288    -4527   -34787   -59131   -70498   -64455   -41495 
   -6811    30984    64540    90226   106477   112964   112062   108369 
  105048   102269    98456    91070    77476    56339    27742    -7889 
  -49058   -90793  -124860  -142880  -139467  -114944   -76649   -36311 
   -3902    16824    26914    29180    27499    25455    24639    24530 
   23143    18572    10512     1117    -6543   -12455   -19396   -28892 
  -39938   -49340   -52803   -47563   -33253   -11194    15601    43102 
   67671    87900   105595   123204   141397   159745   176276   187015 
  188850   180869   163847   142941   126979   121335   126785   142001 
  160262   171130   167185   143817   100278    44867    -8322   -48365 
  -69861   -70601   -53236   -26178     1380    22652    33370    33143 
   24754    11231    -4711   -20615   -35008   -46240   -51711   -49679 
  -41055   -29677   -20580   -17245   -19776   -23997   -23273   -13910 
    2096    19404    31105    30362    14820   -11740   -42467   -70279 
  -88685   -92106   -78441   -52252   -23185    -1110     6872    -2961 
  -29269   -63725   -95550  -118992  -131770  -129452  -108068   -69940 
  -24503    16777    48538    72666    92082   109091   126493   145591 
  166208   187108   204129   212939   213015   205157   189008   165879 
  141064   121000   108990   104512   104093   102107    92920    72271 
   37700    -9582   -62813  -111434  -146705  -164891  -165978  -153627 
 -134744  -116073  -101770   -91546   -81104   -66242   -43450    -9707 
   33450    78743   115841   134402   128136    97273    49325    -2564 
  -46077   -73927   -83808   -79861   -71031   -64532   -62481   -63257 
  -64149   -63477   -59885   -51068   -36003   -16369     5296    26487 
   45485    62461    78474    94506   111198   128059   144184   159564 
  174531   188915   201514   209698   211286   206351   195512   178617 
  156122   129558   100547    71257    45875    29248    23794    28584 
   39688    52029    61997    66932    64948    56655    43548    25878 
    3480   -23336   -52644   -81020  -106620  -128720  -144395  -151094 
 -149758  -141719  -127720  -109970   -90551   -70172   -48597   -24302 
    4367    37543    72712   104977   130792   149585   160849   163984 
  160224   151522   138564   120054    94130    60725    21808   -18169 
  -52138   -73159   -77211   -63884   -34631     6496    50446    89203 
  121591   147301   163090   168751   168369   163574   151619   130421 
  101569    66823    25039   -22453   -67157   -99178  -112669  -104238 
  -72575   -20749    42449   104089   154169   190247   212877   222745 
  222386   213319   193670   162048   119909    70963    21561   -21068 
  -52475   -72483   -83682   -87224   -81784   -67526   -47759   -27758 
  -13035    -5451    -1146     4903    14282    26794    42125    59833 
   80389   103449   126608   147425   163043   169095   161637   139088 
  103094    59128    13876   -28881   -67902  -102230  -129699  -145834 
 -146542  -131345  -103401   -68949   -35520    -9516     5322     8779 
    3816    -4098    -9572   -10263    -5392     5399    20089    35262 
   49227    61679    71324    76886    79624    81653    83707    86555 
   91899   100742   111177   117965   115338   100262    73714    39444 
    1515   -35158   -63802   -78890   -77787   -59477   -26463    13174 
   48694    71068    75575    62696    38073    11953    -4904    -7592 
    1724    17393    32024    36731    25298     -533   -32363   -60944 
  -80116   -87444   -82778   -67862   -46925   -25442    -8099     2785 
    8598    13231    19086    26354    35426    45957    55520    61245 
   61446    56566    49254    43953    45328    54547    67792    78199 
   79186    68730    49580    26162     4472    -9800   -16367   -20041 
  -26296   -38312   -55547   -74549   -90883  -100842  -103377   -99763 
  -91436   -79139   -63217   -44325   -23511    -2381    16675    31922 
   41324    41250    30896    15057      749    -6200    -2525    11365 
   31507    53010    72389    87770    98177   102165    97632    84194 
   65047    44962    26183     7881   -10413   -27715   -43237   -55653 
  -62509   -62540   -55604   -40855   -18147    10277    40886    69326 
   88658    91021    74517    46206    17388    -1625    -4311     9053 
   30169    48034    57420    59618    55841    47555    40483    38923 
   42147    49405    59555    69751    79385    87640    90710    88724 
   86642    86125    82960    70205    43434     4473   -39713   -79984 
 -108755  -121869  -118599  -102664   -80210   -55825   -31996   -10152 
    8907    24827    37577    47531    56076    65547    78835    99044 
  126002   152928   171056   176720   170464   152169   121880    85144 
   53000    32768    21503    13791     8887     4936    -2443   -16226 
  -37729   -63476   -85871   -99760  -104465  -101644   -92328   -76262 
  -53000   -23090    10478    43891    74821   102488   127526   151191 
  174786   196927   209717   203775   175177   124648    58098   -13899 
  -82566  -139642  -175146  -186880  -181241  -163452  -137714  -108359 
  -75631   -37286     7448    56725   106028   149728   182107   197353 
  192395   169069   131030    82749    31796   -14854   -55312   -90212 
 -120258  -145434  -162637  -167367  -159340  -144009  -128201  -115286 
 -104180   -90402   -68153   -33865    12083    66155   122830   176086 
  220467   251358   265904   262509   238658   194106   136680    77523 
   21973   -27080   -64516   -88678  -102067  -106961  -105827  -100630 
  -90968   -74005   -46349    -6222    46589   108851   173421   232508 
  278819   307754   317405   304893   271723   225877   170448   105339 
   36107   -33478  -103440  -167664  -214424  -235432  -229690  -204014 
 -171565  -142891  -121536  -106663   -92021   -69542   -35547     9544 
   62856   120052   175124   220168   248626   258043   250147   229907 
  202393   170329   135812   102635    75861    59191    52740    54431 
   62112    72433    79802    77457    60581    29353   -13583   -65112 
 -117918  -162608  -194309  -212268  -216837  -207977  -186077  -154877 
 -118954   -80555   -42584    -8668    18883    37355    44553    41586 
   32249    20392     7496    -5114   -13094   -12598    -2705    17321 
   47330    84190   124267   164719   202520   235338   260756   275896 
  278527   267747   247633   223339   194793   163258   131787    99992 
   67912    37514    10576   -12032   -28897   -38765   -45078   -52471 
  -62767   -75854   -87321   -91295   -85165   -68644   -44436   -17754 
    7732    30334    48282    60910    69908    76905    81932    84927 
   85947    83925    77962    68979    58920    49790    42575    36173 
   28680    19783    11175     5165     3506     6598    13420    23561 
   38556    59522    85157   112303   135095   145642   137606   107517 
   57245    -4238   -66800  -123598  -168517  -195915  -203629  -193140 
 -168652  -137001  -106023   -82598   -71079   -71419   -79132   -87377 
  -89564   -82139   -65378   -41117   -11865    17842    42862    60724 
   72295    80387    88999   102903   126072   159242   198312   236302 
  266953   284706   283930   263272   228256   185191   138934    95809 
   58338    22776   -13231   -48911   -85091  -121675  -153970  -176034 
 -182565  -171236  -144795  -107309   -63002   -17957    20648    46934 
   58451    56519    46145    35599    34195    47553    73232   102901 
  128239   142690   141675   125157    97921    66609    36876    11416 
   -9310   -25698   -39224   -50504   -58087   -60777   -58398   -51404 
  -41551   -31023   -19953    -6078    12908    38199    69894   106219 
  143806   177968   202885   215044   215584   207963   195334   179124 
  159058   134305   103978    68497    30419    -6287   -36285   -54619 
  -59922   -54985   -44636   -32961   -22531   -16214   -17237   -27248 
  -46341   -72382  -100800  -128088  -151385  -166230  -171091  -170430 
 -170405  -173748  -178326  -179084  -170813  -150454  -118715   -80149 
  -41278    -7876    15960    27839    28334    21851    14656    10667 
   10245    12386    15243    16059    13088     6678    -1854   -11385 
  -21267   -30572   -36697   -36367   -28858   -16838    -4222     5461 
    9286     6566      278    -5222    -6365     -537    13380    34748 
   60179    83284    97736    99562    87918    66302    42083    22436 
    9267     1359     -673     1947     5301     8541    12104    16332 
   24756    40230    60786    80974    92687    88527    67305    34600 
    -398   -28516   -43329   -42050   -26906    -5297    13205    20671 
   14875     -352   -18145   -30831   -34139   -28931   -17038      194 
   20601    41348    58861    70229    75144    74652    70033    63941 
   60530    62467    67545    69915    63863    45896    16003   -22029 
  -61337   -93642  -112602  -115260   -99827   -65675   -17542    34023 
   79451   114786   138430   148720   147213   139022   129239   122447 
  121871   126875   134083   139990   141675   136376   121302    95750 
   63991    33697    10674    -2811    -5860      429    11947    23660 
   30478    28924    19408     3589   -15846   -32508   -41124   -41361 
  -34441   -22164    -7020     8930    23000    32725    38321    42365 
   47947    55795    63162    66953    65985    60857    53487    45647 
   37723    29044    19613    11747     8501    10394    15081    19182 
   19733    15553     6988    -5517   -20274   -33543   -42155   -45379 
  -44205   -40081   -33922   -24700    -8818    17001    51780    89749 
  123155   146280   157635   158447   150780   136990   118204    94579 
   67601    39798    14365    -3464    -7674     3235    23443    44571 
   59843    63671    54116    34883    11739   -11413   -34874   -61112 
  -88611  -112298  -128418  -135037  -132044  -121762  -106327   -85303 
  -57087   -19645    29272    87722   147649   198732   232385   245478 
  239500   216246   179915   139963   106486    84116    70810    61252 
   49676    31619     7215   -18510   -38641   -46820   -40102   -20440 
    6523    33432    54061    64995    64827    54218    36628    17256 
    2130    -2424     7389    29339    55028    74812    83953    83607 
   77993    72616    72460    79205    90127    99947   104547   102742 
   94969    83413    72265    64795    62145    64267    69057    73095 
   74713    74697    74584    75135    76230    77572    78704    78751 
   76184    69031    56255    38742    19228     1303   -12315   -20127 
  -21513   -17920   -13345   -12240   -17080   -28455   -46636   -70738 
  -96567  -117182  -125659  -117812   -93618   -57066   -15259    23700 
   53638    71478    76243    68637    51836    31101    11868    -2752 
  -12455   -17915   -20990   -24066   -26668   -26563   -22593   -13681 
     726    19365    40563    61863    79000    88505    89877    84507 
   74100    60766    47059    33970    20582     6721    -6043   -15149 
  -18208   -14762    -6622     3036    11830    20605    31717    45257 
   58763    69267    73869    69890    57025    39255    23573    16389 
   20918    36964    61021    87269   110778   128942   139769   141564 
  134093   118288    95651    67541    34895      335   -31519   -57209 
  -75721   -87195   -91901   -89445   -78154   -56047   -24123    11307 
   41659    60262    62638    47648    19989   -11521   -38925   -58678 
  -69669   -69809   -57933   -36538   -11764     9251    23962    35232 
   45766    56341    67887    80668    92974   101104    99809    86534 
