Origin Time       2011/03/11 14:46:00
Lat.              38.103
Long.             142.860
Depth. (km)       24
Mag.              9.0
Station Code      KNG206
Station Lat.      35.0966
Station Long.     139.3778
Station Height(m) -1130
Record Time       2011/03/11 14:47:36
Sampling Freq(Hz) 100Hz
Duration Time(s)  300
Dir.              U-D
Scale Factor      2000(gal)/6182761
Max. Acc. (gal)   61.542
Last Correction   2011/03/11 14:47:21
Memo.             
[...]
   41347    40803    43513    47992    52422    55813    57920    59161 
   60351    61914    63422    63839    62339    59223    55891    54027 
   55052    59348    65464    70964    74276    75404    75178    74442 
   73819    73473    72879    71285    68236    63666    58288    53587 
   50540    48913    47829    46272    43597    40061    36481    33407 
   30746    27928    24079    18290    10416     1783    -5305    -9057 
   -9245    -7023    -4010    -1692    -1226    -2825    -5385    -7244 
   -7455    -6564    -5903    -6241    -7606    -9845   -12676   -15385 
  -16917   -16363   -13420    -8603    -2721     3674     9756    14527 
   18044    21128    24019    26583    29207    32489    36469    40733 
   44738    47245    46534    42633    37770    33791    31350    31099 
   33281    36925    40622    43664    46119    48279    50517    53048 
   55418    56610    55647    52104    46467    40130    34762    31359 
   29620    28098    25524    21970    18486    16086    14845    13834 
   12212     9656     5927     1186    -3669    -7733   -10624   -12015 
  -11326    -8555    -4648     -173     5076    10657    15383    18379 
   19126    17336    13116     6978     -120    -7043   -12829   -16710 
  -18211   -17425   -15135   -12789   -12210   -14633   -19963   -26996 
  -33936   -39018   -41509   -42514   -44071   -46998   -50451   -53081 
  -53958   -53293   -52375   -52329   -53396   -55334   -57507   -58730 
  -58051   -55421   -51421   -46894   -42656   -39356   -37351   -36456 
  -36315   -36886   -37954   -38622   -37921   -35515   -31540   -26153 
  -19343   -11302    -2783     5516    13537    21651    30006    37693 
   43030    45293    45303    44365    43982    45699    49878    55711 
   62271    68752    74467    78740    80896    80560    77790    73208 
   67804    62621    58670    56709    57174    59914    63711    66896 
   68544    68685    68075    68043    69449    71513    72516    71548 
   68941    65308    61046    56465    51248    44336    35355    25560 
   17112    11633     9144     8343     7805     6382     2898    -3373 
  -12234   -22856   -33908   -43749   -50832   -54040   -53303   -49696 
  -44450   -38100   -30693   -22264   -13024    -3582     5234    13047 
   20144    26838    32795    37491    40883    43012    43863    43805 
   43306    42555    41756    41625    43611    48989    57339    66860 
   75869    83055    87347    88005    84780    78743    71900    65346 
   58761    51574    44212    38176    34913    34544    35469    35651 
   34225    31551    28516    26119    25189    26220    29025    32396 
   34846    35918    35971    34890    31933    26689    19596    11600 
    3630    -3580    -9463   -13796   -16879   -19116   -20690   -21565 
  -20953   -17772   -12296    -5907      636     7491    14723    21950 
   28897    35494    41574    47089    52211    57072    61812    66504 
   71149    75827    80132    83337    85660    87862    90070    92186 
   94560    98097   103702   110780   117147   120783   120804   117747 
  113208   108165   102613    96803    91153    85843    81139    76911 
   72320    66374    58190    47504    35276    23260    12960     4633 
   -2722    -9972   -16918   -22955   -27832   -31584   -34314   -35928 
  -36042   -34717   -32893   -31651   -31429   -32027   -33114   -34762 
  -37258   -40396   -43681   -46829   -49579   -52047   -55117   -59657 
  -65816   -72872   -79212   -82705   -81164   -72900   -58312   -41323 
  -27159   -18005   -12530    -8814    -5738    -3031    -1534    -1995 
   -3619    -4537    -2399     4168    13582    23215    31609    37329 
   39648    39767    38792    36827    34234    31482    28542    25137 
   20853    15333     8401     -185   -10148   -19989   -27834   -32870 
  -35734   -36864   -34897   -28946   -20172    -9100     3935    16375 
   25505    30130    29806    25322    18888    12847     8699     6992 
    7748    10642    14701    19058    24144    30503    37449    44741 
   53206    62650    71713    79243    84402    87013    88309    90682 
   96688   107593   122546   139299   155198   167811   175828   179312 
  179073   176325   172302   167735   162749   157256   151591   146433 
  141758   136303   128577   118108   105505    91903    78672    67179 
   58481    53194    51208    51164    50588    47044    39984    32189 
   27977    29134    34193    41285    49245    56521    61491    63364 
   61947    57448    50147    40290    28588    15752     2166   -10966 
  -21399   -27539   -29405   -27985   -25014   -22639   -22187   -23503 
  -24904   -23878   -18737    -9606     2245    15535    28885    40475 
   49073    54639    57624    58651    58375    56898    54011    49952 
   44876    38318    30234    21807    14966    11128    10456    12588 
   16969    22349    27421    31658    34854    36572    36361    34370 
   31670    29585    29019    30476    33773    37858    41304    42765 
   41467    37524    31776    25555    20009    15283    10664     5367 
    -865    -7785   -15323   -23412   -31082   -36860   -39609   -38236 
  -31699   -20272    -6028     8912    23803    38075    49699    55859 
   55135    48358    38029    27869    21357    19445    20654    22924 
   24498    24322    22365    19187    15071     9627     2381    -6793 
  -17829   -30092   -42142   -52232   -58668   -60238   -56620   -48248 
  -36288   -22463    -8639     2969    10530    14487    16744    17997 
   17634    15141    10311     3463    -4274   -11987   -19374   -25534 
  -29145   -29964   -29010   -27671   -27035   -27645   -29412   -31795 
  -34070   -35046   -33097   -27266   -17862    -5631     8774    23852 
   36756    44406    45017    39357    30508    22260    17997    19520 
   26344    36518    47389    56260    61371    62234    59231    53208 
   45356    37374    31629    30256    33292    38377    42933    45991 
   47896    49413    51116    52857    53844    53254    50817    46858 
   41654    35302    28077    20313    12548     6205     3116     3913 
    7624    12816    18483    24496    31623    40009    48018    53955 
   57528    58972    58470    56140    52043    46696    40973    35460 
   30522    26689    24386    23051    21470    19362    17586    17051 
   18051    20321    23394    26755    29626    31303    32051    32652 
   33276    33636    33314    32130    30529    28996    27878    27517 
   27753    28171    28687    29030    28508    26949    24894    22992 
   21914    21836    21964    21190    18697    14063     7363     -665 
   -8685   -15098   -18224   -16887   -11233    -2683     6815    15675 
   23304    30101    36685    43048    48864    54156    59116    63700 
   67540    70264    71821    72271    71657    70303    68767    67190 
   65062    61737    56563    49046    39586    29435    19913    12162 
    6976     4298     3265     2406     -210    -5757   -13695   -22355 
  -30011   -35557   -38183   -36928   -31330   -22113   -11308     -943 
   10148    25658    45451    64757    80201    90418    94136    92188 
   87197    81493    76881    74014    72275    70424    66809    60159 
   50509    38888    26285    13493     1813    -6997   -11865   -13011 
  -11042    -6365      194     7286    13623    18255    20650    20500 
   17422    11102     1568   -10578   -23687   -35475   -44073   -47805 
  -45016   -35493   -21736    -7637     4644    14658    21209    23093 
   20343    13431     3568    -7494   -18794   -29710   -39231   -46441 
  -50981   -53050   -52682   -49542   -44248   -38591   -33872   -30225 
  -27269   -24670   -22277   -19874   -16948   -13039    -8100    -2309 
    4356    12171    20776    28752    35139    40527    45926    51202 
   55243    57778    59450    60362    60529    60229    59437    58607 
   58616    59475    60843    63070    66388    70337    74674    79225 
   83364    86846    89889    92508    94493    95400    95073    94366 
   94487    95921    98579   102421   107471   113838   121781   131258 
  141589   151647   160256   166483   169530   168685   163501   153683 
  138902   119465    96986    73585    51490    34034    24777    24234 
   29367    37844    50112    65775    81976    95545   103276   102256 
   91799    73470    49734    23490    -1711   -22275   -36055   -42654 
  -42490   -36943   -28715   -20567   -14607   -12465   -14196   -18232 
  -23357   -29236   -35752   -43131   -51771   -61499   -71350   -79889 
  -85938   -89325   -90594   -89954   -87292   -83173   -78750   -75049 
  -73065   -73493   -75957   -79314   -82733   -85964   -88078   -86977 
  -81693   -73667   -64514   -54732   -45231   -37838   -33997   -33980 
  -36934   -41270   -45243   -47866   -49707   -51708   -53712   -55576 
  -58246   -62613   -68178   -72913   -74097   -69620   -59154   -44186 
  -26662    -8316     8609    21711    29928    33649    33858    32150 
   30388    29324    28719    28997    30887    33694    36144    38139 
   40008    41489    42227    42187    41608    41001    40856    41131 
   41517    42013    42703    43474    44166    44907    46205    48441 
   51500    54886    58044    60758    62975    64594    65654    66056 
   65249    62463    56873    47792    35304    20724     6285    -5734 
  -13891   -17935   -18697   -17582   -15755   -13669   -11142    -7920 
   -4339    -1237      654     1232      971      388      360     2648 
    8773    18335    29442    40702    51571    61889    72058    82120 
   91381    99306   105355   109090   111100   112701   114566   116154 
  116244   113478   107087    97670    86889    76551    68233    63079 
   61068    61099    62317    64048    64899    63623    60119    55005 
   49056    42865    36393    29100    20646    11272     1483    -8419 
  -18085   -26588   -32729   -35408   -33696   -27706   -19023    -9747 
   -1926     2455     2005    -3306   -11659   -20115   -26754   -31500 
  -34647   -36423   -37811   -39962   -43281   -47627   -52619   -57779 
  -62667   -66808   -69669   -70915   -70721   -69528   -67505   -64878 
  -62512   -61194   -60671   -59946   -58193   -55126   -50720   -45165 
  -39228   -34206   -31116   -29832   -29341   -28753   -27361   -24347 
  -19355   -12657    -4642     3946    11634    16721    17906    14903 
    8723     1118    -6085   -11362   -13716   -12801    -8982    -3084 
    3859    10643    15997    19118    20425    21360    23406    27410 
   33319    40527    48250    55570    61740    66215    68382    68009 
   66042    64623    66076    71680    81115    92671   104220   114483 
  123235   130766   137789   145096   152870   160558   167004   170887 
  171471   168797   163437   156065   146918   136099   124343   113032 
  103576    96785    92588    90553    90605    92579    95479    97954 
   99557   101292   104034   107192   109934   111673   111552   109120 
  104239    96596    86436    74700    62249    49555    36881    24575 
   13350     3973    -3390    -9362   -15070   -21639   -29790   -39587 
  -50370   -61107   -70671   -78170   -83230   -85730   -85729   -83595 
  -79799   -74753   -69004   -63530   -59311   -56477   -54370   -52100 
  -48673   -43391   -36331   -27948   -18808    -9730    -1633     4442 
    7719     8179     6224     2577    -1698    -5643    -8548   -10015 
  -10049    -8865    -6859    -4684    -3154    -2995    -4390    -6732 
   -9037   -10482   -10409    -8341    -4326      922     6332    11167 
   15348    19105    22692    26181    29347    32083    34603    36841 
   38339    38826    38155    36192    33230    29723    25916    22116 
   18709    16096    14785    15233    17588    21503    26116    30368 
   33491    35297    35972    35692    34819    33959    33412    33143 
   32981    32430    31046    29165    27721    27385    28191    29983 
   32687    35930    38863    40675    41283    41400    41944    43524 
   46215    49662    53632    58396    64387    71738    80347    89954 
   99902   109153   116624   121412   122813   120024   112261    99819 
   84289    67690    52132    39062    28809    21704    18095    17750 
   20512    25768    31873    37765    43154    47166    48519    46280 
   40794    33922    27318    21371    16021    11389     7677     4965 
    3063     1436     -676    -3719    -7604   -12157   -17228   -22682 
  -28483   -34395   -40108   -45589   -50849   -55726   -59958   -63335 
  -65853   -67543   -68328   -68127   -66995   -65360   -63876   -62845 
  -62409   -63099   -65410   -69302   -74494   -80487   -86457   -91783 
  -96411  -100454  -103732  -105861  -106655  -106381  -105357  -103492 
 -100624   -96836   -92400   -87865   -83723   -79913   -75897   -71113 
  -65434   -59006   -51702   -43239   -33674   -23600   -13994    -5699 
     922     5666     8278     8730     7267     4225      179    -3874 
   -6849    -8098    -7412    -4732     -161     5973    13148    20599 
   27339    32577    36359    39363    41976    44168    46190    48615 
   51870    56200    61655    67855    74311    80886    87574    94151 
  100404   106350   111841   116713   121329   126218   131637   137553 
  143490   148783   153166   156834   160124   163442   167081   170702 
  173449   174611   173889   171205   166513   160086   152517   144008 
  134335   123590   112243   100781    89887    80214    71982    65611 
   61743    60285    60451    61309    61999    62073    61491    60094 
   57439    53160    47120    39244    29425    17696     4683    -8572 
  -21541   -34363   -47166   -60074   -73657   -88334  -103727  -119007 
 -133216  -145506  -155318  -162245  -166261  -167812  -167360  -165151 
 -161461  -156936  -152390  -148450  -145644  -144308  -144126  -143963 
 -142088  -136621  -126584  -112702   -96401   -78607   -59876   -40459 
  -20461     -551    18131    34577    48073    58309    65572    70371 
   72866    73141    71933    70509    70071    71681    75757    81222 
   86355    90364    93409    95991    98836   102602   107381   112887 
  118951   125332   131455   136589   140194   142203   142897   142496 
  140986   138388   134999   130804   125091   117350   107824    96864 
   84846    72702    61290    50592    40277    30439    21499    13731 
    7173     1912    -1980    -4703    -6576    -7884    -8883    -9682 
  -10270   -10764   -11409   -12453   -13876   -14980   -14828   -13131 
  -10364    -7372    -4872    -3171    -2190    -1489     -593      663 
    2228     3835     4843     4450     2482     -196    -2578    -4463 
   -6125    -7743    -9510   -11597   -13971   -16589   -19128   -20813 
  -21032   -19682   -17085   -13522    -8817    -3118     2764     8276 
   13287    17625    21170    23919    25781    26547    26130    24685 
   22318    18988    14934    10850     7684     6500     8124    12497 
   18544    24820    30260    34367    36991    38359    39103    39831 
   40777    41926    43170    44048    43865    42265    39308    35506 
   32008    29898    29157    28763    27859    26208    23638    20320 
   17443    16273    16931    18810    21280    23646    25245    25867 
   25873    25775    25827    26059    26290    26130    25255    23421 
   20398    16399    12198     8464     5534     3733     3248     4104 
    6399    10061    14788    20414    26923    34133    41914    50556 
   60250    70637    81263    91660   101014   108601   114133   117406 
  118379   117703   116641   116213   116571   117469   118876   120797 
  123138   125769   128396   130755   132776   134241   134610   133288 
  129868   124319   117076   108745    99693    90057    80145    70287 
   60261    49811    39316    29046    18730     8394    -1256    -9322 
  -15175   -18665   -20061   -19776   -18293   -16251   -14304   -12928 
  -12523   -13683   -16941   -22250   -29203   -37294   -45699   -53387 
  -59546   -63871   -66591   -68339   -69810   -71353   -72891   -73942 
  -73745   -71816   -68219   -63325   -57601   -51555   -45680   -40194 
  -34973   -29940   -25069   -20046   -14704    -9386    -4276      756 
    5747    10889    16362    22102    28395    35898    44782    54377 
   63740    72329    80041    86714    92081    96291    99774   102830 
  105614   107943   109573   110650   111216   110931   109453   106813 
  103469    99693    95199    89809    83864    77864    72355    67950 
   64855    62847    61707    61199    61082    61144    60962    60112 
   58623    56900    55177    53144    50449    47347    44155    40693 
   37278    35167    35133    36770    39305    42044    44199    44936 
   43798    40942    37037    32793    28298    23128    17126    10479 
    3187    -4780   -12745   -19563   -24495   -27305   -28264   -28227 
  -28122   -28823   -31170   -35002   -39146   -43106   -47220   -51389 
  -55277   -58521   -60478   -61262   -61715   -62225   -62756   -62896 
  -62047   -60268   -58163   -56132   -54343   -52925   -51909   -51226 
  -50623   -49747   -48438   -46633   -44198   -41052   -37322   -33277 
  -29036   -24501   -19557   -14236    -8672    -2943     2855     8641 
   14535    20556    26415    31852    36793    41344    45886    50800 
   56059    61439    66831    72046    76720    80627    83804    86369 
   88602    91109    94405    98291   101976   104846   106995   109001 
  111497   115049   119994   126083   132490   138434   143463   147163 
  149285   150008   149654   148410   146456   143961   140892   137141 
  132612   127083   120223   111796   101927    90985    79270    67374 
   55983    44877    33703    22991    12885     3025    -6467   -15782 
  -25240   -34444   -42965   -50479   -56735   -61923   -66655   -71923 
  -77950   -83379   -87042   -89207   -90473   -91094   -91558   -92538 
  -94395   -97250  -101126  -105776  -110515  -114643  -118023  -120568 
 -121831  -121663  -120608  -119536  -119247  -120465  -123568  -128200 
 -133586  -138776  -142813  -145110  -145264  -143067  -138751  -132704 
 -125401  -117480  -109152  -100151   -90482   -80210   -69086   -57091 
  -44690   -32554   -21234   -11126    -2554     4456    10063    14577 
   18695    23024    27911    33953    41795    51357    61703    71849 
   81220    89351    95974   101076   104714   107295   109608   112167 
  114932   117827   120829   123611   125915   127805   129213   129909 
  129859   129304   128684   128346   128184   127884   127282   126323 
  125169   124166   123395   122465   120708   117811   114132   110073 
  105642   101061    97241    94913    93884    93573    93541    93459 
   93016    91934    90034    87293    83923    80049    75543    70568 
   65412    60109    54913    50170    45933    42218    38760    34875 
   30461    26055    21698    17114    12361     7605     3153     -642 
   -3762    -6278    -8113    -9031    -8797    -7469    -5142    -1714 
    2897     8655    15173    21537    26593    29391    29820    28787 
   27446    26771    27474    29521    32119    34394    35917    36773 
   37284    37729    38351    39465    41270    43464    45395    46536 
   46556    45420    43433    40670    36842    32258    27928    24581 
   22500    21572    21231    20965    20412    19330    17967    16909 
   16715    17742    20017    23341    27481    32107    36731    40817 
   43994    46193    47447    47701    47033    45691    44042    42672 
   41924    41808    42388    43381    44275    45069    46071    47357 
   48803    50405    52260    54218    55756    56360    55963    54792 
