Origin Time       2011/03/11 14:46:00
Lat.              38.103
Long.             142.860
Depth. (km)       24
Mag.              9.0
Station Code      KNG201
Station Lat.      34.5956
Station Long.     139.9183
Station Height(m) -2197
Record Time       2011/03/11 14:47:37
Sampling Freq(Hz) 100Hz
Duration Time(s)  300
Dir.              U-D
Scale Factor      2000(gal)/6182761
Max. Acc. (gal)   15.315
Last Correction   2011/03/11 14:47:22
Memo.             
[...]
   20203    19596    21029    22854    23784    23978    23871    23583 
   24033    26475    30644    34561    36165    35952    36821    38778 
   38516    35224    31070    28255    27778    28615    29193    29157 
   28806    28794    29360    29422    27813    24567    21631    21087 
   22118    23227    24307    25115    26015    27364    27300    25231 
   24031    24130    23009    20950    18794    16125    13921    12016 
    9872     8981     9219    10412    13498    16139    16261    15227 
   14013    12949    11873    10629    11644    16006    20905    24391 
   25982    24962    22249    20314    20217    21141    22491    24213 
   26692    30045    31269    27785    23118    21466    21567    21113 
   20877    21655    22258    21925    21616    22602    24149    23495 
   20412    17297    13944    10929    12818    19288    23735    24200 
   24467    26064    26515    23350    17963    14914    16128    19145 
   21815    23900    25038    25105    24649    23925    23375    23202 
   22217    19750    16408    13071    12322    15950    20362    20736 
   16966    12926    12240    14308    15085    12677     9703     8670 
    9513    12971    18857    23058    23889    24418    25487    26126 
   27584    28278    24009    16899    11961     9193     8231    10606 
   14734    16614    14124     8824     4229     1958      997     -128 
   -1633    -2410    -2060     -474     2932     5319     4160     3900 
    7375    10819    12193    12457    12223    11480     9545     6902 
    4997     4205     4240     3527      494    -2256     -982     2652 
    4984     6996    10331    12368    11198     7403      995    -6526 
  -12128   -13586   -10748    -8153    -9055    -8834    -4497      -17 
    2833     5066     4532     1770     3034     8541    11399    10406 
    9539     9917    10746    12620    16567    20876    22736    22700 
   21900    18612    12482     7308     6507     8652    10768    13507 
   18157    22941    26190    28296    28967    26943    23563    22695 
   26036    31446    37076    42370    43927    40229    36897    35775 
   30805    21997    17277    19523    24264    27410    28798    29234 
   28285    26743    26303    28045    33449    40900    45526    46382 
   46588    47839    48687    47194    44948    44604    44843    43715 
   42264    41392    40116    38300    37904    39903    42891    45680 
   47929    47980    44695    41738    41844    41067    38724    40303 
   44713    45627    43610    43075    44050    44692    46109    49710 
   52012    49117    43888    40491    38802    39056    41822    44039 
   44219    44866    45044    42512    41116    42993    43206    39736 
   35605    32183    29483    28589    30338    33153    34258    32715 
   29594    26232    22814    19916    19324    19669    16934    12414 
   11719    15058    18198    20607    23740    25540    23920    22026 
   23575    26292    26379    24448    21600    17088    12404    10177 
   10137    10735    11539    11907    10914     9526     9425    10180 
   10465    10535    11100    11550    10880     9303     8690    10699 
   14645    17530    15674     9656     4422     1638      647     2248 
    3976     1745    -2528    -3724    -2777    -3523    -3912    -2916 
   -3258    -2495     1155     4785     7839     9403     9321    12281 
   18199    21120    19570    16040    13185    12279    10759     7003 
    3986     3700     3415     -300    -5366    -7137    -5436    -2312 
     918     2487     2042     1347     1551     2493     4263     7806 
   13256    18673    21085    19335    16494    15179    13097     9870 
    9414    12440    16428    19961    22753    25119    27328    28647 
   27983    26631    26593    25698    22656    20529    19510    18129 
   17552    17348    16715    17136    17570    15150    10482     6431 
    4525     4789     7745    13649    19576    22813    24145    23880 
   23136    25818    31316    34247    33505    33036    35055    37986 
   39660    39817    39692    38941    35634    31112    29177    29315 
   28267    26750    26562    26631    26534    26247    25208    24761 
   25656    27744    30505    29600    23536    18406    18293    21832 
   25475    26211    25992    27124    27558    27887    30858    33476 
   31578    28011    27487    29728    32797    35280    35080    31601 
   26611    22939    22566    24169    25077    24048    20498    15593 
   12527    12935    15842    19166    20625    19260    16594    14862 
   14874    16889    20319    22725    23206    22826    21683    21074 
   22288    22291    19498    18376    21576    24681    23032    19302 
   19159    22450    25855    28019    27231    23712    21301    20679 
   19484    17931    17699    16957    12318     8104    10560    15732 
   18881    21530    23362    24193    27490    31632    31029    27393 
   26914    31836    38596    39222    31269    22952    21025    23288 
   24462    22848    20845    20054    20692    23642    26582    24877 
   20768    21799    27227    29641    29959    33120    34996    30883 
   26633    27225    26688    21607    18097    17561    15808    14885 
   17966    21101    21523    22882    25830    27192    28449    31489 
   34278    35281    33823    31022    29164    27750    26434    26638 
   28791    31703    33187    32911    32163    31858    32750    32900 
   31067    30972    33718    36332    37601    36453    32582    29319 
   29495    31675    32173    29694    27110    27181    28964    30432 
   30392    28264    26757    29509    34925    39057    40508    39629 
   38329    38800    39635    38342    36711    37479    38616    36950 
   34741    35147    36130    36489    37693    38852    39208    38945 
   37464    35902    35712    36178    36194    35449    34953    36223 
   38068    37122    33684    31426    30131    28935    30974    34623 
   35191    33763    31213    27261    25362    27193    30007    30819 
   29767    29409    30019    29738    28038    25217    21549    18396 
   17971    20180    22314    22937    22109    19851    17565    16880 
   17331    18718    21392    23318    22991    21379    18082    14059 
   13691    16564    18088    17610    16971    18288    21677    23134 
   21901    21373    21352    20748    21583    22953    19866    12979 
    8145     4782      205    -2325    -2602    -3892    -5015    -5913 
   -8581   -10835   -10189    -7208    -2931     2225     7864    12892 
   16197    17265    16755    16462    17501    19431    20681    21145 
   22839    25729    26174    21561    15874    15097    18093    20120 
   20005    19420    19344    19043    19452    21878    23546    23456 
   24622    26007    25424    25050    24950    22885    21237    24016 
   29466    32170    31433    30359    29640    29287    29507    28979 
   28033    28904    31421    33207    33862    35368    37796    39116 
   39308    39627    40280    40981    41140    40976    41312    41013 
   39030    36155    33053    31694    34242    38477    40388    39139 
   36066    32200    29583    30826    34738    37174    35944    33109 
   32416    33070    31986    30076    28868    28343    28546    28387 
   27546    27579    29062    32271    37255    39914    35806    29274 
   27490    28080    26063    23639    23277    24375    26962    30351 
   33740    36878    38463    38423    37703    35725    32645    30484 
   29266    26327    21472    17487    15856    17003    19492    18760 
   14718    13421    15864    18181    20926    25203    27560    24691 
   17732    12169    11152    10809     8790     8084     8421     6671 
    3478      912     -288     1363     7000    14382    19534    20340 
   18238    17161    18877    21828    24743    26551    26401    25742 
   26218    27617    28679    27959    25584    23329    21417    18972 
   17620    18661    20881    24442    28572    29860    28629    28342 
   29416    29437    27100    23917    21996    20985    18810    15381 
   12639    11658    13033    15560    15909    15207    16879    19303 
   20201    20169    19589    17577    13918    11571    12442    13791 
   14418    15659    17020    18359    20933    23956    24277    21084 
   18306    17894    17532    17880    20715    24181    27030    29770 
   32417    34322    34732    34083    32541    29266    25406    23918 
   25484    27275    26883    24205    19623    15219    14363    16237 
   16725    15988    17282    19728    20797    21347    22186    23251 
   26563    31780    35234    36916    37726    35377    32006    32677 
   34725    33486    32597    36245    40305    39771    36383    34411 
   35416    38279    40592    40392    38532    37613    38022    38793 
   39181    37717    35248    34144    34813    37349    38995    37128 
   37228    41967    44219    41825    40394    40553    37978    33060 
   30101    29721    29221    27361    24796    23178    24385    27380 
   28834    29205    31529    35855    41369    46537    47405    44217 
   41530    40561    40548    41561    42533    41740    38119    32845 
   30400    32983    36228    36168    33668    29810    26558    27186 
   29859    30423    28895    26897    26021    26988    28275    29400 
   30140    28561    24865    21935    22472    27176    33116    35178 
   30856    23200    17535    15878    16644    18189    20331    22836 
   24686    25389    25226    25511    28203    32416    34528    33252 
   30645    28187    25053    21116    18455    17416    15992    14263 
   12985    10743     7345     4555     3373     3764     3864     1428 
   -2123    -3762    -3965    -5519    -8370    -9868    -9034    -6261 
   -1534     4408     9039     8910     3225    -3880    -7582    -7999 
   -8157    -7407    -4268    -3030    -5758    -6595    -2456     4083 
   10226    13099    12288    10106     7756     6474     6506     5460 
    3978     5640     9154    10277     8916     7509     9125    14823 
   18309    16170    14968    17160    19217    21035    22694    22697 
   22467    23606    24132    22095    18693    17877    22893    30779 
   36371    39115    40107    39631    37836    35881    36887    40962 
   43488    42009    38994    37701    39152    42444    44752    43917 
   42837    44057    44784    44192    44105    43771    44507    48110 
   49752    46951    45177    45718    44712    45059    51515    58324 
   58505    55559    52952    48165    42399    38784    35399    32183 
   33073    37449    41573    44088    45027    44726    42801    39608 
   37125    36353    38672    44065    48658    50237    49047    44613 
   38185    34108    34750    37157    38850    40860    42768    43269 
   42688    40157    36848    38261    43458    45029    42597    40742 
   39616    36638    32061    29171    28649    28732    30272    33622 
   36445    37707    37955    37380    35470    32886    31632    31636 
   31912    32429    33743    36968    39651    38256    34511    29310 
   21886    17173    18488    21978    24787    26473    27725    29487 
   29562    28271    27890    25751    21279    17135    13406    11480 
   11299     9160     5539     2803     1614     3815     9074    13739 
   15427    15081    15743    18454    21046    21871    21202    19590 
   17262    14753    12857    11785    11144    10849    11262    10729 
    6619     2419     3147     4740     3352     3630     6867     8944 
   10169    11985    12168     9016     2762    -2712    -1492     4498 
    8378     9133     8909     9096    11814    15950    16394    13219 
   11895    13295    14158    12819     9813     7107     5921     5955 
    6540     6694     6577     8761    13960    18386    19659    18926 
   16721    13541    12008    14794    20024    23519    25624    26856 
   25534    23659    22236    19339    16733    15674    14422    14648 
   17296    18394    16695    14066    11656    11602    13847    16059 
   18720    22536    26276    27965    26123    23473    22632    21137 
   19816    21314    21596    19821    20005    20397    19331    18555 
   18112    18598    20425    22565    23644    21119    16223    13900 
   14780    17024    20312    23730    27001    29229    26704    20321 
   17468    21231    25817    26256    25086    24319    24355    28928 
   35341    36748    35877    35106    29957    23170    23726    30437 
   33630    33149    36333    42043    46002    49193    51974    53511 
   53709    52425    51349    52051    53263    53150    51202    50018 
   53472    59337    62445    63675    65524    66424    64199    60052 
   59116    63845    68265    66099    60305    57494    58561    60147 
   59942    58583    58097    57537    53556    47950    46657    48802 
   48584    46385    46837    50395    52516    50779    49455    51325 
   52293    50253    47878    47253    49451    51659    48477    42427 
   40408    42592    45548    46639    44056    40010    38100    37310 
   35504    34714    35829    33807    27033    22579    24923    29515 
   30437    28322    28387    30896    30537    27898    28262    29688 
   26741    19820    13838    13110    15724    15362    12367    12223 
   14717    17450    21302    25604    27452    25622    22701    22427 
   22397    18637    14956    13628    10635     7230     6752     6866 
    5323     1496    -3925    -6823    -4949    -1648      389     2809 
    5851     7594     8991    11704    14089    13186     8998     3716 
   -1816    -5777    -5269    -2395    -2138    -5407   -10613   -16214 
  -19634   -20088   -19628   -19038   -19024   -21115   -23091   -22258 
  -19852   -17206   -15889   -17638   -20063   -19965   -16806   -10713 
   -3782      693     1979      553    -2103    -2699    -1148      180 
    1839     2919     1111      692     5897    12784    17121    17784 
   13722     8088     6023     6095     4287     1147     -790    -1269 
   -1298      157     3838     7712    10481    12339    12825    10462 
    5871     4003     6550     8584     8039     7867     9115     9852 
    9614    11112    15312    18762    19726    20577    21424    18696 
   12092     6158     4592     7222    10279    11112    11372    11555 
   11662    13512    15286    15436    16267    17137    16230    15281 
   16703    21318    26791    28306    26000    25758    28585    30631 
   32032    32891    31034    28833    28871    30160    32153    32360 
   29529    28082    30132    34301    40436    47035    51130    50699 
   45963    41364    40280    40418    41030    44040    47665    49414 
   48791    46310    45617    48832    52163    52045    48641    44919 
   43961    44269    43654    43248    43270    44246    47754    51044 
   50844    49667    50960    54166    56938    58457    60007    61984 
   62708    61136    59024    59214    60846    61754    63024    64269 
   63053    60734    61348    65399    68232    67566    67249    68160 
   66978    65279    66433    68903    69472    67066    64458    65070 
   67022    66949    64770    61867    61241    64083    65634    62320 
   57460    55783    57867    62081    67472    71398    71066    68569 
   66759    65809    66527    68245    67806    64250    58691    52404 
   45978    39471    34923    33309    31832    29694    30648    36153 
   40515    40504    40366    39949    36717    33752    31608    28721 
   26518    24673    22666    21989    22190    21730    20753    20943 
   23439    25983    24600    19740    15854    13946    13390    16103 
   18385    13603     6035     3146     3630     4542     5834     7081 
    8198     9575    10760    11119    10008     7866     6530     5629 
    3974     3880     6611     9012     9905    10974    10896     9108 
    9377    12510    15184    15826    15382    15268    15769    15752 
   14470    13414    14289    15822    15940    13654     8716     3336 
      61    -1202    -1174    -1016    -1858    -2194     -229     3262 
    5609     4721     2838     3772     6914     9582    10434     8991 
    6432     4809     4379     4075     3891     4480     4277     1043 
   -2850    -2275     2888     7661     9033     7951     7341     9870 
   14179    17567    20002    20252    17338    14001    11839    10532 
   10611    12041    13755    14424    13583    12991    13732    14632 
   15337    15020    12433    10709    13539    18874    21919    21787 
   22210    24009    24357    24620    27259    29951    30536    29642 
   28163    26978    26402    25964    26217    28683    33319    37393 
   38586    38273    38884    40156    40291    37972    33640    29806 
   27383    25121    24206    26631    31199    35987    40304    43133 
   42719    39387    36325    34684    33674    33934    34810    35294 
   36568    38651    40678    42975    44788    44284    42133    41321 
   42317    42764    41710    39339    35597    31854    30220    30842 
   32005    32179    31225    30576    31119    30926    28720    27502 
   29071    29816    27825    25045    22093    21010    24075    27198 
   27024    26760    27748    27095    24462    22411    21474    19735 
   16557    13747    12705    12195    10073     7214     6777     8293 
    8077     5580     3300     2278     1649     1563     2583     2541 
     294    -1282    -1117     -741      124     2220     4390     4643 
    3248     2848     3856     5317     7979    10608    10479     8178 
    5759     4479     4411     3623     1626     1061     3300     5765 
    5301     2815     1196      708      172     -450     -747     -373 
    1400     3350     3266     2645     3470     5051     6397     6645 
    6907     8794    10318     9975     9695    11052    13375    15441 
   17043    18710    20587    21664    21436    21323    22213    24170 
   27487    30346    30940    31703    34470    36548    36337    35102 
   33208    30816    29404    30053    31469    31002    28486    26592 
   26687    27447    27673    27112    26038    26462    29326    31997 
   32992    33978    35368    35661    35171    35941    38404    40816 
   41742    41221    39591    37638    36136    34579    33053    32048 
   30835    29670    29917    31434    33025    33621    32371    30133 
   28842    28782    29657    32340    36505    39297    39896    40489 
   40708    39678    39495    39749    38168    36845    38291    40083 
   39847    38879    38136    37638    37957    38525    38412    37280 
   34706    31598    29960    30171    30583    30044    29562    30362 
   31628    31742    30526    28536    25826    22641    19582    17342 
   16535    17413    19633    21444    21989    23560    26475    27313 
   25548    24418    25683    27788    28181    27300    27252    27096 
   25640    24720    25075    24921    24009    24083    25136    25320 
   24321    23260    22385    21188    19231    17106    17173    19700 
   20819    18786    16763    16969    17977    18698    19286    18597 
   16672    15865    16070    15377    13910    12431    11603    12042 
   12479    11804    11355    11440    10544     9289     8832     8023 
    6893     7063     8131     8828     8878     8465     8657     9864 
   10218     9232     9141    10159    10655    11509    13272    13551 
   12291    11564    10730     9143     8008     7570     7229     6689 
    6548     7527     8292     7547     6708     7316     9304    12225 
   15059    16098    15176    13939    13045    11797     9684     7203 
