Origin Time       2011/03/11 14:46:00
Lat.              38.103
Long.             142.860
Depth. (km)       24
Mag.              9.0
Station Code      KNG203
Station Lat.      34.7983
Station Long.     139.6435
Station Height(m) -902
Record Time       2011/03/11 14:47:36
Sampling Freq(Hz) 100Hz
Duration Time(s)  300
Dir.              E-W
Scale Factor      2000(gal)/6182761
Max. Acc. (gal)   90.613
Last Correction   2011/03/11 14:47:21
Memo.             
[...]
  -16377   -18999   -23623   -27792   -28353   -23228   -13130    -1684 
    6193     6003    -4171   -20840   -34945   -36569   -20337    12331 
   52925    88023   105018    97811    68701    27469   -11038   -33089 
  -32181    -9317    27695    65334    90699    97212    84543    57509 
   25174    -3520   -23775   -33673   -32224   -19715     1857    28198 
   52791    68775    70803    57586    34431    10393    -7761   -17795 
  -21262   -21886   -22582   -22937   -19398    -8000    12669    40626 
   71115    97901   115285   119474   109638    89200    65265    45895 
   36420    36446    40587    42429    37660    25405     8223   -10195 
  -27180   -40785   -50206   -56967   -63404   -70131   -75541   -77102 
  -72965   -63019   -49696   -37830   -32113   -33727   -39741   -45601 
  -47783   -44590   -35862   -23396   -11009    -2154     2360     4078 
    6313    13185    26816    45527    64509    77385    78751    66986 
   45277    20650     1389    -6242      337    19419    44030    63945 
   70954    62273    41843    20375    10510    19052    44199    78431 
  112189   137695   151878   155627   151306   140527   123088    98894 
   70002    40317    15526     2599     5935    23291    45625    60387 
   57857    36683     3661   -29443   -51615   -58741   -52279   -36614 
  -20566   -14141   -22166   -42566   -67772   -87723   -94274   -83416 
  -54985   -14255    27203    57256    68849    59527    32614     -214 
  -24584   -32310   -22846     -456    26373    47553    57748    57812 
   51450    43527    38515    38233    41448    44945    44522    36487 
   20133    -1082   -21525   -36558   -43630   -41733   -31572   -16237 
    -634    11102    17937    20897    21004    19685    19558    23043 
   29628    35296    35950    30178    18427     2663   -13195   -25457 
  -31917   -30771   -21909    -8589     4478    13883    18504    19551 
   20523    26458    41393    64927    91693   114783   128500   129001 
  114860    87748    52723    16082   -18149   -47700   -69713   -81036 
  -77876   -55821   -15247    34461    79955   110784   120182   105899 
   73309    34332     1886   -15827   -17223    -6251     7691    13427 
    6223    -9248   -22363   -21029     2471    45665    95887   137442 
  159977   160469   141058   109544    78225    57007    49009    52861 
   64315    75601    79480    74528    63824    51365    40508    32252 
   24812    15642     2895   -13420   -29754   -39625   -36626   -17527 
   15430    54260    88708   111387   119224   112148    93812    71677 
   52704    39350    30646    24655    18695    10502      211   -10035 
  -17128   -18229   -12923    -3715     5392    10911    11927    10221 
    8936    11756    20883    34588    48004    55861    54581    43905 
   27780    13211     6467     9646    20619    34379    44681    46982 
   40757    29589    20227    20324    34276    60753    94242   127747 
  154408   168505   166750   149523   121285    90254    65204    51333 
   50388    60916    76223    86520    84514    68243    41387    12386 
   -9345   -17206    -7078    20985    57584    87386    99264    88768 
   56372    10322   -34923   -68151   -85168   -85201   -69979   -45285 
  -19925    -1195     9660    16332    22772    31136    41468    51722 
   59330    62598    61279    57257    53787    53526    57627    65618 
   75200    82802    84821    78421    62284    37883     9784   -16397 
  -36398   -47857   -50437   -45427   -34477   -19796    -4163    10182 
   21185    27027    27028    20826     8156    -9852   -30374   -49647 
  -64151   -71495   -70418   -60592   -43099   -21420    -1359    10577 
    9578    -4232   -24233   -40523   -45000   -34233   -10780    16732 
   37016    42330    31881    10224   -14550   -32817   -38037   -28564 
   -6097    23603    50916    67068    67777    53229    28098     1359 
  -17875   -25203   -20578    -6605    10372    21820    22114    10830 
   -7945   -27083   -39363   -40490   -30557   -13736     3618    15332 
   17572    10067    -4267   -20287   -32045   -35173   -28608   -14346 
    4287    24712    46051    68094    89809   109264   123907   130398 
  125359   107231    78620    46508    18381     -516    -6741      251 
   17084    37242    52328    55981    46482    25406    -1552   -25646 
  -41934   -51281   -55614   -55694   -51785   -43900   -32914   -21271 
  -11700    -6261    -6135   -11380   -20885   -31784   -39364   -38630 
  -26307    -2461    28906    61079    87083   101769   103114    93582 
   80132    71656    75261    92648   118621   143726   159740   162369 
  148894   118453    76117    30999    -9771   -42273   -64863   -78481 
  -85045   -85760   -81760   -73844   -61767   -45511   -26428    -6876 
   10336    22672    28748    27900    19212     2627   -19342   -42177 
  -60627   -68803   -61093   -35463     3555    46145    81845   102883 
  105037    88139    57098    21981    -6819   -24632   -31137   -27729 
  -19800   -15680   -21357   -37128   -57806   -76588   -87733   -85555 
  -66427   -33690     3120    34196    52703    55055    41788    18235 
   -6818   -24835   -31093   -25038    -9835     7846    21456    28664 
   30407    28636    26140    25222    25978    27341    28827    31752 
   39198    52783    70452    87453    96651    89833    62076    15984 
  -37227   -82272  -106822  -103950   -72586   -20443    36502    81354 
  102428    94096    58608     8883   -36158   -62185   -63633   -40563 
     460    45626    82985   109335   126391   137253   146281   157168 
  171050   186587   200822   210329   211574   201212   177209   140334 
   95463    49951    10258   -18911   -35265   -40229   -37641   -31724 
  -25867   -21311   -16793    -9263     4510    25457    51426    78080 
   98670   104532    88449    49545    -2745   -52155   -85237   -94292 
  -74695   -27314    37079   100770   148991   175129   177633   159024 
  127177    92915    66330    52759    51149    57095    64655    66857 
   59029    41786    20165      585   -11626   -13653    -6225     5180 
   11082     3338   -19339   -51268   -84030  -110642  -125758  -124404 
 -104493   -69991   -29931     5492    28992    38580    37890    34639 
   37580    51978    75608   101185   122172   132987   127645   103120 
   63260    18609   -18988   -42285   -48222   -36474   -11959    15788 
   38497    53676    62776    67312    69382    71429    73417    73213 
   68084    55408    34345     6675   -23948   -53010   -76020   -89725 
  -93574   -89439   -80284   -69475   -58452   -44122   -20738    15581 
   63994   118477   169558   207735   226038   220228   189629   140048 
   84639    38577    11842     8492    28226    64208   103856   135025 
  150994   149462   128765    90168    42301    -3487   -40134   -63744 
  -71246   -61797   -36294     2378    46629    87506   119791   140490 
  149186   149744   146109   140687   135052   127647   114683    93090 
   62191    25719    -8955   -34216   -44190   -35847   -10599    24117 
   56211    75700    79683    69941    50679    29794    17039    18234 
   32445    53163    69979    73027    58947    32286     2842   -19185 
  -27988   -22934    -7467    11426    26005    31854    28819    19514 
    8426     1233     3458    19041    48326    86897   128075   165797 
  194822   211317   212999   198211   168234   129835    92287    62464 
   44050    38895    46050    60695    75205    81623    75185    56157 
   29030      746   -22267   -36165   -38827   -29356   -10159    11731 
   27238    29424    15149   -13930   -49721   -81794  -104492  -116819 
 -118335  -108387   -88081   -61801   -34992   -10018    14044    38392 
   63119    86943   106535   117473   116260   101485    75455    44974 
   18019      178    -5399     1092    14656    28461    37933    41539 
   39758    34552    28870    24861    22299    19047    12310     -172 
  -18482   -39573   -58826   -72477   -77999   -73862   -60833   -42241 
  -21919    -2297    16480    35718    56389    78524   100620   118803 
  127225   119928    93984    51995     1893   -46392   -84606  -106349 
 -106409   -82406   -37618    17432    69078   106606   122558   112312 
   77032    25173   -29235   -72507   -95899   -93006   -60905    -6044 
   57743   115950   156828   172281   159313   121959    71373    22814 
  -11466   -25406   -15578    15705    55866    89363   106429   103588 
   81030    44043     4910   -23787   -36033   -30272    -7880    24221 
   54754    74359    79871    72273    54653    33534    16397     6512 
    3432     6569    15488    28745    44353    61058    78142    93906 
  105828   111894   110582   100866    83404    60754    35440     8813 
  -17634   -41684   -60870   -71487   -68943   -51478   -23133     6888 
   27656    30607    12503   -22079   -60038   -84636   -83281   -51398 
    6444    75996   138163   177041   182518   149078    79123   -12214 
 -103172  -175862  -217294  -222209  -195527  -142391   -70488     2366 
   64507   116531   157123   185119   205010   219990   230214   234451 
  228785   208644   172309   122106    62998      543   -58343  -106107 
 -138276  -153208  -150127  -131070  -102341   -72242   -47724   -32123 
  -24291   -19640   -13060     -898    18419    42940    67449    86212 
   94149    87437    66543    38690    15291     5527    12163    31746 
   55704    73382    78626    72596    60403    49440    47564    56843 
   72233    87474    98768   104861   106543   105667   103719   100054 
   91345    74114    48812    21349      156    -7686     1303    24295 
   50484    65024    56963    24564   -25252   -80577  -129375  -164277 
 -182286  -181464  -161167  -123958   -76605   -28522    13380    45955 
   65690    68610    53744    23921   -13793   -48833   -72868   -81577 
  -71011   -40329     4235    52323    94425   125903   147597   162382 
  172126   177173   175780   163339   136544    97398    51441     7330 
  -23958   -33934   -19772    13484    51778    78005    79450    49099 
  -11030   -85612  -154427  -204457  -230147  -228469  -198023  -143057 
  -77930   -20188    21914    47718    57856    57447    55884    59572 
   68105    75570    74877    61641    35609     2466   -26864   -43408 
  -44904   -33217   -13439     5577    15952    15353     6319    -5513 
  -13210   -11832     -522    17565    35656    46041    44846    33287 
   15805    -1165   -12703   -19320   -24692   -31738   -41600   -52347 
  -58334   -52017   -27298    16306    72604   132093   185789   227536 
  252733   255815   232781   184796   119971    52414    -6203   -50405 
  -76158   -82172   -70726   -43720    -4749    38432    77902   108559 
  125798   124402   102342    63311    15710   -30730   -69538   -98165 
 -116712  -127869  -134188  -136309  -133736  -123206  -100050   -64281 
  -21704    20543    57159    84802   100999   103782    92305    68077 
   35843     1867   -28754   -52335   -65960   -67882   -57189   -33437 
    1218    40489    77038   105578   122365   125184   113246    86780 
   50618    14491   -13892   -31626   -38729   -38710   -37971   -42489 
  -55041   -73522   -92474  -106422  -110718  -102210   -81452   -53703 
  -27355   -10200    -6022   -13780   -27657   -37937   -35360   -16054 
   17844    60481   105565   149336   189806   225009   253572   274035 
  284172   281905   264547   229971   181639   128356    77575    33818 
    1537   -18223   -31047   -44348   -62910   -88024  -116431  -140439 
 -149708  -133726   -86468   -12196    74139   153976   211926   237528 
  224178   169684    83798    -9108   -85886  -136063  -155427  -144024 
 -108462   -59457   -10912    25823    47689    53850    41894    12635 
  -26730   -65015   -93589  -108670  -107677   -89743   -59148   -25028 
    3246    21477    29290    27090    19196    14150    20068    41508 
   76784   118977   161586   198605   220584   217617   185825   129955 
   62092    -4269   -59877   -99937  -124313  -137564  -145832  -154913 
 -168178  -183632  -196095  -200974  -193568  -168976  -126384   -71867 
  -15131    35447    75019   102799   121320   134426   145780   157049 
  165298   163148   143473   104944    53016    -3306   -52867   -84362 
  -92247   -76924   -41513     3857    42683    63145    60310    32874 
   -9978   -48161   -66438   -61920   -37126     1298    40213    67776 
   79819    75397    55235    24833    -7529   -34133   -48203   -43523 
  -15787    32220    88860   141168   181154   204845   210962   200918 
  178998   153601   134975   128651   132673   139721   139872   125877 
   98170    63262    30644    10638     8695    21153    36833    40787 
   20893   -23732   -81067  -133687  -167592  -173308  -143459   -79079 
    4928    88207   154543   193554   200052   174568   124906    66379 
   16896   -12511   -20021    -7877    16890    40803    50003    38216 
    9504   -24876   -51813   -63711   -61366   -47340   -24661    -2012 
   11017    11724     2440   -12283   -25160   -29138   -21181    -2295 
   22860    46821    63357    70051    67206    57932    48419    45680 
   54523    74831   101894   130544   157578   180348   196125   203472 
  201160   185687   153352   105119    46862   -14842   -73404  -120618 
 -150479  -161120  -150209  -116183   -64868    -8633    41655    80621 
  105114   113582   108635    95857    82827    77267    81880    94117 
  109837   124539   134464   137313   131534   117587    99051    80773 
   68018    66253    78162   101646   130924   159121   182516   200795 
  211901   211788   197726   168302   124657    71387    13059   -46724 
 -103514  -153710  -195613  -227590  -248147  -255152  -243040  -205922 
 -145567   -72844      236    65127   112747   134674   128835    98112 
   50511     1459   -35250   -56671   -65035   -61181   -47748   -30721 
  -15920    -7051    -4284    -3850    -1695     3723    12612    24679 
   38779    53539    67668    79337    86672    89204    88460    87428 
   89317    96387   108943   123614   132862   127835   103129    60267 
    6400   -48712   -93963  -121534  -129617  -117995   -89090   -51765 
  -16171    12152    32395    46247    55905    63327    69821    75584 
   79429    79637    75961    69434    60117    47144    30670    12588 
   -4077   -16656   -23737   -24809   -20610   -13278    -5836    -1548 
   -2231    -7538   -15678   -24287   -32051   -38075   -39558   -33186 
  -17468     6825    35774    63968    88347   107607   119134   118901 
  103130    70901    26844   -20557   -63502   -95938  -114674  -122098 
 -122464  -117494  -107833   -92303   -67407   -31675    12813    61611 
  107172   140610   156197   151218   124283    78941    25857   -22930 
  -59310   -76832   -69488   -36549    14585    70703   119414   154488 
  173565   176775   168378   153797   137203   121155   103970    80975 
   50019    12662   -27099   -62121   -84119   -87457   -69922   -34639 
    8121    46252    72726    86027    87908    83253    78530    77924 
   80766    81454    73595    54882    26888    -6002   -36203   -55080 
  -56070   -35935     3120    51305    95264   124985   135455   125844 
  100318    68617    43518    34008    41551    62615    88944   109132 
  116494   111236    96827    80788    73142    79437    98504   124590 
  149766   168002   175985   170019   148219   115009    78992    48319 
   29235    25464    36569    57163    77982    89397    86454    70569 
   47561    25537    11852     9969    18884    33584    46068    48425 
   35717     7297   -32203   -75245  -116671  -154407  -186343  -209973 
 -223495  -225470  -214035  -187860  -149519  -105876   -62769   -22548 
   12449    39859    60396    75442    84210    85347    77558    60599 
   38020    16015     -296    -7635    -4190     8354    23415    32808 
   31426    18462    -3226   -27496   -46562   -53431   -42856   -12366 
   34876    90204   145152   194361   232313   252810   251408   224522 
  171604   101919    31777   -25749   -62505   -72179   -52181    -7920 
   45025    88012   110353   108467    81470    35282   -15482   -56019 
  -80994   -92709   -94110   -88922   -80883   -69033   -49802   -22863 
    8752    41902    71468    88494    87535    69939    39252     2901 
  -29709   -55236   -72641   -78402   -71853   -55096   -28630     5648 
   42659    77441   104337   115995   108408    84025    50181    17893 
   -2701    -8629    -1842    14227    31862    41924    41132    30801 
   12940    -8355   -27333   -40045   -43665   -34840   -13002    16444 
   44294    62316    66637    57488    36982     9178   -19732   -44691 
  -63541   -74712   -76273   -66402   -43597    -9848    27435    59893 
   81287    86466    73990    48646    18867    -5662   -17085   -12467 
    7120    36056    64053    82249    86931    77330    55871    29573 
    6553    -7286    -7655     7019    32795    61112    83158    93814 
   91555    76710    52805    26714     5000    -7616    -7778     4378 
   23472    41038    49253    44056    26475     2109   -20369   -32765 
  -30389   -11569    21442    60610    95595   118232   122973   107664 
   76845    43045    21421    21066    42125    77728   113563   131373 
  120843    84783    33470   -18485   -55478   -68784   -56795   -21724 
   26280    70994   101527   114570   108495    84523    50180    15385 
  -13182   -32801   -41850   -38392   -22099     4050    34632    64172 
   88028   101921   103272    92122    70540    43132    15715    -7725 
  -24473   -32142   -31205   -26160   -23624   -29415   -45186   -67598 
  -91186  -111320  -124749  -128405  -119566   -98488   -70339   -43193 
  -23380   -13234   -12324   -18361   -26620   -31384   -30930   -29916 
  -35161   -50337   -74178  -101406  -124790  -138314  -139701  -128875 
 -106659   -76813   -45152   -15705    10177    32355    51557    69292 
   86314   102095   116056   127844   136504   140463   138554   130546 
  117065    99837    81573    65771    56618    57241    66755    79153 
   85860    80357    61454    33289     2631   -24605   -45174   -58047 
  -64051   -66054   -67958   -73133   -82825   -95054  -105589  -110014 
 -104872   -88020   -59443   -22243    18750    59536    96539   125733 
  143969   148994   139216   115764    83891    51824    26287     8774 
   -1769    -6616    -9473   -15166   -25480   -39157   -53569   -64774 
  -67795   -57283   -29246    14965    67752   119766   163326   193586 
  209277   211362   201983   185109   166195   149718   135704   120071 
   99103    71769    40142    10349    -9102   -11005     8597    48537 
  100507   151232   187700   200162   182457   133545    61229   -18727 
  -91589  -148685  -183997  -193787  -177033  -134078   -72452    -8208 
   46646    88722   114654   122293   116774   105257    93606    87147 
   85045    79880    65916    43068    15120   -12184   -32763   -42339 
  -39460   -25631    -6001    12427    25814    35471    44967    57373 
   74434    95744   118071   135479   139627   122199    80306    19810 
  -47142  -106847  -147005  -158954  -139245   -90590   -24106    43355 
   98801   136195   152115   146422   124446    95042    68990    54856 
   54357    65445    85273   108200   127483   139537   143919   140678 
  129705   112594    93465    76962    65913    60961    61651    66647 
   72952    76706    75078    67219    54831    41453    29666    19366 
    8696    -4552   -21859   -42440   -62725   -78145   -84701   -79274 
  -61064   -33376    -2260    26718    49533    63534    68581    67216 
