Origin Time       2011/03/11 14:46:00
Lat.              38.103
Long.             142.860
Depth. (km)       24
Mag.              9.0
Station Code      KNG202
Station Lat.      34.7396
Station Long.     139.8393
Station Height(m) -2339
Record Time       2011/03/11 14:47:36
Sampling Freq(Hz) 100Hz
Duration Time(s)  300
Dir.              E-W
Scale Factor      2000(gal)/6182761
Max. Acc. (gal)   149.993
Last Correction   2011/03/11 14:47:21
Memo.             
[...]
   42515    34996    22175     7439    -6121   -16597   -23058   -25724 
  -26178   -27093   -31909   -42165   -55848   -70158   -82064   -87040 
  -81597   -65225   -39936   -11077    13580    27668    27793    13323 
  -11895   -39001   -58101   -62437   -49147   -19268    21768    64937 
  100702   122235   125900   111385    82960    48390    15682    -9230 
  -23104   -26035   -21524   -13271    -2934     8802    22921    41721 
   65317    91636   118157   141303   157006   162351   156646   142356 
  124164   106904    93855    84752    75316    59246    31548    -8415 
  -56655  -106160  -148478  -176065  -185063  -176167  -152721  -119056 
  -80883   -44600   -14596     8203    25417    39273    51812    65642 
   82805   102344   120976   135156   141848   138878   124718    99166 
   65319    28810    -4764   -30434   -44343   -44639   -31002    -5827 
   23781    49538    67113    74794    70983    56578    36272    15238 
   -3601   -18495   -27524   -30192   -28358   -24434   -20030   -15883 
  -12528   -10381    -7976    -2167     8646    23754    41831    61012 
   78764    92839   101594   104160   100503    90710    75420    57191 
   39978    27695    23929    31077    48428    71959    96286   116480 
  129299   133890   131466   125047   118565   114438   112699   112064 
  110784   107260   100405    90478    79585    70288    64752    64881 
   71358    83089    97247   109029   113537   107745    89596    58373 
   16448   -31378   -79305  -121513  -153414  -171208  -170986  -151198 
 -115278   -70808   -26762     9433    33059    41933    36471    19824 
   -1818   -21215   -33265   -35078   -25403    -4824    25090    61673 
  100513   136559   165304   183473   189187   181130   159480   127603 
   91011    55253    24551     1895   -10342   -11751    -4134    10402 
   29132    48616    66582    81310    90567    92507    85359    68024 
   41963    10225   -23656   -55175   -79728   -94120   -96690   -86813 
  -65314   -35361    -2316    28173    51532    62981    58139    36768 
    3637   -34167   -70027   -99350  -119367  -128691  -127310  -115556 
  -94054   -65363   -33451    -1796    26420    47471    58420    59166 
   52299    42376    35831    38714    53341    77383   105424   131316 
  149896   157362   151167   131460   102534    70371    38507     8493 
  -16875   -34526   -43593   -44215   -36836   -23477    -7627     6514 
   15336    17147    11749      805   -11456   -20629   -24250   -21427 
  -12811     -624    12242    22699    27472    23913    11417    -8073 
  -30665   -52028   -69081   -80441   -85940   -86200   -82259   -75276 
  -66329   -56048   -44381   -30973   -15552     1989    21451    41957 
   61581    78260    90283    94873    89058    72630    48046    18834 
  -10158   -32901   -44021   -40818   -24229     1453    28863    49166 
   56020    47417    24674    -7636   -41759   -69645   -86375   -89454 
  -76861   -48927   -10119    32722    72951   105189   125144   130425 
  121762   101922    74442    43740    13992   -11868   -31075   -41221 
  -41441   -31262   -10477    18374    50519    81493   107643   126872 
  138788   143243   140734   132882   121653   109604    99596    92870 
   88061    82937    76228    66790    53237    35591    15472    -4975 
  -23329   -37789   -47836   -53260   -54433   -52985   -50058   -45260 
  -38063   -29069   -19613   -10830    -4061    -1005    -2027    -5471 
   -8787    -9761    -7973    -5023    -2832    -2759    -5476   -10229 
  -14393   -13623    -3621    16669    44430    75351   104981   129312 
  146584   157792   165317   171372   176672   180969   183855   183949 
  179410   169455   154480   135518   113928    91612    70592    51866 
   35975    23510    13700     4792    -4278   -13722   -22569   -29081 
  -32095   -30525   -23356   -11473     1926    13352    21192    25900 
   29161    32392    35259    36666    34899    26451     9357   -13879 
  -38960   -61122   -74865   -76363   -64790   -41834   -11700    20504 
   51552    80460   106898   130126   148550   159804   161379   151846 
  132050   104840    74728    46606    21735    -2586   -28437   -55985 
  -84643  -111683  -132045  -140841  -135585  -118019   -94176   -71550 
  -55710   -48659   -50125   -58247   -67818   -72333   -68659   -57176 
  -40434   -22870    -8641     -250     1386    -1696    -5097    -4483 
    3745    20614    42868    65721    85147    96768    96927    85202 
   63826    36934    10067   -12150   -26976   -32845   -28910   -15528 
    4189    25163    43644    58618    71301    84179    99963   121050 
  147831   176844   202433   219203   222029   206452   171663   122476 
   66324     9766   -40262   -75973   -92570   -90073   -71363   -41640 
   -8384    21866    46000    63123    73650    79616    83458    87150 
   93077   103332   118194   136154   153751   165690   166966   155102 
  130530    96454    58876    24950      325   -11823   -10477     2283 
   20638    37277    46564    47195    42754    38221    36348    37654 
   41501    45676    46559    41819    32160    20046     8186    -1741 
  -10351   -19269   -29357   -41163   -53834   -63730   -66972   -61145 
  -44407   -16823    18141    55015    88265   113591   128768   133558 
  128778   115700    96732    75242    53917    34585    18921     7906 
     892    -3957    -8183   -12743   -18067   -23337   -27092   -27879 
  -23880   -14218     -993    11218    17950    16760     7293    -9144 
  -29058   -46959   -58351   -62394   -61023   -56979   -53557   -54248 
  -60497   -70218   -79074   -82573   -77257   -61124   -33513     4990 
   52156   104900   160251   214129   261116   296463   317315   322109 
  309720   281064   240733   195418   151905   115211    86946    66298 
   51282    38178    21571    -3771   -39716   -83094  -128033  -168361 
 -197289  -208227  -197414  -165023  -115016   -55078     6083    62789 
  110457   142189   153383   146010   125110    96503    68215    48159 
   39867    42496    52824    66177    77781    84913    87872    88813 
   89974    92619    97128   103296   109650   113803   114118   109450 
   98451    81038    58374    30675    -2362   -39496   -78299  -116000 
 -148308  -168927  -171923  -153977  -115116   -59233     6967    75391 
  136097   178978   197647   188818   150540    87028    10881   -63873 
 -124359  -157746  -156769  -122663   -63642     5389    68938   117436 
  144739   147701   129751    98282    61042    25449    -3337   -22557 
  -31033   -30039   -21713    -7825     8205    22246    32027    36160 
   33872    26747    17756     9458     4248     3387     5986    11208 
   19293    30304    44216    60869    79470    99012   118115   134972 
  147634   152812   146185   125111    89123    38819   -24034   -95296 
 -167915  -234382  -288594  -326006  -346305  -352483  -344884  -321303 
 -281684  -229428  -169918  -107168   -41687    27215    98904   170441 
  236443   291864   334256   361861   372547   365616   341135   299327 
  244683   185884   129643    80017    41056    15226     2763     3057 
   13308    27517    39255    45222    45073    38896    27393    12606 
   -3652   -20785   -39159   -58900   -78713   -96869  -112113  -122548 
 -125007  -116627   -96899   -67878   -33094     3217    37029    65555 
   87260   101716   109921   113553   113413   109568   103121    96390 
   90643    84819    76851    65056    48312    26714     2885   -17753 
  -28561   -25086    -7088    22434    56782    85704   100789    98636 
   78195    40255    -9989   -63688  -112747  -151917  -177419  -186983 
 -180293  -158181  -124911   -89043   -57854   -33917   -17670    -9128 
   -6489    -6297    -5917    -3764     1602    11139    25938    47521 
   75520   105834   132895   151933   158284   148640   123064    84557 
   38755    -7264   -47465   -77238   -93343   -94698   -81460   -55018 
  -20187    15968    47867    73074    91874   105434   114536   120010 
  122038   118559   106961    87621    63720    39274    19372     9872 
   14900    35236    68070   106891   143668   172181   188268   189228 
  174436   145817   108441    69427    35177    10299    -2323    -1162 
   13487    37372    63074    83716    93765    88947    68230    34534 
   -6275   -47060   -81789  -105896  -115139  -107082   -83171   -48064 
   -8433    28496    56584    70647    66935    44558     5718   -44484 
  -99612  -154169  -203868  -245372  -276555  -296252  -303715  -298175 
 -279050  -247528  -208232  -167462  -128799   -92342   -57547   -24233 
    7225    35589    60196    80874    96809   107758   114475   118633 
  123957   134224   149707   167501   183514   194107   197566   193393 
  181810   165505   150157   141709   142593   151878   167660   186501 
  204365   219458   231368   239244   241479   235876   220699   195237 
  160163   118382    73787    29433   -12653   -52248   -90790  -128365 
 -162331  -190067  -211281  -226221  -233917  -233740  -226159  -212026 
 -192771  -169839  -143703  -114619   -83318   -50473   -17171    14475 
   42689    66685    86160   101728   114618   125495   133661   136450 
  130440   113862    87441    54123    18411   -14689   -40334   -54601 
  -54960   -40383   -12477    24178    63796   101018   131891   154019 
  165454   164251   149067   119842    78850    30366   -21033   -70327 
 -112258  -143590  -163140  -169343  -159638  -131973   -86371   -25849 
   43963   115315   178637   225566   250562   248347   215982   158249 
   86111    11405   -55376  -105194  -132324  -137099  -123311   -94962 
  -59449   -27032    -3903     8688    10625     3690    -7261   -17682 
  -25557   -30795   -35070   -40508   -48276   -59311   -74019   -90681 
 -105946  -117012  -122436  -121671  -115401  -105694   -95159   -86294 
  -80410   -76602   -72857   -67672   -59520   -45467   -21352    15717 
   65028   122802   183247   239796   287841   324922   349038   359363 
  356785   343083   321017   294086   265042   235715   208101   183898 
  163663   147581   136623   132212   134328   141477   152688   167277 
  183441   198143   207246   206701   194588   171466   139594   102234 
   62160    19959   -25461   -74271  -124448  -172826  -216131  -250949 
 -273703  -281724  -274090  -251817  -218883  -182419  -150092  -127060 
 -115735  -116799  -128381  -145682  -162575  -173191  -172957  -159386 
 -132973   -96798   -54795   -10641    33190    74754   110925   138997 
  158328   169198   172639   170900   167188   165535   170178   183981 
  206207   232404   257288   275934   283455   276749   256300   225934 
  191577   159249   131778   106951    80093    47077     4648   -47749 
 -105449  -160816  -207154  -238728  -250365  -239124  -205706  -156544 
 -103608   -57891   -24293    -4315      414   -10275   -33018   -61986 
  -91093  -116128  -135566  -149029  -155825  -154885  -144731  -124678 
  -96243   -62049   -25533     8761    37118    57130    67175    67874 
   62104    53322    44792    38469    33993    29026    20647     7668 
   -9060   -28373   -48380   -65597   -76579   -79085   -70810   -49453 
  -15661    26595    72847   118848   160605   196080   224762   246005 
  259376   264124   257703   236769   199813   148686    86158    13365 
  -65885  -142157  -206615  -254973  -282880  -283520  -252068  -189243 
 -101319     2359   114098   225963   325138   400923   449522   468096 
  456498   419207   358529   279559   195236   114158    38580   -26422 
  -75868  -108787  -126267  -131305  -127162  -116654  -103606   -90061 
  -74291   -53969   -27694     5745    46060    90381   134189   172987 
  203676   223756   229547   216473   181355   125526    55020   -23866 
 -105256  -180257  -240859  -283801  -304220  -294718  -253261  -184734 
  -98247    -3111    94726   187724   266177   326720   370362   395028 
  397481   377483   337841   283448   220220   152700    83593    15851 
  -47195  -101628  -141774  -162245  -159848  -132802   -82867   -18512 
   48317   107383   150693   172041   167762   137125    83996    18007 
  -49097  -107276  -148546  -168367  -166098  -143201  -104195   -57499 
  -12572    23631    47532    57973    56905    48371    35222    19859 
    5522    -5251   -11067   -11490    -7032     1318    12001    23224 
   34259    45709    58429    73072    90079   108417   125135   137301 
  143000   140793   130200   112582    90906    68990    50106    35651 
   25631    18705    11339     -590   -19747   -47000   -81619  -121614 
 -163056  -200245  -227743  -240493  -233421  -203643  -153320   -90207 
  -23860    38289    89687   124176   138790   133353   109694    73547 
   32633    -7807   -45237   -78161  -106585  -131133  -149767  -159444 
 -159559  -148980  -125402   -90549   -50160    -9286    27766    56194 
   73372    79747    77682    71161    65948    68570    81603   101923 
  124322   143322   154363   154947   143080   117782    82343    44465 
   13509    -2135     2500    27547    69052   119528   168311   206077 
  228332   231436   211235   168097   107436    35361   -42543  -119273 
 -186811  -239088  -271311  -277093  -251204  -194215  -112858   -18477 
   76849   163436   232192   274876   286781   266568   216774   146660 
   71301     3309   -51951   -91105  -111322  -113969  -103341   -85273 
  -66507   -51127   -39780   -32059   -28248   -29753   -38095   -54344 
  -78475  -109037  -144490  -182172  -217545  -247024  -267750  -276565 
 -272010  -254658  -226868  -193326  -160005  -130943  -106064   -83530 
  -60721   -32736     5511    56492   119022   188559   259631   327394 
  387520   436090   469750   486951   488631   476354   451365   416403 
  376006   334017   292128   250815   210722   172921   138167   106626 
   78724    55869    39366    28887    23115    20803    20265    19526 
   17834    15810    13782    11118     6619    -1192   -12779   -26737 
  -41105   -54907   -67373   -75866   -77223   -70929   -57905   -38207 
  -12781    14800    39718    57505    64824    60206    44115    19176 
   -9591   -36009   -54280   -60065   -51747   -31123    -3337    24175 
   44535    53660    49853    33740     9224   -17780   -42045   -60834 
  -74359   -84013   -89973   -91869   -90981   -89611   -89648   -92496 
  -98337  -106085  -114792  -123101  -127075  -121412  -101876   -65731 
  -14326    46284   109052   167070   213450   242849   252845   243311 
  215495   173474   123909    72241    21321   -25630   -64187   -92163 
 -109640  -115615  -108641   -89370   -61298   -30256    -1987    20281 
   35339    42495    42099    36214    26766    13976    -2514   -22284 
  -43984   -65762   -85605  -101018  -108898  -106459   -92725   -69347 
  -40108   -10023    16370    36917    50792    56691    53732    42014 
   22360    -2403   -27684   -49549   -64638   -68709   -58178   -32621 
    4958    48758    91672   127898   153407   164996   161129   143041 
  114751    82473    52700    29843    16495    14611    24044    41822 
   64093    87420   109538   130041   149368   167649   185243   202654 
  218693   230253   234202   227989   209523   178727   138349    92151 
   43423    -5333   -52234   -95047  -131758  -162014  -185877  -202378 
 -210049  -207216  -192567  -166779  -132790   -95018   -58495   -26930 
   -1820    16591    28875    36756    43623    53457    68231    87182 
  107907   127304   142250   150385   150621   143013   129093   112545 
   97831    87057    78751    69661    56814    38124    13485   -13454 
  -36436   -50189   -52238   -41848   -18679    15393    53850    88617 
  114806   130170   133166   123756   103393    74936    44229    18261 
    1531    -3068     6535    28856    58769    89962   116046   132392 
  137820   133728   122931   109080    96197    88383    88161    95061 
  106470   118085   124568   121914   108264    84059    53024    20722 
   -8245   -31394   -47829   -57417   -61394   -62354   -62805   -65330 
  -72327   -83429   -95855  -107875  -118949  -127932  -133913  -137189 
 -138532  -138363  -136351  -131600  -123107  -109911   -91173   -65942 
  -33347     5629    47204    85906   115519   130077   125330    99998 
   57139     4400   -47779   -90368  -119699  -134739  -133000  -113569 
  -79884   -37688     7367    51607    92798   128586   157699   180331 
  197048   209148   218818   228227   238226   248016   256289   260998 
  258720   246209   222177   187825   146489   101945    56668    12988 
  -25068   -53365   -69755   -73741   -65584   -46129   -17360    17507 
   54954    92181   127556   159967   187677   208064   218729   218355 
  205924   180154   140800    90089    31580   -31461   -94473  -150560 
 -193113  -217150  -218002  -192511  -142655   -77072    -8374    52744 
   99749   126764   128071   101195    49190   -17406   -84729  -142944 
 -185253  -205530  -200559  -170156  -118304   -55579     6102    60317 
  104740   138346   161792   176294   183587   187135   189641   191386 
  191744   189563   182980   170392   151761   128266   100609    69474 
   37297     7669   -16705   -34551   -45761   -50889   -49468   -40182 
  -23355    -1082    24402    51219    77517   100462   115869   120210 
  112087    90945    57340    15240   -29348   -71538  -107423  -133733 
 -148747  -150963  -138611  -112193   -75416   -33667     7649    43329 
   67784    76583    67715    41118       88   -48107   -95664  -136778 
 -167343  -186134  -195246  -196349  -189485  -176140  -158493  -136597 
 -109581   -76713   -37382     7275    54463   100660   140896   169478 
  181683   173661   143242    93335    32040   -32052   -91996  -141760 
 -177182  -195932  -195782  -174753  -133340   -77625   -17860    38391 
   86975   122634   141026   141487   124409    91372    48333     3888 
  -36385   -70229   -94512  -106048  -103465   -85304   -52336   -11392 
   29165    64881    92608   108590   111518   102615    84154    59897 
   33858     9209   -11294   -25816   -33002   -31317   -21049    -5207 
   12564    28716    39697    44184    43752    40214    35283    31678 
   31254    33510    37267    41991    46748    49537    48421    42550 
   32374    19540     6550    -3757    -8605    -5881     4898    22262 
   43060    63049    78183    85298    81951    67680    45324    19386 
   -5677   -25262   -35427   -33842   -19831     4923    35812    66396 
   91500   109163   119016   121047   116681   109512   103930   102195 
  103127   103826   101796    95365    83221    64602    40949    16423 
   -5373   -23117   -35466   -41111   -40657   -35922   -28926   -21705 
  -15556   -10270    -3892     6673    23769    47460    75911   105996 
  133068   151510   156445   144756   116229    75134    28589   -16184 
  -52437   -75445   -83111   -74052   -48347    -9826    34648    78710 
  119296   155054   184182   205356   217643   220144   213312   198845 
  179101   157204   136613   120421   109630   102382    95910    87239 
   72915    50918    21560   -13334   -50270   -84762  -112456  -128716 
 -129032  -110888   -75952   -30832    16181    58865    92802   114306 
  121098   112776    91052    60235    26523    -4651   -30463   -48847 
  -57501   -55932   -45060   -25786      -94    28344    55365    77672 
   92785    98490    93451    77774    53227    23569    -6328   -32453 
  -52641   -66406   -74931   -80491   -85733   -93166  -103478  -114930 
 -124727  -129476  -125341  -109437   -81046   -42045     3387    50323 
   94105   129715   152519   159717   149516   121806    81597    37908 
