Origin Time       2011/03/11 14:46:00
Lat.              38.103
Long.             142.860
Depth. (km)       24
Mag.              9.0
Station Code      KNG204
Station Lat.      34.8931
Station Long.     139.5711
Station Height(m) -933
Record Time       2011/03/11 14:47:40
Sampling Freq(Hz) 100Hz
Duration Time(s)  300
Dir.              N-S
Scale Factor      2000(gal)/6182761
Max. Acc. (gal)   59.817
Last Correction   2011/03/11 14:47:25
Memo.             
[...]
  -18639   -13934    -5375      478    -2367   -13091   -23553   -27016 
  -23800   -15424     -230    21890    45262    61450    67232    67430 
   68059    71444    76771    80050    77555    70659    64173    60929 
   57955    49338    34248    19267    10960     7485     2544    -3384 
   -4574       14     6342    11112    13813    15672    19243    27469 
   38992    46774    46201    40422    35278    34095    36588    39643 
   40705    39939    39274    41462    47020    51623    51248    48071 
   47685    52495    59828    66419    72187    78159    84363    90813 
   97440   103616   109283   114937   119862   121922   119820   114847 
  109614   104909    98963    90652    81371    71871    59785    43193 
   25156    11800     5905     4987     6146     9822    17590    27632 
   34416    34781    32151    31953    36021    42188    46397    47324 
   48856    54668    63159    70175    74396    78425    84433    91505 
   98631   105171   107787   102916    92312    82138    75382    67847 
   55991    44164    37049    32602    27663    21648    14871     9492 
    8034     9571    11271    12269    14572    21286    33625    48366 
   58631    59477    52778    45660    43529    44747    43858    37473 
   24805     7023   -11038   -20567   -15286      -33    12996    18137 
   20542    25853    31765    32640    26851    16485     5555    -1106 
   -2999    -4637    -7342    -6732      -46     9327    15069    14055 
    8534     2148    -3389    -7383    -8725    -5891     1679    12678 
   24504    34418    42168    50302    58859    64065    64627    62857 
   59286    52096    41382    31146    25011    20511    13114     3519 
   -5438   -13779   -22266   -30548   -37790   -42559   -43765   -41555 
  -36019   -26437   -12153     6000    24715    39514    46932    45898 
   39101    31564    25725    19668    10689    -2242   -18944   -37085 
  -52477   -62596   -67026   -65960   -61083   -54671   -47334   -39696 
  -34806   -34515   -34562   -28417   -14844     2217    18494    31897 
   42664    52137    61801    72708    83559    91112    93298    88774 
   75043    52484    29428    15357     8561      328   -11285   -22169 
  -29502   -32416   -32455   -32953   -35189   -37964   -40606   -44298 
  -49277   -51136   -43500   -27090   -12759    -9609   -13191   -13350 
   -7628      503     7195     9302     8456    11432    22794    40307 
   57273    68304    72864    73882    74394    74720    73348    71044 
   70782    73265    75711    75870    75593    78321    83435    86666 
   85500    79529    67625    50394    33192    21579    14767     8145 
    1036    -3721    -5435    -5785    -6462    -8602   -12221   -15452 
  -15007    -8791     1685    12569    20237    22253    18691    13244 
   10476    11749    15113    18300    20747    22803    23754    22123 
   18076    13988    11603     9352     3804    -6126   -17602   -26693 
  -31986   -34940   -35533   -29196   -12370    10329    29188    39615 
   45854    53009    59723    62869    64722    69445    76201    80773 
   80694    76522    69742    59824    44967    26068     7327    -7505 
  -18767   -30673   -46336   -63388   -76270   -81763   -80716   -76001 
  -70389   -65295   -60585   -56440   -54525   -55457   -57201   -57987 
  -58356   -59086   -58764   -53955   -41866   -23954    -6835     2898 
    5070     4390     4218     4943     5488     4180       11    -6885 
  -16340   -28116   -40664   -51896   -61064   -67109   -66141   -55658 
  -40851   -31216   -29897   -30162   -24493   -14639    -9406   -13722 
  -22820   -27733   -24362   -14881    -2518    11149    24629    35714 
   43471    49342    55607    64282    76395    90163   101566   108959 
  115010   121450   126146   128055   129478   133321   140662   146910 
  142956   125791   103966    89225    85182    85711    83857    78408 
   71273    65018    61422    58009    51676    45576    46637    58057 
   76305    94888   109626   119087   122924   121686   116066   106331 
   93917    82445    76074    77583    86804    98256   103040    97124 
   85171    74395    68211    66302    67943    73802    83392    92074 
   94112    87909    76184    62823    50120    37235    21844     3926 
  -13475   -27431   -37762   -46757   -57364   -70519   -82774   -88119 
  -83192   -70240   -56044   -46253   -37627   -20258     9219    41695 
   64536    74568    80524    91220   105579   116263   118865   114552 
  105452    94092    85784    83317    81774    73976    59034    42882 
   31045    23030    15276     7521     3467     6384    15131    24750 
   32218    39701    50823    66375    83783    98076   103340    96438 
   80677    63616    51632    47149    48309    52011    56442    58383 
   54049    43134    28120    14462     9552    15419    27713    42207 
   55789    65043    69551    73065    79043    86888    91972    87964 
   72157    51229    36612    31065    27036    19394    11001     6330 
    5939     6411     4856     2333     1080     2473     7473    14337 
   18576    17852    14083    10655     9363     8112     1178   -14201 
  -31880   -41861   -39809   -28894   -14800     -295    15092    29482 
   37566    38140    36816    38794    43993    49748    54341    58123 
   62240    66201    68229    67223    63066    56043    46254    34641 
   24668    19836    19583    19862    17194    12385    10472    14855 
   22051    25155    22579    20154    21938    23611    19734    12237 
    7840    10752    19763    30216    36417    34258    24219    10818 
    -947    -8990   -14697   -18922   -19963   -17443   -14122   -12408 
  -11073    -5971     4807    16226    19677    12391     1743    -1407 
    6277    17883    24900    25572    23292    20686    18594    17787 
   18779    21489    25654    31037    37353    43444    47318    48041 
   46401    43115    37180    26884    13830     4462     4518    13817 
   28390    44788    60924    74560    83248    86706    86835    84285 
   78985    75043    78335    87270    93204    89667    76420    59473 
   48195    45414    42974    32750    16991     3452    -3482    -2477 
    8069    27596    49577    64528    68656    66762    65494    68714 
   78581    94375   111776   126155   133837   132320   122375   107832 
   93446    82432    74011    65355    54580    40056    22260     5776 
   -5253    -9907    -8087       19    13190    28750    42445    51511 
   56313    57296    54178    47363    38289    30883    29887    35133 
   41036    41896    36017    25762    14413     3819    -5350   -13381 
  -20689   -26293   -29301   -31232   -34111   -36488   -33490   -22640 
   -8213     2528     5957     4216     2854     6249    14436    24195 
   30738    29142    18801     4704    -7867   -16197   -19116   -17732 
  -15998   -17980   -24763   -33915   -40937   -41639   -34581   -22298 
  -10029    -1174     5930    14313    22479    25528    22873    20923 
   25099    33391    39869    40259    33999    23982    14201     6573 
      83    -7176   -15976   -25170   -31754   -33503   -32023   -31221 
  -33265   -36390   -36486   -31439   -22160   -11382    -5744   -11640 
  -24203   -32003   -33055   -34218   -39352   -45716   -48922   -49304 
  -50687   -53189   -52707   -45907   -32819   -17235    -4648     2542 
    6571    10362    15088    21889    31956    44506    56985    67073 
   74079    78950    83815    91568   104130   120550   137217   149627 
  153051   142278   115356    77789    40108    11698    -5567   -16596 
  -25083   -32540   -40861   -50566   -60450   -66488   -61876   -44659 
  -23732   -12010   -12985   -18626   -20841   -17806    -9959     1522 
   14010    25979    36339    40627    33748    18925     8112     8362 
   14398    17856    15449     9741     8974    20479    40978    58622 
   63587    53804    34478    14918     2992     1576     9741    23340 
   36610    47374    55571    57117    48851    36611    28578    24507 
   19044    10395      776    -5951    -5792     2033    13350    22219 
   26208    27199    26835    24525    20423    16662    15327    17887 
   25232    35588    44019    45966    41156    33608    28450    28937 
   34011    38659    38787    35121    33313    40083    56146    74029 
   85122    86489    79396    65826    49888    39117    38556    42472 
   38429    21451    -1180   -16494   -12920    13603    53650    86221 
   97731    98357   105918   122145   138749   152237   163299   172473 
  177914   174538   158023   127684    86941    47259    24324    20493 
   20264    10476    -5654   -17611   -20940   -19412   -18168   -18876 
  -21724   -25755   -27330   -23890   -16454    -7521     -815      -48 
   -5531   -13924   -19693   -19380   -16376   -14969   -12025    -1938 
   14115    28155    33087    28389    18137     6099    -7252   -24146 
  -44652   -64553   -80799   -94305  -103509  -100762   -78018   -34065 
   18893    57026    65825    55189    42012    30642    18526     4126 
  -12911   -29957   -42727   -48051   -43776   -30678   -14488    -2628 
    2921     7705    16430    27968    41483    58152    77800   100539 
  126360   151746   169380   167942   135269    74417    18117     3011 
   21598    34541    28437    17451    11861    20702    48007    78690 
   96203   100396   100142   100956    99216    89636    78080    75591 
   79768    76746    62029    44174    29491    17136     6379     -597 
    -859     6963    19153    26662    23236    11766     -117    -6602 
   -4703     5667    18344    22298    12402    -5180   -20552   -27928 
  -27054   -20970   -12414    -2423     8010    16060    18894    18965 
   23184    34245    46462    51286    46254    36379    26149    15933 
    4460   -10383   -28588   -45764   -57024   -60380   -57160   -51488 
  -47454   -45881   -44507   -40750   -33887   -24999   -15237    -4893 
    5317    13283    17441    18377    16981    13247     7737     2599 
    1893     9554    23871    36492    40674    38562    37424    40642 
   46272    52650    60421    70269    81366    90029    90670    81006 
   64715    47917    34859    25978    18900    12829    10578    13833 
   18795    20116    18141    17494    19357    21764    25990    36014 
   53169    74149    92244   100976    98626    87965    72608    57698 
   51066    57056    71760    88974   105311   117127   121621   122381 
  126322   135944   147858   157036   160971   158702   147504   125712 
   98955    77553    65104    54944    41108    27071    21006    27832 
   46577    70165    87955    92999    86543    73356    55785    35151 
   15403     1365    -6242   -11034   -14809   -14964   -10681    -5872 
   -3023       -3     6167    16470    28869    38073    39062    30804 
   14701    -7172   -30150   -48961   -63597   -78207   -95007  -112519 
 -126763  -133254  -130899  -124910  -123498  -128431  -131082  -120780 
  -94081   -57063   -24003    -8879   -10669   -14936   -14069   -12860 
  -15837   -23113   -34500   -50390   -70275   -90813  -106528  -113713 
 -112356  -104707   -93873   -82564   -69897   -51313   -27315    -8075 
    -730      975     6249    15842    25192    30530    31613    31570 
   32803    35273    39405    45334    49758    49103    43867    37146 
   32991    35164    43004    51160    55528    56511    57053    60430 
   68409    79910    91810   100473   104286   105158   104744   102086 
   97666    94892    95719    99186   104195   109410   110337   100069 
   77540    53194    37289    26412    13509     1343    -5936    -8920 
   -5957     5081    23092    45248    64842    75496    78583    77615 
   71968    61142    46703    29304    10449    -4743   -11083    -9466 
   -7774   -13113   -25372   -41754   -61269   -81860   -99224  -107836 
 -102142   -81822   -55585   -36071   -29292   -30092   -30913   -30516 
  -29997   -28179   -24375   -20303   -18303   -18629   -18570   -14651 
   -5357     8341    24962    43155    60112    72869    80133    81329 
   77143    70570    65768    66152    72512    83567    98203   114854 
  129988   139480   139858   129006   108649    84347    61994    44622 
   31882    24294    24708    32518    43264    54820    67333    79315 
   88418    93816    95933    95101    91494    86299    82362    81829 
   80647    69247    45065    20277     8830     8713     6964    -2522 
  -17164   -31879   -40312   -39047   -29890   -16943    -5657      536 
    4230     9955    20261    37703    62780    88368   103577   106047 
  104559   107105   113460   120630   128536   137329   141689   133798 
  112728    85549    60764    43810    34696    29034    24131    21420 
   22159    24940    27947    30860    33584    34887    32842    26125 
   15550     3307    -9899   -25478   -43909   -61251   -70186   -65232 
  -46757   -21723      454    16993    32401    46522    52209    46429 
   33971    22214    16486    17096    18285    11269    -7464   -30522 
  -45558   -46294   -36542   -24813   -16000    -7668     5391    23004 
   38584    46403    46817    44570    44007    45033    43425    36708 
   28056    22590    21187    19346    13127     3949    -4771   -12218 
  -20032   -30108   -42311   -54666   -66711   -79831   -93824  -106257 
 -114706  -118198  -117256  -112993  -106219   -97603   -88674   -82073 
  -80860   -84971   -86881   -79162   -64320   -46324   -24814    -4267 
    9075    16980    25266    37085    51479    65102    74983    79639 
   79407    75983    72071    70540    71897    75039    80776    91353 
  107107   124903   139113   144811   142382   139679   146506   165157 
  188334   205923   211165   202765   186828   173384   166693   165037 
  167033   170192   171123   169847   166232   156491   138992   118943 
  104747   100431   101920   102134    98203    91957    86616    84275 
   85264    89695    96522   102859   108068   110778   105923    95144 
   86789    83445    82858    83700    84728    85495    86800    89114 
   92389    94452    91354    82947    74254    69521    67230    62724 
   54897    46117    38175    32193    26795    17035      198   -21439 
  -43531   -62348   -75620   -79463   -69471   -48739   -26029    -7467 
    3279     5209     1104    -6018   -13553   -20207   -26990   -34818 
  -45007   -58834   -74366   -88411   -99233  -104096   -99639   -86572 
  -67963   -44136   -17616     2305    10833    14973    23485    37366 
   49900    54832    52415    45347    37224    33371    35840    41573 
   46235    47865    49087    54660    65283    76412    83147    84655 
   85316    90517    98744   101102    91972    77685    70187    71541 
   71166    59898    39576    21411    17024    24528    31565    33552 
   33644    31425    23700     9500    -8762   -26603   -40254   -47653 
  -48334   -44288   -38178   -28543   -10006    20639    59906    96499 
  118623   126300   127891   126755   121114   110576    96559    81948 
   71626    68890    71622    73959    70596    59605    42489    22103 
    1616   -14456   -21923   -22230   -22256   -27526   -38663   -52564 
  -65183   -74030   -77565   -74725   -66808   -57100   -48669   -42940 
  -39019   -36733   -39677   -50274   -64405   -74865   -77398   -72814 
  -65740   -61476   -62495   -67153   -72492   -77229   -80882   -81797 
  -76636   -61498   -35758    -6886    11413    11312    -1519   -16858 
  -29391   -37767   -43086   -45948   -42287   -29054   -11176     2335 
    5280     -941    -7073    -5284     3272    12937    19397    20440 
   16582    10795     6161     4836     7974    14726    21817    25214 
   22818    16002     8876     5331     5910     8404    10611    10203 
    4613    -6439   -21671   -42048   -68746   -96524  -114819  -118005 
 -110116   -98101   -86146   -75710   -64880   -49782   -30509   -12820 
   -1335     5789    12568    19047    21436    15898     2918   -10744 
  -16927   -13328    -3178    10785    27573    44891    59377    69636 
   76947    82535    86179    88431    90791    93021    93292    90404 
   85261    82218    86974   100181   115131   122029   114195    94801 
   77544    73720    81251    92372   102690   109572   112998   115513 
  116579   114324   110612   108817   111097   117818   126538   134235 
  140081   143529   142420   135358   124488   115505   114634   122969 
  134914   144697   151129   156070   161497   166165   164150   147655 
  114330    76074    53737    55595    70471    84419    90566    87964 
   82312    79635    78926    76001    68114    55239    40055    25027 
   10916    -2544   -16502   -31779   -47112   -59286   -65633   -67076 
  -67275   -68746   -70393   -67598   -56691   -38985   -18233     2039 
   19082    32050    40203    41268    33825    19638     4248    -4754 
   -3031     5676    12346    11492     5003     -974      679    13810 
   33450    47817    49792    44748    44112    52463    62965    64012 
   50489    29791    15449    15288    27053    42824    53890    54054 
   43734    29366    17494    11512    10467     9674     6499     3570 
    3595     4631     2828    -1943    -5348    -3787     1811     7789 
   10863     9418     3769    -3592    -8368    -7160      316    12687 
   28483    45248    59188    66804    66466    59144    49281    43411 
   44580    49679    54036    54657    49656    40817    34912    36680 
   42352    43789    37847    28964    22792    20572    20331    20269 
   19755    19115    19231    20432    21899    22890    24453    29411 
   40282    56450    73158    85215    91577    93786    92053    86616 
   80224    75096    70229    64389    57424    47386    31918    13026 
   -3391   -12527   -14927   -16617   -24126   -39332   -58409   -74427 
  -81609   -78235   -67224   -54860   -45943   -38375   -25970    -6951 
   13239    26661    29966    26353    19462     9573    -3162   -17076 
  -30454   -41992   -51408   -60177   -69602   -78163   -82204   -78893 
  -68387   -53483   -37553   -24206   -16646   -14321   -12878    -8656 
   -1343     7414    16552    25632    33105    36929    37038    35670 
   34871    34080    31008    25579    21171    19885    18528    10878 
   -6805   -30105   -45493   -40476   -17266     6909    15705    10028 
    5655    12991    26422    37155    44776    52124    59983    67967 
   74987    80593    85673    90132    92254    90215    83314    73426 
   64481    57383    46538    27394     6539    -4570    -2977     7179 
   20905    31903    37763    44304    54489    60492    53718    35227 
   13648    -2005    -7770    -6205    -2722     -865     -635      641 
    6108    16094    26738    33235    32894    26477    19979    21077 
   31229    44161    52347    53101    46874    32512     9573   -16852 
  -38921   -53366   -63229   -72199   -80172   -84412   -81864   -71572 
  -57076   -43996   -33638   -21965    -7440     3806     5434     -253 
   -5632    -6105    -4011    -7065   -19767   -37234   -51888   -60187 
  -59658   -47501   -25997    -5154     5541     7691    10326    18194 
   29913    42544    53897    64361    76566    91456   105774   113284 
  109279    95971    82102    75318    75446    75776    70271    59403 
   49605    47311    54011    65942    77156    84264    87880    89228 
   88215    84938    80878    77382    73259    65731    54391    42975 
   35676    31479    24890    12816    -2529   -17219   -29220   -37964 
  -42444   -41432   -34301   -22001    -8790     -343     1568      675 
    1535     3478     1515    -5291   -11000   -10597    -6501    -5913 
