Origin Time       2011/03/11 14:46:00
Lat.              38.103
Long.             142.860
Depth. (km)       24
Mag.              9.0
Station Code      KNG201
Station Lat.      34.5956
Station Long.     139.9183
Station Height(m) -2197
Record Time       2011/03/11 14:47:37
Sampling Freq(Hz) 100Hz
Duration Time(s)  300
Dir.              N-S
Scale Factor      2000(gal)/6182761
Max. Acc. (gal)   107.079
Last Correction   2011/03/11 14:47:22
Memo.             
[...]
 -276204  -282361  -283158  -279927  -273971  -266092  -256681  -245995 
 -233893  -219842  -203572  -185745  -167643  -150367  -134644  -120922 
 -109448  -100362   -93485   -87959   -82311   -74863   -64050   -48342 
  -26331     2369    36783    75312   115554   154169   188465   216800 
  237897   251654   259380   263158   265502   267956   270152   270317 
  265480   252376   229648   198833   163367   126829    91881    60710 
   35176    15999     2941    -4362    -6515    -4681     -416     4297 
    6846     4634    -3640   -17453   -34659   -51566   -64053   -69658 
  -67948   -59656   -46817   -32692   -20557   -12924   -10770   -13062 
  -18201   -24683   -30345   -33730   -35718   -38134   -41440   -44515 
  -45890   -43839   -36266   -22021    -1659    23264    51136    80266 
  108444   133974   156151   174094   186979   194450   195740   189724 
  175842   154851   128780   100167    72224    48783    32361    23191 
   20361    22374    27040    32204    36559    39587    41297    42323 
   43178    42820    39246    31569    19990     4587   -14176   -34579 
  -53520   -67081   -72836   -71122   -62919   -48645   -29236    -6218 
   18983    45232    71885    98838   125601   150343   170678   184383 
  188594   180286   158444   125019    83641    37345   -11250   -57642 
  -96811  -126522  -146701  -157779  -160805  -156561  -145255  -128400 
 -108480   -86676   -63661   -41656   -23113    -7985     5706    19339 
   33372    47738    61207    71654    76681    73940    62551    44302 
   22800     1322   -18151   -34242   -46287   -54717   -60887   -66947 
  -73951   -80653   -86031   -90711   -95702  -101906  -109706  -118536 
 -127880  -137315  -145662  -151872  -155652  -156978  -156143  -153326 
 -147803  -138317  -123837  -104122   -79854   -51826   -20465    13418 
   48130    81983   114067   143715   170310   193572   212574   225060 
  228355   220072   198682   164810   121102    70544    16591   -35349 
  -78921  -109848  -126235  -126491  -111145   -85244   -53626   -17649 
   21318    61350   101205   138957   172976   202683   226448   242160 
  249086   247573   238864   225300   209876   195538   184647   178258 
  175076   172426   168876   164347   158558   151346   143789   137888 
  135287   136463   140577   145503   148409   147010   140350   128959 
  114980   101095    88535    77045    66198    55571    44541    32751 
   20798    10096     1337    -6283   -14030   -23048   -34327   -48180 
  -64109   -81270   -98807  -115858  -131746  -146543  -160267  -171594 
 -179052  -182386  -181939  -178383  -172515  -164480  -154137  -141712 
 -127347  -110659   -90870   -67455   -41077   -13350    13812    38126 
   58030    74124    87953   100543   112637   124147   133328   137934 
  136464   128354   114698    98408    82635    69541    60124    54466 
   52598    55377    64576    81271   103770   128686   153719   177777 
  199964   219835   236397   246990   249986   246187   236629   222656 
  206152   187654   166541   142331   115411    87304    59577    33319 
    9276   -12613   -32794   -51350   -67660   -80331   -88522   -92242 
  -91191   -85422   -75672   -62524   -47238   -31922   -17622    -3809 
   10301    25372    41930    59081    74583    86734    94013    94368 
   87008    72270    50801    25573      948   -20386   -35975   -43092 
  -41758   -33585   -19228     -268    20707    42454    64113    83557 
   97099   100024    89724    67996    39112     6949   -25332   -53813 
  -74868   -87432   -91667   -88025   -78559   -65810   -51706   -38434 
  -28110   -22145   -21133   -24529   -31111   -39295   -46760   -50990 
  -50319   -44660   -35649   -25692   -17122   -12074   -11916   -17098 
  -27730   -43223   -61669   -80227   -95909  -106516  -111198  -109764 
 -102060   -88252   -68768   -44701   -18898     5208    25977    43061 
   55776    63807    67834    68153    65115    60985    58039    56353 
   56401    60612    70558    85552   103942   123982   143995   162043 
  175861   183679   184449   177754   164129   144715   120600    92960 
   63062    31644     -901   -33994   -66993   -98865  -127936  -152686 
 -172328  -186889  -197103  -203664  -206627  -205717  -200621  -191049 
 -177340  -160937  -143681  -127123  -112825  -101977   -94325   -88688 
  -84010   -79382   -74170   -67789   -59289   -48593   -37166   -26453 
  -17086    -9212    -2080     5762    15191    25890    36554    45142 
   49181    46708    37786    25149    12919     4703     2979     9249 
   23886    45972    73698   105459   139314   171058   195570   209510 
  210831   198788   175953   147469   117893    90210    66985    50264 
   40717    38717    45290    60511    81952   105312   126165   141387 
  149569   150932   147537   142466   137505   131868   123043   109125 
   90846    70159    47996    25481     4923   -11451   -22138   -26855 
  -27520   -27682   -30288   -36516   -46608   -59916   -74313   -86916 
  -94483   -93744   -82814   -61770   -32355     2307    38374    71591 
   98185   117061   129996   138981   145599   153173   163898   174729 
  185282   200463   217641   230208   237756   238757   230964   215078 
  189632   154315   112574    67815    23151   -18411   -54767   -84938 
 -109022  -127463  -140281  -147374  -149168  -145975  -137564  -124604 
 -109507   -95013   -82627   -72482   -63760   -55023   -44897   -32950 
  -19748    -6139     7121    19840    32830    46643    60882    75420 
   90152   103980   115389   123042   126018   124193   118004   107703 
   93189    74785    53568    30962     9050    -9572   -23568   -33087 
  -38130   -38882   -37016   -34799   -33427   -32092   -28090   -18754 
   -3375    16838    39472    61325    78637    87308    84216    68996 
   44090    13138   -20344   -52848   -80838  -100975  -109049  -100511 
  -74177   -34521    11621    60433   108538   148335   174554   188032 
  189632   181536   169890   158813   148431   138332   128455   118703 
  109386   101236    94686    89888    86755    83922    78806    69315 
   54673    34966    11257   -14173   -38686   -59942   -76162   -86965 
  -93272   -96289   -97480   -98133   -98118   -95866   -88986   -75828 
  -57291   -35325   -10666    16531    45568    74756   101146   121960 
  136958   148114   157671   167533   176843   182299   184850   187050 
  186222   180902   173346   163231   149515   133196   114932    94622 
   72412    48897    24934     1538   -20593   -41765   -63248   -86218 
 -110481  -134930  -158735  -181599  -203655  -224542  -242544  -255278 
 -260627  -257111  -244061  -221885  -192156  -156851  -117702   -76573 
  -35727     2670    37175    67304    93196   115033   132707   145874 
  154022   156669   153872   145922   133062   116620    99064    82346 
   67254    54183    44106    38425    37816    41877    49635    60095 
   72661    86890   101870   115951   126738   131210   126225   109861 
   83087    49425    11803   -28478   -68666  -104218  -131790  -149369 
 -155359  -149593  -134744  -116244   -99434   -87617   -82826   -85503 
  -94257  -107210  -122554  -138901  -156064  -174562  -194675  -216151 
 -237519  -256243  -270071  -276906  -274462  -261915  -240374  -210836 
 -173617  -129742   -80915   -28487    26540    82909   137420   184208 
  219632   245202   261642   268495   268991   264165   251307   231999 
  209356   184459   159865   138229   120920   108708   100632    94573 
   88962    83373    77389    69453    58055    42445    22379     -359 
  -21711   -37939   -47128   -49410   -46246   -38984   -29592   -21186 
  -16471   -16861   -21939   -29656   -37584   -43540   -46537   -47575 
  -48947   -53168   -61824   -75011   -92184  -112714  -135144  -156405 
 -172493  -180202  -177658  -163894  -139657  -108468   -75378   -44726 
  -18803     2597    20430    34926    46916    57500    65903    69960 
   68327    61255    50177    37785    26896    18550    12546     9382 
   10833    17594    27604    38670    49929    59860    66332    68188 
   65110    58060    49483    41273    34305    29591    27620    27226 
   26015    21227    10633    -5920   -26183   -48077   -71051   -93035 
 -108393  -110401   -94501   -60639   -14410    37034    90542   143142 
  187473   218725   238552   250063   256888   262145   264468   260896 
  250233   231551   206425   180024   155664   133118   111789    91755 
   72792    53525    32594     9877   -14480   -40013   -65792   -91850 
 -118807  -145953  -170904  -191699  -208597  -222428  -233170  -241814 
 -249317  -253837  -253836  -249005  -236975  -215575  -184959  -146432 
 -102947   -58139   -14024    29942    74521   115054   145920   172075 
  200436   228076   253465   278791   301249   318281   328556   328500 
  315753   289889   252852   209700   166016   126040    91874    63520 
   40164    20830     4120   -11381   -25841   -37812   -45316   -46923 
  -42243   -31554   -15090     6459    31032    55578    77569    96076 
  110902   121372   127148   128932   127550   124144   120662   118416 
  117142   115731   113333   110163   107031   104186   101604    99234 
   95604    87946    74547    55704    32492     6221   -20189   -42771 
  -59483   -69639   -71839   -65515   -52144   -33783   -11994    11673 
   34697    53763    65807    68650    61400    44730    21659    -2874 
  -25937   -48548   -71852   -94752  -116186  -135770  -152613  -166246 
 -176589  -182231  -181175  -172873  -158273  -138503  -114483   -87618 
  -59921   -33104    -7815    16029    38391    58503    74894    86516 
   93207    94878    92031    86939    82651    80948    81805    84272 
   86997    88353    87328    83996    79033    73696    69829    68970 
   71197    74546    75992    73271    65668    53700    37807    17379 
   -8040   -37464   -68584   -98692  -126198  -150576  -171062  -186945 
 -198134  -204487  -205378  -200057  -188409  -171242  -149628  -124526 
  -97168   -69190   -42009   -16040     9461    35698    63430    92648 
  122831   152911   181203   206254   227630   245300   259373   270809 
  280815   289427   295558   297845   294948   285687   269219   245310 
  214602   178370   138520    97795    59135    24938    -3006   -23418 
  -35676   -40259   -38938   -34374   -29465   -26752   -28067   -33909 
  -42892   -52549   -60806   -66708   -70361   -72049   -71389   -67942 
  -61748   -52710   -41053   -28194   -15501    -3151     8735    19139 
   27231    33025    36070    35559    31975    26248    18832    11141 
    5411     2969     3790     6791    10048    11481     9985     5760 
    -189    -6164    -9765    -8696    -1501    12653    33664    59982 
   89300   118782   145562   168425   187449   202029   210221   209474 
  198523   178527   150862   115848    75205    32188   -10715   -52266 
  -92508  -132360  -171883  -207945  -234537  -248069  -249831  -241799 
 -224884  -200777  -170828  -135270   -94846   -50452    -3080    45172 
   91727   134233   170719   199538   219567   230864   234318   231759 
  226243   220358   215675   213558   213670   212782   206482   191604 
  167820   137899   106006    75141    47097    23795     6099    -7118 
  -17527   -26312   -33323   -36988   -36430   -32098   -24188   -12768 
    1159    16072    30112    40769    45994    45221    39008    28998 
   17912     8603     3208     2811     7667    17842    32805    50739 
   69316    86236    99149   106430   107807   103873    95342    82434 
   64713    42211    16587    -9676   -34583   -56762   -75438   -90322 
 -100999  -106600  -105954   -97657   -80634   -55725   -26162     4641 
   34314    59763    77215    84772    82636    71523    52698    28365 
     538   -29515   -60411   -90566  -118948  -145186  -168626  -187729 
 -200994  -207093  -204262  -191917  -172041  -147754  -121465   -94604 
  -69036   -47545   -31883   -21882   -16625   -15028   -15953   -18408 
  -21879   -26734   -31990   -33972   -30816   -23338   -11093     5620 
   24790    45406    65904    83969    98404   108719   115088   118358 
  119596   119876   120333   122379   126966   133663   140597   146135 
  150713   154963   158618   162259   165845   167315   164235   154528 
  137452   114961    90641    67312    46592    30049    18430    11144 
    8048     9679    16241    27317    41120    54597    65095    71549 
   74073    72631    67030    57861    46542    35252    26207    20149 
   16507    14397    12627    10078     6397     1460    -5161   -13739 
  -23768   -33314   -38894   -37019   -26191    -7556    15643    39904 
   62851    82021    94383    98058    92462    77115    52189    20220 
  -14435   -49029   -83669  -118311  -151374  -182036  -209867  -231921 
 -244438  -246701  -240640  -228526  -212367  -194042  -174605  -153860 
 -131170  -106114   -78845   -50225   -21187     7697    36157    63685 
   89270   112350   133039   151283   166762   179089   187992   193527 
  195692   194429   190089   182991   173005   159816   143107   123072 
  100504    76024    50742    27309     8763    -2655    -5251     1586 
   15913    33908    52423    69318    82511    90479    92143    86453 
   73217    53429    28656      633   -28265   -55769   -82372  -109485 
 -134650  -154041  -166693  -172412  -171238  -165125  -156303  -146420 
 -137009  -128930  -122553  -117789  -113649  -108991  -103264   -96151 
  -87368   -77345   -67105   -56968   -46525   -35480   -23488   -10251 
    3876    18295    32786    47316    61759    75882    89566   103154 
  117022   130980   145119   160384   177294   195432   214733   235893 
  259121   283277   306574   327495   344223   354048   354809   346169 
  328598   302670   269849   232507   192978   153062   113971    76108 
   38680       71   -40934   -84251  -127925  -167484  -197200  -213278 
 -214939  -202386  -176085  -138486   -93874   -46341     -248    38888 
   66444    81021    85249    83661    79431    75183    74015    77672 
   86322    99112   114731   132371   150197   165335   176978   184975 
  187047   180745   164759   138557   103216    61183    15198   -31967 
  -77453  -118858  -155508  -188077  -216715  -240273  -255944  -260093 
 -250910  -228640  -194609  -151974  -104198   -53197    -1207    48991 
   96050   139476   178077   209706   232115   244438   247885   245456 
  240561   234852   228572   222795   218424   213721   206032   194637 
  179905   162724   145307   129195   113891    98595    82996    66855 
   50072    33040    16329     -257   -17021   -33054   -46781   -56612 
  -61247   -60772   -56932   -52390   -50124   -52756   -61416   -75012 
  -91183  -107563  -122195  -133963  -142464  -147138  -147008  -140589 
 -125845  -101931   -71340   -37654    -1755    35331    69448    98286 
  123188   144476   161549   175010   184501   188099   184752   174420 
  156874   132507   103003    70870    39147    10123   -15905   -39706 
  -61881   -82386  -100302  -114793  -126225  -134718  -138496  -135895 
 -127040  -112440   -93126   -70899   -46864   -21763     4148    30924 
   56196    76881    93127   106310   116796   125367   132858   139338 
  145201   150601   154288   154458   149403   137605   118800    94459 
   66595    37223     8473   -18262   -42594   -64630   -84443  -101165 
 -113862  -123184  -130044  -134141  -135343  -134228  -130460  -123715 
 -115356  -106190   -95953   -85760   -77388   -71715   -68988   -69205 
  -72364   -77892   -84248   -89757   -93140   -93522   -90697   -85388 
  -78827   -71559   -63255   -53956   -44001   -32945   -20031    -5157 
   11338    29246    48165    66682    83098    96191   104495   107476 
  106252   101652    94710    87370    80641    75050    71739    71040 
   72271    75406    81064    89141    98722   108901   119315   130224 
  141574   152496   162323   170440   175548   177205   176698   175119 
  172301   167612   160214   149267   134833   117853    99392    80557 
   62753    47712    36978    30944    28929    30081    33279    36794 
   38978    38807    35923    30575    23286    14980     6588    -2003 
  -11528   -22573   -34592   -45415   -54384   -62771   -69818   -74651 
  -78882   -83123   -86744   -89457   -90072   -87095   -79821   -68350 
  -53217   -35047   -15860     1169    13928    22148    27211    30435 
   31844    32489    34440    37384    39717    41555    43162    43332 
   41120    36701    30793    24338    18466    15357    16975    22797 
   31493    41904    52157    60863    67211    70417    70561    68139 
   64073    60307    57744    55587    53426    50908    46708    40000 
   31445    22093    12616     4106    -2293    -7027   -10519   -11483 
   -9732    -7304    -6097    -7079   -10862   -18349   -30518   -47380 
  -68394   -92485  -117692  -142753  -167207  -189866  -209339  -224606 
 -234474  -237666  -232922  -219557  -198575  -171894  -141198  -108452 
  -75673   -44211   -15619     8001    25420    37205    44538    47632 
   46718    42891    36762    28795    20367    13197     8584     6853 
    8198    13345    21797    31738    41793    50431    55136    53957 
   46513    33471    17076     1503    -9403   -13836   -11545    -3398 
    9297    25476    43980    63424    82496    99862   114134   124695 
  131837   135456   135589   133386   129593   124082   116936   108782 
  101189    96382    95749    99275   106548   116960   128104   135924 
  137031   129964   115712    97148    76978    56531    36050    15945 
   -2609   -18926   -33031   -44068   -50508   -52027   -49365   -42898 
  -33211   -21556    -8142     8180    28192    51396    76531   102658 
  128589   151537   169497   184425   199073   212234   220310   221741 
  219104   215966   211965   205281   196410   186259   175294   163816 
  151435   138149   124796   111465    97414    82609    67140    50176 
   31109    10357   -11487   -34163   -57162   -79275   -98896  -114677 
 -125591  -130398  -128265  -119874  -106939   -91402   -74871   -57772 
  -39825   -21508    -4063    11853    26762    41427    55997    70269 
   83872    96200   107070   117225   127263   136681   144371   149080 
  149968   147290   141163   130664   115785    98332    80012    61895 
   45677    32874    23425    16925    13319    11512     9611     6385 
     744    -8320   -20035   -32264   -42713   -48260   -45648   -34277 
  -16946     3090    24864    48543    72977    95969   115748   131438 
  143949   155840   168307   180322   191129   200378   206624   208366 
  205020   196178   182129   164413   144929   125678   108149    92551 
   78602    66245    55593    46627    38680    30568    21262    10296 
   -2141   -15787   -30347   -44293   -55303   -62522   -67108   -71168 
  -76293   -82283   -88035   -93002   -96872   -98879   -97724   -92877 
  -85433   -76152   -64680   -50848   -34649   -16444     2258    19499 
   33692    43645    48661    48496    43340    34107    22155     9082 
   -3388   -14699   -25053   -33148   -37076   -35651   -27468   -12774 
    5367    24710    44487    63303    80487    96742   112921   130285 
  149619   169969   189678   207058   220178   227680   229606   226631 
  219239   208356   194919   178326   157347   132417   105731    79079 
   52887    27680     4207   -17975   -39486   -59627   -77752   -94513 
 -110275  -123766  -134191  -143321  -152933  -162196  -169713  -175274 
 -178536  -178322  -173353  -163190  -148662  -130812  -110197   -87576 
  -63892   -39738   -15463     8726    32480    54539    73189    87816 
