Origin Time       2011/03/11 14:46:00
Lat.              38.103
Long.             142.860
Depth. (km)       24
Mag.              9.0
Station Code      KNG203
Station Lat.      34.7983
Station Long.     139.6435
Station Height(m) -902
Record Time       2011/03/11 14:47:36
Sampling Freq(Hz) 100Hz
Duration Time(s)  300
Dir.              U-D
Scale Factor      2000(gal)/6182761
Max. Acc. (gal)   18.095
Last Correction   2011/03/11 14:47:21
Memo.             
[...]
   13887    13031    11054     8589     6327     3628      436    -2807 
   -4734    -3202      522     2845     2644       22    -3966    -5962 
   -4824    -3635    -5180    -8929   -11906   -12001   -10550   -10610 
  -12617   -13282   -10315    -5901    -3224    -2745    -3865    -6347 
   -8943   -10628   -12276   -13914   -13472   -10100    -5442    -1460 
     793     1441     2240     4833     8154     9867     9821     9777 
   10397    11236    12781    15389    18111    20601    23781    27054 
   27563    25240    24350    26873    30191    31694    30791    28714 
   28273    31308    36230    39706    40755    41193    42163    42829 
   41606    37930    33706    31003    29753    30299    33202    36364 
   37351    35942    33896    33936    35734    35832    33622    31587 
   30659    29556    27412    25655    25841    26653    26090    23999 
   21119    18571    17197    16836    17149    17418    16632    15012 
   13751    13568    14200    14750    14511    13796    13705    14220 
   13860    12241    10436     8817     7492     7864    10903    14859 
   17156    18032    19437    21061    21869    23146    25379    26666 
   26209    24939    24266    25956    29492    31177    29522    27456 
   27385    28405    28415    27209    26783    27473    27241    26125 
   26307    27643    27921    26816    25615    24697    24318    25143 
   26535    26400    23384    19111    16823    17232    18262    18139 
   16457    13504     9492     5118     2580     2894     4255     5312 
    5293     3086      109    -1089     -256     1669     3900     6234 
    9069    11926    13167    12162    10781    11166    12505    12512 
   11555    12189    14554    15933    15797    16553    18464    19438 
   19359    19848    21482    23793    25942    26654    25471    24031 
   24406    26532    28480    28944    28397    27642    26676    25627 
   25548    27231    29546    30780    31559    33631    36175    37036 
   37009    38069    38753    36896    33746    31310    29904    29219 
   28558    27452    26742    27005    27262    26756    26172    26319 
   26938    27502    27720    26654    24521    24499    28317    32965 
   35241    35644    35636    35223    35392    38028    41932    43645 
   42066    39523    38505    38289    36948    35531    36354    38983 
   41151    42188    43333    44817    45299    44249    41855    38731 
   37218    38436    40102    40907    41626    41412    39186    37031 
   37365    39135    40479    41764    43003    42756    41829    43442 
   47871    51309    52037    52684    53913    52499    48366    46197 
   48603    53550    57779    59567    59572    59405    59910    61835 
   65352    68907    70911    70898    69520    68349    67536    66049 
   65126    66400    68254    68683    68179    67762    67745    68441 
   69580    69358    66489    62877    61059    60514    59397    57399 
   55866    56445    58783    60480    60249    58958    57982    58366 
   60231    62459    63530    62239    58823    55232    52503    49656 
   46345    44639    46681    50835    52680    50651    46989    43176 
   39543    37242    36016    34097    31643    30359    30844    31422 
   29228    24107    19552    17484    16297    15006    13971    12430 
    9560     6305     4300     3922     3602     1764     -687    -1951 
   -2465    -4083    -7251   -10383   -11923   -12132   -12070   -12620 
  -14440   -16873   -18753   -20170   -21121   -20882   -19757   -19118 
  -19490   -19886   -19800   -19852   -19993   -20336   -21937   -24219 
  -25317   -24987   -24041   -22964   -22136   -21721   -21703   -21855 
  -21706   -21237   -20717   -20736   -22427   -25055   -25097   -21218 
  -17473   -17153   -17924   -17675   -17782   -18296   -18033   -17651 
  -17581   -17102   -16382   -16176   -16806   -17520   -16267   -12572 
   -8917    -7280    -7265    -7686    -7816    -7716    -7933    -8842 
  -10197   -11005   -10608    -9815    -9401    -8948    -8508    -8284 
   -6987    -4049    -1116      588     1372     1472     1152     1427 
    2306     2541     2079     1338      427     1322     5218     8705 
    8358     5069     1403     -604      -83     1941     3952     4829 
    3998     2933     3859     6913    10814    14116    15912    17178 
   19418    22321    25001    27349    29174    30105    30534    31896 
   34643    37326    39713    42738    45102    44983    43512    43175 
   44294    45060    44772    45232    47800    51033    53054    53918 
   54402    54838    55697    57713    60589    62777    63934    65171 
   66140    66010    65784    65880    65299    64415    64353    65270 
   66615    66687    64044    59766    56257    55447    57302    59554 
   61049    62698    64240    64291    63008    61403    59878    58544 
   56314    51777    46989    45643    47267    47965    46715    46856 
   49474    50542    48383    47498    50854    54248    52928    49051 
   47148    46835    45611    44883    47017    49463    48399    44913 
   42640    42529    42372    40864    40642    44292    48847    49469 
   46697    44569    44624    45835    46676    46243    45232    43552 
   39878    36421    36806    39640    41660    42442    42445    41946 
   41241    40586    41503    44739    47319    46284    43084    41245 
   41705    42084    41094    40868    41705    40933    39858    42076 
   45256    44800    42380    42722    45979    48863    49788    49191 
   47984    47671    48918    50078    49536    48054    47589    48996 
   51410    53552    54551    53877    52056    49932    47343    44971 
   44067    43462    42162    42124    43998    44860    42506    38335 
   34279    29464    23523    20111    21299    23411    23155    21137 
   18646    16922    16611    16410    16554    19404    23498    25097 
   24699    24374    24262    25030    27446    30576    33145    34115 
   33430    33586    36137    38492    39081    39319    38911    37817 
   38434    40378    40881    40159    39668    38468    36320    35958 
   37513    37188    34616    32557    30954    29493    30074    32588 
   33965    32201    28957    27181    26788    25596    22895    19273 
   16123    15531    16618    14616     7957     1576     -344     1129 
    3357     4574     4135     2813      808    -2410    -5131    -4902 
   -3006    -3491    -7101    -9412    -8240    -7614    -9464   -10715 
  -10989   -11704   -11012    -8347    -6550    -7144    -9395   -11586 
  -12334   -12688   -13460   -12806   -11026   -10974   -12229   -12204 
  -10805    -9716    -9444    -8773    -6776    -4541    -4013    -5228 
   -6696    -7917    -8424    -7333    -5595    -4587    -4300    -4884 
   -6527    -8938   -11814   -14297   -15967   -17308   -17949   -17670 
  -17173   -16114   -14456   -14416   -17254   -21037   -23665   -24796 
  -24403   -22887   -21055   -18163   -14183   -11885   -11939   -12171 
  -12384   -12932   -13051   -12737   -10544    -4565     1990     4723 
    4697     4466     3920     3315     4111     5692     5643     4029 
    4324     8531    13531    15966    17692    20365    21444    20811 
   21302    22492    22803    22100    19274    15118    13378    14204 
   14613    14317    14643    15738    17176    19326    23113    27176 
   28156    26043    24360    24471    25505    27321    28752    28284 
   27608    29046    31531    32695    33254    35620    38728    39453 
   37650    35820    36144    38536    40794    41631    41903    42245 
   42319    42035    41225    39877    39098    39388    39659    39791 
   40834    41827    41192    40473    40902    40224    37423    34727 
   33993    34634    33803    29867    25663    24187    24242    24684 
   26877    29667    29601    27282    26164    26788    27490    27694 
   27624    27266    26747    26139    25184    24396    24794    26057 
   27257    28418    29162    28457    26977    26419    26649    26545 
   26572    27796    29055    27836    24487    22403    22601    22719 
   22505    24075    26810    28141    27908    27537    27259    27069 
   27930    29263    28532    26446    27289    31428    34539    34644 
   33292    32018    31416    31453    31614    30693    28107    25946 
   26016    26332    24709    23214    24647    26781    25929    23423 
   22406    22503    21920    21283    22927    26760    29506    29323 
   27501    25315    22771    20464    20400    23749    28913    32750 
   33663    33586    34592    35093    33907    33017    33098    33461 
   35361    38375    39018    37860    39139    42318    44006    44733 
   46031    47090    47981    49871    51995    52521    50756    47470 
   44265    41925    40175    39483    40634    42309    42121    40531 
   39794    40043    39927    38298    35533    33872    33486    32361 
   30696    29771    29491    29619    30027    30246    30132    30047 
   30835    32267    31379    27182    23615    22835    23180    23758 
   24338    24844    25155    24297    23818    26510    30324    31563 
   31043    31043    30840    28820    25718    23677    23877    26567 
   30780    33158    31658    28715    26569    24602    22440    20268 
   17950    16022    14822    14138    14672    16590    17771    15659 
    9968     3770      696      675     1418     2603     5082     7771 
    8280     6542     5316     6145     7627     8251     7993     6943 
    5144     3419     2227     1322      879     1021     1505     2381 
    3906     6045     7628     6613     2723    -1184    -1892      718 
    3905     5563     6297     7074     7741     8843    10874    12699 
   13481    13775    13876    13831    15179    18546    21314    22158 
   22219    21559    20946    22047    23919    25129    25993    26652 
   27474    29341    31333    31614    30755    31193    32855    33327 
   33547    36528    40661    41777    39203    35034    31669    31258 
   34045    37849    39917    39103    37499    37751    38509    37487 
   36624    38299    40781    41763    41762    41671    41211    41410 
   44197    48127    49407    47886    47050    47952    47524    43944 
   40282    40172    42754    45483    48354    50795    49632    44862 
   41076    40962    43078    45088    45431    43689    41730    42525 
   45404    46105    43003    38423    35659    36565    38729    38546 
   36443    34169    32166    30584    28797    26725    25892    26929 
   28620    28608    25844    22978    21812    20327    17468    14520 
   13124    14496    17188    18081    16819    15362    14255    12540 
   10334     8451     7124     8093    12437    15294    11707     4998 
     997     -315    -1702    -3182    -3332    -2085     -667     -501 
   -1578    -2383    -2405    -2273    -1955    -1471    -1442    -1386 
     305     3815     7403     9631    10524    11651    14375    16448 
   15244    13716    15199    17963    20555    22972    24100    24802 
   26433    27824    28908    30380    30856    29548    27775    27450 
   29682    33131    35686    37535    39205    40314    42052    44943 
   45806    42901    39535    38800    40317    42555    43559    41575 
   37547    34318    33011    32322    31013    29867    29991    29990 
   28587    27481    27365    26139    22667    18072    14577    13835 
   15450    17857    19561    19661    18560    17769    18444    19903 
   20393    19414    17579    15382    13199    10144     4936      269 
     521     4186     6249     6826     9090    11561    10999     8675 
    7354     6865     5915     5350     7082     9994    11248    10661 
    9774     9934    11873    15224    19178    22236    22481    19803 
   16441    15272    16788    18432    18236    16531    15116    16616 
   21150    25371    27445    27871    27082    26847    29095    32747 
   35249    35344    34080    32728    31442    32244    36101    39033 
   39055    38549    38187    37639    37921    38779    39327    39955 
   39826    37269    33414    31192    31862    33235    32305    30513 
   30628    30635    28836    27617    27499    26885    25837    24041 
   21566    21138    22557    20971    15631    12025    12354    12147 
    8861     6021     6532     8558     9610     9522     8642     8092 
   10076    13490    15282    16493    18535    19215    18336    18121 
   17900    16246    14814    15642    17861    19274    19707    20356 
   21275    22644    25622    29383    31942    34031    36360    36452 
   33354    30062    28911    29447    30929    33502    36429    37693 
   36962    36530    37822    40256    43170    44890    43882    42404 
   42505    42154    40618    40239    41128    41200    40764    41943 
   45115    48636    50508    50037    48388    47047    46797    48070 
   50418    51774    50690    49271    50041    51552    51726    51569 
   52298    53626    55511    57835    59756    60819    60967    60596 
   60927    62007    62294    61924    62534    63202    61870    60195 
   61035    63283    63933    62443    60254    58376    57147    56485 
   55658    54340    52592    49558    45847    44280    44544    43484 
   41211    39365    36934    33954    32815    32935    31860    30281 
   29495    27856    23753    18978    16192    14898    13420    12228 
   11858    11804    12200    12147     9943     6615     3812     1154 
   -1085    -2192    -3597    -6146    -8087    -8604    -8884    -9614 
  -10572   -11593   -12702   -13413   -13270   -13392   -15368   -18360 
  -19482   -18732   -19486   -21596   -21953   -21780   -24238   -28121 
  -30193   -30077   -30006   -31252   -32169   -30738   -27408   -23703 
  -21057   -21147   -23601   -25547   -26024   -26351   -25762   -23312 
  -21780   -22958   -24105   -23306   -22232   -21425   -19040   -15818 
  -14420   -13984   -12146    -9583    -8029    -7157    -5591    -3651 
   -3084    -3605    -2732      -30     2346     3873     5833     7830 
    8387     7480     6567     7093     8769    10027    10555    12003 
   15426    19081    20755    20087    17840    15988    15977    16587 
   16641    16644    17636    20382    23263    23296    21281    21696 
   26339    31056    31600    29854    29387    30087    30733    30987 
   30546    29210    27428    26970    29484    33085    33833    31371 
   28958    28484    28922    28689    28575    31015    35508    39249 
   41586    42820    42227    40119    38328    37720    37780    38529 
   39804    40502    40704    41283    42027    42937    44757    46769 
   47152    46083    44994    43584    42016    43153    46957    48655 
   47215    46421    46835    46662    46964    48512    49208    48850 
   50110    53510    56557    57070    55682    54995    55480    55292 
   54386    54174    54267    53685    53560    55007    56556    56664 
   56247    57173    59336    60586    60627    61078    61051    58731 
   55566    54430    55735    56620    54734    52328    52375    52833 
   50946    48336    46707    45137    43115    40929    38743    37065 
   36290    36240    35931    34242    32182    31820    33062    34481 
   35015    33187    28468    24005    23214    24634    24766    22737 
   19854    18446    19894    22092    22349    21320    20398    18755 
   16443    15711    16470    16189    14703    13999    14491    14378 
   12515     9887     7249     4505     2578     2110     1634      119 
    -872     -140      748      278     -895    -1770    -2045    -1986 
   -3121    -6430    -9501    -9570    -7631    -6564    -7908   -10526 
  -11630   -10744   -10454   -12035   -14061   -15237   -15223   -14520 
  -14892   -16843   -18398   -18317   -17369   -16582   -16600   -17539 
  -18416   -18473   -18634   -19833   -21796   -23941   -25720   -26500 
  -26127   -25790   -26383   -26468   -24881   -22988   -22537   -23552 
  -24632   -24582   -23387   -21866   -21206   -21774   -22567   -22961 
  -22819   -21753   -20279   -18615   -16441   -15522   -16970   -18542 
  -18072   -15461   -11984    -8917    -6602    -5403    -4955    -3545 
    -839     1101      514    -1553    -2241     -284     3058     6105 
    8290     9750    10625    11300    12154    12831    12865    12764 
   13886    16680    19449    20767    22015    24710    27614    28796 
   28181    27819    29803    33319    36252    37827    37761    37451 
   39512    42753    43763    42952    43250    45514    48157    49110 
   47792    45909    45384    46125    46778    46512    46003    46223 
   46422    46137    46965    49275    51543    53687    56361    58521 
   59156    59024    59042    59118    59023    58909    59019    59747 
   61240    62901    64320    65499    65859    64985    63793    63269 
   63035    62575    62306    61952    60840    60055    60176    59872 
   59583    60795    62255    62130    60962    60043    59423    58296 
   56842    56346    56642    56507    56473    57490    58761    58820 
   57110    54980    54392    54931    54531    52905    51756    51808 
   52094    52199    51850    49598    45414    41462    39189    39017 
   40380    40734    38749    36331    34417    31973    29636    28681 
   28425    27938    27149    25796    23650    21271    19734    19241 
   18248    16054    14640    14725    14192    12653    11631    10758 
    8963     7169     6453     5735     4046     2492     1492       23 
   -1471    -1576     -475      488      600       -9    -1318    -3285 
   -5109    -6272    -6936    -6799    -6337    -7237    -9251   -10282 
   -9775    -9033    -9729   -12348   -14612   -13948   -11496   -10096 
  -10351   -11391   -12450   -12327   -10235    -7700    -6956    -7542 
   -7461    -6738    -6647    -7260    -7824    -8112    -8549    -9134 
   -9099    -8124    -6762    -5465    -4353    -3639    -3397    -3469 
   -3332    -2020      796     4377     7230     7903     6669     5188 
    4947     6787     9918    12325    13036    12683    12663    13659 
   14900    15992    17671    20521    24389    28002    30114    31202 
   32074    32725    33161    33099    32528    32919    34990    37144 
   38150    38399    38462    38703    38932    38360    36829    34878 
   33050    31841    31425    31473    31530    31426    31180    30886 
   30927    31611    32717    33625    33661    32847    31709    30571 
   29994    30076    29807    28870    27803    26637    25627    25400 
   25798    25801    24044    20421    17324    17291    20035    22907 
   23728    22756    21617    21096    20792    19890    18135    16723 
   16788    17036    15830    14342    13953    13573    12552    12494 
   14371    16381    16687    16220    16165    16099    16191    17128 
   18077    18080    18287    19862    21276    20887    19954    20100 
   20560    20203    19855    20750    22265    23171    23608    23687 
   22803    21794    22220    23721    24867    25261    25615    26485 
   27089    26237    24553    23731    24304    26208    29290    32305 
   33941    34287    34119    34006    33962    33910    34376    35686 
   37476    39277    40617    41467    42099    41978    40796    39601 
   39136    38908    38600    38800    39756    40409    40072    39797 
   40269    40522    40066    39518    39055    38571    38129    37709 
   38069    40033    42413    43574    43609    43362    43355    43310 
   42452    41059    40219    40087    39913    39473    39189    38806 
   37857    37272    37935    38729    38267    36658    34732    33238 
