Origin Time       2011/03/11 14:46:00
Lat.              38.103
Long.             142.860
Depth. (km)       24
Mag.              9.0
Station Code      KNG203
Station Lat.      34.7983
Station Long.     139.6435
Station Height(m) -902
Record Time       2011/03/11 14:47:36
Sampling Freq(Hz) 100Hz
Duration Time(s)  300
Dir.              N-S
Scale Factor      2000(gal)/6182761
Max. Acc. (gal)   62.272
Last Correction   2011/03/11 14:47:21
Memo.             
[...]
   62091    55422    50186    46668    44417    42427    39947    39375 
   45703    60432    78176    90566    91905    80493    57871    30288 
    8281      404     7306    22581    37773    46884    48800    45573 
   38049    25625    10911     1235     2159    11127    20972    26764 
   27540    26659    29879    38188    45294    44871    37283    28892 
   26768    32958    43146    51308    55352    58508    64895    73671 
   79383    77980    70488    61242    54587    53265    57695    65633 
   73508    78892    81070    79513    73479    62661    47057    27548 
    6521   -14633   -37051   -60219   -79529   -90880   -94741   -94416 
  -91505   -83102   -63482   -29483    15168    61599   101037   127572 
  139278   139202   133298   126305   119958   113673   105880    95765 
   84438    74345    67170    61730    54742    44649    33452    24172 
   18536    17737    22979    33569    45598    53832    55555    52536 
   48977    48383    51410    55043    55494    52358    48413    46040 
   44961    42967    37573    26811    10560    -7489   -20677   -23685 
  -15323     2424    25024    45871    60019    66849    67506    62199 
   50527    32319     9240   -13850   -31670   -42541   -48633   -53397 
  -58456   -61790   -59330   -48872   -33027   -18624   -12300   -15900 
  -25373   -33027   -31683   -19119      404    19169    30828    33434 
   29586    24887    24811    29901    34893    34106    25667    11391 
   -4185   -15272   -17658   -10890     2416    19059    35741    47613 
   50038    43246    32773    24632    20766    18789    15816    11287 
    6521     4022     4870     5469      710   -10497   -24337   -34315 
  -36243   -32225   -27379   -23817   -18733    -7487    10529    29837 
   43527    48056    43918    34460    23293    11096    -3160   -17702 
  -28177   -32164   -30988   -28381   -29185   -37298   -51899   -66759 
  -75749   -77405   -73383   -65633   -55674   -45274   -37183   -33189 
  -31104   -26119   -15194      290    14673    21687    19857    13969 
   11175    14951    21851    24766    19145     6038    -8886   -18845 
  -20396   -15271    -7557      239     7997    16270    24722    31854 
   35772    34891    28719    18932     8248    -1806    -9527   -11514 
   -5569     6634    19910    27524    25466    15629     3290    -7379 
  -15253   -21682   -27628   -31455   -30960   -26659   -21342   -17321 
  -15783   -17431   -22002   -28411   -35126   -38875   -35298   -23016 
   -5314    12927    28515    40832    50716    58105    61321    59424 
   54637    51167    51546    55828    63467    73086    82102    88513 
   90710    85640    70296    45126    14940   -13073   -33057   -43511 
  -46299   -43861   -38296   -30168   -17108     3412    28706    51184 
   65536    72045    73578    73787    75479    78586    81939    85545 
   89859    94621    98955   102481   106123   111003   116911   123024 
  128894   132660   129641   114805    87066    52089    21200     5936 
   11859    35356    64563    85796    92449    87921    80781    78179 
   82339    91727   104508   119579   134810   146618   152221   151443 
  145389   133879   116047    93972    73314    58490    49057    42839 
   39767    40024    42300    46220    53267    63605    73297    76190 
   68740    53196    37372    29708    32296    40414    48854    55654 
   60381    62270    60691    55932    49578    43716    38765    33426 
   26855    19373    12067     5988      620    -5861   -13997   -21096 
  -21979   -12537     6260    27273    41146    43347    37138    29958 
   28938    37428    52132    64863    68737    62533    50154    37703 
   30795    31385    35134    34301    25703    13480     3216    -2345 
   -2217     3889    15243    28852    39202    41938    38500    34970 
   34635    33704    26621    12940    -2810   -15469   -23131   -28471 
  -35949   -46963   -57495   -60342   -49880   -26188     3468    28741 
   44645    54592    64213    75047    84129    86386    77036    54397 
   22952    -7836   -31112   -47418   -60381   -71215   -78328   -79430 
  -73043   -58574   -36673   -10792    13801    34046    50023    61617 
   67266    65921    58099    45747    31754    18656     7287    -3251 
  -13896   -24338   -34019   -43372   -53175   -62889   -70010   -71125 
  -63270   -45671   -22636    -3375     5275     5589     4965     8880 
   20778    41597    67599    93054   112492   120917   116656   102276 
   81536    58121    37002    24267    24092    35603    51419    59979 
   54332    38385    20976     8083     2216     3216     8525    14352 
   17175    16092    13881    14949    21798    32519    41076    41009 
   31816    20662    15260    18245    28035    40685    52646    62922 
   70891    73499    66060    46382    18884    -6665   -21748   -23992 
  -16528    -5521     2237     2808    -3426   -14111   -26237   -35140 
  -35642   -24940    -4126    21399    44348    60594    69936    72450 
   67762    57016    42375    25163     6771    -9659   -20577   -24206 
  -20996   -13317    -5259    -1711    -4845   -11534   -16999   -19873 
  -22048   -25374   -29539   -32384   -31818   -27935   -23283   -19751 
  -15788    -7733     7189    28775    53466    75840    90186    92073 
   80710    59555    34646    12830    -1257    -7896   -10306   -12275 
  -19008   -34264   -54965   -73733   -85930   -91027   -90256   -85885 
  -80984   -77117   -71811   -60543   -42247   -20715     -137    18057 
   34479    50445    65706    76272    76345    62840    38237    10554 
  -10375   -18918   -16203    -7524      971     5274     6311     9017 
   18408    36089    58495    79492    95359   105452   110041   110303 
  108201   104871    99828    90762    74834    52506    28522     8634 
   -2172     -589    13028    34352    56140    70999    75706    72589 
   66836    62226    58366    52436    43732    35192    29612    25353 
   17624     3518   -15835   -36974   -56311   -70917   -78133   -75522 
  -61665   -37706    -8936    16699    33575    41908    46109    50362 
   55426    58286    55123    44302    26924     7391    -7453   -12252 
   -6112     7505    23130    36661    47340    56384    64174    69481 
   71125    69750    67433    66229    68149    75033    86639    99624 
  109694   114770   115476   112673   105832    94354    79151    62378 
   46328    32336    19763     6315    -9396   -25201   -35854   -36277 
  -25071    -6888     8820    14051     7574    -6417   -22184   -34577 
  -40897   -40964   -33779   -17202     6566    28761    40093    38214 
   28384    16613     4596    -7288   -16838   -22231   -23407   -20739 
  -15203    -8579    -1894     4312     8128     6869     -235    -9718 
  -14222    -7300    11395    35879    57806    71455    75265    69261 
   55144    38626    27433    26816    36839    53538    72698    89335 
   96234    89781    74472    58196    46210    39913    38531    39982 
   40545    36911    29150    20211    13138     8164     1967    -8009 
  -18876   -23561   -15773     4632    29060    45673    48415    39833 
   28234    22360    24544    29107    28798    20139     4174   -14090 
  -28929   -37177   -37151   -27233    -7474    17693    39493    50097 
   48211    37544    22444     8238      714     1529     7061    11532 
   10441     3671    -4311    -8356    -6494     -550     6073    11346 
   14850    16063    14935    12490     9084     4322    -1494    -7535 
  -12698   -15527   -15180   -11909    -7212    -3272      -28     5567 
   15728    28909    40853    49027    55788    63800    70432    71338 
   66259    59144    54218    49939    39435    20929     2369    -6463 
    -896    18445    45387    68921    80754    81977    79273    77849 
   79950    86023    94983   104706   112250   114304   109314    97628 
   80344    60756    43803    32429    26568    24075    22209    20761 
   22071    26683    32238    37036    42303    50662    62239    71845 
   71367    56959    33835    12546     1001       59     4132     5889 
    2579    -1790      186    14067    39689    70842    98726   116611 
  122714   119411   109333    92815    70194    45492    25844    16679 
   18171    26182    33794    32621    19506     2218    -8191    -8622 
   -4264    -3033    -9363   -19692   -26663   -27776   -27402   -30855 
  -37792   -43126   -43600   -40406   -36157   -31384   -23702   -10232 
    8420    27630    42928    52948    59180    64799    71723    78213 
   80721    77014    67421    54561    41942    32293    26191    21646 
   15533     5563    -8401   -23633   -36702   -47405   -57731   -66990 
  -71172   -66136   -50875   -29817   -10565     1008     2605    -3787 
  -12445   -18799   -23258   -28749   -36754   -47304   -60435   -75472 
  -89738   -99071  -100248   -93034   -79009   -59490   -36416   -13320 
    6613    21844    30987    32880    29975    28378    32789    43540 
   57528    69696    75290    72858    65037    56753    52417    53152 
   56565    59522    60754    61227    62344    63865    63572    59012 
   50149    40546    35479    38920    51843    70380    84839    86391 
   76772    66027    61655    64631    72208    81412    91382   101555 
  109554   113614   114525   114260   113917   113079   111217   108673 
  105507   100226    90197    73093    48340    18825    -8660   -27538 
  -36557   -38759   -37158   -33456   -28479   -22665   -17332   -14010 
  -11293    -4448    10437    31810    52252    64054    65150    59117 
   51045    43480    34877    21746     2219   -22129   -47074   -68097 
  -82309   -88947   -88515   -81835   -70831   -59307   -50432   -44295 
  -39774   -36190   -32151   -25896   -16949    -6669     2106     6546 
    5150    -2068   -12703   -21285   -21842   -11961     6579    30116 
   55384    81360   107593   130473   144628   145691   130433    99711 
   62161    31313    16085    14111    16362    14850     4808   -14339 
  -38865   -62844   -79859   -85256   -77893   -59234   -32544    -4172 
   16465    22812    16695     4158   -10275   -22797   -30891   -35757 
  -39590   -42483   -42941   -38939   -29758   -17152    -4056     5881 
    9226     6002      589      -62    11027    36342    70599   103513 
  126706   138280   141602   140923   138341   133918   126860   116458 
  103698    90941    79850    72526    72002    77656    84492    88976 
   90106    85970    75256    60691    48070    42040    43001    48567 
   56104    63328    69543    75503    80670    82689    79121    68466 
   51705    34093    22728    20745    25980    34223    40079    37542 
   24481     6045    -8417   -12170    -4245    12446    33748    56057 
   76810    93796   105571   112389   114763   111754   102454    88035 
   70569    50743    28513     4377   -21779   -50249   -77972   -97133 
  -99114   -81065   -48795   -13793    11238    17416     6601    -8891 
  -18158   -18368    -9244     8943    31470    50571    60565    59363 
   47688    30129    14077     3875    -1806    -6585   -12970   -20436 
  -25422   -24561   -17523    -6699     4254    11561    12753     8908 
    5700     9436    21130    37110    53563    67009    74668    77712 
   80491    85449    90281    88801    75638    53662    34651    28639 
   35016    44527    45803    32292     6666   -23154   -50470   -69867 
  -75996   -66339   -44695   -21942    -9926   -12283   -23871   -34871 
  -33447   -14216    15053    40805    54025    52558    38891    18026 
   -3043   -17480   -23038   -21863   -15759    -4421    13450    38612 
   68567    97234   118484   128894   128435   118887   100762    74148 
   42910    14916    -2723    -7610    -1814     9879    20515    23628 
   18394    10646     8098    15142    31176    51549    69040    77594 
   77690    75954    77275    79434    76162    62572    38547    10918 
   -9484   -16831   -14850   -13062   -21381   -44144   -75781  -103580 
 -114749  -102926   -70667   -26474    19830    61764    97511   124169 
  135278   127509   103257    66960    26340    -8077   -32256   -52170 
  -74796   -99381  -118409  -125549  -120936  -108419   -90882   -69206 
  -42559   -10252    23963    51906    66713    65493    49716    27933 
   12824    12305    24824    40416    47538    42761    32411    24836 
   23519    27072    34808    49192    69205    87072    96706    98651 
   95251    88115    78545    66118    50113    31972    13762    -3482 
  -19179   -32041   -39285   -37499   -24897    -3512    19308    32872 
   31426    20548    10524     6111     6426     8192     7590     4077 
    -251    -5278   -12027   -19447   -24810   -25030   -17169       30 
   24205    50527    75741    99797   123436   146275   166544   180813 
  185879   181054   166978   144105   113192    76236    37404     2866 
  -21061   -30312   -25110   -10919     3085     8740     3621    -9245 
  -25270   -39348   -45326   -38845   -20618     2627    20530    26527 
   23129    17477    14084    13481    14856    18108    24117    33251 
   43553    51732    56372    58740    60575    62253    63725    66061 
   68802    67640    58833    42882    23495     6849    -1164      671 
    9122    19349    27022    29471    24699    11185    -8415   -24171 
  -23921    -4128    27561    59835    83037    92289    89921    80875 
   67045    48926    29603    13762     2908    -4712    -8711    -5448 
    8020    31306    59916    86898   107179   119439   124109   122073 
  114038    98995    75538    45998    17962     1281     2472    20453 
   46845    70897    85937    92462    95969   101035   107770   115963 
  128784   148623   172544   193849   207887   215015   216253   210460 
  197317   177285   150227   117539    81778    45491    13764    -7293 
  -16678   -17978   -13667    -4621     7412    20259    31732    40352 
   47529    55453    63383    68859    69888    65857    58170    48630 
   38747    31621    31134    38995    54029    72500    88318    95168 
   90134    75896    59089    45477    36502    28969    18194     4272 
   -7315   -13157   -15784   -20027   -27687   -35077   -36310   -28149 
  -11283     9609    27907    40352    48857    56983    66063    73589 
   75099    68859    58320    48618    40713    30027    11637   -13454 
  -38593   -56753   -62862   -54907   -36939   -16143     4740    26545 
   47821    65356    76162    77318    68346    51830    30742     9191 
   -6356   -11508    -8237     -571    11054    24400    30920    26825 
   19495    15324    12665     8531     2394    -4573    -9675   -10414 
   -6963    -3544    -7287   -22376   -44702   -65778   -80294   -85439 
  -77056   -52065   -12571    33427    73824    98460   105937   100944 
   86372    63090    33949     3679   -23035   -43854   -61269   -80578 
 -103435  -124641  -136235  -133573  -117241   -90858   -57803   -21006 
   14790    44372    64597    72671    65404    43360    14055   -11743 
  -27943   -35312   -36618   -34052   -29152   -21310    -9381     4150 
   12854    10806    -2110   -20285   -37847   -51603   -60306   -64300 
  -64851   -61775   -50937   -26029    13032    55082    86005    99641 
   97116    81625    59631    41555    34849    38062    43748    45596 
   41976    34919    28364    25880    26899    26448    20993    12861 
    7814    11765    27976    51142    68883    73632    65879    47996 
   23666    -2280   -27696   -52140   -74224   -91007   -97477   -89257 
  -65586   -27674    21467    73998   118533   144900   146363   123216 
   88286    59895    44686    35719    24165     3772   -25796   -54120 
  -68436   -65035   -48445   -27254   -11646    -7527   -12208   -18172 
  -17450    -2634    28300    67441   103738   133420   158495   178959 
  191935   194673   185636   163922   128839    83377    36546    -2724 
  -30849   -46888   -50752   -45657   -37499   -29876   -21534    -9911 
    4824    21685    41228    62504    81869    96199   103650   102771 
   92524    70914    36421    -4733   -37914   -53096   -53401   -48691 
  -48877   -59636   -76281   -86058   -79465   -59819   -40131   -27915 
  -20661   -13981    -3626    12724    30792    43531    47783    44634 
   35271    18295    -7364   -38556   -68521   -90234   -98770   -91301 
  -67466   -30325    14663    60114    97995   123696   135950   134525 
  122221   105490    90735    80903    74194    65741    51921    33775 
   15908     1590    -9791   -20153   -29895   -37855   -42122   -40833 
  -35169   -32971   -44010   -68834   -97476  -118884  -127081  -122657 
 -112493  -104446  -101724  -103541  -107499  -109541  -105312   -93308 
  -75099   -53395   -31454   -12874      938    13720    31117    53765 
   76361    90911    89767    70606    40961    15744     6023    10528 
   20917    29465    30849    25368    18509    14583    15318    19907 
   23265    19320     4703   -21029   -52834   -78879   -88671   -82292 
  -67194   -50355   -37248   -30331   -25294   -14465     6293    35870 
   69118    97662   112898   111346    96651    76503    59701    52649 
   54731    60378    64402    63180    56230    45643    30821    10041 
  -13522   -34438   -49404   -55041   -47364   -26290     2409    30338 
   50348    59775    61048    56724    47308    35705    27509    25615 
   27951    30314    30079    26748    20675    12959     4785    -3416 
  -10512   -13815   -11232    -3157     8353    21146    33062    42511 
   50944    61011    69569    68205    53004    29029     6790    -3537 
    1365    16875    35420    48951    49988    36472    14921    -4746 
  -16530   -18543   -10522     4155    17662    22460    16286     4395 
   -2606     3966    23217    42688    46953    30546     -511   -35025 
  -58597   -59643   -39236    -9105    16898    28351    22346     1434 
  -30711   -66921   -96863  -114624  -120546  -115419   -98407   -70634 
  -36455      221    38287    76303   109015   130000   137646   135432 
  126402   111761    93941    76110    60196    48002    41716    41090 
   40708    32911    15186    -7481   -27277   -37557   -34580   -20468 
   -3142    11525    25658    43487    64073    82729    93223    89669 
   72547    49860    30925    21872    24652    38636    62631    92028 
  117282   130447   129305   115349    94427    75618    63581    53817 
   36033     3976   -36733   -73126   -94350   -96562   -85324   -72338 
  -66443   -67389   -66439   -53440   -22560    26698    85619   138336 
  174795   193423   195188   186421   177611   172576   166516   153310 
  131330   105982    85868    74434    67664    59343    46043    28522 
   11047     -915    -4272     -132     8887    22144    39948    60906 
   81558    96805   101367    92985    75272    57325    46202    39521 
   31930    25160    25210    36141    57722    81716    95706    95202 
   83265    62100    35575    11766    -3246    -9182   -10563   -12607 
  -15925   -16381    -8632    10965    40079    67314    78027    65495 
   34311    -4256   -36202   -50309   -45196   -27047    -2194    23779 
   47279    70333    95574   119246   132969   129311   106528    70769 
   33480     4881   -11842   -20004   -25304   -33312   -46469   -60134 
  -62859   -44392    -4703    46997    98773   139235   160863   162190 
  145873   117235    82370    46077    12829   -12730   -26952   -29168 
  -23538   -17343   -16905   -23599   -32212   -36181   -34405   -30197 
  -25395   -17602    -2704    20199    46438    67847    77098    71468 
   54041    33225    19822    19634    29443    42386    52873    56597 
