Origin Time       2011/03/11 14:46:00
Lat.              38.103
Long.             142.860
Depth. (km)       24
Mag.              9.0
Station Code      KOC003
Station Lat.      33.5014
Station Long.     133.9071
Station Height(m) 5
Record Time       2011/03/11 14:51:55
Sampling Freq(Hz) 100Hz
Duration Time(s)  63
Dir.              E-W
Scale Factor      3920(gal)/6182761
Max. Acc. (gal)   1.674
Last Correction   2011/03/11 14:51:40
Memo.             
[...]
  -67164   -67106   -67047   -66987   -66915   -66845   -66798   -66773 
  -66738   -66668   -66590   -66529   -66483   -66440   -66391   -66341 
  -66314   -66305   -66280   -66231   -66177   -66154   -66170   -66190 
  -66184   -66159   -66140   -66140   -66157   -66179   -66198   -66219 
  -66235   -66254   -66285   -66304   -66321   -66361   -66400   -66426 
  -66460   -66510   -66574   -66616   -66605   -66582   -66611   -66680 
  -66739   -66767   -66784   -66800   -66811   -66829   -66859   -66879 
  -66878   -66884   -66925   -66982   -67014   -67019   -67037   -67065 
  -67063   -67045   -67058   -67098   -67130   -67159   -67214   -67257 
  -67251   -67253   -67293   -67312   -67300   -67322   -67383   -67426 
  -67451   -67468   -67477   -67513   -67562   -67581   -67587   -67610 
  -67649   -67703   -67780   -67866   -67915   -67918   -67942   -68017 
  -68073   -68081   -68125   -68229   -68304   -68344   -68413   -68492 
  -68523   -68497   -68464   -68504   -68627   -68731   -68749   -68736 
  -68738   -68736   -68757   -68809   -68826   -68804   -68819   -68866 
  -68873   -68834   -68823   -68848   -68849   -68817   -68801   -68838 
  -68903   -68932   -68906   -68885   -68904   -68913   -68891   -68884 
  -68912   -68954   -68978   -68982   -69000   -69042   -69094   -69129 
  -69128   -69114   -69130   -69194   -69265   -69285   -69270   -69281 
  -69331   -69383   -69410   -69416   -69421   -69453   -69521   -69593 
  -69637   -69653   -69655   -69661   -69693   -69747   -69790   -69810 
  -69815   -69808   -69801   -69816   -69844   -69848   -69849   -69857 
  -69842   -69815   -69781   -69738   -69733   -69760   -69743   -69670 
  -69590   -69553   -69556   -69545   -69490   -69407   -69337   -69303 
  -69264   -69190   -69117   -69039   -68941   -68852   -68790   -68759 
  -68724   -68643   -68530   -68416   -68322   -68256   -68183   -68100 
  -68020   -67936   -67855   -67761   -67634   -67539   -67502   -67452 
  -67353   -67227   -67113   -67040   -66993   -66953   -66901   -66818 
  -66713   -66615   -66547   -66498   -66446   -66382   -66307   -66253 
  -66220   -66177   -66125   -66066   -65989   -65923   -65890   -65870 
  -65828   -65759   -65721   -65738   -65745   -65710   -65642   -65579 
  -65567   -65584   -65618   -65650   -65638   -65623   -65643   -65672 
  -65695   -65710   -65734   -65778   -65792   -65781   -65802   -65849 
  -65896   -65940   -65983   -66043   -66092   -66097   -66104   -66136 
  -66188   -66266   -66329   -66360   -66390   -66432   -66493   -66573 
  -66651   -66704   -66735   -66785   -66863   -66930   -66973   -67016 
  -67064   -67119   -67181   -67239   -67290   -67325   -67342   -67360 
  -67381   -67416   -67483   -67552   -67570   -67542   -67515   -67519 
  -67562   -67605   -67625   -67632   -67636   -67641   -67642   -67638 
  -67646   -67644   -67619   -67609   -67621   -67629   -67622   -67619 
  -67637   -67661   -67661   -67635   -67607   -67599   -67617   -67642 
  -67651   -67648   -67635   -67615   -67615   -67640   -67658   -67647 
  -67611   -67600   -67623   -67636   -67640   -67644   -67649   -67662 
  -67661   -67658   -67676   -67701   -67728   -67739   -67738   -67753 
  -67766   -67786   -67819   -67842   -67862   -67871   -67895   -67941 
  -67961   -67980   -68020   -68058   -68099   -68121   -68125   -68130 
  -68137   -68156   -68176   -68205   -68238   -68231   -68220   -68236 
  -68253   -68252   -68208   -68165   -68157   -68183   -68223   -68210 
  -68160   -68108   -68056   -68061   -68074   -68029   -67962   -67891 
  -67860   -67856   -67818   -67772   -67715   -67662   -67620   -67577 
  -67577   -67566   -67504   -67440   -67396   -67379   -67345   -67311 
  -67316   -67289   -67244   -67217   -67180   -67140   -67098   -67075 
  -67078   -67074   -67068   -67048   -67026   -66995   -66959   -66983 
  -67025   -67016   -66982   -66958   -66989   -67013   -66994   -67006 
  -67032   -67072   -67127   -67130   -67092   -67071   -67118   -67199 
  -67236   -67241   -67240   -67256   -67285   -67298   -67330   -67377 
  -67401   -67403   -67405   -67429   -67450   -67456   -67455   -67444 
  -67442   -67448   -67448   -67439   -67406   -67345   -67282   -67253 
  -67253   -67246   -67227   -67187   -67134   -67084   -67024   -66966 
  -66947   -66966   -66958   -66890   -66826   -66797   -66784   -66781 
  -66777   -66776   -66777   -66767   -66739   -66725   -66757   -66795 
  -66804   -66782   -66749   -66767   -66837   -66913   -66963   -66965 
  -66959   -66984   -67049   -67135   -67194   -67214   -67229   -67286 
  -67385   -67465   -67494   -67500   -67537   -67602   -67642   -67675 
  -67731   -67783   -67828   -67876   -67907   -67921   -67967   -68030 
  -68048   -68034   -68041   -68092   -68152   -68154   -68108   -68099 
  -68156   -68222   -68238   -68192   -68142   -68141   -68162   -68173 
  -68163   -68143   -68139   -68133   -68125   -68121   -68100   -68073 
  -68065   -68078   -68075   -68043   -68016   -67998   -67978   -67947 
  -67909   -67887   -67868   -67860   -67858   -67835   -67804   -67771 
  -67767   -67797   -67804   -67776   -67726   -67679   -67650   -67631 
  -67623   -67608   -67614   -67656   -67646   -67583   -67540   -67512 
  -67493   -67482   -67458   -67436   -67436   -67432   -67392   -67345 
  -67324   -67311   -67291   -67256   -67214   -67197   -67187   -67158 
  -67138   -67156   -67180   -67136   -67046   -66996   -67007   -67038 
  -67032   -66995   -66978   -66983   -66975   -66904   -66825   -66828 
  -66867   -66872   -66838   -66796   -66775   -66764   -66747   -66701 
  -66656   -66676   -66715   -66710   -66673   -66651   -66663   -66687 
  -66699   -66685   -66656   -66643   -66657   -66707   -66758   -66770 
  -66778   -66801   -66794   -66748   -66738   -66786   -66825   -66852 
  -66897   -66919   -66905   -66898   -66926   -66956   -66955   -66952 
  -66982   -67037   -67085   -67114   -67124   -67133   -67177   -67237 
  -67278   -67312   -67365   -67446   -67530   -67570   -67569   -67574 
  -67621   -67708   -67792   -67830   -67851   -67917   -68010   -68059 
  -68065   -68086   -68140   -68193   -68229   -68272   -68323   -68364 
  -68404   -68437   -68455   -68490   -68551   -68595   -68605   -68618 
  -68642   -68660   -68691   -68747   -68826   -68895   -68913   -68911 
  -68926   -68949   -68993   -69055   -69091   -69109   -69155   -69204 
  -69204   -69184   -69201   -69242   -69264   -69262   -69255   -69252 
  -69263   -69279   -69280   -69277   -69266   -69254   -69248   -69223 
  -69189   -69175   -69166   -69139   -69105   -69104   -69121   -69099 
  -69055   -69022   -68989   -68974   -68973   -68948   -68913   -68912 
  -68931   -68952   -68961   -68935   -68895   -68886   -68889   -68860 
  -68819   -68824   -68877   -68925   -68923   -68876   -68836   -68813 
  -68788   -68768   -68759   -68760   -68781   -68805   -68805   -68777 
  -68739   -68711   -68683   -68634   -68588   -68589   -68628   -68644 
  -68598   -68508   -68434   -68416   -68435   -68430   -68372   -68307 
  -68275   -68254   -68223   -68175   -68121   -68082   -68038   -67998 
  -67998   -68014   -68018   -67989   -67901   -67797   -67748   -67748 
  -67741   -67703   -67647   -67585   -67526   -67488   -67480   -67474 
  -67414   -67293   -67187   -67167   -67210   -67200   -67105   -67019 
  -66981   -66956   -66928   -66915   -66914   -66880   -66823   -66799 
  -66798   -66778   -66744   -66736   -66736   -66695   -66651   -66643 
  -66632   -66602   -66573   -66549   -66531   -66522   -66528   -66518 
  -66463   -66423   -66418   -66394   -66354   -66320   -66289   -66281 
  -66304   -66323   -66301   -66229   -66158   -66148   -66191   -66220 
  -66212   -66219   -66247   -66251   -66248   -66282   -66338   -66374 
  -66394   -66431   -66476   -66509   -66550   -66613   -66681   -66742 
  -66795   -66840   -66891   -66949   -67000   -67057   -67122   -67180 
  -67246   -67317   -67380   -67465   -67563   -67617   -67640   -67695 
  -67779   -67835   -67874   -67948   -68031   -68067   -68074   -68093 
  -68126   -68163   -68199   -68248   -68307   -68329   -68301   -68300 
  -68360   -68412   -68420   -68417   -68425   -68454   -68491   -68508 
  -68512   -68530   -68564   -68592   -68608   -68640   -68671   -68664 
  -68655   -68688   -68749   -68807   -68826   -68804   -68812   -68877 
  -68940   -68968   -68970   -68973   -69002   -69057   -69114   -69149 
  -69159   -69158   -69171   -69219   -69284   -69331   -69351   -69352 
  -69359   -69393   -69424   -69422   -69403   -69402   -69424   -69433 
  -69418   -69410   -69407   -69392   -69363   -69311   -69259   -69236 
  -69228   -69189   -69107   -69029   -68990   -68950   -68872   -68770 
  -68686   -68622   -68528   -68404   -68331   -68306   -68233   -68085 
  -67942   -67859   -67796   -67696   -67562   -67444   -67375   -67321 
  -67221   -67095   -66989   -66894   -66790   -66677   -66574   -66499 
  -66442   -66367   -66243   -66122   -66063   -66016   -65944   -65870 
  -65795   -65731   -65690   -65657   -65626   -65590   -65554   -65536 
  -65535   -65551   -65575   -65592   -65603   -65603   -65601   -65624 
  -65671   -65731   -65804   -65865   -65899   -65937   -65983   -66015 
  -66047   -66092   -66134   -66178   -66240   -66324   -66396   -66425 
  -66434   -66457   -66511   -66582   -66636   -66662   -66694   -66750 
  -66806   -66849   -66892   -66929   -66954   -66977   -67016   -67076 
  -67138   -67188   -67231   -67279   -67326   -67368   -67418   -67449 
  -67454   -67475   -67520   -67584   -67664   -67725   -67762   -67796 
  -67839   -67907   -67992   -68077   -68151   -68216   -68284   -68353 
  -68426   -68516   -68613   -68705   -68788   -68859   -68934   -69021 
  -69108   -69178   -69228   -69272   -69322   -69389   -69462   -69526 
  -69569   -69588   -69596   -69606   -69624   -69658   -69691   -69693 
  -69684   -69693   -69705   -69693   -69667   -69657   -69655   -69625 
  -69574   -69541   -69539   -69549   -69536   -69497   -69450   -69404 
  -69364   -69345   -69328   -69280   -69215   -69164   -69127   -69087 
  -69032   -68974   -68928   -68893   -68846   -68788   -68747   -68727 
  -68707   -68679   -68654   -68635   -68616   -68593   -68574   -68554 
  -68518   -68471   -68425   -68393   -68389   -68393   -68388   -68388 
  -68366   -68293   -68220   -68200   -68219   -68241   -68243   -68215 
  -68171   -68127   -68089   -68071   -68068   -68052   -68015   -67974 
  -67942   -67924   -67921   -67914   -67882   -67834   -67782   -67737 
  -67712   -67715   -67732   -67737   -67715   -67679   -67631   -67570 
  -67531   -67522   -67526   -67543   -67556   -67538   -67505   -67478 
  -67451   -67428   -67423   -67425   -67417   -67404   -67398   -67394 
  -67384   -67368   -67352   -67338   -67339   -67355   -67370   -67367 
  -67336   -67298   -67268   -67243   -67230   -67233   -67241   -67233 
  -67212   -67194   -67166   -67123   -67083   -67046   -67016   -67003 
  -66997   -66990   -66977   -66967   -66953   -66919   -66877   -66838 
  -66815   -66809   -66799   -66782   -66781   -66793   -66787   -66759 
  -66736   -66730   -66733   -66737   -66727   -66708   -66696   -66688 
  -66689   -66722   -66768   -66769   -66729   -66704   -66705   -66718 
  -66733   -66728   -66720   -66736   -66752   -66757   -66769   -66791 
  -66806   -66798   -66786   -66804   -66838   -66873   -66898   -66915 
  -66943   -66979   -67008   -67042   -67084   -67124   -67171   -67231 
  -67282   -67320   -67370   -67428   -67469   -67506   -67555   -67616 
  -67687   -67754   -67796   -67825   -67869   -67927   -67999   -68094 
  -68184   -68241   -68277   -68317   -68380   -68453   -68519   -68577 
  -68633   -68697   -68771   -68842   -68911   -68978   -69044   -69110 
  -69154   -69196   -69272   -69362   -69433   -69475   -69491   -69514 
  -69563   -69623   -69675   -69713   -69745   -69775   -69797   -69827 
  -69872   -69899   -69898   -69894   -69893   -69892   -69892   -69888 
  -69877   -69874   -69889   -69910   -69918   -69899   -69859   -69820 
  -69800   -69795   -69783   -69744   -69690   -69659   -69649   -69642 
  -69628   -69584   -69516   -69465   -69425   -69370   -69298   -69229 
  -69188   -69172   -69147   -69090   -69012   -68933   -68863   -68799 
  -68736   -68677   -68625   -68580   -68533   -68475   -68416   -68355 
  -68278   -68204   -68144   -68084   -68031   -67991   -67952   -67916 
  -67878   -67834   -67794   -67751   -67691   -67619   -67560   -67526 
  -67496   -67460   -67419   -67367   -67316   -67273   -67235   -67195 
  -67147   -67098   -67042   -66979   -66920   -66872   -66829   -66781 
  -66726   -66667   -66611   -66558   -66499   -66428   -66346   -66269 
  -66214   -66181   -66151   -66107   -66048   -65984   -65925   -65886 
  -65869   -65851   -65831   -65826   -65813   -65791   -65792   -65799 
  -65808   -65841   -65864   -65866   -65896   -65964   -66025   -66071 
  -66122   -66179   -66240   -66307   -66366   -66411   -66462   -66532 
  -66609   -66675   -66741   -66814   -66876   -66937   -67002   -67074 
  -67169   -67270   -67339   -67379   -67418   -67478   -67559   -67651 
  -67739   -67820   -67900   -67980   -68051   -68117   -68192   -68281 
  -68371   -68456   -68523   -68588   -68677   -68767   -68845   -68940 
  -69049   -69152   -69251   -69346   -69428   -69502   -69588   -69683 
  -69775   -69871   -69968   -70046   -70111   -70182   -70257   -70327 
  -70395   -70458   -70512   -70561   -70605   -70644   -70690   -70733 
  -70753   -70760   -70776   -70781   -70771   -70770   -70767   -70744 
  -70711   -70671   -70635   -70618   -70593   -70528   -70446   -70385 
  -70322   -70234   -70144   -70039   -69906   -69795   -69709   -69600 
  -69478   -69369   -69257   -69129   -68985   -68825   -68679   -68574 
  -68475   -68346   -68214   -68098   -67977   -67854   -67746   -67638 
  -67527   -67447   -67383   -67277   -67143   -67032   -66941   -66865 
  -66809   -66738   -66658   -66601   -66545   -66476   -66435   -66402 
  -66343   -66305   -66314   -66323   -66289   -66240   -66227   -66237 
  -66229   -66208   -66202   -66219   -66239   -66261   -66297   -66324 
  -66336   -66369   -66423   -66453   -66446   -66459   -66521   -66571 
  -66587   -66614   -66660   -66700   -66718   -66719   -66741   -66795 
  -66854   -66897   -66922   -66933   -66950   -66976   -67005   -67043 
  -67079   -67100   -67109   -67103   -67106   -67135   -67161   -67177 
  -67202   -67235   -67270   -67300   -67314   -67313   -67318   -67344 
  -67379   -67404   -67410   -67408   -67424   -67460   -67492   -67509 
  -67521   -67534   -67544   -67563   -67594   -67616   -67638   -67669 
  -67700   -67724   -67747   -67770   -67798   -67827   -67840   -67839 
  -67849   -67874   -67899   -67923   -67957   -67995   -68026   -68055 
  -68091   -68127   -68170   -68215   -68239   -68257   -68291   -68331 
  -68367   -68403   -68443   -68482   -68509   -68520   -68529   -68556 
  -68604   -68647   -68672   -68690   -68710   -68737   -68785   -68833 
  -68865   -68901   -68953   -69000   -69041   -69079   -69100   -69106 
  -69117   -69137   -69162   -69191   -69225   -69261   -69300   -69340 
  -69371   -69388   -69404   -69421   -69446   -69481   -69504   -69496 
  -69475   -69458   -69444   -69438   -69444   -69448   -69446   -69447 
  -69453   -69466   -69472   -69448   -69410   -69380   -69345   -69312 
  -69298   -69281   -69253   -69238   -69234   -69232   -69242   -69258 
  -69261   -69241   -69207   -69179   -69173   -69191   -69206   -69203 
  -69210   -69252   -69307   -69343   -69361   -69370   -69372   -69384 
  -69416   -69460   -69500   -69537   -69587   -69653   -69715   -69749 
  -69768   -69801   -69847   -69889   -69924   -69959   -69997   -70029 
  -70060   -70103   -70140   -70162   -70175   -70185   -70212   -70262 
  -70308   -70341   -70367   -70386   -70410   -70430   -70426   -70414 
  -70428   -70469   -70513   -70543   -70562   -70568   -70568   -70581 
  -70594   -70585   -70576   -70568   -70546   -70530   -70533   -70533 
  -70522   -70502   -70474   -70436   -70400   -70375   -70341   -70295 
  -70246   -70193   -70150   -70118   -70072   -70005   -69928   -69846 
  -69770   -69701   -69628   -69544   -69460   -69382   -69298   -69207 
  -69111   -69015   -68931   -68851   -68768   -68699   -68641   -68572 
  -68485   -68388   -68283   -68177   -68087   -68020   -67962   -67905 
  -67858   -67819   -67763   -67694   -67642   -67604   -67563   -67522 
  -67476   -67434   -67410   -67405   -67405   -67400   -67385   -67357 
  -67337   -67336   -67338   -67338   -67347   -67357   -67360   -67360 
  -67370   -67391   -67411   -67431   -67455   -67474   -67498   -67535 
  -67571   -67601   -67632   -67660   -67684   -67707   -67738   -67779 
  -67815   -67843   -67871   -67896   -67915   -67933   -67950   -67967 
  -67986   -68010   -68038   -68063   -68082   -68086   -68078   -68083 
  -68109   -68127   -68125   -68127   -68141   -68148   -68149   -68157 
  -68167   -68173   -68164   -68139   -68122   -68126   -68137   -68142 
  -68149   -68157   -68162   -68161   -68152   -68136   -68120   -68111 
  -68102   -68088   -68083   -68103   -68137   -68165   -68173   -68162 
  -68154   -68163   -68182   -68197   -68208   -68208   -68205   -68214 
  -68222   -68222   -68239   -68271   -68283   -68279   -68293   -68309 
  -68298   -68283   -68286   -68307   -68329   -68336   -68326   -68319 
  -68321   -68310   -68287   -68277   -68280   -68281   -68281   -68286 
  -68285   -68283   -68289   -68295   -68305   -68315   -68317   -68330 
  -68361   -68388   -68416   -68457   -68495   -68517   -68542   -68582 
  -68618   -68650   -68687   -68720   -68757   -68810   -68848   -68862 
  -68888   -68929   -68975   -69031   -69078   -69106   -69141   -69181 
  -69212   -69240   -69270   -69297   -69322   -69347   -69374   -69394 
  -69400   -69408   -69426   -69444   -69446   -69439   -69435   -69437 
  -69442   -69432   -69410   -69401   -69394   -69368   -69331   -69302 
  -69285   -69275   -69253   -69212   -69166   -69113   -69050   -69009 
  -68993   -68960   -68919   -68890   -68855   -68803   -68745   -68693 
  -68654   -68618   -68584   -68553   -68526   -68507   -68479   -68441 
  -68414   -68385   -68346   -68324   -68311   -68280   -68246   -68236 
  -68237   -68220   -68194   -68178   -68164   -68141   -68116   -68092 
  -68057   -68015   -67976   -67953   -67945   -67931   -67907   -67889 
  -67869   -67836   -67804   -67780   -67763   -67753   -67737   -67703 
  -67673   -67665   -67649   -67624   -67618   -67610   -67567   -67529 
  -67512   -67485   -67456   -67441   -67424   -67403   -67395   -67386 
  -67350   -67313   -67310   -67314   -67309   -67309   -67302   -67281 
  -67266   -67258   -67265   -67286   -67298   -67291   -67285   -67297 
  -67316   -67336   -67367   -67390   -67396   -67401   -67419   -67454 
  -67498   -67538   -67568   -67594   -67619   -67646   -67679   -67713 
  -67741   -67769   -67815   -67878   -67930   -67968   -68008   -68042 
  -68064   -68106   -68169   -68222   -68268   -68322   -68374   -68427 
  -68489   -68546   -68602   -68670   -68744   -68808   -68864   -68925 
  -68990   -69048   -69105   -69164   -69220   -69282   -69347   -69412 
  -69485   -69554   -69600   -69641   -69685   -69730   -69784   -69847 
  -69908   -69950   -69972   -70001   -70040   -70078   -70113   -70141 
