Origin Time       2011/03/11 14:46:00
Lat.              38.103
Long.             142.860
Depth. (km)       24
Mag.              9.0
Station Code      KYT004
Station Lat.      35.5356
Station Long.     135.1959
Station Height(m) 2
Record Time       2011/03/11 14:49:05
Sampling Freq(Hz) 100Hz
Duration Time(s)  190
Dir.              E-W
Scale Factor      3920(gal)/6182761
Max. Acc. (gal)   2.528
Last Correction   2011/03/11 14:48:50
Memo.             
[...]
  -49497   -49547   -49543   -49553   -49582   -49586   -49625   -49708 
  -49796   -49869   -49897   -49880   -49852   -49834   -49795   -49724 
  -49685   -49711   -49738   -49737   -49753   -49770   -49746   -49707 
  -49687   -49669   -49613   -49537   -49529   -49553   -49504   -49428 
  -49374   -49303   -49229   -49180   -49155   -49146   -49115   -49059 
  -49063   -49109   -49104   -49081   -49083   -49081   -49078   -49093 
  -49127   -49153   -49135   -49110   -49122   -49160   -49197   -49225 
  -49253   -49293   -49326   -49339   -49348   -49354   -49350   -49348 
  -49364   -49373   -49352   -49363   -49407   -49423   -49425   -49433 
  -49479   -49548   -49566   -49616   -49733   -49795   -49811   -49835 
  -49862   -49901   -49918   -49920   -49950   -49961   -49941   -49948 
  -50010   -50078   -50097   -50111   -50160   -50200   -50202   -50190 
  -50217   -50274   -50281   -50278   -50356   -50429   -50457   -50494 
  -50519   -50530   -50537   -50532   -50539   -50527   -50478   -50431 
  -50373   -50276   -50130   -49948   -49790   -49648   -49477   -49289 
  -49108   -48974   -48884   -48828   -48834   -48855   -48842   -48835 
  -48868   -48933   -48932   -48840   -48814   -48865   -48867   -48870 
  -48952   -49045   -49099   -49137   -49181   -49197   -49136   -49085 
  -49122   -49187   -49254   -49367   -49507   -49630   -49697   -49757 
  -49887   -50010   -50081   -50176   -50317   -50430   -50490   -50564 
  -50632   -50652   -50648   -50631   -50624   -50617   -50548   -50465 
  -50413   -50292   -50089   -49904   -49763   -49647   -49515   -49362 
  -49233   -49119   -48983   -48861   -48818   -48795   -48709   -48604 
  -48540   -48528   -48529   -48514   -48537   -48599   -48588   -48513 
  -48466   -48407   -48307   -48272   -48319   -48385   -48451   -48481 
  -48485   -48505   -48533   -48556   -48587   -48632   -48672   -48735 
  -48875   -49058   -49211   -49352   -49534   -49699   -49795   -49871 
  -49987   -50093   -50139   -50193   -50306   -50409   -50450   -50496 
  -50572   -50601   -50553   -50519   -50553   -50562   -50515   -50486 
  -50509   -50565   -50578   -50559   -50574   -50590   -50571   -50574 
  -50628   -50673   -50683   -50700   -50717   -50679   -50602   -50535 
  -50478   -50430   -50344   -50212   -50098   -49949   -49732   -49521 
  -49338   -49170   -48994   -48837   -48732   -48627   -48509   -48435 
  -48409   -48395   -48364   -48324   -48285   -48232   -48165   -48107 
  -48134   -48233   -48235   -48182   -48188   -48155   -48095   -48080 
  -48096   -48140   -48169   -48182   -48259   -48400   -48534   -48628 
  -48737   -48870   -48961   -49063   -49232   -49400   -49549   -49707 
  -49882   -50056   -50184   -50281   -50395   -50525   -50649   -50744 
  -50809   -50849   -50831   -50773   -50740   -50677   -50553   -50428 
  -50319   -50207   -50045   -49853   -49710   -49597   -49452   -49307 
  -49216   -49132   -48998   -48852   -48788   -48782   -48705   -48625 
  -48650   -48652   -48590   -48545   -48522   -48518   -48503   -48465 
  -48467   -48512   -48515   -48456   -48396   -48369   -48342   -48284 
  -48284   -48349   -48356   -48334   -48353   -48374   -48359   -48333 
  -48359   -48411   -48418   -48424   -48503   -48597   -48622   -48618 
  -48627   -48628   -48618   -48636   -48677   -48690   -48659   -48614 
  -48606   -48586   -48521   -48494   -48486   -48469   -48476   -48483 
  -48511   -48558   -48561   -48572   -48632   -48674   -48692   -48744 
  -48828   -48901   -48957   -49012   -49067   -49123   -49170   -49139 
  -49110   -49207   -49256   -49227   -49302   -49351   -49315   -49366 
  -49463   -49524   -49564   -49605   -49678   -49745   -49788   -49802 
  -49811   -49842   -49806   -49757   -49811   -49871   -49894   -49951 
  -50011   -50012   -49980   -49954   -49916   -49849   -49735   -49566 
  -49429   -49366   -49297   -49240   -49243   -49247   -49241   -49256 
  -49287   -49324   -49327   -49317   -49365   -49413   -49383   -49336 
  -49352   -49404   -49424   -49411   -49417   -49420   -49372   -49342 
  -49340   -49282   -49209   -49199   -49228   -49241   -49216   -49187 
  -49182   -49178   -49139   -49100   -49089   -49070   -49042   -49030 
  -49054   -49097   -49096   -49059   -49047   -49053   -49032   -49009 
  -49017   -49022   -48997   -48956   -48912   -48874   -48814   -48744 
  -48710   -48683   -48648   -48642   -48668   -48717   -48765   -48793 
  -48850   -48965   -49067   -49132   -49212   -49254   -49223   -49230 
  -49297   -49342   -49338   -49330   -49347   -49320   -49232   -49160 
  -49110   -49052   -48957   -48888   -48900   -48891   -48839   -48824 
  -48884   -48961   -48915   -48865   -48940   -48992   -48985   -48976 
  -48981   -48956   -48850   -48803   -48807   -48757   -48719   -48693 
  -48690   -48716   -48646   -48557   -48570   -48545   -48451   -48420 
  -48424   -48432   -48468   -48512   -48590   -48679   -48716   -48755 
  -48823   -48862   -48862   -48850   -48847   -48806   -48711   -48665 
  -48682   -48683   -48656   -48632   -48630   -48607   -48519   -48438 
  -48396   -48332   -48272   -48264   -48282   -48327   -48381   -48397 
  -48425   -48498   -48564   -48637   -48762   -48873   -48901   -48946 
  -49089   -49218   -49307   -49435   -49570   -49671   -49755   -49877 
  -50036   -50119   -50175   -50269   -50309   -50363   -50483   -50605 
  -50776   -50953   -51071   -51161   -51268   -51440   -51579   -51673 
  -51815   -51909   -51927   -51971   -52058   -52132   -52174   -52186 
  -52125   -52021   -51873   -51686   -51601   -51507   -51287   -51126 
  -51037   -50928   -50813   -50692   -50591   -50494   -50361   -50227 
  -50123   -50015   -49876   -49722   -49586   -49481   -49357   -49208 
  -49131   -49100   -49018   -48936   -48918   -48885   -48802   -48758 
  -48755   -48748   -48735   -48713   -48732   -48801   -48863   -48944 
  -49076   -49178   -49194   -49218   -49292   -49347   -49372   -49426 
  -49529   -49621   -49656   -49693   -49764   -49814   -49820   -49817 
  -49825   -49813   -49732   -49632   -49580   -49511   -49377   -49237 
  -49117   -48976   -48786   -48595   -48460   -48341   -48169   -47976 
  -47828   -47683   -47535   -47453   -47392   -47319   -47261   -47207 
  -47207   -47242   -47225   -47237   -47327   -47404   -47455   -47532 
  -47644   -47767   -47895   -48062   -48281   -48490   -48660   -48845 
  -49046   -49224   -49395   -49559   -49728   -49900   -50014   -50111 
  -50227   -50291   -50295   -50281   -50269   -50247   -50204   -50193 
  -50210   -50172   -50067   -49983   -49938   -49796   -49588   -49480 
  -49386   -49209   -49065   -48952   -48814   -48712   -48595   -48422 
  -48320   -48269   -48165   -48085   -48050   -47981   -47907   -47848 
  -47803   -47776   -47722   -47669   -47665   -47659   -47627   -47597 
  -47586   -47587   -47581   -47585   -47636   -47697   -47729   -47793 
  -47913   -48029   -48116   -48210   -48347   -48511   -48646   -48779 
  -48955   -49133   -49296   -49486   -49720   -49915   -50041   -50199 
  -50370   -50498   -50604   -50679   -50792   -50939   -51011   -51073 
  -51162   -51210   -51205   -51186   -51199   -51211   -51187   -51184 
  -51214   -51204   -51148   -51100   -51049   -50964   -50853   -50752 
  -50700   -50652   -50556   -50444   -50340   -50222   -50075   -49906 
  -49702   -49488   -49345   -49193   -48983   -48841   -48697   -48512 
  -48396   -48257   -48079   -47966   -47879   -47797   -47744   -47718 
  -47712   -47726   -47775   -47829   -47849   -47849   -47816   -47766 
  -47761   -47777   -47755   -47742   -47786   -47831   -47844   -47895 
  -48016   -48148   -48276   -48441   -48644   -48832   -48997   -49151 
  -49269   -49359   -49450   -49556   -49682   -49806   -49889   -49933 
  -49969   -49979   -49941   -49906   -49885   -49855   -49840   -49851 
  -49868   -49858   -49809   -49749   -49683   -49607   -49517   -49432 
  -49377   -49315   -49230   -49165   -49129   -49090   -49020   -48940 
  -48885   -48827   -48719   -48590   -48495   -48399   -48264   -48149 
  -48063   -47977   -47905   -47860   -47846   -47848   -47861   -47914 
  -47999   -48057   -48067   -48102   -48208   -48329   -48453   -48616 
  -48820   -49027   -49192   -49346   -49548   -49741   -49875   -50003 
  -50161   -50298   -50373   -50450   -50572   -50671   -50712   -50745 
  -50788   -50787   -50741   -50721   -50738   -50768   -50801   -50837 
  -50878   -50892   -50889   -50852   -50735   -50658   -50593   -50371 
  -50148   -49971   -49663   -49374   -49183   -48931   -48693   -48555 
  -48400   -48186   -47968   -47740   -47542   -47423   -47298   -47143 
  -47018   -46896   -46760   -46654   -46609   -46560   -46478   -46453 
  -46490   -46535   -46582   -46678   -46855   -47018   -47127   -47254 
  -47404   -47517   -47590   -47720   -47902   -48043   -48181   -48376 
  -48592   -48780   -48971   -49218   -49485   -49716   -49915   -50103 
  -50305   -50499   -50645   -50760   -50879   -50992   -51066   -51125 
  -51201   -51245   -51214   -51152   -51098   -50991   -50817   -50683 
  -50578   -50438   -50270   -50073   -49887   -49715   -49507   -49328 
  -49195   -49027   -48840   -48683   -48564   -48462   -48362   -48296 
  -48260   -48210   -48144   -48078   -47999   -47887   -47797   -47774 
  -47783   -47799   -47818   -47830   -47867   -47946   -48039   -48151 
  -48285   -48367   -48406   -48518   -48666   -48755   -48816   -48911 
  -49046   -49165   -49220   -49258   -49338   -49422   -49437   -49433 
  -49464   -49475   -49441   -49398   -49382   -49343   -49237   -49135 
  -49068   -49003   -48919   -48841   -48781   -48682   -48561   -48469 
  -48411   -48355   -48272   -48192   -48131   -48067   -47995   -47949 
  -47961   -47975   -47935   -47893   -47899   -47907   -47880   -47899 
  -47974   -48044   -48126   -48227   -48337   -48430   -48497   -48585 
  -48695   -48810   -48901   -48992   -49123   -49205   -49226   -49276 
  -49369   -49445   -49505   -49643   -49803   -49849   -49836   -49868 
  -49903   -49919   -50018   -50130   -50156   -50170   -50176   -50228 
  -50346   -50393   -50377   -50368   -50361   -50348   -50336   -50351 
  -50368   -50342   -50289   -50233   -50194   -50139   -50060   -50011 
  -49984   -49942   -49880   -49829   -49817   -49804   -49747   -49681 
  -49655   -49629   -49583   -49553   -49495   -49370   -49224   -49116 
  -49052   -48979   -48875   -48744   -48593   -48461   -48357   -48267 
  -48191   -48096   -47946   -47806   -47748   -47729   -47692   -47646 
  -47603   -47546   -47501   -47532   -47603   -47631   -47616   -47617 
  -47681   -47760   -47829   -47924   -48030   -48113   -48149   -48173 
  -48218   -48239   -48234   -48246   -48314   -48388   -48398   -48432 
  -48528   -48599   -48656   -48759   -48873   -48958   -49081   -49232 
  -49317   -49372   -49445   -49535   -49646   -49763   -49848   -49914 
  -50013   -50071   -50063   -50099   -50193   -50268   -50275   -50271 
  -50290   -50288   -50278   -50286   -50311   -50329   -50287   -50227 
  -50183   -50100   -49987   -49933   -49945   -49924   -49880   -49872 
  -49888   -49892   -49843   -49772   -49705   -49607   -49514   -49473 
  -49449   -49406   -49362   -49348   -49358   -49352   -49303   -49238 
  -49212   -49201   -49144   -49058   -49005   -48984   -48976   -48967 
  -48853   -48723   -48753   -48780   -48706   -48641   -48626   -48675 
  -48712   -48679   -48654   -48636   -48590   -48574   -48576   -48497 
  -48358   -48279   -48314   -48392   -48364   -48180   -48003   -48034 
  -48175   -48132   -47967   -47935   -48004   -48068   -48118   -48126 
  -48072   -48011   -48094   -48295   -48413   -48425   -48464   -48611 
  -48790   -48881   -48946   -49043   -49103   -49222   -49486   -49631 
  -49591   -49699   -49909   -49933   -49895   -50021   -50139   -50114 
  -50198   -50367   -50414   -50427   -50457   -50554   -50703   -50670 
  -50558   -50584   -50585   -50548   -50604   -50564   -50393   -50289 
  -50182   -49990   -49780   -49558   -49370   -49254   -49088   -48808 
  -48591   -48447   -48190   -47966   -47890   -47799   -47708   -47681 
  -47675   -47617   -47431   -47269   -47283   -47288   -47193   -47168 
  -47177   -47157   -47191   -47210   -47205   -47167   -47038   -47046 
  -47241   -47374   -47453   -47603   -47795   -47932   -48023   -48129 
  -48201   -48297   -48511   -48731   -48864   -48961   -49091   -49295 
  -49545   -49715   -49784   -49844   -49887   -49905   -49913   -49959 
  -50077   -50142   -50167   -50236   -50193   -50084   -50106   -50153 
  -50121   -50074   -50060   -50136   -50271   -50253   -50132   -50207 
  -50364   -50346   -50298   -50301   -50260   -50232   -50189   -50058 
  -49989   -49954   -49735   -49496   -49372   -49116   -48756   -48515 
  -48395   -48307   -48128   -47874   -47688   -47518   -47298   -47218 
  -47311   -47242   -46991   -46914   -47003   -46996   -46910   -46847 
  -46856   -47054   -47160   -47022   -47093   -47265   -47281   -47332 
  -47416   -47552   -47712   -47897   -48159   -48336   -48467   -48642 
  -48855   -49102   -49337   -49590   -49890   -50226   -50494   -50763 
  -51097   -51274   -51424   -51641   -51703   -51732   -51832   -51861 
  -51832   -51784   -51624   -51416   -51251   -51047   -50807   -50639 
  -50569   -50475   -50197   -49827   -49636   -49556   -49306   -48980 
  -48723   -48524   -48410   -48287   -48158   -48053   -47910   -47801 
  -47662   -47370   -47017   -46703   -46473   -46309   -46115   -45889 
  -45755   -45692   -45662   -45720   -45691   -45495   -45342   -45316 
  -45359   -45378   -45389   -45520   -45837   -46300   -46729   -47163 
  -47723   -48187   -48460   -48675   -48821   -48887   -48877   -48788 
  -48788   -48899   -48993   -49167   -49456   -49711   -49912   -50121 
  -50342   -50509   -50596   -50674   -50777   -50873   -50997   -51154 
  -51257   -51313   -51399   -51479   -51397   -51172   -51030   -50919 
  -50657   -50314   -50018   -49829   -49665   -49470   -49367   -49238 
  -48927   -48621   -48322   -47929   -47619   -47410   -47312   -47436 
  -47541   -47540   -47689   -47955   -48156   -48227   -48070   -47725 
  -47383   -47094   -46894   -46874   -46978   -47124   -47341   -47608 
  -47845   -47995   -48018   -48064   -48208   -48232   -48261   -48556 
  -48955   -49309   -49571   -49690   -49750   -49738   -49647   -49576 
  -49501   -49433   -49480   -49614   -49789   -50029   -50229   -50260 
  -50148   -49910   -49556   -49230   -49038   -48913   -48767   -48676 
  -48727   -48920   -49161   -49279   -49358   -49395   -49209   -49108 
  -49126   -48889   -48657   -48637   -48558   -48404   -48375   -48527 
  -48650   -48561   -48440   -48431   -48318   -48023   -47767   -47571 
  -47432   -47515   -47688   -47781   -47968   -48190   -48250   -48302 
  -48363   -48331   -48378   -48536   -48701   -48860   -48937   -48957 
  -48974   -48869   -48716   -48624   -48421   -48182   -48176   -48315 
  -48432   -48610   -48916   -49242   -49499   -49658   -49693   -49645 
  -49474   -49182   -48980   -48904   -48903   -49006   -49185   -49439 
  -49656   -49684   -49696   -49800   -49808   -49670   -49504   -49421 
  -49592   -49858   -49836   -49688   -49567   -49311   -49186   -49343 
  -49451   -49392   -49203   -48862   -48587   -48605   -48674   -48492 
  -48259   -48194   -48055   -47733   -47532   -47443   -47214   -47101 
  -47299   -47437   -47391   -47387   -47480   -47643   -47709   -47500 
  -47253   -47251   -47358   -47374   -47383   -47436   -47506   -47702 
  -47895   -47984   -48289   -48674   -48742   -48647   -48603   -48754 
  -49052   -49217   -49379   -49578   -49607   -49602   -49596   -49628 
  -49893   -50211   -50392   -50609   -50911   -51037   -51066   -51313 
  -51608   -51641   -51460   -51307   -51267   -51148   -50866   -50595 
  -50494   -50550   -50582   -50640   -50880   -50920   -50548   -50227 
  -50090   -49815   -49349   -49001   -48950   -48926   -48711   -48458 
  -48299   -48222   -48292   -48443   -48458   -48421   -48383   -48183 
  -47945   -47810   -47808   -47949   -48027   -48018   -48151   -48452 
  -48730   -48845   -48861   -48804   -48650   -48511   -48471   -48520 
  -48634   -48798   -48924   -48910   -48868   -48875   -48799   -48681 
  -48654   -48752   -48967   -49164   -49247   -49297   -49357   -49388 
  -49369   -49339   -49432   -49637   -49690   -49534   -49344   -49221 
  -49256   -49369   -49443   -49519   -49522   -49504   -49569   -49599 
  -49707   -49926   -50054   -50139   -50162   -50085   -50030   -50053 
  -50228   -50343   -50138   -49990   -50107   -50177   -50149   -50086 
  -49922   -49787   -49846   -50000   -50022   -49899   -49871   -50034 
  -50198   -50220   -49990   -49523   -49154   -48905   -48617   -48425 
  -48258   -48089   -48088   -48127   -48086   -47948   -47723   -47639 
  -47734   -47786   -47730   -47670   -47645   -47623   -47647   -47703 
  -47684   -47558   -47402   -47375   -47539   -47756   -47907   -48086 
  -48387   -48595   -48577   -48613   -48791   -48906   -49011   -49207 
  -49390   -49513   -49648   -49869   -50082   -50200   -50321   -50475 
  -50744   -51148   -51372   -51469   -51704   -51830   -51814   -51858 
  -51784   -51559   -51303   -50997   -50724   -50584   -50522   -50438 
  -50402   -50431   -50420   -50487   -50571   -50485   -50382   -50309 
  -50227   -50127   -49898   -49647   -49429   -49119   -48802   -48544 
  -48355   -48300   -48282   -48290   -48360   -48315   -48171   -48096 
  -47965   -47705   -47493   -47372   -47312   -47348   -47453   -47601 
  -47774   -47864   -47869   -47942   -48134   -48389   -48605   -48716 
  -48916   -49276   -49507   -49592   -49677   -49661   -49546   -49445 
  -49401   -49454   -49584   -49780   -50050   -50337   -50559   -50702 
  -50847   -50956   -50919   -50842   -50891   -50993   -51059   -51199 
  -51303   -51213   -51145   -51176   -51138   -51026   -50948   -50971 
  -51057   -51117   -51105   -51076   -51053   -50918   -50689   -50502 
  -50330   -50158   -50027   -49863   -49644   -49455   -49380   -49464 
  -49629   -49658   -49462   -49224   -49073   -48975   -48914   -48797 
  -48513   -48161   -47969   -47983   -48046   -48085   -48064   -47925 
  -47809   -47838   -47888   -47823   -47707   -47707   -47815   -47910 
  -47977   -47949   -47824   -47756   -47736   -47718   -47732   -47769 
  -47834   -47916   -47991   -48054   -48082   -48039   -47961   -47965 
  -48059   -48094   -48043   -48063   -48154   -48228   -48376   -48616 
  -48811   -48914   -48962   -49017   -49098   -49165   -49261   -49425 
  -49666   -49921   -50063   -50124   -50195   -50216   -50211   -50297 
  -50382   -50332   -50236   -50212   -50297   -50472   -50613   -50691 
  -50800   -50915   -50939   -50852   -50730   -50557   -50318   -50187 
  -50195   -50224   -50240   -50191   -50048   -49858   -49687   -49606 
  -49590   -49525   -49422   -49307   -49125   -48954   -48893   -48870 
  -48788   -48618   -48363   -48115   -47933   -47747   -47633   -47634 
  -47617   -47591   -47610   -47677   -47843   -47975   -47978   -48032 
  -48077   -47915   -47710   -47710   -47855   -47996   -48170   -48351 
  -48446   -48450   -48380   -48346   -48322   -48225   -48257   -48487 
  -48692   -48824   -49028   -49308   -49575   -49756   -49782   -49744 
  -49854   -50079   -50256   -50414   -50556   -50636   -50745   -50929 
