Origin Time       2011/03/11 14:46:00
Lat.              38.103
Long.             142.860
Depth. (km)       24
Mag.              9.0
Station Code      KYT013
Station Lat.      34.8784
Station Long.     135.8046
Station Height(m) 79
Record Time       2011/03/11 14:49:33
Sampling Freq(Hz) 100Hz
Duration Time(s)  151
Dir.              N-S
Scale Factor      3920(gal)/6182761
Max. Acc. (gal)   2.918
Last Correction   2011/03/11 14:49:18
Memo.             
[...]
  -35373   -35524   -35669   -35800   -35940   -36081   -36196   -36306 
  -36422   -36492   -36506   -36504   -36488   -36442   -36372   -36279 
  -36156   -36026   -35893   -35737   -35564   -35390   -35218   -35054 
  -34886   -34709   -34555   -34430   -34313   -34206   -34116   -34011 
  -33902   -33820   -33741   -33656   -33585   -33498   -33392   -33317 
  -33261   -33171   -33074   -33024   -32996   -32967   -32983   -33042 
  -33108   -33197   -33330   -33487   -33641   -33776   -33897   -34013 
  -34121   -34229   -34326   -34401   -34486   -34556   -34581   -34578 
  -34557   -34539   -34541   -34547   -34538   -34519   -34516   -34532 
  -34556   -34583   -34591   -34589   -34611   -34647   -34648   -34596 
  -34539   -34508   -34466   -34402   -34340   -34285   -34262   -34259 
  -34229   -34186   -34177   -34197   -34211   -34214   -34218   -34204 
  -34194   -34234   -34281   -34301   -34322   -34356   -34405   -34465 
  -34548   -34650   -34688   -34670   -34697   -34722   -34678   -34630 
  -34564   -34427   -34305   -34240   -34164   -34068   -33987   -33924 
  -33887   -33871   -33839   -33792   -33739   -33665   -33573   -33472 
  -33397   -33369   -33346   -33318   -33301   -33288   -33285   -33291 
  -33272   -33226   -33187   -33166   -33160   -33168   -33165   -33169 
  -33201   -33214   -33209   -33217   -33216   -33207   -33220   -33254 
  -33298   -33351   -33414   -33464   -33509   -33577   -33640   -33677 
  -33713   -33751   -33771   -33790   -33813   -33814   -33780   -33741 
  -33748   -33814   -33865   -33883   -33956   -34073   -34139   -34178 
  -34258   -34352   -34423   -34494   -34569   -34636   -34723   -34827 
  -34924   -35024   -35126   -35233   -35355   -35477   -35620   -35789 
  -35930   -36040   -36160   -36270   -36357   -36444   -36523   -36581 
  -36610   -36609   -36601   -36600   -36597   -36585   -36558   -36522 
  -36462   -36373   -36290   -36204   -36090   -35978   -35884   -35783 
  -35691   -35628   -35547   -35458   -35418   -35396   -35371   -35361 
  -35356   -35374   -35415   -35442   -35471   -35507   -35525   -35541 
  -35579   -35611   -35634   -35673   -35741   -35838   -35955   -36071 
  -36208   -36411   -36659   -36865   -37018   -37179   -37328   -37453 
  -37563   -37623   -37650   -37689   -37716   -37716   -37707   -37667 
  -37594   -37519   -37433   -37331   -37234   -37132   -37023   -36925 
  -36817   -36699   -36610   -36535   -36454   -36386   -36329   -36255 
  -36168   -36096   -36055   -36028   -35983   -35914   -35849   -35792 
  -35725   -35633   -35537   -35462   -35366   -35217   -35050   -34896 
  -34753   -34608   -34458   -34315   -34173   -34021   -33858   -33704 
  -33589   -33487   -33356   -33222   -33120   -33021   -32902   -32802 
  -32726   -32641   -32564   -32478   -32328   -32199   -32176   -32142 
  -32023   -31930   -31891   -31830   -31779   -31767   -31753   -31731 
  -31721   -31728   -31746   -31771   -31803   -31831   -31852   -31877 
  -31887   -31860   -31805   -31756   -31730   -31710   -31694   -31693 
  -31710   -31764   -31820   -31856   -31917   -31982   -32028   -32090 
  -32157   -32209   -32272   -32369   -32475   -32554   -32623   -32718 
  -32847   -32975   -33070   -33144   -33210   -33279   -33348   -33397 
  -33418   -33417   -33412   -33407   -33400   -33384   -33334   -33263 
  -33207   -33142   -33035   -32901   -32777   -32689   -32601   -32481 
  -32372   -32255   -32092   -31965   -31883   -31764   -31638   -31532 
  -31416   -31332   -31296   -31258   -31207   -31192   -31232   -31287 
  -31351   -31449   -31552   -31632   -31705   -31769   -31822   -31904 
  -32016   -32122   -32232   -32353   -32463   -32578   -32697   -32789 
  -32853   -32901   -32945   -32985   -33016   -33054   -33108   -33156 
  -33183   -33206   -33234   -33271   -33314   -33334   -33358   -33424 
  -33462   -33455   -33473   -33507   -33520   -33536   -33569   -33596 
  -33631   -33720   -33808   -33822   -33846   -34000   -34184   -34262 
  -34312   -34420   -34516   -34605   -34738   -34861   -34964   -35071 
  -35142   -35180   -35226   -35274   -35309   -35335   -35370   -35416 
  -35451   -35478   -35500   -35493   -35462   -35436   -35427   -35423 
  -35423   -35459   -35524   -35567   -35586   -35613   -35648   -35681 
  -35693   -35681   -35664   -35647   -35604   -35542   -35485   -35410 
  -35322   -35251   -35166   -35068   -34993   -34914   -34835   -34783 
  -34721   -34671   -34668   -34669   -34659   -34684   -34740   -34752 
  -34736   -34785   -34882   -34927   -34925   -34986   -35093   -35151 
  -35187   -35248   -35321   -35412   -35502   -35576   -35638   -35658 
  -35653   -35635   -35585   -35532   -35476   -35410   -35366   -35331 
  -35287   -35266   -35276   -35280   -35272   -35267   -35238   -35194 
  -35184   -35176   -35130   -35057   -34979   -34923   -34891   -34874 
  -34856   -34825   -34809   -34817   -34820   -34811   -34796   -34766 
  -34732   -34711   -34686   -34632   -34573   -34534   -34498   -34488 
  -34518   -34540   -34577   -34666   -34744   -34805   -34908   -34992 
  -34994   -35027   -35161   -35256   -35243   -35263   -35358   -35411 
  -35423   -35446   -35463   -35479   -35486   -35448   -35376   -35288 
  -35203   -35132   -35057   -34991   -34943   -34883   -34833   -34794 
  -34701   -34581   -34495   -34413   -34329   -34261   -34179   -34096 
  -34046   -33991   -33929   -33893   -33846   -33767   -33708   -33663 
  -33576   -33464   -33378   -33300   -33180   -33051   -32960   -32873 
  -32792   -32769   -32769   -32754   -32758   -32776   -32779   -32783 
  -32783   -32763   -32734   -32702   -32670   -32640   -32604   -32559 
  -32520   -32493   -32480   -32503   -32565   -32604   -32643   -32771 
  -32923   -33005   -33089   -33237   -33363   -33448   -33537   -33606 
  -33652   -33677   -33646   -33594   -33552   -33496   -33416   -33323 
  -33226   -33153   -33098   -33034   -32999   -33011   -33000   -32943 
  -32895   -32863   -32810   -32757   -32725   -32699   -32685   -32681 
  -32689   -32735   -32800   -32862   -32929   -32980   -33026   -33084 
  -33114   -33127   -33161   -33181   -33182   -33201   -33225   -33229 
  -33241   -33272   -33272   -33241   -33211   -33158   -33080   -33003 
  -32937   -32887   -32810   -32679   -32551   -32456   -32359   -32253 
  -32157   -32056   -31967   -31926   -31915   -31904   -31848   -31761 
  -31805   -31990   -32057   -32009   -32083   -32205   -32218   -32217 
  -32262   -32310   -32363   -32424   -32485   -32555   -32648   -32754 
  -32870   -33024   -33205   -33378   -33553   -33741   -33929   -34110 
  -34288   -34457   -34605   -34752   -34914   -35066   -35217   -35379 
  -35560   -35748   -35892   -36006   -36124   -36214   -36302   -36408 
  -36456   -36473   -36549   -36612   -36606   -36609   -36613   -36572 
  -36522   -36453   -36353   -36264   -36179   -36092   -35999   -35861 
  -35707   -35575   -35437   -35281   -35114   -34934   -34762   -34596 
  -34384   -34160   -34004   -33856   -33629   -33417   -33281   -33107 
  -32875   -32667   -32488   -32302   -32123   -31977   -31848   -31733 
  -31663   -31606   -31527   -31477   -31471   -31468   -31466   -31480 
  -31526   -31625   -31759   -31912   -32082   -32265   -32485   -32738 
  -32975   -33197   -33430   -33645   -33850   -34075   -34265   -34408 
  -34570   -34735   -34859   -34959   -35030   -35067   -35121   -35190 
  -35218   -35206   -35198   -35183   -35141   -35106   -35100   -35099 
  -35075   -35020   -34987   -34999   -35022   -35053   -35026   -34954 
  -34976   -34990   -34873   -34800   -34819   -34772   -34660   -34580 
  -34522   -34469   -34440   -34404   -34367   -34370   -34379   -34383 
  -34390   -34396   -34419   -34451   -34480   -34506   -34523   -34537 
  -34552   -34574   -34607   -34623   -34622   -34624   -34623   -34607 
  -34578   -34549   -34534   -34497   -34426   -34380   -34333   -34268 
  -34227   -34175   -34144   -34147   -34119   -34076   -34006   -33937 
  -33926   -33889   -33819   -33753   -33655   -33581   -33554   -33504 
  -33412   -33298   -33183   -33060   -32939   -32842   -32715   -32559 
  -32460   -32404   -32365   -32368   -32375   -32373   -32402   -32441 
  -32492   -32581   -32671   -32766   -32904   -33051   -33174   -33309 
  -33456   -33577   -33696   -33845   -34007   -34165   -34310   -34437 
  -34578   -34748   -34896   -35008   -35117   -35225   -35353   -35516 
  -35670   -35791   -35903   -36011   -36106   -36181   -36241   -36301 
  -36364   -36413   -36433   -36459   -36505   -36525   -36528   -36557 
  -36582   -36579   -36566   -36553   -36532   -36478   -36390   -36305 
  -36252   -36214   -36156   -36059   -35943   -35903   -35929   -35887 
  -35793   -35705   -35567   -35405   -35326   -35275   -35138   -34967 
  -34820   -34677   -34551   -34433   -34331   -34255   -34184   -34157 
  -34159   -34130   -34136   -34205   -34256   -34287   -34353   -34431 
  -34477   -34519   -34567   -34589   -34609   -34651   -34688   -34698 
  -34676   -34625   -34564   -34511   -34453   -34391   -34336   -34282 
  -34234   -34198   -34167   -34159   -34158   -34140   -34153   -34203 
  -34231   -34241   -34267   -34313   -34379   -34424   -34432   -34463 
  -34512   -34538   -34529   -34478   -34449   -34454   -34402   -34305 
  -34278   -34284   -34210   -34121   -34099   -34037   -33914   -33830 
  -33761   -33651   -33537   -33444   -33353   -33253   -33171   -33131 
  -33124   -33125   -33124   -33133   -33144   -33163   -33195   -33219 
  -33264   -33349   -33398   -33421   -33484   -33535   -33556   -33591 
  -33604   -33622   -33690   -33748   -33770   -33764   -33738   -33734 
  -33726   -33696   -33695   -33689   -33650   -33631   -33629   -33633 
  -33661   -33677   -33662   -33643   -33619   -33583   -33538   -33484 
  -33432   -33397   -33378   -33388   -33416   -33435   -33460   -33500 
  -33534   -33582   -33654   -33666   -33624   -33708   -33867   -33879 
  -33832   -33880   -33936   -33944   -33938   -33940   -33968   -33988 
  -33992   -34017   -34076   -34145   -34174   -34157   -34147   -34134 
  -34089   -34029   -33932   -33783   -33648   -33551   -33425   -33243 
  -33045   -32844   -32638   -32446   -32270   -32088   -31904   -31746 
  -31606   -31446   -31296   -31186   -31054   -30908   -30818   -30750 
  -30687   -30656   -30650   -30668   -30711   -30779   -30871   -30997 
  -31168   -31339   -31498   -31664   -31808   -31940   -32099   -32280 
  -32443   -32561   -32672   -32802   -32901   -32959   -33011   -33048 
  -33037   -32993   -32981   -33013   -33003   -32950   -32942   -32931 
  -32860   -32821   -32828   -32801   -32744   -32690   -32648   -32635 
  -32624   -32591   -32553   -32515   -32484   -32467   -32454   -32444 
  -32437   -32442   -32466   -32468   -32462   -32480   -32488   -32495 
  -32521   -32539   -32541   -32524   -32496   -32481   -32455   -32428 
  -32437   -32467   -32514   -32575   -32626   -32683   -32753   -32827 
  -32922   -33007   -33052   -33100   -33156   -33180   -33177   -33160 
  -33150   -33157   -33164   -33195   -33224   -33180   -33102   -33081 
  -33139   -33187   -33141   -33105   -33182   -33258   -33259   -33269 
  -33287   -33270   -33267   -33265   -33232   -33196   -33151   -33132 
  -33170   -33213   -33270   -33339   -33382   -33417   -33440   -33435 
  -33415   -33369   -33308   -33246   -33177   -33139   -33140   -33121 
  -33092   -33077   -33000   -32843   -32679   -32496   -32268   -32066 
  -31921   -31829   -31817   -31879   -32002   -32202   -32456   -32732 
  -32991   -33184   -33330   -33476   -33616   -33714   -33764   -33816 
  -33885   -33972   -34118   -34294   -34468   -34665   -34832   -34957 
  -35071   -35098   -35032   -34949   -34839   -34716   -34656   -34688 
  -34773   -34881   -35021   -35174   -35317   -35422   -35415   -35315 
  -35166   -34920   -34594   -34244   -33882   -33571   -33358   -33220 
  -33161   -33183   -33208   -33183   -33133   -33014   -32801   -32573 
  -32316   -32028   -31824   -31752   -31783   -31884   -32016   -32172 
  -32352   -32558   -32764   -32901   -32921   -32835   -32681   -32446 
  -32143   -31852   -31595   -31418   -31416   -31565   -31794   -32087 
  -32407   -32688   -32923   -33122   -33274   -33296   -33098   -32862 
  -32802   -32749   -32567   -32401   -32320   -32299   -32307   -32341 
  -32446   -32558   -32603   -32638   -32692   -32707   -32702   -32714 
  -32708   -32696   -32715   -32741   -32774   -32806   -32794   -32744 
  -32688   -32656   -32684   -32716   -32677   -32630   -32613   -32580 
  -32577   -32620   -32656   -32728   -32841   -32916   -32939   -32966 
  -33053   -33176   -33319   -33508   -33692   -33831   -33928   -33978 
  -34000   -33997   -33955   -33916   -33929   -33975   -34026   -34086 
  -34169   -34316   -34510   -34688   -34834   -34944   -35046   -35164 
  -35252   -35297   -35323   -35332   -35341   -35367   -35405   -35456 
  -35539   -35638   -35682   -35687   -35674   -35585   -35450   -35329 
  -35166   -34935   -34705   -34544   -34448   -34411   -34417   -34418 
  -34458   -34583   -34750   -34924   -35059   -35128   -35156   -35105 
  -34969   -34800   -34630   -34498   -34407   -34337   -34310   -34336 
  -34428   -34583   -34735   -34869   -34997   -35076   -35106   -35124 
  -35160   -35247   -35372   -35513   -35655   -35795   -35952   -36107 
  -36230   -36341   -36459   -36561   -36602   -36603   -36646   -36752 
  -36911   -37095   -37284   -37512   -37748   -37923   -38054   -38143 
  -38166   -38175   -38195   -38145   -37965   -37804   -37828   -37829 
  -37672   -37607   -37617   -37528   -37448   -37413   -37371   -37360 
  -37348   -37294   -37242   -37176   -37056   -36922   -36776   -36579 
  -36356   -36137   -35934   -35766   -35613   -35438   -35256   -35105 
  -34962   -34836   -34783   -34775   -34771   -34816   -34947   -35151 
  -35368   -35531   -35637   -35694   -35692   -35641   -35575   -35529 
  -35502   -35469   -35411   -35325   -35225   -35105   -34959   -34812 
  -34692   -34615   -34600   -34654   -34760   -34884   -35006   -35111 
  -35171   -35185   -35155   -35078   -34987   -34898   -34796   -34665 
  -34496   -34307   -34122   -33933   -33718   -33472   -33198   -32932 
  -32722   -32523   -32282   -32067   -31916   -31789   -31688   -31606 
  -31520   -31469   -31458   -31441   -31430   -31418   -31381   -31333 
  -31287   -31228   -31141   -31036   -30932   -30848   -30790   -30734 
  -30687   -30696   -30752   -30824   -30936   -31061   -31154   -31249 
  -31370   -31496   -31623   -31743   -31870   -32040   -32265   -32523 
  -32788   -33035   -33241   -33375   -33421   -33397   -33349   -33301 
  -33245   -33191   -33169   -33143   -33117   -33159   -33271   -33410 
  -33540   -33646   -33769   -33910   -34045   -34186   -34340   -34522 
  -34677   -34740   -34859   -35065   -35119   -35076   -35137   -35184 
  -35161   -35147   -35121   -35098   -35114   -35137   -35138   -35124 
  -35112   -35090   -35046   -34983   -34903   -34824   -34755   -34671 
  -34557   -34437   -34343   -34282   -34225   -34149   -34078   -34051 
  -34051   -34024   -33994   -33999   -33995   -33989   -34003   -33998 
  -33977   -33968   -33947   -33911   -33881   -33843   -33817   -33847 
  -33892   -33923   -33950   -33980   -34055   -34153   -34214   -34264 
  -34324   -34394   -34488   -34569   -34627   -34684   -34711   -34711 
  -34726   -34765   -34780   -34727   -34718   -34801   -34831   -34811 
  -34850   -34907   -34948   -34975   -34923   -34822   -34761   -34694 
  -34596   -34506   -34393   -34271   -34166   -34074   -34024   -33962 
  -33853   -33772   -33735   -33710   -33692   -33654   -33603   -33591 
  -33620   -33641   -33640   -33630   -33593   -33516   -33449   -33413 
  -33374   -33346   -33348   -33323   -33253   -33200   -33161   -33083 
  -32993   -32910   -32804   -32662   -32504   -32382   -32285   -32191 
  -32138   -32136   -32161   -32186   -32213   -32284   -32384   -32489 
  -32596   -32644   -32577   -32484   -32487   -32534   -32491   -32407 
  -32458   -32579   -32597   -32607   -32636   -32568   -32490   -32435 
  -32348   -32290   -32238   -32143   -32091   -32128   -32175   -32192 
  -32197   -32184   -32170   -32173   -32134   -32062   -31991   -31893 
  -31808   -31779   -31752   -31695   -31631   -31588   -31574   -31555 
  -31516   -31491   -31474   -31411   -31279   -31106   -30949   -30844 
  -30784   -30778   -30797   -30776   -30760   -30820   -30936   -31048 
  -31122   -31207   -31344   -31464   -31534   -31592   -31645   -31705 
  -31783   -31877   -32019   -32213   -32401   -32587   -32805   -33007 
  -33177   -33364   -33581   -33800   -33965   -34065   -34151   -34217 
  -34240   -34258   -34273   -34259   -34238   -34278   -34364   -34391 
  -34360   -34334   -34292   -34227   -34157   -34059   -33937   -33826 
  -33723   -33642   -33617   -33627   -33644   -33641   -33593   -33548 
  -33538   -33516   -33460   -33370   -33270   -33197   -33140   -33091 
  -33062   -33067   -33110   -33160   -33205   -33256   -33304   -33318 
  -33263   -33155   -33075   -33034   -32939   -32789   -32675   -32605 
  -32571   -32610   -32678   -32697   -32693   -32731   -32766   -32781 
  -32814   -32808   -32738   -32650   -32577   -32569   -32587   -32557 
  -32508   -32471   -32439   -32419   -32414   -32424   -32455   -32531 
  -32626   -32691   -32755   -32832   -32880   -32902   -32891   -32825 
  -32741   -32663   -32570   -32440   -32309   -32256   -32297   -32360 
  -32410   -32463   -32513   -32545   -32554   -32520   -32464   -32520 
  -32669   -32676   -32585   -32614   -32674   -32684   -32715   -32710 
  -32650   -32596   -32558   -32596   -32664   -32681   -32750   -32902 
  -33039   -33147   -33244   -33346   -33449   -33521   -33585   -33636 
  -33599   -33470   -33316   -33190   -33088   -33010   -32995   -33012 
  -33041   -33093   -33134   -33234   -33468   -33695   -33819   -33922 
  -34008   -34031   -34010   -33946   -33842   -33725   -33619   -33536 
  -33458   -33396   -33391   -33428   -33472   -33507   -33519   -33499 
  -33436   -33317   -33143   -32949   -32794   -32695   -32615   -32558 
  -32550   -32589   -32665   -32765   -32859   -32898   -32864   -32804 
  -32768   -32755   -32731   -32683   -32693   -32790   -32883   -32970 
  -33064   -33108   -33131   -33152   -33132   -33103   -33069   -33004 
  -32939   -32909   -32874   -32796   -32742   -32741   -32711   -32647 
  -32586   -32546   -32571   -32631   -32700   -32791   -32824   -32777 
  -32755   -32766   -32744   -32702   -32648   -32570   -32525   -32526 
  -32501   -32464   -32459   -32464   -32471   -32482   -32465   -32414 
  -32363   -32325   -32300   -32274   -32241   -32263   -32349   -32451 
  -32569   -32670   -32723   -32786   -32873   -32902   -32829   -32735 
  -32657   -32540   -32407   -32307   -32222   -32145   -32083   -32030 
  -31986   -31962   -31954   -31927   -31887   -31885   -31922   -31950 
  -31981   -32031   -32057   -32077   -32129   -32162   -32170   -32194 
  -32219   -32220   -32232   -32288   -32350   -32360   -32350   -32363 
  -32382   -32400   -32420   -32457   -32525   -32588   -32643   -32734 
  -32853   -32984   -33140   -33308   -33455   -33602   -33781   -33968 
  -34131   -34245   -34287   -34309   -34354   -34386   -34409   -34454 
  -34510   -34541   -34539   -34531   -34525   -34516   -34499   -34489 
