Origin Time       2011/03/11 14:46:00
Lat.              38.103
Long.             142.860
Depth. (km)       24
Mag.              9.0
Station Code      KYT001
Station Lat.      35.7404
Station Long.     135.1019
Station Height(m) 11
Record Time       2011/03/11 14:51:13
Sampling Freq(Hz) 100Hz
Duration Time(s)  67
Dir.              N-S
Scale Factor      3920(gal)/6182761
Max. Acc. (gal)   2.050
Last Correction   2011/03/11 14:50:58
Memo.             
   78326    78261    78209    78151    78091    78045    77993    77915 
   77830    77776    77749    77717    77682    77654    77626    77608 
   77602    77597    77585    77575    77579    77590    77579    77558 
   77562    77574    77568    77563    77572    77577    77560    77541 
   77545    77546    77534    77536    77543    77540    77545    77561 
   77568    77559    77551    77574    77616    77632    77631    77660 
   77700    77723    77743    77767    77786    77808    77860    77915 
   77932    77954    77999    78019    78020    78032    78040    78035 
   78030    78029    78013    77986    77966    77954    77945    77934 
   77920    77908    77896    77884    77875    77880    77883    77867 
   77851    77849    77837    77805    77788    77777    77737    77708 
   77707    77689    77657    77638    77631    77633    77633    77646 
   77674    77694    77728    77795    77850    77880    77925    77988 
   78042    78077    78122    78179    78219    78261    78326    78385 
   78417    78441    78496    78571    78625    78662    78695    78718 
   78742    78784    78828    78840    78832    78841    78854    78844 
   78831    78831    78829    78815    78810    78812    78795    78768 
   78764    78783    78799    78805    78821    78841    78844    78861 
   78913    78965    78997    79031    79086    79150    79203    79237 
   79264    79291    79332    79400    79460    79486    79504    79540 
   79577    79607    79627    79633    79641    79655    79667    79680 
   79686    79687    79713    79754    79767    79763    79773    79779 
   79764    79754    79756    79743    79712    79692    79696    79688 
   79641    79584    79534    79481    79432    79396    79355    79299 
   79243    79201    79158    79104    79054    79016    78975    78923 
   78869    78819    78770    78723    78692    78660    78610    78547 
   78482    78420    78369    78343    78336    78312    78265    78222 
   78187    78152    78132    78130    78121    78105    78096    78074 
   78040    78008    77983    77975    77972    77956    77935    77924 
   77923    77922    77929    77953    77977    78002    78036    78055 
   78056    78070    78101    78131    78151    78164    78171    78164 
   78148    78139    78133    78120    78110    78115    78106    78072 
   78040    78032    78037    78043    78058    78079    78081    78077 
   78088    78109    78129    78162    78215    78262    78280    78295 
   78342    78406    78462    78520    78594    78657    78699    78752 
   78812    78859    78914    78988    79049    79080    79113    79168 
   79231    79288    79346    79408    79463    79520    79607    79707 
   79783    79859    79955    80043    80115    80207    80328    80443 
   80538    80637    80740    80831    80910    80991    81076    81138 
   81184    81231    81244    81229    81232    81250    81242    81210 
   81187    81163    81118    81067    81012    80947    80881    80822 
   80768    80710    80634    80546    80467    80409    80356    80301 
   80240    80157    80077    80021    79950    79853    79772    79709 
   79624    79510    79411    79330    79228    79115    79011    78912 
   78813    78711    78627    78562    78489    78420    78366    78309 
   78256    78233    78236    78230    78220    78223    78218    78204 
   78222    78269    78307    78323    78339    78372    78387    78366 
   78372    78416    78448    78463    78481    78492    78481    78470 
   78498    78544    78569    78590    78624    78653    78673    78703 
   78764    78849    78925    78994    79055    79095    79140    79212 
   79289    79340    79370    79398    79408    79388    79369    79364 
   79356    79346    79339    79327    79294    79254    79237    79227 
   79209    79216    79245    79257    79258    79279    79333    79403 
   79476    79545    79602    79657    79730    79815    79886    79949 
   80019    80085    80140    80174    80195    80218    80224    80229 
   80283    80371    80446    80505    80500    80364    80282    80417 
   80557    80583    80683    80815    80775    80703    80762    80808 
   80857    80968    81019    81095    81152    81019    80932    81121 
   81361    81219    80883    81062    81339    81051    80927    81103 
   81015    80994    80851    80463    80655    80869    80442    80371 
   80580    80328    80190    80207    80060    80229    80341    80006 
   79994    80187    79939    79766    80051    80256    80095    79873 
   79811    79941    80172    80223    80119    80092    80031    80022 
   80164    80159    80141    80351    80490    80437    80329    80219 
   80254    80539    80796    80740    80619    80667    80693    80690 
   80794    80887    80965    81093    81044    80839    80849    80951 
   80937    80988    80990    80912    80937    80866    80789    80893 
   80852    80772    80871    80798    80653    80756    80831    80755 
   80721    80705    80661    80652    80655    80631    80637    80698 
   80751    80722    80531    80338    80458    80621    80510    80364 
   80190    80067    80226    80201    79821    79670    79750    79654 
   79553    79628    79472    78995    78824    79169    79366    78982 
   78532    78516    78680    78749    78707    78474    78260    78399 
   78561    78477    78324    78042    78001    78391    78466    78109 
   77821    77902    78197    78197    78048    77946    77718    77734 
   78085    78189    77927    77671    77786    78288    78357    77644 
   77464    78358    78857    78289    77682    77713    78354    79043 
   78813    78077    78142    78796    79003    78727    78403    78396 
   78929    79194    78811    78715    78834    78678    78854    79259 
   79096    78672    78498    78705    79201    79185    78894    79059 
   79024    79094    79439    79031    78798    79187    79469    79991 
   79795    78963    79329    79826    79802    80164    79765    79003 
   79784    80702    80250    79822    79981    79920    79764    79675 
   79598    79569    79652    80463    81311    80724    79320    78646 
   79499    80860    80759    79847    79842    80077    79949    79993 
   79973    79855    79896    80032    80394    80436    79994    79829 
   79920    80384    81051    80702    79744    79611    80173    80941 
   81625    81272    80053    79435    79664    80386    81619    82205 
   80976    79416    79491    80556    81367    81432    80369    79865 
   81244    81731    80255    79687    80391    80808    81180    81348 
   80555    79719    79910    80634    80982    80757    80448    80267 
   79984    79998    80425    80437    80064    79903    79776    79620 
   79683    79731    79710    79874    79800    79172    78719    78726 
   78713    78858    79133    79089    79014    78949    78545    78066 
   78067    78517    78677    78364    78090    77944    77890    78039 
   78065    77718    77687    78310    78475    77653    76927    77085 
   77717    78140    78012    77445    77204    77569    77627    77185 
   76958    77169    77734    78097    77609    76893    76796    77139 
   77684    78099    77849    77312    77068    77087    77372    77695 
   77569    77333    77588    77699    77126    76912    77443    77647 
   77445    77413    77457    77616    77618    76976    76633    77380 
   78086    77930    77515    77267    77188    77446    77877    78035 
   77957    77828    77709    77830    78064    78010    77979    78430 
   78796    78562    78277    78192    78206    78552    78869    78853 
   78746    78548    78554    78877    78976    78861    78925    79095 
   79103    78978    79053    79269    79099    78914    79275    79466 
   79222    79107    79135    79274    79423    79426    79533    79543 
   79205    79077    79416    79818    79957    79816    79755    79902 
   79867    79705    79879    80328    80518    80231    79980    80223 
   80574    80499    80229    80332    80656    80688    80522    80402 
   80313    80388    80693    80982    80952    80525    80124    80253 
   80631    80671    80440    80301    80383    80535    80402    80105 
   80069    80065    79927    79994    80145    80100    79992    79826 
   79566    79449    79571    79641    79414    79201    79294    79352 
   79165    78883    78610    78607    78925    79118    78832    78253 
   78036    78360    78526    78271    78037    77962    78012    78103 
   78005    77819    77711    77672    77738    77710    77515    77407 
   77388    77397    77393    77268    77174    77119    76975    76908 
   76900    76781    76710    76757    76721    76608    76536    76470 
   76372    76272    76273    76413    76419    76214    76154    76267 
   76273    76164    76061    76044    76135    76239    76350    76497 
   76421    76065    75991    76322    76557    76661    76689    76465 
   76346    76587    76797    76846    76843    76754    76763    76944 
   76988    76898    76893    77022    77286    77474    77465    77477 
   77651    77940    78119    78092    78141    78364    78545    78570 
   78562    78665    78745    78701    78715    78868    78971    78837 
   78600    78516    78559    78630    78708    78678    78504    78369 
   78354    78408    78523    78551    78487    78608    78814    78864 
   78909    78935    78877    79085    79482    79556    79419    79392 
   79399    79394    79403    79380    79356    79371    79329    79202 
   79084    78982    78885    78882    78980    79009    78891    78807 
   78899    79072    79245    79404    79445    79472    79726    79997 
   80047    80098    80210    80139    79951    79902    80004    80200 
   80431    80490    80333    80231    80256    80238    80257    80336 
   80272    80198    80234    80123    79919    79910    80022    80101 
   80205    80308    80258    80144    80175    80250    80248    80298 
   80351    80304    80359    80518    80568    80539    80436    80259 
   80249    80438    80522    80404    80234    80144    80194    80277 
   80238    80121    80024    79958    79982    80127    80259    80274 
   80253    80258    80338    80533    80666    80615    80510    80430 
   80346    80266    80234    80240    80127    79865    79742    79829 
   79827    79667    79510    79427    79435    79399    79223    79124 
   79162    79156    79075    78955    78837    78826    78854    78770 
   78669    78608    78495    78455    78515    78455    78297    78161 
   78027    77931    77921    77893    77767    77626    77520    77370 
   77205    77162    77170    77080    76989    76932    76798    76738 
   76837    76873    76835    76872    76930    76981    77003    76882 
   76758    76821    76913    76888    76828    76720    76581    76616 
   76763    76737    76599    76548    76585    76680    76732    76728 
   76816    76946    77005    77035    77067    77131    77245    77359 
   77455    77518    77555    77629    77727    77801    77880    77973 
   78083    78273    78458    78452    78349    78386    78525    78604 
   78602    78585    78613    78657    78645    78611    78615    78690 
   78845    78957    78943    78913    78935    79022    79170    79226 
   79193    79260    79362    79380    79434    79518    79532    79609 
   79800    79876    79745    79614    79651    79799    79938    80033 
   80075    80074    80064    80017    79945    79944    80022    80073 
   80035    79948    79858    79837    79890    79913    79941    80013 
   80020    79969    79971    80010    80034    80079    80113    80037 
   79939    79973    80046    79994    79889    79842    79809    79760 
   79735    79750    79809    79854    79797    79719    79772    79880 
   79924    79962    79983    79910    79839    79833    79810    79788 
   79823    79850    79828    79834    79877    79872    79827    79824 
   79878    79932    79907    79814    79769    79799    79856    79914 
   79891    79793    79768    79849    79930    79942    79861    79787 
   79832    79920    79980    80026    79975    79882    79930    80051 
   80065    79987    79925    79940    79989    79962    79887    79890 
   79950    80003    79998    79838    79617    79579    79706    79792 
   79770    79684    79609    79584    79583    79609    79685    79756 
   79730    79632    79605    79673    79729    79737    79756    79830 
   79892    79866    79830    79873    79949    79982    80000    80042 
   80083    80096    80050    80003    80091    80213    80199    80130 
   80107    80125    80165    80191    80170    80114    80075    80091 
   80138    80175    80153    80020    79871    79848    79894    79868 
   79785    79744    79748    79743    79742    79778    79803    79783 
   79745    79723    79738    79762    79740    79685    79638    79604 
   79617    79696    79722    79636    79570    79613    79683    79678 
   79629    79655    79738    79764    79726    79642    79513    79454 
   79506    79521    79475    79474    79480    79437    79392    79347 
   79316    79361    79423    79395    79300    79230    79223    79236 
   79219    79165    79097    79049    79010    78958    78924    78931 
   78935    78898    78848    78810    78791    78814    78870    78903 
   78922    78986    79053    79023    78957    78991    79097    79145 
   79119    79081    79035    78990    78989    79007    78989    78933 
   78884    78859    78818    78771    78724    78666    78660    78682 
   78636    78544    78441    78344    78317    78335    78278    78182 
   78130    78044    77912    77871    77937    77961    77886    77818 
   77807    77806    77793    77776    77769    77757    77718    77706 
   77732    77729    77697    77665    77635    77623    77621    77585 
   77538    77552    77615    77630    77577    77543    77550    77546 
   77532    77516    77500    77542    77641    77670    77613    77582 
   77607    77650    77680    77688    77741    77803    77776    77734 
   77766    77858    77968    78021    77984    77916    77903    77979 
   78074    78134    78158    78134    78119    78135    78139    78189 
   78313    78395    78415    78438    78433    78415    78477    78581 
   78669    78739    78752    78764    78846    78928    78989    79058 
   79068    79083    79208    79307    79309    79356    79460    79537 
   79592    79642    79716    79830    79906    79943    80021    80093 
   80116    80170    80263    80310    80335    80417    80491    80513 
   80577    80661    80684    80704    80747    80798    80869    80916 
   80937    80988    81042    81093    81148    81174    81175    81181 
   81197    81236    81292    81316    81318    81342    81364    81367 
   81382    81421    81438    81398    81393    81481    81567    81583 
   81536    81476    81475    81504    81497    81460    81422    81388 
   81344    81292    81271    81262    81195    81108    81072    81024 
   80908    80784    80687    80610    80554    80498    80427    80323 
   80205    80165    80140    79983    79815    79782    79759    79653 
   79527    79374    79191    79085    79069    79037    78982    78897 
   78700    78446    78267    78214    78266    78309    78208    77997 
   77814    77703    77633    77605    77612    77597    77544    77459 
   77316    77168    77137    77238    77307    77234    77100    76982 
   76909    76930    77004    77026    76989    76971    76987    76960 
   76879    76856    76939    77029    77055    77059    77078    77102 
   77115    77110    77137    77234    77328    77340    77335    77415 
   77538    77589    77596    77658    77756    77840    77944    78071 
   78151    78188    78246    78326    78397    78457    78525    78614 
   78705    78761    78798    78848    78885    78917    79004    79115 
   79187    79222    79229    79237    79268    79294    79320    79392 
   79464    79464    79444    79463    79490    79521    79560    79573 
   79610    79693    79688    79586    79535    79566    79614    79608 
   79520    79445    79469    79520    79520    79469    79390    79388 
   79483    79541    79526    79502    79484    79461    79417    79385 
   79393    79403    79413    79430    79394    79317    79282    79297 
   79340    79366    79343    79318    79316    79307    79318    79380 
   79428    79421    79414    79436    79451    79456    79490    79546 
   79557    79532    79563    79624    79654    79690    79751    79801 
   79826    79855    79901    79926    79916    79903    79911    79941 
   79973    80003    80004    79962    79942    79966    79971    79931 
   79891    79877    79846    79796    79775    79762    79727    79698 
   79673    79631    79591    79567    79556    79537    79493    79442 
   79421    79424    79396    79346    79322    79294    79255    79252 
   79261    79243    79221    79219    79230    79215    79151    79095 
   79108    79175    79227    79219    79178    79163    79175    79191 
   79204    79212    79218    79224    79224    79199    79157    79131 
   79118    79107    79107    79108    79083    79015    78920    78857 
   78871    78913    78890    78793    78713    78686    78655    78614 
   78584    78517    78435    78417    78409    78328    78221    78168 
   78175    78177    78117    78031    77995    77996    77962    77911 
   77901    77916    77915    77922    77952    77974    77976    77995 
   78072    78168    78210    78234    78287    78333    78350    78385 
   78483    78574    78588    78603    78673    78722    78741    78772 
   78804    78845    78892    78912    78935    78966    78979    79012 
   79060    79070    79057    79063    79105    79176    79217    79183 
   79151    79183    79234    79261    79255    79265    79311    79336 
   79345    79375    79411    79462    79519    79543    79549    79563 
   79587    79627    79652    79652    79665    79685    79699    79720 
   79725    79703    79699    79708    79675    79639    79651    79650 
   79634    79637    79603    79551    79537    79510    79471    79478 
   79484    79453    79418    79362    79283    79238    79237    79234 
   79197    79130    79067    79031    79016    78996    78956    78925 
   78924    78914    78857    78789    78769    78795    78801    78754 
   78710    78720    78741    78728    78725    78750    78765    78777 
   78786    78775    78786    78814    78825    78846    78861    78851 
   78859    78896    78926    78927    78924    78965    79041    79105 
   79134    79146    79184    79227    79230    79243    79292    79324 
   79327    79322    79322    79339    79359    79359    79348    79333 
   79290    79262    79300    79312    79239    79184    79200    79203 
   79129    79040    79019    79039    79030    78985    78912    78823 
   78758    78727    78700    78672    78649    78615    78541    78456 
   78428    78438    78420    78377    78338    78314    78291    78256 
   78246    78261    78236    78199    78201    78181    78122    78116 
   78164    78178    78154    78144    78148    78148    78158    78182 
   78191    78169    78172    78243    78334    78373    78357    78354 
   78392    78442    78509    78567    78565    78557    78605    78667 
   78694    78694    78693    78715    78770    78834    78855    78826 
   78803    78835    78921    78995    78994    78957    78954    79001 
   79092    79186    79217    79214    79253    79333    79429    79509 
