Origin Time       2011/03/11 14:46:00
Lat.              38.103
Long.             142.860
Depth. (km)       24
Mag.              9.0
Station Code      KYT002
Station Lat.      35.6038
Station Long.     134.8945
Station Height(m) 3
Record Time       2011/03/11 14:51:06
Sampling Freq(Hz) 100Hz
Duration Time(s)  60
Dir.              N-S
Scale Factor      3920(gal)/6182761
Max. Acc. (gal)   2.169
Last Correction   2011/03/11 14:50:51
Memo.             
  -37330   -37378   -37419   -37422   -37431   -37450   -37436   -37431 
  -37451   -37437   -37413   -37412   -37400   -37390   -37383   -37357 
  -37348   -37355   -37331   -37299   -37280   -37254   -37239   -37229 
  -37205   -37195   -37181   -37136   -37109   -37106   -37087   -37077 
  -37081   -37086   -37114   -37137   -37139   -37168   -37212   -37223 
  -37229   -37260   -37293   -37321   -37344   -37338   -37324   -37322 
  -37323   -37362   -37423   -37463   -37539   -37643   -37686   -37721 
  -37807   -37874   -37924   -38009   -38079   -38131   -38202   -38260 
  -38313   -38387   -38437   -38477   -38547   -38612   -38668   -38726 
  -38731   -38710   -38737   -38748   -38716   -38712   -38700   -38654 
  -38635   -38589   -38499   -38439   -38374   -38294   -38248   -38189 
  -38126   -38100   -38046   -37974   -37940   -37892   -37823   -37791 
  -37780   -37769   -37774   -37790   -37813   -37853   -37880   -37889 
  -37928   -37987   -38039   -38106   -38155   -38172   -38199   -38213 
  -38191   -38180   -38169   -38136   -38114   -38070   -38002   -37967 
  -37922   -37852   -37815   -37781   -37729   -37706   -37698   -37682 
  -37697   -37725   -37728   -37747   -37789   -37826   -37871   -37913 
  -37943   -37996   -38050   -38081   -38147   -38226   -38260   -38299 
  -38342   -38356   -38386   -38411   -38397   -38382   -38356   -38301 
  -38260   -38209   -38097   -37988   -37927   -37843   -37728   -37625 
  -37515   -37405   -37318   -37205   -37087   -37019   -36947   -36862 
  -36814   -36746   -36659   -36613   -36568   -36515   -36499   -36477 
  -36442   -36449   -36466   -36491   -36559   -36618   -36654   -36721 
  -36805   -36901   -37039   -37181   -37304   -37461   -37631   -37756 
  -37899   -38075   -38192   -38289   -38423   -38536   -38658   -38812 
  -38907   -38979   -39090   -39169   -39225   -39303   -39354   -39392 
  -39439   -39437   -39411   -39397   -39343   -39283   -39233   -39125 
  -39008   -38932   -38825   -38698   -38592   -38440   -38257   -38145 
  -38073   -37977   -37898   -37836   -37776   -37755   -37736   -37697 
  -37684   -37656   -37591   -37554   -37523   -37464   -37418   -37384 
  -37328   -37262   -37190   -37116   -37076   -37046   -36991   -36960 
  -36939   -36878   -36823   -36776   -36682   -36589   -36527   -36443 
  -36361   -36313   -36242   -36158   -36112   -36066   -36031   -36054 
  -36081   -36094   -36149   -36236   -36318   -36395   -36456   -36535 
  -36662   -36766   -36819   -36899   -37004   -37071   -37120   -37169 
  -37198   -37241   -37290   -37300   -37330   -37401   -37446   -37499 
  -37574   -37607   -37635   -37695   -37734   -37775   -37838   -37895 
  -37959   -38025   -38046   -38057   -38086   -38064   -38025   -38032 
  -37995   -37928   -37918   -37894   -37836   -37782   -37696   -37608 
  -37539   -37438   -37329   -37239   -37131   -37009   -36896   -36777 
  -36657   -36563   -36483   -36409   -36348   -36285   -36235   -36243 
  -36269   -36279   -36306   -36334   -36348   -36383   -36420   -36460 
  -36533   -36607   -36679   -36775   -36864   -36948   -37060   -37170 
  -37265   -37374   -37495   -37610   -37741   -37874   -37989   -38126 
  -38262   -38346   -38434   -38518   -38515   -38483   -38488   -38472 
  -38420   -38359   -38270   -38187   -38128   -38032   -37916   -37821 
  -37717   -37604   -37485   -37343   -37216   -37123   -37017   -36907 
  -36819   -36708   -36596   -36539   -36484   -36424   -36412   -36402 
  -36408   -36458   -36476   -36457   -36470   -36548   -36692   -36852 
  -36982   -37113   -37288   -37487   -37672   -37842   -37974   -38068 
  -38194   -38346   -38468   -38559   -38631   -38708   -38802   -38872 
  -38901   -38902   -38875   -38838   -38798   -38702   -38547   -38390 
  -38281   -38229   -38160   -38039   -37948   -37899   -37866   -37872 
  -37869   -37838   -37840   -37841   -37823   -37820   -37822   -37869 
  -37977   -38083   -38173   -38254   -38311   -38372   -38450   -38505 
  -38524   -38529   -38534   -38536   -38500   -38407   -38295   -38206 
  -38120   -38007   -37894   -37805   -37754   -37730   -37654   -37531 
  -37446   -37382   -37326   -37321   -37331   -37336   -37375   -37475 
  -37654   -37840   -37919   -37966   -38099   -38254   -38357   -38431 
  -38516   -38658   -38840   -38986   -39097   -39205   -39292   -39372 
  -39453   -39468   -39401   -39335   -39309   -39280   -39218   -39108 
  -38956   -38834   -38742   -38584   -38380   -38226   -38125   -38048 
  -37966   -37846   -37702   -37586   -37540   -37553   -37552   -37526 
  -37552   -37624   -37685   -37746   -37798   -37838   -37921   -38031 
  -38135   -38270   -38439   -38610   -38781   -38937   -39050   -39144 
  -39247   -39335   -39407   -39469   -39502   -39520   -39540   -39534 
  -39500   -39447   -39359   -39269   -39192   -39100   -39031   -38998 
  -38962   -38942   -38937   -38902   -38856   -38816   -38743   -38678 
  -38649   -38585   -38525   -38520   -38487   -38440   -38413   -38363 
  -38308   -38271   -38218   -38159   -38115   -38059   -38003   -37982 
  -37971   -37948   -37917   -37895   -37890   -37882   -37863   -37822 
  -37777   -37742   -37695   -37657   -37619   -37564   -37542   -37517 
  -37485   -37507   -37537   -37546   -37565   -37578   -37592   -37634 
  -37682   -37722   -37783   -37865   -37953   -38031   -38107   -38221 
  -38324   -38391   -38482   -38565   -38631   -38723   -38817   -38895 
  -38962   -39052   -39165   -39236   -39295   -39366   -39395   -39403 
  -39412   -39398   -39376   -39351   -39311   -39243   -39169   -39104 
  -39022   -38924   -38836   -38756   -38681   -38610   -38556   -38526 
  -38513   -38518   -38537   -38579   -38637   -38684   -38739   -38793 
  -38824   -38863   -38908   -38949   -38979   -39007   -39062   -39104 
  -39125   -39155   -39181   -39245   -39330   -39399   -39482   -39530 
  -39528   -39520   -39478   -39400   -39291   -39127   -38929   -38709 
  -38466   -38226   -37979   -37734   -37497   -37249   -37039   -36881 
  -36718   -36593   -36544   -36505   -36476   -36476   -36489   -36530 
  -36576   -36621   -36707   -36795   -36870   -36974   -37086   -37198 
  -37291   -37339   -37439   -37594   -37719   -37850   -37992   -38123 
  -38272   -38392   -38485   -38597   -38669   -38723   -38809   -38847 
  -38854   -38903   -38926   -38916   -38921   -38888   -38828   -38819 
  -38792   -38718   -38686   -38641   -38539   -38467   -38387   -38246 
  -38134   -38056   -37957   -37898   -37873   -37799   -37751   -37769 
  -37742   -37720   -37769   -37777   -37780   -37852   -37904   -37969 
  -38079   -38153   -38236   -38370   -38493   -38620   -38758   -38864 
  -38966   -39080   -39129   -39125   -39157   -39159   -39074   -39003 
  -38945   -38834   -38733   -38648   -38530   -38441   -38399   -38350 
  -38323   -38341   -38382   -38450   -38524   -38612   -38755   -38897 
  -39008   -39148   -39307   -39437   -39561   -39696   -39812   -39923 
  -40069   -40206   -40311   -40443   -40567   -40658   -40772   -40848 
  -40848   -40849   -40825   -40737   -40623   -40467   -40282   -40100 
  -39895   -39671   -39444   -39194   -38953   -38771   -38633   -38509 
  -38422   -38375   -38316   -38261   -38225   -38144   -38055   -38001 
  -37916   -37834   -37799   -37740   -37685   -37684   -37672   -37648 
  -37657   -37679   -37714   -37765   -37785   -37783   -37819   -37881 
  -37909   -37917   -37924   -37928   -37956   -37998   -38024   -38048 
  -38068   -38099   -38173   -38235   -38262   -38306   -38344   -38355 
  -38414   -38524   -38607   -38686   -38820   -38957   -39049   -39140 
  -39234   -39286   -39327   -39383   -39398   -39387   -39411   -39425 
  -39404   -39422   -39459   -39449   -39437   -39450   -39460   -39475 
  -39473   -39436   -39407   -39351   -39232   -39106   -38962   -38783 
  -38631   -38489   -38309   -38162   -38064   -37948   -37853   -37792 
  -37706   -37640   -37618   -37579   -37549   -37533   -37484   -37431 
  -37385   -37318   -37237   -37158   -37100   -37054   -37012   -37000 
  -37010   -37055   -37160   -37257   -37329   -37429   -37551   -37672 
  -37773   -37844   -37891   -37922   -37966   -38023   -38063   -38079 
  -38091   -38107   -38106   -38083   -38070   -38057   -38031   -38010 
  -37969   -37914   -37881   -37823   -37747   -37710   -37654   -37584 
  -37582   -37607   -37613   -37644   -37685   -37704   -37765   -37868 
  -37938   -38007   -38093   -38158   -38240   -38350   -38445   -38557 
  -38683   -38770   -38857   -38939   -38966   -38990   -38985   -38910 
  -38861   -38819   -38721   -38642   -38574   -38469   -38394   -38344 
  -38276   -38255   -38279   -38297   -38345   -38407   -38453   -38523 
  -38593   -38635   -38709   -38805   -38888   -39017   -39164   -39279 
  -39423   -39583   -39689   -39802   -39921   -39981   -40044   -40123 
  -40146   -40154   -40158   -40108   -40072   -40063   -40004   -39956 
  -39937   -39865   -39789   -39730   -39641   -39571   -39517   -39424 
  -39345   -39268   -39135   -39014   -38925   -38799   -38691   -38624 
  -38502   -38359   -38260   -38123   -37958   -37825   -37678   -37527 
  -37412   -37288   -37159   -37046   -36916   -36790   -36707   -36621 
  -36530   -36480   -36443   -36398   -36383   -36372   -36330   -36317 
  -36344   -36357   -36368   -36409   -36462   -36535   -36646   -36768 
  -36885   -37039   -37232   -37426   -37641   -37884   -38126   -38391 
  -38669   -38914   -39161   -39403   -39579   -39748   -39947   -40087 
  -40185   -40301   -40367   -40389   -40425   -40409   -40335   -40297 
  -40252   -40127   -39991   -39857   -39675   -39506   -39342   -39105 
  -38877   -38693   -38466   -38253   -38094   -37917   -37765   -37671 
  -37547   -37420   -37351   -37269   -37170   -37137   -37125   -37090 
  -37096   -37120   -37120   -37160   -37209   -37200   -37219   -37278 
  -37286   -37302   -37362   -37390   -37426   -37529   -37625   -37721 
  -37902   -38111   -38292   -38505   -38719   -38895   -39082   -39249 
  -39379   -39530   -39671   -39777   -39894   -40008   -40090   -40166 
  -40242   -40307   -40388   -40481   -40547   -40609   -40679   -40725 
  -40768   -40819   -40832   -40827   -40842   -40845   -40845   -40860 
  -40855   -40862   -40883   -40857   -40818   -40809   -40793   -40770 
  -40745   -40690   -40610   -40523   -40417   -40294   -40169   -40027 
  -39843   -39641   -39421   -39159   -38901   -38662   -38399   -38143 
  -37911   -37668   -37429   -37209   -36986   -36778   -36599   -36435 
  -36320   -36274   -36234   -36213   -36241   -36254   -36287   -36377 
  -36466   -36586   -36755   -36933   -37150   -37388   -37600   -37811 
  -38035   -38265   -38503   -38745   -38987   -39222   -39447   -39648 
  -39813   -39962   -40087   -40184   -40274   -40317   -40304   -40281 
  -40235   -40168   -40108   -40024   -39902   -39780   -39649   -39515 
  -39414   -39294   -39157   -39077   -38997   -38873   -38777   -38705 
  -38612   -38558   -38542   -38482   -38439   -38469   -38494   -38522 
  -38615   -38713   -38793   -38896   -38995   -39053   -39100   -39148 
  -39150   -39126   -39147   -39127   -38994   -38886   -38801   -38642 
  -38555   -38531   -38347   -38156   -38279   -38451   -38310   -38280 
  -38473   -38504   -38609   -38744   -38713   -38861   -39018   -39065 
  -39151   -39023   -38883   -39003   -39188   -39315   -39228   -39140 
  -39356   -39571   -39691   -39776   -39601   -39453   -39748   -40196 
  -40322   -40190   -40134   -40076   -39953   -40043   -40249   -40244 
  -40125   -40096   -40055   -39956   -39993   -40047   -39916   -39808 
  -39828   -39853   -39830   -39719   -39602   -39510   -39354   -39165 
  -38991   -38944   -38972   -38843   -38697   -38634   -38539   -38555 
  -38600   -38466   -38429   -38517   -38465   -38446   -38556   -38656 
  -38792   -38893   -38860   -38899   -39075   -39178   -39238   -39419 
  -39660   -39822   -39852   -39883   -40086   -40250   -40212   -40251 
  -40473   -40737   -41016   -41219   -41235   -41171   -41241   -41499 
  -41738   -41766   -41655   -41593   -41672   -41739   -41622   -41403 
  -41219   -41109   -41048   -40988   -40886   -40689   -40474   -40343 
  -40231   -40078   -39854   -39512   -39111   -38751   -38467   -38188 
  -37857   -37568   -37338   -37097   -36858   -36628   -36457   -36391 
  -36328   -36318   -36460   -36594   -36696   -36834   -36942   -37077 
  -37298   -37594   -37916   -38162   -38444   -38810   -39107   -39360 
  -39649   -39972   -40227   -40330   -40496   -40774   -40986   -41234 
  -41514   -41573   -41503   -41554   -41668   -41680   -41517   -41255 
  -41048   -40881   -40628   -40289   -39896   -39431   -39040   -38788 
  -38519   -38264   -38036   -37715   -37398   -37174   -37047   -37031 
  -36982   -36764   -36517   -36413   -36413   -36457   -36586   -36768 
  -36874   -36932   -37086   -37302   -37541   -37819   -38071   -38339 
  -38613   -38852   -39091   -39266   -39433   -39710   -39951   -40046 
  -40080   -40159   -40306   -40430   -40428   -40348   -40330   -40385 
  -40343   -40112   -39878   -39772   -39713   -39625   -39445   -39240 
  -39102   -38939   -38784   -38722   -38650   -38545   -38442   -38361 
  -38314   -38248   -38223   -38244   -38188   -38144   -38205   -38306 
  -38407   -38503   -38584   -38569   -38517   -38700   -38998   -39102 
  -39133   -39131   -39074   -39163   -39304   -39353   -39431   -39501 
  -39528   -39608   -39619   -39498   -39484   -39531   -39423   -39335 
  -39394   -39416   -39312   -39231   -39320   -39462   -39559   -39608 
  -39518   -39374   -39332   -39406   -39509   -39470   -39332   -39286 
  -39310   -39374   -39437   -39376   -39231   -39084   -38985   -38980 
  -38955   -38826   -38778   -38942   -39134   -39146   -39005   -38876 
  -38909   -39069   -39196   -39220   -39194   -39230   -39254   -39061 
  -38783   -38771   -39034   -39277   -39306   -39151   -38946   -38765 
  -38640   -38625   -38664   -38728   -38924   -39095   -38988   -38722 
  -38546   -38548   -38620   -38682   -38712   -38484   -37974   -37613 
  -37736   -38115   -38268   -38218   -38142   -37910   -37683   -37636 
  -37540   -37483   -37721   -37981   -37879   -37580   -37511   -37685 
  -37770   -37604   -37355   -37354   -37603   -37732   -37672   -37593 
  -37513   -37546   -37764   -37919   -37865   -37791   -37881   -38085 
  -38166   -37938   -37635   -37608   -37727   -37794   -37803   -37722 
  -37647   -37650   -37702   -37865   -37974   -37854   -37733   -37710 
  -37650   -37575   -37557   -37573   -37559   -37491   -37448   -37480 
  -37464   -37342   -37315   -37468   -37653   -37732   -37601   -37446 
  -37560   -37762   -37805   -37814   -37854   -37748   -37562   -37574 
  -37716   -37864   -38043   -38092   -38038   -38081   -38131   -38105 
  -38050   -37991   -37983   -38021   -38015   -37978   -38029   -38159 
  -38222   -38117   -37873   -37680   -37659   -37709   -37698   -37567 
  -37432   -37420   -37383   -37249   -37178   -37189   -37187   -37168 
  -37159   -37192   -37253   -37224   -37109   -37165   -37394   -37358 
  -37073   -36968   -37033   -37225   -37576   -37779   -37723   -37558 
  -37474   -37651   -37909   -38058   -38184   -38303   -38470   -38697 
  -38791   -38795   -38891   -38963   -38994   -39188   -39464   -39620 
  -39710   -39795   -39793   -39761   -39775   -39744   -39712   -39751 
  -39722   -39615   -39504   -39357   -39243   -39163   -38979   -38766 
  -38625   -38472   -38213   -37935   -37820   -37756   -37603   -37457 
  -37319   -37200   -37125   -37045   -37094   -37240   -37290   -37357 
  -37525   -37708   -37810   -37796   -37854   -38040   -38178   -38282 
  -38362   -38420   -38538   -38580   -38556   -38620   -38662   -38705 
  -38839   -38967   -39029   -39010   -38990   -39061   -39109   -39056 
  -38930   -38667   -38394   -38310   -38245   -38134   -38027   -37799 
  -37580   -37495   -37424   -37356   -37264   -37131   -37040   -37019 
  -37112   -37253   -37288   -37208   -37073   -36939   -36843   -36802 
  -36844   -36923   -36988   -37026   -36987   -36934   -37019   -37206 
  -37367   -37475   -37522   -37574   -37706   -37790   -37717   -37613 
  -37551   -37480   -37480   -37507   -37350   -37121   -37046   -37042 
  -36989   -36947   -36942   -36913   -36853   -36806   -36823   -36882 
  -36892   -36863   -36881   -36962   -37074   -37153   -37160   -37174 
  -37238   -37299   -37347   -37415   -37556   -37780   -37977   -38120 
  -38301   -38479   -38557   -38600   -38733   -38920   -39063   -39129 
  -39040   -38843   -38731   -38725   -38733   -38699   -38591   -38480 
  -38406   -38347   -38336   -38366   -38417   -38499   -38549   -38548 
  -38560   -38572   -38572   -38595   -38664   -38759   -38795   -38749 
  -38690   -38678   -38735   -38830   -38880   -38854   -38854   -38955 
  -39057   -39064   -38996   -38879   -38734   -38621   -38568   -38517 
  -38409   -38200   -37926   -37735   -37630   -37474   -37245   -37046 
  -36991   -37076   -37174   -37223   -37175   -37093   -37181   -37375 
  -37479   -37516   -37569   -37674   -37802   -37893   -37964   -38022 
  -38056   -38132   -38223   -38214   -38179   -38288   -38536   -38773 
  -38893   -38921   -38898   -38883   -38930   -38932   -38797   -38656 
  -38660   -38734   -38663   -38408   -38174   -38086   -38083   -38088 
  -38055   -37918   -37753   -37735   -37826   -37896   -37896   -37815 
  -37779   -37814   -37794   -37743   -37655   -37556   -37567   -37621 
  -37666   -37729   -37755   -37764   -37796   -37772   -37706   -37729 
  -37890   -38123   -38309   -38380   -38355   -38284   -38275   -38379 
  -38515   -38655   -38787   -38879   -38999   -39189   -39367   -39475 
  -39531   -39573   -39682   -39900   -40111   -40233   -40284   -40250 
  -40201   -40210   -40248   -40300   -40257   -40105   -40047   -40027 
  -39902   -39769   -39617   -39411   -39244   -39082   -38902   -38751 
  -38617   -38597   -38669   -38577   -38334   -38150   -38075   -38074 
  -38074   -38024   -37951   -37927   -37993   -38062   -38062   -38029 
  -37992   -38010   -38107   -38191   -38256   -38337   -38333   -38266 
  -38239   -38229   -38248   -38299   -38329   -38347   -38362   -38354 
  -38323   -38307   -38334   -38339   -38333   -38393   -38454   -38462 
  -38478   -38501   -38521   -38593   -38671   -38676   -38640   -38595 
  -38559   -38555   -38534   -38474   -38439   -38426   -38380   -38297 
  -38210   -38133   -38054   -37940   -37819   -37765   -37756   -37675 
  -37517   -37374   -37235   -37066   -36995   -37090   -37205   -37224 
  -37182   -37171   -37226   -37294   -37370   -37471   -37589   -37765 
  -37906   -37864   -37735   -37689   -37717   -37765   -37889   -38110 
  -38304   -38398   -38443   -38484   -38563   -38674   -38728   -38716 
  -38672   -38629   -38700   -38840   -38900   -38959   -39070   -39161 
  -39235   -39223   -39062   -38885   -38838   -38946   -39152   -39322 
  -39323   -39200   -39117   -39081   -39038   -39067   -39113   -38980 
  -38827   -38920   -39090   -39158   -39177   -39139   -39109   -39174 
  -39237   -39204   -39119   -39083   -39113   -39153   -39150   -39036 
  -38905   -38897   -38902   -38859   -38846   -38782   -38695   -38721 
  -38780   -38810   -38848   -38892   -38955   -39014   -39035   -39028 
  -39023   -39051   -39075   -39049   -38981   -38916   -38894   -38903 
