Origin Time       2011/03/11 14:46:00
Lat.              38.103
Long.             142.860
Depth. (km)       24
Mag.              9.0
Station Code      KYT011
Station Lat.      35.0171
Station Long.     135.5637
Station Height(m) 101
Record Time       2011/03/11 14:49:24
Sampling Freq(Hz) 100Hz
Duration Time(s)  204
Dir.              N-S
Scale Factor      3920(gal)/6182761
Max. Acc. (gal)   4.719
Last Correction   2011/03/11 14:49:09
Memo.             
[...]
  -97703   -97846   -98020   -98175   -98303   -98386   -98411   -98432 
  -98446   -98439   -98483   -98577   -98671   -98761   -98818   -98852 
  -98877   -98846   -98770   -98676   -98565   -98490   -98456   -98385 
  -98279   -98200   -98140   -98077   -98033   -98018   -98014   -98009 
  -98034   -98099   -98139   -98117   -98074   -98040   -98011   -97987 
  -97977   -97964   -97940   -97923   -97929   -97951   -97958   -97939 
  -97914   -97920   -97954   -97951   -97910   -97899   -97912   -97889 
  -97822   -97778   -97774   -97779   -97809   -97867   -97922   -97966 
  -98011   -98078   -98138   -98201   -98317   -98434   -98517   -98629 
  -98793   -98987   -99191   -99372   -99505   -99624   -99785   -99969 
 -100101  -100180  -100274  -100396  -100508  -100604  -100710  -100813 
 -100856  -100842  -100832  -100847  -100890  -100952  -100984  -101014 
 -101146  -101341  -101464  -101513  -101564  -101653  -101758  -101799 
 -101760  -101718  -101683  -101600  -101497  -101428  -101363  -101293 
 -101217  -101057  -100834  -100646  -100496  -100348  -100194  -100054 
  -99949   -99872   -99813   -99730   -99598   -99451   -99320   -99220 
  -99145   -99021   -98847   -98701   -98568   -98433   -98321   -98190 
  -98035   -97905   -97784   -97663   -97563   -97474   -97396   -97349 
  -97313   -97291   -97291   -97286   -97307   -97365   -97388   -97381 
  -97371   -97354   -97362   -97380   -97359   -97325   -97307   -97261 
  -97178   -97120   -97129   -97174   -97180   -97157   -97143   -97116 
  -97089   -97097   -97104   -97073   -97015   -96985   -97009   -96998 
  -96893   -96816   -96857   -96904   -96882   -96843   -96837   -96885 
  -96944   -96973   -97039   -97161   -97283   -97401   -97563   -97803 
  -98075   -98298   -98488   -98713   -98981   -99273   -99566   -99839 
 -100141  -100492  -100822  -101108  -101380  -101657  -101941  -102222 
 -102506  -102744  -102864  -102958  -103148  -103355  -103464  -103515 
 -103571  -103631  -103675  -103707  -103738  -103736  -103685  -103673 
 -103698  -103636  -103517  -103454  -103395  -103314  -103265  -103222 
 -103160  -103072  -102944  -102866  -102868  -102812  -102642  -102466 
 -102352  -102260  -102126  -101920  -101670  -101416  -101187  -100998 
 -100809  -100585  -100323  -100026   -99787   -99636   -99431   -99132 
  -98810   -98482   -98161   -97849   -97536   -97239   -96968   -96699 
  -96402   -96122   -95899   -95681   -95426   -95167   -94971   -94863 
  -94785   -94675   -94522   -94389   -94347   -94316   -94210   -94107 
  -94075   -94065   -94072   -94122   -94179   -94227   -94283   -94339 
  -94402   -94501   -94643   -94811   -94968   -95143   -95385   -95634 
  -95832   -96015   -96237   -96490   -96700   -96879   -97112   -97347 
  -97496   -97664   -97949   -98249   -98435   -98567   -98753   -98994 
  -99229   -99417   -99593   -99809  -100030  -100237  -100482  -100743 
 -100903  -100991  -101176  -101444  -101609  -101658  -101712  -101799 
 -101900  -101946  -101872  -101808  -101851  -101869  -101786  -101644 
 -101472  -101329  -101193  -100974  -100726  -100561  -100410  -100152 
  -99878   -99752   -99679   -99475   -99189   -98972   -98829   -98670 
  -98451   -98227   -98046   -97851   -97642   -97532   -97501   -97392 
  -97193   -97060   -97039   -96985   -96824   -96696   -96695   -96713 
  -96649   -96574   -96590   -96654   -96668   -96647   -96657   -96687 
  -96692   -96690   -96765   -96892   -96973   -97074   -97253   -97417 
  -97547   -97719   -97960   -98234   -98465   -98624   -98808   -99088 
  -99383   -99591   -99676   -99754  -100006  -100355  -100560  -100610 
 -100706  -100930  -101109  -101123  -101143  -101316  -101505  -101549 
 -101550  -101649  -101761  -101813  -101882  -101971  -102019  -102028 
 -102069  -102192  -102288  -102258  -102232  -102318  -102394  -102354 
 -102296  -102301  -102309  -102295  -102278  -102251  -102226  -102201 
 -102135  -102013  -101839  -101665  -101554  -101446  -101274  -101079 
 -100896  -100730  -100540  -100287  -100036   -99818   -99593   -99357 
  -99109   -98846   -98607   -98447   -98315   -98133   -97933   -97791 
  -97727   -97646   -97498   -97397   -97413   -97460   -97422   -97350 
  -97368   -97426   -97435   -97397   -97330   -97328   -97415   -97436 
  -97363   -97359   -97475   -97566   -97548   -97538   -97630   -97739 
  -97795   -97807   -97784   -97794   -97881   -97960   -97966   -97924 
  -97989   -98224   -98366   -98338   -98440   -98701   -98866   -98913 
  -99029   -99256   -99461   -99584   -99711   -99829   -99867   -99931 
 -100038  -100007   -99884   -99873   -99959   -99992   -99928   -99864 
  -99861   -99851   -99810   -99823   -99893   -99942   -99990  -100060 
 -100119  -100205  -100307  -100366  -100423  -100530  -100691  -100822 
 -100858  -100900  -100972  -101019  -101109  -101218  -101219  -101178 
 -101239  -101330  -101318  -101243  -101203  -101220  -101189  -101041 
 -100902  -100833  -100740  -100581  -100405  -100308  -100250  -100111 
  -99980   -99900   -99787   -99706   -99688   -99633   -99527   -99447 
  -99457   -99502   -99425   -99208   -99034   -98988   -98965   -98848 
  -98637   -98473   -98424   -98386   -98305   -98198   -98096   -98016 
  -97920   -97813   -97733   -97659   -97534   -97343   -97147   -96999 
  -96886   -96758   -96566   -96349   -96210   -96134   -96006   -95830 
  -95712   -95660   -95619   -95565   -95499   -95481   -95532   -95600 
  -95670   -95767   -95934   -96138   -96312   -96537   -96824   -97061 
  -97289   -97579   -97869   -98106   -98326   -98607   -98906   -99107 
  -99253   -99455   -99707   -99948  -100118  -100205  -100312  -100473 
 -100607  -100713  -100802  -100865  -100969  -101119  -101254  -101350 
 -101417  -101491  -101591  -101691  -101756  -101759  -101752  -101801 
 -101882  -101915  -101848  -101769  -101787  -101828  -101798  -101716 
 -101626  -101594  -101619  -101579  -101480  -101463  -101521  -101552 
 -101497  -101359  -101237  -101209  -101229  -101175  -100988  -100826 
 -100813  -100796  -100643  -100427  -100279  -100186  -100029   -99865 
  -99784   -99690   -99550   -99453   -99425   -99403   -99336   -99283 
  -99262   -99171   -99027   -98980   -99057   -99112   -99014   -98814 
  -98750   -98940   -99137   -99017   -98697   -98622   -98863   -98980 
  -98767   -98557   -98591   -98700   -98690   -98611   -98597   -98620 
  -98572   -98501   -98507   -98565   -98588   -98584   -98615   -98663 
  -98716   -98811   -98872   -98808   -98732   -98755   -98768   -98673 
  -98531   -98442   -98413   -98330   -98165   -98041   -97985   -97913 
  -97799   -97678   -97584   -97493   -97404   -97357   -97329   -97303 
  -97292   -97260   -97166   -97044   -96965   -96943   -96873   -96674 
  -96469   -96387   -96365   -96313   -96204   -96072   -96028   -96051 
  -96036   -96016   -96018   -96038   -96112   -96200   -96240   -96286 
  -96393   -96546   -96701   -96802   -96878   -97023   -97212   -97346 
  -97410   -97477   -97649   -97872   -97964   -97939   -97996   -98199 
  -98422   -98518   -98466   -98437   -98585   -98835   -98999   -99003 
  -98970   -99057   -99315   -99621   -99740   -99678   -99694   -99890 
 -100163  -100365  -100418  -100427  -100521  -100711  -100940  -101080 
 -101092  -101109  -101201  -101299  -101343  -101366  -101394  -101383 
 -101374  -101460  -101601  -101672  -101635  -101564  -101544  -101596 
 -101678  -101702  -101627  -101529  -101523  -101616  -101724  -101743 
 -101642  -101563  -101627  -101730  -101712  -101575  -101442  -101406 
 -101466  -101504  -101437  -101342  -101286  -101291  -101351  -101374 
 -101312  -101227  -101202  -101275  -101343  -101268  -101128  -101103 
 -101190  -101252  -101195  -101049  -100953  -100968  -100972  -100887 
 -100779  -100728  -100765  -100800  -100714  -100618  -100652  -100694 
 -100614  -100471  -100386  -100383  -100356  -100217   -99998   -99813 
  -99754   -99767   -99679   -99421   -99147   -99042   -99069   -99062 
  -98925   -98711   -98592   -98653   -98780   -98815   -98725   -98643 
  -98707   -98846   -98891   -98832   -98806   -98867   -98933   -98963 
  -99007   -99059   -99080   -99101   -99116   -99071   -99027   -99053 
  -99091   -99049   -98905   -98791   -98841   -98919   -98815   -98600 
  -98522   -98586   -98554   -98388   -98255   -98226   -98255   -98295 
  -98322   -98321   -98328   -98409   -98549   -98667   -98735   -98762 
  -98811   -98934   -99052   -99090   -99072   -99041   -99054   -99128 
  -99171   -99133   -99082   -99073   -99079   -99072   -99028   -98963 
  -98944   -98938   -98873   -98770   -98666   -98582   -98520   -98480 
  -98410   -98250   -98125   -98129   -98118   -98003   -97864   -97799 
  -97831   -97871   -97847   -97809   -97840   -97979   -98177   -98322 
  -98362   -98406   -98610   -98937   -99173   -99257   -99325   -99494 
  -99775  -100064  -100225  -100268  -100331  -100536  -100799  -100926 
 -100944  -101017  -101179  -101320  -101361  -101357  -101379  -101432 
 -101506  -101567  -101588  -101587  -101588  -101595  -101608  -101618 
 -101611  -101593  -101591  -101620  -101665  -101723  -101812  -101928 
 -102042  -102114  -102201  -102416  -102670  -102785  -102804  -102907 
 -103121  -103347  -103525  -103616  -103668  -103804  -103998  -104122 
 -104175  -104261  -104334  -104285  -104260  -104371  -104428  -104309 
 -104155  -104125  -104178  -104158  -104010  -103821  -103682  -103577 
 -103476  -103363  -103195  -103000  -102818  -102639  -102520  -102486 
 -102378  -102137  -101946  -101932  -101988  -101934  -101775  -101633 
 -101553  -101530  -101539  -101500  -101361  -101193  -101166  -101276 
 -101314  -101185  -101030  -100997  -101054  -101075  -101045  -101013 
 -100952  -100863  -100842  -100885  -100887  -100818  -100717  -100639 
 -100570  -100468  -100376  -100301  -100168   -99994   -99874   -99813 
  -99744   -99621   -99459   -99330   -99269   -99204   -99046   -98831 
  -98692   -98648   -98599   -98498   -98346   -98190   -98070   -97972 
  -97918   -97888   -97787   -97641   -97569   -97586   -97606   -97588 
  -97539   -97502   -97543   -97618   -97636   -97631   -97636   -97631 
  -97682   -97814   -97881   -97814   -97735   -97777   -97923   -98052 
  -98088   -98033   -97974   -98046   -98244   -98420   -98446   -98361 
  -98364   -98552   -98752   -98791   -98702   -98608   -98638   -98797 
  -98904   -98852   -98703   -98566   -98558   -98656   -98686   -98577 
  -98392   -98214   -98132   -98142   -98102   -97986   -97907   -97869 
  -97844   -97889   -97983   -98030   -98038   -98073   -98171   -98323 
  -98464   -98568   -98647   -98751   -98932   -99080   -99158   -99301 
  -99466   -99547   -99659   -99877  -100052  -100141  -100226  -100297 
 -100369  -100462  -100558  -100681  -100749  -100751  -100844  -100998 
 -101062  -101082  -101143  -101178  -101178  -101198  -101158  -101048 
 -101034  -101087  -101043  -100938  -100832  -100680  -100553  -100553 
 -100579  -100493  -100373  -100291  -100225  -100218  -100234  -100160 
 -100044   -99969   -99916   -99924  -100045  -100120   -99996   -99856 
  -99919  -100064  -100107  -100101  -100095  -100060  -100084  -100212 
 -100349  -100437  -100450  -100424  -100478  -100623  -100722  -100691 
 -100609  -100568  -100580  -100600  -100592  -100573  -100503  -100387 
 -100363  -100382  -100315  -100276  -100297  -100301  -100347  -100433 
 -100470  -100491  -100561  -100666  -100756  -100843  -100956  -101068 
 -101207  -101403  -101587  -101699  -101799  -101946  -102150  -102382 
 -102573  -102697  -102770  -102870  -103029  -103168  -103288  -103378 
 -103360  -103301  -103331  -103399  -103348  -103206  -103073  -102917 
 -102777  -102716  -102639  -102456  -102240  -102102  -102032  -101966 
 -101839  -101636  -101453  -101336  -101205  -101022  -100839  -100669 
 -100469  -100270  -100123   -99988   -99811   -99596   -99391   -99208 
  -98971   -98672   -98423   -98243   -98050   -97797   -97531   -97328 
  -97111   -96836   -96669   -96594   -96418   -96168   -95971   -95861 
  -95822   -95800   -95756   -95697   -95635   -95585   -95586   -95670 
  -95776   -95805   -95791   -95862   -96036   -96234   -96411   -96568 
  -96752   -96989   -97258   -97559   -97855   -98066   -98222   -98418 
  -98657   -98898   -99120   -99320   -99546   -99847  -100139  -100354 
 -100564  -100798  -101016  -101244  -101486  -101694  -101860  -102016 
 -102205  -102446  -102703  -102928  -103108  -103264  -103437  -103657 
 -103870  -104034  -104209  -104387  -104526  -104700  -104933  -105117 
 -105217  -105332  -105494  -105632  -105736  -105824  -105902  -105975 
 -106033  -106102  -106164  -106128  -106019  -105940  -105901  -105838 
 -105706  -105492  -105216  -104943  -104721  -104509  -104232  -103895 
 -103551  -103252  -103036  -102823  -102513  -102158  -101842  -101581 
 -101340  -101083  -100826  -100553  -100230   -99927   -99734   -99598 
  -99406   -99136   -98883   -98740   -98630   -98450   -98249   -98094 
  -97992   -97935   -97846   -97699   -97597   -97562   -97561   -97580 
  -97567   -97550   -97576   -97610   -97666   -97764   -97832   -97842 
  -97877   -97971   -98102   -98286   -98472   -98572   -98657   -98840 
  -99108   -99412   -99690   -99882  -100086  -100419  -100817  -101200 
 -101539  -101836  -102148  -102501  -102884  -103275  -103592  -103794 
 -104019  -104408  -104827  -105062  -105193  -105407  -105706  -106001 
 -106231  -106407  -106535  -106623  -106767  -106939  -107023  -107018 
 -106987  -106997  -107058  -107064  -106950  -106789  -106657  -106520 
 -106337  -106119  -105852  -105569  -105309  -105003  -104678  -104401 
 -104079  -103685  -103307  -102944  -102613  -102346  -102025  -101582 
 -101147  -100814  -100519  -100187   -99792   -99336   -98906   -98581 
  -98291   -97914   -97466   -97084   -96822   -96582   -96320   -96055 
  -95796   -95581   -95447   -95362   -95260   -95155   -95073   -95008 
  -95005   -95060   -95092   -95042   -95001   -95096   -95228   -95352 
  -95531   -95666   -95711   -95811   -96071   -96401   -96643   -96806 
  -96998   -97267   -97597   -97931   -98189   -98395   -98669   -99009 
  -99339   -99654   -99958  -100215  -100444  -100729  -101059  -101357 
 -101605  -101818  -102105  -102465  -102721  -102902  -103127  -103339 
 -103525  -103754  -103947  -103996  -104015  -104130  -104279  -104395 
 -104379  -104232  -104168  -104150  -104053  -103980  -103891  -103697 
 -103481  -103297  -103186  -103095  -102893  -102624  -102385  -102201 
 -102037  -101804  -101544  -101321  -101011  -100688  -100541  -100377 
 -100029   -99683   -99405   -99101   -98820   -98574   -98245   -97866 
  -97530   -97188   -96879   -96628   -96277   -95907   -95673   -95438 
  -95157   -94943   -94761   -94544   -94296   -94111   -94021   -93883 
  -93722   -93640   -93570   -93527   -93571   -93635   -93655   -93645 
  -93715   -93900   -94046   -94092   -94215   -94454   -94612   -94720 
  -94910   -95081   -95224   -95405   -95570   -95736   -95906   -96040 
  -96199   -96415   -96633   -96854   -97109   -97308   -97425   -97652 
  -98005   -98271   -98415   -98563   -98784   -99022   -99200   -99370 
  -99583   -99796   -99981  -100149  -100350  -100582  -100743  -100846 
 -100978  -101117  -101255  -101362  -101395  -101392  -101380  -101414 
 -101469  -101435  -101392  -101410  -101393  -101340  -101306  -101249 
 -101152  -101097  -101127  -101174  -101158  -101116  -101138  -101225 
 -101342  -101459  -101515  -101528  -101564  -101600  -101660  -101785 
 -101879  -101862  -101810  -101849  -101924  -101912  -101883  -101859 
 -101775  -101721  -101738  -101758  -101730  -101588  -101410  -101360 
 -101371  -101305  -101189  -101099  -101044  -100997  -100944  -100889 
 -100851  -100793  -100689  -100644  -100691  -100715  -100678  -100625 
 -100635  -100704  -100717  -100678  -100697  -100780  -100865  -100934 
 -101001  -101070  -101113  -101141  -101227  -101356  -101458  -101500 
 -101497  -101531  -101644  -101768  -101844  -101859  -101859  -101923 
 -102001  -102011  -101988  -101932  -101827  -101712  -101611  -101521 
 -101367  -101142  -100958  -100808  -100635  -100477  -100319  -100138 
 -100003   -99911   -99773   -99589   -99443   -99324   -99179   -99067 
  -98993   -98868   -98748   -98709   -98705   -98692   -98652   -98596 
  -98537   -98484   -98487   -98543   -98566   -98529   -98521   -98571 
  -98604   -98647   -98716   -98725   -98682   -98659   -98687   -98750 
  -98768   -98693   -98620   -98622   -98598   -98529   -98493   -98421 
  -98307   -98235   -98201   -98156   -98017   -97806   -97700   -97669 
  -97532   -97378   -97333   -97282   -97187   -97134   -97099   -97025 
  -96972   -96978   -96983   -96988   -97049   -97114   -97119   -97129 
  -97216   -97326   -97411   -97473   -97507   -97570   -97672   -97757 
  -97827   -97926   -98067   -98184   -98237   -98340   -98522   -98621 
  -98644   -98744   -98893   -99005   -99091   -99153   -99185   -99236 
  -99296   -99353   -99450   -99526   -99543   -99607   -99740   -99852 
  -99917  -100011  -100140  -100258  -100409  -100581  -100712  -100873 
 -101077  -101270  -101466  -101617  -101716  -101868  -102078  -102259 
 -102354  -102419  -102537  -102635  -102686  -102793  -102904  -102902 
 -102888  -102982  -103081  -103089  -103076  -103081  -103060  -103021 
 -102998  -102971  -102890  -102762  -102644  -102578  -102531  -102415 
 -102230  -102067  -101916  -101701  -101461  -101317  -101190  -100906 
 -100584  -100418  -100318  -100106   -99775   -99480   -99281   -99065 
  -98792   -98522   -98255   -97959   -97649   -97372   -97119   -96856 
  -96585   -96317   -96083   -95890   -95662   -95426   -95272   -95133 
  -94979   -94885   -94819   -94719   -94652   -94685   -94778   -94863 
  -94955   -95083   -95204   -95354   -95581   -95801   -95980   -96203 
  -96450   -96644   -96867   -97195   -97534   -97788   -97999   -98297 
  -98703   -99060   -99286   -99514   -99825  -100144  -100422  -100645 
 -100828  -101049  -101260  -101411  -101620  -101872  -102042  -102158 
 -102278  -102381  -102491  -102598  -102627  -102628  -102698  -102801 
 -102841  -102791  -102739  -102727  -102713  -102687  -102613  -102485 
 -102388  -102315  -102213  -102127  -102065  -101964  -101808  -101658 
 -101560  -101460  -101318  -101129  -100911  -100750  -100632  -100458 
 -100250  -100070   -99917   -99773   -99641   -99537   -99438   -99308 
  -99180   -99090   -99020   -98948   -98869   -98825   -98841   -98836 
  -98835   -98903   -98954   -98966   -99031   -99130   -99178   -99215 
  -99287   -99320   -99331   -99415   -99483   -99447   -99417   -99455 
  -99505   -99531   -99525   -99509   -99500   -99481   -99474   -99520 
  -99552   -99510   -99488   -99520   -99536   -99550   -99564   -99559 
  -99574   -99599   -99610   -99630   -99653   -99708   -99817   -99912 
  -99988  -100068  -100138  -100201  -100260  -100336  -100406  -100394 
 -100372  -100419  -100453  -100448  -100467  -100470  -100412  -100372 
 -100365  -100335  -100309  -100268  -100155  -100048  -100004   -99981 
  -99928   -99805   -99674   -99619   -99597   -99530   -99464   -99465 
  -99452   -99374   -99320   -99331   -99339   -99305   -99290   -99303 
  -99292   -99308   -99383   -99452   -99516   -99573   -99588   -99632 
  -99695   -99702   -99735   -99822   -99891   -99945  -100009  -100085 
