Origin Time       2011/03/11 14:46:00
Lat.              38.103
Long.             142.860
Depth. (km)       24
Mag.              9.0
Station Code      KYT002
Station Lat.      35.6038
Station Long.     134.8945
Station Height(m) 3
Record Time       2011/03/11 14:51:06
Sampling Freq(Hz) 100Hz
Duration Time(s)  60
Dir.              E-W
Scale Factor      3920(gal)/6182761
Max. Acc. (gal)   2.368
Last Correction   2011/03/11 14:50:51
Memo.             
[...]
  -43302   -43426   -43573   -43702   -43866   -44043   -44176   -44308 
  -44402   -44424   -44473   -44537   -44543   -44553   -44562   -44513 
  -44473   -44434   -44337   -44244   -44152   -43995   -43845   -43727 
  -43571   -43424   -43308   -43165   -43033   -42926   -42790   -42650 
  -42529   -42407   -42324   -42288   -42245   -42219   -42221   -42200 
  -42190   -42221   -42243   -42281   -42366   -42420   -42465   -42540 
  -42563   -42551   -42572   -42568   -42546   -42532   -42460   -42387 
  -42387   -42372   -42338   -42343   -42323   -42280   -42267   -42241 
  -42204   -42200   -42193   -42184   -42208   -42215   -42203   -42223 
  -42251   -42282   -42333   -42376   -42419   -42503   -42590   -42657 
  -42755   -42855   -42939   -43049   -43145   -43207   -43293   -43375 
  -43427   -43490   -43541   -43568   -43610   -43630   -43605   -43594 
  -43585   -43556   -43554   -43566   -43550   -43533   -43521   -43492 
  -43480   -43467   -43414   -43374   -43346   -43278   -43221   -43193 
  -43143   -43110   -43104   -43048   -42996   -42995   -42967   -42934 
  -42945   -42927   -42879   -42867   -42842   -42788   -42777   -42762 
  -42707   -42679   -42640   -42590   -42607   -42622   -42583   -42562 
  -42556   -42541   -42561   -42584   -42584   -42643   -42747   -42820 
  -42896   -42964   -42983   -43009   -43031   -43017   -43036   -43074 
  -43056   -43023   -42993   -42936   -42900   -42875   -42809   -42746 
  -42698   -42624   -42561   -42523   -42459   -42396   -42346   -42255 
  -42179   -42156   -42096   -42029   -42022   -42016   -42001   -41993 
  -41962   -41936   -41946   -41948   -41945   -41952   -41932   -41909 
  -41921   -41903   -41854   -41830   -41787   -41724   -41715   -41713 
  -41662   -41633   -41629   -41598   -41597   -41630   -41635   -41671 
  -41744   -41784   -41849   -41967   -42064   -42160   -42279   -42367 
  -42442   -42541   -42642   -42743   -42842   -42906   -42983   -43104 
  -43186   -43243   -43328   -43358   -43348   -43378   -43373   -43324 
  -43289   -43222   -43133   -43065   -42963   -42823   -42720   -42617 
  -42485   -42377   -42266   -42140   -42054   -41970   -41866   -41812 
  -41768   -41706   -41691   -41685   -41643   -41630   -41641   -41642 
  -41663   -41692   -41699   -41733   -41798   -41824   -41843   -41886 
  -41912   -41961   -42042   -42094   -42157   -42243   -42306   -42386 
  -42490   -42545   -42590   -42665   -42687   -42674   -42695   -42685 
  -42658   -42663   -42614   -42511   -42430   -42328   -42203   -42123 
  -42031   -41896   -41805   -41738   -41648   -41580   -41497   -41389 
  -41342   -41339   -41330   -41357   -41403   -41433   -41519   -41633 
  -41708   -41822   -41979   -42115   -42282   -42476   -42644   -42827 
  -43026   -43191   -43348   -43492   -43589   -43665   -43716   -43707 
  -43688   -43657   -43576   -43499   -43401   -43234   -43069   -42899 
  -42682   -42484   -42285   -42023   -41776   -41578   -41369   -41181 
  -41044   -40909   -40823   -40799   -40754   -40722   -40752   -40822 
  -40962   -41154   -41325   -41482   -41654   -41852   -42102   -42378 
  -42629   -42871   -43126   -43379   -43603   -43755   -43803   -43797 
  -43826   -43868   -43857   -43812   -43756   -43699   -43641   -43544 
  -43399   -43254   -43123   -43007   -42894   -42748   -42566   -42373 
  -42208   -42089   -41981   -41876   -41805   -41761   -41719   -41685 
  -41656   -41622   -41623   -41672   -41736   -41803   -41850   -41876 
  -41911   -41951   -41994   -42046   -42073   -42066   -42077   -42099 
  -42098   -42082   -42061   -42044   -42050   -42052   -42048   -42059 
  -42056   -42023   -41983   -41953   -41984   -42073   -42123   -42128 
  -42145   -42176   -42215   -42265   -42297   -42315   -42397   -42573 
  -42759   -42854   -42843   -42806   -42801   -42750   -42614   -42485 
  -42399   -42331   -42301   -42254   -42129   -42001   -41915   -41814 
  -41691   -41544   -41379   -41243   -41138   -41022   -40893   -40772 
  -40714   -40769   -40871   -40921   -40936   -40976   -41039   -41125 
  -41229   -41298   -41383   -41528   -41657   -41785   -41921   -41995 
  -42068   -42179   -42244   -42282   -42336   -42377   -42423   -42452 
  -42429   -42410   -42421   -42448   -42487   -42513   -42511   -42524 
  -42564   -42595   -42625   -42676   -42717   -42745   -42796   -42815 
  -42783   -42738   -42652   -42554   -42487   -42407   -42340   -42325 
  -42298   -42237   -42193   -42147   -42067   -41988   -41897   -41795 
  -41725   -41668   -41624   -41615   -41618   -41633   -41667   -41701 
  -41731   -41769   -41803   -41839   -41901   -41939   -41984   -42100 
  -42226   -42336   -42451   -42540   -42611   -42697   -42783   -42840 
  -42897   -42942   -42940   -42935   -42924   -42885   -42847   -42796 
  -42716   -42634   -42564   -42487   -42404   -42339   -42276   -42225 
  -42198   -42208   -42233   -42219   -42218   -42254   -42287   -42357 
  -42447   -42540   -42665   -42780   -42877   -42945   -42978   -43032 
  -43088   -43130   -43201   -43271   -43305   -43312   -43302   -43263 
  -43176   -43090   -43001   -42873   -42752   -42627   -42459   -42277 
  -42098   -41916   -41719   -41542   -41385   -41210   -41069   -40959 
  -40848   -40788   -40776   -40792   -40835   -40903   -41017   -41131 
  -41241   -41395   -41537   -41679   -41845   -41981   -42127   -42283 
  -42414   -42562   -42688   -42788   -42893   -42951   -42991   -43020 
  -42981   -42941   -42884   -42769   -42677   -42570   -42430   -42327 
  -42213   -42117   -42049   -41920   -41822   -41767   -41685   -41653 
  -41616   -41531   -41484   -41435   -41397   -41392   -41352   -41331 
  -41335   -41330   -41399   -41487   -41539   -41642   -41743   -41806 
  -41887   -41964   -42072   -42215   -42332   -42474   -42639   -42762 
  -42881   -42998   -43082   -43169   -43257   -43320   -43374   -43418 
  -43450   -43469   -43477   -43480   -43458   -43429   -43405   -43342 
  -43260   -43200   -43136   -43089   -43061   -42986   -42894   -42839 
  -42804   -42786   -42795   -42819   -42859   -42935   -43030   -43090 
  -43146   -43233   -43303   -43365   -43469   -43556   -43594   -43637 
  -43671   -43644   -43601   -43583   -43537   -43463   -43436   -43421 
  -43356   -43301   -43247   -43138   -43037   -42948   -42841   -42746 
  -42645   -42549   -42512   -42479   -42437   -42444   -42466   -42474 
  -42550   -42665   -42734   -42828   -42984   -43099   -43198   -43325 
  -43392   -43429   -43502   -43527   -43506   -43507   -43482   -43431 
  -43388   -43312   -43219   -43138   -43038   -42936   -42858   -42771 
  -42681   -42630   -42572   -42492   -42462   -42450   -42404   -42402 
  -42430   -42432   -42471   -42527   -42539   -42598   -42699   -42759 
  -42834   -42944   -43036   -43135   -43226   -43240   -43232   -43251 
  -43247   -43228   -43225   -43188   -43127   -43069   -42970   -42866 
  -42799   -42713   -42622   -42541   -42417   -42295   -42194   -42030 
  -41855   -41717   -41537   -41347   -41224   -41105   -40988   -40928 
  -40888   -40859   -40880   -40919   -40964   -41033   -41114   -41219 
  -41352   -41483   -41639   -41837   -42023   -42230   -42498   -42744 
  -42973   -43250   -43504   -43724   -43976   -44183   -44318   -44474 
  -44615   -44698   -44764   -44794   -44798   -44816   -44800   -44753 
  -44709   -44624   -44529   -44446   -44305   -44148   -44004   -43808 
  -43620   -43474   -43289   -43112   -42982   -42817   -42649   -42533 
  -42415   -42323   -42284   -42240   -42212   -42213   -42191   -42199 
  -42248   -42271   -42329   -42430   -42505   -42621   -42770   -42851 
  -42937   -43047   -43092   -43123   -43175   -43173   -43153   -43135 
  -43070   -43003   -42951   -42867   -42794   -42735   -42642   -42558 
  -42498   -42413   -42325   -42248   -42185   -42172   -42147   -42084 
  -42067   -42082   -42100   -42153   -42217   -42284   -42377   -42476 
  -42547   -42612   -42680   -42716   -42754   -42813   -42847   -42879 
  -42917   -42935   -42963   -43001   -43058   -43139   -43203   -43281 
  -43394   -43472   -43524   -43579   -43590   -43578   -43561   -43495 
  -43407   -43340   -43263   -43177   -43103   -43008   -42887   -42775 
  -42651   -42519   -42405   -42280   -42143   -42027   -41908   -41778 
  -41661   -41539   -41422   -41338   -41261   -41190   -41170   -41187 
  -41210   -41253   -41300   -41331   -41390   -41466   -41523   -41598 
  -41690   -41782   -41903   -42043   -42185   -42355   -42543   -42731 
  -42923   -43104   -43271   -43445   -43593   -43678   -43732   -43770 
  -43769   -43743   -43708   -43645   -43572   -43525   -43481   -43436 
  -43426   -43427   -43413   -43429   -43473   -43510   -43541   -43564 
  -43577   -43608   -43661   -43703   -43731   -43782   -43851   -43922 
  -44015   -44101   -44176   -44270   -44352   -44419   -44503   -44559 
  -44573   -44589   -44574   -44504   -44418   -44293   -44121   -43968 
  -43830   -43656   -43478   -43317   -43135   -42970   -42832   -42664 
  -42522   -42430   -42308   -42197   -42130   -42032   -41940   -41909 
  -41876   -41844   -41864   -41881   -41905   -42010   -42124   -42207 
  -42340   -42492   -42633   -42825   -43026   -43193   -43406   -43635 
  -43803   -43967   -44118   -44203   -44268   -44300   -44256   -44197 
  -44132   -44005   -43850   -43690   -43494   -43311   -43170   -43022 
  -42894   -42798   -42690   -42614   -42587   -42568   -42567   -42587 
  -42603   -42628   -42672   -42711   -42756   -42822   -42886   -42948 
  -43023   -43083   -43145   -43242   -43327   -43417   -43529   -43610 
  -43688   -43796   -43865   -43905   -43954   -43957   -43920   -43908 
  -43878   -43813   -43787   -43774   -43744   -43741   -43733   -43693 
  -43685   -43703   -43712   -43763   -43847   -43923   -44039   -44175 
  -44268   -44360   -44466   -44527   -44597   -44694   -44738   -44782 
  -44868   -44919   -44974   -45060   -45096   -45117   -45185   -45237 
  -45274   -45333   -45353   -45331   -45322   -45269   -45175   -45117 
  -45049   -44964   -44932   -44906   -44855   -44842   -44830   -44780 
  -44755   -44733   -44664   -44606   -44543   -44420   -44301   -44184 
  -44002   -43825   -43678   -43495   -43323   -43175   -42982   -42808 
  -42690   -42541   -42387   -42276   -42148   -42036   -41984   -41922 
  -41869   -41886   -41909   -41945   -42052   -42157   -42247   -42394 
  -42538   -42635   -42776   -42923   -42986   -43058   -43152   -43183 
  -43221   -43292   -43318   -43339   -43403   -43449   -43482   -43539 
  -43561   -43552   -43579   -43591   -43564   -43520   -43448   -43380 
  -43330   -43258   -43195   -43154   -43101   -43071   -43077   -43065 
  -43069   -43078   -43052   -43082   -43131   -43116   -43165   -43213 
  -43114   -43106   -43254   -43205   -43069   -43269   -43451   -43304 
  -43354   -43475   -43357   -43485   -43656   -43602   -43757   -44003 
  -44149   -44307   -44374   -44238   -44124   -44405   -44704   -44595 
  -44423   -44311   -44393   -44786   -44921   -44600   -44289   -44298 
  -44571   -44749   -44640   -44400   -44179   -44108   -44243   -44409 
  -44409   -44195   -43914   -43810   -43817   -43716   -43673   -43772 
  -43790   -43710   -43665   -43804   -44001   -43865   -43643   -43824 
  -44146   -44313   -44541   -44752   -44734   -44781   -44967   -45099 
  -45248   -45310   -45168   -45052   -45086   -45189   -45235   -45139 
  -44912   -44651   -44456   -44249   -43985   -43775   -43583   -43439 
  -43399   -43292   -43031   -42638   -42261   -42191   -42314   -42336 
  -42344   -42366   -42369   -42511   -42708   -42766   -42792   -42945 
  -43250   -43656   -43971   -44034   -44049   -44207   -44388   -44600 
  -44812   -44894   -44960   -45063   -45201   -45368   -45386   -45270 
  -45150   -44986   -44793   -44692   -44684   -44581   -44336   -44063 
  -43775   -43564   -43466   -43294   -43017   -42803   -42764   -42855 
  -42904   -42804   -42647   -42578   -42521   -42423   -42419   -42425 
  -42301   -42234   -42360   -42514   -42614   -42702   -42716   -42719 
  -42786   -42937   -43313   -43685   -43787   -43873   -44003   -44047 
  -44117   -44275   -44362   -44314   -44297   -44348   -44430   -44543 
  -44485   -44242   -44098   -44073   -44018   -43923   -43822   -43719 
  -43561   -43330   -43153   -43045   -42876   -42653   -42383   -42070 
  -41867   -41782   -41623   -41403   -41275   -41215   -41130   -41049 
  -41019   -41022   -41075   -41167   -41222   -41317   -41507   -41683 
  -41752   -41755   -41822   -41882   -41871   -41916   -42021   -42193 
  -42354   -42322   -42203   -42134   -42115   -42144   -42121   -42038 
  -42084   -42188   -42154   -42102   -42024   -41896   -41965   -42068 
  -42012   -42060   -42204   -42256   -42323   -42496   -42669   -42829 
  -43013   -43055   -43028   -43245   -43531   -43694   -43934   -44183 
  -44223   -44157   -44181   -44292   -44358   -44372   -44367   -44345 
  -44384   -44402   -44268   -44138   -44124   -44134   -44125   -44137 
  -44213   -44295   -44311   -44245   -44102   -44028   -44047   -43973 
  -43903   -43980   -44074   -44130   -44175   -44145   -44111   -44162 
  -44178   -44148   -44115   -44038   -44006   -43962   -43805   -43669 
  -43499   -43204   -42906   -42603   -42254   -41979   -41874   -41828 
  -41686   -41475   -41163   -40650   -40100   -39765   -39759   -40012 
  -40279   -40432   -40545   -40636   -40659   -40717   -40929   -41353 
  -42003   -42629   -43085   -43486   -43782   -43903   -43966   -44219 
  -44732   -45309   -45779   -45972   -46035   -46298   -46601   -46628 
  -46338   -46004   -45833   -45574   -45183   -44936   -44842   -44654 
  -44191   -43682   -43290   -42810   -42371   -42047   -41593   -41222 
  -41073   -40813   -40417   -40108   -39890   -39659   -39383   -39218 
  -39395   -39772   -39816   -39576   -39675   -40105   -40504   -40860 
  -41114   -41287   -41596   -42077   -42621   -43033   -43243   -43409 
  -43636   -43960   -44281   -44507   -44683   -44730   -44753   -45031 
  -45399   -45445   -45214   -45185   -45362   -45274   -44965   -44716 
  -44491   -44293   -44155   -44064   -44003   -43814   -43516   -43327 
  -43242   -43070   -42736   -42476   -42389   -42325   -42316   -42243 
  -42040   -41955   -41850   -41579   -41487   -41634   -41752   -41917 
  -42102   -42049   -42080   -42504   -42889   -42896   -42658   -42519 
  -42747   -43183   -43436   -43450   -43505   -43632   -43694   -43793 
  -43825   -43640   -43543   -43672   -43763   -43668   -43458   -43228 
  -43019   -42910   -42872   -42704   -42438   -42308   -42333   -42275 
  -42063   -41954   -41958   -41885   -41752   -41538   -41381   -41530 
  -41708   -41627   -41448   -41300   -41303   -41544   -41833   -41931 
  -41855   -41849   -41941   -42033   -42211   -42427   -42624   -42824 
  -42958   -43029   -43010   -42956   -43062   -43231   -43281   -43293 
  -43316   -43359   -43460   -43431   -43230   -43120   -43095   -43053 
  -42987   -42853   -42705   -42598   -42523   -42405   -42191   -41991 
  -41859   -41745   -41620   -41411   -41187   -41155   -41252   -41248 
  -41100   -40922   -40861   -40959   -41165   -41388   -41589   -41880 
  -42158   -42273   -42391   -42569   -42846   -43243   -43477   -43548 
  -43660   -43781   -43982   -44260   -44394   -44393   -44410   -44523 
  -44698   -44818   -44852   -44748   -44545   -44411   -44291   -44116 
  -43901   -43629   -43345   -43016   -42706   -42520   -42299   -41971 
  -41666   -41382   -41121   -41014   -40938   -40827   -40835   -40766 
  -40551   -40409   -40283   -40270   -40464   -40654   -40759   -40739 
  -40683   -40773   -40974   -41219   -41417   -41575   -41843   -42152 
  -42393   -42534   -42578   -42631   -42736   -42888   -43056   -43093 
  -42966   -42770   -42542   -42372   -42332   -42282   -42130   -41996 
  -41832   -41541   -41380   -41436   -41433   -41345   -41259   -41154 
  -41110   -41123   -41097   -41040   -40980   -40941   -41011   -41135 
  -41111   -41024   -41072   -41164   -41244   -41372   -41483   -41581 
  -41723   -41831   -41926   -42061   -42137   -42217   -42371   -42514 
  -42650   -42716   -42643   -42596   -42717   -42923   -43083   -43173 
  -43207   -43260   -43385   -43444   -43403   -43397   -43482   -43601 
  -43593   -43435   -43313   -43223   -43089   -43058   -43121   -43103 
  -43053   -43028   -42987   -42936   -42910   -42993   -43129   -43182 
  -43194   -43197   -43175   -43160   -43207   -43348   -43469   -43524 
  -43657   -43843   -43924   -43893   -43811   -43812   -43966   -44112 
  -44166   -44178   -44138   -44129   -44189   -44178   -44099   -44073 
  -44091   -44089   -44037   -43978   -43959   -43941   -43895   -43810 
  -43770   -43821   -43821   -43789   -43804   -43798   -43829   -43925 
  -43992   -44050   -44119   -44192   -44287   -44368   -44421   -44468 
  -44470   -44438   -44488   -44574   -44501   -44277   -44067   -43922 
  -43867   -43871   -43793   -43657   -43526   -43318   -43078   -42940 
  -42871   -42817   -42728   -42571   -42395   -42213   -42082   -42024 
  -41939   -41897   -41991   -42116   -42212   -42295   -42327   -42290 
  -42262   -42263   -42312   -42461   -42604   -42700   -42764   -42715 
  -42685   -42798   -42911   -42957   -42946   -42902   -42939   -43039 
  -43072   -43056   -43005   -42896   -42821   -42809   -42798   -42787 
  -42784   -42766   -42701   -42644   -42664   -42656   -42598   -42568 
  -42495   -42433   -42495   -42584   -42667   -42777   -42853   -42930 
  -43022   -42990   -42930   -43040   -43181   -43251   -43321   -43310 
  -43243   -43246   -43220   -43136   -43113   -43058   -42952   -42966 
  -42997   -42916   -42859   -42874   -42865   -42813   -42798   -42833 
  -42855   -42878   -42934   -43020   -43150   -43274   -43396   -43537 
  -43600   -43652   -43776   -43819   -43820   -43878   -43867   -43815 
  -43780   -43690   -43585   -43479   -43357   -43273   -43187   -43055 
  -42958   -42923   -42891   -42873   -42924   -42985   -42971   -42969 
  -43036   -43080   -43136   -43214   -43238   -43298   -43377   -43385 
  -43440   -43529   -43502   -43424   -43375   -43319   -43296   -43337 
  -43372   -43367   -43337   -43244   -43108   -43011   -42887   -42710 
  -42613   -42555   -42387   -42149   -41973   -41893   -41824   -41681 
  -41496   -41407   -41460   -41554   -41645   -41714   -41722   -41767 
  -41900   -42064   -42239   -42366   -42388   -42428   -42618   -42883 
  -43078   -43177   -43209   -43199   -43216   -43310   -43465   -43653 
  -43783   -43754   -43633   -43578   -43661   -43760   -43704   -43518 
  -43308   -43190   -43275   -43419   -43421   -43299   -43149   -43049 
  -43028   -43047   -43047   -43026   -43040   -43048   -43023   -43009 
  -42940   -42826   -42791   -42758   -42670   -42621   -42564   -42428 
  -42307   -42242   -42200   -42176   -42157   -42121   -42087   -42088 
  -42101   -42124   -42187   -42274   -42368   -42448   -42467   -42505 
  -42602   -42660   -42722   -42808   -42853   -42944   -43083   -43126 
  -43080   -43044   -43064   -43098   -43108   -43140   -43165   -43123 
  -43057   -42959   -42850   -42820   -42805   -42725   -42649   -42583 
  -42493   -42456   -42457   -42393   -42367   -42405   -42375   -42372 
  -42424   -42415   -42422   -42495   -42545   -42593   -42682   -42714 
  -42703   -42765   -42801   -42795   -42834   -42827   -42810   -42870 
