Origin Time       2011/03/11 14:46:00
Lat.              38.103
Long.             142.860
Depth. (km)       24
Mag.              9.0
Station Code      KYT015
Station Lat.      35.2496
Station Long.     135.7667
Station Height(m) 443
Record Time       2011/03/11 14:50:41
Sampling Freq(Hz) 100Hz
Duration Time(s)  60
Dir.              E-W
Scale Factor      3920(gal)/6182761
Max. Acc. (gal)   1.040
Last Correction   2011/03/11 14:50:26
Memo.             
[...]
  -48358   -48343   -48363   -48417   -48478   -48520   -48518   -48479 
  -48435   -48406   -48397   -48386   -48352   -48306   -48266   -48242 
  -48233   -48231   -48229   -48227   -48231   -48241   -48249   -48252 
  -48242   -48212   -48183   -48170   -48158   -48121   -48062   -48012 
  -47997   -48019   -48050   -48060   -48045   -48024   -47998   -47955 
  -47897   -47840   -47791   -47763   -47763   -47769   -47759   -47735 
  -47696   -47636   -47570   -47517   -47493   -47508   -47542   -47564 
  -47568   -47561   -47547   -47532   -47527   -47540   -47573   -47625 
  -47676   -47695   -47680   -47647   -47611   -47575   -47555   -47567 
  -47609   -47659   -47687   -47673   -47626   -47583   -47570   -47583 
  -47590   -47573   -47542   -47518   -47501   -47481   -47456   -47439 
  -47448   -47492   -47543   -47568   -47560   -47532   -47501   -47488 
  -47493   -47504   -47506   -47496   -47478   -47460   -47454   -47460 
  -47474   -47482   -47482   -47476   -47468   -47455   -47443   -47435 
  -47430   -47420   -47404   -47376   -47330   -47276   -47236   -47224 
  -47240   -47269   -47293   -47308   -47321   -47331   -47328   -47322 
  -47336   -47363   -47376   -47362   -47338   -47337   -47370   -47409 
  -47419   -47402   -47385   -47369   -47336   -47292   -47259   -47258 
  -47293   -47348   -47395   -47415   -47411   -47393   -47367   -47341 
  -47326   -47326   -47336   -47353   -47376   -47404   -47440   -47481 
  -47524   -47566   -47612   -47664   -47714   -47752   -47768   -47763 
  -47745   -47723   -47698   -47673   -47665   -47701   -47774   -47841 
  -47871   -47872   -47879   -47905   -47927   -47923   -47886   -47829 
  -47786   -47788   -47832   -47888   -47919   -47912   -47882   -47850 
  -47823   -47802   -47791   -47800   -47821   -47833   -47827   -47806 
  -47786   -47781   -47794   -47818   -47839   -47837   -47811   -47783 
  -47780   -47813   -47874   -47930   -47956   -47949   -47922   -47897 
  -47902   -47934   -47970   -48001   -48035   -48063   -48079   -48086 
  -48084   -48074   -48067   -48069   -48074   -48074   -48069   -48065 
  -48071   -48093   -48120   -48143   -48170   -48206   -48234   -48224 
  -48177   -48118   -48073   -48056   -48057   -48050   -48029   -48007 
  -47998   -48011   -48048   -48092   -48120   -48114   -48074   -48014 
  -47956   -47922   -47928   -47967   -48008   -48028   -48023   -48003 
  -47987   -47991   -48009   -48033   -48058   -48086   -48113   -48125 
  -48109   -48077   -48049   -48038   -48050   -48068   -48070   -48049 
  -48016   -47990   -47994   -48030   -48072   -48083   -48059   -48018 
  -47975   -47934   -47896   -47874   -47882   -47918   -47959   -47979 
  -47965   -47926   -47892   -47881   -47888   -47904   -47921   -47933 
  -47939   -47942   -47941   -47937   -47935   -47940   -47962   -48009 
  -48064   -48091   -48077   -48040   -48015   -48014   -48022   -48031 
  -48046   -48076   -48117   -48160   -48193   -48207   -48207   -48208 
  -48225   -48259   -48293   -48308   -48308   -48312   -48329   -48350 
  -48360   -48360   -48361   -48377   -48417   -48474   -48521   -48534 
  -48514   -48489   -48492   -48534   -48596   -48638   -48644   -48630 
  -48613   -48600   -48591   -48574   -48548   -48534   -48554   -48601 
  -48633   -48629   -48597   -48572   -48583   -48623   -48661   -48666 
  -48633   -48588   -48578   -48611   -48658   -48690   -48693   -48676 
  -48660   -48654   -48653   -48660   -48670   -48679   -48688   -48692 
  -48683   -48661   -48640   -48646   -48693   -48752   -48778   -48754 
  -48703   -48658   -48646   -48675   -48721   -48755   -48761   -48734 
  -48690   -48658   -48651   -48665   -48699   -48751   -48801   -48818 
  -48798   -48762   -48737   -48748   -48795   -48847   -48872   -48866 
  -48847   -48828   -48814   -48806   -48803   -48811   -48835   -48866 
  -48883   -48882   -48874   -48866   -48867   -48869   -48859   -48835 
  -48806   -48783   -48777   -48783   -48785   -48776   -48757   -48734 
  -48705   -48674   -48646   -48632   -48643   -48668   -48689   -48692 
  -48675   -48646   -48620   -48595   -48570   -48545   -48510   -48460 
  -48411   -48384   -48373   -48354   -48319   -48285   -48269   -48269 
  -48269   -48260   -48248   -48244   -48263   -48301   -48336   -48353 
  -48356   -48360   -48370   -48382   -48392   -48399   -48407   -48413 
  -48414   -48418   -48426   -48423   -48406   -48390   -48384   -48387 
  -48403   -48419   -48431   -48443   -48457   -48473   -48489   -48497 
  -48497   -48495   -48491   -48482   -48459   -48422   -48388   -48366 
  -48352   -48345   -48340   -48339   -48351   -48369   -48378   -48374 
  -48364   -48356   -48356   -48358   -48351   -48334   -48330   -48355 
  -48392   -48405   -48380   -48334   -48303   -48308   -48348   -48406 
  -48449   -48454   -48427   -48394   -48371   -48364   -48361   -48349 
  -48336   -48341   -48372   -48415   -48438   -48437   -48444   -48477 
  -48526   -48562   -48560   -48528   -48497   -48486   -48487   -48485 
  -48478   -48477   -48490   -48508   -48506   -48475   -48432   -48396 
  -48374   -48365   -48365   -48363   -48356   -48337   -48306   -48274 
  -48256   -48253   -48249   -48228   -48190   -48151   -48121   -48100 
  -48083   -48065   -48039   -48009   -47977   -47938   -47896   -47870 
  -47869   -47875   -47875   -47871   -47863   -47850   -47835   -47820 
  -47815   -47833   -47874   -47925   -47953   -47946   -47929   -47939 
  -47985   -48046   -48088   -48105   -48118   -48140   -48170   -48210 
  -48260   -48315   -48363   -48395   -48418   -48443   -48482   -48537 
  -48595   -48657   -48717   -48758   -48778   -48789   -48806   -48843 
  -48897   -48955   -48999   -49012   -49001   -48988   -48984   -48987 
  -48993   -48996   -48998   -49002   -49009   -49021   -49041   -49066 
  -49090   -49108   -49110   -49101   -49083   -49062   -49048   -49047 
  -49048   -49039   -49015   -48984   -48959   -48941   -48924   -48905 
  -48880   -48845   -48815   -48801   -48793   -48788   -48782   -48766 
  -48744   -48719   -48691   -48661   -48636   -48615   -48598   -48580 
  -48553   -48515   -48473   -48439   -48421   -48418   -48414   -48395 
  -48370   -48345   -48314   -48280   -48248   -48220   -48194   -48168 
  -48135   -48095   -48055   -48029   -48016   -48006   -47994   -47983 
  -47981   -47989   -47992   -47977   -47952   -47930   -47924   -47930 
  -47927   -47911   -47894   -47893   -47910   -47933   -47945   -47943 
  -47940   -47956   -47992   -48027   -48052   -48068   -48084   -48101 
  -48124   -48151   -48169   -48176   -48188   -48208   -48230   -48252 
  -48269   -48282   -48295   -48308   -48318   -48324   -48330   -48333 
  -48327   -48318   -48315   -48314   -48302   -48272   -48229   -48184 
  -48158   -48155   -48161   -48157   -48143   -48126   -48106   -48091 
  -48081   -48072   -48064   -48059   -48050   -48026   -47991   -47956 
  -47930   -47908   -47890   -47875   -47851   -47817   -47786   -47760 
  -47740   -47733   -47733   -47733   -47728   -47712   -47691   -47674 
  -47655   -47630   -47608   -47587   -47577   -47579   -47575   -47558 
  -47538   -47516   -47494   -47472   -47448   -47423   -47401   -47394 
  -47397   -47403   -47405   -47406   -47413   -47425   -47430   -47419 
  -47399   -47390   -47402   -47428   -47451   -47464   -47472   -47478 
  -47480   -47480   -47479   -47484   -47492   -47498   -47498   -47487 
  -47477   -47481   -47497   -47518   -47534   -47545   -47557   -47572 
  -47584   -47597   -47612   -47625   -47631   -47629   -47626   -47622 
  -47614   -47607   -47612   -47633   -47661   -47676   -47665   -47631 
  -47593   -47574   -47582   -47601   -47615   -47616   -47608   -47603 
  -47604   -47601   -47592   -47583   -47581   -47595   -47624   -47656 
  -47669   -47666   -47664   -47668   -47673   -47676   -47680   -47691 
  -47707   -47723   -47739   -47753   -47762   -47775   -47795   -47812 
  -47828   -47842   -47844   -47848   -47869   -47898   -47925   -47948 
  -47960   -47953   -47930   -47909   -47901   -47905   -47918   -47934 
  -47952   -47966   -47961   -47949   -47938   -47921   -47907   -47903 
  -47902   -47895   -47877   -47848   -47819   -47796   -47772   -47758 
  -47752   -47742   -47724   -47699   -47669   -47639   -47605   -47563 
  -47520   -47484   -47443   -47403   -47375   -47346   -47311   -47277 
  -47244   -47212   -47185   -47158   -47136   -47125   -47118   -47098 
  -47067   -47035   -47011   -47002   -47003   -47002   -46995   -46992 
  -46998   -47004   -47002   -46996   -47003   -47027   -47062   -47092 
  -47113   -47133   -47157   -47182   -47209   -47234   -47262   -47292 
  -47320   -47339   -47356   -47377   -47408   -47451   -47487   -47502 
  -47514   -47536   -47559   -47577   -47596   -47621   -47650   -47674 
  -47692   -47703   -47707   -47712   -47720   -47734   -47750   -47762 
  -47771   -47777   -47764   -47738   -47718   -47711   -47708   -47698 
  -47684   -47671   -47657   -47640   -47623   -47610   -47606   -47603 
  -47592   -47580   -47568   -47553   -47533   -47506   -47478   -47455 
  -47441   -47431   -47418   -47397   -47373   -47348   -47329   -47325 
  -47324   -47320   -47317   -47316   -47311   -47304   -47300   -47301 
  -47297   -47284   -47269   -47258   -47249   -47239   -47231   -47220 
  -47205   -47188   -47170   -47153   -47139   -47126   -47116   -47111 
  -47108   -47100   -47077   -47039   -46999   -46969   -46953   -46949 
  -46942   -46926   -46903   -46880   -46866   -46858   -46846   -46832 
  -46820   -46814   -46808   -46790   -46769   -46755   -46744   -46734 
  -46725   -46711   -46699   -46696   -46700   -46708   -46714   -46724 
  -46741   -46757   -46768   -46770   -46759   -46749   -46749   -46762 
  -46783   -46798   -46791   -46770   -46750   -46742   -46743   -46748 
  -46747   -46741   -46735   -46734   -46734   -46725   -46708   -46696 
  -46693   -46693   -46693   -46684   -46669   -46662   -46664   -46667 
  -46667   -46667   -46665   -46657   -46650   -46654   -46669   -46684 
  -46693   -46699   -46710   -46726   -46741   -46752   -46758   -46761 
  -46758   -46751   -46745   -46745   -46745   -46744   -46746   -46748 
  -46745   -46739   -46734   -46732   -46729   -46721   -46710   -46702 
  -46693   -46680   -46673   -46677   -46693   -46715   -46735   -46750 
  -46758   -46767   -46789   -46821   -46851   -46876   -46900   -46925 
  -46951   -46982   -47015   -47045   -47078   -47121   -47168   -47210 
  -47242   -47264   -47280   -47298   -47327   -47370   -47412   -47449 
  -47479   -47501   -47523   -47550   -47576   -47605   -47644   -47681 
  -47708   -47726   -47743   -47764   -47790   -47810   -47817   -47824 
  -47839   -47839   -47816   -47797   -47806   -47839   -47859   -47849 
  -47834   -47829   -47815   -47788   -47771   -47769   -47763   -47757 
  -47760   -47760   -47747   -47726   -47709   -47699   -47680   -47645 
  -47606   -47574   -47540   -47506   -47481   -47464   -47438   -47400 
  -47372   -47367   -47365   -47349   -47320   -47294   -47280   -47267 
  -47242   -47211   -47183   -47162   -47156   -47156   -47135   -47094 
  -47060   -47050   -47047   -47028   -46988   -46954   -46941   -46929 
  -46902   -46867   -46845   -46843   -46842   -46817   -46782   -46764 
  -46763   -46764   -46750   -46719   -46701   -46707   -46712   -46704 
  -46688   -46668   -46661   -46673   -46685   -46689   -46700   -46710 
  -46699   -46687   -46702   -46729   -46745   -46749   -46753   -46772 
  -46800   -46815   -46818   -46834   -46860   -46885   -46899   -46899 
  -46907   -46926   -46941   -46949   -46945   -46945   -46956   -46956 
  -46949   -46953   -46963   -46973   -46988   -47004   -47010   -47003 
  -46996   -46992   -46993   -47002   -47009   -47008   -47013   -47026 
  -47026   -47008   -46986   -46978   -46979   -46972   -46956   -46943 
  -46932   -46906   -46860   -46815   -46779   -46757   -46741   -46702 
  -46645   -46598   -46558   -46520   -46485   -46452   -46430   -46414 
  -46391   -46365   -46342   -46311   -46283   -46274   -46267   -46257 
  -46256   -46252   -46233   -46219   -46222   -46236   -46257   -46273 
  -46274   -46271   -46277   -46289   -46305   -46318   -46313   -46310 
  -46325   -46345   -46357   -46359   -46357   -46368   -46391   -46409 
  -46406   -46391   -46390   -46404   -46407   -46402   -46401   -46394 
  -46382   -46380   -46385   -46382   -46374   -46361   -46347   -46342 
  -46343   -46327   -46305   -46303   -46309   -46299   -46280   -46270 
  -46273   -46277   -46278   -46275   -46269   -46262   -46261   -46274 
  -46291   -46301   -46297   -46289   -46285   -46279   -46262   -46247 
  -46256   -46281   -46287   -46275   -46272   -46276   -46277   -46277 
  -46273   -46263   -46265   -46275   -46270   -46251   -46237   -46223 
  -46212   -46217   -46217   -46199   -46177   -46162   -46150   -46138 
  -46129   -46127   -46128   -46123   -46115   -46111   -46110   -46109 
  -46110   -46104   -46097   -46110   -46131   -46134   -46128   -46136 
  -46159   -46175   -46176   -46177   -46176   -46169   -46179   -46199 
  -46198   -46179   -46158   -46152   -46168   -46185   -46176   -46154 
  -46149   -46152   -46144   -46135   -46142   -46155   -46157   -46149 
  -46134   -46117   -46108   -46111   -46112   -46116   -46140   -46158 
  -46157   -46153   -46154   -46150   -46145   -46146   -46156   -46159 
  -46144   -46126   -46124   -46118   -46098   -46088   -46082   -46062 
  -46038   -46017   -46000   -45989   -45981   -45970   -45960   -45954 
  -45949   -45939   -45931   -45936   -45948   -45952   -45942   -45933 
  -45940   -45957   -45973   -45984   -45988   -45991   -46009   -46030 
  -46033   -46031   -46044   -46069   -46100   -46124   -46133   -46147 
  -46179   -46214   -46245   -46269   -46279   -46290   -46320   -46352 
  -46379   -46402   -46417   -46431   -46452   -46472   -46487   -46497 
  -46505   -46520   -46543   -46564   -46579   -46589   -46603   -46627 
  -46653   -46670   -46685   -46707   -46726   -46739   -46751   -46764 
  -46772   -46784   -46810   -46836   -46841   -46825   -46812   -46817 
  -46830   -46838   -46841   -46839   -46836   -46843   -46852   -46850 
  -46847   -46850   -46855   -46867   -46882   -46889   -46891   -46897 
  -46907   -46917   -46926   -46927   -46919   -46917   -46924   -46930 
  -46934   -46935   -46936   -46946   -46958   -46967   -46980   -46988 
  -46988   -46990   -46993   -46997   -46992   -46983   -46994   -47019 
  -47023   -47009   -46993   -46979   -46969   -46967   -46969   -46978 
  -46986   -46982   -46983   -46995   -46997   -46990   -46991   -47001 
  -47013   -47022   -47018   -47017   -47020   -47011   -47005   -47016 
  -47019   -47012   -47016   -47021   -47019   -47013   -47010   -47024 
  -47044   -47041   -47020   -47009   -47014   -47027   -47034   -47032 
  -47039   -47052   -47052   -47045   -47052   -47071   -47090   -47106 
  -47119   -47127   -47133   -47131   -47128   -47138   -47156   -47161 
  -47152   -47153   -47172   -47182   -47169   -47166   -47194   -47226 
  -47236   -47242   -47259   -47280   -47291   -47288   -47287   -47292 
  -47293   -47287   -47279   -47275   -47277   -47287   -47296   -47288 
  -47272   -47260   -47258   -47270   -47280   -47273   -47272   -47289 
  -47303   -47301   -47287   -47274   -47272   -47275   -47271   -47268 
  -47274   -47282   -47284   -47286   -47293   -47292   -47288   -47303 
  -47328   -47327   -47306   -47302   -47318   -47323   -47309   -47296 
  -47307   -47334   -47341   -47325   -47317   -47319   -47321   -47328 
  -47330   -47328   -47328   -47327   -47333   -47349   -47356   -47354 
  -47373   -47402   -47410   -47410   -47420   -47433   -47445   -47460 
  -47475   -47487   -47492   -47487   -47490   -47508   -47521   -47522 
  -47527   -47538   -47553   -47569   -47572   -47567   -47575   -47592 
  -47612   -47631   -47646   -47659   -47676   -47689   -47692   -47698 
  -47712   -47732   -47753   -47767   -47775   -47793   -47816   -47832 
  -47846   -47865   -47894   -47931   -47965   -47985   -48000   -48020 
  -48048   -48080   -48110   -48125   -48136   -48166   -48206   -48231 
  -48233   -48227   -48236   -48258   -48283   -48308   -48325   -48335 
  -48355   -48385   -48409   -48427   -48450   -48474   -48484   -48486 
  -48488   -48496   -48504   -48502   -48498   -48514   -48534   -48530 
  -48512   -48506   -48510   -48519   -48527   -48532   -48527   -48514 
  -48503   -48499   -48497   -48494   -48493   -48490   -48487   -48485 
  -48480   -48476   -48476   -48475   -48465   -48448   -48439   -48444 
  -48441   -48421   -48396   -48376   -48355   -48340   -48337   -48322 
  -48292   -48280   -48286   -48284   -48268   -48248   -48238   -48241 
  -48245   -48246   -48251   -48252   -48240   -48228   -48223   -48218 
  -48213   -48205   -48196   -48197   -48200   -48186   -48164   -48162 
  -48164   -48148   -48134   -48130   -48127   -48114   -48095   -48082 
  -48078   -48071   -48059   -48053   -48049   -48048   -48055   -48063 
  -48063   -48056   -48048   -48041   -48037   -48041   -48048   -48048 
  -48046   -48034   -48017   -48016   -48032   -48042   -48038   -48028 
  -48025   -48035   -48042   -48035   -48028   -48035   -48045   -48046 
  -48039   -48038   -48034   -48023   -48024   -48030   -48028   -48024 
  -48013   -47987   -47962   -47953   -47954   -47956   -47951   -47937 
  -47923   -47914   -47897   -47875   -47858   -47841   -47826   -47815 
  -47801   -47789   -47783   -47766   -47739   -47723   -47719   -47709 
  -47695   -47684   -47676   -47664   -47649   -47644   -47648   -47645 
  -47646   -47662   -47681   -47697   -47712   -47718   -47722   -47737 
  -47758   -47776   -47795   -47817   -47829   -47837   -47851   -47861 
  -47868   -47879   -47896   -47912   -47918   -47918   -47926   -47942 
  -47953   -47958   -47966   -47978   -47984   -47989   -48004   -48028 
  -48041   -48036   -48043   -48071   -48092   -48097   -48116   -48145 
  -48161   -48164   -48162   -48159   -48164   -48175   -48185   -48196 
  -48208   -48216   -48215   -48202   -48193   -48199   -48211   -48212 
  -48200   -48186   -48177   -48159   -48135   -48118   -48112   -48111 
  -48113   -48107   -48090   -48078   -48080   -48084   -48086   -48089 
  -48084   -48072   -48061   -48049   -48037   -48019   -48004   -48006 
  -48008   -47992   -47973   -47963   -47955   -47955   -47963   -47960 
  -47946   -47935   -47929   -47924   -47923   -47918   -47911   -47917 
  -47933   -47934   -47921   -47916   -47923   -47934   -47953   -47975 
  -47984   -47988   -48004   -48036   -48065   -48082   -48090   -48097 
  -48114   -48140   -48161   -48169   -48170   -48182   -48206   -48217 
  -48216   -48213   -48213   -48227   -48245   -48253   -48254   -48250 
  -48245   -48246   -48248   -48242   -48230   -48219   -48218   -48233 
  -48244   -48236   -48224   -48226   -48242   -48256   -48255   -48247 
  -48239   -48232   -48241   -48262   -48267   -48249   -48237   -48250 
  -48274   -48290   -48289   -48278   -48277   -48293   -48302   -48291 
  -48275   -48271   -48282   -48296   -48301   -48296   -48295   -48304 
  -48320   -48335   -48349   -48359   -48368   -48377   -48379   -48379 
  -48386   -48389   -48386   -48385   -48385   -48385   -48383   -48377 
  -48379   -48389   -48399   -48406   -48409   -48405   -48402   -48408 
  -48417   -48418   -48410   -48403   -48408   -48415   -48411   -48407 
