Origin Time       2011/03/11 14:46:00
Lat.              38.103
Long.             142.860
Depth. (km)       24
Mag.              9.0
Station Code      KYT013
Station Lat.      34.8784
Station Long.     135.8046
Station Height(m) 79
Record Time       2011/03/11 14:49:33
Sampling Freq(Hz) 100Hz
Duration Time(s)  151
Dir.              E-W
Scale Factor      3920(gal)/6182761
Max. Acc. (gal)   2.814
Last Correction   2011/03/11 14:49:18
Memo.             
[...]
    3236     3251     3270     3327     3422     3560     3738     3913 
    4080     4272     4459     4607     4754     4900     4995     5063 
    5118     5118     5082     5064     5038     4973     4917     4887 
    4866     4885     4922     4932     4936     4943     4980     5049 
    5089     5122     5176     5192     5186     5203     5197     5159 
    5115     5067     5054     5072     5059     5030     5019     5013 
    4995     4960     4904     4820     4742     4666     4538     4411 
    4321     4214     4106     3986     3811     3633     3493     3363 
    3236     3112     2992     2889     2816     2769     2721     2659 
    2607     2572     2557     2572     2595     2622     2666     2711 
    2772     2852     2905     2951     3001     3022     3051     3100 
    3132     3163     3210     3270     3357     3467     3573     3666 
    3750     3819     3884     3956     4007     4009     3989     3956 
    3901     3866     3837     3786     3739     3690     3664     3697 
    3723     3711     3719     3753     3795     3838     3876     3957 
    4090     4208     4313     4438     4543     4596     4627     4644 
    4608     4526     4442     4370     4312     4258     4170     4069 
    3992     3902     3777     3644     3506     3370     3258     3153 
    3038     2923     2809     2732     2709     2687     2649     2636 
    2639     2651     2689     2721     2731     2772     2854     2928 
    2976     3025     3094     3166     3232     3297     3346     3392 
    3446     3491     3538     3577     3617     3669     3710     3745 
    3795     3838     3879     3940     3989     4004     4007     3995 
    3977     3982     3993     3991     3996     4022     4062     4127 
    4207     4262     4320     4417     4515     4607     4719     4829 
    4930     5031     5134     5241     5338     5419     5494     5552 
    5585     5602     5607     5605     5587     5531     5440     5345 
    5264     5177     5063     4938     4828     4729     4636     4530 
    4401     4285     4194     4102     4017     3942     3874     3835 
    3807     3785     3811     3864     3904     3956     4003     4013 
    4039     4076     4060     4006     3935     3829     3709     3595 
    3455     3273     3083     2878     2634     2381     2148     1929 
    1741     1582     1432     1347     1316     1280     1276     1314 
    1376     1458     1514     1557     1615     1661     1713     1772 
    1814     1866     1947     2020     2064     2114     2170     2216 
    2293     2387     2439     2481     2552     2604     2630     2663 
    2683     2703     2751     2818     2903     2980     3015     3053 
    3122     3187     3258     3335     3369     3398     3470     3521 
    3543     3564     3531     3467     3442     3410     3336     3277 
    3237     3175     3095     3025     2962     2905     2849     2787 
    2730     2681     2635     2603     2578     2559     2568     2600 
    2643     2702     2759     2798     2849     2915     2959     2990 
    3049     3156     3311     3484     3654     3828     4015     4205 
    4382     4548     4708     4839     4931     5019     5144     5271 
    5351     5400     5448     5509     5602     5732     5863     5955 
    6009     6027     6003     5962     5878     5726     5575     5426 
    5227     5047     4959     4923     4893     4854     4794     4744 
    4738     4738     4692     4580     4414     4222     4018     3780 
    3520     3287     3091     2926     2831     2806     2797     2791 
    2763     2671     2551     2426     2293     2218     2222     2245 
    2288     2375     2479     2591     2729     2860     2981     3125 
    3246     3289     3264     3169     3041     2924     2794     2704 
    2719     2816     2977     3157     3284     3357     3412     3467 
    3486     3411     3266     3135     3057     3032     3043     3023 
    2939     2846     2792     2771     2769     2773     2771     2766 
    2780     2817     2861     2945     3104     3326     3621     3990 
    4362     4711     5071     5408     5642     5717     5641     5491 
    5346     5221     5071     4858     4625     4458     4391     4402 
    4477     4607     4761     4911     5026     5076     5088     5087 
    5021     4903     4829     4808     4828     4882     4906     4884 
    4858     4850     4886     4966     5065     5151     5178     5139 
    5055     4907     4669     4370     4076     3806     3535     3284 
    3083     2964     2971     3050     3111     3149     3169     3200 
    3273     3320     3325     3354     3403     3440     3439     3392 
    3315     3227     3198     3251     3336     3482     3685     3882 
    4083     4259     4355     4397     4419     4455     4517     4568 
    4645     4783     4877     4889     4872     4851     4900     5046 
    5209     5353     5470     5517     5516     5538     5572     5560 
    5516     5451     5360     5315     5349     5408     5455     5459 
    5436     5433     5428     5417     5444     5489     5520     5554 
    5578     5565     5537     5468     5295     5046     4783     4533 
    4336     4167     3975     3824     3792     3836     3934     4109 
    4304     4500     4711     4885     4998     5074     5130     5170 
    5161     5086     4952     4764     4540     4353     4249     4182 
    4138     4164     4217     4250     4301     4365     4417     4485 
    4527     4487     4459     4505     4543     4564     4645     4782 
    4926     5084     5242     5333     5317     5216     5066     4869 
    4652     4478     4332     4173     4057     3999     3925     3838 
    3802     3854     3993     4149     4239     4273     4284     4244 
    4147     4044     3957     3876     3807     3745     3669     3601 
    3579     3582     3595     3610     3625     3676     3742     3778 
    3770     3687     3565     3482     3420     3349     3283     3218 
    3147     3103     3077     3029     2971     2920     2861     2795 
    2726     2646     2580     2547     2539     2586     2701     2842 
    2988     3155     3349     3547     3699     3761     3760     3780 
    3836     3869     3881     3875     3814     3717     3628     3545 
    3469     3415     3363     3316     3285     3248     3224     3237 
    3264     3337     3465     3576     3681     3789     3804     3724 
    3634     3519     3335     3126     2912     2688     2523     2416 
    2332     2321     2365     2416     2525     2699     2875     3015 
    3097     3108     3083     3062     3027     2979     2931     2838 
    2705     2590     2503     2454     2460     2481     2465     2401 
    2296     2208     2173     2128     2054     2003     1941     1819 
    1682     1567     1466     1396     1353     1301     1262     1288 
    1380     1532     1703     1829     1924     2037     2146     2230 
    2307     2365     2403     2468     2558     2650     2754     2867 
    3001     3168     3316     3417     3516     3624     3729     3853 
    3959     3984     3961     3936     3916     3950     4028     4079 
    4122     4196     4269     4332     4396     4435     4446     4453 
    4447     4427     4428     4445     4451     4424     4360     4288 
    4226     4142     4010     3843     3637     3379     3068     2723 
    2370     2041     1776     1582     1426     1279     1134     1025 
     976      957      959      990     1031     1111     1242     1358 
    1432     1466     1436     1365     1312     1281     1252     1234 
    1249     1290     1330     1351     1356     1360     1358     1364 
    1411     1467     1533     1636     1718     1779     1877     1953 
    1979     2018     2057     2067     2092     2159     2237     2290 
    2341     2431     2543     2679     2850     3018     3172     3329 
    3495     3637     3711     3744     3784     3825     3840     3806 
    3728     3642     3589     3571     3551     3493     3388     3286 
    3248     3254     3228     3135     3010     2873     2718     2563 
    2397     2227     2094     1981     1868     1783     1731     1706 
    1730     1804     1892     1977     2067     2171     2308     2463 
    2611     2755     2893     3029     3181     3336     3498     3690 
    3897     4051     4144     4231     4324     4430     4563     4671 
    4728     4775     4817     4841     4834     4764     4646     4521 
    4387     4252     4119     3963     3791     3635     3496     3370 
    3260     3180     3148     3160     3182     3188     3198     3220 
    3232     3245     3256     3245     3244     3289     3350     3400 
    3438     3461     3453     3416     3363     3290     3182     3085 
    3040     3002     2934     2827     2701     2594     2514     2466 
    2451     2451     2456     2442     2431     2458     2489     2499 
    2530     2599     2677     2785     2948     3112     3241     3340 
    3435     3554     3684     3819     3950     4056     4145     4225 
    4288     4302     4269     4239     4221     4205     4204     4197 
    4161     4112     4058     3990     3890     3731     3528     3328 
    3136     2930     2726     2522     2305     2128     1997     1868 
    1758     1689     1657     1648     1632     1609     1613     1641 
    1658     1664     1663     1671     1732     1833     1929     2021 
    2092     2128     2147     2170     2188     2174     2131     2090 
    2074     2101     2144     2180     2235     2313     2405     2515 
    2633     2765     2910     3053     3185     3302     3406     3498 
    3598     3730     3862     3983     4131     4284     4394     4460 
    4494     4517     4559     4592     4580     4553     4522     4471 
    4414     4348     4252     4165     4110     4036     3942     3860 
    3772     3678     3600     3515     3422     3355     3304     3246 
    3176     3082     3001     2969     2967     2975     2987     2985 
    2987     3036     3108     3182     3287     3390     3457     3542 
    3637     3698     3728     3733     3744     3788     3812     3782 
    3727     3653     3565     3488     3401     3304     3251     3247 
    3268     3315     3368     3379     3375     3401     3415     3400 
    3408     3424     3416     3402     3355     3276     3191     3058 
    2896     2780     2694     2606     2531     2458     2366     2263 
    2148     2035     1954     1871     1774     1677     1544     1403 
    1296     1165     1002      884      822      789      785      782 
     760      756      775      798      814      823      853      924 
    1004     1085     1194     1316     1435     1544     1610     1655 
    1716     1758     1777     1816     1850     1859     1884     1922 
    1919     1874     1839     1818     1793     1791     1814     1839 
    1887     1929     1946     1981     2004     1981     1986     2056 
    2139     2200     2247     2304     2376     2444     2502     2561 
    2635     2735     2853     2963     3056     3139     3220     3313 
    3395     3433     3469     3547     3633     3711     3810     3908 
    3985     4084     4207     4324     4439     4540     4615     4702 
    4807     4877     4916     4957     4962     4926     4893     4863 
    4844     4841     4823     4799     4786     4747     4699     4686 
    4671     4643     4639     4648     4647     4624     4572     4515 
    4461     4396     4335     4275     4183     4060     3935     3823 
    3731     3646     3572     3550     3590     3657     3747     3891 
    4061     4211     4378     4572     4745     4900     5054     5186 
    5280     5340     5358     5344     5325     5275     5202     5145 
    5087     5007     4902     4773     4650     4530     4388     4239 
    4089     3921     3744     3588     3461     3346     3222     3079 
    2945     2860     2795     2700     2592     2489     2395     2343 
    2305     2221     2140     2117     2129     2167     2221     2271 
    2336     2408     2474     2554     2633     2683     2719     2747 
    2772     2824     2880     2911     2952     2999     3035     3087 
    3143     3170     3189     3218     3247     3272     3315     3374 
    3423     3481     3561     3645     3739     3840     3929     4026 
    4148     4277     4421     4583     4715     4828     4964     5124 
    5273     5366     5423     5495     5563     5617     5679     5728 
    5767     5814     5824     5788     5750     5700     5624     5539 
    5431     5273     5089     4931     4788     4612     4409     4202 
    4006     3852     3728     3605     3509     3458     3406     3334 
    3289     3288     3315     3363     3411     3466     3539     3600 
    3658     3743     3845     3947     4008     4022     4057     4117 
    4183     4281     4398     4514     4635     4744     4821     4883 
    4953     5018     5050     5062     5071     5094     5149     5208 
    5237     5252     5266     5281     5298     5302     5298     5313 
    5349     5397     5444     5477     5509     5554     5594     5620 
    5647     5663     5652     5625     5579     5499     5416     5335 
    5205     5074     4989     4893     4801     4744     4675     4609 
    4575     4548     4551     4619     4714     4811     4919     5043 
    5187     5341     5501     5672     5835     6002     6220     6439 
    6605     6763     6938     7108     7267     7414     7538     7647 
    7756     7871     7978     8048     8094     8162     8247     8305 
    8321     8324     8320     8294     8263     8225     8148     8054 
    7954     7828     7687     7527     7329     7102     6850     6560 
    6254     5958     5647     5332     5052     4797     4535     4278 
    4055     3857     3675     3525     3401     3305     3239     3159 
    3060     2994     2980     2995     3011     3031     3073     3147 
    3237     3337     3445     3540     3636     3757     3871     3958 
    4048     4153     4278     4461     4686     4884     5050     5197 
    5326     5445     5528     5577     5626     5659     5672     5683 
    5686     5664     5615     5542     5444     5331     5226     5123 
    5016     4901     4768     4632     4521     4414     4271     4106 
    3940     3780     3653     3564     3471     3354     3239     3165 
    3142     3140     3147     3162     3166     3168     3195     3226 
    3242     3271     3315     3350     3373     3400     3436     3472 
    3493     3477     3431     3393     3363     3318     3246     3165 
    3111     3074     3047     3047     3026     2966     2944     2984 
    3028     3055     3086     3127     3178     3248     3325     3384 
    3435     3491     3541     3587     3618     3609     3604     3624 
    3639     3641     3626     3587     3541     3505     3473     3430 
    3375     3319     3274     3241     3204     3169     3154     3148 
    3157     3182     3177     3161     3189     3226     3253     3314 
    3382     3435     3529     3645     3744     3856     3976     4082 
    4200     4321     4428     4541     4653     4735     4817     4925 
    5021     5091     5149     5192     5225     5243     5242     5244 
    5250     5231     5185     5156     5157     5157     5157     5159 
    5155     5160     5174     5162     5115     5054     4995     4945 
    4897     4829     4732     4611     4485     4377     4274     4140 
    3990     3861     3759     3662     3557     3459     3384     3300 
    3190     3072     2962     2867     2789     2718     2666     2635 
    2617     2624     2662     2708     2759     2836     2935     3022 
    3086     3122     3119     3101     3103     3122     3147     3187 
    3237     3297     3396     3544     3706     3845     3992     4182 
    4403     4611     4760     4876     5025     5149     5184     5198 
    5223     5240     5268     5308     5350     5408     5472     5544 
    5613     5647     5676     5728     5747     5725     5699     5657 
    5601     5546     5483     5401     5302     5178     5032     4898 
    4764     4604     4431     4248     4072     3912     3727     3525 
    3348     3174     2998     2855     2731     2615     2551     2525 
    2498     2475     2447     2410     2393     2391     2373     2335 
    2307     2299     2299     2299     2299     2328     2407     2484 
    2527     2573     2628     2686     2772     2869     2952     3021 
    3064     3099     3186     3283     3321     3359     3428     3493 
    3573     3667     3760     3861     3949     4024     4124     4238 
    4356     4484     4589     4664     4744     4821     4882     4952 
    5029     5078     5099     5134     5196     5251     5261     5224 
    5205     5230     5219     5157     5097     5028     4951     4901 
    4843     4759     4674     4589     4519     4490     4489     4490 
    4517     4579     4642     4736     4859     4960     5056     5161 
    5255     5349     5448     5542     5627     5700     5755     5791 
    5822     5857     5890     5895     5877     5891     5928     5926 
    5890     5864     5828     5756     5696     5649     5558     5432 
    5316     5221     5152     5077     4967     4866     4798     4725 
    4664     4629     4584     4533     4474     4378     4267     4151 
    4032     3930     3820     3682     3543     3420     3318     3245 
    3196     3155     3126     3125     3141     3153     3154     3152 
    3156     3172     3192     3205     3221     3263     3349     3474 
    3592     3697     3824     3957     4102     4302     4519     4700 
    4886     5092     5262     5401     5562     5757     5972     6190 
    6370     6520     6701     6898     7043     7134     7190     7216 
    7228     7231     7178     7038     6868     6714     6541     6321 
    6068     5789     5481     5164     4869     4574     4252     3939 
    3649     3377     3134     2887     2629     2403     2208     2024 
    1874     1770     1686     1621     1583     1571     1587     1612 
    1642     1684     1716     1731     1755     1796     1860     1948 
    2031     2098     2189     2309     2411     2488     2539     2579 
    2676     2842     2994     3109     3261     3455     3639     3827 
    4029     4235     4439     4640     4869     5120     5355     5585 
    5835     6089     6320     6544     6784     7015     7216     7367 
    7475     7580     7667     7740     7820     7865     7892     7923 
    7912     7870     7827     7743     7620     7508     7388     7246 
    7114     6965     6820     6743     6696     6617     6531     6476 
    6442     6409     6380     6367     6384     6412     6438     6456 
    6430     6394     6381     6351     6293     6234     6196     6160 
    6102     6050     6003     5927     5844     5769     5705     5655 
    5600     5524     5443     5353     5240     5121     5007     4892 
    4798     4726     4638     4542     4467     4401     4355     4350 
    4329     4280     4248     4233     4242     4280     4305     4326 
    4359     4381     4404     4435     4453     4489     4554     4604 
    4637     4680     4727     4770     4809     4832     4821     4797 
    4798     4800     4779     4750     4699     4641     4601     4566 
    4534     4502     4447     4378     4311     4251     4215     4179 
    4102     4037     4029     3981     3854     3761     3725     3645 
