Origin Time       2011/03/11 14:46:00
Lat.              38.103
Long.             142.860
Depth. (km)       24
Mag.              9.0
Station Code      KYT004
Station Lat.      35.5356
Station Long.     135.1959
Station Height(m) 2
Record Time       2011/03/11 14:49:05
Sampling Freq(Hz) 100Hz
Duration Time(s)  190
Dir.              N-S
Scale Factor      3920(gal)/6182761
Max. Acc. (gal)   3.087
Last Correction   2011/03/11 14:48:50
Memo.             
[...]
  -36639   -36678   -36726   -36764   -36787   -36812   -36839   -36873 
  -36940   -37040   -37115   -37147   -37190   -37231   -37231   -37214 
  -37198   -37192   -37224   -37290   -37383   -37510   -37648   -37776 
  -37893   -37983   -38035   -38068   -38097   -38122   -38140   -38147 
  -38159   -38196   -38235   -38268   -38298   -38294   -38263   -38216 
  -38134   -38026   -37886   -37713   -37545   -37394   -37259   -37153 
  -37081   -37021   -36937   -36820   -36705   -36601   -36487   -36380 
  -36298   -36220   -36139   -36065   -36012   -35968   -35923   -35907 
  -35934   -35968   -35980   -35994   -36041   -36129   -36263   -36419 
  -36553   -36632   -36654   -36668   -36721   -36802   -36887   -37006 
  -37180   -37362   -37520   -37676   -37847   -38009   -38163   -38325 
  -38483   -38632   -38759   -38851   -38924   -38982   -39002   -38983 
  -38935   -38851   -38758   -38706   -38711   -38752   -38783   -38790 
  -38800   -38795   -38740   -38674   -38619   -38534   -38432   -38350 
  -38286   -38247   -38229   -38200   -38142   -38058   -37959   -37869 
  -37794   -37713   -37616   -37502   -37394   -37300   -37195   -37082 
  -36981   -36893   -36809   -36714   -36587   -36430   -36275   -36143 
  -36028   -35940   -35897   -35892   -35926   -35991   -36043   -36061 
  -36068   -36065   -36061   -36096   -36173   -36254   -36341   -36449 
  -36580   -36739   -36906   -37060   -37206   -37313   -37357   -37378 
  -37433   -37518   -37613   -37724   -37853   -37973   -38060   -38128 
  -38194   -38236   -38248   -38251   -38247   -38240   -38242   -38245 
  -38243   -38209   -38117   -37990   -37871   -37789   -37722   -37615 
  -37469   -37324   -37206   -37138   -37098   -37019   -36899   -36779 
  -36660   -36543   -36436   -36335   -36273   -36261   -36236   -36188 
  -36164   -36137   -36086   -36063   -36072   -36063   -36022   -35971 
  -35943   -35978   -36090   -36235   -36370   -36472   -36551   -36669 
  -36836   -36991   -37114   -37205   -37302   -37450   -37612   -37788 
  -38026   -38285   -38505   -38711   -38914   -39061   -39169   -39320 
  -39502   -39629   -39686   -39718   -39739   -39725   -39674   -39596 
  -39520   -39436   -39276   -39081   -38928   -38782   -38618   -38475 
  -38367   -38274   -38176   -38037   -37872   -37734   -37575   -37361 
  -37170   -36998   -36771   -36551   -36438   -36357   -36226   -36101 
  -36019   -35970   -35929   -35856   -35807   -35834   -35873   -35917 
  -36013   -36129   -36216   -36298   -36393   -36489   -36591   -36684 
  -36797   -36946   -37025   -37026   -37066   -37105   -37055   -37004 
  -37042   -37094   -37093   -37083   -37093   -37136   -37170   -37144 
  -37135   -37193   -37264   -37352   -37475   -37579   -37607   -37581 
  -37593   -37684   -37803   -37870   -37897   -37948   -38013   -38059 
  -38086   -38098   -38102   -38099   -38104   -38078   -37977   -37867 
  -37811   -37790   -37779   -37765   -37746   -37704   -37641   -37580 
  -37528   -37498   -37478   -37445   -37436   -37450   -37439   -37411 
  -37376   -37315   -37212   -37084   -36968   -36853   -36703   -36566 
  -36484   -36385   -36239   -36124   -36081   -36099   -36173   -36261 
  -36312   -36348   -36374   -36370   -36405   -36526   -36647   -36710 
  -36774   -36877   -36990   -37107   -37220   -37287   -37307   -37320 
  -37350   -37407   -37483   -37538   -37556   -37534   -37489   -37488 
  -37555   -37667   -37803   -37919   -38052   -38231   -38370   -38468 
  -38619   -38823   -38993   -39040   -38996   -38988   -39008   -38972 
  -38874   -38699   -38432   -38159   -37965   -37856   -37790   -37718 
  -37614   -37495   -37392   -37311   -37234   -37134   -37000   -36857 
  -36750   -36689   -36638   -36574   -36509   -36452   -36360   -36246 
  -36199   -36206   -36212   -36225   -36236   -36221   -36172   -36109 
  -36071   -36059   -36046   -36037   -36068   -36125   -36203   -36332 
  -36486   -36620   -36736   -36846   -36953   -37048   -37130   -37215 
  -37324   -37438   -37526   -37586   -37619   -37628   -37622   -37622 
  -37636   -37635   -37641   -37647   -37602   -37533   -37455   -37349 
  -37242   -37147   -37068   -37008   -36928   -36821   -36756   -36734 
  -36700   -36668   -36660   -36630   -36567   -36503   -36449   -36431 
  -36473   -36492   -36436   -36407   -36454   -36526   -36632   -36731 
  -36722   -36697   -36758   -36826   -36879   -36880   -36766   -36692 
  -36758   -36830   -36892   -36932   -36852   -36773   -36772   -36750 
  -36741   -36709   -36580   -36532   -36596   -36596   -36598   -36681 
  -36734   -36751   -36788   -36831   -36899   -36972   -37009   -37055 
  -37128   -37195   -37260   -37309   -37329   -37345   -37357   -37374 
  -37405   -37419   -37413   -37404   -37389   -37364   -37308   -37230 
  -37148   -37050   -36961   -36900   -36842   -36784   -36740   -36710 
  -36709   -36717   -36699   -36696   -36700   -36643   -36575   -36546 
  -36510   -36487   -36468   -36412   -36377   -36365   -36335   -36324 
  -36336   -36349   -36382   -36432   -36493   -36559   -36575   -36570 
  -36630   -36699   -36740   -36832   -36968   -37111   -37263   -37397 
  -37518   -37639   -37736   -37822   -37906   -37973   -38016   -38031 
  -38039   -38039   -38002   -37968   -37975   -37965   -37927   -37923 
  -37939   -37945   -37933   -37885   -37849   -37815   -37708   -37600 
  -37568   -37569   -37567   -37536   -37492   -37475   -37456   -37418 
  -37399   -37372   -37308   -37270   -37263   -37229   -37162   -37113 
  -37095   -37046   -36954   -36875   -36796   -36682   -36569   -36460 
  -36347   -36244   -36128   -36016   -35953   -35893   -35827   -35808 
  -35810   -35798   -35778   -35758   -35766   -35801   -35815   -35823 
  -35876   -35937   -35979   -36043   -36091   -36096   -36129   -36183 
  -36239   -36328   -36415   -36511   -36648   -36742   -36787   -36879 
  -37000   -37104   -37229   -37374   -37500   -37611   -37735   -37848 
  -37904   -37957   -38028   -38000   -37906   -37872   -37781   -37594 
  -37495   -37444   -37277   -37102   -37041   -36989   -36871   -36781 
  -36760   -36684   -36566   -36552   -36567   -36530   -36554   -36606 
  -36598   -36626   -36692   -36687   -36688   -36740   -36738   -36739 
  -36826   -36885   -36911   -37021   -37176   -37280   -37340   -37415 
  -37574   -37755   -37853   -37942   -38079   -38214   -38368   -38499 
  -38532   -38550   -38556   -38517   -38579   -38651   -38549   -38512 
  -38587   -38505   -38446   -38490   -38335   -38169   -38133   -37930 
  -37715   -37617   -37368   -37137   -37032   -36794   -36584   -36471 
  -36248   -36066   -35954   -35759   -35605   -35499   -35351   -35243 
  -35176   -35119   -35096   -35116   -35200   -35280   -35322   -35455 
  -35642   -35793   -35957   -36118   -36301   -36496   -36618   -36782 
  -36986   -37123   -37247   -37330   -37383   -37458   -37480   -37518 
  -37574   -37581   -37627   -37664   -37700   -37828   -37925   -38011 
  -38167   -38288   -38383   -38476   -38558   -38634   -38642   -38642 
  -38672   -38649   -38612   -38569   -38514   -38456   -38319   -38189 
  -38109   -37989   -37912   -37852   -37743   -37702   -37658   -37528 
  -37440   -37389   -37344   -37336   -37315   -37292   -37293   -37289 
  -37296   -37269   -37183   -37090   -36957   -36807   -36653   -36425 
  -36215   -36057   -35850   -35675   -35570   -35429   -35306   -35252 
  -35232   -35289   -35363   -35357   -35399   -35556   -35685   -35798 
  -35964   -36086   -36181   -36328   -36506   -36765   -36991   -37019 
  -37100   -37286   -37298   -37317   -37500   -37574   -37591   -37732 
  -37816   -37850   -37956   -38004   -38041   -38210   -38341   -38396 
  -38589   -38824   -38928   -39021   -39120   -39140   -39179   -39261 
  -39275   -39249   -39240   -39207   -39111   -38972   -38842   -38734 
  -38617   -38493   -38364   -38218   -38052   -37871   -37691   -37533 
  -37428   -37350   -37227   -37063   -36926   -36803   -36649   -36500 
  -36368   -36194   -36007   -35858   -35695   -35494   -35299   -35107 
  -34934   -34805   -34705   -34663   -34691   -34717   -34716   -34740 
  -34792   -34825   -34846   -34905   -35002   -35090   -35140   -35201 
  -35312   -35416   -35482   -35582   -35737   -35874   -36005   -36175 
  -36322   -36425   -36551   -36707   -36863   -36997   -37102   -37220 
  -37371   -37524   -37675   -37819   -37945   -38069   -38175   -38266 
  -38384   -38474   -38462   -38417   -38384   -38321   -38267   -38229 
  -38122   -37958   -37824   -37758   -37740   -37711   -37635   -37562 
  -37534   -37523   -37534   -37602   -37669   -37665   -37641   -37674 
  -37723   -37704   -37644   -37604   -37549   -37441   -37320   -37212 
  -37086   -36930   -36774   -36623   -36463   -36320   -36229   -36194 
  -36172   -36137   -36107   -36091   -36084   -36084   -36094   -36113 
  -36138   -36149   -36135   -36143   -36181   -36201   -36213   -36247 
  -36313   -36378   -36385   -36363   -36358   -36354   -36351   -36370 
  -36406   -36468   -36558   -36654   -36747   -36849   -36978   -37129 
  -37273   -37391   -37494   -37586   -37673   -37769   -37872   -37980 
  -38070   -38119   -38158   -38215   -38269   -38290   -38265   -38225 
  -38204   -38207   -38224   -38210   -38155   -38109   -38076   -38088 
  -38144   -38130   -38070   -38087   -38138   -38178   -38243   -38314 
  -38338   -38311   -38275   -38253   -38245   -38229   -38173   -38101 
  -38068   -38067   -38072   -38089   -38103   -38085   -38053   -37995 
  -37914   -37871   -37889   -37920   -37904   -37838   -37787   -37786 
  -37792   -37780   -37794   -37837   -37859   -37868   -37884   -37878 
  -37848   -37823   -37810   -37821   -37862   -37912   -37960   -38020 
  -38123   -38278   -38420   -38509   -38601   -38752   -38958   -39179 
  -39385   -39572   -39736   -39897   -40074   -40233   -40344   -40432 
  -40494   -40516   -40529   -40533   -40517   -40482   -40407   -40305 
  -40194   -40065   -39932   -39803   -39677   -39548   -39402   -39251 
  -39090   -38865   -38571   -38264   -37948   -37608   -37294   -37035 
  -36799   -36581   -36396   -36218   -36034   -35870   -35718   -35557 
  -35415   -35283   -35143   -35050   -35006   -34967   -34957   -35000 
  -35094   -35249   -35444   -35666   -35942   -36259   -36590   -36942 
  -37306   -37664   -38013   -38361   -38695   -38981   -39235   -39504 
  -39775   -40012   -40217   -40410   -40608   -40781   -40880   -40931 
  -40968   -40969   -40935   -40867   -40750   -40600   -40422   -40226 
  -40023   -39795   -39541   -39297   -39080   -38834   -38538   -38246 
  -37965   -37679   -37400   -37115   -36809   -36489   -36153   -35840 
  -35584   -35334   -35101   -34950   -34841   -34742   -34675   -34643 
  -34664   -34735   -34823   -34937   -35063   -35177   -35311   -35485 
  -35682   -35886   -36098   -36319   -36566   -36828   -37071   -37307 
  -37569   -37830   -38061   -38300   -38552   -38765   -38954   -39157 
  -39352   -39510   -39636   -39765   -39899   -39998   -40054   -40099 
  -40163   -40205   -40172   -40114   -40069   -40015   -39957   -39902 
  -39848   -39778   -39674   -39580   -39494   -39352   -39181   -39023 
  -38853   -38684   -38523   -38337   -38153   -37981   -37786   -37599 
  -37444   -37271   -37084   -36940   -36827   -36707   -36598   -36529 
  -36483   -36436   -36410   -36422   -36452   -36485   -36527   -36582 
  -36643   -36707   -36787   -36899   -37029   -37164   -37305   -37481 
  -37685   -37857   -38009   -38191   -38365   -38512   -38662   -38808 
  -38933   -39031   -39104   -39156   -39194   -39201   -39165   -39136 
  -39134   -39093   -39005   -38936   -38885   -38806   -38699   -38566 
  -38417   -38271   -38100   -37908   -37732   -37549   -37364   -37221 
  -37125   -37051   -36972   -36919   -36909   -36874   -36795   -36726 
  -36671   -36636   -36640   -36659   -36689   -36716   -36699   -36695 
  -36741   -36768   -36762   -36774   -36808   -36844   -36899   -37015 
  -37179   -37296   -37339   -37433   -37644   -37884   -38120   -38352 
  -38481   -38531   -38658   -38867   -39048   -39134   -39157   -39233 
  -39362   -39433   -39466   -39510   -39542   -39572   -39585   -39580 
  -39581   -39567   -39573   -39598   -39569   -39551   -39575   -39563 
  -39532   -39473   -39355   -39286   -39284   -39244   -39153   -39037 
  -38842   -38543   -38231   -38008   -37862   -37728   -37524   -37212 
  -36953   -36852   -36779   -36661   -36505   -36320   -36189   -36152 
  -36151   -36106   -35974   -35850   -35858   -35905   -35894   -35938 
  -36062   -36153   -36227   -36336   -36496   -36701   -36857   -36946 
  -37073   -37254   -37435   -37607   -37770   -37927   -38102   -38289 
  -38497   -38740   -38961   -39181   -39462   -39724   -39948   -40216 
  -40455   -40542   -40550   -40623   -40749   -40804   -40804   -40865 
  -40932   -40892   -40833   -40853   -40858   -40760   -40636   -40570 
  -40499   -40329   -40123   -39962   -39826   -39670   -39448   -39177 
  -38954   -38753   -38500   -38228   -37973   -37730   -37509   -37297 
  -37054   -36797   -36590   -36429   -36272   -36090   -35865   -35688 
  -35618   -35566   -35501   -35424   -35320   -35216   -35116   -35095 
  -35183   -35210   -35187   -35277   -35421   -35525   -35667   -35882 
  -36110   -36351   -36622   -36907   -37232   -37585   -37907   -38239 
  -38592   -38926   -39238   -39520   -39804   -40104   -40375   -40639 
  -40930   -41184   -41359   -41527   -41724   -41858   -41919   -42012 
  -42131   -42205   -42244   -42262   -42288   -42322   -42309   -42289 
  -42295   -42258   -42174   -42104   -42030   -41903   -41731   -41532 
  -41312   -41078   -40822   -40557   -40301   -40026   -39718   -39401 
  -39106   -38820   -38524   -38262   -38040   -37806   -37583   -37383 
  -37173   -36977   -36804   -36629   -36491   -36404   -36330   -36250 
  -36183   -36167   -36151   -36079   -36035   -36060   -36074   -36072 
  -36130   -36246   -36335   -36416   -36562   -36719   -36865   -37039 
  -37223   -37416   -37631   -37860   -38085   -38276   -38433   -38588 
  -38776   -38980   -39161   -39372   -39616   -39819   -40021   -40251 
  -40446   -40605   -40754   -40902   -41060   -41199   -41286   -41341 
  -41378   -41368   -41314   -41264   -41224   -41153   -41010   -40834 
  -40711   -40566   -40320   -40071   -39819   -39496   -39176   -38883 
  -38584   -38299   -38025   -37759   -37516   -37272   -37022   -36794 
  -36607   -36433   -36249   -36104   -36031   -35984   -35939   -35916 
  -35918   -35929   -35948   -35989   -36075   -36203   -36332   -36471 
  -36665   -36874   -37059   -37259   -37464   -37649   -37851   -38049 
  -38191   -38302   -38430   -38582   -38737   -38877   -39016   -39189 
  -39380   -39549   -39693   -39814   -39904   -39982   -40061   -40130 
  -40189   -40230   -40224   -40180   -40117   -40029   -39931   -39849 
  -39779   -39704   -39610   -39497   -39369   -39235   -39092   -38933 
  -38786   -38631   -38442   -38266   -38107   -37924   -37731   -37557 
  -37401   -37204   -36958   -36750   -36575   -36374   -36194   -36047 
  -35894   -35761   -35668   -35565   -35459   -35414   -35415   -35446 
  -35526   -35626   -35746   -35924   -36146   -36375   -36614   -36888 
  -37193   -37490   -37776   -38074   -38366   -38616   -38827   -39029 
  -39210   -39341   -39468   -39628   -39758   -39821   -39875   -39934 
  -39958   -39974   -39990   -39953   -39877   -39808   -39738   -39645 
  -39520   -39375   -39219   -39046   -38866   -38681   -38483   -38291 
  -38129   -37981   -37812   -37630   -37458   -37276   -37062   -36852 
  -36663   -36453   -36212   -35994   -35835   -35703   -35573   -35487 
  -35476   -35500   -35520   -35575   -35699   -35823   -35926   -36057 
  -36193   -36306   -36423   -36549   -36693   -36811   -36862   -36929 
  -37055   -37154   -37222   -37324   -37440   -37535   -37642   -37774 
  -37908   -38027   -38124   -38228   -38326   -38386   -38451   -38545 
  -38640   -38715   -38781   -38877   -38984   -39039   -39077   -39146 
  -39196   -39207   -39222   -39247   -39255   -39224   -39167   -39134 
  -39113   -39078   -39049   -39013   -38970   -38934   -38857   -38751 
  -38670   -38574   -38428   -38258   -38081   -37889   -37679   -37468 
  -37251   -36990   -36723   -36507   -36303   -36079   -35873   -35706 
  -35546   -35373   -35223   -35109   -35005   -34912   -34858   -34834 
  -34835   -34852   -34858   -34872   -34939   -35043   -35155   -35305 
  -35502   -35701   -35894   -36108   -36324   -36510   -36671   -36849 
  -37028   -37162   -37304   -37507   -37731   -37926   -38103   -38309 
  -38540   -38741   -38919   -39094   -39245   -39372   -39496   -39597 
  -39670   -39751   -39821   -39860   -39901   -39927   -39905   -39871 
  -39822   -39732   -39618   -39485   -39329   -39142   -38941   -38765 
  -38594   -38415   -38249   -38093   -37943   -37800   -37658   -37513 
  -37354   -37189   -37029   -36882   -36755   -36611   -36452   -36337 
  -36246   -36118   -35981   -35873   -35788   -35712   -35629   -35547 
  -35490   -35448   -35418   -35417   -35440   -35481   -35542   -35629 
  -35746   -35873   -36010   -36184   -36388   -36600   -36830   -37089 
  -37351   -37617   -37895   -38162   -38421   -38669   -38902   -39133 
  -39341   -39528   -39717   -39897   -40048   -40153   -40233   -40329 
  -40411   -40455   -40489   -40505   -40490   -40454   -40382   -40282 
  -40191   -40091   -39939   -39773   -39630   -39475   -39300   -39134 
  -38960   -38751   -38515   -38290   -38069   -37816   -37556   -37329 
  -37133   -36962   -36785   -36596   -36429   -36266   -36096   -35971 
  -35867   -35745   -35665   -35633   -35612   -35649   -35747   -35841 
  -35962   -36149   -36372   -36607   -36853   -37126   -37440   -37777 
  -38128   -38490   -38851   -39198   -39522   -39799   -40037   -40277 
  -40489   -40635   -40750   -40855   -40937   -40983   -41000   -41003 
  -40975   -40902   -40798   -40689   -40565   -40396   -40186   -39986 
  -39808   -39605   -39376   -39149   -38901   -38606   -38321   -38082 
  -37835   -37558   -37277   -36996   -36724   -36467   -36193   -35907 
  -35646   -35393   -35151   -34952   -34775   -34598   -34438   -34319 
  -34238   -34166   -34121   -34123   -34153   -34210   -34300   -34427 
  -34592   -34771   -34975   -35244   -35549   -35829   -36090   -36370 
  -36668   -36971   -37280   -37605   -37930   -38233   -38540   -38864 
  -39176   -39445   -39683   -39940   -40196   -40399   -40570   -40739 
  -40893   -41011   -41085   -41145   -41211   -41243   -41212   -41174 
  -41147   -41066   -40915   -40736   -40541   -40322   -40071   -39805 
  -39541   -39268   -38969   -38679   -38423   -38148   -37827   -37504 
  -37199   -36890   -36587   -36320   -36067   -35793   -35534   -35335 
  -35155   -34968   -34803   -34663   -34537   -34415   -34291   -34202 
  -34146   -34105   -34118   -34194   -34282   -34356   -34447   -34609 
  -34829   -35044   -35257   -35494   -35721   -35929   -36163   -36409 
  -36629   -36837   -37025   -37206   -37411   -37613   -37797   -37993 
  -38207   -38418   -38617   -38817   -39019   -39207   -39377   -39539 
  -39703   -39837   -39927   -40020   -40121   -40185   -40189   -40136 
  -40051   -39951   -39832   -39714   -39603   -39460   -39280   -39107 
  -38944   -38760   -38573   -38381   -38191   -38009   -37804   -37602 
