Origin Time       2011/03/11 14:46:00
Lat.              38.103
Long.             142.860
Depth. (km)       24
Mag.              9.0
Station Code      KYT003
Station Lat.      35.6762
Station Long.     135.2927
Station Height(m) 27
Record Time       2011/03/11 14:50:58
Sampling Freq(Hz) 100Hz
Duration Time(s)  60
Dir.              N-S
Scale Factor      3920(gal)/6182761
Max. Acc. (gal)   1.631
Last Correction   2011/03/11 14:50:43
Memo.             
[...]
  -24947   -24950   -24958   -24920   -24965   -25107   -25180   -25143 
  -25135   -25160   -25097   -25026   -25117   -25274   -25326   -25354 
  -25471   -25552   -25500   -25465   -25542   -25594   -25567   -25610 
  -25720   -25725   -25658   -25686   -25746   -25688   -25607   -25636 
  -25661   -25591   -25579   -25699   -25771   -25724   -25731   -25822 
  -25851   -25834   -25905   -26009   -26011   -25979   -26019   -26028 
  -25937   -25904   -25997   -26041   -25980   -25979   -26061   -26068 
  -26014   -26066   -26181   -26186   -26122   -26118   -26107   -26006 
  -25950   -26025   -26071   -26001   -25957   -25979   -25926   -25804 
  -25783   -25851   -25853   -25834   -25931   -26062   -26079   -26064 
  -26126   -26166   -26115   -26113   -26188   -26174   -26067   -26037 
  -26066   -26003   -25916   -25959   -26031   -25984   -25928   -25981 
  -26017   -25954   -25935   -25996   -25981   -25882   -25874   -25967 
  -26004   -25997   -26078   -26173   -26152   -26125   -26210   -26284 
  -26270   -26304   -26417   -26446   -26383   -26383   -26438   -26402 
  -26316   -26327   -26355   -26254   -26143   -26169   -26212   -26153 
  -26118   -26181   -26190   -26099   -26065   -26093   -26031   -25902 
  -25851   -25848   -25770   -25678   -25677   -25652   -25508   -25375 
  -25333   -25263   -25134   -25072   -25070   -24980   -24834   -24787 
  -24802   -24742   -24671   -24707   -24744   -24671   -24603   -24623 
  -24604   -24511   -24505   -24588   -24586   -24516   -24541   -24615 
  -24583   -24523   -24583   -24649   -24598   -24576   -24697   -24808 
  -24817   -24858   -24961   -24995   -24970   -25034   -25144   -25148 
  -25108   -25169   -25246   -25217   -25210   -25335   -25444   -25440 
  -25449   -25526   -25536   -25473   -25506   -25614   -25640   -25638 
  -25727   -25816   -25790   -25759   -25829   -25882   -25833   -25833 
  -25930   -25957   -25902   -25943   -26054   -26066   -26034   -26108 
  -26215   -26221   -26211   -26296   -26365   -26339   -26364   -26515 
  -26640   -26701   -26843   -27031   -27087   -27068   -27149   -27267 
  -27286   -27298   -27395   -27450   -27386   -27356   -27436   -27493 
  -27485   -27538   -27637   -27626   -27542   -27547   -27586   -27531 
  -27455   -27462   -27447   -27323   -27223   -27227   -27193   -27067 
  -26996   -26994   -26906   -26761   -26720   -26714   -26588   -26430 
  -26376   -26331   -26210   -26133   -26144   -26070   -25864   -25705 
  -25655   -25591   -25510   -25530   -25595   -25567   -25516   -25567 
  -25619   -25582   -25581   -25681   -25749   -25748   -25817   -25954 
  -25986   -25915   -25912   -25960   -25929   -25882   -25925   -25949 
  -25858   -25783   -25818   -25853   -25838   -25886   -26005   -26039 
  -25994   -26041   -26166   -26222   -26256   -26384   -26521   -26554 
  -26581   -26686   -26757   -26741   -26763   -26850   -26861   -26808 
  -26846   -26928   -26878   -26751   -26714   -26708   -26613   -26506 
  -26480   -26432   -26301   -26217   -26222   -26185   -26104   -26113 
  -26177   -26170   -26147   -26213   -26278   -26218   -26145   -26175 
  -26191   -26126   -26118   -26195   -26225   -26191   -26214   -26299 
  -26323   -26311   -26390   -26487   -26468   -26414   -26425   -26401 
  -26295   -26243   -26268   -26224   -26116   -26078   -26084   -26013 
  -25916   -25927   -25974   -25933   -25886   -25916   -25923   -25859 
  -25846   -25910   -25904   -25811   -25782   -25804   -25763   -25724 
  -25800   -25901   -25910   -25911   -25990   -26043   -26001   -26010 
  -26117   -26169   -26136   -26146   -26178   -26107   -25996   -26002 
  -26052   -26010   -25971   -26039   -26088   -26041   -26036   -26121 
  -26151   -26096   -26103   -26195   -26219   -26162   -26165   -26193 
  -26133   -26066   -26100   -26134   -26067   -26001   -26013   -25998 
  -25928   -25943   -26066   -26127   -26089   -26131   -26275   -26350 
  -26381   -26540   -26762   -26841   -26836   -26931   -27055   -27058 
  -27041   -27140   -27233   -27172   -27079   -27117   -27165   -27064 
  -26955   -26992   -27017   -26884   -26742   -26741   -26741   -26599 
  -26460   -26492   -26568   -26514   -26441   -26504   -26589   -26528 
  -26419   -26445   -26507   -26399   -26203   -26133   -26133   -26000 
  -25761   -25607   -25554   -25432   -25213   -25077   -25068   -24999 
  -24784   -24596   -24569   -24587   -24505   -24395   -24409   -24517 
  -24543   -24480   -24504   -24643   -24714   -24663   -24641   -24738 
  -24835   -24799   -24717   -24742   -24819   -24791   -24694   -24700 
  -24829   -24904   -24819   -24709   -24732   -24828   -24850   -24833 
  -24927   -25119   -25228   -25200   -25195   -25347   -25563   -25664 
  -25673   -25761   -25948   -26084   -26118   -26168   -26321   -26478 
  -26493   -26426   -26462   -26613   -26717   -26685   -26622   -26666 
  -26772   -26792   -26711   -26660   -26689   -26676   -26538   -26390 
  -26370   -26429   -26410   -26274   -26137   -26074   -26039   -25959 
  -25829   -25739   -25739   -25740   -25653   -25538   -25521   -25609 
  -25677   -25641   -25558   -25523   -25522   -25480   -25382   -25303 
  -25302   -25333   -25313   -25233   -25157   -25146   -25165   -25139 
  -25062   -25011   -25029   -25056   -25036   -24972   -24921   -24927 
  -24942   -24924   -24881   -24853   -24868   -24885   -24846   -24770 
  -24733   -24769   -24806   -24784   -24745   -24738   -24757   -24760 
  -24747   -24767   -24822   -24904   -24994   -25051   -25085   -25142 
  -25240   -25353   -25449   -25539   -25617   -25675   -25711   -25717 
  -25732   -25780   -25849   -25925   -25965   -25968   -25973   -26004 
  -26069   -26134   -26184   -26246   -26323   -26402   -26457   -26491 
  -26550   -26646   -26768   -26885   -26945   -26960   -26974   -27009 
  -27036   -27029   -27030   -27071   -27125   -27156   -27157   -27158 
  -27187   -27248   -27302   -27316   -27333   -27377   -27426   -27477 
  -27511   -27509   -27487   -27480   -27504   -27531   -27558   -27598 
  -27652   -27704   -27710   -27679   -27660   -27648   -27650   -27667 
  -27666   -27639   -27613   -27627   -27652   -27629   -27582   -27545 
  -27519   -27499   -27464   -27414   -27373   -27357   -27345   -27288 
  -27200   -27127   -27090   -27076   -27044   -27001   -26981   -26974 
  -26970   -26951   -26923   -26911   -26929   -27011   -27118   -27164 
  -27156   -27152   -27165   -27153   -27100   -27053   -27028   -27020 
  -27008   -26962   -26905   -26883   -26935   -27038   -27110   -27136 
  -27178   -27271   -27365   -27410   -27447   -27504   -27575   -27655 
  -27705   -27714   -27694   -27668   -27650   -27605   -27534   -27488 
  -27487   -27500   -27461   -27385   -27333   -27323   -27348   -27363 
  -27345   -27308   -27268   -27244   -27216   -27168   -27109   -27057 
  -27048   -27056   -27038   -27019   -26995   -26968   -26935   -26885 
  -26852   -26844   -26866   -26904   -26882   -26797   -26734   -26742 
  -26798   -26852   -26873   -26855   -26837   -26853   -26867   -26850 
  -26815   -26800   -26803   -26762   -26681   -26610   -26569   -26553 
  -26518   -26460   -26409   -26368   -26345   -26311   -26237   -26164 
  -26143   -26163   -26152   -26095   -26018   -25945   -25915   -25900 
  -25847   -25779   -25705   -25631   -25532   -25385   -25244   -25144 
  -25072   -24985   -24865   -24753   -24679   -24645   -24631   -24609 
  -24604   -24631   -24705   -24818   -24901   -24935   -24982   -25101 
  -25262   -25397   -25516   -25635   -25751   -25853   -25902   -25926 
  -25968   -26042   -26147   -26211   -26198   -26172   -26191   -26234 
  -26233   -26208   -26201   -26213   -26255   -26287   -26279   -26266 
  -26270   -26302   -26331   -26321   -26294   -26295   -26338   -26374 
  -26366   -26345   -26358   -26431   -26528   -26586   -26606   -26627 
  -26686   -26741   -26745   -26732   -26743   -26791   -26850   -26870 
  -26871   -26885   -26922   -26957   -26951   -26910   -26861   -26834 
  -26818   -26764   -26697   -26649   -26630   -26656   -26680   -26676 
  -26666   -26682   -26724   -26730   -26699   -26681   -26702   -26740 
  -26750   -26754   -26788   -26834   -26884   -26915   -26931   -26959 
  -27016   -27109   -27185   -27203   -27196   -27232   -27335   -27437 
  -27484   -27496   -27504   -27531   -27553   -27550   -27548   -27562 
  -27611   -27664   -27662   -27622   -27606   -27643   -27678   -27660 
  -27624   -27609   -27629   -27661   -27665   -27651   -27651   -27687 
  -27733   -27739   -27726   -27742   -27785   -27802   -27750   -27676 
  -27626   -27612   -27622   -27601   -27535   -27445   -27364   -27317 
  -27277   -27240   -27235   -27263   -27281   -27234   -27156   -27113 
  -27122   -27161   -27163   -27099   -27006   -26933   -26915   -26898 
  -26850   -26821   -26820   -26810   -26738   -26603   -26466   -26374 
  -26329   -26276   -26180   -26068   -25974   -25918   -25867   -25773 
  -25669   -25620   -25642   -25673   -25674   -25671   -25677   -25705 
  -25745   -25764   -25773   -25794   -25847   -25897   -25898   -25886 
  -25897   -25921   -25927   -25882   -25813   -25758   -25731   -25705 
  -25640   -25548   -25480   -25481   -25512   -25496   -25455   -25444 
  -25462   -25479   -25449   -25385   -25329   -25310   -25335   -25349 
  -25315   -25276   -25280   -25303   -25270   -25190   -25131   -25122 
  -25143   -25136   -25092   -25062   -25076   -25135   -25193   -25215 
  -25229   -25276   -25346   -25364   -25334   -25318   -25326   -25342 
  -25336   -25300   -25255   -25237   -25287   -25350   -25352   -25317 
  -25310   -25359   -25404   -25389   -25346   -25303   -25267   -25214 
  -25126   -25038   -24987   -24982   -24967   -24891   -24785   -24721 
  -24736   -24773   -24761   -24730   -24723   -24748   -24780   -24781 
  -24753   -24740   -24785   -24869   -24926   -24950   -24979   -25048 
  -25136   -25193   -25241   -25337   -25484   -25600   -25607   -25538 
  -25478   -25499   -25579   -25632   -25641   -25640   -25647   -25647 
  -25629   -25626   -25657   -25718   -25791   -25805   -25748   -25683 
  -25666   -25691   -25669   -25580   -25500   -25468   -25450   -25402 
  -25342   -25306   -25305   -25338   -25372   -25376   -25373   -25398 
  -25446   -25478   -25498   -25545   -25626   -25714   -25756   -25748 
  -25731   -25726   -25762   -25802   -25799   -25774   -25758   -25763 
  -25759   -25718   -25682   -25705   -25782   -25841   -25834   -25804 
  -25795   -25827   -25880   -25909   -25927   -25981   -26077   -26140 
  -26126   -26099   -26113   -26170   -26235   -26262   -26254   -26250 
  -26292   -26346   -26341   -26294   -26270   -26303   -26353   -26353 
  -26327   -26339   -26402   -26475   -26517   -26545   -26583   -26647 
  -26721   -26753   -26751   -26760   -26817   -26887   -26890   -26842 
  -26796   -26753   -26702   -26627   -26544   -26463   -26385   -26329 
  -26263   -26157   -26042   -25984   -25991   -25979   -25906   -25820 
  -25765   -25740   -25698   -25621   -25546   -25508   -25508   -25475 
  -25369   -25246   -25174   -25146   -25091   -24999   -24936   -24942 
  -24989   -25017   -25002   -24983   -24994   -25047   -25095   -25083 
  -25042   -25048   -25123   -25203   -25242   -25265   -25308   -25368 
  -25394   -25352   -25287   -25247   -25239   -25197   -25070   -24919 
  -24827   -24808   -24797   -24740   -24655   -24577   -24522   -24481 
  -24447   -24440   -24461   -24516   -24577   -24595   -24600   -24650 
  -24771   -24925   -25036   -25104   -25172   -25266   -25361   -25429 
  -25492   -25574   -25695   -25826   -25904   -25939   -25976   -26041 
  -26099   -26103   -26090   -26093   -26116   -26170   -26210   -26201 
  -26192   -26234   -26299   -26319   -26291   -26259   -26248   -26220 
  -26138   -26032   -25951   -25915   -25903   -25869   -25806   -25738 
  -25697   -25689   -25667   -25613   -25580   -25622   -25703   -25736 
  -25699   -25623   -25558   -25540   -25542   -25531   -25511   -25504 
  -25500   -25443   -25320   -25204   -25165   -25192   -25198   -25147 
  -25074   -25018   -25002   -24989   -24938   -24877   -24857   -24884 
  -24892   -24842   -24790   -24800   -24866   -24928   -24964   -24998 
  -25065   -25178   -25282   -25332   -25364   -25446   -25608   -25772 
  -25864   -25930   -26031   -26161   -26279   -26358   -26415   -26497 
  -26632   -26773   -26870   -26937   -27026   -27151   -27260   -27326 
  -27399   -27512   -27651   -27756   -27778   -27739   -27708   -27720 
  -27731   -27703   -27659   -27631   -27639   -27647   -27604   -27533 
  -27477   -27453   -27433   -27383   -27317   -27252   -27206   -27163 
  -27085   -26988   -26909   -26882   -26894   -26865   -26779   -26694 
  -26662   -26668   -26662   -26645   -26631   -26641   -26662   -26638 
  -26547   -26440   -26394   -26399   -26380   -26324   -26273   -26251 
  -26238   -26183   -26101   -26049   -26048   -26063   -26033   -25965 
  -25897   -25857   -25849   -25833   -25793   -25745   -25698   -25668 
  -25631   -25555   -25457   -25388   -25377   -25375   -25316   -25228 
  -25180   -25185   -25160   -25056   -24937   -24894   -24933   -24943 
  -24834   -24681   -24620   -24635   -24592   -24445   -24319   -24327 
  -24390   -24348   -24212   -24159   -24253   -24338   -24284   -24201 
  -24231   -24320   -24315   -24217   -24177   -24250   -24304   -24235 
  -24137   -24149   -24228   -24201   -24070   -24022   -24108   -24152 
  -24051   -23959   -24011   -24063   -23943   -23748   -23670   -23683 
  -23602   -23433   -23385   -23481   -23509   -23388   -23299   -23373 
  -23474   -23451   -23410   -23499   -23644   -23679   -23644   -23724 
  -23920   -24040   -24040   -24084   -24249   -24390   -24408   -24443 
  -24628   -24824   -24868   -24888   -25047   -25237   -25301   -25315 
  -25444   -25646   -25737   -25751   -25878   -26094   -26215   -26238 
  -26342   -26540   -26650   -26647   -26708   -26870   -26963   -26946 
  -26982   -27135   -27248   -27247   -27284   -27428   -27531   -27510 
  -27514   -27629   -27701   -27656   -27667   -27790   -27856   -27803 
  -27791   -27892   -27934   -27841   -27795   -27863   -27864   -27741 
  -27689   -27768   -27774   -27654   -27615   -27694   -27702   -27613 
  -27600   -27662   -27617   -27490   -27480   -27552   -27519   -27421 
  -27422   -27444   -27328   -27187   -27189   -27216   -27106   -26982 
  -26970   -26920   -26738   -26603   -26596   -26550   -26431   -26390 
  -26406   -26337   -26229   -26224   -26261   -26206   -26152   -26210 
  -26259   -26221   -26216   -26282   -26294   -26235   -26226   -26250 
  -26191   -26095   -26072   -26061   -25983   -25932   -25965   -25961 
  -25886   -25858   -25892   -25876   -25819   -25823   -25839   -25793 
  -25760   -25794   -25819   -25805   -25825   -25889   -25908   -25897 
  -25968   -26071   -26096   -26128   -26247   -26367   -26445   -26561 
  -26710   -26793   -26825   -26913   -27028   -27067   -27103   -27227 
  -27323   -27321   -27363   -27495   -27574   -27586   -27669   -27802 
  -27860   -27887   -27980   -28054   -28025   -28001   -28047   -28055 
  -27989   -27984   -28054   -28054   -28005   -28037   -28099   -28079 
  -28052   -28120   -28183   -28151   -28133   -28202   -28237   -28179 
  -28163   -28225   -28222   -28157   -28172   -28214   -28143   -28033 
  -28003   -27974   -27861   -27759   -27719   -27628   -27461   -27365 
  -27364   -27312   -27199   -27155   -27141   -27015   -26834   -26729 
  -26636   -26474   -26352   -26329   -26281   -26163   -26094   -26099 
  -26054   -25958   -25937   -25963   -25908   -25811   -25786   -25773 
  -25681   -25596   -25597   -25583   -25510   -25496   -25558   -25557 
  -25498   -25516   -25579   -25581   -25578   -25640   -25679   -25628 
  -25599   -25682   -25766   -25771   -25806   -25896   -25908   -25841 
  -25834   -25862   -25803   -25719   -25727   -25744   -25657   -25565 
  -25548   -25494   -25363   -25309   -25369   -25399   -25388   -25469 
  -25634   -25762   -25873   -26044   -26178   -26166   -26099   -26064 
  -25968   -25784   -25664   -25651   -25593   -25459   -25374   -25324 
  -25202   -25089   -25106   -25148   -25099   -25066   -25115   -25106 
  -25000   -24958   -25005   -24984   -24887   -24852   -24845   -24753 
  -24658   -24681   -24743   -24751   -24804   -24970   -25113   -25172 
  -25286   -25480   -25579   -25541   -25512   -25515   -25464   -25437 
  -25555   -25716   -25776   -25765   -25728   -25600   -25426   -25432 
  -25664   -25901   -26041   -26183   -26321   -26368   -26413   -26580 
  -26745   -26718   -26559   -26437   -26384   -26431   -26693   -27120 
  -27463   -27638   -27743   -27753   -27581   -27337   -27201   -27136 
  -27059   -27087   -27280   -27455   -27500   -27522   -27567   -27538 
  -27466   -27486   -27530   -27380   -27089   -26930   -26899   -26794 
  -26696   -26818   -27040   -27140   -27220   -27370   -27305   -26931 
  -26844   -27394   -27825   -27657   -27672   -27934   -27582   -27149 
  -27370   -27334   -26822   -26954   -27480   -27324   -26927   -27078 
  -27323   -27222   -27112   -27055   -26845   -26748   -26871   -26852 
  -26629   -26509   -26562   -26569   -26514   -26486   -26416   -26418 
  -26522   -26456   -26269   -26213   -26203   -26098   -25972   -25856 
  -25759   -25777   -25778   -25528   -25215   -25163   -25404   -25772 
  -26036   -26079   -25929   -25653   -25457   -25506   -25730   -26027 
  -26274   -26293   -26071   -25838   -25762   -25752   -25723   -25712 
  -25728   -25720   -25544   -25161   -24839   -24827   -25080   -25433 
  -25694   -25644   -25396   -25360   -25487   -25398   -25283   -25542 
  -25938   -26092   -26132   -26228   -26213   -26055   -26018   -26090 
  -26047   -25949   -25931   -25913   -25811   -25754   -25880   -26099 
  -26286   -26451   -26591   -26607   -26497   -26470   -26639   -26838 
  -26997   -27172   -27204   -26961   -26669   -26539   -26519   -26523 
  -26521   -26492   -26434   -26356   -26328   -26361   -26285   -26124 
  -26146   -26232   -26036   -25748   -25740   -25819   -25745   -25701 
  -25762   -25790   -25806   -25881   -25878   -25659   -25405   -25415 
  -25600   -25653   -25602   -25631   -25661   -25626   -25640   -25666 
  -25620   -25613   -25722   -25843   -25873   -25814   -25800   -25927 
  -26052   -26074   -26116   -26186   -26209   -26299   -26482   -26544 
  -26475   -26510   -26636   -26653   -26656   -26843   -27082   -27148 
  -27093   -27089   -27111   -27060   -27061   -27177   -27229   -27234 
  -27349   -27439   -27340   -27169   -27079   -27048   -26991   -26969 
  -27048   -27075   -26951   -26756   -26562   -26404   -26316   -26340 
  -26452   -26466   -26336   -26319   -26428   -26416   -26365   -26444 
  -26468   -26318   -26152   -26050   -25933   -25843   -25891   -25990 
  -25915   -25654   -25464   -25405   -25259   -25074   -25015   -24944 
  -24803   -24795   -24922   -25006   -25063   -25194   -25312   -25336 
  -25345   -25340   -25273   -25199   -25201   -25309   -25461   -25586 
  -25771   -26022   -26129   -26030   -25927   -25874   -25785   -25772 
  -25922   -26053   -26076   -26106   -26154   -26191   -26238   -26274 
  -26319   -26371   -26332   -26250   -26277   -26407   -26572   -26750 
  -26847   -26761   -26601   -26529   -26486   -26380   -26334   -26409 
  -26484   -26580   -26780   -26934   -26822   -26489   -26254   -26251 
