Origin Time       2011/03/11 14:46:00
Lat.              38.103
Long.             142.860
Depth. (km)       24
Mag.              9.0
Station Code      KYT012
Station Lat.      34.9977
Station Long.     135.8177
Station Height(m) 87
Record Time       2011/03/11 14:50:45
Sampling Freq(Hz) 100Hz
Duration Time(s)  60
Dir.              E-W
Scale Factor      3920(gal)/6182761
Max. Acc. (gal)   2.082
Last Correction   2011/03/11 14:50:30
Memo.             
[...]
  -54103   -54020   -53957   -53965   -54052   -54141   -54198   -54234 
  -54233   -54191   -54122   -54073   -54103   -54205   -54322   -54426 
  -54503   -54511   -54443   -54365   -54347   -54399   -54499   -54623 
  -54730   -54800   -54822   -54780   -54695   -54601   -54523   -54492 
  -54506   -54519   -54481   -54391   -54322   -54315   -54329   -54343 
  -54371   -54405   -54432   -54443   -54434   -54425   -54427   -54440 
  -54462   -54440   -54332   -54200   -54115   -54100   -54176   -54325 
  -54471   -54523   -54431   -54236   -54045   -53945   -53956   -54019 
  -54086   -54146   -54156   -54057   -53889   -53754   -53709   -53767 
  -53902   -54052   -54149   -54140   -54047   -53948   -53867   -53781 
  -53702   -53643   -53609   -53621   -53659   -53712   -53795   -53894 
  -54000   -54096   -54092   -53952   -53743   -53538   -53397   -53341 
  -53334   -53408   -53616   -53866   -54049   -54143   -54136   -54046 
  -53947   -53868   -53810   -53790   -53795   -53824   -53879   -53912 
  -53892   -53860   -53874   -53916   -53937   -53944   -53951   -53933 
  -53882   -53847   -53863   -53911   -53961   -53987   -53983   -53960 
  -53922   -53897   -53922   -54007   -54123   -54207   -54221   -54183 
  -54138   -54094   -54037   -53967   -53881   -53784   -53731   -53741 
  -53740   -53723   -53745   -53768   -53739   -53664   -53561   -53470 
  -53423   -53391   -53360   -53357   -53373   -53369   -53338   -53287 
  -53231   -53200   -53193   -53164   -53081   -52975   -52899   -52878 
  -52887   -52853   -52772   -52718   -52695   -52663   -52631   -52612 
  -52571   -52490   -52385   -52298   -52276   -52308   -52373   -52457 
  -52507   -52485   -52414   -52338   -52268   -52214   -52223   -52305 
  -52400   -52448   -52444   -52417   -52400   -52407   -52432   -52502 
  -52625   -52736   -52770   -52740   -52690   -52630   -52577   -52544 
  -52521   -52511   -52539   -52619   -52720   -52790   -52816   -52796 
  -52729   -52638   -52557   -52524   -52549   -52577   -52551   -52504 
  -52486   -52486   -52477   -52466   -52475   -52505   -52558   -52623 
  -52654   -52636   -52595   -52567   -52570   -52579   -52587   -52623 
  -52681   -52730   -52772   -52822   -52852   -52837   -52771   -52685 
  -52641   -52653   -52685   -52724   -52789   -52878   -52937   -52935 
  -52907   -52875   -52861   -52906   -52988   -53052   -53095   -53112 
  -53110   -53119   -53129   -53145   -53218   -53333   -53433   -53504 
  -53557   -53591   -53593   -53555   -53511   -53498   -53497   -53501 
  -53529   -53586   -53651   -53718   -53797   -53865   -53875   -53829 
  -53766   -53713   -53654   -53618   -53647   -53711   -53754   -53769 
  -53783   -53808   -53819   -53825   -53840   -53840   -53835   -53848 
  -53841   -53822   -53834   -53852   -53871   -53910   -53919   -53878 
  -53849   -53852   -53844   -53794   -53734   -53700   -53674   -53627 
  -53587   -53587   -53591   -53576   -53582   -53609   -53605   -53581 
  -53559   -53513   -53456   -53417   -53382   -53374   -53408   -53434 
  -53460   -53515   -53546   -53528   -53515   -53522   -53520   -53505 
  -53494   -53520   -53599   -53708   -53818   -53907   -53964   -53982 
  -53966   -53918   -53841   -53777   -53781   -53848   -53928   -54002 
  -54066   -54110   -54126   -54089   -54015   -53969   -53960   -53949 
  -53946   -53974   -54010   -54022   -54005   -53986   -53987   -54002 
  -54031   -54075   -54112   -54130   -54122   -54089   -54037   -53974 
  -53929   -53933   -53971   -54006   -54020   -54021   -54031   -54048 
  -54053   -54075   -54136   -54166   -54132   -54099   -54103   -54108 
  -54120   -54164   -54223   -54270   -54306   -54340   -54347   -54316 
  -54284   -54262   -54234   -54190   -54143   -54149   -54221   -54301 
  -54354   -54389   -54411   -54424   -54422   -54415   -54425   -54444 
  -54444   -54434   -54417   -54373   -54325   -54323   -54371   -54424 
  -54474   -54535   -54567   -54527   -54460   -54428   -54436   -54458 
  -54478   -54513   -54588   -54663   -54679   -54672   -54682   -54681 
  -54675   -54690   -54706   -54725   -54753   -54768   -54768   -54753 
  -54706   -54660   -54652   -54643   -54602   -54573   -54565   -54526 
  -54457   -54407   -54393   -54412   -54448   -54475   -54508   -54559 
  -54578   -54554   -54527   -54505   -54492   -54509   -54525   -54493 
  -54435   -54401   -54403   -54417   -54410   -54383   -54356   -54315 
  -54230   -54128   -54078   -54086   -54101   -54110   -54110   -54069 
  -53984   -53885   -53809   -53809   -53897   -54005   -54070   -54083 
  -54057   -54014   -53995   -54014   -54048   -54096   -54181   -54252 
  -54228   -54165   -54152   -54172   -54205   -54242   -54251   -54232 
  -54183   -54109   -54068   -54089   -54151   -54251   -54351   -54387 
  -54351   -54272   -54192   -54164   -54194   -54250   -54327   -54410 
  -54450   -54432   -54414   -54454   -54501   -54510   -54558   -54640 
  -54654   -54605   -54537   -54473   -54457   -54499   -54564   -54639 
  -54717   -54778   -54819   -54828   -54805   -54777   -54777   -54829 
  -54894   -54900   -54851   -54783   -54707   -54634   -54596   -54607 
  -54640   -54655   -54672   -54721   -54754   -54726   -54669   -54593 
  -54500   -54419   -54362   -54309   -54261   -54258   -54321   -54423 
  -54519   -54565   -54541   -54484   -54417   -54343   -54292   -54278 
  -54270   -54238   -54158   -54067   -54047   -54103   -54192   -54307 
  -54400   -54397   -54305   -54153   -53960   -53815   -53776   -53819 
  -53912   -54005   -54056   -54090   -54125   -54123   -54098   -54125 
  -54206   -54259   -54247   -54194   -54119   -54024   -53941   -53915 
  -53950   -54005   -54054   -54111   -54143   -54113   -54078   -54099 
  -54132   -54134   -54138   -54147   -54136   -54103   -54052   -54019 
  -54033   -54062   -54073   -54073   -54077   -54069   -54023   -53967 
  -53966   -54015   -54069   -54115   -54133   -54116   -54088   -54077 
  -54075   -54035   -53969   -53957   -54019   -54117   -54235   -54354 
  -54437   -54468   -54433   -54356   -54315   -54326   -54365   -54432 
  -54497   -54509   -54483   -54453   -54433   -54462   -54552   -54652 
  -54704   -54682   -54590   -54481   -54411   -54371   -54342   -54372 
  -54476   -54564   -54564   -54495   -54401   -54345   -54353   -54376 
  -54404   -54434   -54414   -54360   -54315   -54269   -54241   -54254 
  -54291   -54341   -54390   -54396   -54356   -54281   -54161   -54050 
  -54018   -54049   -54104   -54167   -54219   -54238   -54202   -54072 
  -53891   -53773   -53743   -53748   -53792   -53881   -53946   -53938 
  -53895   -53841   -53795   -53791   -53821   -53861   -53892   -53894 
  -53898   -53934   -53955   -53954   -53990   -54048   -54064   -54026 
  -53949   -53883   -53883   -53927   -53985   -54059   -54125   -54150 
  -54133   -54098   -54080   -54066   -54043   -54041   -54053   -54054 
  -54064   -54085   -54081   -54051   -54027   -54054   -54105   -54121 
  -54133   -54170   -54200   -54224   -54244   -54254   -54284   -54331 
  -54355   -54372   -54405   -54428   -54429   -54437   -54476   -54522 
  -54555   -54591   -54607   -54573   -54537   -54535   -54534   -54515 
  -54499   -54507   -54532   -54541   -54521   -54522   -54560   -54585 
  -54572   -54537   -54515   -54525   -54556   -54607   -54678   -54719 
  -54723   -54745   -54782   -54809   -54840   -54880   -54913   -54911 
  -54870   -54844   -54863   -54875   -54862   -54860   -54879   -54904 
  -54924   -54944   -54983   -55018   -55027   -55004   -54950   -54903 
  -54876   -54846   -54834   -54829   -54793   -54758   -54756   -54740 
  -54707   -54704   -54735   -54771   -54772   -54735   -54695   -54639 
  -54548   -54465   -54410   -54364   -54328   -54302   -54267   -54233 
  -54217   -54215   -54212   -54199   -54181   -54157   -54124   -54096 
  -54058   -54000   -53964   -53949   -53908   -53840   -53789   -53756 
  -53697   -53623   -53606   -53645   -53658   -53618   -53558   -53491 
  -53429   -53408   -53417   -53428   -53440   -53437   -53407   -53348 
  -53265   -53203   -53185   -53192   -53200   -53198   -53192   -53171 
  -53113   -53048   -53020   -53044   -53097   -53119   -53085   -53052 
  -53040   -53026   -53018   -53022   -53016   -53005   -52999   -53001 
  -53003   -52991   -53002   -53062   -53123   -53165   -53207   -53235 
  -53218   -53159   -53113   -53123   -53151   -53169   -53216   -53294 
  -53345   -53363   -53360   -53322   -53272   -53259   -53285   -53342 
  -53436   -53543   -53627   -53687   -53726   -53743   -53762   -53804 
  -53856   -53894   -53926   -53974   -54021   -54032   -54024   -54055 
  -54125   -54186   -54249   -54343   -54408   -54410   -54404   -54403 
  -54378   -54361   -54396   -54446   -54461   -54478   -54530   -54580 
  -54608   -54616   -54618   -54633   -54655   -54642   -54590   -54554 
  -54546   -54542   -54534   -54536   -54556   -54565   -54547   -54536 
  -54520   -54461   -54408   -54401   -54374   -54321   -54294   -54280 
  -54241   -54180   -54125   -54098   -54082   -54048   -54002   -53976 
  -53975   -53964   -53921   -53878   -53855   -53837   -53823   -53822 
  -53831   -53829   -53827   -53845   -53848   -53807   -53776   -53783 
  -53777   -53745   -53724   -53725   -53737   -53743   -53734   -53754 
  -53800   -53815   -53808   -53788   -53739   -53689   -53662   -53655 
  -53670   -53674   -53659   -53673   -53684   -53646   -53615   -53617 
  -53601   -53552   -53517   -53521   -53528   -53503   -53484   -53483 
  -53466   -53443   -53417   -53371   -53338   -53332   -53333   -53338 
  -53353   -53362   -53350   -53336   -53308   -53247   -53197   -53184 
  -53178   -53161   -53162   -53191   -53218   -53201   -53157   -53151 
  -53172   -53178   -53194   -53206   -53178   -53153   -53147   -53135 
  -53145   -53188   -53214   -53226   -53238   -53234   -53216   -53200 
  -53196   -53193   -53171   -53166   -53204   -53221   -53180   -53145 
  -53146   -53148   -53139   -53143   -53176   -53206   -53199   -53174 
  -53136   -53080   -53067   -53097   -53101   -53090   -53088   -53060 
  -53032   -53028   -53007   -52984   -53002   -53032   -53028   -52991 
  -52951   -52932   -52921   -52911   -52930   -52976   -53009   -53010 
  -53001   -52990   -52968   -52959   -52968   -52967   -52965   -52978 
  -52988   -52998   -53017   -53026   -53044   -53089   -53112   -53109 
  -53137   -53196   -53240   -53247   -53238   -53240   -53253   -53267 
  -53291   -53343   -53398   -53437   -53474   -53504   -53520   -53538 
  -53576   -53623   -53646   -53644   -53646   -53656   -53668   -53683 
  -53714   -53772   -53833   -53855   -53841   -53830   -53843   -53860 
  -53865   -53895   -53949   -53967   -53944   -53925   -53906   -53879 
  -53881   -53919   -53944   -53936   -53920   -53912   -53898   -53866 
  -53853   -53876   -53896   -53896   -53891   -53883   -53873   -53864 
  -53848   -53838   -53846   -53856   -53850   -53804   -53748   -53729 
  -53722   -53726   -53745   -53741   -53718   -53705   -53672   -53606 
  -53548   -53532   -53546   -53554   -53539   -53526   -53538   -53560 
  -53566   -53564   -53578   -53592   -53574   -53547   -53550   -53569 
  -53591   -53619   -53632   -53625   -53614   -53609   -53618   -53615 
  -53604   -53627   -53663   -53669   -53655   -53634   -53614   -53614 
  -53626   -53625   -53632   -53672   -53703   -53688   -53663   -53655 
  -53647   -53633   -53622   -53611   -53602   -53590   -53582   -53587 
  -53579   -53550   -53540   -53546   -53524   -53500   -53516   -53536 
  -53523   -53501   -53484   -53477   -53480   -53460   -53431   -53424 
  -53412   -53389   -53371   -53345   -53331   -53341   -53349   -53352 
  -53354   -53350   -53342   -53321   -53287   -53243   -53201   -53189 
  -53185   -53145   -53101   -53095   -53097   -53087   -53086   -53113 
  -53157   -53171   -53122   -53078   -53086   -53094   -53090   -53101 
  -53110   -53117   -53127   -53134   -53145   -53139   -53116   -53127 
  -53151   -53129   -53108   -53128   -53150   -53164   -53192   -53213 
  -53217   -53226   -53220   -53195   -53211   -53257   -53267   -53264 
  -53284   -53297   -53296   -53301   -53302   -53301   -53306   -53307 
  -53303   -53287   -53257   -53243   -53254   -53261   -53269   -53288 
  -53304   -53312   -53313   -53299   -53283   -53293   -53310   -53293 
  -53277   -53290   -53285   -53256   -53242   -53235   -53222   -53230 
  -53243   -53221   -53172   -53117   -53080   -53081   -53078   -53050 
  -53038   -53034   -52993   -52928   -52863   -52822   -52807   -52779 
  -52750   -52752   -52759   -52741   -52705   -52667   -52631   -52586 
  -52543   -52520   -52503   -52481   -52459   -52440   -52420   -52400 
  -52388   -52403   -52404   -52350   -52305   -52309   -52313   -52298 
  -52290   -52293   -52298   -52307   -52295   -52263   -52242   -52242 
  -52251   -52251   -52248   -52249   -52233   -52207   -52192   -52168 
  -52139   -52149   -52171   -52150   -52127   -52135   -52131   -52087 
  -52029   -51991   -51975   -51962   -51926   -51872   -51832   -51811 
  -51782   -51744   -51709   -51675   -51643   -51613   -51579   -51526 
  -51467   -51445   -51454   -51433   -51394   -51370   -51336   -51281 
  -51232   -51200   -51183   -51176   -51143   -51078   -51030   -50998 
  -50956   -50897   -50848   -50830   -50812   -50783   -50758   -50710 
  -50638   -50595   -50579   -50544   -50496   -50473   -50472   -50455 
  -50412   -50369   -50352   -50343   -50322   -50301   -50287   -50277 
  -50259   -50219   -50184   -50179   -50183   -50183   -50190   -50202 
  -50194   -50184   -50200   -50224   -50227   -50234   -50272   -50308 
  -50311   -50308   -50317   -50344   -50373   -50386   -50419   -50478 
  -50518   -50533   -50544   -50556   -50567   -50584   -50599   -50602 
  -50608   -50628   -50659   -50688   -50718   -50752   -50785   -50813 
  -50828   -50838   -50875   -50936   -50993   -51038   -51079   -51137 
  -51203   -51219   -51218   -51268   -51323   -51364   -51435   -51510 
  -51543   -51558   -51581   -51607   -51631   -51670   -51741   -51818 
  -51855   -51867   -51878   -51896   -51934   -51973   -52027   -52107 
  -52174   -52211   -52244   -52285   -52328   -52363   -52397   -52443 
  -52488   -52518   -52557   -52598   -52612   -52631   -52667   -52694 
  -52718   -52726   -52719   -52754   -52802   -52792   -52777   -52809 
  -52838   -52822   -52793   -52791   -52807   -52818   -52818   -52814 
  -52805   -52787   -52769   -52755   -52742   -52745   -52769   -52794 
  -52793   -52778   -52761   -52740   -52728   -52707   -52673   -52670 
  -52696   -52692   -52645   -52606   -52600   -52588   -52555   -52536 
  -52536   -52524   -52506   -52501   -52498   -52492   -52497   -52502 
  -52483   -52456   -52436   -52423   -52409   -52391   -52371   -52355 
  -52366   -52388   -52372   -52355   -52386   -52410   -52388   -52376 
  -52380   -52354   -52325   -52328   -52323   -52306   -52322   -52356 
  -52361   -52350   -52347   -52353   -52377   -52411   -52431   -52442 
  -52467   -52488   -52479   -52468   -52490   -52537   -52582   -52606 
  -52631   -52667   -52690   -52707   -52741   -52778   -52802   -52834 
  -52883   -52930   -52969   -53015   -53081   -53135   -53151   -53169 
  -53219   -53278   -53315   -53334   -53374   -53429   -53457   -53455 
  -53458   -53489   -53539   -53585   -53620   -53645   -53646   -53632 
  -53638   -53653   -53659   -53690   -53752   -53792   -53796   -53799 
  -53801   -53793   -53790   -53802   -53817   -53840   -53879   -53889 
  -53856   -53843   -53858   -53850   -53837   -53854   -53863   -53853 
  -53856   -53857   -53832   -53807   -53813   -53845   -53845   -53804 
  -53787   -53786   -53748   -53701   -53687   -53689   -53694   -53701 
  -53685   -53663   -53670   -53687   -53674   -53647   -53640   -53638 
  -53642   -53673   -53694   -53678   -53667   -53692   -53718   -53723 
  -53734   -53780   -53831   -53838   -53830   -53839   -53841   -53839 
  -53844   -53855   -53891   -53944   -53975   -53978   -53996   -54028 
  -54046   -54069   -54096   -54101   -54091   -54101   -54130   -54132 
  -54110   -54115   -54148   -54175   -54178   -54191   -54230   -54243 
  -54230   -54238   -54255   -54266   -54280   -54284   -54290   -54309 
  -54317   -54319   -54329   -54327   -54321   -54342   -54375   -54372 
  -54341   -54332   -54365   -54389   -54371   -54356   -54375   -54395 
  -54394   -54381   -54377   -54381   -54384   -54388   -54387   -54374 
  -54366   -54364   -54353   -54341   -54337   -54339   -54351   -54347 
  -54308   -54273   -54272   -54283   -54272   -54240   -54229   -54260 
  -54272   -54237   -54224   -54229   -54209   -54203   -54212   -54191 
  -54171   -54173   -54162   -54130   -54094   -54069   -54065   -54060 
  -54028   -54001   -54008   -54013   -53980   -53925   -53887   -53866 
  -53848   -53825   -53789   -53761   -53740   -53703   -53663   -53631 
  -53601   -53581   -53571   -53554   -53540   -53533   -53541   -53566 
  -53560   -53519   -53504   -53521   -53517   -53489   -53472   -53473 
  -53462   -53428   -53395   -53389   -53385   -53366   -53348   -53331 
  -53301   -53273   -53273   -53276   -53254   -53235   -53244   -53255 
  -53244   -53216   -53199   -53217   -53231   -53206   -53196   -53221 
  -53230   -53220   -53205   -53192   -53189   -53174   -53156   -53166 
  -53176   -53170   -53168   -53158   -53135   -53122   -53123   -53126 
  -53111   -53076   -53072   -53105   -53107   -53074   -53057   -53051 
  -53039   -53034   -53012   -52982   -52989   -52999   -52973   -52961 
  -52974   -52972   -52955   -52948   -52944   -52929   -52921   -52938 
  -52958   -52943   -52909   -52913   -52939   -52927   -52902   -52909 
  -52937   -52963   -52964   -52945   -52943   -52948   -52923   -52897 
  -52894   -52878   -52859   -52863   -52857   -52844   -52848   -52857 
  -52857   -52840   -52815   -52811   -52826   -52825   -52801   -52782 
  -52789   -52806   -52792   -52755   -52739   -52743   -52750   -52733 
  -52712   -52743   -52783   -52779   -52781   -52794   -52773   -52753 
  -52755   -52744   -52716   -52694   -52692   -52698   -52668   -52617 
  -52603   -52614   -52606   -52576   -52544   -52527   -52518   -52497 
  -52477   -52477   -52478   -52473   -52465   -52453   -52455   -52460 
  -52445   -52437   -52422   -52384   -52377   -52401   -52403   -52391 
  -52401   -52427   -52439   -52412   -52384   -52398   -52425   -52431 
  -52425   -52420   -52422   -52430   -52435   -52434   -52452   -52489 
  -52518   -52526   -52521   -52519   -52530   -52550   -52578   -52600 
  -52609   -52617   -52618   -52604   -52591   -52596   -52626   -52660 
  -52664   -52661   -52671   -52665   -52652   -52660   -52671   -52676 
  -52695   -52712   -52708   -52699   -52694   -52699   -52712   -52704 
  -52681   -52678   -52692   -52689   -52670   -52670   -52687   -52697 
  -52693   -52671   -52647   -52642   -52642   -52634   -52634   -52646 
  -52649   -52634   -52625   -52633   -52636   -52639   -52663   -52674 
  -52647   -52628   -52641   -52645   -52615   -52590   -52606   -52631 
  -52618   -52592   -52587   -52589   -52593   -52606   -52615   -52630 
  -52658   -52669   -52664   -52668   -52669   -52674   -52698   -52720 
  -52728   -52734   -52753   -52776   -52773   -52755   -52769   -52817 
  -52847   -52847   -52851   -52867   -52884   -52908   -52928   -52938 
