Origin Time       2011/03/11 14:46:00
Lat.              38.103
Long.             142.860
Depth. (km)       24
Mag.              9.0
Station Code      KYT013
Station Lat.      34.8784
Station Long.     135.8046
Station Height(m) 79
Record Time       2011/03/11 14:49:33
Sampling Freq(Hz) 100Hz
Duration Time(s)  151
Dir.              U-D
Scale Factor      3920(gal)/6182761
Max. Acc. (gal)   2.081
Last Correction   2011/03/11 14:49:18
Memo.             
[...]
  -35279   -35290   -35313   -35334   -35335   -35345   -35395   -35456 
  -35501   -35553   -35615   -35644   -35652   -35698   -35769   -35815 
  -35817   -35776   -35733   -35717   -35701   -35639   -35517   -35390 
  -35298   -35205   -35066   -34909   -34759   -34607   -34480   -34398 
  -34339   -34295   -34266   -34251   -34274   -34355   -34446   -34517 
  -34620   -34754   -34851   -34917   -35011   -35117   -35169   -35195 
  -35232   -35251   -35252   -35252   -35238   -35201   -35154   -35119 
  -35083   -35029   -34974   -34911   -34839   -34791   -34766   -34726 
  -34671   -34644   -34658   -34690   -34750   -34826   -34891   -34969 
  -35054   -35132   -35233   -35332   -35390   -35436   -35487   -35535 
  -35567   -35574   -35587   -35630   -35680   -35707   -35737   -35797 
  -35850   -35886   -35976   -36112   -36205   -36269   -36348   -36417 
  -36457   -36476   -36506   -36533   -36498   -36417   -36315   -36188 
  -36046   -35903   -35767   -35636   -35511   -35417   -35363   -35313 
  -35262   -35250   -35284   -35331   -35388   -35452   -35503   -35580 
  -35724   -35876   -35983   -36101   -36254   -36401   -36546   -36693 
  -36818   -36901   -36952   -36984   -36991   -36974   -36924   -36839 
  -36763   -36715   -36654   -36573   -36495   -36413   -36336   -36287 
  -36242   -36194   -36134   -36045   -35961   -35884   -35798   -35727 
  -35641   -35515   -35405   -35325   -35220   -35120   -35084   -35067 
  -35042   -35072   -35164   -35278   -35409   -35529   -35632   -35760 
  -35896   -36003   -36082   -36135   -36190   -36271   -36327   -36333 
  -36340   -36354   -36338   -36310   -36302   -36298   -36258   -36181 
  -36114   -36050   -35951   -35814   -35650   -35471   -35277   -35090 
  -34923   -34738   -34549   -34401   -34304   -34262   -34260   -34290 
  -34367   -34480   -34618   -34780   -34938   -35090   -35267   -35459 
  -35638   -35821   -36008   -36152   -36252   -36339   -36416   -36485 
  -36541   -36568   -36563   -36547   -36524   -36477   -36428   -36399 
  -36333   -36234   -36179   -36124   -36023   -35938   -35861   -35765 
  -35680   -35611   -35547   -35496   -35478   -35475   -35450   -35434 
  -35455   -35490   -35542   -35612   -35685   -35758   -35806   -35824 
  -35838   -35867   -35881   -35841   -35787   -35781   -35788   -35768 
  -35767   -35792   -35799   -35815   -35852   -35879   -35920   -35970 
  -35986   -36008   -36069   -36099   -36093   -36127   -36190   -36218 
  -36228   -36251   -36275   -36273   -36237   -36182   -36116   -36050 
  -35978   -35883   -35784   -35712   -35656   -35608   -35582   -35571 
  -35555   -35541   -35548   -35561   -35553   -35515   -35472   -35438 
  -35405   -35374   -35338   -35288   -35243   -35219   -35198   -35153 
  -35109   -35076   -35010   -34941   -34913   -34879   -34822   -34785 
  -34782   -34801   -34820   -34829   -34836   -34853   -34879   -34874 
  -34843   -34841   -34836   -34800   -34790   -34797   -34780   -34774 
  -34793   -34817   -34832   -34832   -34844   -34862   -34855   -34837 
  -34836   -34856   -34881   -34915   -34952   -34953   -34940   -34963 
  -34995   -35004   -35004   -34999   -35008   -35036   -35058   -35072 
  -35076   -35057   -35036   -35034   -35007   -34937   -34874   -34827 
  -34760   -34692   -34635   -34576   -34556   -34592   -34643   -34703 
  -34784   -34883   -35005   -35140   -35266   -35375   -35463   -35533 
  -35601   -35647   -35663   -35690   -35704   -35668   -35626   -35577 
  -35505   -35452   -35427   -35376   -35298   -35252   -35240   -35234 
  -35233   -35233   -35234   -35245   -35252   -35262   -35278   -35262 
  -35234   -35255   -35303   -35357   -35419   -35452   -35475   -35524 
  -35568   -35585   -35586   -35577   -35578   -35594   -35586   -35545 
  -35503   -35459   -35409   -35382   -35365   -35327   -35308   -35317 
  -35317   -35326   -35345   -35334   -35318   -35303   -35243   -35173 
  -35148   -35134   -35120   -35118   -35113   -35113   -35125   -35156 
  -35221   -35283   -35314   -35331   -35350   -35365   -35387   -35405 
  -35383   -35361   -35388   -35398   -35329   -35244   -35192   -35132 
  -35058   -34969   -34819   -34650   -34528   -34429   -34314   -34186 
  -34081   -34016   -33976   -33960   -33970   -33992   -34031   -34106 
  -34216   -34346   -34500   -34689   -34887   -35065   -35232   -35378 
  -35466   -35494   -35441   -35264   -34993   -34700   -34402   -34135 
  -33940   -33804   -33716   -33671   -33655   -33690   -33778   -33869 
  -33946   -34007   -34050   -34092   -34142   -34180   -34205   -34214 
  -34158   -34004   -33834   -33768   -33795   -33830   -33855   -33900 
  -33968   -34037   -34084   -34116   -34168   -34236   -34262   -34241 
  -34257   -34324   -34357   -34318   -34230   -34119   -34024   -33963 
  -33889   -33787   -33695   -33631   -33588   -33594   -33658   -33749 
  -33858   -33990   -34119   -34239   -34353   -34415   -34373   -34267 
  -34167   -34076   -33956   -33790   -33629   -33568   -33625   -33741 
  -33866   -33989   -34108   -34220   -34341   -34493   -34645   -34734 
  -34757   -34752   -34733   -34710   -34673   -34609   -34602   -34754 
  -35031   -35299   -35486   -35621   -35733   -35856   -36004   -36121 
  -36151   -36094   -36012   -35993   -36054   -36130   -36135   -36060 
  -35980   -35934   -35897   -35834   -35720   -35542   -35320   -35132 
  -35035   -35003   -34989   -35022   -35138   -35295   -35446   -35572 
  -35668   -35733   -35735   -35643   -35501   -35342   -35156   -34974 
  -34799   -34617   -34461   -34335   -34220   -34135   -34089   -34035 
  -33975   -33995   -34114   -34234   -34303   -34388   -34550   -34757 
  -34928   -35027   -35073   -35102   -35102   -35066   -35028   -34967 
  -34827   -34641   -34489   -34406   -34380   -34370   -34352   -34331 
  -34297   -34233   -34180   -34190   -34252   -34333   -34413   -34535 
  -34777   -35070   -35301   -35480   -35613   -35712   -35798   -35861 
  -35949   -36070   -36146   -36190   -36244   -36279   -36286   -36302 
  -36351   -36388   -36350   -36254   -36144   -36030   -35941   -35912 
  -35915   -35930   -35987   -36081   -36197   -36345   -36512   -36684 
  -36848   -36965   -37004   -36967   -36913   -36892   -36872   -36805 
  -36678   -36504   -36332   -36226   -36178   -36129   -36073   -36027 
  -35971   -35897   -35830   -35760   -35663   -35590   -35584   -35611 
  -35638   -35663   -35692   -35746   -35818   -35884   -35942   -36022 
  -36164   -36341   -36510   -36679   -36850   -36990   -37048   -37020 
  -36957   -36889   -36808   -36703   -36590   -36488   -36405   -36377 
  -36407   -36410   -36362   -36298   -36197   -36053   -35890   -35719 
  -35524   -35288   -35041   -34839   -34729   -34732   -34804   -34911 
  -35092   -35339   -35581   -35827   -36088   -36284   -36370   -36395 
  -36408   -36454   -36560   -36688   -36790   -36857   -36874   -36844 
  -36806   -36781   -36769   -36747   -36684   -36600   -36533   -36475 
  -36422   -36392   -36381   -36368   -36364   -36400   -36453   -36469 
  -36427   -36326   -36173   -36003   -35836   -35685   -35580   -35536 
  -35524   -35503   -35481   -35467   -35444   -35437   -35470   -35524 
  -35565   -35550   -35477   -35387   -35297   -35223   -35204   -35254 
  -35342   -35427   -35485   -35558   -35687   -35819   -35908   -35973 
  -36019   -36047   -36081   -36111   -36082   -35991   -35896   -35834 
  -35800   -35785   -35810   -35894   -35982   -36028   -36058   -36111 
  -36189   -36260   -36309   -36327   -36296   -36253   -36251   -36270 
  -36245   -36159   -36043   -35953   -35958   -36050   -36157   -36265 
  -36374   -36454   -36510   -36563   -36575   -36519   -36462   -36467 
  -36505   -36553   -36641   -36747   -36831   -36911   -36976   -36991 
  -36937   -36824   -36683   -36532   -36406   -36351   -36336   -36305 
  -36265   -36242   -36265   -36366   -36536   -36733   -36917   -37042 
  -37108   -37178   -37274   -37336   -37341   -37306   -37238   -37180 
  -37178   -37191   -37174   -37132   -37077   -37025   -36989   -36940 
  -36855   -36767   -36695   -36587   -36433   -36303   -36218   -36137 
  -36060   -35997   -35948   -35920   -35886   -35866   -35904   -35965 
  -36032   -36108   -36130   -36097   -36066   -36037   -36003   -35983 
  -35964   -35895   -35777   -35666   -35585   -35550   -35581   -35645 
  -35705   -35775   -35866   -35947   -35999   -36063   -36154   -36257 
  -36376   -36507   -36619   -36708   -36792   -36839   -36812   -36744 
  -36666   -36560   -36411   -36237   -36036   -35808   -35617   -35528 
  -35516   -35533   -35586   -35662   -35735   -35796   -35846   -35893 
  -35921   -35946   -36026   -36131   -36196   -36226   -36241   -36240 
  -36278   -36365   -36431   -36464   -36516   -36563   -36564   -36559 
  -36564   -36525   -36452   -36413   -36395   -36357   -36333   -36332 
  -36299   -36226   -36176   -36156   -36119   -36083   -36075   -36064 
  -36045   -36077   -36156   -36183   -36130   -36047   -35959   -35895 
  -35871   -35863   -35837   -35815   -35814   -35789   -35755   -35731 
  -35651   -35552   -35503   -35438   -35313   -35153   -34982   -34828 
  -34690   -34594   -34577   -34588   -34595   -34632   -34714   -34819 
  -34940   -35081   -35226   -35344   -35401   -35397   -35392   -35444 
  -35551   -35696   -35865   -36030   -36195   -36375   -36554   -36724 
  -36888   -37018   -37086   -37126   -37170   -37186   -37185   -37208 
  -37209   -37179   -37162   -37122   -37041   -36965   -36878   -36752 
  -36616   -36490   -36368   -36256   -36156   -36077   -36026   -35975 
  -35897   -35803   -35695   -35574   -35459   -35333   -35192   -35076 
  -34975   -34864   -34791   -34792   -34839   -34918   -35039   -35176 
  -35294   -35392   -35516   -35656   -35759   -35847   -35955   -36051 
  -36097   -36114   -36130   -36123   -36082   -36006   -35900   -35798 
  -35723   -35661   -35589   -35513   -35441   -35358   -35281   -35230 
  -35194   -35183   -35209   -35238   -35249   -35261   -35316   -35417 
  -35495   -35563   -35687   -35825   -35946   -36094   -36237   -36331 
  -36414   -36496   -36527   -36509   -36497   -36519   -36565   -36605 
  -36640   -36666   -36640   -36591   -36572   -36540   -36459   -36361 
  -36282   -36221   -36189   -36200   -36201   -36160   -36136   -36140 
  -36125   -36094   -36061   -36021   -35985   -35944   -35888   -35830 
  -35783   -35756   -35736   -35699   -35670   -35681   -35724   -35800 
  -35902   -35974   -35996   -36024   -36078   -36137   -36220   -36329 
  -36432   -36536   -36632   -36673   -36656   -36617   -36584   -36554 
  -36509   -36445   -36362   -36267   -36162   -36056   -35981   -35915 
  -35822   -35734   -35674   -35621   -35572   -35516   -35425   -35331 
  -35282   -35258   -35275   -35353   -35430   -35490   -35558   -35642 
  -35766   -35923   -36073   -36210   -36332   -36431   -36521   -36597 
  -36612   -36569   -36541   -36531   -36487   -36408   -36295   -36138 
  -35966   -35795   -35602   -35382   -35166   -34978   -34809   -34652 
  -34520   -34416   -34342   -34305   -34297   -34310   -34353   -34436 
  -34526   -34583   -34644   -34747   -34859   -34975   -35124   -35282 
  -35402   -35498   -35590   -35661   -35737   -35831   -35879   -35872 
  -35869   -35879   -35870   -35839   -35800   -35769   -35735   -35662 
  -35557   -35458   -35356   -35237   -35102   -34952   -34803   -34683 
  -34588   -34488   -34388   -34291   -34178   -34076   -34007   -33926 
  -33830   -33766   -33719   -33648   -33573   -33533   -33511   -33494 
  -33515   -33562   -33608   -33659   -33729   -33813   -33892   -33953 
  -34009   -34074   -34137   -34196   -34253   -34264   -34221   -34169 
  -34103   -34027   -33964   -33901   -33833   -33787   -33762   -33730 
  -33689   -33672   -33685   -33711   -33760   -33843   -33931   -34021 
  -34137   -34233   -34265   -34300   -34375   -34442   -34466   -34470 
  -34457   -34417   -34384   -34361   -34313   -34267   -34254   -34263 
  -34296   -34361   -34435   -34476   -34513   -34587   -34654   -34686 
  -34713   -34748   -34791   -34849   -34926   -35008   -35079   -35150 
  -35232   -35319   -35416   -35520   -35599   -35617   -35604   -35613 
  -35595   -35491   -35347   -35213   -35064   -34885   -34704   -34517 
  -34301   -34079   -33874   -33682   -33531   -33433   -33344   -33263 
  -33242   -33309   -33422   -33526   -33620   -33709   -33797   -33909 
  -34040   -34165   -34272   -34357   -34435   -34534   -34637   -34722 
  -34789   -34843   -34894   -34952   -35007   -35036   -35027   -34986 
  -34943   -34915   -34871   -34815   -34771   -34721   -34662   -34606 
  -34546   -34492   -34442   -34379   -34322   -34274   -34211   -34142 
  -34100   -34090   -34082   -34065   -34087   -34177   -34278   -34353 
  -34432   -34513   -34592   -34690   -34769   -34796   -34827   -34888 
  -34938   -34987   -35039   -35053   -35045   -35051   -35053   -35035 
  -35012   -34991   -34950   -34881   -34781   -34644   -34479   -34316 
  -34168   -34033   -33911   -33816   -33721   -33617   -33549   -33542 
  -33553   -33531   -33480   -33427   -33366   -33299   -33243   -33178 
  -33088   -33008   -32956   -32918   -32897   -32908   -32954   -32989 
  -32997   -33037   -33088   -33095   -33082   -33070   -33058   -33073 
  -33111   -33112   -33078   -33087   -33118   -33087   -33022   -32951 
  -32831   -32708   -32646   -32588   -32495   -32401   -32324   -32275 
  -32260   -32273   -32292   -32294   -32280   -32283   -32308   -32324 
  -32320   -32300   -32264   -32245   -32261   -32298   -32351   -32412 
  -32471   -32530   -32591   -32645   -32671   -32683   -32711   -32776 
  -32872   -32954   -33008   -33062   -33133   -33219   -33326   -33441 
  -33534   -33588   -33622   -33663   -33731   -33815   -33866   -33886 
  -33910   -33954   -34024   -34079   -34090   -34095   -34108   -34135 
  -34184   -34220   -34227   -34233   -34277   -34356   -34429   -34487 
  -34527   -34554   -34597   -34660   -34695   -34688   -34693   -34696 
  -34646   -34584   -34538   -34455   -34326   -34214   -34133   -34040 
  -33927   -33842   -33789   -33731   -33688   -33700   -33739   -33799 
  -33907   -34023   -34113   -34229   -34400   -34561   -34696   -34828 
  -34942   -35054   -35179   -35284   -35371   -35458   -35553   -35652 
  -35739   -35807   -35859   -35924   -36012   -36090   -36155   -36217 
  -36278   -36344   -36417   -36494   -36575   -36647   -36706   -36769 
  -36829   -36860   -36867   -36868   -36865   -36856   -36865   -36888 
  -36901   -36916   -36956   -37003   -37041   -37083   -37146   -37214 
  -37235   -37214   -37192   -37141   -37046   -36970   -36913   -36805 
  -36684   -36645   -36633   -36581   -36544   -36522   -36486   -36460 
  -36435   -36393   -36354   -36328   -36324   -36324   -36306   -36291 
  -36270   -36228   -36182   -36126   -36059   -35999   -35956   -35920 
  -35865   -35801   -35742   -35675   -35613   -35582   -35561   -35536 
  -35516   -35498   -35484   -35494   -35521   -35539   -35550   -35562 
  -35566   -35572   -35585   -35587   -35582   -35569   -35536   -35502 
  -35477   -35451   -35420   -35376   -35317   -35268   -35244   -35228 
  -35213   -35183   -35152   -35151   -35155   -35143   -35138   -35130 
  -35107   -35111   -35151   -35190   -35215   -35250   -35297   -35345 
  -35413   -35495   -35567   -35640   -35702   -35732   -35757   -35790 
  -35815   -35814   -35780   -35750   -35756   -35766   -35764   -35752 
  -35708   -35654   -35631   -35610   -35557   -35494   -35435   -35357 
  -35269   -35214   -35183   -35157   -35141   -35136   -35145   -35156 
  -35151   -35148   -35159   -35159   -35156   -35173   -35200   -35245 
  -35328   -35404   -35422   -35422   -35422   -35403   -35395   -35393 
  -35357   -35307   -35272   -35230   -35164   -35081   -34985   -34878 
  -34773   -34680   -34594   -34510   -34418   -34312   -34202   -34097 
  -34007   -33931   -33839   -33750   -33711   -33712   -33730   -33760 
  -33790   -33852   -33980   -34122   -34232   -34344   -34479   -34612 
  -34745   -34883   -35008   -35114   -35202   -35269   -35318   -35364 
  -35407   -35431   -35437   -35438   -35449   -35487   -35535   -35552 
  -35530   -35496   -35482   -35490   -35496   -35491   -35472   -35435 
  -35413   -35394   -35324   -35225   -35148   -35093   -35063   -35067 
  -35089   -35125   -35187   -35282   -35383   -35459   -35538   -35632 
  -35711   -35785   -35866   -35936   -36004   -36070   -36117   -36130 
  -36130   -36139   -36115   -36046   -36011   -36016   -35989   -35960 
  -35983   -35990   -35947   -35942   -35975   -35985   -35995   -36005 
  -35978   -35931   -35890   -35860   -35832   -35777   -35698   -35625 
  -35556   -35479   -35396   -35313   -35236   -35173   -35125   -35098 
  -35094   -35111   -35157   -35244   -35334   -35387   -35445   -35543 
  -35667   -35796   -35919   -36035   -36153   -36275   -36387   -36490 
  -36605   -36704   -36776   -36863   -36965   -37045   -37078   -37074 
  -37062   -37033   -36952   -36840   -36733   -36607   -36460   -36315 
  -36182   -36076   -35981   -35860   -35737   -35636   -35516   -35412 
  -35369   -35285   -35135   -35052   -35005   -34898   -34808   -34750 
  -34661   -34606   -34596   -34562   -34514   -34472   -34431   -34410 
  -34406   -34393   -34377   -34376   -34387   -34390   -34404   -34456 
  -34509   -34538   -34574   -34623   -34677   -34743   -34821   -34889 
  -34943   -35007   -35071   -35102   -35111   -35125   -35134   -35115 
  -35078   -35044   -35018   -34982   -34917   -34842   -34771   -34697 
  -34617   -34520   -34405   -34307   -34245   -34210   -34179   -34132 
  -34081   -34053   -34050   -34061   -34053   -34015   -33980   -33958 
  -33965   -33999   -34002   -33992   -34022   -34063   -34093   -34134 
  -34193   -34273   -34343   -34399   -34489   -34565   -34584   -34594 
  -34596   -34584   -34582   -34573   -34539   -34503   -34479   -34453 
  -34425   -34424   -34446   -34467   -34486   -34495   -34487   -34481 
  -34471   -34438   -34408   -34403   -34400   -34385   -34375   -34374 
  -34359   -34338   -34331   -34321   -34291   -34262   -34255   -34251 
  -34211   -34144   -34081   -34049   -34051   -34057   -34047   -34042 
  -34062   -34087   -34095   -34101   -34113   -34120   -34128   -34142 
  -34151   -34145   -34133   -34121   -34109   -34117   -34137   -34161 
  -34192   -34219   -34240   -34263   -34293   -34362   -34448   -34479 
  -34540   -34680   -34774   -34829   -34925   -34997   -35034   -35089 
  -35155   -35211   -35262   -35311   -35345   -35362   -35388   -35431 
  -35470   -35494   -35507   -35541   -35610   -35686   -35759   -35835 
  -35907   -35978   -36033   -36061   -36088   -36121   -36132   -36130 
  -36134   -36121   -36082   -36054   -36042   -36012   -35974   -35937 
  -35867   -35771   -35703   -35666   -35621   -35562   -35507   -35467 
  -35434   -35401   -35373   -35340   -35293   -35250   -35219   -35193 
  -35171   -35133   -35073   -35030   -35029   -35028   -34989   -34958 
  -34939   -34887   -34861   -34892   -34903   -34896   -34886   -34880 
  -34929   -35005   -35074   -35159   -35246   -35348   -35480   -35625 
  -35768   -35869   -35940   -36030   -36110   -36151   -36197   -36257 
  -36314   -36378   -36437   -36456   -36420   -36344   -36248   -36147 
  -36055   -35950   -35822   -35707   -35625   -35576   -35548   -35507 
