Origin Time       2011/03/11 14:46:00
Lat.              38.103
Long.             142.860
Depth. (km)       24
Mag.              9.0
Station Code      KYT002
Station Lat.      35.6038
Station Long.     134.8945
Station Height(m) 3
Record Time       2011/03/11 14:51:06
Sampling Freq(Hz) 100Hz
Duration Time(s)  60
Dir.              U-D
Scale Factor      3920(gal)/6182761
Max. Acc. (gal)   1.186
Last Correction   2011/03/11 14:50:51
Memo.             
   -3960    -3960    -3975    -3996    -4021    -4045    -4054    -4043 
   -4026    -4010    -3990    -3965    -3929    -3885    -3863    -3857 
   -3841    -3823    -3804    -3784    -3780    -3787    -3807    -3829 
   -3826    -3835    -3880    -3923    -3945    -3955    -3963    -3977 
   -3987    -3978    -3971    -3983    -3988    -3982    -3972    -3963 
   -3963    -3948    -3926    -3954    -4011    -4037    -4055    -4061 
   -4051    -4079    -4099    -4067    -4050    -4035    -4008    -4024 
   -4049    -4057    -4092    -4118    -4112    -4124    -4134    -4126 
   -4144    -4157    -4135    -4126    -4117    -4079    -4051    -4020 
   -3963    -3924    -3888    -3840    -3828    -3829    -3794    -3774 
   -3786    -3773    -3757    -3759    -3741    -3733    -3755    -3757 
   -3760    -3785    -3786    -3780    -3778    -3749    -3746    -3774 
   -3775    -3792    -3836    -3852    -3874    -3915    -3934    -3966 
   -4010    -4012    -4010    -4027    -4015    -3986    -3971    -3935 
   -3883    -3850    -3814    -3782    -3776    -3756    -3714    -3681 
   -3644    -3612    -3605    -3593    -3572    -3566    -3564    -3569 
   -3581    -3568    -3549    -3549    -3530    -3489    -3467    -3442 
   -3406    -3387    -3374    -3354    -3336    -3319    -3306    -3303 
   -3298    -3295    -3307    -3330    -3359    -3398    -3442    -3467 
   -3483    -3512    -3542    -3566    -3578    -3570    -3560    -3565 
   -3568    -3563    -3563    -3577    -3599    -3619    -3629    -3639 
   -3646    -3631    -3615    -3628    -3642    -3651    -3670    -3672 
   -3671    -3695    -3724    -3750    -3758    -3730    -3708    -3710 
   -3696    -3675    -3675    -3690    -3701    -3688    -3649    -3626 
   -3632    -3612    -3556    -3520    -3515    -3514    -3517    -3509 
   -3489    -3486    -3472    -3426    -3397    -3387    -3364    -3358 
   -3366    -3355    -3345    -3345    -3332    -3330    -3352    -3366 
   -3364    -3357    -3344    -3334    -3307    -3256    -3220    -3195 
   -3160    -3123    -3077    -3023    -2985    -2954    -2917    -2887 
   -2863    -2841    -2838    -2859    -2879    -2903    -2941    -2974 
   -3006    -3045    -3073    -3103    -3151    -3198    -3232    -3271 
   -3316    -3362    -3405    -3431    -3446    -3478    -3516    -3540 
   -3561    -3588    -3604    -3620    -3660    -3698    -3723    -3753 
   -3780    -3803    -3837    -3876    -3924    -3976    -4014    -4052 
   -4094    -4112    -4132    -4167    -4177    -4180    -4206    -4204 
   -4180    -4182    -4175    -4159    -4169    -4168    -4154    -4156 
   -4141    -4113    -4098    -4085    -4073    -4074    -4075    -4082 
   -4104    -4122    -4130    -4150    -4178    -4203    -4237    -4273 
   -4299    -4337    -4383    -4398    -4402    -4421    -4426    -4407 
   -4372    -4316    -4268    -4235    -4193    -4160    -4139    -4102 
   -4069    -4059    -4050    -4054    -4076    -4085    -4091    -4116 
   -4146    -4166    -4169    -4150    -4141    -4163    -4186    -4198 
   -4216    -4223    -4222    -4232    -4230    -4225    -4256    -4285 
   -4304    -4355    -4404    -4437    -4507    -4581    -4624    -4671 
   -4704    -4718    -4753    -4778    -4770    -4770    -4782    -4791 
   -4822    -4857    -4862    -4873    -4908    -4941    -4982    -5021 
   -5028    -5046    -5077    -5068    -5065    -5089    -5096    -5106 
   -5106    -5059    -5027    -5012    -4971    -4964    -4980    -4946 
   -4890    -4803    -4686    -4654    -4724    -4808    -4880    -4909 
   -4885    -4876    -4878    -4854    -4837    -4816    -4792    -4827 
   -4874    -4859    -4834    -4837    -4861    -4909    -4936    -4918 
   -4898    -4884    -4850    -4795    -4728    -4670    -4679    -4769 
   -4858    -4894    -4914    -4911    -4867    -4827    -4800    -4785 
   -4796    -4816    -4824    -4802    -4761    -4763    -4803    -4835 
   -4869    -4896    -4877    -4831    -4785    -4744    -4704    -4660 
   -4622    -4601    -4580    -4534    -4457    -4374    -4311    -4265 
   -4218    -4194    -4255    -4370    -4412    -4344    -4248    -4155 
   -4052    -3976    -3950    -3958    -3971    -3997    -4054    -4066 
   -3946    -3789    -3725    -3740    -3756    -3740    -3729    -3755 
   -3772    -3754    -3737    -3728    -3742    -3798    -3831    -3785 
   -3680    -3527    -3386    -3333    -3331    -3353    -3447    -3572 
   -3639    -3624    -3532    -3436    -3431    -3473    -3503    -3549 
   -3596    -3632    -3698    -3781    -3854    -3927    -3994    -4067 
   -4156    -4198    -4177    -4161    -4174    -4210    -4287    -4398 
   -4516    -4622    -4660    -4609    -4534    -4469    -4420    -4408 
   -4400    -4382    -4375    -4337    -4255    -4167    -4052    -3914 
   -3818    -3756    -3699    -3682    -3696    -3716    -3759    -3808 
   -3837    -3863    -3880    -3864    -3847    -3856    -3871    -3895 
   -3934    -3991    -4075    -4161    -4212    -4225    -4220    -4216 
   -4221    -4240    -4270    -4305    -4338    -4381    -4444    -4500 
   -4535    -4571    -4602    -4626    -4655    -4689    -4732    -4777 
   -4813    -4854    -4899    -4936    -4967    -4987    -4989    -5002 
   -5031    -5082    -5163    -5238    -5293    -5337    -5357    -5367 
   -5373    -5366    -5360    -5372    -5402    -5434    -5462    -5490 
   -5517    -5530    -5522    -5503    -5479    -5452    -5432    -5428 
   -5440    -5470    -5501    -5515    -5523    -5532    -5529    -5515 
   -5502    -5485    -5466    -5452    -5438    -5418    -5410    -5428 
   -5452    -5470    -5485    -5494    -5501    -5522    -5559    -5579 
   -5575    -5576    -5579    -5563    -5533    -5495    -5447    -5397 
   -5349    -5300    -5241    -5173    -5121    -5088    -5060    -5039 
   -5022    -5005    -5001    -4998    -4983    -4963    -4932    -4908 
   -4903    -4889    -4867    -4847    -4834    -4841    -4838    -4821 
   -4819    -4839    -4887    -4946    -5004    -5075    -5125    -5139 
   -5173    -5225    -5264    -5295    -5329    -5378    -5417    -5427 
   -5452    -5486    -5507    -5543    -5572    -5566    -5544    -5516 
   -5498    -5496    -5488    -5473    -5459    -5450    -5447    -5441 
   -5437    -5448    -5456    -5459    -5468    -5483    -5503    -5527 
   -5550    -5577    -5618    -5667    -5703    -5730    -5755    -5766 
   -5769    -5780    -5802    -5832    -5838    -5800    -5769    -5770 
   -5768    -5770    -5787    -5807    -5843    -5884    -5902    -5924 
   -5971    -6031    -6102    -6167    -6210    -6232    -6225    -6201 
   -6183    -6174    -6177    -6184    -6174    -6150    -6109    -6052 
   -6012    -5984    -5947    -5929    -5931    -5926    -5931    -5964 
   -6000    -6012    -6014    -6020    -6020    -6025    -6036    -6028 
   -6008    -5988    -5941    -5877    -5811    -5738    -5690    -5670 
   -5635    -5599    -5572    -5556    -5576    -5615    -5635    -5637 
   -5636    -5637    -5637    -5631    -5607    -5568    -5533    -5492 
   -5428    -5355    -5277    -5200    -5139    -5075    -5001    -4938 
   -4871    -4804    -4754    -4698    -4651    -4642    -4632    -4608 
   -4588    -4553    -4495    -4447    -4415    -4387    -4378    -4395 
   -4413    -4431    -4456    -4459    -4447    -4445    -4451    -4472 
   -4504    -4511    -4503    -4505    -4504    -4508    -4519    -4498 
   -4452    -4414    -4375    -4329    -4282    -4212    -4131    -4082 
   -4055    -4039    -4038    -4028    -4025    -4045    -4054    -4055 
   -4077    -4092    -4102    -4129    -4136    -4121    -4118    -4116 
   -4123    -4157    -4176    -4179    -4210    -4243    -4258    -4278 
   -4289    -4302    -4355    -4413    -4449    -4484    -4509    -4531 
   -4570    -4601    -4619    -4649    -4675    -4702    -4755    -4812 
   -4867    -4934    -4994    -5056    -5144    -5224    -5291    -5365 
   -5417    -5451    -5489    -5503    -5520    -5565    -5580    -5574 
   -5585    -5580    -5575    -5587    -5564    -5538    -5537    -5523 
   -5538    -5593    -5614    -5649    -5727    -5779    -5845    -5925 
   -5944    -5973    -6043    -6084    -6133    -6182    -6169    -6152 
   -6135    -6070    -6028    -6021    -5996    -5988    -5990    -5979 
   -5981    -5977    -5979    -6033    -6091    -6111    -6119    -6111 
   -6089    -6074    -6045    -5995    -5972    -5969    -5939    -5900 
   -5864    -5822    -5814    -5838    -5844    -5841    -5837    -5823 
   -5809    -5785    -5745    -5714    -5688    -5658    -5651    -5648 
   -5633    -5634    -5644    -5642    -5646    -5650    -5648    -5655 
   -5662    -5654    -5629    -5581    -5536    -5508    -5470    -5422 
   -5384    -5334    -5272    -5233    -5209    -5183    -5171    -5167 
   -5157    -5143    -5126    -5109    -5085    -5053    -5034    -5019 
   -4984    -4957    -4949    -4932    -4909    -4885    -4847    -4818 
   -4816    -4811    -4805    -4815    -4820    -4822    -4838    -4863 
   -4894    -4934    -4984    -5051    -5123    -5177    -5223    -5273 
   -5319    -5372    -5411    -5415    -5417    -5426    -5419    -5422 
   -5439    -5435    -5439    -5467    -5484    -5509    -5545    -5560 
   -5570    -5576    -5559    -5552    -5549    -5527    -5517    -5521 
   -5506    -5494    -5491    -5480    -5488    -5511    -5512    -5517 
   -5538    -5540    -5551    -5591    -5617    -5631    -5644    -5632 
   -5621    -5618    -5595    -5557    -5501    -5430    -5364    -5281 
   -5179    -5089    -5003    -4925    -4880    -4841    -4788    -4756 
   -4746    -4729    -4722    -4736    -4753    -4771    -4792    -4798 
   -4805    -4823    -4827    -4827    -4830    -4824    -4828    -4837 
   -4829    -4833    -4855    -4863    -4869    -4876    -4856    -4827 
   -4804    -4759    -4709    -4671    -4620    -4559    -4497    -4416 
   -4341    -4292    -4240    -4194    -4173    -4158    -4147    -4156 
   -4171    -4178    -4196    -4226    -4246    -4270    -4309    -4335 
   -4351    -4380    -4397    -4399    -4416    -4437    -4469    -4536 
   -4615    -4703    -4806    -4887    -4950    -5029    -5084    -5119 
   -5164    -5175    -5160    -5180    -5197    -5190    -5199    -5203 
   -5178    -5161    -5138    -5074    -5021    -4987    -4930    -4895 
   -4894    -4879    -4888    -4937    -4971    -5005    -5056    -5086 
   -5109    -5144    -5153    -5149    -5166    -5182    -5204    -5248 
   -5280    -5303    -5345    -5383    -5408    -5441    -5460    -5461 
   -5479    -5479    -5439    -5410    -5389    -5336    -5287    -5250 
   -5186    -5141    -5145    -5150    -5159    -5176    -5170    -5181 
   -5222    -5240    -5242    -5247    -5242    -5243    -5247    -5235 
   -5219    -5203    -5168    -5123    -5085    -5048    -5004    -4989 
   -5001    -5002    -5012    -5046    -5067    -5093    -5119    -5112 
   -5118    -5127    -5105    -5090    -5073    -5034    -5010    -4986 
   -4948    -4934    -4919    -4857    -4793    -4742    -4674    -4626 
   -4598    -4517    -4383    -4253    -4212    -4359    -4570    -4538 
   -4292    -4142    -4049    -3958    -4077    -3977    -3385    -3344 
   -4090    -4208    -3628    -3727    -4019    -3652    -3828    -4344 
   -3906    -3553    -3898    -4176    -4409    -4440    -4120    -3948 
   -4159    -4567    -4607    -4243    -4167    -4327    -4387    -4474 
   -4467    -4491    -4773    -4806    -4585    -4725    -5074    -5199 
   -5138    -5117    -5249    -5207    -4949    -5156    -5499    -5199 
   -4928    -5113    -5322    -5471    -5359    -5031    -5026    -5206 
   -5144    -5078    -5308    -5427    -5175    -5178    -5506    -5458 
   -5272    -5407    -5428    -5306    -5334    -5205    -4995    -5057 
   -5156    -5118    -5036    -4936    -4854    -4824    -4885    -4952 
   -4794    -4530    -4545    -4704    -4673    -4571    -4511    -4530 
   -4680    -4741    -4659    -4714    -4826    -4764    -4755    -4900 
   -4926    -4855    -4904    -5013    -5017    -4966    -4955    -4931 
   -4920    -4877    -4712    -4647    -4740    -4774    -4734    -4688 
   -4605    -4556    -4752    -4967    -4795    -4556    -4613    -4688 
   -4516    -4352    -4487    -4567    -4444    -4512    -4527    -4282 
   -4336    -4658    -4647    -4390    -4329    -4438    -4535    -4571 
   -4582    -4578    -4461    -4437    -4636    -4637    -4404    -4376 
   -4520    -4534    -4446    -4322    -4120    -4057    -4165    -4123 
   -4095    -4199    -4066    -3876    -3981    -4012    -3846    -3910 
   -4031    -3864    -3743    -3856    -3979    -4040    -4001    -3840 
   -3777    -3962    -4253    -4370    -4277    -4334    -4527    -4537 
   -4569    -4765    -4863    -4863    -4940    -5056    -5123    -5185 
   -5236    -5157    -5069    -5152    -5187    -5114    -5147    -5108 
   -4945    -4906    -4880    -4762    -4716    -4784    -4790    -4604 
   -4458    -4540    -4589    -4421    -4286    -4308    -4241    -4162 
   -4269    -4285    -4170    -4173    -4160    -4092    -4267    -4441 
   -4256    -4144    -4208    -4129    -4191    -4445    -4499    -4420 
   -4400    -4389    -4401    -4451    -4464    -4498    -4595    -4496 
   -4254    -4351    -4589    -4442    -4183    -4233    -4418    -4409 
   -4217    -4198    -4376    -4361    -4297    -4363    -4234    -4051 
   -4047    -3928    -3800    -4013    -4194    -3992    -3817    -3966 
   -4160    -4093    -3853    -3756    -3843    -3901    -3867    -3892 
   -3951    -3801    -3624    -3692    -3743    -3688    -3629    -3468 
   -3362    -3455    -3507    -3429    -3391    -3475    -3489    -3371 
   -3417    -3500    -3352    -3220    -3230    -3245    -3281    -3298 
   -3178    -3093    -3193    -3317    -3328    -3210    -3117    -3123 
   -3059    -3026    -3146    -3209    -3193    -3210    -3102    -2922 
   -3018    -3181    -3079    -3008    -3124    -3196    -3110    -3012 
   -3079    -3148    -3192    -3333    -3328    -3247    -3397    -3501 
   -3350    -3263    -3481    -3775    -3743    -3477    -3462    -3736 
   -3798    -3562    -3537    -3681    -3517    -3306    -3404    -3537 
   -3647    -3818    -3800    -3687    -3870    -4127    -4084    -4111 
   -4409    -4500    -4446    -4563    -4551    -4431    -4518    -4559 
   -4417    -4368    -4388    -4342    -4338    -4297    -4148    -4129 
   -4180    -4213    -4416    -4534    -4358    -4310    -4490    -4573 
   -4536    -4516    -4541    -4560    -4607    -4747    -4848    -4866 
   -4851    -4805    -4860    -4951    -4900    -4856    -4903    -4864 
   -4820    -4908    -4836    -4672    -4893    -5150    -4961    -4742 
   -4770    -4768    -4806    -4977    -4893    -4696    -4843    -4980 
   -4900    -4908    -4888    -4785    -4831    -4850    -4681    -4605 
   -4681    -4718    -4750    -4730    -4620    -4659    -4746    -4672 
   -4693    -4783    -4661    -4534    -4678    -4849    -4693    -4441 
   -4472    -4635    -4668    -4577    -4516    -4542    -4543    -4546 
   -4517    -4382    -4428    -4537    -4368    -4285    -4328    -4123 
   -3911    -3920    -3948    -3878    -3789    -3699    -3561    -3495 
   -3479    -3287    -3027    -3007    -3145    -3127    -3011    -2967 
   -2905    -2867    -3011    -3139    -3027    -2960    -3057    -3079 
   -3156    -3293    -3283    -3262    -3322    -3455    -3566    -3524 
   -3574    -3740    -3737    -3724    -3806    -3822    -3832    -3923 
   -4041    -4040    -3946    -4023    -4124    -4104    -4243    -4375 
   -4277    -4224    -4247    -4255    -4301    -4360    -4393    -4386 
   -4376    -4339    -4297    -4364    -4388    -4284    -4238    -4203 
   -4195    -4348    -4401    -4314    -4358    -4458    -4516    -4553 
   -4579    -4658    -4694    -4675    -4783    -4837    -4706    -4717 
   -4789    -4673    -4599    -4624    -4671    -4750    -4726    -4620 
   -4549    -4555    -4627    -4610    -4527    -4476    -4395    -4354 
   -4353    -4343    -4427    -4514    -4502    -4452    -4459    -4556 
   -4556    -4436    -4445    -4547    -4539    -4504    -4575    -4649 
   -4667    -4702    -4709    -4704    -4719    -4653    -4627    -4707 
   -4684    -4663    -4779    -4770    -4631    -4669    -4755    -4660 
   -4646    -4767    -4692    -4535    -4576    -4674    -4655    -4545 
   -4479    -4561    -4679    -4678    -4626    -4585    -4550    -4654 
   -4822    -4818    -4769    -4814    -4837    -4855    -4909    -4928 
   -4944    -4964    -4947    -4964    -4980    -4984    -5055    -5086 
   -5066    -5091    -5084    -5061    -5082    -5107    -5122    -5085 
   -5038    -5073    -5110    -5115    -5155    -5201    -5223    -5252 
   -5299    -5323    -5302    -5334    -5408    -5380    -5313    -5341 
   -5399    -5391    -5377    -5394    -5326    -5188    -5167    -5267 
   -5294    -5210    -5241    -5373    -5337    -5197    -5200    -5276 
   -5238    -5138    -5104    -5095    -5064    -5006    -4919    -4889 
   -4920    -4922    -4941    -4982    -4977    -5015    -5073    -5023 
   -5002    -5093    -5141    -5094    -5042    -5063    -5139    -5163 
   -5096    -5021    -5022    -5082    -5137    -5144    -5130    -5191 
   -5260    -5229    -5247    -5331    -5317    -5289    -5366    -5449 
   -5449    -5411    -5372    -5383    -5461    -5476    -5422    -5451 
   -5521    -5490    -5427    -5436    -5475    -5501    -5513    -5551 
   -5581    -5511    -5435    -5452    -5514    -5536    -5492    -5421 
   -5333    -5272    -5284    -5281    -5228    -5194    -5169    -5149 
   -5194    -5216    -5127    -5080    -5118    -5076    -5032    -5126 
   -5162    -5071    -5044    -5027    -4921    -4846    -4864    -4922 
   -4921    -4853    -4859    -4876    -4806    -4809    -4918    -4965 
   -4885    -4805    -4814    -4766    -4679    -4720    -4700    -4558 
   -4522    -4518    -4470    -4462    -4390    -4276    -4263    -4251 
   -4230    -4274    -4272    -4233    -4233    -4194    -4137    -4147 
   -4145    -4073    -4035    -4013    -3922    -3888    -3905    -3823 
   -3773    -3835    -3829    -3771    -3774    -3790    -3749    -3666 
   -3664    -3737    -3695    -3599    -3593    -3591    -3526    -3454 
   -3417    -3373    -3301    -3267    -3218    -3097    -3042    -3069 
   -3030    -3004    -3085    -3138    -3150    -3181    -3191    -3229 
   -3302    -3321    -3368    -3479    -3475    -3423    -3463    -3469 
   -3473    -3529    -3503    -3507    -3613    -3620    -3572    -3630 
   -3730    -3809    -3896    -3977    -3984    -3978    -4070    -4182 
   -4176    -4062    -3980    -4000    -4016    -4022    -4175    -4438 
   -4629    -4701    -4633    -4494    -4473    -4571    -4693    -4820 
   -4917    -4993    -5079    -5121    -5091    -5042    -5002    -4978 
   -5004    -5048    -5025    -4913    -4796    -4814    -4988    -5190 
   -5344    -5388    -5224    -4932    -4746    -4741    -4833    -4950 
   -5014    -4989    -4966    -4975    -4984    -5001    -4971    -4886 
   -4840    -4872    -4964    -5051    -5083    -5102    -5124    -5138 
   -5170    -5187    -5121    -5008    -4953    -4968    -4980    -4993 
   -5027    -4978    -4844    -4835    -4947    -4979    -4965    -5002 
   -5007    -4948    -4898    -4845    -4778    -4758    -4773    -4749 
   -4671    -4598    -4562    -4482    -4371    -4316    -4280    -4254 
