Origin Time       2011/03/11 14:46:00
Lat.              38.103
Long.             142.860
Depth. (km)       24
Mag.              9.0
Station Code      KYT005
Station Lat.      35.4756
Station Long.     135.3893
Station Height(m) 2
Record Time       2011/03/11 14:51:03
Sampling Freq(Hz) 100Hz
Duration Time(s)  60
Dir.              E-W
Scale Factor      3920(gal)/6182761
Max. Acc. (gal)   1.354
Last Correction   2011/03/11 14:50:48
Memo.             
[...]
   -7572    -7546    -7518    -7493    -7460    -7421    -7387    -7353 
   -7313    -7278    -7250    -7217    -7184    -7160    -7130    -7095 
   -7064    -7037    -7012    -6992    -6978    -6970    -6961    -6949 
   -6937    -6930    -6927    -6926    -6933    -6944    -6959    -6975 
   -6992    -7009    -7022    -7030    -7038    -7043    -7042    -7041 
   -7037    -7023    -7004    -6983    -6951    -6917    -6886    -6849 
   -6810    -6775    -6733    -6688    -6648    -6609    -6568    -6530 
   -6493    -6453    -6413    -6375    -6336    -6296    -6261    -6231 
   -6202    -6172    -6145    -6123    -6107    -6095    -6081    -6069 
   -6060    -6052    -6046    -6044    -6045    -6050    -6062    -6076 
   -6094    -6121    -6145    -6168    -6201    -6236    -6267    -6303 
   -6345    -6386    -6422    -6457    -6494    -6527    -6559    -6597 
   -6638    -6681    -6729    -6778    -6828    -6885    -6943    -7000 
   -7057    -7117    -7176    -7239    -7308    -7374    -7437    -7501 
   -7565    -7626    -7680    -7732    -7784    -7830    -7866    -7900 
   -7936    -7968    -7989    -8008    -8017    -8019    -8026    -8028 
   -8019    -8013    -8011    -7999    -7982    -7970    -7953    -7926 
   -7903    -7884    -7859    -7834    -7817    -7800    -7775    -7752 
   -7730    -7702    -7674    -7649    -7619    -7587    -7556    -7523 
   -7492    -7462    -7427    -7389    -7355    -7316    -7267    -7223 
   -7183    -7134    -7087    -7037    -6979    -6931    -6887    -6836 
   -6798    -6771    -6739    -6712    -6694    -6667    -6646    -6636 
   -6621    -6611    -6613    -6616    -6626    -6641    -6652    -6667 
   -6690    -6712    -6739    -6770    -6790    -6809    -6837    -6858 
   -6875    -6902    -6925    -6944    -6969    -6988    -7004    -7030 
   -7048    -7058    -7082    -7105    -7122    -7148    -7171    -7190 
   -7214    -7235    -7257    -7282    -7303    -7325    -7351    -7371 
   -7388    -7407    -7422    -7439    -7455    -7460    -7459    -7458 
   -7449    -7437    -7427    -7421    -7411    -7398    -7396    -7389 
   -7376    -7379    -7378    -7366    -7376    -7390    -7385    -7400 
   -7422    -7422    -7437    -7466    -7477    -7492    -7520    -7535 
   -7544    -7564    -7581    -7586    -7596    -7608    -7610    -7607 
   -7609    -7610    -7614    -7622    -7624    -7625    -7631    -7632 
   -7627    -7624    -7617    -7604    -7595    -7587    -7571    -7551 
   -7529    -7508    -7476    -7436    -7400    -7359    -7307    -7267 
   -7235    -7198    -7174    -7162    -7140    -7120    -7103    -7081 
   -7066    -7053    -7044    -7047    -7054    -7060    -7070    -7080 
   -7090    -7106    -7116    -7117    -7118    -7113    -7097    -7084 
   -7067    -7038    -7010    -6982    -6948    -6915    -6887    -6866 
   -6850    -6841    -6840    -6847    -6858    -6874    -6899    -6927 
   -6951    -6970    -6987    -7006    -7020    -7025    -7027    -7030 
   -7029    -7026    -7026    -7028    -7029    -7024    -7022    -7028 
   -7035    -7047    -7063    -7078    -7100    -7128    -7150    -7179 
   -7219    -7253    -7288    -7336    -7382    -7423    -7466    -7506 
   -7539    -7567    -7591    -7608    -7618    -7625    -7624    -7618 
   -7613    -7591    -7549    -7499    -7434    -7359    -7292    -7249 
   -7224    -7217    -7227    -7240    -7255    -7269    -7270    -7267 
   -7262    -7248    -7225    -7194    -7155    -7115    -7080    -7041 
   -6997    -6953    -6899    -6832    -6753    -6672    -6599    -6535 
   -6484    -6454    -6434    -6421    -6425    -6445    -6471    -6509 
   -6567    -6629    -6681    -6727    -6754    -6756    -6737    -6700 
   -6656    -6614    -6582    -6564    -6553    -6553    -6560    -6570 
   -6570    -6560    -6555    -6559    -6570    -6600    -6651    -6708 
   -6765    -6831    -6888    -6930    -6980    -7031    -7060    -7072 
   -7071    -7058    -7033    -7006    -6974    -6935    -6913    -6900 
   -6877    -6859    -6850    -6831    -6814    -6816    -6826    -6847 
   -6894    -6947    -6996    -7049    -7090    -7108    -7114    -7111 
   -7093    -7061    -7023    -6977    -6926    -6889    -6863    -6837 
   -6820    -6802    -6767    -6731    -6698    -6654    -6617    -6601 
   -6590    -6593    -6619    -6646    -6674    -6717    -6766    -6809 
   -6857    -6895    -6909    -6918    -6917    -6898    -6881    -6866 
   -6843    -6825    -6817    -6808    -6806    -6819    -6836    -6854 
   -6881    -6903    -6917    -6933    -6948    -6953    -6954    -6959 
   -6964    -6975    -7001    -7034    -7059    -7083    -7104    -7112 
   -7117    -7126    -7125    -7118    -7113    -7107    -7100    -7100 
   -7098    -7086    -7077    -7069    -7055    -7045    -7046    -7058 
   -7080    -7110    -7137    -7160    -7180    -7186    -7182    -7178 
   -7165    -7152    -7151    -7152    -7152    -7159    -7172    -7178 
   -7172    -7155    -7118    -7070    -7027    -6987    -6951    -6927 
   -6918    -6910    -6905    -6914    -6930    -6948    -6968    -6987 
   -7003    -7015    -7020    -7019    -7018    -7019    -7025    -7045 
   -7070    -7096    -7122    -7133    -7132    -7130    -7124    -7112 
   -7107    -7111    -7112    -7111    -7117    -7128    -7138    -7151 
   -7169    -7187    -7199    -7213    -7222    -7225    -7245    -7274 
   -7297    -7323    -7355    -7375    -7387    -7400    -7409    -7414 
   -7425    -7434    -7437    -7441    -7450    -7460    -7460    -7450 
   -7439    -7425    -7404    -7385    -7383    -7390    -7391    -7390 
   -7390    -7383    -7370    -7358    -7352    -7350    -7356    -7367 
   -7371    -7373    -7380    -7380    -7384    -7395    -7393    -7388 
   -7395    -7399    -7394    -7397    -7409    -7416    -7424    -7435 
   -7441    -7445    -7451    -7463    -7476    -7483    -7489    -7494 
   -7494    -7490    -7483    -7469    -7448    -7424    -7394    -7362 
   -7335    -7310    -7288    -7274    -7258    -7236    -7210    -7183 
   -7164    -7149    -7135    -7120    -7108    -7097    -7081    -7063 
   -7044    -7012    -6974    -6942    -6910    -6877    -6852    -6823 
   -6786    -6754    -6723    -6683    -6641    -6596    -6550    -6517 
   -6498    -6483    -6473    -6472    -6468    -6452    -6428    -6401 
   -6375    -6374    -6405    -6425    -6415    -6431    -6479    -6512 
   -6550    -6600    -6618    -6642    -6692    -6738    -6809    -6877 
   -6916    -6966    -6999    -7018    -7077    -7132    -7155    -7185 
   -7236    -7272    -7283    -7311    -7344    -7356    -7374    -7396 
   -7406    -7410    -7432    -7461    -7480    -7517    -7532    -7500 
   -7514    -7562    -7554    -7535    -7543    -7520    -7493    -7497 
   -7472    -7445    -7473    -7484    -7462    -7507    -7581    -7586 
   -7581    -7618    -7628    -7617    -7628    -7615    -7594    -7610 
   -7611    -7599    -7612    -7624    -7636    -7642    -7613    -7611 
   -7641    -7625    -7611    -7618    -7602    -7610    -7607    -7587 
   -7625    -7639    -7613    -7621    -7609    -7575    -7569    -7550 
   -7505    -7494    -7505    -7495    -7496    -7511    -7524    -7540 
   -7544    -7558    -7601    -7644    -7679    -7721    -7747    -7743 
   -7741    -7746    -7743    -7752    -7793    -7826    -7827    -7854 
   -7877    -7870    -7903    -7939    -7952    -7993    -8037    -8055 
   -8063    -8085    -8097    -8087    -8094    -8097    -8093    -8120 
   -8144    -8129    -8132    -8180    -8184    -8156    -8159    -8140 
   -8128    -8144    -8131    -8144    -8173    -8149    -8145    -8186 
   -8204    -8214    -8233    -8214    -8178    -8161    -8133    -8089 
   -8062    -8040    -8031    -8054    -8064    -8046    -8066    -8116 
   -8120    -8108    -8114    -8101    -8094    -8117    -8131    -8134 
   -8137    -8136    -8142    -8143    -8120    -8098    -8080    -8043 
   -8003    -8001    -8012    -7981    -7957    -7960    -7936    -7911 
   -7896    -7885    -7901    -7915    -7934    -7975    -8015    -8048 
   -8061    -8059    -8048    -8026    -8000    -7966    -7947    -7945 
   -7936    -7937    -7956    -7972    -8002    -8054    -8070    -8056 
   -8080    -8083    -8061    -8085    -8099    -8084    -8095    -8110 
   -8100    -8098    -8121    -8120    -8100    -8111    -8116    -8092 
   -8074    -8058    -8026    -7988    -7976    -7982    -7949    -7902 
   -7904    -7901    -7835    -7797    -7798    -7738    -7690    -7703 
   -7680    -7647    -7640    -7617    -7582    -7550    -7525    -7513 
   -7508    -7500    -7494    -7486    -7457    -7456    -7472    -7436 
   -7413    -7418    -7392    -7376    -7377    -7370    -7350    -7330 
   -7342    -7355    -7353    -7367    -7376    -7357    -7340    -7343 
   -7334    -7320    -7325    -7331    -7321    -7312    -7323    -7321 
   -7292    -7287    -7293    -7267    -7244    -7260    -7279    -7279 
   -7302    -7344    -7360    -7382    -7417    -7444    -7474    -7499 
   -7530    -7572    -7606    -7652    -7700    -7740    -7788    -7825 
   -7858    -7887    -7905    -7924    -7924    -7924    -7939    -7933 
   -7918    -7921    -7940    -7951    -7940    -7938    -7934    -7912 
   -7908    -7912    -7890    -7875    -7872    -7848    -7819    -7797 
   -7779    -7764    -7741    -7722    -7709    -7694    -7684    -7679 
   -7662    -7633    -7604    -7582    -7545    -7500    -7479    -7456 
   -7421    -7412    -7399    -7371    -7368    -7355    -7338    -7344 
   -7325    -7294    -7291    -7282    -7266    -7260    -7242    -7217 
   -7210    -7207    -7203    -7194    -7173    -7167    -7174    -7159 
   -7149    -7156    -7142    -7116    -7106    -7106    -7093    -7065 
   -7049    -7053    -7059    -7068    -7083    -7092    -7092    -7085 
   -7072    -7066    -7041    -7005    -7005    -6999    -6966    -6963 
   -6972    -6958    -6957    -6972    -6965    -6966    -6981    -6972 
   -6973    -6990    -6986    -6983    -6997    -7010    -7027    -7048 
   -7052    -7059    -7066    -7043    -7033    -7039    -7029    -7034 
   -7041    -7025    -7016    -7012    -6985    -6955    -6943    -6941 
   -6933    -6929    -6946    -6966    -6978    -7004    -7028    -7035 
   -7072    -7119    -7118    -7139    -7202    -7228    -7250    -7288 
   -7307    -7332    -7378    -7410    -7409    -7408    -7428    -7446 
   -7464    -7486    -7493    -7502    -7516    -7529    -7547    -7567 
   -7572    -7567    -7575    -7585    -7590    -7604    -7617    -7628 
   -7651    -7680    -7696    -7702    -7713    -7723    -7723    -7725 
   -7722    -7715    -7721    -7736    -7732    -7711    -7697    -7684 
   -7670    -7671    -7670    -7656    -7652    -7652    -7647    -7639 
   -7633    -7640    -7651    -7660    -7660    -7655    -7664    -7656 
   -7651    -7671    -7651    -7621    -7635    -7630    -7596    -7581 
   -7561    -7532    -7512    -7485    -7461    -7457    -7452    -7445 
   -7445    -7433    -7408    -7397    -7384    -7359    -7354    -7361 
   -7350    -7335    -7350    -7379    -7394    -7400    -7398    -7405 
   -7425    -7430    -7435    -7464    -7483    -7490    -7521    -7542 
   -7544    -7571    -7587    -7579    -7600    -7635    -7645    -7648 
   -7678    -7703    -7695    -7691    -7696    -7694    -7684    -7664 
   -7667    -7679    -7671    -7676    -7692    -7690    -7692    -7706 
   -7718    -7720    -7726    -7739    -7744    -7749    -7752    -7757 
   -7774    -7769    -7754    -7756    -7744    -7717    -7715    -7717 
   -7689    -7666    -7670    -7665    -7636    -7615    -7612    -7601 
   -7588    -7590    -7581    -7558    -7560    -7570    -7561    -7541 
   -7535    -7549    -7549    -7511    -7475    -7490    -7535    -7540 
   -7516    -7532    -7569    -7554    -7497    -7475    -7504    -7516 
   -7488    -7459    -7451    -7461    -7476    -7474    -7463    -7465 
   -7439    -7383    -7357    -7342    -7330    -7336    -7339    -7360 
   -7367    -7310    -7272    -7290    -7286    -7254    -7224    -7221 
   -7272    -7303    -7273    -7246    -7255    -7303    -7318    -7289 
   -7324    -7376    -7358    -7345    -7391    -7453    -7501    -7541 
   -7583    -7630    -7670    -7722    -7795    -7832    -7844    -7881 
   -7929    -7975    -8033    -8075    -8099    -8174    -8272    -8322 
   -8352    -8372    -8406    -8499    -8590    -8632    -8692    -8757 
   -8759    -8794    -8878    -8902    -8947    -8999    -8967    -9023 
   -9146    -9122    -9085    -9147    -9166    -9155    -9178    -9191 
   -9207    -9241    -9260    -9271    -9297    -9303    -9277    -9288 
   -9303    -9288    -9310    -9332    -9304    -9295    -9284    -9241 
   -9229    -9222    -9188    -9190    -9186    -9125    -9082    -9061 
   -9006    -8944    -8912    -8895    -8873    -8837    -8782    -8738 
   -8726    -8694    -8623    -8603    -8645    -8639    -8592    -8587 
   -8590    -8580    -8603    -8639    -8652    -8647    -8631    -8628 
   -8672    -8705    -8658    -8635    -8700    -8719    -8681    -8684 
   -8692    -8690    -8703    -8709    -8709    -8742    -8785    -8769 
   -8765    -8817    -8824    -8800    -8828    -8878    -8898    -8904 
   -8938    -8968    -8960    -8970    -8999    -9006    -9035    -9072 
   -9056    -9069    -9138    -9167    -9177    -9210    -9240    -9254 
   -9252    -9273    -9314    -9307    -9298    -9338    -9375    -9405 
   -9441    -9450    -9462    -9493    -9495    -9498    -9523    -9529 
   -9534    -9548    -9566    -9577    -9555    -9554    -9600    -9603 
   -9569    -9571    -9592    -9591    -9575    -9566    -9569    -9587 
   -9606    -9590    -9568    -9583    -9595    -9583    -9577    -9592 
   -9602    -9580    -9547    -9547    -9550    -9519    -9500    -9504 
   -9484    -9444    -9402    -9375    -9363    -9339    -9316    -9303 
   -9268    -9239    -9239    -9224    -9178    -9129    -9095    -9057 
   -9019    -9004    -8966    -8912    -8886    -8858    -8832    -8803 
   -8763    -8760    -8749    -8709    -8691    -8684    -8670    -8640 
   -8577    -8549    -8573    -8555    -8508    -8486    -8455    -8423 
   -8413    -8392    -8349    -8311    -8289    -8265    -8245    -8220 
   -8171    -8135    -8117    -8088    -8065    -8045    -8025    -8027 
   -8016    -7987    -7983    -7987    -7985    -7996    -8013    -8033 
   -8056    -8076    -8073    -8057    -8079    -8113    -8122    -8142 
   -8149    -8142    -8170    -8187    -8170    -8170    -8185    -8207 
   -8198    -8160    -8185    -8222    -8187    -8170    -8188    -8185 
   -8171    -8155    -8157    -8162    -8127    -8094    -8092    -8078 
   -8052    -8034    -8024    -8021    -8004    -7966    -7949    -7951 
   -7922    -7876    -7871    -7874    -7843    -7808    -7798    -7798 
   -7775    -7770    -7789    -7758    -7736    -7758    -7725    -7690 
   -7701    -7671    -7645    -7667    -7674    -7662    -7642    -7634 
   -7650    -7638    -7621    -7640    -7653    -7638    -7629    -7641 
   -7633    -7608    -7605    -7598    -7586    -7598    -7592    -7574 
   -7585    -7594    -7590    -7593    -7589    -7577    -7577    -7598 
   -7618    -7612    -7588    -7583    -7591    -7579    -7563    -7555 
   -7545    -7535    -7526    -7529    -7524    -7505    -7484    -7475 
   -7498    -7505    -7489    -7498    -7506    -7509    -7513    -7493 
   -7497    -7531    -7519    -7502    -7540    -7551    -7519    -7520 
   -7522    -7501    -7513    -7539    -7536    -7513    -7509    -7552 
   -7592    -7584    -7577    -7607    -7626    -7614    -7628    -7684 
   -7705    -7683    -7697    -7731    -7743    -7752    -7749    -7751 
   -7778    -7819    -7858    -7855    -7839    -7859    -7898    -7941 
   -7967    -7968    -7969    -7991    -8038    -8073    -8057    -8061 
   -8121    -8116    -8068    -8114    -8143    -8107    -8131    -8149 
   -8133    -8155    -8160    -8153    -8166    -8154    -8122    -8104 
   -8108    -8115    -8082    -8047    -8063    -8052    -8005    -8021 
   -8037    -7988    -7974    -7998    -7977    -7954    -7970    -7975 
   -7965    -7987    -7985    -7934    -7938    -7971    -7918    -7868 
   -7910    -7915    -7844    -7838    -7864    -7825    -7811    -7832 
   -7810    -7792    -7801    -7795    -7776    -7771    -7770    -7753 
   -7744    -7748    -7736    -7713    -7703    -7696    -7690    -7699 
   -7702    -7688    -7684    -7676    -7640    -7632    -7662    -7646 
   -7609    -7610    -7599    -7572    -7556    -7536    -7520    -7513 
   -7496    -7460    -7441    -7436    -7397    -7381    -7388    -7344 
   -7304    -7302    -7286    -7247    -7213    -7199    -7170    -7141 
   -7144    -7112    -7068    -7075    -7054    -7016    -7016    -6985 
   -6933    -6916    -6910    -6893    -6867    -6840    -6824    -6805 
   -6777    -6768    -6761    -6734    -6718    -6711    -6690    -6682 
   -6685    -6682    -6689    -6690    -6670    -6676    -6707    -6703 
   -6693    -6708    -6717    -6713    -6706    -6707    -6716    -6722 
   -6744    -6767    -6763    -6762    -6788    -6813    -6817    -6818 
   -6822    -6840    -6867    -6876    -6875    -6882    -6895    -6912 
   -6920    -6932    -6948    -6948    -6955    -6982    -6989    -6980 
   -6989    -6992    -6987    -6993    -6994    -7001    -7020    -7012 
   -6984    -6981    -6992    -6986    -6993    -7004    -6996    -6995 
   -6993    -6983    -6986    -6975    -6945    -6928    -6922    -6905 
   -6885    -6876    -6866    -6845    -6835    -6829    -6815    -6809 
   -6798    -6787    -6785    -6768    -6758    -6764    -6748    -6739 
   -6761    -6768    -6752    -6754    -6758    -6747    -6755    -6768 
   -6748    -6725    -6727    -6734    -6729    -6709    -6699    -6704 
   -6708    -6724    -6731    -6718    -6715    -6729    -6746    -6747 
   -6750    -6784    -6798    -6784    -6802    -6826    -6830    -6848 
   -6866    -6866    -6870    -6875    -6888    -6904    -6916    -6928 
   -6927    -6927    -6956    -6981    -6978    -6978    -7006    -7035 
   -7024    -7010    -7043    -7059    -7032    -7034    -7045    -7038 
   -7054    -7054    -7023    -7021    -7022    -7009    -7019    -7018 
   -6994    -6973    -6960    -6958    -6950    -6931    -6919    -6914 
   -6901    -6871    -6837    -6821    -6816    -6798    -6770    -6766 
   -6768    -6748    -6737    -6729    -6709    -6701    -6683    -6649 
   -6643    -6643    -6614    -6598    -6594    -6576    -6566    -6554 
   -6524    -6512    -6516    -6499    -6485    -6478    -6452    -6431 
   -6419    -6399    -6397    -6398    -6366    -6358    -6385    -6383 
   -6374    -6387    -6389    -6385    -6399    -6417    -6435    -6451 
   -6454    -6468    -6498    -6524    -6549    -6566    -6574    -6591 
   -6617    -6641    -6662    -6683    -6706    -6732    -6748    -6763 
   -6791    -6816    -6833    -6856    -6868    -6879    -6918    -6946 
   -6946    -6961    -6994    -7012    -7015    -7023    -7043    -7057 
   -7070    -7084    -7081    -7088    -7115    -7116    -7114    -7133 
   -7149    -7157    -7155    -7164    -7190    -7193    -7195    -7226 
   -7250    -7249    -7244    -7255    -7279    -7289    -7294    -7315 
   -7337    -7349    -7368    -7386    -7387    -7396    -7423    -7440 
   -7448    -7470    -7497    -7502    -7493    -7500    -7523    -7523 
