Origin Time       2011/03/11 14:46:00
Lat.              38.103
Long.             142.860
Depth. (km)       24
Mag.              9.0
Station Code      KYT012
Station Lat.      34.9977
Station Long.     135.8177
Station Height(m) 87
Record Time       2011/03/11 14:50:45
Sampling Freq(Hz) 100Hz
Duration Time(s)  60
Dir.              U-D
Scale Factor      3920(gal)/6182761
Max. Acc. (gal)   1.489
Last Correction   2011/03/11 14:50:30
Memo.             
[...]
  -62834   -62825   -62778   -62743   -62721   -62721   -62713   -62669 
  -62629   -62597   -62568   -62555   -62503   -62430   -62401   -62380 
  -62349   -62307   -62267   -62257   -62249   -62252   -62236   -62176 
  -62172   -62190   -62159   -62130   -62103   -62088   -62109   -62125 
  -62119   -62104   -62097   -62104   -62092   -62065   -62048   -62026 
  -62010   -61998   -61953   -61922   -61905   -61876   -61858   -61810 
  -61772   -61786   -61782   -61763   -61742   -61737   -61769   -61779 
  -61771   -61774   -61798   -61869   -61927   -61945   -61969   -62002 
  -62066   -62138   -62166   -62199   -62256   -62312   -62399   -62457 
  -62476   -62557   -62659   -62730   -62781   -62805   -62845   -62893 
  -62939   -62977   -62978   -63029   -63143   -63228   -63291   -63351 
  -63409   -63465   -63506   -63538   -63561   -63577   -63605   -63605 
  -63578   -63577   -63569   -63553   -63538   -63494   -63471   -63463 
  -63437   -63406   -63342   -63301   -63293   -63243   -63199   -63169 
  -63147   -63164   -63176   -63163   -63130   -63118   -63158   -63154 
  -63109   -63094   -63067   -63037   -63032   -62992   -62926   -62889 
  -62886   -62869   -62792   -62729   -62716   -62693   -62683   -62650 
  -62584   -62572   -62584   -62575   -62529   -62475   -62472   -62458 
  -62434   -62417   -62353   -62330   -62358   -62340   -62295   -62266 
  -62270   -62268   -62249   -62248   -62230   -62220   -62251   -62242 
  -62189   -62167   -62167   -62144   -62089   -62049   -62026   -61987 
  -61972   -61965   -61920   -61900   -61896   -61877   -61862   -61837 
  -61834   -61845   -61839   -61842   -61846   -61871   -61910   -61928 
  -61939   -61931   -61946   -61984   -61981   -61962   -61947   -61952 
  -61970   -61951   -61926   -61910   -61890   -61900   -61912   -61881 
  -61841   -61831   -61851   -61847   -61812   -61806   -61821   -61818 
  -61807   -61783   -61751   -61741   -61751   -61739   -61676   -61642 
  -61666   -61683   -61701   -61693   -61659   -61671   -61705   -61717 
  -61689   -61670   -61696   -61706   -61698   -61673   -61652   -61694 
  -61736   -61751   -61752   -61746   -61784   -61833   -61848   -61835 
  -61813   -61818   -61836   -61857   -61859   -61814   -61800   -61834 
  -61832   -61807   -61808   -61810   -61795   -61790   -61776   -61731 
  -61708   -61720   -61720   -61720   -61744   -61782   -61830   -61882 
  -61916   -61936   -61982   -62053   -62089   -62119   -62167   -62187 
  -62209   -62244   -62258   -62274   -62308   -62330   -62316   -62316 
  -62332   -62309   -62290   -62286   -62273   -62263   -62263   -62263 
  -62238   -62230   -62256   -62245   -62214   -62196   -62182   -62168 
  -62152   -62142   -62116   -62096   -62096   -62063   -62028   -62012 
  -62001   -61985   -61964   -61951   -61911   -61892   -61923   -61916 
  -61891   -61891   -61907   -61915   -61902   -61907   -61907   -61903 
  -61917   -61911   -61890   -61867   -61855   -61838   -61789   -61739 
  -61684   -61649   -61638   -61605   -61565   -61524   -61509   -61508 
  -61481   -61467   -61447   -61429   -61448   -61456   -61429   -61401 
  -61409   -61411   -61380   -61356   -61328   -61303   -61286   -61255 
  -61211   -61163   -61163   -61170   -61139   -61135   -61138   -61153 
  -61190   -61195   -61176   -61175   -61210   -61237   -61251   -61266 
  -61264   -61287   -61314   -61311   -61317   -61335   -61368   -61377 
  -61362   -61358   -61341   -61343   -61349   -61326   -61300   -61286 
  -61314   -61322   -61283   -61264   -61269   -61293   -61317   -61325 
  -61318   -61311   -61354   -61385   -61370   -61380   -61418   -61447 
  -61452   -61455   -61445   -61431   -61451   -61443   -61416   -61410 
  -61405   -61446   -61486   -61460   -61435   -61456   -61484   -61478 
  -61456   -61434   -61439   -61490   -61499   -61456   -61435   -61447 
  -61463   -61459   -61437   -61417   -61446   -61512   -61524   -61490 
  -61472   -61482   -61512   -61522   -61493   -61444   -61419   -61410 
  -61364   -61308   -61274   -61248   -61214   -61177   -61171   -61223 
  -61339   -61429   -61417   -61392   -61427   -61490   -61538   -61540 
  -61488   -61431   -61436   -61446   -61433   -61459   -61513   -61533 
  -61474   -61367   -61305   -61330   -61392   -61400   -61371   -61353 
  -61330   -61327   -61344   -61333   -61291   -61260   -61225   -61162 
  -61147   -61189   -61237   -61255   -61204   -61117   -61061   -61082 
  -61140   -61177   -61223   -61282   -61328   -61357   -61376   -61368 
  -61350   -61371   -61384   -61376   -61399   -61424   -61424   -61426 
  -61462   -61523   -61590   -61622   -61594   -61572   -61596   -61639 
  -61649   -61615   -61572   -61494   -61389   -61327   -61319   -61349 
  -61385   -61376   -61316   -61285   -61326   -61377   -61388   -61351 
  -61299   -61259   -61229   -61225   -61244   -61254   -61239   -61196 
  -61152   -61153   -61224   -61330   -61358   -61280   -61196   -61187 
  -61252   -61324   -61339   -61289   -61224   -61168   -61093   -61039 
  -61056   -61093   -61075   -61026   -61016   -61042   -61082   -61084 
  -61026   -60990   -61011   -61056   -61083   -61094   -61132   -61182 
  -61145   -60975   -60861   -60975   -61171   -61224   -61133   -61061 
  -61089   -61178   -61233   -61200   -61166   -61203   -61272   -61298 
  -61283   -61324   -61391   -61350   -61248   -61234   -61335   -61474 
  -61540   -61479   -61407   -61482   -61636   -61716   -61707   -61701 
  -61770   -61849   -61874   -61882   -61891   -61907   -61901   -61868 
  -61860   -61908   -61970   -61966   -61916   -61910   -61986   -62074 
  -62082   -62067   -62104   -62149   -62128   -62045   -61996   -62050 
  -62169   -62230   -62161   -62082   -62059   -62004   -61913   -61880 
  -61912   -61923   -61877   -61827   -61817   -61858   -61904   -61890 
  -61839   -61859   -61942   -61967   -61955   -61992   -62048   -62075 
  -62046   -62022   -62106   -62254   -62308   -62241   -62229   -62346 
  -62437   -62398   -62290   -62233   -62269   -62341   -62348   -62290 
  -62313   -62428   -62477   -62424   -62381   -62414   -62448   -62438 
  -62433   -62453   -62488   -62500   -62461   -62414   -62429   -62520 
  -62585   -62586   -62594   -62620   -62630   -62626   -62633   -62636 
  -62628   -62647   -62647   -62607   -62581   -62553   -62478   -62379 
  -62343   -62359   -62317   -62233   -62207   -62252   -62302   -62305 
  -62269   -62252   -62308   -62381   -62392   -62373   -62370   -62391 
  -62400   -62356   -62305   -62293   -62307   -62319   -62340   -62406 
  -62510   -62597   -62596   -62531   -62510   -62528   -62505   -62453 
  -62471   -62572   -62649   -62622   -62513   -62437   -62453   -62461 
  -62413   -62379   -62388   -62410   -62416   -62379   -62305   -62291 
  -62346   -62338   -62287   -62296   -62336   -62334   -62296   -62276 
  -62275   -62280   -62278   -62246   -62202   -62182   -62181   -62163 
  -62161   -62212   -62225   -62166   -62126   -62160   -62230   -62245 
  -62193   -62164   -62207   -62259   -62252   -62238   -62256   -62257 
  -62220   -62178   -62191   -62287   -62400   -62397   -62292   -62284 
  -62413   -62520   -62534   -62521   -62561   -62624   -62659   -62670 
  -62709   -62842   -62991   -63009   -62919   -62874   -62922   -62963 
  -62968   -62971   -62974   -62996   -63004   -62968   -62943   -62974 
  -63037   -63066   -63073   -63106   -63133   -63122   -63130   -63205 
  -63260   -63228   -63212   -63270   -63321   -63315   -63293   -63292 
  -63309   -63322   -63291   -63244   -63238   -63257   -63258   -63215 
  -63184   -63234   -63289   -63252   -63174   -63158   -63211   -63252 
  -63238   -63224   -63247   -63235   -63198   -63217   -63254   -63264 
  -63271   -63278   -63280   -63283   -63287   -63275   -63272   -63301 
  -63298   -63229   -63166   -63175   -63205   -63182   -63137   -63116 
  -63118   -63109   -63076   -63056   -63085   -63125   -63094   -63023 
  -63039   -63116   -63133   -63092   -63092   -63140   -63155   -63142 
  -63153   -63204   -63253   -63245   -63192   -63131   -63098   -63101 
  -63115   -63145   -63184   -63187   -63129   -63060   -63045   -63059 
  -63053   -63005   -62952   -62939   -62940   -62945   -62978   -63018 
  -63014   -62959   -62940   -63002   -63065   -63056   -63009   -63005 
  -63028   -63029   -63010   -62997   -63018   -63023   -62964   -62895 
  -62872   -62865   -62797   -62707   -62682   -62694   -62667   -62603 
  -62552   -62513   -62480   -62480   -62485   -62475   -62451   -62392 
  -62327   -62314   -62327   -62296   -62246   -62243   -62255   -62219 
  -62153   -62130   -62158   -62174   -62143   -62083   -62039   -62020 
  -61991   -61949   -61923   -61917   -61888   -61844   -61825   -61811 
  -61782   -61739   -61683   -61646   -61633   -61604   -61558   -61559 
  -61580   -61538   -61485   -61473   -61464   -61428   -61375   -61360 
  -61389   -61416   -61413   -61394   -61402   -61451   -61495   -61479 
  -61441   -61450   -61457   -61446   -61456   -61473   -61493   -61511 
  -61517   -61531   -61557   -61566   -61576   -61624   -61657   -61635 
  -61609   -61620   -61664   -61695   -61685   -61687   -61738   -61778 
  -61751   -61724   -61769   -61852   -61893   -61882   -61906   -61986 
  -62032   -62022   -62015   -62068   -62170   -62243   -62273   -62328 
  -62422   -62491   -62524   -62553   -62571   -62596   -62609   -62571 
  -62538   -62530   -62499   -62464   -62465   -62461   -62416   -62374 
  -62347   -62322   -62305   -62262   -62203   -62188   -62179   -62107 
  -62012   -61982   -61993   -61979   -61936   -61907   -61911   -61894 
  -61834   -61778   -61762   -61774   -61755   -61716   -61709   -61696 
  -61643   -61600   -61588   -61548   -61476   -61443   -61435   -61412 
  -61366   -61303   -61246   -61214   -61186   -61138   -61102   -61085 
  -61029   -60949   -60908   -60906   -60904   -60880   -60859   -60855 
  -60864   -60885   -60922   -60982   -61033   -61051   -61036   -61013 
  -61025   -61021   -60979   -60984   -61036   -61054   -61018   -60991 
  -61017   -61038   -61011   -60993   -61036   -61089   -61099   -61076 
  -61053   -61079   -61140   -61183   -61212   -61237   -61260   -61294 
  -61341   -61378   -61377   -61397   -61485   -61580   -61614   -61610 
  -61638   -61709   -61780   -61808   -61816   -61897   -62021   -62076 
  -62075   -62082   -62125   -62181   -62217   -62234   -62266   -62316 
  -62347   -62357   -62352   -62320   -62292   -62289   -62286   -62275 
  -62275   -62293   -62296   -62267   -62213   -62188   -62238   -62286 
  -62265   -62219   -62200   -62197   -62178   -62157   -62158   -62178 
  -62199   -62223   -62257   -62271   -62276   -62282   -62276   -62283 
  -62278   -62254   -62267   -62313   -62322   -62256   -62171   -62125 
  -62099   -62063   -61999   -61928   -61867   -61803   -61733   -61671 
  -61629   -61590   -61534   -61482   -61422   -61350   -61295   -61264 
  -61231   -61183   -61148   -61134   -61140   -61150   -61137   -61127 
  -61151   -61179   -61170   -61132   -61121   -61130   -61111   -61078 
  -61070   -61086   -61090   -61080   -61069   -61045   -61009   -61010 
  -61046   -61051   -61023   -61018   -61025   -61020   -61007   -60989 
  -60990   -61025   -61057   -61038   -61012   -61039   -61075   -61062 
  -61031   -61035   -61053   -61047   -61023   -61002   -61013   -61040 
  -61031   -61003   -60996   -60992   -60978   -60981   -60979   -60931 
  -60883   -60875   -60881   -60870   -60835   -60811   -60827   -60855 
  -60833   -60772   -60756   -60770   -60751   -60699   -60663   -60664 
  -60665   -60656   -60643   -60635   -60633   -60612   -60595   -60613 
  -60625   -60597   -60559   -60540   -60508   -60457   -60437   -60446 
  -60448   -60399   -60333   -60321   -60339   -60332   -60306   -60298 
  -60299   -60290   -60285   -60290   -60314   -60337   -60318   -60288 
  -60288   -60321   -60342   -60327   -60325   -60339   -60334   -60327 
  -60346   -60376   -60383   -60384   -60413   -60473   -60519   -60523 
  -60544   -60615   -60680   -60698   -60702   -60761   -60846   -60878 
  -60877   -60892   -60923   -60947   -60959   -60962   -60963   -60982 
  -60996   -61021   -61074   -61098   -61104   -61155   -61241   -61313 
  -61368   -61434   -61515   -61591   -61622   -61638   -61721   -61826 
  -61882   -61904   -61949   -62038   -62104   -62117   -62150   -62227 
  -62304   -62355   -62394   -62431   -62473   -62506   -62519   -62543 
  -62580   -62613   -62651   -62696   -62740   -62754   -62759   -62818 
  -62915   -62963   -62940   -62937   -62998   -63045   -63039   -63037 
  -63068   -63102   -63110   -63111   -63111   -63125   -63140   -63123 
  -63095   -63065   -63040   -63027   -63021   -63017   -62980   -62929 
  -62920   -62951   -62970   -62936   -62889   -62885   -62888   -62828 
  -62730   -62681   -62662   -62601   -62498   -62401   -62352   -62320 
  -62255   -62170   -62096   -62048   -61999   -61931   -61865   -61801 
  -61733   -61674   -61634   -61581   -61493   -61426   -61394   -61344 
  -61246   -61127   -61066   -61064   -61035   -60945   -60869   -60858 
  -60849   -60801   -60736   -60680   -60667   -60655   -60601   -60547 
  -60515   -60490   -60462   -60434   -60402   -60356   -60314   -60285 
  -60264   -60221   -60159   -60119   -60096   -60056   -59987   -59947 
  -59959   -59935   -59875   -59832   -59785   -59749   -59740   -59725 
  -59698   -59688   -59689   -59688   -59694   -59688   -59667   -59654 
  -59672   -59702   -59687   -59653   -59656   -59672   -59668   -59645 
  -59642   -59685   -59726   -59726   -59728   -59769   -59808   -59822 
  -59844   -59861   -59851   -59847   -59872   -59886   -59869   -59879 
  -59915   -59947   -59985   -60012   -60025   -60060   -60113   -60116 
  -60080   -60118   -60209   -60243   -60230   -60229   -60248   -60281 
  -60328   -60375   -60415   -60457   -60499   -60558   -60602   -60594 
  -60594   -60651   -60735   -60793   -60823   -60891   -60987   -61046 
  -61077   -61126   -61208   -61300   -61375   -61429   -61503   -61596 
  -61649   -61680   -61737   -61820   -61899   -61949   -61986   -62009 
  -62017   -62048   -62118   -62196   -62235   -62260   -62314   -62378 
  -62427   -62436   -62448   -62515   -62569   -62577   -62605   -62656 
  -62687   -62714   -62759   -62789   -62815   -62856   -62893   -62940 
  -62990   -63022   -63048   -63098   -63151   -63170   -63211   -63302 
  -63371   -63386   -63370   -63386   -63435   -63449   -63429   -63416 
  -63418   -63405   -63377   -63356   -63309   -63239   -63194   -63162 
  -63121   -63083   -63046   -63013   -63002   -62978   -62907   -62857 
  -62848   -62807   -62722   -62660   -62648   -62616   -62543   -62470 
  -62411   -62374   -62345   -62309   -62278   -62242   -62216   -62209 
  -62195   -62172   -62138   -62096   -62081   -62103   -62077   -62009 
  -61997   -61999   -61955   -61916   -61900   -61889   -61878   -61856 
  -61816   -61793   -61802   -61799   -61793   -61797   -61787   -61756 
  -61740   -61763   -61763   -61731   -61742   -61767   -61755   -61724 
  -61700   -61714   -61750   -61745   -61692   -61661   -61675   -61670 
  -61629   -61577   -61530   -61485   -61437   -61394   -61341   -61282 
  -61243   -61216   -61186   -61140   -61079   -61032   -61030   -61037 
  -60983   -60934   -60962   -60982   -60938   -60886   -60888   -60918 
  -60911   -60869   -60832   -60829   -60838   -60822   -60798   -60778 
  -60779   -60806   -60832   -60838   -60817   -60799   -60815   -60856 
  -60883   -60858   -60826   -60834   -60842   -60807   -60775   -60788 
  -60803   -60792   -60766   -60749   -60774   -60804   -60810   -60831 
  -60858   -60867   -60874   -60893   -60918   -60959   -61009   -61031 
  -61052   -61087   -61081   -61063   -61095   -61134   -61115   -61077 
  -61105   -61165   -61189   -61185   -61184   -61201   -61217   -61209 
  -61181   -61183   -61221   -61224   -61190   -61166   -61150   -61144 
  -61158   -61177   -61164   -61117   -61097   -61133   -61183   -61176 
  -61124   -61102   -61114   -61125   -61108   -61076   -61077   -61082 
  -61042   -60979   -60952   -60956   -60928   -60875   -60845   -60833 
  -60814   -60785   -60753   -60729   -60725   -60715   -60690   -60676 
  -60644   -60597   -60600   -60657   -60702   -60680   -60660   -60712 
  -60768   -60777   -60773   -60812   -60898   -60975   -61010   -61034 
  -61089   -61152   -61177   -61184   -61210   -61254   -61274   -61271 
  -61297   -61333   -61353   -61374   -61410   -61454   -61491   -61522 
  -61559   -61631   -61691   -61682   -61698   -61772   -61816   -61822 
  -61840   -61879   -61920   -61943   -61927   -61895   -61898   -61907 
  -61882   -61857   -61850   -61827   -61773   -61750   -61757   -61722 
  -61676   -61667   -61662   -61616   -61537   -61483   -61481   -61494 
  -61458   -61376   -61314   -61285   -61242   -61159   -61093   -61072 
  -61031   -60957   -60877   -60813   -60795   -60803   -60806   -60799 
  -60776   -60738   -60720   -60726   -60691   -60638   -60638   -60678 
  -60702   -60695   -60714   -60780   -60836   -60854   -60865   -60919 
  -61002   -61064   -61105   -61136   -61173   -61229   -61298   -61373 
  -61442   -61499   -61539   -61591   -61666   -61711   -61742   -61803 
  -61858   -61874   -61892   -61947   -61996   -62018   -62016   -62007 
  -62053   -62113   -62119   -62117   -62140   -62173   -62204   -62234 
  -62265   -62298   -62327   -62363   -62428   -62471   -62463   -62473 
  -62517   -62550   -62544   -62515   -62525   -62573   -62590   -62544 
  -62491   -62492   -62502   -62478   -62435   -62413   -62426   -62423 
  -62389   -62355   -62328   -62312   -62295   -62275   -62250   -62211 
  -62182   -62192   -62211   -62181   -62141   -62158   -62179   -62149 
  -62087   -62040   -62032   -62023   -61983   -61921   -61887   -61896 
  -61891   -61869   -61859   -61848   -61830   -61830   -61843   -61820 
  -61783   -61791   -61828   -61855   -61852   -61852   -61881   -61909 
  -61904   -61875   -61882   -61933   -61967   -61979   -61997   -62037 
  -62080   -62104   -62131   -62157   -62181   -62219   -62262   -62286 
  -62295   -62318   -62350   -62388   -62411   -62393   -62394   -62438 
  -62466   -62454   -62442   -62479   -62509   -62485   -62457   -62449 
  -62453   -62462   -62452   -62424   -62406   -62392   -62351   -62323 
  -62301   -62237   -62200   -62229   -62243   -62207   -62167   -62170 
  -62190   -62169   -62110   -62078   -62084   -62086   -62080   -62067 
  -62059   -62061   -62042   -62033   -62041   -62026   -62021   -62048 
  -62058   -62016   -61978   -61990   -62005   -61988   -61946   -61925 
  -61941   -61944   -61918   -61885   -61881   -61902   -61903   -61892 
  -61896   -61922   -61924   -61912   -61942   -61969   -61961   -61978 
  -62014   -62008   -61978   -61988   -62019   -62024   -61993   -61942 
  -61944   -61994   -61994   -61931   -61886   -61885   -61873   -61857 
  -61861   -61851   -61840   -61836   -61828   -61826   -61800   -61765 
  -61763   -61778   -61762   -61732   -61742   -61765   -61763   -61739 
  -61721   -61741   -61768   -61771   -61776   -61799   -61812   -61799 
  -61795   -61792   -61773   -61781   -61819   -61859   -61880   -61884 
  -61909   -61965   -62030   -62056   -62061   -62137   -62246   -62298 
  -62322   -62378   -62449   -62508   -62568   -62612   -62648   -62712 
  -62757   -62772   -62795   -62820   -62833   -62849   -62887   -62903 
