Origin Time       2011/03/11 14:46:00
Lat.              38.103
Long.             142.860
Depth. (km)       24
Mag.              9.0
Station Code      MIE012
Station Lat.      34.2544
Station Long.     136.8229
Station Height(m) 7
Record Time       2011/03/11 14:50:00
Sampling Freq(Hz) 100Hz
Duration Time(s)  97
Dir.              N-S
Scale Factor      3920(gal)/6182761
Max. Acc. (gal)   2.333
Last Correction   2011/03/11 14:49:45
Memo.             
[...]
  -17159   -17099   -17061   -17031   -17002   -16991   -16982   -16969 
  -16977   -16993   -17000   -17022   -17050   -17061   -17068   -17073 
  -17060   -17035   -17003   -16956   -16904   -16854   -16789   -16709 
  -16612   -16500   -16379   -16246   -16120   -15987   -15842   -15735 
  -15620   -15479   -15390   -15321   -15220   -15127   -15051   -14983 
  -14904   -14801   -14723   -14674   -14596   -14506   -14449   -14417 
  -14390   -14357   -14345   -14356   -14362   -14370   -14386   -14409 
  -14441   -14457   -14465   -14500   -14527   -14538   -14574   -14627 
  -14663   -14706   -14783   -14867   -14939   -15036   -15160   -15278 
  -15387   -15500   -15604   -15686   -15756   -15825   -15878   -15905 
  -15923   -15925   -15903   -15894   -15889   -15842   -15784   -15750 
  -15729   -15690   -15608   -15516   -15450   -15387   -15311   -15233 
  -15147   -15052   -14971   -14910   -14849   -14781   -14725   -14684 
  -14641   -14601   -14566   -14534   -14528   -14522   -14484   -14455 
  -14436   -14406   -14402   -14399   -14352   -14337   -14357   -14328 
  -14300   -14283   -14255   -14263   -14264   -14230   -14219   -14256 
  -14289   -14291   -14333   -14389   -14421   -14464   -14518   -14599 
  -14686   -14759   -14854   -14962   -15060   -15163   -15290   -15390 
  -15452   -15536   -15603   -15658   -15715   -15731   -15753   -15809 
  -15855   -15865   -15885   -15940   -15999   -16072   -16137   -16186 
  -16274   -16370   -16445   -16540   -16665   -16778   -16863   -16955 
  -17069   -17175   -17243   -17289   -17343   -17409   -17476   -17517 
  -17551   -17599   -17632   -17667   -17702   -17708   -17704   -17703 
  -17705   -17691   -17663   -17646   -17621   -17577   -17532   -17493 
  -17457   -17400   -17331   -17285   -17237   -17165   -17096   -17031 
  -16949   -16868   -16807   -16745   -16683   -16622   -16548   -16493 
  -16457   -16428   -16403   -16356   -16330   -16359   -16375   -16376 
  -16404   -16446   -16493   -16537   -16584   -16636   -16667   -16700 
  -16746   -16765   -16763   -16781   -16822   -16843   -16848   -16869 
  -16894   -16927   -16954   -16949   -16961   -16994   -17028   -17076 
  -17123   -17174   -17238   -17290   -17341   -17400   -17446   -17479 
  -17494   -17477   -17444   -17401   -17335   -17245   -17128   -16989 
  -16866   -16751   -16604   -16450   -16319   -16202   -16098   -16002 
  -15934   -15913   -15905   -15898   -15927   -15987   -16045   -16106 
  -16179   -16264   -16373   -16488   -16568   -16632   -16710   -16771 
  -16803   -16833   -16863   -16886   -16895   -16874   -16851   -16829 
  -16772   -16701   -16652   -16615   -16572   -16520   -16473   -16447 
  -16424   -16385   -16351   -16320   -16277   -16247   -16226   -16201 
  -16190   -16185   -16192   -16230   -16267   -16303   -16373   -16470 
  -16555   -16641   -16761   -16870   -16948   -17038   -17122   -17192 
  -17265   -17328   -17375   -17426   -17481   -17526   -17562   -17592 
  -17613   -17638   -17648   -17640   -17658   -17665   -17636   -17637 
  -17654   -17636   -17626   -17631   -17621   -17617   -17606   -17562 
  -17532   -17528   -17504   -17472   -17454   -17442   -17435   -17432 
  -17426   -17426   -17431   -17437   -17450   -17460   -17458   -17476 
  -17492   -17473   -17467   -17450   -17374   -17307   -17263   -17173 
  -17070   -16987   -16882   -16754   -16636   -16527   -16417   -16305 
  -16202   -16108   -16022   -15955   -15878   -15782   -15727   -15707 
  -15657   -15607   -15587   -15560   -15542   -15554   -15541   -15506 
  -15516   -15535   -15523   -15538   -15580   -15595   -15621   -15669 
  -15693   -15754   -15834   -15849   -15880   -15954   -15966   -15961 
  -16002   -16013   -15990   -15975   -15954   -15942   -15925   -15871 
  -15836   -15820   -15780   -15741   -15695   -15635   -15615   -15615 
  -15589   -15582   -15596   -15564   -15536   -15563   -15577   -15568 
  -15592   -15612   -15598   -15602   -15625   -15630   -15639   -15653 
  -15634   -15630   -15672   -15698   -15719   -15757   -15772   -15779 
  -15797   -15802   -15806   -15813   -15803   -15774   -15742   -15730 
  -15709   -15660   -15622   -15591   -15554   -15524   -15502   -15478 
  -15445   -15415   -15398   -15374   -15361   -15378   -15378   -15362 
  -15374   -15410   -15444   -15473   -15512   -15564   -15610   -15656 
  -15701   -15742   -15787   -15825   -15857   -15899   -15947   -15999 
  -16060   -16124   -16199   -16278   -16336   -16375   -16431   -16503 
  -16552   -16573   -16605   -16649   -16672   -16678   -16680   -16662 
  -16650   -16659   -16632   -16569   -16525   -16485   -16431   -16379 
  -16325   -16271   -16217   -16153   -16086   -16034   -15975   -15895 
  -15840   -15802   -15754   -15711   -15659   -15617   -15605   -15579 
  -15547   -15553   -15578   -15596   -15614   -15642   -15697   -15774 
  -15846   -15910   -15995   -16089   -16175   -16266   -16364   -16457 
  -16550   -16648   -16746   -16831   -16901   -16973   -17039   -17073 
  -17097   -17135   -17144   -17130   -17152   -17172   -17156   -17148 
  -17155   -17153   -17163   -17192   -17202   -17212   -17255   -17297 
  -17330   -17378   -17422   -17481   -17558   -17606   -17652   -17726 
  -17784   -17825   -17884   -17942   -17986   -18037   -18081   -18104 
  -18143   -18185   -18203   -18219   -18230   -18235   -18243   -18230 
  -18211   -18207   -18193   -18155   -18114   -18091   -18068   -18025 
  -17974   -17935   -17900   -17836   -17761   -17710   -17651   -17578 
  -17532   -17487   -17436   -17398   -17354   -17304   -17256   -17216 
  -17192   -17159   -17114   -17084   -17068   -17038   -16999   -16989 
  -16999   -16997   -16995   -17015   -17064   -17123   -17174   -17248 
  -17351   -17439   -17513   -17624   -17747   -17834   -17943   -18082 
  -18180   -18264   -18367   -18456   -18545   -18641   -18699   -18727 
  -18757   -18776   -18773   -18769   -18769   -18753   -18729   -18721 
  -18721   -18718   -18722   -18723   -18717   -18722   -18725   -18724 
  -18731   -18736   -18750   -18757   -18737   -18727   -18725   -18709 
  -18696   -18681   -18672   -18675   -18664   -18650   -18658   -18665 
  -18673   -18700   -18723   -18743   -18778   -18808   -18821   -18837 
  -18853   -18861   -18871   -18888   -18903   -18916   -18919   -18917 
  -18926   -18926   -18899   -18869   -18836   -18783   -18721   -18647 
  -18551   -18444   -18328   -18199   -18072   -17947   -17817   -17701 
  -17599   -17477   -17354   -17241   -17121   -17025   -16946   -16842 
  -16751   -16690   -16625   -16551   -16502   -16492   -16467   -16416 
  -16391   -16389   -16368   -16348   -16351   -16343   -16329   -16349 
  -16371   -16366   -16379   -16414   -16458   -16509   -16548   -16595 
  -16664   -16729   -16797   -16875   -16941   -17000   -17063   -17131 
  -17190   -17235   -17270   -17299   -17318   -17325   -17323   -17308 
  -17274   -17236   -17195   -17142   -17076   -17012   -16947   -16863 
  -16777   -16704   -16625   -16539   -16451   -16368   -16304   -16247 
  -16188   -16150   -16140   -16138   -16153   -16194   -16247   -16318 
  -16410   -16498   -16601   -16715   -16809   -16904   -17010   -17096 
  -17161   -17226   -17273   -17289   -17308   -17330   -17322   -17283 
  -17241   -17212   -17171   -17095   -17008   -16947   -16903   -16836 
  -16771   -16730   -16695   -16670   -16640   -16609   -16613   -16621 
  -16601   -16588   -16594   -16588   -16570   -16550   -16530   -16526 
  -16539   -16546   -16549   -16580   -16638   -16685   -16725   -16795 
  -16878   -16946   -17032   -17153   -17283   -17402   -17522   -17658 
  -17813   -17968   -18117   -18279   -18436   -18577   -18727   -18876 
  -19009   -19141   -19261   -19367   -19486   -19610   -19716   -19808 
  -19899   -19990   -20062   -20098   -20128   -20170   -20177   -20153 
  -20142   -20120   -20064   -20006   -19962   -19901   -19836   -19787 
  -19726   -19678   -19658   -19622   -19575   -19550   -19551   -19547 
  -19540   -19545   -19546   -19572   -19622   -19652   -19685   -19737 
  -19786   -19813   -19839   -19884   -19931   -19968   -20001   -20059 
  -20152   -20225   -20270   -20348   -20444   -20508   -20554   -20616 
  -20677   -20710   -20728   -20742   -20745   -20734   -20715   -20697 
  -20662   -20613   -20567   -20501   -20421   -20356   -20289   -20219 
  -20164   -20102   -20040   -20005   -19985   -19960   -19933   -19926 
  -19931   -19930   -19925   -19919   -19919   -19919   -19896   -19860 
  -19844   -19804   -19750   -19731   -19674   -19588   -19544   -19473 
  -19386   -19333   -19259   -19174   -19106   -19026   -18962   -18921 
  -18846   -18783   -18775   -18737   -18681   -18664   -18626   -18570 
  -18530   -18481   -18439   -18409   -18369   -18334   -18323   -18320 
  -18298   -18285   -18301   -18308   -18310   -18332   -18362   -18381 
  -18391   -18406   -18415   -18407   -18392   -18360   -18313   -18262 
  -18179   -18083   -17994   -17877   -17734   -17592   -17427   -17245 
  -17071   -16890   -16710   -16544   -16366   -16182   -16020   -15872 
  -15722   -15572   -15440   -15332   -15225   -15126   -15047   -14966 
  -14901   -14867   -14828   -14789   -14765   -14736   -14723   -14724 
  -14703   -14690   -14702   -14707   -14713   -14725   -14735   -14752 
  -14771   -14782   -14790   -14810   -14843   -14867   -14891   -14935 
  -14979   -15008   -15020   -15028   -15042   -15039   -15034   -15044 
  -15029   -14998   -14984   -14966   -14939   -14906   -14849   -14799 
  -14773   -14734   -14690   -14661   -14645   -14643   -14653   -14692 
  -14765   -14845   -14930   -15035   -15165   -15313   -15474   -15645 
  -15822   -16025   -16251   -16462   -16676   -16914   -17138   -17345 
  -17553   -17735   -17883   -18025   -18152   -18243   -18319   -18381 
  -18414   -18439   -18464   -18476   -18467   -18443   -18423   -18394 
  -18347   -18304   -18263   -18206   -18155   -18129   -18099   -18052 
  -18017   -17992   -17956   -17938   -17956   -17952   -17930   -17955 
  -18008   -18045   -18075   -18124   -18191   -18244   -18282   -18333 
  -18379   -18399   -18423   -18442   -18435   -18424   -18418   -18391 
  -18344   -18296   -18240   -18149   -18041   -17949   -17851   -17727 
  -17591   -17452   -17323   -17198   -17051   -16902   -16782   -16668 
  -16533   -16391   -16272   -16177   -16083   -15990   -15909   -15848 
  -15812   -15779   -15735   -15720   -15741   -15750   -15748   -15788 
  -15852   -15890   -15932   -16014   -16099   -16172   -16240   -16306 
  -16378   -16446   -16515   -16587   -16650   -16711   -16776   -16836 
  -16889   -16938   -16980   -17025   -17089   -17153   -17188   -17245 
  -17336   -17398   -17444   -17505   -17545   -17568   -17591   -17598 
  -17584   -17559   -17529   -17493   -17448   -17390   -17326   -17274 
  -17230   -17189   -17144   -17096   -17052   -17020   -16993   -16963 
  -16953   -16962   -16969   -16987   -17029   -17082   -17126   -17178 
  -17240   -17293   -17339   -17381   -17405   -17414   -17419   -17416 
  -17404   -17383   -17343   -17298   -17266   -17225   -17176   -17127 
  -17063   -16994   -16926   -16851   -16787   -16739   -16692   -16657 
  -16645   -16645   -16633   -16612   -16607   -16627   -16647   -16655 
  -16681   -16726   -16779   -16835   -16877   -16921   -16966   -16988 
  -16990   -16999   -17021   -17032   -17036   -17045   -17021   -16967 
  -16919   -16867   -16798   -16727   -16666   -16605   -16536   -16481 
  -16417   -16314   -16225   -16159   -16064   -15960   -15895   -15845 
  -15782   -15715   -15660   -15615   -15575   -15532   -15489   -15470 
  -15471   -15462   -15460   -15495   -15539   -15561   -15604   -15677 
  -15718   -15748   -15812   -15870   -15922   -15989   -16042   -16093 
  -16172   -16249   -16304   -16373   -16463   -16541   -16604   -16680 
  -16760   -16815   -16860   -16902   -16932   -16974   -17023   -17048 
  -17064   -17100   -17132   -17147   -17166   -17178   -17173   -17186 
  -17219   -17238   -17245   -17250   -17258   -17283   -17321   -17355 
  -17389   -17438   -17480   -17502   -17550   -17623   -17678   -17725 
  -17774   -17827   -17880   -17907   -17942   -18005   -18045   -18065 
  -18099   -18134   -18167   -18202   -18219   -18217   -18225   -18239 
  -18241   -18240   -18240   -18248   -18265   -18259   -18226   -18201 
  -18188   -18148   -18082   -18066   -18078   -18034   -17964   -17917 
  -17863   -17774   -17670   -17583   -17513   -17458   -17416   -17364 
  -17304   -17272   -17249   -17167   -17081   -17039   -16987   -16942 
  -16910   -16856   -16801   -16743   -16663   -16574   -16499   -16437 
  -16378   -16313   -16230   -16162   -16114   -16033   -15953   -15909 
  -15857   -15806   -15797   -15806   -15818   -15853   -15894   -15930 
  -15997   -16071   -16132   -16218   -16325   -16430   -16531   -16624 
  -16733   -16861   -16979   -17092   -17217   -17335   -17437   -17539 
  -17650   -17754   -17843   -17928   -18005   -18081   -18163   -18223 
  -18251   -18280   -18311   -18325   -18347   -18395   -18445   -18486 
  -18541   -18621   -18692   -18743   -18813   -18913   -19027   -19148 
  -19247   -19322   -19424   -19540   -19637   -19736   -19855   -19970 
  -20061   -20141   -20223   -20304   -20381   -20447   -20494   -20539 
  -20606   -20676   -20715   -20739   -20770   -20786   -20777   -20783 
  -20810   -20847   -20882   -20878   -20870   -20907   -20929   -20909 
  -20903   -20917   -20929   -20931   -20932   -20946   -20950   -20940 
  -20941   -20941   -20924   -20894   -20856   -20810   -20770   -20739 
  -20691   -20615   -20550   -20508   -20440   -20349   -20279   -20210 
  -20094   -19956   -19837   -19728   -19602   -19463   -19318   -19161 
  -18996   -18837   -18686   -18534   -18376   -18221   -18071   -17909 
  -17742   -17573   -17394   -17239   -17124   -17009   -16877   -16759 
  -16671   -16584   -16488   -16402   -16320   -16251   -16204   -16168 
  -16133   -16102   -16085   -16068   -16056   -16063   -16074   -16109 
  -16168   -16223   -16284   -16344   -16415   -16508   -16584   -16646 
  -16717   -16781   -16849   -16919   -16974   -17027   -17078   -17132 
  -17188   -17234   -17289   -17356   -17438   -17532   -17600   -17670 
  -17772   -17866   -17933   -18007   -18082   -18129   -18175   -18242 
  -18307   -18366   -18428   -18488   -18540   -18570   -18591   -18605 
  -18608   -18635   -18652   -18653   -18686   -18698   -18677   -18666 
  -18648   -18615   -18574   -18533   -18504   -18471   -18430   -18377 
  -18305   -18247   -18195   -18124   -18079   -18047   -17987   -17940 
  -17913   -17885   -17872   -17883   -17917   -17942   -17941   -17968 
  -18021   -18055   -18098   -18157   -18214   -18291   -18386   -18474 
  -18554   -18624   -18703   -18797   -18867   -18920   -18992   -19069 
  -19124   -19155   -19178   -19205   -19217   -19198   -19177   -19173 
  -19156   -19124   -19111   -19099   -19075   -19059   -19035   -18985 
  -18926   -18875   -18837   -18818   -18815   -18795   -18752   -18714 
  -18694   -18678   -18637   -18595   -18582   -18557   -18515   -18491 
  -18467   -18431   -18393   -18361   -18320   -18259   -18219   -18200 
  -18159   -18122   -18117   -18110   -18094   -18089   -18100   -18112 
  -18122   -18139   -18155   -18168   -18169   -18156   -18143   -18136 
  -18135   -18137   -18125   -18103   -18091   -18089   -18080   -18067 
  -18055   -18038   -18033   -18039   -18035   -18026   -18012   -17998 
  -18000   -18008   -18026   -18043   -18026   -17998   -17987   -17983 
  -17961   -17924   -17908   -17907   -17888   -17873   -17870   -17851 
  -17831   -17836   -17845   -17828   -17793   -17771   -17768   -17742 
  -17693   -17663   -17628   -17586   -17556   -17512   -17475   -17443 
  -17388   -17344   -17308   -17258   -17223   -17208   -17182   -17140 
  -17098   -17061   -17034   -17014   -16978   -16940   -16940   -16945 
  -16932   -16939   -16949   -16943   -16958   -16995   -17012   -17031 
  -17089   -17147   -17168   -17203   -17262   -17297   -17345   -17403 
  -17417   -17429   -17498   -17591   -17628   -17621   -17619   -17636 
  -17689   -17711   -17671   -17663   -17687   -17689   -17689   -17683 
  -17657   -17641   -17658   -17671   -17645   -17610   -17596   -17579 
  -17547   -17525   -17487   -17431   -17397   -17366   -17322   -17299 
  -17303   -17288   -17235   -17199   -17196   -17195   -17200   -17206 
  -17226   -17264   -17276   -17274   -17288   -17305   -17321   -17328 
  -17322   -17306   -17274   -17255   -17257   -17239   -17196   -17172 
  -17176   -17170   -17145   -17137   -17145   -17145   -17130   -17106 
  -17089   -17076   -17051   -17033   -17020   -16979   -16925   -16867 
  -16807   -16749   -16678   -16591   -16516   -16450   -16365   -16275 
  -16212   -16167   -16117   -16073   -16052   -16055   -16058   -16064 
  -16110   -16170   -16217   -16287   -16384   -16471   -16559   -16675 
  -16807   -16935   -17064   -17184   -17302   -17438   -17572   -17672 
  -17758   -17840   -17910   -18000   -18098   -18148   -18183   -18233 
  -18265   -18275   -18289   -18301   -18299   -18301   -18292   -18253 
  -18218   -18186   -18140   -18101   -18073   -18031   -17971   -17929 
  -17894   -17842   -17804   -17760   -17697   -17663   -17640   -17589 
  -17528   -17483   -17440   -17390   -17356   -17313   -17246   -17211 
  -17194   -17151   -17114   -17098   -17089   -17074   -17047   -17024 
  -17012   -17003   -16982   -16950   -16944   -16957   -16931   -16895 
  -16905   -16932   -16945   -16940   -16933   -16968   -17012   -17026 
  -17054   -17113   -17181   -17241   -17291   -17340   -17396   -17445 
  -17485   -17528   -17561   -17573   -17564   -17555   -17550   -17522 
  -17487   -17458   -17419   -17388   -17364   -17301   -17225   -17188 
  -17160   -17118   -17078   -17049   -17037   -17038   -17034   -17021 
  -17011   -17012   -17010   -16998   -17003   -17025   -17047   -17068 
  -17078   -17087   -17102   -17113   -17129   -17152   -17172   -17191 
  -17222   -17271   -17323   -17371   -17412   -17442   -17480   -17524 
  -17565   -17598   -17599   -17587   -17587   -17576   -17549   -17516 
  -17467   -17417   -17373   -17312   -17251   -17220   -17182   -17126 
  -17080   -17048   -17030   -17010   -16975   -16949   -16940   -16931 
  -16929   -16929   -16926   -16934   -16949   -16955   -16969   -17003 
  -17030   -17051   -17088   -17136   -17179   -17213   -17236   -17277 
  -17344   -17398   -17438   -17502   -17586   -17654   -17704   -17765 
  -17826   -17876   -17938   -17996   -18035   -18083   -18131   -18158 
  -18177   -18201   -18238   -18293   -18346   -18374   -18396   -18445 
  -18501   -18536   -18554   -18580   -18625   -18660   -18677   -18703 
  -18730   -18749   -18758   -18756   -18759   -18752   -18745   -18753 
  -18735   -18687   -18644   -18602   -18559   -18501   -18428   -18378 
  -18341   -18283   -18224   -18172   -18112   -18047   -17981   -17919 
  -17864   -17816   -17777   -17730   -17658   -17581   -17510   -17432 
  -17354   -17284   -17217   -17153   -17089   -17024   -16962   -16898 
  -16832   -16771   -16700   -16604   -16524   -16457   -16375   -16290 
  -16198   -16101   -16017   -15925   -15824   -15719   -15609   -15512 
  -15429   -15342   -15261   -15200   -15148   -15099   -15049   -15005 
  -14969   -14949   -14956   -14956   -14935   -14945   -14976   -14996 
