Origin Time       2011/03/11 14:46:00
Lat.              38.103
Long.             142.860
Depth. (km)       24
Mag.              9.0
Station Code      MIE010
Station Lat.      34.4909
Station Long.     136.7331
Station Height(m) 17
Record Time       2011/03/11 14:49:30
Sampling Freq(Hz) 100Hz
Duration Time(s)  126
Dir.              U-D
Scale Factor      3920(gal)/6182761
Max. Acc. (gal)   2.588
Last Correction   2011/03/11 14:49:15
Memo.             
[...]
  -92343   -92331   -92301   -92247   -92203   -92184   -92141   -92052 
  -91932   -91781   -91652   -91599   -91590   -91589   -91587   -91605 
  -91660   -91704   -91704   -91704   -91725   -91733   -91719   -91754 
  -91860   -91928   -91922   -91918   -91950   -91979   -91972   -91991 
  -92086   -92177   -92226   -92283   -92326   -92315   -92285   -92281 
  -92307   -92348   -92405   -92487   -92576   -92640   -92687   -92750 
  -92808   -92829   -92849   -92908   -92964   -92997   -93056   -93135 
  -93186   -93224   -93283   -93346   -93394   -93464   -93570   -93691 
  -93817   -93938   -94054   -94191   -94331   -94447   -94560   -94659 
  -94725   -94810   -94932   -95046   -95132   -95197   -95256   -95307 
  -95320   -95304   -95286   -95276   -95275   -95257   -95216   -95186 
  -95161   -95136   -95135   -95138   -95098   -95037   -94985   -94907 
  -94787   -94684   -94608   -94508   -94393   -94288   -94181   -94076 
  -93987   -93896   -93805   -93737   -93691   -93645   -93589   -93518 
  -93442   -93389   -93346   -93299   -93269   -93261   -93259   -93256 
  -93243   -93238   -93243   -93218   -93184   -93179   -93168   -93135 
  -93105   -93082   -93073   -93093   -93129   -93166   -93210   -93265 
  -93303   -93329   -93376   -93412   -93413   -93416   -93409   -93363 
  -93339   -93349   -93309   -93253   -93246   -93218   -93150   -93099 
  -93039   -92959   -92908   -92860   -92781   -92720   -92696   -92673 
  -92648   -92645   -92661   -92689   -92717   -92724   -92716   -92702 
  -92696   -92723   -92773   -92795   -92771   -92750   -92765   -92799 
  -92837   -92883   -92941   -92983   -92990   -93012   -93052   -93039 
  -93013   -93044   -93080   -93088   -93122   -93178   -93230   -93276 
  -93293   -93277   -93252   -93217   -93184   -93161   -93135   -93104 
  -93068   -93021   -92962   -92896   -92842   -92801   -92752   -92694 
  -92658   -92645   -92602   -92526   -92471   -92416   -92326   -92244 
  -92196   -92161   -92129   -92090   -92047   -92031   -92018   -91965 
  -91910   -91882   -91855   -91848   -91886   -91951   -92014   -92054 
  -92076   -92092   -92084   -92058   -92046   -92048   -92078   -92147 
  -92217   -92275   -92332   -92383   -92436   -92481   -92487   -92474 
  -92480   -92499   -92517   -92563   -92633   -92665   -92653   -92634 
  -92583   -92501   -92441   -92404   -92381   -92369   -92335   -92279 
  -92216   -92140   -92063   -91987   -91904   -91839   -91804   -91781 
  -91753   -91723   -91697   -91662   -91613   -91579   -91566   -91549 
  -91540   -91563   -91619   -91676   -91709   -91736   -91763   -91764 
  -91750   -91762   -91792   -91812   -91825   -91857   -91914   -91962 
  -91988   -92035   -92087   -92105   -92117   -92156   -92190   -92213 
  -92265   -92340   -92384   -92378   -92353   -92344   -92333   -92295 
  -92264   -92258   -92250   -92239   -92249   -92287   -92339   -92375 
  -92400   -92452   -92505   -92522   -92535   -92571   -92604   -92618 
  -92631   -92639   -92623   -92606   -92616   -92633   -92620   -92583 
  -92553   -92529   -92506   -92487   -92461   -92440   -92438   -92446 
  -92452   -92454   -92455   -92459   -92466   -92463   -92455   -92461 
  -92470   -92463   -92464   -92508   -92566   -92587   -92603   -92662 
  -92728   -92752   -92759   -92805   -92864   -92872   -92870   -92913 
  -92944   -92936   -92947   -92996   -93034   -93033   -93019   -93022 
  -93045   -93084   -93116   -93124   -93124   -93130   -93139   -93139 
  -93116   -93092   -93107   -93119   -93086   -93066   -93079   -93062 
  -93024   -93010   -93013   -93011   -93002   -92997   -93020   -93067 
  -93100   -93136   -93205   -93277   -93327   -93376   -93431   -93467 
  -93466   -93454   -93458   -93472   -93478   -93467   -93470   -93506 
  -93518   -93498   -93482   -93454   -93419   -93406   -93387   -93358 
  -93368   -93399   -93401   -93387   -93379   -93370   -93359   -93347 
  -93338   -93338   -93332   -93307   -93291   -93293   -93250   -93162 
  -93120   -93138   -93142   -93114   -93089   -93078   -93062   -93030 
  -92991   -92938   -92877   -92837   -92814   -92780   -92740   -92710 
  -92695   -92707   -92727   -92734   -92747   -92759   -92752   -92772 
  -92831   -92872   -92902   -92948   -92980   -92994   -93028   -93101 
  -93192   -93247   -93267   -93302   -93338   -93338   -93336   -93367 
  -93400   -93414   -93409   -93383   -93361   -93348   -93303   -93262 
  -93256   -93235   -93199   -93180   -93166   -93150   -93142   -93140 
  -93129   -93107   -93094   -93095   -93091   -93086   -93087   -93085 
  -93081   -93076   -93071   -93061   -93054   -93055   -93057   -93058 
  -93046   -93017   -93016   -93049   -93072   -93092   -93157   -93244 
  -93303   -93356   -93418   -93473   -93518   -93540   -93540   -93555 
  -93578   -93571   -93564   -93597   -93643   -93665   -93682   -93704 
  -93708   -93692   -93681   -93688   -93711   -93737   -93748   -93741 
  -93729   -93704   -93655   -93597   -93548   -93497   -93438   -93366 
  -93267   -93182   -93148   -93116   -93050   -92987   -92949   -92913 
  -92863   -92823   -92807   -92797   -92778   -92752   -92738   -92739 
  -92731   -92716   -92715   -92725   -92727   -92728   -92742   -92770 
  -92784   -92782   -92789   -92812   -92835   -92848   -92842   -92848 
  -92897   -92951   -92993   -93043   -93085   -93105   -93116   -93115 
  -93110   -93140   -93214   -93263   -93253   -93247   -93270   -93271 
  -93252   -93244   -93251   -93242   -93203   -93201   -93247   -93253 
  -93224   -93234   -93250   -93224   -93184   -93160   -93128   -93099 
  -93096   -93082   -93056   -93051   -93042   -93018   -93010   -92990 
  -92945   -92929   -92922   -92874   -92829   -92835   -92867   -92883 
  -92864   -92845   -92851   -92841   -92799   -92767   -92726   -92650 
  -92587   -92546   -92457   -92335   -92277   -92287   -92292   -92270 
  -92234   -92208   -92214   -92219   -92175   -92112   -92052   -91973 
  -91899   -91854   -91784   -91690   -91662   -91687   -91666   -91587 
  -91507   -91459   -91431   -91395   -91348   -91305   -91267   -91229 
  -91187   -91125   -91068   -91033   -90986   -90942   -90922   -90892 
  -90876   -90923   -90996   -91053   -91109   -91165   -91209   -91269 
  -91355   -91433   -91469   -91487   -91545   -91647   -91738   -91789 
  -91859   -91973   -92065   -92112   -92170   -92269   -92373   -92482 
  -92628   -92781   -92901   -93038   -93220   -93373   -93460   -93531 
  -93585   -93601   -93634   -93708   -93764   -93786   -93816   -93862 
  -93884   -93854   -93802   -93769   -93745   -93699   -93644   -93593 
  -93526   -93447   -93372   -93297   -93216   -93140   -93073   -93018 
  -92967   -92899   -92832   -92801   -92781   -92746   -92710   -92693 
  -92709   -92728   -92735   -92773   -92835   -92872   -92889   -92906 
  -92922   -92929   -92917   -92902   -92896   -92894   -92904   -92934 
  -92969   -92993   -92995   -92998   -93027   -93040   -93019   -93006 
  -92988   -92932   -92865   -92820   -92791   -92747   -92688   -92641 
  -92589   -92505   -92418   -92360   -92308   -92219   -92116   -92040 
  -91958   -91841   -91754   -91756   -91768   -91713   -91656   -91637 
  -91600   -91540   -91505   -91512   -91528   -91518   -91523   -91564 
  -91581   -91583   -91624   -91700   -91788   -91856   -91904   -91973 
  -92048   -92074   -92061   -92059   -92076   -92100   -92121   -92151 
  -92205   -92264   -92301   -92322   -92347   -92373   -92403   -92456 
  -92511   -92534   -92574   -92660   -92719   -92732   -92763   -92830 
  -92899   -92944   -92987   -93075   -93190   -93277   -93354   -93451 
  -93546   -93616   -93677   -93748   -93815   -93871   -93944   -94034 
  -94095   -94128   -94148   -94186   -94263   -94307   -94280   -94253 
  -94274   -94299   -94284   -94247   -94225   -94207   -94166   -94113 
  -94042   -93952   -93896   -93882   -93837   -93750   -93691   -93666 
  -93596   -93501   -93472   -93481   -93449   -93418   -93454   -93517 
  -93548   -93558   -93585   -93618   -93607   -93586   -93610   -93615 
  -93547   -93470   -93442   -93431   -93362   -93252   -93159   -93075 
  -92988   -92905   -92807   -92695   -92599   -92523   -92458   -92395 
  -92315   -92238   -92193   -92153   -92101   -92062   -92048   -92051 
  -92042   -92004   -91978   -91983   -91966   -91938   -91955   -91972 
  -91940   -91902   -91883   -91875   -91867   -91847   -91841   -91867 
  -91896   -91907   -91928   -91956   -91953   -91951   -91967   -91961 
  -91922   -91857   -91820   -91875   -91943   -91921   -91877   -91905 
  -91947   -91931   -91953   -92065   -92114   -92063   -92076   -92188 
  -92309   -92413   -92485   -92569   -92681   -92700   -92706   -92877 
  -93025   -93001   -93040   -93235   -93368   -93377   -93376   -93413 
  -93515   -93634   -93716   -93807   -93836   -93761   -93785   -93928 
  -93971   -93927   -93915   -93897   -93844   -93782   -93721   -93691 
  -93661   -93596   -93557   -93519   -93408   -93304   -93305   -93334 
  -93285   -93217   -93214   -93218   -93176   -93110   -93051   -93047 
  -93075   -93046   -93001   -92994   -92982   -92983   -93052   -93158 
  -93227   -93225   -93192   -93196   -93262   -93345   -93391   -93413 
  -93448   -93478   -93505   -93565   -93614   -93610   -93614   -93686 
  -93798   -93862   -93861   -93847   -93861   -93923   -94028   -94131 
  -94152   -94094   -94065   -94135   -94253   -94327   -94361   -94383 
  -94357   -94354   -94464   -94564   -94536   -94453   -94451   -94559 
  -94658   -94657   -94605   -94572   -94615   -94723   -94822   -94869 
  -94794   -94628   -94608   -94777   -94866   -94734   -94528   -94443 
  -94505   -94610   -94658   -94553   -94334   -94207   -94246   -94333 
  -94318   -94125   -93860   -93711   -93707   -93755   -93769   -93681 
  -93526   -93443   -93469   -93495   -93446   -93348   -93253   -93185 
  -93155   -93171   -93208   -93210   -93138   -92991   -92883   -92917 
  -92947   -92834   -92713   -92682   -92651   -92638   -92693   -92702 
  -92626   -92549   -92504   -92523   -92575   -92548   -92466   -92397 
  -92324   -92283   -92349   -92460   -92490   -92459   -92456   -92497 
  -92553   -92610   -92676   -92719   -92660   -92575   -92635   -92831 
  -93012   -93083   -93093   -93174   -93339   -93500   -93643   -93766 
  -93833   -93870   -93949   -94101   -94265   -94343   -94368   -94446 
  -94585   -94715   -94804   -94861   -94906   -94963   -95044   -95151 
  -95258   -95323   -95335   -95315   -95309   -95358   -95439   -95482 
  -95483   -95471   -95423   -95386   -95436   -95493   -95477   -95457 
  -95479   -95506   -95519   -95528   -95526   -95496   -95469   -95495 
  -95519   -95439   -95329   -95309   -95306   -95225   -95137   -95105 
  -95044   -94929   -94878   -94931   -94967   -94914   -94854   -94846 
  -94820   -94767   -94734   -94710   -94657   -94586   -94585   -94636 
  -94593   -94503   -94500   -94497   -94375   -94236   -94228   -94250 
  -94158   -94055   -93970   -93846   -93772   -93682   -93497   -93370 
  -93270   -93064   -92875   -92799   -92734   -92610   -92473   -92361 
  -92272   -92207   -92103   -91940   -91861   -91834   -91706   -91549 
  -91431   -91306   -91215   -91171   -91129   -91080   -90998   -90898 
  -90852   -90859   -90868   -90858   -90805   -90729   -90715   -90790 
  -90870   -90899   -90873   -90817   -90823   -90908   -90937   -90889 
  -90906   -91000   -91058   -91085   -91165   -91280   -91397   -91536 
  -91633   -91639   -91686   -91828   -91928   -91954   -91998   -92079 
  -92170   -92221   -92229   -92261   -92337   -92403   -92409   -92387 
  -92374   -92344   -92325   -92369   -92428   -92417   -92354   -92333 
  -92360   -92358   -92330   -92322   -92338   -92342   -92320   -92315 
  -92342   -92363   -92380   -92386   -92384   -92413   -92440   -92451 
  -92499   -92543   -92545   -92565   -92614   -92644   -92635   -92633 
  -92666   -92679   -92665   -92678   -92726   -92774   -92796   -92813 
  -92861   -92908   -92920   -92917   -92920   -92926   -92898   -92845 
  -92824   -92792   -92718   -92692   -92720   -92695   -92611   -92514 
  -92415   -92335   -92272   -92202   -92141   -92094   -92019   -91922 
  -91879   -91887   -91854   -91763   -91682   -91601   -91477   -91355 
  -91273   -91188   -91084   -91010   -90976   -90907   -90798   -90721 
  -90684   -90620   -90504   -90419   -90385   -90325   -90234   -90174 
  -90167   -90174   -90149   -90118   -90106   -90064   -89986   -89948 
  -89934   -89889   -89853   -89847   -89844   -89841   -89837   -89864 
  -89930   -89951   -89908   -89884   -89905   -89910   -89854   -89787 
  -89795   -89832   -89797   -89739   -89745   -89746   -89670   -89583 
  -89530   -89477   -89430   -89402   -89377   -89354   -89328   -89302 
  -89313   -89345   -89313   -89262   -89283   -89314   -89312   -89336 
  -89378   -89413   -89457   -89520   -89611   -89713   -89778   -89804 
  -89862   -89965   -90045   -90107   -90188   -90257   -90328   -90436 
  -90531   -90602   -90693   -90757   -90768   -90791   -90835   -90883 
  -90956   -91033   -91068   -91059   -91071   -91125   -91129   -91054 
  -91003   -90979   -90925   -90864   -90814   -90773   -90746   -90702 
  -90613   -90529   -90478   -90416   -90350   -90326   -90302   -90231 
  -90171   -90158   -90115   -90010   -89923   -89884   -89834   -89763 
  -89693   -89643   -89606   -89540   -89447   -89376   -89313   -89211 
  -89111   -89065   -89032   -88974   -88934   -88923   -88893   -88834 
  -88790   -88776   -88762   -88746   -88746   -88757   -88782   -88818 
  -88835   -88848   -88882   -88904   -88899   -88925   -89010   -89104 
  -89162   -89218   -89294   -89370   -89449   -89540   -89623   -89693 
  -89762   -89825   -89873   -89921   -89984   -90054   -90126   -90192 
  -90235   -90280   -90359   -90438   -90491   -90559   -90664   -90750 
  -90802   -90889   -91020   -91127   -91191   -91253   -91334   -91436 
  -91527   -91595   -91681   -91792   -91875   -91942   -92037   -92117 
  -92149   -92195   -92272   -92321   -92345   -92410   -92522   -92610 
  -92660   -92729   -92829   -92916   -92976   -93019   -93068   -93113 
  -93129   -93147   -93196   -93246   -93277   -93289   -93283   -93284 
  -93306   -93316   -93298   -93268   -93218   -93150   -93100   -93056 
  -92985   -92921   -92894   -92846   -92749   -92669   -92626   -92595 
  -92569   -92540   -92505   -92474   -92420   -92344   -92305   -92316 
  -92330   -92337   -92366   -92407   -92418   -92400   -92391   -92403 
  -92414   -92425   -92465   -92536   -92602   -92642   -92659   -92658 
  -92646   -92604   -92542   -92529   -92550   -92549   -92588   -92701 
  -92796   -92815   -92797   -92776   -92757   -92729   -92698   -92712 
  -92762   -92788   -92792   -92804   -92811   -92792   -92750   -92698 
  -92645   -92602   -92579   -92583   -92597   -92592   -92585   -92593 
  -92574   -92505   -92430   -92379   -92332   -92296   -92303   -92339 
  -92371   -92400   -92415   -92410   -92408   -92401   -92374   -92391 
  -92500   -92627   -92714   -92783   -92843   -92881   -92889   -92864 
  -92847   -92893   -92961   -92992   -93045   -93164   -93276   -93322 
  -93336   -93363   -93395   -93437   -93519   -93624   -93722   -93846 
  -94010   -94154   -94217   -94205   -94175   -94158   -94137   -94122 
  -94158   -94242   -94306   -94301   -94252   -94195   -94122   -94010 
  -93901   -93877   -93916   -93916   -93885   -93916   -93977   -93974 
  -93915   -93844   -93775   -93731   -93714   -93709   -93740   -93799 
  -93831   -93848   -93867   -93851   -93812   -93807   -93835   -93865 
  -93883   -93897   -93912   -93920   -93918   -93919   -93939   -93977 
  -94020   -94072   -94163   -94268   -94326   -94376   -94471   -94537 
  -94521   -94505   -94562   -94673   -94775   -94843   -94911   -94981 
  -95031   -95063   -95081   -95087   -95085   -95065   -95051   -95051 
  -95042   -95029   -95025   -94992   -94911   -94814   -94731   -94651 
  -94535   -94398   -94334   -94329   -94272   -94178   -94119   -94070 
  -93995   -93908   -93863   -93888   -93914   -93886   -93857   -93852 
  -93821   -93756   -93696   -93670   -93674   -93666   -93625   -93565 
  -93525   -93500   -93449   -93376   -93309   -93231   -93148   -93115 
  -93119   -93090   -93015   -92943   -92878   -92774   -92639   -92536 
  -92484   -92441   -92374   -92298   -92216   -92088   -91922   -91784 
  -91665   -91518   -91391   -91342   -91304   -91198   -91050   -90899 
  -90737   -90555   -90372   -90230   -90138   -90038   -89890   -89754 
  -89655   -89526   -89358   -89229   -89159   -89114   -89082   -89056 
  -89027   -89007   -88963   -88863   -88783   -88790   -88822   -88847 
  -88904   -88966   -88994   -89006   -89012   -89018   -89074   -89180 
  -89288   -89407   -89528   -89622   -89747   -89920   -90042   -90094 
  -90170   -90284   -90374   -90450   -90568   -90725   -90880   -91033 
  -91169   -91265   -91338   -91372   -91346   -91344   -91431   -91548 
  -91667   -91812   -91934   -91976   -91984   -92011   -92035   -92043 
  -92071   -92126   -92181   -92241   -92336   -92450   -92545   -92603 
  -92633   -92653   -92698   -92774   -92864   -92978   -93114   -93193 
  -93198   -93218   -93270   -93282   -93266   -93297   -93404   -93545 
  -93659   -93730   -93790   -93844   -93847   -93800   -93781   -93827 
  -93889   -93935   -93996   -94089   -94162   -94199   -94243   -94277 
  -94255   -94222   -94251   -94331   -94421   -94513   -94601   -94666 
  -94714   -94748   -94756   -94767   -94799   -94839   -94923   -95057 
  -95176   -95256   -95324   -95385   -95408   -95390   -95392   -95453 
  -95536   -95593   -95641   -95712   -95781   -95783   -95709   -95621 
  -95555   -95484   -95401   -95351   -95370   -95413   -95420   -95408 
  -95383   -95316   -95223   -95125   -95033   -94976   -94965   -95000 
  -95063   -95106   -95114   -95112   -95085   -95014   -94929   -94879 
  -94874   -94869   -94829   -94783   -94784   -94805   -94772   -94709 
  -94676   -94647   -94583   -94517   -94501   -94521   -94506   -94439 
  -94377   -94343   -94282   -94181   -94108   -94076   -94019   -93930 
  -93842   -93755   -93672   -93601   -93534   -93485   -93425   -93321 
  -93238   -93223   -93211   -93165   -93124   -93102   -93068   -92990 
  -92894   -92843   -92803   -92707   -92607   -92567   -92549   -92489 
  -92392   -92319   -92274   -92190   -92076   -92002   -91970   -91939 
  -91885   -91825   -91801   -91788   -91730   -91647   -91584   -91524 
  -91451   -91386   -91348   -91320   -91293   -91272   -91238   -91149 
  -91039   -90981   -90965   -90928   -90863   -90829   -90852   -90871 
  -90830   -90765   -90733   -90711   -90649   -90571   -90541   -90558 
  -90565   -90566   -90603   -90646   -90626   -90560   -90535   -90562 
  -90568   -90555   -90601   -90691   -90751   -90778   -90827   -90913 
  -90974   -90974   -91001   -91105   -91167   -91130   -91127   -91235 
  -91347   -91390   -91478   -91651   -91744   -91714   -91737   -91886 
  -92056   -92144   -92168   -92197   -92219   -92223   -92256   -92310 
  -92348   -92352   -92311   -92338   -92502   -92595   -92477   -92343 
  -92339   -92382   -92415   -92447   -92457   -92443   -92417   -92445 
  -92584   -92709   -92701   -92605   -92505   -92461   -92478   -92487 
  -92490   -92530   -92540   -92498   -92504   -92543   -92505   -92423 
