Origin Time       2011/03/11 14:46:00
Lat.              38.103
Long.             142.860
Depth. (km)       24
Mag.              9.0
Station Code      MIE008
Station Lat.      34.6291
Station Long.     136.1074
Station Height(m) 222
Record Time       2011/03/11 14:49:08
Sampling Freq(Hz) 100Hz
Duration Time(s)  162
Dir.              N-S
Scale Factor      3920(gal)/6182761
Max. Acc. (gal)   4.074
Last Correction   2011/03/11 14:48:53
Memo.             
[...]
  -37592   -37524   -37407   -37200   -36963   -36708   -36451   -36237 
  -36027   -35817   -35671   -35564   -35478   -35447   -35443   -35443 
  -35468   -35521   -35599   -35688   -35767   -35833   -35891   -35934 
  -35961   -35959   -35907   -35825   -35744   -35674   -35618   -35561 
  -35481   -35381   -35255   -35104   -34975   -34859   -34727   -34620 
  -34522   -34382   -34242   -34149   -34109   -34118   -34109   -34079 
  -34097   -34136   -34147   -34186   -34267   -34330   -34383   -34454 
  -34510   -34567   -34664   -34770   -34886   -35010   -35098   -35180 
  -35255   -35298   -35346   -35380   -35381   -35399   -35422   -35421 
  -35418   -35415   -35409   -35401   -35390   -35426   -35541   -35695 
  -35879   -36074   -36246   -36419   -36602   -36775   -36917   -37027 
  -37132   -37233   -37323   -37387   -37418   -37480   -37555   -37563 
  -37518   -37411   -37243   -37095   -36967   -36839   -36741   -36657 
  -36588   -36555   -36546   -36584   -36689   -36804   -36879   -36913 
  -36912   -36889   -36840   -36770   -36720   -36663   -36566   -36465 
  -36374   -36300   -36247   -36178   -36084   -35989   -35900   -35813 
  -35740   -35691   -35662   -35660   -35696   -35767   -35854   -35962 
  -36098   -36210   -36254   -36267   -36266   -36232   -36148   -35998 
  -35812   -35629   -35435   -35233   -35048   -34902   -34821   -34804 
  -34835   -34904   -35036   -35224   -35407   -35606   -35854   -36107 
  -36334   -36550   -36745   -36892   -36997   -37072   -37110   -37109 
  -37049   -36931   -36807   -36663   -36483   -36330   -36212   -36111 
  -36070   -36088   -36145   -36271   -36459   -36689   -36983   -37341 
  -37699   -38033   -38345   -38628   -38915   -39205   -39413   -39510 
  -39529   -39461   -39316   -39143   -38905   -38588   -38269   -37956 
  -37600   -37216   -36868   -36593   -36381   -36246   -36203   -36209 
  -36254   -36356   -36490   -36636   -36790   -36934   -37056   -37146 
  -37193   -37197   -37164   -37119   -37093   -37085   -37055   -36985 
  -36903   -36816   -36692   -36521   -36324   -36108   -35868   -35594 
  -35308   -35044   -34788   -34547   -34365   -34242   -34169   -34150 
  -34183   -34257   -34375   -34556   -34772   -34992   -35215   -35436 
  -35665   -35887   -36079   -36251   -36381   -36456   -36511   -36514 
  -36440   -36357   -36274   -36150   -35997   -35816   -35602   -35371 
  -35132   -34923   -34776   -34660   -34588   -34586   -34623   -34717 
  -34886   -35114   -35417   -35753   -36075   -36404   -36714   -36965 
  -37169   -37314   -37371   -37347   -37266   -37128   -36918   -36677 
  -36444   -36194   -35914   -35634   -35372   -35115   -34868   -34648 
  -34460   -34317   -34226   -34191   -34236   -34359   -34547   -34794 
  -35074   -35351   -35601   -35810   -35946   -35988   -35958   -35861 
  -35712   -35527   -35285   -35008   -34738   -34456   -34164   -33903 
  -33670   -33462   -33297   -33171   -33101   -33097   -33126   -33188 
  -33299   -33451   -33635   -33802   -33916   -34028   -34178   -34326 
  -34441   -34558   -34694   -34812   -34896   -34977   -35062   -35152 
  -35257   -35354   -35424   -35486   -35555   -35644   -35744   -35828 
  -35898   -35971   -36032   -36061   -36078   -36104   -36136   -36151 
  -36129   -36078   -36011   -35936   -35863   -35811   -35805   -35847 
  -35931   -36054   -36193   -36353   -36551   -36755   -36933   -37091 
  -37227   -37325   -37380   -37419   -37449   -37450   -37400   -37301 
  -37189   -37097   -37008   -36894   -36783   -36677   -36563   -36486 
  -36434   -36378   -36369   -36391   -36400   -36414   -36442   -36477 
  -36498   -36467   -36410   -36367   -36316   -36273   -36250   -36201 
  -36160   -36150   -36121   -36094   -36097   -36097   -36074   -36029 
  -35980   -35921   -35817   -35675   -35527   -35372   -35171   -34936 
  -34733   -34552   -34369   -34193   -34020   -33856   -33723   -33604 
  -33494   -33421   -33377   -33368   -33405   -33440   -33487   -33573 
  -33674   -33791   -33919   -34043   -34162   -34259   -34323   -34365 
  -34411   -34473   -34537   -34585   -34634   -34675   -34682   -34677 
  -34678   -34661   -34612   -34557   -34498   -34404   -34319   -34295 
  -34320   -34402   -34546   -34705   -34880   -35112   -35375   -35622 
  -35835   -35996   -36110   -36172   -36178   -36165   -36144   -36103 
  -36057   -35990   -35887   -35796   -35706   -35580   -35463   -35378 
  -35303   -35235   -35179   -35138   -35126   -35128   -35121   -35109 
  -35102   -35111   -35125   -35112   -35081   -35062   -35060   -35068 
  -35097   -35162   -35244   -35331   -35424   -35516   -35604   -35705 
  -35813   -35902   -35954   -35956   -35907   -35835   -35755   -35676 
  -35601   -35515   -35421   -35321   -35220   -35144   -35082   -35014 
  -34957   -34917   -34881   -34870   -34904   -34976   -35081   -35194 
  -35271   -35330   -35388   -35420   -35425   -35411   -35376   -35349 
  -35337   -35300   -35252   -35215   -35151   -35064   -34992   -34917 
  -34817   -34706   -34637   -34632   -34667   -34733   -34824   -34959 
  -35143   -35326   -35478   -35625   -35743   -35802   -35843   -35876 
  -35867   -35844   -35828   -35789   -35726   -35669   -35622   -35576 
  -35549   -35546   -35556   -35582   -35643   -35727   -35805   -35892 
  -36010   -36158   -36326   -36506   -36691   -36855   -36990   -37117 
  -37228   -37311   -37378   -37410   -37395   -37357   -37294   -37218 
  -37158   -37087   -37003   -36938   -36860   -36762   -36688   -36623 
  -36572   -36566   -36592   -36645   -36714   -36807   -36942   -37073 
  -37169   -37249   -37299   -37319   -37349   -37397   -37430   -37454 
  -37492   -37522   -37533   -37525   -37509   -37509   -37509   -37490 
  -37472   -37460   -37428   -37398   -37380   -37329   -37268   -37222 
  -37144   -37042   -36933   -36801   -36686   -36614   -36561   -36517 
  -36480   -36421   -36332   -36255   -36206   -36162   -36128   -36097 
  -36047   -35994   -35950   -35925   -35947   -36027   -36130   -36212 
  -36258   -36266   -36248   -36202   -36117   -36028   -35926   -35775 
  -35602   -35468   -35402   -35388   -35432   -35543   -35687   -35844 
  -36007   -36171   -36341   -36490   -36621   -36760   -36857   -36899 
  -36936   -36975   -37003   -37000   -36971   -36931   -36857   -36732 
  -36569   -36378   -36181   -36016   -35884   -35770   -35716   -35742 
  -35788   -35829   -35916   -36036   -36152   -36290   -36408   -36474 
  -36533   -36589   -36624   -36647   -36673   -36704   -36717   -36690 
  -36638   -36565   -36442   -36273   -36099   -35906   -35650   -35365 
  -35112   -34889   -34680   -34524   -34433   -34368   -34343   -34382 
  -34443   -34502   -34586   -34705   -34857   -34992   -35096   -35242 
  -35405   -35498   -35532   -35525   -35468   -35385   -35272   -35135 
  -35001   -34850   -34678   -34526   -34395   -34275   -34183   -34124 
  -34066   -33983   -33897   -33832   -33787   -33730   -33663   -33608 
  -33538   -33479   -33484   -33546   -33679   -33870   -34071   -34290 
  -34519   -34719   -34896   -35067   -35223   -35340   -35401   -35411 
  -35404   -35388   -35326   -35249   -35187   -35096   -34982   -34884 
  -34791   -34697   -34645   -34658   -34695   -34757   -34866   -35019 
  -35214   -35440   -35706   -36005   -36278   -36527   -36770   -36962 
  -37083   -37165   -37212   -37188   -37091   -36952   -36777   -36565 
  -36350   -36146   -35962   -35815   -35688   -35590   -35564   -35584 
  -35615   -35689   -35819   -35959   -36121   -36332   -36546   -36743 
  -36954   -37162   -37331   -37449   -37513   -37532   -37486   -37364 
  -37206   -37044   -36842   -36589   -36324   -36071   -35838   -35610 
  -35401   -35258   -35148   -35060   -35024   -35002   -34975   -34966 
  -34965   -34961   -34969   -35000   -35026   -35014   -34975   -34929 
  -34895   -34877   -34855   -34808   -34742   -34680   -34645   -34640 
  -34660   -34712   -34774   -34801   -34816   -34862   -34900   -34929 
  -34989   -35012   -34962   -34902   -34828   -34714   -34593   -34474 
  -34321   -34139   -33954   -33784   -33635   -33507   -33426   -33365 
  -33288   -33236   -33232   -33261   -33332   -33458   -33635   -33831 
  -34016   -34215   -34441   -34661   -34879   -35101   -35273   -35381 
  -35455   -35519   -35580   -35616   -35619   -35586   -35521   -35439 
  -35348   -35250   -35124   -34953   -34769   -34608   -34451   -34287 
  -34166   -34106   -34063   -34058   -34145   -34329   -34568   -34835 
  -35116   -35388   -35625   -35789   -35867   -35888   -35840   -35699 
  -35508   -35294   -35048   -34811   -34617   -34463   -34340   -34233 
  -34151   -34132   -34167   -34191   -34204   -34264   -34352   -34414 
  -34470   -34542   -34576   -34547   -34484   -34383   -34239   -34055 
  -33841   -33632   -33411   -33162   -32942   -32763   -32591   -32444 
  -32330   -32232   -32165   -32146   -32158   -32191   -32247   -32328 
  -32415   -32488   -32544   -32610   -32692   -32763   -32850   -32967 
  -33064   -33141   -33231   -33300   -33309   -33317   -33365   -33372 
  -33338   -33349   -33390   -33446   -33553   -33705   -33880   -34067 
  -34250   -34432   -34618   -34774   -34899   -35016   -35116   -35196 
  -35253   -35284   -35319   -35360   -35398   -35456   -35523   -35574 
  -35604   -35609   -35608   -35583   -35528   -35467   -35391   -35297 
  -35202   -35144   -35149   -35186   -35244   -35343   -35469   -35590 
  -35709   -35830   -35941   -36055   -36173   -36276   -36385   -36476 
  -36517   -36553   -36594   -36603   -36587   -36534   -36439   -36328 
  -36200   -36040   -35873   -35710   -35563   -35450   -35354   -35269 
  -35229   -35244   -35284   -35326   -35386   -35478   -35583   -35712 
  -35872   -36024   -36146   -36244   -36325   -36402   -36455   -36457 
  -36425   -36360   -36243   -36074   -35858   -35629   -35416   -35220 
  -35059   -34940   -34864   -34848   -34881   -34967   -35130   -35339 
  -35574   -35821   -36041   -36242   -36468   -36721   -36961   -37174 
  -37358   -37492   -37596   -37692   -37749   -37748   -37689   -37565 
  -37392   -37208   -37051   -36958   -36907   -36835   -36768   -36737 
  -36714   -36709   -36751   -36833   -36943   -37059   -37161   -37278 
  -37428   -37585   -37740   -37891   -38036   -38183   -38308   -38385 
  -38412   -38384   -38295   -38155   -38003   -37846   -37648   -37449 
  -37299   -37166   -37043   -36975   -36963   -36956   -36939   -36962 
  -37029   -37086   -37159   -37293   -37423   -37494   -37556   -37641 
  -37695   -37656   -37571   -37500   -37415   -37312   -37224   -37124 
  -37003   -36894   -36811   -36741   -36652   -36529   -36409   -36310 
  -36220   -36175   -36188   -36203   -36206   -36230   -36264   -36288 
  -36316   -36346   -36368   -36384   -36381   -36349   -36283   -36188 
  -36081   -35965   -35828   -35662   -35465   -35241   -35018   -34825 
  -34637   -34451   -34305   -34178   -34051   -33980   -34004   -34080 
  -34163   -34273   -34402   -34506   -34617   -34752   -34871   -34957 
  -35020   -35086   -35140   -35165   -35189   -35209   -35201   -35166 
  -35133   -35105   -35057   -35005   -34979   -34963   -34919   -34843 
  -34789   -34779   -34766   -34718   -34680   -34686   -34689   -34677 
  -34684   -34696   -34686   -34667   -34652   -34627   -34584   -34540 
  -34507   -34488   -34498   -34559   -34655   -34736   -34802   -34890 
  -34978   -35022   -35040   -35063   -35062   -35009   -34954   -34926 
  -34895   -34857   -34822   -34791   -34790   -34823   -34880   -34974 
  -35090   -35186   -35285   -35401   -35494   -35576   -35643   -35680 
  -35703   -35708   -35726   -35797   -35904   -36032   -36175   -36328 
  -36496   -36675   -36871   -37090   -37316   -37531   -37737   -37958 
  -38189   -38403   -38592   -38739   -38833   -38874   -38861   -38808 
  -38735   -38624   -38479   -38334   -38187   -38027   -37859   -37709 
  -37598   -37524   -37513   -37555   -37617   -37729   -37883   -38032 
  -38193   -38386   -38615   -38852   -39057   -39259   -39462   -39634 
  -39801   -39951   -40024   -40011   -39899   -39690   -39418   -39095 
  -38757   -38431   -38102   -37768   -37447   -37162   -36936   -36781 
  -36693   -36647   -36647   -36691   -36753   -36855   -37019   -37208 
  -37407   -37630   -37860   -38080   -38270   -38420   -38559   -38670 
  -38688   -38647   -38589   -38453   -38235   -38006   -37763   -37496 
  -37255   -37053   -36895   -36795   -36750   -36783   -36896   -37058 
  -37266   -37512   -37790   -38101   -38436   -38766   -39052   -39290 
  -39503   -39672   -39776   -39813   -39783   -39667   -39449   -39160 
  -38833   -38493   -38148   -37791   -37448   -37127   -36833   -36617 
  -36488   -36427   -36452   -36556   -36710   -36911   -37162   -37461 
  -37783   -38095   -38380   -38643   -38874   -39060   -39202   -39308 
  -39344   -39313   -39259   -39153   -38960   -38720   -38461   -38168 
  -37839   -37492   -37161   -36878   -36650   -36483   -36386   -36335 
  -36329   -36408   -36524   -36616   -36705   -36805   -36890   -36939 
  -36955   -36973   -37025   -37073   -37081   -37053   -36962   -36795 
  -36586   -36341   -36065   -35759   -35402   -35003   -34603   -34206 
  -33820   -33496   -33249   -33063   -32928   -32854   -32841   -32864 
  -32904   -32937   -32944   -32935   -32904   -32861   -32832   -32821 
  -32819   -32789   -32721   -32639   -32536   -32400   -32211   -31965 
  -31686   -31364   -31023   -30708   -30418   -30179   -30006   -29877 
  -29805   -29798   -29830   -29901   -29996   -30097   -30205   -30311 
  -30402   -30481   -30560   -30660   -30758   -30832   -30894   -30952 
  -30999   -31031   -31031   -31000   -30944   -30851   -30725   -30592 
  -30463   -30336   -30218   -30138   -30113   -30143   -30244   -30432 
  -30680   -30969   -31290   -31642   -32049   -32482   -32861   -33176 
  -33459   -33694   -33859   -33967   -34044   -34081   -34055   -33978 
  -33890   -33796   -33689   -33586   -33494   -33401   -33317   -33258 
  -33237   -33253   -33311   -33440   -33635   -33877   -34164   -34489 
  -34804   -35075   -35349   -35647   -35914   -36162   -36387   -36556 
  -36707   -36871   -37022   -37152   -37264   -37331   -37331   -37298 
  -37238   -37149   -37065   -36974   -36860   -36756   -36654   -36557 
  -36518   -36541   -36611   -36710   -36798   -36895   -37026   -37186 
  -37353   -37496   -37665   -37892   -38088   -38243   -38428   -38627 
  -38802   -38973   -39138   -39271   -39370   -39438   -39500   -39548 
  -39534   -39490   -39471   -39479   -39511   -39542   -39568   -39615 
  -39667   -39710   -39772   -39869   -39995   -40138   -40292   -40442 
  -40558   -40657   -40778   -40896   -40965   -40991   -40995   -40963 
  -40907   -40859   -40797   -40709   -40619   -40530   -40427   -40308 
  -40173   -40032   -39909   -39823   -39757   -39714   -39702   -39707 
  -39725   -39768   -39814   -39849   -39900   -39970   -40037   -40105 
  -40169   -40211   -40223   -40186   -40100   -39946   -39704   -39451 
  -39238   -39000   -38711   -38413   -38106   -37786   -37452   -37092 
  -36750   -36476   -36252   -36045   -35858   -35720   -35650   -35629 
  -35619   -35609   -35624   -35658   -35698   -35752   -35805   -35845 
  -35849   -35788   -35685   -35572   -35426   -35246   -35066   -34878 
  -34637   -34355   -34106   -33886   -33641   -33384   -33143   -32895 
  -32615   -32335   -32125   -32023   -32006   -32034   -32094   -32190 
  -32315   -32446   -32589   -32758   -32929   -33084   -33231   -33366 
  -33476   -33561   -33635   -33709   -33760   -33758   -33689   -33567 
  -33404   -33211   -33015   -32813   -32601   -32390   -32163   -31917 
  -31688   -31521   -31436   -31391   -31357   -31366   -31434   -31549 
  -31700   -31891   -32141   -32426   -32675   -32858   -33054   -33348 
  -33663   -33894   -34069   -34207   -34285   -34307   -34300   -34301 
  -34315   -34289   -34200   -34090   -34008   -33975   -33977   -33992 
  -34021   -34089   -34216   -34379   -34548   -34751   -35020   -35304 
  -35556   -35807   -36079   -36367   -36649   -36916   -37168   -37394 
  -37595   -37759   -37868   -37928   -37970   -37979   -37907   -37779 
  -37654   -37525   -37396   -37310   -37275   -37268   -37251   -37222 
  -37241   -37335   -37482   -37669   -37885   -38112   -38333   -38541 
  -38771   -39042   -39303   -39530   -39725   -39834   -39870   -39923 
  -40013   -40088   -40095   -40033   -39943   -39824   -39653   -39444 
  -39224   -38971   -38674   -38382   -38131   -37918   -37754   -37645 
  -37571   -37516   -37501   -37544   -37640   -37774   -37941   -38122 
  -38281   -38403   -38497   -38585   -38667   -38730   -38787   -38814 
  -38801   -38768   -38698   -38577   -38415   -38214   -37976   -37682 
  -37351   -37032   -36728   -36449   -36221   -36027   -35851   -35719 
  -35630   -35556   -35496   -35455   -35437   -35436   -35433   -35461 
  -35541   -35612   -35669   -35762   -35873   -35964   -36048   -36128 
  -36163   -36149   -36114   -36041   -35927   -35791   -35647   -35508 
  -35346   -35150   -35009   -34973   -34991   -35034   -35115   -35244 
  -35423   -35620   -35827   -36078   -36357   -36628   -36898   -37153 
  -37381   -37604   -37813   -37990   -38128   -38200   -38204   -38181 
  -38133   -38023   -37864   -37689   -37481   -37237   -36994   -36777 
  -36619   -36528   -36473   -36427   -36388   -36384   -36440   -36536 
  -36650   -36785   -36918   -37043   -37175   -37316   -37469   -37618 
  -37724   -37797   -37821   -37763   -37687   -37614   -37495   -37351 
  -37204   -37047   -36895   -36754   -36638   -36570   -36534   -36505 
  -36474   -36438   -36435   -36508   -36607   -36696   -36817   -36939 
  -37039   -37154   -37295   -37460   -37621   -37741   -37855   -38002 
  -38131   -38204   -38279   -38359   -38372   -38321   -38258   -38199 
  -38131   -38049   -37977   -37911   -37835   -37790   -37817   -37885 
  -37954   -38039   -38156   -38254   -38328   -38441   -38592   -38738 
  -38850   -38924   -38982   -39041   -39077   -39080   -39064   -39005 
  -38892   -38729   -38521   -38310   -38105   -37871   -37617   -37369 
  -37104   -36842   -36637   -36471   -36327   -36221   -36136   -36071 
  -36025   -35989   -35985   -35987   -35953   -35904   -35863   -35838 
  -35829   -35806   -35749   -35671   -35568   -35428   -35269   -35138 
  -35032   -34912   -34795   -34715   -34651   -34584   -34520   -34463 
  -34424   -34389   -34323   -34255   -34218   -34186   -34171   -34202 
  -34267   -34340   -34404   -34474   -34561   -34624   -34664   -34690 
  -34701   -34712   -34702   -34675   -34677   -34683   -34675   -34700 
  -34754   -34800   -34842   -34894   -34948   -34982   -35004   -35036 
  -35079   -35153   -35244   -35305   -35327   -35342   -35386   -35455 
  -35507   -35534   -35578   -35642   -35688   -35723   -35769   -35826 
  -35902   -35986   -36049   -36112   -36201   -36305   -36419   -36537 
  -36627   -36668   -36701   -36767   -36803   -36765   -36706   -36630 
  -36507   -36373   -36259   -36114   -35918   -35727   -35566   -35420 
  -35285   -35171   -35090   -35044   -35035   -35054   -35082   -35121 
  -35166   -35232   -35332   -35433   -35534   -35685   -35869   -36021 
  -36128   -36222   -36306   -36352   -36343   -36296   -36219   -36107 
  -35975   -35848   -35721   -35599   -35500   -35434   -35395   -35368 
