Origin Time       2011/03/11 14:46:00
Lat.              38.103
Long.             142.860
Depth. (km)       24
Mag.              9.0
Station Code      MIE003
Station Lat.      34.9708
Station Long.     136.6356
Station Height(m) 2
Record Time       2011/03/11 14:49:01
Sampling Freq(Hz) 100Hz
Duration Time(s)  300
Dir.              U-D
Scale Factor      3920(gal)/6182761
Max. Acc. (gal)   4.027
Last Correction   2011/03/11 14:48:46
Memo.             
[...]
  -34945   -35003   -34998   -34896   -34715   -34519   -34300   -34031 
  -33742   -33423   -33093   -32821   -32561   -32304   -32127   -32003 
  -31928   -31957   -32049   -32170   -32334   -32513   -32709   -32926 
  -33142   -33384   -33650   -33915   -34209   -34507   -34745   -34970 
  -35226   -35465   -35666   -35835   -35967   -36083   -36180   -36217 
  -36220   -36221   -36152   -35995   -35852   -35756   -35660   -35576 
  -35517   -35470   -35447   -35467   -35496   -35501   -35497   -35493 
  -35436   -35340   -35295   -35294   -35311   -35380   -35451   -35511 
  -35625   -35755   -35910   -36162   -36423   -36643   -36907   -37178 
  -37383   -37574   -37746   -37837   -37859   -37816   -37701   -37538 
  -37333   -37123   -36935   -36735   -36507   -36251   -36001   -35830 
  -35694   -35492   -35264   -35094   -34987   -34929   -34897   -34855 
  -34828   -34855   -34881   -34858   -34813   -34764   -34704   -34638 
  -34562   -34473   -34413   -34402   -34359   -34243   -34121   -34016 
  -33922   -33849   -33781   -33724   -33668   -33593   -33577   -33625 
  -33649   -33685   -33771   -33845   -33883   -33875   -33826   -33811 
  -33852   -33894   -33918   -33947   -33965   -33943   -33930   -33949 
  -33944   -33956   -34015   -34051   -34103   -34201   -34249   -34266 
  -34315   -34301   -34205   -34187   -34232   -34176   -34103   -34124 
  -34118   -34051   -34041   -34057   -34022   -34007   -33994   -33904 
  -33842   -33854   -33859   -33885   -33961   -34034   -34093   -34180 
  -34294   -34365   -34349   -34294   -34228   -34127   -33978   -33809 
  -33673   -33590   -33522   -33449   -33374   -33329   -33351   -33407 
  -33440   -33474   -33524   -33602   -33743   -33859   -33918   -34028 
  -34145   -34202   -34233   -34185   -34063   -33935   -33752   -33521 
  -33316   -33128   -32943   -32768   -32629   -32505   -32326   -32127 
  -31951   -31753   -31554   -31435   -31413   -31433   -31464   -31495 
  -31486   -31484   -31537   -31554   -31539   -31576   -31648   -31740 
  -31861   -32011   -32166   -32304   -32447   -32580   -32703   -32878 
  -33087   -33300   -33557   -33793   -33942   -34096   -34263   -34341 
  -34383   -34463   -34516   -34512   -34516   -34548   -34571   -34602 
  -34670   -34753   -34852   -34978   -35085   -35157   -35262   -35384 
  -35456   -35532   -35671   -35815   -35943   -36083   -36199   -36278 
  -36437   -36706   -36892   -36935   -36995   -37063   -37078   -37124 
  -37161   -37133   -37107   -37046   -36886   -36683   -36497   -36304 
  -36054   -35788   -35588   -35462   -35376   -35284   -35168   -35086 
  -35051   -35023   -35013   -35016   -34999   -35004   -35054   -35113 
  -35150   -35155   -35165   -35189   -35206   -35225   -35244   -35244 
  -35249   -35261   -35238   -35199   -35174   -35126   -35038   -34940 
  -34832   -34685   -34556   -34496   -34425   -34323   -34232   -34147 
  -34106   -34098   -34085   -34120   -34179   -34161   -34047   -33886 
  -33735   -33591   -33419   -33250   -33096   -32939   -32817   -32731 
  -32600   -32416   -32251   -32122   -32024   -31963   -31919   -31881 
  -31857   -31839   -31798   -31718   -31638   -31598   -31545   -31460 
  -31414   -31391   -31373   -31418   -31476   -31480   -31491   -31504 
  -31499   -31547   -31619   -31653   -31703   -31769   -31787   -31774 
  -31796   -31855   -31891   -31912   -31938   -31912   -31849   -31849 
  -31897   -31938   -31998   -32052   -32086   -32164   -32247   -32275 
  -32310   -32369   -32363   -32282   -32236   -32271   -32329   -32399 
  -32500   -32636   -32832   -33006   -33058   -33084   -33139   -33149 
  -33142   -33138   -33088   -32969   -32805   -32663   -32520   -32290 
  -32048   -31860   -31678   -31525   -31428   -31359   -31341   -31389 
  -31457   -31545   -31712   -31933   -32128   -32335   -32599   -32837 
  -33040   -33309   -33637   -33939   -34200   -34438   -34645   -34802 
  -34917   -35003   -35042   -35026   -34963   -34872   -34784   -34672 
  -34480   -34268   -34092   -33846   -33523   -33268   -33053   -32822 
  -32668   -32556   -32405   -32280   -32177   -32044   -31933   -31871 
  -31835   -31825   -31886   -32038   -32226   -32437   -32699   -32969 
  -33231   -33534   -33870   -34174   -34436   -34679   -34914   -35166 
  -35467   -35788   -36079   -36343   -36588   -36785   -36950   -37151 
  -37362   -37537   -37737   -37955   -38118   -38244   -38351   -38448 
  -38534   -38537   -38477   -38433   -38367   -38277   -38242   -38232 
  -38183   -38086   -37923   -37709   -37458   -37146   -36786   -36401 
  -36014   -35668   -35350   -35028   -34713   -34441   -34228   -34057 
  -33898   -33727   -33555   -33457   -33466   -33545   -33682   -33872 
  -34058   -34195   -34282   -34310   -34300   -34288   -34231   -34101 
  -33964   -33843   -33714   -33633   -33644   -33678   -33682   -33695 
  -33753   -33862   -33995   -34114   -34258   -34459   -34655   -34809 
  -34957   -35136   -35312   -35416   -35507   -35617   -35661   -35699 
  -35770   -35712   -35549   -35436   -35322   -35174   -35050   -34902 
  -34697   -34482   -34250   -34003   -33787   -33653   -33564   -33369 
  -33145   -33032   -32849   -32603   -32468   -32324   -32150   -32040 
  -31954   -31879   -31812   -31751   -31706   -31657   -31654   -31705 
  -31737   -31781   -31903   -32073   -32241   -32401   -32571   -32778 
  -33033   -33283   -33476   -33660   -33875   -34072   -34255   -34464 
  -34677   -34916   -35162   -35292   -35307   -35328   -35422   -35554 
  -35646   -35717   -35836   -35987   -36129   -36193   -36133   -36056 
  -36002   -35890   -35780   -35699   -35563   -35432   -35344   -35188 
  -34959   -34733   -34534   -34329   -34060   -33764   -33559   -33460 
  -33392   -33316   -33214   -33098   -32993   -32903   -32871   -32885 
  -32858   -32859   -32972   -33045   -33048   -33132   -33253   -33353 
  -33515   -33684   -33806   -33966   -34146   -34272   -34345   -34383 
  -34419   -34470   -34511   -34527   -34494   -34425   -34408   -34397 
  -34308   -34232   -34217   -34208   -34166   -34068   -33956   -33874 
  -33789   -33718   -33685   -33629   -33573   -33613   -33682   -33723 
  -33820   -33901   -33870   -33857   -33853   -33771   -33731   -33742 
  -33711   -33654   -33569   -33500   -33515   -33543   -33489   -33415 
  -33407   -33417   -33404   -33397   -33396   -33396   -33448   -33575 
  -33687   -33749   -33855   -33995   -34096   -34188   -34294   -34422 
  -34584   -34734   -34853   -34983   -35092   -35159   -35238   -35315 
  -35376   -35481   -35651   -35843   -36001   -36103   -36207   -36331 
  -36440   -36541   -36600   -36599   -36616   -36649   -36624   -36540 
  -36390   -36229   -36102   -35890   -35618   -35399   -35151   -34876 
  -34706   -34604   -34498   -34451   -34442   -34384   -34292   -34198 
  -34139   -34117   -34062   -34008   -34014   -34011   -33951   -33858 
  -33742   -33616   -33526   -33464   -33379   -33260   -33135   -33070 
  -33119   -33192   -33199   -33188   -33183   -33173   -33179   -33181 
  -33165   -33195   -33289   -33389   -33469   -33538   -33608   -33677 
  -33722   -33731   -33762   -33859   -33917   -33898   -33984   -34143 
  -34160   -34196   -34389   -34468   -34429   -34517   -34649   -34715 
  -34758   -34777   -34769   -34729   -34645   -34557   -34487   -34398 
  -34316   -34281   -34209   -34090   -34010   -33939   -33812   -33651 
  -33499   -33360   -33230   -33094   -32915   -32724   -32578   -32419 
  -32225   -32052   -31837   -31573   -31406   -31294   -31083   -30868 
  -30769   -30710   -30652   -30679   -30825   -30973   -31099   -31323 
  -31539   -31661   -31865   -32099   -32212   -32295   -32396   -32512 
  -32676   -32821   -32909   -33011   -33117   -33180   -33207   -33179 
  -33083   -32996   -32947   -32889   -32809   -32731   -32679   -32644 
  -32576   -32492   -32456   -32442   -32415   -32393   -32349   -32301 
  -32342   -32437   -32508   -32589   -32707   -32857   -33061   -33275 
  -33440   -33666   -33949   -34050   -34110   -34378   -34574   -34638 
  -34802   -34940   -34986   -35057   -35140   -35219   -35315   -35420 
  -35490   -35501   -35518   -35538   -35462   -35310   -35172   -35059 
  -34954   -34823   -34650   -34469   -34317   -34211   -34127   -34041 
  -34009   -34024   -34013   -34010   -34012   -33957   -34006   -34279 
  -34493   -34527   -34679   -34897   -34988   -35160   -35339   -35413 
  -35584   -35780   -35931   -36080   -36209   -36380   -36556   -36699 
  -36778   -36762   -36778   -36834   -36801   -36705   -36658   -36692 
  -36725   -36707   -36646   -36574   -36542   -36509   -36397   -36240 
  -36103   -35985   -35860   -35738   -35655   -35641   -35673   -35666 
  -35565   -35404   -35260   -35172   -35121   -35061   -34964   -34886 
  -34897   -34903   -34780   -34667   -34691   -34623   -34373   -34256 
  -34239   -34042   -33823   -33696   -33594   -33535   -33450   -33379 
  -33409   -33432   -33376   -33290   -33237   -33212   -33170   -33120 
  -33116   -33144   -33118   -33007   -32851   -32697   -32614   -32610 
  -32604   -32578   -32563   -32581   -32624   -32636   -32599   -32565 
  -32575   -32589   -32554   -32500   -32493   -32579   -32706   -32762 
  -32760   -32750   -32712   -32686   -32672   -32579   -32498   -32514 
  -32466   -32384   -32405   -32361   -32275   -32335   -32351   -32201 
  -32112   -32155   -32167   -32140   -32160   -32188   -32191   -32195 
  -32254   -32369   -32483   -32633   -32840   -33032   -33220   -33458 
  -33713   -33959   -34173   -34280   -34346   -34503   -34656   -34701 
  -34754   -34859   -34979   -35160   -35354   -35436   -35484   -35626 
  -35801   -35902   -35923   -35877   -35829   -35853   -35800   -35615 
  -35605   -35732   -35604   -35373   -35341   -35233   -34996   -34935 
  -34909   -34734   -34611   -34565   -34462   -34388   -34389   -34330 
  -34236   -34193   -34096   -33890   -33736   -33675   -33599   -33582 
  -33614   -33535   -33459   -33484   -33496   -33490   -33486   -33478 
  -33522   -33566   -33562   -33606   -33708   -33797   -33875   -33915 
  -33937   -34008   -34073   -34070   -34023   -34051   -34247   -34424 
  -34472   -34559   -34635   -34733   -35007   -35168   -35174   -35314 
  -35467   -35537   -35641   -35715   -35707   -35748   -35877   -35988 
  -36023   -35984   -35905   -35858   -35841   -35791   -35728   -35704 
  -35680   -35645   -35638   -35645   -35677   -35784   -35904   -35975 
  -36080   -36277   -36472   -36608   -36749   -36847   -36878   -36983 
  -37097   -37098   -37132   -37207   -37228   -37331   -37454   -37423 
  -37449   -37619   -37720   -37765   -37757   -37740   -37924   -38099 
  -38077   -38084   -38146   -38243   -38353   -38319   -38241   -38189 
  -38069   -37981   -37894   -37677   -37489   -37398   -37265   -37077 
  -36887   -36700   -36500   -36252   -35967   -35678   -35379   -35131 
  -34949   -34728   -34462   -34233   -34051   -33921   -33805   -33649 
  -33525   -33472   -33401   -33304   -33215   -33150   -33165   -33189 
  -33125   -33095   -33121   -33099   -33115   -33154   -33082   -33122 
  -33357   -33480   -33493   -33546   -33605   -33721   -33845   -33863 
  -33877   -33963   -34074   -34187   -34335   -34509   -34611   -34679 
  -34789   -34787   -34694   -34725   -34809   -34824   -34837   -34862 
  -34878   -34927   -34980   -34942   -34782   -34572   -34391   -34220 
  -34030   -33807   -33541   -33309   -33172   -33030   -32851   -32703 
  -32546   -32373   -32256   -32128   -32009   -32011   -32067   -32141 
  -32169   -32109   -32261   -32535   -32595   -32666   -32789   -32873 
  -33085   -33295   -33418   -33601   -33822   -34033   -34219   -34382 
  -34540   -34664   -34824   -35034   -35129   -35154   -35228   -35250 
  -35215   -35209   -35201   -35189   -35219   -35232   -35168   -35097 
  -35061   -35064   -35150   -35268   -35358   -35484   -35612   -35627 
  -35574   -35504   -35403   -35323   -35263   -35188   -35181   -35230 
  -35268   -35398   -35516   -35432   -35340   -35316   -35247   -35223 
  -35177   -35046   -35016   -35020   -34895   -34792   -34788   -34711 
  -34562   -34451   -34327   -34216   -34186   -34192   -34233   -34295 
  -34401   -34615   -34825   -34952   -35088   -35209   -35340   -35574 
  -35777   -35908   -36094   -36259   -36342   -36436   -36509   -36549 
  -36667   -36799   -36841   -36900   -37030   -37159   -37317   -37478 
  -37532   -37588   -37725   -37705   -37577   -37587   -37550   -37399 
  -37325   -37278   -37226   -37208   -37181   -37128   -37046   -36942 
  -36847   -36765   -36692   -36639   -36624   -36632   -36677   -36751 
  -36778   -36775   -36812   -36836   -36799   -36750   -36689   -36571 
  -36429   -36280   -36053   -35803   -35627   -35455   -35275   -35135 
  -34931   -34675   -34509   -34414   -34334   -34317   -34395   -34511 
  -34620   -34778   -34928   -34998   -35189   -35495   -35623   -35721 
  -35986   -36186   -36329   -36508   -36546   -36526   -36600   -36597 
  -36453   -36371   -36380   -36318   -36222   -36171   -36071   -35921 
  -35789   -35656   -35527   -35400   -35278   -35169   -34996   -34759 
  -34528   -34253   -33964   -33777   -33625   -33474   -33378   -33252 
  -33049   -32840   -32629   -32458   -32379   -32271   -32103   -31995 
  -31910   -31786   -31680   -31535   -31387   -31387   -31334   -31139 
  -31065   -30990   -30809   -30695   -30498   -30190   -29975   -29782 
  -29563   -29342   -29077   -28842   -28713   -28641   -28526   -28341 
  -28182   -28034   -27835   -27689   -27622   -27555   -27578   -27720 
  -27814   -27873   -27972   -27999   -27955   -27952   -27936   -27900 
  -27966   -28133   -28283   -28369   -28444   -28557   -28694   -28817 
  -28887   -28937   -29047   -29147   -29174   -29221   -29328   -29521 
  -29793   -30010   -30122   -30160   -30181   -30282   -30352   -30329 
  -30373   -30421   -30422   -30529   -30629   -30646   -30730   -30787 
  -30750   -30766   -30779   -30755   -30829   -30946   -31004   -31038 
  -31094   -31185   -31256   -31272   -31254   -31216   -31208   -31258 
  -31286   -31255   -31233   -31230   -31164   -31057   -30960   -30813 
  -30706   -30728   -30683   -30554   -30517   -30488   -30467   -30612 
  -30717   -30629   -30661   -30851   -30899   -30888   -30978   -31092 
  -31190   -31281   -31404   -31533   -31593   -31621   -31605   -31541 
  -31527   -31564   -31601   -31632   -31632   -31600   -31591   -31605 
  -31604   -31619   -31646   -31672   -31751   -31833   -31888   -32005 
  -32144   -32263   -32427   -32579   -32683   -32819   -32942   -33010 
  -33097   -33194   -33283   -33399   -33469   -33472   -33488   -33527 
  -33577   -33577   -33538   -33678   -33826   -33647   -33602   -33843 
  -33808   -33753   -33930   -33928   -33873   -33928   -33937   -33967 
  -34025   -34028   -33999   -33985   -34023   -34057   -34046   -34055 
  -34080   -34079   -34073   -34074   -34074   -34072   -34070   -34106 
  -34177   -34246   -34386   -34612   -34760   -34807   -34897   -35050 
  -35187   -35308   -35454   -35603   -35761   -36005   -36273   -36441 
  -36580   -36745   -36863   -36990   -37173   -37320   -37458   -37671 
  -37869   -37951   -37980   -37984   -37964   -37997   -38026   -37949 
  -37910   -37966   -37967   -37926   -37881   -37786   -37697   -37623 
  -37500   -37358   -37305   -37362   -37374   -37350   -37422   -37419 
  -37359   -37447   -37478   -37366   -37299   -37275   -37223   -37117 
  -37041   -37044   -37061   -37142   -37297   -37426   -37549   -37700 
  -37831   -37930   -38043   -38225   -38427   -38528   -38534   -38581 
  -38697   -38778   -38841   -38940   -38997   -39008   -39035   -39042 
  -38988   -38940   -38945   -38955   -38963   -38984   -38974   -38935 
  -38904   -38871   -38819   -38750   -38645   -38516   -38408   -38268 
  -38084   -37955   -37884   -37758   -37516   -37236   -37010   -36785 
  -36533   -36316   -36132   -35969   -35846   -35735   -35623   -35519 
  -35394   -35268   -35184   -35107   -35044   -35001   -34945   -34917 
  -34909   -34801   -34653   -34587   -34519   -34394   -34279   -34148 
  -33981   -33857   -33760   -33612   -33439   -33275   -33091   -32870 
  -32642   -32463   -32338   -32190   -32002   -31849   -31715   -31548 
  -31374   -31176   -30961   -30798   -30677   -30575   -30525   -30509 
  -30488   -30498   -30582   -30704   -30829   -30979   -31133   -31231 
  -31307   -31454   -31645   -31797   -31972   -32199   -32336   -32425 
  -32632   -32827   -32902   -33054   -33250   -33299   -33325   -33371 
  -33342   -33323   -33344   -33363   -33374   -33360   -33352   -33376 
  -33398   -33381   -33329   -33321   -33351   -33340   -33314   -33286 
  -33234   -33177   -33093   -32989   -32929   -32873   -32802   -32752 
  -32673   -32566   -32505   -32455   -32363   -32264   -32198   -32178 
  -32205   -32233   -32232   -32273   -32361   -32392   -32391   -32409 
  -32371   -32314   -32346   -32390   -32335   -32234   -32207   -32235 
  -32234   -32228   -32209   -32150   -32138   -32195   -32221   -32196 
  -32184   -32200   -32207   -32217   -32245   -32283   -32308   -32301 
  -32300   -32300   -32269   -32292   -32344   -32293   -32228   -32227 
  -32209   -32202   -32237   -32247   -32211   -32180   -32184   -32175 
  -32153   -32206   -32318   -32441   -32580   -32704   -32765   -32793 
  -32855   -32937   -32954   -32911   -32881   -32900   -32931   -32902 
  -32875   -32901   -32855   -32717   -32633   -32606   -32562   -32515 
  -32451   -32385   -32389   -32420   -32476   -32588   -32641   -32615 
  -32639   -32719   -32804   -32895   -32965   -33064   -33206   -33268 
  -33279   -33337   -33355   -33311   -33301   -33297   -33251   -33229 
  -33241   -33242   -33223   -33156   -33093   -33090   -33052   -32957 
  -32904   -32888   -32888   -32907   -32913   -32878   -32827   -32843 
  -32947   -33028   -33056   -33138   -33312   -33479   -33596   -33774 
  -34017   -34237   -34445   -34660   -34862   -35050   -35233   -35415 
  -35575   -35698   -35809   -35903   -35966   -35987   -35943   -35893 
  -35870   -35789   -35621   -35434   -35268   -35096   -34910   -34714 
  -34481   -34243   -34044   -33828   -33555   -33236   -32917   -32637 
  -32347   -32057   -31831   -31654   -31521   -31406   -31336   -31376 
  -31376   -31285   -31259   -31271   -31223   -31170   -31169   -31190 
  -31189   -31174   -31231   -31390   -31515   -31580   -31683   -31796 
  -31893   -31985   -32044   -32132   -32259   -32354   -32464   -32586 
  -32645   -32701   -32785   -32820   -32831   -32867   -32873   -32852 
  -32879   -32927   -32926   -32905   -32907   -32905   -32904   -32923 
  -32954   -32996   -33045   -33106   -33175   -33197   -33167   -33140 
  -33098   -33042   -33037   -33029   -32984   -32959   -32883   -32791 
  -32778   -32674   -32472   -32355   -32230   -32020   -31859   -31738 
  -31574   -31453   -31395   -31316   -31264   -31236   -31170   -31149 
  -31173   -31159   -31186   -31275   -31354   -31452   -31564   -31656 
  -31769   -31879   -31946   -32051   -32240   -32440   -32628   -32841 
  -33060   -33299   -33589   -33867   -34120   -34385   -34589   -34747 
  -34962   -35192   -35392   -35541   -35605   -35685   -35836   -35929 
  -35946   -35979   -36020   -35995   -35882   -35780   -35725   -35631 
  -35529   -35443   -35328   -35254   -35211   -35131   -35060   -35002 
