Origin Time       2011/03/11 14:46:00
Lat.              38.103
Long.             142.860
Depth. (km)       24
Mag.              9.0
Station Code      MIE018
Station Lat.      34.8701
Station Long.     136.4546
Station Height(m) 73
Record Time       2011/03/11 14:49:27
Sampling Freq(Hz) 100Hz
Duration Time(s)  254
Dir.              U-D
Scale Factor      3920(gal)/6182761
Max. Acc. (gal)   4.204
Last Correction   2011/03/11 14:49:12
Memo.             
[...]
    8731     9020     9320     9575     9791     9997    10202    10381 
   10535    10687    10823    10911    10942    10924    10850    10717 
   10554    10405    10316    10270    10218    10130     9998     9833 
    9635     9419     9209     9006     8788     8556     8351     8165 
    7965     7774     7622     7509     7399     7258     7120     7020 
    6971     6954     6933     6900     6859     6821     6804     6822 
    6878     6932     6944     6927     6916     6927     6941     6953 
    6961     6984     7041     7113     7194     7292     7397     7513 
    7636     7755     7843     7868     7839     7777     7723     7706 
    7721     7744     7758     7775     7792     7791     7782     7792 
    7853     7964     8097     8240     8379     8501     8615     8755 
    8935     9130     9320     9482     9607     9726     9861    10026 
   10217    10423    10647    10876    11097    11282    11400    11465 
   11510    11575    11677    11786    11852    11841    11777    11701 
   11615    11517    11429    11398    11458    11610    11809    11985 
   12108    12185    12232    12269    12306    12373    12484    12625 
   12795    12954    13047    13057    13002    12898    12753    12595 
   12452    12315    12158    11973    11805    11697    11635    11572 
   11480    11372    11256    11107    10900    10633    10326     9966 
    9546     9136     8803     8545     8343     8199     8088     7969 
    7834     7688     7578     7546     7554     7557     7562     7591 
    7630     7651     7657     7651     7630     7604     7577     7561 
    7546     7513     7477     7446     7414     7383     7348     7304 
    7261     7228     7187     7151     7158     7209     7287     7376 
    7457     7537     7666     7857     8062     8276     8520     8784 
    9075     9378     9643     9842     9980    10080    10137    10143 
   10098     9992     9867     9792     9791     9828     9862     9903 
    9966    10039    10103    10149    10180    10175    10118    10029 
    9944     9888     9844     9794     9715     9598     9447     9240 
    8988     8728     8476     8257     8065     7880     7694     7498 
    7326     7205     7118     7044     6999     7009     7039     7033 
    6990     6947     6936     6944     6940     6919     6896     6869 
    6804     6725     6704     6743     6775     6761     6771     6861 
    6989     7107     7203     7281     7332     7341     7307     7231 
    7129     7029     6962     6945     6930     6866     6761     6642 
    6525     6405     6290     6217     6222     6317     6459     6611 
    6780     6964     7144     7310     7473     7637     7785     7905 
    7989     8059     8122     8171     8209     8217     8183     8136 
    8114     8134     8169     8190     8185     8183     8250     8400 
    8592     8785     8962     9118     9239     9327     9396     9471 
    9547     9576     9542     9459     9354     9237     9105     8974 
    8835     8693     8608     8604     8666     8775     8910     9067 
    9249     9435     9576     9665     9734     9784     9814     9818 
    9780     9706     9586     9409     9204     8997     8794     8615 
    8484     8412     8408     8450     8482     8484     8470     8457 
    8428     8368     8313     8250     8148     8029     7892     7745 
    7599     7427     7230     7046     6902     6806     6755     6764 
    6823     6904     6994     7071     7107     7103     7083     7069 
    7076     7089     7104     7145     7209     7273     7314     7335 
    7370     7415     7452     7491     7526     7581     7689     7829 
    7950     8018     8069     8142     8225     8295     8345     8391 
    8451     8529     8623     8741     8874     8992     9080     9161 
    9262     9378     9480     9573     9686     9841    10050    10293 
   10544    10791    11003    11150    11215    11208    11143    11040 
   10938    10835    10717    10600    10502    10445    10405    10341 
   10267    10192    10103     9997     9901     9828     9779     9755 
    9735     9710     9697     9716     9758     9799     9852     9920 
    9965     9958     9878     9751     9599     9409     9230     9130 
    9122     9179     9240     9291     9341     9371     9379     9388 
    9417     9459     9488     9508     9548     9598     9604     9563 
    9522     9511     9516     9523     9552     9618     9707     9780 
    9818     9856     9922    10010    10115    10224    10343    10469 
   10596    10744    10904    11040    11130    11152    11104    11017 
   10935    10879    10819    10717    10577    10431    10285    10148 
   10049     9999     9994    10009    10009     9979     9924     9852 
    9761     9658     9545     9395     9193     8929     8633     8349 
    8090     7878     7701     7519     7340     7170     7010     6874 
    6775     6725     6717     6708     6677     6649     6643     6648 
    6646     6628     6608     6602     6602     6631     6735     6905 
    7088     7257     7420     7551     7625     7666     7696     7741 
    7800     7842     7862     7867     7862     7855     7846     7839 
    7818     7776     7752     7775     7835     7897     7943     7979 
    8002     8004     7992     7967     7923     7859     7782     7722 
    7697     7683     7675     7682     7699     7739     7787     7811 
    7789     7698     7560     7412     7264     7127     7025     6991 
    6989     6952     6882     6812     6743     6666     6606     6586 
    6583     6597     6656     6746     6825     6876     6923     6990 
    7077     7176     7283     7412     7553     7667     7730     7764 
    7806     7840     7853     7862     7877     7924     8002     8072 
    8108     8107     8081     8024     7931     7830     7723     7596 
    7449     7285     7120     6981     6862     6738     6617     6516 
    6438     6376     6341     6367     6469     6631     6827     6998 
    7136     7281     7435     7597     7750     7853     7920     7992 
    8084     8187     8303     8443     8588     8722     8848     8966 
    9081     9204     9320     9393     9436     9473     9499     9517 
    9547     9602     9673     9755     9831     9872     9917    10008 
   10127    10270    10431    10570    10652    10690    10724    10754 
   10779    10804    10820    10835    10824    10768    10687    10597 
   10527    10488    10453    10415    10405    10443    10527    10625 
   10688    10685    10621    10499    10335    10151     9973     9832 
    9740     9718     9746     9759     9741     9701     9645     9601 
    9585     9602     9635     9656     9643     9611     9573     9497 
    9405     9350     9346     9377     9392     9372     9363     9421 
    9548     9701     9871    10036    10142    10168    10149    10144 
   10177    10240    10329    10433    10566    10727    10879    11015 
   11134    11236    11324    11409    11526    11693    11874    12021 
   12139    12241    12306    12332    12335    12319    12275    12182 
   12061    11945    11833    11704    11532    11346    11180    11025 
   10872    10730    10610    10500    10390    10296    10223    10166 
   10114    10055    10025    10060    10136    10205    10261    10333 
   10428    10516    10563    10559    10518    10452    10360    10234 
   10088     9944     9789     9606     9425     9297     9220     9177 
    9158     9134     9126     9157     9190     9233     9317     9431 
    9544     9618     9667     9714     9751     9769     9754     9713 
    9641     9535     9413     9275     9125     8979     8846     8738 
    8626     8481     8349     8284     8256     8232     8237     8273 
    8317     8358     8390     8430     8466     8484     8480     8448 
    8415     8423     8476     8547     8623     8694     8745     8787 
    8825     8843     8850     8850     8846     8848     8849     8848 
    8879     8959     9024     9009     8944     8867     8784     8675 
    8559     8510     8530     8580     8632     8677     8765     8905 
    9038     9158     9285     9393     9448     9466     9485     9504 
    9513     9512     9524     9551     9555     9526     9469     9394 
    9320     9255     9205     9167     9142     9123     9114     9133 
    9161     9184     9204     9239     9324     9443     9572     9716 
    9875    10051    10215    10340    10438    10514    10563    10571 
   10563    10597    10654    10674    10657    10617    10553    10482 
   10418    10365    10329    10283    10215    10136    10055     9993 
    9945     9899     9868     9822     9736     9621     9505     9413 
    9334     9254     9162     9041     8895     8735     8584     8460 
    8354     8247     8126     8010     7910     7826     7757     7683 
    7584     7459     7340     7263     7216     7184     7168     7171 
    7197     7238     7277     7308     7345     7389     7413     7404 
    7373     7347     7347     7343     7316     7289     7286     7317 
    7369     7422     7485     7569     7670     7766     7821     7795 
    7696     7578     7470     7389     7349     7354     7382     7411 
    7439     7478     7547     7650     7740     7809     7852     7829 
    7741     7627     7525     7421     7292     7155     7023     6895 
    6789     6732     6735     6772     6826     6922     7059     7192 
    7294     7372     7460     7575     7675     7731     7790     7854 
    7882     7866     7829     7807     7818     7860     7912     7956 
    8006     8054     8075     8068     8068     8108     8175     8250 
    8327     8380     8418     8461     8515     8579     8630     8673 
    8727     8776     8788     8751     8677     8579     8466     8327 
    8166     8024     7906     7800     7691     7571     7456     7349 
    7238     7132     7050     7012     6997     6983     6974     6971 
    6980     6998     7018     7042     7069     7101     7128     7158 
    7192     7214     7228     7225     7204     7183     7175     7166 
    7119     7039     6950     6861     6787     6723     6654     6607 
    6604     6644     6693     6742     6819     6935     7073     7195 
    7297     7404     7511     7593     7659     7724     7779     7811 
    7801     7753     7708     7667     7643     7690     7799     7926 
    8042     8129     8198     8264     8332     8416     8542     8714 
    8909     9133     9373     9597     9808    10001    10189    10392 
   10580    10723    10821    10893    10958    11017    11076    11131 
   11187    11270    11375    11480    11593    11731    11874    11990 
   12078    12127    12133    12103    12045    11973    11891    11792 
   11661    11505    11347    11182    10993    10794    10613    10463 
   10308    10121     9911     9690     9495     9347     9230     9143 
    9101     9097     9128     9214     9337     9457     9567     9682 
    9800     9893     9955    10003    10052    10129    10219    10285 
   10334    10386    10446    10499    10551    10634    10742    10869 
   11008    11133    11246    11347    11424    11511    11641    11788 
   11906    11982    12025    12056    12086    12105    12106    12081 
   12023    11922    11775    11616    11461    11293    11112    10937 
   10810    10736    10681    10618    10538    10460    10369    10247 
   10125    10011     9906     9808     9710     9617     9509     9371 
    9219     9067     8935     8835     8763     8720     8704     8702 
    8704     8740     8845     9014     9197     9364     9536     9699 
    9844     9983    10100    10194    10266    10312    10338    10343 
   10334    10314    10284    10256    10209    10133    10034     9895 
    9719     9526     9321     9108     8889     8671     8483     8359 
    8289     8246     8216     8191     8184     8209     8283     8382 
    8459     8524     8604     8696     8792     8902     9045     9195 
    9313     9385     9415     9425     9433     9465     9530     9607 
    9691     9763     9804     9827     9834     9823     9798     9743 
    9648     9517     9354     9181     9045     8954     8886     8854 
    8862     8898     8957     9044     9175     9320     9442     9536 
    9607     9648     9645     9620     9607     9610     9640     9700 
    9784     9879     9957    10013    10044    10041     9997     9920 
    9842     9777     9717     9654     9591     9540     9505     9473 
    9427     9364     9282     9160     8997     8829     8678     8532 
    8374     8217     8070     7954     7886     7826     7766     7744 
    7761     7787     7797     7790     7785     7800     7841     7909 
    8006     8115     8219     8329     8440     8527     8583     8632 
    8694     8760     8827     8873     8881     8862     8804     8704 
    8569     8416     8294     8240     8246     8286     8352     8458 
    8593     8744     8918     9123     9349     9570     9775     9948 
   10076    10169    10231    10274    10308    10328    10327    10302 
   10262    10201    10086     9923     9743     9551     9349     9173 
    9043     8924     8801     8674     8534     8389     8243     8091 
    7933     7791     7674     7555     7433     7321     7211     7095 
    6973     6869     6795     6752     6731     6719     6739     6792 
    6831     6822     6770     6695     6567     6370     6142     5907 
    5693     5506     5322     5133     4921     4681     4426     4170 
    3930     3708     3503     3314     3144     2991     2845     2712 
    2582     2452     2335     2255     2255     2343     2504     2708 
    2924     3163     3423     3677     3919     4180     4494     4835 
    5137     5381     5606     5840     6067     6265     6432     6576 
    6713     6830     6925     7020     7099     7149     7194     7260 
    7360     7506     7706     7958     8233     8492     8716     8904 
    9068     9234     9404     9570     9755     9943    10105    10243 
   10375    10503    10599    10657    10682    10664    10633    10606 
   10577    10557    10542    10520    10477    10430    10410    10410 
   10428    10451    10452    10444    10456    10476    10472    10451 
   10412    10354    10298    10246    10179    10081     9956     9848 
    9765     9690     9630     9599     9615     9673     9760     9875 
   10034    10250    10482    10684    10852    10987    11099    11206 
   11314    11408    11490    11556    11580    11585    11604    11633 
   11680    11728    11746    11730    11710    11722    11754    11811 
   11903    11994    12055    12066    12035    11996    11977    11957 
   11884    11758    11605    11411    11182    10943    10712    10504 
   10331    10181    10032     9914     9856     9831     9812     9777 
    9709     9611     9495     9372     9255     9148     9043     8941 
    8853     8770     8680     8587     8519     8493     8489     8493 
    8500     8523     8582     8661     8738     8804     8866     8922 
    8942     8933     8921     8896     8835     8750     8685     8647 
    8619     8601     8599     8636     8705     8782     8869     8966 
    9075     9202     9336     9464     9556     9602     9622     9640 
    9682     9729     9751     9751     9736     9696     9611     9495 
    9378     9261     9139     9010     8880     8749     8622     8512 
    8429     8391     8392     8424     8467     8501     8549     8606 
    8654     8712     8776     8829     8880     8951     9041     9108 
    9140     9152     9152     9155     9154     9145     9148     9173 
    9207     9236     9258     9279     9306     9341     9370     9387 
    9400     9422     9431     9403     9355     9306     9256     9210 
    9172     9154     9152     9171     9218     9272     9319     9352 
    9369     9391     9426     9458     9447     9393     9325     9243 
    9169     9123     9087     9040     8984     8927     8866     8810 
    8774     8753     8736     8712     8664     8586     8499     8435 
    8383     8337     8307     8292     8308     8360     8442     8547 
    8649     8737     8810     8885     8992     9129     9276     9435 
    9609     9784     9933    10041    10101    10117    10106    10070 
   10011     9943     9882     9816     9730     9635     9540     9437 
    9307     9159     9017     8869     8713     8562     8425     8340 
    8316     8327     8355     8383     8393     8376     8354     8331 
    8285     8225     8157     8093     8055     8044     8060     8101 
    8172     8264     8358     8453     8546     8630     8701     8761 
    8836     8928     9005     9044     9051     9038     9002     8949 
    8882     8798     8707     8589     8443     8307     8204     8125 
    8043     7970     7931     7910     7877     7822     7773     7759 
    7772     7804     7850     7894     7915     7921     7950     8032 
    8151     8278     8401     8524     8637     8743     8849     8957 
    9075     9195     9308     9418     9545     9692     9824     9940 
   10052    10138    10197    10238    10262    10273    10274    10262 
   10225    10190    10177    10154    10095    10006     9893     9747 
    9571     9384     9195     9009     8828     8655     8485     8326 
    8205     8116     8039     7970     7901     7849     7846     7890 
    7960     8032     8112     8189     8238     8267     8288     8299 
    8294     8281     8270     8248     8208     8170     8146     8138 
    8148     8165     8173     8183     8205     8237     8278     8312 
    8318     8300     8274     8255     8219     8174     8161     8162 
    8156     8157     8187     8245     8296     8320     8331     8343 
    8362     8377     8387     8398     8409     8419     8459     8549 
    8667     8792     8923     9054     9185     9297     9377     9455 
    9565     9699     9791     9834     9871     9890     9860     9788 
    9699     9614     9518     9403     9278     9165     9080     9005 
    8935     8884     8852     8815     8736     8621     8508     8424 
    8360     8286     8219     8185     8162     8120     8056     7983 
    7906     7837     7777     7713     7644     7577     7537     7541 
    7579     7630     7642     7618     7620     7659     7719     7773 
    7805     7835     7874     7920     7952     7959     7949     7913 
    7858     7813     7768     7673     7534     7403     7304     7223 
    7148     7095     7085     7103     7125     7143     7205     7336 
    7452     7501     7516     7516     7543     7612     7691     7779 
    7870     7940     8023     8153     8278     8360     8440     8530 
    8601     8650     8706     8809     8959     9097     9159     9183 
    9251     9351     9445     9532     9610     9669     9693     9668 
    9600     9498     9378     9281     9249     9261     9261     9231 
    9193     9180     9198     9224     9239     9219     9184     9167 
    9147     9118     9109     9121     9136     9170     9238     9313 
    9388     9463     9527     9579     9616     9638     9638     9615 
    9580     9516     9421     9291     9127     8970     8834     8728 
    8680     8672     8671     8681     8723     8814     8945     9067 
    9172     9314     9465     9582     9730     9931    10121    10288 
   10460    10647    10854    11053    11149    11146    11151    11148 
   11091    10996    10851    10647    10404    10135     9857     9597 
