Origin Time       2011/03/11 14:46:00
Lat.              38.103
Long.             142.860
Depth. (km)       24
Mag.              9.0
Station Code      MIE013
Station Lat.      34.2778
Station Long.     136.4993
Station Height(m) 2
Record Time       2011/03/11 14:49:47
Sampling Freq(Hz) 100Hz
Duration Time(s)  123
Dir.              E-W
Scale Factor      3920(gal)/6182761
Max. Acc. (gal)   2.859
Last Correction   2011/03/11 14:49:32
Memo.             
[...]
  -59299   -59311   -59320   -59300   -59247   -59175   -59104   -59025 
  -58952   -58903   -58828   -58715   -58600   -58508   -58440   -58358 
  -58256   -58164   -58079   -57986   -57891   -57802   -57725   -57685 
  -57639   -57562   -57514   -57541   -57606   -57597   -57505   -57455 
  -57472   -57473   -57418   -57349   -57355   -57429   -57463   -57434 
  -57410   -57452   -57563   -57642   -57641   -57646   -57697   -57725 
  -57731   -57773   -57844   -57900   -57919   -57943   -58011   -58048 
  -58003   -57929   -57903   -57950   -57981   -57924   -57868   -57904 
  -57957   -57932   -57876   -57855   -57851   -57811   -57724   -57656 
  -57641   -57626   -57603   -57586   -57555   -57552   -57548   -57469 
  -57389   -57353   -57324   -57319   -57300   -57249   -57218   -57224 
  -57246   -57258   -57272   -57299   -57292   -57258   -57243   -57255 
  -57301   -57353   -57362   -57347   -57367   -57434   -57514   -57550 
  -57532   -57573   -57720   -57848   -57932   -58016   -58076   -58152 
  -58236   -58283   -58353   -58470   -58570   -58608   -58614   -58646 
  -58680   -58677   -58665   -58635   -58551   -58441   -58336   -58201 
  -58025   -57849   -57685   -57525   -57396   -57315   -57242   -57136 
  -57030   -56957   -56903   -56862   -56813   -56771   -56798   -56867 
  -56934   -57035   -57198   -57374   -57527   -57707   -57937   -58169 
  -58344   -58489   -58666   -58828   -58968   -59132   -59276   -59378 
  -59460   -59515   -59541   -59525   -59473   -59409   -59309   -59154 
  -58984   -58810   -58623   -58457   -58273   -58040   -57846   -57721 
  -57624   -57533   -57450   -57397   -57367   -57362   -57380   -57367 
  -57352   -57413   -57519   -57614   -57696   -57766   -57825   -57868 
  -57900   -57929   -57934   -57918   -57919   -57916   -57885   -57855 
  -57826   -57776   -57718   -57670   -57643   -57673   -57717   -57708 
  -57698   -57732   -57785   -57858   -57938   -57994   -58051   -58166 
  -58326   -58456   -58547   -58642   -58749   -58852   -58923   -58991 
  -59103   -59204   -59243   -59248   -59244   -59277   -59338   -59356 
  -59353   -59373   -59414   -59442   -59434   -59444   -59491   -59558 
  -59633   -59692   -59723   -59754   -59823   -59884   -59902   -59914 
  -59911   -59892   -59876   -59850   -59802   -59738   -59645   -59504 
  -59369   -59269   -59155   -59027   -58911   -58797   -58673   -58553 
  -58431   -58296   -58173   -58093   -58067   -58071   -58080   -58099 
  -58142   -58210   -58293   -58352   -58358   -58338   -58308   -58272 
  -58248   -58208   -58140   -58080   -58027   -57964   -57925   -57907 
  -57850   -57780   -57737   -57707   -57691   -57670   -57647   -57682 
  -57757   -57799   -57821   -57842   -57866   -57923   -57978   -58013 
  -58054   -58091   -58100   -58080   -58046   -57999   -57955   -57946 
  -57961   -57957   -57943   -57964   -58008   -58071   -58150   -58190 
  -58195   -58222   -58253   -58241   -58193   -58158   -58139   -58114 
  -58118   -58157   -58187   -58232   -58305   -58351   -58340   -58319 
  -58344   -58378   -58369   -58337   -58330   -58368   -58408   -58407 
  -58404   -58443   -58519   -58572   -58574   -58603   -58664   -58713 
  -58756   -58770   -58759   -58765   -58781   -58769   -58721   -58674 
  -58639   -58593   -58529   -58490   -58486   -58443   -58395   -58391 
  -58358   -58305   -58274   -58242   -58221   -58221   -58230   -58254 
  -58272   -58281   -58326   -58373   -58382   -58403   -58449   -58464 
  -58422   -58358   -58300   -58215   -58089   -57978   -57882   -57756 
  -57632   -57543   -57483   -57444   -57391   -57338   -57312   -57306 
  -57310   -57298   -57276   -57293   -57322   -57317   -57323   -57370 
  -57420   -57480   -57566   -57666   -57778   -57896   -58049   -58267 
  -58497   -58701   -58895   -59086   -59277   -59453   -59574   -59647 
  -59689   -59697   -59671   -59607   -59507   -59404   -59323   -59243 
  -59149   -59035   -58903   -58780   -58635   -58435   -58233   -58053 
  -57855   -57652   -57488   -57365   -57275   -57224   -57220   -57245 
  -57281   -57334   -57385   -57443   -57532   -57599   -57614   -57622 
  -57628   -57586   -57484   -57367   -57286   -57240   -57182   -57122 
  -57109   -57101   -57063   -57044   -57055   -57077   -57116   -57171 
  -57227   -57278   -57327   -57365   -57439   -57548   -57575   -57538 
  -57518   -57474   -57387   -57303   -57244   -57209   -57182   -57140 
  -57082   -57045   -57033   -57017   -57000   -56988   -56985   -56992 
  -57022   -57110   -57241   -57411   -57637   -57879   -58133   -58401 
  -58650   -58880   -59106   -59334   -59550   -59723   -59852   -59938 
  -59984   -59990   -59947   -59860   -59711   -59507   -59325   -59157 
  -58949   -58734   -58549   -58359   -58169   -58039   -57938   -57827 
  -57757   -57717   -57665   -57620   -57597   -57560   -57505   -57474 
  -57429   -57340   -57279   -57272   -57296   -57336   -57368   -57401 
  -57443   -57481   -57527   -57562   -57552   -57544   -57570   -57606 
  -57626   -57636   -57661   -57707   -57756   -57784   -57803   -57834 
  -57866   -57871   -57815   -57725   -57631   -57504   -57342   -57147 
  -56918   -56694   -56489   -56294   -56106   -55928   -55786   -55699 
  -55672   -55703   -55764   -55846   -55937   -56036   -56178   -56356 
  -56554   -56756   -56952   -57164   -57365   -57551   -57743   -57895 
  -58002   -58081   -58129   -58155   -58157   -58134   -58089   -58044 
  -58020   -58033   -58087   -58122   -58126   -58137   -58142   -58149 
  -58169   -58182   -58189   -58190   -58183   -58175   -58164   -58161 
  -58161   -58150   -58170   -58223   -58256   -58286   -58336   -58370 
  -58383   -58382   -58330   -58258   -58223   -58169   -58077   -57995 
  -57928   -57867   -57823   -57795   -57772   -57757   -57739   -57691 
  -57623   -57557   -57496   -57422   -57319   -57211   -57130   -57069 
  -57021   -56991   -56980   -57019   -57124   -57251   -57396   -57587 
  -57793   -58005   -58262   -58531   -58754   -58943   -59088   -59192 
  -59298   -59381   -59424   -59443   -59419   -59363   -59289   -59178 
  -59053   -58928   -58773   -58611   -58457   -58314   -58206   -58111 
  -58033   -57998   -57966   -57926   -57921   -57944   -57964   -57978 
  -57981   -57988   -58016   -58028   -58016   -58003   -57998   -58019 
  -58037   -58017   -57994   -57977   -57954   -57943   -57951   -57958 
  -57977   -58030   -58069   -58106   -58196   -58294   -58373   -58487 
  -58640   -58803   -58995   -59181   -59322   -59450   -59565   -59653 
  -59732   -59805   -59859   -59896   -59917   -59929   -59947   -59962 
  -59942   -59882   -59798   -59702   -59599   -59482   -59360   -59249 
  -59129   -59003   -58908   -58836   -58762   -58706   -58681   -58671 
  -58663   -58676   -58723   -58761   -58766   -58775   -58789   -58806 
  -58854   -58919   -58966   -58990   -58991   -58963   -58926   -58893 
  -58859   -58840   -58826   -58817   -58828   -58858   -58914   -58978 
  -59029   -59074   -59138   -59231   -59327   -59416   -59488   -59544 
  -59607   -59660   -59711   -59779   -59836   -59849   -59818   -59783 
  -59742   -59671   -59576   -59445   -59301   -59168   -59022   -58843 
  -58636   -58427   -58223   -58028   -57860   -57706   -57534   -57361 
  -57224   -57136   -57081   -57056   -57045   -57036   -57065   -57134 
  -57246   -57416   -57601   -57776   -57955   -58158   -58388   -58606 
  -58792   -58964   -59152   -59337   -59489   -59634   -59788   -59936 
  -60084   -60241   -60376   -60496   -60632   -60759   -60857   -60923 
  -60956   -60967   -60941   -60861   -60736   -60546   -60300   -60061 
  -59829   -59579   -59339   -59106   -58879   -58690   -58504   -58261 
  -58004   -57778   -57573   -57389   -57238   -57120   -57051   -57046 
  -57069   -57090   -57132   -57215   -57335   -57488   -57678   -57905 
  -58154   -58417   -58688   -58963   -59230   -59471   -59706   -59926 
  -60119   -60280   -60391   -60479   -60555   -60594   -60617   -60645 
  -60665   -60656   -60613   -60534   -60401   -60252   -60131   -59997 
  -59855   -59758   -59673   -59566   -59497   -59491   -59504   -59512 
  -59511   -59521   -59569   -59595   -59588   -59611   -59618   -59592 
  -59564   -59500   -59399   -59289   -59150   -58936   -58663   -58389 
  -58094   -57771   -57447   -57118   -56791   -56472   -56173   -55917 
  -55699   -55517   -55361   -55250   -55221   -55232   -55278   -55387 
  -55528   -55704   -55929   -56157   -56370   -56588   -56812   -57041 
  -57282   -57504   -57698   -57903   -58114   -58315   -58507   -58688 
  -58888   -59113   -59323   -59494   -59631   -59770   -59925   -60063 
  -60155   -60232   -60310   -60344   -60329   -60283   -60208   -60110 
  -59994   -59862   -59737   -59627   -59513   -59400   -59299   -59173 
  -59007   -58834   -58658   -58476   -58326   -58223   -58123   -58037 
  -57992   -57947   -57891   -57862   -57881   -57924   -57966   -57998 
  -58018   -58051   -58088   -58083   -58064   -58066   -58078   -58100 
  -58113   -58106   -58113   -58142   -58189   -58259   -58326   -58395 
  -58469   -58517   -58550   -58624   -58726   -58808   -58885   -58963 
  -59041   -59138   -59242   -59358   -59505   -59668   -59839   -60002 
  -60127   -60214   -60279   -60321   -60350   -60336   -60260   -60169 
  -60063   -59892   -59680   -59479   -59277   -59058   -58830   -58600 
  -58363   -58115   -57874   -57644   -57421   -57208   -56981   -56731 
  -56522   -56380   -56263   -56180   -56142   -56108   -56091   -56127 
  -56208   -56301   -56395   -56506   -56632   -56761   -56905   -57051 
  -57197   -57357   -57512   -57663   -57812   -57960   -58123   -58264 
  -58358   -58445   -58537   -58613   -58686   -58767   -58836   -58895 
  -58965   -59033   -59094   -59155   -59197   -59215   -59242   -59255 
  -59219   -59157   -59106   -59068   -59020   -58961   -58925   -58910 
  -58877   -58844   -58855   -58887   -58935   -58993   -59038   -59109 
  -59218   -59316   -59404   -59491   -59552   -59612   -59696   -59753 
  -59773   -59784   -59780   -59760   -59747   -59745   -59733   -59693 
  -59642   -59614   -59599   -59582   -59557   -59498   -59416   -59337 
  -59260   -59196   -59157   -59138   -59150   -59193   -59256   -59348 
  -59468   -59573   -59659   -59773   -59924   -60066   -60157   -60209 
  -60256   -60295   -60318   -60340   -60361   -60361   -60328   -60303 
  -60287   -60222   -60127   -60033   -59917   -59795   -59668   -59509 
  -59335   -59180   -59046   -58911   -58773   -58633   -58512   -58423 
  -58326   -58221   -58142   -58072   -57996   -57948   -57949   -57952 
  -57943   -57948   -57967   -58029   -58149   -58299   -58464   -58646 
  -58836   -59040   -59259   -59476   -59680   -59879   -60089   -60303 
  -60501   -60694   -60878   -61026   -61146   -61254   -61332   -61378 
  -61401   -61381   -61318   -61234   -61123   -60976   -60815   -60652 
  -60477   -60301   -60130   -59938   -59748   -59578   -59402   -59210 
  -59011   -58804   -58567   -58313   -58085   -57912   -57785   -57658 
  -57527   -57439   -57387   -57346   -57316   -57289   -57276   -57309 
  -57365   -57399   -57445   -57546   -57660   -57728   -57779   -57862 
  -57965   -58063   -58150   -58231   -58317   -58398   -58462   -58506 
  -58521   -58502   -58459   -58408   -58353   -58267   -58152   -58046 
  -57946   -57855   -57767   -57663   -57567   -57495   -57415   -57330 
  -57286   -57262   -57231   -57204   -57161   -57129   -57143   -57145 
  -57137   -57162   -57196   -57207   -57238   -57329   -57435   -57541 
  -57671   -57827   -57992   -58119   -58227   -58362   -58477   -58557 
  -58638   -58718   -58785   -58848   -58928   -59017   -59097   -59175 
  -59259   -59354   -59438   -59517   -59607   -59676   -59731   -59779 
  -59805   -59847   -59901   -59940   -60004   -60089   -60148   -60199 
  -60285   -60402   -60533   -60635   -60662   -60689   -60743   -60768 
  -60787   -60789   -60721   -60613   -60515   -60425   -60309   -60157 
  -59992   -59822   -59661   -59508   -59357   -59235   -59129   -59026 
  -58947   -58901   -58885   -58847   -58785   -58767   -58793   -58828 
  -58875   -58950   -59041   -59132   -59231   -59339   -59466   -59613 
  -59733   -59814   -59902   -59999   -60075   -60110   -60119   -60136 
  -60135   -60092   -60034   -59958   -59886   -59851   -59812   -59739 
  -59685   -59666   -59638   -59587   -59527   -59455   -59377   -59319 
  -59274   -59222   -59163   -59116   -59091   -59068   -59056   -59076 
  -59122   -59152   -59153   -59139   -59116   -59106   -59089   -59043 
  -58991   -58926   -58827   -58721   -58643   -58576   -58467   -58328 
  -58220   -58144   -58067   -58009   -57994   -58005   -58039   -58091 
  -58151   -58237   -58370   -58516   -58651   -58788   -58934   -59093 
  -59240   -59380   -59533   -59656   -59745   -59857   -60010   -60163 
  -60278   -60380   -60486   -60583   -60662   -60696   -60690   -60679 
  -60650   -60583   -60499   -60404   -60269   -60097   -59916   -59708 
  -59485   -59274   -59039   -58789   -58558   -58335   -58121   -57922 
  -57719   -57519   -57351   -57207   -57085   -57011   -56978   -56990 
  -57056   -57129   -57219   -57372   -57532   -57655   -57802   -58006 
  -58220   -58390   -58517   -58645   -58798   -58951   -59081   -59213 
  -59377   -59553   -59698   -59836   -59990   -60125   -60242   -60357 
  -60454   -60543   -60627   -60710   -60799   -60887   -60987   -61108 
  -61249   -61420   -61609   -61791   -61965   -62125   -62262   -62394 
  -62519   -62609   -62662   -62688   -62668   -62611   -62564   -62499 
  -62383   -62236   -62075   -61927   -61779   -61590   -61385   -61185 
  -60970   -60736   -60495   -60228   -59957   -59723   -59488   -59233 
  -58995   -58773   -58583   -58419   -58222   -58009   -57821   -57635 
  -57464   -57334   -57236   -57176   -57143   -57096   -57058   -57073 
  -57099   -57132   -57216   -57315   -57397   -57488   -57614   -57747 
  -57847   -57953   -58108   -58273   -58415   -58535   -58641   -58779 
  -58951   -59077   -59164   -59268   -59379   -59492   -59603   -59674 
  -59712   -59750   -59776   -59780   -59776   -59769   -59767   -59758 
  -59722   -59684   -59650   -59588   -59512   -59447   -59380   -59271 
  -59134   -59016   -58897   -58762   -58617   -58475   -58373   -58279 
  -58158   -58066   -57995   -57905   -57843   -57794   -57706   -57644 
  -57627   -57606   -57595   -57592   -57606   -57649   -57670   -57698 
  -57779   -57863   -57951   -58063   -58182   -58321   -58451   -58566 
  -58712   -58871   -59019   -59186   -59374   -59551   -59699   -59834 
  -59964   -60083   -60175   -60232   -60263   -60279   -60280   -60257 
  -60198   -60116   -60020   -59882   -59744   -59656   -59557   -59411 
  -59277   -59163   -59042   -58924   -58816   -58731   -58678   -58614 
  -58546   -58530   -58565   -58603   -58642   -58720   -58805   -58872 
  -58966   -59081   -59197   -59323   -59434   -59503   -59558   -59607 
  -59632   -59653   -59672   -59664   -59658   -59677   -59691   -59688 
  -59676   -59664   -59676   -59694   -59697   -59725   -59782   -59834 
  -59880   -59907   -59920   -59976   -60032   -60032   -60034   -60054 
  -60073   -60096   -60099   -60071   -60044   -60026   -60000   -59984 
  -59981   -59949   -59890   -59831   -59772   -59706   -59599   -59463 
  -59356   -59277   -59207   -59162   -59124   -59075   -59050   -59043 
  -59007   -58966   -58959   -58971   -58973   -58961   -58961   -58966 
  -58971   -59018   -59071   -59088   -59140   -59241   -59329   -59408 
  -59500   -59599   -59679   -59717   -59756   -59822   -59861   -59876 
  -59896   -59911   -59909   -59912   -59943   -59977   -59988   -60008 
  -60037   -60032   -60004   -59984   -59947   -59870   -59764   -59653 
  -59571   -59505   -59421   -59325   -59231   -59135   -59027   -58915 
  -58814   -58726   -58660   -58601   -58515   -58429   -58346   -58236 
  -58130   -58026   -57898   -57779   -57660   -57520   -57384   -57265 
  -57176   -57105   -56999   -56882   -56810   -56745   -56646   -56561 
  -56515   -56494   -56483   -56458   -56433   -56433   -56450   -56492 
  -56566   -56651   -56754   -56899   -57065   -57218   -57383   -57588 
  -57792   -57973   -58174   -58410   -58652   -58896   -59130   -59355 
  -59572   -59745   -59910   -60084   -60203   -60268   -60315   -60336 
  -60335   -60329   -60290   -60215   -60140   -60036   -59904   -59779 
  -59649   -59505   -59317   -59096   -58908   -58746   -58589   -58461 
  -58377   -58317   -58255   -58195   -58144   -58095   -58072   -58095 
  -58125   -58172   -58261   -58332   -58385   -58475   -58557   -58603 
  -58671   -58759   -58840   -58894   -58889   -58873   -58890   -58912 
  -58913   -58895   -58879   -58885   -58902   -58910   -58916   -58923 
  -58918   -58911   -58903   -58888   -58890   -58901   -58918   -58949 
  -58971   -58985   -59019   -59073   -59123   -59146   -59148   -59167 
  -59201   -59193   -59148   -59120   -59086   -59023   -58963   -58916 
  -58891   -58872   -58849   -58831   -58809   -58775   -58743   -58720 
  -58703   -58687   -58667   -58640   -58611   -58612   -58650   -58704 
  -58792   -58901   -59005   -59121   -59263   -59435   -59636   -59869 
  -60123   -60351   -60566   -60787   -60983   -61161   -61326   -61486 
  -61692   -61904   -62071   -62223   -62349   -62409   -62430   -62442 
  -62435   -62419   -62403   -62351   -62249   -62094   -61904   -61712 
  -61499   -61272   -61069   -60858   -60611   -60352   -60083   -59793 
  -59514   -59268   -59048   -58820   -58564   -58307   -58058   -57804 
  -57594   -57465   -57366   -57237   -57102   -56995   -56918   -56872 
  -56836   -56816   -56828   -56858   -56902   -56951   -57000   -57048 
  -57097   -57161   -57252   -57367   -57489   -57607   -57721   -57827 
  -57930   -58021   -58109   -58238   -58396   -58541   -58674   -58786 
  -58854   -58879   -58870   -58848   -58836   -58814   -58765   -58728 
  -58722   -58695   -58622   -58537   -58476   -58409   -58327   -58259 
  -58182   -58079   -57954   -57802   -57628   -57461   -57326   -57213 
  -57113   -57008   -56892   -56782   -56662   -56535   -56425   -56327 
  -56244   -56185   -56147   -56132   -56145   -56167   -56189   -56262 
  -56373   -56476   -56622   -56788   -56893   -56973   -57080   -57173 
  -57228   -57304   -57442   -57603   -57723   -57788   -57845   -57894 
  -57910   -57929   -57976   -58045   -58115   -58153   -58160   -58153 
  -58129   -58084   -58053   -58082   -58159   -58230   -58277   -58304 
  -58346   -58391   -58405   -58439   -58489   -58543   -58621   -58658 
  -58673   -58695   -58662   -58610   -58597   -58587   -58576   -58545 
  -58461   -58381   -58310   -58216   -58156   -58154   -58164   -58159 
  -58131   -58099   -58094   -58082   -58054   -58038   -58040   -58079 
  -58102   -58063   -58024   -57999   -57984   -58012   -58057   -58072 
  -58061   -58058   -58109   -58209   -58271   -58297   -58356   -58404 
  -58397   -58385   -58396   -58414   -58393   -58302   -58209   -58170 
  -58168   -58152   -58064   -57931   -57847   -57797   -57710   -57602 
  -57499   -57386   -57280   -57197   -57102   -56976   -56861   -56788 
  -56716   -56627   -56549   -56490   -56432   -56360   -56331   -56343 
  -56308   -56278   -56326   -56407   -56489   -56612   -56788   -56960 
  -57103   -57262   -57468   -57711   -57965   -58248   -58549   -58836 
