Origin Time       2011/03/11 14:46:00
Lat.              38.103
Long.             142.860
Depth. (km)       24
Mag.              9.0
Station Code      MIE005
Station Lat.      34.7679
Station Long.     136.1149
Station Height(m) 134
Record Time       2011/03/11 14:49:11
Sampling Freq(Hz) 100Hz
Duration Time(s)  171
Dir.              U-D
Scale Factor      3920(gal)/6182761
Max. Acc. (gal)   2.473
Last Correction   2011/03/11 14:48:56
Memo.             
[...]
   -7947    -7920    -7916    -7898    -7883    -7891    -7897    -7893 
   -7895    -7930    -7976    -8008    -8053    -8105    -8164    -8259 
   -8360    -8453    -8563    -8687    -8808    -8911    -9006    -9101 
   -9181    -9271    -9380    -9465    -9526    -9589    -9645    -9659 
   -9636    -9606    -9538    -9431    -9354    -9315    -9269    -9199 
   -9121    -9064    -9004    -8900    -8771    -8656    -8562    -8464 
   -8367    -8319    -8301    -8268    -8252    -8264    -8275    -8270 
   -8263    -8292    -8344    -8395    -8470    -8549    -8619    -8704 
   -8793    -8880    -8962    -9018    -9055    -9090    -9132    -9149 
   -9119    -9081    -9039    -8968    -8900    -8834    -8744    -8655 
   -8588    -8520    -8440    -8377    -8359    -8381    -8449    -8547 
   -8621    -8669    -8715    -8771    -8849    -8919    -8962    -9014 
   -9082    -9146    -9188    -9202    -9205    -9187    -9154    -9121 
   -9075    -9024    -8975    -8912    -8820    -8715    -8644    -8584 
   -8470    -8323    -8176    -8036    -7939    -7892    -7854    -7783 
   -7697    -7642    -7602    -7547    -7473    -7378    -7324    -7354 
   -7404    -7439    -7502    -7604    -7718    -7844    -7981    -8085 
   -8168    -8296    -8458    -8585    -8648    -8676    -8694    -8703 
   -8711    -8709    -8679    -8643    -8611    -8576    -8531    -8457 
   -8391    -8381    -8413    -8448    -8446    -8411    -8384    -8379 
   -8394    -8413    -8431    -8480    -8567    -8648    -8715    -8779 
   -8842    -8898    -8951    -9016    -9087    -9140    -9206    -9310 
   -9423    -9527    -9623    -9719    -9841    -9992   -10130   -10228 
  -10313   -10378   -10390   -10376   -10376   -10385   -10371   -10303 
  -10187   -10042    -9901    -9804    -9698    -9531    -9366    -9271 
   -9257    -9269    -9247    -9207    -9169    -9155    -9172    -9188 
   -9189    -9172    -9137    -9107    -9093    -9088    -9067    -9038 
   -9039    -9025    -8968    -8926    -8919    -8961    -9068    -9180 
   -9275    -9378    -9487    -9605    -9716    -9794    -9852    -9931 
  -10048   -10168   -10270   -10381   -10507   -10636   -10750   -10849 
  -10951   -11032   -11073   -11080   -11042   -10986   -10958   -10936 
  -10883   -10805   -10731   -10677   -10643   -10614   -10565   -10488 
  -10417   -10392   -10406   -10414   -10390   -10331   -10243   -10133 
  -10004    -9867    -9757    -9693    -9631    -9534    -9401    -9267 
   -9205    -9226    -9256    -9248    -9209    -9197    -9237    -9300 
   -9356    -9397    -9458    -9543    -9596    -9613    -9646    -9731 
   -9854    -9969   -10061   -10135   -10195   -10266   -10352   -10427 
  -10468   -10476   -10491   -10540   -10590   -10603   -10562   -10488 
  -10410   -10317   -10216   -10114    -9989    -9846    -9713    -9610 
   -9521    -9404    -9262    -9114    -8999    -8945    -8874    -8749 
   -8646    -8603    -8599    -8604    -8588    -8553    -8528    -8515 
   -8494    -8475    -8471    -8462    -8458    -8455    -8399    -8334 
   -8354    -8414    -8424    -8403    -8439    -8558    -8672    -8724 
   -8734    -8726    -8773    -8909    -9031    -9084    -9105    -9166 
   -9299    -9376    -9345    -9363    -9418    -9420    -9449    -9501 
   -9508    -9484    -9429    -9354    -9276    -9194    -9140    -9066 
   -8913    -8758    -8658    -8579    -8479    -8351    -8238    -8132 
   -8029    -7996    -8003    -7973    -7921    -7906    -7951    -8031 
   -8122    -8199    -8216    -8194    -8205    -8270    -8355    -8434 
   -8481    -8450    -8365    -8321    -8363    -8438    -8468    -8434 
   -8356    -8255    -8174    -8154    -8178    -8170    -8097    -8006 
   -7938    -7915    -7934    -7967    -7997    -8049    -8137    -8231 
   -8309    -8368    -8398    -8401    -8424    -8482    -8516    -8508 
   -8478    -8432    -8432    -8480    -8472    -8399    -8329    -8284 
   -8279    -8312    -8337    -8314    -8297    -8382    -8479    -8461 
   -8396    -8385    -8475    -8675    -8854    -8854    -8720    -8633 
   -8698    -8886    -9064    -9101    -9029    -8961    -8950    -9011 
   -9065    -8998    -8847    -8748    -8760    -8754    -8588    -8326 
   -8130    -8061    -8024    -7927    -7805    -7685    -7562    -7505 
   -7544    -7629    -7697    -7700    -7714    -7852    -8041    -8135 
   -8140    -8182    -8338    -8559    -8751    -8908    -9062    -9181 
   -9267    -9412    -9588    -9664    -9713    -9893   -10096   -10135 
  -10021    -9880    -9835    -9908    -9962    -9896    -9760    -9627 
   -9486    -9321    -9200    -9132    -9001    -8806    -8700    -8676 
   -8597    -8483    -8437    -8443    -8411    -8303    -8177    -8157 
   -8262    -8358    -8376    -8358    -8316    -8290    -8363    -8529 
   -8672    -8698    -8664    -8703    -8852    -9050    -9217    -9278 
   -9239    -9199    -9230    -9301    -9347    -9356    -9359    -9360 
   -9340    -9326    -9316    -9280    -9248    -9222    -9191    -9200 
   -9227    -9217    -9200    -9206    -9199    -9161    -9123    -9104 
   -9097    -9109    -9150    -9200    -9231    -9240    -9259    -9295 
   -9329    -9377    -9425    -9427    -9445    -9530    -9617    -9690 
   -9769    -9800    -9785    -9820    -9902    -9945    -9946    -9947 
   -9973   -10024   -10068   -10081   -10062   -10032   -10013   -10005 
   -9996    -9959    -9876    -9792    -9747    -9706    -9639    -9561 
   -9468    -9341    -9214    -9137    -9086    -9019    -8945    -8841 
   -8716    -8668    -8693    -8704    -8682    -8646    -8633    -8672 
   -8745    -8815    -8848    -8864    -8899    -8914    -8914    -8941 
   -8930    -8854    -8792    -8767    -8766    -8794    -8804    -8775 
   -8758    -8768    -8779    -8763    -8726    -8682    -8606    -8541 
   -8555    -8596    -8590    -8536    -8477    -8460    -8510    -8594 
   -8646    -8681    -8760    -8874    -8965    -9045    -9214    -9443 
   -9603    -9758    -9985   -10148   -10185   -10231   -10375   -10581 
  -10737   -10729   -10662   -10674   -10708   -10786   -10900   -10919 
  -10911   -10914   -10828   -10757   -10781   -10770   -10754   -10808 
  -10817   -10797   -10862   -10961   -11020   -10992   -10931   -10997 
  -11128   -11173   -11170   -11141   -11068   -11048   -11093   -11108 
  -11122   -11155   -11136   -11126   -11186   -11230   -11226   -11211 
  -11170   -11111   -11079   -11068   -11033   -10960   -10888   -10832 
  -10756   -10661   -10590   -10527   -10414   -10281   -10199   -10163 
  -10141   -10079    -9930    -9759    -9644    -9569    -9536    -9560 
   -9590    -9587    -9562    -9555    -9626    -9738    -9802    -9843 
   -9940   -10083   -10230   -10393   -10562   -10686   -10763   -10813 
  -10863   -10966   -11096   -11175   -11222   -11252   -11217   -11121 
  -11026   -10967   -10884   -10717   -10516   -10347   -10230   -10132 
   -9987    -9774    -9532    -9317    -9201    -9172    -9132    -9063 
   -9006    -8942    -8865    -8828    -8825    -8758    -8603    -8490 
   -8480    -8475    -8422    -8326    -8192    -8083    -8036    -7971 
   -7883    -7858    -7862    -7845    -7846    -7862    -7853    -7832 
   -7819    -7765    -7647    -7561    -7568    -7599    -7591    -7562 
   -7545    -7542    -7532    -7502    -7464    -7433    -7408    -7425 
   -7506    -7617    -7751    -7878    -7959    -8047    -8188    -8323 
   -8427    -8564    -8758    -8964    -9177    -9395    -9560    -9678 
   -9793    -9883    -9961   -10061   -10163   -10270   -10350   -10364 
  -10357   -10344   -10314   -10311   -10345   -10372   -10383   -10409 
  -10461   -10516   -10578   -10636   -10649   -10624   -10599   -10576 
  -10536   -10465   -10355   -10253   -10210   -10205   -10198   -10127 
   -9955    -9768    -9621    -9491    -9386    -9300    -9246    -9266 
   -9333    -9394    -9388    -9294    -9208    -9189    -9217    -9309 
   -9413    -9422    -9388    -9399    -9428    -9441    -9440    -9478 
   -9589    -9751    -9958   -10173   -10333   -10456   -10577   -10723 
  -10909   -11098   -11281   -11456   -11589   -11704   -11812   -11879 
  -11894   -11856   -11801   -11806   -11857   -11833   -11634   -11348 
  -11196   -11219   -11279   -11258   -11095   -10842   -10678   -10661 
  -10698   -10719   -10723   -10702   -10651   -10657   -10737   -10728 
  -10601   -10501   -10410   -10287   -10239   -10281   -10275   -10131 
   -9931    -9790    -9707    -9647    -9582    -9470    -9322    -9234 
   -9254    -9255    -9134    -8980    -8895    -8883    -8918    -8952 
   -8964    -8957    -8950    -8970    -8988    -8967    -8966    -9033 
   -9161    -9347    -9542    -9666    -9722    -9782    -9885   -10038 
  -10246   -10447   -10574   -10667   -10782   -10915   -11025   -11052 
  -11011   -10955   -10871   -10785   -10728   -10663   -10606   -10572 
  -10487   -10361   -10290   -10268   -10219   -10136   -10072   -10027 
   -9977    -9964   -10016   -10095   -10127   -10081   -10012    -9980 
   -9972    -9984   -10036   -10124   -10221   -10300   -10357   -10374 
  -10355   -10374   -10462   -10541   -10555   -10534   -10539   -10584 
  -10620   -10634   -10657   -10681   -10677   -10662   -10641   -10592 
  -10559   -10557   -10510   -10454   -10444   -10418   -10377   -10341 
  -10265   -10159   -10059    -9988    -9958    -9934    -9907    -9909 
   -9923    -9932    -9964   -10016   -10090   -10202   -10324   -10443 
  -10562   -10647   -10706   -10792   -10887   -10946   -11018   -11151 
  -11245   -11235   -11215   -11228   -11220   -11129   -10963   -10833 
  -10766   -10659   -10485   -10326   -10219   -10129   -10053    -9988 
   -9888    -9778    -9722    -9696    -9699    -9756    -9827    -9872 
   -9904    -9969   -10067   -10130   -10160   -10239   -10390   -10531 
  -10609   -10671   -10729   -10741   -10718   -10712   -10764   -10838 
  -10868   -10871   -10860   -10805   -10737   -10714   -10725   -10713 
  -10678   -10677   -10727   -10797   -10853   -10834   -10735   -10682 
  -10734   -10784   -10765   -10702   -10601   -10469   -10322   -10170 
  -10033    -9893    -9731    -9565    -9390    -9218    -9095    -9013 
   -8920    -8766    -8561    -8388    -8326    -8357    -8371    -8314 
   -8246    -8213    -8221    -8248    -8254    -8257    -8279    -8275 
   -8242    -8241    -8261    -8255    -8220    -8182    -8164    -8158 
   -8134    -8108    -8076    -8004    -7933    -7920    -7954    -7958 
   -7872    -7741    -7596    -7418    -7320    -7330    -7281    -7184 
   -7189    -7231    -7177    -7086    -7072    -7139    -7226    -7289 
   -7378    -7530    -7655    -7676    -7647    -7657    -7742    -7869 
   -7967    -8001    -7994    -7980    -7995    -8056    -8074    -7957 
   -7798    -7712    -7662    -7584    -7490    -7414    -7352    -7289 
   -7217    -7109    -7015    -7026    -7035    -6808    -6428    -6223 
   -6227    -6283    -6388    -6454    -6269    -5919    -5767    -5963 
   -6301    -6567    -6716    -6727    -6663    -6750    -7129    -7660 
   -8074    -8213    -8121    -8005    -8063    -8318    -8598    -8732 
   -8717    -8640    -8588    -8560    -8470    -8369    -8380    -8431 
   -8407    -8311    -8132    -7913    -7796    -7790    -7717    -7457 
   -7164    -7031    -6959    -6830    -6709    -6618    -6572    -6598 
   -6510    -6241    -6098    -6217    -6376    -6452    -6465    -6378 
   -6254    -6276    -6480    -6708    -6796    -6737    -6632    -6537 
   -6568    -6811    -7087    -7208    -7174    -7060    -7024    -7185 
   -7423    -7534    -7537    -7597    -7755    -7990    -8251    -8405 
   -8476    -8596    -8711    -8800    -8962    -9154    -9309    -9491 
   -9693    -9818    -9849    -9870    -9940   -10066   -10219   -10301 
  -10253   -10182   -10200   -10279   -10303   -10194   -10044    -9959 
   -9875    -9783    -9751    -9721    -9614    -9469    -9357    -9266 
   -9131    -8972    -8847    -8764    -8725    -8712    -8654    -8510 
   -8333    -8195    -8110    -8073    -8066    -8039    -7998    -7963 
   -7924    -7923    -7966    -7925    -7777    -7656    -7621    -7653 
   -7753    -7812    -7706    -7553    -7514    -7575    -7667    -7731 
   -7754    -7785    -7836    -7931    -8075    -8184    -8285    -8457 
   -8602    -8668    -8759    -8920    -9126    -9346    -9512    -9586 
   -9630    -9734    -9900   -10047   -10119   -10120   -10099   -10104 
  -10138   -10176   -10172   -10092   -10030   -10080   -10156   -10137 
  -10007    -9824    -9696    -9667    -9632    -9500    -9310    -9160 
   -9096    -9049    -8903    -8689    -8545    -8478    -8366    -8201 
   -8073    -7968    -7853    -7788    -7759    -7695    -7590    -7464 
   -7386    -7426    -7512    -7548    -7524    -7482    -7489    -7555 
   -7635    -7709    -7729    -7712    -7781    -7952    -8124    -8206 
   -8179    -8172    -8277    -8371    -8374    -8367    -8399    -8456 
   -8501    -8506    -8492    -8457    -8354    -8206    -8122    -8124 
   -8088    -7943    -7740    -7562    -7489    -7505    -7464    -7288 
   -7050    -6878    -6842    -6860    -6804    -6703    -6612    -6538 
   -6542    -6583    -6533    -6449    -6446    -6481    -6503    -6528 
   -6550    -6578    -6647    -6713    -6712    -6715    -6780    -6793 
   -6704    -6640    -6644    -6673    -6695    -6651    -6546    -6470 
   -6430    -6357    -6257    -6203    -6174    -6072    -5912    -5831 
   -5871    -5927    -5905    -5801    -5674    -5632    -5692    -5701 
   -5605    -5527    -5488    -5425    -5373    -5409    -5547    -5659 
   -5631    -5581    -5643    -5771    -5908    -6037    -6143    -6317 
   -6601    -6823    -6911    -7018    -7186    -7316    -7400    -7499 
   -7638    -7768    -7806    -7780    -7801    -7881    -7955    -7988 
   -7964    -7931    -7974    -8072    -8147    -8177    -8204    -8272 
   -8340    -8341    -8333    -8404    -8511    -8556    -8541    -8531 
   -8570    -8653    -8688    -8644    -8628    -8677    -8705    -8656 
   -8583    -8585    -8639    -8652    -8630    -8634    -8700    -8849 
   -9039    -9146    -9122    -9103    -9214    -9378    -9487    -9552 
   -9622    -9717    -9821    -9875    -9889    -9954   -10096   -10264 
  -10411   -10526   -10600   -10618   -10626   -10712   -10867   -10978 
  -10981   -10955   -10990   -11069   -11151   -11211   -11223   -11242 
  -11343   -11477   -11542   -11542   -11539   -11551   -11540   -11459 
  -11337   -11250   -11241   -11270   -11239   -11138   -11103   -11156 
  -11181   -11162   -11133   -11115   -11127   -11128   -11091   -11071 
  -11120   -11194   -11192   -11088   -10953   -10878   -10915   -10998 
  -10990   -10886   -10789   -10766   -10825   -10878   -10838   -10799 
  -10867   -10967   -11005   -11007   -11017   -11060   -11109   -11081 
  -11010   -11039   -11167   -11224   -11152   -11058   -11006   -11015 
  -11069   -11068   -10993   -10928   -10902   -10889   -10846   -10754 
  -10648   -10554   -10458   -10355   -10240   -10124   -10040    -9977 
   -9897    -9814    -9740    -9664    -9596    -9529    -9448    -9373 
   -9332    -9319    -9301    -9253    -9194    -9171    -9190    -9209 
   -9190    -9138    -9097    -9106    -9168    -9247    -9297    -9310 
   -9328    -9388    -9469    -9520    -9544    -9586    -9679    -9802 
   -9889    -9923    -9939    -9964   -10035   -10146   -10211   -10215 
  -10227   -10247   -10228   -10179   -10134   -10090   -10028    -9962 
   -9896    -9802    -9706    -9657    -9639    -9597    -9495    -9359 
   -9261    -9239    -9259    -9236    -9135    -9020    -8918    -8813 
   -8760    -8747    -8663    -8533    -8440    -8370    -8298    -8204 
   -8091    -8002    -7950    -7912    -7854    -7768    -7684    -7597 
   -7506    -7452    -7459    -7489    -7478    -7392    -7285    -7253 
   -7272    -7275    -7305    -7361    -7358    -7311    -7304    -7354 
   -7385    -7370    -7386    -7450    -7520    -7609    -7701    -7739 
   -7728    -7759    -7901    -8048    -8069    -8041    -8106    -8254 
   -8350    -8313    -8240    -8248    -8316    -8378    -8382    -8316 
   -8254    -8246    -8259    -8250    -8184    -8104    -8136    -8251 
   -8293    -8249    -8194    -8151    -8140    -8157    -8134    -8054 
   -7988    -7970    -7943    -7873    -7803    -7792    -7852    -7890 
   -7831    -7742    -7708    -7763    -7902    -8044    -8124    -8144 
   -8107    -8066    -8092    -8172    -8254    -8288    -8251    -8214 
   -8223    -8258    -8314    -8358    -8359    -8384    -8464    -8519 
   -8516    -8507    -8543    -8616    -8663    -8643    -8634    -8687 
   -8727    -8770    -8843    -8831    -8782    -8846    -8947    -8989 
   -9012    -9007    -8963    -8954    -9003    -9051    -9079    -9097 
   -9086    -9065    -9134    -9297    -9364    -9280    -9251    -9358 
   -9461    -9461    -9397    -9409    -9545    -9624    -9524    -9398 
   -9390    -9404    -9334    -9262    -9216    -9094    -8968    -8948 
   -8913    -8783    -8644    -8559    -8564    -8575    -8441    -8282 
   -8298    -8427    -8446    -8288    -8197    -8341    -8475    -8407 
   -8290    -8328    -8515    -8644    -8630    -8660    -8790    -8902 
   -9005    -9116    -9185    -9243    -9342    -9479    -9610    -9660 
   -9644    -9659    -9762    -9885    -9909    -9845    -9809    -9872 
   -9964    -9937    -9870    -9900    -9898    -9869    -9965   -10025 
   -9868    -9651    -9623    -9816    -9969    -9869    -9676    -9611 
   -9663    -9728    -9728    -9682    -9673    -9710    -9728    -9680 
   -9578    -9451    -9330    -9300    -9309    -9188    -8979    -8815 
   -8706    -8632    -8542    -8373    -8161    -7992    -7865    -7722 
   -7558    -7426    -7340    -7219    -7024    -6836    -6706    -6629 
   -6621    -6653    -6692    -6731    -6767    -6804    -6862    -6972 
   -7104    -7220    -7375    -7582    -7756    -7867    -7957    -8080 
   -8238    -8378    -8483    -8561    -8623    -8728    -8854    -8912 
   -8915    -8907    -8894    -8923    -8991    -9004    -8915    -8795 
   -8777    -8844    -8827    -8678    -8507    -8400    -8369    -8347 
   -8265    -8153    -8071    -8034    -8000    -7908    -7779    -7671 
   -7574    -7494    -7469    -7478    -7460    -7394    -7328    -7321 
   -7344    -7343    -7317    -7304    -7360    -7466    -7533    -7557 
   -7578    -7621    -7735    -7877    -7928    -7886    -7877    -8003 
   -8214    -8368    -8412    -8408    -8441    -8548    -8661    -8716 
   -8753    -8823    -8914    -8998    -9059    -9087    -9104    -9158 
   -9266    -9374    -9399    -9336    -9282    -9309    -9410    -9515 
   -9540    -9496    -9465    -9491    -9567    -9662    -9728    -9731 
   -9767    -9930   -10120   -10244   -10348   -10456   -10581   -10745 
  -10889   -10944   -10956   -11023   -11164   -11326   -11477   -11591 
  -11626   -11632   -11697   -11775   -11788   -11776   -11765   -11727 
  -11668   -11599   -11498   -11377   -11278   -11185   -11051   -10903 
  -10756   -10576   -10379   -10212   -10075    -9933    -9748    -9542 
   -9401    -9338    -9270    -9158    -9048    -8972    -8936    -8928 
   -8911    -8857    -8786    -8750    -8764    -8787    -8757    -8704 
   -8727    -8810    -8844    -8804    -8763    -8810    -8942    -9024 
   -9002    -8979    -9012    -9076    -9166    -9267    -9364    -9455 
