Origin Time       2011/03/11 14:46:00
Lat.              38.103
Long.             142.860
Depth. (km)       24
Mag.              9.0
Station Code      MIE011
Station Lat.      34.4284
Station Long.     136.3328
Station Height(m) 143
Record Time       2011/03/11 14:50:19
Sampling Freq(Hz) 100Hz
Duration Time(s)  71
Dir.              E-W
Scale Factor      3920(gal)/6182761
Max. Acc. (gal)   1.568
Last Correction   2011/03/11 14:50:04
Memo.             
[...]
  -35404   -35431   -35388   -35368   -35471   -35572   -35601   -35603 
  -35584   -35579   -35593   -35588   -35607   -35650   -35665   -35676 
  -35671   -35598   -35541   -35537   -35417   -35252   -35253   -35287 
  -35261   -35259   -35250   -35239   -35235   -35192   -35171   -35208 
  -35266   -35351   -35424   -35429   -35480   -35632   -35675   -35600 
  -35637   -35702   -35703   -35733   -35715   -35680   -35700   -35626 
  -35502   -35467   -35458   -35454   -35479   -35498   -35507   -35524 
  -35531   -35553   -35615   -35645   -35655   -35716   -35769   -35799 
  -35851   -35900   -35950   -36042   -36088   -36034   -35990   -35942 
  -35873   -35872   -35876   -35874   -35936   -35975   -35994   -36046 
  -36027   -35998   -36039   -36011   -35958   -35986   -36028   -36100 
  -36180   -36166   -36144   -36160   -36098   -35999   -35954   -35914 
  -35846   -35735   -35616   -35540   -35414   -35281   -35303   -35326 
  -35220   -35134   -35152   -35167   -35060   -34989   -35064   -35133 
  -35204   -35301   -35326   -35337   -35412   -35472   -35474   -35467 
  -35503   -35606   -35677   -35664   -35692   -35728   -35655   -35582 
  -35624   -35735   -35829   -35853   -35849   -35900   -35957   -35938 
  -36018   -36187   -36172   -36164   -36287   -36331   -36414   -36460 
  -36307   -36259   -36305   -36223   -36170   -36152   -36101   -36210 
  -36324   -36218   -36117   -36072   -36029   -36077   -36017   -35793 
  -35739   -35819   -35844   -35903   -35949   -36022   -36221   -36301 
  -36256   -36283   -36299   -36299   -36370   -36413   -36334   -36253 
  -36242   -36185   -36111   -36034   -35882   -35760   -35685   -35621 
  -35622   -35641   -35657   -35743   -35865   -35917   -35912   -35938 
  -35990   -36056   -36141   -36160   -36142   -36225   -36309   -36315 
  -36354   -36396   -36400   -36409   -36378   -36337   -36298   -36178 
  -36059   -36034   -36014   -35963   -35903   -35892   -35995   -36092 
  -36109   -36163   -36262   -36324   -36345   -36339   -36335   -36329 
  -36303   -36303   -36317   -36303   -36266   -36217   -36162   -36081 
  -35998   -35980   -35975   -35962   -36014   -36067   -36056   -36059 
  -36102   -36161   -36222   -36226   -36208   -36252   -36271   -36236 
  -36248   -36257   -36215   -36170   -36122   -36086   -36020   -35872 
  -35768   -35765   -35743   -35689   -35655   -35621   -35614   -35648 
  -35681   -35675   -35637   -35671   -35771   -35809   -35804   -35826 
  -35861   -35869   -35818   -35776   -35757   -35656   -35540   -35511 
  -35505   -35521   -35562   -35573   -35597   -35643   -35649   -35617 
  -35566   -35521   -35501   -35476   -35447   -35473   -35521   -35507 
  -35511   -35607   -35723   -35855   -36010   -36124   -36206   -36256 
  -36212   -36085   -35955   -35880   -35871   -35846   -35733   -35623 
  -35574   -35514   -35430   -35413   -35460   -35475   -35513   -35602 
  -35582   -35483   -35477   -35520   -35549   -35575   -35601   -35668 
  -35734   -35745   -35787   -35912   -36072   -36203   -36287   -36356 
  -36405   -36427   -36454   -36497   -36549   -36597   -36661   -36697 
  -36639   -36589   -36601   -36620   -36624   -36574   -36496   -36469 
  -36434   -36348   -36281   -36247   -36205   -36161   -36184   -36283 
  -36403   -36455   -36394   -36389   -36519   -36566   -36506   -36459 
  -36384   -36333   -36342   -36342   -36370   -36404   -36387   -36383 
  -36381   -36365   -36394   -36390   -36282   -36114   -35948   -35820 
  -35720   -35624   -35553   -35541   -35545   -35485   -35386   -35360 
  -35433   -35489   -35454   -35453   -35529   -35575   -35568   -35532 
  -35497   -35445   -35360   -35307   -35260   -35221   -35241   -35226 
  -35216   -35279   -35295   -35334   -35510   -35703   -35849   -35985 
  -36103   -36177   -36213   -36240   -36295   -36351   -36351   -36275 
  -36186   -36175   -36205   -36173   -36176   -36381   -36614   -36634 
  -36601   -36671   -36656   -36537   -36478   -36411   -36330   -36344 
  -36363   -36320   -36260   -36150   -36036   -35988   -35946   -35907 
  -35957   -36096   -36251   -36323   -36242   -36130   -36125   -36110 
  -36072   -36158   -36261   -36283   -36324   -36362   -36312   -36207 
  -36112   -36089   -36164   -36169   -36030   -36002   -36060   -35979 
  -35915   -35982   -36081   -36171   -36189   -36245   -36402   -36450 
  -36452   -36495   -36415   -36320   -36341   -36320   -36235   -36254 
  -36320   -36248   -36127   -36151   -36270   -36353   -36346   -36227 
  -36074   -35956   -35820   -35673   -35591   -35541   -35414   -35243 
  -35172   -35144   -35084   -35080   -35061   -35023   -35094   -35141 
  -35092   -35076   -35103   -35171   -35222   -35177   -35176   -35222 
  -35172   -35068   -35026   -35111   -35238   -35334   -35477   -35580 
  -35603   -35645   -35652   -35604   -35531   -35487   -35536   -35536 
  -35435   -35418   -35500   -35558   -35516   -35388   -35396   -35548 
  -35514   -35370   -35438   -35529   -35485   -35522   -35572   -35557 
  -35646   -35729   -35729   -35781   -35786   -35694   -35629   -35540 
  -35453   -35502   -35585   -35614   -35619   -35612   -35633   -35591 
  -35478   -35522   -35674   -35742   -35798   -35877   -35963   -36026 
  -35985   -35980   -36033   -36002   -35995   -35999   -35971   -36014 
  -35923   -35753   -35872   -35957   -35816   -35823   -35864   -35837 
  -35875   -35819   -35688   -35599   -35491   -35369   -35290   -35345 
  -35476   -35469   -35410   -35387   -35216   -34993   -34933   -34869 
  -34699   -34643   -34765   -34888   -34905   -34857   -34825   -34908 
  -35000   -34904   -34859   -35001   -35051   -35061   -35116   -35078 
  -35045   -35044   -34998   -34973   -34989   -35044   -35098   -35088 
  -35060   -35087   -35177   -35269   -35335   -35389   -35381   -35372 
  -35441   -35467   -35508   -35642   -35750   -35880   -36021   -36050 
  -36106   -36207   -36216   -36192   -36150   -36096   -36119   -36097 
  -35968   -35898   -35872   -35823   -35859   -35915   -35921   -35993 
  -36062   -36056   -36097   -36151   -36129   -36156   -36254   -36273 
  -36225   -36179   -36136   -36145   -36171   -36115   -36031   -35993 
  -35973   -35966   -35947   -35837   -35702   -35596   -35444   -35295 
  -35191   -35090   -35091   -35146   -35044   -34894   -34866   -34831 
  -34746   -34757   -34805   -34809   -34885   -34975   -35011   -35063 
  -35061   -35031   -35087   -35131   -35136   -35172   -35131   -35066 
  -35167   -35261   -35197   -35205   -35420   -35674   -35823   -35893 
  -35972   -36057   -36105   -36133   -36120   -36065   -36007   -35971 
  -35960   -35939   -35978   -36073   -36053   -35970   -35927   -35835 
  -35717   -35719   -35812   -35803   -35656   -35563   -35572   -35552 
  -35469   -35341   -35224   -35217   -35229   -35144   -35070   -35099 
  -35201   -35307   -35302   -35263   -35382   -35525   -35540   -35574 
  -35625   -35571   -35502   -35386   -35173   -35132   -35296   -35323 
  -35212   -35167   -35180   -35210   -35190   -35117   -35162   -35301 
  -35313   -35243   -35284   -35314   -35267   -35302   -35336   -35308 
  -35317   -35287   -35172   -35145   -35209   -35188   -35131   -35086 
  -35116   -35293   -35398   -35451   -35612   -35731   -35758   -35809 
  -35927   -35994   -35958   -35941   -35940   -35917   -35866   -35803 
  -35804   -35791   -35693   -35587   -35511   -35562   -35677   -35692 
  -35667   -35697   -35866   -36062   -35992   -35862   -35972   -36031 
  -35866   -35707   -35691   -35783   -35764   -35605   -35559   -35544 
  -35427   -35323   -35188   -35120   -35239   -35288   -35215   -35219 
  -35265   -35286   -35270   -35157   -35077   -35138   -35163   -35126 
  -35129   -35098   -35089   -35128   -34999   -34848   -34989   -35162 
  -35118   -35128   -35281   -35365   -35344   -35293   -35296   -35414 
  -35520   -35490   -35502   -35684   -35834   -35838   -35888   -36075 
  -36247   -36335   -36391   -36466   -36563   -36631   -36629   -36557 
  -36542   -36615   -36559   -36484   -36670   -36842   -36760   -36680 
  -36684   -36609   -36452   -36336   -36341   -36389   -36317   -36192 
  -36226   -36308   -36215   -36072   -36039   -36018   -35946   -35977 
  -36144   -36245   -36276   -36347   -36369   -36271   -36120   -36020 
  -36029   -36052   -35980   -35899   -35866   -35823   -35769   -35736 
  -35718   -35687   -35607   -35509   -35428   -35332   -35241   -35182 
  -35095   -34962   -34880   -34842   -34750   -34696   -34728   -34734 
  -34771   -34842   -34828   -34854   -34981   -35078   -35145   -35207 
  -35284   -35424   -35561   -35625   -35690   -35747   -35743   -35749 
  -35748   -35722   -35743   -35787   -35904   -36101   -36181   -36176 
  -36270   -36371   -36373   -36416   -36531   -36582   -36627   -36699 
  -36738   -36845   -36968   -36957   -36933   -36950   -36935   -36932 
  -36915   -36901   -37002   -37089   -37034   -37035   -37145   -37175 
  -37147   -37114   -37048   -37062   -37101   -37050   -37049   -37095 
  -37094   -37066   -36948   -36823   -36775   -36633   -36465   -36489 
  -36533   -36402   -36296   -36378   -36509   -36545   -36502   -36496 
  -36615   -36718   -36644   -36550   -36574   -36617   -36596   -36521 
  -36483   -36505   -36498   -36475   -36535   -36659   -36726   -36776 
  -36877   -36907   -36881   -36890   -36870   -36786   -36716   -36742 
  -36805   -36750   -36621   -36592   -36641   -36639   -36542   -36437 
  -36421   -36377   -36199   -36064   -36100   -36168   -36151   -36112 
  -36114   -36148   -36208   -36200   -36148   -36237   -36319   -36231 
  -36142   -36152   -36192   -36185   -36142   -36140   -36208   -36367 
  -36583   -36690   -36749   -36929   -37042   -36939   -36752   -36669 
  -36744   -36743   -36595   -36520   -36561   -36590   -36490   -36358 
  -36450   -36695   -36784   -36727   -36781   -36997   -37121   -37001 
  -36855   -36922   -37123   -37239   -37217   -37243   -37416   -37488 
  -37312   -37137   -37148   -37324   -37404   -37139   -36872   -36947 
  -37071   -36875   -36499   -36451   -36771   -36859   -36646   -36651 
  -36870   -36914   -36771   -36738   -36903   -37021   -36943   -36840 
  -36889   -36965   -36945   -36966   -36906   -36681   -36721   -36977 
  -36947   -36731   -36646   -36764   -36936   -36872   -36771   -36886 
  -36900   -36800   -36772   -36643   -36516   -36593   -36676   -36586 
  -36379   -36386   -36685   -36696   -36298   -36144   -36340   -36404 
  -36251   -36117   -36220   -36481   -36493   -36270   -36170   -36221 
  -36236   -36115   -35975   -36008   -36174   -36243   -36153   -36068 
  -36076   -36134   -36147   -36115   -36098   -36067   -36072   -36115 
  -36061   -35959   -36025   -36181   -36144   -36051   -36057   -36003 
  -35983   -35995   -35863   -35817   -35884   -35759   -35603   -35755 
  -35997   -35915   -35671   -35653   -35723   -35638   -35526   -35545 
  -35641   -35638   -35562   -35617   -35745   -35774   -35731   -35736 
  -35778   -35668   -35489   -35571   -35738   -35677   -35674   -35897 
  -35967   -35826   -35826   -36043   -36217   -36156   -36021   -36088 
  -36253   -36215   -36099   -36186   -36355   -36415   -36475   -36580 
  -36596   -36606   -36662   -36621   -36582   -36621   -36603   -36523 
  -36466   -36485   -36503   -36446   -36441   -36528   -36567   -36467 
  -36317   -36225   -36181   -36122   -35976   -35859   -35880   -35818 
  -35653   -35596   -35522   -35453   -35568   -35577   -35366   -35257 
  -35264   -35230   -35115   -34959   -34973   -35089   -35071   -35074 
  -35119   -35113   -35248   -35370   -35297   -35437   -35696   -35677 
  -35774   -36053   -36007   -35853   -35955   -36019   -35936   -35913 
  -35909   -35911   -35968   -35969   -35935   -36009   -36082   -36039 
  -36093   -36259   -36305   -36289   -36252   -36197   -36223   -36174 
  -36003   -35921   -35934   -35884   -35729   -35602   -35616   -35674 
  -35676   -35690   -35766   -35850   -35927   -36002   -36007   -36036 
  -36192   -36252   -36212   -36294   -36358   -36373   -36501   -36570 
  -36466   -36404   -36479   -36554   -36606   -36722   -36817   -36844 
  -36908   -37001   -37050   -37037   -37015   -37007   -36909   -36758 
  -36675   -36566   -36434   -36444   -36543   -36535   -36465   -36507 
  -36600   -36647   -36685   -36712   -36758   -36771   -36659   -36646 
  -36812   -36762   -36509   -36532   -36606   -36379   -36299   -36456 
  -36483   -36472   -36455   -36384   -36433   -36532   -36636   -36853 
  -36953   -36909   -37005   -37105   -37100   -37157   -37288   -37404 
  -37400   -37372   -37469   -37492   -37397   -37404   -37418   -37389 
  -37437   -37480   -37475   -37405   -37410   -37591   -37384   -37097 
  -37550   -37500   -36881   -37323   -37636   -37142   -37181   -37457 
  -37412   -37176   -37103   -37312   -37262   -37056   -37127   -37268 
  -37205   -37155   -37218   -37221   -37190   -37102   -37135   -37299 
  -37190   -37056   -37224   -37315   -37154   -37183   -37535   -37675 
  -37509   -37584   -37874   -37935   -37811   -37787   -37919   -37971 
  -37798   -37715   -37813   -37736   -37589   -37690   -37829   -37769 
  -37650   -37673   -37744   -37639   -37534   -37586   -37570   -37438 
  -37388   -37471   -37506   -37448   -37459   -37490   -37414   -37377 
  -37464   -37511   -37457   -37420   -37518   -37632   -37559   -37500 
  -37651   -37710   -37561   -37531   -37659   -37667   -37520   -37544 
  -37809   -37911   -37834   -37932   -38117   -38132   -38080   -38185 
  -38335   -38293   -38176   -38161   -38148   -38062   -37953   -37872 
  -37835   -37752   -37618   -37540   -37490   -37426   -37369   -37312 
  -37227   -37121   -37043   -37014   -37001   -37010   -37087   -37179 
  -37151   -37057   -37054   -37012   -36883   -36911   -36944   -36796 
  -36758   -36828   -36780   -36718   -36679   -36598   -36504   -36380 
  -36262   -36177   -36061   -35929   -35807   -35693   -35637   -35624 
  -35555   -35526   -35557   -35467   -35382   -35439   -35457   -35425 
  -35434   -35456   -35482   -35454   -35401   -35447   -35492   -35433 
  -35387   -35395   -35403   -35431   -35463   -35431   -35420   -35509 
  -35551   -35518   -35539   -35575   -35541   -35507   -35540   -35626 
  -35772   -35894   -35862   -35787   -35827   -35865   -35892   -36039 
  -36105   -36000   -36052   -36162   -36047   -36009   -36147   -36197 
  -36273   -36406   -36378   -36400   -36611   -36655   -36560   -36649 
  -36766   -36716   -36661   -36721   -36687   -36488   -36485   -36563 
  -36324   -36203   -36394   -36354   -36228   -36322   -36269   -36123 
  -36272   -36511   -36538   -36553   -36748   -36830   -36678   -36689 
  -36890   -36871   -36726   -36824   -36895   -36678   -36648   -36868 
  -36774   -36513   -36578   -36684   -36527   -36462   -36676   -36750 
  -36523   -36527   -36872   -36938   -36715   -36765   -36982   -36928 
  -36785   -36866   -36952   -36896   -36858   -36901   -36968   -36895 
  -36726   -36807   -36965   -36790   -36594   -36688   -36784   -36647 
  -36451   -36516   -36670   -36427   -36081   -36152   -36261   -36036 
  -35886   -36057   -36188   -36097   -36029   -36111   -36231   -36196 
  -36034   -36088   -36296   -36253   -36149   -36255   -36306   -36177 
  -36018   -35986   -36120   -36137   -36036   -36138   -36226   -36064 
  -35921   -35918   -35957   -35912   -35744   -35623   -35574   -35514 
  -35522   -35548   -35530   -35614   -35768   -35825   -35817   -35771 
  -35711   -35730   -35717   -35680   -35793   -35858   -35790   -35855 
  -36023   -36047   -35912   -35803   -35858   -35999   -36040   -35977 
  -35983   -36052   -36058   -36057   -36136   -36223   -36268   -36319 
  -36386   -36478   -36553   -36578   -36583   -36549   -36547   -36598 
  -36616   -36616   -36615   -36661   -36740   -36749   -36806   -36958 
  -37026   -37028   -37057   -37092   -37094   -36994   -36875   -36902 
  -36963   -36859   -36675   -36595   -36611   -36593   -36496   -36418 
  -36369   -36284   -36209   -36140   -36078   -36130   -36207   -36144 
  -36048   -36010   -35963   -35868   -35816   -35926   -35992   -35887 
  -35782   -35791   -35910   -35886   -35730   -35752   -35775   -35695 
  -35696   -35634   -35502   -35457   -35391   -35328   -35324   -35203 
  -35095   -35184   -35212   -35128   -35087   -35005   -34983   -35133 
  -35261   -35337   -35379   -35331   -35332   -35448   -35571   -35645 
  -35669   -35685   -35731   -35796   -35876   -35951   -36051   -36169 
  -36256   -36304   -36288   -36315   -36473   -36560   -36520   -36520 
  -36496   -36419   -36473   -36601   -36617   -36609   -36596   -36516 
  -36559   -36728   -36897   -37058   -37004   -36840   -36932   -37076 
  -37112   -37182   -37220   -37162   -37031   -36960   -37052   -37079 
  -36812   -36530   -36662   -36978   -36987   -36794   -36582   -36472 
  -36747   -36958   -36707   -36482   -36447   -36446   -36448   -36377 
  -36296   -36221   -36140   -36163   -36232   -36194   -36094   -36119 
  -36199   -36166   -36130   -36156   -36177   -36212   -36210   -36140 
  -36151   -36227   -36259   -36294   -36313   -36275   -36216   -36157 
  -36119   -36071   -35972   -35910   -35959   -36013   -35979   -35915 
  -35863   -35815   -35772   -35747   -35753   -35790   -35820   -35785 
  -35755   -35778   -35769   -35735   -35694   -35645   -35622   -35611 
  -35608   -35608   -35602   -35606   -35633   -35689   -35712   -35728 
  -35793   -35808   -35796   -35863   -35946   -36028   -36138   -36211 
  -36262   -36334   -36397   -36470   -36562   -36594   -36620   -36727 
  -36760   -36738   -36827   -36866   -36836   -36945   -37041   -36935 
  -36822   -36883   -37007   -37060   -37080   -37133   -37159   -37104 
  -37107   -37202   -37177   -37081   -37042   -37003   -37068   -37142 
  -37005   -36921   -37052   -37116   -36995   -36868   -36889   -36989 
  -37018   -37001   -36979   -36869   -36799   -36874   -36921   -36915 
  -36900   -36852   -36850   -36892   -36921   -36887   -36793   -36829 
  -36979   -36975   -36898   -36931   -36956   -36880   -36799   -36813 
  -36801   -36698   -36649   -36696   -36764   -36801   -36793   -36751 
  -36725   -36720   -36667   -36674   -36744   -36708   -36702   -36739 
  -36726   -36831   -36909   -36890   -36947   -36932   -36901   -36975 
  -36986   -36992   -37041   -37026   -37053   -37131   -37156   -37187 
  -37192   -37167   -37201   -37179   -37127   -37228   -37356   -37328 
  -37301   -37368   -37397   -37392   -37331   -37220   -37199   -37166 
  -37148   -37241   -37171   -36989   -36958   -36936   -36785   -36553 
  -36454   -36562   -36555   -36357   -36183   -36157   -36260   -36248 
  -36111   -36071   -36140   -36197   -36078   -35911   -35948   -36046 
  -36037   -35970   -35970   -36040   -36094   -36171   -36242   -36274 
  -36240   -36102   -36045   -36110   -36126   -36114   -36156   -36192 
  -36123   -35976   -35945   -36051   -36084   -35988   -35869   -35841 
  -35853   -35804   -35886   -36033   -35947   -35787   -35699   -35720 
  -35952   -36105   -35999   -35864   -35791   -35785   -35839   -35853 
  -35880   -35964   -35909   -35708   -35617   -35737   -35969   -36050 
  -35794   -35543   -35700   -35912   -35799   -35687   -35712   -35768 
  -35933   -36081   -36223   -36427   -36451   -36309   -36187   -36199 
  -36346   -36453   -36497   -36552   -36616   -36632   -36637   -36739 
