Origin Time       2011/03/11 14:46:00
Lat.              38.103
Long.             142.860
Depth. (km)       24
Mag.              9.0
Station Code      MIE004
Station Lat.      34.8568
Station Long.     136.4489
Station Height(m) 78
Record Time       2011/03/11 14:49:10
Sampling Freq(Hz) 100Hz
Duration Time(s)  265
Dir.              N-S
Scale Factor      3920(gal)/6182761
Max. Acc. (gal)   7.324
Last Correction   2011/03/11 14:48:55
Memo.             
[...]
  -11295   -11342   -11325   -11238   -11037   -10704   -10285    -9844 
   -9418    -8992    -8547    -8125    -7781    -7506    -7295    -7204 
   -7231    -7301    -7373    -7442    -7496    -7551    -7624    -7699 
   -7780    -7895    -8010    -8098    -8200    -8370    -8643    -8981 
   -9298    -9563    -9811   -10079   -10362   -10597   -10747   -10838 
  -10852   -10786   -10740   -10767   -10818   -10892   -11027   -11171 
  -11285   -11400   -11493   -11524   -11516   -11498   -11475   -11436 
  -11389   -11409   -11567   -11843   -12202   -12633   -13103   -13565 
  -13978   -14292   -14464   -14489   -14373   -14118   -13760   -13361 
  -12940   -12503   -12074   -11649   -11243   -10892   -10591   -10340 
  -10141    -9962    -9791    -9651    -9546    -9480    -9472    -9525 
   -9618    -9733    -9841    -9915    -9963    -9971    -9950    -9963 
   -9980    -9929    -9830    -9742    -9684    -9664    -9669    -9689 
   -9734    -9802    -9896    -9983    -9985    -9881    -9689    -9386 
   -8976    -8534    -8112    -7716    -7377    -7114    -6898    -6708 
   -6546    -6427    -6371    -6380    -6452    -6580    -6731    -6867 
   -6962    -7013    -7014    -6943    -6808    -6654    -6499    -6337 
   -6194    -6099    -6070    -6126    -6267    -6503    -6836    -7208 
   -7569    -7911    -8200    -8422    -8603    -8736    -8778    -8713 
   -8579    -8423    -8293    -8225    -8202    -8214    -8268    -8311 
   -8325    -8357    -8400    -8412    -8410    -8426    -8459    -8522 
   -8637    -8793    -9019    -9333    -9676    -9990   -10232   -10356 
  -10397   -10427   -10437   -10388   -10307   -10228   -10158   -10147 
  -10221   -10327   -10441   -10553   -10605   -10553   -10406   -10149 
   -9774    -9343    -8916    -8492    -8065    -7669    -7347    -7100 
   -6915    -6805    -6750    -6682    -6558    -6395    -6262    -6176 
   -6071    -5937    -5845    -5847    -5940    -6097    -6291    -6496 
   -6687    -6833    -6925    -6956    -6912    -6824    -6729    -6612 
   -6461    -6307    -6147    -5941    -5725    -5585    -5534    -5537 
   -5598    -5764    -6027    -6307    -6557    -6794    -7002    -7134 
   -7203    -7304    -7494    -7731    -7980    -8251    -8528    -8794 
   -9036    -9211    -9311    -9375    -9420    -9435    -9427    -9435 
   -9468    -9486    -9475    -9444    -9359    -9190    -8980    -8788 
   -8635    -8499    -8379    -8333    -8404    -8593    -8899    -9280 
   -9655    -9980   -10237   -10392   -10449   -10440   -10365   -10216 
  -10032    -9853    -9686    -9539    -9431    -9381    -9380    -9405 
   -9459    -9534    -9599    -9657    -9719    -9789    -9879    -9999 
  -10137   -10298   -10507   -10785   -11112   -11456   -11786   -12076 
  -12305   -12447   -12511   -12538   -12549   -12529   -12461   -12355 
  -12245   -12137   -12022   -11897   -11761   -11622   -11477   -11291 
  -11018   -10647   -10208    -9717    -9199    -8720    -8308    -7953 
   -7691    -7560    -7535    -7602    -7755    -7927    -8051    -8126 
   -8148    -8088    -7958    -7785    -7587    -7423    -7343    -7333 
   -7392    -7548    -7763    -8018    -8333    -8662    -8926    -9088 
   -9147    -9130    -9059    -8955    -8838    -8716    -8618    -8570 
   -8569    -8601    -8643    -8677    -8695    -8639    -8461    -8172 
   -7797    -7367    -6945    -6605    -6381    -6247    -6172    -6164 
   -6198    -6213    -6203    -6215    -6268    -6358    -6507    -6722 
   -6977    -7299    -7735    -8242    -8758    -9266    -9720   -10049 
  -10237   -10316   -10317   -10237   -10076    -9873    -9661    -9483 
   -9382    -9349    -9362    -9418    -9451    -9403    -9311    -9183 
   -8980    -8711    -8412    -8117    -7868    -7676    -7522    -7390 
   -7267    -7118    -6927    -6705    -6450    -6150    -5800    -5393 
   -4955    -4549    -4221    -4011    -3969    -4104    -4399    -4855 
   -5464    -6170    -6909    -7623    -8254    -8779    -9199    -9533 
   -9825   -10096   -10360   -10649   -10961   -11291   -11644   -11997 
  -12325   -12588   -12722   -12710   -12579   -12333   -12008   -11674 
  -11359   -11056   -10781   -10536   -10310   -10101    -9878    -9616 
   -9349    -9089    -8813    -8557    -8357    -8181    -8005    -7852 
   -7728    -7616    -7535    -7510    -7544    -7637    -7771    -7951 
   -8187    -8402    -8534    -8619    -8680    -8702    -8693    -8679 
   -8662    -8644    -8631    -8615    -8583    -8563    -8611    -8721 
   -8852    -9016    -9197    -9350    -9476    -9604    -9769    -9993 
  -10286   -10681   -11183   -11761   -12417   -13118   -13799   -14407 
  -14919   -15353   -15704   -15935   -16055   -16089   -16039   -15920 
  -15762   -15573   -15331   -15033   -14714   -14405   -14123   -13870 
  -13629   -13396   -13191   -13029   -12910   -12858   -12880   -12936 
  -12992   -13055   -13130   -13206   -13281   -13343   -13350   -13257 
  -13056   -12778   -12444   -12063   -11663   -11274   -10922   -10606 
  -10308   -10033    -9788    -9554    -9315    -9088    -8911    -8784 
   -8702    -8679    -8694    -8722    -8730    -8695    -8624    -8511 
   -8383    -8269    -8128    -7991    -7930    -7956    -8115    -8455 
   -8966    -9602   -10280   -10942   -11569   -12108   -12505   -12774 
  -12951   -13032   -12991   -12862   -12703   -12526   -12359   -12244 
  -12171   -12110   -12024   -11869   -11656   -11425   -11206   -11006 
  -10791   -10540   -10270   -10002    -9735    -9472    -9249    -9062 
   -8866    -8702    -8620    -8583    -8563    -8549    -8532    -8502 
   -8454    -8403    -8358    -8348    -8423    -8592    -8808    -9010 
   -9166    -9273    -9319    -9293    -9242    -9229    -9237    -9222 
   -9196    -9199    -9208    -9170    -9075    -8895    -8590    -8205 
   -7807    -7411    -7020    -6647    -6317    -6069    -5941    -5920 
   -5969    -6078    -6206    -6284    -6325    -6384    -6510    -6728 
   -6995    -7299    -7663    -8034    -8368    -8664    -8892    -9058 
   -9193    -9263    -9246    -9187    -9137    -9144    -9240    -9372 
   -9477    -9546    -9572    -9570    -9560    -9515    -9387    -9187 
   -8967    -8743    -8515    -8328    -8225    -8225    -8302    -8416 
   -8564    -8741    -8929    -9092    -9169    -9137    -9004    -8755 
   -8397    -8022    -7709    -7436    -7197    -7029    -6927    -6863 
   -6802    -6713    -6641    -6632    -6669    -6713    -6751    -6773 
   -6741    -6660    -6578    -6509    -6468    -6482    -6556    -6704 
   -6949    -7258    -7578    -7908    -8244    -8557    -8825    -9030 
   -9180    -9328    -9524    -9761   -10036   -10363   -10702   -10993 
  -11198   -11289   -11273   -11158   -10953   -10736   -10587   -10496 
  -10471   -10568   -10798   -11128   -11510   -11880   -12190   -12420 
  -12574   -12671   -12727   -12724   -12617   -12391   -12050   -11610 
  -11108   -10564    -9952    -9305    -8720    -8232    -7832    -7526 
   -7342    -7258    -7190    -7095    -6954    -6739    -6433    -6010 
   -5501    -4990    -4517    -4089    -3726    -3445    -3229    -3073 
   -3006    -3008    -3032    -3086    -3194    -3326    -3451    -3585 
   -3749    -3964    -4254    -4612    -5018    -5451    -5859    -6216 
   -6516    -6752    -6932    -7059    -7141    -7200    -7252    -7310 
   -7363    -7374    -7323    -7227    -7175    -7206    -7251    -7311 
   -7425    -7525    -7559    -7556    -7519    -7455    -7399    -7361 
   -7356    -7419    -7559    -7760    -8043    -8430    -8860    -9241 
   -9540    -9765    -9947   -10114   -10249   -10342   -10391   -10334 
  -10154    -9906    -9599    -9252    -8921    -8608    -8318    -8106 
   -7995    -7954    -7963    -8039    -8178    -8340    -8487    -8583 
   -8628    -8646    -8615    -8537    -8449    -8353    -8259    -8198 
   -8152    -8068    -7886    -7599    -7242    -6866    -6558    -6379 
   -6316    -6353    -6503    -6753    -7043    -7317    -7546    -7708 
   -7776    -7757    -7690    -7599    -7465    -7278    -7081    -6947 
   -6910    -6953    -7077    -7274    -7503    -7756    -8057    -8373 
   -8640    -8850    -9004    -9096    -9108    -9020    -8898    -8792 
   -8671    -8556    -8511    -8530    -8569    -8617    -8710    -8851 
   -8988    -9111    -9267    -9471    -9726   -10025   -10335   -10628 
  -10875   -11078   -11262   -11432   -11609   -11810   -11999   -12161 
  -12312   -12458   -12604   -12772   -12995   -13272   -13596   -13958 
  -14303   -14585   -14837   -15100   -15380   -15671   -15958   -16232 
  -16519   -16832   -17107   -17315   -17514   -17687   -17741   -17708 
  -17656   -17562   -17405   -17224   -17049   -16890   -16776   -16725 
  -16734   -16774   -16812   -16839   -16837   -16793   -16693   -16495 
  -16238   -16002   -15773   -15560   -15431   -15370   -15350   -15424 
  -15627   -15901   -16191   -16517   -16850   -17121   -17332   -17453 
  -17374   -17137   -16864   -16457   -15937   -15488   -15013   -14435 
  -13903   -13377   -12762   -12192   -11714   -11230   -10819   -10551 
  -10350   -10227   -10219   -10249   -10272   -10326   -10418   -10464 
  -10404   -10326   -10243   -10056    -9894    -9817    -9642    -9422 
   -9317    -9300    -9346    -9478    -9696    -9957   -10192   -10355 
  -10413   -10345   -10146    -9878    -9621    -9353    -9109    -8992 
   -8952    -8927    -8928    -8992    -9150    -9260    -9179    -8965 
   -8682    -8361    -8029    -7709    -7474    -7308    -7154    -7127 
   -7310    -7558    -7776    -8058    -8431    -8728    -8880    -8993 
   -9067    -9039    -8974    -8993    -9117    -9215    -9215    -9192 
   -9196    -9209    -9203    -9185    -9167    -9043    -8742    -8416 
   -8195    -8011    -7817    -7675    -7648    -7724    -7842    -7990 
   -8188    -8396    -8573    -8755    -8939    -9059    -9132    -9250 
   -9450    -9721   -10062   -10445   -10818   -11139   -11357   -11411 
  -11292   -11032   -10644   -10159    -9644    -9164    -8788    -8592 
   -8603    -8842    -9301    -9880   -10482   -11088   -11674   -12180 
  -12567   -12850   -13052   -13167   -13191   -13145   -13059   -12973 
  -12891   -12793   -12722   -12709   -12698   -12640   -12553   -12473 
  -12394   -12258   -12043   -11805   -11592   -11389   -11161   -10890 
  -10585   -10248    -9853    -9398    -8947    -8575    -8253    -7919 
   -7654    -7538    -7519    -7538    -7591    -7700    -7874    -8041 
   -8143    -8222    -8314    -8362    -8327    -8221    -8048    -7750 
   -7257    -6635    -6016    -5446    -4968    -4615    -4385    -4306 
   -4357    -4468    -4627    -4821    -5024    -5215    -5331    -5350 
   -5309    -5218    -5078    -4919    -4787    -4721    -4732    -4786 
   -4893    -5096    -5363    -5619    -5788    -5874    -5955    -5953 
   -5799    -5635    -5499    -5320    -5131    -4920    -4670    -4478 
   -4360    -4257    -4187    -4207    -4318    -4469    -4629    -4790 
   -4962    -5167    -5365    -5554    -5837    -6219    -6594    -6912 
   -7211    -7562    -7922    -8174    -8295    -8278    -8176    -8136 
   -8160    -8193    -8280    -8396    -8478    -8513    -8521    -8553 
   -8616    -8672    -8726    -8791    -8905    -9076    -9248    -9455 
   -9778   -10139   -10380   -10462   -10512   -10687   -10993   -11339 
  -11673   -11946   -12114   -12246   -12448   -12723   -13005   -13232 
  -13402   -13590   -13858   -14180   -14503   -14802   -15024   -15123 
  -15134   -15119   -15118   -15168   -15251   -15257   -15092   -14738 
  -14235   -13743   -13415   -13182   -12890   -12524   -12195   -12079 
  -12313   -12799   -13284   -13613   -13759   -13820   -13969   -14241 
  -14549   -14865   -15173   -15396   -15438   -15223   -14826   -14481 
  -14355   -14378   -14326   -14114   -13896   -13863   -14098   -14491 
  -14672   -14340   -13622   -12864   -12337   -12113   -11947   -11536 
  -10902   -10305    -9886    -9577    -9289    -9001    -8818    -8969 
   -9433    -9877   -10119   -10230   -10300   -10425   -10649   -10851 
  -10950   -11042   -11256   -11647   -12073   -12215   -11965   -11543 
  -11175   -10922   -10714   -10419   -10004    -9632    -9495    -9566 
   -9628    -9475    -9086    -8661    -8436    -8446    -8520    -8496 
   -8411    -8443    -8724    -9207    -9707   -10069   -10293   -10521 
  -10895   -11396   -11879   -12217   -12385   -12442   -12417   -12290 
  -12075   -11753   -11262   -10696   -10257   -10040   -10007   -10030 
   -9990    -9898    -9826    -9846   -10026   -10399   -10905   -11437 
  -11942   -12384   -12678   -12788   -12747   -12541   -12210   -11897 
  -11704   -11651   -11694   -11742   -11765   -11794   -11823   -11808 
  -11738   -11654   -11638   -11767   -12076   -12522   -12962   -13277 
  -13541   -13892   -14351   -14859   -15340   -15714   -15947   -16069 
  -16098   -16024   -15868   -15626   -15257   -14811   -14358   -13886 
  -13424   -13107   -13019   -13125   -13364   -13658   -13876   -13942 
  -13840   -13542   -13075   -12558   -12104   -11805   -11697   -11728 
  -11825   -11941   -12039   -12048   -11878   -11527   -11052   -10530 
  -10090    -9822    -9698    -9611    -9432    -9111    -8680    -8160 
   -7619    -7192    -6934    -6803    -6758    -6769    -6804    -6854 
   -6897    -6882    -6806    -6680    -6483    -6184    -5812    -5464 
   -5182    -4886    -4469    -3857    -3064    -2203    -1356     -599 
     -42      307      565      791      956     1029      979      834 
     705      656      706      889     1156     1378     1481     1442 
    1287     1138     1097     1090      956      630      144     -391 
    -818    -1088    -1278    -1481    -1768    -2152    -2579    -3011 
   -3460    -3936    -4405    -4810    -5140    -5422    -5705    -6021 
   -6302    -6466    -6539    -6575    -6629    -6747    -6876    -6945 
   -6992    -7106    -7293    -7475    -7597    -7659    -7706    -7812 
   -7998    -8189    -8350    -8599    -9033    -9643   -10408   -11240 
  -11964   -12488   -12830   -13018   -13087   -13089   -13058   -12966 
  -12819   -12737   -12803   -12977   -13189   -13374   -13469   -13442 
  -13283   -12972   -12476   -11824   -11135   -10518   -10023    -9628 
   -9291    -9023    -8820    -8627    -8399    -8151    -7980    -7950 
   -8006    -8037    -7965    -7787    -7590    -7532    -7738    -8212 
   -8848    -9525   -10189   -10877   -11629   -12384   -13044   -13585 
  -14012   -14322   -14531   -14663   -14737   -14793   -14918   -15166 
  -15473   -15744   -15908   -15939   -15914   -15934   -16001   -16034 
  -15964   -15788   -15569   -15383   -15245   -15167   -15181   -15247 
  -15261   -15168   -14987   -14713   -14368   -14100   -14050   -14176 
  -14317   -14358   -14278   -14105   -13907   -13777   -13762   -13824 
  -13896   -13946   -13929   -13822   -13683   -13572   -13496   -13447 
  -13447   -13514   -13618   -13726   -13828   -13894   -13894   -13822 
  -13664   -13445   -13245   -13080   -12901   -12731   -12641   -12654 
  -12804   -13110   -13489   -13794   -13879   -13689   -13309   -12861 
  -12423   -12053   -11803   -11714   -11798   -11996   -12184   -12229 
  -12073   -11785   -11483   -11273   -11248   -11392   -11600   -11763 
  -11770   -11548   -11115   -10566   -10062    -9750    -9654    -9673 
   -9642    -9475    -9195    -8827    -8364    -7820    -7237    -6634 
   -6031    -5489    -5035    -4667    -4395    -4207    -4073    -3941 
   -3746    -3472    -3128    -2717    -2331    -2092    -1985    -1930 
   -1893    -1822    -1678    -1503    -1378    -1356    -1461    -1670 
   -1901    -2043    -2003    -1764    -1444    -1231    -1224    -1436 
   -1843    -2349    -2869    -3417    -3947    -4335    -4508    -4464 
   -4281    -4078    -3884    -3682    -3510    -3379    -3247    -3092 
   -2968    -2966    -3095    -3301    -3537    -3702    -3703    -3552 
   -3342    -3210    -3221    -3306    -3355    -3303    -3212    -3224 
   -3373    -3564    -3664    -3612    -3434    -3220    -3089    -3118 
   -3292    -3541    -3822    -4126    -4447    -4748    -4989    -5178 
   -5395    -5684    -5986    -6257    -6512    -6771    -7103    -7574 
   -8128    -8642    -9069    -9419    -9702    -9931   -10084   -10137 
  -10128   -10130   -10186   -10294   -10399   -10430   -10407   -10407 
  -10454   -10575   -10822   -11166   -11540   -11924   -12257   -12453 
  -12505   -12463   -12401   -12415   -12553   -12792   -13095   -13440 
  -13847   -14356   -14956   -15606   -16308   -17063   -17821   -18523 
  -19126   -19580   -19826   -19877   -19846   -19820   -19783   -19704 
  -19568   -19382   -19199   -19031   -18840   -18607   -18291   -17829 
  -17228   -16557   -15880   -15224   -14614   -14069   -13558   -13092 
  -12730   -12480   -12323   -12278   -12353   -12508   -12684   -12829 
  -12921   -13006   -13149   -13381   -13682   -13997   -14306   -14629 
  -14979   -15328   -15598   -15740   -15763   -15690   -15580   -15529 
  -15589   -15743   -15944   -16182   -16500   -16924   -17441   -18014 
  -18569   -19039   -19442   -19792   -20046   -20191   -20247   -20243 
  -20245   -20288   -20391   -20569   -20742   -20807   -20773   -20668 
  -20472   -20169   -19765   -19311   -18887   -18558   -18378   -18359 
  -18431   -18503   -18495   -18342   -18058   -17737   -17455   -17211 
  -16948   -16620   -16219   -15772   -15333   -14964   -14714   -14587 
  -14512   -14412   -14293   -14217   -14213   -14250   -14287   -14284 
  -14208   -14049   -13815   -13580   -13443   -13402   -13412   -13472 
  -13561   -13655   -13768   -13882   -13951   -13952   -13899   -13789 
  -13631   -13487   -13389   -13354   -13445   -13635   -13787   -13842 
  -13843   -13844   -13894   -13999   -14098   -14121   -14072   -14035 
  -14045   -14058   -14097   -14207   -14359   -14535   -14745   -14954 
  -15109   -15166   -15101   -14951   -14775   -14616   -14503   -14465 
  -14531   -14718   -14978   -15186   -15235   -15127   -14923   -14650 
  -14307   -13878   -13369   -12816   -12304   -11933   -11739   -11687 
  -11711   -11780   -11908   -12057   -12143   -12130   -12012   -11787 
  -11483   -11170   -10979   -11006   -11230   -11610   -12115   -12660 
  -13136   -13435   -13495   -13338   -12999   -12489   -11850   -11179 
  -10586   -10147    -9885    -9746    -9645    -9545    -9454    -9379 
   -9304    -9181    -8937    -8568    -8112    -7558    -6946    -6383 
   -5951    -5727    -5723    -5871    -6138    -6495    -6830    -7048 
   -7124    -7061    -6869    -6602    -6338    -6135    -6035    -6035 
   -6076    -6110    -6108    -6041    -5894    -5624    -5238    -4854 
   -4572    -4421    -4416    -4541    -4767    -5084    -5460    -5819 
   -6115    -6367    -6561    -6609    -6477    -6215    -5887    -5552 
   -5267    -5070    -4966    -4922    -4909    -4925    -4954    -4958 
   -4896    -4703    -4330    -3817    -3256    -2706    -2217    -1873 
   -1718    -1720    -1850    -2087    -2374    -2639    -2837    -2958 
   -3035    -3113    -3222    -3368    -3532    -3717    -3945    -4153 
   -4291    -4393    -4505    -4671    -4900    -5130    -5311    -5429 
   -5457    -5389    -5275    -5184    -5161    -5254    -5512    -5885 
   -6279    -6672    -7050    -7384    -7695    -7967    -8162    -8331 
   -8515    -8688    -8888    -9185    -9560    -9950   -10325   -10673 
