Origin Time       2011/03/11 14:46:00
Lat.              38.103
Long.             142.860
Depth. (km)       24
Mag.              9.0
Station Code      MIE004
Station Lat.      34.8568
Station Long.     136.4489
Station Height(m) 78
Record Time       2011/03/11 14:49:10
Sampling Freq(Hz) 100Hz
Duration Time(s)  265
Dir.              U-D
Scale Factor      3920(gal)/6182761
Max. Acc. (gal)   3.011
Last Correction   2011/03/11 14:48:55
Memo.             
[...]
   -4425    -4302    -4111    -3883    -3626    -3328    -3005    -2737 
   -2606    -2596    -2639    -2686    -2726    -2770    -2830    -2920 
   -3076    -3307    -3571    -3849    -4158    -4488    -4796    -5047 
   -5216    -5295    -5305    -5283    -5248    -5190    -5078    -4907 
   -4715    -4517    -4305    -4105    -3971    -3921    -3933    -3975 
   -4031    -4092    -4154    -4227    -4316    -4427    -4562    -4710 
   -4842    -4931    -4985    -5009    -4981    -4938    -4935    -4996 
   -5137    -5314    -5468    -5597    -5714    -5811    -5883    -5913 
   -5867    -5758    -5654    -5586    -5549    -5552    -5576    -5574 
   -5524    -5437    -5339    -5234    -5132    -5030    -4886    -4669 
   -4391    -4061    -3684    -3288    -2892    -2498    -2104    -1729 
   -1421    -1179     -968     -816     -743     -773     -972    -1321 
   -1712    -2076    -2380    -2582    -2671    -2695    -2720    -2762 
   -2802    -2802    -2725    -2592    -2444    -2311    -2256    -2322 
   -2451    -2551    -2598    -2605    -2578    -2516    -2408    -2247 
   -2075    -1951    -1873    -1800    -1713    -1578    -1355    -1089 
    -866     -716     -630     -582     -541     -519     -548     -642 
    -795     -989    -1220    -1499    -1809    -2129    -2456    -2775 
   -3050    -3254    -3392    -3485    -3549    -3598    -3651    -3729 
   -3831    -3943    -4045    -4117    -4146    -4152    -4182    -4277 
   -4443    -4640    -4818    -4943    -5009    -5033    -5050    -5079 
   -5091    -5051    -4988    -4957    -4974    -5016    -5046    -5057 
   -5082    -5126    -5182    -5231    -5232    -5202    -5182    -5164 
   -5153    -5161    -5160    -5126    -5080    -5067    -5089    -5103 
   -5086    -5037    -4970    -4894    -4822    -4774    -4751    -4712 
   -4601    -4396    -4150    -3911    -3687    -3477    -3262    -3039 
   -2842    -2698    -2635    -2650    -2699    -2773    -2856    -2903 
   -2936    -3011    -3168    -3406    -3666    -3885    -4013    -4047 
   -4064    -4113    -4175    -4236    -4284    -4293    -4248    -4161 
   -4081    -4038    -4036    -4088    -4171    -4233    -4314    -4481 
   -4703    -4935    -5191    -5480    -5786    -6072    -6297    -6431 
   -6468    -6452    -6447    -6463    -6462    -6384    -6198    -5950 
   -5728    -5588    -5543    -5570    -5604    -5584    -5528    -5491 
   -5491    -5493    -5455    -5362    -5224    -5086    -4974    -4877 
   -4799    -4745    -4707    -4710    -4763    -4830    -4871    -4877 
   -4896    -4990    -5162    -5342    -5461    -5504    -5489    -5427 
   -5299    -5096    -4872    -4679    -4523    -4423    -4409    -4498 
   -4683    -4928    -5188    -5427    -5613    -5745    -5855    -5990 
   -6153    -6296    -6369    -6393    -6434    -6506    -6557    -6559 
   -6504    -6383    -6211    -6025    -5842    -5662    -5496    -5336 
   -5136    -4887    -4640    -4434    -4230    -3936    -3497    -2980 
   -2518    -2194    -2009    -1936    -1954    -2038    -2157    -2322 
   -2558    -2833    -3093    -3334    -3587    -3841    -4042    -4154 
   -4165    -4069    -3932    -3856    -3822    -3765    -3723    -3744 
   -3812    -3932    -4107    -4306    -4527    -4760    -4935    -5041 
   -5160    -5308    -5424    -5490    -5518    -5462    -5294    -5072 
   -4861    -4692    -4573    -4464    -4351    -4278    -4271    -4297 
   -4287    -4183    -3981    -3734    -3523    -3415    -3417    -3480 
   -3540    -3616    -3770    -3987    -4205    -4394    -4523    -4567 
   -4555    -4530    -4483    -4376    -4215    -4044    -3892    -3756 
   -3612    -3466    -3343    -3223    -3095    -3026    -3075    -3226 
   -3402    -3527    -3594    -3638    -3674    -3726    -3794    -3843 
   -3886    -3947    -4012    -4063    -4087    -4096    -4134    -4194 
   -4235    -4269    -4343    -4464    -4601    -4720    -4802    -4829 
   -4791    -4707    -4602    -4464    -4260    -4003    -3745    -3519 
   -3321    -3134    -2952    -2798    -2685    -2615    -2620    -2726 
   -2915    -3168    -3449    -3707    -3924    -4104    -4254    -4384 
   -4476    -4486    -4391    -4210    -3964    -3654    -3305    -2954 
   -2663    -2468    -2327    -2179    -2024    -1922    -1919    -1976 
   -2017    -2009    -1965    -1919    -1853    -1693    -1418    -1080 
    -724     -369      -31      258      460      539      491      367 
     208       17     -194     -422     -688     -975    -1254    -1539 
   -1834    -2090    -2284    -2446    -2554    -2559    -2499    -2462 
   -2488    -2550    -2607    -2620    -2591    -2574    -2615    -2703 
   -2806    -2937    -3155    -3461    -3787    -4075    -4284    -4418 
   -4549    -4693    -4832    -4989    -5175    -5363    -5541    -5704 
   -5840    -5956    -6065    -6184    -6313    -6420    -6453    -6409 
   -6360    -6353    -6366    -6366    -6327    -6255    -6171    -6095 
   -6042    -5991    -5912    -5784    -5585    -5352    -5163    -5037 
   -4956    -4922    -4930    -4957    -4992    -5022    -5039    -5091 
   -5235    -5450    -5663    -5810    -5883    -5941    -6024    -6098 
   -6127    -6117    -6108    -6109    -6082    -6020    -5966    -5959 
   -6027    -6150    -6259    -6331    -6402    -6514    -6681    -6855 
   -6956    -6969    -6942    -6891    -6826    -6787    -6759    -6698 
   -6605    -6493    -6378    -6246    -6056    -5844    -5676    -5575 
   -5545    -5539    -5514    -5477    -5423    -5359    -5334    -5350 
   -5360    -5340    -5287    -5220    -5169    -5146    -5174    -5284 
   -5448    -5588    -5670    -5705    -5711    -5690    -5646    -5589 
   -5501    -5395    -5333    -5350    -5446    -5599    -5759    -5903 
   -6043    -6195    -6356    -6502    -6611    -6708    -6813    -6896 
   -6926    -6886    -6753    -6538    -6277    -6003    -5727    -5462 
   -5241    -5078    -4955    -4857    -4757    -4630    -4493    -4384 
   -4301    -4235    -4203    -4200    -4193    -4182    -4151    -4054 
   -3862    -3579    -3262    -2986    -2749    -2502    -2244    -2013 
   -1849    -1786    -1832    -1958    -2109    -2236    -2328    -2397 
   -2452    -2526    -2624    -2692    -2723    -2728    -2729    -2777 
   -2841    -2831    -2739    -2606    -2464    -2333    -2216    -2142 
   -2156    -2259    -2397    -2519    -2629    -2728    -2794    -2847 
   -2932    -3041    -3135    -3159    -3096    -3003    -2916    -2827 
   -2754    -2727    -2738    -2769    -2809    -2841    -2851    -2864 
   -2912    -2964    -2960    -2908    -2862    -2856    -2918    -3049 
   -3202    -3329    -3425    -3508    -3561    -3561    -3540    -3519 
   -3475    -3402    -3302    -3155    -2958    -2737    -2547    -2447 
   -2444    -2493    -2529    -2523    -2470    -2370    -2271    -2221 
   -2208    -2204    -2180    -2133    -2071    -1999    -1966    -2004 
   -2098    -2256    -2451    -2609    -2703    -2755    -2802    -2862 
   -2906    -2905    -2861    -2771    -2640    -2527    -2505    -2565 
   -2657    -2763    -2878    -2955    -2948    -2885    -2830    -2782 
   -2693    -2549    -2409    -2327    -2284    -2294    -2416    -2614 
   -2822    -3024    -3242    -3480    -3666    -3764    -3827    -3882 
   -3929    -3980    -4031    -4071    -4100    -4098    -4039    -3924 
   -3781    -3613    -3397    -3139    -2860    -2569    -2289    -2018 
   -1760    -1560    -1370    -1168    -1023     -922     -901    -1017 
   -1195    -1427    -1742    -2078    -2407    -2750    -3070    -3296 
   -3390    -3376    -3323    -3256    -3160    -3063    -2997    -2949 
   -2920    -2922    -2924    -2880    -2784    -2701    -2700    -2756 
   -2820    -2878    -2899    -2846    -2761    -2726    -2727    -2673 
   -2540    -2381    -2257    -2181    -2132    -2126    -2184    -2292 
   -2484    -2804    -3179    -3487    -3700    -3846    -3945    -4007 
   -4043    -4026    -3921    -3760    -3626    -3581    -3615    -3696 
   -3818    -3979    -4182    -4440    -4755    -5075    -5318    -5470 
   -5590    -5713    -5834    -5954    -6060    -6102    -6048    -5944 
   -5856    -5748    -5555    -5319    -5127    -4982    -4875    -4830 
   -4799    -4725    -4645    -4578    -4461    -4271    -4039    -3796 
   -3566    -3350    -3145    -2948    -2746    -2551    -2377    -2195 
   -1947    -1642    -1405    -1297    -1266    -1319    -1480    -1647 
   -1736    -1790    -1845    -1890    -1905    -1876    -1825    -1751 
   -1609    -1426    -1308    -1289    -1303    -1313    -1348    -1447 
   -1639    -1931    -2279    -2608    -2875    -3091    -3285    -3472 
   -3651    -3784    -3860    -3948    -4109    -4340    -4604    -4865 
   -5097    -5291    -5468    -5668    -5885    -6031    -6040    -5960 
   -5866    -5792    -5748    -5715    -5688    -5690    -5682    -5605 
   -5467    -5310    -5183    -5094    -4989    -4879    -4843    -4889 
   -4947    -4972    -4972    -4981    -5040    -5135    -5214    -5280 
   -5344    -5379    -5409    -5490    -5598    -5667    -5657    -5603 
   -5593    -5658    -5755    -5870    -6004    -6115    -6152    -6100 
   -6000    -5909    -5841    -5774    -5702    -5661    -5695    -5777 
   -5833    -5867    -5957    -6117    -6269    -6356    -6402    -6433 
   -6424    -6384    -6351    -6307    -6189    -5999    -5800    -5623 
   -5458    -5365    -5402    -5524    -5659    -5739    -5717    -5611 
   -5485    -5407    -5422    -5500    -5551    -5546    -5533    -5545 
   -5588    -5663    -5730    -5771    -5798    -5814    -5823    -5809 
   -5759    -5722    -5713    -5699    -5682    -5658    -5595    -5499 
   -5424    -5417    -5495    -5639    -5808    -5976    -6159    -6366 
   -6565    -6733    -6883    -7014    -7078    -7048    -6931    -6740 
   -6501    -6237    -5976    -5750    -5521    -5207    -4784    -4312 
   -3893    -3629    -3546    -3588    -3689    -3811    -3922    -4007 
   -4060    -4055    -3973    -3851    -3757    -3738    -3793    -3877 
   -3956    -4024    -4082    -4151    -4252    -4372    -4479    -4567 
   -4656    -4781    -4944    -5087    -5162    -5158    -5099    -5027 
   -4964    -4896    -4822    -4787    -4836    -4942    -5059    -5173 
   -5251    -5241    -5151    -5040    -4909    -4732    -4530    -4345 
   -4185    -4043    -3924    -3816    -3707    -3623    -3560    -3485 
   -3414    -3350    -3253    -3118    -3002    -2928    -2844    -2695 
   -2488    -2271    -2090    -1972    -1923    -1915    -1921    -1942 
   -1977    -2031    -2112    -2211    -2292    -2314    -2270    -2200 
   -2154    -2153    -2183    -2218    -2232    -2203    -2144    -2076 
   -1974    -1808    -1602    -1431    -1340    -1320    -1366    -1458 
   -1548    -1650    -1792    -1960    -2149    -2337    -2465    -2545 
   -2657    -2815    -3003    -3219    -3437    -3628    -3763    -3832 
   -3864    -3848    -3735    -3524    -3245    -2908    -2502    -2035 
   -1561    -1146     -833     -653     -615     -688     -815     -929 
   -1002    -1064    -1149    -1265    -1378    -1453    -1512    -1578 
   -1635    -1662    -1658    -1646    -1647    -1634    -1586    -1525 
   -1456    -1400    -1424    -1546    -1730    -1961    -2240    -2523 
   -2788    -3070    -3378    -3654    -3831    -3931    -4039    -4156 
   -4213    -4192    -4141    -4089    -4027    -3938    -3785    -3544 
   -3295    -3118    -2987    -2895    -2867    -2872    -2874    -2871 
   -2903    -3011    -3148    -3233    -3260    -3292    -3370    -3460 
   -3505    -3484    -3399    -3282    -3162    -3045    -2944    -2853 
   -2751    -2639    -2561    -2544    -2557    -2593    -2663    -2747 
   -2837    -2925    -2988    -3030    -3080    -3168    -3288    -3390 
   -3430    -3406    -3368    -3377    -3430    -3526    -3664    -3773 
   -3801    -3755    -3641    -3478    -3322    -3217    -3159    -3146 
   -3172    -3200    -3227    -3289    -3385    -3495    -3583    -3613 
   -3575    -3487    -3372    -3257    -3170    -3115    -3048    -2916 
   -2714    -2488    -2299    -2163    -2055    -1983    -1985    -2071 
   -2203    -2336    -2465    -2633    -2853    -3073    -3258    -3436 
   -3651    -3889    -4083    -4233    -4403    -4595    -4759    -4883 
   -4984    -5049    -5047    -4965    -4848    -4775    -4746    -4706 
   -4682    -4714    -4749    -4723    -4611    -4395    -4099    -3775 
   -3470    -3215    -2998    -2804    -2663    -2580    -2529    -2498 
   -2482    -2469    -2448    -2418    -2379    -2327    -2280    -2265 
   -2288    -2340    -2422    -2534    -2659    -2825    -3090    -3431 
   -3738    -3978    -4259    -4638    -5020    -5321    -5564    -5786 
   -5999    -6177    -6270    -6260    -6184    -6091    -6007    -5941 
   -5887    -5795    -5609    -5377    -5202    -5088    -4974    -4865 
   -4796    -4740    -4662    -4582    -4530    -4492    -4461    -4466 
   -4508    -4544    -4544    -4503    -4440    -4404    -4392    -4371 
   -4348    -4326    -4278    -4197    -4122    -4091    -4103    -4156 
   -4256    -4383    -4504    -4612    -4743    -4913    -5089    -5255 
   -5442    -5642    -5787    -5844    -5861    -5871    -5863    -5856 
   -5899    -6013    -6147    -6258    -6408    -6641    -6884    -7067 
   -7220    -7390    -7584    -7800    -8000    -8124    -8177    -8187 
   -8158    -8132    -8148    -8188    -8252    -8340    -8366    -8333 
   -8353    -8420    -8473    -8513    -8526    -8506    -8489    -8483 
   -8490    -8537    -8609    -8673    -8710    -8690    -8592    -8431 
   -8235    -8040    -7894    -7813    -7740    -7616    -7465    -7329 
   -7183    -7010    -6860    -6776    -6727    -6646    -6497    -6301 
   -6096    -5911    -5768    -5651    -5522    -5342    -5107    -4861 
   -4661    -4541    -4515    -4501    -4408    -4262    -4107    -3925 
   -3734    -3591    -3508    -3445    -3390    -3396    -3480    -3582 
   -3687    -3822    -3962    -4072    -4139    -4125    -4026    -3933 
   -3928    -3991    -4064    -4132    -4186    -4207    -4209    -4236 
   -4310    -4377    -4349    -4204    -3987    -3786    -3653    -3492 
   -3217    -2919    -2670    -2454    -2261    -2080    -1918    -1788 
   -1672    -1549    -1427    -1339    -1299    -1285    -1267    -1218 
   -1136    -1052     -999    -1008    -1075    -1153    -1204    -1221 
   -1228    -1249    -1304    -1367    -1362    -1288    -1181    -1030 
    -866     -756     -732     -793     -868     -932    -1042    -1197 
   -1379    -1592    -1780    -1905    -2023    -2193    -2413    -2652 
   -2850    -2937    -2920    -2880    -2830    -2738    -2627    -2509 
   -2384    -2299    -2265    -2254    -2276    -2346    -2476    -2688 
   -2970    -3304    -3626    -3828    -3920    -3995    -4057    -4065 
   -4050    -4039    -3993    -3876    -3727    -3582    -3421    -3267 
   -3178    -3145    -3131    -3104    -3050    -3029    -3087    -3205 
   -3351    -3485    -3600    -3706    -3796    -3915    -4059    -4163 
   -4253    -4356    -4418    -4409    -4337    -4210    -4023    -3756 
   -3443    -3157    -2926    -2751    -2657    -2666    -2781    -2956 
   -3115    -3266    -3446    -3593    -3665    -3681    -3636    -3517 
   -3349    -3193    -3087    -3006    -2933    -2868    -2804    -2792 
   -2874    -2977    -3049    -3154    -3339    -3537    -3656    -3712 
   -3793    -3898    -3974    -4037    -4101    -4131    -4121    -4084 
   -4012    -3928    -3909    -3961    -3986    -3938    -3887    -3874 
   -3835    -3732    -3648    -3642    -3659    -3632    -3581    -3573 
   -3592    -3596    -3623    -3681    -3698    -3639    -3510    -3322 
   -3121    -2941    -2763    -2571    -2363    -2134    -1885    -1641 
   -1453    -1335    -1241    -1167    -1155    -1233    -1392    -1581 
   -1792    -2023    -2229    -2428    -2650    -2810    -2866    -2922 
   -3039    -3160    -3257    -3357    -3476    -3578    -3591    -3516 
   -3425    -3356    -3276    -3118    -2910    -2772    -2693    -2573 
   -2425    -2309    -2237    -2217    -2274    -2429    -2691    -3031 
   -3404    -3782    -4131    -4420    -4621    -4703    -4687    -4663 
   -4662    -4642    -4602    -4588    -4605    -4635    -4640    -4602 
   -4545    -4500    -4493    -4522    -4580    -4672    -4743    -4789 
   -4920    -5131    -5298    -5398    -5484    -5568    -5621    -5603 
   -5530    -5438    -5306    -5120    -4932    -4778    -4652    -4529 
   -4419    -4397    -4499    -4665    -4845    -5029    -5235    -5489 
   -5775    -6057    -6291    -6459    -6595    -6703    -6745    -6752 
   -6767    -6722    -6604    -6532    -6511    -6458    -6403    -6349 
   -6232    -6104    -6067    -6021    -5834    -5622    -5535    -5517 
   -5492    -5446    -5352    -5268    -5279    -5326    -5322    -5292 
   -5273    -5271    -5291    -5332    -5341    -5224    -4980    -4714 
   -4464    -4217    -4002    -3837    -3698    -3600    -3563    -3529 
   -3421    -3247    -3053    -2867    -2745    -2711    -2678    -2580 
   -2493    -2495    -2544    -2555    -2526    -2534    -2610    -2730 
   -2873    -3004    -3098    -3197    -3296    -3332    -3310    -3260 
   -3208    -3185    -3201    -3258    -3331    -3380    -3421    -3466 
   -3490    -3495    -3511    -3558    -3627    -3684    -3729    -3784 
   -3829    -3853    -3871    -3874    -3849    -3800    -3739    -3676 
   -3590    -3462    -3343    -3283    -3279    -3294    -3284    -3243 
   -3218    -3228    -3241    -3237    -3200    -3096    -2947    -2822 
   -2768    -2786    -2840    -2908    -3011    -3168    -3369    -3596 
   -3816    -4002    -4167    -4336    -4504    -4626    -4693    -4748 
   -4804    -4857    -4913    -4974    -5056    -5189    -5357    -5514 
   -5660    -5830    -6007    -6123    -6134    -6064    -5975    -5891 
   -5816    -5745    -5684    -5654    -5641    -5609    -5580    -5596 
   -5656    -5755    -5853    -5875    -5801    -5675    -5562    -5508 
   -5499    -5507    -5522    -5506    -5425    -5321    -5254    -5256 
   -5331    -5422    -5468    -5472    -5496    -5589    -5755    -5960 
   -6162    -6323    -6446    -6569    -6663    -6689    -6682    -6672 
   -6658    -6627    -6558    -6464    -6377    -6270    -6116    -5925 
   -5691    -5399    -5095    -4834    -4601    -4368    -4145    -3931 
   -3694    -3437    -3231    -3106    -3005    -2896    -2809    -2778 
   -2811    -2852    -2868    -2889    -2858    -2719    -2568    -2470 
   -2371    -2279    -2220    -2137    -2053    -2048    -2112    -2215 
   -2327    -2406    -2473    -2556    -2644    -2752    -2855    -2863 
   -2796    -2725    -2649    -2607    -2632    -2655    -2670    -2709 
   -2753    -2808    -2893    -3008    -3147    -3292    -3430    -3564 
   -3693    -3834    -3992    -4124    -4201    -4215    -4175    -4136 
   -4122    -4112    -4088    -4033    -3946    -3859    -3746    -3588 
   -3435    -3301    -3205    -3181    -3183    -3184    -3211    -3254 
   -3338    -3486    -3637    -3776    -3906    -3995    -4092    -4230 
   -4323    -4321    -4249    -4142    -4066    -4075    -4135    -4154 
   -4072    -3928    -3820    -3779    -3769    -3706    -3532    -3285 
   -3004    -2751    -2616    -2556    -2472    -2354    -2231    -2141 
   -2102    -2106    -2118    -2118    -2133    -2195    -2309    -2486 
