Origin Time       2011/03/11 14:46:00
Lat.              38.103
Long.             142.860
Depth. (km)       24
Mag.              9.0
Station Code      MIE009
Station Lat.      34.5752
Station Long.     136.5296
Station Height(m) 8
Record Time       2011/03/11 14:49:30
Sampling Freq(Hz) 100Hz
Duration Time(s)  137
Dir.              N-S
Scale Factor      3920(gal)/6182761
Max. Acc. (gal)   2.791
Last Correction   2011/03/11 14:49:15
Memo.             
[...]
  -33414   -33382   -33317   -33200   -32998   -32818   -32681   -32496 
  -32293   -32121   -31944   -31753   -31571   -31425   -31303   -31163 
  -31003   -30835   -30669   -30521   -30387   -30248   -30115   -30014 
  -29928   -29850   -29810   -29797   -29785   -29806   -29897   -30026 
  -30167   -30334   -30501   -30658   -30839   -31028   -31190   -31323 
  -31421   -31496   -31568   -31621   -31635   -31631   -31641   -31637 
  -31575   -31500   -31457   -31397   -31324   -31290   -31223   -31034 
  -30793   -30582   -30357   -30072   -29779   -29523   -29280   -29015 
  -28775   -28622   -28520   -28437   -28393   -28395   -28444   -28500 
  -28547   -28656   -28812   -28925   -29017   -29152   -29306   -29437 
  -29599   -29811   -29975   -30093   -30267   -30463   -30576   -30627 
  -30668   -30689   -30714   -30780   -30861   -30918   -30938   -30892 
  -30770   -30621   -30471   -30292   -30081   -29850   -29596   -29354 
  -29184   -29086   -28985   -28872   -28818   -28816   -28804   -28744 
  -28653   -28615   -28675   -28751   -28766   -28743   -28736   -28752 
  -28773   -28799   -28852   -28961   -29121   -29254   -29322   -29436 
  -29627   -29811   -29981   -30102   -30151   -30162   -30090   -29974 
  -29892   -29759   -29592   -29522   -29509   -29465   -29429   -29439 
  -29496   -29588   -29658   -29705   -29801   -29927   -29995   -29985 
  -29936   -29871   -29777   -29670   -29590   -29514   -29448   -29456 
  -29496   -29515   -29572   -29676   -29748   -29781   -29839   -29902 
  -29912   -29905   -29889   -29819   -29744   -29695   -29632   -29563 
  -29487   -29386   -29284   -29214   -29165   -29129   -29167   -29280 
  -29382   -29485   -29632   -29770   -29883   -30023   -30202   -30359 
  -30455   -30541   -30641   -30743   -30863   -30990   -31121   -31284 
  -31467   -31623   -31728   -31790   -31807   -31765   -31682   -31573 
  -31439   -31294   -31144   -31015   -30937   -30891   -30872   -30873 
  -30851   -30775   -30667   -30546   -30394   -30230   -30104   -30020 
  -29951   -29845   -29685   -29538   -29423   -29298   -29214   -29228 
  -29275   -29338   -29444   -29526   -29531   -29554   -29697   -29848 
  -29846   -29758   -29709   -29710   -29759   -29789   -29694   -29542 
  -29531   -29622   -29616   -29592   -29683   -29835   -30017   -30151 
  -30210   -30337   -30505   -30579   -30619   -30709   -30797   -30851 
  -30921   -30942   -30825   -30659   -30483   -30318   -30260   -30237 
  -30119   -29997   -30025   -30095   -30028   -29887   -29700   -29441 
  -29258   -29177   -29103   -29017   -28903   -28803   -28722   -28560 
  -28406   -28415   -28492   -28598   -28845   -29108   -29285   -29534 
  -29814   -29992   -30187   -30422   -30544   -30567   -30625   -30675 
  -30614   -30585   -30712   -30740   -30498   -30205   -29986   -29766 
  -29545   -29336   -29135   -28989   -28849   -28632   -28396   -28158 
  -27903   -27768   -27736   -27723   -27841   -27999   -28061   -28176 
  -28326   -28391   -28430   -28450   -28479   -28536   -28570   -28653 
  -28788   -28847   -28862   -28931   -28980   -28891   -28752   -28738 
  -28827   -28877   -28864   -28905   -29026   -29107   -29122   -29175 
  -29315   -29440   -29452   -29430   -29519   -29657   -29664   -29644 
  -29785   -29973   -30076   -30153   -30266   -30336   -30299   -30308 
  -30414   -30430   -30333   -30261   -30213   -30115   -29985   -29867 
  -29717   -29558   -29450   -29349   -29307   -29394   -29471   -29432 
  -29391   -29448   -29520   -29500   -29489   -29600   -29710   -29756 
  -29858   -30003   -30136   -30282   -30378   -30425   -30541   -30666 
  -30711   -30763   -30809   -30667   -30321   -29958   -29601   -29192 
  -28908   -28708   -28360   -28042   -27879   -27657   -27379   -27177 
  -27065   -27008   -26918   -26796   -26730   -26736   -26790   -26886 
  -27044   -27279   -27564   -27829   -28053   -28308   -28608   -28944 
  -29339   -29688   -29939   -30188   -30412   -30545   -30618   -30651 
  -30651   -30591   -30412   -30155   -29855   -29517   -29217   -28958 
  -28675   -28414   -28203   -27989   -27797   -27686   -27661   -27746 
  -27911   -28070   -28248   -28470   -28648   -28814   -29066   -29338 
  -29608   -29910   -30162   -30388   -30671   -30905   -31017   -31127 
  -31258   -31321   -31329   -31324   -31308   -31268   -31223   -31191 
  -31084   -30870   -30632   -30361   -30066   -29775   -29498   -29309 
  -29107   -28738   -28394   -28211   -27976   -27600   -27310   -27232 
  -27198   -27058   -26978   -27100   -27252   -27353   -27531   -27749 
  -27956   -28238   -28537   -28737   -28920   -29191   -29465   -29635 
  -29746   -29847   -29936   -30022   -30084   -30138   -30228   -30351 
  -30486   -30555   -30508   -30436   -30367   -30218   -30007   -29754 
  -29420   -29060   -28735   -28419   -28113   -27855   -27653   -27513 
  -27377   -27158   -26953   -26887   -26839   -26753   -26785   -26945 
  -27107   -27263   -27448   -27673   -27875   -27971   -28081   -28309 
  -28523   -28702   -28939   -29201   -29448   -29663   -29827   -29975 
  -30100   -30196   -30278   -30289   -30275   -30287   -30179   -29952 
  -29790   -29699   -29595   -29457   -29304   -29179   -29063   -28920 
  -28803   -28744   -28700   -28655   -28591   -28503   -28442   -28400 
  -28364   -28406   -28531   -28632   -28652   -28654   -28677   -28662 
  -28673   -28801   -28855   -28721   -28608   -28616   -28595   -28469 
  -28364   -28355   -28360   -28336   -28305   -28278   -28303   -28442 
  -28614   -28723   -28838   -28981   -29113   -29281   -29494   -29714 
  -29922   -30127   -30351   -30537   -30678   -30809   -30891   -30976 
  -31072   -31019   -30834   -30690   -30551   -30269   -29883   -29538 
  -29240   -28922   -28569   -28249   -28006   -27798   -27633   -27543 
  -27458   -27335   -27224   -27181   -27190   -27188   -27209   -27313 
  -27467   -27652   -27845   -28021   -28256   -28509   -28622   -28681 
  -28806   -28895   -28925   -28961   -29012   -29074   -29094   -29067 
  -29041   -28980   -28922   -28951   -28972   -28930   -28931   -28985 
  -28998   -28972   -28950   -28929   -28916   -28918   -28962   -29047 
  -29096   -29139   -29256   -29363   -29435   -29488   -29449   -29394 
  -29418   -29474   -29576   -29680   -29714   -29804   -29955   -30006 
  -30048   -30174   -30220   -30179   -30187   -30216   -30218   -30193 
  -30154   -30181   -30279   -30369   -30458   -30613   -30790   -30932 
  -31062   -31160   -31217   -31252   -31264   -31286   -31283   -31213 
  -31164   -31129   -31028   -30909   -30775   -30583   -30434   -30384 
  -30328   -30202   -30043   -29880   -29654   -29375   -29168   -29000 
  -28796   -28662   -28601   -28474   -28346   -28346   -28400   -28469 
  -28639   -28878   -29120   -29366   -29559   -29742   -30026   -30312 
  -30535   -30759   -30985   -31191   -31335   -31375   -31411   -31499 
  -31551   -31512   -31422   -31333   -31225   -31032   -30798   -30614 
  -30435   -30168   -29846   -29545   -29248   -28933   -28636   -28363 
  -28127   -27954   -27782   -27582   -27429   -27331   -27220   -27133 
  -27130   -27144   -27175   -27286   -27438   -27583   -27757   -27979 
  -28174   -28293   -28429   -28659   -28911   -29124   -29359   -29639 
  -29912   -30210   -30522   -30773   -30984   -31170   -31301   -31365 
  -31350   -31268   -31113   -30881   -30627   -30393   -30231   -30108 
  -29904   -29688   -29543   -29355   -29092   -28839   -28632   -28428 
  -28178   -27960   -27855   -27791   -27727   -27734   -27826   -27930 
  -28067   -28310   -28594   -28818   -29011   -29261   -29538   -29693 
  -29765   -29915   -30064   -30136   -30281   -30471   -30590   -30731 
  -30878   -30969   -31118   -31283   -31367   -31447   -31502   -31483 
  -31454   -31420   -31389   -31384   -31379   -31396   -31454   -31495 
  -31493   -31473   -31428   -31348   -31229   -31055   -30859   -30692 
  -30526   -30341   -30163   -29993   -29812   -29637   -29488   -29303 
  -29070   -28913   -28822   -28674   -28532   -28460   -28350   -28175 
  -28021   -27926   -27856   -27786   -27745   -27745   -27742   -27734 
  -27757   -27802   -27892   -28056   -28228   -28374   -28555   -28757 
  -28897   -28961   -28971   -28946   -28942   -28977   -28997   -28980 
  -28929   -28860   -28798   -28727   -28676   -28684   -28735   -28813 
  -28896   -28980   -29109   -29241   -29314   -29384   -29469   -29527 
  -29600   -29707   -29828   -30010   -30226   -30400   -30562   -30752 
  -30940   -31097   -31202   -31240   -31241   -31211   -31107   -30979 
  -30895   -30777   -30549   -30278   -30024   -29743   -29390   -28967 
  -28530   -28186   -27937   -27654   -27351   -27156   -27074   -27030 
  -26974   -26935   -26976   -27093   -27237   -27413   -27641   -27904 
  -28192   -28507   -28835   -29188   -29554   -29867   -30105   -30302 
  -30462   -30560   -30626   -30674   -30635   -30523   -30372   -30153 
  -29878   -29564   -29252   -28984   -28707   -28386   -28057   -27769 
  -27554   -27357   -27159   -27005   -26876   -26782   -26762   -26767 
  -26752   -26765   -26829   -26893   -26973   -27127   -27299   -27454 
  -27674   -27971   -28269   -28522   -28730   -28927   -29078   -29096 
  -29024   -28947   -28827   -28644   -28424   -28171   -27920   -27663 
  -27370   -27115   -26930   -26738   -26552   -26406   -26237   -26069 
  -25974   -25903   -25847   -25869   -25928   -25993   -26124   -26347 
  -26581   -26781   -27025   -27308   -27542   -27735   -27904   -28050 
  -28188   -28292   -28355   -28425   -28514   -28602   -28698   -28852 
  -29036   -29074   -28963   -28927   -28951   -28822   -28581   -28400 
  -28298   -28201   -28105   -28031   -27921   -27787   -27709   -27611 
  -27455   -27385   -27424   -27418   -27344   -27348   -27408   -27367 
  -27318   -27371   -27388   -27328   -27301   -27315   -27301   -27288 
  -27337   -27430   -27542   -27668   -27782   -27898   -28012   -28081 
  -28135   -28232   -28358   -28468   -28560   -28660   -28782   -28941 
  -29117   -29282   -29441   -29537   -29568   -29610   -29600   -29514 
  -29431   -29333   -29202   -29081   -28966   -28843   -28750   -28697 
  -28608   -28475   -28361   -28227   -28067   -27959   -27865   -27717 
  -27583   -27494   -27346   -27114   -26923   -26829   -26786   -26766 
  -26772   -26807   -26813   -26788   -26842   -26908   -26894   -26933 
  -27056   -27182   -27304   -27417   -27547   -27706   -27833   -27938 
  -28093   -28296   -28494   -28649   -28783   -28957   -29165   -29335 
  -29464   -29625   -29817   -29966   -30081   -30198   -30284   -30355 
  -30459   -30558   -30643   -30752   -30870   -30982   -31104   -31217 
  -31242   -31174   -31101   -31002   -30818   -30646   -30511   -30329 
  -30121   -29923   -29698   -29467   -29289   -29163   -29024   -28858 
  -28716   -28590   -28447   -28307   -28189   -28077   -27981   -27960 
  -28018   -28080   -28108   -28163   -28296   -28440   -28573   -28788 
  -29046   -29248   -29451   -29657   -29801   -29949   -30132   -30297 
  -30487   -30743   -30979   -31157   -31327   -31504   -31643   -31682 
  -31663   -31652   -31588   -31427   -31238   -31047   -30811   -30515 
  -30188   -29851   -29492   -29137   -28812   -28473   -28125   -27827 
  -27558   -27267   -26975   -26720   -26517   -26375   -26276   -26203 
  -26189   -26261   -26369   -26410   -26416   -26534   -26731   -26874 
  -27037   -27312   -27608   -27858   -28091   -28319   -28540   -28735 
  -28869   -28958   -29018   -29048   -29071   -29069   -29052   -29082 
  -29121   -29109   -29083   -29099   -29129   -29134   -29160   -29220 
  -29275   -29373   -29533   -29667   -29775   -29918   -30052   -30133 
  -30190   -30253   -30351   -30454   -30493   -30468   -30436   -30404 
  -30316   -30194   -30107   -30024   -29884   -29707   -29478   -29177 
  -28895   -28681   -28466   -28218   -28026   -27940   -27871   -27779 
  -27764   -27814   -27815   -27824   -27939   -28069   -28173   -28350 
  -28595   -28842   -29102   -29415   -29743   -30010   -30237   -30448 
  -30598   -30714   -30864   -31014   -31068   -31047   -31041   -31036 
  -30972   -30867   -30728   -30540   -30335   -30100   -29810   -29523 
  -29253   -28984   -28725   -28415   -28080   -27858   -27717   -27555 
  -27434   -27397   -27350   -27263   -27220   -27232   -27254   -27290 
  -27339   -27399   -27488   -27576   -27664   -27791   -27943   -28115 
  -28326   -28520   -28697   -28907   -29128   -29379   -29678   -29921 
  -30077   -30211   -30301   -30307   -30280   -30229   -30091   -29889 
  -29702   -29523   -29303   -29060   -28837   -28604   -28320   -28043 
  -27815   -27575   -27312   -27090   -26929   -26789   -26653   -26545 
  -26503   -26503   -26506   -26565   -26722   -26893   -27048   -27270 
  -27537   -27776   -28000   -28209   -28391   -28557   -28703   -28873 
  -29088   -29267   -29400   -29556   -29695   -29746   -29749   -29776 
  -29763   -29655   -29554   -29448   -29222   -28940   -28669   -28357 
  -28056   -27812   -27555   -27285   -27032   -26772   -26562   -26438 
  -26328   -26207   -26114   -26071   -26038   -25969   -25953   -26082 
  -26284   -26479   -26703   -26961   -27212   -27451   -27668   -27864 
  -28064   -28232   -28338   -28445   -28570   -28615   -28621   -28706 
  -28790   -28795   -28814   -28878   -28888   -28800   -28687   -28574 
  -28387   -28146   -27916   -27644   -27292   -26922   -26564   -26240 
  -25979   -25733   -25487   -25297   -25157   -25034   -24951   -24909 
  -24894   -24960   -25096   -25234   -25396   -25586   -25738   -25875 
  -26074   -26312   -26534   -26725   -26868   -26971   -27063   -27128 
  -27152   -27169   -27182   -27200   -27268   -27341   -27355   -27380 
  -27459   -27520   -27570   -27633   -27613   -27484   -27345   -27232 
  -27118   -27001   -26885   -26768   -26664   -26589   -26540   -26522 
  -26545   -26638   -26812   -26973   -27061   -27166   -27319   -27479 
  -27646   -27854   -28141   -28471   -28784   -29079   -29346   -29617 
  -29942   -30265   -30554   -30848   -31104   -31211   -31144   -31015 
  -30894   -30710   -30487   -30344   -30198   -29930   -29643   -29406 
  -29154   -28901   -28721   -28586   -28393   -28150   -28005   -27963 
  -27895   -27825   -27860   -27944   -27999   -28097   -28228   -28296 
  -28367   -28496   -28628   -28803   -29010   -29154   -29263   -29405 
  -29588   -29771   -29892   -29943   -29901   -29790   -29718   -29649 
  -29450   -29170   -28947   -28745   -28471   -28173   -27920   -27695 
  -27510   -27410   -27349   -27249   -27147   -27080   -27031   -27014 
  -27038   -27109   -27200   -27253   -27321   -27472   -27655   -27845 
  -28117   -28480   -28823   -29107   -29439   -29836   -30139   -30273 
  -30395   -30595   -30704   -30666   -30648   -30671   -30640   -30574 
  -30504   -30408   -30284   -30148   -30044   -29956   -29792   -29618 
  -29502   -29309   -29009   -28701   -28409   -28169   -27991   -27826 
  -27713   -27678   -27663   -27679   -27728   -27756   -27796   -27902 
  -28025   -28112   -28222   -28429   -28657   -28769   -28797   -28854 
  -28897   -28861   -28816   -28793   -28770   -28730   -28658   -28593 
  -28553   -28504   -28446   -28397   -28357   -28318   -28295   -28314 
  -28345   -28374   -28419   -28405   -28321   -28256   -28181   -28059 
  -27965   -27901   -27827   -27794   -27813   -27837   -27888   -27990 
  -28145   -28311   -28420   -28518   -28645   -28752   -28866   -28974 
  -28979   -28944   -28964   -28975   -28941   -28940   -29015   -29099 
  -29099   -29056   -29024   -28932   -28748   -28551   -28355   -28160 
  -28040   -27979   -27851   -27655   -27543   -27508   -27421   -27330 
  -27322   -27362   -27443   -27577   -27755   -27974   -28185   -28405 
  -28662   -28872   -29060   -29321   -29551   -29693   -29867   -30074 
  -30233   -30371   -30500   -30572   -30586   -30577   -30565   -30549 
  -30523   -30458   -30351   -30246   -30131   -29955   -29728   -29510 
  -29353   -29235   -29078   -28903   -28835   -28829   -28720   -28553 
  -28446   -28357   -28250   -28146   -28102   -28177   -28294   -28369 
  -28447   -28542   -28653   -28754   -28803   -28872   -29008   -29126 
  -29209   -29310   -29430   -29563   -29681   -29743   -29759   -29750 
  -29700   -29627   -29614   -29663   -29706   -29764   -29851   -29933 
  -30043   -30189   -30313   -30433   -30571   -30673   -30709   -30706 
  -30672   -30559   -30365   -30142   -29874   -29539   -29213   -28907 
  -28572   -28268   -28084   -27979   -27868   -27795   -27799   -27804 
  -27801   -27830   -27857   -27882   -27921   -27966   -28028   -28100 
  -28186   -28320   -28498   -28729   -29029   -29354   -29658   -29989 
  -30363   -30670   -30942   -31279   -31568   -31755   -31934   -32060 
  -32085   -32070   -31982   -31824   -31728   -31681   -31534   -31297 
  -31093   -30943   -30789   -30602   -30406   -30220   -30017   -29797 
  -29603   -29410   -29185   -28963   -28768   -28571   -28343   -28103 
  -27920   -27778   -27606   -27432   -27314   -27196   -27020   -26818 
  -26639   -26508   -26420   -26360   -26327   -26302   -26261   -26189 
  -26109   -26090   -26144   -26234   -26348   -26461   -26574   -26703 
  -26801   -26868   -26970   -27098   -27217   -27327   -27441   -27545 
  -27618   -27691   -27751   -27722   -27634   -27580   -27537   -27431 
  -27313   -27260   -27217   -27141   -27075   -26983   -26826   -26704 
  -26677   -26675   -26653   -26681   -26831   -26959   -26943   -27026 
  -27356   -27726   -28061   -28408   -28683   -28886   -29177   -29526 
  -29711   -29782   -29978   -30250   -30371   -30317   -30246   -30212 
  -30117   -29958   -29819   -29725   -29670   -29609   -29505   -29375 
  -29204   -29062   -29066   -29110   -29057   -29029   -29118   -29196 
  -29220   -29268   -29381   -29548   -29672   -29736   -29829   -29904 
  -29954   -30060   -30144   -30172   -30284   -30451   -30543   -30601 
  -30690   -30733   -30732   -30864   -31066   -31110   -31134   -31292 
  -31392   -31391   -31420   -31421   -31350   -31290   -31207   -31057 
  -30922   -30818   -30742   -30726   -30707   -30651   -30587   -30531 
  -30523   -30542   -30531   -30533   -30586   -30641   -30663   -30703 
  -30767   -30811   -30873   -30930   -30916   -30915   -30962   -31001 
  -31061   -31133   -31167   -31222   -31306   -31353   -31386   -31425 
  -31465   -31531   -31583   -31633   -31746   -31817   -31832   -31933 
  -32067   -32124   -32172   -32279   -32381   -32427   -32474   -32518 
  -32487   -32435   -32426   -32405   -32345   -32272   -32203   -32161 
  -32160   -32182   -32221   -32297   -32380   -32425   -32466   -32546 
  -32604   -32583   -32546   -32537   -32434   -32214   -32076   -32009 
  -31796   -31529   -31403   -31304   -31099   -30883   -30758   -30629 
  -30431   -30261   -30147   -30034   -29944   -29915   -29905   -29874 
  -29884   -29965   -30028   -30073   -30177   -30290   -30319   -30300 
  -30314   -30300   -30223   -30178   -30180   -30210   -30279   -30324 
  -30311   -30321   -30430   -30561   -30567   -30538   -30614   -30679 
  -30660   -30578   -30433   -30314   -30238   -30113   -29958   -29847 
  -29813   -29817   -29787   -29745   -29723   -29713   -29739   -29787 
  -29797   -29754   -29742   -29833   -29919   -29934   -30001   -30126 
  -30183   -30174   -30193   -30237   -30210   -30103   -30000   -29936 
