Origin Time       2011/03/11 14:46:00
Lat.              38.103
Long.             142.860
Depth. (km)       24
Mag.              9.0
Station Code      MIE006
Station Lat.      34.7178
Station Long.     136.5039
Station Height(m) 2
Record Time       2011/03/11 14:50:37
Sampling Freq(Hz) 100Hz
Duration Time(s)  65
Dir.              U-D
Scale Factor      3920(gal)/6182761
Max. Acc. (gal)   3.921
Last Correction   2011/03/11 14:50:22
Memo.             
[...]
  -33246   -33123   -33029   -32953   -32900   -32821   -32730   -32684 
  -32659   -32651   -32654   -32621   -32593   -32597   -32577   -32552 
  -32581   -32685   -32791   -32833   -32900   -33045   -33157   -33160 
  -33093   -33015   -32977   -33024   -33101   -33115   -33086   -33040 
  -32955   -32831   -32641   -32367   -32124   -32069   -32081   -31822 
  -31272   -30829   -30739   -30781   -30621   -30208   -29832   -29786 
  -29864   -29723   -29505   -29468   -29565   -29631   -29564   -29417 
  -29330   -29326   -29323   -29320   -29399   -29541   -29600   -29558 
  -29593   -29666   -29632   -29617   -29646   -29572   -29429   -29320 
  -29256   -29173   -29072   -28948   -28689   -28406   -28257   -28096 
  -27910   -27860   -27877   -27805   -27669   -27564   -27446   -27322 
  -27266   -27106   -26829   -26723   -26807   -26909   -26879   -26710 
  -26585   -26563   -26651   -26782   -26708   -26498   -26488   -26688 
  -26748   -26548   -26413   -26552   -26875   -27144   -27066   -26718 
  -26533   -26802   -27377   -27826   -27892   -27661   -27522   -27798 
  -28252   -28410   -28200   -27986   -28099   -28471   -28756   -28789 
  -28751   -28803   -28919   -29079   -29193   -29179   -29235   -29506 
  -29803   -29995   -30158   -30301   -30415   -30621   -30864   -30908 
  -30822   -30837   -30968   -31166   -31403   -31518   -31423   -31253 
  -31153   -31145   -31188   -31194   -31087   -30953   -30935   -30955 
  -30874   -30831   -30924   -30999   -31061   -31138   -31165   -31257 
  -31418   -31632   -31895   -31923   -31780   -31761   -31738   -31688 
  -31772   -31897   -32004   -32150   -32235   -32211   -32221   -32309 
  -32418   -32533   -32587   -32530   -32411   -32281   -32184   -32149 
  -32111   -32051   -32062   -32089   -31983   -31768   -31588   -31511 
  -31546   -31662   -31664   -31450   -31270   -31280   -31367   -31443 
  -31436   -31290   -31143   -31188   -31367   -31460   -31399   -31273 
  -31169   -31165   -31233   -31291   -31311   -31243   -31172   -31186 
  -31192   -31269   -31483   -31617   -31609   -31606   -31592   -31499 
  -31465   -31536   -31568   -31551   -31566   -31687   -31810   -31726 
  -31520   -31327   -31240   -31376   -31543   -31586   -31604   -31630 
  -31644   -31635   -31698   -31916   -32083   -32075   -32108   -32313 
  -32600   -32846   -32928   -32900   -32939   -33089   -33278   -33417 
  -33455   -33481   -33610   -33799   -33902   -33844   -33716   -33651 
  -33663   -33664   -33570   -33421   -33348   -33313   -33221   -33074 
  -32846   -32626   -32522   -32412   -32240   -32144   -32220   -32343 
  -32287   -32072   -31891   -31810   -31815   -31896   -32030   -32216 
  -32353   -32302   -32152   -32108   -32231   -32380   -32409   -32373 
  -32411   -32458   -32323   -32081   -31977   -32010   -32016   -31911 
  -31776   -31710   -31609   -31398   -31222   -31204   -31305   -31365 
  -31253   -31037   -30882   -30853   -30872   -30848   -30807   -30752 
  -30593   -30490   -30573   -30489   -30157   -29978   -29967   -29876 
  -29656   -29406   -29338   -29437   -29499   -29521   -29494   -29433 
  -29489   -29581   -29622   -29733   -29882   -30023   -30247   -30508 
  -30683   -30721   -30690   -30750   -30855   -30918   -31060   -31270 
  -31377   -31360   -31381   -31535   -31739   -31937   -32113   -32178 
  -32120   -32119   -32415   -33002   -33488   -33547   -33285   -32941 
  -32736   -32841   -33107   -33269   -33275   -33168   -33069   -33153 
  -33394   -33565   -33608   -33718   -33911   -33969   -33825   -33593 
  -33431   -33433   -33478   -33404   -33310   -33307   -33295   -33194 
  -33027   -32791   -32542   -32415   -32454   -32545   -32521   -32351 
  -32162   -32049   -31950   -31794   -31588   -31313   -31037   -30924 
  -30976   -31023   -30949   -30817   -30699   -30604   -30545   -30453 
  -30312   -30203   -30128   -30107   -30143   -30167   -30197   -30183 
  -30027   -29829   -29720   -29697   -29809   -30120   -30485   -30680 
  -30676   -30608   -30644   -30876   -31187   -31401   -31559   -31751 
  -31970   -32182   -32318   -32458   -32724   -33048   -33322   -33411 
  -33294   -33178   -33158   -33256   -33473   -33659   -33772   -33900 
  -34004   -34040   -34070   -34051   -33889   -33767   -33849   -33923 
  -33811   -33650   -33538   -33420   -33347   -33368   -33352   -33274 
  -33226   -33163   -33095   -33113   -33116   -32993   -32795   -32616 
  -32548   -32578   -32574   -32526   -32519   -32567   -32631   -32637 
  -32574   -32533   -32553   -32584   -32584   -32541   -32523   -32633 
  -32830   -32974   -33046   -33136   -33230   -33246   -33194   -33144 
  -33141   -33061   -32798   -32550   -32445   -32430   -32551   -32808 
  -33082   -33209   -33076   -32853   -32741   -32690   -32670   -32728 
  -32755   -32672   -32640   -32701   -32690   -32640   -32657   -32670 
  -32652   -32664   -32678   -32582   -32417   -32382   -32432   -32363 
  -32260   -32281   -32339   -32364   -32388   -32386   -32366   -32426 
  -32573   -32689   -32730   -32756   -32741   -32626   -32469   -32312 
  -32148   -32022   -31970   -31955   -31897   -31785   -31676   -31545 
  -31331   -31086   -30912   -30806   -30702   -30608   -30560   -30563 
  -30630   -30709   -30671   -30554   -30497   -30489   -30500   -30531 
  -30512   -30417   -30306   -30297   -30473   -30694   -30842   -30981 
  -31084   -31114   -31139   -31184   -31253   -31356   -31469   -31584 
  -31693   -31806   -31952   -32055   -32066   -32085   -32091   -32015 
  -31960   -31952   -31901   -31835   -31794   -31760   -31753   -31812 
  -31934   -32026   -31998   -31930   -31974   -32096   -32115   -32009 
  -31921   -31944   -32120   -32401   -32635   -32724   -32727   -32798 
  -32956   -33058   -33046   -33012   -33090   -33250   -33328   -33321 
  -33352   -33481   -33652   -33735   -33712   -33664   -33648   -33726 
  -33830   -33799   -33669   -33553   -33448   -33365   -33339   -33303 
  -33179   -33023   -32918   -32832   -32701   -32575   -32507   -32432 
  -32309   -32193   -32111   -32059   -32007   -31902   -31799   -31767 
  -31710   -31570   -31478   -31464   -31419   -31339   -31298   -31251 
  -31134   -30995   -30836   -30612   -30462   -30467   -30416   -30237 
  -30122   -30134   -30155   -30110   -30007   -29874   -29783   -29787 
  -29823   -29855   -29961   -30123   -30254   -30357   -30409   -30364 
  -30346   -30457   -30565   -30599   -30660   -30785   -30939   -31092 
  -31182   -31172   -31167   -31297   -31485   -31528   -31397   -31237 
  -31162   -31169   -31198   -31173   -31064   -30963   -30953   -31009 
  -31064   -31063   -31001   -30881   -30705   -30527   -30372   -30214 
  -30063   -29949   -29894   -29912   -29978   -30015   -29995   -29973 
  -29972   -29995   -30075   -30168   -30189   -30188   -30213   -30227 
  -30226   -30229   -30229   -30229   -30273   -30353   -30407   -30456 
  -30552   -30664   -30740   -30792   -30845   -30911   -31036   -31214 
  -31341   -31409   -31512   -31626   -31686   -31751   -31831   -31877 
  -31938   -32040   -32139   -32228   -32314   -32362   -32337   -32298 
  -32311   -32337   -32373   -32449   -32537   -32608   -32635   -32654 
  -32760   -32908   -32996   -33042   -33144   -33321   -33458   -33489 
  -33521   -33618   -33693   -33730   -33820   -33936   -33963   -33936 
  -33993   -34134   -34249   -34379   -34586   -34721   -34709   -34713 
  -34822   -34934   -34970   -34959   -34985   -35068   -35118   -35111 
  -35144   -35209   -35260   -35307   -35253   -35116   -35069   -35096 
  -35088   -35042   -34960   -34868   -34836   -34861   -34842   -34753 
  -34689   -34720   -34811   -34872   -34868   -34886   -34983   -35050 
  -34995   -34914   -34872   -34773   -34643   -34615   -34621   -34560 
  -34534   -34561   -34497   -34386   -34358   -34380   -34376   -34296 
  -34140   -34005   -33934   -33875   -33805   -33746   -33724   -33682 
  -33561   -33415   -33270   -33091   -32876   -32661   -32536   -32541 
  -32553   -32445   -32242   -32047   -31917   -31841   -31781   -31730 
  -31682   -31613   -31535   -31461   -31378   -31270   -31083   -30830 
  -30627   -30514   -30390   -30178   -29916   -29666   -29444   -29237 
  -29011   -28804   -28671   -28566   -28435   -28318   -28225   -28080 
  -27916   -27870   -27847   -27718   -27620   -27605   -27552   -27463 
  -27404   -27384   -27370   -27296   -27172   -27074   -27050   -27105 
  -27140   -27097   -27031   -26933   -26813   -26772   -26810   -26857 
  -26931   -27060   -27161   -27165   -27153   -27217   -27319   -27423 
  -27526   -27621   -27769   -27996   -28184   -28291   -28435   -28647 
  -28854   -29040   -29208   -29370   -29587   -29881   -30188   -30426 
  -30605   -30802   -31073   -31401   -31663   -31795   -31916   -32110 
  -32348   -32555   -32645   -32639   -32668   -32793   -32924   -32977 
  -33006   -33077   -33144   -33138   -33120   -33193   -33278   -33271 
  -33228   -33205   -33191   -33192   -33210   -33217   -33219   -33257 
  -33328   -33419   -33514   -33563   -33560   -33575   -33617   -33604 
  -33549   -33524   -33526   -33579   -33698   -33794   -33857   -33925 
  -33950   -33946   -33986   -34018   -33974   -33878   -33775   -33658 
  -33494   -33343   -33271   -33216   -33131   -33054   -32988   -32955 
  -32973   -33010   -33066   -33082   -33025   -33018   -33085   -33121 
  -33083   -33054   -33153   -33320   -33411   -33438   -33488   -33579 
  -33679   -33767   -33828   -33863   -33917   -33999   -34082   -34194 
  -34306   -34342   -34350   -34426   -34546   -34651   -34755   -34859 
  -34934   -34994   -35045   -35046   -34993   -34936   -34886   -34814 
  -34737   -34675   -34622   -34602   -34615   -34640   -34662   -34662 
  -34666   -34717   -34790   -34829   -34850   -34901   -34949   -34970 
  -34971   -34922   -34837   -34770   -34747   -34735   -34721   -34752 
  -34746   -34602   -34450   -34394   -34335   -34193   -34006   -33814 
  -33556   -33211   -32929   -32762   -32599   -32404   -32209   -32024 
  -31838   -31632   -31403   -31176   -30964   -30745   -30506   -30267 
  -30043   -29799   -29526   -29274   -29040   -28870   -28819   -28743 
  -28595   -28521   -28487   -28388   -28215   -27984   -27770   -27629 
  -27567   -27522   -27389   -27226   -27153   -27142   -27103   -27052 
  -27106   -27264   -27409   -27489   -27576   -27741   -27914   -28005 
  -28100   -28252   -28363   -28421   -28479   -28511   -28539   -28622 
  -28730   -28805   -28818   -28830   -28895   -28963   -29026   -29103 
  -29172   -29241   -29334   -29471   -29660   -29828   -29937   -30030 
  -30125   -30228   -30339   -30449   -30552   -30641   -30724   -30807 
  -30886   -30962   -31038   -31164   -31345   -31507   -31643   -31781 
  -31917   -32073   -32243   -32386   -32526   -32709   -32893   -32996 
  -33007   -32993   -33034   -33100   -33111   -33110   -33140   -33105 
  -33028   -33069   -33191   -33251   -33243   -33223   -33180   -33112 
  -33097   -33180   -33281   -33354   -33460   -33587   -33674   -33754 
  -33879   -34043   -34218   -34414   -34629   -34781   -34877   -35012 
  -35129   -35189   -35294   -35391   -35399   -35452   -35563   -35588 
  -35560   -35588   -35671   -35755   -35774   -35728   -35675   -35658 
  -35657   -35618   -35561   -35510   -35411   -35284   -35229   -35236 
  -35190   -35048   -34883   -34785   -34791   -34836   -34823   -34772 
  -34718   -34622   -34507   -34430   -34347   -34198   -34060   -34013 
  -33993   -33957   -33953   -33995   -34068   -34116   -34070   -33950 
  -33805   -33674   -33609   -33644   -33730   -33742   -33658   -33603 
  -33594   -33532   -33434   -33388   -33358   -33285   -33257   -33307 
  -33335   -33352   -33447   -33565   -33607   -33603   -33589   -33526 
  -33447   -33402   -33344   -33249   -33195   -33214   -33223   -33185 
  -33159   -33154   -33137   -33090   -33013   -32910   -32794   -32721 
  -32684   -32603   -32555   -32632   -32697   -32662   -32629   -32659 
  -32687   -32647   -32573   -32572   -32663   -32752   -32760   -32728 
  -32714   -32679   -32605   -32528   -32474   -32466   -32505   -32547 
  -32527   -32381   -32141   -31919   -31765   -31655   -31573   -31525 
  -31500   -31460   -31367   -31211   -31017   -30828   -30666   -30505 
  -30328   -30191   -30124   -30080   -30075   -30146   -30187   -30096 
  -29942   -29816   -29705   -29616   -29612   -29651   -29691   -29807 
  -29941   -29924   -29878   -30015   -30213   -30265   -30184   -30058 
  -29951   -29910   -29927   -29974   -30048   -30120   -30129   -30075 
  -30004   -29934   -29846   -29759   -29761   -29863   -29970   -30044 
  -30101   -30118   -30081   -30033   -30037   -30079   -30131   -30221 
  -30356   -30515   -30718   -30944   -31139   -31296   -31443   -31605 
  -31778   -31942   -32085   -32202   -32305   -32425   -32584   -32755 
  -32857   -32917   -33046   -33207   -33282   -33348   -33585   -33924 
  -34170   -34335   -34467   -34490   -34469   -34561   -34696   -34772 
  -34873   -35017   -35091   -35097   -35105   -35108   -35097   -35103 
  -35155   -35243   -35305   -35308   -35264   -35198   -35139   -35086 
  -34987   -34829   -34680   -34586   -34531   -34483   -34437   -34422 
  -34452   -34487   -34519   -34587   -34679   -34771   -34901   -35072 
  -35219   -35340   -35503   -35725   -35959   -36188   -36409   -36626 
  -36875   -37122   -37305   -37462   -37581   -37621   -37717   -37941 
  -38109   -38161   -38220   -38280   -38305   -38335   -38372   -38396 
  -38434   -38465   -38426   -38330   -38233   -38179   -38163   -38105 
  -37933   -37708   -37557   -37464   -37311   -37098   -36883   -36637 
  -36343   -36039   -35735   -35426   -35124   -34849   -34611   -34398 
  -34198   -34010   -33766   -33440   -33137   -32918   -32793   -32751 
  -32670   -32448   -32172   -31993   -31905   -31804   -31745   -31800 
  -31842   -31740   -31564   -31446   -31370   -31301   -31349   -31480 
  -31516   -31491   -31479   -31416   -31312   -31231   -31164   -31085 
  -31022   -31027   -31084   -31130   -31127   -31092   -31051   -30999 
  -30959   -30988   -31061   -31081   -31063   -31086   -31140   -31163 
  -31137   -31116   -31165   -31256   -31307   -31308   -31272   -31180 
  -31117   -31156   -31201   -31198   -31202   -31194   -31146   -31119 
  -31136   -31119   -31035   -30975   -30995   -31005   -30977   -31029 
  -31128   -31130   -31147   -31313   -31469   -31495   -31501   -31608 
  -31814   -32045   -32229   -32357   -32489   -32629   -32708   -32716 
  -32737   -32825   -32935   -33008   -33053   -33087   -33098   -33104 
  -33136   -33158   -33115   -33043   -32986   -32899   -32767   -32678 
  -32678   -32701   -32685   -32636   -32580   -32514   -32430   -32351 
  -32308   -32287   -32279   -32298   -32254   -32074   -31891   -31835 
  -31811   -31715   -31648   -31707   -31772   -31729   -31628   -31495 
  -31335   -31197   -31047   -30890   -30827   -30837   -30837   -30820 
  -30796   -30773   -30753   -30754   -30801   -30876   -30947   -30998 
  -31024   -31032   -31035   -31053   -31100   -31181   -31295   -31367 
  -31350   -31328   -31359   -31423   -31520   -31624   -31700   -31774 
  -31873   -31970   -32026   -32044   -32078   -32176   -32322   -32431 
  -32475   -32490   -32479   -32487   -32615   -32815   -32891   -32792 
  -32696   -32659   -32568   -32501   -32560   -32635   -32702   -32764 
  -32766   -32827   -32967   -33012   -32989   -33002   -33050   -33145 
  -33232   -33245   -33217   -33146   -33040   -33024   -33152   -33304 
  -33378   -33383   -33346   -33273   -33163   -33018   -32885   -32815 
  -32795   -32757   -32658   -32518   -32373   -32266   -32206   -32170 
  -32195   -32262   -32277   -32240   -32173   -32047   -31940   -32019 
  -32241   -32422   -32532   -32612   -32618   -32534   -32466   -32517 
  -32642   -32732   -32746   -32743   -32844   -33017   -33102   -33124 
  -33107   -33009   -33001   -33145   -33182   -33094   -33166   -33337 
  -33369   -33428   -33628   -33751   -33755   -33821   -33954   -33961 
  -33886   -33993   -34209   -34353   -34495   -34611   -34593   -34592 
  -34722   -34781   -34719   -34737   -34765   -34631   -34515   -34633 
  -34759   -34565   -34250   -34206   -34251   -33889   -33277   -33210 
  -33845   -34388   -34384   -34028   -33457   -32938   -32850   -33149 
  -33567   -33757   -33432   -32909   -32719   -32830   -32921   -32810 
  -32574   -32649   -33150   -33568   -33638   -33411   -32976   -32829 
  -33253   -33856   -34406   -34754   -34612   -34247   -34111   -34162 
  -34313   -34659   -35172   -35721   -36179   -36207   -35744   -35374 
  -35452   -35960   -36554   -36767   -36840   -36879   -36607   -36316 
  -36207   -36105   -36084   -36270   -36575   -36814   -36834   -36538 
  -36162   -36065   -36079   -36086   -36248   -36382   -36284   -36029 
  -35799   -35610   -35466   -35678   -36050   -35992   -35749   -35766 
  -35768   -35550   -35386   -35428   -35497   -35475   -35542   -35683 
  -35624   -35514   -35506   -35338   -35200   -35499   -35860   -35801 
  -35629   -35664   -35611   -35387   -35308   -35400   -35531   -35655 
  -35712   -35647   -35472   -35347   -35309   -35295   -35394   -35475 
  -35348   -35181   -35116   -35009   -34769   -34636   -34663   -34517 
  -34163   -33913   -33935   -34060   -33949   -33588   -33269   -33165 
  -33162   -33107   -33126   -33225   -33070   -32612   -32313   -32479 
  -32770   -32819   -32645   -32344   -32243   -32493   -32708   -32659 
  -32471   -32428   -32606   -32735   -32888   -33190   -33211   -32743 
  -32388   -32668   -33157   -33412   -33656   -33733   -33386   -33058 
  -33078   -33290   -33472   -33519   -33501   -33475   -33385   -33266 
  -33195   -33085   -32922   -32859   -32849   -32798   -32821   -32930 
  -33013   -32983   -32733   -32441   -32441   -32621   -32622   -32403 
  -32087   -31818   -31770   -31879   -32006   -32190   -32302   -32113 
  -31808   -31715   -31788   -31824   -31714   -31551   -31633   -31940 
  -32084   -32004   -31891   -31738   -31555   -31534   -31774   -32083 
  -32213   -32196   -32150   -32122   -32208   -32374   -32517   -32654 
  -32781   -32890   -33004   -33128   -33283   -33453   -33531   -33441 
  -33367   -33500   -33637   -33607   -33502   -33365   -33296   -33359 
  -33380   -33329   -33336   -33378   -33373   -33323   -33263   -33189 
  -33112   -33069   -33032   -33001   -33057   -33129   -33116   -33091 
  -33049   -32961   -32946   -33012   -33063   -33044   -32954   -32887 
  -32869   -32872   -32950   -33032   -32999   -32887   -32752   -32652 
  -32632   -32656   -32644   -32571   -32526   -32543   -32525   -32433 
  -32334   -32311   -32374   -32441   -32424   -32374   -32386   -32394 
  -32361   -32342   -32306   -32233   -32188   -32173   -32162   -32160 
  -32119   -32040   -32021   -32085   -32175   -32270   -32353   -32389 
  -32391   -32410   -32406   -32372   -32398   -32491   -32612   -32749 
  -32838   -32861   -32887   -32939   -32999   -33078   -33190   -33299 
  -33384   -33477   -33565   -33619   -33686   -33805   -33942   -34062 
  -34180   -34289   -34359   -34416   -34467   -34507   -34598   -34724 
  -34801   -34834   -34831   -34801   -34840   -34932   -34984   -35012 
  -35035   -35027   -35001   -34927   -34806   -34746   -34761   -34750 
  -34698   -34631   -34517   -34412   -34429   -34515   -34547   -34505 
