Origin Time       2011/03/11 14:46:00
Lat.              38.103
Long.             142.860
Depth. (km)       24
Mag.              9.0
Station Code      MIE002
Station Lat.      35.0283
Station Long.     136.5069
Station Height(m) 79
Record Time       2011/03/11 14:49:40
Sampling Freq(Hz) 100Hz
Duration Time(s)  161
Dir.              N-S
Scale Factor      3920(gal)/6182761
Max. Acc. (gal)   10.592
Last Correction   2011/03/11 14:49:25
Memo.             
[...]
  -44377   -44278   -44212   -44242   -44184   -44036   -43986   -44074 
  -44200   -44312   -44476   -44692   -44922   -45148   -45242   -45254 
  -45299   -45257   -45178   -45220   -45310   -45392   -45470   -45455 
  -45401   -45377   -45190   -44853   -44696   -44613   -44317   -44049 
  -43931   -43785   -43713   -43717   -43638   -43680   -43902   -44032 
  -44211   -44572   -44824   -44998   -45249   -45372   -45353   -45377 
  -45306   -45049   -44869   -44745   -44452   -44214   -44141   -43987 
  -43841   -43830   -43838   -43911   -44059   -44193   -44397   -44763 
  -45143   -45391   -45619   -45866   -46035   -46097   -46006   -45843 
  -45671   -45401   -45067   -44723   -44391   -44076   -43714   -43381 
  -43139   -42826   -42328   -41769   -41262   -40662   -39987   -39410 
  -38830   -38236   -37688   -37090   -36547   -36190   -35907   -35608 
  -35371   -35241   -35152   -35120   -35204   -35358   -35532   -35721 
  -35956   -36235   -36539   -36842   -37098   -37363   -37659   -37873 
  -37991   -38118   -38251   -38273   -38260   -38398   -38531   -38509 
  -38530   -38561   -38415   -38267   -38162   -37877   -37493   -37179 
  -36785   -36265   -35863   -35539   -35040   -34514   -34112   -33655 
  -33180   -32823   -32460   -32084   -31805   -31538   -31193   -30853 
  -30584   -30288   -29951   -29729   -29623   -29526   -29424   -29335 
  -29319   -29411   -29542   -29677   -29934   -30392   -30959   -31579 
  -32247   -32886   -33453   -33938   -34317   -34654   -35005   -35318 
  -35479   -35487   -35485   -35461   -35299   -35073   -34853   -34552 
  -34177   -33857   -33621   -33361   -33050   -32734   -32432   -32166 
  -31889   -31545   -31195   -30896   -30649   -30402   -30110   -29847 
  -29666   -29438   -29118   -28871   -28716   -28542   -28399   -28317 
  -28237   -28189   -28190   -28205   -28265   -28407   -28618   -28912 
  -29320   -29782   -30244   -30673   -31016   -31307   -31617   -31935 
  -32287   -32659   -32983   -33292   -33613   -33950   -34301   -34616 
  -34948   -35370   -35830   -36262   -36680   -37092   -37436   -37716 
  -37980   -38196   -38385   -38565   -38679   -38771   -38906   -39064 
  -39211   -39345   -39501   -39677   -39868   -40047   -40131   -40210 
  -40310   -40308   -40322   -40422   -40476   -40490   -40522   -40599 
  -40613   -40464   -40319   -40172   -39923   -39695   -39446   -39146 
  -38956   -38836   -38634   -38458   -38509   -38637   -38712   -38888 
  -39088   -39201   -39320   -39376   -39277   -39217   -39317   -39328 
  -39197   -39147   -39123   -38987   -38787   -38576   -38341   -38132 
  -38135   -38342   -38527   -38703   -38972   -39200   -39311   -39480 
  -39818   -40211   -40499   -40572   -40489   -40560   -40878   -41164 
  -41441   -41904   -42363   -42698   -43078   -43567   -44098   -44609 
  -45043   -45341   -45531   -45735   -45890   -45893   -45884   -45845 
  -45583   -45168   -44733   -44293   -43946   -43701   -43347   -42929 
  -42647   -42313   -41869   -41508   -41106   -40620   -40132   -39651 
  -39313   -39041   -38734   -38622   -38706   -38759   -38738   -38651 
  -38553   -38648   -38919   -39182   -39510   -39815   -39766   -39445 
  -39158   -38987   -38955   -39011   -38970   -38815   -38659   -38459 
  -38234   -38111   -37978   -37744   -37587   -37663   -37943   -38283 
  -38611   -38918   -39174   -39362   -39445   -39455   -39406   -39251 
  -38978   -38513   -37980   -37598   -37258   -36824   -36435   -36296 
  -36301   -36266   -36255   -36209   -36037   -35796   -35542   -35473 
  -35611   -35727   -35778   -35766   -35833   -36224   -36781   -37249 
  -37591   -37809   -37995   -38199   -38423   -38776   -39274   -39786 
  -40219   -40652   -41215   -41808   -42233   -42480   -42671   -42926 
  -43281   -43700   -44083   -44362   -44596   -44837   -45158   -45716 
  -46438   -47077   -47609   -48122   -48541   -48882   -49315   -49763 
  -50045   -50079   -49815   -49462   -49263   -49181   -49191   -49248 
  -49276   -49405   -49657   -49835   -49892   -49880   -49825   -49794 
  -49852   -50064   -50419   -50737   -50908   -51008   -51053   -51035 
  -51015   -50985   -50931   -50806   -50508   -50086   -49621   -49138 
  -48655   -48215   -47944   -47819   -47751   -47736   -47670   -47536 
  -47431   -47312   -47131   -47004   -47012   -47033   -46931   -46741 
  -46631   -46644   -46601   -46450   -46386   -46535   -46814   -47138 
  -47432   -47602   -47630   -47524   -47389   -47462   -47692   -47863 
  -48114   -48561   -48986   -49321   -49668   -49998   -50226   -50298 
  -50337   -50555   -50838   -50951   -50942   -50827   -50522   -50141 
  -49678   -49082   -48518   -48015   -47506   -46996   -46488   -46024 
  -45588   -45138   -44689   -44254   -43843   -43485   -43243   -43080 
  -42904   -42789   -42755   -42654   -42490   -42318   -42000   -41566 
  -41224   -40915   -40564   -40311   -40069   -39692   -39350   -39081 
  -38760   -38487   -38323   -38201   -38149   -38173   -38136   -37817 
  -37118   -36192   -35200   -34242   -33478   -32919   -32421   -31970 
  -31519   -30922   -30223   -29582   -28949   -28298   -27914   -27874 
  -27848   -27746   -27630   -27349   -26921   -26559   -26369   -26451 
  -26824   -27303   -27675   -27867   -28013   -28222   -28520   -28951 
  -29475   -30035   -30633   -31295   -31999   -32534   -32879   -33301 
  -33819   -34304   -34716   -35012   -35261   -35511   -35609   -35556 
  -35689   -36071   -36232   -36069   -36031   -36195   -36384   -36592 
  -36727   -36843   -37188   -37630   -37891   -38051   -38223   -38373 
  -38462   -38461   -38492   -38723   -39059   -39297   -39374   -39330 
  -39292   -39431   -39712   -39893   -39918   -39940   -39995   -40013 
  -39963   -39883   -39818   -39744   -39667   -39622   -39603   -39620 
  -39598   -39437   -39278   -39286   -39410   -39638   -39992   -40386 
  -40705   -40774   -40557   -40276   -40055   -39878   -39791   -39857 
  -40098   -40427   -40713   -40929   -41101   -41279   -41572   -41977 
  -42382   -42777   -43128   -43347   -43533   -43735   -43870   -44017 
  -44166   -44185   -44156   -44187   -44284   -44457   -44655   -44684 
  -44525   -44366   -44128   -43735   -43426   -43227   -43027   -42889 
  -42730   -42467   -42297   -42268   -42171   -42014   -41938   -41851 
  -41653   -41476   -41382   -41278   -41178   -41112   -40994   -40818 
  -40620   -40396   -40319   -40591   -41080   -41613   -42222   -42865 
  -43433   -43946   -44485   -45020   -45504   -45990   -46457   -46823 
  -47113   -47351   -47549   -47767   -47936   -47971   -47900   -47631 
  -47120   -46475   -45713   -44966   -44473   -44200   -43998   -43824 
  -43668   -43540   -43465   -43390   -43256   -43113   -43014   -42896 
  -42702   -42527   -42384   -42199   -42099   -42182   -42367   -42616 
  -42875   -43014   -42988   -42732   -42189   -41592   -41143   -40773 
  -40550   -40494   -40372   -40136   -39788   -39182   -38489   -37959 
  -37436   -36854   -36445   -36177   -35841   -35576   -35488   -35364 
  -35222   -35137   -34896   -34454   -34011   -33580   -33051   -32484 
  -31980   -31486   -30949   -30404   -29903   -29506   -29250   -29106 
  -29068   -29180   -29358   -29427   -29382   -29330   -29307   -29385 
  -29607   -29895   -30252   -30706   -31163   -31519   -31781   -31989 
  -32092   -32126   -32278   -32608   -33052   -33541   -33984   -34425 
  -35006   -35646   -36187   -36663   -37163   -37638   -38073   -38523 
  -38847   -38975   -39083   -39181   -39197   -39219   -39299   -39394 
  -39428   -39342   -39202   -39101   -39025   -38970   -38924   -38915 
  -39138   -39591   -40003   -40335   -40701   -41054   -41292   -41383 
  -41412   -41520   -41783   -42160   -42538   -42921   -43341   -43662 
  -43811   -43859   -43823   -43722   -43633   -43581   -43540   -43504 
  -43517   -43621   -43791   -44007   -44207   -44357   -44592   -44887 
  -45045   -45077   -45144   -45275   -45391   -45539   -45827   -46118 
  -46281   -46448   -46639   -46693   -46666   -46669   -46571   -46393 
  -46297   -46087   -45610   -45133   -44806   -44520   -44268   -44133 
  -44123   -44162   -44225   -44297   -44337   -44319   -44161   -43843 
  -43495   -43163   -42821   -42572   -42421   -42201   -42030   -42096 
  -42088   -41898   -41955   -42157   -42146   -42230   -42572   -42753 
  -42734   -42867   -43050   -43081   -43175   -43433   -43662   -43737 
  -43829   -44063   -44147   -44082   -44273   -44549   -44625   -44797 
  -45096   -45155   -45042   -45049   -45102   -45091   -45240   -45628 
  -45972   -46224   -46587   -46953   -47123   -47201   -47323   -47441 
  -47508   -47636   -47842   -47887   -47731   -47635   -47601   -47399 
  -47153   -47151   -47156   -46841   -46517   -46430   -46289   -46068 
  -45985   -45896   -45701   -45586   -45611   -45627   -45474   -45214 
  -45077   -44916   -44563   -44393   -44419   -44172   -43685   -43332 
  -43101   -42778   -42517   -42383   -42091   -41750   -41597   -41477 
  -41258   -41021   -40982   -41122   -41224   -41399   -41704   -41979 
  -42279   -42743   -43325   -43891   -44420   -44940   -45367   -45595 
  -45717   -46003   -46355   -46387   -46334   -46533   -46598   -46444 
  -46451   -46386   -46020   -45781   -45721   -45511   -45352   -45452 
  -45562   -45563   -45553   -45558   -45554   -45471   -45320   -45183 
  -44925   -44486   -44138   -43879   -43491   -43113   -42813   -42494 
  -42289   -42180   -41988   -41782   -41683   -41720   -41863   -41929 
  -41858   -41849   -41834   -41679   -41701   -41956   -42127   -42232 
  -42358   -42434   -42483   -42597   -42736   -42795   -42881   -43037 
  -43117   -43094   -42844   -42398   -42014   -41595   -41109   -40725 
  -40298   -39730   -39130   -38563   -38004   -37454   -36986   -36514 
  -35908   -35305   -34876   -34492   -33993   -33573   -33299   -33028 
  -32919   -32951   -32815   -32689   -32888   -33196   -33441   -33805 
  -34258   -34645   -35130   -35866   -36641   -37343   -38140   -38989 
  -39742   -40419   -41032   -41519   -41838   -42020   -42124   -42278 
  -42579   -42866   -43064   -43340   -43781   -44242   -44574   -44837 
  -44981   -44938   -44898   -44969   -45157   -45354   -45325   -45065 
  -44693   -44341   -44045   -43619   -43066   -42645   -42351   -41960 
  -41550   -41254   -40902   -40529   -40254   -39921   -39652   -39648 
  -39684   -39582   -39450   -39363   -39253   -39131   -39161   -39295 
  -39318   -39321   -39520   -39773   -39858   -39849   -39886   -40012 
  -40178   -40300   -40471   -40772   -41033   -41252   -41588   -41904 
  -42074   -42212   -42312   -42369   -42476   -42486   -42326   -42228 
  -42167   -41954   -41703   -41575   -41428   -41137   -40849   -40603 
  -40373   -40250   -40124   -39926   -39845   -39865   -39763   -39518 
  -39348   -39302   -39179   -38972   -38827   -38734   -38551   -38177 
  -37756   -37377   -36942   -36499   -36028   -35500   -35178   -35047 
  -34837   -34747   -34934   -34937   -34666   -34560   -34484   -34181 
  -33967   -33958   -33985   -34139   -34372   -34370   -34218   -34156 
  -34062   -33901   -33918   -34159   -34459   -34812   -35240   -35561 
  -35793   -36103   -36323   -36472   -36900   -37415   -37689   -38006 
  -38487   -38775   -38837   -38958   -39105   -39189   -39338   -39500 
  -39539   -39524   -39495   -39369   -39111   -38795   -38427   -37943 
  -37524   -37294   -37045   -36789   -36663   -36541   -36474   -36532 
  -36445   -36204   -36029   -35852   -35627   -35483   -35353   -35067 
  -34648   -34243   -33917   -33571   -33233   -33070   -33026   -33011 
  -33096   -33180   -33186   -33272   -33389   -33421   -33562   -33911 
  -34303   -34654   -35025   -35468   -36004   -36640   -37298   -37916 
  -38529   -39098   -39511   -39790   -40092   -40411   -40558   -40568 
  -40695   -40930   -41031   -40973   -40884   -40825   -40858   -40822 
  -40513   -40226   -40096   -39778   -39328   -39064   -38848   -38445 
  -38026   -37735   -37430   -37162   -36980   -36701   -36420   -36243 
  -35896   -35383   -35012   -34800   -34551   -34230   -34024   -33953 
  -33749   -33416   -33224   -33146   -33026   -32875   -32659   -32402 
  -32292   -32210   -31925   -31669   -31587   -31474   -31323   -31209 
  -31150   -31180   -31189   -31145   -31221   -31413   -31547   -31593 
  -31687   -31926   -32218   -32425   -32617   -32892   -33206   -33556 
  -33928   -34294   -34763   -35255   -35518   -35689   -36066   -36441 
  -36479   -36419   -36577   -36762   -36797   -36858   -37013   -37146 
  -37246   -37337   -37408   -37486   -37582   -37577   -37471   -37458 
  -37474   -37358   -37187   -37020   -36874   -36762   -36584   -36409 
  -36388   -36357   -36227   -36138   -36103   -36109   -36104   -36041 
  -36095   -36296   -36432   -36551   -36794   -37037   -37258   -37550 
  -37786   -37993   -38373   -38774   -39047   -39421   -39918   -40290 
  -40634   -41077   -41428   -41716   -42080   -42361   -42582   -42961 
  -43316   -43455   -43641   -43963   -44218   -44479   -44830   -45108 
  -45340   -45702   -46047   -46198   -46329   -46526   -46659   -46825 
  -47140   -47447   -47687   -47976   -48262   -48398   -48464   -48573 
  -48605   -48545   -48616   -48797   -48837   -48813   -48912   -49013 
  -49080   -49202   -49303   -49432   -49692   -49918   -50019   -50200 
  -50524   -50805   -50994   -51246   -51662   -52100   -52370   -52588 
  -52891   -53192   -53413   -53565   -53786   -54146   -54435   -54584 
  -54816   -55173   -55514   -55836   -56107   -56349   -56731   -57062 
  -57098   -57047   -56976   -56783   -56557   -56283   -55929   -55570 
  -55122   -54517   -53925   -53434   -52912   -52277   -51623   -51017 
  -50388   -49794   -49341   -48904   -48522   -48332   -48076   -47696 
  -47509   -47371   -47037   -46791   -46798   -46845   -46854   -46916 
  -47003   -47066   -47166   -47279   -47343   -47491   -47778   -48006 
  -48111   -48240   -48426   -48471   -48313   -48208   -48236   -48203 
  -48027   -47779   -47537   -47321   -47017   -46572   -46178   -45919 
  -45593   -45141   -44695   -44286   -43899   -43425   -42795   -42219 
  -41720   -41046   -40233   -39471   -38772   -38140   -37536   -36893 
  -36365   -36015   -35567   -34971   -34516   -34165   -33653   -33085 
  -32679   -32363   -32019   -31605   -31131   -30774   -30636   -30504 
  -30303   -30217   -30214   -30187   -30196   -30216   -30261   -30432 
  -30613   -30749   -31001   -31369   -31728   -32072   -32417   -32733 
  -32980   -33126   -33208   -33268   -33310   -33417   -33645   -33841 
  -33937   -34118   -34348   -34487   -34698   -34981   -35204   -35562 
  -35992   -36204   -36387   -36617   -36610   -36533   -36618   -36627 
  -36597   -36684   -36558   -36285   -36217   -36074   -35734   -35536 
  -35532   -35519   -35409   -35434   -35695   -35929   -36157   -36495 
  -36828   -37216   -37649   -37904   -38064   -38355   -38648   -38796 
  -39010   -39314   -39495   -39639   -39908   -40244   -40572   -40922 
  -41224   -41327   -41388   -41556   -41570   -41448   -41542   -41724 
  -41721   -41672   -41646   -41544   -41427   -41314   -41188   -41157 
  -41157   -41035   -40935   -40981   -41030   -41065   -41176   -41346 
  -41568   -41828   -42101   -42344   -42523   -42702   -42848   -42937 
  -43178   -43588   -43879   -44040   -44327   -44661   -44823   -44970 
  -45189   -45358   -45552   -45800   -45945   -46006   -46114   -46219 
  -46201   -46128   -46160   -46212   -46165   -46172   -46263   -46289 
  -46290   -46304   -46282   -46273   -46193   -45946   -45733   -45672 
  -45631   -45517   -45317   -45131   -44995   -44773   -44485   -44228 
  -43959   -43708   -43572   -43490   -43396   -43344   -43232   -42939 
  -42669   -42484   -42195   -41837   -41448   -40952   -40405   -39854 
  -39271   -38654   -38108   -37725   -37344   -36924   -36641   -36357 
  -35913   -35522   -35277   -35095   -35037   -35088   -35127   -35161 
  -35217   -35295   -35421   -35564   -35737   -36068   -36539   -37021 
  -37513   -38026   -38475   -38824   -39191   -39652   -40084   -40407 
  -40725   -41030   -41138   -41118   -41157   -41156   -41074   -41063 
  -41084   -41062   -41056   -40986   -40742   -40456   -40314   -40249 
  -40100   -39923   -39771   -39513   -39140   -38753   -38341   -37899 
  -37472   -37013   -36473   -35981   -35613   -35176   -34656   -34309 
  -34071   -33762   -33482   -33229   -32959   -32725   -32377   -31884 
  -31486   -31185   -30816   -30433   -30073   -29651   -29188   -28728 
  -28254   -27833   -27540   -27286   -27008   -26816   -26718   -26599 
  -26445   -26338   -26324   -26340   -26370   -26490   -26770   -27084 
  -27210   -27198   -27187   -27223   -27355   -27561   -27814   -28171 
  -28578   -28868   -29078   -29316   -29521   -29696   -29887   -30130 
  -30466   -30714   -30796   -30959   -31256   -31479   -31558   -31664 
  -31922   -32188   -32291   -32327   -32489   -32755   -32970   -33121 
  -33279   -33440   -33556   -33625   -33773   -34135   -34581   -34902 
  -35186   -35597   -36114   -36634   -37065   -37497   -38071   -38640 
  -39062   -39475   -39920   -40277   -40600   -40956   -41238   -41455 
  -41670   -41822   -41919   -42036   -42192   -42374   -42567   -42779 
  -42965   -43044   -43057   -43119   -43211   -43198   -43089   -43100 
  -43233   -43245   -43178   -43218   -43194   -42965   -42753   -42632 
  -42510   -42471   -42524   -42565   -42651   -42806   -42911   -43016 
  -43249   -43540   -43858   -44253   -44651   -45036   -45376   -45605 
  -45848   -46142   -46393   -46640   -46934   -47253   -47542   -47772 
  -47983   -48195   -48454   -48757   -48982   -49139   -49346   -49480 
  -49396   -49322   -49493   -49661   -49524   -49317   -49388   -49539 
  -49464   -49357   -49417   -49420   -49280   -49141   -48973   -48854 
  -48902   -48831   -48613   -48655   -48827   -48748   -48557   -48510 
  -48599   -48674   -48676   -48667   -48684   -48716   -48663   -48543 
  -48580   -48752   -48806   -48779   -48888   -49109   -49189   -49135 
  -49193   -49319   -49380   -49344   -49183   -49198   -49472   -49534 
  -49382   -49416   -49538   -49504   -49366   -49280   -49336   -49378 
  -49268   -49210   -49232   -49152   -49013   -48865   -48723   -48614 
  -48349   -47925   -47621   -47417   -47130   -46804   -46534   -46300 
  -46067   -45802   -45474   -45199   -45031   -44772   -44497   -44456 
  -44470   -44301   -44067   -43893   -43759   -43662   -43567   -43396 
  -43250   -43291   -43338   -43233   -43185   -43110   -42774   -42429 
  -42257   -42127   -41928   -41582   -41268   -41150   -40978   -40626 
  -40311   -40131   -39993   -39791   -39525   -39331   -39227   -39008 
  -38612   -38321   -38279   -38227   -38087   -37976   -37759   -37405 
  -37036   -36603   -36180   -35889   -35609   -35336   -35215   -35205 
  -35131   -34916   -34752   -34807   -34839   -34752   -34859   -35172 
  -35430   -35575   -35678   -35822   -35994   -36093   -36145   -36198 
  -36314   -36508   -36527   -36496   -36813   -37138   -37230   -37433 
  -37771   -38147   -38438   -38557   -38812   -39231   -39501   -39652 
  -40024   -40650   -41222   -41743   -42244   -42718   -43271   -43699 
  -43971   -44376   -44917   -45351   -45608   -45801   -45908   -45945 
  -45918   -45756   -45693   -45737   -45583   -45373   -45298   -45205 
