Origin Time       2011/03/11 14:46:00
Lat.              38.103
Long.             142.860
Depth. (km)       24
Mag.              9.0
Station Code      MIE002
Station Lat.      35.0283
Station Long.     136.5069
Station Height(m) 79
Record Time       2011/03/11 14:49:40
Sampling Freq(Hz) 100Hz
Duration Time(s)  161
Dir.              U-D
Scale Factor      3920(gal)/6182761
Max. Acc. (gal)   5.096
Last Correction   2011/03/11 14:49:25
Memo.             
[...]
   33696    33674    33709    33695    33690    33711    33667    33654 
   33754    33803    33684    33529    33471    33462    33383    33199 
   32999    32893    32850    32848    32932    32922    32644    32271 
   31976    31772    31743    31903    31966    31785    31667    31659 
   31510    31409    31573    31723    31714    31716    31645    31431 
   31377    31529    31662    31833    32079    32284    32516    32793 
   33034    33362    33799    34129    34383    34746    35086    35257 
   35420    35678    35982    36328    36607    36796    37038    37267 
   37399    37558    37716    37779    37840    37946    38079    38230 
   38291    38163    37901    37736    37825    38016    38224    38499 
   38648    38558    38437    38370    38312    38252    38147    38091 
   38174    38175    37998    37828    37673    37469    37304    37245 
   37240    37194    37009    36667    36332    36041    35667    35367 
   35281    35162    34864    34507    34137    33773    33518    33318 
   32989    32657    32484    32234    31913    31848    31894    31792 
   31671    31591    31496    31407    31317    31295    31356    31401 
   31494    31601    31563    31507    31515    31419    31357    31577 
   31769    31701    31685    31701    31522    31380    31438    31620 
   31859    31984    31951    31957    31974    31841    31683    31633 
   31599    31539    31476    31362    31149    30955    30963    31076 
   31110    31090    30975    30710    30585    30759    30878    30799 
   30790    30780    30566    30362    30273    30117    29932    29871 
   29890    29966    30082    30048    29762    29423    29207    29091 
   29059    29106    29127    29082    28955    28760    28702    28821 
   28913    29027    29309    29607    29792    29935    30023    30065 
   30234    30529    30836    31159    31436    31614    31798    31990 
   32177    32375    32467    32490    32575    32657    32752    32932 
   33161    33442    33729    33940    34146    34368    34480    34448 
   34363    34290    34234    34223    34353    34599    34755    34729 
   34636    34623    34739    34844    34805    34712    34706    34771 
   34771    34745    34910    35074    34915    34713    34739    34788 
   34831    34910    34840    34697    34666    34626    34553    34613 
   34731    34683    34507    34469    34599    34584    34388    34314 
   34347    34282    34181    34156    34211    34373    34550    34539 
   34354    34161    33981    33838    33859    33990    34061    34099 
   34195    34342    34468    34427    34280    34173    34003    33802 
   33736    33716    33677    33634    33429    33113    32968    32952 
   32909    32896    32972    33115    33102    32800    32634    32842 
   32985    32883    32887    33090    33239    33193    33028    32918 
   32880    32790    32646    32537    32537    32571    32491    32413 
   32459    32506    32457    32296    32184    32319    32433    32338 
   32362    32540    32638    32739    32847    32906    33062    33255 
   33397    33628    33912    34154    34385    34562    34696    34850 
   34913    34859    34895    35071    35239    35327    35343    35276 
   35150    35039    34895    34714    34673    34713    34561    34234 
   33877    33482    33120    32867    32611    32363    32250    32125 
   31801    31412    31111    30857    30653    30510    30319    30091 
   29897    29667    29413    29253    29153    28992    28787    28676 
   28707    28680    28515    28475    28642    28800    28917    29043 
   29120    29164    29173    29141    29239    29470    29598    29656 
   29789    29968    30130    30168    30171    30410    30702    30805 
   30919    31072    31094    31086    31116    31133    31214    31344 
   31396    31403    31432    31431    31303    31084    30990    31046 
   31092    31114    31062    30877    30747    30775    30778    30703 
   30654    30545    30332    30228    30247    30189    30079    30027 
   30007    30054    30172    30165    30067    30134    30228    30193 
   30302    30554    30581    30421    30374    30408    30448    30596 
   30744    30788    30931    31152    31163    31026    30973    30975 
   30961    31004    31154    31311    31310    31130    30932    30827 
   30792    30783    30745    30737    30812    30746    30494    30328 
   30289    30272    30251    30211    30277    30475    30512    30358 
   30313    30359    30286    30106    29952    29993    30196    30270 
   30194    30232    30384    30410    30357    30508    30792    30953 
   31033    31104    31132    31181    31260    31355    31578    31904 
   32129    32238    32334    32388    32380    32388    32443    32556 
   32755    32961    33141    33380    33579    33655    33723    33781 
   33837    33972    34082    34137    34254    34364    34375    34372 
   34374    34373    34392    34346    34272    34223    34069    33905 
   33851    33687    33474    33489    33563    33554    33559    33414 
   33135    33049    33035    32862    32747    32775    32695    32523 
   32500    32568    32497    32349    32301    32313    32378    32535 
   32602    32571    32672    32776    32735    32777    32912    32932 
   32891    32940    33063    33197    33340    33414    33316    33211 
   33246    33174    32970    32993    33145    33093    33009    33076 
   33129    33093    33004    32864    32795    32867    32908    32865 
   32893    32948    32920    32880    32923    33043    33082    32966 
   32875    32903    32993    33065    33062    33078    33127    32989 
   32706    32600    32656    32629    32544    32470    32320    32132 
   31960    31740    31567    31532    31484    31371    31312    31321 
   31324    31225    31044    30941    30915    30889    30909    30981 
   31010    30938    30824    30776    30791    30803    30839    30915 
   30975    31031    31088    31078    31064    31117    31123    31125 
   31240    31354    31412    31444    31362    31203    31062    30954 
   31027    31274    31391    31308    31193    31119    31091    31082 
   31047    30978    30894    30848    30900    31006    31078    31137 
   31182    31226    31340    31452    31543    31675    31753    31750 
   31767    31824    31922    32050    32160    32232    32272    32273 
   32235    32231    32325    32432    32466    32464    32467    32416 
   32265    32113    32032    31923    31783    31718    31697    31638 
   31529    31333    31082    30912    30808    30673    30602    30649 
   30692    30649    30525    30449    30493    30555    30564    30487 
   30380    30375    30378    30327    30431    30669    30824    30950 
   31049    31005    30924    30850    30768    30823    30930    30915 
   30944    31157    31352    31380    31351    31362    31412    31489 
   31558    31585    31648    31825    31945    31886    31815    31845 
   31939    32069    32230    32434    32624    32725    32811    33017 
   33270    33327    33220    33210    33305    33337    33303    33298 
   33347    33443    33565    33660    33746    33823    33763    33575 
   33534    33727    33868    33838    33845    33863    33762    33728 
   33854    33963    33984    33952    33888    33862    33897    33884 
   33799    33708    33639    33595    33551    33551    33625    33639 
   33549    33478    33505    33583    33545    33349    33167    33031 
   32853    32764    32858    32880    32706    32510    32301    32058 
   31928    31854    31664    31433    31290    31155    30925    30704 
   30601    30458    30185    29961    29858    29813    29729    29493 
   29255    29102    28888    28732    28682    28519    28316    28190 
   28033    27877    27757    27564    27320    27149    27030    26911 
   26880    26951    26951    26770    26529    26421    26424    26418 
   26498    26673    26751    26750    26790    26879    27049    27222 
   27217    27067    26985    27097    27300    27435    27588    27815 
   27874    27692    27611    27850    28128    28234    28382    28622 
   28739    28762    28817    28846    28849    28829    28653    28439 
   28497    28737    28798    28694    28664    28576    28287    28108 
   28197    28303    28294    28211    28124    28117    28146    28104 
   28040    28066    28140    28137    28124    28300    28550    28594 
   28486    28426    28519    28725    28820    28873    29130    29410 
   29555    29740    30035    30322    30492    30561    30702    31029 
   31375    31607    31894    32238    32471    32613    32677    32740 
   32947    33092    33090    33298    33727    34055    34251    34419 
   34594    34761    34862    34971    35205    35445    35541    35578 
   35687    35820    35886    35889    35822    35758    35778    35731 
   35655    35761    35739    35361    35090    35100    35110    35141 
   35242    35241    35198    35156    34975    34847    34898    34779 
   34538    34540    34621    34599    34604    34611    34567    34543 
   34489    34406    34449    34572    34608    34610    34664    34801 
   35029    35177    35201    35268    35321    35244    35133    35091 
   35107    35088    35014    35041    35182    35141    34838    34578 
   34416    34105    33722    33480    33284    33089    32853    32362 
   31860    31720    31611    31316    31197    31264    31135    30811 
   30629    30558    30352    30142    30044    30070    30296    30476 
   30458    30459    30547    30620    30526    30303    30237    30278 
   30142    29954    29909    29832    29722    29660    29563    29619 
   29821    29857    29855    29980    30037    29972    29936    29962 
   29983    29985    29939    29821    29692    29562    29468    29478 
   29546    29703    29869    29841    29826    29925    29762    29418 
   29334    29302    29031    28848    28888    28933    29029    29086 
   28874    28725    28860    28811    28571    28635    28734    28483 
   28315    28424    28486    28497    28496    28406    28341    28262 
   28034    27823    27747    27689    27595    27462    27335    27200 
   26922    26660    26617    26521    26238    26053    25993    25930 
   25938    25862    25582    25534    25773    25779    25626    25670 
   25695    25476    25279    25312    25411    25518    25635    25612 
   25703    26060    26147    25946    26020    26315    26446    26415 
   26498    26636    26548    26499    26790    27152    27406    27649 
   27912    28217    28525    28628    28574    28708    28945    29089 
   29401    29856    30137    30327    30621    31086    31674    32048 
   32042    32109    32512    32870    33023    33202    33585    34111 
   34442    34627    35030    35472    35706    35952    36279    36411 
   36448    36717    36968    37113    37511    37815    37726    37829 
   38271    38512    38574    38905    39326    39442    39437    39527 
   39628    39557    39278    39085    39140    39377    39588    39493 
   39389    39619    39798    39648    39432    39385    39313    39019 
   38699    38510    38399    38288    38151    38068    38079    38079 
   37867    37479    37234    37160    37050    36904    36869    36873 
   36748    36590    36446    36255    36123    36068    36108    36351 
   36616    36668    36637    36607    36360    35964    35824    36043 
   36451    36810    36809    36526    36347    36213    36029    36145 
   36418    36315    36045    35890    35674    35569    35647    35575 
   35459    35455    35231    34775    34478    34391    34280    34121 
   34014    33957    33984    33996    33781    33513    33396    33317 
   33287    33400    33536    33522    33312    33015    32766    32583 
   32445    32328    32201    32125    32080    31881    31566    31329 
   31117    30927    30969    31116    31060    30941    30912    30784 
   30632    30691    30811    30798    30625    30278    29859    29481 
   29090    28737    28580    28578    28579    28467    28156    27741 
   27378    27040    26749    26681    26793    26810    26629    26434 
   26368    26283    26024    25817    25929    26190    26311    26257 
   26099    25950    25909    25986    26210    26508    26644    26562 
   26429    26399    26588    26987    27403    27777    28207    28540 
   28591    28618    28811    28882    28788    28852    29058    29245 
   29531    29792    29829    29944    30175    30191    30226    30533 
   30801    30942    31129    31273    31310    31306    31245    31224 
   31352    31430    31332    31291    31382    31381    31265    31133 
   30969    30835    30724    30562    30486    30521    30574    30587 
   30471    30402    30513    30575    30558    30583    30559    30353 
   30068    29877    29669    29480    29495    29492    29403    29383 
   29311    29165    29044    29005    29092    29196    29247    29185 
   28957    28738    28700    28849    29051    29165    29215    29245 
   29207    29081    28993    29050    29139    29149    29212    29529 
   29860    29911    29985    30228    30429    30738    31157    31361 
   31522    31796    31774    31578    31796    32202    32423    32767 
   33287    33634    33845    34051    34228    34474    34796    35110 
   35431    35730    36018    36349    36662    36929    37172    37366 
   37499    37636    37858    38119    38365    38604    38755    38851 
   38974    38977    38908    39027    39221    39359    39596    39824 
   39871    39910    39992    40006    40051    40144    40218    40340 
   40498    40566    40464    40242    40061    39941    39830    39807 
   39858    39833    39707    39577    39478    39402    39371    39325 
   39200    39108    39047    38893    38737    38654    38559    38501 
   38496    38364    38208    38208    38111    37914    37916    37855 
   37546    37364    37284    37038    36794    36650    36519    36447 
   36371    36157    35921    35794    35653    35434    35274    35266 
   35369    35386    35179    34983    34916    34770    34640    34724 
   34854    34929    34956    34848    34769    34842    34817    34744 
   34914    35198    35387    35438    35280    35092    35076    34975 
   34732    34720    34859    34811    34669    34565    34485    34435 
   34281    34050    33954    33874    33629    33326    33065    32836 
   32635    32391    32069    31876    31851    31674    31370    31218 
   31072    30737    30411    30275    30216    30065    29812    29595 
   29471    29285    29003    28815    28696    28475    28207    27970 
   27796    27726    27527    27115    26936    27095    27176    27140 
   27181    27240    27335    27470    27516    27616    27821    27902 
   27998    28302    28570    28703    28857    28978    29069    29286 
   29511    29665    29927    30297    30587    30715    30862    31159 
   31322    31276    31414    31699    31787    31836    31984    32022 
   32010    32061    32073    32115    32245    32236    32058    32037 
   32163    32112    31955    31893    31807    31620    31456    31354 
   31357    31466    31400    31256    31471    31698    31501    31283 
   31226    31089    30910    30736    30693    30894    30988    30889 
   30960    31092    31084    31124    31234    31374    31627    31755 
   31613    31648    31963    32082    32008    32137    32436    32636 
   32706    32821    33078    33314    33383    33427    33606    33858 
   34101    34296    34485    34829    35226    35412    35553    35892 
   36253    36439    36493    36527    36758    37199    37422    37424 
   37669    37951    37902    37962    38359    38648    38757    38912 
   39050    39180    39397    39507    39477    39634    39915    39923 
   39810    39968    40246    40325    40276    40381    40574    40532 
   40372    40343    40380    40438    40360    40016    39775    39770 
   39609    39370    39339    39257    39055    38987    38996    39107 
   39376    39417    39161    39049    39086    38963    38796    38772 
   38749    38621    38508    38544    38635    38531    38247    38014 
   37886    37832    37810    37658    37356    37095    36880    36521 
   36119    35932    35782    35483    35275    35130    34800    34488 
   34299    34048    33877    33818    33692    33616    33575    33410 
   33250    33081    32850    32726    32592    32325    32130    32020 
   31879    31782    31735    31682    31641    31486    31224    31136 
   31060    30703    30467    30548    30450    30218    30292    30365 
   30150    29991    29890    29679    29605    29618    29436    29273 
   29320    29300    29095    28962    29011    29009    28817    28714 
   28887    29015    28959    28926    28927    28960    29040    29024 
   29045    29279    29429    29344    29369    29597    29764    29843 
   29771    29546    29614    29914    29934    29942    30287    30522 
   30469    30590    30851    30920    30933    30885    30749    30844 
   31038    31116    31294    31462    31451    31515    31672    31810 
   32069    32200    31949    31875    32113    32046    31837    31942 
   32143    32214    32163    32097    32148    32259    32387    32572 
   32775    32935    33094    33231    33207    33247    33542    33732 
   33833    34200    34579    34701    34795    34909    34913    34986 
   35246    35491    35637    35729    35767    35849    36027    36194 
   36336    36445    36460    36535    36721    36764    36734    36838 
   36891    36881    37003    37108    37111    37167    37254    37315 
   37349    37349    37465    37642    37594    37500    37626    37692 
   37602    37602    37609    37564    37610    37637    37560    37519 
   37553    37666    37831    37944    38050    38136    37994    37821 
   37961    38098    37917    37726    37686    37610    37536    37539 
   37498    37395    37252    37025    36842    36840    36897    36841 
   36678    36481    36285    36148    36021    35835    35797    35935 
   35965    35957    36124    36301    36441    36643    36747    36730 
   36718    36663    36650    36758    36818    36823    36868    36892 
   36949    36987    36809    36652    36720    36734    36672    36751 
   36881    36936    36918    36857    36839    36841    36796    36769 
   36783    36777    36811    36883    36835    36758    36774    36679 
   36514    36520    36543    36444    36375    36326    36216    36155 
   36114    35941    35669    35412    35226    35097    34964    34799 
   34547    34242    33973    33686    33461    33395    33329    33165 
   32887    32567    32377    32241    32078    31986    31927    31729 
   31192    30672    30792    31025    30698    30285    30169    30189 
   30266    30331    30264    30035    29858    29915    29945    29841 
   29825    29780    29558    29366    29354    29452    29497    29507 
   29644    29776    29797    29923    30047    29980    29912    29842 
   29770    29939    30197    30328    30450    30590    30697    30752 
   30733    30749    30917    31144    31227    31188    31244    31335 
   31322    31339    31417    31471    31553    31693    31829    31957 
   32157    32274    32127    31992    32051    32091    32093    32142 
   32124    32040    32031    32083    32127    32126    32022    31911 
   31922    31929    31841    31780    31820    31895    31933    31979 
   32004    31963    31943    31856    31661    31571    31579    31562 
