Origin Time       2011/03/11 14:46:00
Lat.              38.103
Long.             142.860
Depth. (km)       24
Mag.              9.0
Station Code      MIE011
Station Lat.      34.4284
Station Long.     136.3328
Station Height(m) 143
Record Time       2011/03/11 14:50:19
Sampling Freq(Hz) 100Hz
Duration Time(s)  71
Dir.              N-S
Scale Factor      3920(gal)/6182761
Max. Acc. (gal)   1.775
Last Correction   2011/03/11 14:50:04
Memo.             
[...]
  -80089   -80095   -80102   -80060   -80085   -80230   -80324   -80341 
  -80425   -80542   -80564   -80576   -80672   -80742   -80775   -80855 
  -80965   -81098   -81183   -81173   -81186   -81180   -81054   -80911 
  -80828   -80773   -80735   -80693   -80634   -80540   -80390   -80247 
  -80118   -79955   -79792   -79673   -79617   -79597   -79554   -79487 
  -79475   -79521   -79564   -79615   -79675   -79734   -79798   -79827 
  -79849   -79892   -79912   -79922   -79971   -80001   -79960   -79923 
  -79913   -79905   -79882   -79837   -79815   -79788   -79766   -79788 
  -79782   -79757   -79786   -79829   -79866   -79925   -79996   -80078 
  -80137   -80171   -80195   -80144   -80039   -79919   -79804   -79749 
  -79741   -79722   -79686   -79701   -79785   -79846   -79828   -79790 
  -79806   -79869   -79933   -79965   -80010   -80092   -80138   -80127 
  -80104   -80080   -80041   -80059   -80163   -80235   -80245   -80262 
  -80315   -80337   -80310   -80286   -80240   -80186   -80086   -79929 
  -79790   -79660   -79565   -79515   -79470   -79506   -79664   -79804 
  -79859   -79938   -80018   -80042   -80099   -80125   -80089   -80090 
  -80094   -80151   -80285   -80341   -80342   -80351   -80350   -80409 
  -80463   -80431   -80480   -80677   -80829   -80794   -80670   -80553 
  -80426   -80345   -80275   -80155   -80104   -80101   -80016   -79866 
  -79785   -79826   -79851   -79809   -79815   -79960   -80109   -80035 
  -79907   -79998   -80186   -80289   -80283   -80203   -80164   -80174 
  -80079   -79981   -80021   -80007   -79901   -79830   -79754   -79695 
  -79630   -79479   -79393   -79367   -79293   -79334   -79392   -79316 
  -79303   -79320   -79308   -79401   -79505   -79559   -79692   -79852 
  -79918   -79936   -79956   -80005   -80077   -80092   -80042   -80033 
  -80101   -80133   -80126   -80183   -80201   -80122   -80096   -80127 
  -80206   -80342   -80401   -80408   -80463   -80443   -80318   -80187 
  -80038   -79950   -79977   -79906   -79770   -79780   -79774   -79661 
  -79582   -79510   -79466   -79540   -79609   -79611   -79637   -79666 
  -79707   -79821   -79861   -79798   -79761   -79700   -79649   -79661 
  -79633   -79649   -79749   -79752   -79698   -79709   -79723   -79716 
  -79712   -79745   -79781   -79769   -79799   -79827   -79797   -79780 
  -79772   -79810   -79844   -79815   -79794   -79710   -79615   -79594 
  -79502   -79400   -79415   -79433   -79411   -79382   -79326   -79267 
  -79238   -79227   -79223   -79273   -79406   -79555   -79636   -79632 
  -79656   -79738   -79726   -79724   -79878   -79951   -79906   -79991 
  -80117   -80101   -80060   -80100   -80166   -80210   -80234   -80285 
  -80405   -80537   -80595   -80565   -80489   -80443   -80442   -80404 
  -80313   -80279   -80275   -80186   -80030   -79855   -79775   -79727 
  -79537   -79424   -79525   -79562   -79441   -79380   -79435   -79407 
  -79248   -79150   -79189   -79235   -79267   -79335   -79366   -79354 
  -79382   -79431   -79446   -79491   -79626   -79722   -79692   -79679 
  -79738   -79797   -79853   -79840   -79790   -79819   -79764   -79613 
  -79627   -79705   -79664   -79665   -79787   -79862   -79851   -79848 
  -79853   -79836   -79776   -79665   -79585   -79499   -79336   -79210 
  -79160   -79145   -79147   -79118   -79088   -79030   -78892   -78764 
  -78653   -78498   -78405   -78348   -78171   -78007   -77990   -77954 
  -77853   -77914   -78121   -78248   -78355   -78540   -78615   -78527 
  -78529   -78666   -78693   -78627   -78672   -78745   -78749   -78766 
  -78775   -78753   -78748   -78692   -78573   -78505   -78506   -78534 
  -78598   -78669   -78724   -78791   -78809   -78751   -78734   -78865 
  -79042   -79079   -79112   -79229   -79166   -79015   -79065   -79073 
  -78880   -78814   -78890   -78776   -78570   -78551   -78549   -78423 
  -78382   -78464   -78536   -78574   -78601   -78652   -78786   -78904 
  -78959   -79150   -79394   -79420   -79444   -79722   -79949   -79938 
  -79968   -80103   -80153   -80121   -80143   -80177   -80035   -79804 
  -79733   -79726   -79591   -79496   -79538   -79522   -79463   -79465 
  -79411   -79293   -79200   -79125   -79089   -79075   -79049   -79085 
  -79133   -79112   -79099   -79097   -79088   -79114   -79080   -78967 
  -78986   -79087   -79106   -79141   -79183   -79209   -79304   -79285 
  -79160   -79175   -79174   -79045   -78983   -78945   -78846   -78794 
  -78807   -78810   -78830   -78873   -78885   -78936   -79010   -78998 
  -78991   -79078   -79192   -79257   -79260   -79236   -79247   -79243 
  -79152   -79116   -79136   -79097   -79143   -79237   -79154   -79005 
  -78928   -78811   -78762   -78854   -78863   -78864   -78932   -78917 
  -78914   -78989   -79064   -79147   -79137   -79042   -79070   -79125 
  -79045   -78971   -78973   -78970   -78939   -78847   -78732   -78692 
  -78621   -78512   -78532   -78594   -78568   -78546   -78556   -78535 
  -78557   -78646   -78673   -78667   -78695   -78715   -78809   -78919 
  -78886   -78986   -79202   -79216   -79209   -79194   -79072   -79056 
  -79051   -78919   -78884   -78982   -79027   -79096   -79256   -79402 
  -79557   -79646   -79599   -79620   -79734   -79716   -79670   -79774 
  -79825   -79793   -79808   -79836   -79825   -79780   -79809   -79871 
  -79904   -79932   -79845   -79702   -79588   -79495   -79432   -79363 
  -79279   -79224   -79237   -79240   -79175   -79092   -79044   -79051 
  -78976   -78864   -78846   -78855   -78918   -78958   -78880   -78885 
  -79021   -78995   -78860   -78931   -79039   -79060   -79120   -79151 
  -79170   -79242   -79312   -79311   -79275   -79296   -79329   -79299 
  -79165   -79025   -78993   -78942   -78848   -78798   -78781   -78796 
  -78814   -78854   -78952   -79089   -79237   -79295   -79315   -79390 
  -79463   -79561   -79546   -79413   -79529   -79736   -79719   -79682 
  -79708   -79736   -79811   -79858   -79868   -79935   -80117   -80256 
  -80161   -80166   -80379   -80411   -80315   -80253   -80179   -80177 
  -80230   -80209   -80139   -80146   -80273   -80352   -80295   -80197 
  -80109   -80131   -80255   -80247   -80206   -80324   -80406   -80407 
  -80439   -80495   -80590   -80643   -80635   -80730   -80853   -80795 
  -80744   -80917   -81004   -80812   -80764   -80885   -80744   -80588 
  -80628   -80506   -80337   -80361   -80281   -80134   -80268   -80382 
  -80220   -80200   -80349   -80301   -80139   -80002   -79876   -79798 
  -79721   -79675   -79739   -79734   -79614   -79611   -79625   -79518 
  -79495   -79530   -79501   -79533   -79636   -79684   -79691   -79728 
  -79808   -79870   -79894   -79914   -79949   -80064   -80212   -80289 
  -80342   -80368   -80388   -80443   -80444   -80446   -80544   -80562 
  -80477   -80497   -80570   -80562   -80556   -80573   -80614   -80751 
  -80869   -80897   -80971   -81097   -81232   -81390   -81489   -81584 
  -81780   -81909   -81946   -82051   -82124   -82092   -82117   -82214 
  -82267   -82251   -82165   -82108   -82157   -82116   -81926   -81833 
  -81857   -81820   -81741   -81716   -81716   -81711   -81686   -81637 
  -81658   -81656   -81519   -81439   -81431   -81354   -81249   -81140 
  -81026   -80957   -80873   -80723   -80594   -80435   -80203   -80048 
  -79904   -79702   -79566   -79479   -79459   -79522   -79514   -79523 
  -79633   -79600   -79474   -79437   -79348   -79222   -79213   -79169 
  -79012   -78935   -78927   -78870   -78799   -78752   -78801   -78889 
  -78839   -78788   -78847   -78831   -78741   -78716   -78717   -78638 
  -78526   -78516   -78565   -78592   -78606   -78597   -78647   -78775 
  -78839   -78867   -78928   -78963   -78975   -78977   -78998   -79050 
  -78984   -78880   -78959   -78991   -78885   -78956   -79163   -79241 
  -79216   -79265   -79411   -79518   -79482   -79421   -79510   -79667 
  -79690   -79575   -79516   -79567   -79589   -79523   -79436   -79401 
  -79367   -79314   -79335   -79292   -79055   -78945   -79081   -79058 
  -78907   -78937   -79003   -78997   -79001   -79075   -79250   -79305 
  -79241   -79345   -79350   -79152   -79143   -79174   -79055   -78939 
  -78836   -78750   -78624   -78423   -78310   -78295   -78181   -78006 
  -77976   -78011   -77929   -77852   -78009   -78191   -78104   -78058 
  -78233   -78304   -78256   -78262   -78287   -78300   -78267   -78251 
  -78253   -78158   -78154   -78238   -78147   -78076   -78241   -78356 
  -78222   -78125   -78211   -78244   -78244   -78308   -78332   -78376 
  -78381   -78177   -78086   -78289   -78345   -78175   -78085   -78027 
  -77949   -78023   -78135   -78034   -77863   -77901   -78074   -77987 
  -77581   -77394   -77541   -77419   -77091   -77112   -77208   -76987 
  -76812   -76955   -77086   -76975   -76904   -77087   -77272   -77237 
  -77265   -77535   -77696   -77696   -77842   -77995   -77968   -78047 
  -78291   -78369   -78287   -78245   -78262   -78365   -78411   -78316 
  -78372   -78459   -78235   -78114   -78267   -78217   -78105   -78169 
  -78114   -78047   -78181   -78240   -78204   -78159   -77964   -77898 
  -78199   -78428   -78315   -78221   -78351   -78425   -78375   -78436 
  -78447   -78246   -78116   -78020   -77811   -77730   -77761   -77648 
  -77559   -77743   -77915   -77818   -77818   -78093   -78203   -78055 
  -78012   -78230   -78592   -78735   -78681   -78825   -79141   -79387 
  -79485   -79570   -79685   -79730   -79844   -80020   -80117   -80222 
  -80308   -80374   -80445   -80365   -80359   -80584   -80567   -80338 
  -80366   -80508   -80570   -80584   -80479   -80425   -80458   -80334 
  -80232   -80245   -80155   -80118   -80150   -79936   -79624   -79631 
  -79843   -79777   -79487   -79442   -79626   -79691   -79644   -79689 
  -79661   -79524   -79604   -79638   -79390   -79294   -79354   -79318 
  -79244   -79107   -78986   -78987   -78930   -78794   -78728   -78699 
  -78637   -78603   -78803   -79056   -78862   -78708   -79087   -79308 
  -79242   -79264   -79220   -79283   -79466   -79376   -79271   -79310 
  -79253   -79243   -79327   -79396   -79439   -79434   -79545   -79660 
  -79555   -79561   -79771   -79788   -79776   -80012   -80172   -80212 
  -80393   -80587   -80669   -80728   -80779   -80781   -80733   -80662 
  -80606   -80550   -80425   -80346   -80356   -80210   -79995   -79948 
  -79915   -79809   -79713   -79608   -79537   -79538   -79526   -79516 
  -79509   -79448   -79416   -79415   -79367   -79342   -79376   -79381 
  -79403   -79498   -79507   -79486   -79664   -79811   -79724   -79716 
  -79867   -79917   -79901   -79977   -80100   -80159   -80203   -80332 
  -80441   -80413   -80410   -80545   -80604   -80548   -80585   -80658 
  -80700   -80826   -81000   -81120   -81185   -81230   -81271   -81279 
  -81230   -81219   -81227   -81152   -81149   -81216   -81189   -81181 
  -81223   -81268   -81335   -81275   -81215   -81365   -81427   -81292 
  -81226   -81202   -81136   -81157   -81231   -81232   -81166   -81073 
  -81010   -80958   -80806   -80629   -80569   -80551   -80477   -80395 
  -80354   -80322   -80258   -80131   -80065   -80062   -79763   -79583 
  -79903   -79664   -79055   -79438   -79821   -79197   -79021   -79482 
  -79429   -79178   -79104   -79232   -79376   -79119   -79062   -79327 
  -79213   -79008   -79130   -79231   -79167   -79143   -79206   -79322 
  -79272   -79104   -79216   -79286   -79019   -78976   -79152   -79023 
  -78732   -78683   -78826   -78740   -78462   -78480   -78636   -78468 
  -78211   -78255   -78348   -78065   -77737   -77882   -78081   -77892 
  -77695   -77812   -77985   -77917   -77850   -78029   -78130   -78024 
  -78042   -78246   -78303   -78159   -78217   -78426   -78399   -78323 
  -78433   -78509   -78423   -78334   -78344   -78367   -78276   -78157 
  -78189   -78204   -78060   -77983   -78027   -78004   -77911   -77907 
  -77990   -77949   -77766   -77745   -77861   -77772   -77628   -77704 
  -77819   -77788   -77714   -77749   -77752   -77637   -77636   -77704 
  -77676   -77621   -77570   -77548   -77494   -77390   -77445   -77575 
  -77570   -77534   -77578   -77627   -77597   -77609   -77769   -77953 
  -78030   -78061   -78190   -78313   -78322   -78410   -78574   -78580 
  -78593   -78749   -78723   -78578   -78573   -78619   -78639   -78502 
  -78339   -78385   -78325   -78063   -77953   -77965   -77866   -77773 
  -77805   -77807   -77696   -77552   -77484   -77513   -77448   -77284 
  -77299   -77326   -77086   -76938   -77044   -77036   -76893   -76844 
  -76867   -76896   -76928   -76929   -77001   -77158   -77221   -77365 
  -77637   -77727   -77822   -78046   -78142   -78208   -78364   -78490 
  -78576   -78679   -78787   -78875   -78921   -78912   -78971   -79044 
  -78994   -78969   -78987   -78927   -78820   -78772   -78828   -78842 
  -78699   -78590   -78686   -78672   -78389   -78297   -78460   -78435 
  -78238   -78204   -78254   -78203   -78221   -78297   -78302   -78294 
  -78280   -78300   -78305   -78276   -78332   -78359   -78289   -78244 
  -78230   -78200   -78181   -78126   -78033   -77977   -77900   -77821 
  -77838   -77864   -77807   -77727   -77737   -77716   -77567   -77547 
  -77653   -77672   -77597   -77538   -77617   -77695   -77601   -77530 
  -77594   -77635   -77687   -77870   -77992   -77956   -77944   -77973 
  -77934   -77897   -77943   -77970   -78005   -78005   -77887   -77890 
  -77935   -77816   -77733   -77757   -77791   -77771   -77667   -77604 
  -77629   -77591   -77493   -77437   -77381   -77310   -77220   -77112 
  -77033   -76967   -76896   -76811   -76788   -76852   -76863   -76879 
  -76952   -76991   -77093   -77235   -77257   -77237   -77250   -77246 
  -77298   -77391   -77388   -77427   -77520   -77432   -77389   -77531 
  -77549   -77502   -77589   -77704   -77763   -77765   -77785   -77900 
  -77969   -77944   -78055   -78224   -78256   -78315   -78451   -78591 
  -78735   -78836   -78904   -78984   -79043   -79032   -79017   -79031 
  -79074   -79125   -79063   -78923   -78842   -78825   -78773   -78649 
  -78573   -78595   -78686   -78803   -78784   -78630   -78595   -78703 
  -78746   -78771   -78849   -78787   -78602   -78471   -78380   -78403 
  -78453   -78382   -78395   -78360   -78156   -78129   -78188   -78124 
  -78027   -77959   -77986   -78033   -77945   -77786   -77716   -77714 
  -77694   -77665   -77558   -77466   -77487   -77413   -77360   -77516 
  -77641   -77647   -77671   -77733   -77770   -77778   -77794   -77832 
  -77872   -77871   -77879   -77899   -77828   -77739   -77830   -78013 
  -78033   -77990   -77991   -77997   -78094   -78167   -78063   -78002 
  -78066   -77939   -77721   -77727   -77728   -77614   -77562   -77530 
  -77488   -77513   -77623   -77678   -77684   -77798   -77939   -78014 
  -78113   -78305   -78434   -78373   -78397   -78592   -78670   -78724 
  -78888   -78936   -78959   -79174   -79343   -79363   -79490   -79720 
  -79854   -79897   -79966   -80088   -80243   -80387   -80491   -80627 
  -80705   -80690   -80773   -80798   -80726   -80888   -81011   -80820 
  -80748   -80862   -80827   -80698   -80633   -80567   -80500   -80417 
  -80290   -80154   -79963   -79889   -79995   -79936   -79823   -79995 
  -80131   -80047   -80132   -80481   -80716   -80617   -80495   -80682 
  -80898   -80921   -80965   -81029   -81027   -80972   -80949   -80957 
  -80874   -80906   -81083   -81160   -81164   -81128   -81078   -81056 
  -81021   -81046   -81119   -81131   -81095   -81107   -81148   -81108 
  -81031   -80975   -80923   -80929   -80937   -80820   -80725   -80773 
  -80794   -80719   -80616   -80552   -80605   -80656   -80604   -80613 
  -80667   -80659   -80709   -80779   -80741   -80658   -80573   -80515 
  -80489   -80400   -80300   -80290   -80291   -80218   -80152   -80154 
  -80080   -79947   -79889   -79822   -79732   -79659   -79570   -79523 
  -79474   -79350   -79240   -79177   -79117   -79047   -78960   -78841 
  -78719   -78658   -78575   -78423   -78365   -78354   -78278   -78326 
  -78487   -78538   -78524   -78567   -78682   -78811   -78816   -78739 
  -78750   -78757   -78659   -78609   -78658   -78664   -78542   -78401 
  -78418   -78449   -78289   -78180   -78214   -78121   -77990   -78062 
  -78133   -77992   -77864   -77861   -77801   -77728   -77778   -77885 
  -77984   -78037   -78030   -78069   -78144   -78188   -78275   -78369 
  -78458   -78597   -78635   -78586   -78638   -78793   -78872   -78801 
  -78795   -78828   -78744   -78711   -78761   -78733   -78693   -78659 
  -78546   -78452   -78358   -78256   -78232   -78213   -78123   -78026 
  -78061   -78081   -78032   -78033   -77983   -78069   -78275   -78326 
  -78407   -78488   -78448   -78533   -78685   -78717   -78795   -78901 
  -78834   -78790   -78872   -78895   -78945   -79030   -78976   -78951 
  -79105   -79282   -79446   -79568   -79549   -79570   -79735   -79919 
  -80076   -80189   -80243   -80184   -80177   -80345   -80305   -80243 
  -80433   -80343   -80180   -80311   -80241   -80071   -80220   -80388 
  -80265   -80071   -80133   -80205   -80030   -79925   -79947   -79928 
  -79828   -79650   -79671   -79727   -79517   -79464   -79621   -79605 
  -79466   -79397   -79376   -79382   -79464   -79492   -79538   -79682 
  -79729   -79764   -79833   -79846   -79808   -79813   -79960   -79972 
  -79889   -79975   -80058   -80041   -79957   -79895   -79893   -79867 
  -79879   -80078   -80345   -80332   -80150   -80174   -80470   -80828 
  -80871   -80662   -80663   -80954   -81147   -81013   -80915   -81013 
  -81044   -81055   -81255   -81452   -81270   -81011   -81078   -81224 
  -81342   -81386   -81359   -81508   -81692   -81644   -81534   -81620 
  -81675   -81625   -81653   -81607   -81562   -81639   -81628   -81439 
  -81342   -81479   -81429   -81273   -81281   -81210   -81183   -81261 
  -81267   -81296   -81398   -81437   -81317   -81251   -81320   -81441 
  -81536   -81477   -81476   -81564   -81566   -81503   -81464   -81452 
  -81470   -81604   -81569   -81459   -81593   -81650   -81596   -81626 
  -81753   -81839   -81852   -81868   -81822   -81800   -81725   -81661 
  -81693   -81544   -81398   -81448   -81388   -81258   -81228   -81035 
  -80885   -81024   -80939   -80645   -80547   -80495   -80418   -80375 
  -80223   -80005   -79861   -79765   -79672   -79604   -79531   -79339 
  -79164   -79140   -79074   -78929   -78786   -78619   -78559   -78623 
  -78613   -78567   -78581   -78590   -78629   -78718   -78821   -78957 
  -79055   -79093   -79168   -79237   -79242   -79282   -79360   -79377 
  -79427   -79513   -79480   -79467   -79553   -79570   -79560   -79583 
  -79568   -79545   -79558   -79607   -79640   -79588   -79520   -79501 
  -79444   -79340   -79267   -79237   -79223   -79163   -79068   -79046 
  -79086   -79043   -78949   -78967   -79065   -79109   -79107   -79106 
  -79135   -79197   -79209   -79183   -79186   -79116   -78997   -79046 
  -79188   -79164   -79077   -79144   -79184   -79105   -79128   -79212 
  -79193   -79162   -79210   -79291   -79331   -79265   -79214   -79343 
  -79447   -79391   -79411   -79550   -79598   -79543   -79551   -79591 
  -79520   -79446   -79515   -79575   -79504   -79420   -79357   -79266 
  -79159   -79088   -79039   -78914   -78709   -78545   -78536   -78541 
  -78435   -78301   -78257   -78370   -78443   -78427   -78463   -78544 
  -78620   -78611   -78636   -78837   -78979   -78883   -78829   -79003 
