Origin Time       2011/03/11 14:46:00
Lat.              38.103
Long.             142.860
Depth. (km)       24
Mag.              9.0
Station Code      MIE016
Station Lat.      33.8764
Station Long.     135.9191
Station Height(m) 60
Record Time       2011/03/11 14:51:09
Sampling Freq(Hz) 100Hz
Duration Time(s)  60
Dir.              U-D
Scale Factor      3920(gal)/6182761
Max. Acc. (gal)   1.341
Last Correction   2011/03/11 14:50:54
Memo.             
  -39920   -39945   -39946   -39928   -39922   -39914   -39921   -39952 
  -39963   -39954   -39951   -39960   -40000   -40056   -40089   -40094 
  -40095   -40115   -40163   -40203   -40210   -40195   -40173   -40160 
  -40162   -40166   -40164   -40160   -40148   -40125   -40113   -40096 
  -40061   -40042   -40024   -39970   -39925   -39921   -39925   -39918 
  -39903   -39880   -39861   -39840   -39817   -39811   -39803   -39790 
  -39794   -39797   -39795   -39815   -39853   -39882   -39887   -39892 
  -39922   -39946   -39972   -40015   -40023   -40000   -40002   -40014 
  -40023   -40053   -40083   -40089   -40111   -40155   -40186   -40207 
  -40214   -40199   -40198   -40210   -40195   -40160   -40142   -40147 
  -40168   -40199   -40235   -40265   -40278   -40270   -40248   -40231 
  -40225   -40211   -40182   -40161   -40156   -40167   -40197   -40207 
  -40168   -40115   -40099   -40109   -40107   -40088   -40049   -39987 
  -39936   -39912   -39904   -39903   -39873   -39794   -39718   -39682 
  -39662   -39645   -39612   -39551   -39506   -39481   -39429   -39378 
  -39342   -39281   -39206   -39142   -39099   -39074   -39052   -39051 
  -39071   -39070   -39060   -39061   -39051   -39053   -39065   -39044 
  -39040   -39072   -39071   -39054   -39067   -39084   -39105   -39151 
  -39204   -39246   -39278   -39302   -39325   -39344   -39353   -39354 
  -39355   -39364   -39380   -39386   -39382   -39392   -39402   -39393 
  -39384   -39392   -39418   -39445   -39439   -39401   -39386   -39394 
  -39386   -39391   -39415   -39413   -39415   -39453   -39494   -39526 
  -39544   -39545   -39539   -39531   -39539   -39567   -39583   -39599 
  -39621   -39632   -39643   -39658   -39672   -39701   -39720   -39701 
  -39682   -39699   -39720   -39726   -39720   -39699   -39679   -39686 
  -39718   -39740   -39738   -39749   -39772   -39772   -39761   -39760 
  -39756   -39742   -39738   -39749   -39759   -39755   -39736   -39713 
  -39709   -39719   -39725   -39730   -39752   -39783   -39813   -39841 
  -39846   -39834   -39825   -39823   -39841   -39864   -39871   -39879 
  -39887   -39889   -39898   -39912   -39938   -39974   -39983   -39994 
  -40027   -40023   -40015   -40049   -40051   -40006   -39992   -40002 
  -40004   -40009   -40010   -39996   -39966   -39929   -39905   -39889 
  -39873   -39851   -39818   -39806   -39806   -39787   -39788   -39809 
  -39793   -39759   -39743   -39730   -39721   -39737   -39761   -39755 
  -39730   -39727   -39731   -39716   -39716   -39720   -39688   -39675 
  -39700   -39702   -39699   -39710   -39706   -39718   -39734   -39712 
  -39703   -39741   -39759   -39723   -39680   -39679   -39694   -39684 
  -39682   -39690   -39677   -39671   -39675   -39639   -39586   -39572 
  -39564   -39508   -39434   -39387   -39357   -39337   -39331   -39317 
  -39297   -39294   -39299   -39309   -39324   -39323   -39315   -39311 
  -39309   -39338   -39394   -39438   -39475   -39501   -39500   -39512 
  -39553   -39571   -39585   -39610   -39613   -39629   -39661   -39676 
  -39684   -39669   -39629   -39603   -39600   -39593   -39561   -39511 
  -39472   -39444   -39407   -39363   -39326   -39290   -39245   -39190 
  -39133   -39110   -39095   -39032   -38946   -38867   -38805   -38772 
  -38738   -38670   -38605   -38565   -38519   -38460   -38416   -38387 
  -38338   -38275   -38243   -38229   -38206   -38186   -38170   -38148 
  -38135   -38137   -38127   -38119   -38149   -38196   -38232   -38267 
  -38291   -38297   -38326   -38388   -38432   -38453   -38461   -38459 
  -38474   -38501   -38520   -38552   -38587   -38601   -38615   -38633 
  -38651   -38666   -38663   -38651   -38635   -38612   -38620   -38655 
  -38653   -38627   -38625   -38635   -38647   -38669   -38676   -38676 
  -38691   -38692   -38673   -38665   -38650   -38642   -38659   -38647 
  -38609   -38608   -38647   -38696   -38733   -38769   -38823   -38862 
  -38883   -38938   -39006   -39043   -39071   -39100   -39113   -39146 
  -39216   -39277   -39315   -39355   -39400   -39415   -39414   -39432 
  -39447   -39438   -39412   -39379   -39379   -39402   -39393   -39361 
  -39357   -39379   -39392   -39393   -39393   -39383   -39375   -39390 
  -39403   -39394   -39397   -39411   -39393   -39371   -39392   -39440 
  -39480   -39492   -39499   -39535   -39580   -39613   -39625   -39610 
  -39589   -39583   -39589   -39609   -39644   -39658   -39643   -39632 
  -39646   -39687   -39727   -39739   -39754   -39779   -39784   -39799 
  -39828   -39808   -39761   -39731   -39689   -39669   -39687   -39678 
  -39638   -39593   -39544   -39509   -39466   -39394   -39329   -39264 
  -39174   -39088   -39031   -38993   -38963   -38929   -38879   -38843 
  -38848   -38860   -38866   -38870   -38852   -38827   -38819   -38813 
  -38802   -38786   -38762   -38764   -38813   -38877   -38939   -38993 
  -39029   -39071   -39123   -39157   -39172   -39166   -39154   -39178 
  -39216   -39229   -39232   -39243   -39254   -39262   -39253   -39217 
  -39173   -39135   -39108   -39098   -39082   -39045   -38990   -38930 
  -38883   -38841   -38796   -38750   -38696   -38645   -38603   -38578 
  -38584   -38602   -38596   -38552   -38508   -38507   -38518   -38516 
  -38498   -38466   -38465   -38503   -38530   -38537   -38542   -38542 
  -38549   -38594   -38669   -38719   -38723   -38726   -38758   -38784 
  -38807   -38875   -38954   -38982   -38980   -38993   -39030   -39066 
  -39073   -39059   -39040   -39019   -38999   -38988   -38967   -38935 
  -38935   -38959   -38960   -38948   -38932   -38910   -38904   -38895 
  -38851   -38793   -38760   -38757   -38745   -38713   -38686   -38665 
  -38652   -38651   -38638   -38616   -38600   -38572   -38536   -38517 
  -38502   -38490   -38497   -38490   -38464   -38450   -38449   -38458 
  -38467   -38461   -38464   -38474   -38465   -38457   -38456   -38466 
  -38486   -38483   -38471   -38477   -38476   -38468   -38477   -38492 
  -38507   -38545   -38587   -38586   -38561   -38557   -38581   -38596 
  -38597   -38630   -38674   -38672   -38654   -38684   -38748   -38806 
  -38858   -38905   -38951   -39009   -39050   -39073   -39118   -39153 
  -39159   -39184   -39218   -39235   -39269   -39307   -39326   -39369 
  -39429   -39465   -39466   -39456   -39474   -39484   -39459   -39451 
  -39466   -39471   -39459   -39431   -39417   -39461   -39500   -39466 
  -39428   -39447   -39476   -39485   -39484   -39436   -39351   -39315 
  -39333   -39344   -39346   -39326   -39282   -39266   -39288   -39304 
  -39312   -39318   -39304   -39290   -39290   -39290   -39310   -39318 
  -39271   -39227   -39221   -39222   -39242   -39278   -39281   -39251 
  -39210   -39164   -39134   -39123   -39101   -39042   -38964   -38906 
  -38873   -38841   -38801   -38747   -38667   -38599   -38593   -38606 
  -38579   -38525   -38481   -38468   -38459   -38442   -38456   -38491 
  -38492   -38478   -38508   -38569   -38612   -38639   -38677   -38718 
  -38751   -38790   -38845   -38905   -38961   -39010   -39062   -39114 
  -39171   -39263   -39360   -39418   -39470   -39558   -39653   -39722 
  -39772   -39808   -39834   -39867   -39914   -39971   -40031   -40076 
  -40086   -40091   -40115   -40119   -40113   -40141   -40160   -40130 
  -40085   -40064   -40069   -40045   -39995   -39974   -39952   -39916 
  -39895   -39876   -39863   -39843   -39804   -39777   -39739   -39706 
  -39715   -39699   -39647   -39600   -39549   -39509   -39490   -39466 
  -39459   -39462   -39450   -39466   -39491   -39499   -39537   -39568 
  -39566   -39587   -39623   -39637   -39649   -39691   -39739   -39769 
  -39789   -39799   -39824   -39897   -39949   -39949   -39988   -40050 
  -40042   -40010   -40035   -40093   -40130   -40154   -40197   -40239 
  -40264   -40287   -40329   -40384   -40383   -40321   -40286   -40296 
  -40307   -40311   -40297   -40281   -40276   -40231   -40176   -40182 
  -40204   -40180   -40118   -40054   -40018   -40007   -39999   -39972 
  -39904   -39806   -39742   -39744   -39753   -39706   -39637   -39582 
  -39533   -39504   -39501   -39487   -39448   -39399   -39349   -39329 
  -39341   -39341   -39351   -39397   -39409   -39398   -39450   -39530 
  -39559   -39574   -39616   -39650   -39674   -39723   -39787   -39838 
  -39856   -39852   -39880   -39937   -39969   -39978   -40008   -40048 
  -40063   -40085   -40127   -40142   -40121   -40119   -40148   -40169 
  -40185   -40204   -40216   -40236   -40267   -40299   -40321   -40328 
  -40339   -40351   -40344   -40324   -40318   -40331   -40343   -40338 
  -40311   -40293   -40306   -40318   -40321   -40316   -40282   -40236 
  -40206   -40193   -40179   -40140   -40073   -40021   -40004   -40006 
  -39992   -39944   -39903   -39886   -39871   -39853   -39810   -39745 
  -39683   -39597   -39524   -39511   -39480   -39418   -39387   -39362 
  -39351   -39379   -39373   -39324   -39326   -39367   -39370   -39350 
  -39357   -39354   -39319   -39313   -39358   -39389   -39389   -39407 
  -39448   -39496   -39542   -39570   -39602   -39638   -39635   -39612 
  -39607   -39600   -39568   -39539   -39542   -39546   -39528   -39509 
  -39483   -39421   -39360   -39338   -39306   -39236   -39173   -39129 
  -39078   -39035   -39017   -38982   -38924   -38888   -38869   -38836 
  -38790   -38747   -38722   -38700   -38648   -38587   -38556   -38550 
  -38550   -38551   -38562   -38573   -38565   -38553   -38569   -38607 
  -38619   -38589   -38566   -38562   -38553   -38544   -38531   -38511 
  -38500   -38487   -38466   -38456   -38455   -38440   -38414   -38384 
  -38338   -38295   -38262   -38209   -38160   -38143   -38100   -38029 
  -37981   -37963   -37966   -37974   -37960   -37922   -37879   -37844 
  -37830   -37820   -37790   -37752   -37725   -37700   -37686   -37689 
  -37684   -37666   -37643   -37623   -37621   -37645   -37663   -37652 
  -37631   -37616   -37611   -37627   -37635   -37622   -37628   -37647 
  -37645   -37651   -37674   -37695   -37723   -37755   -37766   -37768 
  -37774   -37779   -37801   -37840   -37860   -37881   -37931   -37969 
  -37985   -38019   -38060   -38081   -38098   -38125   -38167   -38217 
  -38250   -38280   -38328   -38371   -38402   -38442   -38491   -38541 
  -38590   -38618   -38639   -38687   -38744   -38762   -38757   -38760 
  -38750   -38724   -38715   -38720   -38721   -38715   -38685   -38645 
  -38625   -38605   -38559   -38511   -38477   -38444   -38412   -38395 
  -38373   -38306   -38225   -38179   -38150   -38116   -38077   -38033 
  -38005   -37986   -37951   -37909   -37880   -37874   -37877   -37869 
  -37843   -37800   -37772   -37764   -37734   -37696   -37681   -37668 
  -37641   -37611   -37602   -37609   -37594   -37562   -37535   -37518 
  -37537   -37574   -37560   -37518   -37493   -37466   -37447   -37450 
  -37453   -37452   -37445   -37427   -37421   -37429   -37443   -37452 
  -37435   -37422   -37432   -37437   -37457   -37502   -37517   -37505 
  -37510   -37532   -37556   -37586   -37619   -37636   -37647   -37668 
  -37683   -37707   -37751   -37774   -37775   -37787   -37804   -37825 
  -37858   -37885   -37899   -37898   -37883   -37875   -37875   -37876 
  -37889   -37895   -37883   -37886   -37895   -37886   -37897   -37929 
  -37930   -37918   -37923   -37938   -37957   -37970   -37976   -37978 
  -37975   -37979   -38002   -38015   -38005   -37990   -37982   -37979 
  -37979   -37959   -37937   -37933   -37911   -37872   -37846   -37819 
  -37790   -37769   -37739   -37705   -37670   -37623   -37588   -37561 
  -37527   -37497   -37464   -37426   -37409   -37421   -37421   -37377 
  -37319   -37299   -37328   -37351   -37336   -37307   -37281   -37267 
  -37277   -37289   -37281   -37264   -37249   -37229   -37207   -37199 
  -37202   -37206   -37206   -37203   -37196   -37200   -37218   -37229 
  -37240   -37269   -37293   -37314   -37349   -37380   -37402   -37438 
  -37485   -37535   -37598   -37656   -37699   -37753   -37809   -37862 
  -37923   -37970   -37997   -38034   -38077   -38122   -38179   -38230 
  -38261   -38298   -38358   -38421   -38474   -38521   -38561   -38589 
  -38614   -38640   -38669   -38703   -38740   -38773   -38803   -38828 
  -38846   -38854   -38858   -38877   -38901   -38909   -38916   -38932 
  -38937   -38932   -38934   -38945   -38948   -38944   -38938   -38924 
  -38926   -38941   -38926   -38896   -38880   -38875   -38893   -38913 
  -38902   -38888   -38875   -38862   -38892   -38935   -38949   -38973 
  -39011   -39032   -39062   -39114   -39154   -39190   -39226   -39248 
  -39286   -39343   -39379   -39397   -39415   -39426   -39428   -39442 
  -39470   -39481   -39475   -39463   -39424   -39387   -39395   -39410 
  -39388   -39345   -39307   -39283   -39254   -39223   -39212   -39186 
  -39124   -39081   -39064   -39035   -39014   -38999   -38955   -38907 
  -38884   -38866   -38849   -38841   -38830   -38802   -38761   -38722 
  -38712   -38735   -38740   -38702   -38681   -38689   -38687   -38681 
  -38675   -38665   -38666   -38667   -38670   -38686   -38694   -38703 
  -38723   -38727   -38736   -38761   -38785   -38823   -38859   -38860 
  -38867   -38911   -38959   -38996   -39048   -39091   -39110   -39145 
  -39188   -39215   -39254   -39307   -39340   -39372   -39429   -39487 
  -39547   -39611   -39652   -39696   -39760   -39816   -39879   -39942 
  -39983   -40032   -40081   -40114   -40155   -40188   -40208   -40240 
  -40266   -40271   -40281   -40294   -40286   -40269   -40280   -40297 
  -40280   -40258   -40256   -40259   -40264   -40252   -40229   -40226 
  -40229   -40232   -40252   -40250   -40212   -40188   -40183   -40182 
  -40196   -40210   -40211   -40205   -40187   -40165   -40177   -40212 
  -40232   -40250   -40267   -40254   -40233   -40238   -40240   -40230 
  -40224   -40224   -40240   -40262   -40259   -40255   -40258   -40249 
  -40259   -40298   -40333   -40353   -40359   -40357   -40351   -40351 
  -40367   -40394   -40421   -40436   -40429   -40417   -40419   -40420 
  -40406   -40390   -40368   -40341   -40327   -40319   -40299   -40264 
  -40217   -40168   -40134   -40125   -40129   -40118   -40083   -40039 
  -40008   -40010   -40018   -39997   -39954   -39915   -39885   -39874 
  -39882   -39885   -39865   -39832   -39810   -39814   -39837   -39858 
  -39865   -39848   -39814   -39798   -39813   -39828   -39822   -39795 
  -39768   -39774   -39809   -39834   -39837   -39816   -39782   -39766 
  -39767   -39754   -39743   -39738   -39702   -39662   -39650   -39629 
  -39587   -39551   -39523   -39496   -39479   -39470   -39464   -39453 
  -39438   -39436   -39440   -39423   -39411   -39431   -39446   -39434 
  -39425   -39418   -39417   -39434   -39442   -39431   -39440   -39454 
  -39448   -39459   -39472   -39456   -39455   -39465   -39449   -39432 
  -39428   -39422   -39423   -39419   -39395   -39364   -39343   -39329 
  -39327   -39317   -39268   -39201   -39153   -39113   -39075   -39050 
  -39016   -38977   -38961   -38946   -38915   -38900   -38891   -38857 
  -38831   -38815   -38782   -38765   -38775   -38779   -38787   -38796 
  -38790   -38802   -38841   -38877   -38914   -38936   -38941   -38968 
  -39004   -39038   -39095   -39146   -39169   -39204   -39262   -39321 
  -39387   -39458   -39508   -39550   -39600   -39640   -39673   -39705 
  -39726   -39750   -39785   -39793   -39794   -39838   -39877   -39878 
  -39887   -39894   -39868   -39867   -39903   -39912   -39893   -39870 
  -39833   -39811   -39819   -39814   -39786   -39763   -39747   -39735 
  -39736   -39741   -39725   -39679   -39625   -39590   -39572   -39562 
  -39559   -39555   -39537   -39518   -39508   -39497   -39485   -39473 
  -39458   -39443   -39442   -39448   -39438   -39430   -39432   -39422 
  -39413   -39415   -39417   -39434   -39454   -39455   -39454   -39438 
  -39410   -39411   -39422   -39421   -39426   -39415   -39383   -39379 
  -39382   -39349   -39330   -39354   -39364   -39348   -39332   -39296 
  -39257   -39246   -39226   -39189   -39172   -39159   -39119   -39070 
  -39025   -38993   -38986   -38971   -38934   -38900   -38874   -38841 
  -38794   -38741   -38709   -38709   -38697   -38653   -38625   -38626 
  -38616   -38595   -38585   -38572   -38565   -38567   -38554   -38537 
  -38517   -38463   -38410   -38413   -38452   -38477   -38477   -38458 
  -38442   -38447   -38465   -38494   -38537   -38571   -38588   -38615 
  -38637   -38638   -38653   -38680   -38695   -38721   -38753   -38774 
  -38806   -38833   -38835   -38853   -38903   -38942   -38954   -38958 
  -38967   -38987   -39009   -39013   -39016   -39027   -39031   -39049 
  -39097   -39135   -39150   -39157   -39158   -39186   -39254   -39296 
  -39288   -39282   -39297   -39321   -39355   -39375   -39371   -39375 
  -39382   -39388   -39425   -39473   -39478   -39465   -39470   -39476 
  -39493   -39523   -39520   -39502   -39516   -39535   -39541   -39544 
  -39537   -39537   -39551   -39553   -39553   -39562   -39535   -39488 
  -39487   -39504   -39494   -39482   -39483   -39485   -39476   -39461 
  -39467   -39476   -39440   -39393   -39380   -39364   -39344   -39344 
  -39325   -39279   -39259   -39261   -39266   -39282   -39285   -39267 
  -39276   -39301   -39312   -39319   -39313   -39296   -39301   -39334 
  -39359   -39355   -39347   -39347   -39357   -39380   -39400   -39411 
  -39422   -39418   -39394   -39386   -39407   -39411   -39387   -39380 
  -39387   -39388   -39391   -39392   -39394   -39414   -39436   -39452 
  -39459   -39457   -39472   -39486   -39471   -39474   -39491   -39483 
  -39480   -39502   -39521   -39542   -39564   -39570   -39582   -39605 
  -39604   -39584   -39567   -39552   -39542   -39539   -39532   -39511 
  -39488   -39471   -39452   -39432   -39416   -39403   -39390   -39362 
  -39322   -39292   -39256   -39206   -39174   -39143   -39098   -39083 
  -39091   -39075   -39039   -39008   -38973   -38944   -38935   -38935 
  -38937   -38937   -38916   -38887   -38881   -38891   -38911   -38948 
  -38970   -38952   -38937   -38963   -39000   -39017   -39024   -39034 
  -39044   -39067   -39120   -39177   -39193   -39187   -39213   -39255 
  -39284   -39307   -39327   -39340   -39360   -39378   -39385   -39396 
  -39403   -39400   -39402   -39415   -39422   -39415   -39419   -39448 
  -39472   -39480   -39480   -39477   -39482   -39489   -39492   -39497 
  -39500   -39501   -39505   -39510   -39520   -39538   -39549   -39557 
  -39566   -39561   -39542   -39527   -39527   -39533   -39525   -39508 
  -39500   -39520   -39553   -39551   -39521   -39516   -39533   -39562 
  -39598   -39604   -39572   -39555   -39572   -39586   -39590   -39592 
  -39600   -39615   -39626   -39640   -39653   -39655   -39662   -39681 
  -39678   -39666   -39670   -39654   -39622   -39626   -39634   -39630 
  -39654   -39669   -39659   -39669   -39685   -39688   -39691   -39676 
  -39652   -39639   -39626   -39609   -39591   -39574   -39558   -39536 
  -39520   -39515   -39503   -39493   -39478   -39443   -39421   -39416 
  -39400   -39393   -39405   -39414   -39413   -39396   -39375   -39365 
  -39363   -39370   -39385   -39384   -39370   -39365   -39360   -39358 
  -39358   -39339   -39313   -39305   -39310   -39315   -39313   -39298 
  -39278   -39267   -39260   -39263   -39279   -39280   -39260   -39244 
  -39242   -39244   -39257   -39270   -39264   -39254   -39250   -39254 
