Origin Time       2011/03/11 14:46:00
Lat.              38.103
Long.             142.860
Depth. (km)       24
Mag.              9.0
Station Code      MIE017
Station Lat.      34.3628
Station Long.     136.3358
Station Height(m) 116
Record Time       2011/03/11 14:50:39
Sampling Freq(Hz) 100Hz
Duration Time(s)  60
Dir.              U-D
Scale Factor      3920(gal)/6182761
Max. Acc. (gal)   2.010
Last Correction   2011/03/11 14:50:24
Memo.             
[...]
    4455     4418     4437     4474     4470     4438     4421     4439 
    4477     4491     4505     4568     4608     4580     4559     4580 
    4595     4560     4505     4505     4526     4483     4398     4349 
    4347     4310     4188     4052     3983     3928     3806     3682 
    3655     3664     3629     3595     3619     3665     3660     3622 
    3636     3716     3776     3757     3734     3793     3877     3890 
    3868     3917     4020     4058     4017     3988     4015     4057 
    4062     4044     4049     4073     4099     4108     4112     4153 
    4187     4171     4145     4143     4133     4072     3993     3966 
    3959     3882     3769     3735     3771     3746     3661     3641 
    3686     3696     3672     3674     3695     3740     3821     3875 
    3874     3869     3875     3893     3920     3913     3884     3899 
    3935     3949     3960     3972     3958     3956     4017     4088 
    4087     4052     4072     4102     4086     4073     4050     3969 
    3902     3883     3833     3730     3672     3701     3715     3664 
    3648     3716     3783     3768     3734     3783     3844     3830 
    3795     3815     3894     3943     3897     3862     3928     3980 
    3916     3850     3908     3975     3907     3812     3854     3952 
    3946     3893     3922     3999     4045     4066     4101     4166 
    4234     4253     4244     4289     4355     4329     4253     4268 
    4364     4392     4333     4317     4374     4406     4377     4351 
    4371     4384     4331     4257     4240     4268     4259     4191 
    4142     4181     4266     4307     4296     4334     4461     4568 
    4593     4625     4718     4810     4845     4853     4896     4952 
    4946     4919     4948     4993     4993     4965     4943     4928 
    4910     4872     4816     4784     4778     4742     4670     4603 
    4586     4618     4611     4527     4464     4474     4455     4357 
    4304     4343     4329     4231     4194     4235     4225     4158 
    4159     4213     4213     4200     4225     4272     4333     4375 
    4411     4476     4512     4519     4562     4585     4534     4497 
    4496     4444     4364     4336     4340     4304     4243     4247 
    4304     4324     4324     4337     4356     4384     4409     4428 
    4440     4453     4488     4505     4466     4429     4447     4492 
    4500     4461     4434     4444     4458     4445     4427     4438 
    4481     4516     4516     4521     4574     4645     4677     4680 
    4705     4738     4743     4770     4837     4879     4885     4922 
    5003     5079     5115     5124     5148     5218     5275     5277 
    5302     5358     5367     5330     5309     5322     5311     5256 
    5210     5208     5226     5224     5181     5158     5188     5189 
    5146     5155     5205     5205     5167     5161     5205     5256 
    5288     5339     5412     5464     5505     5555     5608     5675 
    5746     5777     5793     5868     5979     6039     6083     6167 
    6254     6331     6418     6487     6530     6573     6601     6598 
    6591     6602     6581     6493     6399     6365     6348     6283 
    6217     6212     6215     6169     6115     6104     6126     6143 
    6111     6062     6093     6166     6149     6049     5990     6013 
    6020     5940     5868     5898     5925     5834     5729     5728 
    5754     5734     5690     5673     5730     5784     5736     5694 
    5761     5812     5761     5692     5683     5699     5675     5624 
    5626     5671     5660     5600     5581     5606     5608     5561 
    5524     5534     5530     5467     5386     5340     5317     5259 
    5171     5110     5058     4960     4837     4729     4654     4601 
    4521     4397     4305     4300     4311     4253     4197     4201 
    4194     4148     4101     4084     4088     4063     4021     4017 
    4028     4011     3984     3982     4004     4029     4045     4051 
    4069     4107     4122     4099     4085     4106     4132     4129 
    4096     4069     4082     4105     4100     4102     4123     4128 
    4115     4111     4119     4131     4128     4099     4081     4104 
    4109     4078     4080     4090     4073     4068     4073     4079 
    4091     4085     4048     4031     4066     4077     4036     4022 
    4041     4066     4097     4099     4099     4159     4228     4244 
    4264     4321     4351     4359     4404     4459     4488     4527 
    4599     4678     4751     4807     4842     4875     4912     4928 
    4945     4984     4976     4902     4879     4917     4887     4789 
    4750     4785     4775     4656     4561     4601     4624     4514 
    4412     4419     4448     4413     4355     4337     4333     4332 
    4348     4342     4336     4384     4404     4371     4399     4477 
    4503     4488     4515     4609     4681     4662     4676     4784 
    4829     4787     4811     4916     4982     4953     4918     4955 
    5021     5031     4992     5006     5107     5176     5158     5149 
    5224     5352     5433     5428     5442     5549     5669     5712 
    5735     5828     5939     5970     5953     5976     6039     6072 
    6016     5940     5947     5942     5813     5695     5715     5747 
    5683     5625     5664     5719     5711     5673     5648     5665 
    5721     5743     5723     5742     5803     5857     5879     5910 
    6021     6155     6202     6240     6367     6476     6494     6518 
    6610     6684     6652     6594     6615     6657     6615     6524 
    6496     6527     6495     6391     6341     6368     6352     6261 
    6216     6247     6267     6260     6256     6280     6321     6339 
    6347     6377     6402     6377     6330     6333     6365     6336 
    6273     6252     6261     6238     6176     6134     6157     6175 
    6112     6052     6078     6093     6028     5985     6038     6089 
    6048     6014     6069     6092     6017     5958     5968     5979 
    5913     5787     5736     5773     5744     5652     5633     5671 
    5664     5638     5652     5676     5677     5666     5676     5731 
    5779     5763     5714     5691     5699     5700     5665     5627 
    5637     5652     5605     5544     5557     5600     5564     5478 
    5466     5525     5526     5454     5436     5487     5498     5464 
    5446     5449     5454     5426     5368     5356     5384     5355 
    5288     5271     5281     5258     5228     5234     5250     5246 
    5244     5252     5267     5300     5324     5308     5279     5284 
    5314     5332     5301     5257     5292     5370     5388     5377 
    5403     5449     5480     5501     5510     5482     5453     5473 
    5503     5514     5522     5519     5527     5593     5699     5783 
    5846     5929     6036     6132     6201     6266     6337     6404 
    6479     6537     6554     6584     6644     6661     6641     6659 
    6720     6760     6738     6694     6710     6761     6744     6672 
    6665     6723     6694     6558     6502     6565     6549     6414 
    6337     6329     6263     6150     6059     5985     5906     5819 
    5741     5687     5648     5625     5591     5545     5563     5627 
    5643     5629     5672     5781     5876     5918     5966     6051 
    6137     6193     6242     6330     6422     6444     6455     6548 
    6648     6639     6604     6657     6709     6666     6602     6592 
    6604     6561     6452     6388     6405     6399     6323     6272 
    6316     6370     6347     6322     6357     6390     6384     6376 
    6399     6420     6387     6330     6304     6276     6201     6121 
    6068     5994     5897     5835     5780     5705     5661     5633 
    5581     5535     5479     5390     5336     5329     5291     5209 
    5131     5082     5036     4984     4958     4937     4884     4836 
    4835     4861     4855     4798     4752     4757     4759     4722 
    4687     4659     4604     4568     4581     4587     4570     4565 
    4570     4559     4541     4537     4529     4478     4405     4393 
    4444     4432     4308     4212     4231     4225     4093     3956 
    3931     3934     3845     3731     3706     3729     3708     3655 
    3656     3722     3740     3677     3673     3758     3799     3770 
    3770     3850     3934     3938     3927     3975     4031     4029 
    3974     3955     4026     4084     4048     3982     3974     4018 
    4014     3968     3980     4004     3949     3858     3817     3821 
    3808     3733     3624     3578     3598     3564     3494     3497 
    3529     3514     3504     3545     3616     3685     3731     3778 
    3853     3947     4039     4090     4111     4200     4337     4384 
    4367     4423     4534     4601     4607     4609     4647     4682 
    4665     4627     4622     4629     4573     4471     4423     4431 
    4404     4320     4249     4225     4203     4148     4085     4037 
    4023     4022     3984     3929     3915     3957     4011     4030 
    4050     4084     4091     4110     4165     4212     4230     4225 
    4216     4208     4207     4222     4206     4158     4167     4229 
    4235     4180     4184     4275     4298     4219     4221     4325 
    4360     4300     4291     4393     4472     4426     4373     4421 
    4492     4510     4509     4528     4557     4572     4554     4506 
    4494     4534     4529     4448     4405     4434     4424     4355 
    4349     4421     4430     4348     4300     4310     4275     4192 
    4149     4141     4114     4074     4013     3945     3950     3983 
    3917     3829     3831     3841     3767     3664     3608     3590 
    3559     3484     3400     3336     3256     3158     3076     3002 
    2903     2778     2685     2639     2587     2523     2471     2431 
    2426     2433     2399     2390     2442     2468     2441     2425 
    2458     2532     2590     2597     2621     2728     2835     2856 
    2865     2953     3056     3099     3119     3147     3171     3188 
    3194     3202     3213     3195     3177     3177     3164     3160 
    3186     3198     3193     3229     3278     3251     3204     3232 
    3280     3290     3298     3329     3354     3336     3325     3378 
    3417     3366     3309     3324     3341     3299     3245     3240 
    3258     3215     3122     3103     3138     3090     2995     2957 
    2958     2913     2829     2802     2833     2844     2844     2866 
    2895     2921     2950     2970     3011     3110     3180     3144 
    3142     3276     3381     3360     3382     3530     3652     3652 
    3658     3797     3953     3980     4003     4172     4356     4397 
    4373     4422     4546     4620     4594     4595     4702     4814 
    4791     4689     4705     4817     4835     4778     4773     4820 
    4832     4780     4746     4773     4777     4717     4672     4707 
    4738     4675     4603     4605     4626     4609     4553     4508 
    4499     4457     4375     4332     4303     4265     4253     4209 
    4114     4076     4073     4001     3910     3910     3946     3923 
    3885     3856     3812     3792     3786     3748     3743     3785 
    3777     3734     3733     3738     3724     3718     3717     3739 
    3774     3759     3740     3775     3765     3671     3637     3719 
    3791     3779     3746     3743     3758     3775     3779     3758 
    3731     3730     3753     3740     3675     3653     3724     3798 
    3816     3839     3905     3973     4019     4047     4093     4190 
    4269     4289     4346     4477     4574     4595     4668     4846 
    4991     5010     5010     5100     5208     5228     5218     5267 
    5305     5247     5172     5182     5230     5216     5164     5141 
    5150     5166     5138     5075     5071     5098     5090     5061 
    5027     5019     5015     4963     4935     4981     4989     4905 
    4843     4881     4945     4928     4863     4849     4860     4824 
    4779     4771     4749     4691     4668     4684     4681     4640 
    4563     4486     4427     4341     4288     4319     4305     4203 
    4118     4057     3981     3944     3947     3913     3839     3773 
    3741     3747     3730     3644     3571     3552     3486     3387 
    3361     3360     3322     3315     3345     3362     3390     3449 
    3495     3498     3470     3483     3567     3630     3632     3639 
    3682     3734     3780     3821     3841     3825     3820     3859 
    3906     3942     4002     4066     4103     4139     4166     4188 
    4275     4388     4443     4459     4468     4491     4555     4600 
    4589     4592     4617     4641     4701     4773     4793     4792 
    4833     4901     4943     4974     5006     5014     5051     5138 
    5192     5203     5229     5254     5243     5237     5285     5360 
    5408     5398     5372     5418     5499     5516     5523     5569 
    5592     5586     5583     5613     5696     5758     5722     5686 
    5745     5782     5755     5783     5832     5807     5778     5792 
    5786     5758     5747     5734     5684     5601     5558     5591 
    5619     5605     5607     5661     5721     5743     5783     5870 
    5927     5968     6062     6184     6259     6287     6378     6572 
    6703     6709     6773     6938     7057     7120     7208     7305 
    7369     7404     7459     7550     7612     7617     7645     7746 
    7819     7807     7839     7926     7939     7939     7987     7972 
    7920     7920     7944     7941     7905     7888     7896     7846 
    7763     7744     7751     7712     7681     7714     7739     7693 
    7642     7636     7642     7634     7622     7594     7537     7511 
    7551     7553     7464     7371     7333     7314     7270     7196 
    7106     7044     7037     7056     7035     6982     6985     6997 
    6960     6968     7020     7040     7037     7029     7067     7125 
    7078     7013     7082     7152     7064     6927     6928     7010 
    6968     6813     6757     6834     6864     6774     6714     6775 
    6815     6780     6803     6882     6934     6976     7022     7058 
    7066     7072     7102     7082     7048     7127     7191     7110 
    7031     7084     7191     7203     7138     7170     7299     7339 
    7274     7261     7354     7426     7403     7345     7309     7315 
    7310     7223     7157     7216     7269     7183     7041     7000 
    7054     7036     6916     6885     6975     6972     6848     6796 
    6852     6841     6702     6569     6506     6456     6363     6209 
    6091     6092     6071     5922     5818     5860     5850     5691 
    5567     5578     5606     5540     5408     5339     5365     5364 
    5270     5181     5186     5204     5151     5101     5112     5116 
    5078     5036     4986     4919     4874     4855     4830     4785 
    4715     4652     4636     4629     4603     4579     4546     4551 
    4625     4648     4601     4637     4776     4892     4927     4939 
    5002     5071     5085     5130     5237     5327     5382     5412 
    5441     5509     5564     5565     5594     5663     5658     5595 
    5594     5638     5650     5626     5569     5520     5543     5556 
    5490     5474     5538     5545     5505     5467     5381     5322 
    5361     5380     5331     5300     5294     5282     5300     5328 
    5321     5335     5389     5433     5476     5508     5474     5445 
    5526     5613     5571     5526     5592     5644     5637     5652 
    5678     5685     5705     5736     5764     5810     5844     5844 
    5861     5855     5776     5725     5770     5802     5730     5602 
    5526     5546     5560     5465     5381     5423     5428     5292 
    5181     5170     5133     5023     4946     4960     4944     4821 
    4724     4712     4680     4638     4629     4607     4587     4582 
    4551     4517     4525     4552     4535     4460     4417     4452 
    4458     4379     4326     4365     4408     4380     4333     4353 
    4420     4446     4425     4442     4512     4543     4527     4546 
    4602     4627     4613     4599     4619     4651     4632     4620 
    4691     4731     4688     4671     4688     4698     4695     4662 
    4653     4711     4730     4667     4640     4709     4784     4758 
    4699     4747     4823     4798     4741     4796     4946     5017 
    4965     4941     4990     5058     5129     5171     5197     5252 
    5285     5278     5296     5362     5456     5473     5364     5314 
    5408     5469     5427     5402     5439     5469     5457     5462 
    5519     5583     5576     5487     5463     5579     5649     5572 
    5532     5625     5715     5693     5595     5563     5655     5710 
    5654     5610     5612     5608     5590     5542     5506     5521 
    5506     5442     5430     5436     5350     5244     5257     5321 
    5311     5269     5231     5167     5109     5071     5007     4929 
    4897     4920     4915     4844     4811     4859     4858     4780 
    4753     4811     4867     4854     4783     4759     4814     4834 
    4776     4721     4754     4837     4838     4778     4771     4790 
    4812     4866     4910     4931     4958     4969     4976     5033 
    5088     5087     5100     5122     5131     5169     5157     5096 
    5128     5199     5182     5158     5214     5259     5209     5162 
    5234     5309     5256     5200     5244     5255     5186     5166 
    5191     5175     5142     5129     5119     5093     5037     4986 
    4977     4985     4984     4946     4862     4815     4817     4772 
    4691     4666     4685     4643     4535     4469     4475     4480 
    4428     4358     4337     4307     4233     4212     4240     4213 
    4145     4110     4103     4079     4060     4087     4116     4115 
    4096     4073     4080     4110     4104     4088     4113     4131 
    4108     4098     4128     4148     4146     4151     4174     4215 
    4232     4202     4202     4239     4254     4274     4311     4327 
    4317     4301     4315     4353     4370     4370     4387     4401 
    4365     4309     4280     4270     4270     4261     4219     4168 
    4138     4129     4112     4075     4072     4089     4032     3925 
    3884     3916     3895     3782     3700     3680     3615     3520 
    3476     3439     3362     3310     3306     3272     3176     3126 
    3185     3192     3064     2999     3070     3080     3022     3059 
    3124     3083     3027     3065     3159     3228     3249     3254 
    3287     3342     3399     3463     3521     3547     3579     3638 
    3683     3714     3752     3782     3833     3910     3933     3937 
    3989     4032     4073     4153     4211     4218     4220     4246 
    4283     4313     4336     4359     4404     4439     4422     4433 
    4528     4595     4616     4685     4744     4741     4774     4866 
    4945     4986     4993     5012     5065     5095     5102     5156 
    5214     5205     5188     5220     5283     5355     5397     5402 
    5422     5466     5530     5599     5625     5620     5651     5740 
    5813     5813     5816     5870     5908     5927     5981     6064 
    6118     6116     6113     6174     6229     6233     6269     6371 
