Origin Time       2011/03/11 14:46:00
Lat.              38.103
Long.             142.860
Depth. (km)       24
Mag.              9.0
Station Code      MIE003
Station Lat.      34.9708
Station Long.     136.6356
Station Height(m) 2
Record Time       2011/03/11 14:49:01
Sampling Freq(Hz) 100Hz
Duration Time(s)  300
Dir.              N-S
Scale Factor      3920(gal)/6182761
Max. Acc. (gal)   14.366
Last Correction   2011/03/11 14:48:46
Memo.             
[...]
  -29265   -29250   -29238   -29196   -29069   -28930   -28930   -29020 
  -29042   -28970   -28898   -28906   -28931   -28859   -28769   -28726 
  -28613   -28465   -28371   -28206   -27968   -27788   -27652   -27535 
  -27420   -27245   -27054   -26893   -26695   -26413   -26096   -25855 
  -25709   -25547   -25332   -25090   -24867   -24710   -24558   -24363 
  -24182   -24050   -24045   -24194   -24321   -24358   -24474   -24719 
  -24953   -25108   -25193   -25244   -25359   -25524   -25633   -25664 
  -25657   -25668   -25693   -25655   -25583   -25571   -25571   -25483 
  -25362   -25251   -25126   -25075   -25079   -25005   -24923   -24901 
  -24913   -25003   -25128   -25210   -25326   -25531   -25767   -26016 
  -26308   -26660   -27102   -27592   -28011   -28314   -28586   -28914 
  -29242   -29492   -29698   -29879   -30034   -30230   -30444   -30562 
  -30600   -30656   -30707   -30698   -30703   -30796   -30946   -31118 
  -31287   -31398   -31453   -31562   -31758   -31898   -31910   -31890 
  -31889   -31927   -31997   -31969   -31891   -31873   -31858   -31843 
  -31764   -31589   -31480   -31400   -31311   -31295   -31239   -31140 
  -31140   -31176   -31218   -31316   -31364   -31352   -31391   -31442 
  -31522   -31708   -31894   -32031   -32185   -32308   -32386   -32496 
  -32584   -32581   -32533   -32470   -32401   -32304   -32100   -31807 
  -31468   -31075   -30675   -30243   -29738   -29230   -28705   -28104 
  -27521   -27032   -26557   -26029   -25481   -24957   -24477   -24059 
  -23666   -23273   -22925   -22618   -22320   -22109   -22033   -22043 
  -22123   -22226   -22255   -22238   -22262   -22314   -22382   -22495 
  -22637   -22773   -22905   -23035   -23152   -23266   -23388   -23489 
  -23543   -23573   -23666   -23864   -24099   -24319   -24531   -24738 
  -25006   -25408   -25868   -26312   -26786   -27288   -27818   -28451 
  -29136   -29763   -30380   -31050   -31740   -32357   -32860   -33359 
  -33904   -34386   -34768   -35092   -35412   -35775   -36148   -36479 
  -36765   -36979   -37109   -37177   -37136   -37007   -36884   -36760 
  -36601   -36390   -36135   -35898   -35646   -35295   -34883   -34441 
  -33949   -33474   -33037   -32562   -32048   -31528   -30984   -30432 
  -29880   -29300   -28692   -28111   -27600   -27093   -26577   -26095 
  -25638   -25259   -24925   -24433   -23825   -23315   -22928   -22566 
  -22198   -21842   -21468   -21075   -20705   -20286   -19753   -19223 
  -18782   -18360   -17917   -17468   -17025   -16694   -16507   -16311 
  -16092   -15935   -15807   -15712   -15644   -15542   -15473   -15520 
  -15618   -15703   -15793   -15891   -15972   -16043   -16123   -16217 
  -16351   -16546   -16747   -16886   -16972   -17082   -17275   -17490 
  -17650   -17810   -18022   -18290   -18675   -19147   -19548   -19855 
  -20210   -20668   -21137   -21571   -22033   -22536   -23012   -23405 
  -23709   -23976   -24243   -24499   -24725   -24880   -24935   -24970 
  -25067   -25184   -25259   -25277   -25216   -25104   -24998   -24878 
  -24796   -24853   -24960   -24999   -24984   -24931   -24877   -24901 
  -24977   -25040   -25111   -25232   -25396   -25571   -25758   -25977 
  -26197   -26438   -26720   -26993   -27313   -27706   -28086   -28529 
  -29038   -29438   -29786   -30187   -30555   -30824   -31011   -31217 
  -31443   -31551   -31601   -31673   -31717   -31755   -31738   -31600 
  -31505   -31510   -31484   -31424   -31346   -31255   -31247   -31313 
  -31405   -31570   -31780   -32002   -32283   -32583   -32821   -33017 
  -33205   -33371   -33516   -33645   -33723   -33748   -33759   -33756 
  -33704   -33577   -33404   -33189   -32881   -32528   -32208   -31866 
  -31479   -31078   -30637   -30158   -29644   -29073   -28508   -27890 
  -27164   -26546   -26107   -25667   -25189   -24706   -24233   -23838 
  -23509   -23226   -23020   -22862   -22758   -22748   -22787   -22831 
  -22871   -22896   -22958   -23080   -23188   -23289   -23426   -23589 
  -23780   -24017   -24324   -24689   -25037   -25321   -25534   -25746 
  -26041   -26365   -26635   -26841   -26999   -27130   -27268   -27487 
  -27759   -27981   -28128   -28185   -28275   -28470   -28541   -28529 
  -28585   -28515   -28332   -28157   -27910   -27643   -27390   -27071 
  -26737   -26421   -26123   -25872   -25640   -25411   -25195   -24967 
  -24738   -24567   -24428   -24247   -24062   -23941   -23860   -23776 
  -23686   -23605   -23565   -23595   -23697   -23825   -23964   -24184 
  -24494   -24826   -25191   -25594   -25982   -26372   -26792   -27228 
  -27654   -28032   -28363   -28688   -28991   -29234   -29430   -29642 
  -29894   -30079   -30182   -30322   -30454   -30562   -30697   -30753 
  -30741   -30741   -30668   -30511   -30333   -30143   -29911   -29621 
  -29299   -28958   -28629   -28341   -28059   -27786   -27545   -27294 
  -27055   -26933   -26923   -26926   -26898   -26849   -26845   -26905 
  -26957   -26976   -26984   -26996   -27035   -27102   -27149   -27174 
  -27240   -27339   -27418   -27522   -27687   -27855   -27989   -28096 
  -28211   -28355   -28475   -28593   -28763   -28858   -28855   -28882 
  -28941   -28997   -29016   -28968   -28883   -28762   -28628   -28511 
  -28349   -28140   -27939   -27706   -27408   -27131   -26895   -26638 
  -26383   -26124   -25775   -25398   -25148   -24970   -24710   -24381 
  -24050   -23748   -23491   -23241   -22959   -22666   -22370   -22035 
  -21660   -21278   -20921   -20635   -20431   -20223   -19957   -19720 
  -19625   -19634   -19622   -19595   -19637   -19720   -19772   -19818 
  -19914   -20014   -20110   -20240   -20329   -20319   -20311   -20386 
  -20460   -20504   -20565   -20594   -20606   -20684   -20790   -20892 
  -20991   -21067   -21144   -21210   -21243   -21285   -21366   -21460 
  -21528   -21558   -21582   -21623   -21693   -21796   -21897   -21960 
  -22020   -22141   -22303   -22456   -22623   -22816   -23035   -23277 
  -23477   -23615   -23801   -24073   -24291   -24372   -24441   -24618 
  -24819   -24985   -25205   -25468   -25719   -25990   -26268   -26523 
  -26747   -26935   -27093   -27189   -27194   -27142   -27084   -27037 
  -26940   -26744   -26471   -26162   -25878   -25609   -25248   -24801 
  -24391   -24037   -23695   -23408   -23190   -23009   -22890   -22810 
  -22729   -22695   -22706   -22720   -22791   -22914   -23043   -23210 
  -23339   -23381   -23478   -23643   -23777   -23906   -24045   -24181 
  -24347   -24564   -24847   -25198   -25598   -26026   -26464   -26926 
  -27422   -27926   -28429   -28924   -29380   -29756   -30055   -30301 
  -30507   -30673   -30820   -30986   -31157   -31257   -31266   -31260 
  -31277   -31286   -31326   -31409   -31442   -31457   -31568   -31723 
  -31841   -31921   -31942   -31915   -31905   -31943   -32007   -32056 
  -32102   -32137   -32081   -32036   -32125   -32207   -32250   -32452 
  -32788   -33054   -33273   -33584   -33915   -34202   -34478   -34737 
  -34990   -35221   -35377   -35472   -35561   -35655   -35719   -35734 
  -35719   -35663   -35547   -35366   -35126   -34864   -34644   -34460 
  -34233   -33960   -33692   -33399   -33048   -32659   -32225   -31793 
  -31439   -31122   -30780   -30451   -30174   -29949   -29810   -29762 
  -29714   -29639   -29541   -29432   -29445   -29542   -29609   -29775 
  -30006   -30171   -30371   -30614   -30867   -31154   -31402   -31635 
  -31930   -32243   -32562   -32921   -33280   -33609   -33937   -34260 
  -34558   -34841   -35093   -35279   -35444   -35614   -35746   -35842 
  -35933   -36032   -36156   -36277   -36346   -36359   -36362   -36389 
  -36417   -36433   -36487   -36614   -36773   -36919   -37041   -37115 
  -37137   -37141   -37080   -36882   -36630   -36386   -36142   -35905 
  -35576   -35138   -34724   -34298   -33817   -33305   -32677   -32033 
  -31506   -30956   -30337   -29727   -29085   -28388   -27626   -26770 
  -25902   -25075   -24233   -23355   -22441   -21505   -20635   -19837 
  -18990   -18077   -17222   -16497   -15859   -15258   -14677   -14130 
  -13687   -13388   -13166   -12963   -12824   -12797   -12876   -13038 
  -13234   -13431   -13699   -14069   -14475   -14897   -15299   -15741 
  -16351   -16936   -17372   -17834   -18289   -18718   -19221   -19682 
  -20082   -20505   -20878   -21216   -21549   -21790   -21994   -22254 
  -22474   -22579   -22605   -22585   -22560   -22538   -22446   -22244 
  -21976   -21681   -21373   -21035   -20647   -20258   -19879   -19444 
  -18953   -18429   -17917   -17520   -17203   -16853   -16478   -16107 
  -15766   -15491   -15236   -14939   -14656   -14478   -14338   -14170 
  -14014   -13865   -13791   -13813   -13732   -13580   -13588   -13718 
  -13834   -13919   -14017   -14181   -14417   -14702   -14981   -15216 
  -15470   -15785   -16152   -16599   -17093   -17570   -18077   -18660 
  -19255   -19787   -20290   -20850   -21430   -21921   -22328   -22704 
  -23053   -23405   -23766   -24064   -24316   -24579   -24835   -25048 
  -25235   -25434   -25662   -25890   -26083   -26233   -26337   -26354 
  -26267   -26189   -26211   -26184   -25991   -25806   -25674   -25434 
  -25131   -24902   -24710   -24489   -24293   -24127   -23936   -23767 
  -23644   -23531   -23434   -23381   -23405   -23505   -23652   -23859 
  -24137   -24455   -24774   -25050   -25303   -25619   -25998   -26412 
  -26886   -27375   -27824   -28256   -28629   -28887   -29097   -29299 
  -29453   -29536   -29583   -29642   -29692   -29710   -29694   -29574 
  -29334   -29083   -28822   -28515   -28256   -28148   -28168   -28128 
  -27983   -27880   -27802   -27811   -27964   -28008   -27989   -28119 
  -28261   -28387   -28596   -28816   -29071   -29446   -29853   -30227 
  -30623   -31043   -31469   -31958   -32500   -33017   -33523   -34060 
  -34627   -35220   -35803   -36344   -36855   -37298   -37645   -37902 
  -38045   -38141   -38279   -38382   -38395   -38357   -38247   -38005 
  -37646   -37268   -36899   -36491   -36052   -35586   -35103   -34642 
  -34171   -33700   -33311   -32970   -32584   -32210   -31958   -31764 
  -31589   -31499   -31483   -31552   -31678   -31748   -31794   -31877 
  -31953   -31992   -31988   -31966   -31989   -32072   -32168   -32231 
  -32286   -32412   -32601   -32779   -32968   -33198   -33456   -33757 
  -34028   -34173   -34283   -34478   -34701   -34857   -34931   -34978 
  -35089   -35239   -35335   -35410   -35496   -35619   -35826   -36064 
  -36316   -36547   -36667   -36771   -36923   -37060   -37204   -37334 
  -37464   -37623   -37694   -37699   -37753   -37831   -37875   -37863 
  -37805   -37752   -37738   -37754   -37748   -37706   -37699   -37740 
  -37733   -37590   -37335   -37071   -36847   -36610   -36322   -36014 
  -35721   -35451   -35168   -34802   -34377   -34014   -33753   -33514 
  -33224   -32941   -32754   -32614   -32467   -32351   -32251   -32140 
  -31998   -31794   -31562   -31315   -31072   -30954   -30902   -30754 
  -30624   -30603   -30646   -30777   -30890   -30955   -31130   -31385 
  -31618   -31833   -32022   -32212   -32434   -32593   -32590   -32473 
  -32352   -32242   -32079   -31865   -31632   -31405   -31194   -30941 
  -30617   -30305   -30062   -29833   -29542   -29150   -28658   -28141 
  -27648   -27137   -26601   -26063   -25542   -25111   -24717   -24155 
  -23451   -22835   -22414   -22120   -21766   -21296   -20910   -20662 
  -20456   -20310   -20200   -20075   -20005   -19961   -19778   -19487 
  -19294   -19230   -19224   -19225   -19174   -19181   -19342   -19516 
  -19622   -19713   -19806   -19957   -20170   -20350   -20483   -20603 
  -20715   -20837   -20927   -20921   -20861   -20803   -20748   -20672 
  -20536   -20361   -20220   -20136   -20112   -20102   -20016   -19979 
  -20093   -20154   -20086   -20039   -20153   -20407   -20551   -20636 
  -20846   -21042   -21304   -21699   -21997   -22214   -22504   -22853 
  -23157   -23407   -23705   -24094   -24542   -24959   -25313   -25696 
  -26151   -26624   -27047   -27421   -27812   -28235   -28669   -29092 
  -29475   -29801   -30084   -30339   -30580   -30811   -31014   -31197 
  -31379   -31543   -31668   -31784   -31918   -31987   -31939   -31868 
  -31764   -31515   -31266   -31115   -30903   -30639   -30334   -29932 
  -29588   -29313   -28936   -28476   -28012   -27584   -27198   -26822 
  -26494   -26214   -25912   -25611   -25344   -25104   -24941   -24839 
  -24691   -24496   -24339   -24208   -24040   -23850   -23666   -23485 
  -23318   -23169   -23018   -22888   -22815   -22747   -22640   -22538 
  -22498   -22541   -22642   -22745   -22843   -22957   -23069   -23166 
  -23296   -23491   -23688   -23886   -24177   -24432   -24557   -24808 
  -25248   -25688   -26052   -26321   -26568   -26872   -27209   -27568 
  -27904   -28169   -28380   -28537   -28584   -28517   -28455   -28468 
  -28486   -28426   -28286   -28144   -28099   -28128   -28128   -28098 
  -28101   -28141   -28242   -28422   -28622   -28824   -29057   -29280 
  -29467   -29677   -29939   -30238   -30544   -30803   -30996   -31197 
  -31459   -31710   -31880   -31999   -32064   -32102   -32203   -32339 
  -32396   -32296   -32144   -32193   -32293   -32175   -31996   -31835 
  -31609   -31353   -31048   -30686   -30284   -29833   -29325   -28677 
  -27888   -27059   -26197   -25262   -24270   -23249   -22228   -21250 
  -20240   -19109   -17981   -16931   -15887   -14863   -13869   -12840 
  -11852   -11037   -10304    -9533    -8772    -8046    -7382    -6823 
   -6299    -5796    -5404    -5171    -5029    -4926    -4927    -4959 
   -5043    -5378    -5778    -6110    -6573    -7157    -7820    -8517 
   -9173    -9940   -10836   -11704   -12589   -13485   -14372   -15397 
  -16495   -17508   -18541   -19644   -20695   -21722   -22772   -23718 
  -24615   -25602   -26518   -27262   -27953   -28629   -29328   -30057 
  -30681   -31157   -31578   -31949   -32266   -32554   -32782   -32980 
  -33207   -33413   -33565   -33728   -33968   -34190   -34260   -34288 
  -34386   -34428   -34349   -34336   -34485   -34573   -34515   -34498 
  -34487   -34375   -34235   -34103   -33992   -33912   -33817   -33706 
  -33638   -33643   -33698   -33764   -33815   -33846   -33882   -33938 
  -33990   -33978   -33929   -33907   -33846   -33731   -33647   -33540 
  -33427   -33417   -33393   -33247   -33105   -33031   -32988   -32972 
  -32947   -32898   -32882   -32892   -32909   -32886   -32727   -32518 
  -32407   -32300   -32023   -31659   -31501   -31520   -31441   -31258 
  -31006   -30688   -30437   -30248   -30061   -29906   -29776   -29685 
  -29613   -29490   -29373   -29311   -29239   -29090   -28871   -28664 
  -28564   -28591   -28633   -28557   -28362   -28155   -28004   -27877 
  -27742   -27657   -27646   -27600   -27449   -27249   -27034   -26810 
  -26616   -26442   -26208   -25886   -25549   -25297   -25126   -24935 
  -24692   -24421   -24200   -24144   -24194   -24156   -23982   -23913 
  -23999   -23871   -23624   -23596   -23625   -23587   -23516   -23389 
  -23294   -23262   -23244   -23173   -23040   -22961   -22955   -22931 
  -22881   -22881   -22993   -23186   -23359   -23425   -23404   -23435 
  -23584   -23758   -23889   -24023   -24189   -24381   -24597   -24789 
  -24963   -25196   -25474   -25761   -26107   -26565   -27106   -27696 
  -28327   -28877   -29317   -29877   -30580   -31176   -31603   -31924 
  -32220   -32548   -32794   -32911   -32994   -33082   -33206   -33325 
  -33357   -33316   -33174   -32914   -32677   -32496   -32306   -32141 
  -31968   -31711   -31352   -30858   -30333   -29935   -29633   -29335 
  -29009   -28685   -28403   -28142   -27851   -27515   -27246   -27176 
  -27197   -27126   -26998   -26951   -27026   -27141   -27216   -27286 
  -27420   -27591   -27650   -27552   -27420   -27321   -27301   -27449 
  -27726   -27960   -28076   -28305   -28662   -28749   -28693   -28872 
  -29185   -29593   -30072   -30397   -30580   -30712   -30777   -30837 
  -30995   -31291   -31664   -31993   -32263   -32505   -32673   -32775 
  -32895   -33021   -33121   -33213   -33254   -33265   -33328   -33403 
  -33408   -33322   -33131   -32828   -32465   -32112   -31753   -31359 
  -30976   -30662   -30403   -30102   -29630   -28993   -28382   -27856 
  -27320   -26879   -26613   -26369   -26140   -26004   -25871   -25670 
  -25427   -25194   -25049   -25033   -25114   -25245   -25378   -25522 
  -25698   -25861   -26001   -26162   -26310   -26343   -26334   -26462 
  -26731   -27072   -27414   -27630   -27766   -27993   -28269   -28473 
  -28619   -28709   -28727   -28746   -28783   -28834   -28935   -29001 
  -28954   -28860   -28741   -28533   -28302   -28220   -28233   -28157 
  -28112   -28230   -28324   -28343   -28314   -28061   -27771   -27692 
  -27552   -27361   -27334   -27314   -27301   -27309   -27136   -26846 
  -26581   -26342   -26176   -26107   -26072   -26066   -26123   -26195 
  -26229   -26206   -26107   -25968   -25845   -25746   -25695   -25790 
  -26009   -26212   -26344   -26385   -26332   -26314   -26397   -26467 
  -26496   -26560   -26623   -26645   -26676   -26749   -26765   -26577 
  -26260   -26065   -26081   -26203   -26284   -26315   -26478   -26732 
  -26897   -27103   -27398   -27656   -27948   -28336   -28779   -29246 
  -29702   -30095   -30370   -30559   -30756   -30959   -31109   -31185 
  -31184   -31137   -31071   -30919   -30634   -30267   -29884   -29513 
  -29136   -28713   -28271   -27884   -27559   -27227   -26885   -26638 
  -26538   -26478   -26344   -26170   -26016   -25918   -26029   -26269 
  -26214   -25929   -25918   -26082   -25956   -25716   -25802   -25922 
  -25798   -25796   -25884   -25896   -25987   -26040   -26061   -26168 
  -26224   -26269   -26382   -26454   -26495   -26623   -26877   -27218 
  -27525   -27779   -28119   -28530   -28932   -29413   -29983   -30527 
  -31049   -31603   -32146   -32628   -33066   -33460   -33760   -33956 
  -34037   -33995   -33898   -33769   -33590   -33481   -33491   -33452 
  -33259   -32986   -32687   -32297   -31880   -31610   -31325   -30881 
  -30492   -30091   -29560   -29106   -28663   -28123   -27590   -27019 
  -26430   -25956   -25604   -25333   -25084   -24778   -24445   -24164 
  -23950   -23847   -23864   -23957   -24150   -24393   -24601   -24786 
  -24927   -24982   -24953   -24852   -24742   -24734   -24840   -24978 
  -25091   -25131   -25039   -24837   -24578   -24270   -24014   -23999 
  -24119   -24053   -23842   -23724   -23655   -23477   -23091   -22565 
  -22124   -21813   -21532   -21325   -21227   -21146   -21079   -21019 
  -20929   -20928   -21103   -21444   -21925   -22443   -22874   -23232 
  -23613   -23984   -24282   -24576   -24886   -25208   -25606   -26058 
  -26473   -26811   -27063   -27262   -27422   -27563   -27795   -28166 
  -28574   -28964   -29331   -29622   -29844   -29998   -30016   -29975 
  -30006   -30059   -30060   -30009   -29955   -29923   -29831   -29692 
  -29595   -29510   -29434   -29430   -29538   -29760   -30007   -30218 
  -30417   -30588   -30702   -30793   -30884   -31007   -31233   -31574 
  -31994   -32423   -32840   -33281   -33699   -34047   -34341   -34626 
  -34997   -35481   -35996   -36495   -36995   -37527   -38067   -38550 
  -38960   -39300   -39586   -39804   -39918   -40004   -40175   -40407 
  -40616   -40764   -40870   -40942   -40933   -40862   -40803   -40786 
