Origin Time       2011/03/11 14:46:00
Lat.              38.103
Long.             142.860
Depth. (km)       24
Mag.              9.0
Station Code      MIE012
Station Lat.      34.2544
Station Long.     136.8229
Station Height(m) 7
Record Time       2011/03/11 14:50:00
Sampling Freq(Hz) 100Hz
Duration Time(s)  97
Dir.              U-D
Scale Factor      3920(gal)/6182761
Max. Acc. (gal)   2.075
Last Correction   2011/03/11 14:49:45
Memo.             
[...]
   11330    11363    11409    11446    11469    11510    11560    11592 
   11615    11648    11681    11702    11710    11710    11719    11731 
   11731    11731    11724    11718    11726    11725    11708    11698 
   11702    11697    11679    11658    11639    11624    11598    11567 
   11545    11519    11490    11469    11448    11416    11385    11356 
   11310    11255    11213    11175    11127    11079    11033    10990 
   10957    10928    10895    10865    10839    10816    10810    10813 
   10804    10791    10783    10775    10764    10750    10730    10718 
   10712    10701    10696    10707    10716    10716    10718    10729 
   10749    10762    10768    10790    10819    10848    10872    10889 
   10909    10930    10942    10954    10971    10982    10988    10999 
   11009    11017    11027    11033    11033    11036    11032    11025 
   11024    11011    10984    10963    10947    10918    10881    10856 
   10838    10804    10760    10735    10726    10706    10681    10666 
   10651    10633    10615    10596    10572    10551    10534    10513 
   10496    10486    10475    10466    10465    10474    10476    10477 
   10486    10498    10506    10514    10529    10551    10571    10590 
   10614    10633    10649    10674    10699    10717    10743    10777 
   10800    10824    10865    10894    10906    10924    10955    10978 
   10983    10989    10998    11002    11003    11002    11004    11011 
   11019    11024    11033    11059    11087    11106    11137    11183 
   11219    11243    11275    11317    11359    11395    11427    11467 
   11508    11542    11573    11599    11610    11615    11627    11636 
   11629    11614    11603    11592    11566    11522    11472    11416 
   11355    11292    11218    11128    11039    10955    10857    10761 
   10677    10573    10466    10377    10283    10181    10088    10002 
    9907     9807     9719     9643     9558     9464     9383     9309 
    9234     9166     9104     9040     8980     8919     8853     8787 
    8728     8671     8611     8549     8494     8450     8411     8364 
    8307     8275     8273     8254     8211     8193     8211     8216 
    8199     8211     8243     8272     8316     8359     8394     8457 
    8525     8571     8630     8705     8776     8850     8925     8996 
    9075     9166     9243     9303     9387     9483     9552     9614 
    9675     9716     9766     9817     9828     9840     9876     9886 
    9888     9908     9910     9902     9916     9934     9935     9934 
    9945     9956     9951     9939     9943     9935     9893     9853 
    9838     9827     9820     9803     9768     9761     9781     9779 
    9785     9815     9818     9799     9805     9818     9806     9790 
    9776     9738     9705     9690     9646     9586     9557     9529 
    9475     9431     9402     9365     9332     9299     9261     9233 
    9215     9188     9153     9132     9125     9121     9119     9129 
    9151     9174     9193     9216     9250     9287     9319     9345 
    9369     9396     9421     9428     9434     9457     9471     9471 
    9482     9492     9492     9497     9502     9495     9487     9485 
    9489     9494     9502     9519     9532     9540     9562     9597 
    9629     9647     9664     9694     9724     9742     9767     9805 
    9833     9860     9893     9918     9948     9994    10029    10051 
   10089    10140    10170    10181    10204    10237    10260    10272 
   10290    10326    10353    10363    10395    10447    10488    10519 
   10554    10595    10638    10675    10705    10733    10761    10778 
   10789    10798    10795    10785    10786    10784    10772    10769 
   10773    10770    10761    10748    10735    10726    10714    10695 
   10685    10683    10667    10640    10628    10620    10592    10564 
   10552    10531    10495    10473    10461    10433    10406    10399 
   10392    10367    10340    10329    10323    10308    10289    10279 
   10273    10251    10229    10213    10183    10153    10138    10119 
   10081    10040    10003     9950     9888     9832     9769     9700 
    9638     9572     9500     9431     9362     9295     9235     9172 
    9120     9087     9057     9031     9021     9035     9058     9078 
    9117     9173     9228     9291     9367     9448     9528     9605 
    9682     9766     9853     9931    10004    10076    10149    10228 
   10312    10390    10459    10529    10606    10678    10741    10807 
   10881    10942    10992    11042    11089    11128    11152    11171 
   11193    11198    11194    11192    11175    11159    11159    11157 
   11147    11139    11132    11124    11124    11126    11116    11105 
   11098    11087    11074    11071    11074    11061    11043    11040 
   11041    11039    11047    11057    11057    11056    11064    11065 
   11050    11037    11028    11005    10976    10951    10926    10899 
   10871    10842    10818    10794    10764    10748    10734    10701 
   10671    10656    10641    10616    10591    10575    10563    10554 
   10540    10523    10512    10497    10484    10472    10444    10418 
   10393    10344    10282    10219    10159    10103    10042     9980 
    9923     9871     9828     9792     9760     9736     9722     9711 
    9700     9708     9735     9750     9768     9813     9862     9893 
    9937    10004    10050    10082    10143    10209    10252    10299 
   10357    10395    10426    10477    10523    10545    10572    10616 
   10648    10658    10668    10688    10700    10694    10686    10685 
   10682    10675    10663    10644    10641    10650    10645    10632 
   10628    10625    10612    10594    10575    10545    10512    10480 
   10439    10396    10357    10314    10270    10227    10191    10164 
   10138    10117    10108    10102    10097    10102    10108    10110 
   10118    10137    10153    10165    10190    10229    10259    10283 
   10314    10344    10372    10393    10400    10409    10406    10379 
   10361    10358    10342    10311    10288    10280    10275    10251 
   10220    10216    10230    10237    10255    10294    10337    10383 
   10438    10499    10569    10635    10692    10750    10809    10873 
   10938    10997    11053    11119    11192    11264    11330    11399 
   11479    11551    11612    11697    11798    11878    11948    12037 
   12131    12211    12286    12370    12445    12498    12547    12606 
   12652    12672    12690    12709    12719    12723    12724    12717 
   12707    12699    12684    12662    12640    12611    12573    12519 
   12464    12423    12365    12278    12205    12157    12096    12024 
   11964    11910    11860    11829    11803    11771    11759    11766 
   11764    11765    11782    11806    11827    11840    11862    11901 
   11928    11944    11977    12026    12064    12090    12117    12138 
   12154    12169    12174    12174    12185    12187    12153    12124 
   12117    12091    12053    12034    12013    11972    11943    11939 
   11925    11889    11863    11851    11839    11820    11803    11796 
   11795    11789    11781    11780    11786    11792    11798    11813 
   11832    11849    11869    11886    11901    11927    11946    11949 
   11955    11960    11957    11954    11944    11919    11899    11890 
   11879    11859    11842    11821    11798    11786    11768    11746 
   11734    11718    11702    11692    11675    11661    11664    11659 
   11639    11633    11633    11613    11591    11583    11570    11556 
   11552    11545    11533    11532    11532    11528    11536    11548 
   11551    11564    11587    11594    11588    11589    11589    11577 
   11565    11555    11540    11527    11512    11495    11481    11456 
   11427    11419    11404    11372    11352    11348    11345    11338 
   11329    11327    11329    11327    11328    11330    11329    11325 
   11323    11340    11361    11368    11382    11410    11439    11469 
   11501    11526    11550    11579    11604    11631    11669    11698 
   11721    11751    11777    11797    11816    11823    11818    11820 
   11831    11837    11836    11842    11861    11875    11887    11911 
   11933    11944    11960    11988    12012    12033    12064    12099 
   12133    12172    12216    12265    12319    12369    12420    12481 
   12547    12606    12669    12757    12846    12900    12940    12998 
   13057    13101    13142    13170    13178    13198    13226    13226 
   13212    13215    13217    13200    13190    13199    13197    13167 
   13142    13131    13113    13100    13084    13049    13028    13031 
   13019    12982    12950    12923    12879    12824    12784    12744 
   12683    12616    12548    12471    12391    12311    12221    12125 
   12034    11932    11813    11699    11597    11485    11359    11236 
   11120    10999    10876    10753    10622    10496    10379    10244 
   10102     9981     9864     9735     9601     9487     9391     9288 
    9182     9095     9020     8941     8862     8796     8753     8721 
    8677     8640     8634     8636     8625     8627     8653     8676 
    8694     8723     8758     8796     8851     8908     8953     9011 
    9090     9150     9186     9243     9311     9350     9387     9452 
    9506     9539     9579     9625     9668     9705     9738     9773 
    9794     9804     9832     9862     9875     9890     9905     9921 
    9952     9979     9985    10004    10053    10090    10105    10132 
   10162    10177    10192    10207    10210    10214    10227    10236 
   10245    10258    10269    10288    10316    10344    10367    10391 
   10422    10456    10484    10515    10556    10595    10616    10639 
   10679    10720    10749    10768    10781    10788    10798    10820 
   10831    10823    10823    10830    10833    10841    10850    10855 
   10873    10908    10941    10969    10991    11006    11026    11036 
   11014    10998    10999    10990    10978    10972    10961    10939 
   10914    10897    10874    10842    10830    10829    10822    10825 
   10848    10871    10875    10871    10875    10883    10888    10894 
   10908    10932    10963    10996    11038    11084    11120    11156 
   11203    11249    11293    11356    11423    11473    11527    11596 
   11640    11665    11716    11781    11823    11862    11934    12017 
   12072    12106    12140    12176    12210    12229    12244    12276 
   12314    12331    12348    12378    12395    12404    12424    12435 
   12434    12438    12439    12440    12451    12458    12449    12451 
   12479    12500    12506    12535    12571    12582    12587    12600 
   12606    12611    12620    12625    12631    12641    12654    12676 
   12700    12707    12699    12701    12714    12710    12683    12659 
   12650    12644    12634    12618    12607    12609    12611    12612 
   12623    12634    12637    12632    12627    12628    12620    12589 
   12560    12551    12539    12511    12473    12438    12414    12391 
   12349    12296    12252    12205    12147    12092    12033    11967 
   11915    11865    11794    11722    11659    11586    11505    11445 
   11408    11359    11304    11258    11198    11120    11033    10943 
   10863    10786    10712    10648    10570    10480    10395    10303 
   10211    10134    10065     9998     9940     9888     9833     9780 
    9734     9694     9664     9646     9639     9641     9655     9686 
    9717     9726     9735     9767     9798     9813     9848     9897 
    9931     9966    10000    10019    10045    10072    10073    10070 
   10067    10043    10016     9997     9965     9914     9860     9813 
    9778     9751     9711     9655     9598     9536     9466     9396 
    9328     9263     9214     9172     9116     9054     8997     8931 
    8863     8811     8763     8709     8665     8631     8605     8592 
    8577     8544     8505     8477     8462     8453     8440     8420 
    8408     8415     8432     8452     8479     8505     8516     8526 
    8544     8554     8561     8585     8622     8649     8675     8726 
    8778     8798     8808     8831     8864     8902     8940     8962 
    8981     9017     9055     9077     9087     9100     9127     9165 
    9206     9251     9293     9321     9349     9385     9417     9438 
    9451     9459     9458     9457     9460     9452     9447     9450 
    9452     9463     9480     9480     9461     9452     9479     9515 
    9525     9518     9517     9525     9540     9550     9548     9550 
    9570     9592     9605     9621     9641     9651     9656     9675 
    9705     9732     9758     9804     9867     9922     9974    10034 
   10091    10150    10226    10303    10365    10428    10502    10574 
   10640    10705    10772    10844    10918    10992    11067    11137 
   11200    11261    11310    11352    11403    11450    11477    11508 
   11549    11572    11586    11610    11639    11666    11684    11695 
   11709    11734    11762    11780    11801    11829    11844    11855 
   11866    11861    11853    11861    11867    11864    11877    11900 
   11908    11919    11935    11935    11937    11951    11974    12009 
   12050    12088    12116    12150    12208    12260    12297    12349 
   12406    12459    12523    12592    12655    12713    12775    12842 
   12903    12969    13041    13102    13163    13228    13282    13335 
   13391    13443    13497    13554    13610    13652    13687    13732 
   13774    13796    13814    13833    13847    13856    13854    13842 
   13813    13761    13703    13644    13576    13508    13444    13372 
   13284    13176    13063    12960    12864    12771    12684    12597 
   12506    12420    12343    12259    12166    12072    11977    11887 
   11810    11740    11664    11585    11521    11463    11398    11337 
   11288    11235    11170    11106    11056    11007    10953    10902 
   10849    10781    10718    10675    10637    10589    10535    10479 
   10417    10359    10312    10268    10226    10187    10144    10101 
   10062    10022     9978     9926     9876     9838     9802     9764 
    9736     9710     9665     9618     9583     9544     9498     9454 
    9405     9346     9281     9225     9178     9124     9065     9007 
    8941     8875     8819     8758     8686     8620     8560     8494 
    8427     8370     8321     8274     8233     8216     8205     8177 
    8163     8175     8185     8185     8184     8198     8237     8286 
    8328     8375     8443     8524     8605     8691     8777     8857 
    8944     9039     9142     9262     9378     9476     9596     9742 
    9871     9988    10109    10222    10328    10433    10538    10637 
   10723    10805    10887    10966    11051    11138    11221    11291 
   11344    11395    11452    11497    11523    11554    11612    11669 
   11704    11742    11795    11847    11899    11951    11990    12024 
   12062    12090    12111    12140    12162    12181    12204    12216 
   12221    12236    12249    12246    12235    12220    12188    12141 
   12110    12092    12053    12014    11992    11956    11897    11831 
   11772    11718    11647    11570    11504    11439    11368    11301 
   11242    11184    11109    11032    10974    10917    10849    10787 
   10738    10684    10614    10548    10493    10427    10363    10308 
   10242    10174    10119    10080    10050    10015     9983     9970 
    9967     9960     9946     9927     9912     9903     9887     9863 
    9850     9847     9832     9808     9794     9781     9765     9751 
    9753     9765     9779     9802     9830     9853     9875     9902 
    9932     9958     9972     9974     9981     9997     9996     9976 
    9956     9933     9898     9861     9831     9793     9756     9728 
    9699     9667     9654     9657     9650     9630     9615     9609 
    9619     9633     9634     9633     9639     9651     9674     9703 
    9729     9751     9771     9798     9835     9870     9893     9911 
    9929     9948     9970     9990    10001    10012    10021    10036 
   10073    10108    10127    10154    10190    10224    10267    10326 
   10381    10428    10489    10565    10645    10725    10803    10874 
   10952    11041    11124    11188    11262    11358    11434    11477 
   11535    11615    11683    11732    11784    11858    11932    11989 
   12034    12071    12119    12167    12203    12241    12276    12289 
   12294    12314    12330    12329    12327    12322    12313    12311 
   12309    12295    12268    12237    12197    12144    12090    12044 
   11997    11944    11881    11821    11761    11691    11624    11562 
   11503    11441    11381    11330    11271    11202    11141    11076 
   10988    10890    10794    10700    10601    10492    10387    10297 
   10219    10147    10076    10008     9941     9863     9773     9686 
    9608     9526     9438     9354     9279     9215     9157     9093 
    9036     9004     8989     8971     8957     8957     8965     8985 
    9009     9032     9069     9124     9185     9244     9299     9350 
    9399     9445     9491     9550     9620     9677     9722     9778 
    9846     9907     9950     9990    10041    10098    10154    10204 
   10255    10301    10339    10381    10429    10474    10519    10570 
   10615    10651    10690    10721    10744    10771    10794    10814 
   10837    10854    10864    10880    10893    10890    10880    10872 
   10872    10883    10886    10863    10832    10807    10787    10775 
   10755    10720    10689    10659    10620    10582    10560    10549 
   10530    10504    10492    10490    10484    10471    10456    10445 
   10437    10426    10413    10400    10400    10396    10368    10341 
   10330    10316    10289    10253    10212    10176    10147    10117 
   10082    10049    10021     9990     9959     9936     9914     9890 
    9864     9834     9808     9780     9747     9725     9699     9659 
    9620     9589     9558     9528     9492     9455     9431     9406 
    9369     9344     9336     9331     9329     9335     9346     9356 
    9363     9367     9371     9374     9368     9363     9367     9364 
    9348     9337     9330     9326     9320     9307     9311     9319 
    9308     9295     9299     9301     9291     9281     9277     9272 
    9277     9286     9287     9285     9290     9298     9294     9284 
    9288     9301     9324     9346     9355     9379     9419     9440 
    9453     9485     9531     9574     9607     9648     9704     9758 
    9796     9834     9874     9909     9950     9988    10013    10047 
   10081    10109    10146    10178    10204    10236    10256    10260 
   10274    10304    10331    10339    10340    10346    10350    10348 
   10338    10332    10334    10321    10295    10286    10289    10283 
   10266    10251    10243    10233    10219    10207    10194    10176 
   10153    10130    10124    10137    10148    10157    10174    10195 
   10215    10236    10254    10265    10264    10254    10241    10225 
   10207    10187    10165    10137    10102    10067    10031     9991 
    9964     9940     9906     9874     9845     9813     9782     9745 
    9711     9688     9671     9661     9650     9643     9649     9646 
    9632     9621     9601     9582     9577     9567     9548     9532 
