Origin Time       2011/03/11 14:46:00
Lat.              38.103
Long.             142.860
Depth. (km)       24
Mag.              9.0
Station Code      MIE005
Station Lat.      34.7679
Station Long.     136.1149
Station Height(m) 134
Record Time       2011/03/11 14:49:11
Sampling Freq(Hz) 100Hz
Duration Time(s)  171
Dir.              E-W
Scale Factor      3920(gal)/6182761
Max. Acc. (gal)   4.388
Last Correction   2011/03/11 14:48:56
Memo.             
[...]
  -12642   -12511   -12463   -12409   -12332   -12250   -12146   -12064 
  -12019   -11956   -11872   -11796   -11710   -11622   -11593   -11597 
  -11559   -11490   -11428   -11409   -11504   -11627   -11577   -11418 
  -11359   -11409   -11471   -11486   -11460   -11471   -11530   -11581 
  -11608   -11634   -11685   -11757   -11824   -11835   -11802   -11848 
  -12016   -12191   -12277   -12329   -12523   -12869   -13070   -13008 
  -12927   -12937   -12989   -13106   -13199   -13128   -12996   -12965 
  -12941   -12862   -12940   -13186   -13310   -13242   -13141   -13109 
  -13167   -13285   -13398   -13422   -13351   -13268   -13244   -13342 
  -13533   -13605   -13444   -13213   -13127   -13219   -13363   -13386 
  -13202   -12957   -12842   -12825   -12774   -12713   -12790   -12935 
  -12924   -12780   -12617   -12577   -12823   -13115   -13036   -12674 
  -12433   -12412   -12566   -12908   -13098   -12857   -12624   -12797 
  -13186   -13558   -13762   -13683   -13572   -13677   -13860   -14027 
  -14174   -14240   -14216   -14149   -14072   -13989   -13968   -14011 
  -14020   -13982   -13842   -13670   -13683   -13815   -13926   -13974 
  -13924   -13841   -13806   -13857   -13971   -14006   -13902   -13772 
  -13716   -13743   -13843   -13912   -13853   -13747   -13696   -13700 
  -13691   -13627   -13577   -13555   -13487   -13321   -13072   -12820 
  -12645   -12553   -12412   -12118   -11754   -11355   -10934   -10634 
  -10435   -10155    -9771    -9396    -9104    -8878    -8674    -8464 
   -8183    -7840    -7611    -7557    -7537    -7469    -7320    -7139 
   -7023    -6933    -6828    -6696    -6561    -6474    -6390    -6318 
   -6306    -6326    -6409    -6573    -6778    -7004    -7210    -7411 
   -7696    -8106    -8543    -8896    -9213    -9608   -10082   -10581 
  -11078   -11545   -11980   -12446   -12988   -13554   -14042   -14422 
  -14695   -14916   -15202   -15534   -15824   -16069   -16281   -16517 
  -16755   -16920   -17045   -17099   -17039   -16970   -16899   -16738 
  -16454   -16074   -15742   -15551   -15362   -15050   -14627   -14193 
  -13895   -13715   -13458   -13035   -12584   -12210   -11830   -11407 
  -10959   -10463   -10018    -9675    -9326    -8981    -8735    -8541 
   -8332    -8214    -8261    -8302    -8285    -8334    -8413    -8514 
   -8697    -8866    -9009    -9230    -9514    -9817   -10143   -10468 
  -10741   -11002   -11305   -11594   -11849   -12115   -12387   -12655 
  -12928   -13168   -13380   -13615   -13867   -14110   -14277   -14367 
  -14523   -14720   -14843   -14930   -15012   -15079   -15124   -15155 
  -15150   -15069   -15008   -14985   -14916   -14853   -14780   -14654 
  -14566   -14511   -14428   -14297   -14132   -13981   -13853   -13804 
  -13816   -13746   -13576   -13363   -13203   -13185   -13190   -13115 
  -13005   -12911   -12904   -12932   -12842   -12636   -12441   -12335 
  -12258   -12094   -11831   -11523   -11270   -11134   -11032   -10922 
  -10811   -10647   -10482   -10410   -10417   -10430   -10380   -10323 
  -10323   -10371   -10475   -10548   -10557   -10625   -10743   -10873 
  -11021   -11152   -11311   -11542   -11820   -12087   -12226   -12258 
  -12342   -12511   -12688   -12791   -12806   -12842   -12974   -13167 
  -13328   -13423   -13525   -13613   -13630   -13655   -13675   -13635 
  -13612   -13625   -13636   -13605   -13525   -13465   -13422   -13338 
  -13167   -12917   -12739   -12685   -12612   -12430   -12151   -11873 
  -11675   -11537   -11420   -11213   -10907   -10689   -10595   -10546 
  -10474   -10289   -10033    -9842    -9759    -9720    -9632    -9479 
   -9324    -9263    -9324    -9376    -9359    -9375    -9474    -9626 
   -9748    -9775    -9759    -9786    -9907   -10023   -10050   -10113 
  -10218   -10333   -10556   -10765   -10825   -10861   -10979   -11189 
  -11456   -11673   -11755   -11740   -11749   -11835   -12024   -12309 
  -12539   -12642   -12692   -12714   -12780   -12971   -13175   -13289 
  -13297   -13117   -12818   -12683   -12797   -12927   -12877   -12680 
  -12406   -12137   -12064   -12151   -12150   -11998   -11686   -11372 
  -11388   -11622   -11706   -11591   -11370   -11131   -11059   -11181 
  -11177   -10999   -10913   -10843   -10769   -10859   -10941   -10934 
  -10921   -10830   -10749   -10772   -10739   -10585   -10418   -10244 
  -10030    -9818    -9649    -9512    -9315    -9006    -8788    -8804 
   -8824    -8688    -8517    -8378    -8293    -8296    -8373    -8527 
   -8658    -8702    -8838    -9125    -9432    -9730   -10030   -10310 
  -10561   -10778   -10997   -11248   -11515   -11722   -11845   -11969 
  -12181   -12486   -12722   -12782   -12822   -12916   -13035   -13182 
  -13238   -13210   -13281   -13434   -13564   -13660   -13717   -13745 
  -13791   -13914   -14070   -14182   -14279   -14373   -14406   -14396 
  -14411   -14436   -14410   -14347   -14295   -14274   -14282   -14273 
  -14149   -13908   -13697   -13583   -13502   -13384   -13188   -12935 
  -12722   -12612   -12518   -12372   -12270   -12181   -11971   -11706 
  -11508   -11415   -11355   -11171   -10858   -10566   -10403   -10375 
  -10404   -10402   -10290   -10095    -9974    -9923    -9877    -9876 
   -9881    -9823    -9728    -9676    -9723    -9850   -10060   -10244 
  -10265   -10282   -10396   -10580   -10915   -11287   -11541   -11706 
  -11743   -11766   -12017   -12352   -12559   -12706   -12799   -12842 
  -13003   -13273   -13455   -13563   -13657   -13644   -13629   -13698 
  -13738   -13796   -13847   -13800   -13799   -13866   -13917   -13982 
  -14030   -14074   -14141   -14111   -13981   -13878   -13816   -13764 
  -13728   -13655   -13464   -13248   -13119   -12984   -12822   -12703 
  -12557   -12397   -12269   -12110   -11943   -11787   -11614   -11467 
  -11354   -11284   -11216   -11076   -10930   -10859   -10848   -10836 
  -10796   -10759   -10712   -10702   -10783   -10843   -10858   -10933 
  -11058   -11171   -11258   -11337   -11420   -11515   -11640   -11753 
  -11813   -11862   -11934   -12035   -12153   -12277   -12393   -12462 
  -12494   -12542   -12572   -12582   -12627   -12649   -12616   -12568 
  -12502   -12431   -12379   -12368   -12372   -12331   -12299   -12304 
  -12296   -12309   -12359   -12412   -12469   -12535   -12587   -12619 
  -12705   -12834   -12895   -12922   -12950   -12947   -12976   -13051 
  -13082   -13037   -12963   -12892   -12797   -12684   -12607   -12529 
  -12443   -12389   -12306   -12174   -12042   -11912   -11802   -11697 
  -11561   -11397   -11215   -11100   -11066   -10994   -10899   -10822 
  -10740   -10686   -10674   -10666   -10640   -10596   -10559   -10557 
  -10632   -10748   -10803   -10858   -10997   -11143   -11288   -11432 
  -11513   -11575   -11703   -11927   -12170   -12360   -12529   -12694 
  -12917   -13222   -13477   -13622   -13666   -13638   -13675   -13812 
  -13944   -14006   -13997   -13996   -14052   -14123   -14199   -14240 
  -14226   -14224   -14255   -14274   -14238   -14179   -14166   -14160 
  -14154   -14181   -14167   -14114   -14093   -14102   -14108   -14107 
  -14103   -14063   -14014   -14105   -14311   -14447   -14485   -14491 
  -14530   -14673   -14898   -15134   -15324   -15440   -15515   -15595 
  -15684   -15719   -15680   -15667   -15675   -15665   -15665   -15582 
  -15424   -15340   -15295   -15207   -15103   -14961   -14753   -14552 
  -14396   -14198   -13914   -13651   -13452   -13290   -13183   -13032 
  -12786   -12526   -12281   -12094   -11960   -11832   -11697   -11531 
  -11396   -11315   -11255   -11268   -11304   -11293   -11276   -11264 
  -11264   -11271   -11268   -11261   -11240   -11238   -11278   -11308 
  -11328   -11370   -11442   -11578   -11736   -11855   -11992   -12171 
  -12379   -12613   -12806   -12948   -13087   -13280   -13530   -13731 
  -13875   -13988   -14051   -14138   -14237   -14283   -14289   -14252 
  -14191   -14138   -14084   -14015   -13941   -13908   -13853   -13751 
  -13710   -13687   -13601   -13486   -13356   -13197   -13005   -12814 
  -12669   -12574   -12481   -12344   -12187   -12038   -11879   -11725 
  -11617   -11545   -11406   -11198   -11037   -10949   -10927   -10929 
  -10844   -10681   -10546   -10485   -10449   -10397   -10365   -10313 
  -10243   -10254   -10330   -10462   -10613   -10689   -10759   -10845 
  -10903   -11002   -11150   -11293   -11424   -11574   -11752   -11891 
  -12003   -12132   -12282   -12511   -12756   -12921   -13039   -13117 
  -13200   -13338   -13480   -13624   -13728   -13760   -13792   -13814 
  -13851   -13942   -14022   -14092   -14142   -14177   -14247   -14309 
  -14361   -14401   -14429   -14492   -14512   -14489   -14488   -14452 
  -14430   -14454   -14466   -14511   -14568   -14616   -14681   -14744 
  -14847   -14924   -14921   -14956   -15007   -15048   -15117   -15150 
  -15157   -15150   -15151   -15183   -15131   -15060   -15051   -14973 
  -14848   -14717   -14568   -14462   -14363   -14222   -14020   -13762 
  -13551   -13375   -13180   -12969   -12732   -12521   -12326   -12101 
  -11895   -11708   -11548   -11437   -11288   -11112   -11016   -11011 
  -11042   -11049   -11023   -11013   -11069   -11155   -11167   -11128 
  -11119   -11128   -11187   -11293   -11377   -11471   -11557   -11609 
  -11675   -11722   -11780   -11908   -12043   -12190   -12371   -12556 
  -12742   -12893   -13035   -13221   -13406   -13561   -13646   -13599 
  -13482   -13371   -13293   -13253   -13207   -13139   -13033   -12888 
  -12776   -12677   -12518   -12288   -12012   -11759   -11527   -11308 
  -11200   -11207   -11285   -11452   -11637   -11802   -11958   -12081 
  -12184   -12268   -12300   -12268   -12187   -12124   -12117   -12152 
  -12247   -12378   -12497   -12599   -12671   -12730   -12792   -12829 
  -12802   -12701   -12616   -12612   -12655   -12750   -12882   -13016 
  -13209   -13454   -13668   -13846   -13999   -14098   -14176   -14284 
  -14380   -14408   -14418   -14471   -14520   -14568   -14660   -14738 
  -14797   -14878   -14956   -15044   -15147   -15201   -15135   -14953 
  -14767   -14606   -14423   -14280   -14181   -14077   -14003   -13970 
  -13959   -13917   -13849   -13818   -13787   -13721   -13616   -13463 
  -13332   -13264   -13239   -13254   -13287   -13334   -13332   -13227 
  -13081   -12885   -12655   -12453   -12235   -12024   -11859   -11724 
  -11642   -11582   -11525   -11467   -11380   -11334   -11324   -11277 
  -11236   -11206   -11201   -11287   -11444   -11628   -11781   -11856 
  -11832   -11698   -11558   -11480   -11429   -11460   -11576   -11738 
  -11948   -12163   -12415   -12711   -12962   -13176   -13306   -13296 
  -13245   -13174   -13076   -12997   -12899   -12780   -12689   -12641 
  -12646   -12671   -12703   -12750   -12797   -12856   -12913   -12944 
  -12971   -12987   -12988   -12971   -12945   -12963   -13004   -13043 
  -13099   -13122   -13081   -13007   -12944   -12944   -12972   -13001 
  -13057   -13119   -13182   -13231   -13249   -13301   -13375   -13418 
  -13446   -13461   -13486   -13526   -13527   -13522   -13555   -13602 
  -13623   -13591   -13528   -13437   -13351   -13339   -13342   -13343 
  -13369   -13342   -13310   -13356   -13398   -13398   -13348   -13238 
  -13110   -12973   -12914   -12974   -13058   -13173   -13299   -13337 
  -13334   -13356   -13418   -13511   -13584   -13635   -13689   -13763 
  -13871   -13977   -14073   -14178   -14266   -14375   -14553   -14739 
  -14885   -15020   -15152   -15242   -15313   -15433   -15569   -15674 
  -15765   -15803   -15776   -15752   -15777   -15802   -15788   -15797 
  -15800   -15742   -15747   -15828   -15906   -15999   -16022   -15957 
  -15918   -15859   -15743   -15586   -15342   -15099   -14943   -14836 
  -14777   -14717   -14618   -14555   -14519   -14467   -14426   -14397 
  -14373   -14351   -14323   -14282   -14204   -14081   -13944   -13818 
  -13705   -13601   -13476   -13336   -13256   -13188   -13063   -12979 
  -12928   -12821   -12759   -12755   -12697   -12665   -12697   -12766 
  -12947   -13183   -13373   -13513   -13592   -13693   -13840   -13922 
  -13977   -14035   -14014   -13959   -13918   -13847   -13780   -13805 
  -13905   -14046   -14249   -14435   -14534   -14574   -14541   -14460 
  -14369   -14233   -14099   -14004   -13883   -13770   -13710   -13679 
  -13713   -13776   -13781   -13751   -13654   -13484   -13373   -13357 
  -13376   -13389   -13359   -13303   -13286   -13293   -13238   -13138 
  -13025   -12854   -12661   -12506   -12368   -12272   -12219   -12187 
  -12201   -12209   -12184   -12181   -12189   -12208   -12213   -12138 
  -12062   -12056   -12081   -12149   -12264   -12373   -12466   -12572 
  -12692   -12814   -12952   -13079   -13183   -13314   -13448   -13609 
  -13860   -14120   -14371   -14649   -14880   -15101   -15381   -15645 
  -15870   -16066   -16217   -16345   -16460   -16588   -16738   -16865 
  -16930   -16934   -16924   -16882   -16787   -16714   -16643   -16541 
  -16439   -16261   -16030   -15858   -15680   -15482   -15306   -15086 
  -14812   -14525   -14240   -13982   -13749   -13541   -13370   -13214 
  -13055   -12925   -12848   -12777   -12685   -12612   -12519   -12404 
  -12312   -12202   -12127   -12123   -12101   -12141   -12300   -12450 
  -12649   -12964   -13293   -13638   -14010   -14348   -14677   -15040 
  -15407   -15757   -16138   -16508   -16814   -17123   -17409   -17664 
  -17978   -18267   -18479   -18716   -18924   -19076   -19278   -19477 
  -19587   -19661   -19706   -19679   -19640   -19610   -19511   -19399 
  -19351   -19239   -19072   -18941   -18752   -18503   -18224   -17848 
  -17439   -17055   -16689   -16371   -16049   -15708   -15376   -15013 
  -14648   -14335   -14047   -13734   -13397   -13053   -12673   -12299 
  -11984   -11677   -11401   -11147   -10821   -10505   -10242   -10005 
   -9883    -9826    -9759    -9740    -9715    -9661    -9666    -9695 
   -9692    -9685    -9702    -9742    -9812    -9926   -10042   -10170 
  -10352   -10551   -10807   -11119   -11386   -11656   -11958   -12239 
  -12547   -12861   -13165   -13525   -13896   -14229   -14549   -14854 
  -15107   -15297   -15483   -15664   -15815   -15998   -16173   -16312 
  -16489   -16669   -16823   -16955   -17028   -17106   -17195   -17228 
  -17244   -17235   -17174   -17115   -17047   -16930   -16811   -16709 
  -16582   -16446   -16344   -16226   -16064   -15902   -15714   -15502 
  -15331   -15163   -14979   -14798   -14611   -14484   -14396   -14266 
  -14151   -14056   -13962   -13894   -13785   -13640   -13492   -13291 
  -13045   -12814   -12612   -12391   -12191   -12084   -11991   -11928 
  -11945   -11909   -11824   -11770   -11659   -11499   -11358   -11201 
  -11063   -10978   -10921   -10919   -10974   -11060   -11182   -11330 
  -11468   -11587   -11695   -11756   -11796   -11892   -12008   -12134 
  -12330   -12530   -12727   -12984   -13221   -13449   -13718   -13945 
  -14132   -14333   -14500   -14627   -14785   -14977   -15162   -15361 
  -15578   -15794   -16031   -16217   -16335   -16486   -16586   -16609 
  -16667   -16678   -16615   -16556   -16467   -16376   -16307   -16185 
  -16040   -15908   -15753   -15601   -15468   -15310   -15146   -15031 
  -14912   -14742   -14597   -14462   -14296   -14161   -14001   -13781 
  -13574   -13347   -13118   -12961   -12802   -12630   -12514   -12424 
  -12350   -12324   -12302   -12264   -12243   -12203   -12116   -12060 
  -12024   -11953   -11931   -11939   -11886   -11864   -11884   -11894 
  -11942   -11982   -12017   -12147   -12321   -12521   -12795   -13090 
  -13384   -13704   -14011   -14280   -14550   -14815   -15041   -15252 
  -15448   -15618   -15815   -15985   -16099   -16235   -16330   -16391 
  -16507   -16573   -16584   -16639   -16684   -16714   -16800   -16905 
  -16983   -17037   -17063   -17011   -16873   -16672   -16390   -16046 
  -15676   -15327   -15074   -14878   -14718   -14643   -14587   -14545 
  -14576   -14570   -14481   -14370   -14195   -13977   -13789   -13618 
  -13452   -13289   -13145   -13017   -12899   -12797   -12701   -12622 
  -12505   -12312   -12165   -12052   -11916   -11835   -11758   -11671 
  -11648   -11613   -11584   -11640   -11707   -11791   -11944   -12101 
  -12223   -12315   -12362   -12366   -12392   -12448   -12480   -12551 
  -12674   -12792   -12971   -13194   -13394   -13610   -13769   -13829 
  -13871   -13862   -13792   -13718   -13641   -13587   -13637   -13789 
  -13963   -14148   -14352   -14484   -14554   -14614   -14592   -14505 
  -14392   -14193   -13948   -13728   -13553   -13443   -13374   -13341 
  -13319   -13255   -13165   -13034   -12859   -12648   -12386   -12117 
  -11846   -11578   -11354   -11139   -10952   -10821   -10700   -10637 
  -10618   -10569   -10546   -10536   -10496   -10484   -10472   -10448 
  -10479   -10551   -10681   -10897   -11115   -11293   -11472   -11647 
  -11780   -11927   -12113   -12265   -12411   -12536   -12557   -12574 
  -12614   -12632   -12701   -12791   -12874   -12990   -13093   -13178 
  -13238   -13238   -13248   -13272   -13251   -13225   -13212   -13114 
  -12931   -12815   -12745   -12631   -12574   -12567   -12549   -12572 
  -12570   -12559   -12643   -12712   -12724   -12747   -12740   -12678 
  -12586   -12504   -12453   -12400   -12363   -12379   -12405   -12395 
  -12358   -12336   -12308   -12251   -12242   -12291   -12357   -12454 
  -12555   -12653   -12718   -12699   -12686   -12693   -12673   -12695 
  -12684   -12581   -12483   -12370   -12261   -12253   -12297   -12342 
  -12408   -12442   -12400   -12367   -12357   -12272   -12167   -12110 
  -12026   -11923   -11835   -11727   -11628   -11545   -11509   -11559 
  -11604   -11644   -11725   -11768   -11787   -11804   -11786   -11782 
  -11811   -11855   -11916   -11966   -11996   -12027   -12057   -12071 
  -12084   -12129   -12187   -12209   -12180   -12132   -12133   -12139 
  -12101   -12076   -12037   -11985   -11975   -11944   -11940   -12015 
  -12066   -12116   -12175   -12172   -12190   -12213   -12156   -12112 
  -12100   -12069   -12091   -12186   -12277   -12351   -12408   -12419 
  -12431   -12498   -12557   -12560   -12529   -12469   -12410   -12357 
  -12302   -12290   -12297   -12329   -12413   -12453   -12466   -12529 
  -12557   -12535   -12527   -12528   -12532   -12501   -12411   -12289 
  -12173   -12140   -12175   -12195   -12209   -12190   -12113   -12043 
  -11980   -11896   -11804   -11724   -11635   -11510   -11452   -11481 
  -11487   -11493   -11539   -11573   -11571   -11573   -11610   -11637 
  -11655   -11703   -11730   -11737   -11767   -11809   -11880   -11969 
  -12027   -12082   -12165   -12274   -12383   -12436   -12482   -12561 
  -12634   -12739   -12850   -12897   -12965   -13075   -13148   -13175 
  -13183   -13211   -13228   -13208   -13199   -13207   -13245   -13303 
  -13340   -13335   -13253   -13164   -13087   -12974   -12895   -12819 
  -12662   -12514   -12407   -12306   -12227   -12165   -12102   -12044 
  -12021   -12025   -11989   -11911   -11805   -11658   -11538   -11469 
  -11399   -11332   -11279   -11266   -11308   -11379   -11479   -11561 
  -11601   -11647   -11704   -11777   -11839   -11861   -11880   -11898 
  -11940   -12024   -12095   -12183   -12284   -12344   -12422   -12522 
  -12596   -12660   -12705   -12721   -12694   -12657   -12655   -12654 
