Origin Time       2011/03/11 14:46:00
Lat.              38.103
Long.             142.860
Depth. (km)       24
Mag.              9.0
Station Code      MIE001
Station Lat.      35.1719
Station Long.     136.4948
Station Height(m) 128
Record Time       2011/03/11 14:49:03
Sampling Freq(Hz) 100Hz
Duration Time(s)  294
Dir.              E-W
Scale Factor      3920(gal)/6182761
Max. Acc. (gal)   7.359
Last Correction   2011/03/11 14:48:48
Memo.             
[...]
  -11098   -11205   -11313   -11431   -11571   -11729   -11910   -12116 
  -12339   -12572   -12829   -13110   -13393   -13691   -14009   -14310 
  -14581   -14838   -15063   -15244   -15415   -15575   -15703   -15816 
  -15919   -15991   -16022   -16014   -15992   -15985   -16006   -16064 
  -16140   -16216   -16297   -16388   -16507   -16654   -16817   -17005 
  -17220   -17439   -17654   -17863   -18075   -18293   -18483   -18617 
  -18695   -18715   -18679   -18596   -18463   -18302   -18142   -17978 
  -17806   -17638   -17473   -17305   -17137   -16979   -16835   -16702 
  -16591   -16504   -16413   -16323   -16248   -16187   -16147   -16107 
  -16016   -15877   -15728   -15554   -15335   -15102   -14842   -14539 
  -14243   -13999   -13812   -13665   -13549   -13473   -13437   -13440 
  -13492   -13575   -13681   -13800   -13888   -13938   -14013   -14135 
  -14274   -14416   -14573   -14726   -14854   -14982   -15117   -15249 
  -15384   -15529   -15681   -15828   -15961   -16097   -16233   -16345 
  -16447   -16565   -16700   -16841   -16983   -17147   -17342   -17543 
  -17742   -17963   -18219   -18492   -18750   -18987   -19216   -19444 
  -19646   -19825   -20016   -20203   -20335   -20420   -20481   -20519 
  -20530   -20521   -20497   -20468   -20448   -20440   -20423   -20391 
  -20364   -20335   -20279   -20198   -20080   -19940   -19828   -19737 
  -19635   -19535   -19451   -19375   -19321   -19312   -19342   -19399 
  -19486   -19594   -19713   -19849   -19978   -20079   -20162   -20228 
  -20243   -20193   -20115   -20041   -19972   -19912   -19859   -19819 
  -19808   -19838   -19904   -19941   -19944   -19995   -20033   -19999 
  -19994   -19992   -19958   -19925   -19864   -19816   -19805   -19828 
  -19920   -20041   -20159   -20283   -20404   -20503   -20559   -20562 
  -20520   -20475   -20432   -20388   -20362   -20313   -20219   -20091 
  -19906   -19692   -19484   -19284   -19094   -18893   -18680   -18475 
  -18245   -17969   -17673   -17345   -16992   -16655   -16321   -15966 
  -15616   -15296   -14995   -14703   -14418   -14138   -13872   -13657 
  -13527   -13460   -13429   -13430   -13411   -13350   -13267   -13144 
  -12993   -12873   -12793   -12717   -12654   -12634   -12651   -12670 
  -12676   -12676   -12666   -12663   -12690   -12728   -12785   -12897 
  -13055   -13239   -13453   -13701   -13987   -14284   -14565   -14846 
  -15115   -15355   -15598   -15862   -16118   -16354   -16600   -16885 
  -17186   -17479   -17768   -18054   -18328   -18589   -18807   -18934 
  -18982   -18978   -18913   -18787   -18623   -18439   -18235   -17986 
  -17662   -17295   -16923   -16552   -16167   -15745   -15320   -14942 
  -14595   -14260   -13978   -13768   -13600   -13486   -13444   -13451 
  -13506   -13622   -13779   -13954   -14147   -14362   -14576   -14791 
  -15022   -15241   -15437   -15631   -15826   -16006   -16164   -16287 
  -16381   -16493   -16630   -16743   -16830   -16915   -16991   -17073 
  -17184   -17303   -17422   -17547   -17673   -17787   -17865   -17903 
  -17944   -18013   -18077   -18129   -18178   -18215   -18230   -18209 
  -18142   -18050   -17951   -17838   -17704   -17561   -17431   -17317 
  -17217   -17136   -17095   -17118   -17187   -17265   -17360   -17492 
  -17657   -17841   -18004   -18132   -18256   -18387   -18529   -18687 
  -18859   -19050   -19246   -19422   -19602   -19801   -19982   -20145 
  -20309   -20459   -20590   -20698   -20777   -20828   -20852   -20826 
  -20749   -20630   -20461   -20255   -20037   -19820   -19620   -19448 
  -19318   -19225   -19147   -19086   -19055   -19057   -19102   -19173 
  -19226   -19273   -19353   -19465   -19579   -19695   -19858   -20059 
  -20238   -20401   -20590   -20775   -20907   -20993   -21047   -21088 
  -21140   -21184   -21213   -21190   -21083   -20972   -20825   -20613 
  -20417   -20223   -20033   -19887   -19739   -19556   -19376   -19232 
  -19075   -18886   -18707   -18514   -18312   -18147   -17929   -17606 
  -17315   -17088   -16841   -16558   -16297   -16124   -15935   -15723 
  -15599   -15431   -15178   -14980   -14809   -14598   -14425   -14344 
  -14270   -14192   -14200   -14273   -14332   -14377   -14440   -14487 
  -14502   -14521   -14532   -14530   -14533   -14557   -14606   -14672 
  -14736   -14787   -14853   -14935   -15020   -15128   -15229   -15301 
  -15365   -15397   -15374   -15339   -15303   -15249   -15184   -15114 
  -15058   -15047   -15067   -15082   -15072   -15080   -15130   -15181 
  -15224   -15271   -15341   -15417   -15451   -15465   -15485   -15514 
  -15554   -15598   -15667   -15756   -15867   -16019   -16177   -16307 
  -16421   -16532   -16633   -16714   -16782   -16857   -16908   -16887 
  -16823   -16722   -16597   -16479   -16330   -16149   -15944   -15688 
  -15429   -15180   -14855   -14482   -14123   -13728   -13303   -12894 
  -12506   -12138   -11795   -11511   -11269   -11042   -10860   -10730 
  -10640   -10592   -10590   -10613   -10655   -10717   -10759   -10777 
  -10808   -10888   -11017   -11139   -11241   -11348   -11474   -11639 
  -11871   -12161   -12464   -12759   -13038   -13307   -13568   -13816 
  -14060   -14284   -14485   -14679   -14868   -15054   -15233   -15378 
  -15489   -15585   -15647   -15687   -15740   -15799   -15865   -15948 
  -16042   -16120   -16186   -16282   -16400   -16510   -16615   -16721 
  -16817   -16892   -16984   -17133   -17307   -17480   -17671   -17865 
  -18037   -18206   -18377   -18548   -18728   -18905   -19074   -19249 
  -19445   -19663   -19887   -20099   -20271   -20391   -20464   -20485 
  -20451   -20375   -20269   -20137   -19980   -19823   -19687   -19566 
  -19449   -19343   -19248   -19166   -19109   -19100   -19152   -19263 
  -19450   -19680   -19873   -20067   -20323   -20568   -20795   -21013 
  -21168   -21338   -21562   -21726   -21829   -21943   -22012   -21961 
  -21902   -21891   -21776   -21680   -21779   -21741   -21520   -21532 
  -21572   -21302   -20967   -20706   -20477   -20193   -19773   -19440 
  -19208   -18934   -18763   -18630   -18510   -18499   -18439   -18388 
  -18404   -18378   -18361   -18333   -18289   -18302   -18310   -18282 
  -18230   -18125   -18013   -17930   -17842   -17724   -17572   -17431 
  -17294   -17120   -16979   -16849   -16721   -16687   -16661   -16615 
  -16643   -16718   -16825   -16957   -17067   -17173   -17296   -17394 
  -17449   -17508   -17599   -17704   -17829   -18034   -18283   -18482 
  -18643   -18786   -18896   -18941   -18925   -18916   -18893   -18841 
  -18810   -18767   -18699   -18636   -18572   -18513   -18477   -18472 
  -18494   -18525   -18523   -18493   -18466   -18426   -18346   -18261 
  -18225   -18162   -18060   -18019   -17995   -17932   -17862   -17818 
  -17840   -17900   -17976   -18066   -18179   -18349   -18534   -18668 
  -18783   -18994   -19247   -19398   -19574   -19853   -20057   -20243 
  -20472   -20603   -20706   -20826   -20928   -21025   -21045   -21071 
  -21178   -21247   -21268   -21286   -21247   -21139   -20993   -20766 
  -20466   -20168   -19847   -19495   -19140   -18764   -18373   -17992 
  -17623   -17263   -16952   -16712   -16508   -16344   -16249   -16226 
  -16265   -16352   -16453   -16551   -16664   -16773   -16866   -16961 
  -17046   -17125   -17200   -17267   -17339   -17429   -17541   -17695 
  -17893   -18086   -18255   -18416   -18574   -18746   -18918   -19055 
  -19174   -19288   -19382   -19484   -19627   -19774   -19894   -19987 
  -20060   -20146   -20253   -20374   -20516   -20654   -20793   -20945 
  -21106   -21315   -21578   -21854   -22129   -22398   -22669   -22955 
  -23276   -23632   -23954   -24212   -24420   -24560   -24589   -24515 
  -24379   -24196   -24000   -23792   -23534   -23264   -23018   -22766 
  -22516   -22300   -22114   -21958   -21820   -21685   -21564   -21447 
  -21294   -21082   -20851   -20605   -20234   -19796   -19463   -19143 
  -18699   -18209   -17751   -17346   -16968   -16578   -16232   -15950 
  -15691   -15438   -15214   -15041   -14902   -14801   -14713   -14608 
  -14522   -14439   -14298   -14152   -14049   -13934   -13835   -13787 
  -13761   -13834   -13977   -14119   -14313   -14523   -14710   -14906 
  -15072   -15208   -15363   -15468   -15531   -15609   -15630   -15633 
  -15656   -15660   -15663   -15632   -15595   -15591   -15589   -15602 
  -15599   -15556   -15509   -15454   -15367   -15243   -15119   -15002 
  -14861   -14708   -14547   -14370   -14174   -13954   -13715   -13486 
  -13276   -13023   -12741   -12483   -12207   -11930   -11654   -11365 
  -11131   -10939   -10764   -10629   -10538   -10496   -10499   -10558 
  -10649   -10719   -10766   -10792   -10796   -10788   -10746   -10700 
  -10686   -10678   -10669   -10696   -10758   -10832   -10942   -11078 
  -11159   -11162   -11114   -11014   -10852   -10636   -10373   -10061 
   -9709    -9349    -9013    -8699    -8424    -8206    -8006    -7845 
   -7790    -7824    -7887    -7984    -8148    -8376    -8684    -9075 
   -9470    -9829   -10183   -10503   -10769   -11036   -11299   -11500 
  -11650   -11810   -12005   -12233   -12469   -12664   -12803   -12964 
  -13192   -13441   -13723   -14080   -14474   -14878   -15296   -15727 
  -16154   -16531   -16835   -17115   -17391   -17616   -17807   -18075 
  -18432   -18699   -18826   -19023   -19342   -19647   -19922   -20219 
  -20567   -20956   -21305   -21595   -21893   -22194   -22449   -22656 
  -22834   -22983   -23087   -23142   -23146   -23114   -23060   -22977 
  -22915   -22926   -22936   -22887   -22825   -22783   -22750   -22701 
  -22630   -22567   -22512   -22427   -22311   -22191   -22097   -22032 
  -21957   -21871   -21803   -21716   -21575   -21429   -21335   -21256 
  -21159   -21109   -21119   -21133   -21141   -21149   -21140   -21118 
  -21122   -21175   -21252   -21352   -21507   -21710   -21904   -22068 
  -22254   -22443   -22593   -22715   -22754   -22708   -22672   -22651 
  -22602   -22506   -22382   -22240   -22064   -21912   -21793   -21667 
  -21615   -21654   -21714   -21822   -21994   -22192   -22418   -22649 
  -22842   -23008   -23196   -23399   -23542   -23642   -23754   -23835 
  -23876   -23945   -24064   -24176   -24267   -24366   -24388   -24347 
  -24360   -24359   -24292   -24245   -24204   -24073   -23880   -23759 
  -23711   -23677   -23675   -23681   -23723   -23886   -24105   -24273 
  -24402   -24524   -24640   -24751   -24865   -24963   -25027   -25119 
  -25223   -25269   -25325   -25362   -25333   -25307   -25190   -24974 
  -24862   -24804   -24661   -24577   -24557   -24335   -24000   -23819 
  -23612   -23234   -22954   -22814   -22582   -22291   -22096   -21982 
  -21896   -21784   -21591   -21402   -21341   -21295   -21127   -20977 
  -20972   -21052   -21076   -20937   -20716   -20586   -20526   -20356 
  -20033   -19713   -19454   -19136   -18732   -18284   -17805   -17361 
  -16986   -16578   -16132   -15777   -15482   -15129   -14768   -14473 
  -14173   -13799   -13360   -12893   -12472   -12124   -11812   -11465 
  -10995   -10542   -10257    -9923    -9466    -9169    -9068    -8930 
   -8788    -8756    -8705    -8619    -8593    -8515    -8420    -8487 
   -8629    -8788    -8986    -9124    -9271    -9450    -9476    -9440 
   -9530    -9618    -9538    -9553   -10001   -10608   -10938   -11100 
  -11355   -11526   -11459   -11660   -12255   -12472   -12364   -12656 
  -13049   -13230   -13622   -13921   -13725   -13652   -14005   -14420 
  -14609   -14578   -14738   -15066   -15116   -15115   -15199   -15084 
  -15041   -15136   -14995   -14869   -14978   -15107   -15293   -15510 
  -15550   -15537   -15624   -15655   -15647   -15884   -16301   -16498 
  -16430   -16378   -16334   -16211   -16160   -16139   -16005   -15844 
  -15800   -15855   -15867   -15882   -15907   -15833   -15873   -16054 
  -16103   -16128   -16262   -16470   -16796   -17010   -17023   -17154 
  -17346   -17430   -17487   -17458   -17383   -17387   -17379   -17289 
  -17232   -17332   -17446   -17400   -17379   -17552   -17788   -18044 
  -18385   -18667   -18858   -19136   -19420   -19726   -20199   -20557 
  -20682   -20839   -21123   -21411   -21484   -21619   -22112   -22226 
  -21703   -21485   -21883   -22119   -21761   -21302   -20998   -20692 
  -20737   -21174   -21314   -21028   -20837   -20851   -20843   -20922 
  -21080   -20969   -20691   -20515   -20400   -20787   -21697   -21807 
  -21069   -20831   -21065   -21360   -21665   -21488   -21101   -21089 
  -21351   -21873   -22255   -22070   -21656   -21329   -21651   -22642 
  -22944   -22369   -22154   -22640   -23394   -23636   -22906   -22211 
  -22421   -22910   -22968   -22536   -21986   -22235   -23267   -23240 
  -21927   -21671   -22533   -22446   -21656   -21431   -21469   -21218 
  -21098   -21205   -20762   -20260   -20399   -20239   -19721   -19547 
  -19610   -19583   -19189   -18935   -18985   -18764   -18528   -18473 
  -18344   -18160   -18069   -18099   -18115   -18042   -18046   -18324 
  -18466   -18275   -18335   -18483   -18311   -18249   -18336   -18194 
  -18113   -18287   -18172   -17818   -17799   -17913   -17772   -17553 
  -17509   -17465   -17209   -16859   -16451   -16019   -15625   -15175 
  -14728   -14320   -13923   -13555   -13160   -12804   -12478   -12028 
  -11471   -10937   -10357    -9645    -9055    -8713    -8516    -8397 
   -8228    -8028    -7811    -7507    -7220    -7020    -6795    -6525 
   -6579    -7165    -7488    -6749    -5737    -5624    -6296    -6878 
   -6635    -5778    -5332    -5878    -6912    -7325    -6835    -6389 
   -6809    -8037    -9243    -9367    -8672    -8757   -10092   -11336 
  -11230   -10316   -10484   -12089   -12999   -12027   -11421   -12917 
  -13936   -13260   -13618   -14537   -14225   -14375   -14907   -14807 
  -15097   -15385   -15510   -15980   -16095   -16103   -16240   -16242 
  -16446   -16673   -16830   -17114   -17406   -17636   -17780   -18014 
  -18369   -18606   -18635   -18667   -18985   -19236   -19209   -19208 
  -19141   -18994   -18854   -18617   -18318   -18065   -17873   -17598 
  -17367   -17289   -17228   -17223   -17263   -17404   -17610   -17747 
  -17820   -17831   -17942   -18212   -18474   -18565   -18567   -18749 
  -18900   -18841   -18826   -18918   -19073   -19178   -19191   -19287 
  -19498   -19771   -19959   -20023   -20094   -20159   -20263   -20320 
  -20394   -20573   -20616   -20715   -20911   -20996   -21027   -21051 
  -21178   -21311   -21402   -21456   -21436   -21553   -21728   -21886 
  -22049   -22122   -22184   -22221   -22246   -22315   -22380   -22401 
  -22320   -22181   -22077   -22011   -21971   -21966   -21953   -21882 
  -21738   -21578   -21533   -21553   -21521   -21438   -21317   -21187 
  -21064   -20979   -20942   -20835   -20647   -20558   -20564   -20457 
  -20275   -20143   -20023   -19890   -19758   -19699   -19695   -19666 
  -19632   -19534   -19329   -19083   -18810   -18501   -18221   -17993 
  -17765   -17514   -17225   -16922   -16669   -16500   -16401   -16271 
  -16108   -16033   -16041   -16022   -15922   -15763   -15557   -15344 
  -15169   -15003   -14884   -14826   -14742   -14591   -14431   -14356 
  -14378   -14381   -14276   -14081   -13887   -13770   -13704   -13616 
  -13496   -13404   -13329   -13231   -13164   -13171   -13165   -13056 
  -12868   -12656   -12468   -12338   -12251   -12228   -12285   -12363 
  -12405   -12408   -12384   -12373   -12455   -12600   -12682   -12658 
  -12556   -12471   -12540   -12693   -12750   -12760   -12805   -12826 
  -12841   -12910   -12987   -13022   -13003   -12936   -12903   -12965 
  -13104   -13232   -13271   -13245   -13158   -13029   -12916   -12776 
  -12570   -12341   -12080   -11742   -11514   -11605   -11615   -11241 
  -11101   -11300   -11191   -11001   -11088   -11078   -11024   -11148 
  -11235   -11238   -11232   -11203   -11142   -11044   -10939   -10827 
  -10710   -10625   -10613   -10690   -10812   -10942   -11060   -11165 
  -11272   -11409   -11601   -11822   -12033   -12192   -12335   -12552 
  -12817   -13051   -13249   -13476   -13765   -14076   -14373   -14630 
  -14804   -14898   -14996   -15138   -15302   -15505   -15725   -15860 
  -15849   -15771   -15740   -15786   -15847   -15828   -15752   -15682 
  -15568   -15368   -15126   -14927   -14802   -14683   -14552   -14492 
  -14504   -14508   -14494   -14476   -14483   -14550   -14606   -14601 
  -14572   -14538   -14525   -14561   -14609   -14654   -14749   -14882 
  -14992   -15051   -15078   -15125   -15187   -15225   -15289   -15430 
  -15587   -15698   -15778   -15860   -15985   -16154   -16328   -16483 
  -16620   -16783   -16980   -17172   -17335   -17502   -17704   -17944 
  -18226   -18515   -18820   -19125   -19366   -19603   -19873   -20097 
  -20286   -20491   -20647   -20762   -20941   -21146   -21317   -21500 
  -21733   -21985   -22218   -22476   -22788   -23110   -23410   -23658 
  -23830   -23953   -24112   -24307   -24432   -24433   -24382   -24385 
  -24384   -24313   -24244   -24186   -24127   -24091   -24031   -23904 
  -23743   -23618   -23522   -23407   -23252   -23047   -22819   -22603 
  -22372   -22149   -22020   -21973   -21904   -21758   -21524   -21238 
  -20987   -20778   -20585   -20462   -20447   -20481   -20496   -20492 
  -20458   -20383   -20397   -20535   -20661   -20758   -20883   -20958 
  -20913   -20852   -20842   -20785   -20694   -20700   -20779   -20779 
  -20630   -20435   -20298   -20159   -19979   -19765   -19482   -19206 
  -18971   -18700   -18471   -18367   -18273   -18111   -17913   -17664 
  -17383   -17158   -16984   -16796   -16626   -16516   -16379   -16170 
  -15959   -15699   -15358   -15034   -14704   -14377   -14140   -13923 
  -13679   -13469   -13260   -12987   -12672   -12334   -12013   -11763 
  -11583   -11467   -11374   -11228   -11059   -10979   -10960   -10795 
  -10476   -10335   -10372   -10212    -9976    -9914    -9805    -9550 
   -9277    -9045    -8860    -8687    -8513    -8395    -8392    -8411 
   -8328    -8254    -8244    -8221    -8220    -8193    -8085    -8037 
   -8060    -8063    -8160    -8374    -8552    -8735    -9030    -9367 
   -9684    -9975   -10206   -10423   -10705   -10992   -11228   -11469 
  -11768   -12072   -12322   -12630   -13034   -13421   -13837   -14291 
  -14626   -14837   -15048   -15299   -15584   -15946   -16336   -16620 
  -16854   -17073   -17192   -17327   -17571   -17749   -17789   -17877 
  -18031   -18078   -18129   -18348   -18565   -18628   -18638   -18700 
  -18780   -18837   -18908   -18981   -19028   -19067   -19122   -19216 
  -19298   -19333   -19324   -19255   -19201   -19212   -19201   -19194 
  -19275   -19328   -19227   -19135   -19147   -18992   -18668   -18506 
  -18440   -18328   -18245   -18149   -18068   -17961   -17715   -17573 
  -17484   -17192   -16975   -16847   -16576   -16415   -16289   -15974 
  -15850   -15841   -15531   -15256   -15136   -14828   -14539   -14397 
  -14148   -13938   -13898   -13871   -13859   -13798   -13703   -13811 
  -13932   -13924   -14124   -14427   -14572   -14765   -15024   -15178 
  -15337   -15602   -15799   -15870   -16021   -16227   -16328   -16436 
  -16602   -16724   -16795   -16822   -16837   -16883   -16899   -16940 
  -17098   -17293   -17532   -17760   -17834   -17974   -18287   -18494 
  -18634   -18900   -19191   -19426   -19627   -19789   -19918   -20020 
