Origin Time       2011/03/11 14:46:00
Lat.              38.103
Long.             142.860
Depth. (km)       24
Mag.              9.0
Station Code      MIE006
Station Lat.      34.7178
Station Long.     136.5039
Station Height(m) 2
Record Time       2011/03/11 14:50:37
Sampling Freq(Hz) 100Hz
Duration Time(s)  65
Dir.              E-W
Scale Factor      3920(gal)/6182761
Max. Acc. (gal)   7.441
Last Correction   2011/03/11 14:50:22
Memo.             
[...]
  -53053   -53244   -53378   -53501   -53533   -53437   -53348   -53306 
  -53264   -53175   -52990   -52760   -52523   -52204   -51728   -51095 
  -50402   -49772   -49191   -48611   -48034   -47468   -46930   -46384 
  -45800   -45280   -44859   -44397   -43843   -43325   -42902   -42522 
  -42190   -41909   -41658   -41468   -41312   -41118   -40908   -40707 
  -40546   -40489   -40522   -40579   -40653   -40746   -40818   -40879 
  -40978   -41104   -41189   -41199   -41192   -41226   -41290   -41384 
  -41491   -41539   -41521   -41499   -41493   -41498   -41506   -41485 
  -41452   -41490   -41614   -41776   -41938   -42101   -42273   -42418 
  -42541   -42700   -42877   -43014   -43117   -43202   -43264   -43292 
  -43274   -43215   -43129   -42997   -42848   -42792   -42826   -42756 
  -42505   -42167   -41766   -41332   -40928   -40517   -40089   -39683 
  -39348   -39140   -39006   -38852   -38712   -38647   -38640   -38623 
  -38544   -38430   -38357   -38339   -38353   -38435   -38600   -38820 
  -39083   -39331   -39494   -39574   -39597   -39586   -39554   -39497 
  -39438   -39401   -39395   -39429   -39475   -39516   -39544   -39540 
  -39504   -39409   -39211   -38957   -38703   -38422   -38127   -37864 
  -37653   -37467   -37235   -36957   -36711   -36512   -36369   -36292 
  -36239   -36200   -36168   -36144   -36141   -36135   -36163   -36282 
  -36439   -36604   -36791   -37015   -37355   -37793   -38184   -38499 
  -38796   -39090   -39409   -39713   -39884   -39952   -40018   -40081 
  -40145   -40198   -40174   -40101   -40019   -39865   -39559   -39115 
  -38637   -38182   -37740   -37325   -36916   -36497   -36159   -35936 
  -35738   -35500   -35213   -34905   -34614   -34363   -34190   -34115 
  -34100   -34127   -34170   -34203   -34238   -34237   -34157   -34048 
  -33946   -33854   -33790   -33785   -33893   -34104   -34315   -34452 
  -34514   -34587   -34753   -34937   -35078   -35259   -35531   -35891 
  -36304   -36675   -36985   -37268   -37479   -37604   -37703   -37814 
  -37935   -38063   -38211   -38383   -38576   -38823   -39134   -39451 
  -39757   -40111   -40512   -40926   -41351   -41763   -42164   -42616 
  -43119   -43603   -44018   -44402   -44882   -45458   -46014   -46561 
  -47107   -47615   -48157   -48750   -49331   -49885   -50399   -50896 
  -51423   -51935   -52349   -52661   -52903   -53065   -53161   -53267 
  -53388   -53419   -53291   -53083   -52885   -52614   -52195   -51718 
  -51219   -50650   -50051   -49485   -48943   -48407   -47901   -47465 
  -47111   -46844   -46688   -46599   -46502   -46389   -46269   -46174 
  -46118   -46023   -45854   -45656   -45474   -45340   -45233   -45102 
  -44979   -44894   -44794   -44620   -44367   -44094   -43851   -43609 
  -43364   -43137   -42869   -42564   -42326   -42169   -42036   -41903 
  -41808   -41797   -41833   -41858   -41852   -41808   -41756   -41748 
  -41789   -41788   -41699   -41670   -41748   -41767   -41681   -41587 
  -41542   -41585   -41688   -41788   -41884   -41962   -41985   -41941 
  -41841   -41725   -41653   -41670   -41787   -41916   -41991   -42085 
  -42231   -42349   -42402   -42416   -42452   -42542   -42655   -42753 
  -42833   -42917   -43019   -43168   -43365   -43529   -43683   -43944 
  -44285   -44606   -44897   -45179   -45435   -45639   -45742   -45735 
  -45689   -45654   -45627   -45621   -45654   -45695   -45687   -45655 
  -45673   -45660   -45537   -45439   -45436   -45418   -45363   -45328 
  -45315   -45300   -45253   -45161   -45052   -44954   -44890   -44858 
  -44823   -44795   -44794   -44796   -44829   -44900   -44934   -44935 
  -44974   -45052   -45171   -45328   -45457   -45529   -45605   -45725 
  -45877   -46020   -46083   -46055   -45985   -45884   -45732   -45524 
  -45286   -45021   -44691   -44343   -44026   -43667   -43268   -42913 
  -42528   -42010   -41384   -40736   -40167   -39660   -39095   -38505 
  -38021   -37643   -37313   -37015   -36729   -36486   -36369   -36374 
  -36416   -36420   -36386   -36435   -36636   -36885   -37108   -37353 
  -37666   -38042   -38416   -38717   -39012   -39402   -39823   -40196 
  -40546   -40860   -41130   -41396   -41611   -41710   -41741   -41802 
  -41947   -42107   -42158   -42103   -42027   -41948   -41829   -41655 
  -41446   -41208   -40934   -40691   -40538   -40415   -40286   -40207 
  -40169   -40094   -39979   -39871   -39769   -39656   -39570   -39546 
  -39557   -39609   -39741   -39908   -40063   -40261   -40528   -40794 
  -41032   -41278   -41531   -41761   -41980   -42187   -42351   -42536 
  -42823   -43146   -43417   -43629   -43787   -43929   -44096   -44219 
  -44282   -44341   -44343   -44252   -44132   -43960   -43682   -43381 
  -43122   -42845   -42516   -42193   -41898   -41586   -41249   -40918 
  -40579   -40233   -39900   -39545   -39160   -38752   -38310   -37874 
  -37451   -36984   -36484   -35988   -35531   -35166   -34883   -34616 
  -34351   -34123   -33954   -33852   -33815   -33799   -33765   -33750 
  -33769   -33800   -33864   -33950   -34005   -34076   -34234   -34405 
  -34536   -34721   -34969   -35186   -35385   -35593   -35755   -35862 
  -35996   -36175   -36333   -36441   -36527   -36588   -36584   -36509 
  -36417   -36353   -36310   -36271   -36245   -36242   -36241   -36249 
  -36316   -36457   -36659   -36904   -37159   -37435   -37748   -38041 
  -38252   -38407   -38552   -38695   -38854   -39048   -39272   -39503 
  -39736   -39982   -40242   -40468   -40654   -40856   -41073   -41273 
  -41486   -41687   -41813   -41906   -42021   -42119   -42166   -42184 
  -42181   -42184   -42262   -42414   -42547   -42633   -42715   -42792 
  -42832   -42855   -42904   -42974   -43060   -43182   -43326   -43443 
  -43516   -43588   -43716   -43859   -43976   -44138   -44383   -44643 
  -44870   -45077   -45275   -45449   -45583   -45690   -45799   -45926 
  -46054   -46178   -46285   -46333   -46361   -46414   -46440   -46445 
  -46472   -46502   -46519   -46495   -46419   -46365   -46369   -46386 
  -46392   -46418   -46454   -46486   -46545   -46605   -46620   -46662 
  -46796   -46940   -47023   -47120   -47257   -47335   -47337   -47343 
  -47359   -47337   -47332   -47391   -47440   -47443   -47400   -47310 
  -47218   -47131   -47038   -46950   -46856   -46741   -46597   -46476 
  -46430   -46440   -46508   -46635   -46772   -46913   -47067   -47199 
  -47280   -47302   -47289   -47283   -47290   -47290   -47248   -47131 
  -46956   -46762   -46556   -46334   -46092   -45849   -45616   -45376 
  -45113   -44818   -44518   -44237   -43962   -43665   -43304   -42910 
  -42610   -42406   -42161   -41881   -41672   -41487   -41247   -41041 
  -40936   -40838   -40757   -40799   -40876   -40876   -40897   -41021 
  -41184   -41366   -41586   -41816   -42027   -42190   -42313   -42463 
  -42614   -42688   -42730   -42804   -42881   -42907   -42871   -42793 
  -42671   -42523   -42379   -42214   -42009   -41783   -41534   -41252 
  -40969   -40718   -40506   -40332   -40209   -40143   -40115   -40100 
  -40127   -40207   -40279   -40336   -40413   -40503   -40637   -40807 
  -40932   -41027   -41145   -41233   -41210   -41158   -41174   -41138 
  -40995   -40913   -40904   -40818   -40659   -40519   -40389   -40234 
  -40086   -39988   -39936   -39924   -39955   -40008   -40055   -40098 
  -40149   -40210   -40279   -40378   -40531   -40714   -40893   -41082 
  -41316   -41593   -41855   -42085   -42326   -42580   -42829   -43084 
  -43342   -43571   -43738   -43869   -44039   -44249   -44458   -44654 
  -44792   -44835   -44830   -44854   -44912   -44929   -44828   -44608 
  -44349   -44144   -44015   -43876   -43645   -43375   -43118   -42797 
  -42376   -41974   -41640   -41278   -40926   -40667   -40399   -40118 
  -39938   -39823   -39733   -39711   -39754   -39816   -39841   -39855 
  -39926   -40047   -40186   -40306   -40389   -40440   -40444   -40445 
  -40521   -40662   -40803   -40944   -41122   -41306   -41454   -41612 
  -41780   -41893   -41917   -41857   -41756   -41669   -41609   -41544 
  -41443   -41335   -41246   -41154   -41070   -41030   -40984   -40872 
  -40727   -40624   -40580   -40517   -40402   -40327   -40362   -40426 
  -40423   -40422   -40474   -40501   -40545   -40671   -40793   -40884 
  -40990   -41099   -41214   -41326   -41402   -41452   -41490   -41504 
  -41513   -41526   -41519   -41501   -41459   -41344   -41160   -40942 
  -40684   -40369   -40009   -39643   -39279   -38898   -38510   -38139 
  -37802   -37500   -37246   -37101   -37048   -37006   -36997   -37072 
  -37208   -37327   -37354   -37299   -37250   -37261   -37291   -37280 
  -37245   -37210   -37152   -37085   -37029   -36951   -36842   -36742 
  -36657   -36557   -36451   -36348   -36225   -36082   -35952   -35849 
  -35759   -35694   -35677   -35702   -35756   -35828   -35915   -36038 
  -36221   -36471   -36769   -37081   -37383   -37705   -38101   -38548 
  -38961   -39314   -39674   -40091   -40527   -40953   -41387   -41809 
  -42182   -42524   -42856   -43143   -43391   -43646   -43853   -43961 
  -44049   -44147   -44163   -44078   -44025   -44100   -44239   -44339 
  -44353   -44297   -44216   -44123   -44056   -44062   -44070   -44011 
  -43940   -43858   -43738   -43610   -43440   -43220   -43016   -42812 
  -42578   -42333   -42048   -41704   -41367   -41073   -40772   -40452 
  -40136   -39796   -39437   -39143   -38945   -38787   -38661   -38588 
  -38515   -38431   -38414   -38475   -38577   -38719   -38890   -39056 
  -39191   -39339   -39549   -39787   -40009   -40231   -40439   -40608 
  -40768   -40935   -41052   -41130   -41250   -41365   -41396   -41395 
  -41416   -41462   -41497   -41433   -41284   -41168   -41137   -41159 
  -41198   -41251   -41306   -41345   -41399   -41509   -41613   -41671 
  -41764   -41941   -42163   -42426   -42740   -43087   -43443   -43798 
  -44159   -44506   -44811   -45068   -45282   -45507   -45777   -46027 
  -46215   -46378   -46529   -46654   -46803   -46967   -47055   -47062 
  -47058   -47066   -47077   -47099   -47115   -47072   -46973   -46868 
  -46800   -46754   -46685   -46633   -46596   -46484   -46384   -46400 
  -46446   -46472   -46495   -46487   -46495   -46546   -46505   -46397 
  -46390   -46449   -46476   -46459   -46390   -46319   -46291   -46275 
  -46281   -46333   -46377   -46382   -46364   -46325   -46304   -46337 
  -46386   -46414   -46423   -46417   -46387   -46310   -46194   -46085 
  -45992   -45890   -45797   -45724   -45596   -45393   -45177   -44941 
  -44662   -44391   -44156   -43903   -43649   -43465   -43296   -43088 
  -42901   -42728   -42519   -42356   -42310   -42282   -42202   -42109 
  -42045   -42045   -42058   -41991   -41933   -41983   -42102   -42263 
  -42404   -42469   -42542   -42660   -42753   -42797   -42837   -42934 
  -43067   -43170   -43284   -43481   -43731   -43979   -44192   -44323 
  -44412   -44531   -44624   -44616   -44531   -44425   -44330   -44223 
  -44063   -43852   -43631   -43460   -43357   -43283   -43171   -42966 
  -42729   -42558   -42416   -42215   -41933   -41622   -41340   -41109 
  -40917   -40703   -40445   -40233   -40085   -39963   -39920   -39926 
  -39811   -39525   -39219   -39107   -39242   -39363   -39248   -39037 
  -38949   -39048   -39192   -39169   -39028   -38971   -39025   -39110 
  -39143   -39046   -38833   -38644   -38588   -38606   -38521   -38252 
  -37954   -37823   -37823   -37799   -37662   -37436   -37226   -37064 
  -36909   -36759   -36599   -36431   -36303   -36191   -36015   -35791 
  -35598   -35465   -35335   -35161   -34993   -34875   -34829   -34928 
  -35135   -35368   -35640   -35839   -35966   -36239   -36522   -36629 
  -36872   -37346   -37693   -37910   -38268   -38731   -39128   -39471 
  -39809   -40080   -40325   -40698   -41121   -41471   -41842   -42218 
  -42432   -42526   -42686   -42941   -43145   -43209   -43221   -43321 
  -43545   -43856   -44113   -44008   -43493   -43092   -43433   -44370 
  -44767   -43966   -42782   -42106   -41999   -42333   -42688   -42348 
  -41399   -40653   -40454   -40509   -40425   -39954   -39254   -38875 
  -39201   -39849   -39836   -38893   -37863   -37394   -37587   -38255 
  -38706   -38539   -38261   -38204   -38212   -38392   -38661   -38682 
  -38810   -39501   -40486   -41164   -41111   -40574   -40498   -41459 
  -42846   -43773   -44030   -44007   -44272   -44817   -45306   -45673 
  -45809   -45729   -45968   -46866   -47719   -47594   -46654   -45862 
  -45898   -46429   -46484   -45838   -45072   -44559   -44179   -43661 
  -42970   -42281   -41893   -41716   -41225   -40509   -39947   -39320 
  -38532   -38002   -37777   -37419   -36828   -36283   -35956   -35786 
  -35519   -34989   -34375   -34137   -34524   -35054   -35090   -34773 
  -34718   -34993   -35183   -35385   -35893   -36470   -36881   -37219 
  -37608   -38035   -38445   -38844   -39189   -39476   -39722   -39917 
  -40188   -40530   -40752   -40881   -41067   -41315   -41501   -41561 
  -41604   -41738   -41917   -41982   -41869   -41751   -41849   -42120 
  -42268   -42305   -42460   -42509   -42312   -42208   -42419   -42832 
  -43035   -42854   -42728   -43011   -43516   -43729   -43438   -43072 
  -43050   -43335   -43599   -43668   -43720   -43742   -43681   -43854 
  -44375   -44916   -45131   -45094   -45219   -45604   -46028   -46347 
  -46600   -46935   -47345   -47704   -48103   -48696   -49292   -49691 
  -50134   -50763   -51310   -51699   -52130   -52624   -53071   -53430 
  -53673   -53813   -53956   -54163   -54325   -54343   -54270   -54153 
  -53991   -53826   -53662   -53475   -53307   -53113   -52783   -52414 
  -52147   -51910   -51601   -51274   -51020   -50837   -50681   -50510 
  -50338   -50256   -50183   -49963   -49729   -49685   -49786   -49876 
  -49864   -49800   -49792   -49881   -50048   -50213   -50325   -50403 
  -50454   -50541   -50666   -50743   -50833   -50989   -51108   -51129 
  -51039   -50903   -50841   -50787   -50617   -50365   -50146   -50007 
  -49863   -49641   -49330   -48989   -48694   -48368   -47958   -47588 
  -47248   -46823   -46355   -45915   -45508   -45139   -44801   -44459 
  -44073   -43680   -43330   -42988   -42650   -42322   -42002   -41714 
  -41421   -41118   -40852   -40608   -40391   -40215   -40067   -39987 
  -39962   -39901   -39828   -39829   -39913   -40039   -40128   -40155 
  -40250   -40437   -40573   -40662   -40763   -40879   -41043   -41211 
  -41294   -41348   -41439   -41475   -41443   -41469   -41548   -41597 
  -41604   -41546   -41427   -41293   -41178   -41119   -41098   -41026 
  -40885   -40719   -40525   -40318   -40102   -39857   -39629   -39406 
  -39151   -38920   -38737   -38578   -38422   -38251   -38097   -37971 
  -37810   -37587   -37349   -37154   -37030   -36978   -37000   -37100 
  -37215   -37290   -37391   -37573   -37796   -38012   -38184   -38329 
  -38534   -38843   -39181   -39473   -39712   -39924   -40169   -40466 
  -40801   -41183   -41528   -41729   -41865   -42018   -42130   -42212 
  -42333   -42444   -42484   -42444   -42335   -42242   -42196   -42166 
  -42201   -42276   -42266   -42237   -42308   -42408   -42461   -42530 
  -42694   -42945   -43171   -43314   -43454   -43633   -43841   -44133 
  -44499   -44817   -45127   -45530   -45893   -46096   -46280   -46538 
  -46775   -46960   -47135   -47311   -47483   -47578   -47614   -47756 
  -47946   -48048   -48142   -48249   -48292   -48267   -48193   -48123 
  -48157   -48260   -48281   -48214   -48186   -48228   -48271   -48296 
  -48356   -48430   -48417   -48341   -48338   -48406   -48435   -48432 
  -48446   -48442   -48460   -48554   -48577   -48462   -48351   -48239 
  -48039   -47835   -47687   -47549   -47495   -47548   -47508   -47328 
  -47187   -47136   -47117   -47123   -47208   -47352   -47426   -47434 
  -47435   -47398   -47405   -47459   -47390   -47264   -47221   -47201 
  -47165   -47155   -47204   -47292   -47357   -47406   -47472   -47506 
  -47449   -47312   -47169   -47090   -47046   -46951   -46783   -46574 
  -46356   -46179   -46065   -45948   -45770   -45579   -45439   -45319 
  -45160   -44947   -44697   -44448   -44242   -44065   -43854   -43607 
  -43413   -43328   -43320   -43338   -43348   -43326   -43284   -43260 
  -43245   -43168   -43009   -42839   -42700   -42554   -42367   -42154 
  -41976   -41888   -41901   -41950   -42019   -42248   -42628   -42945 
  -43185   -43396   -43527   -43646   -43730   -43657   -43488   -43311 
  -43113   -42879   -42649   -42477   -42360   -42241   -42075   -41890 
  -41751   -41667   -41576   -41435   -41232   -40959   -40676   -40461 
  -40303   -40183   -40083   -39995   -39986   -40051   -40093   -40071 
  -39916   -39566   -39074   -38514   -37933   -37346   -36739   -36158 
  -35648   -35210   -34863   -34628   -34490   -34408   -34350   -34299 
  -34248   -34241   -34302   -34362   -34388   -34452   -34561   -34626 
  -34632   -34665   -34793   -35005   -35225   -35398   -35576   -35841 
  -36170   -36453   -36617   -36699   -36784   -36891   -36986   -37057 
  -37122   -37217   -37370   -37587   -37883   -38247   -38632   -39028 
  -39435   -39818   -40128   -40354   -40554   -40793   -41092   -41405 
  -41673   -41922   -42175   -42364   -42459   -42530   -42628   -42771 
  -43008   -43311   -43576   -43808   -44057   -44250   -44325   -44338 
  -44340   -44280   -44157   -44104   -44138   -44150   -44167   -44181 
  -44106   -44010   -43920   -43821   -43800   -43857   -43910   -43993 
  -44163   -44350   -44532   -44755   -44960   -45119   -45266   -45377 
  -45487   -45688   -45936   -46128   -46240   -46274   -46275   -46324 
  -46353   -46206   -45930   -45737   -45674   -45613   -45443   -45110 
  -44692   -44344   -44065   -43763   -43430   -43112   -42852   -42672 
  -42499   -42199   -41805   -41485   -41256   -41023   -40791   -40621 
  -40531   -40492   -40426   -40277   -40078   -39876   -39705   -39682 
  -39946   -40397   -40807   -41162   -41518   -41810   -42024   -42206 
  -42401   -42633   -42840   -42997   -43232   -43621   -44034   -44361 
  -44651   -44940   -45201   -45403   -45508   -45575   -45786   -46186 
  -46597   -46923   -47235   -47532   -47784   -48089   -48457   -48769 
  -49020   -49220   -49313   -49335   -49370   -49469   -49652   -49906 
  -50178   -50346   -50347   -50381   -50602   -50813   -50829   -50687 
  -50405   -50032   -49721   -49519   -49344   -49139   -48871   -48585 
  -48405   -48346   -48285   -48089   -47785   -47602   -47566   -47494 
  -47356   -47088   -46657   -46253   -45958   -45734   -45575   -45433 
  -45297   -45245   -45310   -45436   -45540   -45582   -45599   -45666 
  -45789   -45899   -45984   -46071   -46132   -46172   -46245   -46328 
  -46342   -46271   -46184   -46152   -46142   -46109   -46090   -46157 
  -46320   -46498   -46626   -46675   -46659   -46708   -46879   -47056 
  -47158   -47234   -47363   -47573   -47821   -48005   -48035   -47944 
  -47861   -47839   -47834   -47803   -47769   -47779   -47868   -48077 
  -48361   -48594   -48706   -48651   -48460   -48366   -48418   -48364 
  -48156   -47880   -47577   -47394   -47325   -47211   -47063   -46921 
  -46774   -46647   -46540   -46364   -46028   -45585   -45168   -44834 
  -44577   -44356   -44137   -43936   -43762   -43606   -43474   -43349 
  -43172   -42931   -42685   -42443   -42191   -41992   -41855   -41718 
