Origin Time       2011/03/11 14:46:00
Lat.              38.103
Long.             142.860
Depth. (km)       24
Mag.              9.0
Station Code      MYG010
Station Lat.      38.4282
Station Long.     141.2809
Station Height(m) 2
Record Time       2011/03/11 14:46:44
Sampling Freq(Hz) 100Hz
Duration Time(s)  300
Dir.              N-S
Scale Factor      3920(gal)/6182761
Max. Acc. (gal)   458.196
Last Correction   2011/03/11 14:46:29
Memo.             
[...]
   26074    21910    15966    12615    13611    17362    20917    21090 
   15835     6592     -968    -1565     4341    11014    13226    12068 
   11804    12388    12020    11967    12360    11524    11183    13129 
   14821    13192     7835     2574     3668    11304    18363    19969 
   17706    16196    19600    27473    33997    34745    30976    26945 
   26507    29994    33503    32065    23389    11021     2252     1028 
    4522     6964     6553     5541     5690     8748    14179    16026 
   11880     8434    11270    18334    23842    23107    17455    12525 
   11039    12329    13142     9639     4736     4078     6590     9339 
   12073    14475    16116    16290    16475    19902    23663    22619 
   17890    13045    10875    12422    15418    17411    17746    18426 
   22206    26777    27773    25043    20626    15299     9963     7673 
   10484    16708    22819    26567    29152    30976    28444    21075 
   13046     6850     4804     9934    18560    21618    16912    10755 
    7735     8212    11044    12483    10259     7862     8070     9556 
   12617    18872    26237    30728    30752    28645    29021    32891 
   34807    27946    12656     -294    -1274     6165    14609    22751 
   27778    24889    15637     6176     3389    10425    22127    31206 
   34567    34236    35419    38189    36104    24796     8412    -1742 
    -478     4229     4099     -771    -6179    -7769    -4595      774 
    6971    13199    16652    15702    13295    13429    15962    19252 
   22076    21792    20038    23063    30397    35447    36405    34576 
   28495    19771    14013    11950    11168    11805    13267    12702 
    8701     3605     2393     7079    12209    11784     8287     6927 
    7650     8383     7526     5878     8453    15471    20676    23329 
   26664    29610    30692    30210    28104    26237    27507    31451 
   33576    30458    25452    24037    25589    25820    24095    23231 
   23539    21769    15126     5593     -361     -541     -174    -2544 
   -3521     1935    12512    23626    31991    34770    31943    27299 
   22234    14721     7798     9126    18757    29264    35072    34736 
   31519    29214    26117    19378    11028     5764     4685     4843 
    4473     3819     2842     1489      620     1042     3309     8690 
   15381    16684     8588    -5104   -15906   -17420   -10125     1725 
   13488    20546    23273    26991    32484    34759    32838    31420 
   31340    29215    25817    22829    18385    14266    15579    22935 
   32809    40452    42609    39171    31230    21355    12982     7782 
    5372     3937      970    -6061   -14267   -15402    -7915     2464 
    8975     7605     2395    -2117    -4470    -2613      492     2540 
    5149     7838    13626    24795    36552    45147    48682    45920 
   38464    29214    21649    17311    16074    18730    23512    26566 
   26184    23526    22899    27232    32186    30796    21946    10619 
    4854    11020    23353    28203    24106    19496    17238    18833 
   25631    30751    29109    25110    19385     5498   -14567   -27583 
  -26365   -15482    -1858     8359    14475    22260    31756    35611 
   30113    20616    13467     5724    -4376    -7599      411    12163 
   21747    25961    21731    15695    17952    23631    20443     8281 
   -2413    -3108     7386    24146    39422    46914    45718    38185 
   27904    19513    11395    -3874   -25078   -41512   -46732   -39360 
  -20193     1490    13611    14131    11865    15311    19047    13702 
    2432    -9152   -15816    -8742     9065    25805    35756    34353 
   22494    12182    11476    17798    23141    19333     7563     -923 
    2843    16305    27752    30194    27997    24949    22706    27089 
   36998    43698    43242    33566    14577    -3310    -6653     3847 
   12994    12211    10384    15920    23519    26757    27877    29006 
   29885    35432    47086    54979    52357    42985    31857    21630 
   16582    19520    24120    20915     8606    -7032   -16956   -12890 
    4283    23325    32737    31224    24852    18989    19254    25560 
   26198    15538     6422    11359    24316    33447    33861    21231 
   -1375   -19882   -25826   -19555    -7117     1205     3438     8060 
   19294    30047    33747    34526    35468    32677    26598    20113 
   12396     4458    -1234    -4411    -2957     1993    -1101   -16939 
  -34097   -43260   -43025   -33625   -18979    -6145      167      811 
    3341    14369    27717    33295    29831    17265    -2270   -16871 
  -17436    -7725     3883     9680     2553   -15782   -31779   -33052 
  -18820      841    12945    14535    16648    29711    49339    61718 
   58487    41497    17664    -2625    -9352    -2088    11368    20967 
   18174     8490    12843    36445    56567    58735    51909    45026 
   41402    46802    60201    69763    67947    57050    46266    43139 
   40006    27213     7270    -9882    -9358     3210     -497   -17238 
  -17507     3614    36964    69723    75961    50353    19700     3264 
    2044    11444    22706    28147    26523    22910    20107    13904 
    6712     3730     3174     9898    25836    34896    30910    30751 
   43007    53480    52670    51410    51642    38611    11753   -13954 
  -22074    -6329    11263     5509   -15188   -27326   -19751    -2826 
    -427   -14356   -22411   -15363    -2775     4203     4717     3245 
   -4420   -16600   -18568    -7008    11782    30475    36763    30943 
   25410    25172    29316    33403    32877    29165    25514    24621 
   25838    24470    23439    27747    32544    36916    42703    47569 
   55187    60732    49929    26436     4548    -4272     6874    25764 
   36231    43249    49453    45030    36979    41339    52806    49280 
   17051   -25713   -44967   -32996    -1009    34619    48673    38405 
   23089    11156     8822    19348    30521    30456    17170     1094 
   -1631     6910    14759    22140    28888    30183    25124    12459 
   -1123    -3342     1741     -795   -18065   -33797   -11252    48920 
   91273    88763    67204    39916     5047   -23752   -32582   -15220 
   18180    34504    20545    -3280   -22260   -35291   -41034   -37133 
  -24619   -12213    -9388   -14851   -19496   -19798   -20070   -19790 
  -10973     9471    33109    39788    13991   -21752   -27523    -2805 
   24533    37321    37152    38747    46512    51965    56335    63437 
   74399    88317    83516    44819    10233    25204    69590    90650 
   79460    63187    48984    23844    -3092    -8933     5521    25293 
   38863    34730     4867   -38337   -59015   -43117   -13830    17477 
   43191    34772    -3695   -29059   -26447    -9434    12806    29204 
   35519    35992    29193    21027    13841    -1812   -14967   -12666 
   -7085     -492    17686    45527    75511    88888    65827    32523 
   31416    46197    37236    12008    -4840   -12404   -12873    -3558 
    2202   -13553   -34501   -26902     7294    37891    38231     6537 
  -27651   -48625   -62422   -56899   -30811   -10799    -1120     8753 
   11739     5126    -1454    -1326     4680     5308    -3144    -1064 
   21802    48231    61569    53642    21945   -16600   -31561   -14937 
    2669     -249    -2182    17937    48826    69204    71861    67691 
   73218    91358   105969    97214    65323    34191    18657     9115 
    1034     2182    13472    26407    28442    22201    26770    38772 
   38607    30101    32518    50108    62869    59614    51683    33853 
    1284   -19606   -18583   -20233   -35440   -45552   -38119   -21534 
   -1516    24968    51674    60769    47296    31877    34294    50068 
   58347    49101    36374    28914    19765    13055    16415    22633 
   20408    11230    11365    26165    41457    44512    28708     4414 
    1942    27914    46953    30018    -5779   -23201   -14868    -3034 
    5409    21968    37819    32293     3133   -30124   -34292    -4020 
   16747     3053   -12077    -4369     9303    14637    10832     2445 
    2579    10421     5718   -11452   -13729     2795    12534     7720 
    2506     6598    15947    19204    10877     3837    19552    47927 
   55733    43024    32642    28906    26136    22733    14309   -10805 
  -43611   -43913    -4808    40011    67565    52460    -3347   -41410 
  -34653   -10718    10317    23700    22980     1161   -26264   -25351 
    5098    38119    58666    58841    38481     9160   -23666   -54169 
  -66754   -53005   -17899    28276    72964   102580   102746    67155 
   18093   -12211   -16899     7173    54496    75855    48285    19240 
   12407     4637    -7405   -12102    -9292      170    23975    64099 
   97794   101000    76060    41076    16506    11838    16382    19334 
   25733    34941    26769    -4362   -20484     9655    47718    44629 
   21101    14645    21847    34107    48025    40692     4998   -22723 
  -21960   -14401    -8106    11827    38639    46448    32189    16495 
    7732     5545    18769    46901    69143    60985    22248   -14549 
  -21786    -6680    14594    42444    72918    89529    80346    48524 
   26540    40863    62020    57646    43478    36934    32047    24484 
   13422    -4998   -24824   -30971   -23791   -18377   -24142   -39451 
  -51568   -55670   -63639   -76265   -82876   -71850   -28975    26687 
   48778    33729    10055   -10130   -17342   -11734   -16393   -30109 
  -24431     3879    38173    62440    52171     4324   -31930   -14336 
   30453    57321    64625    64241    55813    48441    51115    57787 
   65416    73885    73624    54340    20956   -13216   -38352   -35448 
    2476    41019    48826    33131    21136    30408    35520    -1017 
  -55607   -72677   -42676     1526    36497    65117    79970    65690 
   41367    23528    -3359   -39216   -62009   -57678   -27558    15054 
   49551    58596    53558    58584    60692    39311    21182    38804 
   69762    74355    61420    59099    56928    24068   -35570   -73947 
  -58919    -5996    49420    67150    39120      622   -31119   -58595 
  -75898   -85596   -78437   -28897    39161    59964    26636     4774 
   24592    38314    10883   -24612   -29809    -8042    24395    56356 
   75147    64507    17276   -30958   -33933   -10598     7259    39027 
   78299    74769    23850   -25449   -34972    -9552    21472    41032 
   47884    43487    34793    26258    11062   -12775   -34387   -42510 
  -32659   -14900   -10058   -16495   -16986   -18961   -27897   -24067 
   -6395     3724    -1458   -17534   -41283   -54901   -27292    26210 
   43910    13731   -15949   -14920     8214    28508    23760      158 
  -12093     3817    37165    61057    54846    34716    41286    78097 
  107311   114493   115262   117169   119354   112860    83991    37999 
   -5349   -36365   -54155   -53084   -42236   -47164   -58272   -45222 
  -16160     3735     2941    -8459     5080    45279    67436    58416 
   34314     1399   -20129    -6839    29362    57847    63727    47409 
   17533      758     4067   -10389   -48275   -70884   -60793   -14916 
   57006   118386   138839   116755    81685    58560    29419   -10398 
  -18424    18340    65959   109849   140566   123968    68526    30910 
   27992    34012    31158    21452    16334    13636      653   -27680 
  -66033   -94025   -97178   -80204   -41685     9062    32044    17698 
    7485     3982   -32701   -85752  -111260  -115507  -113865   -98107 
  -77459   -76039   -81046   -64408   -24862    29906    76116    87872 
   82842    78653    73030    92130   144451   184304   193468   194129 
  185743   160020   130246   106355    73942    21305   -20185   -29440 
  -36534   -36697    -3062    35644    60870    87073    98801    72438 
   13704   -43989   -61395   -37940    -8788     1828     5815    21157 
   16572   -45064  -126298  -164647  -162315  -155024  -130836   -66156 
   11823    66182    80797    63188    45210    38304    38708    54181 
   65108    41602     1529   -10359    23293    71650    97555   101658 
   90178    58816    26464    25581    59223    89831    85958    58369 
   20438   -25358   -53477   -41704    -7709    19103    28637    26011 
   19737    12386      760    -3796    18277    55874    78392    75553 
   56905    36292    17792     3350     9437    21745    -4014   -52958 
  -83315  -107181  -130403  -122725   -88779   -63362   -57434   -53458 
  -23347    32321    82106   115537   129764   114258    94813   100771 
  108923    97704    87104    80730    64149    53847    56275    44279 
   16564     5112    29935    80155   125134   147379   155780   146730 
  104931    53371    23386     3874   -26982   -65041   -94695  -115149 
 -128539  -125778  -111865  -102930   -90049   -54430    -9098    23773 
   53148    93533   136012   170255   199993   219819   214650   197400 
  188696   177868   161416   153325   152985   159120   165073   132063 
   14967  -155680  -260491  -273332  -293917  -305886  -240995  -149563 
  -38642   106815   203815   227417   224281   186533   112635    73018 
  100824   135281   152178   175575   183118   181035   213974   252913 
  242855   168938    22761  -159731  -277732  -311987  -351863  -401328 
 -408806  -407628  -405687  -362158  -275489  -162287   -82710  -101728 
 -196799  -314810  -405019  -431332  -422791  -398666  -342972  -278285 
 -229418  -201518  -194346  -189247  -168748  -103170    23974   152536 
  225735   275217   334331   377481   404020   450366   513688   572047 
  624140   666160   694229   719761   739429   676027   418237    62428 
 -103540   -85464   -83198    30196   284406   393622   390049   430019 
  425008   375296   343671   296388   222175   135602    67796    58307 
   79760    70302    44141    52252    68391    50217    10355   -33182 
  -76725  -125933  -181755  -230587  -275261  -314803  -299770  -180359 
   -3879    84167    17093  -114749  -264901  -421323  -457949  -367569 
 -293811  -236373  -171029  -181972  -264959  -326299  -300684  -181155 
  -42395    51116   120233   188939   233484   231520   200261   166148 
  150825   170213   205837   232579   250151   255048   214813    86207 
 -100216  -215945  -207213  -176627  -174183  -151432  -129315  -129563 
 -106496   -65020   -52831   -72525   -88126   -94613  -117776  -149308 
 -168026  -181408  -209169  -253826  -284835  -268755  -208536  -137608 
  -89088   -80985  -112004  -156877  -191867  -216373  -227317  -205562 
 -146697   -80389   -39101   -23860   -19992   -17780    -5320    23457 
   55594    78519   101400   138860   188098   238158   275807   280053 
  234979   147521    49059   -30610   -75289   -68281    -9200    72158 
  143527   194503   226889   233854   209619   163029   111886    79035 
   71046    77827   104528   143178   160798   160172   162981   165194 
  162346   153993   146534   158401   182096   198202   214125   235315 
  250095   252142   233912   170981    59003   -37617   -68333   -79177 
  -77994   -11470    77820   136676   173082   154149    70422   -23943 
  -92257  -130846  -160629  -182860  -157540   -65546    44791    88956 
   54121     1449   -59537  -133255  -172092  -168840  -143650   -97536 
  -43204    44515   187301   302273   324173   323152   358022   377820 
  358061   326957   266782   131348   -77665  -247147  -282195  -270786 
 -279070  -257971  -237741  -249335  -258192  -280300  -314187  -332094 
 -342106  -319022  -219014   -47549   125430   219480   259780   316163 
  369613   394352   416851   433723   418502   369182   305943   261636 
  249765   253578   249341   211902   125552    10527   -80523  -116263 
 -119015  -116614  -106178   -79342   -38387     7417    40446    39379 
   -3193   -71192  -134709  -178755  -215428  -241813  -238710  -219047 
 -206728  -208584  -225890  -242633  -228558  -175010  -119713  -103097 
 -100704   -73880   -23678    44413   106481   137206   161487   192152 
  208767   217003   229558   240396   243990   232925   202512   171875 
  167850   188640   214904   241702   259068   235868   143535    -7949 
 -127915  -134588   -88023   -58056    -8159    56197    70288    26401 
  -44794  -103911  -121085  -115306  -115188  -120086  -127039  -131203 
 -111324   -48318    54382   148256   174450   139800    66332   -43646 
 -131894  -152564  -144424  -131764  -109374   -95569  -109029  -148883 
 -193081  -211605  -201334  -184661  -169493  -151221  -145920  -165357 
 -186157  -178150  -141908   -99268   -48843    14404    61172    81466 
   97985   108970    99363    71002    40057    30044    51511    91896 
  114006    80267    16522   -15050   -10518    10412    63147   139962 
  202659   244306   273711   276573   228863   117838   -27478  -129352 
 -158119  -140452   -50537    90447   153882   117751    67338    18383 
  -38386   -78997   -84988   -34428    59969   125899   145530   163979 
  182996   187297   175274   127863    46420   -36418  -105639  -162244 
 -189455  -168178  -110615   -37012    43747   123075   180695   181992 
  126839    56024    -7939   -57394   -81426   -83504   -74786   -58764 
  -34720    -7014    17780    48485    96475   151982   198088   222408 
  220136   194835   148002    85105    29869    13558    30744    33087 
    -873   -45719   -79077   -85659   -46198    30171    94333    95522 
   28679   -56293  -113726  -137694  -130213  -110982  -109673  -115879 
 -115127  -116201  -122004  -131270  -137329  -134720  -127152  -114897 
 -106667  -114672  -135335  -160924  -175659  -147917   -65166    31358 
   87776   118804   168929   215868   231713   248122   276827   288107 
  262377   200195   123011    51753   -14446   -65283   -73096   -44880 
  -20297   -16331   -29758   -68810  -138291  -212758  -267695  -322490 
 -371611  -345340  -242991  -154293  -106175   -60580   -20437    -8351 
  -12977   -21452   -35043   -34877      424    54216   100854   133461 
  136945    89090    -2356   -93927  -136015  -112073   -48638    18593 
   60118    55132    18943    -9166   -14302   -10777   -12859   -22629 
  -37680   -57566   -78062   -88429   -92246  -100169   -95899   -66394 
  -33428   -17189   -18007   -21128     1394    55880   115064   160465 
  193184   213680   230520   258976   296548   333867   369575   397418 
  408635   391816   330241   236927   171002   175389   225432   278955 
  318342   333485   331132   328770   324685   308003   273357   219707 
  148180    71876    32778    64707   135856   191121   220985   227937 
  199852   146712    91106    42222     9914     7411    24330    21224 
  -17229   -69074  -125480  -177207  -203517  -209539  -202422  -172550 
 -127942   -88441   -59995   -53195   -89953  -159224  -217729  -245036 
 -246407  -230601  -214606  -216423  -238165  -265992  -283005  -287735 
 -296040  -300385  -238592   -61815   141230   214633   191435   197594 
  177273   101025    78914   107931   140922   184400   207512   198946 
  171104   123657    73100     5117  -103417  -185754  -186932  -188842 
 -242450  -284165  -303805  -324312  -326681  -305786  -249778  -164732 
  -93641   -28819    44497    90715    95476    81756    64270    40026 
    9248   -11395    -9221     7839    31731    63943    97627   127464 
  156204   155424    77796   -56260  -149451  -148263   -89716    -2440 
   99871   173524   213263   245483   256465   233561   193356   143303 
   90548    57325    50731    58410    69042    78453    96867   137979 
