Origin Time       2011/03/11 14:46:00
Lat.              38.103
Long.             142.860
Depth. (km)       24
Mag.              9.0
Station Code      MYG005
Station Lat.      38.7989
Station Long.     140.6512
Station Height(m) 304
Record Time       2011/03/11 14:46:57
Sampling Freq(Hz) 100Hz
Duration Time(s)  300
Dir.              U-D
Scale Factor      3920(gal)/6182761
Max. Acc. (gal)   157.867
Last Correction   2011/03/11 14:46:42
Memo.             
[...]
  -35122     3870     4722   -23936   -63756   -86450   -76059   -48023 
  -26934   -24037   -35026   -47143   -51066   -40109   -11849    13273 
   12553    -7407   -29478   -45016   -53960   -53598   -35833   -18068 
  -30943   -67304   -87757   -65599   -13948    28253    30794   -11837 
  -76405  -115603   -95960   -38269     2426    -5476   -45242   -75585 
  -75352   -64908   -71364   -86220   -85392   -65293   -36062   -11870 
   -7935   -21412   -31070   -26190   -16913   -12419    -9290    -7253 
  -17613   -47381   -81412   -90836   -65624   -23788     6343     -552 
  -39503   -73631   -82625   -74040   -59032   -48628   -52537   -64289 
  -61582   -35610     -755    21808    12248   -27903   -60718   -50163 
   -5718    35375    48531    30889     -907   -18616   -13075    -8181 
  -27826   -58620   -67658   -55402   -50680   -58714   -66073   -77527 
 -101344  -125339  -131290  -116013   -97293   -85451   -61067   -19596 
    4464   -13409   -48560   -55654   -34318   -22475   -29364   -38193 
  -43208   -37022   -14680    -5090   -35926   -79348   -80982   -28551 
   34129    58987    34482   -19466   -57609   -41310     3106    13501 
  -25643   -74314   -89568   -71672   -48345   -37880   -52075   -82719 
  -92171   -68604   -48146   -55471   -77546   -89563   -72266   -33964 
   -9111   -17396   -43497   -57369   -51016   -38851   -22452     1262 
    6322   -29041   -70224   -71897   -49284   -42026   -48994   -49719 
  -41386   -28325   -18690   -22422   -35088   -51781   -73751   -83659 
  -59359   -14410    11403    -1453   -34947   -55664   -49692   -35382 
  -30973   -32456   -32258   -28054   -23449   -26427   -27366   -17052 
  -20044   -47654   -70026   -63875   -29653    15069    37338    15284 
  -33892   -66129   -55911   -19216     6345    -2718   -37350   -71099 
  -78983   -56602   -31878   -29016   -41019   -54082   -65728   -74566 
  -71853   -57732   -45673   -36965   -23177    -9326   -11203   -31437 
  -41344   -15847    18986    28336    23820    21037     -394   -46324 
  -73236   -51343   -11883     4451    -4526   -23286   -42168   -44877 
  -19303     8142     1800   -35709   -76880   -93784   -64982    -2976 
   30983    -3944   -71361  -113061  -113631   -91884   -63422   -39842 
  -41122   -61856   -65271   -46219   -35260   -34733   -29433   -32137 
  -46295   -44539   -27366   -24016   -35916   -44998   -45196   -36544 
  -21178   -14239   -34365   -72624   -99711  -102133   -80835   -43884 
  -17229   -22217   -43680   -53400   -54068   -64490   -80159   -86347 
  -79321   -61890   -46169   -45443   -61569   -83444   -84082   -47804 
    1766    26434    13498   -10569    -9708    18481    38641    17670 
  -31171   -67253   -70463   -44979   -17477   -22291   -57120   -83165 
  -76905   -61716   -65664   -76305   -77456   -73479   -64239   -48171 
  -29846   -10931     5057    -1229   -43484   -80691   -56241    12132 
   59586    58565    19458   -37179   -68137   -38071    14825    21402 
  -24801   -66952   -56267   -15196    -2025   -33498   -93232  -146438 
 -145255   -88701   -30763   -16473   -47091   -83194   -87189   -60888 
  -24335    -8405   -37294   -81718   -97090   -81620   -49936   -11470 
    4971   -27247   -76178   -82152   -43301   -12946   -19893   -44813 
  -64440   -65099   -40310    -9542     -802   -15634   -36627   -46678 
  -38457   -23128   -11704    -2786    -5927   -25308   -40674   -48819 
  -67274   -91806   -94689   -63444   -28391   -19037   -21787   -25015 
  -35368   -50153   -62492   -60253   -46193   -45718   -53738   -51802 
  -51695   -57215   -52465   -34422   -18374   -14671    -7325    13327 
   29619    30111    10161   -26236   -55816   -61503   -43733   -27987 
  -41933   -70065   -84210   -76373   -42397     9678    31908   -27439 
 -123921  -140641   -53507    33934    32780   -46875  -135490  -147162 
  -51699    61214    87353    17719   -85749  -138440   -99549    -3763 
   69693    45478   -48911   -80929      557    91084    93302    16953 
  -79581  -135155  -114447   -40534    20061     1522   -80665  -122656 
  -83423   -22464     5860   -21262   -80070  -106542   -77256   -18380 
   39685    55825     1977   -74550  -102894   -75535   -22556    25067 
   39232    16769   -14775   -37114   -52194   -42894    -1248    38454 
   37111   -19200   -87258  -110784  -102305   -88805   -67760   -54401 
  -73476  -107058  -105827   -66223   -36776   -40902   -66353   -92243 
 -100019   -92025   -72974   -44982   -24914   -17721   -15359   -18914 
  -35402   -71911  -115301  -138045  -128126   -82782   -21649     9675 
   -5825   -43194   -64606   -53768   -32098   -13840     6800    21786 
   18275    -3847   -34940   -54219   -47487   -35142   -36720   -37727 
  -28554   -22010   -29811   -41767   -49545   -67911   -83153   -64683 
  -31768   -21564   -33403   -38583   -26893   -23279   -30809   -16938 
   19113    44738    33538   -17362   -61909   -46340     6396    22245 
  -24731   -91834  -121073   -90059   -34763    -8962   -16500   -13609 
   17256    37041     8650   -54900  -104435  -110996   -85860   -33617 
   32943    57277    14774   -41567   -63684   -64273   -73725   -93664 
 -102161   -82923   -49654   -32641   -29898   -20373    -9803    -1354 
   12859    15837    -7595   -43714   -74542   -85363   -70852   -52721 
  -52718   -69597   -87326   -76296   -30121    12062    24407    15584 
   -7699   -43361   -73852   -64791   -16432    20884    19899    -5357 
  -38152   -68279   -77934   -54511   -31702   -47444   -78874   -75742 
  -19216    54840    84504    40498   -37689   -75161   -50914      446 
   48938    61810    11858   -68341   -99161   -40150    51286    71865 
   -9506  -114624  -147642   -94335   -13551    28166    -4112   -86882 
 -151802  -154215  -106696   -52083   -30421   -48975   -65584   -45087 
  -12464      -50   -14400   -49428   -67267   -35217    18770    41484 
   10807   -41664   -63822   -54102   -55476   -87961  -121378  -106850 
  -36522    41158    67819    32714   -26406   -68444   -65391   -37556 
  -43180   -84423  -117869  -113933   -73828   -34858   -25721   -57370 
 -115486  -140938  -116699   -79840   -50466   -39274   -42640   -46258 
  -44938   -33539   -22413   -24215   -32426   -39588   -42587   -38442 
  -29359   -30840   -47476   -58273   -52834   -32134     2172    23215 
   -2419   -63410  -110582  -111646   -75064   -31286    -9953   -21448 
  -45072   -58988   -72147   -89874   -91142   -65417   -36358   -25328 
  -13753    12647    29458    17709   -13122   -38761   -33581    -3449 
   12114    -3042   -23895   -22011       59     8570   -10435   -29761 
  -21111    12443    28855    -5113   -57884   -74049   -48508   -28400 
  -47016   -89746  -127876  -137001  -113337   -79016   -47972   -37445 
  -61425   -87308   -82413   -62889   -57214   -60520   -46407   -20138 
  -10674   -21424   -38883   -56875   -64659   -51553   -33629   -28507 
  -26708   -23754   -25122   -19796    -5879    -6821   -29405   -51379 
  -58225   -65852   -89897  -112294  -110607   -82006   -44257   -36035 
  -64799   -86019   -75790   -61697   -59722   -40294    11810    51234 
   21843   -53503   -86642   -54641    -9490    18015    21449    -5186 
  -52592   -77007   -46683     8943    50743    55639    21847   -13867 
  -29131   -41517   -62470   -77867   -74536   -59090   -48063   -48424 
  -47339   -35695   -25320   -24542   -29071   -35504   -47452   -64423 
  -71177   -69061   -76524   -84637   -74503   -47405   -16134     2100 
   -8509   -46342   -76597   -69643   -41941   -17414    -3852   -14383 
  -49155   -68743   -44109    -7483     2207   -18954   -62421   -92101 
  -68379   -14967    12837    -4167   -43123   -69802   -67564   -38339 
    7396    41382    26779   -23680   -52870   -44093   -22651    -5797 
   -2174   -10921   -16585    -7989     1377   -10818   -34898   -39378 
  -14786    10647      654   -33238   -56299   -66826   -66069   -44947 
  -18667   -14162   -30626   -41822   -34560   -19858    -7061    -5654 
  -28824   -54615   -49274   -26540   -15294   -20389   -36631   -57190 
  -72043   -65581   -38784   -25640   -43290   -70844   -83639   -66121 
  -38544   -47042   -89320  -117528  -109600   -83839   -53263   -11888 
   25234    26955    -2710   -35207   -53114   -43683   -10303    14636 
    9358   -10238   -19498   -24839   -48736   -77833   -89665  -101688 
 -117553  -105263   -67012   -46315   -59421   -70851   -62689   -67508 
  -89175   -92321   -74848   -55577   -33785    -3494    22166    23327 
    6857   -14812   -38757   -48046   -35751   -16268    -5296   -13442 
  -21762     2990    41047    32762   -33629  -102494  -120504   -94260 
  -61536   -40739   -43443   -76509  -111766  -115435   -97690   -86482 
  -86792   -96442  -103002   -77264   -24139     9771   -13185   -71572 
  -85047   -29728    19760    10478   -42039   -92658  -106552   -95395 
  -85820   -86791   -91377   -78270   -53144   -39523   -18290    29023 
   62221    36284   -27089   -62163   -49026   -18993     4783     5276 
  -10485   -10025   -13354   -61602  -125841  -153768  -148258  -129368 
  -83132   -22662   -14499   -71570  -122583  -130870  -130581  -127337 
  -91223   -42041   -28064   -45526   -55268   -50167   -49179   -51635 
  -45092   -36782   -41116   -50278   -42099    -7831    35788    53365 
   15287   -63718  -119490  -115768   -89425   -65615   -29380      260 
     258    -3208     1760   -10037   -39309   -55781   -39743    -6958 
     390   -33162   -79431   -91987   -27235    75173   101187    19968 
  -99650  -175794  -151717   -55953    22212    37534     1679   -47171 
  -68020   -44545     1953    11963   -55443  -154247  -194308  -151993 
  -84088   -43376   -49340   -83220   -80157    -7744    81498   108678 
   46469   -49358   -87291   -34857    50404    98952    84979    15048 
  -55048   -65365   -39122   -29138   -40021   -48381   -34228   -11633 
  -24860   -69957   -98219   -97378   -75767   -44705   -35894   -62024 
 -103944  -120862   -86987   -45421   -39306   -56537   -69850   -55223 
  -31594   -46660   -94402  -129636  -121380   -70347    -5785    47781 
   72111    40191   -33225   -67934   -22900    32139    26447   -19604 
  -50308   -30754    14114    22278    -1530   -19535   -38470   -63093 
  -80155   -87930   -86824   -70383   -48525   -44394   -49307   -50695 
  -67335   -94465  -114549  -126344  -104774   -53707   -33862   -49461 
  -53144   -49817   -64817   -79601   -65481   -39610   -41541   -65472 
  -74057   -53597   -24801    -7317     1295    -8765   -39895   -49657 
  -14915    29991    52636    57945    58512    51461    36446    22808 
   14217    10069     8880     6220    -7066   -31668   -44707   -36857 
  -39682   -71956   -90503   -62356   -27125   -10076    -2548   -17222 
  -46773   -57583   -42042   -18095    13552    70780   120958    94674 
   -2980   -80671   -75298   -19961    31741    60514    50885    22212 
    5341   -27034   -65031   -48557    -4593     2684   -18910   -37398 
  -44139   -34952    -8561    19687    36142    38230    33449    41872 
   48607    29739     8329   -13392   -46947   -63403   -43523     1651 
   39870    28448   -33609   -93547  -107294   -84272   -63718   -75208 
 -113815  -145782  -155223  -167415  -198683  -214682  -179720   -98374 
   -6707    39092    20714   -22124   -59994   -86616   -95925   -91624 
  -85883   -91300  -112150  -127837   -96957   -19685    33432    16566 
  -45144  -104792  -116268   -76084   -27830      434    -5690   -42196 
  -67798   -58895   -33160   -19567   -27933   -38057   -37447   -46561 
  -79731  -100551   -77276   -53207   -69627   -96352   -95899   -68368 
  -25853    12091     6045   -48327   -94879  -112550  -120582  -105527 
  -63196   -28017   -41013  -110015  -175301  -174963  -108336   -18559 
   29883     9641   -43767   -78816   -54273     9057    27905   -21655 
  -87446  -117629   -84573   -21998    -1170   -28221   -52990   -49820 
  -24717    -1418    -4276   -10182    12895    45861    73015    77368 
   19792   -61581   -90574   -81131   -72076   -51229   -23761   -33338 
  -78091  -117849  -151616  -164959  -120091   -54285   -24521   -33237 
  -55756   -44216    21352   101678   140009    91511    -6222   -49801 
   -6162    72577   123893   120338    72143   -11705  -103673  -137039 
  -89659   -15762    16903   -18467   -80343  -107242   -84561   -41093 
  -23733   -56192  -103933  -106002   -46235    25811    52738    19920 
  -36118   -59207   -45688   -46277   -65445   -51615   -13059      514 
   -8128   -26757   -45997   -48344   -49629   -53778   -40742   -11589 
   26518    59826    75073    74558    57254    28947    -1458   -44594 
  -85305   -60647    38562   113193    83403   -19493  -115816  -133989 
  -66313    17186    58250    18015   -89434  -140410   -90217   -41613 
  -35875   -32857   -18408     1052    -3742   -50685   -81755   -56227 
  -12108    20934    23863   -26663  -103794  -141285  -103328   -39886 
  -32073   -75050   -93654   -58174   -23715   -37226   -67812   -86227 
 -108196  -116765   -77668   -14807    35019    49433    -5556  -101478 
 -159391  -175442  -177130  -172141  -167313  -132523   -77046   -55659 
  -49811   -41096   -56922   -87642  -115396  -131358   -98143   -26479 
   -9238   -82436  -177438  -207586  -137906   -49533   -43833   -97360 
 -142588  -143378   -91148   -10888    50502    18445   -91902  -145484 
 -110210   -32321    63612    73719   -30412  -104491   -85289   -44018 
  -39675   -65461   -80833   -46470    50613   142098   162569   115323 
   -2533  -106100   -91791   -31509    52572   188190   209983    71937 
  -25469   -14106    28939    37142   -22702   -81456   -88614   -92448 
  -94445   -74331   -42647   -10337    -9102   -45377   -80878   -77773 
  -30803     6026   -16116   -61701   -59705     4824    73191    73195 
    2722   -66597   -88154   -83259   -70121   -31303    25317    51768 
   20946   -47477   -84817   -31216    59694    90659    54072    -3761 
  -48415   -55887   -15488    48631    69241    -1007  -108706  -159867 
 -136457   -71750    18746    98238    83628   -31422  -127042  -106505 
   13868   119144    94216   -24452  -108271   -93031   -15003    35536 
   27233   -22423  -106300  -148847  -101537   -51956   -37471   -22684 
  -30056   -52536   -33002     5616    -9355   -87481  -179222  -212461 
 -154011   -77228   -63368  -111810  -177369  -188868  -130645   -68219 
  -28594    -8055   -25094   -61811   -65361   -22830    27640    45085 
   18018   -23595   -21893    41889   117044   131981    50441   -75272 
 -134593   -94354   -24817    28010    63245    37322   -52098  -109282 
 -101254   -65812   -30613   -43359   -93141   -89739   -21017    28040 
    -533   -80553  -139547  -128388   -61451     1025     2085   -62785 
 -133933  -146206   -94230   -34328   -28678   -72900  -100260   -73646 
  -20085    22293    33089     1034   -68583  -120617   -85773     8698 
   67244    56339     4607   -42992   -29668    40799    78402    34599 
  -45865  -105214  -112676   -74479   -27795     6562    23177     1283 
  -61573  -122393  -128748   -54562    63650   138611   131411    74904 
   12113   -31954   -54878   -59432   -48294   -31013   -15660   -14426 
  -23761   -19767   -17805   -62120  -137635  -179230  -155992   -82511 
    3625    47237    14443   -64565  -114888   -86459    -8772    41174 
   24086   -38715   -93777  -102506   -83414   -70833   -71375   -72777 
  -66781   -70887   -77642   -55783   -22725   -14277   -43156   -80235 
  -82710   -78923  -101147  -121175  -128294  -122766   -98929   -74737 
  -49393   -23668   -40087   -93432  -116220   -94882   -80958   -92344 
  -92553   -62919   -24053    -1026   -12076   -40129   -42380   -34806 
  -54990   -77930   -74859   -50280   -28329   -45605   -82965   -86572 
  -57297   -16628    22140    34466    10528   -41565   -98079  -119317 
 -101816   -71933   -37874   -20646   -45075   -76059   -62949   -21865 
  -11228   -48623   -82940   -70950   -44836   -38891   -38444   -53462 
 -103026  -150481  -158299  -128089   -79875   -31757    10387    16233 
  -20711   -20133    41139    88799    98430    77170    32745    13094 
   24674    34659    46415    47427    22572     8768    24146    38430 
   23303   -16036   -41945   -38875   -26421   -16326   -13542   -17617 
  -26342   -47720   -71815   -69525   -34792    -4850   -21713   -65348 
  -74923   -36995     2426     5267   -10329   -16323   -19184   -12870 
    -372   -28116   -94001  -139957  -136844   -93013   -45312   -37089 
  -62048   -82251   -90121   -78602   -27881    36769    75648    70517 
   20758   -24216   -27838   -20107    -9650    15976    24865   -16192 
  -90554  -135779  -108117   -55988   -44562   -62658   -83704   -88907 
  -59914   -38738   -49723   -46915   -35032   -39471   -43321   -53588 
  -68758   -56989   -26413    -6076     4239    14199    16018    -1708 
  -25936   -27717    -5065     9916    -4418   -37014   -60402   -49463 
   -8847    25109    27630     1036   -33838   -48070   -39246   -22510 
   -7657   -20401   -62394   -92093   -97084   -88848   -71955   -60338 
  -55212   -42299   -27503   -35891   -79412  -130336  -140984   -95820 
  -23365    23821     1278   -73084  -124150  -101903   -34511     8738 
    3431   -24219   -55083   -73245   -73126   -79661   -92915   -89412 
  -78524   -74562   -72581   -63957   -43931   -40031   -84413  -143869 
 -159451  -121812   -64601   -27096   -16336    -7271     2741    -8048 
  -40050   -72120   -81249   -63069   -39799   -31086   -38559   -45637 
  -35048   -22647   -25424   -29560   -30859   -40890   -54496   -65866 
  -81263   -87844   -67871   -36540   -20203   -23118   -30821   -42498 
  -66407   -73843   -38461     5288    10832   -29066   -78796   -87950 
  -50673    -6076     9030   -11941   -31410   -15677     4811   -16120 
  -64440   -90316   -80845   -59963   -42213   -24523     4475    33162 
   18766   -38215   -81164   -75968   -34997     6928    18232    -3431 
  -35626   -54593   -52333   -41337   -37030   -38634   -33700   -17531 
   -3664    -6407   -21253   -38860   -51311   -44676   -19090    10479 
   28334    19704    -5481   -23141   -27328   -19181    -3290    16293 
   36334    37656    13851    -5810     -124     8484    -4391   -20150 
  -16845    -7491   -16091   -44918   -69435   -75241   -72596   -67890 
  -62276   -56929   -57238   -68772   -72292   -58905   -54480   -61775 
  -53586   -19059    19508    24047   -10376   -53499   -83232   -84654 
  -58551   -34302   -32227   -48346   -69500   -86689   -98490  -100320 
  -95303  -100501  -121044  -132818  -113603   -85772   -83075  -105922 
 -130886  -121042   -60959    11840    43932    15167   -42165   -74459 
  -63962   -36659   -26437   -37098   -51101   -55293   -33901    -4362 
  -10089   -37773   -53818   -52206   -31861   -16799   -16050    -3979 
    2423   -20534   -57460   -94185  -107474   -87209   -68282   -65669 
  -56089   -34560   -22551   -35874   -58782   -47344     4597    41154 
   30029   -12231   -67575  -112892  -118033   -74110   -10002    23275 
     635   -45306   -58789   -32267    -5930    -5469   -20604   -21757 
    3000    29423    40954    48455    50058    30200      711   -10750 
   -3911     8610    24643    27173    -3348   -50306   -81183   -77175 
  -45210   -14417    -1399    -4998   -25747   -55803   -80694   -97934 
 -105722   -94781   -66787   -37281   -20982   -22156   -32500   -38213 
