Origin Time       2011/03/11 14:46:00
Lat.              38.103
Long.             142.860
Depth. (km)       24
Mag.              9.0
Station Code      MYG006
Station Lat.      38.5801
Station Long.     140.9654
Station Height(m) 20
Record Time       2011/03/11 14:46:50
Sampling Freq(Hz) 100Hz
Duration Time(s)  300
Dir.              U-D
Scale Factor      3920(gal)/6182761
Max. Acc. (gal)   238.817
Last Correction   2011/03/11 14:46:35
Memo.             
[...]
  136556   136541   116688    77510    32380   -12869   -66949  -123210 
 -153689  -140693   -95514   -46841   -15127     1190     7830     1344 
  -10608    -8356    12488    45375    87193   120299   113867    60703 
  -12455   -66505   -77468   -57059   -36325   -29253   -27865   -25582 
  -28625   -44303   -71470  -102350  -127500  -142090  -144643  -134559 
 -119380  -114864  -135570  -181513  -225151  -231560  -191139  -117530 
  -39518    12385    35450    45607    49943    54821    70072    93113 
  110456   111577    90392    43171   -23277   -92846  -153599  -198898 
 -222622  -216750  -170691   -86888     1448    49498    41303    -6342 
  -64213   -97615   -87221   -48692    -9133    19316    37141    47425 
   49425    38779    11589   -33056   -80255   -93151   -49700    26852 
  103433   171205   218186   214262   149088    50551   -43502  -112776 
 -152018  -161686  -156523  -153147  -140840  -102351   -50135   -10999 
    8056    17509    21172    13729   -11941   -61706  -124623  -172690 
 -188446  -166869   -98897     4957    95969   130495   100478    15074 
  -98603  -197819  -265109  -306949  -310753  -256423  -157704   -56313 
   16304    54760    58782    31529    -2318   -22276   -34368   -49187 
  -69617   -94944  -117493  -126900  -127549  -135070  -153582  -169565 
 -166549  -146580  -122675   -85969   -18528    63295   118177   121660 
   76134     1078   -75959  -134485  -167021  -171296  -145607   -88930 
   -6779    85811   174096   241802   264271   227491   142982    37209 
  -63459  -147626  -216971  -261812  -259258  -199688  -101767    -7520 
   43579    42941     5667   -46552   -86821   -93736   -65331   -23381 
     166     -490    -2354    10090    37577    73156    97782    93223 
   58457     9537   -29484   -41636   -22345    25906    90737   143621 
  154575   119225    57786   -11932   -90828  -179071  -251073  -279764 
 -261290  -190894   -66260    74023   171726   197497   149600    48314 
  -62291  -135903  -139718   -65670    55478   169481   239217   262371 
  247451   190730    88116   -34809  -130174  -180389  -200966  -192633 
 -147130   -78696   -10960    42992    75717    83908    69846    27381 
  -46040  -122118  -170267  -185523  -166085  -117493   -71815   -55414 
  -63589   -87768  -127237  -167102  -187065  -190501  -193748  -198819 
 -196469  -181673  -154398  -114949   -64589   -10019    37283    74144 
  107749   134736   138046   110861    63197     8965   -37023   -60645 
  -56558   -26513    23973    79424   120666   138349   124271    71837 
    2229   -47450   -63581   -51266   -17550    18420    35672    40612 
   50449    55754    40829    16656    -2287   -10826     4180    39556 
   59149    41552     4624   -25165   -37209   -34858   -17410    18796 
   63095    97725   108425    88907    48819     3635   -39242   -73733 
  -84807   -58527    -4711    43828    62590    51014    14500   -35978 
  -70651   -68870   -39795     3499    50824    79359    68308    23932 
  -22892   -41085   -24438    10970    48853    70536    47703   -33626 
 -153071  -271018  -352459  -371185  -310157  -182673   -40845    66062 
  123434   124553    61338   -40464  -128508  -171857  -170905  -135497 
  -83439   -45382   -45960   -91359  -162966  -210920  -192783  -115628 
  -23026    36651    44595    22968     1473    -6726   -13444   -40743 
  -84355  -127185  -165493  -195177  -206676  -195555  -161681  -107634 
  -43056    19914    68260    87766    77300    49835    18992      277 
   10007    47750    91810   115511    98231    38075   -36287   -94447 
 -136915  -172038  -189122  -174135  -125637   -55013    15430    68551 
  101143   103807    62946    -9604   -83963  -143008  -181587  -186161 
 -141195   -57431    35349   118783   178590   192500   156097    93681 
   35025    -1691   -13380    -7638      -48    -3069    -9700   -11059 
   -9831    -3380    14187    36629    46552    29509   -15548   -78871 
 -141728  -183732  -194304  -162574   -84472     8467    73300    98658 
   93773    64209    17359   -30452   -63803   -79460   -84139   -79505 
  -64697   -48684   -41683   -44768   -53027   -63336   -65490   -44564 
   -9687    21192    45883    56780    42666    11099   -24385   -62212 
 -102776  -139165  -161321  -156232  -118370   -66300   -27565   -13133 
  -21240   -42558   -59950   -68360   -74137   -73512   -63172   -47982 
  -24680     8672    37433    54567    73014    94534    99604    74919 
   25157   -38663  -101819  -144322  -152257  -127705   -83700   -27861 
   33118    76004    81739    49699   -17664  -104767  -185686  -248405 
 -275919  -238660  -135778    -7629    93717   138622   125309    55663 
  -54617  -162126  -237634  -280638  -283864  -238038  -155341   -56855 
   36949   105466   135046   123351    80412    22343   -39711  -102268 
 -161586  -205994  -216776  -178733   -97361     1065    90677   153951 
  172079   136469    69581     3414   -50235   -91437  -118762  -125607 
 -103778   -62790   -29784   -15628    -5622    10139    25639    37146 
   50535    68851    83578    83441    64300    31063    -6667   -43450 
  -76294   -99024  -109588  -114426  -114196  -101385   -86028   -90367 
 -106590  -102230   -67670   -24323     4499     7405   -16795   -49557 
  -60490   -51925   -58041   -83309   -96289   -84150   -64477   -46480 
  -16901    23747    49541    48274    31558    13396     1823    -7260 
  -23738   -47584   -74937  -100087  -110709  -105637   -97586   -86950 
  -57376    -4522    52284    93336   103581    65641   -13419   -91669 
 -133802  -140111  -127615  -106610   -81254   -51482   -16152     7340 
   -7516   -52216   -90053  -110271  -129734  -151978  -163461  -146052 
  -84528     9032    96015   144824   142100    86833    -3793   -96983 
 -166845  -202890  -202357  -173200  -126625   -61283    16864    78507 
  106000   116266   129016   141281   142655   126801    93956    60161 
   40064    25681     5552   -17570   -33723   -34308   -20089     1999 
   23988    33527    25761     5478   -28337   -72092  -107038  -121085 
 -120195  -111950   -95762   -64639   -16693    29359    53950    62903 
   63798    48920    22117     5618    15034    41842    60194    51582 
   14980   -39082   -96458  -150271  -186742  -171407   -94502      351 
   66364    91736    82658    43867   -19217   -91156  -145358  -154421 
 -107613   -29059    32804    55137    53130    40761    23202     3770 
  -25737   -70555  -120316  -159759  -168358  -130350   -60426      532 
   20643    -5005   -65006  -128753  -162931  -167458  -151336  -113923 
  -64902   -17960     8097    -7414   -57106  -106392  -125026  -114292 
  -97238   -81499   -59447   -37029   -30945   -44120   -59515   -54657 
  -29029    -8727    -6384    -8012    -5497    -4416   -10747   -26332 
  -48737   -72874   -84391   -63272   -11137    43090    70581    58338 
    5474   -72951  -141761  -167978  -144361   -80139     6000    79271 
  113596   114349    90882    43824   -14528   -66573   -99955  -104829 
  -83533   -50260   -16157    18775    58790    93771   107161    97968 
   71630    34151     -658   -20911   -27287   -29165   -34391   -45596 
  -59767   -65825   -56205   -43379   -46169   -64708   -89309  -117611 
 -146267  -161901  -152608  -122222   -86018   -57543   -40953   -31978 
  -21981    -1624    25894    44783    48679    40932    19405   -12694 
  -32423   -21832     4687    20639    15502    -7752   -39410   -65177 
  -76748   -73023   -49474    -6552    38925    66928    66155    34185 
  -18523   -70881  -106577  -118412   -97917   -42715    22552    63041 
   70096    49895     1303   -74091  -160841  -231009  -263134  -251398 
 -194019  -103578   -11726    61587   113399   129838   101181    45360 
  -22531   -93348  -137446  -132177   -87343   -19141    60612   127770 
  157261   146097   104972    50101     8011    -5997    -4225     -604 
    3260     6580     8715     6979    -7146   -38422   -77017  -104150 
 -115275  -117074  -100775   -56349    -1798    36962    57977    64754 
   43319   -11183   -76687  -131088  -168091  -177787  -147159   -87353 
  -21325    38827    76523    71681    24960   -39498   -95522  -135610 
 -161038  -164422  -139423   -99069   -71756   -67100   -64290   -49664 
  -33728   -26895   -29548   -39673   -47008   -32632     4365    34755 
   35264    22104    23749    36415    37585    21885    -4247   -37532 
  -71809   -98101  -114689  -121456  -115210  -103109   -95286   -85053 
  -64545   -44198   -38104   -46409   -56371   -55371   -43216   -21678 
   11942    46045    60041    50936    38736    43285    50301    27072 
  -24169   -76535  -121214  -149056  -137570   -89220   -34770     3306 
   25445    39829    43311    30156     6402   -25797   -69876  -113813 
 -143511  -156638  -146032  -112487   -78426   -54091   -25730    11698 
   48467    82730   111718   116736    82792    13825   -67179  -129367 
 -155587  -144082  -107047   -65999   -29402     1249    11228   -10906 
  -49442   -76897   -84688   -83357   -86524   -95868  -100790   -94115 
  -68403   -24952     9451    16276     -341   -38570   -92015  -146197 
 -191652  -219958  -231051  -231928  -218759  -192187  -165284  -143727 
 -122332   -90593   -50443   -26344   -29601   -47159   -77751  -123971 
 -164441  -177012  -158195  -110320   -41994    24081    66748    88289 
  107694   132907   150252   149985   149193   161762   167275   139371 
   74749   -11530   -91344  -131580  -109968   -32719    67766   159383 
  215056   212927   151179    42759   -88828  -208031  -286671  -313063 
 -276872  -174174   -30561   111539   220073   261402   202388    66480 
  -75377  -192779  -292907  -359819  -375541  -348308  -282245  -167052 
   -6704   156886   261873   284447   247548   177982    96154    16597 
  -50271   -77300   -45236    18705    77396   116721   125864    94778 
   22874   -80267  -186366  -256415  -267028  -222199  -150474   -86512 
  -43162   -15975    -3600      369    13900    48112    97247   148197 
  187190   194508   151382    65691   -30075  -106234  -143259  -131834 
  -78447    -5081    57989    86707    74534    32202   -22071   -75777 
 -121900  -148117  -140063   -92333    -9403    88025   161530   183656 
  151096    70477   -34861  -128048  -185711  -200877  -180184  -140876 
  -93320   -50544   -33985   -46045   -76519  -113815  -132196  -118159 
  -84935   -52632   -40904   -40835   -34022   -37998   -50232   -41927 
  -21287       60    25699    51642    87378   129606   142354   114377 
   64811     5846   -49335   -79659   -78935   -59964   -34844   -11682 
    4882    18448    27663    22598    -1669   -44185   -97109  -139565 
 -150600  -133255  -114683  -117369  -146698  -201308  -267052  -315999 
 -324727  -283014  -193881   -78022    25754    85824    95774    64335 
   13627   -31836   -52383   -23510    53729   136984   191480   213700 
  204819   163729   106281    52775     4264   -39646   -70952   -87300 
  -84896   -62041   -35785   -21843   -16567   -18536   -29869   -34448 
  -19766     5291    33412    53806    47143    16643   -15076   -41676 
  -70397   -95490  -105580  -103574   -96302   -79725   -46733     1877 
   63816   135601   188978   187789   131688    43657   -42323   -94324 
 -121928  -148055  -168121  -175535  -183147  -193223  -182952  -153818 
 -128789  -109661   -97484   -92690   -80211   -56658   -31871   -12252 
   -5906   -20654   -52783   -86866  -109532  -122420  -131720  -134380 
 -121980   -86150   -21992    66456   158195   221296   230184   172232 
   64973   -47253  -134754  -185753  -196879  -182555  -154801  -115997 
  -72786   -28352    10301    27068    20296     2174   -19719   -41957 
  -61417   -69959   -57095   -28980    -3132    16122    36164    59024 
   84639   115824   149569   186326   222401   232651   203457   136922 
   38898   -49694   -92404  -105346  -104488   -86393   -53112    -3099 
   63012   134040   191678   205815   170490   118835    57674   -25769 
 -100772  -140400  -149123  -130051  -109336  -103679   -94894   -83200 
  -73261   -60732   -58924   -86728  -136181  -178133  -203408  -215541 
 -208001  -178891  -134396   -88572   -58414   -46558   -49271   -60115 
  -57755   -26340    21086    59587    80323    91618    91313    59302 
   -9889   -98443  -189914  -272149  -327781  -338388  -292231  -196502 
  -82167    17795    85176   112014   102655    72220    30211   -23169 
  -80118  -111725   -92550   -34297    31244    77453    88733    70237 
   33074   -16579   -63649   -97203  -115687  -111236   -84259   -47966 
   -9671    26092    51429    53858    16057   -58760  -131274  -166660 
 -166642  -140536   -91739   -37729    -3850    -7819   -43408   -74718 
  -77202   -57030   -21067    29502    90936   154008   199744   213157 
  185428   115595    32998   -26088   -54934   -60188   -41163     7221 
   74368   123509   130226   110747    85255    52438     6810   -45201 
  -78756   -79626   -64850   -48411   -39879   -50984   -70934   -90507 
 -118818  -149105  -162660  -157193  -134222   -90762   -37460    14684 
   67772   109040   104899    37730   -67346  -157353  -202526  -219747 
 -224285  -204386  -155227   -86212   -13917    38383    59157    53499 
   25803   -24167   -87122  -143674  -176646  -179156  -156384  -117695 
  -68931    -9674    55322   105472   119126    92437    47501    15842 
    8084    10379     1611   -31921   -90473  -162333  -229875  -276430 
 -295553  -293872  -274457  -227284  -147324   -54152    24163    79907 
  112219   105484    48276   -35801   -95826  -107390   -93276   -72432 
  -29064    53656   165690   277749   346856   336249   251213   128717 
    6315   -89822  -153517  -182611  -166318  -109670   -34502    43990 
  117694   177423   210596   202721   145987    50424   -56560  -145749 
 -203512  -228893  -216016  -166037   -98051   -23074    57010   128231 
  174463   190190   173114   125488    57637   -17194   -84551  -135793 
 -169974  -189439  -200992  -204211  -188810  -154803  -114415   -72590 
  -18072    53122   117232   150217   150074   122748    75656    21672 
  -18062   -18384    25250    87470   140480   167713   160022   122865 
   71333    18636   -25386   -57447   -77041   -82215   -72033   -46667 
  -10892    30221    71900    96020    83166    33554   -30121   -72373 
  -78239   -59078   -24768    12935    38279    43793    24235   -21864 
  -84637  -152135  -215088  -257368  -262480  -230751  -174493  -104638 
  -25423    51738    96285    92825    57160     8633   -30893   -47070 
  -47505   -37475   -24851   -26723   -39460   -45195   -36499   -19842 
  -11304   -20299   -38055   -45696   -34914   -17660    -7296    -4775 
   -2593     9939    33553    54965    67565    77135    86810    97632 
  107964   107426    88301    51484     1239   -56148  -116598  -174352 
 -214405  -226172  -212302  -175371  -114840   -35999    47028   110220 
  127558    91082    20573   -47709   -87925  -104672  -112740  -108383 
  -83690   -46620   -12564     4201    -6740   -43299   -87541  -119099 
 -130953  -128705  -120602  -109863   -93906   -75826   -69092   -79307 
  -93768   -96669   -84092   -65504   -55253   -61934   -85001  -109092 
 -108945   -77769   -32630     7825    31577    37226    33634    24167 
    5466   -19666   -37293   -34362   -15766    12619    54032    96086 
  120488   123346   103033    57396    -7425   -76602  -130520  -152161 
 -134405   -81052    -9615    53542    96629   129250   160825   180177 
  159151    86945    -5763   -80024  -129226  -158108  -156071  -115581 
  -45013    33065    92400   123972   125377    92285    39700    -4001 
  -22051   -19082   -15334   -27020   -51091   -73953   -91640  -104742 
 -105617   -87955   -50512     3992    68070   136016   198076   238491 
  247944   221957   159611    73514   -11309   -72271  -103285  -109642 
  -96831   -75107   -56783   -50122   -62867   -92436  -123010  -140742 
 -138607  -118132   -89183   -62130   -49042   -57314   -73116   -78709 
  -79578   -88208   -98173   -92614   -70099   -48862   -44631   -51958 
  -51661   -36980   -20331   -14808   -22153   -36672   -53296   -68521 
  -83016  -102716  -127310  -149072  -162602  -163147  -145745  -112457 
  -71307   -28381    14680    58993   106448   152766   184034   193380 
  191243   183031   159672   119260    71197    28590     6897     7089 
   13244    20487    34375    46221    46077    40966    34285    20728 
    8031     9836    24343    38727    45161    50547    65260    79405 
   74662    48790     8861   -38080   -85411  -128491  -165292  -192511 
 -199463  -179633  -138809   -80240    -9751    54025    94273   102574 
   83732    55365    29039     7547   -10794   -25220   -20285     8712 
   36431    41811    23626   -12757   -56185  -100056  -146294  -186645 
 -201577  -182245  -137978   -78625   -14216    34889    55469    46079 
    5754   -59301  -134663  -204187  -254900  -280432  -273450  -230196 
 -167562  -109202   -63115   -32909   -22162   -29899   -60516  -107202 
 -144854  -163206  -167226  -155404  -126251   -84955   -39898    -4155 
   14314    25870    40936    55984    66391    59059    21937   -31110 
  -83301  -124678  -145376  -150785  -152770  -153959  -148400  -125497 
  -86241   -50779   -39790   -50946   -59025   -45892   -14578    23653 
   51906    55127    34461     8193      358     6219    -4729   -31109 
  -48914   -61680   -84300  -116765  -152779  -186097  -207148  -203668 
 -178034  -153270  -140159  -125584  -104043   -84923   -72814   -62516 
  -48614   -32740   -17375    -2763     7439    10885     9628     2574 
  -16025   -48445   -90094  -134727  -174273  -195545  -187634  -154884 
 -115200   -82157   -55393   -31271   -15136   -11114   -13407   -19368 
  -26300   -25246   -12612    14178    54093    93040   121172   136162 
  134162   117672    91469    56336    16396   -25294   -66117   -92060 
  -92593   -79454   -72628   -82870  -110407  -143811  -164832  -163205 
 -136325   -85121   -24983    21843    46177    45562    19104   -20558 
  -54107   -73505   -83437   -92001   -98130   -91635   -71222   -47981 
  -26007    -2180    13343    10866     -760   -18590   -46934   -73545 
  -83384   -77931   -67036   -53794   -31939     1307    38715    71911 
   98002   113054   110743    93189    68915    47432    38182    39429 
   41198    43128    52222    66053    68926    49686    20285      324 
   -8048    -9358    -3915    -1376   -11714   -27986   -46117   -69883 
  -87880   -85114   -62520   -28617    10131    50803    87596   110712 
  113353    94195    64819    42498    27123     9185    -9207   -18982 
  -16860   -10051    -6428    -3072     1486     2841     3225     4770 
    3588    -2242    -9752   -12508    -6478     5661    18380    27189 
   29252    24178    12140    -7635   -30817   -48064   -52043   -38078 
   -6590    33525    71738   102531   120819   122735   112376    97499 
   85306    78469    69574    48788    17302   -12469   -32302   -41958 
  -38090   -17895    12444    46255    84732   126559   158253   161413 
  125170    60549    -1146   -37500   -48128   -41077   -27447   -18903 
  -20127   -29962   -45791   -66190   -90851  -114668  -128429  -126374 
 -111571   -95550   -83793   -71062   -61236   -64011   -71034   -67508 
  -51928   -27380      945    26753    55683    90244   113417   114749 
   99889    72655    37344    -3050   -50982   -97805  -126685  -134719 
 -128144  -110661   -91896   -77185   -56582   -34918   -34448   -60440 
