Origin Time       2011/03/11 14:46:00
Lat.              38.103
Long.             142.860
Depth. (km)       24
Mag.              9.0
Station Code      MYG005
Station Lat.      38.7989
Station Long.     140.6512
Station Height(m) 304
Record Time       2011/03/11 14:46:57
Sampling Freq(Hz) 100Hz
Duration Time(s)  300
Dir.              N-S
Scale Factor      3920(gal)/6182761
Max. Acc. (gal)   254.253
Last Correction   2011/03/11 14:46:42
Memo.             
[...]
  -86925   -83587   -94658  -115705  -127193  -116542   -92711   -71512 
  -60240   -54182   -46844   -42524   -41195   -39668   -51266   -80371 
 -108923  -122074  -110183   -70703   -20972    19613    45978    55086 
   44133    16403   -23062   -61448   -79648   -76557   -70707   -67076 
  -51485   -28647   -21319   -28535   -33201   -35751   -46529   -63574 
  -74830   -76499   -79222   -90465  -100767   -97275   -81053   -63053 
  -49580   -41502   -38941   -38271   -40357   -49349   -58907   -66450 
  -73710   -69035   -48653   -27298   -13986   -11518   -23565   -41618 
  -50628   -49625   -45768   -41556   -38815   -40432   -48147   -59419 
  -63011   -55111   -50751   -59531   -76481   -96145  -111076  -114654 
 -112372  -110341  -100990   -79539   -57010   -44375   -42498   -45870 
  -46337   -42710   -44626   -52787   -50465   -33860   -22485   -28455 
  -49210   -78270   -99710  -100085   -87408   -77123   -71918   -62389 
  -43770   -30892   -41817   -70029   -95347  -108921  -113749  -113188 
 -101472   -81539   -75854   -87971   -97299   -97716   -98758  -102582 
  -98591   -80707   -61065   -49706   -41799   -38830   -44011   -42760 
  -25188    -6025     -265     -626     2185    -8617   -53605  -115315 
 -157440  -167778  -151302  -121481  -102172  -101559  -107167  -109678 
 -110825  -119801  -135006  -138626  -130285  -121453  -105559   -83935 
  -71243   -67434   -68222   -73461   -79907   -86164   -92554   -92979 
  -75807   -42660   -17218   -17037   -31450   -43556   -53315   -64787 
  -69373   -55416   -29425   -14331   -22019   -44242   -67013   -81710 
  -92315  -103025  -103654   -85745   -53774   -19807    -4105   -21355 
  -55059   -79115   -93641   -99504   -88411   -72582   -63874   -57089 
  -49304   -32929    -8223     6480    10585    11025    -1422   -25148 
  -45291   -54905   -53185   -43193   -34462   -31229   -25077   -16937 
  -23555   -49868   -85657  -116927  -124413   -97956   -53970   -20379 
  -10445   -22094   -44364   -63965   -76048   -74679   -56147   -35056 
  -23248   -15683    -7569    -3249   -17646   -57930   -96445  -104520 
  -95817   -87368   -64162   -20250    17610    30432    26254     8407 
  -33203   -87246  -116003  -104541   -76764   -54142   -41805   -45458 
  -62688   -73780   -70518   -71069   -87188  -108091  -123805  -132330 
 -121179   -78487   -25382      917    -6056   -27449   -56659   -84843 
  -88759   -74287   -65032   -57361   -49319   -53834   -60746   -53347 
  -40809   -32690   -28074   -35278   -57803   -84013  -110347  -140576 
 -160262  -143999   -92177   -35301    -5169   -13271   -45805   -83629 
 -110940  -110499   -87692   -65426   -54163   -57388   -74151   -96866 
 -113860  -111559   -91934   -66921   -40195   -17646   -13454   -36542 
  -78910  -118109  -128224  -102683   -73561   -68629   -71530   -67169 
  -62167   -59922   -68003   -91359  -118858  -139761  -152088  -153124 
 -128352   -76770   -38380   -44631   -76787  -107521  -124525  -114237 
  -82201   -59651   -57938   -54064   -32429   -14504   -21261   -35614 
  -35895   -19335    10226    36274    38395    10060   -42309   -87920 
  -97643   -92397  -102089  -115490  -112954   -91629   -55869   -19262 
    1433     2074    -9053   -22956   -38824   -56411   -69906   -75946 
  -71348   -50829   -21148     3062    19497    29005    21890    -9924 
  -54632   -79943   -71138   -49868   -35694   -31540   -37337   -45179 
  -49102   -58852   -77834   -95057  -104058  -102836   -99256  -106771 
 -115416  -114408  -114203  -107894   -77889   -36761   -10738    -8241 
  -16627   -27025   -51218   -89020  -116421  -115439   -86156   -52298 
  -41675   -56563   -92206  -133321  -143163  -118118   -89674   -67855 
  -53568   -59686   -89091  -124343  -141904  -134202  -112348   -94117 
  -82709   -65498   -48506   -40557   -30450   -21190   -22897   -29214 
  -40670   -64936   -87555   -85352   -70562   -76061   -99600  -104499 
  -77282   -56969   -72394   -96428   -94704   -57337   -16732   -30929 
  -91829  -138181  -147480  -124654   -78663   -39182   -23105   -25393 
  -47211   -68214   -65780   -62160   -65796   -57999   -47028   -41727 
  -34901   -21798    -4336     1121    -7289    -8298     4893    15494 
   -2928   -52776   -99402  -118692  -115843   -91544   -51609   -28157 
  -30595   -31837   -21220    -8251     -956    -7665   -37611   -81851 
 -109960  -106726   -76443   -35456    -8977      219    -7594   -39429 
  -69367   -71586   -59793   -47010   -29342   -18878   -32700   -60159 
  -89457  -121066  -139712  -134331  -109785   -68924   -30830   -13617 
   -8828   -17244   -43148   -65074   -66855   -55238   -44351   -43257 
  -43254   -33645   -19645   -11927   -21321   -52987   -95659  -121502 
 -112600   -91522   -89126   -97534   -96321   -88258   -82719   -84182 
  -86683   -73085   -52882   -50598   -62157   -69477   -62097   -47068 
  -33462   -15368    -1071    -3859   -13566   -25426   -49603   -83671 
 -106386   -96024   -63561   -47062   -57572   -73746   -83837   -92353 
 -102576  -112881  -110090   -78611   -34185    -9745   -11961   -24766 
  -36110   -44872   -59552   -89996  -121375  -128637  -114593   -94490 
  -75758   -53017   -17610     7307    -9191   -58106  -112967  -154505 
 -164797  -130601   -56095    23479    66135    69371    49548     8899 
  -45540   -92426  -108291   -93359   -70806   -55073   -56921   -73984 
  -90147  -113023  -133957  -115108   -68620   -34740   -12898     -357 
  -14216   -46241   -72951   -86825   -90730   -85445   -62348   -25621 
    7102    31399    40147    19895   -23957   -68268   -96441  -106719 
  -95310   -63496   -34503   -35357   -64426   -92889  -104651  -106392 
 -109802  -117400  -112715   -96061   -99058  -126957  -148847  -146977 
 -127335  -103462   -88626   -85045   -91357  -116201  -154680  -175365 
 -155626  -110179   -72457   -60147   -68778   -85922   -97718   -95460 
  -85964   -75326   -56305   -25774     9415    37197    52816    62474 
   56878    13884   -61899  -130270  -156958  -147889  -117375   -59132 
   15545    70149    84612    61450     8634   -54523   -92595   -95942 
  -85925   -65144   -32658    -3174    20230    31733    14833   -18990 
  -35376   -23679    -7803    -6847   -12133   -20579   -40895   -68348 
  -97219  -125671  -139022  -119401   -67093    -6050    27721    22607 
    1417   -30447   -80074  -122598  -132689  -106210   -53723      152 
   42315    62798    40732   -22801   -97690  -154684  -182203  -175093 
 -135102   -89569   -66199   -67326   -85104   -99113   -91821   -73394 
  -57625   -50667   -54735   -66779   -87526  -112797  -129310  -135177 
 -139189  -142497  -145338  -148074  -141129  -121692  -100460   -89850 
  -97104  -116676  -138411  -158108  -171634  -172153  -153038  -120474 
 -100454  -109343  -125112  -115591   -86983   -67844   -63913   -61281 
  -47397   -27186   -25170   -54714  -102122  -142097  -155590  -141339 
 -106841   -62590   -28887   -13616    -4690    -4697   -20636   -34141 
  -33461   -24996    -4739    25037    46534    53473    48242    31858 
   12773    -2569   -21115   -46951   -67576   -60500   -20019    27861 
   55070    49890    15962   -25480   -66754  -118070  -152994  -125894 
  -53799    -7986   -35386  -106336  -147745  -152707  -160494  -151566 
 -100944   -39000    -5749   -10963   -29031   -46924   -70293   -79050 
  -73365   -87396  -117879  -135374  -127545   -95532   -59041   -45032 
  -53197   -66508   -77854   -80709   -69213   -50680   -35487   -32796 
  -51582   -89721  -130650  -156801  -160640  -133793   -75904   -16171 
   17233    27121    23602     6271   -16500   -36584   -64240   -86001 
  -73963   -43312   -18065      790     6909    -9834   -44003   -75996 
  -93657   -99275   -92963   -76135   -54108   -31324   -15041    -7830 
  -10404   -23990   -37144   -34373   -23060   -28852   -51698   -72644 
  -93053  -107329   -94973   -59597   -20514     7002    15304     9542 
   -2342   -14354   -23008   -32207   -46065   -56833   -54983   -55449 
  -73152   -88184   -82563   -68570   -59049   -49858   -34741   -17809 
   -6485    -4433   -22537   -62727  -102753  -136669  -170481  -183935 
 -160951  -117320   -83808   -78448   -85985   -93425  -116352  -149666 
 -166683  -164622  -149363  -122928   -98209   -85472   -82885   -88257 
  -92785   -79521   -52358   -33443   -25773   -21845   -35020   -78255 
 -132802  -164124  -148985   -84545     -360    48481    39555     2351 
  -38123   -78232  -109867  -115682   -83592   -34396    -8399   -11647 
  -26651   -57747   -98110  -108330   -83744   -54412   -25757     3997 
   21899    17329    -3891   -23513   -38222   -57524   -80586   -96916 
  -96000   -77967   -46166     -329    34254    19772   -27966   -62638 
  -78480   -94983  -118441  -129377  -103094   -57585   -30073   -19741 
  -12354   -16747   -26846   -15181    12480    35668    51599    50624 
   28097    -3739   -28833   -32665   -28963   -39938   -51609   -47654 
  -42937   -59806   -91307  -101317   -72565   -21522    24020    34880 
   10430   -19269   -51370   -96383  -130018  -133962  -121384  -106724 
  -87463   -52177    -9832    20083    29955    12353   -23859   -52082 
  -70944   -94016  -111341  -103722   -72847   -42625   -30859   -38032 
  -66719  -101352  -108643   -93385   -84423   -83609   -73318   -53859 
  -46743   -55890   -66466   -81707  -120104  -176198  -214632  -218227 
 -200801  -165880  -108853   -49902   -17583   -16535   -39981   -85444 
 -134313  -156883  -153520  -146087  -142149  -144068  -151237  -151754 
 -147916  -148984  -142917  -122239   -95514   -59967   -13418    26997 
   43318    29313   -14204   -77085  -133911  -161054  -147882   -94268 
  -28791     8430     5840   -21629   -54509   -91161  -130408  -150389 
 -144443  -128538  -113929  -105405   -90070   -42406    23425    63595 
   66031    31966   -40844  -121882  -171734  -184362  -170794  -131989 
  -69720   -11455    10548     1194   -10635   -21599   -39158   -49756 
  -59136   -82899  -103191   -99562   -69086   -37254   -39825   -51997 
  -30675    11247    44785    57698    61378    64934    38422   -20950 
  -69185   -88905   -93766   -99504  -103273   -80926   -30679    19131 
   49780    61253    53098     8616   -82925  -184089  -243161  -243277 
 -172786   -49372    35111    28528   -18493   -65332  -110555  -140444 
 -140859  -123208  -103855   -71992   -31382   -21762   -57485  -125576 
 -200844  -226902  -178578   -98707   -28834    25379    76812   108901 
   75435   -17656  -109868  -149770  -133496  -101864   -76380   -50952 
  -47792   -78571  -105482  -107124  -107277  -128996  -160783  -187862 
 -222032  -252439  -235160  -147957   -18153    72273    72337    35394 
  -14002  -106363  -196748  -246099  -265975  -230629  -122860    27567 
  152699   195642   176317   108196   -22719  -165267  -259665  -295231 
 -264295  -174856   -55911    49671    88835    56177   -21268  -108365 
 -167343  -202119  -195812  -110304     8537    93062   129403   116007 
   53196   -42807  -130797  -164026  -140160   -78897     3571    65424 
   78940    71922    71357    68035    59235    50929    27359    -9970 
  -42270   -73879  -104006  -116484   -94103   -35662    15555    19651 
   -2968   -15743   -15847    -7197    16622    42966    44030    -4193 
  -97105  -174244  -181896  -129900   -56837    -6382     3526     3982 
   21185    46243    48123    -7299  -103199  -179569  -207923  -201214 
 -183547  -167673  -140009   -85387   -21110    20276    35949    46683 
   50216    29365    -4915   -26951   -30354   -19298     4971    35311 
   56482    63208    67618    77538    84440    74135    38759   -13929 
  -66820  -119577  -190657  -266784  -289133  -218069   -70179    85307 
  150704    85315   -64971  -239840  -363510  -365505  -257436   -70725 
  105088   128474    56705    -4217   -96096  -173645  -175570  -151549 
  -89387    17889   102647   141373   139519    75495   -65428  -232919 
 -318586  -248229   -64003    92765   102814      289  -101919  -186076 
 -245837  -245977  -222531  -173690   -77760     2172    40806    29977 
  -69464  -204141  -292428  -323537  -281189  -163088   -46909     -305 
    1672   -13412   -71531  -141765  -159614  -136117   -77237    23812 
  111953   152974   137002    40136   -82453  -150680  -173737  -182604 
 -172232  -141330  -122713  -134926  -154123  -164540  -155135  -115681 
  -69939   -49545   -53861   -67020   -90641  -120433  -142420  -157917 
 -159712  -144116  -124622   -96146   -50443    -1383    34363    53120 
   57533    46337    25773    15368    17229    -2024   -62219  -122724 
 -131825   -86789    -9078    81337   154213   183591   167776   125162 
   75216    14344   -57148  -110755  -142400  -175863  -206188  -206724 
 -157305   -63239    12931      674   -75663  -143089  -179234  -158794 
  -65063    21421    30748   -13333   -76878  -137409  -173595  -187203 
 -183958  -164801  -140029  -109085   -77750   -68275   -61729   -24538 
   39479   115616   183801   224064   222299   143848   -25970  -211542 
 -309105  -296663  -202201   -87273   -45569   -53759   -46798   -60571 
  -64040   -16672     4924   -21580   -80053  -177845  -257280  -263173 
 -224545  -192697  -183956  -205975  -255417  -257195  -138371    53807 
  188805   199530   145092    48865  -104232  -221882  -226977  -118414 
   36286    93668    27002   -99814  -226949  -233213   -82358   110897 
  205753   178781   149832   123746    20675  -127063  -284671  -381320 
 -327205  -154487    55851   188932   195161   155357    58430  -123837 
 -261380  -275189  -177933    61349   312590   338917   204616    56422 
 -152911  -340336  -367406  -308913  -185463    -1130    83005    83234 
   99359    27709  -108075  -151142  -155929  -211580  -271127  -292099 
 -258575  -178249   -77100    18502    45198     9376   -29623   -88017 
 -135456  -100515   -14084    51249    63639    28307   -33481   -80808 
  -73473   -43875   -46212   -59151   -65447   -91613  -110551   -75676 
   11588   106427   130733    90421    74912   108583   169555   224451 
  230372   189754   125820    40471   -74574  -195791  -262800  -274556 
 -275812  -232265   -97468    75362   196827   234641   223694   149949 
  -31210  -217293  -299929  -292097  -176482    23376   143617    85526 
  -22297   -44595   -52564   -67719   -26759   -19172   -56305   -50832 
  -64660  -112288  -132185  -146477  -153343  -120359   -62657   -19802 
   -9430    -8202    -4498    -9736   -25366   -39114   -26896    12317 
   53858    74874    44839   -36020  -108869  -129019   -93204   -13648 
   59183    66124    14985   -52298  -120319  -178990  -214774  -220683 
 -187935  -106175    10460    87305    81997    44544    -3878   -55316 
  -73343   -70418   -63716   -51751   -48723   -49055   -42311   -32279 
  -13823     8079     8957    -7741    -6356    22991    60550    81306 
   55410   -26605  -134084  -223214  -276114  -284888  -232680  -155885 
 -112930   -96194   -99246  -133519  -177178  -224542  -280656  -301925 
 -219903   -43361    93306    96473    42499   -16644  -108799  -151917 
 -111856  -100861  -129600  -146704  -150620  -127587   -75874   -18148 
   19321    17214   -23486   -80837  -106664   -80071   -48311   -62069 
 -118795  -169291  -175315  -151833  -118580   -79376   -55620   -60935 
  -73666   -78539   -93009  -125300  -163598  -211414  -266248  -297685 
 -280282  -204945   -86174    15423    40939     5418   -48927  -103144 
 -124406  -119818  -141402  -170660  -180018  -190211  -192276  -178443 
 -164155  -155577  -162582  -180285  -193037  -174511   -98137   -24807 
  -32123   -96623  -169854  -231984  -282837  -341576  -382718  -343089 
 -221174   -65756    57458    85894    48468    -9717   -95150  -149660 
 -133227   -91769   -45743   -23728   -57267  -130949  -210549  -236384 
 -188058  -103765   -26090     3201    10959    42047    59710    45055 
    8231   -55198  -105690  -107419   -78204   -36434    10511    46197 
   50514    28485     5771   -17972   -55629   -87657   -81120   -27693 
   53173   123160   148709   122553    47494   -57987  -156882  -239135 
 -294399  -267226  -142575   -11199    23282   -42730  -121707  -155499 
 -172277  -167231   -89698    24348    91185    86937    54827    27518 
   -2556   -15026   -12674   -26843   -34306   -23501    -7190    23282 
   56263    68270    62224    36123   -19287   -70305   -73629   -34757 
   10658    28344     4444   -51509  -119884  -182071  -216954  -190387 
 -101931   -18124    11390    -2012   -41592   -94143  -129563  -113776 
  -44137    36603    87564    93274    49337   -31131  -116820  -169152 
 -173137  -137392   -61148    29406    84714   101315    95787    61822 
   -3782   -91462  -187296  -254126  -229028   -93916    67561   147529 
  131502    74291     -710   -70066   -92204   -87182   -72036   -36638 
   -5522    19043    34696    21864     2622    -7217   -25675   -64747 
 -111953  -147423  -160364  -143012  -110411   -98757  -118590  -141295 
 -143038  -141280  -154901  -166375  -159793  -141375  -115729   -82335 
  -39976     3518    32595    44080    27371   -26019   -86247  -123202 
 -128798  -104270   -65418   -29193     2602    40604    79703   100963 
  110218   113213   101562    83893    68766    47207     4388   -64171 
 -140104  -206192  -259721  -284153  -255755  -177723   -86832   -34416 
  -30974   -38981   -46252   -53792   -49103   -50746   -63500   -58990 
  -36141     3320    61842   110641   127672   127354   124514   121368 
  117152   102879    83521    69850    36896   -31831  -104380  -151018 
 -165597  -156119  -146733  -140312  -112519   -70929   -59852  -100047 
 -156143  -179386  -161454  -111554   -37888    22492    42500    43703 
   35639     9992   -20205   -51474   -79136   -78068   -48745    -8450 
   38062    80061    95118    71705    18729   -51726  -121753  -161318 
 -151280   -98615   -47922   -53323  -106121  -157852  -192970  -218108 
 -240354  -262055  -273578  -266513  -244510  -230953  -236145  -222895 
 -167231   -95558   -46501   -38993   -53072   -63324   -70850   -74901 
  -71189   -61036   -42646   -21805    -9474    -9302   -20761   -34805 
  -37994   -31312   -28217   -39776   -60140   -63052   -33179    13708 
   52664    65526    45949     1433   -56026  -110535  -143383  -138444 
  -88033   -13302    46770    69971    51248      848   -59592  -119837 
 -181694  -235327  -255339  -237362  -207388  -177178  -132970   -70696 
  -20045   -10021   -25796   -45817   -69258   -93178  -107495   -97266 
  -65196   -39794   -36495   -50667   -85623  -144982  -204456  -229063 
 -208285  -158585  -110341   -81362   -63564   -49318   -39879   -34348 
  -37463   -52859   -68813   -71451   -57322   -25902    17389    49434 
   51156    30101     -232   -34483   -66349   -91407  -111979  -138397 
 -174853  -205862  -232094  -261693  -264773  -217606  -133090   -51441 
  -21513   -34366   -61781  -112995  -156830  -151973  -125262   -95355 
  -54021    -8964    29917    37049      248   -46009   -73337   -74882 
  -58410   -45520   -39264   -35181   -45916   -73653  -102855  -124663 
 -141480  -161291  -184828  -192641  -168109  -133867  -123761  -124801 
 -114739  -112372  -122536  -118775   -95744   -67706   -50678   -50290 
  -49290   -35975   -21749   -27791   -63124  -103006  -118284  -109559 
  -87041   -59597   -40663   -38971   -56536   -87294  -115888  -130120 
 -122754   -92133   -52427   -25120   -19489   -28773   -49509   -91645 
