Origin Time       2011/03/11 14:46:00
Lat.              38.103
Long.             142.860
Depth. (km)       24
Mag.              9.0
Station Code      MYG013
Station Lat.      38.2661
Station Long.     140.9286
Station Height(m) 5
Record Time       2011/03/11 14:46:50
Sampling Freq(Hz) 100Hz
Duration Time(s)  300
Dir.              N-S
Scale Factor      3920(gal)/6182761
Max. Acc. (gal)   1517.156
Last Correction   2011/03/11 14:46:35
Memo.             
[...]
   23827    44737    58980    70231    79349    83893    87567    89605 
   79347    53204    23408     4219    -3048    -3547     1874    12323 
   23908    34656    45698    58508    72333    80743    74957    56558 
   37478    24341    13467     2668    -3454    -3778    -2547       23 
    4603     6761     6083     8253    12899    14550    11422     4098 
   -6311   -16264   -22049   -24496   -25585   -23929   -18683   -12144 
   -8769   -10198   -13159   -18803   -30944   -44996   -53265   -53965 
  -52180   -54291   -57294   -53399   -44770   -37059   -28530   -17512 
   -4890     9775    26364    44270    62397    77887    85991    85436 
   80959    72365    53200    25416      -14   -22679   -47078   -61662 
  -62277   -60710   -54676   -40856   -31811   -33155   -37994   -41151 
  -40655   -37703   -39360   -44691   -44774   -43200   -41137   -29267 
  -11486     3581    11782    10222     4232    -5472   -20434   -27860 
  -16482     5395    17811    19900    26939    31979    25595    23155 
   33447    45777    51534    54771    62302    69791    70111    65022 
   58794    53507    46562    34319    20395     6073   -13055   -33676 
  -45237   -45512   -45989   -51321   -52903   -52292   -55312   -54553 
  -48630   -45831   -44696   -46112   -55967   -67195   -74034   -77268 
  -71869   -57529   -39841   -21500    -6113     4540    14419    24717 
   33530    42387    48048    45724    43697    46035    43019    36662 
   36910    41184    46154    54786    66327    76617    80665    74961 
   63433    49577    32521    21206    21809    19802     5329   -12598 
  -23425   -21991   -12006    -2202     8686    21938    28383    28525 
   34185    46531    57027    64122    74923    87176    87767    79857 
   73104    56118    26544     5929     -864    -9664   -23313   -32361 
  -36951   -41442   -50050   -66913   -77213   -70198   -63733   -65242 
  -64700   -59941   -52776   -49058   -49888   -47210   -46772   -53702 
  -55295   -47280   -35435   -22586   -14600   -11782    -5648     3914 
   13250    24485    34062    36826    38594    45751    53336    52765 
   46293    42586    43513    48582    56770    59994    55313    52264 
   57235    67671    74626    69164    55298    40422    26104    16657 
   13455    14515    20212    24169    20482    15323    12907     8156 
   -2601   -18879   -38384   -56145   -68395   -75985   -83469   -95530 
 -107888  -110262  -103199   -90880   -65816   -30505    -3828     8483 
   10878     6680     4420     6488     6838     6947    14156    25442 
   31288    33312    36607    40489    44910    51175    60406    70751 
   80636    88133    87321    78034    60818    39758    31142    34494 
   31388    15715    -8599   -32907   -47855   -58041   -72828   -92926 
 -111972  -114670   -95777   -77611   -71608   -57225   -37273   -38250 
  -46094   -44479   -43387   -30724    -7295     3608     2965     2349 
   14016    34615    44998    47879    49871    44654    31233    18359 
   16587    17529    10922     7494     7964     7813    15468    27505 
   39205    58320    76701    74745    54443    32328    11288   -11879 
  -30589   -47634   -73160   -96427  -106163  -109836  -111064  -109497 
 -107486   -99950   -82631   -59750   -34649   -14500    -9693   -13921 
  -15642   -16969   -17222   -10250     -543     3396     4170    10491 
   26829    53823    82324   100219   111093   117588   113058    98800 
   74647    41029    12167    -5798   -18519   -21468    -7241    18270 
   40195    49284    52538    59202    60723    53907    55551    60254 
   47407    27894    17276    13709    15049    14603    11629    12655 
   16420    27061    45038    60373    75211    90527    98785   100864 
   98801    93729    90021    86501    75887    54782    27967     2788 
  -14759   -23051   -24137   -18150    -8569    -3130    -2846    -3338 
   -2885    -6869   -22519   -38256   -36266   -23841   -16691   -20530 
  -33848   -47679   -55554   -56546   -51508   -42147   -30750   -25388 
  -28314   -26392   -15657   -11334   -15949   -12726     1516    14560 
   20677    24683    35674    49745    56246    64714    78412    83083 
   81168    73563    50697    18335   -13941   -40110   -54156   -62851 
  -76533   -85463   -79322   -77426   -93266  -105282  -105723  -109637 
 -107449   -82671   -43340   -10116    -4765   -21943   -36133   -46379 
  -47612   -29488   -18557   -22628   -18061    -8894    -2619    12433 
   35973    46376    35068    29037    40078    48386    47695    31638 
   -4551   -28951   -28833   -36922   -53612   -55354   -63319   -96233 
 -120687  -121340  -123921  -133876  -138415  -131933  -115399   -94675 
  -72301   -51882   -29142     2737    16182    -9250   -31137   -11530 
   23566    47429    69808    87666    77740    47087    38498    66385 
  101554   129399   150568   161123   168195   166152   150187   154620 
  178257   174587   154754   147924   138500   127153   125112   123109 
  118162   106345    93388    95039    95207    77007    53382    37605 
   37300    41694    24299    -1624    -5225     6519    19863    23275 
    7682    -3252     -296    -9332   -28644   -39733   -44867   -46803 
  -47709   -48194   -42377   -40461   -44292   -39743   -37795   -49751 
  -63364   -70953   -75498   -76159   -62517   -32602    -5168     8028 
   13263    10201    -3303   -21465   -39265   -44098   -36957   -34399 
  -27820   -20867   -38519   -60304   -55472   -39775   -27283   -13092 
  -11052   -21441   -15841     4682    17905    18926     6950   -18280 
  -41860   -39832   -18466   -14692   -28143   -29739   -26142   -28354 
  -19893      420    15214    23543    35742    53320    64355    47078 
    7004   -12289    -5158    -7449   -20226   -30025   -41897   -54266 
  -49800   -13105    23919    17065    -6213    -9652    -4920     1844 
    9923    17301    26940    23872     9981    13086    24281    11211 
  -10846    -7598     1046     -815     7228     5470   -19620   -37999 
  -48969   -65338   -83906   -92097   -72193   -37914   -18268   -22099 
  -40282   -42911   -18141     7714    20333    20975     6897    -6891 
   -1918     7819    11693    23989    34986    35707    50170    77055 
   98985   122005   145303   163262   184802   214611   244963   257604 
  243400   221897   201809   162201   105051    69708    57389    22352 
  -19884   -22431    -8768    -3082     6160    11809     7381     2194 
    1967      794    -4564    -8322   -21437   -40641   -40452   -30618 
  -29042   -31547   -39413   -57182   -74567   -67279   -35400    -8267 
    2972     2113    -5374    -3505    15915    39198    42974    26478 
    9974    -4427   -12419    -4166    -1564   -17135   -30148   -29334 
  -27069   -35983   -50180   -62038   -71155   -75333   -75107   -68446 
  -59460   -69555   -92991   -92581   -71026   -66472   -84542   -96897 
  -92927   -91970   -95450   -84864   -65592   -53661   -47346   -39021 
  -29571   -10504    22540    40660    35515    35412    48933    60508 
   57394    45381    46954    73901    97896    92006    73846    54605 
   28551     2763    -9158     6633    37337    47350    32081    19289 
   17784    14235     8384     6929    11509    14907     2370   -14525 
  -14634   -16480   -33856   -45117   -48692   -51559   -40121   -22271 
  -14687   -10446   -12589   -32167   -51389   -55075   -57283   -49274 
  -25384   -35346   -75090   -81192   -76100   -96496   -96890   -62330 
  -24985     3254     7881    -6180   -13528   -12700    -2348     3850 
  -12670   -27381   -24104   -14223    -8176    -9298      686    29889 
   59939    84812   113224   144824   161714   159280   162303   174336 
  176114   174017   173106   156223   132512   118164    99005    79396 
   69790    54390    43094    45114    37039    25196    27333    29369 
   26512    30976    35644    27463    11885    -5960   -24101   -39370 
  -55436   -60178   -40072   -13711    -3420   -11187   -16122    -3731 
    5004     7454    18712    26066    31545    40254    33950    20542 
   15812    18840    27781    36444    49643    70312    86509    96812 
  103031   105892   105476    95458    85015    80574    70308    66145 
   74608    70154    58221    47160    16329   -12268   -13135   -11264 
  -14417   -11905   -14676   -33048   -54253   -54599   -39838   -38058 
  -44299   -45781   -59149   -80211   -88550   -89990   -87997   -90232 
 -117428  -150233  -148636  -128109  -135407  -147667  -115023   -75845 
  -64859   -51029   -38018   -44422   -61425   -76442   -80150   -87642 
 -106924  -119645  -124389  -123831  -107080   -79916   -69282   -82527 
  -92221   -84571   -77671   -80192   -77619   -57438   -31625   -21756 
  -30363   -42699   -35601    -5467    14836    17968    32129    36867 
   13356    14491    44565    63538    90948   123256   126100   116692 
  115629   110732    91829    77542    81301    78685    73165    87763 
  103756   111462   114642   103914    86374    73520    70866    78927 
   82922    74724    63274    55136    48630    45549    43957    33885 
   23282    22756    23083    24652    32651    41515    48322    42056 
   24071    21586    33386    42135    47652    36786     5174   -25708 
  -53889   -90841  -118056  -109538   -96434  -119467  -141094  -119446 
  -72039   -21851     5785      925     5399    24585    19719    10868 
   15034    11750    14844    14487    -7629   -11145     7357    16028 
   24166    26547     8333    -3928     1734    13648    33742    61479 
   92035   109861   103176    89707    68648    33484     4996   -27371 
  -68206   -78544   -68459   -69210   -61461   -48075   -50755   -41459 
  -12811      271     4363    18161    28330    27314    17496     4518 
   -1979    -4501    -8271   -14814   -29332   -46185   -52956   -51695 
  -53132   -57168   -54020   -47809   -47630   -43080   -26221    -7625 
    3618     5430      490    -1234      342    -3337    -7918    -7672 
   -4064    -1205    -2553     1488     7737    -4327   -21309   -23255 
  -23857   -28958   -32075   -32688   -25941   -15740   -13805   -13272 
   -1850    13315    24303    32792    39604    44613    33123       70 
  -29430   -50930   -72331   -86422  -104614  -129253  -124577   -78090 
  -33548   -31622   -40807   -18330     5886     9204    15587    30455 
   42959    38942    17413     1076    -8687   -23543   -30258   -15366 
    8490    24021    31942    35676    36379    41765    50769    62384 
   81209    96893   106720   120996   134987   144943   157776   169215 
  168454   152100   121741    84471    48503    25415    24793    26156 
    9684    -5481    -6683   -12157   -29259   -34519   -20298   -14568 
  -15935    -2231     8301     5254     6368      632   -18154   -23707 
  -20539   -30088   -44235   -55460   -66876   -74682   -76187   -75759 
  -67363   -41116   -12373     2329    12925    29777    41619    41689 
   45418    54175    56077    48978    38925    39720    38706    21423 
   13204    17666    19351    25558    37397    52054    65081    63156 
   58924    70095    80004    85139   102811   122022   136763   150778 
  133641    86016    53126    35203     8350   -20637   -38937   -46951 
  -51873   -62876   -73796   -70929   -62666   -50059   -24768    -5964 
   -2367    -4885   -18143   -45575   -81483  -106243  -111034  -121918 
 -142544  -143580  -120786   -97967   -88994   -72574   -33174    -1867 
   11603    36253    61761    63055    62835    79805    82070    55568 
   43198    61556    72247    64759    64814    73072    73480    64905 
   61495    69887    68758    43427     5002   -27565   -34793   -22651 
  -14029   -13337   -16089   -14518      127    17543    26268    32827 
   31989    11859   -16461   -41467   -60211   -61525   -50817   -52306 
  -55094   -40053   -32649   -36488   -25065   -11178    -7209     2299 
   14945    16526     -323   -38767   -81545  -100234   -87525   -59060 
  -47119   -59153   -54186   -26040      478    34788    61928    61327 
   62766    71396    69256    74433   101655   123786   115230   103668 
  112871   109960    94445   104043   118469   112423   102753    93535 
   89406    91318    83582    73576    71470    75843    79977    68855 
   48751    27713     2825   -15600   -32869   -55588   -71566   -84186 
  -86021   -62762   -39044   -39101   -55296   -69031   -77290   -92845 
 -112871  -132923  -157351  -179783  -194654  -204114  -225540  -263142 
 -272132  -235125  -196104  -166380  -124591   -95476   -90378   -69817 
  -46173   -46974   -40859   -21144    -1841    29006    58478    69989 
   82562   113964   167416   221851   236107   214174   207914   234367 
  265240   288165   306226   313010   297374   241647   159041    94772 
   47017     6678    13374    54501    67819    52760    37905    25136 
    5490   -27013   -66579  -112399  -162192  -187767  -186181  -195198 
 -217024  -224685  -221579  -218770  -213429  -203885  -195525  -198096 
 -198954  -181122  -168996  -187437  -222369  -242676  -238756  -234752 
 -218221  -147257   -54598    -2695     7974    13111    35966    65019 
   75167    63436    39993    19421    18717    38449    70088    99756 
  109841   120766   161395   202580   216539   227618   233079   185381 
   89753    13464   -20642   -57769  -102097  -114977  -120195  -146737 
 -169403  -178904  -187610  -210701  -251373  -289575  -323428  -361333 
 -393330  -407913  -407846  -403403  -389812  -359727  -322751  -289622 
 -261116  -212804  -124155   -48916   -17447    51049   145189   164452 
  137279   108175    94986   142299   197108   250735   442173   836219 
 1425141  2133231  2397116  1664533   854398  1022118  1215172   866941 
  847879   923125   719978   698866   675391   537947   539457   488366 
  322433   196682    96279    43305    71878    82035    30745   -17125 
  -35774     2754    97002   162642   177937   154771    91033    45289 
   37023    17272   -26446   -72275   -95521   -97460  -100277  -107718 
 -120981  -144098  -177479  -227803  -285266  -330680  -371196  -421564 
 -472995  -500784  -502371  -498658  -478774  -423324  -363966  -319746 
 -266435  -230057  -255330  -292146  -282786  -265616  -274130  -289952 
 -319192  -366660  -404377  -435600  -458629  -416308  -318831  -259840 
 -242327  -203819  -186602  -242807  -288574  -287539  -321613  -370369 
 -374847  -375027  -362761  -293098  -217172  -194342  -189042  -137747 
  -50042    10820     8301   -47108   -92288   -50273    38782    57221 
   17485     7411    25245    54891    98827   118107   108535   118573 
  158942   211361   268987   326551   385522   458107   552720   663619 
  733446   659993   485364   436081   523702   509668   416751   385774 
  283132    30443  -215211  -260525   -50453   162666   171557   117929 
   80947    19768     9662    48527    62951    71795    71858    18924 
  -69048  -127338  -139647  -147942  -165579  -181065  -194073  -182446 
 -124963   -49296     3018    19680    25272    51275    77704    61743 
    -314   -75502  -122275  -159312  -230275  -297027  -316657  -288845 
 -207683  -128253  -134328  -193982  -222698  -224923  -244452  -285925 
 -332383  -359360  -371870  -402968  -448287  -469490  -423299  -314483 
 -226107  -193204  -158165  -105258   -61946   -19045    23819    44809 
   46664    42275    32313    16359    14319    32969    36518    21703 
   18149    17925     9967    -3674   -11875    17715    69415    99501 
  124255   165359   214313   267846   313461   350896   412824   517073 
  683657   928807  1111208   964005   559171   406027   562693   511867 
  311125   294762   224632    68650    49878    26729   -41064   -37267 
    8508    64698    86382    44225     3830      476    -2229   -19936 
  -34965   -54871   -94090  -127861  -128596  -123109  -146113  -170517 
 -170781  -178387  -219866  -258537  -232727  -176149  -175869  -210641 
 -245163  -310938  -383834  -440862  -515006  -584978  -615089  -607603 
 -557726  -487160  -412054  -306549  -212080  -187243  -196987  -198068 
 -174696  -130721   -88644   -42858    -5750    -2672       36    42545 
  118022   191739   235959   238863   195796   147084   144614   153956 
  122687    77482    50109    35205    38397    53770    48820    22662 
    3420    -3345    -9263   -14493      221    64204   164645   228041 
  240850   273550   332188   432797   707807  1113029  1258345   969669 
  751362   891926   885072   679719   689206   668695   512443   502208 
  486907   376772   302171   226478   135973    59079    -5113   -60829 
 -111559  -120915   -94419   -99606  -145915  -191397  -218088  -215721 
 -173514  -126973  -136127  -196977  -253568  -300553  -393033  -563844 
 -765648  -869063  -759887  -516457  -359068  -299526  -153473    46983 
   92706   -50272  -150306   -52729   -34189  -188447  -187565  -118690 
 -161584  -132677   -44522     5974     6774   -85789  -160418  -132940 
  -98352  -114594  -169536  -232797  -287977  -351749  -370527  -283997 
 -171677  -107630   -64706   -26445   -13256   -31816   -57355   -82734 
 -133485  -206074  -261439  -235120   -98311    22866    12552   -14706 
   31271    52104    35720    50692    75662   101301   131934   137996 
  129032   116195    87419    59377    42173    17032   -15837   -40277 
  -50570   -45767   -36347   -37112   -44166   -47901   -46149   -34627 
  -11638    11812    31704    65183   118186   168025   197447   216495 
  240740   266214   282326   292721   304403   317813   322024   295586 
  244167   210944   222043   259768   300337   337533   362633   374906 
  392945   406836   383601   321104   252665   218042   204611   168817 
  130080   119765   119233   122144   130734   132914   133313   127160 
   97038    57634    28522      748   -31268   -56233   -77191  -108500 
 -134955  -135407  -124717  -117934  -116711  -126925  -138903  -136448 
 -136600  -173497  -238715  -301640  -367797  -447216  -538683  -650722 
 -756921  -785672  -708213  -591658  -514628  -461844  -381101  -289274 
 -233365  -224402  -230164  -200664  -155509  -150249  -162235  -163955 
 -168852  -167065  -159734  -162015  -143614   -60716    83948   225202 
  285718   287756   310389   330669   301084   267909   300324   468551 
  782039  1072709  1099356   793020   425102   312330   295826   127043 
   16522    37697   -36980  -120861  -102330  -100758  -119682  -116553 
  -85263    -7427    86370   178676   286069   383186   410098   351637 
  253091   177239   170409   193132   163772    96700    43971     7280 
  -15097   -30851   -52415   -68348   -75330   -81628   -93044  -116103 
 -146273  -178393  -217394  -256461  -279507  -285747  -273819  -239706 
 -224365  -291550  -407979  -433626  -341356  -278145  -281710  -236756 
 -136971   -85231   -97889   -98928   -65879   -44959   -47981   -48003 
  -39078   -50149   -88425  -115102  -120167  -116546   -93075   -59496 
  -42016   -48187   -71352   -84721   -72315   -47030   -25291   -23261 
  -35398   -34669   -18825    -5509    -3554   -17389   -36942   -36424 
  -19726    -4345    28001    78945   104519    91174    81257   109472 
  163074   217349   273441   341678   425817   528022   628246   648501 
  502373   256392   122210   146584   165951   160045   209500   250796 
  245038   220860   170096   118176    74589    25247    -4510   -10268 
   -4936    -5348   -32939   -62344   -68656   -73970   -78499   -57034 
  -18916     2621   -13684   -59926  -107950  -132383  -113823   -74625 
  -73141  -102799  -114269  -119476  -140764  -153039  -152029  -160214 
