Origin Time       2011/03/11 14:46:00
Lat.              38.103
Long.             142.860
Depth. (km)       24
Mag.              9.0
Station Code      MYG014
Station Lat.      38.3173
Station Long.     140.6362
Station Height(m) 259
Record Time       2011/03/11 14:46:55
Sampling Freq(Hz) 100Hz
Duration Time(s)  300
Dir.              U-D
Scale Factor      3920(gal)/6182761
Max. Acc. (gal)   214.489
Last Correction   2011/03/11 14:46:40
Memo.             
[...]
   26944    -7240   -18940     7049    13996   -15640   -37485   -20667 
    4350   -11556   -55571   -71900   -45660   -13859    -7254   -18672 
  -29550   -41431   -66411   -81165   -50867   -13706   -21996   -40766 
  -26793    -8156    -8992   -10858   -24958   -67359   -80099   -29974 
   23213    46365    63088    85036   108382   114448    88496    55794 
   37852    29235    32107    42928    38571     -931   -55489   -73877 
  -56314   -44576   -42993   -37156   -25029   -10167     9872    46145 
   68165    31794   -19470   -28256   -27318   -54398   -84570   -82839 
  -47882    -6656    22449    51183    78491    76059    48602    32313 
   43543    63752    56638    24530    -1873   -20902   -14053    32168 
   49897    13709    -8468     2027    15262    13194    -3952     8915 
   50357    36582   -26839   -63644   -74292   -61845   -14160     9665 
  -11260   -15386     1963      990   -20755   -39633   -29560    -1295 
   11634     7226     1024      709     -789    -9456   -18105   -35040 
  -64563   -67874   -12533    48036    25835   -43276   -52874   -22349 
  -17010   -16787   -15386   -19758    12659    63482    65320    39913 
   32392     5231   -59955   -88151   -55858   -32992   -31289   -25554 
  -27539    -9947    38725    61573    61618    61841    42198    43614 
   73000    42275   -35484   -84756   -97289   -56705    12408    25384 
    3062    19588    43256     5496   -59958   -63631   -18695    10159 
   41598    66357    32986    18430    79576    92509    15767   -10586 
   46379    65486    14433   -22705   -16929   -10483     3591    55020 
   83023    35311    -8499     6487    20774    28165    65412    81494 
   50792    26449     3310   -37877   -48517   -21369    -4518   -10696 
  -34428   -49673    -6571    57608    63912    55896    89540    93590 
   31567    -8875     -647   -10589   -29682   -27105   -37275   -30213 
   23303    31717    -8734    13093    63130    45909     9989    17420 
   52920    77593    33847   -42221   -42490    -5338    -6359   -13550 
  -35817   -82657   -75238   -15897     1842   -14285    11786    38092 
  -12343   -65031   -40781     2769    32645    57629    26339   -27640 
   -4055    26645    -9409   -10205    33627    13470   -29700   -11279 
    7891   -14669   -24956   -30056   -62790   -69545   -25681        3 
  -19089   -28252     7212    67600    98896    52928   -10799    16381 
   79145    56024    -5099   -10493     9182    -4287   -21633    14287 
   63500    48952    12691    36123    82700    89522    71456    48555 
   35627    44319    45151    36761    32350     9797    -6071    17235 
   47980    46953    -7381   -60452   -17699    70392    96063    70399 
   27593   -14964   -24378   -19787    -6403    40578    51764     9955 
   26110    75938    47168    -8309    -8693    10170    13688    11613 
   18047    42666    73235    82313    48336    -6477   -22754    -3681 
   -4131   -27046   -53721   -80193   -78299   -53878   -60048   -71091 
  -38990   -23463   -51641   -50028   -31194   -60585   -74563   -21119 
    2471   -43176   -68749   -48416   -37148   -42923   -24821     9348 
   -1326   -37538   -22519     9756     2241    -4930    -1070   -19053 
  -39973   -48761   -57861   -50806   -24042    -9866    -8554     2207 
   13161    18030    47636   103091   131105   113835    88200    73930 
   52853    14439    -4990    15271     9385   -62273  -108825   -57702 
   28515    73666    71660    58050    60557    56335    59695   116357 
  145044    77326     6783   -11472      484    44651    77064    66406 
   58722    50838    29975    36911    49317    28072    16321    33933 
   36558      119   -55047   -67514     1977    75004    53369    -5257 
    6419    43995    35287    13594     1419    -4225     3398    -1570 
  -18638     1687    58020    78100    15267   -72603   -85364   -33601 
   -8911    -9785    -5434   -31726   -66295   -72342   -89083   -94195 
  -47786   -17101   -23970   -20549   -17550   -15159    -5036   -31608 
  -74200   -53860     7835    30882     8312   -25292   -49706   -43483 
    2879    49782    52283    42538    69911   106075    95366    32252 
  -23096   -15814    10971   -11191   -53183   -50329   -14768    12688 
   29773    25681     -606    -3419    14138    11035   -11981   -50168 
  -52531    29772    91461    61340    30987    43976    68901    73814 
   38340    32897    86986    86310    21092      652    17741    14691 
   14717    20508    -7825   -39959   -31889   -15874   -21127   -25782 
  -11772    -8013   -43469   -65082   -24980     9264   -17417   -42518 
  -11336    19685     2798     4982    56403    83672    66723    34578 
    2963    16299    59913    46144    -6450   -21330   -14345   -18115 
  -23352    -9226    26740    23821   -32682   -38244    17287    25307 
    4975    37508    73780    66426    64857    68265    36970    16202 
   31310    15262   -27375    -8416    36412    -6486   -71710   -18821 
   85201    90452    15655   -34315   -43910   -55076   -53256   -16740 
  -15090   -61449   -58526   -24371   -32760   -48623   -63818   -93834 
  -82873   -45681   -50153   -35256    43829    71219    14720     -149 
   40066    40965    28939    56485    43661   -25207   -21622    45451 
   25311   -61462   -72971   -15060    17477     7660     6553    48308 
   69260    13890    -8530    59388    71656    -6435   -34621    -1304 
   -4484   -52189   -58581    19954    61290   -27687   -83089     8799 
   63128   -26181   -77459      516    49846      721   -17530    32072 
   43629     1627   -18815    -5218    -4534   -16209    11560    53995 
   33412   -26175   -45456   -23954   -17765   -28283     1386    48822 
   37829    -8496   -48467   -79413   -55661     4432    11147    -8851 
    7513     9019   -36401   -46647     5058    29539     1480   -18486 
   -9390      552   -25685   -67620   -55276     -854    42029    70249 
   55979     2153    -4754    25010    18134    16489    48361    49503 
   24148    25452    28607    -4517   -27636      629    13346    -9512 
   16920    49372     4892   -35215   -26483    -6006    46050    86439 
   38468   -23302   -18904    -2649   -11070   -29657   -66053   -93550 
  -85243   -98238  -149326  -131905    -8548    87416    75411    51076 
   89745   133806   132612   118136   100142    52341    23008    50877 
   51947     3896     3372    36272     4896   -58453   -48916    19962 
   38251    -1142    -3259    31051    44918    45142    38997    44902 
   71978    47743   -23153   -40766   -17530   -11799     -140    17474 
    6623     1127    37910    58026    20155    -4248    10218      793 
  -13744    16345    41203      387   -81551  -116259   -66654   -38460 
  -94790  -119341   -55671    26474    93817    98777    26075    -4883 
   54610   101794    70133    -1810   -57698   -89792  -101474   -76245 
  -27510     4586    17760    29034    31885    32442    52657    75749 
   60564    29220    47933    80580    42129   -12858    -1480     6236 
  -57262  -102408   -68809   -51329   -77664   -53082     6125    30157 
   45368    54793    31410    -8285   -32936    -8362    32259    18910 
  -40881  -102777  -100006   -14841    30860    -1864    -1764    29305 
    7297   -43094   -43606    24066    85718    66532     6909   -14093 
    1835     4012    -7854    -8355   -14081    -4677    52709    95406 
   65686     4451    -7650    44061    79377    65677    53723    21132 
  -57611   -78681   -27478   -30624   -70275   -61815   -57456   -64443 
  -26169     2298    -6202     2159    16791    22099     9959   -40496 
  -67395   -40640   -26271   -24495      974    12670   -30330   -58949 
    8334    77420    47933     2674      115     -145     7054     7754 
  -34974   -39324    33817    64156    28583    20497    31512    17531 
    6038     9054    17264    47293    76287    59538    15007   -28777 
  -59742   -52159   -22033   -13890   -16332     -145    19697    20575 
   13700    23447    45463    59411    50200     5902   -30955    -2546 
   43742    41461    28646    44863    54586    37395    25946    43915 
   66448    66362    56825    30617   -34124   -86833   -78238   -64738 
 -100626  -129594  -103921   -74480   -75768   -62762     1668    64673 
   58021    25356    24151    15527   -24767   -57353   -50802   -17609 
   -5960   -26547   -40724   -44110   -48570   -55225   -69440   -50868 
   21526    65161    35202    -5955   -16840     2003    47891    81151 
   62106    -5586   -76321   -56343    51136    86859     1841   -54727 
  -12308    27030    23780    53942    88441    40477   -10764     8442 
   11973    -6585    11557    16971     3557    20338    20228   -19071 
  -26736    -2928     2602     9642    19890   -14026   -75772   -94435 
  -59403   -28859   -15967     4839     7388   -14510    -8278    22827 
   32314    31008    44946    61507    77309    98349    96657    53203 
   -3664   -50996   -79701   -71789   -44807   -32123   -35868   -51130 
  -50370   -16376     9272    15684    22349    12172     3939    31047 
   50306    48312    64021    62710    26619     9617     1071   -35070 
  -66271   -44458     8668    16071   -14054   -12405    13523    43715 
   64844    33723    -1110    22794    22512   -28417   -31346   -15131 
  -62079  -108662  -106052   -87110   -49402   -21463   -47874   -64633 
  -12664    51499    68113    40681     4546     8364    43483    39879 
   -3528   -36751   -64978   -79358   -52102   -41257   -86832  -111102 
  -60964    11733    62132    96739   100792    63390    30025    21856 
   -5061   -58207   -78362   -52875   -37770   -47011   -26792    30163 
   47102     6324   -18819      494    29140    27012   -30173  -116626 
 -149269   -88143   -17425   -21554   -55151   -28163    42364    41072 
  -29349   -34098    -3250   -65039  -135049   -92484   -22442      -73 
   32446    65762    20970   -40617    15646   129875   130695    48666 
   18602    18424   -13953   -64237  -111080  -120756   -84384   -54714 
  -54909   -46477   -11529    26939    64046    81237    53173    22099 
   11014   -16172   -50560   -62578   -78178  -106294  -100664   -67741 
  -46600     1422    94862   135353    64292   -17708   -15848     3569 
  -45729  -118361  -123892   -58987   -13761   -37925   -58222   -23340 
    -823   -19088   -33907   -88970  -202391  -237255  -146025   -58821 
  -48876   -61233   -29590    47773   112785   115196    53370   -40022 
 -107777  -118792  -115138  -138827  -163811  -139006   -45366    68315 
  106556    75266   106597   203552   221789   150932    81618    32391 
   -5135   -29830   -43379   -57399   -89157  -124221  -132411   -85203 
   24402   119632   119076    73302    56866    48177    42743    65860 
  102467   145433   159037    80253   -34042   -45532    41149    84258 
   48451    17631     6634   -36438   -95402  -104088   -78611   -81547 
 -109257  -144747  -198998  -240381  -215381  -132857   -48998    -9180 
  -12879   -21994   -15578     1397    18376    24368    34072    71950 
   95667    39848   -18912    46198   168475   214916   192789   139395 
   77731    80643   126208    98936    37846    56103   111948   116976 
   85359    72762    96207   123700   104255    38135    -1795    18516 
   32673    -4695   -42218   -31057    -8737   -40269  -114516  -145916 
 -103686   -52271   -29605   -27368   -32584    -8278    31866    14379 
  -40352   -48828   -53380  -136454  -198553  -140522   -96945  -135724 
 -103555     2225    30442    26131   114378   227601   250948   220363 
  195578   160471   135885   131702    67377   -28290   -11759    80115 
   92656    41654    29186    39973    14090   -23246    -9205    43909 
   65089    27847   -37876   -69343   -27967    21175    31284    49319 
   82124   101477    93360    31614   -56540   -91007   -65452   -43580 
  -28141    14472    28300   -27070   -54757     1812    42318   -13188 
  -86576   -88409   -64740   -53744   -20370     4388   -19736   -48405 
  -56914   -48270     3564    53448    13924   -72877  -109718  -105154 
 -119795  -140691  -116131   -64240   -15938    49086   110384   115850 
  102155   125849   148299   123115    77343    63919    77609    59961 
   17214    11243    43829    68483    67982    41716   -25917   -87363 
  -67337   -32197   -80935  -157226  -173319  -155787  -139321   -84155 
  -23677   -29167   -17562    68070   111115    69403    55104   102330 
  132611   146230   163074   118811    27023   -40754  -105648  -180654 
 -201315  -157869  -115176   -98804   -89144   -53922    -1486    18804 
   43400   114023   170348   171054   130584    85904    70154    71774 
   80361    86594    46208   -34771   -72626   -31859    24535    49749 
   57431    34355    -9975    30765   161026   193628    60408   -73467 
 -101213   -67281   -33725   -62098  -144817  -181714  -153241  -120782 
 -131933  -182965  -169484   -73255   -28294   -47607   -45518   -43730 
 -102920  -160422  -106042   -15156   -29373   -79313   -25880   113089 
  237049   291019   267730   211624   205575   246808   226450   108592 
   14308    20405    44896    35528    20421    10971    -5831   -55867 
  -93200   -35765    65148   111705   106562   110599   136100   106135 
   14847   -36762   -36696   -41104   -48503   -37419   -30428   -40667 
  -52010   -96319  -149824   -89294    66723   150056   112272    73930 
  115011   164037   142060    83948    49345    29221    -9664   -58327 
  -65781    -6473    59188    75389    62668    37950    19715    25786 
    4413   -71662  -138978  -151886  -137932  -113570   -46674    36612 
   82530   146325   266229   341643   307658   232369   169354    74687 
  -75231  -192730  -198798  -138532  -106195  -142921  -197645  -187073 
 -130191  -104962  -116886  -131939  -137874  -150674  -176545  -166444 
  -99509   -37386   -12406    10539    47110    70731    66768    55800 
   39613    -1554   -43050   -49736   -23469    12564    26380    28023 
   45443    43259     9048    -1692    16626    14047   -15869   -29867 
  -21696   -10015    14513    31851    31565    48347    51828      -33 
  -44109   -17725    42318    67259    35667      789     9719    15369 
  -11739   -21871    -6904     3478     4890   -33733  -123091  -177831 
 -152070  -102288   -63744   -43182   -39989   -20339    11057    36171 
   75350    89534    47113     9638   -10207   -48887   -83221   -96657 
 -116431  -123566   -91136   -67393   -60073    -9201    72229   119331 
  108948    75234    73074   117829   170660   161293    92467    72958 
  128788   150627    88890    39718    80919   132306   106480    59302 
   57235    75203    81543    74378    43966   -13317   -53217   -37429 
  -19226   -33605    -3364    78106   102847    69795    63876    70707 
   36639    -8596   -14195   -12227   -43005   -59019   -60954  -127837 
 -221133  -234083  -163375   -74254   -41592   -68973   -49824    38630 
   77156    37165    29334    92932   141941   118426    72077    54218 
   19354   -56108   -87153   -23981    57976    69642    22370    -2658 
   33995    72169    70239    82679   113567   116575   116207   136987 
  146624   125323    73875   -12651   -92578  -117187  -130013  -176867 
 -221686  -214991  -147415   -57628    -1648     4454     2051    48571 
  126214   154058   125378    98495    85920    64343    24752   -33543 
 -100357  -136892  -105130   -17089    47633    32008     9349    53188 
  111888   142143   155436   144784   114993    81369    42841    12161 
   -1276   -14968   -41108   -64521   -62483   -37799    -2623    35413 
   48232    30573     8473   -25779   -68444   -74403   -53323   -64992 
  -99895   -92849   -40136     2611    14472    20623    33329    46631 
   55296    53940    37232    -2499   -40750   -38671   -23761   -25774 
  -13158     7953    -9167   -53133   -79909   -71921   -33722     3426 
   11337    21717    51593    48177    25037    56025   113487   110806 
   48060    16467    46675    61176    52805    86505   115180    66879 
    -563   -18586     4532    50743   112269   166165   174924   136644 
   83841    34205    12202    26721    33090    10588   -12506   -32687 
  -48644   -24700    14117    12178     1306     -108   -25972   -31246 
   28849    69375    21609   -48815   -71769   -71717   -97452  -134206 
 -129909   -90010   -68854   -68107   -44421     6330    58518    91082 
   92453    68721    31934      321   -15100   -29414   -39294   -22435 
    9357    35755    56185    52101     2095   -58981   -81308   -79450 
  -84669   -83151   -64029   -42172   -19556    11295    37556    47899 
   58349    65301    40198    13384    42428    89322    71175     6394 
  -13467    26007    51207    28535     -494     1761    22062    41744 
   53716    18212   -53037   -67564   -16656    29840    50765    54299 
   38430      676   -44331   -56654   -34414   -28326   -49661   -87098 
 -145932  -178405  -150822  -119052   -93174   -46781   -32766   -54056 
  -27209    34120    60050    64376    71317    60232    35013    22146 
   17588     2487   -20155   -25854   -14499   -21380   -25726    14570 
   31233   -28295   -72150   -37305     7902     3069    -8221    30850 
   72991    59647    47224    77139    88869    58246    26337    18827 
   45641    92969   110106    76908    45489    58195    91514   116490 
  131394   142854   150812   138760   102516    60416    42986    77318 
  107727    59187    -7892   -17370    -6184     4647    36236    51078 
   22274   -10462   -20650     3673    43259    25463   -38777   -65106 
  -55537   -48445   -39246   -31398   -28882   -12508    17079    42728 
   55836    42307    -1109   -52549   -84839   -82935   -65037   -58760 
  -54872   -44461   -44010   -40355   -16322     4909    17369    27609 
   33249    52504    68902    35327   -31703   -74371   -70537   -46949 
  -28446    -9924     3723    10906    30093    46706    40790    45911 
   85907   118618   105418    70886    63972    83576    70595    19958 
    3758    32811    40521     2529   -26948   -13492     3225     6281 
   10773     9243    18389    44203    42723     4790   -33239   -55439 
  -69581   -69627   -49364   -38356   -58652   -73769   -53083   -32444 
  -32433   -15576    20671    34276    17007    -9910   -38506   -60367 
  -43545     3088    -4675   -79198  -121564   -99063   -59481   -25176 
    3311    31894    53853    46269    30229    45619    72650    75432 
   51394    11412    -7090    13384    26894    26713    48804    74278 
   75943    69120    77455   112433   146729   136029    82280    20323 
  -15448   -19448   -25632   -30890     4685    55925    64283    37817 
   33602    65290    75779    35494    -5201   -26453   -70616  -121126 
 -127985  -124414  -136512  -103011   -27079      693   -10025    15952 
   59597    68241    51427    38552    19467   -18159   -34596   -10771 
    1072   -17950   -17031    16529    40892    39037    35340    59946 
   91877    74952    23501     6102    28658    37777    17239     8194 
   24525    25486    16312    49068    99933   102875    60356    20672 
   19706    45324    46970    15429   -18970   -42020   -39231   -22340 
  -36514   -55216   -15218    44243    53586    37402    37613    35571 
   17763    11794    22586    18144    -9928   -29949   -10129    27071 
   23484   -26418   -67638   -49808     5897    21400   -17261   -53368 
  -51467   -10430    25050     9711    -9394     1062   -19367   -60195 
  -57100   -51426   -80986   -96475   -79761   -62705   -44048    -4476 
