Origin Time       2011/03/11 14:46:00
Lat.              38.103
Long.             142.860
Depth. (km)       24
Mag.              9.0
Station Code      MYG016
Station Lat.      38.0079
Station Long.     140.6212
Station Height(m) 49
Record Time       2011/03/11 14:46:55
Sampling Freq(Hz) 100Hz
Duration Time(s)  300
Dir.              U-D
Scale Factor      3920(gal)/6182761
Max. Acc. (gal)   203.021
Last Correction   2011/03/11 14:46:40
Memo.             
[...]
   80360    69449    63222    75831    56390    13058    11168    23877 
   19696    32382    35260    15100    30550    62116    52045    22214 
   10456    19027    46844    60553     7531   -55180   -27447    43851 
   40096   -36078   -78649   -37730    28600    33248   -27988   -69555 
  -60666   -27722    17605    -4528   -96386   -82661     5984   -22077 
  -94932   -99243  -112173  -137119   -93338   -27747   -34381   -69616 
  -52019   -50184  -107041  -108775   -53835   -22098    15526    28568 
  -26118   -70875   -57162    -2061    28670    -5506   -12333    42087 
   68916    73972   104156   100477    51617    54025    90411    69425 
   45900    85243   115698    88788    78007   122158   115480    26247 
    9576   102138   140395    92055    62719    34673    -2373    26604 
   55615    10445   -12390    35358    73062    40335   -41489   -83231 
  -57155   -40568   -22404     9804   -34712   -53738    63116    89278 
  -55621  -111328   -30340    27334    46916     9058  -108111  -107367 
   62536   105101   -31651  -103208   -94941   -50112    54083    47340 
  -82482  -104808   -54569   -40146    23437    77719     -808  -109722 
 -123015   -52684    32576    71121    47407   -18546   -88477  -100151 
  -34219     6482   -49097   -88603   -36310    17938     7720   -45444 
 -100473  -108360   -39051    50202    47613   -49891  -101002     9265 
  198430   231126    60114   -51793    34903   134612   114920    28806 
  -91138  -178347  -118982    31336    97468    54090    50757   114142 
  117395    99209   106442    21316   -72733   -45661   -44045   -90160 
  -57023   -50208  -131726  -138350   -78811   -63688    -7316    71639 
   40625    19367    60148    18744     9017   112333   101217   -17558 
  -55035   -72317  -107952   -46745    51582    57665    36775    18403 
  -54606   -48106   102954   168367    63444   -33644    -4979   106470 
  139252    35692   -39212   -29880   -50475   -73221   -57267  -100634 
 -131155   -25177    74356    66027    34632     1832   -57193   -96063 
  -55097    52413   119736    54996   -10297    67692   127358    85057 
   81112    71547     7854    37973   133043   138875   100664   103132 
  104231    58329   -20289  -104225  -132090   -53301    29815    20766 
  -13211   -28044   -28272     6223    44832    46917    22215   -16422 
  -47949   -33637    10377    18614     7257    38199    52264    -7748 
  -58069   -48794    -4939    54134    36793  -101637  -158602   -35017 
   15766   -48020     5376    70646    -7775   -72515   -79768   -68306 
    6375    43846     1314    -6419     9763      -90    -6496    28977 
   98707    99129     1298   -63604   -11773    84733    65406   -69493 
 -125350   -74062    -9259    93688   167394    84048   -27640     -575 
   90469    96074   -19836  -125847  -125433  -107658   -88343   -33933 
  -25633   -43304   -14986     8911    -7909   -81848  -177500  -147111 
  -15129    17093   -49665   -61369   -37286   -87835  -139026   -96980 
  -42078   -12179    -1916   -45202   -67276   -27762     7156    51643 
   94727    73898    19747   -18438     5394    92364    91527   -30351 
  -44485    84541   100035   -19251   -42481    55976   131208   128847 
   74755    37129    56616    80254    89747    96410    48444   -33318 
  -51681   -12741    46876   130532   143605    37342   -64740  -108776 
  -91633   -12253     4452   -26881    25799    48609   -26864   -35414 
   33362    39730     4674    15650    14228   -21552   -11960    -1005 
  -45060  -101036  -120680   -46254    39753    -4157   -85114  -118664 
 -112996     5186   101824     -106  -100271   -54781    20393    76028 
   69539   -23799  -104888  -130497  -116588   -69360   -28421    10252 
   45349    26034    25965    96126   110104    71354    72300    51020 
   35334    90272    70105    -3688    49938   106093    62824    52029 
   41824    -8074     4034    34167     1839   -52042   -58084    16461 
   70186    27077   -28997   -54028   -26818    43973    41162   -30935 
  -88808  -127886   -75881    46908    62339     8646    12669    29006 
   37212    47443    21005    -4422    18195    36043    41526    52479 
   -1869   -76705   -47964    24370    31250   -13831   -42280   -48523 
  -71071   -57053     2834     8633    14178    85599    77575   -16312 
  -18866    24338   -10494   -36301     6280    47292    69418    79830 
   50850   -32043  -101689   -22532   139160   108957   -68641   -69430 
   55884    72195    50744    37935    -5168     6672    13540   -28190 
   24055    99674    76226    69968   111309    71130   -39694   -80906 
  -29046     6033   -45804   -98888   -33696    52632    29677     -122 
    3916   -47077   -63149      540   -19979   -92158   -38981    55968 
   27429   -69480   -91496   -18279    15797   -61339   -86179    12271 
   26891   -88803  -143254   -90045    -7025    49175    30774   -41622 
  -68380    15163   108653    84505    15115     -514     6564     1584 
  -12453    12159    86782    81460    -3979   -11489    11581    11432 
   85442   155621   115418    49783    42727    95931   141491   115713 
   47528    20873    95644   131180   -13305  -110612   -15186    69414 
   50922   -44576  -152815  -109052    54083   144767    95217   -20013 
  -47586    -8211   -53544   -99768   -25287    48290    14202   -24532 
    9359    -9243  -106827   -95393    34998    97280    61150    44704 
   68244    75217    81812    68500    -7440   -66016   -56092    -1767 
   44589    -2423   -78351   -72446   -43594   -31360   -20379   -47726 
  -84777   -74619   -52900   -45668   -16285    38120    72252    53884 
  -27861  -113598  -103924   -24961    33244    50558    43229    14102 
  -38955   -52363     2525    17897   -32282   -26422    31261    22447 
    -553     6100   -53275   -78428     4148    13324   -13786    42309 
   25425   -46725    -9877     1831   -56196    -6605    39170   -68048 
 -118042    -7489    81499    78920    24305   -53653   -82785   -50392 
   -9147    14292    20442    54800    91113    43461   -23004   -39601 
  -33153    42760   157224   144535     1695   -87576   -23230    81687 
   77896   -30643  -128368  -114000   -21492    36337    28619    11988 
   62882   129241    89608    13803     6749    58532   135840   106963 
  -58164  -132759   -53015     8130     3914     6913    38400    59997 
   49695    55662    47324   -53012  -107120   -21497    27143    -8549 
  -28794   -43484   -37676   -12825   -22909     7342    78871    76279 
   53852    65095    19798   -70663   -68495    41567   100601    55556 
   33981    56252    32424     3577    22311    34931    66177   121199 
   86848   -27090  -105668   -76870    54861   124362    -7334  -200600 
 -233082   -80143    58679    -2087  -154815  -179064   -72115    20768 
   21463   -33097   -58961     6098   100710    88914     1321   -40690 
  -23904    31848    65683    17858    10529   110900   135545    33284 
  -10987    45261    73817    53213    52848    39037    -9233     -944 
   56234    62546    17284     2546    32806    61108    99871   104448 
    5605   -64662   -23079     1670    -7541    32277    48785   -22492 
  -60529     4465    90348   114992    42635   -59075   -84129   -23077 
   48141    28664   -54142   -89981   -41593    73126   119327     9612 
  -81921   -68154   -59120   -28638    58019    91436    42002   -24659 
  -74168   -85913   -20805    40744   -71049  -201240   -98463    29215 
   27028    56317    28985   -98828   -65856    79425   110458    83180 
   21780   -86159   -63829    56343    32662   -76116   -80580   -39103 
  -20324     6469   -28667   -78644   -10861    58318    57069    66458 
   45656   -30831   -61460    22151   106810    78872    72966    80181 
  -67824  -141533    -3233    37222   -19196    21969    28137   -21843 
   19007    55902    10799    14753    61509    24748   -41331   -28227 
   19555    32241    -2180   -61447   -41545    33922   -26847  -130485 
  -53310    69472    73736    35148   -35669  -116326   -55598    53811 
   14510   -37416     3965   -18396   -77563   -26606    38852    43160 
   65097    52804   -25233   -31862    40572    75572    45853    -2451 
   -1805    42715    41072   -19496   -41168    33463    96817    59034 
   13147    -7634   -51507   -60068    -8766    17637   -16036   -62255 
  -95473  -105554   -42724    74659   119444    58004    -1831   -13226 
   29530   114653    94013   -42422   -58760    54613    48791   -77610 
 -124100   -88540   -28864    49217    51063   -24779   -79781  -115312 
 -109004   -46584   -28289   -49556   -54756   -64711   -56876   -63603 
  -88948   -28623    22840   -37895   -75299   -65924   -81605   -37827 
   57925    54400   -14859   -29919    -2472    51994    94032    50032 
  -13918   -29510   -36609   -19691    34176    46611     3764   -36185 
  -40955    29489   117589    94126    21230    -4613   -14051    -6047 
    1797   -26924   -45334   -29321    -9100    33701    81204    51106 
   28212    80647    47530   -60019   -84373   -58127   -25419    28172 
   72503    60833   -22746   -53145    45824    83251   -31995  -118884 
  -97987   -43382    24171    65173    32394   -11355   -23611   -29401 
  -14253    25971    38105    17338      442   -42173   -78161   -23946 
    9382   -27980     5931    26821   -43848   -14861    64556     7112 
  -78224   -82972   -50500     3552    50711    27684   -53146   -65084 
   30862    68667   -15649   -96803  -123499  -107917   -64062   -17432 
   48899    85779    29332   -17345     9334    12927    -1540    52673 
   88490    27723    -3744    18446    -7744    -7706    72851    82727 
    6834     9631    62401    43304    32256    59235    34613    15729 
   17142   -30537   -52478   -11861    11212   -15472   -69527  -102004 
  -62991    30038    76456    16417   -43134    18963   122091   130994 
   44342   -77679  -139133   -85630   -25593   -29902   -36866   -47643 
  -71750   -47227    29137   107374   111405   -13348  -134912   -86932 
   12311   -20063   -74892   -59078   -92886  -121432   -12555    82811 
   25457   -53565   -50651   -34886   -13408    81115   154365    62079 
  -66885   -27982    85185   118476    82110   -26167  -174171  -209612 
  -64621   109643   145397    62720   -55906  -123783   -43758    93441 
  110384    45302     1950   -36462   -34166    32430    36103    16782 
   96919    82216   -70250   -77011     6008    -3084   -16092   -34747 
  -88524   -93353   -53813     2118    32948   -18536   -73550   -45313 
   35812   116099   134210    79419    28831   -16822   -75601   -49944 
   17459   -22962   -51537    29763    11606   -95438   -47593    42434 
    2926     7446    75037    18954   -30072    67089    90940   -13235 
  -30945    27169    38350    30625    16988     2505    41983    57069 
  -49502  -159497  -126297    10402   105731    97923    38937   -35625 
  -82167    -8957   164037   251630   142544   -18529   -70068   -44990 
    5386    67226    92402    76275    24047   -76777  -145736   -98565 
   -9519    23278     8517   -62979  -148612  -109371     2289    45570 
   51400    48590    21179    18287    42214    31084    10598    38385 
   62279    47161    71869   156017   183004    90871     9400    43856 
   98281    87490    21064   -77972  -131113  -103100   -55690   -53555 
 -121774  -157112  -100047   -85143  -124182  -143627  -212407  -293340 
 -232817   -53528    55660    -9773  -116622  -120054   -79465   -47784 
    5081    13474   -44687   -61546   -57511   -94714   -90053   -29517 
   24216    93371   173413   195308   141181    79213    73695    68871 
   -1807   -49529    -1536    11728   -98798  -188912  -130330     -306 
   48948   -19779  -105009   -90806    20218    86732    27509   -74116 
 -148909  -163488   -38760   144899   147145    28209    51635   129878 
   88026    40457    38849    12772     4998    28512    22617   -19267 
  -74742  -115068  -114706   -68014    -2814     -266   -75959  -110999 
  -49478     6362   -18558   -93952  -153429  -136056   -64992    18463 
  130452   174840    60910   -58982   -67788    -3871   134571   229371 
  141557    41602    41936    29735    49910   134782   139820    67049 
    7595   -43422   -56239    -4241    15181   -52134   -90186   -31727 
  -11908  -112399  -177301   -89917    25016    34991   -23412   -71846 
  -95029   -92713   -54239    -6938     8234    13667    43678    77909 
  108812   123150    78984    36908    61015    94855   133864   182530 
  155104    64817      890   -30368   -52327   -72377   -60499     5057 
   54325    42761   -46750  -212975  -263195  -117722   -35230   -85227 
  -76531   -23619   -24045   -14643    38509    64130    13658   -59258 
  -23339   112968   152033    39672   -54714   -58502   -40625   -10408 
   32222    60203    93557   110004    69777    27868    29690    34406 
   20292    24550    26679   -23784   -57997    -1748    75364    76748 
   -9115  -119075  -163187  -119214   -52711   -26504   -57708  -110778 
 -131180  -129002  -110758   -45730   -11249   -67462   -91673   -25979 
   30364    64138   127772   152725    81821     9300    -2239    36105 
  122525   165907    99557    17239   -25940   -15168   106745   240963 
  243586   197034   161966    64012   -10753    49434   118433    89515 
   58325    92337   118076    84341    43345    22957   -10155   -43091 
  -40341   -14328    17906    73432   135086   136627    94112    73116 
   51540    31854    64359    73316    34432    55920    58041   -44288 
  -78890    26436   110755    56724   -72112  -121900   -51845    25154 
   -5193  -161260  -318214  -310238  -187475  -116850  -100775   -91415 
 -114361  -172442  -231757  -229891  -142174   -67846   -83688  -134884 
 -183325  -224381  -145217    83924   209449    68918  -117093  -128299 
  -61855   -27018    23267    20500   -92168  -144144   -94183  -111366 
 -174334  -102907    70817   150745   101438    40455    57207   176941 
  273323   156021   -18858    39106   155029   108090    96203   180425 
  176884   116253   104915   122081   156545   194281   185479   138136 
   91944    48874    10219    15469    82593   146021   146625    80279 
  -44639  -123581   -38385   101391   111873      926  -125198  -195451 
 -172748   -52452   110256   183500   117986    57925    59000   -20521 
 -132432   -70345    42934   -18300  -109233   -92669  -116345  -199594 
 -179013   -45894    46027    25486   -19492   -28902   -19063    42016 
  136490   146120    53478   -37629   -68104   -48681     1512    46125 
   16471   -77487   -97423   -17490    38081    72064    96310    30709 
  -35241   -22844   -43559   -94279   -88466   -69458   -83485   -91101 
  -59925   -31738   -60084   -97441   -82632   -61003   -71623   -84935 
  -70445   -26398    16054    49615    65234    17431   -41980   -12395 
   84335   170852   201180   126024   -19162   -75738   -13729    37091 
   33593    23817    47012    78466    57329    22877    35537    74138 
  105999    83437     8437   -30173    -3080    44337    59298     5509 
  -71456   -72928   -12724    -6537   -50863   -67259   -56663   -13004 
   29352   -13264   -66178   -41079   -22961   -34776     3098    37236 
    1382   -14495     8908    -2504     3845    41011      827   -58172 
   -8120    57131    35937    41268   108811    70587   -64025  -102629 
  -72559   -82037   -52856    25626    46043     2169   -60894   -75517 
    -656    60246    31329    -5722    36266   115782   118079    12443 
 -103923   -92108    31635    49838   -74289  -137632  -127339  -131024 
  -74355    39028    73939     2507   -91714  -111664   -46121   -25928 
  -94109   -79876    38714    25440  -132915  -171904   -43779    85722 
  158055   157877    69886     -892    28807    72639    26370   -66840 
  -75796    12523    67794    36600   -10835     1853    97930   181143 
  153772    69737     2779   -18423    17720    78982   153085   212459 
  173610    66911    49150   153014   208002   110702     8237    34038 
   76579    39297    21608    51095    34383    25385   102411   137332 
   79254    71418   104614    72248    35970    50716    45509     9780 
    1414    32174    85482   111800    54047   -43671   -55944    55897 
  147463    87892   -31650   -91034  -117550  -105369   -31834   -44179 
 -207174  -292097  -171644   -68627  -139488  -229122  -225357  -190341 
 -133890   -66715   -73687  -121357  -128592  -170911  -236051  -142641 
   20194   -20232  -190013  -234260  -152966   -84002   -84001  -137543 
 -164422  -126636  -126009  -195134  -216271  -149410   -58301    10604 
   40752    32020    -5887   -13093    41833    90575   144099   221014 
  225206   162713    92980    31565    63337   168139   197162   172619 
  179106   164772   120830    95165   104724   188758   283552   257335 
  146764    70911    82973   176112   265427   259379   180898   128032 
  160505   209980   145111    39759    62276    98190    18347   -27938 
   20666    33065    -1103    12976    41460     9523   -45595  -129669 
 -219024  -153712   -14315   -38899  -158662  -221195  -218407  -152918 
 -109373  -146214  -177131  -217594  -286603  -218720   -21717    42061 
  -78697  -178933  -156675   -57139    59333   113923    42344   -86870 
 -132423   -74755    36525   161145   183085    76599   -16583   -35417 
   17598   134840   193035   124031    38571    -3381   -22935    41018 
  151712   110891   -16316    20267   134889   135004    97484   108339 
  143100   176487   132912    11352   -27671    49189    89393    55568 
   27728    46043   107798   115745    29982   -14913   -12224   -28138 
   10048    48656   -20936   -73075   -22577    15216   -16402   -69628 
 -111035  -120459   -79773   -40469   -93675  -183277  -148944     5132 
   99881    33478   -82031  -105461   -76873   -68232   -42886   -16636 
  -45751   -64603    -9203    45007    33440     2563   -20344   -40857 
  -36175   -28942   -14471    49030    62039    -7631      590    49991 
   -8269   -47483    38647   102726    80668    47324     3277   -67270 
  -93533   -25453    55921    55728    -5832   -58186   -42766    27420 
   53669    -1324   -71366   -98182   -74730   -23169     7152     8134 
   51579   130021   150351    87888     9593    38328   145120   155353 
  106575    81726    11903   -20320    31352    15985    -6886    50130 
   64953    59800    83098    50994    41306   116798   125986    47361 
   23125    68996    91843    45167   -14064      435    43029    22941 
   -5350    18640    36574     9478     1734    91768   193852   143888 
   18395     7499    60028    30053   -30336   -30123   -36549   -75592 
  -64630   -35224   -47627   -24636    31366    23503    28132    82019 
   30589   -62796   -40909   -24900   -51293   -18569   -33746  -115990 
 -108535   -44094   -17267   -45766  -117738  -137364  -114872  -129283 
  -84521    24488    46201    26407    57087    12773  -150423  -241232 
 -169465   -61177   -22905   -28743    -4750    57063    76108    -7240 
 -107852   -84108    44797   142211   115992   -24508  -134068   -93800 
   50295   179091   166205    36160   -41951   -41056     2690    90944 
  114559    25267   -38187    10614    82244    81618    61136    57665 
   20370    -2830    22044    -1800   -74086  -112541  -119607   -96933 
  -50764   -33299   -29358   -10025     3837     5680   -10153    -8816 
   26596     4363   -63485   -66510    -4828    99182   165566    80097 
   -3774    58879   112467   120902   159367   134941    92434   170915 
