Origin Time       2011/03/11 14:46:00
Lat.              38.103
Long.             142.860
Depth. (km)       24
Mag.              9.0
Station Code      MYG012
Station Lat.      38.3175
Station Long.     141.0193
Station Height(m) 2
Record Time       2011/03/11 14:46:50
Sampling Freq(Hz) 100Hz
Duration Time(s)  300
Dir.              E-W
Scale Factor      3920(gal)/6182761
Max. Acc. (gal)   1969.179
Last Correction   2011/03/11 14:46:35
Memo.             
[...]
  192721   210636   170432    46627   -84790   -99526   -72656  -145579 
 -241081  -283105  -320959  -310245  -226429  -171281  -166200  -153665 
 -122696   -91161   -65618   -28376    15890    43787    74149   106085 
  110085    98139    82303    60863    49885    54533    60960    69443 
   93845   123930   137944   132247   102115    62944    44577    26327 
   -5702   -22976   -39056   -76242  -116300  -153504  -189911  -215515 
 -222823  -215189  -217804  -238663  -242618  -217552  -190745  -178006 
 -181149  -186251  -168254  -133617  -105288   -81352   -48609     -866 
   63442   132333   187280   237563   297461   326716   255338    90190 
  -17692    49037   128978    64953    15753    45509    10174   -38336 
  -25148   -23664   -30345   -36725   -73626   -98194   -95396  -114446 
 -159415  -201699  -239026  -262805  -253639  -226932  -203237  -170382 
 -118320   -67624   -42904   -41707   -45446   -37558   -18901   -15719 
  -27701   -13772    34576    92423   156150   228917   264458   189579 
   42734   -36850   -26839   -31964   -73851   -81609   -57070   -42880 
  -16566    15230     9111    -9115   -12606   -21827   -46178   -81104 
 -121751  -169796  -219780  -241800  -234703  -231201  -226163  -199002 
 -159352  -106174   -43333      529    56527   161250   246782   237052 
  108521   -70983  -101081    26504    43898   -37319    13325   100347 
  106665   129029   123317    56594    23834    -4565   -51367   -69765 
  -94141  -141308  -167455  -179917  -210138  -233559  -217089  -178714 
 -146379  -116097   -74714   -39044   -32413   -26786     8472    49516 
   76052    86182    79431    78164    81399    42918   -43474  -102399 
  -75472   -31348   -48055   -74722   -74463   -74894   -53792   -16812 
  -18003   -42638   -55435   -63228   -72593   -84890  -109171  -143107 
 -169351  -169686  -128576   -55200    10736    49724    77586   110327 
  151255   186032   190475   160408   100110    33026    25459    66378 
   59352    19760    12465     1210   -30094   -52069   -81087  -123336 
 -159445  -188506  -213581  -231554  -225984  -183361  -123972   -79785 
  -55526   -25916    18431    54217    73585    78618    47768   -26525 
 -106335  -145538  -142378  -125900   -96302   -47256    -3630    38838 
  101220   148035   149923   130455    96763    36337   -18785   -31953 
  -36440   -60389   -77010   -85254  -102512  -115251  -113505  -107566 
 -103444  -102524  -104540  -101500   -91667   -79302   -67144   -65057 
  -82676  -114872  -135477  -124727   -97476   -65697   -16003    56200 
  130587   181024   199212   192769   174861   160639   157370   161111 
  152060   118561    80418    35106   -33431   -93637  -133100  -188135 
 -256730  -292750  -267614  -211777  -178698  -143642   -78825   -57934 
  -81072   -65580   -48668   -60141   -46948   -27864   -17020    18847 
   57351    77508   105986   146173   168547   164153   138980    95715 
   64208    56997    31095   -13182   -32216   -38896   -51845   -52757 
  -53178   -73180   -88100   -85043  -105831  -160501  -194007  -194962 
 -197179  -190463  -158505  -124635  -100127   -67664   -19499    31409 
   66467    75580    63164    48091    43991    48489    55373    35296 
  -21073   -50777   -45265   -57242   -46200    11013    34337    26553 
   59506   106980   109276    76329    23940   -41104   -85799  -107560 
 -127349  -153625  -186374  -190633  -157941  -130173  -110602   -87761 
  -70658   -54753   -39125   -36164   -47959   -61351   -67084   -73054 
  -80542   -85360   -97757  -116264  -119548  -101318   -78554   -61658 
  -41989   -16341     5927    22638    39989    53234    50236    40013 
   32970    20148    10228     8167    -5407   -21615   -27016   -39668 
  -65447   -93981  -123005  -149466  -170117  -185213  -179970  -137228 
  -69264      -88    58408   113834   165447   170534   136361   125215 
  111618    58579    11844   -11561   -21040    -9114     3925    11596 
   17736    -6397   -49507   -79514  -106511  -127683  -129489  -125982 
 -133085  -141583  -128040   -98277   -63559   -15031    29786    63840 
   97950   105203    85824    68348    44752    16090    -1851    -8563 
  -17258   -43238   -66511   -79031  -108026  -138074  -148520  -165112 
 -189992  -192063  -174319  -150345  -105447   -55028   -30325   -12725 
   18162    53732    88488   116818   132300   126035    77379    -2477 
  -51882   -41792   -22328   -23467      149    58586   105968   120760 
   83899     9790   -27903   -30477   -53049   -74638   -74682   -77722 
  -71462   -44668   -23384   -12253    -5036   -10316   -23927   -29667 
  -32198   -47700   -62916   -62725   -58507   -50086   -36484   -36395 
  -53255   -77890   -98896   -94462   -71571   -66307   -78826   -77795 
  -58212   -37083   -14862    16632    48519    66335    74205    73867 
   46134      826   -26372   -45144   -68086   -67386   -56323   -63114 
  -55171   -21382    -7352   -29643   -51627   -48757   -50868   -79223 
 -103091  -104186  -102619  -112496  -122577  -108850   -70465   -41859 
  -41880   -50194   -40112    -9830    10776     6102     2943    12397 
   15491    11175     2878   -12960   -18552    -7403    -2520     1254 
   14288     1495   -35943   -56770   -86387  -147327  -192891  -214664 
 -242932  -253235  -203543  -125169   -76785   -47808   -17932    -1469 
   14045    32800    37977    39141    31557    -3379   -47796   -62950 
  -37114    -7604   -12705   -31247   -22208    -5205   -15993   -30112 
  -27353   -30255   -38963   -34633   -19711     -615    13894     9235 
   -6423   -19132   -24766   -26152   -34917   -32976   -17002   -27888 
  -50823   -44338   -19428     7506    29065    30330    18158     3854 
  -28467   -69468   -94441  -122888  -161710  -186484  -181636  -138435 
  -81428   -38232     4382    38167    45419    58072    86626    89746 
   63930    50042    57368    55885    34818    16063     8714    14286 
   38242    53516    39357    17640    -1615   -16209   -25858   -55460 
  -97307  -121770  -141753  -171677  -201998  -215300  -185093  -127309 
 -102258  -107726   -87250   -33108    28785    75777    67074     5367 
  -23024    11428    37963    37633    38917    29047    14851    21153 
   41390    67254    76163    59844    54396    58319    50215    39405 
   23989    12078    15500     5912   -29742   -70657  -113296  -162777 
 -204692  -231101  -241478  -222645  -190020  -176544  -167559  -135984 
  -97879   -79522   -76052   -69390   -52016   -17230    31771    72525 
   97803   117306   126101   132510   164444   203495   202192   138906 
   30416   -35633   -11381     3479   -43076   -78631   -89179  -102852 
  -99231   -83369   -85259   -93748  -101984  -120402  -140730  -174104 
 -233206  -296780  -346445  -357316  -316345  -251694  -185394  -119673 
  -48484    22980    69661    96286   129171   162769   179231   180502 
  178399   165133   107847    21263   -30739   -48418   -50762   -25145 
  -18038   -44578   -49242   -50526   -77609  -108233  -138273  -154792 
 -145698  -131550  -122490  -111310   -89966   -67821   -60033   -50527 
  -29245    -7949    17228    46381    69363    84717   100711   119128 
  101568    54223    61291    94398    53662   -10222   -29325   -58601 
 -106489  -123275  -138537  -185127  -213265  -192415  -170266  -175330 
 -168204  -134263  -109987   -97435   -74366   -44286    -7587    41857 
   82567    72855    16797   -25022   -22596    -3582      -54    -9040 
   -1266    33233    65440    68884    52214    20941   -24473   -55972 
  -73011   -89918   -70515   -23082    -9581   -13212     9394    37344 
   46234    38374    21314     4383   -22369   -68756  -111084  -132914 
 -140873  -138400  -127042  -107452   -76954   -44743   -36405   -45434 
  -30832    -1713    -9935   -62772  -110156  -117064  -110025  -109049 
  -90934   -46454    12633    74756   120461   131611   118820   100577 
   65727    12975   -21036    -9764    11735    -5153   -23460   -11574 
  -11971   -16004     1594    15169    16078    -3555   -50963   -93841 
 -118015  -140064  -146981  -126349  -108076  -105056   -87422   -46361 
  -19848   -26037   -43105   -64724   -87276   -84818   -47374   -12422 
  -10660     8935    84466   175459   248843   237118    78001   -96867 
 -118070   -60013   -75534  -125714  -133346  -138123  -135043   -87928 
  -48873   -33558    -9944    -1183    -9865    -6994    -8369   -25731 
  -44364   -76259  -121154  -135259  -109406   -84862   -74949   -47254 
   10696    55141    47733    12852   -25601   -80182  -119228  -111436 
 -124633  -188178  -230172  -239791  -232268  -179670  -119055   -96143 
  -73963   -15274    56998   102831   136641   168906   155570   107303 
   67818    16271   -43195   -60536   -53084   -44845   -21999   -20303 
  -36789   -16123    -3996   -51775  -128214  -223290  -317527  -356714 
 -332219  -273164  -218700  -184724  -124676   -11305   107226   209201 
  334088   445255   405108   174339   -64759   -86011    37948    38078 
  -57195   -64733   -39714   -53919   -67634   -88854  -113351   -96313 
  -54802   -66135  -148418  -193060  -153297  -134475  -140796   -94211 
  -41807    -9109    43310   100078   176925   279308   307060   199135 
   48880    13592    72385    47845   -26478   -30075   -47894   -96631 
 -104521  -106630   -96343   -55250   -35531   -40655   -32666   -23945 
  -45608   -50589   -21538   -43375  -101322  -132812  -177739  -235390 
 -258973  -232863  -156809  -105388  -121813  -108119   -36458     9477 
   36746    75281    75359    45246    58270   113471   158681   183602 
  213906   265021   303685   283200   224872   164432    80023   -20393 
  -74622   -84657  -104180  -132202  -160107  -214029  -278943  -311175 
 -297201  -277303  -299280  -311792  -257571  -170467  -103474   -90510 
  -87583   -60570   -59859   -48599    31922   141996   250635   321270 
  308464   227370   119323    62224   102104   127827    69696    28202 
   37594    29631    -5444   -39110   -79616  -143767  -210326  -269342 
 -342791  -409008  -428562  -420514  -410071  -373668  -293924  -204728 
 -146435  -113630   -61663    61108   258700   429443   386620   115931 
  -30194    91102    95316   -87514  -151408  -116721   -77362   -15890 
   13928    29832    56470    57058    50633    61864    63191    31812 
   -6286   -34089   -70007  -116662  -159796  -188865  -215290  -261574 
 -307519  -298182  -223888  -140348   -91892   -64113   -14015    59427 
  101398   102454   105910   104750    74332    39407    24125    16694 
    2648   -10604   -17627   -20333    -9915     6288    17068    31689 
   46360    64901    99027   115115    96793    77937    50138    -4714 
  -48733   -66761   -81670   -97591   -99447   -63726     1759    48936 
   69849    75187    11002  -137987  -271859  -311733  -287856  -265877 
 -240122  -183928  -133265   -80507     -303    51766    73832   101048 
   97634    61673    31709    -3546   -66635  -105603   -67227   -41075 
  -71453   -33130    69385   120604   156641   229327   264301   206897 
  119691    67823    19045   -45246   -73573   -73030   -89511  -101322 
  -99910  -116618  -140924  -151899  -152309  -144138  -131608  -131806 
 -155882  -187837  -211382  -226505  -221176  -190678  -154710  -112007 
  -53248    17446   103284   179414   219631   252550   293410   313178 
  258826   114395    22260    73891    75835   -41784   -74976   -44808 
 -106800  -203912  -277970  -315967  -270363  -219053  -225645  -188426 
 -128588  -153786  -178144  -156402  -159995  -155895  -129386  -119162 
 -105805   -67581     9274   115731   184264   164066    77862   -15683 
  -66731   -54765    -7525    28166    51090    93056   144771   182203 
  227130   254285   197758    88526      399   -36683   -53901  -109058 
 -183855  -259767  -375124  -467426  -437067  -352057  -307986  -251862 
 -141779   -35511    18275    34593    75349   118691   111021   106944 
  104026    62929   -10170  -131449  -200747  -150010  -120144  -139240 
 -122429   -80521    -8364    67616    76011    58406    48772    10053 
  -42880   -80981  -119316  -158759  -150455   -81079   -29917   -45016 
  -80579  -112516  -154084  -190756  -221203  -270585  -335147  -391464 
 -434311  -440673  -382846  -317635  -254280  -106379    56365   141293 
  265503   541750   977073  1389955  1307888   655928   147913   132366 
  154336    49974    42720    65390   -51145  -197334  -255552  -278816 
 -256735  -316955  -599437  -779941  -663871  -473063  -275431  -146467 
 -203279  -251246  -212955  -215287  -187459   -94822   -28620    36071 
  167375   436033   926206  1308716   839821   -85948    24659   727488 
  495266    65568   200653   122470   -70986   -29940   -93306  -207920 
 -287610  -490461  -705295  -803231  -854667  -849766  -718434  -558574 
 -478888  -434818  -362850  -246001  -152025  -162072  -186792  -143904 
  -90072   -37468    40923   156252   343047   583729   650475   244292 
 -359624  -459254  -173805  -119386  -127548    -4954   -52437  -177058 
 -193115  -190954  -149713  -110703  -166281  -249334  -306208  -310234 
 -259830  -241775  -271723  -268140  -226450  -194946  -152350   -54584 
   72429   145249    96896   -17187    -4305   167600   262804   221339 
  202090   199437   140270   108462   201861   317564   350970   420890 
  565333   654451   565326   312488   190146   242920   119940  -109221 
 -186041  -247062  -351063  -427444  -563568  -792227 -1121147 -1467615 
-1433411  -931264  -652426  -888653  -914966  -566364  -443333  -462399 
 -343568  -265199  -212653   -87272    64745   298528   721751  1551147 
 2748177  3071907  1431936  -286217    96179   766611   217193   131322 
  463285   196724   173204   339388   134975   -23684   -86481  -122959 
  -67752   -22847    33096    -7921  -240841  -436392  -499590  -600013 
 -756846  -845143  -878925  -913990 -1012899 -1250717 -1376611 -1172908 
 -980932  -952393  -812898  -627693  -565903  -515743  -416790  -286799 
 -118031    55314   188628   288427   414954   603891   862553  1360978 
 2232789  2486384   619709 -1523681  -664721   763005    -8645   -82024 
  644710   151816    27958   392118   290537   316418   323785   170308 
  146977   204670   287877   292710   204283   156963   172725   266846 
  401244   328557   -45975  -451300  -576329  -405611  -225648  -254635 
 -393876  -473407  -503469  -536192  -548915  -556992  -566162  -513457 
 -390774  -224561    15382   348774   582115   349555  -163256  -166364 
  235793   195326   -29478    59444   130224   231313   427818   361169 
  157700     7330  -145863  -271208  -401410  -555942  -685699  -733359 
 -619760  -405784  -251506  -178737   -99256   -11598     3501   -22826 
    8590    66561    91197    92024    59149     6907   -30464   -87113 
 -178745  -244342  -241495  -191000  -136731  -100571   -71861   -42793 
   -9261    47517   124196   181971   210409   263942   383332   510221 
  474925   158192  -193168  -241447  -178913  -270297  -336659  -328252 
 -361915  -392798  -447509  -500890  -443660  -363738  -337523  -308175 
 -267022  -227455  -167549  -107606   -91473   -88053   -49187     5195 
   41651    55797    60616    89482   175858   303493   398992   396517 
  317201   263919   288925   342295   392579   436718   450611   426707 
  355132   245217   163951   151913   179608   187583   154029   118967 
  104160    77908    11021   -66367   -87090   -47230    -3620     5524 
  -28964   -60496   -19407    41317    40246    42421    85618   103877 
   91583    73286    47536    18617   -18594   -69145  -124528  -168653 
 -192158  -213660  -250976  -292425  -311478  -286459  -244342  -245925 
 -285488  -303807  -280200  -236851  -211516  -220816  -230090  -208348 
 -163154  -115774   -94811   -92605   -68109   -23629    24890    84538 
  141216   141667    15808  -220625  -430413  -519672  -506809  -451891 
 -441510  -496341  -522235  -490742  -454450  -407419  -352323  -325380 
 -305536  -244064  -142274   -59386   -11623    60936   165005   255836 
  334803   402251   434550   445525   449721   425241   379275   342733 
  281302   153375    57174    83438   131420   130596   129741   133901 
  113216    54568     7024    -9102   -69909  -155934  -196752  -201754 
 -194439  -231071  -338102  -442695  -462830  -345554  -171718  -108658 
  -94749     3080    79978    74899    81868   104646   124698   173298 
  252264   339144   392352   405310   375472   269950   189969   237587 
  289665   257919   207947   156252    97682    58405    29764   -17753 
  -82782  -130131  -168965  -242887  -343162  -447498  -523968  -515381 
 -462140  -427256  -339494  -232619  -236650  -245265  -188295  -181917 
 -183126  -137876  -119933  -118539  -106822  -106640  -111831  -112353 
  -83278    15613   138835   147090   -30639  -275725  -391564  -348588 
 -295343  -306431  -324887  -315826  -304676  -305626  -272594  -193210 
 -149506  -148415  -100263    -4923    72881   132714   196182   251665 
  301921   370390   455194   529996   563437   510981   340060   124861 
     327   -73305  -207522  -285192  -222940  -143507   -55154    44663 
   67185    71648   106720   115315   115540   125548   118174   108330 
  110688   109333    93523    40157   -63413  -176804  -259990  -281555 
 -227942  -148391   -90380   -93672  -147456  -143147   -96195   -83084 
  -26085   104204   204587   162711    14527   -21703    69478   122290 
  175948   253565   254116   229769   242571   228801   200222   218668 
  239113   202695   126690    47722      181   -34092   -96688  -143090 
 -152798  -172437  -192016  -198244  -202814  -189995  -181585  -207787 
 -230418  -224366  -205992  -179421  -162464  -179947  -213276  -233068 
 -239135  -243515  -244395  -222627  -180806  -147219  -117811   -75991 
  -38969    -7199    35953    71220    86793    93262    90437    84230 
   61351    -3553   -77016  -120318  -156979  -203980  -234295  -234203 
 -217415  -193484  -170191  -136393   -60522    18123    29464    28244 
   85192   136517   154563   193650   208960   168049   159303   195893 
  213634   217743   236924   241623   128547  -134275  -312894  -226826 
 -128532  -224220  -321358  -331536  -361971  -379704  -337030  -277831 
 -233834  -201061  -130471     -508   126095   168234   110147    40718 
   48057    91161   101330   120270   181732   218572   207746   201144 
  186548   101091   -37562  -146116  -174537  -132001   -86730   -80060 
  -61206    -2818    83641   215315   328883   298377   202907   238809 
  296828   198817   133705   185886   190257   180421   141262    -1462 
  -88012   -86545  -130764  -205189  -261082  -304581  -310307  -290312 
 -306639  -338666  -324088  -290875  -291979  -304571  -309510  -330806 
 -349895  -337850  -317709  -303876  -279123  -238339  -191287  -144753 
  -98659   -51172    -6475    36541    84234   128550   170957   214994 
  228191   206290   186325   157900   108782    83334    87915    87552 
   88620   104163   137890   205538   278248   289603   234901   173569 
  132579    94518    64664    44991    -3857   -80613  -132413  -162675 
 -210443  -259752  -276000  -240021  -165317  -140299  -193641  -215946 
 -176241  -148826  -123034   -72532   -34923     6266    79140   131966 
  140352   140969   132076    90536    30935   -36828  -110538  -153444 
 -149109  -137104  -146867  -157101  -133723   -92393   -72303   -65742 
  -58620   -57971   -46045   -12187    23145    58895   111896   167636 
  183587   141178    46063   -75065  -159297  -221343  -333312  -421232 
