Origin Time       2011/03/11 14:46:00
Lat.              38.103
Long.             142.860
Depth. (km)       24
Mag.              9.0
Station Code      MYG015
Station Lat.      38.1037
Station Long.     140.8708
Station Height(m) 3
Record Time       2011/03/11 14:46:49
Sampling Freq(Hz) 100Hz
Duration Time(s)  300
Dir.              E-W
Scale Factor      3920(gal)/6182761
Max. Acc. (gal)   353.227
Last Correction   2011/03/11 14:46:34
Memo.             
[...]
 -153627  -137778  -120779  -107245   -97116   -88334   -77231   -56471 
  -28428    -3152    15894    27359    28556    15645   -17149   -65284 
 -107219  -129879  -145348  -160734  -160976  -136900  -103000   -80050 
  -75077   -79291   -77335   -60353   -34216   -14151    -6477    -6927 
  -16034   -30979   -41035   -46038   -57786   -83575  -113819  -131927 
 -136581  -136669  -134787  -134874  -141807  -145112  -140064  -141829 
 -147718  -144074  -138011  -131462  -113415   -80600   -36591     8204 
   41395    59700    68817    73945    73122    71969    83730   102669 
  115422   121708   120315   111282   100759    83617    54190    23648 
   -2897   -33660   -67174   -97632  -125185  -145431  -157026  -171870 
 -193339  -209783  -223013  -238916  -246373  -246953  -247725  -234873 
 -207495  -172380  -124220   -77859   -50489   -35804   -28260   -21492 
   -7971     3626     8021    17584    34578    46678    50463    45197 
   23905   -13749   -53646   -73382   -69691   -64914   -69715   -75985 
  -77772   -73113   -60975   -40459   -19746   -12038   -13110   -12912 
  -13186   -14611   -12621    -6825     1207    10567    15047     9906 
     352    -7851   -13901   -17383   -17895   -16431   -15747   -26544 
  -60629  -103903  -128868  -138365  -150174  -159706  -157644  -146447 
 -127388  -103604   -85493   -78624   -77816   -76492   -78241   -89724 
 -104669  -113312  -114846  -110424  -102163   -92562   -78766   -59109 
  -42880   -38825   -38680   -36383   -38140   -39077   -36749   -45440 
  -64422   -80171   -93563  -108423  -122427  -134079  -140989  -142859 
 -142194  -137244  -123048   -99404   -73485   -53550   -47380   -57340 
  -70185   -75692   -82183   -91979   -94837   -89369   -82233   -75063 
  -63005   -43549   -27127   -25316   -28685   -21775    -5860    13567 
   32629    46511    55283    51493    28687    -2213   -43229   -95831 
 -126449  -124727  -118936  -111984  -100704  -101395  -112115  -122231 
 -132796  -140439  -140819  -141557  -152071  -167519  -179269  -185980 
 -183670  -174333  -167965  -164184  -161010  -158695  -151251  -137904 
 -117059   -82800   -44036   -12643     9369    19846    20613    13054 
   -4287   -22564   -43197   -81368  -129559  -172545  -209228  -226541 
 -210752  -176745  -140980  -102766   -69922   -55037   -46472   -26896 
      39    26278    49702    71014    91465   104983   109414   111566 
  111137   108319   111395   115626   104931    79491    51248    22940 
   -8154   -38132   -59315   -73125   -86161   -95665   -93048   -76950 
  -55032   -32002   -11478    -2781    -3017     -730     2383      932 
   -7970   -23221   -32535   -39024   -65026  -104850  -133771  -151744 
 -168139  -187936  -215742  -239216  -247313  -249260  -244477  -224349 
 -197723  -175601  -161417  -159339  -161834  -155861  -142670  -123520 
  -97433   -71805   -51627   -41270   -44560   -55528   -70724   -91787 
 -111549  -120650  -123229  -130068  -138912  -135971  -115382   -86122 
  -61941   -47060   -33304   -15159     4335    26049    55128    87129 
  111201   125828   129596   113697    84547    60875    44517    24014 
     106   -14590   -17003   -16597   -21750   -34044   -51109   -70390 
  -87809   -95051   -88151   -75816   -66709   -57268   -43641   -27258 
   -3757    23089    36436    39610    47582    59257    69775    74538 
   69760    62091    56943    48946    37531    32357    29528    11703 
  -18870   -42819   -56720   -73799   -96742  -113470  -113879   -97601 
  -77009   -64240   -55757   -49535   -54880   -73633   -91110   -95806 
  -96071   -98176   -97077   -96328  -101330  -110607  -124120  -138599 
 -145564  -142814  -136654  -131943  -126422  -120154  -125267  -144052 
 -158489  -166422  -177893  -185187  -184126  -177525  -159358  -139301 
 -133343  -126967  -106347   -87283   -73685   -49984   -23579    -8184 
    5951    20974    26220    28077    29684     9306   -35968   -82709 
 -123662  -148991  -154323  -164751  -174397  -161200  -140904  -124156 
  -97364   -54556   -10328    19240    30257    22705    14733    25734 
   39214    39044    35218    34106    29052    13110    -8554   -24738 
  -40644   -67603   -93342   -99763   -98872  -105705  -108245  -103994 
 -109839  -125755  -136422  -132665  -120507  -118154  -127216  -129093 
 -124606  -126896  -127445  -113362   -87171   -63812   -50310   -27726 
    6325    26322    31702    37629    42545    41794    39915    39863 
   30697     1630   -37426   -62430   -66706   -74843   -95895  -107429 
 -111354  -123181  -131924  -136242  -147239  -152964  -145146  -139893 
 -148616  -166258  -184360  -194242  -193523  -194842  -194554  -167205 
 -126281  -110827  -113141  -100932   -77568   -75560  -104700  -133819 
 -143915  -148440  -154608  -157377  -145654  -117597   -94156   -88101 
  -95126  -105532  -104994   -90722   -75633   -65191   -46406   -20292 
   -8765   -13059   -18667   -18124   -11559    -3891     8978    19306 
    1334   -36695   -60611   -75064  -111261  -147189  -143436  -132097 
 -133386  -115324   -89192   -73666   -66273   -92638  -136731  -152633 
 -161115  -175849  -175890  -172303  -165685  -142893  -114308   -81949 
  -54982   -51166   -46970   -25660   -13701   -17073   -24697   -37560 
  -42341   -39732   -47350   -44099   -18070    -1246    -2963   -11232 
  -22343   -22168    -6573     4492     2986    -3912    -6219     6496 
   23091    26519    29182    42619    50747    39446    23356    28876 
   50316    54591    26798   -26388   -86069  -126355  -148966  -173308 
 -195279  -203039  -190497  -161503  -146562  -163210  -184135  -191874 
 -199330  -194012  -151973   -92039   -42994    -5110    26357    41759 
   38182    36220    49135    63912    69958    64184    39307     6659 
  -10443   -12160   -10730   -11932   -21129   -43461   -75084  -102631 
 -111383   -94350   -68921   -60143   -62745   -64523   -69974   -80506 
  -96058  -103973   -81148   -50559   -50949   -64547   -70191   -86129 
 -106356   -95123   -55528   -29686   -35905   -49360   -42560   -17802 
    2982    12653    22880    30015    21251    -2880   -38740   -74061 
 -100041  -134388  -177210  -196312  -187107  -164990  -118500   -48653 
    9035    38711    46875    36609    18992      427   -25302   -50708 
  -68673   -90529  -115157  -127565  -128765  -126701  -121742  -117234 
 -116254  -119967  -135231  -157659  -180887  -213267  -242679  -249453 
 -249208  -254181  -240860  -199670  -160251  -125750   -79099   -55723 
  -68315   -77509   -83053   -88613   -82345   -71263   -50718   -20272 
   11305    40369    48698    37856    26766    10568   -11412   -26035 
  -21884    -2883    -6537   -48494   -85826   -89633   -77721   -71415 
  -73524   -80409   -92618   -99596   -83431   -40707    17616    63449 
   83484    92503    90131    78344    65586    44692    26711    26995 
   23775   -13139   -70007  -112926  -143197  -168327  -184619  -198942 
 -211918  -223235  -229762  -214467  -184046  -151470  -103252   -56508 
  -44518   -34410     4536    34273    44112    59447    65033    54999 
   51811    49335    42735    38076    21110   -11709   -47739   -81595 
 -114814  -153943  -188114  -191579  -166523  -148840  -162637  -181240 
 -180751  -181163  -176996  -142354   -90452   -48072   -29957   -27701 
  -19172    -5761     1541     5219    16394    35528    38006    15230 
   -5644   -11629   -12298    -3911    17653    34309    25401   -11156 
  -49892   -66800   -78833  -110494  -157680  -205188  -244428  -266186 
 -255151  -226584  -222347  -239595  -246446  -243035  -225716  -176084 
 -117357   -82062   -57491   -22904    12178    28648    23957    11590 
   16415    46277    74432    94974   125902   154311   167963   167754 
  129548    55881   -10523   -67475  -119882  -131733  -113557  -114708 
 -127148  -132616  -146136  -162439  -172287  -178858  -162770  -122990 
 -100438  -116093  -148923  -164973  -157185  -155439  -171202  -185053 
 -194321  -205231  -215683  -221577  -210081  -186460  -173555  -160035 
 -123221   -73254   -29613    -6032   -10435   -25299   -24839   -13593 
   -9874   -10906    -9186   -11936    -8880    11275    27819    49920 
   95719   131732   148557   164254   164238   148213   135435   114859 
   79709    52306    37838    19973    -9138   -46903   -91512  -145873 
 -194006  -206461  -183115  -139321   -89368   -53775   -22433    23634 
   51416    44021    46151    67552    68927    52930    44062    37323 
   52850   102375   125118   102000    81655    63465    26135   -14279 
  -51670   -84413  -102146  -128779  -177212  -209025  -217684  -232396 
 -243081  -243276  -259375  -284515  -299608  -308492  -301419  -279476 
 -262966  -249077  -238374  -239228  -233153  -214219  -195955  -165534 
 -131625  -120758  -107221   -83004   -75566   -69014   -45853   -27467 
  -27609   -32572   -28594   -12586    17003    41890    32409    -8247 
  -46502   -69605   -97013  -112817   -87457   -56549   -43617   -27786 
  -13337     3022    27983    34576    21006    12982     9872    -4497 
  -33720   -58079   -49900   -15755    18024    49613    85264   117474 
  136889   147428   150435   129113    84537    33197   -13955   -35822 
  -33653   -29635   -19357      -36     8915     -345   -20467   -46634 
  -74262  -100327  -117479  -104703   -70194   -53589   -60963   -74123 
  -86677  -100552  -123475  -145250  -153576  -172862  -205301  -213292 
 -195545  -172276  -142199  -117621  -119190  -139077  -167015  -197260 
 -220376  -245072  -269359  -280506  -295297  -319592  -335092  -339232 
 -327214  -283479  -220224  -172005  -146208  -123049   -96865   -72688 
  -48651   -25473    -6205     1877   -12244   -40008   -60572   -68460 
  -63959   -46780   -37627   -52391   -65106   -62979   -58485   -34578 
    5147    27154    43060    64719    65035    45275    35375    31998 
   14805    -1625     -328     2547      513    -2235    -8745    -4681 
    7734    -2434   -19135     2388    41738    52915    54408    78887 
  109725   129840   145471   148583   116251    40368   -44164   -82702 
  -78011   -75579   -87144   -98168  -104695  -119414  -150017  -176354 
 -178772  -163327  -144602  -132392  -121997  -104171   -96037   -97783 
  -68141   -27339   -31387   -57604   -74214   -92414  -114505  -124629 
 -108320   -74155   -34132     3555    20563    26117    37919    35378 
    6514   -20251   -23133    -8927     7494    15332    17552    14782 
  -10158   -61414  -114991  -147322  -163644  -176091  -175282  -163146 
 -156986  -152800  -154308  -173588  -181547  -163830  -146100  -113881 
  -42972    32635    81432   125328   178744   212758   208642   186395 
  171358   161349   143214   123986   110365    83635    30034   -20880 
  -38643   -53845   -95275  -133762  -158719  -186845  -203381  -207830 
 -218884  -217257  -199662  -190688  -181174  -168898  -162222  -143689 
 -117152   -94819   -69183   -47182   -25026    13173    44674    53995 
   71216    99165    99446    70763    51753    49050    32662   -13681 
  -77154  -127308  -149434  -163223  -191450  -231565  -258000  -264640 
 -270074  -260992  -218761  -168553  -130283   -95066   -71883   -79371 
 -106394  -132020  -141209  -130848  -126226  -144296  -168062  -186591 
 -208047  -226950  -235019  -245820  -259533  -257840  -243809  -228936 
 -203332  -162652  -136295  -129680  -109128   -86025   -79305   -56975 
  -24174   -17958   -28061   -42139   -68832   -98771  -126235  -148823 
 -139390   -96269   -56559   -35373   -30594   -38777   -46430   -48235 
  -49968   -55182   -49363   -26466   -12584    -7103    13203    39847 
   50495    33821     3510    -6294    11386    25568    29420    54273 
   92461    96006    56210     1729   -43099   -66455   -77779   -95942 
 -121984  -149303  -183416  -222940  -253166  -276525  -298585  -309148 
 -313016  -306745  -257765  -174165   -98205   -48039   -29756   -16475 
   22356    58696    76926    88477    98460   127153   155687   149394 
  142073   153335   151912   140028   137642   134854   112082    63311 
    2819   -51348   -87337   -92704   -71687   -43842   -18128    10862 
   43557    62400    72551   106331   151763   177070   183120   158468 
  107265    84942    98078   105112   113030   131397   135043   130941 
  133309   119770    81233    16453   -81194  -178962  -248984  -312376 
 -377118  -427180  -462437  -486483  -502797  -516133  -517101  -517524 
 -540739  -554897  -544153  -558959  -593460  -593996  -579815  -581922 
 -567843  -516758  -449390  -388793  -350189  -327092  -310021  -305921 
 -297485  -265065  -230816  -205294  -168242  -111269   -41205    26169 
   89180   154777   188858   168422   135712   135958   175733   230568 
  269849   297138   335632   376746   392116   375122   331114   272802 
  229895   215099   212811   203382   168490   101243    18572   -51497 
 -100930  -146593  -207314  -297039  -409645  -515035  -577956  -553162 
 -432193  -287949  -176697   -87459   -25160     2287    29934    73399 
  122911   183020   241838   263207   231539   175921   126118    70980 
    -317   -65424   -91536   -77917   -64781   -66033   -55624   -35899 
  -29539   -32510   -23405     7428    39950    58114    77528    87389 
   56116      375   -51447  -102348  -158939  -215722  -265187  -310014 
 -341317  -329412  -283702  -250658  -236474  -240059  -276842  -306937 
 -310684  -333251  -369535  -403680  -454154  -495236  -486124  -417837 
 -293779  -147047   -37844    14317    39023    56258    74949   100745 
  114382   110970   128482   185981   257657   321509   375543   416083 
  443878   470879   491482   479022   417328   321340   234199   189193 
  176382   168164   161629   167277   179400   177210   144235    96785 
   59880    22336   -28098   -84826  -149443  -220701  -286501  -334496 
 -366822  -405415  -449226  -474163  -474366  -441102  -381243  -335388 
 -289849  -215962  -170875  -175874  -172004  -168431  -201814  -242790 
 -271244  -293034  -313381  -355229  -420043  -480112  -528272  -563924 
 -578617  -573954  -553427  -525276  -500175  -478563  -464407  -443786 
 -399414  -372464  -385666  -388610  -365766  -350172  -349901  -347695 
 -317353  -249209  -165332   -88867   -22066    48057   110748   134583 
  125551   102544    68686    42076    33329    25518    10058     2010 
    8185     8114    -7621   -20174   -20067   -13612      435    24630 
   52083    81207   112596   129546   130402   147598   187838   222679 
  241995   251300   250315   239853   215967   167416   100784    42149 
   12736    19923    49132    76452    93718   101077   104757   112574 
  112702    83514    21300   -54677  -127851  -196700  -253790  -291668 
 -315771  -332672  -348239  -346846  -295735  -199375   -82791    32543 
  104971   121925   124408   137760   158594   172323   157450   128381 
  123126   143288   169599   188832   183501   144206    88270    41919 
    9137   -23848   -66895  -121190  -178812  -230110  -273215  -303034 
 -296404  -236816  -144293   -51994    14915    50322    77371   115987 
  169494   227443   265066   278802   284451   287638   289990   292851 
  292236   283280   262385   216281   138821    58574     -295   -45671 
  -81656  -104157  -113452  -109262   -99949   -99068  -123635  -190304 
 -276621  -341061  -378942  -402186  -418197  -438303  -467208  -496195 
 -499952  -456824  -380600  -302936  -239122  -179813  -109689   -32735 
   28726    69071   123503   202728   249895   238794   209924   186512 
  156295   101235    16475   -75237  -143066  -174588  -191069  -227458 
 -274184  -297657  -305810  -308340  -270838  -185850  -107726   -67991 
  -43956   -25443   -28736   -46119   -57164   -76880  -118885  -153845 
 -163174  -165271  -165870  -149400  -112532   -69477   -48351   -69192 
 -118056  -178092  -236690  -269750  -274281  -265569  -256482  -254006 
 -237622  -200222  -179711  -183813  -192686  -215594  -233558  -213474 
 -179201  -129338   -38245    45681    79510    76506    41998    -4143 
  -35074   -74785  -151079  -238344  -281635  -268892  -254910  -273602 
 -301515  -319731  -331821  -335910  -318738  -286601  -274353  -284538 
 -274364  -252731  -253930  -231114  -167369  -131359  -127460  -114380 
  -94420   -69897   -41671   -18412     3345    15342    19328    36281 
   58757    75944    98777   125391   148207   171428   174774   123160 
   40822    -9667   -15522    -7583    -3587     2955    23401    47463 
   51807    44645    52158    72992    96122   127320   168933   208872 
  234660   244229   250474   265989   285578   292214   267555   212922 
  162720   143172   135698   110727    64282     6374   -59576  -131223 
 -192949  -231198  -245910  -242668  -235723  -227015  -191316  -119597 
  -38434    28611    73861    91099    90363    93224    99743   109213 
  127603   128141    95620    66196    61084    72356    85101    63526 
    2509   -49252   -70802   -82327   -90778   -94134  -102650  -124918 
 -158455  -198836  -245486  -294239  -334992  -369493  -396071  -386923 
 -342002  -290340  -202854   -62135    36474    50576    63896    96795 
  111323   122928   149909   187176   224571   240696   218848   162405 
   88484     8060   -76635  -152388  -207343  -250649  -294074  -337664 
 -376742  -413062  -452015  -479818  -468971  -420986  -372297  -338336 
 -288605  -212745  -151103  -122070  -109268  -103813   -87971   -63216 
  -64665   -83603   -87876   -87930  -109897  -157946  -207545  -246855 
 -290054  -321640  -325142  -323351  -319588  -300198  -281731  -272397 
 -251346  -223286  -209352  -189883  -143804   -85755   -25125    32090 
   74688   108080   138216   166970   204270   240071   245136   224614 
  215597   232036   257966   272450   262940   237979   212519   176196 
  104423     1707   -84882  -125268  -151629  -189264  -214482  -220105 
 -223386  -219886  -208258  -206189  -206484  -183730  -148829  -135815 
 -134308   -96960   -20597    44912    68135    65421    67014    76453 
   82780    96917   124224   144648   141603    96415    -1393  -114823 
 -189464  -212270  -202629  -160422   -68529    48449   126637   142578 
  135244   134298   132726   130133   131856   127789   111415    92494 
   80847    64982    21475   -46766  -109736  -148394  -163820  -167334 
 -170375  -173187  -176638  -178757  -171594  -167944  -186167  -219432 
 -245535  -249366  -241494  -247592  -273972  -309191  -342516  -355250 
 -337690  -319951  -327941  -337390  -332183  -333703  -341860  -350000 
 -358723  -328035  -233462  -129508   -77742   -65091   -54260   -48868 
  -47752   -44465   -50870   -66749   -96528  -140229  -163421  -151991 
 -131521  -103683   -58024   -21540   -15294   -25913   -41505   -74926 
 -135690  -179021  -175377  -177220  -201979  -200671  -167395  -126909 
  -83994   -56401   -68822  -104162  -138141  -176017  -188690  -147305 
 -102269   -75007   -32581    11627    46260    84941   120815   157912 
  202145   239434   260849   261557   228649   147601    43318   -16808 
   -8693    21193    34248    37704    37313    20208   -17429   -77607 
 -153792  -219441  -270322  -323471  -372337  -397957  -410666  -430954 
 -435269  -409938  -377588  -298022  -153661   -53939   -46456   -45129 
   -3330    39199    45779    38863    56827    84787    96829   100442 
  100630    88385    42648   -45522  -129370  -161927  -162129  -154318 
 -128965   -91918   -62840   -47832   -42228   -36938   -34982   -33498 
  -10691    38628   101685   159590   193815   207348   211608   207945 
