Origin Time       2011/03/11 14:46:00
Lat.              38.103
Long.             142.860
Depth. (km)       24
Mag.              9.0
Station Code      MYG007
Station Lat.      38.5877
Station Long.     141.2510
Station Height(m) 4
Record Time       2011/03/11 14:46:47
Sampling Freq(Hz) 100Hz
Duration Time(s)  300
Dir.              N-S
Scale Factor      3920(gal)/6182761
Max. Acc. (gal)   568.030
Last Correction   2011/03/11 14:46:32
Memo.             
[...]
  -50599   -47230   -42199   -38414   -38857   -40669   -42915   -47672 
  -52233   -54213   -56944   -59774   -58578   -55400   -52979   -51400 
  -54240   -63033   -72142   -77611   -79218   -75512   -69378   -67627 
  -67481   -62430   -58551   -62520   -66672   -63431   -56901   -51717 
  -47530   -45336   -47446   -55617   -68918   -79480   -82975   -85947 
  -88653   -83956   -76674   -76088   -79692   -82089   -84274   -87678 
  -87065   -74776   -55569   -45029   -47312   -52504   -55207   -57670 
  -58605   -53855   -44231   -32557   -21890   -17750   -22082   -32323 
  -45851   -57552   -62565   -63745   -64957   -62040   -52309   -41957 
  -35801   -32670   -32076   -35894   -45320   -57065   -63734   -63439 
  -61751   -61332   -60365   -58831   -59951   -65817   -72909   -76777 
  -78368   -80673   -82836   -79682   -68735   -55384   -45660   -39988 
  -39355   -48373   -64740   -76403   -77395   -72959   -66347   -55825 
  -43861   -39641   -48798   -63254   -72698   -80122   -89848   -94446 
  -87538   -74938   -66025   -63693   -65428   -68074   -69923   -69905 
  -65960   -58845   -52840   -49060   -47128   -48008   -48662   -44539 
  -37950   -35038   -37108   -42128   -49993   -59717   -66799   -67340 
  -61813   -54875   -51722   -54184   -61367   -70728   -77790   -78520 
  -71779   -60433   -49917   -43611   -42373   -46724   -54665   -61707 
  -66790   -71445   -72311   -66416   -59029   -54125   -50256   -48303 
  -47805   -45874   -45404   -49091   -53189   -57050   -63936   -69816 
  -67175   -58468   -51414   -47635   -46956   -52140   -64370   -80605 
  -93023   -93506   -84931   -77825   -72265   -60387   -45950   -41080 
  -47502   -56413   -61273   -62436   -62213   -59968   -55101   -50448 
  -46615   -40859   -36355   -39624   -48827   -58348   -68663   -80285 
  -87011   -84481   -77332   -71831   -67935   -62161   -55690   -53947 
  -56563   -57237   -54663   -52453   -49310   -42393   -37365   -39611 
  -43799   -44421   -44383   -49848   -63835   -80983   -89483   -84060 
  -72946   -65788   -62179   -60326   -62983   -68370   -71903   -74250 
  -76195   -74200   -65345   -52989   -45018   -46183   -55062   -65051 
  -70507   -73342   -75660   -75073   -71773   -67180   -59074   -46596 
  -35400   -31915   -35268   -41447   -49158   -58003   -67598   -73854 
  -69729   -57445   -46447   -38486   -31052   -29749   -39714   -53423 
  -62343   -66941   -69751   -71763   -71085   -63616   -52311   -47886 
  -54722   -64193   -67369   -65740   -62973   -60014   -59463   -59594 
  -55524   -52034   -56023   -62027   -61056   -55008   -51729   -53685 
  -58887   -64188   -66399   -66153   -65252   -62565   -60501   -67173 
  -84345  -102439  -111647  -109444   -99399   -86636   -71208   -53486 
  -43550   -47248   -53537   -52725   -47423   -39561   -30562   -26113 
  -26155   -26832   -29523   -35482   -43695   -54594   -67214   -78755 
  -88145   -93345   -90106   -78912   -65320   -55035   -52065   -54023 
  -55198   -54098   -49419   -41861   -38929   -44621   -53157   -56743 
  -56172   -58732   -64103   -68303   -72402   -74001   -71930   -72390 
  -75213   -74323   -67728   -56446   -47184   -49451   -61226   -70719 
  -72641   -69581   -64504   -60231   -55501   -48205   -43359   -42443 
  -43280   -51085   -64365   -69040   -61817   -59239   -73337   -91776 
  -97979   -90751   -72932   -52378   -43993   -47228   -49074   -47164 
  -45926   -50102   -63951   -76966   -71861   -53708   -42039   -43248 
  -51861   -62278   -70582   -75405   -77654   -78782   -78914   -76418 
  -70089   -57872   -41669   -32775   -35130   -36846   -31967   -28624 
  -32550   -41943   -55500   -72349   -86635   -91703   -89264   -87576 
  -89650   -87728   -75179   -60217   -55863   -59631   -58102   -51090 
  -52412   -63360   -68642   -60246   -44921   -30549   -18508    -9200 
   -6275   -13692   -29803   -44738   -54309   -65669   -79325   -91537 
 -104961  -117987  -123902  -116467   -96725   -82504   -82855   -78641 
  -57959   -37200   -32688   -36821   -36313   -37621   -47546   -54485 
  -53968   -56768   -64379   -66706   -59777   -47475   -37371   -44046 
  -68802   -86362   -85157   -80373   -76944   -70348   -65200   -60386 
  -45044   -24886   -22289   -40850   -63399   -79558   -84958   -78154 
  -69783   -70959   -79108   -82975   -75408   -61182   -54355   -65196 
  -81602   -83547   -77915   -80181   -86131   -83641   -62092   -23055 
   17435    46632    51162    17255   -39473   -76714   -79193   -75906 
  -86772  -103162  -118136  -121977  -101678   -68079   -48111   -53625 
  -70668   -79342   -77421   -76793   -85034   -92810   -86563   -70424 
  -55074   -47125   -53828   -67098   -68700   -57176   -40591   -25875 
  -23348   -38475   -60361   -71024   -68378   -65734   -69062   -72110 
  -66640   -46994   -17423    -1398   -21722   -64360   -93952  -100827 
  -99008   -97363   -96395   -90217   -67367   -34278   -18243   -23919 
  -28601   -25337   -23033   -23493   -25143   -30639   -47036   -71596 
  -87202   -85852   -71074   -50683   -42118   -51354   -62647   -70707 
  -84408   -97753   -96469   -82101   -65761   -54684   -50257   -44244 
  -33046   -31171   -38893   -40206   -40306   -44271   -41480   -37986 
  -50037   -75683   -92636   -83950   -68608   -70986   -75032   -58908 
  -33337   -17495   -14230   -11965    -6004    -8771   -25322   -45840 
  -62302   -72406   -78340   -76148   -55560   -26744   -13149   -19923 
  -36859   -53863   -71068   -92873  -109181  -109656   -99475   -85983 
  -78567   -82177   -83669   -79673   -83605   -87922   -78845   -70839 
  -78008   -85238   -78697   -76521   -92211  -102814   -91552   -69590 
  -50332   -42054   -41781   -42239   -52499   -74991   -92664   -93945 
  -77464   -55846   -47886   -50945   -52678   -52277   -56341   -68263 
  -78745   -79381   -77688   -82087   -88833   -88969   -82420   -78533 
  -76665   -64566   -39058    -8363    18295    32750    32103    19980 
   -3296   -34153   -55436   -56231   -39763   -16484    -5701    -9353 
  -12636   -23915   -53433   -86655  -106764  -103611   -83713   -70233 
  -69832   -68746   -57268   -45676   -51566   -65344   -62678   -47872 
  -44908   -58425   -72038   -76503   -80285   -90717   -98837   -91455 
  -71322   -58392   -61808   -65037   -60813   -64673   -79370   -93686 
 -106072  -111138  -101306   -90898   -89506   -84164   -74164   -74847 
  -94061  -118934  -117219   -79095   -38041   -25135   -35761   -49989 
  -67781   -90402   -92279   -70761   -54546   -49168   -43596   -27355 
    1517    19889     9690   -18131   -46042   -62499   -64435   -58425 
  -51888   -52945   -60707   -56510   -35870   -17362    -3783    18654 
   45700    60467    60266    47439    18316   -21579   -62840  -102723 
 -125536  -116406  -102685  -117065  -144804  -159497  -152168  -123988 
  -96160   -82718   -67585   -47415   -45010   -63876   -72525   -56588 
  -37795   -18251    10644    28412    19364   -18785   -77247  -122780 
 -149676  -183068  -207459  -192049  -152877  -117893   -89961   -81915 
 -114637  -155964  -162354  -155009  -138992   -86941   -37236   -24787 
  -16415     5873    22500    23610    22772    28978    37223    39273 
   17121   -34533   -85824  -108627  -119177  -141796  -148761  -116217 
  -73099   -36430    -5787     7767    10686    10208    -5644   -18188 
     952    18046     9938    19470    47378    48482    21057   -14889 
  -46455   -66737   -86994  -107109  -104178   -86067   -91435  -124573 
 -151773  -153657  -138087  -112558   -78492   -44988   -17666     2677 
    1413   -24701   -47691   -51672   -46659   -38797   -34726   -44732 
  -71323  -112098  -149858  -167936  -174044  -168124  -143060  -117576 
 -107913  -105828  -101706   -93581   -82913   -71323   -51818   -18111 
    8891     8345      507     1462    -3376   -12681   -17424   -28211 
  -37577   -23341    -1194    -1559   -18304   -30798   -47893   -80994 
 -104656   -97021   -67197   -37493   -33232   -41648   -29410   -17452 
  -29702   -39708   -36564   -37317   -47961   -64363   -73211   -67155 
  -56182   -46459   -46091   -59115   -69012   -79459  -103293  -110363 
  -86160   -71990   -82756   -95044   -98718   -75373   -22648     6304 
  -11791   -33390   -40492   -61768   -88913   -82618   -60947   -62448 
  -69794   -60945   -45975   -38956   -52770   -83465  -115620  -144970 
 -151069  -115997   -74073   -66561   -82413   -82273   -60733   -49635 
  -54959   -56830   -49793   -30250    -3187    10696     4611   -15381 
  -38312   -52053   -57881   -64402   -81369  -114003  -144345  -145637 
 -120899  -102635  -107571  -109844   -84887   -52429   -37219   -32121 
  -23671   -13785   -12707   -15480    -8643    -4964   -14505   -24602 
  -36791   -44082   -24859    -4392   -18008   -36773   -30188   -27920 
  -48805   -68762   -86210  -113249  -127442  -117512  -102518   -79091 
  -40959    -7791    10732    14406     3021    -9438   -22029   -53034 
  -93968  -119704  -131215  -136804  -130678  -116279  -113194  -122036 
 -118070   -99169   -88871   -95399   -97132   -68460   -30227   -17842 
  -22375   -27795   -18312    22204    47692    10877   -48096   -82217 
  -96995  -105706  -100998   -72705   -41339   -42319   -76843  -111342 
 -124239  -128372  -139677  -142453  -103436   -34262     5702    14080 
   49191    99190   108254    92840    84100    72689    54765    24161 
  -28310   -84967  -119265  -133776  -154637  -168575  -142288  -105347 
 -103186  -123869  -137705  -142709  -149735  -162383  -171582  -163739 
 -141949  -108199   -54579    -9261   -11936   -44052   -59570   -52544 
  -48827   -57000   -61998   -56572   -42964   -30308   -45527   -91006 
 -125719  -130073  -116312   -89619   -59937   -38297   -18340    -5537 
  -19239   -55905   -95973  -121042  -110899   -72454   -46516   -49006 
  -55344   -51864   -49138   -51618   -60445   -75955   -73459   -38991 
   -3771    18096    42928    53182    30415     3689   -15783   -38505 
  -43936   -35284   -38050   -45346   -63894   -98359  -125089  -137558 
 -117880   -62288   -28257   -37217   -52840   -61605   -67112   -63108 
  -49258   -46095   -68449   -91252   -95339   -93842   -86928   -82733 
 -104603  -127156  -108915   -60609   -19358    -5177   -12980   -38664 
  -80370  -113170  -132664  -153385  -147520   -98012   -35368    14207 
   35568    31468    19632    -6913   -49217   -76004   -79732   -85161 
  -97410   -96102   -75411   -57226   -48918   -37756   -37154   -56688 
  -66692   -58454   -57564   -70457   -84456   -91922   -91742   -83673 
  -73942   -78981   -89906   -77954   -52920   -37659   -30186   -40326 
  -75023   -98299   -88635   -78040   -73996   -44888   -16419   -42217 
  -95068  -117551  -104758   -69769   -24203     5569    12410    18506 
   20516    -1361   -30245   -56838  -106509  -160724  -165298  -138515 
 -142157  -151795  -103511   -28510     7703    18355    38794    57002 
   54897    28240   -21726   -58916   -56040   -52031   -77689  -106594 
 -109871   -88523   -68456   -67067   -62655   -47935   -64094  -119675 
 -159014  -153941  -136994  -125521  -101548   -61629   -18078    27701 
   80036   118229    96339    22444   -28397   -45327   -91907  -159930 
 -186789  -175991  -163163  -147112  -115216   -82347   -72540   -76938 
  -79629   -89792  -105494  -109870  -112116  -126684  -128273   -88383 
  -26801    11316    12494     5920     7364     5237    -1453    -5519 
    -301     8300    -5325   -36471   -49455   -63366  -114196  -143500 
  -99741   -39863    -8225     6399     1801   -28514   -81240  -138033 
 -160267  -134975   -84777   -31084    17807    60309    77649    54178 
   10865   -37504   -79175   -86601   -74727   -78809   -90671   -95618 
  -99789   -99835   -89961   -74197   -47420   -22758   -28330   -34897 
  -10163     2018   -24485   -48627   -51620   -63154   -89438  -101869 
 -111055  -141087  -158249  -136819  -113984  -112858  -105861   -90621 
  -91751   -93734   -94406  -121857  -140495  -117866   -87381   -48855 
   -6559      842    -8070   -10462    -7046    12190    24124    26069 
   51763    72395    46325    -6093   -56954   -90858   -99592  -105425 
 -115041   -96044   -50426   -25650   -47975   -83587   -81627   -53340 
  -45683   -61966   -66568   -46558   -30735   -26104   -21534   -48389 
 -106740  -141370  -153456  -176325  -191156  -169499  -121651   -77178 
  -51307   -32528   -19259   -42271   -91878  -108761   -93050   -83520 
  -77346   -69539   -60139   -42673   -33736   -35738   -29120   -33324 
  -72646  -109425  -102382   -65865   -39380   -69265  -138934  -153117 
 -115667   -91984   -49000     2404    15362    46115    94957    98299 
   69482    31058   -10120   -32261   -35426   -43072   -59811   -65260 
  -52538   -29079   -13932   -29417   -51732   -47909   -33742   -25797 
  -19039   -20402   -35676   -45241   -27663    -6235   -29335   -81339 
 -104576  -103676  -113816  -124334  -118032  -108394  -106297  -123807 
 -171570  -213043  -207120  -171457  -143724  -115774   -62954   -18358 
  -13799   -21529   -24662   -36681   -59695   -60423    -9864    42302 
   59549    97507   151097   150800   108252    55887   -10662   -75046 
 -113048  -129916  -135319  -119774   -92938   -73138   -34897    32508 
   81057    84421    68712    39214   -24139   -93099  -122931  -131707 
 -142667  -114979   -35171    30398    49022    47048    33060     6541 
  -12848     2023    51051    95843   118697   141261   168259   182824 
  184381   185227   188943   191630   190050   178075   145230    93896 
   33501   -58433  -202295  -362936  -518728  -698526  -878218  -956028 
 -888102  -752608  -607754  -399391  -161895   -63377   -35543   122717 
  255496   174803    54075    24581    34577    61156    49823   -30717 
 -104279  -158037  -231289  -303391  -360184  -385430  -338888  -205411 
    7338   216280   288333   194932   -17054  -264640  -381626  -351749 
 -358184  -412556  -377799  -214916     9037   149712   177496   231598 
  323389   345267   306832   257096   197596   157613   141533   139027 
  177855   226492   226306   152277    19291   -75781   -98621  -120414 
 -144920  -140897  -118735  -106535  -152075  -245950  -287968  -224101 
 -116992   -60307   -64056   -40229    29493    50213    28932    20997 
  -28386  -110776  -158265  -197111  -235867  -242451  -227643  -190763 
 -124114   -49015    10741    33358    36732    55959    73349    60757 
    9264   -60183  -102433  -121161  -140580  -142767  -124376  -113512 
 -114498  -128031  -159057  -178910  -168874  -151001  -134383  -108825 
  -92179   -93891   -85197   -65307   -44621   -12377    24704    58087 
   77195    64922    32985      968   -18521   -12517     8091    27162 
   50734    82790   121400   160280   184650   184292   140427    58695 
    6858    -8384   -71542  -159474  -177447  -166346  -191121  -210005 
 -198525  -183097  -158857  -114179   -78075   -62320   -58261   -91773 
 -147580  -188761  -244837  -319279  -381243  -432437  -464459  -449282 
 -355324  -118646   219530   291612   -59819  -191671   209075   436659 
  291416   281462   356917   278891   149475    15815  -111312  -166009 
 -167351  -159609  -135503  -117771  -179388  -278582  -313125  -369268 
 -519134  -565792  -352779   -44696   141762   235561   325315   383688 
  374375   217087  -125481  -402956  -411894  -328808  -296786  -240750 
 -150302   -40187   129920   314784   415446   414709   365694   299342 
  231068   185999   123129     7124   -90405  -126872  -140538  -146751 
 -146491  -151802  -144812  -117086   -95824   -83215   -71802   -65028 
  -55176   -46743   -44027   -39705   -45013   -55372   -45497   -25033 
  -13185   -18496   -46096   -83912  -122817  -138211  -106854   -59474 
  -16197    23194    17475   -44332   -99393  -125285  -152740  -164249 
 -123092   -43232    39104   101562   126726   112881    70252   -30061 
 -178736  -264476  -255363  -253719  -281553  -270317  -234005  -213835 
 -201716  -175450  -104126   -43012   -57515   -72323   -82257  -170978 
 -251909  -215510  -151676  -174021  -257964  -318492  -287802  -188557 
 -137073  -123129   -51838    34698   100956   110496     4591   -79161 
  -54353   -34155   -69426  -145426  -172983  -101569   -85920  -130119 
  -86497   -18442    23582    84209   114023   125563   144490    75591 
  -76681  -201276  -280590  -333799  -343151  -315547  -254714  -148908 
  -38325    40381   102543   160116   210548   241764   253324   240492 
  160014    18184  -117221  -197074  -193565  -119672   -37729    21948 
   73410   110004   140099   171140   154284    77878   -27010  -129207 
 -192463  -243041  -306344  -344618  -345334  -298728  -206632  -126453 
  -81497   -66367   -56246   -18758    -5849   -13709    42286   137316 
  180572    72079  -148505  -205919   -64656   -23092  -110734  -113512 
  -31510     8322     -586   -16005   -61338  -124094  -154255  -194218 
 -262792  -275526  -186969   -60956    -8760   -53188  -106765  -107746 
  -84667   -70004   -18279    75185   146820   194643   166315     4363 
 -154221  -208301  -203214  -162437  -140720  -156214  -113065   -31611 
   -1426    -1219   -17073   -38557   -33153   -35506   -40220    -5481 
   31763    44064    53203    74196    78418    25463   -30721   -38020 
  -38858   -32535    -3266    32206    68906    38825   -80882  -195907 
 -272342  -337530  -400412  -451899  -458874  -386786  -236581   -76238 
   13413    39929    52095    60667    84481   133392   167534   181531 
  193509   180336   124108    46346    12450    45310    62712    39967 
   27702     2417   -73294  -180136  -276281  -309060  -272829  -215078 
 -157933  -126251  -133524   -98300   -12898    24212    24590   -13307 
 -109010  -146840  -100635   -27657    36718   -70185  -348860  -457611 
 -302836  -165168  -154871  -154155  -107519   -97390  -121602   -82647 
  -87552  -160706  -116411   -32295   -29207    18790   123842   183587 
  210284   219330   199039   180856   175462   163293   150946   145803 
  121313    60616   -23367  -111440  -172183  -200085  -241449  -303226 
 -331214  -304353  -241777  -127520    37256   139798   138332   160081 
  219750   204945   107090   -18887  -137477  -242843  -353861  -442821 
 -460866  -400678  -263505  -118186  -101685  -185349  -213528  -194332 
 -209467  -203255  -108669    17109   116631   239324   377422   411018 
  340627   262589   179742    76755    -8101   -64749  -114931  -153709 
 -169296  -162437  -143239  -138234  -139008  -122509  -130446  -177430 
 -201180  -222379  -294149  -290433  -127559    -4778   -56234  -136656 
 -152780  -169077  -187147  -195210  -245411  -316075  -337179  -305380 
 -269623  -222973   -67287   181812   371744   440776   369088   183828 
   77235    85716    34917   -35369   -24042    -3946    29903    77774 
   66729    57975    69251    35813     9357    11378    -8502   -25051 
  -19250   -25107   -32660   -19596    -7101   -12075   -38384   -76411 
  -69408     9891    84284    91531    91818   118631    75768   -38341 
  -96780  -111514  -154187  -180876  -179785  -179866  -150769  -119408 
 -154295  -228294  -303470  -347292  -299400  -275768  -418253  -506977 
 -338277  -150154  -139268  -168121  -166209  -193198  -231069  -279937 
 -330291  -301513  -235640  -200036  -153446  -101716   -38079    90284 
  236284   320851   331206   282866   203782   133166   102182   109644 
   73783   -58397  -176173  -208249  -205571  -175514  -139442  -105908 
