Origin Time       2011/03/11 14:46:00
Lat.              38.103
Long.             142.860
Depth. (km)       24
Mag.              9.0
Station Code      MYG017
Station Lat.      37.9760
Station Long.     140.7822
Station Height(m) 12
Record Time       2011/03/11 14:46:52
Sampling Freq(Hz) 100Hz
Duration Time(s)  300
Dir.              U-D
Scale Factor      3920(gal)/6182761
Max. Acc. (gal)   159.566
Last Correction   2011/03/11 14:46:37
Memo.             
[...]
  -41239   -30235   -32971   -43822   -61898   -78462   -78980   -72075 
  -77163   -92343  -100207   -94131   -83319   -71604   -49124   -13300 
   23872    49482    51149    23461   -20336   -66985  -112950  -142911 
 -138327  -100407   -38600    30121    74969    83736    71255    46730 
   11841   -23809   -51546   -76976  -105801  -126364  -130614  -123290 
 -100066   -57510    -9296    27355    39577    24601     1120    -9013 
  -12221   -28457   -51881   -58500   -44372   -25233    -9455     7011 
   30095    55723    69443    63849    39031    -2885   -42450   -59104 
  -64426   -74682   -78581   -65263   -42802   -21020    -6935    -3426 
   -2442     5686    17870    17919    -2724   -26817   -35650   -38752 
  -49474   -58708   -57197   -45523   -26730   -17726   -30409   -47649 
  -54273   -51084   -30302    14030    63823    92856    85315    43560 
   -5432   -34761   -43391   -39277   -27702   -16663    -3737    23012 
   53556    57309    22753   -34865   -92182  -125472  -123942   -99034 
  -68419   -42405   -32658   -49176   -78418   -93253   -80643   -43297 
    2768    38191    57186    53368    18032   -30083   -61108   -77576 
  -95849  -108272  -109630  -113739  -109921   -69600    -4503    37272 
   33217    11075     1035     5009    20030    35708    29120    -1167 
  -33074   -51885   -53814   -39895   -23903   -20229   -21881   -20676 
  -25375   -37780   -48357   -53747   -52146   -39615   -21828   -13004 
  -13181    -1783    23227    30879     8469   -25783   -63109  -100693 
 -128046  -145564  -154961  -138792   -87536   -27200    10488    24587 
   27253    17567    -4633   -27125   -42072   -50226   -48885   -35749 
  -16123     -566     1728    -9707   -30470   -51995   -64489   -76623 
 -102275  -131168  -144999  -134859   -94317   -28797    35514    72740 
   78848    65585    44806    26671    17853    13553     6932    -1460 
  -12247   -26932   -44592   -64741   -82092   -87900   -81350   -69005 
  -51957   -29831   -19147   -36936   -74810  -112413  -132675  -128771 
 -112281   -97717   -87006   -73384   -46769    -7233    28731    47309 
   44928    21215   -18130   -66442  -116313  -147396  -145576  -122990 
  -97127   -76442   -63208   -52040   -40225   -32899   -32833   -44742 
  -70685   -91200   -85268   -55686   -15970    13447    11633    -9413 
  -19978   -20683   -25924   -29306   -21491    -6143    12203    31384 
   45598    42651    17310   -13919   -37349   -60142   -83694   -95720 
  -94956   -92704   -88207   -72071   -46959   -13571    34362    81445 
   98737    80334    39319    -9234   -45009   -58594   -67634   -88563 
 -111190  -117971  -111571  -108632  -112450  -113104  -111981  -116686 
 -119320  -106623   -79110   -47188   -15415    20165    53110    62624 
   39378    -2269   -42249   -69324   -79798   -79503   -75822   -62024 
  -31190    11134    60873   108205   127343   107602    66364    20693 
  -21772   -55239   -74885   -80882   -87530  -104669  -112478   -94993 
  -71566   -60745   -60126   -72161   -97266  -116806  -114797   -91261 
  -57275   -31934   -25986   -31468   -33686   -22217    -2310     5557 
   -4806   -20040   -35038   -49451   -49068   -26087    -1963     1766 
   -2389     7490    27337    43814    55823    56089    32204    -2250 
  -21908   -26961   -28308   -20386     1685    24159    31152    19538 
   -9051   -52293   -97751  -126595  -134163  -132821  -126992  -109168 
  -85010   -66092   -48278   -27557   -10912     -657     9106    22188 
   35482    41363    34334    20206    13327    18785    32629    53400 
   69264    56769    11526   -44817   -88630  -110222  -111882   -96567 
  -65981   -27031    11307    41562    60029    70760    72766    56135 
   27750     5909   -13792   -44777   -78737  -105266  -134354  -171887 
 -201963  -209909  -198364  -174225  -136927   -87056   -35141     7178 
   34562    46168    46139    39682    26773    10808     5730    19665 
   43065    59587    58911    42740    21064     2148   -12391   -27517 
  -45527   -55608   -44747   -15490    21880    64137   105732   132569 
  135237   112600    67374     8180   -50869   -95018  -112870  -103637 
  -82714   -65740   -54402   -54378   -76070  -107496  -129018  -144381 
 -162272  -176074  -178472  -165754  -133283   -87142   -42361    -7109 
   16358    26814    23738     6711   -17740   -39557   -55714   -63356 
  -60139   -50452   -33767    -6250    24519    43031    33056   -16156 
  -92836  -162790  -202583  -213472  -195476  -147550   -88931   -36547 
    9345    36277    27623    -7417   -53491  -107447  -158041  -189432 
 -204699  -212892  -211551  -202748  -197082  -191121  -174141  -149257 
 -118838   -74093   -12568    53715   110882   155332   183285   184032 
  162282   141149   132443   132035   138146   145375   133245    88986 
   27650   -32743   -91621  -146403  -181741  -184841  -153504   -96564 
  -35716     6557    25232    29364    25635    18085    12780     9342 
    1753    -6225     -212    23920    46916    49107    38040    28549 
   16504    -2143   -19210   -34335   -51523   -58755   -47527   -33066 
  -21843     5055    53490   100191   125721   132623   124611    95387 
   48735     1576   -41830   -90151  -137661  -162938  -154971  -121259 
  -74000   -23516    20623    51423    67460    72858    68965    46937 
    -830   -63706  -118349  -148540  -156540  -155582  -150112  -138363 
 -126006  -117628  -115800  -123112  -130546  -127064  -110149   -75485 
  -22129    33176    68681    81719    78405    52249     5868   -33634 
  -51331   -63040   -82322   -97640   -93652   -78715   -74849   -88222 
 -107198  -123294  -138515  -150339  -142429  -106943   -61279   -23574 
    3749    18337    13528   -10725   -46947   -81776   -96810   -85744 
  -60358   -29679      436    19413    24336    18443     1261   -24626 
  -50075   -70603   -87068   -91104   -74575   -50653   -37974   -32872 
  -16910    12557    38483    49631    45951    27206    -4626   -43106 
  -80820  -108793  -120739  -119901  -111374   -93975   -69167   -43107 
  -19019    -6827   -23898   -65224  -102138  -122286  -133850  -133795 
 -110904   -71420   -32351    -2057    14727    18461    27456    55988 
   92359   120181   135142   135399   117607    82232    35995    -9959 
  -44731   -60782   -54309   -29188    -4840     -602    -3723     6542 
   17091    16242    18530    22593    16414    15271    36882    68124 
   78352    48584   -10995   -70627  -105850  -111202   -97508   -80597 
  -71636   -74440   -87000  -101220  -108455  -107987  -101294   -86872 
  -64495   -34803     1474    37800    57468    47688    18456   -11610 
  -36554   -54921   -63209   -62230   -58082   -61718   -76490   -89031 
  -94128  -100158  -101584   -91411   -81094   -72457   -55488   -38442 
  -28385   -15766    -1282    14527    41153    68968    82054    86439 
   86970    65968     9576   -63121  -115931  -133833  -131238  -123306 
 -110778   -91081   -60891   -21777    12968    35802    53066    69018 
   78637    76803    67035    53694    34129     7981   -19295   -43286 
  -61685   -71826   -75566   -81477   -89873   -94863  -102680  -115236 
 -116230  -101494   -88566   -81360   -62382   -27054     5776    19594 
   16034    10554    22133    52314    76171    75724    63024    48884 
   29290    13772    12519     6912   -19959   -51792   -58271   -30888 
    8556    42947    75706   104810   117468   102212    62092    24566 
    4033   -23665   -64928   -88111   -87467   -90102  -100437  -106349 
 -109300  -103795   -79686   -50682   -31055   -16848   -10820   -18339 
  -26472   -20709      645    35193    76253   113351   136333   133509 
  104698    67154    31149    -5239   -38222   -60676   -70707   -73133 
  -74718   -69547   -49000   -25666   -16335   -17367   -16134    -5003 
   15092    32647    44549    62793    71608    30975   -50279  -123568 
 -169522  -187417  -173130  -141206  -113771   -95409   -77360   -49788 
  -17598     -906   -11458   -43801   -84443  -114157  -118700  -104774 
  -90729   -89679  -100099  -105452   -99518   -97769  -104655  -107519 
 -109428  -117642  -121112  -122105  -137572  -157156  -160147  -146799 
 -120093   -78308   -24954    29830    73658   105154   125683   128355 
  120483   115342   103084    75266    42401     9294   -24342   -48327 
  -49490   -25441    11077    44399    64900    62216    30952   -14956 
  -48429   -57275   -56820   -63178   -71999   -71785   -60051   -41980 
  -23212   -10043   -12460   -37879   -74654   -98760  -106482  -104026 
  -83999   -53789   -35525   -30160   -31949   -45661   -62322   -62111 
  -46930   -34426   -31396   -34959   -41601   -46914   -45412   -33937 
  -17522    -4067     5077     7507    -2001   -20561   -39311   -46512 
  -33099   -10791    -1915    -8923   -19278   -26834   -33355   -39756 
  -40562   -31181   -15118     5611    32090    58939    84794   114466 
  134792   127442    99976    68407    38690    17248     7839       62 
  -17185   -33761   -31964   -12547    13167    33805    40342    37303 
   31734    18821    -4266   -35133   -70079   -94474   -96417   -87957 
  -84411   -80762   -66365   -44411   -28932   -31007   -51143   -77986 
  -96390  -103312  -104248   -99398   -89012   -78819   -70147   -59542 
  -51587   -51764   -52436   -51367   -60387   -76735   -84831   -83631 
  -75721   -58347   -43169   -45909   -57887   -58730   -45702   -29998 
  -20367   -21588   -33379   -50028   -66086   -79223   -90793  -101871 
 -110135  -110122   -93999   -67342   -51559   -48244   -31762     2675 
   22448    12981     2001     4030     3544    -2450    -6835   -13270 
  -21728   -25251   -19157     3971    44605    81271    93916    88789 
   79725    68661    51611    25687    -4652   -25951   -29931   -22206 
   -6125    25549    68499   102789   117039   109508    78162    29206 
  -23532   -67345   -87792   -76972   -49074   -25423    -2718    33634 
   70230    84432    79987    67756    44677     8680   -28464   -52545 
  -58621   -41659    -2442    28174    17471   -21957   -58226   -81745 
  -91167   -82203   -65939   -61655   -70687   -86707  -115141  -151408 
 -174644  -184712  -191946  -181278  -141400   -90111   -44377      587 
   54942   106680   132367   130723   110884    73927    30221    -3156 
  -23417   -36616   -43962   -42527   -33823   -26002   -23037   -21903 
  -25849   -41243   -60045   -66464   -54361   -27261     5267    29713 
   39729    41196    38776    28950     9598   -15379   -41294   -65350 
  -75405   -50595     2989    46802    57738    40936     4684   -38175 
  -69894   -82226   -73040   -49825   -34605   -35826   -42138   -53850 
  -73632   -81558   -65408   -45650   -44169   -57428   -69859   -72267 
  -62724   -46821   -36790   -36985   -41338   -48065   -60293   -77838 
  -96474  -109576  -113422  -111225  -107610  -103189   -94919   -82180 
  -73258   -74372   -74659   -63916   -52444   -47390   -40003   -34611 
  -45617   -61917   -58371   -34087    -7326    14234    35858    56913 
   72174    86051    97779    90440    63839    42317    31818    15505 
   -8369   -25428   -31221   -34042   -41452   -55098   -71526   -83185 
  -83482   -71229   -50248   -21437    20275    68003   101154   114322 
  119427   116974    94221    48836    -5167   -47553   -65246   -65134 
  -62236   -61368   -65854   -77595   -84706   -76467   -55138   -27825 
   -4719    12844    34295    55494    67792    76207    84223    89210 
   86904    74456    59249    46870    30955    12230    -2168   -20494 
  -48711   -72674   -88225  -106274  -123354  -126642  -113097   -85891 
  -49092   -11296    15550    24086    15727     1119    -4950     1963 
   13028    22245    29436    31320    30171    31911    24744    -7779 
  -60799  -119238  -169272  -196933  -195184  -163295  -109237   -54882 
  -14478    17334    45442    67019    76731    65685    35910     6147 
  -15089   -36412   -61395   -83309   -97296  -106028  -113383  -119645 
 -124764  -124611  -109532   -81978   -56653   -37880   -23349   -13713 
   -3437     9990    16333    10285    -2497   -15668   -21544   -17347 
  -11484    -3985    11847    25876    32016    41675    48083    34604 
   14535    11888    25225    31543    15632    -9491   -23253   -24910 
  -21224   -12574    -3030     1149      243    -6349   -21465   -41640 
  -61007   -77791   -90529   -98015  -103795  -112121  -120292  -114334 
  -79770   -26067    18265    39381    47586    57586    72223    87170 
  101907   113924   117013   114795   112169   100678    75218    40851 
     118   -39912   -70503  -100371  -135697  -157463  -152861  -134402 
 -110370   -77638   -44289   -24121   -14616    -3058     9617     8284 
   -8528   -20771   -17766   -10507    -2190    19664    46724    46674 
   13833   -23202   -48908   -68196   -80272   -84561   -88692   -91882 
  -87282   -75755   -55924   -27398   -10182   -17788   -28525   -23961 
  -13245    -2554    10331    21027    31098    51819    81164    98043 
   85435    50931    18447    -1571   -17701   -31768   -36526   -31242 
  -17179     3175    24339    43863    52010    34368    -1404   -31986 
  -48068   -55895   -64710   -78682   -92813  -104627  -121260  -142042 
 -151087  -137376  -111521   -94954   -94097   -96403   -89905   -72568 
  -50392   -31834   -12631    20609    60460    79990    70490    47341 
   20350    -8102   -24582   -23044   -23449   -38619   -57764   -74986 
  -86220   -76827   -48483   -19824     4065    26320    36924    20161 
  -23660   -77888  -134133  -194875  -245120  -260769  -245722  -217782 
 -173955  -102065    -3778   103768   189710   223552   207203   175274 
  146053   102248    38495   -16691   -47704   -72574  -100241  -113720 
 -103976   -84381   -68279   -57724   -57210   -67391   -72420   -61056 
  -34060     3035    33867    51092    64741    71443    58734    32720 
    8323   -12015   -32073   -50182   -66906   -82105   -80527   -50535 
   -7697    25975    43313    37731     3415   -43616   -80011   -97237 
  -89943   -55486    -6772    33931    55178    68750    79936    68302 
   31566     1774       -6     5576   -11278   -32621   -22199     4077 
   11046     5939     8901     5672   -26608   -66917   -77940   -71531 
  -71241   -62136   -46182   -52204   -75440   -97064  -120880  -145217 
 -157141  -156714  -147984  -125948   -87973   -40452     5831    42422 
   62547    58354    36292    10830   -15060   -29419   -24348   -26952 
  -47280   -52671   -33579   -18327   -19489   -28730   -48093   -83396 
 -123565  -147983  -143901  -111202   -62727   -18912     9945    25597 
   30394    33388    43287    47206    36352    31033    39486    42432 
   36034    31506    25049     7611   -20342   -53746   -87441  -118667 
 -145907  -164293  -163067  -136872  -102356   -79141   -62848   -41990 
  -18057     3328    17899    19976     8467   -11450   -33833   -55114 
  -79185  -107827  -130893  -149128  -171361  -182335  -168433  -145118 
 -122745   -97740   -71349   -43084   -15564    -1098    -2371    -7702 
   -6213     7860    34428    61709    75794    75837    67660    56302 
   48851    45379    35131    14234    -9093   -26283   -36298   -45824 
  -49143   -26273    14021    38544    37390    13476   -30948   -74463 
  -98338  -107389  -107170   -94787   -66799   -28836     1245    16957 
   29512    36268    22059    -8473   -40952   -76754  -117469  -150073 
 -164638  -161892  -141349  -103895   -55741      -60    52332    78949 
   77602    65465    43115     7002   -23800   -33440   -30671   -29664 
  -37362   -47760   -44308   -29693   -26839   -38777   -42938   -27063 
   -5636     6021    18128    45991    74141    75090    52898    32241 
   21613    14118     4886    -9329   -33508   -65303   -89079   -90826 
  -78104   -67808   -57922   -38695   -19573   -13164   -11615    -6857 
   -8377   -22210   -41857   -62150   -76866   -76969   -66346   -55518 
  -39812   -16018    -4223   -15936   -29375   -25708   -13840    -2758 
   14551    37812    49808    45727    44615    53415    58766    59183 
   53076    20283   -39684   -98942  -143651  -173133  -176389  -151787 
 -113132   -63202    -3469    50970    91644   117486   123876   115080 
   97826    63424     9424   -43197   -78716  -102156  -115563  -105727 
  -67938   -28163   -16831   -32525   -52158   -55636   -41960   -26389 
   -8316    21741    47143    52298    46079    28971    -6582   -52283 
  -95796  -129164  -142333  -132411  -112752   -98447   -90789   -86106 
  -87595  -100422  -118928  -123641  -103579   -69955   -33720     4495 
   40267    64535    69188    51022    14355   -37330   -98965  -151284 
 -177881  -186270  -183111  -151662   -82872     2989    82933   139411 
  146616    95367    16717   -51298   -98844  -128771  -133122  -109750 
  -75973   -41219    -2796    25722    28848    17356     7878     1918 
   -2292    -6026   -14697   -27454   -32432   -19109     9169    31897 
   27162    -3280   -36533   -53895   -53101   -40761   -20302     5796 
   28547    41318    45404    41007    29131    17154     5690   -17127 
  -53441   -85807   -99286   -94317   -80071   -63175   -35312     7398 
   38872    38909    19474   -12020   -57934  -105712  -138485  -146336 
 -129019   -98076   -62643   -29101    -8168     -744     1633    -2543 
  -20971   -47048   -59962   -52483   -43265   -42415   -36032   -25534 
  -31556   -60810  -107151  -152394  -172315  -167851  -151214  -116279 
  -61254    -2957    49810    99140   131901   131552   105487    65240 
   11657   -45870   -89286  -105130   -92749   -67298   -43819   -26686 
  -17282   -15424   -19302   -27464   -35497   -42043   -52039   -59408 
  -51690   -33196    -8895    23052    44734    35417     1268   -38036 
  -65572   -76318   -76081   -67592   -58330   -62540   -76010   -80128 
  -69420   -53147   -43503   -46221   -54126   -58318   -58536   -52994 
  -40684   -29848   -24461   -25185   -37887   -57866   -74182   -88001 
 -102797  -121355  -146238  -164228  -161914  -144320  -112806   -62913 
   -2781    56739   106562   132355   128044   102885    70743    44483 
   31913    28520    14439   -25070   -69965   -93375  -104662  -118227 
 -123819  -116399  -109040  -111048  -119786  -133373  -154101  -173406 
 -171339  -139401   -91675   -47446   -14063     5881     9816     4334 
   -1991    -8341   -14730   -23322   -37135   -49936   -57220   -61053 
  -54047   -29473     -866    14315    15004     6883    -5902   -12065 
   -3773     7774    11044    11460    17908    28569    38100    44310 
   38510    12546   -20938   -44167   -58642   -69365   -71781   -63651 
  -45394   -20091     1568    12686    16397    12827    -2464   -20102 
  -23128   -16596   -13544    -5647    10765    20554    19861    12038 
   -3817   -21132   -36691   -54602   -73815   -88559   -89326   -74814 
  -57106   -42058   -23356     5449    32791    37702    27870    20580 
    4476   -26934   -56406   -77373   -92643   -94755   -82943   -69222 
  -57063   -43029   -31570   -29586   -33565   -28783   -14342   -17564 
  -45470   -63226   -63029   -71988   -83076   -75140   -58044   -41152 
  -24513   -20802   -36912   -58533   -72227   -77363   -71264   -46861 
  -10805    17092    32561    48331    57359    40064     8273   -10590 
  -16375   -21498   -21383    -9163     7367    21366    32407    32177 
   12806   -18917   -52666   -84389  -110807  -125841  -128089  -121516 
  -99977   -59992   -23401     -790    27121    56123    59294    43370 
