Origin Time       2011/03/11 14:46:00
Lat.              38.103
Long.             142.860
Depth. (km)       24
Mag.              9.0
Station Code      MYG006
Station Lat.      38.5801
Station Long.     140.9654
Station Height(m) 20
Record Time       2011/03/11 14:46:50
Sampling Freq(Hz) 100Hz
Duration Time(s)  300
Dir.              N-S
Scale Factor      3920(gal)/6182761
Max. Acc. (gal)   444.145
Last Correction   2011/03/11 14:46:35
Memo.             
[...]
  -29413   -37341   -38912   -40784   -43534   -45089   -48977   -54446 
  -55253   -51158   -42985   -28511   -10377     4394    14760    27439 
   44616    62212    79404    94897   103634   102239    91300    75331 
   58112    41628    27841    14298     -473   -11576   -17546   -21638 
  -24454   -25779   -27914   -33329   -40296   -44934   -48458   -53520 
  -58138   -60700   -58485   -44621   -20437     1774    15114    23753 
   32212    40447    48948    59477    71039    79803    83287    83036 
   81370    78033    72053    65597    62100    61480    64053    71202 
   78455    79185    73417    66411    59406    48716    35495    27103 
   29437    41268    55770    66355    66673    55194    41657    33241 
   24237     9603    -7652   -21969   -27772   -24244   -17594   -14363 
  -16607   -21123   -20875   -10616     5191    15551    16450    10829 
    2144    -6227   -13616   -21034   -30793   -46553   -65605   -81609 
  -93018   -99109  -101312  -106528  -116643  -128709  -141599  -147710 
 -135298  -103654   -66449   -40105   -27622   -21745   -18615   -15002 
   -7256     1130     3781    -2738   -17972   -33867   -43278   -49703 
  -57747   -69260   -86577  -103366  -107290   -97480   -83626   -74933 
  -78691   -96463  -117794  -126916  -118438  -103455   -94860   -89462 
  -77523   -61611   -47257   -31173   -12921      389     4730     4888 
    9729    22378    39757    58557    71568    68704    50590    30333 
   20984    24702    30989    28757    19462    14860    22655    36767 
   46640    49088    44100    31886    19708    14517     9735      786 
   -3984    -4579    -7735    -6782     3651    13438    14176     8943 
    3105    -2546    -5879     2623    25665    51455    73109    92719 
  109668   123886   132994   129081   112693    91635    68768    45284 
   23763     7514     -643    -6225   -16132   -24530   -24577   -20959 
  -20500   -24424   -30312   -35875   -41898   -49739   -57036   -61264 
  -65350   -73174   -84415   -98429  -112979  -122355  -126616  -131720 
 -139637  -145970  -144701  -138302  -134421  -129724  -118181  -105934 
 -101639  -106246  -112526  -110341   -97667   -78555   -52865   -20527 
   13649    43697    61699    63798    56703    46216    34027    25242 
   23763    26883    26279    17706    11683    20745    42372    65069 
   80847    86567    84044    81538    84686    91965    99797   105019 
  110319   116728   114921   104384    97001    92792    81103    61680 
   42806    28836    21033    18887    18058    14590     8775    -1803 
  -23545   -53743   -81059   -99021  -107987  -105271   -87113   -65665 
  -56109   -51779   -43672   -40494   -50362   -65485   -71540   -60130 
  -32534    -2701    15256    24642    27811    17671     1374    -9547 
  -19614   -37852   -63508   -85191   -95984  -103122  -109360  -105644 
  -94791   -88744   -85634   -85306   -95543  -107043  -102201   -81255 
  -58536   -43273   -32223   -20478   -10248    -3967    -2089    -9306 
  -28208   -50964   -67122   -73640   -72282   -64662   -53225   -38401 
  -20427    -5578     4806    18097    36271    57075    79529    98003 
  104866   101960    99100    99940   100565    97326    83959    57320 
   30183    13511    -1245   -23207   -50972   -79025  -101334  -116106 
 -118300  -100952   -69592   -34597    -5602     8429    12383    19559 
   31658    40136    40121    33936    24711    13190     2336    -3063 
   -5271    -8264    -6074     5870    21461    34063    40769    39741 
   30725    17411     7726     6250     7563     5272     1448    -1676 
   -8226   -20288   -31816   -35472   -31733   -25357   -14957     1147 
   11894     8677      633    -4763    -7043     1011    19414    31852 
   27456    10695    -8632   -23458   -33620   -42621   -52401   -61905 
  -63703   -51198   -30809   -13435     -287     8326     7687     7679 
   21317    39631    50431    51432    45516    41060    42230    48897 
   59934    65527    59447    50947    49039    53310    59578    63064 
   59557    49067    37486    26939    14275     -273   -18654   -45823 
  -79616  -112556  -138357  -153116  -154359  -145090  -137711  -142238 
 -154939  -162221  -153494  -135901  -123960  -115051   -98082   -73851 
  -49448   -26639    -2701    21215    37364    45441    56049    72169 
   89326   106164   120682   130880   137011   139284   134901   119775 
   97612    73955    48192    23786     8224     2821     3438     4705 
    4612     5585     9293    15025    17859    14508    12648    17178 
   21083    19799    16061    13377    13925    18682    28029    38729 
   42386    34979    19936     2514   -12361   -23242   -30437   -35699 
  -40365   -38442   -28799   -20095   -14348    -9546    -7720    -6867 
   -1110    13133    37043    63917    81821    89181    93132    96678 
   99348   100529    95215    79938    62307    48905    37401    26071 
   14096     1187    -9095   -16308   -26662   -43910   -62463   -75394 
  -86145   -99896  -113302  -126677  -143271  -157749  -163523  -157934 
 -145143  -131153  -114795  -100755   -92578   -79347   -59021   -39596 
  -21344    -7791    -5780   -11193   -17255   -25311   -41285   -63854 
  -82422   -95690  -107739  -107547   -87609   -59232   -33415   -16943 
  -14104   -20035   -25508   -22919   -12254     3095    25228    51018 
   74978   100129   123953   137017   136130   123846   105527    85759 
   68038    55263    40933    18565    -1196    -8012    -7224    -6701 
  -12367   -28589   -51768   -73924   -89473   -94529   -85706   -63875 
  -36269   -10399    11479    28730    40139    46214    47095    45658 
   47482    50734    50970    50546    52923    56376    59129    65371 
   75377    79755    75840    73317    78392    86608    91953    94775 
   95337    90200    83236    80604    77289    65657    43624    13211 
  -19409   -46234   -59608   -60304   -61185   -69242   -77954   -80690 
  -75605   -62885   -43130   -19950    -5157    -5912   -12411   -14855 
  -15113   -16953   -19993   -22360   -24255   -23336   -14500    -1789 
    6270    10385    15480    22153    26800    22841     4313   -25446 
  -50551   -59947   -63014   -71032   -79039   -80714   -77237   -69422 
  -61047   -56775   -54225   -51165   -46884   -39415   -32453   -30785 
  -29771   -20815    -3863    12800    23743    27041    20976    11038 
    6217     7096    10517    18483    30920    39826    42452    44688 
   47277    47206    43486    33407    18947     9203     8309    14805 
   27618    46016    67350    82984    85532    76401    57838    32474 
    6696   -16168   -36586   -55620   -75196   -93843  -107868  -119718 
 -131622  -137971  -137349  -136864  -139343  -138995  -127679  -106689 
  -88582   -77539   -66691   -53427   -37502   -21035    -8284     6828 
   29366    50294    62557    67368    66661    62136    56921    54041 
   49979    39219    26815    18956    10326    -2314   -15525   -29294 
  -39793   -40478   -35189   -33077   -41934   -63309   -86854  -101673 
 -106281  -107509  -114939  -130701  -150473  -165055  -162732  -142978 
 -112125   -78641   -56435   -48686   -47396   -47193   -43698   -34506 
  -19866    -2018    12507    21864    33775    51851    68454    75676 
   73806    68555    61557    46498    24791     8470    -1418   -13208 
  -29616   -48648   -68483   -92128  -119213  -138540  -143289  -135757 
 -119142   -99488   -82789   -69269   -56456   -41617   -22779       -4 
   23348    37168    31783    12173   -11030   -34450   -53761   -66183 
  -77769   -92590  -106924  -114276  -111476  -101065   -84963   -64602 
  -44790   -26869    -8843     9037    25580    39037    48958    56092 
   59831    61543    63430    66171    73597    88303   106711   126665 
  147384   164252   173135   175288   176212   180089   183798   178681 
  161501   137499   110484    81667    55638    35065    16739    -1094 
  -20499   -46213   -72343   -86257   -86640   -80364   -73536   -68026 
  -61925   -57255   -56374   -55121   -48702   -36119   -22469   -15321 
  -14430   -13830   -11129    -8877    -9062   -12005   -21137   -38616 
  -59717   -76997   -86954   -92930   -98362  -105774  -115594  -119194 
 -116269  -119371  -128230  -133500  -138713  -151392  -165938  -178062 
 -191160  -198538  -194664  -186946  -176288  -154642  -122936   -92203 
  -69616   -53582   -39050   -22882    -7259     4969    19297    44124 
   76024   103955   120774   122176   109446    90699    74302    64919 
   60839    55180    39012     9236   -22854   -41775   -46208   -49777 
  -62693   -80883   -96420  -106367  -109611  -105972   -99602   -93307 
  -82406   -66215   -50359   -31550    -3771    28826    60569    92362 
  126341   158677   183701   202410   222152   247881   273163   291098 
  306518   323424   340094   357743   378490   399818   413523   412987 
  400770   380459   349275   305602   254596   202735   152822   105882 
   62460    19605   -27207   -77314  -129738  -188318  -252434  -317030 
 -376254  -419720  -442784  -441911  -401212  -323166  -233724  -145770 
  -70545   -13893    46917   114369   167551   215299   261176   289410 
  307097   310520   276520   208313   124375    49593    10508     2250 
    -952   -17107   -51442   -92190  -121876  -139240  -153274  -162238 
 -157977  -140157  -119587  -112085  -118404  -129050  -144501  -162847 
 -175860  -184320  -195186  -209360  -218985  -212296  -180754  -134075 
  -95292   -72144   -56866   -42951   -32910   -33031   -32806   -19916 
   -9837   -17430   -30784   -37069   -35315   -25517   -11167     5350 
   28394    54038    78265   108834   142821   170002   188572   191126 
  169969   128719    74229    21298   -14908   -39569   -65335   -96005 
 -129313  -158262  -180903  -202462  -219901  -227414  -222467  -194395 
 -139583   -74777   -13370    43533    93710   136447   173385   199868 
  215384   225308   223854   202966   165573   119568    78348    48953 
   22505    -1753   -23012   -48814   -74453   -98550  -120380  -129417 
 -130063  -124837  -108430   -92228   -85784   -85192   -86551   -82930 
  -71201   -61955   -60387   -57901   -48701   -44320   -57711   -69282 
  -61885   -53047   -44200   -30562   -26558   -17979     7276    22105 
   17506     2103   -22623   -48650   -75514  -108341  -135054  -143818 
 -147475  -154047  -152464  -143643  -117407   -49414    38095    97116 
  124403   146446   166984   178908   186539   196644   212125   225318 
  234013   239027   224204   186100   140106    96992    65421    53576 
   60219    74811    93257   116273   136412   147765   154080   159335 
  165405   179965   209519   250484   293050   323381   334504   330834 
  315307   288475   251644   209277   169795   132634    94595    63269 
   40441    22516    10971    -2426   -25208   -48466   -70205   -95541 
 -120009  -146824  -182354  -223473  -272172  -317762  -345546  -371427 
 -396587  -404101  -406773  -414586  -423103  -425896  -407426  -376339 
 -349234  -322648  -306986  -295296  -259147  -218239  -195867  -173235 
 -147883  -137159  -142339  -159405  -183876  -206497  -227448  -246493 
 -253412  -245419  -216098  -153759   -78250   -31636   -16065     9516 
   51593    78234    93382   117968   144470   171681   205388   232296 
  246189   249029   238706   223261   212390   211211   217388   217325 
  207164   194382   185146   183255   187182   194475   203257   209196 
  208892   206049   209400   212204   205115   196876   187011   172500 
  156091   122747    66159       66   -63427  -108598  -122643  -114048 
 -103007   -98517  -101229  -106468   -97595   -67461   -25151    21857 
   73941   133298   185108   210312   214500   212556   208997   196908 
  172146   136980    72840   -12329   -44868   -31793   -74616  -127676 
 -107646  -117367  -159832  -124702   -67718   -19225    48243    85497 
   97130   104883    99458    97772    97566    93521    93857    88144 
   71659    48205    20628     -687   -16839   -36574   -53191   -61855 
  -67474   -64229   -46816   -27219   -17329   -17541   -16116     2765 
   27059    31505    24861    14170    -9833   -30057   -47208   -76701 
  -98613  -113540  -134556  -144067  -135012  -111962   -80629   -54105 
  -26970    12109    49949    74895    92900   101263    89835    71621 
   68195    72140    75033    75469    59964    50510    63347    62855 
   55249    62916    63864    56405    47895    28235     1992   -25436 
  -58940   -99604  -139156  -165205  -175107  -179939  -200158  -231085 
 -247863  -256419  -262668  -268831  -278762  -272468  -258519  -252400 
 -244269  -237732  -238191  -239001  -220235  -183457  -162870  -164336 
 -169531  -177334  -197792  -224713  -241422  -257512  -281130  -292457 
 -293186  -302513  -314550  -311451  -280602  -222650  -157058   -99422 
  -50683   -10735    22202    54554    88300   120320   151512   185125 
  220881   256197   283993   297676   298896   289085   270337   253928 
  247354   245917   245276   247116   252248   258384   266887   279951 
  291742   297513   298646   296804   299266   311689   327220   342731 
  362319   379772   379378   348186   292151   239810   204730   171400 
  139003   121423   109499    91077    72687    61147    56848    50040 
   28568     3581    -4135    10057    46513   100559   150074   181678 
  207100   236239   265189   289897   310150   328217   344885   355576 
  358834   356754   343566   296460   192247    70133     9743    -7822 
  -57072  -103811  -112154  -141932  -186422  -203143  -233953  -286659 
 -322706  -353390  -397816  -451920  -510567  -573793  -637750  -685309 
 -707225  -705996  -687058  -670623  -665360  -652024  -626819  -591587 
 -519609  -406258  -296593  -224874  -182365  -162475  -174744  -192485 
 -186614  -183328  -190172  -180166  -173022  -191004  -201709  -190035 
 -174443  -155348  -131234  -110494   -90969   -66794   -40722   -21699 
   -7098    16506    42689    60720    82400   109819   129148   135626 
  123009    83961    25976   -35899   -91519  -132034  -147901  -153555 
 -176159  -207583  -220558  -204695  -161756   -99761   -32665    23263 
   60075    83261   102546   124075   148904   182056   227153   275007 
  321134   363630   391475   402743   402934   394497   386692   392091 
  406089   401296   360270   303937   258812   226948   205680   187318 
  157192   120008    84479    47998    18403     2932    -6207   -15039 
  -19835   -14664     2328    33181    79313   134359   189560   242210 
  297276   352064   389971   416802   454057   487086   491654   455151 
  350239   201303   100859    69989    42423    -7444   -62117  -119643 
 -169332  -203304  -242976  -289776  -329179  -373277  -430598  -494116 
 -559896  -616766  -655498  -679491  -690825  -688770  -669246  -629294 
 -582225  -539627  -490684  -430675  -375005  -329613  -290537  -260234 
 -233055  -197142  -154444  -110724   -65927   -21639    19518    54454 
   83595   113148   144023   174835   207256   242155   285340   340757 
  400507   454314   494684   517603   519049   494073   452649   410334 
  369838   336698   311277   275578   227815   183262   144854   115225 
   99741    91473    83352    77240    76856    89207   121624   167875 
  212250   248242   277146   299773   320734   342785   364417   388934 
  415999   438366   453417   456001   429207   358114   255886   167826 
  120829    92511    59782    23997   -14513   -56509   -93455  -113105 
 -110844   -96670   -82828   -73660   -75507   -89801   -98806   -91041 
  -77411   -63774   -48349   -41958   -52613   -69468   -88658  -122857 
 -169218  -213562  -260531  -313977  -359024  -393789  -437146  -483814 
 -507387  -518125  -541133  -568692  -587989  -592535  -571177  -521210 
 -448036  -364021  -290672  -238717  -202622  -179808  -165268  -146662 
 -127642  -119387  -116933  -113868  -111337  -106994  -101499   -96972 
  -85656   -65262   -40627   -12750    11459    26863    39463    52935 
   66993    83819   104932   129269   154929   177690   192836   199600 
  199433   194350   183962   165581   145757   133785   122204   100579 
   73711    48418    26389     6450   -17210   -44142   -67330   -83809 
  -92682   -94932   -89440   -74644   -60175   -55422   -59954   -71524 
  -84573   -92098   -93193   -89841   -80884   -64707   -44827   -24025 
   -1945    18609    36671    55945    76711    94777   108760   120903 
  133329   150929   178334   213041   250585   287966   322699   355531 
  384744   398925   393856   387147   385344   366091   323406   274442 
  227106   192617   174581   149113   114313    91918    75313    53188 
   32822    12115   -11096   -25675   -30543   -35533   -41711   -44922 
  -45162   -42758   -38929   -36351   -34621   -33413   -35765   -43195 
  -52453   -61389   -72912   -87460  -101682  -116674  -135187  -157403 
 -185267  -220014  -257344  -293657  -332413  -378060  -429991  -484339 
 -533394  -567110  -582545  -583803  -571264  -546475  -516689  -474771 
 -404552  -318347  -246754  -196574  -155215  -113497   -70821   -36717 
  -13149    10812    32637    46226    59050    72022    79681    82083 
   78328    67548    49901    21904   -14121   -43364   -51014   -33142 
   -1924    16902     8048   -19213   -43963   -48224   -34130   -22457 
  -20523   -19404   -15603    -7354     7002    21552    32502    42864 
   52689    59610    67720    81390    96702   110171   120785   124538 
  117234    91656    47182     4986   -17459   -25734   -29620   -36801 
  -51555   -68098   -80287   -86779   -87620   -86612   -87186   -86969 
  -85814   -86237   -81501   -62937   -32722    -2799    12909    27567 
   60613    73815    56180    70886   101689   105688   124937   149238 
  142825   141699   154803   160816   165698   175473   191802   217733 
  246217   265506   271139   270276   268183   253687   219378   185212 
  170626   157969   130698   107241    90677    65378    43235    35380 
   27806    17131    13474    15628    19692    27200    37144    45452 
   46905    46682    58082    76644    85545    81982    74298    66302 
   57503    48731    40580    31101    20163    10184     -685   -14623 
  -29451   -45963   -66294   -87932  -107637  -124414  -139809  -155125 
 -166847  -172301  -175019  -179814  -187365  -194706  -202179  -211236 
 -215284  -207243  -188436  -164789  -143530  -127166  -111766   -95737 
  -80291   -65899   -53425   -41796   -28049   -11450     6636    23978 
   37805    46757    51145    51593    49112    43804    33280    16022 
   -6314   -31188   -53904   -68684   -77061   -86876  -101954  -119530 
 -131391  -125051   -94856   -51438   -12424    14987    36772    57454 
   74244    86483    99680   120013   146714   173564   197971   219624 
  235168   243213   247993   252880   254221   245073   224365   197430 
  168444   140233   117371   100842    86943    73342    57466    36796 
   14854    -4697   -27715   -62608  -105103  -138859  -158561  -185738 
 -226316  -245867  -248653  -263338  -258107  -232883  -231586  -224767 
 -188002  -152111  -114727   -69514   -33862    -4411    23149    45660 
   69719    95977   123407   152310   177936   203143   229434   245801 
  246261   241074   244266   250795   245163   231453   219641   210073 
  204909   196635   175374   149801   126508   104055    87381    77055 
   64032    46675    32531    22881    13836     3264   -10662   -28478 
  -48912   -70347   -92544  -115921  -139191  -159530  -174876  -185583 
 -191445  -189313  -173184  -137193   -86360   -40323   -13766     -862 
