Origin Time       2011/03/11 14:46:00
Lat.              38.103
Long.             142.860
Depth. (km)       24
Mag.              9.0
Station Code      MYG007
Station Lat.      38.5877
Station Long.     141.2510
Station Height(m) 4
Record Time       2011/03/11 14:46:47
Sampling Freq(Hz) 100Hz
Duration Time(s)  300
Dir.              E-W
Scale Factor      3920(gal)/6182761
Max. Acc. (gal)   650.905
Last Correction   2011/03/11 14:46:32
Memo.             
[...]
  -67264   -70282   -75772   -74476   -67322   -59072   -50553   -42782 
  -40710   -45977   -52709   -53451   -45056   -34918   -34981   -43858 
  -52252   -55673   -52288   -45493   -37745   -24044    -4897    14294 
   32559    45913    45394    30505    12884     1203    -5133    -7209 
   -5309     1134    13202    27902    41746    48329    37010    10388 
  -15566   -32119   -41480   -49205   -57630   -62790   -60941   -56145 
  -58657   -68294   -70548   -59905   -42863   -24892   -10815     -190 
    9444     9651    -6796   -30406   -44760   -44280   -38739   -35238 
  -26154    -9029     3863     6201      158   -16042   -36012   -42089 
  -32618   -23779   -22707   -26878   -38996   -60434   -81241   -90077 
  -87605   -82424   -75246   -63820   -60368   -70637   -81460   -91976 
 -109793  -122552  -110902   -76943   -43083   -24772   -12996     4298 
   15247    10637     6697     8630     2525   -11789   -25131   -38649 
  -52546   -60964   -69220   -83220   -94950  -100407  -100886   -93687 
  -81615   -68602   -53881   -42698   -40313   -45136   -55102   -65756 
  -71180   -68055   -52929   -25651     3254    20234    22032    12837 
   -1564   -12844   -18619   -25226   -36545   -52943   -68702   -72599 
  -64262   -55028   -53604   -59447   -67492   -74320   -78153   -79110 
  -78965   -75986   -62237   -35624    -9597     6217    21592    42219 
   51902    37907    13311    -1914    -6128    -7752    -4980     5599 
   12349     6836     1103    -2284   -23138   -58709   -78963   -78477 
  -73580   -66310   -55275   -44523   -32159   -18271    -8140    -5078 
  -11204   -22628   -31691   -40183   -52961   -69189   -89026  -109236 
 -121699  -127051  -127967  -115866   -83565   -40297    -4740    17176 
   34373    49899    64243    79415    84901    75405    62518    46834 
   23564     5083    -2114    -8723   -18323   -26254   -34027   -45964 
  -63114   -83264  -101651  -115269  -122354  -115899   -91718   -64463 
  -57595   -73159   -89068   -87918   -71045   -49308   -28126    -4735 
   16138    31116    48954    62646    56983    42102    31844    20114 
    3084    -7646    -6284    -3466    -6701   -16171   -31430   -42521 
  -44990   -54554   -74600   -87138   -89104   -90614   -91706   -91331 
  -90868   -89299   -89378   -94913  -104434  -112858  -120541  -132131 
 -139463  -132244  -117037   -98266   -70053   -33246     3838    33819 
   53360    65597    77405    82102    61600    23221    -5591   -20650 
  -32524   -40810   -48558   -61791   -68338   -58494   -49043   -53228 
  -58948   -58665   -63047   -74568   -86229   -99185  -108681  -100756 
  -78552   -57918   -43143   -30287   -23515   -31573   -44524   -39486 
  -17684      249     2988    -8469   -19453   -14930    -4387    -3422 
   -2940     9556    21931    13936   -18992   -62477   -99931  -125438 
 -139562  -144416  -136666  -115446   -92825   -77028   -64404   -50199 
  -33418   -14437     4381    11358    -1918   -19571   -23315   -21687 
  -23196   -16476    -7520   -11616   -11324     6613    22643    27814 
   31194    31894    25634    15720     3705   -16271   -42134   -54137 
  -46964   -38467   -32210   -19782    -4545     5078     7776     7800 
    5728     -813   -13555   -30694   -40759   -38530   -31481   -19408 
    -824    14181    19665    17933     6344   -15232   -37205   -54922 
  -68062   -68176   -48542   -18574     5805    19536    23354    12317 
  -10347   -28038   -39810   -59638   -83217   -98771  -111660  -129103 
 -145518  -149302  -135447  -107111   -68050   -29331     -729    24686 
   44840    49457    49055    46472    26254    -7517   -30188   -28172 
  -22296   -27010   -21489    -9076    -9555   -12728   -16696   -37724 
  -72892  -103791  -118945  -120995  -115862  -100074   -71870   -41887 
  -16780     7057    28265    41145    39856    21981    -5951   -42210 
  -83059  -110604  -118926  -116497  -101197   -70958   -42163   -29209 
  -28735   -35607   -44513   -52414   -68774   -92127  -111301  -128031 
 -140705  -144654  -143214  -129633   -92836   -42988    -2300    22343 
   44798    67291    69045    49628    25050    -6048   -41831   -70475 
  -84467   -75769   -49939   -26809   -12691    -6767   -14940   -39893 
  -75047  -108039  -130186  -142340  -150288  -153262  -143508  -122859 
  -98078   -66905   -31765    -4741     3212   -10040   -22731   -10377 
   16519    36828    48264    53263    46268    25966     9709    10554 
   15535    14845    14121     6898   -10372   -19207   -19923   -28858 
  -32310   -17784    -9149   -16716   -14919     2126     8165    -5122 
  -24028   -45644   -72273   -99267  -125680  -147008  -147324  -125423 
 -102300   -86400   -67064   -44466   -25654    -6597    11717    21613 
   29455    41036    38697     1611   -57173   -98475  -113833  -127817 
 -139622  -134162  -122526  -116062  -109096  -101085  -101376  -111459 
 -120654  -126653  -128664  -118343  -103136   -93609   -87181   -81696 
  -73411   -65743   -74306   -96255  -108467   -97632   -65580   -23100 
   18269    57147    92589   120845   142422   143432   111549    74356 
   56834    48268    40366    39235    50042    64851    63737    43868 
   27578    28312    34597    29158    10500    -6900   -18499   -32864 
  -54988   -86923  -127155  -170742  -206089  -219099  -207667  -173547 
 -123505   -82011   -69244   -72786   -67921   -54316   -42321   -30143 
  -16300    -1875    17175    36871    42317    31530    17728     5402 
   -8260   -25937   -54110   -82142   -91487   -91290   -96067  -106491 
 -122567  -140123  -146428  -134419  -115014   -95999   -73747   -57773 
  -65996  -102329  -147872  -177306  -187728  -193125  -195896  -177981 
 -130673   -74930   -34920   -15110    -2961    11189    22036    30048 
   44827    57908    64319    84092   110554   108129    69816    17116 
  -39365  -102396  -154536  -180544  -195806  -193211  -154213  -113722 
 -105358  -106360   -89080   -48446     8496    64010   100328   100774 
   54247   -23683   -99999  -162492  -215242  -248426  -256212  -240106 
 -184209   -93851   -10140    54605   114772   170145   209175   217839 
  203918   181929   150227   123519   118556   128403   133588   115860 
   80003    39790    -6589   -51925   -69447   -48934    -6653    29820 
   27637   -14728   -61501   -98860  -126136  -136960  -145337  -148030 
 -134352  -118385   -88812   -31012    31856    73084    77123    37066 
  -30174   -77702   -76249   -46818    -8459    30100    48909    50479 
   39387     5262   -34512   -52684   -46635   -34517   -37721   -56974 
  -78185   -95607  -116421  -146603  -179410  -204603  -219782  -230647 
 -237206  -222941  -183605  -137288   -85522   -26793    12680    22898 
   27852    34961    26226    -3804   -38360   -62632   -75647   -83205 
  -97652  -117008  -117906  -100517   -85392   -71532   -51063   -37465 
  -39972   -36091    -8209    26681    45831    47657    45868    41422 
    9979   -54288  -105338  -117626  -128461  -144263  -132735  -106824 
  -99671  -121459  -156022  -169850  -158748  -140861  -118258   -88272 
  -51241    -6870    41347    83868   117227   142500   149481   141657 
  138897   137707   124188   107357   102616   110524   117415   107025 
   88148    67790    22245   -33788   -54067   -50950   -67500  -112645 
 -168855  -225205  -285720  -336932  -358596  -364408  -365480  -343646 
 -311404  -307287  -315404  -308198  -303530  -295298  -241781  -130264 
    -941    79964    98317   112439   145366   166793   180513   197544 
  212871   242203   292951   332325   317390   252184   172870    93927 
   18024   -49322  -107421  -154373  -176092  -185532  -228627  -277451 
 -269960  -233944  -201379  -168394  -149150  -137583  -125250  -120560 
 -108117   -64238     5176    60555    83384    93631    99844   111793 
  136007   153581   164120   162329   130964    83274    30286    -7271 
   -3468    19256    24676     3537   -29590   -66829  -110390  -137029 
 -130609  -111268   -98018   -95847   -94904   -80217   -65537   -67674 
  -76667   -88618  -112297  -145385  -170421  -176357  -167980  -130792 
  -53866     7619     5841   -31555   -83181  -141725  -180421  -206132 
 -230861  -232931  -194932  -116596   -32019    18038    43174    60913 
   64101    60070    69006    97312   139070   186529   234703   277974 
  303586   274021   164569    34757   -43693   -85936  -129479  -142110 
  -75373    24915    80471    92579    85204    36282   -63174  -150288 
 -186831  -215381  -237028  -225239  -216679  -226317  -220152  -200832 
 -186584  -159213   -96276    -8347    64995   105602   115906    63536 
  -38858  -107759  -133972  -168962  -204819  -219482  -236729  -258823 
 -268394  -270488  -254586  -216006  -174827  -141708  -115324   -85960 
  -58123   -36094     2343    57564   102744   130298   149641   152843 
  113011    37178   -22167   -41521   -49260   -56091   -42016   -11508 
   13013    24151    14883   -27156   -92496  -143893  -164019  -166899 
 -146523   -93589   -29281    27185    75268   120008   156002   180789 
  202731   204380   175790   153398   148432   130419   103499    92082 
   91489   106334   137631   144708   102242    30213   -33076   -73945 
 -115840  -152326  -154852  -150736  -178649  -215186  -228703  -235100 
 -233207  -191784  -126857   -61798    13788    83081   115000   108535 
   84949    61199    17541   -64482  -149018  -188664  -174920  -144173 
 -142041  -150638  -122847   -88846   -91056   -92582   -79808   -90897 
 -114292  -127059  -148141  -177486  -195689  -211714  -243069  -286161 
 -328165  -362324  -384523  -391562  -370444  -287603  -143671     3191 
   97552   110417    78196    76494    90254    76466    63887    79255 
  123083   185869   243247   282777   307341   315629   295676   220811 
   74723   -87766  -184100  -217398  -224592  -194506  -135718   -95210 
  -83245   -72319   -57493   -58740   -75203   -93627  -112593  -113439 
  -67895    15677    99515   158844   200667   225055   227674   240537 
  268272   279597   285575   293309   276374   250198   249541   256198 
  209436    82075   -30916   -38188   -32618   -98587  -167587  -209582 
 -249410  -283324  -333556  -411422  -510988  -640062  -720700  -661996 
 -518100  -355155  -214453  -200223  -236123  -146463   -23472    33479 
   88948   144961   176539   191195   205966   227930   233929   223057 
  204165   191530   193945   172027   124361    89553    57155    17821 
   -8684   -13598     9280    45103    52168    27496      968   -23013 
  -46152   -67083  -109440  -184646  -274454  -384030  -534867  -682132 
 -645100  -293949    55081    23924   -71659    83851   153833    92980 
  203772   348395   345503   283212   200818    86476   -41431  -140250 
 -191648  -223693  -236755  -239353  -249185  -239654  -204121  -156952 
 -119222  -136207  -205375  -274184  -311945  -324224  -330934  -331447 
 -322284  -307542  -254282  -135543     -561    71253    61724    15329 
  -34304   -92060  -179636  -286464  -362264  -400381  -407372  -334507 
 -197143  -101053   -68028   -23612    26490    20532    -8043   -23391 
  -51717   -78567   -87321  -100314  -124428  -146319  -148750  -133192 
 -103825   -51331    -4650     6224     5295    -6850   -72154  -166137 
 -116956   170550   386327   310897   277034   362203   296781   213817 
  193051    51101  -150424  -258025  -225973  -143305  -141487  -183276 
 -191431  -157598   -99813   -50425   -19437    -3580    12861    44999 
   79798   104480   118657   127725   142394   164929   176082   171238 
  181026   198869   182346   160145   191950   228323   189541   127597 
  103671    66177     8398   -20634   -33292   -32303   -24687   -60557 
 -115418  -129612  -120663  -129596  -160290  -201099  -248407  -284925 
 -272659  -196771  -100723   -58640   -90142  -141648  -170029  -185821 
 -203012  -200821  -162878  -103651   -64917   -87416  -130365  -132827 
 -119919  -112806  -100420   -96604  -105052  -114646  -121908  -130046 
 -139732  -140071  -128769  -112565   -94901   -80912   -75422   -84462 
 -107764  -128125  -136251  -142188  -144287  -135762  -133448  -149188 
 -164483  -167223  -175772  -197052  -204288  -181794  -147145  -116820 
  -80530   -43011   -31266   -24228     -138    12387    23825    65433 
  119082   168009   211722   243904   263697   263912   239462   202045 
  144571    75829   111076   298635   392171   254124   155817   174774 
  118921    37593   -18230   -82950   -77658   -27343    19710    94068 
  141408   128079   114724   118770    89475    23372   -49726  -161229 
 -317821  -450400  -498231  -440271  -295978  -116780    27899    84698 
   88653   111777   138247   133343   121400   113593   111725   108407 
   74800    41440    55868    97391   116905    80943    12678   -41470 
  -87291  -119709  -130792  -138167  -110420   -62580   -68701  -118063 
 -169768  -215195  -238819  -240303  -250323  -276424  -297242  -304767 
 -285785  -230846  -174827  -151897  -154452  -163700  -174108  -182643 
 -177846  -166202  -180806  -220686  -247916  -260983  -279242  -298519 
 -323299  -357922  -381902  -393172  -401177  -383669  -316827  -214971 
 -118151   -61396   -43604   -28279    -3968    10409    23484    54971 
  112457   193156   259460   277611   273844   300279   374118   470622 
  553510   593540   594945   579247   526692   433078   347248   281790 
  211180   141358   105469   103949    98752    79781    56482    22146 
  -10915   -23953   -23265   -13594     6123    22879    15238   -14249 
  -44087   -86200  -148229  -195756  -243166  -335267  -452922  -588864 
 -786313 -1008841 -1065788  -830944  -569791  -576476  -619507  -517383 
 -484439  -455316  -309151  -239954  -230352  -182952  -167655  -150303 
 -110835   -77422   -24856     5683     9726    52706    98474    90359 
   48249    -9284   -76016  -140219  -188951  -200808  -185914  -176373 
 -167462  -135513   -54317    74222   176248   191122   159121   155896 
  184524   198883   196912   192754   179302   172112   187468   237428 
  363847   503906   507656   444096   445884   437585   424663   422832 
  274623    59892    10672    75872    95739    67207    41599    12876 
  -12532   -21440   -34930   -44167   -34935   -19928     9910    44746 
   48208    27493     1883    -6299    22232    47608    54916    78833 
  108722   108989    73106    28186   -10382   -50150   -84169  -121663 
 -168662  -199815  -217031  -239258  -262451  -262112  -219620  -156260 
 -109513   -98945  -114670  -129164  -144884  -181202  -231056  -277197 
 -304182  -297563  -258444  -211633  -196855  -220793  -241727  -243254 
 -243935  -235114  -205719  -161156   -94572   -27383       79     2668 
    4438   -15911   -49551   -54503   -53048   -90213  -148265  -187437 
 -199312  -206200  -225651  -244822  -239657  -184115   -76707    15930 
   36961    34676    57277    62959    45906    49511    50253    35602 
   41505    51401    41514    35091    47203    72332   105522   137889 
  153622   157736   175043   191625   186836   206765   257871   264895 
  230826   212903   209797   208713   203608   188334   176823   161619 
  108209    42863     4660   -58156  -162715  -257954  -334064  -390678 
 -443608  -523608  -628331  -756594  -877422  -849513  -522844   -99483 
   -1253  -100845   -18680    95226   114764   177066   226187   249351 
  291363   284450   221348   113328   -28196  -154019  -246281  -294996 
 -283420  -240229  -216886  -206388  -177425  -154441  -149517  -122241 
  -75974   -48886   -35920   -20309    -1246    31862    72918    85985 
   81733   108618   150291   158589   132359    87805    39536    13603 
   18545    20908    -3313   -14795     9302    26690    27778    37034 
   63996   107018   125414   116836   136017   142870    73101   -18515 
  -66515   -79030   -71148   -46436   -33260   -34831    -7755    33463 
   39718    28088    25607    33234    66889   128208   182466   186159 
  115102    12762   -36382   -18851    10057    15024     1068   -16671 
  -43614   -86654  -129482  -168782  -210312  -251861  -305541  -369084 
 -408240  -399453  -358799  -320980  -285128  -215786  -112414   -27288 
   15722    43814    51800    27422     3294   -15475   -51308  -111680 
 -192417  -263392  -308984  -342223  -361603  -363225  -350125  -337316 
 -341466  -341778  -315819  -274948  -213509  -101787    30279    95106 
   82662    77389    99261    94711    91914   138204   187306   215277 
  238705   240203   218019   191086   153337    94016    38256    34413 
   81391   120065   124855   122594   121253   108988    90348    64843 
   19722   -22065     4812    74821    65357    -3508   -41117   -79657 
  -99828   -33587    71777   141866   166617   195965   236191   231210 
  215645   232981   229829   214728   250262   281374   227973   150049 
  133338   153019   120190    17371   -39709   -21173   -55812  -143511 
 -174832  -178052  -223971  -277168  -303661  -306572  -267559  -223412 
 -228815  -236963  -211539  -197691  -201387  -196730  -200705  -221812 
 -235829  -218311  -166412  -107717   -58328   -17516     6673    23758 
   34873    14344   -33616   -90363  -146505  -181710  -189179  -181146 
 -169394  -168420  -182603  -200698  -218525  -238841  -256581  -269026 
 -284745  -306733  -318916  -311013  -302420  -296220  -252006  -156916 
  -67154   -30743   -16223     8179    16484     5893    -6146   -24248 
  -37695   -30714    -8373    19975    55965   102709   141992   161490 
  177131   194245   186285   122839    20120   -68241  -122544  -154987 
 -172523  -180673  -172034  -146015  -125567  -109104   -89663   -84083 
  -95002  -120223  -156161  -171696  -144864   -89150   -26814    18966 
   39689    53951    64148    57099    51840    64663    69365    61455 
   81093   136847   190331   210110   200201   192357   196675   183292 
  154596   142459   130245   107421   107127   126349   141608   154960 
  167930   174386   168438   152073   122864    90494   120456   182380 
  123877    -2362   -67967  -158534  -251036  -256868  -274191  -279510 
 -185484   -52757    66869   136216   144432   134621   128926   130068 
  111350    53317    -2139   -29781   -53703   -77614   -81066   -68847 
  -64147   -69413   -80551  -110305  -161350  -216686  -261936  -296805 
 -319378  -307120  -267553  -254389  -264548  -249095  -221614  -214162 
 -218426  -228998  -244365  -257388  -275839  -302562  -328506  -353845 
 -373402  -364590  -317389  -250198  -187245  -131599   -65012    10940 
   72069   110837   135424   166220   217106   269599   300227   302616 
  290074   275612   242464   189306   146399   103527    45048    16342 
   37038    65300    76839    73520    67044    76489   101230   131406 
  163150   183773   179185   148483   106141    72888    54951    39482 
   23879    19510    17301     6343    -5439   -11480    -6070     9837 
   29114    48889    69271    93802   114201   112248    84469    50574 
   26459    13185    18705     9603   -51191   -90262   -90372  -153237 
 -232397  -243323  -270833  -346745  -405185  -438424  -461132  -462763 
 -437195  -406130  -381984  -347531  -310131  -293766  -286835  -271149 
 -251576  -229484  -203665  -172670  -136131  -114248  -113520  -115402 
 -110684   -91895   -62248   -33891     4000    52153    91287   119958 
  140815   151867   163889   185830   209857   230673   247833   243479 
  192806   104352    38817    30260    24643    -1901    -9979    -9506 
  -17798   -11700     9581    29969    41102    36715    16340    -8772 
