Origin Time       2011/03/11 14:46:00
Lat.              38.103
Long.             142.860
Depth. (km)       24
Mag.              9.0
Station Code      MYG003
Station Lat.      38.7349
Station Long.     141.3116
Station Height(m) 32
Record Time       2011/03/11 14:46:47
Sampling Freq(Hz) 100Hz
Duration Time(s)  300
Dir.              U-D
Scale Factor      3920(gal)/6182761
Max. Acc. (gal)   302.653
Last Correction   2011/03/11 14:46:32
Memo.             
[...]
 -109460   -12139    36577   -40273  -155541  -185074   -95405    15992 
   38562   -12840   -71035  -100531   -85189   -44536   -61264  -146769 
 -165206   -74427     6404     8925   -34990   -80439  -116776  -116029 
  -54420   -17895   -47169   -59439   -55474   -62837   -41470    -5968 
   -2215   -62858  -143407  -135974   -89728   -63865   -15734   -23257 
  -87881   -96561   -87523   -96658  -122733  -132677   -32570    62811 
   17556   -82980  -157271  -148352   -57126     3633   -20877   -76191 
  -48885    33336    -9263  -137629  -181784  -135650   -47602    32803 
   37263   -39137  -108419   -95875   -94676  -170172  -170141   -59808 
    3435    -2418   -35913  -103659  -140603  -105214   -55639   -39848 
  -33758   -19844   -39253   -64882   -26687    28220    -7912  -117855 
 -172995  -140838   -67896      257    -7837   -62308   -84937   -93252 
  -75659   -48070   -77212  -105103  -107001  -101059   -24815    58329 
   42057   -44181  -136225  -137015   -25991    46120   -11756  -119190 
 -145232   -76340   -18711     9824     -664  -114259  -208066  -148324 
  -22507    38498   -18882  -112525  -125859   -71641   -16861   -44357 
 -135276  -146455   -97094   -63173    -7205    21408   -52819  -180254 
 -226892   -89194    99331    99431   -80401  -222266  -178445   -24995 
   70133    35550  -100133  -201696  -145008   -15824    27530    -6158 
  -36037   -69973   -96351   -84940   -79697   -72463   -34509     -480 
   13254   -15140   -89910  -138471  -101963   -27781   -19608   -69131 
  -90113   -87129   -78518   -46840   -22309   -31371   -63185   -94140 
  -88972   -67048   -86469  -125978  -102240    -4003    47631   -22136 
  -96751  -100553   -79043   -39253   -23218   -72052  -115822   -88679 
  -36300   -58083   -85076   -21564   -28477  -159849  -185122   -46622 
   57177    32968   -46497  -100797   -86336   -43997   -31811   -31676 
  -42961   -74878  -109631  -113354   -44855    -4520   -96549  -176649 
  -95913    80093   147462      498  -180930  -215862   -93641    88022 
   96272   -78893  -173039  -111285   -10023   -24282  -149776  -175204 
 -100197   -26895    29177   -27937  -128349  -116536   -52575   -31471 
  -58032   -71888   -44365    -4269      675   -65201  -121232  -105283 
  -62360   -42053   -73789  -125144  -139645  -109039   -90278  -110559 
  -94445   -51528   -67688  -100176   -79699   -44549   -37270   -28815 
  -29013  -113975  -213797  -149275    27519    73244   -49336  -162062 
 -191767  -138301   -20439    24503   -40136  -107068  -110663   -34637 
   20760   -15258   -47915   -84967  -157603  -178441  -125991    -7001 
   66973   -24543  -110138   -94928   -85961   -84190   -65467   -29281 
  -45879  -140198  -107983    58937   133204    61457  -103036  -229268 
 -189515   -95799   -94090  -135910  -116941   -38436    22397      652 
 -108574  -207528  -194496   -77411    39296    26353   -66502   -88063 
  -60582   -18243    33111   -19750  -129862  -115501   -15945    30035 
  -12111  -107918  -140334   -72490   -27159   -18716   -32373  -120818 
 -168857  -103020   -52543   -38284   -20767   -55541   -94255   -73665 
  -93785  -146885  -150909  -129072   -40866    61993    28743   -86046 
 -161940  -145164   -79871   -79228   -91675   -45451    -8861   -11737 
  -45580   -80527   -65640   -40706   -72940  -148512  -195561  -159249 
  -56490    37534    28072   -79123  -153410  -117707   -14574    31751 
  -27300   -74681   -88939  -101144   -40161      266   -94616  -210438 
 -205530   -35488    91702   -49517  -269020  -320495  -177576    35254 
   78074   -29769  -107889  -151025  -100029    13476    25783   -13926 
  -79545  -161885  -105095    18972    19340   -67063  -165312  -222230 
 -129037    42870    96926    21526  -142643  -278192  -163670    26126 
   31471    -6032   -51589  -128617   -73001    69506    95374   -55153 
 -227997  -231792  -118254   -12437    56486    26959   -93437  -131090 
  -40303   -38537  -161796  -173250   -53490    48217    46616   -83687 
 -182149  -124109   -12387    18269  -120016  -281647  -196049    48829 
  167671    62352  -135196  -172470   -65316   -36866   -47261   -54149 
 -133646  -135266      336    83043    47091   -88277  -218710  -153232 
   -3769    20307   -34035  -123941  -144293    -3671    35241  -112424 
 -219180  -257210  -178489     8748    74485    43754   -39030  -176262 
 -130952    11706    32892    55342    64804   -19081  -114933  -186065 
 -159217   -59752   -66073  -106975   -29791    23225   -69504  -173246 
 -189150  -166459  -126311   -55284     2210    -2280   -34602   -38979 
  -45770   -77975   -76722   -38348   -16493     8833    73018    66911 
  -72241  -143747   -63377   -11047   -82066  -184259  -138692   -20284 
  -57171  -112078   -92483  -131967  -125630   -34603     -605     7561 
     151   -88138  -149517   -97163   -23895     3031   -22501   -78800 
  -70938     5085   -11475  -142183  -196257  -137721   -75612    -1651 
   18491   -86440  -161905  -161006  -124626     4184    94013    17289 
  -62516   -96833  -168806  -166899   -97839  -102923   -87070      366 
   23090   -72941  -223517  -254800  -122207    -8582    61680   116353 
   44238  -107416  -191403  -182214   -96466    26870    91361    43823 
  -80612  -191009  -145385    22994    69982   -28108  -103729  -134817 
 -139389  -103155   -76497   -74614   -50407   -17262   -24295   -64224 
  -75109   -54132   -64203  -118345  -176265  -100856   121608   186931 
   18738  -150813  -264973  -267785  -119570   -45310   -97450   -87909 
     989    84609    72126   -79851  -237648  -225515   -57065    34704 
   -9568    -5114    37021    45595    18702   -93618  -182321  -139547 
  -54796   -20683   -50284  -107615  -130063   -23489    85998   -54821 
 -247380  -183385    10022    53501   -99381  -162770    15914   157917 
   77270   -93823  -197935  -183385   -94315   -17805    24658    68244 
   80890     4607  -154676  -304078  -273452   -59062   103572   122675 
   90162   -21673  -158377  -128043     8853    81118   -11936  -218114 
 -219714   -35969     4581   -59392  -132525  -171493   -59157    34268 
  -20423   -63873   -94464  -145793   -94008    17961    43464   -32733 
 -138475  -131301   -32271    -4964     6161    10337  -111456  -231494 
 -204846   -80726    56199    64917   -76686  -172641  -189389  -198501 
 -127505   -23033    -8726   -69112  -171959  -219885  -104313    89042 
  193315   125178   -57512  -209938  -205211   -72905   -36716  -133833 
 -177661  -110741    48244   193527   182773    31841  -166055  -235353 
 -136326   -66626   -73173  -111924  -125379    22035   170839    41607 
 -237057  -372700  -253347   -23728    63620    44355    27897   -60184 
 -114184   -14027    52725   -12349   -85711  -133445  -147215   -46729 
   78449    58756   -87806  -297160  -408532  -224978    43383   101803 
   -7383  -140882  -194703  -167575   -72073    87656   133390     5274 
 -159996  -247677  -116976   109887   137898   -19053  -237370  -369193 
 -225978    55370   119146   -66074  -195505  -153758   -62289    25647 
   31090   -78514  -155471  -176313  -178700   -90737    -7882   -39036 
  -95632  -143889  -125398    32388   166808   130627   -28794  -198470 
 -270659  -251046  -208382  -155759   -75868    15860    51735    57286 
   68763   -11422  -114658   -64236    74839   157577   150685    55201 
 -159840  -424758  -500695  -306228   -24066   157227   181274   106633 
  -20931  -104200   -42115    23725   -27169  -141477  -223277  -143597 
   -4601    -6623   -43215   -29930  -108115  -205347  -128111   -73380 
 -182196  -152354    29164    83891    36028   -27680   -78876   -63227 
  -18729    10863     9409     4961   -23304  -166675  -229730   -39912 
  104415     9906  -169912  -364109  -438501  -228308    39584   156739 
  152423    -5898  -192501  -223708  -160540   -94854   -15029    99573 
  116504   -56820  -191063  -126192   -16628    30614    95038   128015 
  -10391  -174096  -243930  -260898   -96524   127288   111653    -7334 
  -91703  -187504  -146613    17326    71512    45429    -9045  -163469 
 -252421  -148894   -20488    19711   -62448  -222255  -256024  -153587 
  -54174    57497   132191    19216  -161667  -169700  -105528   -78924 
   53160   219273   213440    54443  -143145  -264659  -201697   -39674 
   -8675   -99733  -170315  -179742   -81646    -3116   -80696  -177082 
 -272773  -346456  -210519     8085   108450   142214    82472   -63172 
 -118929   -62149      228    37532    89776   154105   118270    -9612 
  -95289  -158110  -182713  -108352   -99736  -185732  -185074  -147503 
 -128432   -41592    25813   -15090  -106109  -196946  -230929  -219940 
 -193953   -49549   152727   205850   196771   206998    26841  -297464 
 -401929  -223357   -58434   -23621    55405   104145   -94998  -323816 
 -359690  -311351  -168254    98205   314107   370715   239389  -110663 
 -469158  -497173  -236762     5078    93648    81000    41289   -80896 
 -261979  -296048  -205089   -71056   142235   227598    63821  -128651 
 -228493  -215104   -81379    66386   171747   184367    86133    10998 
  -45840  -134175  -152826  -111242  -124837  -200948  -160312    13143 
   24327   -99107  -136591  -162086  -178025  -105407   -77698  -168659 
 -151857    37476    93557   -11674   -58179   -62737   -47291    41560 
  109225    51963   -61168  -100479   -71046   -91619  -100843    -1310 
  -43474  -247991  -207405   -20577   -61881  -150701   -69047    32456 
   83406   110122    17494  -186021  -320263  -341599  -285020   -77655 
  173711   222578   134157    45893   -80674  -135033   -70148   -66450 
 -128371  -195387  -241270  -120337    60455    15881  -122802  -177776 
 -280126  -309582   -62953   228041   281513   103091   -85585  -145287 
 -182844  -168336   -47195   -41605  -142461   -86872    53943   103328 
   82909   -11253   -93380   -93120  -115735   -88446       19   -38321 
 -150629  -191222  -131960   -20090    29203   -11667  -108489  -212871 
 -263291  -272590  -187215    24727   173323   140430    71286    82486 
   91180    16706  -107714  -214346  -249732  -134054    85139   167965 
  120382    88103     2813   -97868   -92796   -45169   -30644   -76304 
 -189756  -242742  -168462  -108528   -81252   -31497   -49595  -113427 
 -109210   -79890   -91308  -119756  -132811   -64148    88894   175546 
  140732    24222  -123424  -154391   -92976   -85608   -81093   -67871 
  -96690   -74025    -8730   -37055  -120256  -207761  -371332  -423542 
 -149433   139790   151674    84917    97772    98577    69614   107640 
  154847    53479   -77195   -75751   -32841    30363    80483   -25806 
 -208784  -293389  -229154  -106935  -118418  -290580  -400906  -265350 
  -50580     8409    56619   142045    41824   -80452   -39267   -34460 
  -34965    26179    -3418    28220   214203   262688   120392   -43880 
 -171830  -190235  -182790  -302162  -353053  -195719   -31784    30209 
   28839   -12012   -38117    -7176    45935    54274    40607    78604 
  144240   163414    85675   -47831  -133946  -179243  -204125  -222546 
 -318012  -420569  -425640  -364976  -200834    13351   104438   109218 
   90816   -18015  -122546   -54324    61334    62368    52978    20445 
 -112758  -167995  -168439  -288157  -322205  -145030    27975   125682 
  138426   -33320  -272385  -368943  -334840  -276185  -181490    15475 
  194284   238413   253977   162602   -84141  -173054   -87602   -46010 
  -17604   -44389  -149005   -94666   120442   166834   -10974  -129129 
 -111896  -138036  -224422  -185081     -561    85727    17043   -20884 
  -68077  -199344  -227806  -140851   -87752     2471    96202    24427 
  -80727  -103482  -176672  -239248  -170085  -145961  -209728  -160177 
  -71510   -91417   -84819     3666    10437   -92326  -118813   -30662 
   23001    49425    94242    47904   -99057  -209027  -251355  -245573 
 -130602    36080   115249    90332     6972   -59995   -85029   -92555 
  -49801    -8087   -45417   -89372  -103304  -132639   -95456    70229 
  127906   -57144  -197789  -177855  -191091  -236688  -194410   -96084 
  -43393   -26264     7933    20280    27320    61799    63697    15925 
  -63211  -138199  -188931  -205388   -64498   168429   183304   -27638 
 -192135  -183640  -102527   -85588   -92216   -71245   -62062   -12754 
   75461   108124    36740  -118047  -189603   -73707   105276   159870 
    5813  -182901  -222875  -171361   -51701    95521    84743   -59628 
 -151865  -167807   -98403    31395    13338  -126765  -145746  -114831 
 -114363   -27360    36580    -5321   -60378  -195334  -336090  -313609 
 -209230     7473   299251   346247   115657  -191679  -390543  -306210 
  -96718    -6262    42491    56965   -14655   -45341   -62815  -140008 
 -179947  -209553  -286604  -221983    22926    95194   -78930  -174276 
 -145207  -148375  -166538  -148594   -89610   -53721  -148904  -235674 
 -138881     7040   104696   137855    62459   -26221   -84207   -57730 
   83652    65315  -101576  -123375  -130285  -212991  -243519  -270648 
 -194250    10725    82703   127018   277653   236602   -17739  -179632 
 -206250  -180465   -76368    26394   -18125  -101239   -88796  -111309 
 -190151  -173003  -122312  -125122   -74337     9587    43094    71300 
   40199   -73875  -157942  -183916  -138300   -88745  -122673   -68617 
   99374   175277   185315   137643   -69088  -275003  -300645  -202138 
  -97590   -34745    21793    38406   -66385  -173242  -139693   -71059 
  -52976   -29553     8350    58153    48756   -77952  -136825   -27470 
   68754      359  -270412  -542180  -360859   151512   274238   -54277 
 -292632  -269558  -155021  -107864  -115316   -43826    78829   106665 
   23358   -35724   -14396    -3536   -10851   -24067  -110997  -217570 
 -229295  -150264   -11865   136074   160223     5251  -197240  -274323 
 -216575  -183217  -184023   -54168   115518   109306     8955   -55836 
 -111091  -104222   -12522    13634   -69818  -152865  -169734   -85203 
   69941   131906    53455   -33224   -92172  -151728  -180916  -153895 
 -128273  -185069  -224513  -143412   -52265   -29822   -14765    46223 
   87708    40316   -41871  -149052  -260581  -264792  -201481  -158874 
 -112492   -45383    64349   194163   220940    78409  -133211  -236578 
 -200335   -98926    30826    49290   -61263   -50563    56829    64831 
   26403   -13455   -50200   -88194  -201126  -281798  -226590  -106683 
   66148   197411   150387    -8608  -175932  -283059  -288084  -183443 
   14358   143346   102486     8759   -90145  -168483  -115418   -12852 
  -31248  -141660  -238042  -237120  -153766  -107243   -89570   -82374 
 -144053  -150227   -32701    29351    23417    50951      158  -136339 
 -162804  -114543   -56098   108778   197173    67219   -28876   -40202 
 -135358  -242414  -233813  -176706  -155315  -140357  -128180  -137412 
 -118245   -84714   -73363   -17065    29531   -37924   -93561   -92836 
 -118396   -96489   -29090    24408   100555   126537    74798     8877 
 -138901  -288135  -265525  -196203  -137278    24278   124016    10353 
 -143556  -213989  -223386  -163392   -93429   -75000   -28128     9872 
  -49145   -93093  -110275  -146432  -103209   -36523   -40165   -52530 
 -101495  -162306   -87461      -19   -42004   -54376   -27059   -17645 
   71043   121777    58383     2231   -62363   -80052   -23635   -73545 
 -193857  -219703  -180464  -128335   -47748    36587   101154   120305 
   24293  -100664  -123533  -111556   -79167    -9911   -16052   -80936 
  -81625   -34824   -45394  -122041  -162678  -123720   -59107    -6356 
   -2732   -82121  -161633  -184931  -196523  -158388   -43023    66447 
   81866    12613   -31892   -42392   -60766   -58538   -92752  -174012 
 -176729   -64313    50325    10492   -87415   -23158    60299    22083 
  -39639  -130557  -171385  -107912   -96056   -87531   -19061   -18798 
  -70667  -107353  -154465  -147455    15572   189419   151757   -18099 
 -173018  -257164  -171251    22543   119089    30737  -140531  -207564 
 -206928  -239829  -186099   -61627     9137    70001    94946    47771 
   -1071   -40232   -53934   -94592  -209788  -203789   -14461   134466 
  139113    73122    16820   -37466  -163258  -297748  -294408  -193847 
  -76838    68011   130894    40584   -52613   -57418   -79464  -198928 
 -294912  -260714  -136513    16645    99512   125477   169810   109140 
  -41692   -92467   -78951   -81723   -91072  -142348  -182622  -119876 
  -33274   -34749   -99300  -134776   -87395   -40275  -121682  -208130 
 -123930   -21252   -50373   -71620     4905    34191   -56355  -104479 
   -6467    87019    26329   -80590  -127092  -176120  -182088  -109862 
  -84338   -80369   -12409    22257   -15089   -22716     -918   -13220 
   -7096    30936   -22252  -147462  -175569   -86426    12791    59849 
   33665   -60917  -158259  -175159  -119959   -77723   -39798    25680 
   30260    -9592   -26824   -90535  -157769  -162014  -154566   -94529 
    6894    13446   -61767  -103199  -109662   -99190   -53956   -40532 
  -46099    23866    69636    15352   -29989   -50803   -87780  -120202 
 -138671  -104811   -33506   -41760  -115537  -134958   -85132     1579 
   67160    31513   -55133   -96555   -81504   -25550   -21604  -112684 
 -122243   -35915   -60867  -166479  -239637  -275524  -178476    36131 
  173221   165256    79725    14716   -28942  -119401  -133631   -48966 
  -68944  -119099   -90325  -131801  -192355  -133309   -60639   -53579 
 -103123  -220552  -286292  -183168   -42765    12535    41208    28175 
  -50708   -68052     -627    37851    23099     1806   -30052  -111578 
 -184598  -165230   -88614   -22915   -46793  -162976  -197403  -108760 
  -56533   -61209   -65649   -78508   -73923   -62968   -81152   -83055 
  -41530      476   -33177  -124573  -153509  -112676   -42574    36980 
   55236    -6268  -112603  -173862  -120117   -56165   -60300   -80222 
 -105977  -178442  -267329  -267929  -135146    48165   154202   162878 
  100973   -48434  -154015  -113637   -76684   -65205   -23993   -53833 
  -84180   -36010   -58488  -120719  -107673   -70910   -18201    23333 
   13768     1007   -60892  -173135  -200661  -143547   -73891   -29026 
  -76883  -164923  -173051  -111791   -17933    54839    19726   -86981 
 -134017   -53012    45410    -2435  -117507  -147673  -141271  -160602 
 -178928  -163634  -128266  -120144   -95355   -27013   -26101  -113483 
 -160923  -127004  -103763  -113365   -60948    45761    77575    35007 
    8133   -21474   -54916   -28155     -727   -66238  -141967  -133511 
 -130779  -175483  -161686  -104363  -111374  -157611  -135805   -38202 
   26246    -4159   -44442    -6063    24727   -18271   -17728    22009 
  -31037  -126038  -175936  -194499  -131304    -4408    34506   -17875 
  -55052   -40012   -10849   -24835   -31489   -23246   -82146  -133986 
 -167331  -266027  -269907   -96486    48795    74067    12982  -126858 
 -226966  -185864  -101923   -34400    54940    97327    40487   -38299 
  -79770   -79517   -26365    47345    24857  -100017  -175915  -169161 
 -136767   -61241   -10099   -86095  -142771   -50108    -8504   -93729 
 -104654   -40869    -1012    32969    25970   -14346   -51455  -118907 
 -144778   -89235   -63140   -99334  -126136   -62603    52504    55281 
  -51394  -118835  -104335   -46004    -2238   -13833   -50629   -63342 
  -71766  -151969  -237976  -196211  -135653  -137652   -79200     2239 
