Origin Time       2011/03/11 14:46:00
Lat.              38.103
Long.             142.860
Depth. (km)       24
Mag.              9.0
Station Code      MYG003
Station Lat.      38.7349
Station Long.     141.3116
Station Height(m) 32
Record Time       2011/03/11 14:46:47
Sampling Freq(Hz) 100Hz
Duration Time(s)  300
Dir.              N-S
Scale Factor      3920(gal)/6182761
Max. Acc. (gal)   570.317
Last Correction   2011/03/11 14:46:32
Memo.             
[...]
  -80850   -94928   -79904   -56570   -34201   -18083   -26339   -46761 
  -41390   -35427   -57851   -56717   -31933   -37979   -44496   -24204 
  -24838   -41641   -30521   -26184   -65716  -103865  -103598   -79162 
  -43447   -17541   -20555   -29293   -17941    -5157   -32960   -68927 
  -47481   -17342   -37692   -64890   -57413   -43984   -52373   -56667 
  -61173   -82160   -63401    -4894    21244     8566   -25386   -60671 
  -61038   -48411   -58757   -69873   -57647   -44089   -48097   -50397 
  -51498   -55273   -46007   -45386   -52970   -42818   -47496   -81715 
  -94155   -65139   -34248   -20843   -11553   -14032   -47773   -86965 
  -77551   -33450   -15943   -21632   -18131   -25220   -52939   -76150 
  -82401   -58002   -20453    -6286    -6588   -25299   -71584  -102150 
  -91972   -71111   -53513   -27376   -15987   -39724   -53798   -34528 
  -24024   -43858   -76435   -78911   -37953   -11250   -16821   -24481 
  -39064   -65048   -77668   -66984   -72542  -105351   -94239   -32370 
   -3502   -19297   -30817   -17659     9186    21296     4915   -37105 
  -86765  -109161   -99509   -86415   -76935   -47973    -1983    21403 
    8824   -18667   -56422   -90576   -77659   -32171   -20463   -45850 
  -62480   -58104   -48381   -39788   -29105   -20490   -24402   -34451 
  -43287   -67346   -86312   -61746   -36236   -51558   -72929   -71408 
  -54332   -36298   -12894     4591   -17387   -28565    -2137   -34464 
 -114777  -117140   -29087    43713    17581   -68065  -123581  -118590 
  -55334    14105    22611     5908    21080    19042   -66793  -167970 
 -172093  -107635   -33190    53080    78551    -7722   -90714   -94065 
  -90304  -105197   -81064   -21245    20998    32789    18646   -34151 
 -103558  -141111  -124336   -62076     4436    48637    54513     3185 
  -52560   -56706   -50831   -73128   -87010   -84180  -100181  -106183 
  -66382   -23303     3394    21896     3566   -31116   -54237   -83140 
  -73229   -17841     8087     8385    -6210   -62541   -98805   -58431 
     349    12586   -18806   -51376   -62516   -71424   -84104   -74698 
  -46669   -56580   -96055   -82411   -47308   -56197   -47329     3838 
   35555    26384   -23831   -87011  -100230   -70664   -65907   -91142 
  -77996   -19586        0   -34479   -49101   -16334    27189    27837 
  -27998   -77192   -78819   -73587   -83520   -76710   -60306   -51981 
  -14623    27942    11192   -21794   -11370      135   -37758   -92047 
 -128339  -151151  -126225   -38732    31234    20641   -38505   -84542 
  -70029    -5584    22453   -11887   -54172  -100785  -141378  -121017 
  -61459   -10268    24310    14302   -19759   -31792   -62516   -97197 
  -56455     2846     5448   -21181   -65106  -103416   -98243   -64118 
  -30105   -34934   -69753   -73225   -54853   -49428   -20556    37684 
   31936   -45280   -64524   -12746    -8638   -58135   -71495   -45688 
  -39361   -69910  -105646   -93761   -37294    -9290   -30734   -55344 
  -47795   -30552   -75513  -125357   -58146    31071    35318     8488 
  -34698   -71846   -57336   -35056   -38652   -71294   -93101   -34969 
   19489   -29481   -93823   -78858   -29763   -11671   -23833   -81066 
 -140452   -88942     1388   -16800   -95149  -107551   -45537    12231 
   13727   -47737   -98194   -71872   -35435   -24176   -16127   -30255 
  -41592   -32030   -47624   -83977  -106663  -116034  -108322   -73121 
  -21407    14197    17090    10323    10996   -32834  -137253  -165821 
  -80800   -35828   -56839   -42283     1811     6274   -22348   -48941 
  -82353   -87882   -29580     1681   -32938   -58638   -67338   -72637 
  -77338   -91141   -72855   -12530    35757    34458    -6478   -43292 
  -76550  -124952  -136179   -92793   -61371   -72741   -72782    -3356 
   71894    51369   -27549   -68276   -62367   -68854  -106472  -126086 
  -91750   -31267   -10608   -28567   -28588   -41104   -72962   -51006 
   -2338    11091    -4922   -35911   -53432   -46341   -50428   -70543 
  -71210   -30981    28435    25427   -54291   -92172   -62822   -51097 
  -48853   -32214   -41412   -75026  -103463  -113210   -77624   -12031 
   17148     7117    -1880     -563    -7896   -60857  -125920  -137174 
 -102790   -39227    11485     4904    -4310    -5047   -64334  -136740 
 -123057   -44346    13716    20772   -10882   -70128  -114134  -108366 
  -97199   -91044   -55781   -33644   -44227   -30409     4716   -11123 
  -68953   -61781     1445     6943   -35457   -65963   -93208  -120990 
 -115777   -77843   -93215  -145574   -89739    59476   158681   117208 
  -57583  -191420  -162563  -104612  -103972  -103335   -77817   -27296 
    -692   -21680   -21924    -4256   -22709   -42120   -21440     7212 
    4294   -53031  -129129  -141757  -101525   -42200    30574    22151 
  -67746  -107624   -92910   -50086    10374    16455   -16228   -38381 
  -59692   -56146   -36259   -66657  -103966   -46288    49792    53739 
  -26054   -91602   -94262   -53856   -15193   -32899  -142643  -214287 
 -103646    26122     8931   -55999   -76852   -35037    51950    97850 
   62132   -30802   -98080   -57008   -11851   -74255  -145753  -153289 
 -130634   -94435   -62892   -36003    -8890    13771    70731   150049 
  126491   -33827  -177540  -198126  -122187   -27507     3876    -3140 
    8458     4543   -47651  -146609  -211162  -127768    -4217    23592 
   17663   -25993  -115128  -141922   -98390   -26375    49546    67684 
   46047    21665   -58118  -152890  -151072   -74409   -13819     4074 
   24874    45115    -8031   -94872  -130180  -126125   -90859   -44530 
  -41731   -61644   -61049   -34082    11359    40442    33450   -13563 
  -77845   -77472   -23731    -7614   -42947  -107150  -137585  -101921 
  -55098    -1843    36211     9102   -65694  -137854  -115049   -20505 
    8015    16446    82631    95502    14615   -66434  -117011  -123122 
  -69239   -17231   -26486   -62652   -54332   -52234  -135682  -175973 
  -90995   -16246    -3807   -12941    -9183    12826   -55478  -181978 
 -140129    28422    97263    71965    25766   -51299  -136813  -189350 
 -165574   -79109    -7150    41721    57607    -9019   -92232   -99275 
  -56835   -33638   -43928   -49249   -34932   -39033   -68608   -51700 
   12658    33767    19274   -16776  -106157  -162398  -116998   -37564 
   12380    18302      175   -22205   -81654  -153110  -146476   -98111 
  -65544    -6415    52225    46142     -811   -39246   -86065  -160836 
 -163301   -61460    27229    82623    90151   -24159  -140824  -114407 
  -27015     5362   -28869   -77811   -72278   -18561   -20396  -117111 
 -169455   -88646    13343    46191    19586   -17979   -13984   -26884 
 -101014  -142831  -114529   -75674   -53592   -33085   -21004   -24227 
  -19745     -734    39987    53142   -37819  -115057   -40224    35412 
  -46976  -123976   -43781    22717   -58185  -152960  -155316  -106660 
  -59939   -14692    42575   108433   174808   162939    22331  -127473 
 -203088  -233416  -167436    -6705    61970   -11204  -110988  -171071 
 -120525   -29766   -50390   -86890   -17542    88735   112000     3767 
  -98623   -43100    34415   -44721  -153006  -159799  -151545  -161385 
 -135550   -20996   151376   193223    61560   -39914   -20779     7110 
  -30028   -79305   -96423  -131777  -183360  -159836   -78090     8623 
   90918    98243    36606   -28302   -95478   -98712   -25387    -6676 
  -66720  -109334   -82625   -25038     5165      632   -42388   -77534 
  -73908  -109643  -156220  -138800   -75541    14055    80040   137133 
  208803   169943     7231  -108687   -99410   -60146   -96174  -150209 
 -117780   -40552    25688    45421   -56124  -147909   -64425    23193 
    9392    34659    64051    21126    -7440    -2529    22850    68638 
   60145     1861   -27542   -40866   -49815   -42342   -58160   -90827 
 -111412   -80718    36300   118733    99801    76835    77966    75329 
   21195   -57030   -52334   -48178  -118691  -179944  -200024  -114741 
   38687    83802    35290   -13064   -54463  -100281  -130651  -152476 
 -236468  -274284  -161021   -99626  -158179  -176949  -161772  -166812 
 -142972   -78897   -19491   -20232   -96016  -214629  -380034  -503303 
 -468406  -422032  -388016  -147074   172512   344907   442270   485691 
  441167   378992   285358    61868  -210708  -305036  -197411   -13993 
  149842   146220    14144   -18735    13016   -58880  -178706  -156915 
    5727    72807   -33247  -135544   -79671   106263   238100   203437 
   12422  -245847  -374765  -318371  -244501  -267562  -341499  -397616 
 -396879  -240732    87692   346739   307076    64435  -147756  -214704 
 -127503   -46383   -99072   -98887    11430    25625   -38893   -23045 
   92862   173786    90475   -61285  -149898  -171095  -148265  -126176 
 -154422  -207565  -140289    65275   187594   129211    24854    58791 
  238139   299012   111970  -121038  -230562  -248044  -230411  -128077 
   48615   146573    94546   -69604  -216114  -236830  -259178  -342191 
 -343573  -183599   113028   343030   301938   124814   -16974  -191386 
 -366853  -369916  -200252    19044   131642    11311  -128770     2431 
  178216   106656     -735    36246    44979   -37775   -95632  -132459 
 -195629  -222388  -174270  -144773  -136089    12283   257112   379079 
  306693   109362   -63484   -98702   -19761    79207   140840   186775 
  166088    46501   -30869   -39774   -92123  -177547  -203330  -144701 
 -122584  -199112  -238090  -252166  -362282  -459857  -419498  -227889 
   65241   250484   282714   423262   643539   623225   347231   -28081 
 -381779  -519698  -436785  -247726    20529   151567     8613  -110366 
   -7615   150137   215763   173864    81373    92959   243668   294807 
  113916   -87703  -183970  -338442  -543954  -569324  -488924  -493175 
 -436553  -250932  -122633   -72278    17958   140739   209150   191625 
   93744    -2664    17203    38785   -37869   -84270  -140279  -212119 
  -50243   235225   253825    78443    73749   196182   115786  -131036 
 -220411  -136260  -131403  -207148  -143889     8857    29928   -42407 
  -73482   -71189   -87281  -136346  -157563  -139686  -141626   -99711 
   14330    92798    75440     3363    -1035    92069   187475   167387 
  -17178  -169637  -110953    91162   228042   103016  -151848  -304580 
 -402578  -475543  -425187  -242501    25539   230007   174412    48640 
   75771   -23224  -237100  -133269   174004   294268   174737   -87562 
 -347718  -482399  -514352  -468580  -263055    38420   174334   114318 
   14138  -146149  -314961  -318180  -244955  -155245   102226   402068 
  462296   225178  -146707  -313523  -187054  -144246  -228940   -73212 
  124781   -15991  -187461   -95368    -3604   -64934   -92025    -2195 
  168682   393401   481142   225931  -151730  -230684  -125846  -202523 
 -292445  -251738  -314531  -336690   -72503   229765   223393   -85484 
 -322207  -273788  -133831   -58877     -378   121000   271415   346201 
  343383   330548   259161    12317  -325681  -489261  -449583  -445034 
 -419655  -152946   164323   265146   189037   127380   163878   128809 
   51105   169745   284143   147958   -61775  -237379  -412899  -540788 
 -557878  -415192  -215623   -73997   100271   255739   222032    24668 
 -262329  -457223  -354219  -125276    13329   127376   244880   299216 
  294954   237021    86926   -52129   -23446    34464   -86500  -301578 
 -394825  -233696    94816   285981   193995    53898    50232    35711 
  -17371    16160     4245  -133918  -213799  -188855  -129148    60561 
  321986   272693  -102111  -340289  -277698  -147745  -162162  -319981 
 -427976  -308345   108631   601789   690566   317028  -177685  -529245 
 -516630  -224628   -48478  -100135   -97447   116985   240451     -713 
 -361531  -432114  -276937  -206355   -93374   207993   419340   327245 
   74799   -23774    82571   104323   -52581  -155563   -57046   150664 
  231889    83131   -82207  -112529   -70300   -81673  -290514  -500035 
 -350661    61172   342437   213368  -129631  -240378  -230331  -335974 
 -368418  -226544    57983   417872   604458   427954    51569  -158305 
 -157565  -219039  -407005  -505351  -360081  -142422   -91875   -86982 
   74815   304575   378882   177784  -124114  -262838  -269067  -241901 
 -141857     3825    99479   150334   209481   209920    97254   -54529 
 -195973  -233396  -114692   -54525   -97453   -53157   -76395  -240888 
 -204890   -63218  -219800  -463207  -318722   121733   365911   314377 
  314467   373571   212241   -54053  -175311  -127994   -21409   -42361 
 -152542  -208779  -207996   -81137    29549   -85681  -206552  -188993 
 -193255  -264579  -334224  -315108  -106830   155880   148770   -34840 
    -551   172309   246636   333659   432475   359519    79765  -269859 
 -432828  -384392  -338907  -185188    65981   -31790  -254325   -34341 
  352975   420573   129481  -200868  -241265  -233871  -450451  -564756 
 -368395   -62100   196415   288847   182460     2326  -216205  -426931 
 -496081  -387375  -129750   203962   530949   764877   695155   236479 
 -219906  -207452    11201  -158824  -483976  -451043  -279513  -246277 
 -234732  -171754   -34678   189700   307568   136932   -45858    74052 
  145722  -116750  -240798   -65421   -86766  -329956  -375862  -177684 
   18512   160099   308653   222905  -166091  -286352    71029   273323 
   46323   -94504    32704    92126   141157   285155   148204  -275627 
 -481496  -377940  -197112    72094   353171   338791    85405   -88390 
 -101632   -97943  -326825  -585748  -330886   244270   662194   853281 
  716733   242393  -255880  -387131  -196536  -209281  -474234  -512180 
 -274196  -109021  -147890  -262096  -280062  -212306  -182018   -66877 
  208050   391220   303588    10273  -199673   -87253    96952    17169 
 -192339  -222360   -33897   147008   151962   108747   178260   235513 
  130552   -43326  -114146  -103379  -194129  -320337  -272168   -88587 
   78671    52887  -142717  -185962   -69307     6225   102390   139705 
  -42939  -275987  -376797  -384728  -426922  -513372  -531061  -430608 
 -188605   122761   360972   481153   324646  -101509  -223134   167739 
  430423   336031   269162   244364   159212   108311    68243   -78629 
 -421704  -785638  -853754  -611628  -199178   199632   354210   350289 
  333080    90889  -238318  -155837    41207  -156265  -362101  -188685 
  150193   341314   237954    63327    92623   196199   148182  -100284 
 -366427  -408086  -331615  -338403  -364703  -317133  -182703   -12271 
  156724   423895   622927   330455  -217766  -283266   114286   196697 
 -258086  -505066  -158862   272816   446212   178985  -448228  -681927 
 -452488  -305141  -192316   -53335    78063   278597   340648   206256 
  119341   151754   220299   174937  -100652  -489747  -756884  -779177 
 -579778  -226894   164608   370236   287243   146180   185942   346106 
  391079   197622   -44268  -105036   -74403  -135406  -230131  -247330 
 -247937  -188365    -7907    73787     1685   -39554   -68353  -128275 
 -133503  -100173   -30695   146321   341140   435649   333918   -84941 
 -558188  -657483  -519893  -418854  -160393   266839   532394   623810 
  576799   285026   -86286  -340985  -406376  -239296  -101189  -178271 
 -245661  -268682  -292748  -182848  -100601  -200958  -267562  -180900 
  -50045    11997    20678   127927   389422   636058   636636   298760 
 -148109  -311112  -223808  -251447  -327663  -206627  -128605  -261838 
 -349931  -334598  -325388  -287364  -227467  -155380   -35886    58472 
   87459   157467   336159   544518   578662   299482   -43667  -138212 
 -168542  -320538  -365950  -227112   -52565    61910    12068   -48583 
  102059   134276  -164137  -310585  -105579    59570    81095   159619 
  216107    92096   -60263   -89586  -154717  -348828  -421881  -164438 
  280421   469931   124525  -320919  -429242  -408592  -339991  -102120 
  172972   308601   212976    -7435  -148006  -237022  -351740  -384708 
 -236190    83010   495117   685305   346818  -248381  -551768  -434173 
 -215185  -103015    25036   238135   440055   421212   110136  -149995 
 -150499   -99189  -178365  -287329  -188157    13216    -3296  -140437 
 -187833  -288780  -459752  -414278  -153705    28885    21627   -64969 
  -67506    28529    87592    44946   -60825   -73736    42266    26436 
 -147849  -249314  -200294    48435   349757   393321   277472   176513 
  -10821  -142935   -59243   -34539  -203631  -386790  -492134  -438455 
 -239754  -146416  -198090  -124523   154525   424717   536205   494453 
  257162  -105727  -296984  -270050  -265442  -332533  -328784  -170096 
   45529   189148   239099   109017  -144711  -236061  -115279    19903 
   32108    29220   160534   176915  -116904  -379471  -384451  -276336 
  -84032   135889   208691   221806   240618    95391  -203790  -412503 
 -361979  -213335  -148460   -10391   202034   238200   108822   -22729 
 -132213  -220309  -186811   -16110   112026    77666   -15693     1656 
   78310     8755  -127195  -141649  -151786  -185630   -75251    48932 
  -42652  -237535  -256197   -56720    94626    27967   -93057   -86545 
  -39729  -138693  -320739  -344712  -186644    -4641   174972   360182 
  395922   195268   -49968  -144923  -169275  -228654  -157319   107129 
  245516   147238   100713   179555   174884    12194  -220085  -395325 
 -397542  -280030  -245682  -308368  -263907   -90210    13437   -20814 
  -43011    65466   163191    42044  -172149  -191428   -91268  -130160 
 -198219   -66248   167291   293980   292160   259229   186853    31109 
 -106590  -178568  -243571  -284226  -245477   -77687   174539   284115 
  112287  -158403  -279480  -286480  -275844  -124822   112060   200135 
  193317   183005    61457  -163531  -302853  -314315  -386140  -489497 
 -345906     5477   240185   275554   277249   225650   -36420  -342091 
 -383840  -174130    67822   185884   172581    92570   -32191  -175497 
 -254852  -209717   -85552    44453   159686   174805    -2747  -262724 
 -403461  -382428  -292358  -100901   193524   277601   102700    17886 
   22539   -17434    -3136    29781    34190    75142    49378  -110294 
 -243320  -268497  -249036  -171788    -9132   163316   241996   120859 
 -168784  -347454  -242007    -4023   152717   148863    58608   -22245 
 -119509  -248314  -368089  -463710  -483879  -391123  -222867   -65366 
   23252   140490   301017   317605   245989   283169   288343   142091 
   41303    41059   -10460  -125983  -227423  -290745  -290180  -255567 
 -271320  -248299   -66543   103573    78939   -33652   -98369  -109448 
  -46902    36419   -36396  -215298  -236535   -42610   236866   381665 
  198215   -62176   -72053   -75926  -284584  -404042  -294823  -110199 
  111768   265448   173292   -53576  -188777  -171331   -76529   -10215 
   33097   111708   138710    18097  -123086  -137041   -80403   -74497 
 -111740   -51911   107758   152770    51981    27442   132671   208095 
  183369    90661   -43393  -159496  -216645  -274309  -382119  -458024 
 -365036   -84008   206971   296051   215358   114980   -19660  -151400 
 -118151    34357   135910   137327    30433  -177248  -336831  -298163 
 -167660  -104282   -91125   -92182   -96689   -62535    31569   107317 
   32955  -121587  -110790    70920   127431   -28183   -59289   159133 
  262403   100655   -98465  -200635  -171452   -97251  -146802  -247438 
