Origin Time       2011/03/11 14:46:00
Lat.              38.103
Long.             142.860
Depth. (km)       24
Mag.              9.0
Station Code      MYG009
Station Lat.      38.4466
Station Long.     140.8871
Station Height(m) 29
Record Time       2011/03/11 14:46:50
Sampling Freq(Hz) 100Hz
Duration Time(s)  300
Dir.              N-S
Scale Factor      3920(gal)/6182761
Max. Acc. (gal)   450.457
Last Correction   2011/03/11 14:46:35
Memo.             
[...]
   -5590   -16947   -26478   -26741   -27885   -34441   -34910   -25897 
  -19371   -20368   -20360   -16865   -19358   -29708   -37076   -36963 
  -36723   -43381   -56030   -65867   -68973   -73457   -81078   -83181 
  -77476   -69995   -69402   -80084   -94312  -102204  -108115  -119801 
 -129615  -130309  -131984  -140978  -144530  -133900  -121629  -115274 
 -100894   -75334   -58431   -59622   -64179   -55386   -31644    -3969 
   13519    18676    22938    26069    17640     7212     7024     1311 
  -19786   -32001   -22035   -12817   -17345   -23609   -31321   -47228 
  -62290   -69526   -73336   -73394   -67553   -66588   -81708  -100460 
 -100191   -81627   -60047   -37054   -16709   -13885   -20288   -14997 
   -4749    -5066    -3901    15405    35212    30325    11210     1317 
   -1052   -12939   -36160   -56463   -73287   -98296  -121709  -123758 
 -108153   -91799   -86438   -96812  -110124  -100671   -68485   -48911 
  -62205   -82570   -79880   -67724   -77609  -102492  -108815   -92348 
  -81891   -92221  -104330   -97015   -74856   -56036   -47572   -45670 
  -49056   -53268   -47544   -35110   -31253   -33568   -31234   -30276 
  -33068   -32553   -39787   -67748   -98046  -103335   -93023   -99536 
 -121875  -133278  -130994  -126944  -123000  -119899  -114421   -97943 
  -74019   -51380   -30614   -19010   -25865   -33917   -19707     8219 
   34329    59231    71676    54678    27402    25565    39393    34364 
   22871    36807    59459    55215    35824    40903    63882    59640 
   20690   -22415   -49838   -56243   -53127   -58390   -57282   -35357 
  -18777   -16985    -4864     8936    -6457   -28262   -16371     6056 
   -5143   -42907   -75087  -101987  -141107  -175446  -182018  -178829 
 -177430  -161299  -138080  -124723  -113922  -102546   -89077   -67349 
  -48064   -36142   -28104   -34497   -45929   -26661    15822    25702 
   -2139   -15772   -15324   -45024   -90691   -98956   -76225   -71973 
  -84146   -74283   -43556   -24596   -28992   -32347   -17240    -4710 
   -6089      758    14227     1421   -31767   -40331   -18729    -3549 
  -10720   -20266    -9431     7743     2508    -5465    15581    36077 
   16262   -22791   -42409   -48324   -65388   -78261   -63498   -58739 
  -97808  -134918  -130816  -115596  -121532  -144579  -157788  -137426 
 -101563   -75663   -45261   -13909   -21418   -52381   -40294     9642 
   26750     4093   -17710   -45052   -81514   -93682   -93412  -116813 
 -139986  -134226  -123790  -125019  -123732  -117552  -110842   -94228 
  -71929   -66513   -73225   -69200   -52914   -28231     3132    27166 
   29772    14783      238    -9312   -25533   -46210   -63661   -81939 
 -103144  -128042  -153911  -171423  -179455  -165610  -111619   -52987 
  -31313    -9249    39049    62583    58682    88708   136952   133277 
   90927    75741    82923    62103    22429     6389    -3325   -50531 
 -117941  -152344  -145745  -138534  -138040   -96959   -13944    42626 
   46011    36768    38095    36889    26171     5117   -32080   -73599 
  -87338   -54812     1930    31688    13748    -8979     2272    20193 
   12664     2514    10520    16745     5294   -10189   -12006   -12792 
  -31810   -47786   -38495   -21619    -8861    10688    29214    30401 
   34274    61069    82851    82912    81724    65433    15282   -15948 
   -1807   -12794   -76618  -131371  -142728  -132069  -122610  -108522 
  -77812   -54310   -63148   -80546   -71602   -39148    -7059     6318 
   -1999   -10268    -5867   -13559   -37260   -44601   -38792   -47124 
  -61869   -69671   -81710   -95365   -88873   -76698   -92628  -109872 
  -88686   -70333   -95345  -111488   -77006   -42786   -49524   -59658 
  -39378    -9199     4591     1316    -8525   -16151   -28029   -62523 
 -106618  -119460  -110425  -129537  -162470  -161687  -151263  -164292 
 -167837  -130498   -67922   -12137    18170    31609    48131    61621 
   47039     7790   -23148   -29872   -26199   -24816   -25210   -23809 
  -23710   -41567   -76094   -93078   -92540  -116055  -158568  -172360 
 -150231  -129089  -127960  -122123   -90224   -62544   -70454   -79967 
  -59949   -45503   -50961   -38161    -3154    22218    32965    38426 
   31964    19605    14632    -8650   -68190  -123887  -146392  -161222 
 -195548  -228513  -217898  -173914  -144890  -129508   -86379   -21270 
   12500    11665    24253    43835    35320    17584    16690    26848 
   41037    55381    54274    29071     5690      850   -19032   -67016 
  -95190   -83177   -70203   -68307   -53092   -33943   -32083   -27339 
   -1004    18884     3583   -30842   -53169   -53635   -39504   -25819 
  -20117   -16462   -26716   -57175   -68359   -51859   -56022   -75704 
  -64061   -46256   -66360   -79440   -39855    -9090   -37838   -59525 
  -30356   -22115   -75744  -124370  -116003   -83432   -65803   -47690 
  -14773     2586    -3874     1066    21199    31147    30092    18286 
  -20607   -75370  -109383  -109625   -87668   -61291   -48273   -48478 
  -45962   -25935     9797    20821   -19718   -59683   -56646   -46404 
  -53889   -62688   -62441   -50531   -28431   -10874   -16944   -29358 
  -10878    12338    -2135   -28148   -43849   -63497   -65063   -34328 
  -27616   -65784   -84306   -56909   -32123   -35868   -40013   -29494 
  -19904    -7226    20185    47661    52366    32811    21583    39747 
   52042    20454   -31908   -57271   -51670   -41378   -33934   -15231 
   19023    41979    24906   -27645   -74150   -70438   -38980   -36336 
  -51686   -43198   -25407   -32490   -50114   -52543   -50338   -45644 
  -23284    -7973   -29612   -60606   -68127   -58488   -47992   -55175 
  -84036   -95244   -55743    -3484     4840   -14921   -19429   -23171 
  -46768   -61336   -44941   -17037    -5094   -12346   -13796    -3055 
  -18285   -66151   -89311   -61663   -30172   -33658   -49405   -52344 
  -64617   -92251   -97093   -74102   -61414   -68657   -66137   -43199 
  -28459   -33657   -39953   -50494   -70554   -72373   -55699   -61249 
  -82248   -64912   -17996    -7280   -34984   -45927   -29607   -21279 
  -39809   -67646   -81470   -85040   -90844   -92524   -78074   -56615 
  -51321   -54264   -44292   -45952   -72182   -78356   -50715   -29381 
  -28138   -23209   -11402   -10194   -15692   -26947   -60979   -99768 
 -111955  -109864  -107115   -96426   -89567   -87423   -46811    34802 
   83340    74221    62612    66940    61133    30876   -26056   -83409 
  -92207   -54860   -34570   -56447   -78780   -77538   -75782   -86869 
  -77658   -28473    -1580   -43648   -86609   -70835   -42818   -40800 
  -30855      790    19111    11625     1571    -4787   -29532   -76748 
 -109320  -100934   -84572   -99052  -120814  -110385   -82313   -70269 
  -73127   -78535   -94853  -123640  -132849   -98421   -44516   -11853 
  -13773   -29221   -27629   -15270   -27645   -60711   -87036  -111011 
 -125101  -112150  -106108  -127197  -131990  -104604   -86430   -90293 
  -81803   -53902   -40942   -51803   -55876   -43789   -41838   -46306 
  -21877    13500    15981      167   -12157   -28311   -32964   -14579 
   -5201   -28128   -63910   -76030   -45603    -8808   -26482   -89841 
 -133378  -136224  -127139  -114993   -91628   -81613  -106034  -124611 
 -103714   -74307   -57126   -39899   -30269   -33930   -33248   -24817 
  -24738   -43401   -70030   -74869   -53770   -48319   -74014   -91496 
  -82745   -71634   -69016   -66755   -61341   -49080   -30283   -17838 
  -16618   -16402    -8385     4635     3928   -21736   -51723   -62448 
  -56113   -41124   -17201     5620    10524    -1681   -20254   -28626 
  -10237    19005    29741    14829   -23371   -59898   -55121   -27293 
  -19355    -5542    34953    40499    -4788   -16040    25705    38991 
   11010    12354    52651    76646    69970    61540    62767    67337 
   67534    49742    21358     8594   -10769   -70517  -116174   -95715 
  -75433  -102870  -109131   -69556   -58907   -94069  -107552   -83305 
  -75733   -95064   -91215   -58890   -50612   -69514   -67155   -44085 
  -31935   -33913   -50721   -84336  -121306  -146240  -153980  -154271 
 -152344  -146160  -145855  -142568  -108809   -63497   -51379   -65890 
  -65475   -37426    -3319    14676    14876    17478    36613    53585 
   54353    53361    48899    21220   -19486   -42772   -51317   -63178 
  -65729   -47445   -24836   -24809   -50814   -56013   -24399   -15939 
  -41284   -46925   -37708   -57418   -99320  -120022  -108761  -107532 
 -136656  -151262  -134011  -130063  -143145  -134858  -109132   -77921 
  -27479    22573    29872     8513     4104     8012      -26    11054 
   35291    20720    -9921   -19076   -51258  -117337  -148528  -121545 
  -81659   -70676   -98116  -136409  -146835  -123403   -93454   -84338 
  -91247   -88767   -83824  -101101  -116740   -96221   -59155   -34047 
  -16947     4620    24108    22816    15699    37278    77594   102320 
  104550    95534    83618    82864   106726   131385   113287    50346 
  -14279   -34525   -20872   -40266  -103621  -144671  -136436  -112327 
  -93120   -75954   -68566   -79976   -89206   -65625   -13880    29545 
   40798    32060    32043    52415    72626    66963    35671    -7182 
  -48963   -78138   -86778   -78524   -70963   -68195   -62286   -68141 
  -92131  -103979   -89256   -75858   -89280  -113926  -115059   -95982 
 -103955  -153841  -188877  -173577  -162757  -196504  -215085  -169502 
 -119616  -133527  -172733  -166992  -127770   -98659   -69192   -13191 
   49097    78256    65467    34306    10193   -10824   -47735   -93144 
 -123262  -129821  -118439   -98304   -76796   -60040   -56838   -70212 
  -89232   -98235   -91457   -69463   -24883    37721    79901    71596 
   41614    55870   111870   115006    51068    18521    38992    51021 
   43864    51629    78645    94759    92755   104777   143250   161748 
  115262    38346   -14662   -58212  -115543  -159450  -170134  -174643 
 -198464  -218163  -209150  -189545  -160570  -108629   -60915   -32719 
    1874    48150    74733    70777    77993   109745   105281    43632 
  -20467   -61774  -101334  -146667  -184874  -214102  -242273  -256045 
 -243397  -221990  -204644  -196313  -200193  -177620  -107527   -57647 
  -60636   -53819   -17095     6028     5949     7933    21521    30058 
   17549   -11497   -35965   -35076   -20277   -21397   -35027   -32187 
   -2416    25711    17522    -3987    12357    49684    49090    18199 
   12223    30020    27138     3294   -14355   -30916   -52216   -63393 
  -70081   -90618  -118511  -131141  -123744  -106477   -78265   -49347 
  -46756   -63613   -58412   -12808    38240    53909    39309    19065 
    4530      252    18427    64304   103422   103461    88511    93603 
  109666    96446    32619   -49867   -94181   -91646   -94950  -126522 
 -147534  -144317  -147242  -172445  -198608  -196465  -179936  -180378 
 -185223  -178248  -184963  -215096  -223207  -183405  -141927  -132496 
 -120263   -86510   -66356   -70204   -74099   -74057   -69780   -52237 
  -26840     6625    52393    85251    88413    88896    99269    93019 
   77059    98958   156359   203670   230374   238863   218751   181661 
  145072   105203    57864     9900   -23892   -29836   -20903   -26241 
  -50790   -78666   -94553  -100531  -123030  -158823  -165040  -158067 
 -198705  -251172  -226121  -150397  -123493  -151955  -159020  -122529 
 -107170  -137767  -144322   -93746   -35249     6984    41608    66516 
   82623    80616    55736    37079    40559    45399    24791   -21317 
  -46265   -12616    32045    19083   -34129   -73442   -81893   -62561 
  -52626   -92282  -135364  -109124   -31315     4459   -37545   -62969 
   -2025    74787    80809    23345   -36334   -55278   -14843    67114 
  125975   143953   172293   212730   214864   198992   221146   249102 
  235507   205946   182905   162536   143862    97059    -4630  -121028 
 -199043  -233616  -242243  -240914  -243144  -247213  -218108  -138350 
  -58310      340    68192   126055   163426   224542   305557   366420 
  391220   373380   326460   266438   190049   120268    76197    28944 
  -27635   -66780   -85777   -88495   -80084   -77736   -72080   -46892 
  -33271   -60708  -105528  -136679  -140864  -116228   -95450  -117299 
 -168465  -203927  -201041  -169492  -131291  -102437   -76887   -47110 
  -37643   -56175   -70996   -83266  -119945  -172734  -219904  -262948 
 -298161  -295162  -247242  -199619  -199540  -231150  -233590  -202948 
 -184520  -179077  -162445  -146974  -164539  -193481  -154637   -54330 
  -11434   -42197   -29018    51699   104972    86361    36263    -3507 
  -45517  -119673  -172862  -132019   -70740   -85978  -124323  -125453 
 -117036  -111339   -91208   -77022  -110533  -163162  -161104  -134393 
 -175121  -265731  -321752  -320182  -280876  -212986  -132932   -82816 
  -74970   -65744   -37587    -1230    58750   109871   101035    83708 
  104990   119159    92632    51010    22924   -11273   -68115   -98128 
  -66385   -20039    -9611    -7928    30475    78206    90713    88252 
  109410   153263   192749   194620   125764    -7649  -130802  -171515 
 -137999  -108166  -157443  -276959  -408066  -521610  -591318  -584573 
 -516322  -458796  -458910  -458777  -398141  -314574  -232022  -120840 
   -6105    55506    75981    88031    64809    -1538   -43129   -36744 
  -46287   -91995  -130470  -158569  -197434  -230419  -238954  -215615 
 -143446   -43728    32213    91070   165154   243351   316519   394509 
  476344   558299   626864   664230   667405   616166   471273   248305 
   60213    15104    64682    73047     7315   -75005  -144201  -219098 
 -314596  -386431  -371158  -284822  -219430  -228248  -256420  -223626 
 -123288    -6878    80200   142295   200326   234164   234651   244958 
  267676   240276   172998   145585   122928    23695   -88574  -136397 
 -163417  -229933  -338515  -436809  -471982  -451024  -406857  -360040 
 -310684  -243546  -169552  -116316   -72902    -3087    99346   189095 
  201552   136487    77273    60235    17952   -78255  -145215  -114970 
  -51817   -53351  -104071  -148430  -174439  -176903  -163801  -141562 
  -94308   -26134    43280   102421   142545   158215   150134   136346 
  151298   200101   222107   161692    58924   -14078   -46215   -52349 
  -32104     3307    17407   -20240   -95071  -163510  -216534  -269547 
 -308615  -321018  -313460  -272377  -195379  -132441  -116655  -113119 
  -92630   -71254   -55558   -40391   -50387  -119485  -219827  -262348 
 -222539  -171806  -138817   -92214   -48385   -48020   -76568   -87681 
  -68191   -41558    -7882    61216   153380   211242   214318   206290 
  210022   205353   201097   207257   203923   186278   146047    71329 
  -12523   -62728   -63114   -78141  -195445  -359531  -442132  -434749 
 -395555  -342305  -262277  -140881   -10255    69246   114626   181622 
  244746   264779   265618   270867   285753   294086   271451   248854 
  244470   217417   173437   147005   121428    73687     4731   -52635 
  -31027    56908    95235    66130    74813   117318    79012   -31717 
  -98997  -100170   -98325  -123987  -157379  -171369  -187849  -237312 
 -273567  -270040  -283635  -321805  -332432  -309518  -276766  -228459 
 -146349   -67140   -61445  -106257  -104763   -44228    18418    70953 
  104573    67511   -44671  -154665  -189761  -164191  -155287  -174423 
 -142628   -41972    54405   109163   129195   140098   181709   236238 
  268737   290362   309627   320201   313332   303085   309071   298175 
  247671   179499    98224     6341   -64770   -80966   -51952   -35650 
  -56383   -84856  -119615  -177762  -240601  -282580  -270693  -171634 
  -44760    -7493   -78354  -169162  -209726  -211164  -211765  -213658 
 -214866  -220897  -206371  -159255  -110432   -88312  -100599  -131931 
 -169855  -229860  -302154  -342050  -335945  -311295  -294463  -273903 
 -237742  -230510  -260555  -256366  -213448  -198923  -213363  -207733 
 -167434  -108200   -42343    19337    49233    25392   -28384   -54923 
  -32662    -1905     7173     6043     2914      -71     3050     -327 
  -42615  -124857  -183792  -179123  -163026  -185145  -222728  -236197 
 -209059  -155597  -121518  -125882  -129859  -123984  -149743  -199503 
 -232619  -253723  -274710  -289058  -302063  -301526  -257075  -191998 
 -152465  -136903  -130151  -116882   -77604   -27234    11333    40021 
   60268    71545    76655    78354    84936    97754   105720   108201 
  119691   147585   180239   190791   171434   161654   184633   200184 
  181487   155289   149634   170715   197151   199677   189678   188735 
  195314   204705   202603   185273   165945   128796    71197    52532 
   95896   123315    80050    26622    29281    56506    47505    15032 
   16513    54023    74293    64558    76111   125755   158645   136009 
   82647    65249   114318   150508   110749    63557    66623    86882 
   79771    29523   -28947   -57726   -68720   -67698   -56588   -59516 
  -75499   -86264   -95150  -109867  -115149   -93177   -69868   -85582 
 -128823  -168942  -206992  -243345  -254180  -227135  -186566  -154564 
 -128688  -129525  -174839  -213834  -195671  -146345  -111449   -91162 
  -71408   -66160   -84120  -104807  -122701  -137698  -114908   -56078 
  -40573  -100790  -152973  -125135   -64884   -49236   -65276   -60514 
  -45436   -74622  -156100  -229412  -248876  -233336  -204039  -152559 
  -81097   -10324    46353    92815   135565   166772   162934   119922 
   95743   136611   185472   172579   106442    17296   -68662  -116924 
 -128616  -134605  -132359  -111317  -101226  -108921   -87587   -26403 
   15884    -4050   -48386   -64889   -68765   -80552   -72503   -39251 
  -23308   -46258   -87782  -138141  -196384  -217790  -160159   -66567 
  -10682     -712    -4520    -3000    17811    60110   105025   135574 
  143487   131844   118242   109677    89816    53928    35041    54379 
   75069    64057    43541    36339    23348   -28906  -109403  -158584 
 -160792  -162646  -178676  -178409  -151121  -116363   -93758   -90771 
 -109053  -142286  -174409  -199489  -213795  -209139  -214790  -260891 
 -308009  -310106  -294633  -317352  -361364  -352782  -296823  -273482 
 -290619  -283503  -228404  -151876   -81212   -42564   -44964   -58066 
  -58213   -49465   -43093   -59827   -87635   -84920   -74372   -99635 
 -120731   -95650   -67984   -78253   -97832   -98269   -99401  -111601 
 -101900   -60034   -26728   -27920   -37345   -27585   -35346  -102182 
 -170033  -177898  -173119  -193894  -204271  -177435  -115813   -49553 
  -23712   -25935    -9519    15402    22934    40309    81326   107429 
  108630   116102   131956   138729   144134   148683   129033    98257 
   95075   109724   109148    91565    75417    72378    69478    57671 
   53056    54021    49641    48218    48606    47191    45251    26566 
   -7281   -32986   -58958   -97237  -119147   -98013   -48491     2153 
   49767    91192   104621    98119   103399   106340    81267    44009 
   10645   -18067   -34192   -38281   -44531   -60740   -87743  -116361 
 -126985  -113780   -89890   -74933   -86712  -117993  -141066  -142077 
 -115190   -61705    -3900    32132    32042    21047    47116    96035 
  108375    73785    40406    45516    62605    51459    32231    37856 
   46652    30130       32   -29426   -55443   -62739   -38863     4195 
