Origin Time       2011/03/11 14:46:00
Lat.              38.103
Long.             142.860
Depth. (km)       24
Mag.              9.0
Station Code      MYG013
Station Lat.      38.2661
Station Long.     140.9286
Station Height(m) 5
Record Time       2011/03/11 14:46:50
Sampling Freq(Hz) 100Hz
Duration Time(s)  300
Dir.              U-D
Scale Factor      3920(gal)/6182761
Max. Acc. (gal)   290.154
Last Correction   2011/03/11 14:46:35
Memo.             
[...]
   12481     3885      514    17201    53871    86870   101772   100698 
   91294    77537    58633    43964    44837    53969    62565    69806 
   59832    22164   -13897   -16798     9505    45231    72655    78661 
   59952    25053    -2371     1870    26207    35798    27931    25693 
   29783    25794    17256    16676    17102     5262    -7166    -4509 
    7006    13208    10030     9558    19227    28688    31243    35396 
   46730    47918    31548    25083    37990    49099    46416    30565 
   15259    15112    25128    39908    55516    57369    41855    21433 
    6697     5498    17386    28464    33979    37081    30752    19593 
   22107    38245    49310    46474    46709    62493    71522    55009 
   25875    -1182   -12767    10982    60608    93825    87580    60762 
   43742    47060    68212    98895   116009   107990    94025    90452 
   93960    93538    76873    42871     8436    -6984      735    18300 
   27959    20633     -274   -18541   -17192     -903    15051    34485 
   61887    77121    69139    54315    46102    48423    54541    47929 
   34037    33314    40632    29397    -7133   -39001   -35211     1774 
   42568    58509    47789    31615    22766    12540    -1632     -604 
   24272    58092    78995    68195    33619     6030    -2112    -2603 
  -14780   -49224   -86834   -94052   -59913     -118    51577    58772 
   19406   -30286   -55902   -46291   -10480    26582    41610    27050 
   -7956   -36892   -36874    -9216    21397    24901     3212   -17384 
  -25304   -21412    -6986    17273    39303    35491    11118    -5084 
   -3634    13896    38417    50977    52786    55622    55712    58531 
   85432   130464   157764   150684   120028    78739    47076    43316 
   46620    26709    -1830   -10897      176    19882    36587    39077 
   25888     9683    14015    52541   100235   120176   114104   102480 
   85227    60058    43940    47781    59842    67284    68783    74048 
   93074   113378   116240   102525    79579    60284    60338    73323 
   83821    90977    92333    75770    42108    14490    16704    43558 
   66104    75612    83295    75827    38721    -2648   -25327   -38957 
  -54931   -68938   -63848   -28315    27214    91062   150578   181421 
  181240   167383   145223   120094   103950   104195   113582   109425 
   78896    36731     5602   -13313   -29281   -40745   -44545   -36557 
  -14929     5371     6024   -17066   -58146  -104758  -127560   -96924 
  -39962   -23807   -60845  -106732  -125970  -108202   -68831   -39010 
  -29077   -19062     1747    13448     6070    -1558    -6172   -24287 
  -33164     4345    58575    89684   118595   157941   177972   158733 
  114565    70263    22787   -30892   -58400   -50928   -38882   -36785 
  -41937   -49151   -50187   -41164   -21580    -2336   -10346   -46789 
  -64892   -34655    14427    60758   115364   148816   119629    63626 
   49432    99936   193348   290950   356639   355086   281303   191659 
  124562    62227    10104    -7321    -5405     -311    32125    87801 
   98081    36030   -41872   -84333   -60471    32905   111363    94865 
   28361   -11414   -19918   -13059     8180    25874    29229    43769 
   86989   143099   185900   212358   232881   213594   114540   -20486 
  -84858   -12746   143445   257951   255522   167267    72939    18554 
   18673    82808   165174   175245   103159    27653     4597    31138 
   62055    44672    -9823   -47265   -70283   -88791   -57644     7648 
   41868    52876    64856    66313    44559     1744   -28297   -38095 
  -59454   -66457   -20523    41350    70698    58119    19974    10962 
   74804   166336   212938   185658    85383   -30040   -73989   -46452 
   -7488    24120    51652    76155   115517   178833   233249   232927 
  180607    97785     -805   -65972   -85534  -108090  -140096  -158974 
 -165017  -162087  -149013  -126187  -104094   -91601   -69879   -25480 
   21953    49883    41312    10323    -4038    -4208     8725    60460 
  118195   122201    91913    86734   111873   148028   179939   172968 
  123848    71986    41169    42264    83968   138083   134449    55993 
  -11801   -20544   -17504   -17951     4340    40013    70531    97036 
  116458   106743    59240    29983    78825   145739   110590   -17009 
  -99043   -62302    38234   130780   169175   113089    -5385   -66384 
  -15967    60500    84836    77407    78974    91465    83677    46247 
   24201    33746    52396    98835   182743   240516   210236   126412 
   67062    27266   -27956   -66962   -66120   -41544     3445    51552 
   53998    -7338   -83827  -111877   -69966    16240    77371    57740 
   -1797   -17119    24376    65825    64435    36510    25263    46647 
   84685   123687   143047   113239    56083    34308    58976    96122 
  118728    99385    25799   -62401  -104435   -90802   -62084   -47677 
  -46790   -29106    10974    28720    46062    96845    96718    15390 
  -42010   -31333    -3716    22168    46522    34636     1456    13864 
   80934   172832   238148   205263    92378     -889   -18023    28013 
  102913   171498   179826   118304    71095    89721   125359   122971 
   76447    17576    -2615    39585    91653    78990    21132    -9417 
  -12368   -17398   -15783   -14104   -27842   -21001    32551    88362 
  105697    89042    41303   -35671  -111401  -139714   -90795     6066 
   62893    40365    14138    59925   133658   157683   143393   131281 
  113892    71606    26198    31395    94239   155359   145161    57102 
  -14441   -13929   -11687   -49350   -70561   -24143    61963    96953 
   17272  -125322  -214320  -199570  -111696   -11566    47346    61399 
   57151    51510    57265    86734   134806   175451   193221   209336 
  242938   252324   178284    45762   -51340   -72351   -55734   -32892 
  -10085    11674    32260    30186    -7336   -59906   -88454   -41034 
   71261   145415   115579    19789   -84367  -156446  -149335   -92233 
  -78705   -82707   -27478    39888    60540    47949    27867    33256 
   74595   135144   182862   157435    70541     7741    -6562     6613 
   36870    74469   107508   111470    78463    45122    35489    35117 
   39051    61098    90364    87923    44686    -7893   -55687   -97101 
 -101671   -68608   -47213   -44406   -39260   -33727   -24205   -21529 
  -28245    -5973    39734    66181    78809    94052    88962    49503 
    3388   -19648   -17375    -6153    29571   129270   247060   303678 
  300310   251513   174948   115232    93676   119369   153914   142208 
  122650   115084    91712    89317   115235   122627   109409   105589 
  126627   130120    69677   -22117   -97978  -145075  -166628  -163564 
 -121346   -57729   -12396    17573    21223   -18829   -38240    -2110 
   28945    45397    67292    37863   -65185  -171438  -217312  -173308 
  -45862    90305   139890   109194   105825   158659   185235   170719 
  164099   144413    81160    13202    -7741    19229    30433   -11252 
  -41401     -452    61412    80827    88673    94832    41157   -44717 
  -81791   -77009   -81803   -94477   -80023   -47219   -17337    31711 
  104355   146433   109639    23908   -32286   -36434   -36242   -49410 
  -43930   -45012  -100205  -136184   -60082    81821   190626   223185 
  193977   156304   137366   111157    83177    67773    12115   -82260 
 -139222  -147021  -114592   -39004    29153    47796    45359    63496 
   91843    99248    95537    88118    62583    35876    32195    57233 
  103698   141315   148877   128690    86318    46012    45704    81956 
  114313   130060   127591    98086    78910    99574   115531    97326 
   67119    29002   -21608   -47258    -1971    87163   128212    85697 
   15897   -22602   -16613     5158    10513     4616     -787   -27240 
  -92186  -138176  -100906   -21769    41396    84407    84187    37160 
    5347     3768   -28479  -100969  -146726  -119141   -35037    68333 
  178939   267445   266110   168296    50187   -25390   -28043    41588 
  102057    76011     9623   -15912     3623    24335    23600     6759 
  -35993   -95245  -128881  -136989  -130711  -101257   -75729   -75269 
  -77073   -73448   -60533   -16514    34157    55098    79572   134547 
  179435   181895   157506   130229   108926    94389    75674    22996 
  -50374   -54540    28454    80178    42209    -5772    -1180    37701 
   89135   149883   184435   154669   105351   101214   115463    93652 
   44193     7211    -6997   -19510   -32475   -34991   -30305   -17061 
   -8745   -25648   -45350   -50790   -64888   -81547   -57586    13885 
   81921    94792    63576    41738    42201    33659    18774    32517 
   70839    98309   102223    93162    68066    10856   -60689  -103196 
  -95923   -32250    68741   130890    96276    12812   -13785    41166 
   92955    99419   108914   133410   130003    94382    65436    52650 
   40296    42801    65545    74544    66469    70796    80700    70007 
   60307    90108   131080   135565   116354   106532   118462   132810 
  115760    72006    23109   -25307   -57550   -58342   -36166    -7119 
   16979    31692    28557    -9197   -49384   -23290    47146    68700 
   38631    25023    21180    -5543   -13395     5315    -5234   -17069 
   23781    64230    58301    42452    21345   -31255   -84912   -99189 
  -85908   -64241   -28923    18674    75015   131400   146619   103062 
   39057   -12295   -44137   -51714   -48147   -65643   -88092   -71370 
  -28180    -2196   -14695   -34184   -11762    34460    66723    78899 
   58391     5644   -50917   -82914   -70726   -36140   -29099   -35754 
  -16359     -653   -10406   -13598     4779    54537   133253   179743 
  139715    41188   -31991   -47744   -53137   -55885   -23657    15119 
   29743    49917    79643    87354    75222    50815    15106    -9105 
    -941    28564    27760   -18666   -39635    -3244    31610    26899 
   10967    18469    40769    67809   112931   135708    86568    28462 
   36645    71231    78637    92367   137422   141423    54288   -39541 
  -48469     3348    59925   105386   134810   146402   145007   143726 
  154358   167300   174965   168419   130370    86305    77227    99319 
  131368   147121   118740    62376    11838   -28121   -55533   -73871 
  -92348   -94661   -77186   -59425   -33833    -5091    -5523   -14568 
    6970    46708    77443    72757    22004   -36967   -56716   -23015 
   38465    74479    64136    53961    86937   142612   180285   173266 
  119495    59317    24058     8101     7203     7443    -4009    -8517 
  -10189   -34170   -43588     9696    74868    73773    24760   -20468 
  -68303  -116862  -128976  -103792   -62975   -24678    -8002    -2864 
   11039    40442    72914    81887    84995   102124    98008    49091 
  -37131  -118453  -133311   -81906    -4913    52033    53157    22348 
  -14437   -52620   -60202   -36253   -18601    -8342    11878    21318 
  -11471   -65040   -77583   -30327     9618   -12152   -45783   -39292 
  -20742    -7331    26648    52468    19624   -23661   -18373    11646 
   37763    39984    15066    15757    71684   151192   208085   201789 
  134718    49235   -15333   -19135    37169    83282    84222    71143 
   47904    13381    11550    52237    85085    91826   102587   117523 
  104519    59965    20774    19944    39789    58347    91054   141782 
  209072   272524   276803   251588   266891   278573   240948   188853 
  137796   101218    97904    93787    49459   -39758  -137135  -186231 
 -182713  -154389  -109858   -54329    -3783    25486    39604    45887 
   31784      705   -31168   -40663     5608    94794   167499   193172 
  195156   194459   169245   118687    74047    12616  -106302  -257854 
 -373202  -410014  -390324  -328523  -194893     1425   184252   278232 
  287515   261109   217639   154148    59724   -31116   -72051  -127541 
 -235180  -305266  -294542  -220604   -80261    96805   243349   311999 
  297313   242017   180792    90258   -17284   -71177   -62597   -38383 
  -30597   -40051   -43661   -39060    -3111   115283   252153   311293 
  322364   293932   188294    51705   -65599  -148072  -168052  -120837 
  -38581    13121   -29122  -136326  -205631  -213347  -222493  -245750 
 -271627  -291772  -264707  -205690  -142096   -26233   126359   223171 
  237388   191547   119487    88214   138066   249810   362259   388022 
  321270   259676   234937   211168   218566   254252   236683   160171 
   70820     3977    -8509     9018    38875    87096   102917    75885 
   52931    31784     3617   -23630   -55460   -79398   -68946   -34339 
  -25334   -39245    -3328    84570   159804   229888   324036   388168 
  373640   341314   350408   344562   286062   225704   180520   132457 
   73634     3437   -40667   -35992   -34004   -81271  -154716  -214982 
 -246732  -229361  -156218   -69526   -13008     4459   -22730   -97995 
 -173517  -176774  -104688   -22892    26620    58495    80158    71878 
   56587    80456   140680   221975   289837   271892   180475    91040 
   -2612  -110263  -178022  -205858  -228572  -216666  -154971   -85796 
  -22810    40707    92256   125236   139075   131507   118265   137528 
  191534   229112   240726   242774   209609   164882   168901   184502 
  141117    67255    47635    86053   101694    73687    59245    87183 
  142324   194722   211857   181319   126070    83956    56452    13545 
  -30304   -28218     2156     7303     2956    41783   110648   165152 
  204280   220687   206870   185107   129234    22971   -70827  -129086 
 -180616  -234107  -300132  -377006  -421529  -393160  -295754  -184752 
 -136181  -159776  -186267  -175585  -142110  -110291   -91978   -53435 
   13744    67336   118222   180412   220353   217959   172836   130652 
  143379   182739   206741   202026   146375    50485   -14408     2055 
   64691   108153   103195    58745    17597    18648    49067    79265 
  110483   142040   152986   147551   134141    96308    50860    38174 
   57128    74091    69818    67854    95826   146442   206285   239149 
  181104    32027  -122951  -208482  -236854  -257484  -267577  -247461 
 -210094  -180869  -164645  -139263   -98511   -53146   -19348    -4779 
   26193    74837   111849   158232   199134   208393   219304   212143 
  161190   130441   134927   107518    41566   -12946   -41215   -41029 
   -3697    35812    31184    -8075   -31958    -9925    30955    69032 
  123134   160330   129798    59558   -10069   -63600   -88424   -90674 
  -61346    12904   100126   172081   218624   216789   159121    60340 
  -44950  -115334  -154039  -175875  -172250  -151176  -113497   -45337 
   24165    45673    19654    -2954     9061    38989    75178   113298 
  124737   121398   173178   272722   336871   353668   340308   273497 
  190259   169453   199498   220555   218700   196546   142744    63818 
   -1164   -37325   -93789  -202494  -309542  -344879  -315167  -268737 
 -208168  -134663   -68102    11074    73517    68834    58382    68218 
   42453    -4317   -29940   -15477    53004   140903   187850   172902 
  130219   109989   107835    88135    53106    16078   -26556   -75261 
 -132495  -201842  -253909  -244424  -169778   -28359   174350   331251 
  355876   315573   286596   275391   269113   265066   298980   356019 
  346850   253495   140239    54183    -8247   -60141   -97784  -126243 
 -131330  -109255  -122625  -179644  -210360  -193771  -136468   -55024 
   -1749    29822    83972   130562   133007    96189    17582   -71413 
 -106075   -71678    -7071    47762    87020   112827   110360    90223 
   76785    65473    54021    55393    70384    85425    73877    27358 
  -17500   -40183   -52009   -50478   -38644   -36395   -56546   -79499 
  -61451   -10416    26184    52454    81101    77893    48496    35283 
   33522    63166   162224   269329   312376   300229   256345   197502 
  129802    64383    43583    56372    52557    45865    53403    55153 
   52053    48290    35963    32818    45148    32409    -5055   -15851 
    -887    25374    89074   167026   196927   175940   127199    63502 
   19386    -6644   -63243  -143187  -198865  -193034  -116189   -26780 
   28968    58317    46763     9426     7608    35546    40896    20581 
    1951    -2757    11873    43359    60941    41835    13994      153 
      64    22047    36185     7881   -38184   -64243   -56967   -49783 
  -67688   -65684   -35457   -25318   -20107    26991   104431   184115 
  267171   345280   370632   312467   219317   147885    95563    70044 
   99068   154060   185879   198012   207781   218305   243703   273410 
  267189   228255   207675   226808   248196   243433   222617   190526 
  131936    36830   -47601   -81264  -116315  -168678  -214012  -278093 
 -319090  -280725  -215304  -164877  -139654  -149535  -162979  -169245 
 -176037  -149815   -81700    -5267    49293    68048    89113   155035 
  233111   276196   278947   258955   239617   230802   220452   181233 
  103498    12667   -71450  -130746  -122245   -47035    20363    41694 
   34218      612   -46108   -99226  -167241  -210868  -199212  -151905 
  -94619   -44917   -15394   -20078   -36287   -26263    -4533    24786 
   69596   102404   125096   133911    96194    48105    37113    50455 
   68206    72644    63304    55941    39847    33624    79402   126913 
  121005    95202    50664   -10861   -28839    -5489    27529    67195 
   87863    84310    85159   114747   174789   214972   200512   162377 
  135540   142707   182378   205208   179164   139873   113869    87039 
   92884   148886   162224    86957    -5185   -67886  -104933  -108607 
  -76710   -29244    12326    38881    58533    71079    56469    18955 
  -14264   -29178   -20689     9776    55309   105296   128352   107228 
   71172    32121   -22989   -77122  -109288  -111997   -81420   -42635 
  -10166    28344    26527   -43309   -98482  -100909   -70201    13265 
  110895   152326   150507   134039   111949    96050    79203    67756 
   91556   136780   162632   165846   138550    70693    13230   -11839 
  -46101   -92265  -134957  -160688  -138884   -98611   -87792   -77123 
  -47354   -15233    36425    99255   136959   165635   197146   204104 
  185875   154888   117183    88018    55708    19140    10617    24081 
   49873    73466    57350    31685    27217    21793    19241     4111 
  -32185   -30903     -208      736    -7214    -4792   -14712   -34379 
  -52334   -59524   -46412   -25624    -9540     8235    15784      328 
   -7739    20408    71386   105366   105476   107722   128228   136282 
  128787   128916   143942   158470   141788   104959    83948    51176 
   -7929   -40714   -41380   -32088    14952    87846   117660   112798 
  130596   149937   142292   134038   116871    64786    -1633   -53453 
  -73536   -54030   -10986    26031    42134    49352    63879    84339 
   97904   103813   111015   109794    94757    65589    22518     8698 
   26900    19970    12731    46095    69049    58785    62123    69699 
   28890   -29643   -52715   -58522   -58782   -50993   -58128   -82000 
 -114391  -136023  -106977   -67247   -93745  -145761  -139622   -75413 
   -4409    19476    -9464   -34270   -35751   -33225   -13886     -927 
  -23228   -20658    30823    75616    96769   108470   119063   133329 
  147409   151103   133880   121069   129453   117903    92913   101188 
  121631   133384   155893   180477   191267   193637   192238   190252 
