Origin Time       2011/03/11 14:46:00
Lat.              38.103
Long.             142.860
Depth. (km)       24
Mag.              9.0
Station Code      MYG005
Station Lat.      38.7989
Station Long.     140.6512
Station Height(m) 304
Record Time       2011/03/11 14:46:57
Sampling Freq(Hz) 100Hz
Duration Time(s)  300
Dir.              E-W
Scale Factor      3920(gal)/6182761
Max. Acc. (gal)   205.513
Last Correction   2011/03/11 14:46:42
Memo.             
[...]
  -45451   -24732    11652    42742    52917    38106     7737   -24361 
  -49159   -55065   -39197   -15336     8397    29217    34244    18068 
   -1549    -7334    -2911     2676     7703    11472    12282     7561 
   -3435   -15960   -25221   -27431   -19047    -5132     5413    16621 
   34699    49836    52962    45209    24458    -4267   -25405   -35788 
  -36320   -22203    -6155    -5224   -11959   -20035   -35054   -43629 
  -32606   -19836   -18733   -21611   -27570   -38501   -48508   -53685 
  -48812   -29768    -7614     6465    15078    16470     5723   -10646 
  -24949   -31016   -21803    -6179     -899    -6430   -17184   -27482 
  -24240    -2960    24366    46778    64456    73747    59859    27075 
    4026    -1956    -6968    -9394     2579    22897    33749    23596 
   -1820   -28275   -46127   -42686    -9405    36333    66039    67415 
   43057     4466   -30461   -47769   -48528   -44519   -33438    -7672 
   14006    14967     6210    -3322   -11071   -12076   -13024   -22544 
  -32008   -28836   -14140      354     3071    -4484    -9817   -11417 
  -14330   -13532   -12193   -19580   -22848   -11114     1931     9457 
   14996    12468     2387    -4473    -8883   -18028   -34359   -52948 
  -56315   -34821    -5422    12158    19761    25280    23164     7444 
  -14922   -27483   -17206     8744    34315    54458    65789    60035 
   37906    11240   -12984   -32589   -40176   -35354   -25811   -11863 
    4853    20576    38431    54344    56684    45000    26330     1928 
  -23147   -37746   -41078   -39320   -37194   -36077   -29336   -14758 
   -2391     -408    -7773   -13832    -7961     4539    15820    32534 
   54323    59828    41626    21096     9279     1617     5721    23881 
   33619    17798   -13252   -39930   -48612   -29995    16305    66798 
   81835    52103     4555   -41574   -75700   -83115   -63264   -31895 
   -2303    16800    16741     -524   -22360   -36242   -38379   -35195 
  -27611   -18163   -19840   -22653    -4819    20357    33322    40267 
   40150    23149      394   -16256   -33094   -46018   -43821   -34750 
  -24509    -7317     8296     7147   -15461   -51156   -81400   -96344 
  -92486   -66848   -37209   -22999   -21404   -26918   -34379   -35988 
  -29150   -14778      387     7951     9276    12714    18761    16295 
   -2078   -31379   -54662   -53550   -27963     7564    38883    55247 
   52384    34429    10787   -10814   -24518   -17623    12540    42538 
   49814    30076    -6670   -36856   -40812   -21009      565     7098 
    8135    10497    -2503   -32764   -56727   -63412   -59653   -43289 
  -11590    18778    33691    35216    27479    14384    -3209   -19151 
  -12740    19984    59636    90591    97203    70235    28892      799 
   -8987    -9557    -2256    13731    26748    24369     9796    -6304 
  -14533    -6655    10914    13920    -5620   -23120   -17526      407 
    4752   -10905   -28780   -32665   -13957    21542    43272    33574 
   12491     2018     6384    20638    26043     9291   -11667   -17878 
   -9354    14187    41499    43724    14572   -22575   -55897   -85208 
  -96443   -83971   -59937   -35123   -24267   -29834   -33769   -28799 
  -14151    10203    26180    15452   -14462   -39898   -51956   -57958 
  -52548   -32274   -19825   -28901   -46286   -57386   -55312   -43152 
  -28042   -10234     5075     8886     6961     9482     9371     -527 
   -3860    10059    25508    36534    50301    49045    18016    -6341 
   10041    40503    50617    35216   -10824   -73098  -111539  -116519 
 -101874   -77697   -63908   -59361   -47854   -45130   -45422   -25450 
  -10497    -4457    14315    23367    13277      215    -7913    -1951 
    8344    16293    31613    36940    17495    -5864   -11891     2107 
   25430    43606    48842    44522    34378     6530   -36929   -68501 
  -82672   -81868   -47265     9558    46316    56590    52353    27572 
   -3893   -15951   -13571   -11450   -11175    -8948    -9203   -24007 
  -46211   -48524   -19796    21861    60165    87340    89038    69810 
   41257    -1775   -40592   -47595   -31874   -15306    -6743    -1946 
    7799    28706    57549    73028    65387    46766    15846   -24278 
  -48520   -47575   -31837   -14219      668    25611    57754    68564 
   54214    37562    25821    22703    39269    60635    68837    75726 
   84447    80935    66595    47792    23083      923   -11317   -21791 
  -31859   -37189   -40619   -45141   -54912   -62260   -50050   -26899 
  -10834     2628    20534    36456    44439    49494    52320    39424 
    8116   -24836   -46090   -52359   -41453   -17724     6349    23461 
   23869     4941   -12128   -23157   -42907   -60228   -49908   -11361 
   25605    33283     4476   -45627   -87176  -113184  -122409  -104719 
  -78317   -50118    -9747    17292    17993     6013   -27686   -79410 
 -121037  -144023  -144363  -112741   -62216   -17255    10384    12738 
  -14073   -50146   -71984   -71105   -41513     1333    27994    31490 
   14977   -10638   -22302   -21299   -30236   -46821   -55149   -53196 
  -41868   -29730   -21919    -9387     1291    13830    51000    93823 
  108300    94704    59572    11050   -26901   -41824   -42416   -27939 
     965    20953    20427    12849     8568      864   -12547   -22063 
  -33946   -45341   -35217    -9428    19666    46986    51492    29728 
   13932    18877    26752    32872    37144    24215     8390    20418 
   42153    38752    19646     6651       69      973     8662     7684 
   -8975   -28577   -37802   -31055   -10145     8945     8582   -12827 
  -39794   -50389   -41205   -23893    -6751    -1382    -1606    14697 
   35022    33944    12373   -15479   -28432   -24192   -27171   -41913 
  -50789   -36919     1460    29857    26722    18476    17855    16978 
   17559    10163   -15369   -38344   -31540      683    32884    53438 
   68243    77070    75204    68836    62718    53867    39873    14168 
  -21916   -46033   -45911   -36888   -31872   -27970   -23047   -18736 
  -14857   -11677    -9757    -9712   -11918   -16461   -25042   -33590 
  -33432   -25886   -20171   -24118   -43350   -76395  -111659  -131911 
 -123285   -92565   -62540   -48871   -58673   -79232   -79068   -56127 
  -36475   -29228   -26883   -20373    -7256      730    -7939   -24111 
  -29314   -34375   -62201   -91946   -91769   -67323   -33157     1446 
   19496    14872     3518    -6700   -19824   -28242   -32445   -45475 
  -56826   -49106   -33839   -23195    -7237    13237    24986    33157 
   43366    45054    38204    33476    30872    26065    19625    14460 
   17955    36920    70192   109481   132526   116643    69514    14384 
  -35687   -63781   -51980    -8641    43184    90786   119746   111501 
   76415    41126     6642   -27759   -41238   -28160   -15435   -18016 
  -13471     9066    25766    23748    18950    15718     2469    -2451 
   21193    43900    37841    20151    10099     9671    20657    38650 
   54661    64348    60416    39978    14308    -9392   -35391   -55944 
  -49588   -13434    29767    57224    57430    28822   -11156   -37231 
  -47845   -53233   -48544   -32600   -15368     3449    24287    32433 
   18920    -6325   -33919   -57025   -59627   -40113   -10762    28195 
   63121    66888    43853    15744   -11865   -30789   -24646     1484 
   28720    43875    37461    23542    31982    53715    60613    60833 
   57115    30705    -1558   -12972    -7965     9142    35680    51708 
   49817    46323    49942    56974    61472    58594    48725    36247 
   24957    15586    15363    25953    31069    29835    31329    23072 
    2263   -12785   -20082   -25430   -23836   -18787   -17516   -14529 
   -3984    11663    22253    15269    -5120   -23380   -37419   -46827 
  -40263   -18496     5077    23512    27382     6727   -28995   -62430 
  -82419   -77420   -46187    -7620    21504    37351    33191     6458 
  -25455   -45149   -53160   -53603   -43126   -25171   -16132   -19509 
  -25776   -37093   -57284   -78938   -84096   -64784   -44756   -39456 
  -39971   -51549   -80226  -107898  -115065  -101135   -74260   -35909 
    7003    30226    19479   -13374   -49940   -71992   -67460   -46637 
  -30491   -30275   -44084   -57574   -55592   -46399   -52438   -68645 
  -69447   -50522   -25445    -3843     7940     6809    -6933   -25301 
  -28201   -15936    -9505    -3715     9329    11999     5478     7591 
    9190    -8076   -38632   -64004   -75275   -74837   -63478   -35208 
    4205    30511    34039    18239   -16488   -42575   -35960   -19669 
  -13140    -9708    -4385    -1767   -13657   -37068   -52748   -54322 
  -39994   -15061    -6469   -21434   -42550   -66462   -90907  -101549 
  -94471   -86631   -90986   -94264   -81788   -62543   -48819   -35920 
  -26546   -36206   -49544   -35220    -4985    11440    18792    20029 
     110   -19368    -7916    24278    59993    85876    89704    81233 
   70471    55893    52014    71035    99727   123576   129256   102524 
   55334    19220     5614     4793    14566    29575    39276    51339 
   60024    42735    10923    -5991    -2692     9047    13175     1835 
  -13860   -28979   -41886   -41242   -39158   -43225   -31662    -8941 
   11848    39785    60647    52020    18172   -25187   -49716   -39951 
  -14229    14612    40664    54064    58966    56848    39687    16269 
    6978    16038    30150    36093    32815    25974    15935    14254 
   42480    88428   105643    72447    18388   -26150   -55036   -56479 
  -25961    19047    63846    93997    88317    40230   -30749   -89227 
 -100994   -56233    12358    64506    97534   113200    95102    49535 
    8982    -4571     4488    23218    47462    69678    78356    75700 
   70294    70321    95805   146484   171421   129806    31466  -100941 
 -229638  -280206  -202576   -33645   130941   213711   204304   128804 
   22945   -62076   -97656   -88721   -51011    -2487    51521    98134 
  123497   137166   117300    44262   -28873   -62263   -55440      560 
   86456   164727   212939   213379   159851    46154  -106353  -221799 
 -253800  -220818  -150290   -58837    26777    76513    88555    65580 
   -2596   -99770  -183389  -215974  -184600  -125029   -80333   -31641 
   34246    78646    92369    82636    25500   -78690  -167187  -169354 
  -89159     8026    79349   106436    60648   -46821  -164799  -266403 
 -311880  -270518  -175838   -58026    42917    69118    29765   -24688 
  -70685  -108945  -130803  -127841  -111247   -88794   -73154   -67254 
  -51232   -32012   -24394   -25860   -44397   -65815   -52133    -7331 
   39340    73977    81964    53765    11891    -4616    12286    39347 
   54749    46690    25188     7295    -4071     5955    46326    89753 
  120153   141440   131057    71076   -10352   -82320  -124705  -103942 
  -23208    55533    91950    88599    41564   -36854  -103794  -138532 
 -125422   -49228    41444    81506    66605    11039   -83526  -183335 
 -245745  -260835  -204308   -73783    62538   142811   142841    78290 
    1036   -53873   -69179   -43831    -9635    14625    39468    54186 
   35634     2594    -6615    14353    52054    92142   111760   102710 
   84312    63388    20028   -63615  -166592  -232844  -232742  -174008 
  -70933    42724   119664   125756    52002   -68083  -187023  -252908 
 -206592   -88566    17889   121750   195532   204664   206612   173773 
   57351   -56793   -89136   -33178    83984   205503   272125   255891 
  168655    35083   -91480  -132585   -73176    35711   131970   148058 
   62022   -70656  -197748  -283876  -277090  -186815   -76353    13645 
   41466    23591     9678   -46663  -140253  -168182  -127118   -65283 
   23926   118135   153114   130168    88693     4336  -107483  -139805 
  -71899    18744    88557   121030   111702    93402    69797    -1600 
  -93082  -125813  -103625   -68939   -32921   -25457   -65297  -123496 
 -187367  -250099  -282387  -274357  -223680  -149320   -97161   -60569 
  -37208   -64658  -101731   -78034   -12038    48246    88768   103057 
   83775    39237   -10443   -46842   -62131   -61905   -65379   -88028 
 -121027  -149549  -159019  -130231   -80321   -45194   -16442    11713 
    5601   -32063   -57670   -60269   -43567    -6890    14768    -1894 
  -27903   -37776   -27020    -1036    25639    39675    26734   -16004 
  -59611   -71869   -66922   -75412   -73675   -39973    -1483    48758 
  121415   172227   167327    99127    -4699   -84023  -111097   -83504 
  -14658    56551   107411   126384   107437    65805    -5903  -103470 
 -159193  -124758   -26160    68376   129046   181833   200455   146104 
   52563   -58519  -157438  -187243  -174174  -134931   -17877   125964 
  207510   229869   182913    72783   -32986  -103502   -93766    19220 
  123109   147323   152320   160355   142977   100221    29114   -63949 
 -134706  -158053  -143074   -99262   -32598    34483    83714   124792 
  124667    67585    42160    65567    83508   118304   150303   130552 
   90191    19397   -69393   -72222     6832   114214   240702   282231 
  167441    -3458  -155011  -257507  -214635   -41881   127953   245975 
  251163   148231   108225   128073    84359    10895   -38900   -35658 
   45029   161130   231999   195734   115111    60699    -7943   -48701 
    6233   106495   197291   232615   192297   132458    78400      400 
  -76675   -93276   -75510   -74192   -59414    -7607    53554    95514 
   97432    57488   -16664  -113784  -198226  -244394  -250496  -197874 
  -87579     4466    16758   -23707   -94510  -195629  -287969  -329424 
 -294533  -197253  -115036   -97559  -104197   -78504   -21284    38175 
   54098     2042   -58291  -117680  -198990  -188064   -47071    90631 
  148752    86245  -101645  -264866  -294602  -260393  -206525  -117556 
  -55958   -57937   -82836  -130323  -169327  -183710  -246150  -302322 
 -267833  -194290   -95466     5630    32469    -6952   -78946  -150379 
 -170052  -146299   -97256   -34511   -12098   -15867    20624    81526 
  130812   140697    70004   -33825   -87478   -99715   -99091   -81808 
  -54214   -29171   -11020      379    -3025   -20642   -27661   -30777 
  -55362   -91816  -126557  -141213  -129987  -113745   -80440   -32336 
   -9242     7224    52988    87328    72694    51625    48772    41253 
   49314    94496   148446   189615   201811   178628   155376   147668 
  145922   162701   176561   145785    73665   -20654   -86192   -65857 
    9455    80440   122248   114569    76115    55698    45455     9238 
  -39784   -68679   -80939   -94414   -76565    -3776    50870    58591 
   71255    73201    53364    54681    78831   102224   118066   127999 
  119312    95487    92972   114897   139224   158610   172746   182291 
  179647   152153    81648   -34550  -149477  -209146  -206018  -159671 
  -77536    39263   148175   190306   185216   172607   123196    41942 
  -26393   -74179   -62076    16127    71937    87779    91052    67297 
   63925   101143   104159    71871    41678      892   -48920   -97851 
 -142067  -178570  -214547  -237132  -220656  -164929   -94033   -47623 
  -57125  -101252  -131666  -129042   -97883   -75840  -110230  -178747 
 -217991  -191483  -111427   -28548    31264    53728    15243   -50844 
  -95896  -106059   -67078     8274    80476   104293    45912   -43761 
  -99601  -124766  -114523   -83411   -84072  -109998  -115296   -85052 
  -42309   -17063   -24069   -78660  -162418  -214690  -208116  -151393 
  -53400    51957   115567   129940   105985    47508   -19371   -72059 
  -92580   -65532   -18118    25315    57154    66606    75148    82401 
   45890   -26568   -90201  -122789  -111383   -48209    32278    63914 
   30512   -31941   -87224  -113429  -114022   -91746   -49089    -6429 
   18480    18358    15244    26832    32516    34534    55466    86358 
  108657   122753   123565    88707    39765    32638    59118    91000 
  133009   164423   171285   171837   173390   170882   144730    98343 
   76576    92114   119268   147932   174980   179351   140323    63062 
  -21180   -78964   -94131   -64020     4398    98913   184105   216403 
  210634   192258   146499    88177    62232    80852   123762   169125 
  198721   194277   148478    72559      961   -19539    21599    77957 
  115909   147355   162513   140336   106231    72391    11891   -52242 
  -65659   -36826      584    47591   106779   166202   214494   236764 
  225039   186610   134125    81718    40005    14497      448   -13918 
  -25322   -22042   -12172   -12122   -16889   -20101   -32043   -53309 
  -74580   -92397  -101360   -97848   -85014   -64486   -46418   -42903 
  -49966   -69312  -101432  -127270  -145582  -168281  -187237  -198587 
 -209670  -216398  -214497  -211513  -208261  -192056  -158138  -117198 
  -79793   -53596   -50489   -67050   -76840   -75770   -85841   -99468 
  -93742   -76818   -63411   -56373   -61133   -74234   -88218  -109495 
 -138227  -160834  -162936  -134209   -85403   -41671   -12453     1770 
   -7961   -46390   -97549  -138284  -158238  -155450  -133072   -99687 
  -65898   -47847   -50423   -60321   -73071   -88215   -99163  -106796 
 -112709  -115692  -116098  -111654  -105297  -102794   -97222   -83408 
  -71544   -71100   -88182  -118937  -142019  -148029  -140486  -116051 
  -76131   -24764    31231    72743    86131    69616    28820   -21479 
  -64319   -77377   -47812     2032    45797    75425    79770    63183 
   51725    48916    41437    27594    10154    -5115    -6903    16777 
   61313    99688   115302   103923    69480    37376    16729     2868 
    4460    10807     7575     5054    13628    36699    71669   105257 
  124639   126583   109061    72974    32822     4635    -5159      915 
   11786    20907    27760    24080     8139    -6752   -10470     -769 
   11637    10697     5032    19775    60246   103343   124094   122858 
  111930    96726    92146   117638   163089   192598   184647   149199 
  101555    49279     9286     3485    32276    65025    69276    49994 
   33010    19859     3301    -4895    -4023   -12938   -28635   -30072 
  -15781     2088     8553    -6265   -29242   -41807   -36688   -19724 
  -12559   -32140   -73889  -118476  -150214  -159086  -137702   -97414 
  -55181   -21130    -7374   -11634   -19777   -18995      963    30389 
   54422    76845    98021   107565    95594    58154    13178   -15464 
  -20808    -4805    11347     3246   -22507   -53530   -85966  -114237 
 -139682  -154820  -141674  -103383   -53292    -6119    14038     7954 
   -9040   -46039   -93579  -113096  -101700   -88217   -83160   -77234 
  -57803   -26876   -12404   -32816   -68937   -92017   -86921   -48856 
   14503    80040   122972   132315   110742    79506    61953    45430 
   16967     3048    19046    46072    68291    89710   112915   116171 
   82940    33128    -5303   -20278    -8536    18074    30921    18007 
   -8587   -41903   -73987   -86406   -73252   -40658     3765    39914 
   55005    61009    57802    29585   -19242   -67139   -99275  -109091 
  -89030   -46406   -11694     -457    -2033   -17189   -49991   -75563 
  -69112   -31063    24720    67678    68252    32410   -15956   -62503 
  -88884   -76762   -37921     -201    27143    37053    15251   -22826 
  -48970   -62868   -65847   -49542   -22098     3414    25172    38699 
   38414    30243    22286    16912    18421    34018    64650    99591 
