Origin Time       2011/03/11 14:46:00
Lat.              38.103
Long.             142.860
Depth. (km)       24
Mag.              9.0
Station Code      MYG009
Station Lat.      38.4466
Station Long.     140.8871
Station Height(m) 29
Record Time       2011/03/11 14:46:50
Sampling Freq(Hz) 100Hz
Duration Time(s)  300
Dir.              E-W
Scale Factor      3920(gal)/6182761
Max. Acc. (gal)   548.010
Last Correction   2011/03/11 14:46:35
Memo.             
[...]
  -23472   -17399   -12408    -8337     -506     7447     6955     1769 
    3075    10892    11654    -2055   -21410   -35602   -43652   -51919 
  -63613   -76568   -89966  -104204  -118422  -127189  -124346  -115232 
 -108300  -100991   -88713   -75483   -67939   -65796   -64118   -59479 
  -52092   -43083   -31163   -21655   -23553   -30502   -28686   -22013 
  -25632   -36356   -41786   -44738   -49302   -56141   -68539   -78103 
  -75289   -68652   -65235   -57806   -45422   -40740   -50449   -61989 
  -57302   -35598   -12345      474     4076     3561    -1808   -11871 
  -20947   -27213   -34237   -39665   -35962   -26069   -23500   -33211 
  -45828   -50745   -43775   -26941    -6896     9176    14171     7174 
     554     1665     2200     -923    -4326   -10959   -21192   -32578 
  -47265   -64341   -79709   -89263   -85674   -70467   -57088   -48671 
  -39567   -31415   -24133   -17232   -18736   -28029   -36571   -46581 
  -59880   -70005   -74464   -69293   -47196   -19798   -11761   -20931 
  -19857    -3280    10005    15859    16895     6642   -10448   -27054 
  -51392   -82042   -97346   -88574   -67593   -44159   -25496   -20006 
  -25835   -31024   -28217   -24476   -30514   -42609   -50029   -50238 
  -45869   -40237   -33102   -23295   -17459   -19388   -24556   -28356 
  -28234   -31011   -42877   -51116   -46593   -38099   -27895   -15539 
  -11602   -17118   -25534   -36024   -40252   -31305   -19391   -18954 
  -35395   -58751   -73235   -77258   -79112   -82457   -84446   -81757 
  -77408   -76288   -77273   -77156   -75792   -72626   -68594   -67099 
  -65342   -59356   -50276   -46214   -60816   -87857  -103826  -101854 
  -91532   -83544   -79483   -73113   -66668   -63028   -56810   -50893 
  -50589   -47738   -36556   -24894   -19043   -17642   -17228   -14236 
   -9524    -6259    -3570    -3723   -13392   -30515   -47393   -63149 
  -78272   -87828   -86143   -70635   -45694   -23995   -12925    -5075 
    6160    16561    23140    30217    41238    50517    52744    55365 
   61512    59224    42404    17194    -7632   -22583   -25986   -25886 
  -31561   -48269   -65118   -62764   -39860   -14051    -4585   -12282 
  -15687    -1993    12246     9861     1397     4118    14795    20521 
   18573    14573    11584     7746     3566     3772     5639     4776 
    8686    18476    20804    10296    -4137   -15199   -25097   -38783 
  -62153   -91851  -109673  -115681  -129430  -145940  -146963  -135678 
 -116859   -86602   -51933   -21007    10320    46021    73779    76673 
   59767    35166     5258   -23696   -45893   -60054   -60595   -45191 
  -29016   -31968   -48106   -58086   -61163   -61677   -53970   -36026 
  -11006    11392    14172     -537   -11228   -14107   -26502   -47965 
  -56021   -48602   -39625   -32415   -30429   -33385   -34441   -36415 
  -40501   -32316    -5609    21655    33870    35982    37703    34905 
   18009    -5791   -24859   -44272   -69169   -91245  -104303  -109780 
 -112311  -121602  -132584  -124333  -106416  -100953   -94087   -77626 
  -61848   -35558     2885    32137    50558    67732    77014    70781 
   54134    33333     9403   -20824   -56288   -86506  -112225  -141741 
 -168213  -184324  -186451  -165421  -123914   -78064   -40983   -23269 
  -28487   -38111   -34333   -28082   -27212   -25327   -32653   -59575 
  -83164   -66623   -20128     1410   -17494   -44027   -58975   -62447 
  -53584   -34243   -14564    -4442    -2164     3694    17746    28401 
   28159    21556    13134    15235    30298    34738    19441    -7200 
  -45375   -79977   -85204   -66215   -41437    -9588    26439    42860 
   30328     5979   -13444   -17188    -7125     -906    -4387    -5910 
    4244    18713    24576    28990    38588    48151    58616    58436 
   34453     2755   -20680   -40500   -57344   -58236   -44503   -39883 
  -53943   -71805   -84667   -96741  -101048   -87640   -65376   -43258 
  -26358   -20221   -16180   -14439   -30384   -48860   -45483   -36646 
  -40098   -48255   -50699   -37323   -21268   -35615   -77575  -106517 
 -102163   -82432   -59752   -41045   -43611   -53171   -46461   -45579 
  -68154   -88000   -83366   -63987   -49595   -52112   -59374   -49475 
  -30268   -20995   -26674   -45201   -60717   -60909   -50925   -34211 
  -27959   -49230   -62705   -46365   -51655   -89273   -99597   -83855 
  -89072  -106354  -113197  -114382  -102608   -82605   -86104  -107444 
 -107420   -76771   -37334    -5204    13594    13211     7906    18719 
   32210    33689    39876    55707    54973    27972     2690    -3947 
   -3232    -3663   -17406   -47812   -66729   -72558   -96757  -127498 
 -130107  -110103   -89027   -77808   -81546   -77786   -48080   -34520 
  -58790   -66100   -26446    25027    51247    52095    44523    24673 
   -6940   -18693     5728    34019    26497    -2285   -12857   -10094 
  -17460   -34713   -50381   -63555   -73797   -55233    -5001    25592 
   12982    -7548   -12976   -19293   -35309   -49909   -56197   -63865 
  -94200  -140481  -165037  -156410  -134666  -105608   -57832     3242 
   44541    41880    20150     3325   -22846   -49859   -60268   -69773 
  -88205  -105394  -106348   -87785   -67340   -56885   -42445    -6269 
   45644    85928    85763    53718    25187    -1801   -37693   -66219 
  -86831  -102340  -100500   -76492   -24584    45380    84885    66138 
   31227    26724    25443   -15159   -73404  -114397  -128793  -123047 
 -121208  -106226   -35653    53908    96335    91841    75187    66631 
   67280    72995    75055    56968    30107    15428     1265    -3706 
   23027    52842    56395    54207    65827    75143    63845    37465 
   13659     -981   -15272   -37207   -68087   -93743  -104667  -127313 
 -168702  -193475  -194279  -193868  -195649  -181751  -140417   -81414 
  -20618    26452    48522    52642    41699    17866    12102    32622 
   33674    -2321   -40526   -60615   -58467   -40907   -41559   -62051 
  -65440   -50908   -44589   -42241   -29299   -32962   -70663   -91643 
  -65049   -34413   -34215   -41039   -25267    -2021    -1107   -17367 
  -15991    23222    65498    62395    30054    15391    21932    14395 
  -35567  -103613  -137601  -127963  -112547  -129945  -161593  -158066 
 -126626   -94223   -52104   -12076    -2691     4397    45499    80815 
   55619   -21327   -96428  -126881  -116603   -93479   -85219  -107121 
 -124887   -97460   -53903   -38740   -41377   -43008   -52035   -63447 
  -56556   -39019   -41295   -67441   -88907   -85320   -63134   -45740 
  -46180   -42809   -15915      746   -29817   -72199   -85021   -87743 
 -100755  -130056  -171140  -176699  -112106   -16770    37163    34194 
   32866    63836    85373    70855    49653    38292    15096   -19731 
  -39883   -45511   -61037   -83892   -81108   -59640   -62878   -81376 
  -81008   -70254   -54968   -30749   -22447   -48172   -87025  -112945 
 -118598   -99993   -57836   -10409    20688    27473    26390    39164 
   53302    57812    60828    42065    -1660   -35720   -51375   -54930 
  -57844   -78117  -103138  -108994   -99464   -91733   -84035   -56511 
   -9169    24373    25286    22309    36310    49300    48034    36830 
   18586   -13444   -53591   -84459  -120042  -164694  -170915  -123260 
  -77984   -70836   -71552   -53191   -28341   -19055   -30637   -46873 
  -54412   -55367   -54684   -55362   -53994   -42413   -22073    -3616 
    1619   -12103   -27905   -29973   -34036   -42156   -45542   -65230 
  -90149   -77661   -50367   -56725   -73886   -58115   -33075   -41016 
  -71808   -90268   -79801   -62484   -64198   -67717   -56691   -47540 
  -45970   -32110      -33    22301    18551    15751    35353    59161 
   71324    77549    76283    63713    35578   -18909   -70814   -63265 
  -11080     6320   -20573   -35047   -46006   -84004  -105037   -66373 
    6888    60676    62577    34357    34108    67515    65944     3125 
  -65178   -85549   -53185   -25679   -50710   -72736   -45904   -21546 
  -28967   -30067     1897    44078    59972    45841    23281    10007 
    -674   -21880   -36858   -30606   -16649   -10523   -13763   -19730 
  -32109   -44219   -37920   -28474   -21720     6791    43363    47152 
   14273   -27194   -61702   -81084   -83890   -91512   -95265   -69732 
  -42621   -45824   -57368   -35724     9853    37814    44712    24856 
  -13724   -20085   -13227   -37526   -59671   -61612   -64480   -52165 
  -10161    15588    -9304   -53057   -85780   -94316   -66713   -33717 
  -25707   -24381   -24389   -34042   -34949   -19523     6196    30774 
   27361     1385   -25806   -59117   -91396  -104203  -102295  -101762 
  -89938   -46002    -7009   -11238   -30053   -34046   -27105   -27935 
  -47234   -52208   -24927    -4603   -13426   -44868   -85025   -94937 
  -68013   -51933   -53217   -47817   -49719   -56785   -54732   -64883 
  -75576   -50842   -16743   -27097   -82639  -129714  -140355  -145114 
 -158418  -152933  -114267   -59492   -17418   -14660   -49507   -73635 
  -61314   -49209   -47823   -30705     -311    29863    44923    28840 
   -1867   -33235   -73258   -98664   -79665   -34287    -1713     -669 
  -17304   -27745   -34532   -63495  -116264  -149368  -134760   -95884 
  -60768   -38696   -37598   -53893   -54403   -29914   -17763   -15829 
   11190    51602    60059    16883   -40690   -67078   -57923   -32970 
  -21514   -21797     -444    36808    61843    65424    49160    35312 
   42003    50433    35043    -9296   -75008  -135236  -150092  -130973 
 -123364  -127002  -127408  -116625   -76278   -25789   -20126   -59770 
  -76081   -46882    -4149    49805    93049   102398   113564   125937 
  104775    70649    56304    54585    48576    44253    56508    68661 
   43340    -8481   -39363   -42837   -41771   -53615   -81291   -96947 
  -79451   -54514   -52300   -55499   -42740   -26860    -4739    30007 
   44083    18201   -12275   -17950   -24524   -56755   -97428  -123535 
 -131378  -135852  -140878  -123490   -87128   -64698   -56369   -43744 
  -24131    -3419     8004    13696    18335     7486   -23870   -73215 
 -126571  -150566  -148233  -150367  -151658  -139715  -125327  -109125 
  -80043   -37341      485    15775    20286    30957    45495    46615 
   15592   -40117   -92695  -118059  -108997   -85841   -74520   -75055 
  -77009   -80750   -72149   -37190    -4723     2109     7936    25281 
   28759    22730    27823    26713    20537    31159    52370    60904 
   32590   -21407   -63790   -84518  -103229  -137408  -169037  -174561 
 -166241  -157670  -144223  -116728   -76298   -54583   -61368   -56346 
  -36149   -32006   -38823   -32886   -14092    -9509   -17242    -4127 
   18208    24851    26110    24487    11211    -7824   -21839   -28137 
  -27702   -17391    -3125     3447     2466    -8514   -27800   -45140 
  -68114   -98283  -113563  -111019  -106633   -99398   -91762   -93458 
  -92663   -84868   -72748   -40596    10327    54806    75679    69036 
   35825     3866    16357    43903    26911     2010    28730    73302 
   84247    78120    80882    90923   107810   122332   123283   113421 
   94208    67393    39283    10019   -25219   -56927   -77240   -97401 
 -107714   -99117  -105689  -144210  -187007  -205583  -199680  -190000 
 -172587  -130548   -78414   -28104    17893    35868    35351    56402 
   79798    58146    -6734   -72012  -116813  -163298  -195079  -170424 
 -116356   -72561   -39936   -16838     8692    41492    60186    61953 
   57047    47538    46259    50706    36406     2166   -32276   -51361 
  -54655   -57127   -76791  -111830  -132474  -134087  -150546  -181432 
 -191026  -178337  -168847  -166766  -170238  -174012  -159923  -146979 
 -158572  -150875   -99753   -49062   -27499   -19856     9345    61510 
   95618    98892    89643    89916   107446   121574   125945   125823 
  105727    78310    84347   103415    72904    -3936   -69243   -95116 
  -91279   -81740   -89783  -105431  -100872   -72833   -37109   -17294 
  -24865   -47650   -68263   -61977   -15141    47573    94186   121629 
  144576   161386   151961   104978    30644   -42649   -81456   -73245 
  -48650   -48658   -63518   -66061   -78078  -118190  -154463  -170861 
 -190681  -227680  -272180  -300064  -300629  -298005  -297591  -261522 
 -178408   -88359   -35529   -26302   -24698     -984    30569    38397 
   22060    12186    10675    -2026    -8090     3491     7209     2784 
    9636    29318    57411    86594   108643   117964   114878   106069 
   87074    57652    23231   -18505   -48997   -45146   -17048     3149 
   -3268   -23598   -45590   -64150   -65501   -56228   -62417   -83586 
  -91960   -71849   -28156    22707    53022    45492    10341   -31355 
  -66205   -91566  -107638  -118929  -130569  -126140   -90497   -49136 
  -33962   -36329   -32988   -22248      687    33523    24178   -50096 
 -117417  -126610  -123284  -148748  -180330  -194338  -185426  -150260 
 -107877   -86370   -83958   -83008   -83303   -77165   -46578   -25038 
  -55686  -110592  -147936  -171205  -195678  -213243  -216024  -220084 
 -219873  -194321  -160484  -129766   -99021   -94697  -117076  -121953 
  -87022   -25949    38687    96274   142192   179783   234756   311125 
  363456   360053   322406   279484   224162   131138    16858   -48505 
  -44824   -51829  -113927  -174599  -204019  -239554  -280006  -273934 
 -209930  -144408  -114221   -62393    56956   183369   255374   283721 
  297127   305393   294017   214780     8933  -269963  -429033  -437715 
 -532966  -768266  -899151  -865929  -830227  -811811  -749768  -675743 
 -592853  -447456  -293778  -242945  -238436  -148532   -13493    60411 
   66368    35514    24662    58297    53385   -11630   -57138   -58452 
  -52617   -89342  -172265  -241668  -267180  -249448  -185406  -104031 
  -39211    11677    69124   158840   287090   414837   494277   524114 
  540040   541588   494788   410843   315469   200109    79394    -7309 
  -58916  -100960  -147130  -199445  -243965  -252858  -212835  -142280 
  -85942   -74123   -87146   -94780  -101549  -128382  -169423  -189420 
 -183712  -183615  -184406  -155673   -93906    -2887   115246   224663 
  286563   311610   306816   267761   243160   237344   158892    25355 
  -24277    13612    16583   -46797  -106738  -123732  -120103  -111590 
  -97157   -79504   -34411    56911   152479   197727   185127   138184 
   78297    25849   -20415   -83807  -140530  -139408   -90743   -63060 
  -99976  -167336  -211831  -229593  -241968  -253765  -251416  -220372 
 -177360  -162706  -177807  -201336  -220845  -225683  -237138  -245520 
 -203347  -140639   -87952   -24143    15628      590     -708    58067 
  110328   105926    82914    49512   -60523  -260177  -431693  -480281 
 -471817  -486840  -481058  -411427  -327001  -235367   -99432    19952 
   61512    77720   103737   103797    63557     2763   -52286   -75769 
  -69948   -59734   -49622   -21214    39486   124862   194369   213275 
  208212   216066   237116   276560   335588   376737   348068   244874 
  138056    80039    25164   -65629  -149130  -203324  -249368  -268978 
 -245741  -220360  -222265  -219126  -185197  -150256  -129644  -100522 
  -68875   -55601   -34664    37002   146227   213327   190156   139856 
  131872   143524   143987   148556   154695   140690   110799    64868 
   -7458   -86441  -146366  -189950  -222083  -231593  -231060  -245724 
 -253071  -219580  -149068   -60207    31978   119914   187063   213497 
  210313   186696   115401   -11360  -130689  -159749  -122944  -144203 
 -250516  -333585  -313559  -208099   -78875    25278    82679   108606 
  152940   233560   306721   335079   320768   261910   143780   -15332 
 -136343  -138399   -59134   -25084   -54810   -62101   -46096   -53002 
  -68161   -88740  -121722  -140924  -147318  -150212  -124734   -64156 
   24424   129706   180059   135854    88809   105569   123630    78692 
  -11349   -80530   -92429  -102364  -141433  -104122    37267   120045 
  104303   135017   219420   254156   233548   152667   -24170  -215691 
 -272024  -201622  -174174  -212160  -168079   -48899    21316    37531 
   44942    35065    -6863   -50443   -44039     5093    26002   -26556 
 -121210  -190693  -209178  -221194  -267032  -314539  -332421  -330766 
 -289087  -201937  -121791   -42724    64049   139721   151279   135369 
  103019    59973    33933    46171    77082    73813    43212    38081 
   40621   -23146  -174262  -340222  -431791  -443680  -430461  -408092 
 -362834  -316017  -297273  -283657  -232781  -178697  -160853  -111630 
   -9958    63014    87123    90166    95205   123538   141441    93406 
  -41411  -245824  -417224  -436137  -379983  -418261  -484507  -438383 
 -346247  -263761  -143481   -20326    32249      -30   -48793   -12673 
   72547    87210    22112   -59830  -108499   -97256   -51855   -24424 
  -28684   -29606    -3693    40778   107195   167201   169518   142576 
  139760   156554   160109   116880    39869     2483    36928    84246 
   87901    63896    44716    31400    32186    55724    64605    24789 
  -29986   -43938   -21194    -7118    -5964     7310    21927    22416 
   27496    32361    12845    -6209    10818    54373    90983   102791 
  102332   102302    96350    86371    88642   106427   124252   126150 
  113444    93997    59446    18218     4027     9479     9673    18544 
   21745   -17768   -68235   -83905   -78576   -81539   -91582   -99477 
 -128157  -180467  -201042  -178309  -167036  -189006  -223399  -254536 
 -281385  -301358  -300374  -279470  -264541  -256532  -214748  -118644 
     364    90469   133387   179660   266314   335599   330913   274616 
  202802   125344    50577    -9760   -66231  -136091  -192106  -198497 
 -159978   -81524    30338   144771   236063   273535   262426   280949 
  331733   335685   292070   225524   131762    35743   -35919   -66079 
  -53752   -36083   -23823     -153    12978   -13337   -49714   -35708 
   23335    68787    90459   113449   142862   158209   126004    47970 
  -29746   -66992   -64076   -72441  -132866  -201176  -235957  -271062 
 -308676  -319027  -333748  -380048  -423272  -419357  -364617  -306958 
 -265657  -199642  -120657   -79727   -63070   -48364   -56055   -88131 
 -105337   -82835   -48228   -34728   -47476   -76993  -100857  -103733 
  -87902   -64684   -56115   -75572  -111107  -150782  -194576  -231066 
 -256175  -275823  -269981  -232904  -193275  -158341  -111824   -63489 
  -45312   -44321   -22460    -3407   -10949    -2633    38480    83668 
  123917   166209   213025   260900   311078   359246   373696   315188 
  161381   -49908  -199424  -213657  -200980  -296524  -418070  -426436 
 -345975  -234904  -132660   -85957   -64680    -8266    88807   161361 
  154000   129333   138015   154620   191723   241353   259818   240483 
  185115   126424   117045   134126   103039    25726   -15089   -15566 
  -43077   -88715  -107850   -91114   -47929   -14378   -14897   -27766 
  -32665   -23259    -2513     6597      175   -17331   -59366  -101355 
 -109972   -92911   -55374     -332    68417   139105   168550   154033 
  142047   147087   158751   156148   105526    10317   -70056   -89775 
  -82934  -108807  -156685  -180121  -192089  -231526  -277461  -293577 
 -299267  -319306  -322689  -275426  -190517   -95545   -24763      771 
    3852    -5177   -34805   -65848   -90071  -124208  -172967  -231212 
