Origin Time       2011/03/11 14:46:00
Lat.              38.103
Long.             142.860
Depth. (km)       24
Mag.              9.0
Station Code      MYG016
Station Lat.      38.0079
Station Long.     140.6212
Station Height(m) 49
Record Time       2011/03/11 14:46:55
Sampling Freq(Hz) 100Hz
Duration Time(s)  300
Dir.              N-S
Scale Factor      3920(gal)/6182761
Max. Acc. (gal)   405.977
Last Correction   2011/03/11 14:46:40
Memo.             
[...]
  -45331   -15151     3223   -14714   -58164   -80390   -66848   -39989 
   -6616    21465    21340     6476    -3058   -18073   -40320   -52662 
  -50271   -34057    -5710    16643    25159    33220    39006    39921 
   49731    69036    89247   103878   102715    81980    52989    45883 
   75323   108938   124541   127071   107575    77742    62912    42380 
   -4399   -51202   -66010   -47076   -20446    -4788     1896    -4334 
  -24296   -40257   -41002   -40036   -59169   -94048  -120605  -134852 
 -138021  -118138   -89014   -80945   -89965   -97964  -103704  -103405 
  -93492   -88989   -99911  -116243  -123452  -105951   -64408   -31483 
  -30446   -49991   -77661  -110176  -136862  -145941  -135217  -110522 
  -83246   -61789   -50088   -53660   -64463   -63412   -52735   -48075 
  -47023   -45716   -52846   -51840   -20446    11278    10708    -2278 
   -6139   -11632   -22995   -25967   -26479   -34803   -26427     5292 
   24850    27659    43693    69842    72777    47391    28494    32282 
   26561      -99   -14557   -18687   -34196   -41811   -46671   -86654 
 -138962  -154597  -139435  -119713  -101805   -89397   -88257   -88408 
  -74396   -59293   -66008   -76491   -63018   -44287   -38521   -31203 
  -35401   -73956  -110158  -103258   -77129   -63245   -55087   -46454 
  -42274   -39259   -29565   -20086   -33749   -61366   -65223   -51203 
  -34330    14574    79972    90203    42801    -8330   -33617    -6562 
   68004   115946   102370    78536    66893    51199    40656     9682 
  -66148  -112253   -95775   -73238   -41388     6569    31678    45639 
   60195    45263     7563   -18177   -28153   -40047   -54678   -54814 
  -40423   -40386   -66060   -87183   -86588   -78201   -68830   -57955 
  -46152   -36630   -38102   -48878   -57987   -56195   -37853   -18704 
  -25505   -49530   -50810   -12544    27330    13556   -53777  -122923 
 -148497  -113248   -48952   -32406   -97037  -166352  -145573   -69078 
  -32955   -33538   -34077   -47167   -59477   -53052   -58402   -76080 
  -76315   -76392   -86258   -72821   -40791   -19222    -7393   -13691 
  -39013   -36698     -544    12175     6800    24438    25881    -2424 
    1363    20434     7342      617    10518    -3973   -20540    -9569 
   -6498   -24888   -42864   -73181  -105929   -84707   -18671    28482 
   40266    33090    13704   -14785   -41536   -49328   -45982   -56159 
  -61067   -35070   -11568   -17891   -33603   -51732   -81436  -109262 
 -118015  -105731   -64520     8231    74449    92097    66989    35920 
   32793    50222    53392    48968    34377   -21031   -63929   -37297 
   -2294   -13031   -38417   -55925   -75121   -82780   -65296   -44802 
  -37990   -33136    -8563    37504    67385    53400    12970   -22865 
  -32072   -18574   -11015   -25768   -51561   -71389   -88721  -107855 
 -106461   -90581  -103915  -134699  -130340   -81120   -11725    39849 
   35895   -20693   -90194  -140453  -154237  -118986   -69732   -70372 
  -96452   -82182   -45913   -21804     1088    24756    37749    36611 
   28953    30156    47722    70170    71147    39436    -5645   -33125 
  -22056    17604    59512    76874    36743   -34132   -36730    42389 
   92893    57315   -11645   -52878   -54307   -53885   -73149   -82311 
  -88249  -116955  -126029   -87350   -51953   -52106   -54970   -33906 
  -11656   -19313   -34127   -10295    24946    17708     1310    14293 
   13461    -9157    -9833    -2394    -3643     4801     8541    -2801 
  -18831   -44005   -60702   -57871   -73271  -117971  -148472  -129741 
  -80056   -57632   -78004   -90106   -81545   -97229  -122131   -97421 
  -50622   -46399   -64649   -64582   -68125   -93735  -102427   -60781 
   -5400     8091    -6876    -3816    16160    34024    51103    64903 
   75058    75639    29621   -50975   -84887   -65699   -56485   -61096 
  -60644   -56829   -30270    12422    16550   -22985   -62365   -94414 
 -104639   -49437    42786    97449    88267    22312   -65524  -122441 
 -143347  -152511  -150642  -134353   -98740   -50378   -28953   -39128 
  -45125   -42730   -36111   -16311     9187    32152    51797    62141 
   65698    68067    71931    82266    79970    41443   -18014   -70846 
  -83029   -32537    19024     5472   -40343   -84516  -125932  -128541 
  -88015   -48445   -21513   -14896   -41039   -66730   -56161   -30723 
  -40312   -74913   -67511   -13874    33437    58126    54424    13897 
  -32959   -45340   -12734    25533    13253   -27618   -43589   -56301 
  -79301   -66014   -16292    19509    24762    10493   -18070   -48073 
  -58030   -46964   -38911   -52737   -71335   -61937   -39710   -55003 
 -106605  -141228  -139635  -121794   -85262   -31756    -4190   -18820 
  -35132   -32462   -30746   -27551    -9522     -393   -16202   -43693 
  -81614  -112495   -89455   -16264    35793    24589    -9295   -26124 
  -55239  -104564  -112246   -79681   -76780   -83906   -57528   -46791 
  -74002   -90353   -65690   -10811    23463     8256    -3925    14362 
    4073   -52201   -77379   -28819    33974    47421    29760    29344 
   34303    12506     7114    58574    98092    76315    49958    35063 
   -9869   -64983   -94158  -113133  -134893  -139436  -123806  -123022 
 -143998  -145549  -120505  -106824  -109746  -100828   -81541   -66881 
  -30662    44872   110968   125503   115537   114670   115320   103873 
   85607    74613    73696    70655    78249   112439   116760    54974 
   -3300   -25999   -46805   -40241    22035    75302    45853   -42721 
 -115525  -142196  -138811  -136035  -144684  -141812  -127331  -120506 
 -103841   -72550   -68135   -83984   -60244    -8484    21465    43091 
   71590    88965    79945    39322    -3761    -6649    34967    81651 
   76248     6518   -58795   -57673   -39693   -67259   -87288   -61066 
  -56242   -93352  -101675   -66737   -49050   -62566   -70283   -70197 
  -84356  -105101  -111502  -109726  -126267  -158319  -171640  -154779 
 -121859   -92322   -86027   -92561   -82164   -58072   -46967   -55962 
  -70144   -77522   -77768   -72404   -59017   -35601   -16161   -20862 
  -38027   -39886   -32526   -41667   -56445   -41413    -8914    -5951 
  -32858   -62243   -94585  -121079  -112764   -72979   -28690    -3609 
  -24785   -82873  -116430  -105926   -94527   -97051  -108445  -137300 
 -152938  -123797   -79826   -43156    -7268    14279    14832     8592 
  -16638   -76082  -121217   -90948    -4510    71882   107245   110447 
   99588    88092    61688     1945   -37478     9614    93170   120625 
   88571    38641    -4871   -22493   -26313   -53718   -92584   -97178 
  -50000    27013    77858    62127     -657   -54973   -67720   -70542 
  -77895   -35445    35188    40480   -11093   -52342   -63606   -44215 
  -10987    -8250   -56543  -115670  -129549  -104773   -82936   -62503 
  -33629   -16163    -8984     1553     2928      644    17750    36010 
   30309    14974     2130    -8558      479    31080    51425    56301 
   59176    29036   -47161  -103450  -107425  -104912   -96334   -51501 
   -9203     2247    13176    34035    59922    78021    51836     -100 
  -12903     1519   -21576   -81145  -113203   -86549   -32819    21743 
   75623   101322    73780    20825   -32048   -92228  -133636  -115258 
  -67221   -41501   -44977   -75806  -111871  -114233  -106553  -128179 
 -150231  -142608  -113883   -72109   -42434   -53717   -81226   -84036 
  -74438   -88437  -115636  -116184   -79609   -24532    17817    16149 
  -20712   -42648   -33506   -37227   -69040   -89300   -90702   -90474 
  -69548   -31112   -19213   -26420   -15357      445     7993    31359 
   64088    68489    50359    49807    71841    85387    55144   -20389 
  -73665   -57551   -24501   -22139   -42790   -77243   -98434   -87498 
  -79105   -88722   -76048   -20962    37790    65392    64992    26983 
  -43858   -73199   -39634   -14892     5953    40687     2932  -100156 
 -154892  -150040  -131179  -109359   -94081   -83572   -72934   -78339 
 -100976  -115036  -105827   -83524   -59528   -44115   -50606   -64973 
  -59934   -47724   -52767   -63950   -61906   -40426     3638    46826 
   48101    21532     6697   -13914   -36617    -8290    31994    10134 
  -30103   -45090   -69067   -84942   -55572   -23006   -21892   -37874 
  -71408  -111773  -124594  -118119  -112246   -81497   -19730    25088 
   18378   -22561   -51959   -46801   -44791   -77900   -98752   -84803 
  -90108  -114559  -114113   -91190   -56934   -32031   -51089   -82708 
  -64107   -11594    23994    47058    70607    68127    30994      710 
    5248    19512    16203    -7764   -41907   -48932   -11314    31636 
   51673    48436    24242      852    -9225   -28092   -62213   -82823 
  -84268   -99877  -137112  -160620  -137620   -68225     5553    42028 
   53376    65779    59083    14768   -12074    16474    25666   -19216 
  -45158   -47358   -64444   -54913    -5505    24586    22095    21277 
   27760    24796    14705    20695    46142    45901    -7186   -60490 
  -54940    -1891    36438    20945   -18893   -52852   -87297  -102689 
  -87221   -81951   -89897   -69443   -40121   -49380   -81335  -102391 
 -107795   -96265   -80712   -81621   -93662   -99430   -84319   -56360 
  -49869   -67830   -80834   -80918   -71721   -54146   -37639   -22010 
   -4897     -978   -11304   -22886   -37599   -55122   -64095   -62560 
  -52789   -51510   -90591  -139037  -138333  -121615  -131482  -135505 
 -106155   -46943    29884    95285   116042    81642    25985     7561 
   35777    65129    73839    61093    22158    -7518    -1371    -2922 
  -46130  -105993  -138592  -112758   -36341    38787    70854    63701 
   29924    -8286    -1083    50076    88297    94749    56494   -27074 
  -69536   -39315   -31734   -79330  -133108  -178797  -200923  -178413 
 -144706  -142669  -161874  -168124  -158134  -143849  -115312   -71664 
  -39693   -30326   -32475   -35869   -31675   -22633   -14224    -3465 
   -8904   -40908   -55974   -33561   -14186    -8743     6781    14314 
  -12829   -46847   -62860   -82823  -104426   -96794   -74935   -63766 
  -52303   -42632   -51842   -76367  -101582  -106239   -70148    -9456 
   42701    85454   114944    94640    27427   -24015   -33462   -32885 
  -36127   -42372   -53772   -39792    10997    55344    72229    73679 
   63697    41829    -1886   -77448  -152242  -176825  -162420  -157442 
 -161947  -141438  -109427  -127276  -194406  -237151  -244729  -251218 
 -229132  -169760  -126117  -116912  -122254  -130263  -141356  -155589 
 -162786  -173588  -208404  -242133  -242077  -225455  -224697  -230206 
 -199386  -101171    54410   191047   228995   188736   145670   128325 
  111245   100369   149849   228839   260340   253042   200444    90982 
    6687   -41517  -102441  -108098   -43946    11080    84959   173285 
  170489   100272    86786   152176   212448   218176   215587   235339 
  224598   144152    26463   -60375   -63549    -7207    45472    83530 
  109708   107183    84084    38205   -58764  -151142  -135814   -55837 
  -14230     6515    12522   -41900  -107525  -133608  -167084  -208603 
 -197913  -156613  -133729  -108416   -77219   -88929  -152047  -208583 
 -206692  -146704   -54157    25478    30111   -57595  -177859  -240533 
 -213250  -139520   -54709    45938   160168   255016   290354   259669 
  187569   100219    19263   -45543   -92065  -100735   -40309    77732 
  183487   223488   198233   128869    59842    45987    67104    63600 
   69245   129053   196995   245477   277570   252372   161706    77299 
   52883    74793    94436    47235   -85709  -223281  -270229  -217082 
 -108470    15438    94848    71444    -4169   -28354   -15086   -54885 
 -154482  -245234  -303530  -354032  -389379  -399189  -413801  -433642 
 -410462  -316437  -159117    22421   161004   217408   182964    45501 
 -136948  -236475  -216078  -130749   -20800    38603   -28970  -168414 
 -284602  -350222  -344395  -258266  -162314  -150691  -219542  -292373 
 -317976  -256640   -96630    90337   187272   127986   -19306  -122121 
 -118408   -28102    73006   127307   170053   245581   327319   364925 
  312796   169304    47302    15836   -39155  -138637  -155123  -142074 
 -203090  -258835  -281211  -332116  -380414  -379363  -355486  -353001 
 -379531  -398360  -385117  -354136  -309981  -244525  -174100  -137831 
 -162978  -226812  -278779  -299486  -299600  -283619  -235615  -147828 
  -57653   -22025   -64223  -156383  -241983  -287241  -291091  -233606 
 -108439     3005    30284    14837    -2261   -45671  -106626  -120371 
  -43983    79432   161573   187815   182772   128006    33974   -38116 
  -52639    -2888   113204   260542   376965   442007   455091   415294 
  374173   375576   390737   368959   282445   176243   134729   155563 
  171407   146085    98701   101252   174861   232126   230015   206760 
  184293   190836   237941   265024   228066   149750    76098    37972 
    8414   -41605   -83365  -108795  -136227  -165088  -187460  -160402 
  -69348     4566    30461    59726    68585    11763   -46933   -38052 
    7114    17781   -39449  -136908  -220945  -271645  -296087  -301079 
 -302942  -315582  -331424  -334639  -330022  -356668  -435679  -528608 
 -596828  -633958  -614554  -501540  -310455  -106776    59944   193039 
  287113   293517   223593   167908   174488   212414   237321   239560 
  222421   176147   122150   110694   136699   151123   156055   184566 
  210046   191301   163319   166406   181211   207874   266111   348462 
  457893   570381   607478   522502   332382   141419   111157   236619 
  347446   407820   470001   478638   411150   327275   231448   105569 
   -7144   -76166  -152606  -256729  -337685  -396425  -469296  -534095 
 -553100  -519941  -433325  -312264  -199629  -111546   -56177   -77058 
 -196316  -348025  -447919  -497830  -535387  -555741  -552127  -526049 
 -461825  -374320  -307133  -273210  -275953  -331088  -404643  -408696 
 -320051  -196086   -75800     6194    30241    33209     3377  -101437 
 -219014  -254538  -196316   -93512    -9852    20160    32094    66324 
   91969    90561   106905   168258   239892   249237   175121    95599 
   99028   187408   288261   352796   387261   405799   417257   398751 
  307546   200710   189058   217482   169406   126614   198155   298492 
  295516   167599     1377  -122915  -214036  -231762   -91085    95039 
  115138    12923   -24049   -23956   -87289  -147707  -154018  -149342 
 -141194  -116871   -83509   -62930   -97905  -196905  -301395  -351925 
 -344084  -321960  -335998  -394501  -458778  -486895  -465878  -414357 
 -360388  -313797  -272951  -229011  -175378  -134286  -124144  -133121 
 -161586  -227413  -317093  -370920  -341543  -260371  -197005  -171708 
 -169723  -191246  -217591  -189092   -86053    34773   131861   215692 
  265129   205244    34684   -85781   -31146    97253   190137   272257 
  329176   331068   316803   305848   286523   250186   198902   152643 
  147849   209894   290121   323509   319697   294301   228798   123463 
    1745  -109169  -181820  -195270  -146504   -56552    38860   100313 
  105939    71547    28396     3161    13858    58912   131135   213340 
  245168   166703    16763   -78784   -44917    71054   156330   122740 
   -8624  -126865  -159943  -127954   -85209   -72996  -120865  -203001 
 -235424  -191901  -119315   -85502  -130833  -204757  -264652  -327616 
 -365952  -350009  -297427  -214166  -134927  -134452  -209251  -272207 
 -267233  -211856  -156616  -124912  -107198  -101708  -117766  -154122 
 -182324  -160022   -82806     1031    49478    62124    40022    -5529 
  -10830    54070   128204   172533   193726   170509   106462    59300 
   44214    31834    38002    81974   123511   139267   145545   151601 
  161994   165493   146526   126302   142508   192194   236856   268462 
  296988   297762   233665    87206   -86692  -188614  -241480  -319682 
 -365179  -323087  -241938  -165343  -115453   -90162   -65522   -53524 
  -64410   -73612   -76754   -94357  -123748  -141570  -154383  -193417 
 -250226  -281887  -279842  -278583  -304934  -350404  -391158  -413146 
 -426833  -468269  -535611  -542348  -411180  -209287   -94285   -84493 
  -67795   -29190    -8925      -54    -9866    -3534    66481   138907 
  169182   202584   271549   346317   328969   162005   -36026   -96580 
  -41964    16968   118644   273359   351258   344562   331963   277677 
  158615    83267   125462   200875   225570   196201    95941   -44284 
 -124973  -132361  -139002  -175322  -217731  -245940  -255815  -261666 
 -279043  -283969  -262473  -262844  -299558  -319703  -307585  -274780 
 -219443  -173434  -170457  -197665  -218328  -191279  -109890   -21977 
   35953    72273    89258    83105    76660    78897    68876    56814 
   74396   100759   112244   146995   215466   266898   266705   202221 
   87979    -8882   -45622   -28249    62722   215051   337987   396267 
  432542   446429   405306   322467   254497   246216   290052   349577 
  394005   414323   415293   386021   334004   279878   189071    41598 
 -120111  -276097  -395616  -428704  -399256  -329744  -206928   -68033 
   26901    50492    23370   -13272   -14822    47832   120707   138630 
  101356     -348  -161426  -295425  -346825  -371122  -377068  -318904 
 -275919  -319512  -373708  -387562  -391444  -404005  -416366  -398942 
 -334780  -271230  -245760  -215182  -164855  -133096  -113511   -82209 
  -24115    60345   104310    68265    14744    -7740   -25304   -76884 
 -142764  -163670  -149456  -160772  -196252  -220114  -225948  -222919 
 -228188  -242224  -231440  -162775   -39361    83300   161053   211570 
  243654   242977   208196   135710    50140    -2375   -24024   -19339 
   30483    82695    75608    16338   -63536  -141405  -194629  -213411 
 -204839  -183792  -150048   -91889   -19601    54383   128020   174106 
  145021    20056  -134922  -214504  -216979  -199404  -157018   -76856 
   23858   108711   126958    82478     7811   -98028  -210781  -282709 
 -302391  -286739  -253757  -203113  -132194   -72344   -54973   -66661 
  -75689   -49611    31350   132477   204914   250146   279841   275806 
  216527   125755    74786    68925    32570   -27353   -45198   -32206 
  -17521     -287    14689    21376     1315   -47342   -76019   -69182 
  -60513   -41259     5599    35174    17662    -5087    -3125      855 
    -301     4170    -8593   -59687  -122814  -154901  -139679   -97768 
  -63428   -52658   -52833   -40091   -15234    -6864   -29359   -65073 
  -78138   -43614     9745    32013    35602    64713   105112   111197 
   83605    35033   -43013  -108380  -109326   -87829   -87648   -91715 
 -104092  -126457  -129027  -116937  -116701  -128993  -141684  -143789 
 -130155  -104151   -65799   -14355    32811    61141    75533    67022 
   25687   -29754   -85559  -136217  -166807  -178098  -168644  -106893 
    2152    79830    83489    66494    75297   106098   140972   160127 
  176075   188743   152632    92541    78519    99218   123340   147534 
  149861   145497   174846   199596   178226   125119    33679   -67223 
 -102381   -95129  -104552  -111133  -110514  -129979  -167314  -204906 
 -214634  -191081  -162561  -140750  -123817  -112497  -100957   -74200 
  -29349      206    -7184   -24985   -28923   -18529    -4139    -4204 
  -26206   -65190  -107974  -131937  -135961  -140002  -138557  -104175 
