Origin Time       2011/03/11 14:46:00
Lat.              38.103
Long.             142.860
Depth. (km)       24
Mag.              9.0
Station Code      MYG015
Station Lat.      38.1037
Station Long.     140.8708
Station Height(m) 3
Record Time       2011/03/11 14:46:49
Sampling Freq(Hz) 100Hz
Duration Time(s)  300
Dir.              U-D
Scale Factor      3920(gal)/6182761
Max. Acc. (gal)   253.855
Last Correction   2011/03/11 14:46:34
Memo.             
[...]
  -42376   -42714   -45052   -49559   -52159   -52402   -50021   -44337 
  -53760   -79684   -81493   -55014   -38422   -38336   -48385   -61324 
  -53907   -34996   -30793   -34061   -35785   -35338   -26841   -20776 
  -27993   -34700   -30516   -28300   -32299   -27696   -19767   -12537 
   12491    36579    35805    27027     8512    -9968    -1098     6400 
      67     1279    -7108   -24464   -28522   -29621   -27691    -7663 
    7341   -15540   -57451   -68265   -30290    15755    27700    22953 
   20137     8543    -1629     1385    20216    49604    58558    54181 
   70855    92931   107679   122653   121856   103091    88039    85485 
   85221    75461    55552    25952     1601    14348    52468    64821 
   38237      209   -22906   -26559   -31272   -40840   -29581     3060 
   27939    36626    44104    49825    43891    37325    39092    37267 
   28112    20211     8352   -15917   -34972   -31096   -17135   -10483 
  -19797   -40895   -49898   -36266   -17943   -12244    -4830    20243 
   39286    52567    78149    79720    54972    54522    71504    78046 
   77605    71452    62636    52901    34180     8645   -11661   -17725 
  -12247    -5221    -4171    -8938     1495    31799    37582     3998 
  -33684   -55491   -52388   -38668   -44524   -51733   -41059   -30228 
  -23736   -22653   -35263   -49273   -49566   -39950   -24340   -11196 
  -11202    -3250    15184    10975     3509    14347     6860   -12904 
   -7668     8005    21887    48103    74381    71685    42458    16260 
    4322     4226    18316    34156    40348    40145    34794    32871 
   37905    43608    47997    33815    12828    20725    24513    -1947 
  -24380   -38874   -47008   -38656   -37872   -47899   -49945   -47891 
  -31368     4471    37806    70302   100260    98508    72731    64440 
   71198    55552    24090    10403    13511    21099    27598    28884 
   32730    35830    32376    34027    24997   -14112   -45741   -43317 
  -37577   -40286   -30947    -8829    13507    33602    51085    51641 
   30685    16399    26455    41038    42326    43103    45470    26318 
    3166     7687    16721     8784    -9136   -36222   -42714      373 
   34668     5697   -37719   -45982   -36452   -39158   -53974   -46015 
   -9163    19844    42748    71328    78875    67922    63687    54760 
   38860    35209    27619    -4015   -40429   -52685   -33753   -15574 
  -17638    -5493    21205    21763      934   -12799   -15123   -23141 
  -37334   -35462   -25583   -21334   -12151    -5895    -8379    -1740 
   15105    31432    51115    69647    65138    38703     6400   -36147 
  -72981   -67613   -39431   -36318   -51434   -45798    -6763    41053 
   61065    46788    19334     -880    -3576     4917    17850    28838 
   19989    -2352   -14560   -15123     2462    29739    23424     2630 
   24726    65500    72006    46889    19752    12163    29417    42542 
   20082    -5384     5788    18567    -2507   -22966    -7944    11234 
   -5694   -35273   -40229   -28244   -15451    -5510     5291    31494 
   60587    56512    35081    38129    47413    36453    25952    19952 
     696   -26168   -49596   -61215   -41091    12006    55483    58706 
   49490    52473    41987    16627    23395    47529    34339     4212 
  -10055    -7714    16155    25301   -17404   -63672   -56595   -20206 
    9339    51281    97808   100361    67462    28754   -15826   -38214 
  -16903    -5134   -20131    -1770    39869    66845    91766    83966 
   36338    14322    25292    24951     6828    -1284     8783    26948 
   51528    57999    44671    60435    96634   107000    94143    80084 
   77003    70832    42934    13089     -837     1494    35295    96158 
  128641   110729   111329   149239   138603    71502    30431    38699 
   60153    52931    15062   -13973   -39475   -72309   -70618   -36667 
   -3127    19569     7395   -15417    -9044   -10652   -27433   -19849 
    1542    14866    25448    33193    27792    14179     2366     -964 
   22474    47507    31755     2857   -25658   -61315   -64376   -48550 
  -65066   -83841   -55773      -62    14392   -38043   -71261    -5051 
   94958   104346    20774   -29471       24     8088   -33277   -30888 
   35007    72543    31459   -21099   -22095    28111   101103   102426 
    3764   -56329    -9430    59634    74354    30651   -15832   -11827 
   31609    63534    64823    55492    35084    13486    26184    62288 
   73596    35675   -11435   -24250   -26772   -10190    76277   165960 
  134740    39054    13279     7600   -40029   -61311   -54731   -40997 
    8582    35183     9536    13888    51780    81108   109941    99575 
   26385   -29246    -1107    85702   118566    18203  -100141  -106610 
  -45364    12566    13990   -55177   -60546    42664    86706    29300 
  -22561   -48844   -56332   -43334   -55658   -83653   -64329    -9490 
   17860     -534   -15791    15228    53310    55639    53787    64829 
   56780    20823     -797    47221   136826   185777   197893   204790 
  186538   139236    84504    55111    66060    89395    93343    33947 
  -74067  -103564    -7608    92019    90333    36473    25355    49938 
   50461    -9496  -117974  -188991  -161842   -81734   -19430   -13519 
  -47802   -40602    41920   124851   145337   104888    26518   -36261 
  -41592   -23125   -19363   -23332   -26869   -24218   -30520   -62610 
  -78482   -56587   -27327   -12881   -46211  -106316  -101265   -48583 
  -48589   -77315   -47658     3440    18635    68609   170636   223352 
  210262   180289   142860    96316    32468   -27217   -35173   -14833 
  -18656   -46478   -82904  -102759   -81325   -51525   -49740   -34959 
   18272    47998    44154    48832    24510   -29377   -33904    -1088 
   13144    29645    66467    93843   103300   103115    75479    24297 
    3503    28764    55121    56493    35479     -237   -37824   -44625 
   -5577    24241    34157    54023    11650   -93779  -111389   -28733 
   30607    61630   106915   102003    24431   -28484   -14136    45892 
  122663   153863   115285    34823   -26348   -20055     3625    12931 
   29930    28170   -11837   -62885   -69384    -8658    42506    40375 
   40919    55066    30216   -28111   -48610   -19210    11360    43534 
   72703    59707    26873     6430       23    15771     9988   -54094 
 -130285  -181044  -181483  -105667   -15524    -6370   -36079   -14699 
   25160    52014    78066    85322    87517    92132    89448    96657 
   84576    41327    12774   -16933   -50564    -9025    85753   101448 
   31082   -24822   -49318   -59521   -44393   -30417   -29151    -7981 
   22198    19307   -11710   -13770    43600    90983    63559    29161 
   46006    50144    27728    50220    90675    64790    12296    26055 
   81623    99188    76169    55661    54761    55202    29708   -17448 
  -31481    18846    62464    52910    51586    79451    97146   107331 
  125828   130903    96174    48738    48060    82841    92527    77986 
   68785    69227    68183    53777    39489    24197     1803    16225 
   63286    59133    -3669   -47089   -55982   -60763   -48702   -12784 
   14256    21223    27614    36863    52069    62834    17359   -60836 
  -86766   -82562   -85513   -60930   -22009    24705    98748   113594 
   34345    -9460    14105     3941   -31505   -28919   -21269   -24184 
   -8596    19460    56675    70229    21477   -37143   -53049   -35015 
   -5753    -9317   -53115   -67868   -48528   -62125  -106849  -126368 
  -78063   -12752   -32236   -80991   -50644    27293   105521   137361 
   47645   -81249   -93348   -37448   -30507   -35367    -6696    32566 
   98327   152367   109054    37637    29038    48815    83568   120021 
   99417    33957     2308    52093   125835   114588    18926   -60223 
  -60105    10866    90357    92118     8182   -85822  -129121   -96761 
  -36406   -39733   -73416   -42283    12985    36955    86475   153570 
  156198   127491   114138    57796   -13508   -13695    -8002   -31055 
   14150   109242   160300   166171   129024    62004    23840    -7321 
  -57974   -72125   -61749   -67378   -47590    -7630     2880      188 
   -6856   -24637   -20871     8912    44355    73381    62800    14295 
  -14877   -27979   -65416   -67666    -6852    39225    82113   116644 
   67100     5635     8180    13843   -12616   -32010   -24858   -16184 
  -11411   -23883   -79254  -122246   -68500    44269    82631    45263 
   45326    78076    78219    31599   -36745   -55248   -10746    15611 
   -6987   -32742   -30142   -15102   -26746   -45232    -5334    32354 
  -29139  -109335  -111070   -70085   -41966   -40021   -56406   -70254 
  -35560    44123    97742   124152   143115   120076    64439    18070 
  -15371   -41978   -35878    20047    83449    95436    64215    60757 
   87496    77949    35358    -9963   -52547   -71734   -67134   -29429 
   22370    -9583   -83384   -71208   -35939   -59167   -94863  -124526 
 -139530   -99229   -17647    57374    92102    82330    89380   149584 
  191856   168175   118200    69002    32780    39626    78420   109434 
  123737   119917    96517    69756    42365     3723   -38594   -79966 
 -117925  -120736   -81260   -51211   -43132   -11988    13121   -18603 
  -32841      412     3998     2612    21793     -633   -40302   -45284 
  -47011   -47009     2722    66501    64210    30483    40369    55848 
   21100   -31980   -50617    -8369    49289    18476   -89052  -135359 
  -77929   -21867   -21303   -19080    -7883   -24686   -38984   -15645 
   13643     2574   -29770   -41189   -42718   -43550   -32440    -4740 
   29364    22610   -23266   -21763    52186   117975   100056    18528 
  -23760    15732    59675    62416    66972    55499   -15723   -42792 
   35051    86174    51731    15863    32608    79649   107544    82531 
   -4026   -72752   -18697    83982   111351   105704   120315   136337 
  144440   105431    17214   -48164   -68392   -60029   -34321    -8446 
  -13212   -53889   -64204   -37714   -32513   -17465    11555     9649 
   35943    95136    95249    64958    74174    86542    45857    -1733 
   21434    41196   -11627   -34481     -966     6772   -11551   -31562 
  -38730   -32662   -75219  -145613  -145070   -94817   -38774    39622 
   95688    93060    65808    23963   -16009   -22387   -37350   -91416 
 -122478   -98579   -38090    38483    63581    13738   -35583   -58932 
  -83422  -101384  -119541  -118914   -28909    83257    69116   -43412 
 -119339  -100919   -28172    31290    41305    -6971   -69065   -77793 
  -53393   -36231   -10668   -13459   -69991   -78919    -2647    60349 
   74001    96789   147304   186586   201031   190503   138642    66120 
   12634    -6280    25838    84019    78152      311   -57260   -67165 
  -39863    19004    30720   -42585  -102103   -87511   -62452   -48418 
  -14702   -16154   -48919     1441    94205    92976    14434   -51952 
  -63871   -25292     6210     6799    27543    65413    63320    24118 
  -11504    -4001    58083   117722   117955    62709    44418   139281 
  219587   166583    69293    13142    -7136   -13804    -8328    24297 
   67705    86980    63355    33324    35817    22478    -2990    40417 
  109313   102415    23204   -81796  -166849  -195356  -190619  -179403 
 -162864  -166388  -181055  -164604  -133656  -117640  -122539  -157964 
 -182010  -153574  -119154   -90529   -38870    -4776   -11950   -37307 
  -53866   -35580   -46648  -126684  -159175  -115837   -90823   -80600 
  -58954   -45073   -22116    36129   127529   195830   180208   122915 
   83594    54070    33446    55128   115503   152057   175733   254757 
  325324   311271   269098   221265   161373   167364   217481   161255 
   25318   -31233   -10121    20433    55798    69645    61757    86694 
  156532   219272   217391   161229    93023    33416    19890    61532 
  108881   129709   110003    45988   -13450   -32666   -57910   -97722 
  -97245  -104318  -193189  -287727  -307559  -296581  -282543  -230926 
 -136415   -33972    21899    19448     9423    -2180   -26940   -20835 
   15082    20384   -16776   -60102   -81815  -107563  -182239  -256423 
 -252402  -173311   -49919    55440    72829    39775    42866    84992 
  119633   131239   138127   173356   226855   247079   225945   189414 
  157133   150836   192454   257328   290798   274137   179106    43668 
  -13405   -16289   -22145    -8388   -41681  -139524  -190306  -173468 
 -132707   -96806  -122876  -175701  -130879    -7600    71493    69923 
   16202   -41826   -59572   -36608    -2752    13307    13448     5911 
   -5987    11847    68164   118336   130159   109034    98834   130538 
  143908    72250   -34905  -107094  -147743  -144986   -82374   -26430 
  -29187   -59618   -90227  -112818  -109234   -82838   -56034    -4426 
  100164   169631   145282   132653   156913   130437    79173    50682 
   19947   -18265   -70081  -131241  -143963  -103471   -87120  -124659 
 -178843  -205147  -165547   -92067   -52124   -15804    54761   104893 
   91442    11066   -87741  -121830  -115717  -110151   -85915   -77034 
  -71185    -5228   100543   217920   320927   360374   364715   382387 
  357332   238372   103893    45899    56467    79918    70235    22620 
  -35389   -86494  -107890  -106574  -135044  -146138   -45813    96670 
  167418   159409    99422    43674    19710   -48446  -166875  -207852 
 -154056  -138852  -167579  -139452   -77307   -46593   -66321  -110977 
 -112854  -103831  -140621  -156885  -125189   -88817   -76284  -135609 
 -253102  -346668  -387568  -371601  -326312  -304780  -271241  -210698 
 -186447  -169119   -99403      327   105015   191152   229859   224527 
  192905   155041   115698    93154   121903   146065   110376    63149 
   10282   -59773   -78390   -10719    86488   138961   162348   222667 
  274853   255614   203893   150630   105809    98514   123707   153544 
  199461   273441   310608   266342   193225   152101   193290   296786 
  343681   313267   279223   233535   159042   109276    99492    69083 
   12203     1391    32257    57050    80326    70648    30579    40552 
   70630    38834   -11837     7272    78047    89075    40150    38662 
   48915     4620   -21980   -31186   -81244  -113579   -89582   -45090 
    3741    14812   -25905   -27289    45348   124039   158013   116727 
    6122   -90966  -106242   -66669   -28584   -25671   -72902  -128398 
 -145680  -140561  -122226   -78486   -17716    41544    94522   136200 
  133655   100983   104283   138828   145200    75306   -51834  -129823 
 -107682   -25276    64810   100108    77944    52914    21639   -27056 
  -66058   -85565   -66382   -28680   -51900  -117427  -157868  -180908 
 -163652   -75562    -5418   -20473   -43430   -14388    26540    47620 
   33082   -36854  -114770  -127701   -81767   -18350    40163    63852 
   52906    37341    13188   -15146   -25714   -17439    -5511   -51131 
 -164111  -211749  -125587     9788   128707   197053   178384   112403 
   87555   140042   200218   157696    27077   -92834  -176834  -207880 
 -157222   -81193   -29536    21765    80476   105758    67699     3681 
  -48018   -98510  -132869  -139366  -161903  -207332  -215835  -159581 
  -81190   -14240    44944    86170   100765    98266    80040    38991 
   -7065   -18754   -11456    -3975    38633    67999    11126   -59143 
  -65957   -26422    63574   155093   124206    32093    32490    90642 
  137395   161903   150097   177545   281262   352128   327280   223435 
  108939    95840   164841   180040    99474    11553   -14783    -3352 
   28851    46350    -4788   -49870   -30062   -40652   -86288   -43850 
   35064     1178   -78162   -86084   -66223   -50877   -33743   -41996 
  -66941   -88907   -94714   -63986    -7521    69202   137001   134616 
   92803    77959    87972   111132   120687    88601    56547    43898 
   45074    96527   150694   108189   -19805  -132218  -146274   -89984 
  -18705    71345   155363   205038   221827   214591   230266   266743 
  257881   192211   101691    26954   -12223   -56750  -117936  -157490 
 -179572  -189850  -160684   -99033   -44006    -1327    34123    27793 
   -9846   -11468    16908    19834    -3757   -23650   -38341   -68769 
 -113078  -121912   -55310    38671    73497    19159   -76862  -114001 
  -46860    52600   113751   104141    26374   -13468    15345     9043 
  -20202    -2322    39411    57746    47977    48967    52859    32236 
   15296    13090    34904    57716     3400   -74815   -65301   -18079 
  -17760   -26736    -1463    18131    17907    30510    50483    70631 
   87623    55260   -16969   -47254   -27999      499     4153   -74075 
 -178107  -182710  -127667  -104795  -121826  -165199  -179266  -128503 
  -71149   -56553   -72798   -90213  -113385  -171921  -240404  -256169 
 -209683  -130816   -41805    23416    52676    87827   130907   127515 
   63678     4110    17336    44992    12987   -14174   -24872   -72714 
  -94395   -50436    20599   110668   168786   130114    49870    22847 
   41525    51308    44418    25238     4289    11151    49966   108621 
  169054   184227   131868    54176     5017    14895    61117    73532 
   52507    73534   152662   238476   283648   287951   292940   305437 
  301336   263447   165856    45089   -17825   -33796   -48273   -44367 
    1121    57715    46344   -45308   -93315   -30216    50043    75309 
   70695    79538   115786   129518    96415    86260   115926   134698 
  137605   121364    77840    27204   -24863   -58326   -48174   -28169 
  -19338     5275    40627    62055    74699    74929    52441    19299 
  -23835   -62408   -74692   -85556   -89581   -68172   -82653  -166429 
 -237822  -209766  -105937   -14969    14221    -7408   -16738    18527 
   51225    62956    63540    57106    87248   168366   241114   243009 
  163259    54519    -3309    22436    73769    78108    44730    10435 
  -39640  -104996  -132234  -111880   -74829   -42894   -54960  -104496 
 -131185  -123069  -105947   -87222   -75884  -103170  -156694  -189465 
 -199747  -168267   -80308   -21725   -45139   -89833  -108653   -91578 
  -26759    66830   146843   160597    90948    26390    28598    28004 
   -3124    -1254    26358    42075    77011   120604   126595   128349 
  135252   114101   132493   204514   214575   176787   158621   119890 
   70954    52479    59286    96758   136532   132693    87037    37786 
   21310    32159    63898   101217   103876    85132    72133    62430 
   53366    36579    11202   -13991   -21386    -7276    -5434   -14982 
    7538    38097    15826   -19852   -17517   -33501   -62408   -28444 
  -13123   -95057  -143637   -80645   -27469   -73438  -135213  -117070 
  -63745   -36112   -14869    11167    30558    40555    43910    70271 
  147880   232437   249463   201475   137681    81586    62805   106748 
  186024   243214   248049   230504   216501   192545   161531   123888 
   66081    -9631   -84032  -115510   -99195   -79214   -77693   -99931 
 -122635  -100247   -46982   -20513   -34453   -33205    21780    75374 
   77088    61409    59303    37009   -34165   -95005   -87019   -71526 
  -92704  -100867   -96132   -96293   -61350    -3868     5032   -33884 
  -64457   -92056  -132015  -132141   -80181   -34501   -22730   -43223 
  -74958   -44194    62003   129440   105514    45828   -28910   -79551 
  -29910    87990   179313   202250   164578   117356   103661   103035 
