Origin Time       2011/03/11 14:46:00
Lat.              38.103
Long.             142.860
Depth. (km)       24
Mag.              9.0
Station Code      MYG001
Station Lat.      38.9017
Station Long.     141.5709
Station Height(m) 36
Record Time       2011/03/11 14:46:42
Sampling Freq(Hz) 100Hz
Duration Time(s)  300
Dir.              E-W
Scale Factor      3920(gal)/6182761
Max. Acc. (gal)   426.335
Last Correction   2011/03/11 14:46:27
Memo.             
[...]
   -6292    -2452    14430    21425     6240   -11094   -14565    -3918 
   14830    36485    47415    34802    18391    16969    15229    11230 
   16306    13266    -8153   -28739   -40730   -46092   -39286   -24471 
   -3978    27456    55072    61567    53084    39878    26698    17872 
   13138     8278     1205    -4238    -7086   -13050   -19952   -20503 
  -18117   -22738   -30119   -20010    12754    42510    43990    28816 
   25867    34918    36629    28195    14267    -3552   -10597    -2526 
   -3829   -16422   -14184     2790    10463    -1959   -16107   -12957 
   -8169    -9020     4893    17225     2644    -6887    10350    27051 
   35371    43018    40206    26609     7833    -9178    -9286    -3178 
   -6718    -4724     1717   -10173   -29747   -31830   -24330   -18555 
   -3748    14851    20810    23442    30019    27420    17998    12276 
    5304     2642    15791    28043    20394     3415   -10085   -24275 
  -36433   -34746   -27015   -25216   -14746    11125    26727    23530 
   23059    25072    22534    31688    41350    29786    22226    30062 
   26684    15786    14214     7378   -16221   -39088   -47967   -52790 
  -55966   -49604   -36989   -16021    23093    67090    85450    77361 
   71061    67828    53692    42789    37711    16759   -14399   -32602 
  -37444   -42896   -53078   -60414   -57002   -39506    -9365    19216 
   28345    25616    26778    25449    21568    26203    25879     7714 
   -7802    -2894     9676     9038    -5033   -19468   -33033   -41014 
  -29404    -7031    10179    27212    43458    37827     3701   -30385 
  -40534   -37231   -28655     -590    41587    69331    72402    54950 
   28569     9571    -4336   -14944   -10811     5329    18941    16450 
   -6981   -32352   -34875   -13673    13887    34529    46270    41251 
   12893    -9970      195    18339    17209     3202   -14212   -20249 
   -6025     7717    14417    31575    45036    28465    -1801   -22453 
  -42300   -58579   -50158   -31541   -21800      447    35621    44636 
   20317    -3311    -9412   -14249   -20988    -8351     7107   -13370 
  -36655   -15092    16667    19465    10230     9780    13987    18298 
   37774    62594    54492    34513    44105    45904    15082    -3079 
  -12298   -53067   -93147   -82594   -42084    -7337    30046    58374 
   41897    15161    31281    56773    41999    11828     5777    10592 
    2550   -10340   -19850   -32846   -31401    -2696    16129    22005 
   48951    70339    68382    75639    66751     6242   -68747  -118609 
 -119255   -67405   -17778   -13817   -30593   -23811    16787    67800 
  108949   127387   106024    59761    27013     7461   -12182   -19130 
  -20731   -38862   -58056   -57949   -48153   -44457   -51224   -43290 
    4236    46925    48280    55666    77525    67039    43041    36864 
   27162    16718    19500     4543   -32009   -50059   -48007   -43342 
  -26983      994    27080    41219    32757    16074    22656    47699 
   64538    61291    31718    -7969   -24633   -18005   -10502   -10873 
  -10074   -11155   -29687   -37489    -8029    14150     9049     8565 
    7312     6228    24125    26891    -3127   -27423   -33646   -33640 
  -13516    28213    46594    22040     3451    15992    19697    11699 
   29755    51355    33375     -492    -1017    18479     7694   -23802 
  -43338   -58762   -58108   -12981    49688    90814   117650   128550 
   94593    26618   -25932   -43324   -54945   -71713   -71388   -56233 
  -21933    25128    23770    -8334     3543     9943   -28283   -22620 
   31968    45980    35026    55656    66510    30111      920     9200 
    8017   -19149   -32978   -17878    -5551   -19397   -28937   -18287 
  -24335   -30003    15698    75933    87147    66789    62426    53440 
    9325   -19593    -9959   -21031   -57999   -65001   -46543   -45529 
  -51226   -32511     2614    42477    85423   107339    89579    56774 
   38755    29122    18916    13353      671   -20182   -26613   -27543 
  -44882   -63763   -65833   -51285   -22873     4726    25891    56438 
   89214   112425   129298   126240   101423    65580    11159   -43533 
  -70218   -93078  -110667   -70521    -5935    15936    24447    28283 
  -16546   -58428   -27998    27053    59765    78727    76301    64857 
   59970    33785    -5738    -9750    14402    19358     9692    12900 
   -3331   -75252  -147205  -153924  -120769   -71837     5759    88342 
  136040   126585    80499    59250    84958   117562   105583    56464 
   21649    -5103   -44496   -76021   -96186   -98524   -57205    12715 
   46318    12168   -27173   -21771    -2860    28890    90599   124976 
  101635    56742    -3535   -63970   -88956   -90478   -78641   -55562 
  -52070   -57723   -29915    15926    37330    31798    37991    73654 
   84911    50620    23076     1125   -40112   -66441   -64527   -53598 
  -26841     8207    31118    41691    37540    34302    40437    25068 
    2261    11440    31877    46902    69412    69484    12352   -55277 
  -61906   -16514    27043    47500    38038   -14444   -81991   -96573 
  -55335   -31436   -23506    42646   129010   153259   148183   125115 
   56788     6389     5935     5681      550     3709   -15059   -58820 
  -81893   -58210    -7992    18680     8716      484     2386      -27 
  -11015   -30547   -16981    61951   127982    91312    -4719   -67213 
  -76353   -43606    10916    42264    54719    73304    66723    18560 
  -47958  -104961  -122648   -91381   -28210    45853   121745   157571 
   97156    -8979   -61988   -51187    -9324    34571    35654    -7582 
  -32017    -6811    43749    99770   139708   133009    94923    57343 
     -55   -81049  -135976  -133099   -81180   -22925    21205    70543 
   82598    22903   -23695      233    49643    86466   118221   131928 
   73633   -17187   -41861   -34576   -46133   -38505    -4284    28102 
   38876    28069     8623   -24866   -65418   -78992   -69658   -72419 
  -59027     4195    61172    72370    73100    99132   145098   163833 
  112637    -4330  -119001  -142674  -108846  -128295  -152292   -68973 
   34329    33201   -17333   -32934    -9786    39086    93236   130623 
  145747   131342    81761     9778   -57790  -102915  -110262   -58155 
   17837    35806     2701     1120     7120   -49903   -88306   -44251 
    -711    25444    59030    53053    36860    82332   133475   127061 
  101782    63787   -22030   -98959   -86941   -40368   -53007   -70178 
  -28716   -23329   -82963   -97002   -50802   -11225    14614    47297 
   78992    84710    63711    52703    71250    83892    74038    64599 
   30907   -40365   -92201  -110907  -128725  -127717   -73275    -1808 
   32726    65068   124141   141732    99227    74996    65684     3637 
  -64789   -77718   -87066  -116268  -107852   -67575   -53157   -38294 
   10050    33697    21967    49041   128417   190572   177080    98925 
   21443   -29200   -93199  -135966   -81709    -5550     7813    12032 
   22263    -6355   -43877   -44302   -23364    -5519     8369    31580 
   44418    -4444   -61085   -30218    36713    67083   102714   159638 
  162541    86088   -16046  -105929  -145294  -114350   -69181   -68242 
  -98241   -95308   -62476   -48187    -8247    68568   114186   133657 
  148164   127167    70962    39014    37191    -2577   -63443   -79958 
  -67766   -59291   -57491   -62826   -72381   -69796   -32914    10125 
    7012      746    42658    56922    10597      -90    48836    90089 
   92898    49293   -19928   -41362    12986    73042    59858   -13800 
  -60366   -71388  -114480  -144530   -87683    -2479    37700    48483 
   69997    80338    52207    26833    29626    35569    25452     7231 
   -3720    -8000     1024    22850    25341     6596     4693    30583 
   56899    60558    45642     8829   -46089   -56762   -11040     5985 
  -25561   -54960   -70843   -75138   -60194   -19383    45533    77392 
   39571    17386    52147    61177    37725    31223    15287   -10857 
    6946    50599    39600   -21950   -53023   -36341   -10209     3106 
  -10402   -56733   -84328   -29161    34883    22466    32460   108354 
  126584    71488    19453   -44790   -99300   -55779    12938   -10125 
  -45222   -15719     7426    -2777     7815    50406    99387   131230 
  140102   155802   163619   105203     1345   -91880  -149973  -146063 
 -102220   -88841  -107521  -103384   -58860     2563    52529    85611 
  116276   146566   147580    95950    36693    19835    24616    32800 
   41741    28634    -5653   -45866   -86841  -115862  -127493  -124698 
 -109815   -95163   -92355   -80925   -20479    59087    87748    94808 
  132286   155652   144064   160560   189590   139912    39272   -27969 
  -79310  -130238  -128056   -97237  -121917  -159430  -123792   -64845 
  -47677   -27359    38408   123812   195491   219029   189048   157908 
  155197   161755   132945    41077   -59297  -101631   -95944   -81521 
  -66571   -47256   -42658   -65463   -76120   -31400    22686    30971 
   36229    60852    53988    20277    13458    21819     -425   -46855 
  -75250   -51616    18162    85979   105975    69656    25473    35944 
   75397    83114    82890    95738    71888    -3224   -76383  -106738 
  -98642   -55480    18006    80519   120658   156719   153566    89950 
    3529   -51449   -45123   -41464   -62137   -25099    22437   -19405 
  -99447  -145469  -159118  -146108  -103402   -39595    48374   143459 
  162945    74805   -19822   -26232    31676    83169   108640   131444 
  155155   165633   142298    44493   -91485  -135383   -60546    13691 
     554   -45951   -19940    51397    48491   -29318   -97687  -141463 
 -182638  -209535  -208258  -192762  -170662  -125739   -74228   -47775 
    4954   135929   274599   354033   397420   391339   295515   167642 
   74053    -8028   -99509  -197319  -301422  -379939  -394893  -353601 
 -309891  -294214  -275025  -236173  -170661   -49098    98494   214770 
  316090   421618   475908   447633   390125   343326   291630   229208 
  174729   130941    79541    10608   -56246  -103456  -154637  -224823 
 -279912  -289975  -268555  -249246  -238671  -213822  -176149  -144226 
 -100019   -16240    90706   176233   218691   235033   237850   209621 
  139421    44639   -46315  -102409  -101350   -61729   -38133   -58704 
  -98885  -120160  -123373  -136358  -133287   -81704   -23794    17080 
   63664    91676    63398    25143    65783   165933   226369   258847 
  315460   349733   339744   290229   166872    24225   -33551    -8238 
   33916    41491    -7865   -90050  -161659  -231747  -318344  -357133 
 -298607  -196391  -110685   -56546    -7275    68782   125142   128749 
  143276   189220   195390   139150   100287   112033    81175   -43953 
 -178415  -251392  -288335  -296571  -249471  -177968  -124416   -76581 
  -10180    58823    88268    75582    59338    81260   156887   220003 
  212126   174996   109012    -1964   -63090   -50026   -57090   -89680 
 -106638  -140722  -191771  -198844  -156287   -75928    44282   152622 
  212950   231138   198786   157505   167147   197019   199578   168490 
   89930   -27710  -140672  -229720  -297989  -343661  -352183  -302847 
 -223658  -176307  -159435  -129988   -67553    38520   175002   292235 
  331430   277374   199888   157147   127806   106785   127030   182640 
  221873   203269   131056    47809   -13042   -65871  -116568  -126474 
  -85923   -46263   -56264   -90261   -90980   -65408   -42617   -22687 
   10649    79859   145970   144381    93410    54821    47186    22432 
  -33849   -66025   -76636   -93158   -97500   -80467   -39371      798 
   -8091   -48881   -62956   -35149     7361    39460    53275    56543 
   57821    49913    26191     3095    14020    46833    41472   -19764 
  -96804  -135538  -127398  -123533  -156488  -196760  -198911  -175961 
 -152538   -81614    53339   172911   238323   290506   319757   300041 
  291237   322434   355818   379412   376299   330753   259474   164644 
   51168   -49727  -123257  -160307  -163967  -193135  -266300  -336902 
 -406833  -471505  -485257  -455673  -407930  -336335  -241638  -122687 
   27827   196686   348364   448422   508834   558390   583048   576268 
  537910   439703   301340   169808    26788  -169463  -394089  -557894 
 -612184  -595106  -557864  -493777  -366173  -222689  -153229  -137397 
 -105893   -41446    53610   158502   233382   262723   258150   228491 
  175777   114762    75618    77911    91957    75100    38166    -7274 
  -72782  -139714  -189487  -211594  -181437  -110234   -43765   -18661 
  -63621  -166082  -240991  -236716  -186691   -86992    63181   183024 
  249429   285980   270524   215177   174766   189196   258004   327455 
  351512   337208   328177   346794   334535   235019    94650    -1099 
  -43542   -91627  -133202  -125843  -150091  -242114  -288202  -270924 
 -259582  -218604  -128427   -50796    -4165    11042    -6621   -22216 
  -18372     1518    55618   142612   207787   225612   230790   210437 
  113191   -25067   -89600   -45030    -3869   -36330   -84423  -128971 
 -187737  -240268  -274811  -308355  -353732  -363257  -306692  -207341 
  -41322   148399   252309   297582   338246   346551   346012   370110 
  381743   382095   394578   382242   309238   166267    -6694  -117525 
 -167561  -227541  -265511  -224568  -125961   -19510    23997   -19943 
  -93101  -183056  -308191  -411397  -438406  -411415  -358885  -288759 
 -224327  -174496  -112074   -22597    78861   185996   310695   443093 
  553791   633110   675149   658465   560780   386017   188134    28727 
  -65763  -120334  -212502  -347613  -458161  -540245  -564344  -489395 
 -385891  -298230  -221515  -187728  -200621  -232967  -237732  -156658 
  -25718    63181    98870    86350   -10088  -142916  -212702  -221600 
 -220032  -212778  -184636  -111131    11680   121531   174781   210361 
  252056   280555   300427   333860   401365   490988   538612   501541 
  390986   247818   111882   -18445  -137672  -208401  -225196  -212956 
 -203134  -220005  -250888  -274210  -284598  -260447  -156748    40221 
  250716   377383   440121   497042   517543   475954   417486   356563 
  290670   278962   319931   306091   225648   144901    30877  -151303 
 -332789  -452180  -527075  -549361  -471408  -367287  -335103  -328720 
 -285637  -211405  -155728  -151107  -146568  -100341    -6756   146127 
  291151   329841   263397   136699    -2777   -74573   -26732    80835 
  124910    92382    41828   -61526  -188609  -209215  -127762     -591 
  161091   276921   288009   236207   148555    25501  -103690  -205129 
 -269933  -303954  -320036  -330478  -324499  -311649  -332535  -356809 
 -308935  -198535   -95143   -19882    59781   167416   285991   388424 
  464120   497703   488896   465798   435908   364621   215369    41481 
  -49794   -72312  -122793  -215112  -315528  -400789  -435844  -416276 
 -361041  -273209  -173978   -97719   -55734   -11504    86255   206418 
  286270   349169   419988   455155   429458   332316   172202    56919 
   55779    69390    15595   -65345  -148988  -252376  -359546  -448182 
 -509233  -508021  -391821  -145120   134312   275342   267027   246085 
  223701   183498   203846   262460   302358   329723   296000   172038 
   21240   -88634  -142721  -176861  -215843  -242991  -234957  -190354 
 -147177  -133455  -118773   -97485  -113215  -153050  -159687  -109467 
   -7914   101488   159275   181550   208803   201185   154868   142276 
  157415   151220   133813   121490    93606    46761    16707   -11296 
  -77142  -143441  -182841  -229031  -270195  -253491  -183017  -112316 
  -57338    18796   116303   173702   168230   131476    94516    90311 
  107758    93365    51849    29363    34272    27997   -33193  -117237 
 -130321   -76412   -68599  -146599  -250095  -313325  -298193  -232125 
 -175631  -145169  -118127   -68787     -853    73951   152493   206453 
  226482   238251   236476   211535   166512    89143    19319    -5593 
  -50446  -116609  -135195  -132509  -123559   -97780   -94839  -109353 
 -121432  -126939   -96300   -21631    80547   154508   144668   101959 
   68819     4163   -55193   -25965    63467   140895   183150   197086 
  200384   199954   185890   149927    76512   -33526  -113228  -120594 
 -103942  -102202  -120026  -143242  -149006  -157210  -182829  -205646 
 -204070  -136084     -356   108235   124853    96772    84108    83277 
   68620    39552     5051   -53742  -135373  -134333    27033   201928 
  223531   176290   141107    28761  -121408  -170449  -124762   -41598 
   59539   150964   185673   127989     -888  -136803  -231645  -303907 
 -362630  -332223  -182185    12472   151283   205471   249626   279305 
  210590    98234    45185    56880    96463   139580   178236   177189 
  128018    91955    75152    49366    34559    33561    38127    37781 
  -16542  -132384  -252362  -335488  -374937  -382304  -367780  -323465 
 -237362  -107673    45677   187686   302135   382127   411132   397668 
  354102   259771   129451    40290    39400    78168    77206    15289 
  -85468  -185904  -262346  -325745  -351214  -306359  -226817  -155581 
  -83451     6073    68225    74531    93011   148806   180919   188766 
  223337   283474   330593   326210   245177   114446     5318   -53124 
 -108755  -184526  -239818  -273564  -304167  -313049  -313426  -322261 
 -305423  -230210  -104137    18845   109510   201562   286049   324273 
  340673   360260   369801   364496   338915   287556   223921   145776 
   33305   -95376  -199023  -275129  -337143  -367554  -351758  -316652 
 -299340  -305334  -315550  -310050  -274077  -201035   -95878    23033 
  127114   200957   255090   292258   299876   276497   231625   211036 
  252734   294262   269761   199080   115621    32237   -53960  -145421 
 -231874  -299821  -318711  -275882  -195960  -112188   -79397   -97150 
  -73819     6791    80264   143067   205066   246980   275559   286177 
  239946   139701    57994    49000    64156    20498   -81316  -176285 
 -216847  -199635  -142697   -56457    29869    79390   115893   164232 
  183995   147191    81455    23799   -16708   -51436   -83171   -96335 
  -87121   -91004  -132971  -193628  -248607  -276676  -256151  -186582 
  -94684    -1118    99700   196042   251318   249240   212729   193615 
  212849   213957   155918    92012    57572    28071    10154     7384 
   -7188   -27508   -28174   -16362   -28250   -67064   -83591   -58411 
  -20787    29153    99206   134970   100878    53609    28987   -16328 
 -105695  -208747  -278220  -263017  -152696   -18194    42523    14108 
  -25955   -35221   -27727    11686    68780    67776    -6074   -80502 
 -113911  -152776  -227244  -270751  -214556   -79106    55508   138392 
  199269   252988   254502   214794   161857    80346     9988   -11579 
  -34073   -95354  -173275  -231337  -222595  -128347   -43314   -72356 
 -157340  -174946  -116834   -45572    17855    62882    72556    82979 
  111842   122671   135208   179598   222540   259089   302430   301314 
  226955   154701   143663   130715    53968   -45285  -125493  -177691 
 -186943  -168130  -156769  -167616  -161588   -87504    13648    52786 
   13548   -31011   -24480     8293    60603   147638   224227   244239 
  193892    79073   -42108  -124202  -182448  -197046  -162713  -169117 
 -217846  -215248  -163315  -100817   -32296    35219   103847   170959 
