Origin Time       2011/03/11 14:46:00
Lat.              38.103
Long.             142.860
Depth. (km)       24
Mag.              9.0
Station Code      MYG007
Station Lat.      38.5877
Station Long.     141.2510
Station Height(m) 4
Record Time       2011/03/11 14:46:47
Sampling Freq(Hz) 100Hz
Duration Time(s)  300
Dir.              U-D
Scale Factor      3920(gal)/6182761
Max. Acc. (gal)   242.736
Last Correction   2011/03/11 14:46:32
Memo.             
[...]
   59268    58108    41196    34910    37473    30129     9902   -11292 
  -20114    -6701    19171    34072    37835    47068    59060    51251 
   13107   -33454   -61096   -66189   -56154   -33689    -5643    10174 
   10940    11356    10655     9598    21678    34730    34274    40323 
   53497    42832    14696     2289     4286      326    -2709    13364 
   37286    46774    43546    40162    39771    45403    69064    98344 
   85976    25448   -25008   -25962    -2780      689   -22741   -51863 
  -66136   -55691   -35246   -24914   -12560    21320    58456    69348 
   56516    25161   -20111   -31929     9171    34101     4687   -26428 
  -20726    11812    57338    89626    83755    58453    37122    12811 
   -2911    19836    65642    83305    44734   -25448   -62429   -35739 
    5227    13519    13438    32796    47102    34948    15473    11463 
   27155    51104    59167    47201    39025    34505     9501   -25829 
  -35309   -14836     8368    18821    20464    19295    20462    19838 
    1956   -20449   -13244    17416    45899    66134    68015    44517 
   11573    -1151    18010    33177    20434    14165    29774    38127 
   37948    43760    40331    38005    64555    77460    31235   -25318 
  -31959    -8666    -5384   -24952   -33079   -12070    18236    29858 
   18888   -16118   -77446  -122606   -99911   -26940    35532    52182 
   36591    24631    21674    10724    -7070   -14755    -3268    10272 
   20621    52560    92774    98272    73556    58532    60991    52084 
   32108    26706    17396   -12354   -19883     9987    37836    49230 
   50497    40577    30908    32536    36663    32751    24476    17043 
    9081     1960    -8077   -16700     3002    48947    74269    52630 
   19607    24567    51206    45637    -1343   -53206   -65330   -30557 
   10020    21428     7001     8352    44913    56293    10344   -32667 
  -30772    -8295    -3267   -14284   -10531     7791    25264    49450 
   76981    80201    44107   -10036   -30861     9838    61523    58280 
   24232    21632    39368    36479    18253    -5512   -43543   -76639 
  -67243   -14255    49050    80646    63731    42604    49834    56290 
   42156     8551   -31835   -44471   -25252     1738    32767    59194 
   64140    60506    67114    72182    54540    12357   -38299   -63585 
  -37832    14527    50082    46150    10869    -7695    11793    28490 
   25119    16841    -1529   -14772     8422    38910    27696   -10473 
  -33178   -33241   -17059    20123    61466    66488    31942    10860 
   34640    65518    67320    56921    48661    22930   -13744   -28755 
  -24191    -8422    14418    14092    -3888     3208    22955    16888 
   -2424   -13147   -34409   -74586   -95712   -72422   -23446    18711 
   24613    -3836   -19968     2179    28409    25531     6182     1397 
   29360    75012   100541    95167    81988    72842    56951    42100 
   50884    53413     7206   -48353   -63066   -32075    51700   133704 
  107901    -1893   -64538   -51088   -29133    -3879    39186    40973 
  -13229   -36241    10160    51519    28279   -12879    -4800    41154 
   84429   114706   116291    72227    11816   -16230    -6465     5114 
   12456    30867    18544   -38897   -47229    27135    80547    59100 
   20459     6061      898    -3566    10523    32498    24002    -9244 
  -29063   -16163    27855    71620    79002    65625    50774    12246 
  -35854   -40467    -3677    27336    28189     3975    -8087    35649 
   93695    79039     7364   -36339   -25828    20512    86675   130853 
  115149    73352    45775    18914    -5613   -15690   -38682   -76605 
  -88633   -63896   -14354    40575    54743    19125   -23392   -61233 
  -86243   -69969   -36466   -12651     7196   -10282   -75325  -119240 
  -86187    19483   139408   188767   148058    86011    54291    30649 
   -2125    -7835    24188    48375    29721   -16203   -37423    -9327 
   46489    96627    81406   -18652  -101184   -86349   -29314     9242 
   39051    56831    18889   -71559  -112353   -35866    53439    44793 
   -7410   -27799   -15423    41083   128508   156300    87496     6095 
  -23149   -30557   -46256   -38195    10582    36910     -595   -30954 
    7594    55154    50317    33375    24879   -17056   -61231   -36528 
   30643    77999   103301   122645   126335    90823    29250     -738 
   20497    54669    68854    66589    70414    85809    91316    64599 
   10350   -42461   -74398   -93000   -95940   -57329     -416    14652 
    3443    13293    24047    10242    -1956    10799    26840    11132 
  -30745   -51713   -24998    27646    75002    79940    23421   -22488 
   17882    81553    71218    17106     -362    21962    36328    19026 
    2623    11416    -5209   -61761   -72348   -21171    -6180   -29132 
    3805    57948    43838    16243    39521    65551    65398    42226 
  -29522  -125073  -169672  -134250   -48076    29200    52108    37413 
   26849    20172     7198    19730    59209    64479    33889    15270 
   -1936    -8414    46410   108709    67296   -62479  -151061  -114345 
   -1137    76212    75710    41990    13829    -3377     1139    29562 
   46834    17934   -40882   -70690   -43873    -7452    -3653    -1401 
   29451    61691    70915    77348    97437    92453    35017   -25537 
  -43560   -29402      775    50330   107810   128612   105726    91472 
   88868    43103   -29010   -40527    10446    33814    21163    40794 
   77215    70107    18937   -52986   -99359   -60689    11276     5194 
  -49433   -57947   -28991     9738    66415   106689    95597    62774 
   41670    42585    88087   152711   134312    16814   -71051   -57819 
  -18563   -13506   -10307    14937    44424    60314    51194    43028 
   57946    35961   -36166   -50093    23168    70616    39203   -10166 
  -35404   -22379    51102   127534    85268   -48330  -101602   -39069 
   36324    66602    32463   -22282     6266   117410   193678   154678 
   39643   -39267   -46284   -55602   -83084   -75587   -48683   -40323 
  -59080   -97128   -72674    40826   103964    59435     7533   -11485 
  -25641   -27542    -4084    21959    25922    13663      599     8745 
   54684    86901    46749   -21622   -49796   -38933   -13844    27134 
   86260   122935   101989    53789     4357   -45794   -51205   -18584 
  -43112   -80699   -16220    65333    59933    12502   -46843   -98960 
  -93762   -23990    69135    95666    21645   -43488   -31606     7686 
   56216    96664    53573   -50866  -107827   -91512   -18649    80921 
  129213   102116    58952    41788    40059    48276    74421    99358 
  100349    58648   -18049   -60424   -37947    -9680   -16285   -36607 
  -47116   -50030   -42124    -5237    26570   -17021   -86364   -68693 
    2553    51601    97290   123902    79614     2948   -29388    -2568 
   39635    30961   -28537   -19617    92745   126345   -18857  -166928 
 -167015   -93755   -45863   -13390    43696   107732   107284    57972 
   43763    26354   -22505     1390    81612    78754    -6476   -65197 
  -53316   -13094    18754    73651   151955   155222    47951   -45482 
  -32698    15448    42136    75560    73605    -5326   -70634   -61882 
  -41376   -33152    -8908   -14193   -56547   -52417   -22102   -14877 
   16687    73855   109062    95418    19222   -83244  -131168   -56620 
  109345   224727   198081    72790   -64723  -123602   -58974    33488 
   46709    15386     2264    -1489   -18808   -49731   -63513   -38772 
  -22107   -48668   -76743   -82926  -100540  -122679   -97977   -18408 
   71892   107622    77270    48011    55174    72047    61559    40988 
   92283   188809   192277    95060     -890   -47562   -34985    25040 
   72120    37331   -53171   -80862   -21279    32695    44285    43324 
   24243   -30565   -50911    20998    70807    30693    40548   120107 
   92265   -26898   -49663     5825     7422   -11211    15114    56374 
  113504   162828   122497    61416    85108   101694    36889   -24939 
  -39812   -35498    -5278    30376     4853   -51302   -36339    28766 
   34320    -7005    14761    80764    39142  -126575  -214203  -118300 
   11361    74820   118516   117729    42600   -31989   -30948    40059 
   85456    77727   104070   141878   116643    71663    41871    22890 
   32357    38643     2996   -54281  -109105  -115074   -37604    46207 
   70905    75574    65971    20375    -5303    32494    70723    25018 
  -80985  -128982   -61083    26689     4146   -99280  -127949   -32895 
   67637    64235   -26026   -96148   -87528   -48829    -8563    30974 
   34559    31269    72899   115862   129404   137724   100043   -12184 
 -105775  -103980   -39857    33123    81405    61371   -33175  -100645 
  -53131    16751    -5492   -68869   -79386     1422   132719   185656 
  107436   -13344   -65313    12545   158425   212706   119550     8896 
   20376   118283   163561   123612    77354    53551    15508   -44298 
 -108158  -142122  -117500   -78091   -45867    15475    77733    83593 
   20996   -71755  -118911   -95372   -23214    64895    54278   -84117 
 -147256   -62051    -5404   -12526    44295   147447   148853    37466 
  -29561   -12555   -18383   -33128    28479   109654   102813    49525 
   53280    83189    67845    32375    16675    14713    17048    12448 
  -25517   -79743  -101247   -92495   -67613   -17458    27526    24778 
    4705    49050   183867   287837   223357    57536   -67475  -123525 
 -121343   -63262    22142    66304    21639   -46112   -54516   -43977 
  -64716   -51877    31965    92917    73627    71546   156759   208583 
  134904    41761    17355    40189    92546   125328    69604    -3996 
   17052    85683   110779    78441     2879   -62026   -43313    12313 
  -12199   -72229   -57538   -21351   -19183    13395    70366    63097 
    4418   -14956    21080    52072    31371    -3747    23933    73502 
   34778   -68616  -127737  -108473   -29388    87189   168767   162228 
  137968   128101    55522   -25553    16455    94537    41444   -93367 
 -143982   -70890    55219   186936   240430   115607   -66222   -87514 
   22782    76612    13069   -63165   -72916   -57553   -26814    50189 
  103217    50178   -87433  -187459  -122390    31964    99691    86041 
   84813   101102    66193   -48311  -126584   -68971    40540    98973 
   88152    25756    -6201    32007    41584    -5522   -18983   -18932 
  -70329  -103865   -70828   -27331    17224    85681   142983   140765 
   86723    52248    82033   143954   192592   209863   192320    81276 
 -127157  -225229  -133655   -53920   -55656   -70062  -103629  -113203 
  -42074    58585   142291   168712    72726   -71745   -72473    73321 
  162800   123448    25003   -86402  -133007   -61501    59991   118151 
   54215   -62798  -101757   -44821     8620    -8874   -52909   -70962 
 -120624  -201059  -200979  -133303   -69332   -25816   -29710   -35107 
   28874   121198   188152   222638   196296   111022    60304    97095 
  149239   134150    58413    12604    45420    67159    -2960   -96453 
 -121342  -116727  -145677  -140768   -53630    26925    69168   112161 
  136091   141662   123215    52177     -464    31561    87134    56910 
  -52277   -97188   -62145   -74852  -108840   -69817   -26992   -65642 
 -130159  -111653    -6166    85253   106721    71545    38118    56340 
   62124    31304    82775   186974   150375    18585    14975   119566 
  144936    76408    12834   -29181   -23353    27640   -21431  -154898 
 -180232   -78701    70256   171325    97049   -80662  -169604  -145779 
  -66496    30412    83706   104883   145731   149050    54877   -77914 
 -122121   -30127    49143      974   -38164    62221   166282   113155 
   33251    44743    12214   -78731   -75076     4193    10265   -27550 
   72759   267721   293931    97510   -99758  -128907   -41751    26306 
   16888   -33338   -56855   -67558  -106463   -97156    29996   182460 
  215140   125561    11060   -78999  -104020   -41243    61155   135922 
  138230    63771   -25078    -1322   116788   129087    19613   -64513 
  -90676   -43813    89539   189382   157276    39187   -72509   -81349 
   18050    80050    28607   -52985   -94598  -102926  -104356   -83454 
  -22762    26395    42427    58534    63498    47290    23539   -23006 
  -56844     1552   114298   177340   169365   106736    -7319  -135545 
 -179607   -97969   -32467   -79841  -117512   -83491   -60728   -55588 
  -46866   -75661  -114104  -119371  -109568   -65194     1386    66839 
  151098   178693   132584   114455    99450    35328   -33819   -57390 
  -33086   -23723   -23476     9588    24380    55108   129354    89506 
  -56018   -86470    34543   155871   151465    64452    60705   106230 
   46599   -26391    33068   155384   231681   228719   130233   -49018 
 -219322  -279798  -254064  -222639  -178470   -94169     5054    63138 
   47833    -6125   -53623   -38393    91600   237763   259048   160083 
   12762   -67196   -14927    65288   115184   127814    41739   -62993 
  -87276   -92134   -60104    28200    12632  -102493  -125247   -69900 
  -42919   -23704    13368    40087    32405    28839    97253   212787 
  248690   128670   -21304   -23383    42009   -11317  -124971  -141125 
  -54206    36814    41786   -39783  -128857  -135122   -56899      924 
   37092   118037   181769   198539   169091    11109  -161868  -124340 
   20120    18751  -131950  -271824  -320714  -299010  -233760  -134004 
    5467   158638   213494   133920    98246   203186   285326   246501 
  143058    27769   -37176   -41568    16760   189474   374653   398886 
  296617   223467   205511   146493    48625     4788   -19464  -123880 
 -274812  -342323  -272436  -147718   -35369    31560     4563   -25601 
   41040   115544   130411   150264   196668   178912    52170  -106435 
 -206003  -188685   -60404   106624   269250   387386   398219   309122 
  196875   137607    94067   -18653  -100717   -84623   -84920   -98340 
 -105562  -152899  -158419   -89937    -8335    66787   101443    76143 
     592   -87436  -129378  -136819  -124841   -67830     1349     9457 
  -62095  -124114  -100186   -58175   -52814   -60258   -83309  -112667 
 -119108   -75592    10789    51557    38567    70764   134939   151153 
  127968   108331   122163   163064   142507    40687   -14812    18369 
   44532    11886   -51192  -114026  -156592  -128807   -17006    98180 
  150591   140041    79187    26749    63968   132236   128280   102173 
  109770   111572    77511     4957   -77933  -151180  -235259  -286069 
 -238642  -154947  -134162  -133683   -46063    72673    95142    40920 
   22746    90989   116634    14426   -41548    14609    34698     9120 
   25779    67040   114012   205594   268871   174535   -11922  -123647 
 -104511   -23104    -5785   -74715  -135554  -154826  -178132  -212197 
 -175135   -27306   114608   143421   153176   264452   354266   279698 
  134743    18900   -43100   -22968    11073      119    -4444    25790 
   73758   106591    87907    26957   -54790  -130739  -141871   -97794 
  -52442     9532    59835    46109    32161    48416    49700    82483 
  183671   260277   238578   136511    38940    37939    88005   103252 
  109886   105191    36432   -24491    30608   128322   154681   160836 
  191146   160619    46656   -31458   -37256   -71375  -126413  -130542 
 -129807  -161797  -156061   -55232    48575     3276  -125755  -111575 
   27013    52001   -31704   -18208    67308    47965   -39821   -39595 
   13771     5853   -19205    12018    73476   103162    53762   -54005 
 -155310  -208208  -181680   -89024    -6439    21501    26101    38747 
   38496    43475   124107   225201   221356   145941    78187     5289 
  -23535    17887    15689   -11974    36324    80539    36004   -18526 
   13086    92094   130856   116287    46899   -49265   -99049  -103399 
 -108635   -97162   -26904    34364   -20660  -100041   -22032   143216 
  170538    86064    82500   100751   -12170  -125471   -70006    59412 
   89103    -6782   -89270   -63456   -16914    17316    74208    59696 
    1792    68800   176000   168992   107150    58439    33940    53902 
  116860   172753   131328    42311    45025    72286    36556    57047 
  163223   194225    96691   -38573  -130419  -141484  -114198  -105841 
  -98188   -71182   -28557    34077   100783   127943    97189    57509 
   57091    64677    48299    56526   123957   173299   129986    74921 
  105086   166425   187238   177410   182607   212244   184651    94775 
   54443    75039   129422   205444   206905   112871    17067   -31320 
  -40968   -66983  -126333  -162096  -184058  -223121  -233912  -192359 
 -148777  -158542  -198261  -211916  -206960  -201244  -192661  -187360 
 -175841  -159888  -140961   -68214    61465   149557   142986   119562 
  163704   215664   168199    63358    14098    31249    65704    90902 
   71035     2213   -29136    28299    97360    68372   -23077   -34015 
   16919    38124    55122    37922   -54989  -136131  -165546  -149535 
  -57264    25529    -7735   -84991  -119751  -102899   -32909    50020 
  105562   134806   153502   169752   139580    79743    88690   131134 
  115261    51008   -41599  -118047   -95736     4642    72977    58601 
   -9772   -72693   -62476     9151    25679   -38013   -34428    84771 
  174320   171671   152542   159199   158643    82271     2520   113008 
  288454   224577    28756   -37005   -20220   -33849   -47962   -36868 
  -24879   -17750   -11651   -21204   -60837  -126192  -157312   -95228 
   11316    69415    38306    -8648    25954    57892    -2152   -59819 
  -66363   -41003    59927   175885   172165    86688    31365    17072 
   19514    33607    55687    96605   126069    73579    -9224   -10162 
   51441   124686   195896   170483    44014    21701   140488   204486 
  162357   119767   121521   115687    51028   -20961   -25389   -29229 
 -116632  -207362  -211308  -140755   -52698   -29146   -64905   -67071 
  -15297    57029   112010   106721    46327   -26833   -65312   -46242 
   15764    85220    80560    10329    24235   120990   153895    89062 
  -29678  -128209   -94638    24353    26164   -96101  -165657  -137772 
  -44118   111843   230009   189636    47827   -21461    53128   152757 
  147344    87391    70250    60557    -7112   -79261   -63564    13474 
   51538     2131   -97193  -142025   -82685    -5302    29678    49318 
   14804   -77235  -103837   -28308    83969   158910   158395   131275 
   84318    30814    79341   191565   218975   153215    74083    41647 
   57518    78144    62846   -27483  -142088  -163179  -110160   -67609 
  -18406    55620    85780    42603    10315    23106    20861    14785 
   34894    29768    18011    78234   132847    81580    37148    75711 
   84206    60589    65820    12125   -86496   -62383    63194    90861 
  -23258  -131372  -148187  -103668   -18510    72546    83779     3570 
  -43939    11073    56598    25654    18646    78428   125647    89509 
   12131    15451    24138  -102250  -193680  -118632   -23591    31614 
   77611    77648    46280    31000     1848   -42383   -43840   -36980 
  -48472   -22859     7581     9225    31673    59857    61891    79303 
  128532   158256   127207    47440   -41015   -78865   -34434    30272 
   62896    96907   138175   131039    47527   -66866  -127398   -97940 
  -27233     7650   -41624  -162500  -286419  -349171  -332452  -231083 
