Origin Time       2011/03/11 14:46:00
Lat.              38.103
Long.             142.860
Depth. (km)       24
Mag.              9.0
Station Code      MYG014
Station Lat.      38.3173
Station Long.     140.6362
Station Height(m) 259
Record Time       2011/03/11 14:46:55
Sampling Freq(Hz) 100Hz
Duration Time(s)  300
Dir.              N-S
Scale Factor      3920(gal)/6182761
Max. Acc. (gal)   495.501
Last Correction   2011/03/11 14:46:40
Memo.             
[...]
  -86776   -94604   -96430   -61548    -6861    16413     2841    -2097 
   24950    62581    86296    99152   113113   126883   138406   147106 
  142879   110526    43692   -33520   -80753   -95125  -109907  -139287 
 -160008  -145584  -101963   -58862   -31039    -6025    25706    54687 
   78589   102420   109550    80012    28835    -4580     -567    15515 
    4584   -29666   -48880   -35603    -3349    33324    71135    97434 
   91146    65378    57915    79921   115626   136328   113726    57543 
   10935    -2922    -2820   -17548   -47077   -70289   -75545   -63235 
  -43496   -31527   -25576   -16212    -6330     3249    21670    53104 
   78273    75637    60575    55644    55938    46830    19766   -15813 
  -35591   -29001   -16283   -25831   -51784   -66272   -63842   -50741 
  -23247    12336    37457    53418    78578   111971   130311   120399 
  101965   103003   110968    87730    32327   -15063   -24583    -2013 
   26991    38613    25271    -1853   -20460   -17318   -15057   -45935 
  -96165  -122233  -109826   -85414   -74745   -72812   -65426   -50364 
  -30205   -10007     3313     9928    15739    17430     5827   -12243 
  -20676   -17606    -9063     1561     7877    12265    26481    49278 
   76668   105707   117102   100331    74051    58979    53167    41816 
   25444    16329    16009    21244    34228    58738    86817    90662 
   54143     2186   -29562   -37417   -39181   -40183   -41301   -53870 
  -76110   -81292   -48259     3299    29462    18726    -2198    -8600 
    7137    35311    59916    73342    70660    57428    52246    60260 
   68569    64962    49899    34554    25811    19166     9822     1961 
    -713    -4129   -10380    -8504     4286     9604     2861     7131 
   27297    45871    56422    60756    62472    61476    52317    40862 
   33307    18713    -7999   -28103   -31873   -42085   -65524   -66456 
  -26578    20298    32942     9722   -13601    -5643    25895    48442 
   41705    19197    14522    37814    69915    93119    98210    87024 
   73313    64127    57460    53905    52476    44786    26941    15139 
   28439    55645    65414    45670    16182     3022     9576    17692 
    8476   -20890   -49305   -50458   -37940   -51119   -75976   -63431 
  -25042    -7194   -14630   -29397   -34014   -13751    13477    14056 
   -2527     -915     9448    -5739   -29618   -23460      552    14730 
   32507    68060    99475   112235   121393   132133   129193   107055 
   75654    42270     5182   -34879   -68914   -88604   -87905   -67666 
  -48230   -48467   -55513   -42010    -2329    37793    47706    28824 
   11148    15883    38346    55649    44211    11849    -2765    19929 
   60694    88910    88775    71425    68340    95485   124638   122270 
   98537    77410    57092    31632     7458   -19294   -54270   -81366 
  -95263  -110696  -124745  -128016  -122831  -117667  -123688  -123262 
  -94055   -70630   -81236   -89414   -69256   -39190   -10892    10599 
   14801    21261    51433    82116    98032   116431   133039   118043 
   70387    32027    33060    51266    42896     -602   -39948   -41419 
  -21398   -14347   -21935   -24661   -19441   -11269      927    14157 
   29459    48397    52689    29775      549    -9098    -6025   -15098 
  -35530   -50165   -58237   -60906   -48128   -22855    -9987   -21686 
  -32054    -8274    40636    73403    78831    81569    91455   103473 
  118336   133523   137591   114531    67990    30767    23309    29679 
   20083    -9646   -26012    -9966    12338    19522    22109    24236 
   13719    -4677   -11271    -6739    -9837   -16743    -1730    31513 
   49150    46529    50284    64218    67879    57182    50937    60457 
   70893    67856    61551    63196    69166    80395    98997   103435 
   75483    40819    27305    16004   -13834   -40255   -45864   -48593 
  -57697   -67801   -83257   -93889   -71503   -24353    -3522   -22115 
  -32241   -17368    -7419     3736    33282    50842    35268    18430 
   31805    58231    65444    55386    51436    63083    75725    72035 
   57525    45713    34582    21689    13340     2699   -20725   -37967 
  -21324    15340    30341    18961    11588    12219     -155   -21576 
  -26715   -13234    -4802   -17185   -39194   -44298   -25039     2506 
   29709    55742    78033    99661   119761   128367   113994    67361 
    1890   -49725   -78653   -97587  -109662  -114660  -116579  -113785 
  -97926   -65672   -30550   -11755    -6234     5046    22892    28117 
   16287    13466    30186    35001     9345   -22593   -31890   -20376 
   -7611    -5658   -25445   -56929   -56752   -15732    17933    18501 
   15054    25581    36655    41727    37721    28113    29102    36364 
   37296    46292    73198    97409   102045    94589    88423    80417 
   59751    30349     5601    -3841    -3792   -14106   -31571   -35232 
  -33158   -40251   -38713   -23103   -18227   -26149   -25657   -11733 
    8866    40666    81446   106587   102618    81296    58161    37456 
   16025     4708    13403    19993     6634    -4050    10202    28144 
   10426   -35364   -57245   -46585   -48445   -79606  -109597  -109361 
  -93207   -96670  -104738   -78676   -40968   -34420   -45072   -33349 
    4348    46098    83553   113055   126668   129479   131628   132211 
  126507   119111   109951    78961    25825    -9207    -5664     1502 
  -27250   -74659   -93807   -83504   -69970   -54561   -35867   -22526 
  -12178     5847    40675    90143   127842   128002   105202    93316 
   95896    91386    79077    75478    68473    41960    20981    26550 
   39098    40410    37956    38768    33001    16766     1163   -14304 
  -31459   -36051   -35526   -63387  -111241  -126670  -108407  -104339 
 -109692   -86490   -55344   -50405   -37688    18946    83838   113610 
  120781   128121   131473   125167   103139    64414    24782    -8654 
  -31590   -31977   -16796   -11468   -21014   -13318    26147    58522 
   58287    44505    26500     2562   -11454   -15829   -36952   -67485 
  -65897   -35662   -23068   -32136   -26267     -621    19537    30436 
   48336    71732    79244    65778    53064    53330    55962    58684 
   68966    73108    47036     4479    -9120     9753    14650    -7778 
  -20727   -12202   -15029   -35188   -33256   -10347   -16895   -47845 
  -46788    -9013    22449    32879    44720    68827    88686    97432 
  105288   113214   118693   119231   103595    69474    35991    26028 
   29854    12901   -20650   -36448   -31768   -25621   -22526   -12225 
    7159    21119    24462    22265    15452    11629    19665    33732 
   34748    10740   -25943   -62318   -90873   -89936   -56063   -21039 
   -7137    -8017    -1566    30969    76401   101078    97591    88179 
   77459    42736    -8101   -36233   -48277   -82966  -128504  -144133 
 -125238   -84320   -33318     7060    28568    39877    60483   105910 
  145696   126258    48862   -20647   -26847    14021    49776    57400 
   41640    10689   -26037   -57910   -73111   -65366   -48804   -49913 
  -71345   -81287   -60604   -30691    -4811    34549    81414   109135 
  126822   149753   157884   133089    87073    45288    25542    28463 
   40182    37268    10912   -11102    -7357    -3456   -29390   -73784 
  -95923   -75289   -47213   -55081   -86758  -103892   -99170   -87026 
  -68972   -39993    -3402    40795    87580   110579   101629    88100 
   85358    89584    97130   102562   102936    92046    65418    44394 
   52757    76429    82219    56236     7596   -40315   -63966   -63546 
  -58180   -51458   -31710   -12953   -20667   -41945   -51271   -49019 
  -45730   -50643   -66616   -79915   -75479   -54199   -24289     8452 
   44643    84502   117002   137016   151858   160948   156005   132587 
   97537    67043    54780    62064    62146    28760   -14578   -37874 
  -49103   -55922   -52213   -39858   -38286   -66036  -102987  -117650 
 -105732   -74329   -50830   -58861   -68580   -48640   -10598    34185 
   88229   142852   176628   178371   170682   181622   198900   188853 
  135234    57643      661   -15696   -15568   -31052   -63391   -87751 
  -86898   -67931   -51756   -40490   -24901   -23805   -51151   -73717 
  -59227   -31079   -27391   -40243   -48497   -55220   -55199   -40311 
  -29828   -36704   -45798   -37524    -9498    13511    10474    -7736 
  -15978     3621    40611    70796    92459   114149   137875   149849 
  135938   121114   123650   114132    76648    33484     -765   -32781 
  -64278   -94885  -124506  -128166   -95570   -72745   -83081   -77861 
  -26279    38420    88218   128359   160436   173864   168378   162563 
  168129   171683   156761   121934    81477    55579    44857    33746 
   18682     5916     1016     3710     2719    -7766   -22053   -29305 
  -14362    16626    30540    15970     -809    -2724    -1250    -2341 
    5867    20231    15651   -10399   -29133   -24942   -13404   -16241 
  -33312   -51775   -63077   -57611   -40673   -38731   -60183   -73600 
  -50531   -10409    20276    47834    76952    93787    88697    76707 
   86051   113578   123413    90994    18070   -68000  -125794  -136463 
 -110416   -69450   -44602   -58330   -94819  -117393  -109700   -79480 
  -49505   -41223   -55119   -80606   -90689   -53172     4864    19296 
   -1457     6199    37190    36547    14314    20308    48332    61256 
   57962    47126    30714    29649    50145    65922    64891    60376 
   56048    49215    57638    86403    97518    61744    10752     -612 
   30560    48618     3487   -80281  -125652  -116092  -101556   -97981 
  -85713   -62601   -37407    -6564    40957    99239   145314   167317 
  172937   172548   163481   132930    83699    47801    46397    51186 
   33552    19218    34961    60437    68822    49556      721   -62491 
 -115576  -147389  -160734  -161403  -162884  -171926  -167469  -134574 
  -91061   -62820   -48724   -25124     1814    17311    45535    94271 
  142683   188121   230746   270243   314472   352962   365881   349942 
  306142   233116   142746    57862    -7409   -56514   -97240  -127594 
 -143780  -142884  -123193   -99390   -91773   -96770   -94060   -83326 
  -87375  -110423  -127913  -123916   -93614   -30479    40751    77502 
   87513   118417   176913   203891   153833    69090    34109    57813 
   62554    19635   -15173   -10684    11594    21111     3084   -28208 
  -54469   -76113   -93521  -107762  -124195  -131525  -111955   -64333 
   -8333    30351    51456    63575    54605    18984   -27081   -61944 
  -86438  -125215  -166411  -171122  -150794  -139284  -123245   -74548 
  -11975    36175    80931   118638   122928   120794   160496   221761 
  251148   243777   223837   199634   173986   154284   161994   220669 
  297877   303752   183583    -5780  -138590  -154976  -137701  -188776 
 -279439  -322330  -284597  -196632  -118394   -74495   -58111   -74225 
 -118008  -158807  -162306  -135504  -133121  -167527  -167562   -65533 
  114442   267958   325170   319560   311017   297547   227454    87950 
  -48427  -114165  -117681   -78128    -8207    47753    65418    61123 
   37612    -2059   -31165   -48554   -84174  -149225  -226989  -279136 
 -257280  -152812   -33172     3235   -53274   -85737    -7267   119317 
  185882   159839    83410    37288    64122   128599   206244   304906 
  402531   459760   440148   348462   266047   247884   237869   149678 
  -17562  -166831  -235889  -292573  -403827  -526382  -599745  -599005 
 -507943  -348521  -175282   -22759    95337   179710   247495   290427 
  271373   207277   170739   180946   180281   135394    97808   133246 
  232567   323857   360351   365709   376414   385498   348200   234491 
  105481    42333     7964   -41129   -51851   -23829   -19852   -42087 
  -66144   -82270   -98007  -143353  -193143  -182530  -139805  -141510 
 -176843  -181621  -124048   -34064    -1579   -75028  -182330  -233525 
 -230019  -224848  -229107  -200076  -117042   -28356    -2085   -36718 
  -58523   -23777    25522    23586   -28395   -64917   -49733   -13289 
   24587    98358   211075   300520   322546   291032   274543   343316 
  465922   526287   435136   211874    13633   -17061    50174    43943 
  -96147  -300239  -437337  -443979  -395519  -383789  -405860  -403651 
 -332186  -179466     7433   153369   239457   275082   267268   268098 
  328069   428018   504513   485355   351763   175767    30203   -52738 
  -30116    76783   137439    83317   -17464   -87597  -114172  -126303 
 -176341  -285680  -385438  -400207  -340855  -270642  -248517  -255229 
 -207856   -94376    20954    78902    55458   -10502   -44085    -8476 
   66472   121594   136781   141981   177747   259553   347396   383470 
  372316   354195   336335   315976   302637   293962   255104   138394 
  -30208  -166312  -262641  -360966  -438005  -467015  -488255  -534820 
 -589146  -614509  -579500  -479825  -327424  -154357   -31542    19776 
   56709   115585   211867   344601   448325   465046   415363   350043 
  288388   210470    98742   -17604   -88212  -117772  -153507  -209792 
 -261334  -278800  -256473  -197013   -88566    52818   171114   247923 
  322260   407811   482824   553073   635955   716025   737449   646296 
  464881   287344   204555   223443   255666   214255   104740     4265 
  -48942   -68011   -60660   -54671   -77547  -131274  -218066  -314337 
 -387123  -427590  -425949  -396437  -398166  -456130  -518759  -537488 
 -515067  -455788  -368301  -300429  -261488  -182427   -51516    46428 
   93186   156549   261422   402458   569507   711870   792146   794157 
  709241   597879   517403   450877   369926   238891    56495  -104620 
 -197406  -246402  -308907  -386368  -400972  -364824  -385665  -472812 
 -563609  -629700  -631222  -543715  -427342  -343897  -294245  -253973 
 -205094  -149305   -83087      793    93905   195263   302989   405403 
  486494   522360   514955   471443   386922   334869   403489   529258 
  584798   535171   403047   255681   218597   289212   299545   183843 
   23978  -100233  -147968  -144121  -174108  -290116  -463194  -625549 
 -705929  -638476  -440404  -273471  -263659  -298393  -203458    17345 
  260828   447508   549320   576966   523461   419087   347240   283265 
  146520   -15419  -106113  -114463  -101042  -114941  -141400  -139299 
 -103458   -99734  -177958  -268518  -293121  -266375  -227272  -197559 
 -183621  -160456   -82000    64763   211691   266617   217210   138704 
  121175   168493   189561   128915    17386   -71007   -65975     7210 
   52464    13863   -91433  -157328  -107229   -25915   -10657   -34307 
  -26656    27489    80007    99590   101459    80794    12637   -90088 
 -164716  -156188   -90174   -36365   -13753    11326    55534    77785 
   49564    23185    51758   111724   139942   113774    77244    67020 
   63558    47950    47891    87271   124946   101546    33027   -19509 
  -53202  -105505  -176972  -237982  -270745  -279623  -279623  -278584 
 -248697  -150911   -18016    76483   126688   173634   241032   331952 
  420740   471187   475593   456281   442200   437423   426807   391158 
  313366   226627   205110   249490   253799   146274   -15750  -132473 
 -158470  -133084  -138471  -201698  -287575  -346666  -356414  -358089 
 -379433  -371299  -304624  -229697  -203602  -220273  -234033  -227764 
 -210711  -178949  -128097   -75370   -44676   -32934   -13584    23486 
   74320   132403   176794   195941   206596   231301   276758   313441 
  286620   186961    82574    60132   133463   209222   194000   100286 
  -12822  -113490  -181621  -194569  -156556  -130067  -162077  -194350 
 -161919   -95140   -51383   -44572   -53972   -60653   -61714   -58546 
  -53164   -65778  -145490  -293355  -390880  -331808  -185478   -99119 
 -116597  -162046  -130883    -8360   126871   212809   239866   233944 
  218635   189557   162563   177900   230958   273871   279981   237299 
  129919    -4905   -75561   -50770    -4038     1364   -12888   -12021 
   -1049    14591    38092    55543    61789    75493   112296   170629 
  209030   170270    75364    19992    58394   139040   167385   119234 
   45955   -12968   -46731   -49298   -38341   -48533   -90986  -124576 
  -85544    16941    97071   105114    77917    72629    86272    76880 
   39407     6249    -1968     4129     2549   -11269   -22583   -12271 
   15210    23118    -3872   -38725   -64436   -85534   -98192   -98361 
  -85102   -49959     -914    39478    63630    80283   106571   142451 
  160656   146444   119254   112500   136227   157427   136420    76965 
   25392    22660    65059   111991   122188    95535    70234    74143 
  106185   131685   112463    65816    26447      489     1634    34882 
   61509    42751   -26290  -119660  -196899  -231503  -217599  -184315 
 -183368  -218745  -247551  -238099  -189055  -132144   -98074   -73163 
  -35332     5395    44229    95270   156964   221412   276769   291677 
  260690   232929   259669   336084   398705   379477   262421    97219 
  -31447   -79880   -88319  -121664  -203370  -303025  -367006  -382142 
 -376988  -364876  -336140  -269546  -144297    12321   128841   179289 
  209179   256671   303137   287114   180377    65719    34262    54680 
   51598     7249   -52669   -89468   -75209   -25317    13232    12670 
  -24045   -80757  -131682  -153238  -146925  -123755   -77012   -24391 
  -27916   -94041  -145296  -146857  -136379  -133922  -130415  -122954 
 -101028   -37292    53243   107188   109357    93747    82840    93428 
  125159   159560   186858   197688   184787   144542    77983    23800 
   28874    68230    73504    25898   -38572   -73771   -60854   -32637 
  -26145   -35499   -50369   -73797   -95872  -100640   -81014   -39866 
    4054    28872    35998    43080    60887    85107    94272    77888 
   58119    46964    34602    34067    71726   142487   204761   216878 
  174424   104613    55259    69389   117252   126857    86323    31479 
  -10243   -25888   -13156    17977    36600    18508   -15677   -33534 
  -33757   -36659   -51168   -64194   -71378   -77293   -63324    -8264 
   84037   180674   228911   211330   169121   159390   199878   237131 
  207064   106990   -17206   -99835  -107620   -79985   -70055   -89923 
 -122851  -141095  -125157   -80870   -35914   -19541   -38215   -74793 
 -106124  -123815  -142627  -167508  -177297  -161557  -130838   -97841 
  -74222   -56933   -29662     3291    31629    66100   104468   123650 
  103459    38527   -21643    -4761    73355   127707   115419    63833 
   26119    28134    65867   136521   221614   280064   278952   207589 
  108801    70736   115480   158684   122937    18653   -91747  -157989 
 -171566  -156199  -137415  -115066   -84364   -58935   -44977   -42103 
  -44898   -37347   -29942   -36954   -37805   -23397    -9996    -2745 
   11653    43256    74921    83464    75162    68076    63683    58034 
   55996    64815    92509   138002   176312   184885   173320   167470 
  175308   176577   161183   149397   149674   143619   111678    47901 
  -35494  -109667  -144914  -143865  -138752  -147011  -163289  -180801 
 -192682  -187064  -157850  -104289   -31323    25323    33501    19692 
   22108    41238    53904    37210     2527   -17871   -18494   -14925 
  -26761   -60563   -86405   -76712   -51048   -40987   -47493   -53143 
  -56945   -70827   -83101   -80571   -82110   -90545   -73452   -28453 
