Origin Time       2011/03/11 14:46:00
Lat.              38.103
Long.             142.860
Depth. (km)       24
Mag.              9.0
Station Code      MYG017
Station Lat.      37.9760
Station Long.     140.7822
Station Height(m) 12
Record Time       2011/03/11 14:46:52
Sampling Freq(Hz) 100Hz
Duration Time(s)  300
Dir.              E-W
Scale Factor      3920(gal)/6182761
Max. Acc. (gal)   349.266
Last Correction   2011/03/11 14:46:37
Memo.             
[...]
    1339     -852      847     4444     7731    10052    12304    15096 
   18042    21461    26781    35453    47260    58672    66081    70566 
   73394    70753    57657    32424     1282   -22986   -36171   -45731 
  -55537   -63933   -72083   -80045   -84215   -84764   -83566   -78265 
  -68525   -58301   -49268   -40488   -31632   -23918   -17947   -13065 
  -12002   -18493   -30668   -43676   -52967   -54678   -49701   -42564 
  -34602   -24349   -10252     8027    26534    40142    48441    53940 
   58166    62352    67325    71481    72857    71330    67428    60906 
   50150    33623    12226   -10069   -28058   -39684   -48764   -59560 
  -69629   -74159   -74126   -74433   -78847   -88168   -99149  -105494 
 -102843   -93636   -81799   -64373   -37502    -5357    24829    50630 
   72016    87474    97777   106136   111714   110341    99863    81767 
   61845    46002    33825    21806     9437     -635    -5710    -5448 
    -818     6335    14105    23768    37246    52118    62984    65238 
   56343    35599     7101   -19003   -37381   -51895   -63960   -73000 
  -82849   -94102  -101848  -102951   -98630   -93097   -90834   -93548 
  -98975  -104697  -111305  -118647  -124451  -126698  -124319  -119017 
 -115130  -114475  -114527  -112475  -106776   -95273   -77256   -58198 
  -46058   -41401   -38412   -34704   -33556   -38904   -51487   -68484 
  -85408   -99322  -111906  -126368  -140814  -149820  -151796  -148491 
 -139557  -125936  -113530  -107126  -105822  -105200  -102844   -99336 
  -94435   -90124   -90201   -93517   -96393   -93460   -78306   -54428 
  -33844   -23458   -19950   -14769    -5167     7092    23162    40290 
   54399    68310    83521    97820   110046   119018   125918   133282 
  138717   138343   132164   121461   107971    95335    86716    83001 
   82820    83644    85298    89105    93042    94371    93890    92594 
   89555    83172    71846    55785    38270    24320    17494    17383 
   19781    20270    18116    14885    11612     7317    -1956   -18867 
  -40628   -61692   -76987   -84190   -84091   -76265   -60145   -38926 
  -15919     5173    18271    20881    14740     2648   -11697   -26959 
  -42713   -55363   -63021   -68687   -75207   -81202   -82692   -77625 
  -68307   -60746   -60533   -67021   -74227   -78274   -79974   -80119 
  -77031   -70524   -64208   -61218   -60461   -57721   -48480   -32217 
  -13661     2685    13570    17856    20866    25020    27090    28651 
   30741    31542    31441    28283    18772     1611   -22430   -46966 
  -65278   -78301   -89836   -98437  -100975   -99562   -97954   -97324 
  -98293  -101120  -104482  -107325  -111225  -117255  -122489  -124408 
 -123939  -121576  -114979  -102742   -88154   -73916   -58029   -40020 
  -23641   -11171      123    12961    25332    35745    46008    57042 
   67862    75464    76577    71754    64551    58441    54550    52088 
   51263    52853    56442    60146    63034    66279    68618    67928 
   63297    51571    33974    15369    -6625   -32884   -57404   -78478 
  -96879  -112949  -131463  -154911  -177692  -194289  -205171  -213976 
 -224058  -233693  -235386  -224528  -204167  -182200  -164407  -146971 
 -123042   -95226   -70443   -49613   -31032   -15088    -1841    10823 
   25295    42413    60696    75128    78934    68969    47966    19817 
  -12632   -42791   -63050   -74809   -85369   -94774   -96783   -88919 
  -72196   -47366   -16207    15604    38484    45817    38984    22074 
    1817   -10229   -11900   -12813   -14879   -10852      915    16013 
   31596    44427    50987    53346    55921    61369    69626    77255 
   79807    72910    58352    46714    46271    55355    66320    75296 
   83398    89172    90258    87796    84677    83270    81756    74401 
   60339    45278    30266    10784   -11661   -31772   -49276   -65121 
  -79021   -92436  -106396  -118843  -124497  -119371  -104108   -79339 
  -48063   -16991    10627    32032    43534    45358    39669    31117 
   26298    27166    32047    40213    50866    61927    72080    80937 
   83188    69006    37045     -832   -31720   -52908   -68708   -80275 
  -85116   -85287   -87789   -94109   -98401   -98671   -98059   -97813 
  -98069   -99753  -101058   -94998   -79195   -63294   -54680   -50180 
  -44949   -37956   -31298   -24897   -17237    -9017     2102    17720 
   30958    34244    27026    12319    -8780   -34026   -54878   -66355 
  -73891   -79221   -74364   -55474   -29100    -6641     3580     5078 
    4048    -4359   -22939   -44045   -62383   -77031   -87536   -94799 
  -97376   -93160   -84816   -75338   -62641   -43087   -20199    -4121 
    1650     4100     7931     9768     9035     9751    11092    14348 
   24706    35838    36585    27744    18029    13928    17331    29294 
   49206    67278    69392    50845    17274   -21495   -54118   -75371 
  -91956  -110808  -131089  -150596  -165677  -174120  -178477  -174646 
 -154435  -120816   -85780   -59771   -44401   -33759   -23790   -14340 
   -8231    -9100   -14189   -17582   -16878   -12496    -8078    -5321 
     822    13091    28120    43750    58944    69900    71684    61344 
   39582    11566   -12263   -22625   -20698   -13045    -3508     5326 
   13161    23465    36499    48089    57521    65941    71480    72896 
   71136    66752    59601    49787    37490    23541    10628      848 
   -7415   -16909   -26574   -31117   -27176   -17621    -6300     3742 
    8676    10928    16852    24784    28865    29506    31081    34466 
   34835    23034    -4345   -33458   -46712   -43028   -32255   -23150 
  -20377   -23691   -31176   -41042   -51121   -61031   -71644   -85058 
 -104678  -130714  -158598  -179007  -181980  -168106  -146860  -123589 
  -98190   -72804   -51772   -35750   -23259   -11480     5258    24566 
   36334    38843    33866    17322   -11709   -45857   -73447   -85651 
  -83951   -74150   -57488   -38437   -27378   -28319   -36840   -48033 
  -59764   -70013   -74879   -72870   -67466   -63191   -62069   -63413 
  -66926   -75743   -90330  -104140  -113238  -117575  -114770  -105362 
  -92860   -77771   -59892   -40945   -23725    -9691     2025    10847 
   14517    13459    10113     5967     2210     2068    10368    27619 
   46352    58123    63310    69434    79406    89760    98952   104837 
  102552    93413    83054    72577    60602    45777    24647    -2853 
  -27644   -41986   -50172   -58984   -67689   -74214   -77845   -74226 
  -60330   -41409   -26552   -21323   -23589   -25731   -21861    -9374 
   10101    28794    39688    41964    37177    25131     6645   -10467 
  -16608   -11578    -2669     5163    13127    21573    24216    14971 
   -7004   -35682   -59995   -75916   -86424   -91923   -93140   -91214 
  -82868   -68319   -53310   -37932   -20256    -4814     2269    -1685 
  -13414   -25845   -35564   -42103   -44869   -47286   -52855   -58105 
  -60680   -63218   -66876   -71056   -71168   -57725   -29058     2709 
   26610    45278    65381    85080   100078   110521   115489   114234 
  111197   110075   108298    99690    82053    60823    41925    27528 
   19782    18230    16423    10965     6411     6920    12422    19719 
   23382    19152     6673    -8634   -18859   -20263   -13815    -2120 
   12434    27986    42926    53457    54137    44785    31678    20200 
    8297    -8233   -26148   -42647   -60536   -76841   -86876   -95239 
 -108008  -124653  -140577  -150686  -152996  -150017  -146295  -146363 
 -149565  -147265  -132475  -107594   -81333   -62823   -55873   -56110 
  -55091   -48660   -39385   -32040   -28374   -24841   -17058    -5622 
    4251     9212    11744    15536    21414    27344    28868    21617 
    4691   -18314   -41094   -58868   -71179   -78540   -80749   -80696 
  -80345   -75418   -64407   -52901   -44740   -41805   -46020   -53500 
  -57932   -57962   -57773   -63412   -73098   -78892   -77709   -68815 
  -53063   -35709   -18489     -110    16129    27567    35089    36916 
   32175    28182    34227    51682    74198    92884   102055   101840 
   91873    69017    35422        3   -29599   -52486   -70919   -83031 
  -85877   -81560   -71925   -57743   -44259   -34782   -26290   -16391 
   -5906     2784     8082    12176    17926    25523    34235    41643 
   44054    42717    45339    56592    71276    83209    92281    99971 
  109634   125226   143422   153722   145775   119682    90478    72109 
   60423    45501    29369    15769     -850   -25423   -57043   -93667 
 -130894  -159466  -171300  -169815  -166523  -166569  -167212  -162747 
 -147180  -120564   -90464   -65992   -49580   -37585   -30795   -34185 
  -48800   -70946   -95182  -115345  -124738  -120421  -104355   -79451 
  -54463   -41754   -38788   -28575    -2139    29954    47638    43639 
   30075    18181    11518    15740    32153    53586    72417    84567 
   91314    96127    99007    94980    76816    43810     4119   -34743 
  -71727  -108897  -145571  -176611  -197095  -208150  -215847  -223967 
 -230956  -233387  -229422  -220155  -209431  -200931  -193292  -177628 
 -144435   -95587   -43066     3973    45092    82982   114903   133874 
  136621   122191    88537    41574      783   -14379      804    36783 
   79128   116178   141127   156967   177143   207766   236309   247664 
  238636   209561   158992    92530    24662   -30044   -66704   -87376 
  -90073   -72809   -44108   -18801    -6192    -7147   -17300   -28396 
  -31243   -21101    -1293    21869    44467    63157    78716    94508 
  108032   114868   112047    97979    77927    60516    49228    42019 
   36914    36485    44515    62635    90814   124253   153978   175084 
  188791   196934   199394   194457   180065   153422   111011    56600 
    2267   -44791   -85428  -120613  -149511  -170278  -180006  -178603 
 -171298  -163769  -158636  -156720  -157272  -159553  -164718  -172980 
 -182514  -191452  -192566  -174155  -135587   -89267   -48687   -19298 
    5540    33552    63831    92609   112699   108158    63954   -15497 
 -105678  -184090  -244205  -287745  -315913  -332430  -346189  -362158 
 -375054  -379803  -380523  -381657  -380686  -375282  -367755  -361188 
 -357985  -360281  -367296  -374642  -379917  -385475  -392527  -396672 
 -385576  -342512  -275090  -224703  -206517  -187601  -158130  -138209 
 -123864  -109477  -104798  -102523   -90361   -69556   -40028    -1057 
   40844    80358   118641   158275   200777   245987   289993   327013 
  352874   366056   364319   344844   311275   268807   219390   171005 
  131728   100600    77836    65844    64544    75837   100915   136718 
  178866   222580   263901   301916   337251   367401   387246   395377 
  393488   382067   362901   341123   321655   302955   276442   235985 
  183924   131847    93233    63282    28032    -6889   -32443   -52736 
  -68772   -81926   -96999  -113407  -130226  -145135  -156384  -166167 
 -171151  -169370  -165097  -156939  -144872  -138551  -141619  -144817 
 -143224  -143638  -150164  -160114  -173331  -189389  -203854  -214551 
 -219891  -214548  -194700  -163743  -129337   -96347   -69035   -50119 
  -34381   -21243   -17762   -19872   -18567   -15198   -12982   -12570 
  -15307   -20105   -24587   -25730   -20399   -11166    -3514     2805 
   10189    12325     3114    -7194    -8113    -3148     8748    31315 
   56354    78563    99592   118422   136517   156735   177201   194234 
  206945   213559   201677   154450    76632     2997   -40751   -69673 
 -104841  -140005  -166089  -185552  -190463  -168928  -129648   -93772 
  -79302   -89362  -108001  -123021  -135063  -146107  -159361  -176333 
 -194272  -210606  -224367  -240180  -261743  -283102  -300619  -314813 
 -321826  -323259  -327381  -334277  -337155  -331205  -311999  -280196 
 -244621  -211185  -182062  -157578  -130917   -97285   -63467   -37004 
  -15993     4599    23711    32495    25078    10461      379    -4636 
   -6531    -4245     2576    14268    30172    47815    68631    96649 
  131129   169965   211910   254997   299047   341718   379068   410807 
  434263   439396   415439   361426   287904   213407   157951   127330 
  111587   101393    94391    92751    97995   106701   116623   127144 
  130482   116873    89188    60434    33766     1405   -36285   -72818 
 -106709  -138964  -172098  -208197  -246551  -285690  -321921  -349523 
 -362573  -360023  -352770  -352904  -360136  -367025  -362003  -325608 
 -245531  -145862   -75265   -44162   -16306    20040    44676    63951 
   95382   132672   169691   202041   216254   209663   191225   171853 
  161885   161923   166504   173458   181903   190552   199132   206557 
  207612   194683   161697   107613    41725   -16536   -52945   -77770 
 -111553  -153247  -191744  -228312  -264671  -298463  -331163  -362425 
 -387838  -404830  -414287  -417530  -414579  -408071  -403516  -402507 
 -399272  -380264  -327706  -240679  -155461  -112160   -97312   -72803 
  -43609   -25752    -4584    23804    48822    75375   104387   129172 
  152459   175392   195798   217758   243869   270843   296206   320455 
  345939   371467   388261   390921   384697   374441   358911   336685 
  304973   262500   220812   191579   168643   145282   124598   101544 
   69439    33980    -2032   -41424   -82573  -124544  -165422  -199207 
 -227216  -258039  -290164  -315103  -335834  -355839  -368083  -369990 
 -365053  -353061  -334767  -319107  -312102  -309452  -313029  -329191 
 -349867  -358337  -330531  -244830  -129472   -41005    16470    70193 
  120868   168509   226408   296623   372794   447488   508774   531282 
  474351   320651   125750   -21021   -97975  -139629  -156460  -145189 
 -118192   -95932   -91277   -89922   -74173   -47483   -15222    15238 
   34095    47402    66244    89897   108910   105959    64849    -6252 
  -75333  -120053  -149179  -178697  -205052  -225304  -249824  -279589 
 -308768  -337578  -363325  -378948  -379435  -364154  -336775  -300975 
 -259436  -216979  -181607  -162776  -163029  -168779  -160105  -138937 
 -124733  -113012   -88160   -61542   -43216   -28711   -22440   -25707 
  -30438   -28478   -16232    -3430    -1235    -4505    -1672     8109 
   21381    41326    67421    92075   111156   121159   116834    95928 
   61317    29020    16049    15535    14353    16227    24743    35957 
   49169    63541    78760    96404   112696   123041   127300   128549 
  132046   138159   145129   155888   166802   171210   174569   181186 
  187685   195127   203665   211806   220080   223019   218619   215546 
  220434   231942   245765   260774   268612   253409   218745   182607 
  155469   140883   132568   120072   102457    85061    72050    65639 
   64501    58977    44876    30970    17198      -35   -15338   -30102 
  -46843   -58512   -64020   -71283   -83486   -97108  -107226  -110210 
 -106545   -99864   -94049   -93741  -100339  -109522  -120767  -137582 
 -159546  -186134  -214635  -238812  -259801  -276712  -274769  -243973 
 -193896  -142289  -100819   -75271   -64205   -57008   -48967   -45090 
  -47877   -54974   -66905   -89963  -120689  -145650  -161153  -169964 
 -173738  -178217  -187415  -195890  -199456  -201035  -203548  -210448 
 -219565  -220517  -208746  -187442  -164404  -148003  -137321  -127437 
 -119296  -114819  -112542  -112476  -115238  -118899  -123531  -130323 
 -137280  -142816  -146019  -144598  -141057  -140358  -141406  -141384 
 -138389  -128280  -107933   -78159   -44351   -16158     3106    21204 
   42568    65567    91540   120772   150586   181484   213579   242321 
  265613   283293   292810   294837   290082   275668   250889   217574 
  181699   156536   153766   166320   173484   170391   168551   169356 
  166397   162268   161283   159252   149865   131468   103468    63563 
   14580   -35961   -84943  -130902  -170617  -204413  -233650  -259277 
 -284782  -307156  -318126  -317122  -303194  -269270  -214921  -150708 
  -92341   -48882   -17874     3585    16102    18968    11772     3669 
      57    -6804   -17596   -26535   -31695   -31952   -30814   -31969 
  -30898   -22781   -11120     -816    10134    21447    28020    32583 
   43814    64057    87493   107388   121234   126651   117086    88901 
   47786     3608   -35823   -66837   -91621  -116564  -143773  -167241 
 -181224  -184871  -178642  -166032  -154170  -145381  -138183  -135718 
 -138532  -139447  -135495  -130702  -124575  -111098   -89025   -64029 
  -41732   -21595    -1484    16385    31412    44814    54708    57495 
   48855    27817    -1577   -33851   -62264   -83932  -104272  -127049 
 -148380  -164226  -173445  -173944  -160518  -126910   -76415   -28918 
   -2456     9869    25354    42548    48172    38295    18102    -3671 
  -17683   -20887   -18224   -16816   -20140   -28071   -40785   -56340 
  -66450   -64243   -53481   -41054   -29656   -22464   -22084   -29501 
  -42593   -50179   -44982   -33224   -23391   -21891   -28844   -35025 
  -34610   -29358   -18036     2365    28951    56954    83450   107448 
  130288   152798   176429   201872   226167   249291   272276   289996 
  298561   298035   281599   239708   181104   131605   102983    82821 
   61679    44230    31048    16118     1020   -13536   -34316   -57207 
  -75044   -92686  -111494  -126088  -134684  -138558  -137130  -127024 
 -108081   -83219   -54519   -25161     1809    24702    43709    59739 
   69560    71832    70470    64576    49887    26763    -3449   -38393 
  -69688   -92130  -110469  -128886  -146615  -161389  -170028  -171852 
 -170578  -171689  -177541  -184860  -189962  -191770  -185828  -164134 
 -128087   -90886   -64647   -55472   -62400   -76097   -87786   -94816 
  -98693  -106137  -119873  -131858  -139071  -146705  -154160  -158137 
 -161011  -165090  -168052  -169977  -175335  -184285  -192152  -195735 
 -192716  -180260  -156679  -125422   -98809   -85470   -75619   -58419 
  -41875   -34884   -33059   -33046   -34331   -31905   -23628   -13935 
   -6155      651     8855    23476    50670    89568   132999   173995 
  206365   226325   235627   239114   239774   237520   233263   229785 
  226684   222319   220001   223913   233623   247126   261140   272050 
  281422   291032   297192   296173   286226   264231   225597   170883 
  113701    71520    45484    22367    -3445   -26896   -46738   -64458 
  -79973   -94320  -103203   -99842   -88328   -79626   -79989   -88383 
 -100389  -113584  -126785  -137676  -147609  -160127  -170993  -171803 
 -159521  -134302   -96999   -52774   -12798    12904    23612    23832 
   17021     6708    -6204   -28700   -65663  -108305  -145449  -174419 
 -194192  -202440  -201291  -198358  -198486  -196678  -183804  -154956 
 -112394   -69417   -42890   -32808   -26058   -20518   -22329   -28698 
  -35015   -43630   -54370   -64762   -76746   -89423   -95414   -91677 
  -84882   -81027   -78865   -75063   -68124   -59690   -51762   -42565 
  -32375   -24413   -14930     1278    22185    45848    70559    88854 
   91334    73922    42414     8611   -18099   -34209   -43157   -52021 
  -63457   -77054   -96308  -123126  -150914  -171689  -183475  -188492 
 -190797  -195608  -205155  -214474  -215880  -207276  -192558  -176795 
 -163460  -153134  -143186  -128963  -106570   -76501   -43910   -14067 
   11641    33776    51451    64265    72729    76169    75801    74849 
   74673    76405    80979    86811    92394    97560   101964   105855 
