Origin Time       2011/03/11 14:46:00
Lat.              38.103
Long.             142.860
Depth. (km)       24
Mag.              9.0
Station Code      MYG011
Station Lat.      38.3020
Station Long.     141.5079
Station Height(m) 12
Record Time       2011/03/11 14:46:42
Sampling Freq(Hz) 100Hz
Duration Time(s)  300
Dir.              N-S
Scale Factor      3920(gal)/6182761
Max. Acc. (gal)   921.003
Last Correction   2011/03/11 14:46:27
Memo.             
[...]
   -8839    18457     1958   -51191   -95686   -60081   -28517   -63388 
  -66002   -10740    16673   -16489   -47254   -34921   -55600   -90921 
  -28546    21765   -28150   -53617   -44571   -27182     8437   -37448 
 -126509  -127639   -77786   -25557    -3893   -22228    -8148     7333 
  -40313   -98901  -104028   -63938   -39494   -30845    -8148      466 
   -6952   -11331   -18008   -39121   -76500   -80646   -47288   -50335 
  -69639   -35506    26614    62567    59415    35233     4345   -42231 
  -69654   -36786   -16861   -72366  -127525  -121606   -83856   -34629 
  -15341   -70479   -88893     3673    26512   -78172   -98624   -20453 
  -30673   -72492    23957   124538    51519   -58408   -82346   -47640 
    1674   -49648  -123094   -58350    -2032   -32450   -43318   -17487 
    6383   -54359  -136582   -52183    72261    33238   -49426   -72794 
  -86779   -75738   -15321    36409   -17610  -122749   -88500    20435 
    7057   -62947   -92379   -99716   -36594    55270    31951   -51189 
  -82116   -89670   -68344   -12346    12676     5436   -23793   -69991 
  -79522   -61368   -39878     4382    15811   -49391   -80023   -15838 
   13554   -17319   -22555   -55310  -112651  -118409   -89341   -36052 
  -29269   -87875   -59170    34231    18213   -49547     -121    81580 
   34875   -47646   -45350    -2974     1269   -65088  -104000   -31560 
   22417   -10184    -8517    39302      350  -111776  -117112   -21163 
  -18993  -112970  -141377   -94129   -75391  -104842  -114537   -38604 
   49670    19061   -43633   -35939   -45564   -62415    -9064    47193 
   46736     9100   -26256      128    47339    12528   -38647    -1266 
   46532    12087   -30852   -30533  -100937  -217136  -189569   -89677 
  -82008   -97626   -99616  -114650   -77600   -26494   -37575   -18920 
   37882    24073    33362    95281    -6060  -145906   -12465   146494 
   50561   -30236     7823   -16390   -59564   -93192  -114344   -53752 
  -47721  -148007  -182748  -105663    12209    75293    24605   -62698 
  -87819   -55114   -38291   -51327   -26525    21310    -8711  -110090 
 -139553   -55464    25808    44931   -16016  -106443   -76145     7159 
  -21471   -80995   -81704   -44101    -3859   -59645  -163598  -151210 
  -43943    32997     6690   -12649    51926    12420  -105199   -90134 
  -23994   -30848   -36629    -5747   -17021   -58348   -81147  -113879 
  -85567    12714    -6111  -113805  -108353   -64522   -90375   -61914 
   -9522    -5536    30687    -4346   -96584   -61534   -18923   -20469 
   28053    32793    -5677   -19877   -40482   -52192   -57624   -27747 
   36544   -42565  -192369  -135221    -2907   -31673   -80512   -25331 
  -21287   -97323   -60211    28576   -28200  -107935   -65379    11616 
   32187     2655     6064    62895    46695   -46538   -78981   -87971 
 -124853   -86548   -13929     3286    -3243   -50602   -99365   -90570 
  -73589   -77702  -127476  -135006   -46870   -37081   -66022   -35329 
  -60063   -53409    44866    37933   -53697   -48756      -42   -20432 
  -43229   -32676   -53419   -63782   -18838   -15783   -76786   -89496 
  -55213   -65114   -92717   -70142   -61593   -85844   -24627    31108 
  -26428   -28391    16686   -46068  -113535   -66244   -10571   -51586 
  -83274   -23343   -24125  -104567   -60674    54785    36450   -59767 
  -82344   -40297   -26056   -21807    24726    40818    26624    22285 
  -59179  -144627   -94974   -39735   -62007   -50494   -14596    -5365 
   31640    24288   -84256   -82479    22707   -11176   -53383     8820 
  -21716   -86799   -60014   -53978   -53952   -23340   -51765   -96389 
 -134981  -166934   -88678   -19649   -77823   -74823    19986    35899 
  -18363   -54616   -41929     6984     -130   -60012   -37790    52889 
   57233      417    53329    96066   -16299   -53549   -25194  -142262 
 -189666   -42745    16982   -74970  -120802   -81035   -27395   -31661 
  -95957   -89821   -42240   -84456  -122309   -91716   -90391  -124900 
 -116222   -20826   108680   157300    84201   -29963   -74254   -63617 
  -62564   -42515   -29163   -35598    -8833   -26668   -50100     -680 
  -36059   -63120    25466   -36477  -142289   -73504   -80921  -126621 
   -6003    43190   -42776   -43286   -16886   -43947     -402    75529 
   80985    45236   -29776   -87334   -68979   -41046   -26176     6899 
   70915    81141  -108568  -321762  -255343  -101725   -83880      929 
  118165    13346  -153549  -160369   -87581   -14189     5851   -86640 
 -185533  -136100   -21205   -55741   -94398    46312    49150  -128985 
 -103497     3367   -74779  -143763   -99027   -59816   -29525   -28568 
  -72128   -55933   -11158   -40129   -60786   -29880   -50731  -104996 
 -124351  -151433  -146551   -47305    24941    -4437   -33031   -15712 
   14264    32707     1820   -32464   -15947   -18234   -50370   -47249 
  -23728   -31761   -44836   -33170   -92790  -168135   -69748     1168 
  -89825   -43670    41678   -75036   -85285    46775   -73876  -255794 
 -147771   -12104    42016   135459    58540  -146852  -186237  -107326 
  -20449    67665    91629    28869   -12151    28174   -27872  -191637 
 -132099    46269   -27947   -88344    45969    -9417  -184080  -116768 
    2039   -48783   -39794    68323     4225  -144911   -97316    49676 
   37242   -65600   -44008    15075   -34177   -73699    -8791    37733 
     -80   -21010    28292    76807     2113  -131509  -128546   -94606 
 -141120   -95794   -18295   -65531   -54235    46532    23599   -38861 
  -34519   -61667   -32166    65101     5225  -109501   -55580    15139 
   -7528     4286   -18247  -127234   -94107      -30   -84944  -158258 
 -129713  -147322  -148388   -51313   109833   184031    62378   -39006 
  -15266   -71344  -129318     6297    72302   -41403   -22852    34266 
  -44805   -37641    11119   -61706   -93145   -10093    38097   -42033 
 -115682   -43894    -5427   -93863  -102405   -36041   -46199   -24851 
   26799   -49869   -26366    97661  -111456  -372143  -257539  -151844 
 -209360  -128995    25800   116673   131617    18660   -42952    71918 
  179183   186042    78824   -58727     9746   110776   -56218  -188987 
 -107320   -73039   -22019   121791   109078   -76835  -200339   -88600 
   62066   -68347  -161420   -78423  -225925  -282167    11116    77536 
 -116548   -94248   100476   131047   -10192   -41294    82128   108043 
    2299   -64974  -101558  -108973   -13994    34439   -84837  -222001 
 -260368  -161954    11973    17020   -40934   133823   280767   111251 
 -163274  -258179  -142476   -30681   -76038  -106622    96568   248937 
   18516  -151482    32567   141399    53210    23436    45022   -50669 
 -193778  -257014  -279454  -176389    -6930    14407    -3156   -92442 
 -357196  -383293   -22736   213015   136959    54932    61841    36048 
     131    59471   151159   108203    -6364    -6133    25036   -44901 
  -31086   155837   199976   -32332  -242567  -249218  -191909  -139479 
     472    74547  -118628  -252727   -32816   130668   -26132  -146872 
 -176264  -272829  -250702  -104139    24619   124950    36763  -164975 
 -124109    -1289  -144691  -214166    84728   207606   -34511  -121710 
  -63490  -122205  -219364  -301806  -242437    -6940   102962    36668 
   -7534    24358   130641   127726   -42546    -7410   169711    69110 
  -32798   128667    84325  -184197  -162513   -55247  -197454  -202382 
   12481    53880   -30397  -144829  -273074  -108388   110275   -81828 
 -214494    20696   112517    35248   124322   151109   -89065  -245662 
  -74948    57269  -116510  -305573  -363387  -332914  -183185   -17124 
  115410   129736     4487   -12817   -34055  -155306   -20528   160991 
   -3001   -98833    17075     3878    40310    33003  -268179  -262746 
  -37927  -233113  -290822    18899    93761    20333   -11748   -69137 
  -46101   -39734  -109378  -106507   -78516   -93052   -79115    49126 
  227469   248350   156565    87303   -41969  -246865  -423400  -435302 
 -267288  -244520  -450186  -363996    51516   163921    21609   154916 
  390070   276208   -30682  -125550    36461   116027  -186228  -380551 
  -24994   192693   155975   375112   272538  -279867  -449166  -284141 
 -151921    -4593    68070    27335  -109865  -210235    50868   378713 
  295034    39415  -126415  -265778  -369601  -341992  -206205   -94478 
   43435   235843   330487   376735   399469   169516  -329682  -684770 
 -489068   -26541    82311   -91837  -224747  -424474  -533229  -190249 
  326576   605260   596238   271301  -188216  -395904  -391139  -286040 
   98292   290605   -57999   -73980   214017   -26064  -162640   172304 
  227204    24262  -109309  -172207    -4137   265806   167303  -171559 
 -109017    99183  -115002  -205699    69622   187425   146946   -56903 
 -381776  -301848   103668   313499   141443  -256911  -343288    39685 
  357807   361712   241539    18887  -329252  -470771  -250141   -81074 
 -104010    35507   214935   -49175  -490831  -521194  -323717  -256374 
 -160263    -3702    69518   200627   284759   121781    68467   165752 
   -7956  -214767   -86888   -33578  -355684  -634815  -547708  -147576 
  428465   751234   435354  -115802  -147758   106574   -92385  -179695 
  285138   482706   421068   276036  -360827  -935690  -905572  -576411 
 -246990    35898   458047   691769   151402  -471235  -337380   -29659 
  -70212   -82887    62606    86647    57838   129256   117082   222302 
  528389   313785  -262436  -384251  -381335  -605015  -658943  -456500 
 -192183  -106626  -323543  -424855  -172751   -16713  -140987    17951 
  669258  1042100   729520   284684   101242   -91247  -413758  -389416 
 -171208  -152606    53176   176222   116186   508270   598183  -160311 
 -574013   -92927   442061   267029  -319901  -259330   295263    76257 
 -379216   -49587   167998   162874   553649   242860  -864255 -1070326 
 -395961    34781   234574   404254   391968     3026  -707377  -804733 
 -176606  -101161  -365221   -44421   140858  -227870  -245438   314334 
  724970   620579   179211  -203336  -160757   211323   523625   573562 
  365536   113155  -115076  -559066  -858805  -565966  -208174  -194996 
 -222952   139671   797894   728148  -321205  -806199  -220506  -117255 
 -536576  -189555   237119    74368    32668   -52844  -345500  -339373 
 -299263  -374337  -174637    54487    57589   -60677  -389121  -524382 
  -42664   289930    56098   115361   681926   983323   615303  -127054 
 -503651  -256540  -170275  -602821  -669375    34174   642065   717469 
  479235  -230276  -836227  -475143   231426   500773    81632  -477183 
   88218   861423   293061  -527793  -301143   375146   190444  -665192 
 -694689   -77874   -54789  -354463  -291765   -40900   245811   555078 
  666974   499137    -2307  -656694  -697717    -8621   472864   252532 
 -199962  -279609  -121134  -280883  -426942    18757   204579  -447660 
 -682004  -214109  -251554  -494607   148984   948333   579041  -267583 
 -157919   465137   427377   -10042  -120944  -154516  -115575   452128 
  724155   -84541  -716976  -126460   508602   267461    53179     4683 
 -685629 -1324226 -1156174  -677766   100392  1040950  1157513   200587 
 -957073 -1050427   -75463   304110  -262740  -448188  -180186  -150959 
  133759   608448   150261  -474032  -101595   203564   -89001   -41608 
  402975   512400   198296  -276227  -790577  -673087   235205   582601 
  -75780  -567995  -472657  -117974   408919   485937  -202906  -553658 
  -12704   327268  -195480  -460107   167225   330635  -325004  -347547 
  478307   973691   564438  -165901  -454447  -211519   210194   241031 
  -26600   -40317  -211465  -381126   107465   177927  -309460    51146 
  458812    24265    70759   359137  -486790 -1061149   -59586   598922 
 -119164  -665341  -533867  -356823    93095   824181  1042000   522191 
 -171714  -511040  -602242  -824580  -769310   -66254   393989   241265 
  227219    58335  -561569  -568940    85287   656314  1025653   700099 
  -63231  -144001   133422    53778    -8014    46042  -358321  -815789 
 -257831   739441   781164   183835    48482    76547  -597476 -1206026 
 -450848   530694   115310  -463973    53812   401469   -18629   181175 
  820428   204544  -916180  -773048   -14130   199914    68633   -94518 
 -221202  -103819   217484   246123   -75174    63148   528531   203018 
 -506229  -550830  -419088  -678906  -715598   -79650   679549   732274 
  101922  -218893   276987   693936   175408  -454801  -238155    22451 
 -317676  -420736   -15978   162907   -77683  -400055  -628137  -578043 
  -16031   716539  1049139   825924   -20405  -774607  -576207  -177151 
  -79163    68904   -97977  -396403  -149346   263435   239516   -12602 
  -49543  -163177  -441312  -240829   202666   300465   184580   -63493 
 -269427  -319670  -562157  -707028  -211828   283283   190339   285614 
  844114   858707   181467  -351513  -487055  -502064  -397814    23081 
  282092   104026   125117   305482   324520   226177   -73378  -127422 
   74560   -96750  -344964  -488606  -704554  -529803  -190122  -380400 
 -424156   374778  1081290   927255   376773  -278946  -922039 -1206633 
-1068420  -410488   445573   679579   379807    77389  -109127  -154042 
   85958   644545   577403  -448017  -905699  -555848  -395374    35596 
 1006838  1351984   423381  -796760  -998043  -452335    68148   619188 
  578845  -168661  -399374  -251153  -203971    58416    96219  -201946 
 -134604   254327   388742   126561  -137070    26915    91209  -517422 
 -878592  -496792  -233717  -292939  -130471   608135  1414945   960219 
 -586725 -1423038 -1172537  -761051  -227541   397310   565182   478613 
  333453   245262   458844    54517  -919293  -690532   469124   920111 
  613303   260293   228291   218826  -305660  -767477  -403440   169803 
  148146  -202119  -112041   428454   415227  -202411  -247453   146467 
 -258168 -1102508  -995164  -267326   227444   712888   738633    -6364 
 -299683   199932   207601  -246422    40399   361237   -67994  -311150 
 -300626  -286787   199457   490537  -176823  -644666   -36034   398356 
  135808   207014   266028  -331499  -370583   640939  1090073   244585 
 -462357  -107290   238099  -205090  -555794  -400086  -327370  -363575 
 -439702  -501868  -268093  -203257  -369707    17886   582626   514611 
  202991   147157   284410   451008   229785  -304058  -332436  -259365 
 -930618 -1171485  -204112   516361   470814   492737   440278    25700 
 -194871  -142600  -315707  -433832    45016   580497   399120  -127156 
 -351737  -431224  -397494    22874   428399   379228   164917   -24946 
 -198120   176176   862493   410564  -832418  -968527  -287490  -220447 
 -348994    -6981    45118  -396391  -331099   224593   335959    75727 
  -81829   -42927   253543   346883    15429  -125343  -218921  -518686 
 -205284   627273   774483   158246  -278952  -251913  -235174  -283478 
 -174081  -152550  -176655    56715   182560  -113801  -426477  -298453 
   50318   -16207  -464287  -576819  -150874    97827  -202167  -305317 
  116147   300478    33608    15088   447044   660028   359113    90843 
 -100430  -491271  -608482  -437276  -277570   135084   438290   399490 
  324709  -174097  -680704  -286703   161343  -143184  -399866   -98176 
   44880  -283004  -432288  -293982   -59602   351483   422570    75128 
   88879   300822   211446   141581   138989   -28053   -98328  -134446 
 -440775  -402338   367551   894273   413436  -522384  -819602  -176626 
  481531   294810  -226616     -323   476898   -95239  -939869  -661657 
   67435   105021  -327865  -352514     6306   -98864  -427745   -57400 
  649845   622885  -124958  -450867    37277   236363  -294202  -299396 
  458265   365603  -675999  -945055   -74765   683263   486065  -106032 
 -130543   141320   -69328  -486902  -385120   159216   268978  -211146 
 -285054    86173   166745   165945     2433  -536708  -421322   413311 
  496197  -191490  -318123    -3632  -286988  -735712  -506970   -52700 
   42102    72509   385119   592793   400900   159093   -41725  -237664 
 -211960  -119129  -213138  -179081   264927   429520  -170864  -578054 
 -316226   -64335    13265  -153611  -487180  -103421   642237   509834 
   51967   161979   219687  -115694  -161741   -46900  -287070  -189683 
  271592   136180   -44881   215414    90081   -92708   262453   415557 
  243720   116056  -291300  -616893  -270235    28017  -197914  -331663 
 -181968   -36374   114092   212750    48114  -286860  -491092  -320425 
   15620   -29504  -252721  -301886  -476662  -460315   124174   562205 
  402140   -70513  -345847   -22634   256887  -219947  -633638   -86661 
  635709   382484  -253150  -315885  -374084  -541666  -128266   280014 
   31342  -332400  -363971   -95824   107611  -136840  -157675   413067 
  379210  -267855  -280203    -1874  -108845  -136068   109212   281770 
  224301   -31518  -307990  -274113    10765   189869   403372   503395 
   20814  -329664   -71942   -86086  -319925     7128   289406  -138656 
 -411182    37771   272512   -87429  -181470    19681  -101271  -288444 
 -303217  -259468    68923   389358   116728  -358282  -413379  -118601 
    3544  -194514   -25114   519905   421720   -83070    88813   449924 
   94131  -351055  -300625  -288019  -332503    -2630   223802   -16954 
 -114860   139814   282790   286183   191968  -181476  -408386  -194778 
  -51210  -104700    11503   202375   182138    95840    45458  -193235 
 -504493  -399813   167764   537058   260774  -241603  -513158  -561515 
 -362326    48870   268285   180871   107757   -59954  -317549  -126906 
  334736   433929   107676  -269260  -265824    30704   184446    81042 
 -119495  -119385   209410   578544   697383   443354  -204063  -782972 
 -703257  -291888  -200629  -246093   -38647   210102   156214    37581 
  220832   247057  -286511  -713331  -458228   124346   416371   350447 
  331111   255641  -108709  -318042  -350837  -594851  -651289   -98475 
  545424   601862   289069    43716  -232923  -374009  -238719  -245736 
 -408024  -184758   221336  -157856  -783208  -282640   609099   817930 
  769509   459000  -349337  -871122  -688121  -264877   148225   248721 
  -65654   -27424   331379   141608  -208997   -72230   -16953  -223700 
  -53664   132811  -256022  -448661   -31529   230038   215075   186475 
  -93062  -146296   403712   439515  -288138  -582334  -385306  -223007 
  172694   584816   404939    53692   147705   129583  -589456  -987001 
 -217382   459356    54470  -427652  -137596   195935  -116055  -438937 
 -159154   243608   227493   198934   545630   480119  -418805 -1000024 
 -530111    93948    95302   -45553    92710   220925   264474   172123 
 -248422  -543477  -366573   -29145   254782   252892   -50234  -302711 
 -410573  -193111   290015   380152    18145  -309823  -448586  -367867 
  -68639   144422    78102   170786   464583   283463   -92167   -96815 
 -206405  -378208   -28639   409729   308719  -106674  -463816  -692198 
 -579233   -85990   224872   179927   155518     3630  -238037     -537 
  332928   241161   119234   -61654  -393858  -242393   222350   162311 
    7474   291048   193813  -231421  -110169   -97774  -585142  -532463 
  135102   498676   222181  -262022  -301145  -121384  -276632  -191104 
  331551   233279  -447631  -549688   -15244   377856   278065    29851 
  162127   313542    23852  -158877  -148539  -429016  -621357  -332537 
