Origin Time       2011/03/11 14:46:00
Lat.              38.103
Long.             142.860
Depth. (km)       24
Mag.              9.0
Station Code      MYG014
Station Lat.      38.3173
Station Long.     140.6362
Station Height(m) 259
Record Time       2011/03/11 14:46:55
Sampling Freq(Hz) 100Hz
Duration Time(s)  300
Dir.              E-W
Scale Factor      3920(gal)/6182761
Max. Acc. (gal)   418.262
Last Correction   2011/03/11 14:46:40
Memo.             
[...]
  -59374   -61713   -54194   -44883   -42780   -40783   -23239     3339 
   24423    39499    51604    61442    66091    62777    57364    58237 
   71688    96101   109485    93377    58341    18932   -15722   -33352 
  -43469   -71046  -107887  -122224  -110528   -95101   -84778   -70393 
  -52114   -40263   -35005   -31699   -27987   -22357   -16781   -11182 
  -11925   -32983   -65368   -84900   -88871   -96775  -122101  -144154 
 -136390  -103046   -55543    -8336    20330    30892    32981    30860 
   24480    18530    17358    12017     4597     8682    16969    21937 
   32040    40468    32019    15500    14009    29398    29462   -10265 
  -65322   -99165  -112240  -122205  -131699  -135499  -137588  -147752 
 -161501  -158068  -129797  -101713   -97637  -100797   -86617   -60521 
  -31846     4871    47026    76243    88021    95310   100239   105864 
  121866   134470   120509    85572    60524    56826    45890    12044 
  -21281   -41077   -60017   -88247  -120968  -138931  -136184  -133861 
 -139260  -136524  -115712   -77042   -27685    21299    58543    81701 
  108843   145212   166754   168588   168135   166145   151141   121248 
   93909    83325    71910    43053    12684    -2708    -8970   -14370 
  -21658   -36799   -62140   -87131   -97962   -97433  -101141  -112607 
 -123184  -130304  -134430  -130609  -114431   -83489   -47610   -28883 
  -25188   -15773    -1391     6945     8371     9080    18978    37427 
   52411    54609    37886     9420    -9040   -12997   -20392   -39287 
  -55564   -47503   -16296    10095    23916    39859    58616    73808 
   86591   106141   136044   157307   143618    89964    31313    12590 
   25221    25194    -1058   -32449   -43661   -32031   -16457    -7420 
   -5375    -6494    -1001     9551    18283    21842    12062    -5402 
   -9147     7275    29275    37556    23504    -5664   -34286   -47257 
  -46803   -54421   -75901   -95068  -101202   -90018   -67506   -55758 
  -61279   -62212   -38324    10378    56319    67503    59223    63265 
   69888    67232    67779    69615    60191    46503    42299    41996 
   33841    27146    27695    16427    -5102    -7855    10219    25127 
   27311    21327     7425    -9392   -13660    -8132   -15771   -41219 
  -66862   -80959   -80979   -65167   -47070   -51110   -72029   -81450 
  -78826   -83600   -92885   -92879   -86577   -83776   -81398   -68355 
  -49647   -49080   -65991   -61998   -30552    -9169    -6441    -4002 
    2298    10930    22271    33630    40522    35510     7105   -43728 
  -83882   -81882   -63834   -80210  -120972  -127449   -81996   -32019 
  -27643   -59029   -72429   -53203   -35658   -39054   -58134   -71920 
  -64630   -59151   -62770   -39995     9993    42494    35003     8293 
   -2504    12973    25482    12771    -8232   -15600   -11887   -21825 
  -52880   -77293   -85065   -94451  -106404  -109255  -106496   -98667 
  -74541   -42431   -15122    19368    64988   104288   124701   127857 
  128940   136817   137006   113951    75475    46665    30074     4209 
  -22242   -25023   -15839   -23272   -50789   -76964   -90496  -100855 
 -112431  -116436  -110486  -100138   -81392   -53110   -21716    15902 
   52119    68723    67755    61121    59577    65002    60669    40807 
   17432      789     -677     6710     8764     9253     8968    -2921 
  -19076   -25447   -23512   -20798   -27397   -43443   -55740   -66696 
  -79881   -73514   -42298   -12126     1036   -10391   -45628   -73908 
  -71511   -57567   -61138   -84990  -106323  -101794   -72520   -32233 
   17152    72616   113813   127386   127741   137090   156434   165110 
  150924   123463    93769    69053    59823    56222    27862   -17416 
  -40799   -45738   -59215   -72010   -63768   -43568   -32245   -28819 
  -19943   -12805   -12981    -3810    13382    22225    26340    34476 
   46023    57075    57059    39943    14311   -14904   -46024   -70618 
  -84413   -90355   -92381   -89496   -80265   -73816   -75914   -71135 
  -45082   -12123     8922    25629    53014    82263    85884    54920 
    9019   -27024   -36989   -31124   -33670   -42024   -53345   -81065 
 -107365  -105900   -92303   -95083  -121628  -153664  -162464  -147358 
 -126728  -101472   -68279   -30397    15467    68743   118529   153252 
  165311   164740   168509   173455   166626   144549   115501    85284 
   58793    43230    25685    -2314   -30101   -65234  -114817  -155012 
 -166726  -171344  -191877  -208539  -196089  -158283  -118604   -92344 
  -57644     4796    72279   120327   147043   157413   158596   153654 
  148562   151505   142557   101957    51603    24356    30191    48152 
   43358     9476   -28218   -51075   -56488   -53123   -61947   -93111 
 -134406  -166933  -177697  -167199  -148027  -132634  -114982   -79532 
  -32981     1333     6452    -9694   -12018    12767    38368    45005 
   39667    48036    80813   109311   114928   110051   107683   113197 
  110321    82719    47875    19433    -3693   -12361    -8351     -664 
   11002    18199    18674    20830    20616    17957    18307     9396 
  -20646   -54138   -66158   -60458   -51170   -37200   -18664    -7264 
   -3885    11366    36557    33143    -6984   -50317   -82178  -106879 
 -120193  -115304   -96299   -79164   -68886   -49198    -9467    42177 
   83548    87968    57923    23592     -957   -18433   -33625   -51009 
  -61206   -54382   -34391    -6283    14644     9782   -14900   -45440 
  -71763   -82330   -84864   -98887  -117854  -116468   -93515   -62593 
  -13530    54107    99316   103404   104502   126653   143258   127725 
   85675    38634     6126    -5762   -12052   -32137   -71613  -112604 
 -120490   -92906   -63134   -52891   -62605   -75773   -77466   -72091 
  -58504   -26941     2813     -400   -16372    -3477    31464    63012 
   89986   109085   105900    86736    72414    56590    13256   -51025 
  -96574  -113459  -134025  -166281  -176355  -151645  -120063   -96978 
  -69610   -41904   -37233   -39142    -1175    64313   100465    99177 
   97603   116544   141263   150727   148643   138849   104941    53717 
   19857    12761    10060    -9906   -46682   -86618  -119080  -124924 
  -98324   -76678   -87152  -102850   -95037   -84968   -97297  -100722 
  -65737   -26531   -14923    -7051    26263    77494   118927   137227 
  137544   123787    98920    64274    19747   -26704   -62241   -74048 
  -68465   -69515   -75798   -62066   -20052    24311    35134    15774 
    6829    33327    76732    94180    65522    14218   -18207    -2233 
   53139    96739    98066    86484    86331    78890    51327    17714 
     146    10748    30992    33735    21989    13140     9167    -4802 
  -32479   -54564   -63866   -70693   -79104   -91497  -112869  -138522 
 -151616  -139860  -109234   -83144   -73473   -49986     8847    65267 
   81557    65436    37229    16642    25203    55015    60577    19694 
  -24899   -22269    19048    52195    51518    24003    -7984   -11879 
   24037    55888    40194     4676    -4573     6656    12630    11309 
   22172    49843    65316    58120    55269    73175    95742    87947 
   32135   -45703   -98620  -105030   -92460   -96936  -100406   -61695 
   -1167    20235    -1967   -14479      872     4547   -25896   -61442 
  -74055   -71366   -64169   -46368    -8851    46265    95935   120678 
  122042   102321    62972    -2143   -84554  -126588  -108290   -85606 
  -85541   -83142   -59267   -24400    -3553    -1469    -2955     -818 
    -564    -3111     4451    28457    49672    50698    47922    68302 
  109317   134520   111147    49758   -14357   -61024   -86803   -98127 
 -110578  -135290  -164087  -172499  -151160  -115902   -79756   -64130 
  -77332   -73260   -32951    10360    44336    63833    65138    64472 
   71561    86336    95328    81305    54644    24904   -10619   -41923 
  -68711   -95588  -112890  -121489  -129094  -135750  -129063   -88216 
  -19625    39869    64470    74979   104179   130955   122734    90533 
   56014    25054    -7957   -37709   -45037   -34407   -20017     5162 
   32452    36635    22945    10485    -1799   -16157   -26669   -43509 
  -70033   -84912   -89571   -94689   -84706   -54073   -16472     6434 
    1661    -2692    13760    27573    29402    39037    64426    85654 
   83782    65710    43179    17147   -11156   -40360   -72091   -93081 
  -90516   -89713  -113662  -138450  -136902  -117671  -106732  -119441 
 -145336  -153970  -132116   -98610   -66695   -30732     9546    43089 
   60067    68427    90446   126228   144396   126215    85287    45403 
   27652    39023    57149    51280    34044    42414    63973    67613 
   67281    74779    67976    38650    -2179   -42552   -65844   -70794 
  -76860   -97008  -119232  -114474   -79057   -42557   -19822     4809 
   40166    64789    65259    54486    36383     7897   -27740   -65066 
  -94237  -110950  -108894   -75972   -23039    21736    38594    26170 
   10248    13859    28198    40333    48494    54896    62330    68530 
   77598   101218   135865   164566   175834   159471   112232    54148 
   11815    -3098   -11188   -52003  -119920  -169240  -193955  -219847 
 -238747  -225223  -179587  -128321   -97739   -73338   -21636    53233 
  117962   149757   157161   160211   159079   149559   146515   153479 
  137176    82394    28376    10652    16608    11291   -25152   -81763 
 -127288  -146470  -149919  -143837  -126396  -105812   -94887   -88582 
  -64150   -18167    21875    35545    33362    36766    52830    69399 
   70309    68555    87570   108903   105336    81368    49024    14678 
  -18401   -43981   -59193   -78026  -101936  -108838   -98722   -92908 
  -93975   -99815  -108705  -110415  -122899  -160560  -190126  -190663 
 -167581  -125332   -84257   -57847   -36671   -23851   -27957   -40092 
  -50885   -60750   -71029   -79167   -77666   -63604   -44900   -20688 
   18326    69107   123918   167403   171203   132546    86723    55116 
   19999   -33719   -91777  -134283  -157647  -168053  -161060  -125541 
  -74045   -31657    -4665     4622    -7877   -31610   -47217   -41085 
  -15943    14142    38187    59917    95286   147778   199277   226273 
  217386   183114   148134   114168    52341   -36253  -113857  -165339 
 -206002  -248798  -280135  -278549  -258312  -252992  -256143  -232474 
 -203216  -219630  -235137  -164241   -36038    60671    99595   105608 
  105900   121238   155944   187258   188770   152973    86419     2774 
  -82444  -150118  -179496  -173949  -163760  -158092  -131038   -69521 
   18803   115612   170387   139664    51102    -3866    36526   118124 
  162040   169939   177556   207253   247507   269672   279577   286647 
  249660   118016   -79166  -238004  -303779  -326254  -361209  -393707 
 -373742  -290176  -197272  -137689   -87498   -28437     8600    -7640 
  -78071  -176843  -257453  -275295  -242295  -229849  -265679  -302594 
 -311749  -309102  -293075  -222000   -89183    22881    51647    32383 
   -6619   -78989  -158437  -196953  -192771  -177626  -166356  -135379 
  -51351    71055   162885   186521   181042   199035   261217   347551 
  412152   434314   417719   383744   376153   402756   429716   421607 
  342288   194657    42816   -60313  -124224  -174155  -204860  -206198 
 -188245  -178624  -202231  -247280  -287706  -332715  -399324  -466678 
 -508408  -527777  -520290  -440667  -254276   -24781   117678   129689 
   98617   135448   271729   418844   458642   362069   148577  -118911 
 -311120  -381393  -397183  -390733  -371080  -381702  -390038  -307429 
 -156949   -14801   101855   202043   293528   350496   349332   337708 
  351162   354619   302408   190846   102762   135234   250625   337433 
  344560   274043   171679   103097    86293    98775   102894    61049 
  -19821   -99740  -161838  -215509  -267001  -297827  -276471  -212808 
 -156004  -127801  -119720  -112316   -69835    14717    97582   130053 
  101042    52314    23672    -1245   -46589   -91504  -101869   -85905 
  -78352   -86566   -87026   -65476   -44116   -27839    27314   113153 
  152195   124258    78878    53430    53207    47742     3441   -57130 
  -96147  -124966  -169998  -212490  -202564  -141584  -106944  -140584 
 -177530  -141159   -24473   129430   276640   402791   474205   449403 
  359526   254925   182593   202099   269512   274311   211794   147313 
  113506   107044   111384   119892   109893    23975  -149861  -337773 
 -469878  -535602  -529950  -460555  -391965  -361407  -327551  -262672 
 -190788  -130159   -65374    28311   138534   206085   194057   131987 
   87025   103464   138099   134152   131098   178529   264440   366711 
  455373   488982   448140   334899   167856     9296   -67272   -67974 
  -64091  -117491  -255015  -432182  -554391  -570385  -494961  -396208 
 -341426  -304796  -241115  -198568  -224544  -264597  -233015  -121385 
  -14496   -19542  -173196  -377681  -465367  -370918  -176829   -21021 
   10468   -32158   -26714    79544   237350   361095   411254   388713 
  308891   228123   202375   232032   279270   292947   255359   213439 
  202266   209312   237298   294674   358432   381932   328706   228386 
  139880    76031    23988   -27523   -94611  -186665  -282258  -341073 
 -351732  -338162  -334191  -361361  -392458  -368658  -289680  -221840 
 -196456  -188897  -183469  -179363  -180625  -188689  -162448   -72856 
   27569    85296   100491   110818   159841   213295   209148   175710 
  167218   187807   220417   237567   205429   120584    15843   -83593 
 -177792  -278613  -402701  -542819  -651241  -668574  -556904  -347606 
 -154387   -59372   -24269    20273   102012   222932   335348   376933 
  332389   220225   109668    85430   133132   156717   115956    75738 
   86832    97949    74844    72919   107659   107170    37922   -39789 
  -68441   -58944   -64531  -139596  -280332  -419058  -496106  -496178 
 -438302  -339352  -204023   -71857    16735    83563   155811   232988 
  322678   414574   442762   330342   106136   -68278   -77878    38482 
  172821   211626   149036   113496   154460   212720   234441   174673 
   51022   -59901  -116280  -121908  -113594  -152325  -267251  -405571 
 -475199  -424247  -264858   -73337    43012    47130      873   -33246 
  -22455    36509    75835    31879   -87494  -229045  -314939  -318276 
 -264856  -163441   -52108     6049     1963   -27465   -37846   -20561 
  -26661   -93003  -166695  -166731   -84603    32679   137436   198590 
  229917   267943   316428   369998   426788   461591   455992   410125 
  325182   231036   171212   146583   130065   103275    53508   -14495 
  -67980   -83716   -67912   -40552   -30077   -55639  -101681  -134331 
 -138789  -121431  -105650  -127858  -183176  -223782  -239859  -260604 
 -284282  -256547  -127300    56154   159627   118736    18912   -29214 
   -6629    37447    45369     4941   -37968   -43011   -10833    43340 
  100641   139120   145200   124194   103052   105576   123717   125326 
   86130     7671   -86291  -152597  -149788   -76337    13660    46769 
   14533   -22595   -29679   -19733    -5134    21205    56413    58264 
   -6652  -100366  -134327   -54450    81093   147661   101442    16892 
  -32295   -51757   -82379  -148861  -242814  -330739  -399262  -459403 
 -497403  -485803  -433683  -362735  -272581  -174520   -81688    25257 
  143535   229498   236452   131404   -27262  -106777   -75973   -17004 
    3806    -9831     6104    94475   220131   328886   396494   437250 
  484756   522113   481859   323358    82708  -102253  -105481     6401 
   63272    -3088  -128517  -198963  -165243   -60346    51440    78084 
  -19679  -157017  -232752  -241362  -238341  -264625  -330789  -405734 
 -426140  -392316  -377702  -389430  -336984  -171342    26106   136552 
  150648   144260   159301   195891   226917   211697   159080    94571 
   16209   -50079   -55234     2956    57571    34975   -47626  -104243 
 -111591  -125361  -176112  -242831  -278310  -229018  -106404    13720 
   86460   116134   131926   178990   268590   355218   395079   376051 
  305753   228896   204673   225221   223068   184097   157458   159422 
  170801   174959   152895    98030    28283   -29348   -60041   -73358 
  -84683   -99845  -118993  -132241  -135310  -136331  -132670  -128065 
 -138025  -157698  -182921  -229386  -297344  -360835  -380671  -313942 
 -162024    -3945    80920   107888   153505   259547   397683   494683 
  500994   434207   336021   239617   180742   175919   191455   167119 
   78334   -47665  -169412  -243626  -247598  -215617  -199453  -217263 
 -253806  -278979  -276764  -246242  -193568  -143902  -121322  -123817 
 -128759  -112037   -75957   -50191   -50300   -47682   -13188    35798 
   74026   101705   131962   173755   205030   191058   137950    86732 
   62529    46889    10172   -40488   -76548   -81244   -45553    26400 
  100455   139175   135690    95516    33846   -10288   -24483   -42764 
  -80911  -121648  -147791  -144052  -111312   -78483   -69131   -78978 
  -90968   -98211   -99420   -77128   -13624    60175    73668    16296 
  -29981    -7766    41528    58139    40900     7015   -47940  -108394 
 -134560  -131901  -145637  -185531  -223352  -230741  -197020  -151145 
 -134176  -139052  -145511  -163941  -182718  -162486   -99710   -40080 
  -25327   -41094   -51205   -45926   -24840     9953    45496    68898 
   76840    74631    64201    37224    -6699   -45555   -64591   -78473 
  -99078  -118196  -121777   -97322   -48530    11203    77093   130059 
  147990   150393   162808   165912   125698    41491   -41877   -66369 
  -34730   -18705   -59888  -119186  -138943  -118833  -113090  -139679 
 -142774   -91740   -43546   -48690   -69234   -44001    29671   115559 
  191542   246669   262080   240813   215895   208751   209336   192871 
  147064    65895   -46312  -143860  -183572  -170361  -137998  -132530 
 -158706  -169247  -156537  -147552  -141631  -137595  -142468  -150872 
 -150564  -116094   -31326    66774   127617   146447   146478   161058 
  210989   264628   288001   290138   284540   281479   290197   304667 
  314805   301943   241230   143304    51721   -12968   -64237  -113729 
 -163781  -217177  -270506  -319622  -363944  -399386  -433824  -476215 
 -498385  -448305  -296774   -98426    21072    30560    42955   146834 
  325025   497653   576194   543611   460149   373999   289553   222168 
  204971   220225   208066   144584    54588   -15884   -22985    37175 
  103872    97415     9669   -86090  -127709  -123655  -116509  -135966 
 -186344  -242684  -277295  -285720  -272898  -242075  -194708  -148814 
 -139212  -164645  -175998  -130373   -37657    45701    81144    89680 
  111423   160299   221559   263394   270253   256289   230847   192067 
  142045    80732    10416   -57215  -116098  -171656  -218811  -231502 
 -200061  -158430  -138615  -137157  -148399  -177324  -217701  -251048 
 -257783  -228069  -174470  -116499   -52785    23457   102064   166967 
  210409   243952   283878   318207   328949   321870   295681   230636 
  128349    32382   -15363   -34358   -74091  -147541  -233740  -297181 
 -321099  -327586  -329295  -326227  -332541  -336981  -306762  -254053 
 -226387  -231500  -227086  -174530   -59716    94070   214439   255124 
  247712   236924   244858   270339   292053   314128   338649   317597 
  221353    98315    32584    49590    83775    66389    -3723   -76706 
