Origin Time       2011/03/11 14:46:00
Lat.              38.103
Long.             142.860
Depth. (km)       24
Mag.              9.0
Station Code      MYG001
Station Lat.      38.9017
Station Long.     141.5709
Station Height(m) 36
Record Time       2011/03/11 14:46:42
Sampling Freq(Hz) 100Hz
Duration Time(s)  300
Dir.              N-S
Scale Factor      3920(gal)/6182761
Max. Acc. (gal)   412.265
Last Correction   2011/03/11 14:46:27
Memo.             
[...]
  -30357   -29433   -25879   -17478   -11158      952    17822    21338 
    6847    -8034    -4054     5726     2593      647     9677    20074 
   25393    24504    17422     6343     1349     -774   -16473   -32256 
  -36498   -47268   -54187   -36193   -15206    -7768     4286    21628 
   31950    50118    73624    67326    39942    28479    18157    -5983 
  -15017    -8484   -13803   -31544   -39143   -33459   -37092   -36278 
  -16886   -13313   -13353    14834    28067      193   -20330    -7674 
    1000   -10736   -19248   -27149   -37943   -35705   -22957    -4564 
   15994    27367    22759     7594      471    -4258   -25098   -44515 
  -46182   -31884    -8358     7544    17763    23990    15737     9763 
   17725    24913    23892    27308    46036    55791    40327    21999 
    4586   -26610   -60598   -69816   -56313   -45380   -36698   -18910 
    2785     6417   -14401   -22227    -5644     5095    13094    38230 
   64124    57623    26309     4018    -9261   -22508   -39294   -66794 
  -78917   -58349   -35282   -16253    19261    52654    56384    46967 
   42397    32539    19688    19029    20324     9184    -2869   -15952 
  -42627   -67564   -79102   -83892   -78405   -63929   -45238   -24987 
   -6301    20690    42218    39574    52131    95967   108520    67513 
   30044     8949   -35175   -83680   -92241   -77945   -78850   -84947 
  -69478   -49117   -38958   -11424    32475    49666    43564    51551 
   52446    17070    -7320     8041    15344    11603    36208    51621 
   28305    27588    60991    59884    21796     -713   -15460   -42493 
  -56686   -58192   -69064   -78083   -71710   -62404   -50462   -14546 
   25807    31401    35171    72303    97798    74472    17554   -23009 
  -12329    -6825   -40009   -51444   -40746   -61312   -95755   -91955 
  -43430     2492     6010    -1839    25218    63412    70818    64784 
   73247    76566    55199    34731    30695     9559   -37351   -62109 
  -58635   -71773   -86184   -70091   -52427   -40167   -18537     2246 
   28508    54280    53626    43395    50015    59141    51916    43352 
   43892    30332   -10565   -65221  -102898  -100795   -81217   -74169 
  -60849    -9375    42418    46204    49388    81880    86226    53291 
   28539    14525    -8523   -31128   -32805   -25548   -26306   -26475 
  -25271   -20208   -12467   -15875   -15377    -3886    -7546   -27542 
  -25185    15763    49718    55688    71992    85122    47672    -3866 
  -18538   -30751   -62858   -66984   -35543   -22238   -28829    -7063 
   30917    27469   -13131   -35041   -35621   -42342   -32328    -7300 
  -10815   -34548   -39848   -11024    26513    35072    33355    63140 
  103701    90420    32002    11740    19413   -32462  -104116   -93779 
  -54896   -74741   -81927   -15382    40013    27697    13438    39823 
   42753     -730   -14583     7371     1456   -11203    19474    41738 
    6025   -23386   -13658   -23423   -50805   -42160   -20160   -27195 
  -23177    19153    42752    30826    33192    49057    38944    15222 
    9681    -6733   -59260   -95411   -76972   -33199    -9030   -10993 
    9400    64738    92831    64746    29609    22134    14519    -6511 
  -20410   -24291   -34034   -57926   -70734   -51631   -31544   -34501 
  -36943   -25097    -8377    21674    50164    41064    20358    16534 
   -1045   -39534   -54739   -32102    -6436    10978    19864    -2668 
  -46144   -75474   -85566   -74322   -24425    39858    82633   106854 
   93642    43969    12237    -5368   -48126   -92244   -89742   -44399 
  -17466   -35310   -34311    -8815   -26814   -48096   -12511    31971 
   40084    30433    38234    58484    63983    46678    17025    10506 
    9798   -26062   -43183   -37342   -77512  -113646   -66742     8164 
   30208    31000    44610    21237   -24332   -12088    39114    44811 
   -4971   -45966   -31615    -4822   -37003   -69175   -27930     -796 
  -39667   -56917   -15384    15781     2428        3    33271    52260 
   27997    -2646     3896    23364     7252   -16238     3299    24573 
   -7640   -37755    -1298    39789    17051   -21535   -27648   -32299 
  -57293   -78603   -81239   -57679    -4371    32772    31389    38748 
   53959    46453    44860    72421    85360    33431   -29295   -31446 
  -34480   -76648   -73834   -26059   -29280   -41561    21693    70907 
   41237     3428   -10623    -6387    12383    17694    -4325   -23166 
    -903    35780    38987    23329     7953   -15496   -36076   -49440 
  -71393   -84958   -47629    38910   119062   153749   134104    50844 
  -60754  -126774  -128894   -94034   -53567   -35538   -13989    17915 
    9416   -34010   -82019  -101138   -57868     7953    70745   118884 
  108388    68076    24155   -23151   -12317    28436    14752   -27556 
  -70183  -102789   -90604   -39245    15379    33852    18489     1611 
  -28029   -65439   -68658   -34690     -376    24823    90163   174575 
  160964    73696    37153    19386   -37237   -62521   -40894   -54803 
 -112916  -134898   -96934   -72855   -89490   -65206    28421    96720 
  100985   108471   126976   105056    35433   -30226   -38897   -27909 
  -31883      861    50345    27897   -44497   -74670   -51261   -30230 
  -53110   -96242   -89209   -53283   -72116   -87360     9017   137898 
  157943   107556    85602    62542    -3052   -65989   -70485   -11677 
   42992    46469    27490    -3005   -50535  -109290  -157640  -148410 
  -97674   -61756   -18237    60478   106286    90887    90175    97510 
   70039    51671    17731   -61275   -93643   -75446   -77357   -55414 
    8552    19886   -37411   -60635   -21846    -6665    -6632    65698 
  137569   108609    55707    33937     -780   -55238   -95937   -85380 
  -40833   -28803   -46545   -30369    16976    37117    48002    90280 
  120655   102439    53078   -12781   -87307  -131744  -114618   -87438 
  -86043   -62289   -16128    -1333     -863    25106    24984   -21280 
  -18051    32631    19356   -34156   -21519    28126    42155    44404 
   35230   -14110   -71421  -101556   -88624   -59273   -44387     3981 
   60572    31223    -9627    44747   103606    78912    54048    85421 
   95394    43830    -9593   -49865  -103613  -138071  -130819   -98573 
  -68989   -73638   -58988    10998    29428   -14763    26838   140386 
  163695   105373    75483    66064    28164   -26995   -64233   -79323 
  -75519   -50317   -52567   -82047   -62117    -9874    19093    23170 
    4948   -17257   -16950    -8270   -30590   -62965   -40007    34905 
   87707    76147    55319    54857    26312   -20128   -56383   -91046 
 -109835   -94883   -53331   -30525   -23858    51410   157777   168473 
  102590    41949    -2463   -39133   -66369   -64365   -31540   -14008 
  -26161   -53195   -69196   -23855    37605    31006     8632    48509 
   97548    60406   -18075   -26419    25639    56824    25555   -21786 
  -27546   -48155  -107628  -104419   -35675    -4926   -14436   -17676 
  -13956     5322    40345    64159    67238    62754    59086    42472 
   21548    16351   -15186   -66585   -35204    73803   116219    28624 
  -61668   -55043   -46988   -71621   -51837   -31009   -50867   -59049 
  -20226    47335    62193    23731    10464    14893    20537    27446 
   13666   -24815   -62130   -40662    15037    38140    66360    92865 
   68806    41515    11675   -51280   -82078   -86375  -127134  -132421 
  -63290    -2894    15265    10441    26776    77653    85872    28276 
  -14684    -4990      642   -24639   -32812   -19059    -5486    10002 
   15437    30091    64914    70825    57472    59306    46775     9310 
  -37842   -88535  -128058  -134772  -105837   -76944   -56416   -27050 
    5832    55760   103595    97663    61473    39651    19952   -12395 
  -28818    -7177    30219    59609    57766     3643   -37386    -4940 
    4684   -63440   -86896   -19953    24420    25211    65939    98903 
   58392    48285   101321    93673      487   -76075   -81934   -94661 
 -159664  -165288   -85361   -17125    11164     1546   -13043    16008 
   75433   111987    59732   -28213   -36585   -23344   -60696   -62579 
   26810   121102   117225    47130    19280    33293    49124    86310 
  109716    83935    31672   -53200  -112934   -78507   -53460  -105159 
 -116178   -50656     -243    21651    37506    51692    99747   156362 
  151988   121019   110520    67974   -31044  -115284  -119511  -101755 
 -159377  -225525  -217751  -182862  -108538    20180   107812   114929 
   79345    38194    20651    29706    80577   158645   185472   155743 
  119190    78320    37679     2597   -49636  -109821  -131579  -108919 
  -86142   -71882   -20658    46135    27036   -69921  -112968   -65740 
  -16342     4751    25855    26818    25292    57583    52891   -14673 
  -34948    49932   150510   164238   106066    55502    31544   -20882 
 -116904  -198464  -222500  -185163   -92445    30904   119174   142557 
  130318    78818    14538     2770    14844   -21872  -108474  -185183 
 -220469  -226777  -200270  -135701   -16548   143888   226025   190113 
  161471   184475   168253    84285      658   -42429   -62938   -61609 
  -30662   -21496   -58402  -106650  -168027  -226337  -252927  -283114 
 -325144  -328804  -269600  -167460   -48844    59312   126001   152690 
  180270   241333   307618   321055   297131   282847   246783   184166 
  172975   199139   164943    58012   -60268  -155162  -236147  -299260 
 -317840  -284607  -204213  -105912   -42874    -9503    36371    71676 
   66003    48976    18760   -31205   -34773   -16169   -66772  -126265 
 -121719   -89167   -21408   122385   281868   332773   264141   171257 
   86334     5787   -36936   -20190    50239   108004    64763   -36371 
  -92965  -117185  -150403  -157124  -106442   -34642     3406    -9891 
  -73171  -176909  -259253  -240792  -113915    41941   130522   138908 
  129186   120374    97242    96724   135721   164315   162004   153063 
  146661   136430   127810   124457    89129   -20973  -166767  -269032 
 -325018  -376376  -424141  -445608  -412811  -310524  -179953   -90764 
  -68577   -62865    -7144    95692   195637   262495   304924   321642 
  279217   200906   158490   170437   225224   308285   343450   263269 
  154764   116931    73238   -50388  -200931  -325364  -401347  -415635 
 -374868  -304717  -256257  -234871  -179909   -99102   -69517   -77968 
  -42979    44450   141460   225147   298558   370610   423834   416379 
  300893    99580   -46142   -56411    -9993    18218    21216    28758 
   56539    42345   -43275  -133317  -206291  -288818  -341234  -325566 
 -285440  -243790  -150481     9004   154932   213306   185936   109982 
   60545    75366    85608    81077   101063   102134    54832   -18144 
  -66173   -37077    36256    77420    49110   -17193   -56303   -56856 
  -29759    19464    53182    40306    -6705   -66608  -138608  -181278 
 -125213    16166   153688   197125   144617    62325    -6116   -10302 
   30856    19869   -39826  -108599  -167096  -149087   -86994   -66470 
  -39031    19659    36520    12189     5584    16694    22914    33607 
   30828    -9176   -43851   -49524   -47740   -10452    99836   237118 
  300854   248604   146302    70590    43368    56025    67815    45700 
   14876    12815    28056    24854   -13106   -94251  -199465  -271349 
 -281043  -243332  -188310  -149598  -120617   -69864   -16261    -1505 
  -27460   -38303    40251   168212   224918   210388   208934   212555 
  149562    32270   -71157  -146552  -187932  -199710  -216764  -207597 
 -134049   -22304    88737   113030     -439  -130799  -152931   -98019 
  -23502    65919   148036   205324   252995   257504   166581    55961 
   54249   121707   115574    31512   -19811    -6752     4932   -34602 
 -102215  -142314  -149125  -165860  -203042  -226472  -202423  -103790 
   51914   186633   271440   337482   358809   305527   230766   158447 
   61134   -31065   -71952   -67495   -44617   -36156   -78996  -166831 
 -223046  -198529  -126202   -26508    61933    68234    25572   -23088 
 -101363  -164254  -154084   -74999    39828   107459    85694    47462 
   47146    58010    59188    48294    50216   115921   199213   184684 
   46506  -117624  -173512  -146809  -185966  -273501  -304251  -272665 
 -167294      330   120927   122392    55780    11290   -13545   -44687 
  -30851    60403   197055   300922   311588   248563   160693   102112 
   62785   -31684  -145994  -171735  -123065  -113713  -183016  -280657 
 -361510  -388928  -351052  -276635  -168475     1533   206761   362191 
  436502   454593   405468   292895   174525    74134    -5253   -46881 
  -44360    27823   152626   222317   169227    45666   -50974   -94549 
  -94519   -25235    68128    86376     7925  -136024  -279380  -331592 
 -276519  -199639  -162150  -118957   -69317   -70547   -87419   -98550 
 -106469   -51054    44991    93690    71206   -14643  -133714  -217763 
 -227096  -198797  -155090   -71337    38749   162311   294939   405926 
  493151   539275   518508   462667   375325   236467    98916    15034 
  -48193  -126217  -204936  -271821  -314056  -324168  -297986  -208969 
  -99242   -53048   -65110  -101567  -139166  -141301  -109233   -56364 
   30590   144323   255017   345097   397843   383185   286018   150921 
   62901    47360    59122    90600   146257   154788    43012  -163065 
 -342799  -423933  -461466  -490107  -490912  -475846  -426620  -285155 
  -86443    13950   -45872  -126519  -162369  -203040  -175709   -37890 
  123582   280722   441527   581686   645618   577001   419112   276916 
  215128   212942   168476    51669   -65398  -176939  -281532  -324467 
 -352930  -379207  -286101  -100575    28758    18318  -110396  -210968 
 -218373  -194242  -139615   -66638   -10351    13856   -23327   -53195 
    1044    67955    96049   105604    84725    56587    76261   123324 
  160703   205110   234390   186120    85194     6205   -11734    37613 
  105624   151428   171078   124401    30442   -14114    -9554   -22272 
  -67027  -119992  -143184  -123565   -88164   -49508    -1150    39267 
   46188    34545    40465    57164    45074      204   -36111   -38250 
  -31702   -38873   -30468    31391   113609   115995    12233   -88769 
 -103536   -90411  -126800  -181805  -211573  -233303  -230494  -170011 
  -95751   -74806  -114468  -165722  -179072  -158325  -134918   -92331 
   -9121    60632    91610   140524   207842   235181   224197   207723 
  175032   118365    79176    84451   101614   103886    90248    45820 
  -16512   -48186   -28561     5916   -26931  -132721  -191743  -155279 
  -66659    52070   113235    74786    48957    33429   -58165  -155735 
 -170291  -120852   -60154   -15626    44020   144859   223090   203944 
  110164    27294     8035     8838   -45295  -126681  -181203  -217816 
 -226807  -207781  -183449  -122300     4210   151493   231986   225618 
  198166   143746    13977  -134687  -210925  -195917  -122081   -21714 
   62501   103695   134712   156647   142537   123080   116216   112086 
  101899    43667   -64338  -152204  -186151  -185894  -163543  -116110 
  -51406     1736    23531    41356    84981   133160   165238   175504 
  159397   136710    96539    16210   -56326   -67456   -29974   -18794 
  -63954   -80461   -38953     2544    30429    39458    40122    65437 
   56963   -52447  -184838  -235124  -208029  -139460   -36753    67958 
  134743   183345   221239   218350   218066   243753   210539   103925 
   32791    40228    22422   -79779  -171985  -201178  -227512  -261219 
 -260021  -236009  -197351  -112365    -8048    65916   142682   252982 
  347766   401880   409503   305591    80785  -146513  -256911  -293379 
 -373503  -428000  -360243  -259482  -184251  -117647   -73307   -42682 
  -19571   -14580   -14064     1524    39969    89846   124994   121383 
   99843   113076   158189   200348   229288   249417   249888   173976 
   28230   -80548  -137005  -214071  -311859  -371652  -348359  -258880 
 -190180  -172312  -125867   -25502    80779   206209   348234   415829 
  377502   308895   252125   180335    89258    11072   -20322    -9875 
  -17554   -64395   -99986  -101952   -94409   -94181  -122131  -197453 
 -289175  -357571  -396769  -402983  -384667  -343527  -237768   -68104 
   81214   165469   231411   301340   351464   391129   402129   325663 
  189696    80643    22380   -11425   -11448    43614    84450    38016 
  -44914  -108090  -173309  -232574  -224753  -132458   -17999    18056 
  -45630   -97412   -83468   -50385     8995    65005    47980    -3429 
  -54418  -133515  -229183  -306927  -349666  -352039  -326766  -294408 
 -253060  -182631   -85437    16006   108450   193942   281083   368114 
  449907   516008   538498   507002   426518   292647   133337    11314 
  -46814   -81205  -142782  -210299  -226235  -197867  -155709  -119081 
 -134812  -192807  -227613  -236853  -219782  -130546    32866   194484 
  239441   158208    72098    28093     5209    12505    34582    76820 
  150131   213554   246843   223222   123407     9664   -65687  -124449 
 -194677  -241563  -222856  -162617   -91242   -42189   -53546   -77938 
  -61475   -42732   -60412  -100444  -129812  -118091   -61482     6889 
   46719    65209    94204   115994   106684    83102    50843     6795 
  -26669   -38916   -51297   -70316   -85180   -95241  -103572  -133178 
 -187415  -192747   -93602    58766   159193   165921   161458   201600 
  228875   242722   267686   248364   204022   211269   235310   204705 
  127237    33101   -66364  -146504  -201605  -252072  -299855  -325661 
 -287682  -198471  -158525  -193112  -212071  -144079    -5316   108381 
  134926   138433   175914   190512   146661   108444   123752   171410 
  214432   219702   166044    68837   -40997  -148403  -234331  -281174 
 -285772  -259525  -244757  -231450  -148342   -32004    -2106   -63769 
 -110540  -101144   -72365   -21500    38935    54878    45526    57894 
   70636    43478    -6140   -17768    24896    85754   130257   117323 
   20298   -86962  -102513   -80721  -124961  -177732  -150471   -75258 
   -8759    54616   134513   217769   300291   362705   340288   218407 
   36409  -138690  -220721  -236052  -267360  -274445  -205948   -82376 
   54046    96687    36286    20856    46160    22712     5487    29600 
   66925   115417   137156    91274    -3362   -89171   -88385    -3258 
   48610    10730   -59468  -112190  -117987   -60862    31104   107503 
  137904   145436   135637    64021   -26802   -44356   -24518   -57755 
 -130098  -187470  -221059  -227349  -219142  -231825  -261100  -264668 
 -206007   -81361    61268   157304   206886   260106   312455   312349 
  250813   160421    79945    40475    45524    66935    55111    10067 
    8810    71698   132902   153460   135455    95213    41826   -49801 
 -178172  -277729  -312579  -300873  -248051  -174416  -106267   -25817 
   67415   147322   196917   194810   143698    72873     8411   -20085 
   -3852    28982    42664    25609     8949    21312    54696    88715 
   85244    14404   -82355  -135919  -158031  -200485  -219697  -147521 
  -23191    89438   167059   195630   181249   126488    41694   -31779 
 -105051  -204031  -278682  -283150  -219536  -119761   -47975   -22213 
   15635    90174   159508   198023   204537   169455   120248   113559 
  134449   129763   107430    81884    40314   -10667   -55064   -75086 
