Origin Time       2011/03/11 14:46:00
Lat.              38.103
Long.             142.860
Depth. (km)       24
Mag.              9.0
Station Code      MYG013
Station Lat.      38.2661
Station Long.     140.9286
Station Height(m) 5
Record Time       2011/03/11 14:46:50
Sampling Freq(Hz) 100Hz
Duration Time(s)  300
Dir.              E-W
Scale Factor      3920(gal)/6182761
Max. Acc. (gal)   982.266
Last Correction   2011/03/11 14:46:35
Memo.             
[...]
   44388    58976    67122    77651    94042   111798   124707   127279 
  116253    94539    72132    60321    59817    60431    57050    55586 
   62751    77495    92604   101732   103299    97182    81296    57303 
   33580    16091     4110    -5218   -15110   -26116   -34849   -40171 
  -43734   -48122   -56712   -67098   -73923   -79451   -88919  -102161 
 -115086  -122341  -120819  -114329  -109290  -106395  -102454   -97973 
  -96641   -97671   -96409   -93359   -93085   -94357   -89939   -77249 
  -64646   -59028   -54679   -46481   -36636   -26518   -16523    -4885 
   10302    28184    50194    74024    94566   113450   130101   140451 
  146612   152396   153611   142630   122891   100862    78816    68114 
   74555    86596    97154   103813    97470    73249    39280    10830 
   -3117    -9334   -20406   -36744   -49977   -61862   -77036   -90174 
  -99733  -106819  -112186  -121751  -131889  -138954  -151388  -166044 
 -172056  -171093  -165163  -147276  -117796   -88713   -65655   -46608 
  -30349   -14385     2056    20290    43606    63435    68825    65868 
   64081    66125    71042    72341    66269    54470    39047    26885 
   25828    34037    42033    46545    53595    64309    73193    80085 
   87274    93734   101854   111195   113953   111584   112101   116729 
  124698   135893   148741   160368   167389   167614   158995   140969 
  118497    96346    73179    50483    35457    28203    20278     5176 
  -16225   -34177   -41736   -44991   -48685   -50233   -52557   -63829 
  -83006   -97769   -98900   -84368   -59688   -37490   -20271    -3369 
    7219    10264    18168    32879    43288    45079    42002    39253 
   44188    59437    75799    85308    91697    95999    89997    78046 
   74344    71975    59199    46589    46149    53566    58313    59197 
   61996    67925    71826    65349    52631    45275    38755    26191 
   12033     2164    -1784    -6604   -17212   -29025   -41260   -54578 
  -62654   -61578   -55766   -52497   -56124   -64671   -70411   -69375 
  -66001   -63681   -63167   -68636   -81438   -94842  -104244  -114935 
 -132035  -146579  -144938  -131837  -123493  -124665  -131206  -134444 
 -121909   -95125   -67923   -46629   -31615   -22769   -16112    -5169 
   10983    23925    27575    26520    28071    36380    51402    66492 
   73252    70609    64410    61387    64038    68429    69704    67286 
   63297    62060    66083    70750    75238    85336    98419   106518 
  108450   109197   111349   108809    93754    69667    52304    48449 
   45211    32104    12585    -4758   -15274   -21549   -26307   -31238 
  -33748   -28241   -26331   -39925   -54958   -59997   -61812   -67121 
  -80386  -102127  -122337  -128338  -117626  -101677   -93016   -90504 
  -84128   -63887   -30033      506    17120    27145    34244    34541 
   31189    34957    50944    71753    87533    92806    86493    76120 
   74104    83747    94026    94693    90447    90366    91440    90055 
   97313   114891   124708   121498   116076   113991   115868   120124 
  122690   122652   119854   109488    92038    79047    75638    72659 
   63040    47536    29225    18370    24819    39725    46534    44378 
   44180    53187    71437    89784    96028    87385    66914    42588 
   26895    19547    11142     3549     -776   -10380   -23747   -28584 
  -25177   -17759    -8645    -8872   -17321   -20468   -20679   -23370 
  -27686   -38727   -54087   -62731   -65757   -67174   -59185   -40893 
  -26739   -25896   -33790   -37538   -30792   -25261   -26224   -25459 
  -26079   -32309   -37653   -37198   -30236   -23718   -26212   -33174 
  -38632   -42695   -40432   -29971   -17728    -7995    -2660    -2538 
   -8401   -20362   -31818   -35962   -39473   -52404   -67336   -71002 
  -63653   -52554   -44170   -41384   -40669   -36016   -23817    -9373 
   -2700    -5343   -18384   -38258   -40436   -13698    11783     8230 
  -12935   -30326   -39393   -40036   -35688   -33814   -30912   -22203 
  -13731    -6760     6539    21000    19643     9507    13421    24836 
   26223    27013    41022    58762    63853    63254    71226    77305 
   67206    43698    18194     3494     1463      466    -5422    -8130 
    -754    15196    34930    50553    53586    45779    41825    48970 
   62456    85020   111403   121560   113367    97129    81891    80794 
   97123   121031   135752   135449   137959   149272   157132   157941 
  149659   127383    95124    76050    87948   101186    81572    39654 
   -6051   -41261   -50891   -48224   -57957   -76262   -88363   -94876 
  -93556   -79072   -62245   -49817   -41802   -40222   -35708   -24262 
   -9839     8277    21864    26340    20074   -10645   -38777    -5574 
   71520   119362   118320   102436    93624    86675    92113   122519 
  144623   127939    87905    51504    38185    45815    44952    27279 
    8252   -23568   -75155  -120189  -148720  -169190  -187238  -206047 
 -210876  -197325  -184733  -170802  -148536  -134440  -128675  -106999 
  -67967   -36842   -27463   -38831   -59997   -64924   -42104   -11465 
    5955     2954   -15291   -30270   -31406   -25456   -16966    -5223 
     203    -6008    -2215    19478    35769    42082    48114    48397 
   39357    29764    28232    34669    43205    51392    59428    64926 
   69668    73290    69720    63731    62908    70354    80419    72290 
   44923    17630    -7957   -33552   -44356   -38612   -42084   -62812 
  -81800   -92378   -92766   -78793   -64123   -67450   -88499  -111544 
 -119828   -98932   -53290   -22675   -26839   -27649    -7389     3432 
    1603     9298    22431    32342    44758    57202    57066    33442 
    4285    17243    66567    80850    36506   -15218   -28794    -7025 
   28619    71409    96671    81036    64949    78013    95373   104846 
  107751   112035   127785   139151   136729   132222   126812   110920 
   91321    91801   101353    83500    49513    34696    36223    26326 
   -5393   -41697   -67577   -75876   -59474   -38034   -40817   -61927 
  -77564   -75149   -52567   -20902    -5387   -17282   -31977   -21774 
    4723    20027    16989     8934     3818     3394    15907    40165 
   54620    46028    25428    12011    16290    34298    53144    49825 
   17153   -10669   -14996   -15452   -21403   -25700   -22140   -23235 
  -41368   -45260   -11733    24095    30204    17382     5818     4316 
   18510    37588    34934    11554   -11793   -19383     6374    52232 
   74040    61161    39850    20479    -1098    -7587     8948    14982 
   -8856   -31327   -19343    19630    55101    58827    21726   -18829 
  -16210     8276     7714    -5513     -110    12113    16348    27340 
   40981    32802    10170    -1801     3285    18401    35062    46480 
   47658    32958     8104     3022    34173    61303    43303    14800 
   23102    45634    50926    51995    59236    54617    26074    -6589 
  -18990    -8025    12657    18654      135   -20288   -18418    -9240 
  -26598   -69056   -99480   -83051   -34334    -9391   -31460   -77460 
 -108438  -100664   -72723   -48566   -31318   -31677   -53881   -70540 
  -61424   -32676    -3519     -983   -12906     8482    58511    88135 
   89660    88965    93462   101630   111317   116408   126708   149428 
  164637   155095   121768    70273    24512    22106    43550    28149 
   -6978   -17547   -32269   -57689   -67873   -86112  -106241   -92393 
  -64419   -49497   -57737   -80666   -86444   -74206   -50562   -11392 
   19274    31866    44833    57976    67214    78941    96907   126185 
  160945   184390   196922   206378   207486   199254   192105   186823 
  169431   132679    86333    38602    -5282   -35853   -60247   -87681 
 -111024  -132156  -145936  -142317  -143654  -161493  -167232  -149789 
 -135381  -133379  -127277  -118138  -115058  -114446  -106892   -92325 
  -93095  -102451   -78906   -31552      -76    11692    17324    19328 
    8314    -3064     9522    24489    26985    35867    39738    31330 
   32341    45433    52216    41427    31875    40563    51054    56364 
   61046    56577    46955    36599    19021    11434    22438    32225 
   35829    24308   -10699   -41015   -52634   -59282   -53471   -23203 
   14139    32209    23098   -11062   -55980   -66378   -19880    25014 
   12766   -23062   -28787     -777    34084    49417    44133    33457 
   23260    13047     3645      820    -6403   -35840   -57697   -47217 
  -34253   -29985   -23060   -25965   -42492   -50767   -43938   -42343 
  -53737   -62225   -63281   -57518   -31599     6053    25583    27293 
   27030    22533    23513    40615    55170    71992   106026   119616 
   89298    59913    74662   120542   147280   126797    97479    94516 
   94684    94996   111924   127608   123830    93954    47890    14663 
    3434     3669     -567   -21837   -45657   -53353   -50216   -44691 
  -39248   -40614   -56479   -82656  -104403  -112963  -108144   -91744 
  -70422   -58486   -56781   -44763   -21593    -4666     7833    14754 
    8492     5419    17330    33416    50649    73617    95589    96062 
   70264    55419    74167    98224    97144    64806    24209     6201 
    6243      254   -11557    -9363    -1369   -18199   -55528   -77391 
  -61588   -27989   -14512   -19377   -12760    11629    42508    71446 
   79635    56765    24179    -5270   -24953    -5715    45877    74597 
   67368    58132    57369    65369    93122   130013   151651   149486 
  136386   126517   113986    97325    81350    55876    20267   -15299 
  -46694   -69787   -86532  -103098  -115451  -118497  -120436  -122989 
 -114514  -101462   -98798   -92658   -65519   -37477   -31845   -34337 
  -24547    -4516    17036    28287    12880   -22022   -35325    -5554 
   29332    33996    26583    29842    43078    66555   102389   137697 
  152071   144818   132274   121279   107285    87947    66668    50375 
   45241    44818    34172    15971     3491    -5430   -14461   -16339 
  -12619   -16091   -28015   -32651   -17767    12781    40524    48038 
   49435    66363    79670    67961    47408    30419     9606    -9343 
  -11449    -2639    -3419   -20667   -50565   -81257   -82566   -45927 
  -16011   -31419   -65897   -74313   -50721   -12288    17277    32343 
   51023    57555    29779       11    -8405   -20431   -45172   -61750 
  -64371   -64179   -65346   -66286   -69711   -72775   -63478   -40069 
  -16110    -6119    -7011     2531    26442    45677    56977    65448 
   64637    54113    39711    29338    31157    43688    62089    74218 
   64773    44127    39860    56247    67363    61693    58271    59856 
   55312    57524    69390    62431    34819    16405     9125     1811 
    3643    13580    14903     6599    -1282    -9087   -20727   -34111 
  -40071   -29152   -12936   -11347   -20518   -25323   -28472   -38780 
  -48092   -52929   -63178   -79180   -88889   -74110   -41692   -24387 
  -21955   -12236     3935    19174    29717    33914    37552    33045 
   15877    14341    31184    35459    35109    47245    63777    78124 
   69048    35051    20640    39715    62274    64557    50743    43667 
   46561    39041    18963     7271     3859    -6929   -20005   -26859 
  -22858    -9255    -4105   -12070   -19854   -17150    -3008     5815 
     616      639    17357    34260    31074    16922    18789    30492 
   37700    63303   102277   106140    78736    63156    56411    36588 
   19237    30280    55245    55823    29478    10480    16916    26501 
   15156    -5808   -22774   -42601   -65353   -81324   -79442   -53592 
  -21128    -6101    -3526     5939    24641    43779    52664    43246 
   22977     2750   -19128   -42620   -62625   -76495   -77509   -68949 
  -60888   -42828   -16541    -3781     -769     5190    18630    42012 
   58563    53007    32101     5296   -12500    -2802    24311    33561 
   15140      739    14152    39507    53983    57298    58561    61483 
   68418    83538   100969   112974   127707   133390    97815    45493 
   31405    41470    34886    19584     8863    -2089   -14462   -31832 
  -45255   -44470   -42746   -45196   -51768   -64727   -73333   -83193 
 -103940  -119905  -116644   -92581   -68648   -72026   -91730  -104907 
  -98426   -62691   -16984     7823     9465     6803    11115    23460 
   46227    71696    93070   113686   123257   115042    98176    76091 
   54054    39839    19026   -25200   -67869   -83750   -94754  -111889 
 -123080  -142671  -176379  -200663  -214216  -228350  -237914  -247589 
 -263141  -266866  -247930  -221382  -198763  -165372  -122038  -111000 
 -127035  -116202   -96508  -101707  -104146  -104576  -120357  -121869 
  -93381   -56986   -21308    18514    57416    89124   104224   103208 
  102578    99575    87576    73404    66975    92625   145742   179810 
  190614   211707   251084   304101   354784   381734   404810   446227 
  486385   513867   526062   505662   464214   426369   380356   319906 
  261303   193711   110847    42218   -19783  -106997  -194707  -232171 
 -220272  -227854  -279731  -317009  -342819  -387265  -428532  -479189 
 -523525  -524206  -525657  -528425  -493163  -445937  -393858  -323271 
 -259968  -237574  -238643  -204887  -152320  -122457   -95788   -93289 
 -118977  -118418  -110278  -123281  -139476  -159794  -181459  -195008 
 -199616  -176572  -122235   -59789    15351    94554   119666    64082 
  -28003   -73921   -39405    -1924   -46360  -145942  -205712  -189949 
 -160330  -176786  -224951  -257377  -253166  -199149   -54545   204958 
  631710  1250486  1556767   881235   -74085  -104657   168213   -66455 
 -173147  -113296  -285777  -361028  -360104  -428074  -396283  -378978 
 -436273  -420815  -328202  -218747  -110566    -3583   109040   197360 
  191399    83489   -43333   -92787   -33860    33443     2889   -69291 
  -94029   -59201    33678   134475   172172   159430   143386   140790 
  151083   165620   172810   171346   169114   169706   174213   177076 
  167037   163013   193708   237771   268503   299841   336315   365964 
  391411   417726   434257   435446   438071   428240   378739   318901 
  273031   236913   220946   224036   225803   211675   196611   201861 
  202877   136426   -13150  -136822  -177682  -226617  -271209  -259564 
 -260574  -269326  -246227  -226368  -205009  -174467  -148505  -102594 
  -36792    18738    57430    54858   -13854   -72415   -43269   -18449 
  -73247  -110298   -93731   -82361   -61859   -18456    14674    40639 
   84114   138305   182034   213277   245986   290176   352732   436012 
  465586   307906    10604  -172010  -185411  -241802  -375366  -488869 
 -651060  -866787  -966240  -829282  -574846  -442879  -343360  -146233 
  -58987   -44430    49401    88232    91562   129617   138347   160349 
  209694   233499   241593   268390   334635   425369   519579   604862 
  635534   573708   449899   323783   233467   187807   169991   189120 
  260815   309317   285905   266820   269131   237995   178857   111404 
   62156    41985   -28805  -170246  -275697  -309164  -299542  -250142 
 -240987  -322118  -387596  -409574  -464357  -514361  -487663  -426279 
 -405923  -422959  -426168  -411553  -406823  -407865  -396426  -376621 
 -361456  -359788  -384329  -400237  -340005  -244765  -187289  -127418 
  -65540   -59143   -55274   -23439   -30624   -56717   -41721   -16053 
   -4663    19015    61160   104449   139636   175427   237053   347381 
  523556   742223   830323   565030   133070    63161   273010   210405 
   47124   122830   143969    55751    70981   117779   165878   209631 
  178278   135303   151654   201585   234701   246393   266807   288197 
  294736   288965   262568   208589   140753    87564    57450    13400 
  -84526  -196013  -216274  -157032  -171059  -274356  -336209  -341051 
 -307025  -209829  -100806    -2184    88573   119827   107317    82887 
   53329    51046    27510   -31088   -18166    33785    36808    57320 
  127917   180504   183484   180074   208062   225284   220097   225545 
  204977   138376    77841    43347    13871    -7104   -18069   -44057 
  -83359  -114237  -137418  -173580  -236615  -302376  -329743  -298643 
 -227796  -181024  -188135  -197853  -176588  -135456   -87967   -52522 
   -9628    75460   209646   415935   644673   653346   232090  -253507 
 -154615   202705    90463  -104477   -16351   -53170  -154910  -124891 
 -146949  -195064  -209486  -246044  -264082  -238920  -187270  -126574 
  -87188   -78975   -83762   -83991   -86999   -99530  -100596   -76873 
  -42408   -14320    -5920   -10895     9604    69386   133498   191107 
  266032   334604   333147   269880   207940   109198  -143554  -430528 
 -335467   115148   224533   -45929    26141   264167   183890   182880 
  336814   326757   283929   229940   115343    62692    34964     5011 
   11161    -4757   -71242  -125823  -115577   -82041   -82587   -60633 
    6591    30117    15383     7536   -26402   -73225   -99757  -120549 
 -148795  -190743  -222782  -207507  -166129  -153467  -168734  -155305 
 -115483  -102605  -109137  -115549  -121246  -113045  -104206   -94336 
  -64026   -31806    -7122    18660    35454    35873    33243    41056 
   58847    87378   119233   138948   145071   129317    89110    51378 
   31126    20477     9142    -6283   -16608   -20101   -26964   -39638 
  -46252   -37939   -25065   -17732   -20943   -37186   -52749   -63545 
  -81468   -92029   -73215   -40593   -15101     8146    29584    46497 
   76001   113458   120124    83619    38436    28437    51655    72100 
   88676   108080   106345    90148    97140   120369   130150   129437 
  119407    90263    59632    46233    39581    25139    -4204   -52987 
 -104790  -129585  -122003  -102198   -94931   -98937   -91724   -85132 
  -93223   -96913  -100451  -117075  -130814  -129705  -119480  -106407 
  -81873   -40450   -12851   -10362    13242    61030    75851    58995 
   62751    90221   109883   120248   135091   142514   130985   119367 
  115008   117906   140128   156404   162350   207776   255650   243445 
  240485   281130   297682   284457   239494   160769   142141   227695 
  339398   380702   277349    24268  -199412  -180239   -62859  -109811 
 -198018  -169343  -106985   -30950    49229    68948    55469    33722 
  -18107   -92006  -151748  -183720  -216932  -248631  -238284  -186487 
 -129835   -93949   -64688   -11699    50681    93854   123399   142345 
  142682   129025   104940    72936    50549    50029    59408    62781 
   55598    40401    10869   -43882  -100609  -131695  -158698  -204851 
 -240826  -210914  -135725  -111897  -105907   -29845    21270     -818 
  -13871   -26458   -27150      843     -421     4840    29027    10492 
   -7932    -7825   -38692   -59170   -43439   -40411   -40579   -34799 
  -53545   -77649   -85451   -83621   -80043   -87018   -92144   -86353 
  -84559   -78138   -61218   -51122   -45194   -34730   -35495   -44640 
  -35323   -25427   -36371   -31016    -2530     4803     -873    26290 
   80662   130036   168378   194173   202948   195678   161238    70011 
  -85303  -210892  -179012   -31106    93991   181340   239258   224122 
  184328   189340   205930   186942   159062   159539   161895   154667 
  166116   175722   143446    86450    50693    39534    33042    40341 
   53582    25934   -48995  -111185  -116306   -86885   -57101   -32643 
  -19259   -23766   -33706   -38544   -43683   -40351   -17160     1414 
