Origin Time       2011/03/11 14:46:00
Lat.              38.103
Long.             142.860
Depth. (km)       24
Mag.              9.0
Station Code      NAR006
Station Lat.      34.3384
Station Long.     135.9545
Station Height(m) 341
Record Time       2011/03/11 14:50:54
Sampling Freq(Hz) 100Hz
Duration Time(s)  60
Dir.              E-W
Scale Factor      3920(gal)/6182761
Max. Acc. (gal)   1.349
Last Correction   2011/03/11 14:50:39
Memo.             
   -9394    -9407    -9421    -9469    -9483    -9492    -9497    -9465 
   -9444    -9384    -9281    -9214    -9137    -9069    -9022    -8934 
   -8874    -8828    -8749    -8708    -8660    -8603    -8595    -8563 
   -8536    -8530    -8475    -8434    -8386    -8303    -8274    -8258 
   -8269    -8346    -8407    -8504    -8639    -8713    -8782    -8841 
   -8860    -8897    -8898    -8877    -8893    -8873    -8836    -8797 
   -8725    -8683    -8638    -8572    -8534    -8479    -8447    -8471 
   -8492    -8577    -8714    -8834    -8983    -9122    -9244    -9379 
   -9444    -9482    -9543    -9565    -9580    -9573    -9527    -9496 
   -9424    -9320    -9246    -9153    -9095    -9087    -9080    -9142 
   -9245    -9356    -9519    -9649    -9758    -9887    -9973   -10058 
  -10131   -10161   -10214   -10242   -10250   -10276   -10235   -10192 
  -10164   -10071   -10014    -9993    -9961    -9989   -10028   -10068 
  -10126   -10137   -10165   -10205   -10187   -10184   -10167   -10118 
  -10093   -10021    -9936    -9889    -9818    -9785    -9796    -9772 
   -9769    -9773    -9767    -9793    -9790    -9778    -9788    -9769 
   -9764    -9762    -9740    -9741    -9713    -9674    -9671    -9639 
   -9614    -9609    -9595    -9611    -9599    -9554    -9535    -9485 
   -9435    -9408    -9351    -9321    -9304    -9269    -9263    -9238 
   -9208    -9209    -9185    -9177    -9204    -9231    -9310    -9419 
   -9536    -9677    -9810    -9938   -10043   -10120   -10205   -10254 
  -10296   -10360   -10385   -10389   -10380   -10343   -10314   -10260 
  -10205   -10190   -10175   -10198   -10244   -10247   -10250   -10264 
  -10273   -10277   -10262   -10238   -10200   -10157   -10123   -10062 
   -9994    -9937    -9868    -9809    -9759    -9708    -9672    -9652 
   -9651    -9657    -9665    -9690    -9703    -9713    -9750    -9800 
   -9855    -9914    -9976   -10048   -10097   -10110   -10121   -10154 
  -10173   -10139   -10089   -10023    -9932    -9863    -9795    -9710 
   -9656    -9638    -9624    -9600    -9591    -9591    -9568    -9553 
   -9544    -9520    -9503    -9482    -9465    -9457    -9440    -9429 
   -9399    -9355    -9320    -9253    -9180    -9123    -9086    -9102 
   -9101    -9091    -9117    -9105    -9079    -9087    -9070    -9046 
   -9059    -9064    -9043    -9057    -9103    -9126    -9140    -9153 
   -9171    -9205    -9216    -9242    -9283    -9282    -9284    -9260 
   -9177    -9146    -9146    -9106    -9074    -9085    -9106    -9081 
   -9043    -9045    -9029    -9013    -9057    -9119    -9175    -9236 
   -9318    -9401    -9434    -9451    -9480    -9490    -9469    -9428 
   -9398    -9376    -9336    -9314    -9311    -9298    -9291    -9299 
   -9315    -9327    -9321    -9293    -9247    -9199    -9148    -9074 
   -9010    -8980    -8974    -8976    -8972    -8977    -9017    -9063 
   -9088    -9104    -9117    -9127    -9131    -9127    -9116    -9113 
   -9117    -9111    -9100    -9105    -9116    -9112    -9096    -9077 
   -9053    -9050    -9071    -9098    -9147    -9216    -9272    -9326 
   -9379    -9415    -9432    -9429    -9430    -9442    -9436    -9423 
   -9415    -9401    -9382    -9353    -9295    -9214    -9130    -9041 
   -8964    -8910    -8863    -8819    -8783    -8739    -8704    -8704 
   -8719    -8736    -8767    -8802    -8824    -8849    -8877    -8886 
   -8892    -8915    -8933    -8939    -8939    -8947    -8967    -8961 
   -8928    -8905    -8879    -8843    -8822    -8817    -8817    -8818 
   -8822    -8831    -8838    -8846    -8842    -8831    -8835    -8862 
   -8900    -8923    -8926    -8947    -8981    -8985    -8969    -8952 
   -8956    -8979    -8995    -9008    -9033    -9063    -9102    -9129 
   -9138    -9140    -9126    -9099    -9081    -9082    -9090    -9099 
   -9132    -9189    -9235    -9261    -9291    -9320    -9327    -9328 
   -9343    -9352    -9352    -9354    -9354    -9349    -9340    -9336 
   -9348    -9361    -9364    -9369    -9380    -9391    -9402    -9416 
   -9420    -9410    -9405    -9395    -9372    -9360    -9337    -9286 
   -9242    -9218    -9206    -9200    -9192    -9186    -9183    -9188 
   -9194    -9179    -9154    -9156    -9179    -9200    -9217    -9234 
   -9245    -9236    -9210    -9183    -9151    -9107    -9072    -9056 
   -9052    -9070    -9109    -9144    -9173    -9215    -9262    -9293 
   -9300    -9307    -9327    -9359    -9383    -9381    -9355    -9316 
   -9260    -9200    -9158    -9139    -9131    -9122    -9128    -9161 
   -9188    -9200    -9222    -9248    -9262    -9270    -9284    -9304 
   -9324    -9335    -9346    -9361    -9379    -9410    -9456    -9493 
   -9518    -9550    -9588    -9613    -9633    -9671    -9713    -9741 
   -9769    -9802    -9834    -9849    -9832    -9815    -9802    -9765 
   -9732    -9721    -9704    -9697    -9698    -9670    -9642    -9654 
   -9672    -9672    -9666    -9657    -9630    -9577    -9518    -9458 
   -9390    -9340    -9320    -9311    -9316    -9326    -9331    -9361 
   -9419    -9465    -9488    -9504    -9525    -9548    -9573    -9604 
   -9624    -9618    -9596    -9570    -9535    -9485    -9442    -9418 
   -9393    -9376    -9366    -9345    -9324    -9290    -9234    -9191 
   -9161    -9129    -9103    -9076    -9037    -8992    -8940    -8869 
   -8785    -8702    -8613    -8524    -8463    -8425    -8410    -8428 
   -8463    -8501    -8550    -8592    -8605    -8592    -8580    -8579 
   -8571    -8554    -8543    -8537    -8524    -8494    -8455    -8411 
   -8363    -8310    -8251    -8205    -8182    -8172    -8184    -8217 
   -8249    -8264    -8270    -8277    -8278    -8276    -8275    -8247 
   -8205    -8179    -8151    -8118    -8107    -8121    -8162    -8234 
   -8335    -8466    -8606    -8740    -8871    -8990    -9077    -9131 
   -9167    -9194    -9223    -9267    -9309    -9336    -9373    -9414 
   -9433    -9429    -9412    -9385    -9352    -9324    -9305    -9301 
   -9315    -9338    -9365    -9395    -9416    -9429    -9434    -9433 
   -9449    -9467    -9445    -9393    -9338    -9273    -9193    -9105 
   -9017    -8945    -8898    -8856    -8820    -8803    -8798    -8800 
   -8804    -8798    -8783    -8783    -8812    -8863    -8942    -9067 
   -9226    -9379    -9498    -9584    -9640    -9657    -9659    -9662 
   -9651    -9633    -9634    -9655    -9666    -9653    -9628    -9591 
   -9536    -9481    -9450    -9441    -9435    -9441    -9478    -9533 
   -9563    -9549    -9520    -9488    -9421    -9317    -9204    -9096 
   -8997    -8906    -8821    -8758    -8726    -8726    -8749    -8760 
   -8755    -8757    -8751    -8722    -8686    -8652    -8597    -8523 
   -8452    -8389    -8327    -8276    -8246    -8234    -8239    -8251 
   -8263    -8291    -8342    -8396    -8449    -8518    -8615    -8730 
   -8825    -8884    -8916    -8932    -8930    -8893    -8822    -8747 
   -8674    -8609    -8572    -8557    -8537    -8517    -8499    -8477 
   -8456    -8438    -8431    -8461    -8523    -8586    -8645    -8689 
   -8688    -8642    -8577    -8494    -8382    -8261    -8156    -8052 
   -7937    -7835    -7758    -7687    -7602    -7505    -7432    -7416 
   -7421    -7418    -7439    -7492    -7548    -7594    -7627    -7640 
   -7641    -7647    -7658    -7672    -7688    -7691    -7670    -7647 
   -7638    -7620    -7591    -7578    -7593    -7629    -7685    -7745 
   -7795    -7844    -7904    -7961    -8003    -8028    -8052    -8086 
   -8125    -8164    -8212    -8277    -8355    -8420    -8457    -8471 
   -8475    -8479    -8489    -8511    -8526    -8507    -8466    -8429 
   -8391    -8346    -8315    -8301    -8296    -8316    -8352    -8376 
   -8408    -8471    -8534    -8570    -8599    -8645    -8698    -8738 
   -8780    -8850    -8933    -8996    -9046    -9098    -9128    -9120 
   -9092    -9058    -9018    -8986    -8971    -8956    -8933    -8917 
   -8911    -8902    -8898    -8905    -8915    -8929    -8948    -8962 
   -8988    -9016    -9025    -9039    -9064    -9069    -9055    -9023 
   -8969    -8922    -8891    -8870    -8862    -8862    -8887    -8950 
   -9004    -9032    -9065    -9081    -9036    -8948    -8870    -8827 
   -8783    -8713    -8670    -8681    -8682    -8635    -8608    -8633 
   -8640    -8619    -8650    -8750    -8865    -8958    -9060    -9201 
   -9328    -9388    -9441    -9539    -9608    -9605    -9618    -9683 
   -9705    -9671    -9704    -9796    -9784    -9696    -9709    -9751 
   -9659    -9591    -9668    -9693    -9617    -9634    -9705    -9685 
   -9674    -9730    -9708    -9643    -9685    -9728    -9682    -9674 
   -9682    -9610    -9546    -9493    -9366    -9254    -9213    -9151 
   -9091    -9077    -8996    -8853    -8752    -8657    -8562    -8528 
   -8495    -8459    -8501    -8527    -8456    -8409    -8377    -8265 
   -8157    -8072    -7948    -7867    -7836    -7773    -7742    -7758 
   -7732    -7701    -7695    -7670    -7679    -7747    -7815    -7885 
   -7941    -7943    -7950    -7967    -7961    -7995    -8042    -8045 
   -8083    -8129    -8110    -8100    -8079    -7997    -7926    -7854 
   -7781    -7804    -7856    -7895    -7997    -8108    -8206    -8324 
   -8370    -8382    -8445    -8461    -8456    -8507    -8511    -8507 
   -8548    -8532    -8509    -8506    -8443    -8398    -8350    -8211 
   -8112    -8047    -7929    -7854    -7803    -7733    -7728    -7717 
   -7695    -7773    -7826    -7836    -7919    -7977    -8036    -8145 
   -8143    -8107    -8119    -8064    -8051    -8099    -8059    -8057 
   -8098    -8066    -8075    -8098    -8076    -8087    -8037    -7949 
   -7939    -7898    -7873    -7932    -7923    -7926    -7999    -8004 
   -8027    -8081    -8079    -8131    -8187    -8197    -8263    -8280 
   -8262    -8315    -8307    -8284    -8317    -8293    -8284    -8285 
   -8221    -8208    -8199    -8164    -8178    -8136    -8092    -8133 
   -8130    -8143    -8207    -8241    -8335    -8428    -8470    -8571 
   -8609    -8586    -8618    -8583    -8554    -8595    -8565    -8554 
   -8566    -8498    -8459    -8400    -8292    -8251    -8191    -8135 
   -8151    -8143    -8179    -8256    -8279    -8348    -8418    -8455 
   -8534    -8556    -8569    -8630    -8631    -8670    -8746    -8763 
   -8842    -8917    -8934    -8978    -8958    -8903    -8857    -8750 
   -8706    -8698    -8623    -8603    -8608    -8604    -8669    -8727 
   -8809    -8929    -9007    -9116    -9215    -9241    -9289    -9321 
   -9334    -9362    -9354    -9385    -9430    -9415    -9438    -9460 
   -9446    -9468    -9484    -9512    -9541    -9519    -9550    -9593 
   -9597    -9640    -9662    -9693    -9798    -9887    -9981   -10071 
  -10104   -10151   -10169   -10144   -10137   -10105   -10108   -10135 
  -10103   -10117   -10151   -10134   -10137   -10126   -10124   -10176 
  -10196   -10233   -10312   -10374   -10462   -10538   -10583   -10637 
  -10657   -10681   -10706   -10673   -10652   -10619   -10538   -10479 
  -10423   -10358   -10294   -10230   -10218   -10211   -10189   -10201 
  -10193   -10195   -10235   -10226   -10221   -10251   -10268   -10294 
  -10285   -10238   -10199   -10122   -10038    -9965    -9862    -9769 
   -9668    -9542    -9448    -9352    -9267    -9207    -9122    -9082 
   -9086    -9078    -9118    -9164    -9178    -9214    -9248    -9295 
   -9358    -9400    -9455    -9481    -9467    -9440    -9342    -9237 
   -9185    -9129    -9090    -9059    -9034    -9033    -9022    -9076 
   -9155    -9155    -9180    -9214    -9189    -9177    -9165    -9158 
   -9147    -9079    -9032    -9003    -8964    -8961    -8931    -8902 
   -8918    -8904    -8896    -8889    -8842    -8802    -8738    -8688 
   -8689    -8675    -8687    -8727    -8774    -8854    -8886    -8876 
   -8870    -8830    -8802    -8773    -8735    -8742    -8720    -8672 
   -8644    -8593    -8529    -8458    -8405    -8382    -8313    -8263 
   -8259    -8211    -8176    -8165    -8131    -8093    -8036    -7969 
   -7907    -7839    -7803    -7791    -7797    -7803    -7789    -7806 
   -7816    -7811    -7852    -7863    -7846    -7867    -7879    -7885 
   -7890    -7883    -7869    -7822    -7785    -7754    -7704    -7703 
   -7706    -7677    -7674    -7681    -7704    -7730    -7761    -7858 
   -7958    -8045    -8163    -8275    -8392    -8485    -8533    -8612 
   -8671    -8702    -8765    -8822    -8871    -8904    -8923    -8978 
   -9022    -9039    -9054    -9040    -9043    -9063    -9074    -9091 
   -9087    -9095    -9141    -9181    -9231    -9274    -9320    -9382 
   -9402    -9419    -9449    -9457    -9481    -9477    -9430    -9414 
   -9406    -9389    -9378    -9400    -9478    -9574    -9693    -9825 
   -9912    -9953    -9930    -9897    -9903    -9902    -9945   -10033 
  -10119   -10236   -10332   -10377   -10375   -10290   -10182   -10081 
   -9973    -9880    -9799    -9774    -9792    -9818    -9909   -10033 
  -10129   -10163   -10129   -10119   -10121   -10105   -10116   -10106 
  -10069   -10021    -9949    -9877    -9748    -9585    -9464    -9353 
   -9264    -9196    -9164    -9176    -9127    -9043    -8978    -8901 
   -8849    -8799    -8750    -8721    -8671    -8672    -8721    -8748 
   -8747    -8690    -8640    -8607    -8557    -8579    -8629    -8668 
   -8737    -8798    -8883    -8964    -8990    -9002    -8965    -8930 
   -8936    -8916    -8894    -8857    -8806    -8754    -8675    -8626 
   -8571    -8506    -8498    -8470    -8424    -8390    -8335    -8308 
   -8291    -8275    -8287    -8282    -8265    -8238    -8205    -8180 
   -8144    -8134    -8125    -8102    -8090    -8053    -8051    -8089 
   -8102    -8127    -8142    -8125    -8105    -8078    -8059    -8003 
   -7930    -7896    -7844    -7807    -7795    -7773    -7772    -7764 
   -7739    -7684    -7589    -7521    -7452    -7403    -7400    -7374 
   -7380    -7436    -7506    -7575    -7577    -7569    -7588    -7567 
   -7517    -7456    -7410    -7367    -7321    -7335    -7358    -7384 
   -7448    -7506    -7580    -7659    -7715    -7757    -7758    -7752 
   -7750    -7710    -7632    -7526    -7465    -7425    -7333    -7230 
   -7134    -7067    -7025    -6957    -6906    -6897    -6915    -6955 
   -6994    -7043    -7090    -7135    -7198    -7254    -7281    -7285 
   -7290    -7259    -7174    -7107    -7054    -6998    -6950    -6895 
   -6864    -6847    -6837    -6849    -6829    -6808    -6824    -6838 
   -6860    -6880    -6899    -6922    -6929    -6947    -6975    -6973 
   -6958    -6986    -7069    -7159    -7262    -7377    -7461    -7514 
   -7505    -7445    -7418    -7442    -7482    -7524    -7589    -7652 
   -7693    -7748    -7782    -7764    -7757    -7782    -7808    -7823 
   -7859    -7933    -8022    -8133    -8272    -8399    -8493    -8572 
   -8636    -8677    -8719    -8745    -8729    -8696    -8666    -8678 
   -8726    -8775    -8833    -8864    -8858    -8859    -8877    -8887 
   -8872    -8889    -8951    -9010    -9081    -9150    -9203    -9242 
   -9258    -9265    -9245    -9214    -9206    -9204    -9192    -9170 
   -9164    -9156    -9110    -9070    -9052    -9053    -9076    -9122 
   -9192    -9244    -9271    -9299    -9310    -9291    -9252    -9212 
   -9173    -9144    -9129    -9144    -9191    -9229    -9291    -9398 
   -9480    -9540    -9617    -9720    -9809    -9869    -9942   -10005 
  -10050   -10097   -10150   -10229   -10300   -10342   -10368   -10386 
  -10391   -10353   -10328   -10351   -10354   -10307   -10242   -10174 
  -10093   -10021    -9954    -9874    -9821    -9794    -9777    -9759 
   -9731    -9724    -9718    -9694    -9654    -9582    -9507    -9435 
   -9358    -9292    -9252    -9224    -9178    -9129    -9072    -8988 
   -8870    -8732    -8628    -8573    -8555    -8543    -8538    -8572 
   -8635    -8704    -8767    -8823    -8856    -8858    -8871    -8893 
   -8916    -8946    -8972    -8982    -8964    -8925    -8855    -8748 
   -8625    -8509    -8403    -8275    -8123    -7965    -7809    -7652 
   -7503    -7406    -7348    -7306    -7315    -7370    -7426    -7496 
   -7591    -7658    -7698    -7735    -7758    -7776    -7779    -7745 
   -7679    -7611    -7560    -7518    -7474    -7408    -7369    -7382 
   -7426    -7512    -7609    -7674    -7720    -7770    -7836    -7929 
   -8018    -8090    -8188    -8304    -8395    -8458    -8513    -8560 
   -8576    -8569    -8559    -8540    -8503    -8475    -8483    -8515 
   -8560    -8610    -8655    -8699    -8768    -8863    -8966    -9077 
   -9169    -9222    -9242    -9249    -9269    -9299    -9299    -9247 
   -9174    -9114    -9058    -8980    -8904    -8849    -8806    -8782 
   -8767    -8765    -8791    -8816    -8809    -8779    -8737    -8699 
   -8672    -8612    -8505    -8394    -8302    -8230    -8176    -8114 
   -8036    -7941    -7845    -7802    -7790    -7755    -7736    -7767 
   -7822    -7882    -7936    -7954    -7927    -7873    -7813    -7764 
   -7714    -7660    -7611    -7554    -7496    -7462    -7438    -7405 
   -7357    -7309    -7290    -7282    -7259    -7227    -7196    -7166 
   -7140    -7113    -7075    -7023    -6966    -6916    -6876    -6847 
   -6840    -6848    -6850    -6862    -6907    -6972    -7046    -7105 
   -7159    -7236    -7305    -7338    -7354    -7351    -7329    -7317 
   -7307    -7302    -7334    -7393    -7430    -7431    -7440    -7483 
   -7521    -7534    -7565    -7642    -7740    -7823    -7873    -7889 
   -7881    -7857    -7827    -7810    -7820    -7848    -7882    -7920 
   -7966    -7999    -7995    -7966    -7943    -7933    -7923    -7913 
   -7923    -7959    -8009    -8033    -8003    -7933    -7845    -7736 
   -7605    -7478    -7386    -7319    -7267    -7261    -7286    -7322 
   -7379    -7446    -7502    -7554    -7605    -7667    -7737    -7783 
   -7810    -7833    -7827    -7799    -7771    -7728    -7673    -7632 
   -7604    -7577    -7556    -7537    -7520    -7508    -7502    -7499 
   -7489    -7486    -7510    -7536    -7545    -7564    -7590    -7584 
   -7548    -7505    -7470    -7455    -7469    -7488    -7508    -7551 
   -7597    -7613    -7611    -7596    -7570    -7552    -7535    -7509 
   -7490    -7474    -7472    -7506    -7565    -7618    -7662    -7710 
   -7759    -7800    -7836    -7871    -7911    -7949    -7958    -7951 
   -7937    -7904    -7878    -7888    -7909    -7923    -7938    -7948 
   -7943    -7921    -7892    -7886    -7883    -7833    -7767    -7729 
   -7693    -7671    -7674    -7651    -7606    -7570    -7509    -7435 
   -7395    -7356    -7292    -7239    -7205    -7161    -7110    -7083 
   -7110    -7169    -7234    -7304    -7364    -7409    -7455    -7487 
   -7482    -7443    -7401    -7362    -7285    -7194    -7155    -7146 
   -7136    -7137    -7137    -7131    -7131    -7126    -7106    -7083 
   -7073    -7068    -7052    -7033    -7034    -7045    -7042    -7037 
   -7024    -6970    -6902    -6848    -6796    -6756    -6728    -6701 
   -6667    -6627    -6614    -6631    -6638    -6664    -6731    -6783 
   -6823    -6885    -6944    -7001    -7047    -7044    -7022    -7024 
   -7051    -7099    -7156    -7218    -7289    -7340    -7356    -7368 
