Origin Time       2011/03/11 14:46:00
Lat.              38.103
Long.             142.860
Depth. (km)       24
Mag.              9.0
Station Code      NAR009
Station Lat.      33.9396
Station Long.     135.7530
Station Height(m) 198
Record Time       2011/03/11 14:51:11
Sampling Freq(Hz) 100Hz
Duration Time(s)  60
Dir.              E-W
Scale Factor      3920(gal)/6182761
Max. Acc. (gal)   1.264
Last Correction   2011/03/11 14:50:56
Memo.             
[...]
  -47554   -47505   -47513   -47527   -47489   -47434   -47394   -47366 
  -47378   -47402   -47383   -47341   -47288   -47219   -47158   -47106 
  -47067   -47040   -47015   -46997   -46966   -46927   -46935   -46975 
  -46990   -46995   -46984   -46930   -46876   -46864   -46870   -46884 
  -46909   -46912   -46877   -46837   -46833   -46863   -46874   -46849 
  -46825   -46811   -46820   -46860   -46871   -46840   -46812   -46780 
  -46750   -46741   -46743   -46747   -46730   -46709   -46728   -46782 
  -46823   -46816   -46801   -46830   -46858   -46863   -46876   -46876 
  -46871   -46874   -46877   -46902   -46940   -46945   -46931   -46949 
  -46997   -47031   -47036   -47044   -47050   -47020   -47016   -47070 
  -47082   -47023   -46953   -46904   -46889   -46923   -46967   -46953 
  -46888   -46848   -46849   -46844   -46808   -46744   -46678   -46655 
  -46673   -46666   -46638   -46637   -46643   -46634   -46610   -46578 
  -46563   -46574   -46589   -46567   -46533   -46545   -46575   -46586 
  -46576   -46549   -46528   -46532   -46535   -46512   -46483   -46467 
  -46461   -46490   -46546   -46566   -46567   -46594   -46602   -46589 
  -46598   -46587   -46524   -46467   -46450   -46460   -46492   -46519 
  -46511   -46504   -46516   -46524   -46534   -46544   -46533   -46482 
  -46414   -46366   -46327   -46310   -46294   -46246   -46242   -46280 
  -46270   -46245   -46244   -46226   -46193   -46168   -46146   -46117 
  -46102   -46143   -46213   -46268   -46324   -46369   -46370   -46383 
  -46415   -46421   -46425   -46441   -46439   -46431   -46475   -46551 
  -46574   -46560   -46579   -46614   -46659   -46720   -46753   -46782 
  -46839   -46870   -46878   -46916   -46959   -46964   -46944   -46943 
  -46975   -47034   -47117   -47185   -47214   -47238   -47275   -47323 
  -47375   -47419   -47453   -47464   -47473   -47525   -47582   -47590 
  -47596   -47635   -47654   -47639   -47637   -47656   -47690   -47709 
  -47685   -47676   -47710   -47723   -47724   -47740   -47723   -47683 
  -47665   -47648   -47632   -47648   -47679   -47682   -47642   -47602 
  -47579   -47554   -47525   -47456   -47359   -47297   -47223   -47117 
  -47062   -47026   -46956   -46904   -46863   -46793   -46736   -46732 
  -46739   -46712   -46668   -46644   -46630   -46597   -46551   -46504 
  -46440   -46391   -46390   -46395   -46387   -46394   -46411   -46435 
  -46480   -46532   -46565   -46593   -46656   -46733   -46798   -46848 
  -46874   -46897   -46949   -47012   -47042   -47041   -47085   -47159 
  -47191   -47231   -47310   -47342   -47315   -47286   -47278   -47312 
  -47364   -47355   -47289   -47268   -47313   -47342   -47332   -47303 
  -47269   -47230   -47176   -47151   -47154   -47099   -47038   -47045 
  -47058   -47050   -47037   -47004   -46957   -46910   -46876   -46829 
  -46745   -46686   -46665   -46638   -46635   -46644   -46613   -46563 
  -46537   -46543   -46540   -46503   -46494   -46511   -46488   -46466 
  -46492   -46518   -46523   -46553   -46604   -46614   -46598   -46608 
  -46604   -46569   -46558   -46556   -46524   -46497   -46484   -46490 
  -46541   -46593   -46613   -46645   -46686   -46709   -46754   -46828 
  -46867   -46869   -46877   -46909   -46954   -46994   -47047   -47104 
  -47130   -47175   -47274   -47375   -47441   -47454   -47456   -47505 
  -47533   -47515   -47541   -47580   -47576   -47610   -47705   -47770 
  -47774   -47769   -47795   -47831   -47857   -47877   -47863   -47837 
  -47856   -47876   -47879   -47933   -47989   -47986   -47955   -47928 
  -47932   -47918   -47845   -47808   -47806   -47773   -47740   -47735 
  -47752   -47773   -47747   -47698   -47676   -47641   -47603   -47597 
  -47569   -47531   -47527   -47506   -47491   -47508   -47484   -47480 
  -47551   -47592   -47597   -47613   -47624   -47647   -47655   -47618 
  -47576   -47548   -47556   -47597   -47624   -47656   -47706   -47736 
  -47793   -47888   -47928   -47917   -47910   -47896   -47884   -47900 
  -47918   -47909   -47872   -47867   -47912   -47929   -47928   -47954 
  -47955   -47950   -47994   -48013   -47983   -47970   -47968   -47953 
  -47921   -47885   -47890   -47887   -47832   -47813   -47831   -47813 
  -47796   -47783   -47761   -47754   -47706   -47644   -47641   -47611 
  -47538   -47514   -47498   -47453   -47436   -47439   -47435   -47427 
  -47395   -47358   -47340   -47291   -47221   -47185   -47173   -47156 
  -47156   -47199   -47238   -47224   -47219   -47255   -47258   -47235 
  -47246   -47252   -47237   -47260   -47337   -47410   -47429   -47427 
  -47447   -47462   -47460   -47471   -47476   -47456   -47458   -47503 
  -47542   -47557   -47585   -47638   -47673   -47693   -47739   -47775 
  -47781   -47808   -47850   -47882   -47915   -47937   -47947   -47958 
  -47942   -47910   -47906   -47895   -47851   -47833   -47856   -47865 
  -47838   -47827   -47862   -47871   -47832   -47833   -47869   -47864 
  -47843   -47846   -47858   -47878   -47886   -47884   -47919   -47956 
  -47956   -47981   -48050   -48102   -48109   -48116   -48148   -48151 
  -48138   -48175   -48207   -48199   -48202   -48203   -48200   -48238 
  -48257   -48218   -48210   -48236   -48235   -48213   -48189   -48156 
  -48107   -48068   -48056   -48032   -47979   -47937   -47922   -47932 
  -47944   -47924   -47908   -47915   -47891   -47853   -47841   -47815 
  -47764   -47718   -47683   -47674   -47676   -47655   -47642   -47645 
  -47614   -47567   -47546   -47526   -47465   -47392   -47363   -47339 
  -47289   -47268   -47258   -47216   -47185   -47182   -47187   -47204 
  -47239   -47276   -47286   -47286   -47304   -47333   -47360   -47366 
  -47369   -47413   -47453   -47455   -47472   -47493   -47454   -47403 
  -47404   -47394   -47346   -47335   -47377   -47393   -47378   -47423 
  -47492   -47488   -47471   -47504   -47523   -47492   -47451   -47431 
  -47415   -47396   -47390   -47404   -47438   -47479   -47507   -47512 
  -47515   -47521   -47502   -47457   -47415   -47386   -47345   -47289 
  -47253   -47249   -47257   -47250   -47232   -47252   -47288   -47271 
  -47230   -47241   -47261   -47214   -47160   -47143   -47106   -47057 
  -47041   -47000   -46909   -46852   -46845   -46840   -46828   -46824 
  -46833   -46822   -46781   -46748   -46710   -46657   -46624   -46597 
  -46553   -46532   -46542   -46537   -46520   -46535   -46546   -46481 
  -46430   -46483   -46524   -46500   -46522   -46581   -46596   -46619 
  -46688   -46725   -46702   -46709   -46786   -46864   -46895   -46917 
  -46955   -46982   -46990   -47009   -47040   -47052   -47043   -47038 
  -47045   -47044   -47018   -47000   -47003   -46994   -46987   -47019 
  -47039   -47026   -47043   -47095   -47130   -47134   -47151   -47198 
  -47194   -47123   -47089   -47092   -47056   -47006   -47002   -47001 
  -46955   -46898   -46869   -46845   -46790   -46723   -46665   -46601 
  -46527   -46450   -46377   -46322   -46262   -46174   -46100   -46060 
  -46021   -45979   -45943   -45906   -45866   -45816   -45765   -45725 
  -45680   -45622   -45575   -45549   -45522   -45489   -45463   -45451 
  -45450   -45450   -45430   -45396   -45355   -45307   -45283   -45270 
  -45254   -45257   -45270   -45283   -45321   -45381   -45437   -45471 
  -45493   -45508   -45533   -45587   -45652   -45688   -45699   -45710 
  -45715   -45704   -45696   -45690   -45662   -45628   -45626   -45641 
  -45649   -45669   -45707   -45729   -45731   -45723   -45710   -45710 
  -45717   -45703   -45681   -45676   -45688   -45711   -45740   -45769 
  -45785   -45794   -45821   -45857   -45884   -45906   -45917   -45910 
  -45897   -45884   -45880   -45885   -45877   -45866   -45871   -45877 
  -45883   -45902   -45930   -45967   -46004   -46019   -46018   -46019 
  -46019   -46011   -46010   -46023   -46014   -45996   -46036   -46121 
  -46194   -46260   -46342   -46405   -46438   -46494   -46575   -46636 
  -46670   -46703   -46750   -46820   -46903   -46977   -47040   -47102 
  -47146   -47177   -47234   -47312   -47364   -47389   -47422   -47477 
  -47535   -47567   -47595   -47653   -47703   -47720   -47752   -47795 
  -47808   -47811   -47825   -47823   -47806   -47797   -47780   -47750 
  -47728   -47703   -47673   -47651   -47611   -47560   -47532   -47512 
  -47481   -47454   -47419   -47348   -47245   -47144   -47082   -47040 
  -46956   -46842   -46765   -46725   -46683   -46630   -46558   -46461 
  -46387   -46364   -46331   -46270   -46218   -46170   -46129   -46119 
  -46095   -46019   -45948   -45920   -45896   -45875   -45881   -45869 
  -45834   -45829   -45843   -45852   -45860   -45850   -45831   -45831 
  -45825   -45801   -45787   -45780   -45766   -45763   -45789   -45822 
  -45825   -45812   -45826   -45858   -45853   -45823   -45802   -45784 
  -45761   -45727   -45691   -45671   -45653   -45628   -45612   -45602 
  -45587   -45563   -45538   -45507   -45465   -45445   -45442   -45415 
  -45390   -45407   -45417   -45383   -45349   -45342   -45326   -45286 
  -45264   -45270   -45254   -45225   -45238   -45264   -45252   -45231 
  -45255   -45302   -45313   -45314   -45338   -45353   -45355   -45384 
  -45423   -45425   -45400   -45396   -45414   -45432   -45459   -45480 
  -45488   -45508   -45529   -45533   -45559   -45605   -45626   -45624 
  -45639   -45675   -45689   -45678   -45696   -45749   -45791   -45811 
  -45831   -45866   -45911   -45953   -45982   -46002   -46032   -46085 
  -46135   -46174   -46230   -46287   -46335   -46403   -46466   -46506 
  -46571   -46648   -46685   -46727   -46820   -46898   -46947   -47020 
  -47089   -47135   -47189   -47229   -47245   -47260   -47271   -47280 
  -47288   -47284   -47298   -47327   -47332   -47320   -47320   -47333 
  -47339   -47331   -47306   -47277   -47261   -47251   -47239   -47214 
  -47169   -47141   -47143   -47128   -47103   -47098   -47081   -47039 
  -47013   -47002   -46963   -46908   -46887   -46892   -46891   -46884 
  -46890   -46917   -46952   -46969   -46974   -46999   -47032   -47038 
  -47042   -47064   -47066   -47045   -47044   -47077   -47114   -47143 
  -47187   -47243   -47276   -47298   -47357   -47427   -47465   -47489 
  -47517   -47542   -47575   -47618   -47657   -47687   -47704   -47706 
  -47726   -47776   -47803   -47809   -47840   -47862   -47857   -47861 
  -47849   -47823   -47837   -47843   -47791   -47740   -47718   -47701 
  -47687   -47673   -47651   -47623   -47616   -47629   -47610   -47558 
  -47520   -47488   -47461   -47457   -47441   -47408   -47407   -47418 
  -47404   -47394   -47393   -47382   -47373   -47370   -47371   -47377 
  -47360   -47322   -47308   -47315   -47316   -47327   -47348   -47345 
  -47319   -47321   -47361   -47392   -47394   -47392   -47385   -47369 
  -47378   -47410   -47415   -47393   -47392   -47402   -47396   -47391 
  -47398   -47405   -47400   -47390   -47387   -47381   -47363   -47348 
  -47339   -47330   -47325   -47319   -47301   -47280   -47268   -47250 
  -47213   -47182   -47172   -47152   -47107   -47082   -47078   -47043 
  -47006   -47013   -47013   -46979   -46954   -46931   -46871   -46793 
  -46737   -46676   -46597   -46541   -46506   -46471   -46460   -46454 
  -46422   -46394   -46377   -46346   -46330   -46326   -46285   -46222 
  -46189   -46171   -46132   -46108   -46102   -46062   -46023   -46034 
  -46056   -46067   -46080   -46078   -46092   -46148   -46200   -46231 
  -46263   -46284   -46305   -46361   -46420   -46444   -46457   -46493 
  -46552   -46613   -46669   -46750   -46854   -46930   -46985   -47064 
  -47157   -47211   -47240   -47288   -47327   -47339   -47352   -47360 
  -47372   -47424   -47492   -47533   -47557   -47594   -47638   -47673 
  -47703   -47718   -47712   -47703   -47707   -47739   -47788   -47821 
  -47846   -47888   -47929   -47957   -47988   -48020   -48042   -48043 
  -48017   -47998   -48000   -48003   -48000   -47986   -47970   -47960 
  -47951   -47948   -47947   -47917   -47863   -47829   -47812   -47772 
  -47705   -47644   -47600   -47550   -47485   -47422   -47361   -47294 
  -47239   -47197   -47141   -47078   -47031   -46974   -46905   -46851 
  -46806   -46757   -46712   -46690   -46682   -46666   -46647   -46634 
  -46613   -46582   -46547   -46511   -46486   -46468   -46461   -46471 
  -46476   -46477   -46497   -46520   -46536   -46558   -46586   -46622 
  -46667   -46712   -46749   -46781   -46832   -46906   -46949   -46952 
  -46972   -47007   -47024   -47041   -47070   -47102   -47132   -47159 
  -47189   -47198   -47178   -47177   -47203   -47210   -47189   -47166 
  -47134   -47095   -47087   -47103   -47089   -47051   -47035   -47040 
  -47053   -47075   -47066   -47022   -47010   -47027   -47012   -46988 
  -46980   -46949   -46893   -46859   -46848   -46820   -46770   -46752 
  -46765   -46745   -46702   -46668   -46616   -46558   -46522   -46475 
  -46413   -46367   -46325   -46282   -46256   -46227   -46191   -46167 
  -46130   -46076   -46036   -45983   -45911   -45881   -45874   -45818 
  -45759   -45737   -45701   -45654   -45635   -45620   -45587   -45557 
  -45545   -45546   -45560   -45574   -45587   -45599   -45593   -45570 
  -45559   -45570   -45582   -45585   -45589   -45605   -45633   -45664 
  -45704   -45745   -45749   -45726   -45714   -45701   -45689   -45689 
  -45673   -45655   -45653   -45638   -45614   -45606   -45588   -45551 
  -45529   -45525   -45508   -45485   -45475   -45480   -45476   -45434 
  -45379   -45324   -45250   -45204   -45203   -45193   -45170   -45151 
  -45136   -45137   -45143   -45159   -45199   -45209   -45183   -45199 
  -45259   -45298   -45310   -45314   -45318   -45352   -45403   -45437 
  -45488   -45576   -45653   -45708   -45755   -45818   -45919   -46015 
  -46069   -46132   -46223   -46293   -46354   -46459   -46581   -46662 
  -46716   -46791   -46889   -46982   -47071   -47179   -47274   -47320 
  -47344   -47389   -47451   -47507   -47570   -47651   -47705   -47703 
  -47715   -47783   -47835   -47850   -47862   -47849   -47824   -47818 
  -47796   -47790   -47834   -47856   -47831   -47815   -47823   -47814 
  -47761   -47717   -47705   -47660   -47602   -47596   -47585   -47538 
  -47522   -47534   -47510   -47469   -47451   -47423   -47371   -47326 
  -47288   -47248   -47206   -47169   -47136   -47090   -47070   -47087 
  -47064   -46994   -46940   -46895   -46868   -46869   -46834   -46762 
  -46708   -46677   -46674   -46673   -46640   -46606   -46595   -46600 
  -46624   -46667   -46708   -46719   -46713   -46719   -46725   -46725 
  -46731   -46732   -46716   -46734   -46818   -46879   -46891   -46934 
  -47008   -47083   -47160   -47211   -47238   -47251   -47255   -47298 
  -47351   -47341   -47347   -47430   -47476   -47491   -47595   -47723 
  -47758   -47768   -47821   -47836   -47765   -47708   -47706   -47688 
  -47655   -47667   -47683   -47647   -47596   -47571   -47552   -47509 
  -47433   -47368   -47327   -47272   -47236   -47244   -47231   -47179 
  -47123   -47098   -47086   -47034   -46995   -47022   -47019   -46957 
  -46926   -46905   -46846   -46806   -46799   -46761   -46693   -46653 
  -46652   -46634   -46602   -46591   -46578   -46534   -46488   -46459 
  -46437   -46418   -46402   -46378   -46346   -46343   -46362   -46340 
  -46298   -46311   -46337   -46310   -46302   -46362   -46372   -46307 
  -46318   -46397   -46409   -46380   -46385   -46414   -46453   -46501 
  -46531   -46533   -46536   -46567   -46610   -46638   -46673   -46713 
  -46710   -46702   -46760   -46843   -46879   -46891   -46932   -46996 
  -47050   -47084   -47095   -47104   -47154   -47201   -47195   -47188 
  -47217   -47242   -47259   -47295   -47335   -47359   -47397   -47443 
  -47463   -47484   -47513   -47507   -47495   -47504   -47498   -47491 
  -47489   -47484   -47495   -47504   -47497   -47502   -47503   -47503 
  -47519   -47518   -47484   -47473   -47476   -47433   -47390   -47386 
  -47355   -47313   -47338   -47376   -47350   -47322   -47349   -47368 
  -47320   -47260   -47237   -47206   -47153   -47140   -47147   -47141 
  -47169   -47213   -47209   -47190   -47221   -47270   -47273   -47258 
  -47263   -47245   -47213   -47222   -47242   -47212   -47167   -47174 
  -47204   -47209   -47224   -47268   -47286   -47261   -47254   -47275 
  -47287   -47295   -47304   -47307   -47314   -47323   -47328   -47344 
  -47368   -47366   -47339   -47315   -47307   -47299   -47290   -47282 
  -47252   -47211   -47192   -47195   -47204   -47198   -47187   -47186 
  -47167   -47131   -47104   -47082   -47059   -47032   -47004   -46988 
  -46977   -46979   -46989   -46947   -46883   -46870   -46865   -46833 
  -46832   -46852   -46827   -46783   -46775   -46784   -46789   -46776 
  -46751   -46741   -46746   -46743   -46744   -46750   -46732   -46711 
  -46736   -46769   -46766   -46769   -46802   -46827   -46846   -46889 
  -46933   -46954   -46979   -47024   -47062   -47079   -47095   -47122 
  -47162   -47198   -47224   -47249   -47292   -47355   -47413   -47457 
  -47516   -47577   -47600   -47610   -47654   -47704   -47721   -47726 
  -47738   -47758   -47805   -47864   -47894   -47900   -47921   -47967 
  -47994   -47990   -48006   -48042   -48036   -48011   -48016   -48018 
  -47988   -47965   -47964   -47949   -47912   -47898   -47900   -47886 
  -47866   -47854   -47827   -47788   -47760   -47731   -47683   -47639 
  -47609   -47573   -47534   -47506   -47486   -47476   -47475   -47449 
  -47404   -47383   -47360   -47308   -47274   -47244   -47181   -47130 
  -47123   -47111   -47092   -47097   -47092   -47061   -47039   -47016 
  -46980   -46952   -46913   -46855   -46824   -46810   -46784   -46787 
  -46802   -46779   -46758   -46789   -46830   -46826   -46821   -46851 
  -46839   -46778   -46778   -46802   -46765   -46749   -46777   -46756 
  -46736   -46793   -46831   -46812   -46822   -46848   -46822   -46800 
  -46823   -46811   -46768   -46797   -46842   -46791   -46738   -46779 
  -46817   -46795   -46788   -46819   -46838   -46815   -46782   -46784 
  -46800   -46785   -46769   -46764   -46741   -46739   -46792   -46822 
  -46781   -46743   -46741   -46730   -46722   -46723   -46700   -46673 
  -46671   -46689   -46743   -46805   -46817   -46804   -46819   -46833 
  -46832   -46862   -46889   -46844   -46810   -46860   -46914   -46936 
  -46966   -47006   -47035   -47040   -47047   -47079   -47096   -47086 
  -47083   -47091   -47100   -47134   -47189   -47210   -47205   -47252 
  -47336   -47366   -47354   -47373   -47419   -47458   -47475   -47482 
  -47503   -47533   -47553   -47577   -47632   -47671   -47653   -47681 
  -47774   -47787   -47756   -47804   -47874   -47876   -47857   -47902 
  -47974   -47965   -47948   -48026   -48071   -48024   -48029   -48095 
  -48100   -48054   -48057   -48092   -48088   -48067   -48074   -48086 
  -48098   -48115   -48111   -48100   -48114   -48114   -48084   -48075 
  -48088   -48109   -48127   -48102   -48054   -48057   -48082   -48057 
  -48027   -48040   -48030   -47984   -47988   -48032   -48019   -47962 
  -47927   -47909   -47884   -47866   -47854   -47831   -47804   -47788 
  -47786   -47781   -47784   -47796   -47788   -47764   -47759   -47771 
  -47757   -47710   -47677   -47682   -47699   -47690   -47658   -47664 
  -47700   -47695   -47689   -47728   -47726   -47650   -47608   -47622 
  -47613   -47566   -47517   -47483   -47464   -47437   -47408   -47404 
