Origin Time       2011/03/11 14:46:00
Lat.              38.103
Long.             142.860
Depth. (km)       24
Mag.              9.0
Station Code      NAR001
Station Lat.      34.7153
Station Long.     135.7276
Station Height(m) 149
Record Time       2011/03/11 14:49:38
Sampling Freq(Hz) 100Hz
Duration Time(s)  163
Dir.              N-S
Scale Factor      3920(gal)/6182761
Max. Acc. (gal)   5.705
Last Correction   2011/03/11 14:49:23
Memo.             
[...]
  -27635   -27475   -27319   -27149   -26978   -26817   -26659   -26515 
  -26400   -26295   -26186   -26105   -26054   -26015   -26010   -26034 
  -26053   -26074   -26101   -26116   -26135   -26177   -26225   -26276 
  -26359   -26474   -26610   -26770   -26927   -27076   -27242   -27422 
  -27596   -27759   -27903   -28021   -28121   -28209   -28266   -28297 
  -28339   -28407   -28496   -28603   -28712   -28813   -28910   -28989 
  -29054   -29121   -29170   -29192   -29187   -29142   -29094   -29062 
  -29002   -28940   -28932   -28925   -28888   -28894   -28916   -28895 
  -28882   -28872   -28810   -28720   -28612   -28466   -28289   -28094 
  -27889   -27676   -27440   -27201   -26980   -26761   -26542   -26321 
  -26089   -25859   -25642   -25431   -25223   -25025   -24842   -24680 
  -24547   -24440   -24354   -24298   -24260   -24234   -24233   -24266 
  -24320   -24399   -24522   -24676   -24850   -25056   -25289   -25531 
  -25789   -26053   -26307   -26567   -26815   -27017   -27207   -27406 
  -27589   -27748   -27887   -28004   -28115   -28245   -28391   -28551 
  -28736   -28934   -29123   -29304   -29503   -29728   -29955   -30167 
  -30379   -30591   -30784   -30962   -31140   -31317   -31488   -31646 
  -31766   -31863   -31966   -32073   -32169   -32231   -32250   -32250 
  -32251   -32228   -32167   -32093   -32016   -31941   -31846   -31698 
  -31513   -31303   -31061   -30807   -30531   -30209   -29851   -29470 
  -29087   -28707   -28315   -27906   -27494   -27092   -26688   -26283 
  -25896   -25513   -25122   -24737   -24350   -23966   -23607   -23284 
  -23003   -22760   -22562   -22411   -22292   -22194   -22107   -22023 
  -21962   -21928   -21913   -21928   -21953   -21976   -22025   -22089 
  -22146   -22206   -22283   -22382   -22510   -22660   -22809   -22945 
  -23091   -23242   -23385   -23533   -23674   -23793   -23900   -24007 
  -24129   -24252   -24354   -24458   -24571   -24685   -24822   -24976 
  -25116   -25277   -25494   -25719   -25927   -26150   -26384   -26614 
  -26843   -27050   -27243   -27445   -27634   -27808   -28004   -28214 
  -28424   -28654   -28906   -29156   -29396   -29641   -29890   -30133 
  -30377   -30621   -30866   -31110   -31343   -31574   -31786   -31970 
  -32160   -32332   -32477   -32654   -32842   -33008   -33186   -33370 
  -33532   -33686   -33836   -33956   -34042   -34116   -34177   -34221 
  -34245   -34246   -34218   -34157   -34081   -33997   -33897   -33774 
  -33625   -33469   -33318   -33178   -33054   -32921   -32767   -32618 
  -32487   -32361   -32245   -32118   -31960   -31793   -31618   -31437 
  -31254   -31041   -30805   -30559   -30281   -29988   -29691   -29376 
  -29056   -28742   -28445   -28181   -27955   -27749   -27544   -27342 
  -27156   -27013   -26928   -26853   -26755   -26670   -26605   -26542 
  -26504   -26491   -26466   -26433   -26411   -26398   -26386   -26372 
  -26354   -26354   -26396   -26454   -26501   -26576   -26701   -26816 
  -26918   -27087   -27287   -27457   -27633   -27805   -27960   -28116 
  -28258   -28398   -28537   -28638   -28718   -28801   -28873   -28933 
  -28973   -29004   -29039   -29072   -29100   -29096   -29036   -28994 
  -29004   -28975   -28897   -28821   -28738   -28638   -28539   -28464 
  -28398   -28296   -28172   -28062   -27971   -27922   -27921   -27927 
  -27923   -27944   -28024   -28123   -28191   -28275   -28428   -28602 
  -28742   -28867   -29010   -29165   -29313   -29465   -29617   -29746 
  -29872   -30010   -30138   -30263   -30382   -30455   -30468   -30450 
  -30441   -30440   -30405   -30331   -30257   -30179   -30077   -29962 
  -29833   -29684   -29509   -29315   -29135   -28964   -28767   -28557 
  -28342   -28098   -27837   -27568   -27296   -27043   -26815   -26606 
  -26428   -26298   -26217   -26151   -26092   -26056   -26041   -26043 
  -26064   -26090   -26110   -26115   -26097   -26070   -26040   -25998 
  -25945   -25900   -25902   -25963   -26055   -26153   -26265   -26399 
  -26537   -26666   -26801   -26953   -27136   -27350   -27556   -27750 
  -27942   -28112   -28261   -28410   -28547   -28644   -28725   -28829 
  -28926   -28998   -29067   -29120   -29138   -29131   -29118   -29107 
  -29092   -29067   -29013   -28936   -28870   -28824   -28785   -28737 
  -28686   -28648   -28607   -28575   -28598   -28636   -28649   -28700 
  -28785   -28845   -28888   -28935   -28991   -29070   -29149   -29205 
  -29261   -29324   -29372   -29446   -29564   -29658   -29719   -29774 
  -29811   -29867   -29943   -29989   -30014   -30013   -29969   -29924 
  -29892   -29855   -29834   -29826   -29807   -29801   -29809   -29782 
  -29720   -29674   -29629   -29552   -29472   -29404   -29356   -29348 
  -29321   -29238   -29131   -28960   -28718   -28494   -28289   -28073 
  -27874   -27697   -27524   -27344   -27141   -26880   -26583   -26335 
  -26139   -25935   -25760   -25659   -25575   -25454   -25317   -25210 
  -25138   -25058   -25018   -25077   -25129   -25124   -25157   -25235 
  -25335   -25476   -25577   -25612   -25697   -25839   -25980   -26153 
  -26356   -26543   -26712   -26860   -26984   -27170   -27465   -27785 
  -28131   -28500   -28781   -29007   -29276   -29562   -29861   -30143 
  -30342   -30518   -30680   -30782   -30888   -30986   -31022   -31028 
  -31024   -30992   -30902   -30788   -30699   -30563   -30380   -30185 
  -29938   -29714   -29547   -29350   -29166   -29057   -28947   -28760 
  -28518   -28253   -28002   -27838   -27749   -27707   -27745   -27722 
  -27530   -27438   -27577   -27686   -27676   -27651   -27679   -27863 
  -28145   -28317   -28409   -28643   -28992   -29197   -29313   -29525 
  -29680   -29765   -30016   -30311   -30418   -30458   -30465   -30357 
  -30361   -30522   -30557   -30443   -30282   -30123   -30089   -30124 
  -29978   -29684   -29509   -29395   -29138   -28915   -28849   -28666 
  -28306   -28061   -27957   -27807   -27632   -27536   -27469   -27340 
  -27177   -27066   -26934   -26699   -26436   -26183   -26004   -25949 
  -25824   -25620   -25482   -25291   -25132   -25169   -25168   -25051 
  -24959   -24896   -24827   -24725   -24698   -24764   -24650   -24491 
  -24559   -24544   -24442   -24528   -24580   -24550   -24564   -24575 
  -24707   -24967   -25193   -25445   -25786   -26115   -26426   -26790 
  -27182   -27563   -27966   -28402   -28783   -29080   -29460   -29971 
  -30454   -30808   -31106   -31488   -31796   -31963   -32275   -32639 
  -32835   -33018   -33237   -33466   -33691   -33820   -33898   -33946 
  -33936   -33977   -34071   -34119   -34131   -34106   -34050   -34023 
  -33996   -33901   -33756   -33616   -33520   -33447   -33331   -33151 
  -32959   -32792   -32595   -32354   -32185   -32081   -31890   -31648 
  -31472   -31343   -31206   -30992   -30740   -30591   -30518   -30438 
  -30383   -30295   -30123   -29959   -29832   -29739   -29695   -29603 
  -29436   -29256   -29033   -28852   -28731   -28425   -28021   -27877 
  -27840   -27561   -27172   -26963   -26871   -26678   -26389   -26145 
  -25996   -25854   -25700   -25579   -25430   -25295   -25210   -25073 
  -24931   -24841   -24757   -24681   -24597   -24520   -24527   -24579 
  -24604   -24649   -24739   -24821   -24881   -24952   -25054   -25167 
  -25256   -25328   -25389   -25477   -25617   -25700   -25769   -25931 
  -25999   -25970   -26045   -26150   -26234   -26362   -26492   -26563 
  -26581   -26638   -26753   -26813   -26806   -26828   -26921   -27022 
  -27072   -27106   -27190   -27315   -27408   -27432   -27404   -27319 
  -27187   -27085   -27024   -26929   -26815   -26747   -26671   -26513 
  -26349   -26242   -26131   -25988   -25823   -25638   -25497   -25421 
  -25325   -25211   -25147   -25088   -24991   -24924   -24919   -24909 
  -24924   -25023   -24989   -24756   -24722   -24899   -25011   -25142 
  -25147   -24982   -25129   -25393   -25402   -25613   -25988   -26071 
  -26212   -26538   -26712   -26935   -27263   -27413   -27604   -27992 
  -28274   -28487   -28762   -28940   -29169   -29403   -29270   -29266 
  -29721   -29943   -29889   -30007   -30240   -30439   -30501   -30565 
  -30722   -30737   -30705   -30785   -30864   -30949   -30957   -30795 
  -30691   -30699   -30735   -30861   -30784   -30484   -30561   -30785 
  -30598   -30372   -30316   -30164   -30006   -29900   -29751   -29619 
  -29539   -29526   -29487   -29349   -29334   -29385   -29237   -29193 
  -29448   -29493   -29219   -29166   -29392   -29482   -29341   -29209 
  -29240   -29294   -29200   -29087   -29084   -29061   -29050   -29163 
  -29173   -29046   -29096   -29277   -29291   -29191   -29142   -29081 
  -28997   -28841   -28578   -28381   -28204   -27963   -27783   -27645 
  -27508   -27438   -27441   -27424   -27349   -27288   -27310   -27420 
  -27535   -27578   -27635   -27798   -28005   -28185   -28355   -28522 
  -28694   -28876   -28958   -28930   -29011   -29231   -29363   -29352 
  -29336   -29351   -29344   -29327   -29322   -29353   -29400   -29365 
  -29296   -29282   -29335   -29535   -29734   -29768   -29863   -30000 
  -30074   -30339   -30745   -31052   -31295   -31490   -31640   -31824 
  -32077   -32368   -32591   -32642   -32774   -33118   -33082   -32808 
  -33079   -33256   -32984   -33050   -33118   -32828   -32604   -32477 
  -32490   -32389   -31957   -31638   -31423   -31242   -31187   -30905 
  -30616   -30564   -30168   -29527   -29382   -29559   -29310   -28803 
  -28514   -28173   -27891   -27850   -27587   -27276   -27243   -26947 
  -26457   -26589   -26928   -26758   -26551   -26459   -26236   -26279 
  -26649   -26821   -26873   -27024   -26960   -26932   -27299   -27480 
  -27389   -27460   -27486   -27475   -27612   -27658   -27604   -27548 
  -27471   -27544   -27755   -27723   -27507   -27594   -27762   -27676 
  -27738   -27997   -28097   -28041   -27909   -27921   -28323   -28643 
  -28584   -28621   -28680   -28610   -28766   -29206   -29670   -29648 
  -29382   -29715   -30266   -30288   -30261   -30784   -31072   -30768 
  -30823   -31049   -31013   -31144   -31028   -30720   -30985   -31116 
  -30703   -30568   -30627   -30440   -30409   -30591   -30467   -30106 
  -29851   -29846   -30112   -30164   -29860   -29841   -30096   -29954 
  -29632   -29794   -29953   -29659   -29544   -29712   -29703   -29489 
  -29350   -29469   -29507   -29354   -29376   -29454   -29410   -29322 
  -29166   -29102   -29208   -29241   -29229   -29287   -29261   -29253 
  -29363   -29244   -29014   -29078   -29122   -28923   -28735   -28501 
  -28102   -27769   -27683   -27566   -27160   -26818   -26569   -26059 
  -25650   -25548   -25377   -25004   -24433   -23917   -23713   -23517 
  -23118   -22739   -22490   -22253   -22003   -21782   -21503   -21259 
  -21207   -21213   -21157   -21121   -21200   -21296   -21294   -21412 
  -21760   -22081   -22290   -22475   -22664   -23000   -23532   -24036 
  -24330   -24485   -24768   -25265   -25717   -26087   -26581   -27015 
  -27249   -27586   -28017   -28349   -28643   -28869   -29096   -29368 
  -29431   -29418   -29663   -29961   -30094   -30151   -30153   -30220 
  -30485   -30794   -30946   -30959   -31118   -31462   -31575   -31460 
  -31551   -31902   -32219   -32182   -31992   -32180   -32564   -32713 
  -32782   -32899   -32982   -33205   -33466   -33466   -33432   -33507 
  -33651   -33926   -33867   -33433   -33410   -33632   -33446   -33138 
  -33033   -32968   -32900   -32761   -32411   -32157   -32214   -32083 
  -31601   -31315   -31327   -31268   -31062   -30814   -30605   -30542 
  -30605   -30619   -30488   -30407   -30424   -30358   -30365   -30531 
  -30592   -30473   -30349   -30285   -30169   -30117   -30157   -29964 
  -29716   -29667   -29518   -29326   -29253   -29050   -28787   -28621 
  -28436   -28270   -28107   -27860   -27615   -27387   -27189   -27029 
  -26809   -26556   -26378   -26204   -25947   -25749   -25644   -25482 
  -25286   -25107   -24964   -24974   -25007   -24859   -24756   -24775 
  -24724   -24711   -24762   -24675   -24489   -24371   -24400   -24547 
  -24669   -24673   -24618   -24613   -24717   -24902   -25066   -25152 
  -25220   -25361   -25526   -25652   -25820   -25991   -26090   -26234 
  -26393   -26454   -26502   -26528   -26517   -26592   -26701   -26777 
  -26887   -26951   -26955   -27050   -27106   -26991   -27053   -27269 
  -27160   -27003   -27044   -26909   -26805   -26872   -26834   -26780 
  -26646   -26526   -26680   -26711   -26572   -26540   -26408   -26344 
  -26496   -26438   -26344   -26470   -26452   -26363   -26400   -26405 
  -26429   -26391   -26236   -26350   -26603   -26501   -26401   -26569 
  -26591   -26612   -26836   -26978   -27031   -27084   -27187   -27338 
  -27408   -27489   -27555   -27536   -27640   -27777   -27813   -27849 
  -27810   -27783   -27847   -27805   -27741   -27720   -27609   -27479 
  -27350   -27233   -27202   -27113   -26932   -26813   -26720   -26628 
  -26610   -26568   -26437   -26347   -26361   -26381   -26394   -26447 
  -26479   -26519   -26597   -26612   -26634   -26732   -26785   -26788 
  -26853   -26991   -27088   -27151   -27315   -27511   -27674   -27897 
  -28148   -28373   -28600   -28881   -29217   -29520   -29783   -30062 
  -30339   -30594   -30873   -31201   -31512   -31809   -32114   -32386 
  -32664   -32929   -33197   -33513   -33792   -34085   -34415   -34686 
  -34971   -35262   -35517   -35783   -36037   -36292   -36534   -36763 
  -37012   -37193   -37323   -37491   -37658   -37765   -37814   -37859 
  -37890   -37875   -37865   -37878   -37875   -37871   -37898   -37880 
  -37795   -37755   -37733   -37640   -37526   -37428   -37294   -37093 
  -36873   -36660   -36401   -36065   -35712   -35367   -34967   -34535 
  -34110   -33661   -33178   -32652   -32116   -31577   -30954   -30303 
  -29694   -29065   -28454   -27911   -27359   -26794   -26288   -25843 
  -25423   -25020   -24679   -24407   -24117   -23872   -23779   -23697 
  -23596   -23588   -23569   -23539   -23620   -23689   -23749   -23909 
  -24052   -24186   -24403   -24629   -24843   -25071   -25312   -25577 
  -25884   -26204   -26486   -26781   -27087   -27332   -27589   -27871 
  -28130   -28424   -28698   -28932   -29241   -29542   -29795   -30108 
  -30400   -30639   -30903   -31133   -31326   -31548   -31744   -31897 
  -32073   -32243   -32324   -32393   -32516   -32567   -32585   -32679 
  -32718   -32740   -32830   -32855   -32880   -32938   -32927   -32954 
  -32971   -32898   -32873   -32824   -32660   -32531   -32398   -32163 
  -31953   -31763   -31528   -31306   -31013   -30687   -30461   -30166 
  -29829   -29612   -29358   -29104   -28956   -28721   -28467   -28332 
  -28139   -27905   -27764   -27608   -27464   -27408   -27291   -27140 
  -27099   -27039   -26911   -26836   -26749   -26667   -26682   -26652 
  -26588   -26633   -26655   -26646   -26731   -26801   -26834   -26934 
  -27029   -27140   -27343   -27498   -27657   -27933   -28158   -28366 
  -28683   -28951   -29207   -29575   -29929   -30281   -30697   -31092 
  -31523   -31985   -32304   -32595   -33000   -33362   -33668   -34013 
  -34279   -34471   -34706   -34886   -35017   -35174   -35237   -35231 
  -35281   -35284   -35213   -35177   -35117   -35019   -34964   -34881 
  -34762   -34683   -34546   -34356   -34252   -34126   -33913   -33763 
  -33606   -33364   -33176   -32978   -32692   -32471   -32264   -31969 
  -31740   -31549   -31273   -31025   -30810   -30555   -30350   -30156 
  -29903   -29722   -29589   -29399   -29252   -29141   -28958   -28811 
  -28739   -28602   -28474   -28425   -28300   -28166   -28142   -28079 
  -27986   -27975   -27955   -27912   -27928   -27935   -27907   -27931 
  -27979   -28018   -28100   -28237   -28379   -28495   -28624   -28790 
  -28933   -29074   -29260   -29421   -29552   -29716   -29868   -29957 
  -30056   -30167   -30232   -30312   -30403   -30430   -30449   -30490 
  -30494   -30446   -30376   -30307   -30216   -30089   -29967   -29854 
  -29705   -29534   -29369   -29173   -28938   -28708   -28473   -28184 
  -27864   -27557   -27229   -26880   -26545   -26209   -25848   -25476 
  -25108   -24742   -24374   -24021   -23695   -23375   -23048   -22756 
  -22492   -22214   -21967   -21769   -21575   -21414   -21296   -21170 
  -21056   -20995   -20955   -20929   -20931   -20937   -20955   -21022 
  -21129   -21275   -21471   -21692   -21923   -22184   -22491   -22843 
  -23210   -23582   -23987   -24430   -24868   -25307   -25771   -26216 
  -26639   -27097   -27577   -28047   -28499   -28931   -29357   -29760 
  -30101   -30393   -30663   -30928   -31175   -31399   -31611   -31800 
  -31970   -32129   -32262   -32370   -32481   -32609   -32731   -32828 
  -32901   -32981   -33077   -33151   -33221   -33322   -33423   -33504 
  -33575   -33628   -33681   -33736   -33756   -33761   -33775   -33761 
  -33723   -33708   -33687   -33640   -33598   -33552   -33492   -33439 
  -33380   -33312   -33228   -33122   -33027   -32943   -32851   -32744 
  -32630   -32528   -32413   -32252   -32061   -31840   -31601   -31350 
  -31073   -30796   -30507   -30191   -29894   -29599   -29267   -28936 
  -28611   -28280   -27966   -27639   -27281   -26935   -26595   -26246 
  -25916   -25616   -25346   -25104   -24884   -24685   -24512   -24363 
  -24219   -24088   -23969   -23848   -23744   -23675   -23625   -23581 
  -23533   -23484   -23462   -23480   -23497   -23502   -23540   -23618 
  -23715   -23838   -23990   -24165   -24384   -24624   -24863   -25125 
  -25399   -25674   -25975   -26279   -26547   -26842   -27209   -27596 
  -28003   -28434   -28855   -29284   -29722   -30150   -30591   -31034 
  -31448   -31833   -32210   -32576   -32902   -33203   -33499   -33757 
  -33971   -34161   -34327   -34472   -34591   -34691   -34794   -34886 
  -34957   -35031   -35112   -35188   -35249   -35302   -35358   -35392 
  -35400   -35435   -35490   -35521   -35558   -35636   -35720   -35785 
  -35832   -35868   -35887   -35880   -35862   -35842   -35792   -35694 
  -35585   -35496   -35389   -35263   -35160   -35068   -34953   -34810 
  -34660   -34530   -34404   -34248   -34083   -33947   -33816   -33671 
  -33533   -33372   -33161   -32952   -32783   -32613   -32414   -32212 
  -32022   -31820   -31594   -31362   -31122   -30845   -30540   -30235 
  -29922   -29587   -29238   -28902   -28584   -28246   -27895   -27550 
  -27187   -26816   -26466   -26121   -25754   -25384   -25046   -24747 
  -24467   -24193   -23945   -23750   -23571   -23375   -23196   -23056 
  -22921   -22759   -22589   -22444   -22312   -22169   -22045   -21962 
  -21883   -21796   -21733   -21705   -21690   -21679   -21699   -21749 
  -21817   -21922   -22066   -22238   -22428   -22623   -22826   -23044 
  -23278   -23534   -23814   -24132   -24493   -24854   -25195   -25562 
  -25947   -26327   -26735   -27171   -27596   -28026   -28485   -28928 
  -29330   -29718   -30094   -30443   -30761   -31042   -31296   -31541 
  -31792   -32044   -32270   -32486   -32725   -32963   -33174   -33385 
  -33601   -33800   -33987   -34170   -34332   -34476   -34605   -34725 
  -34856   -35006   -35160   -35318   -35496   -35685   -35866   -36041 
  -36228   -36412   -36565   -36701   -36833   -36937   -37008   -37052 
  -37069   -37054   -36998   -36901   -36762   -36581   -36365   -36115 
  -35837   -35536   -35183   -34770   -34316   -33820   -33294   -32767 
