Origin Time       2011/03/11 14:46:00
Lat.              38.103
Long.             142.860
Depth. (km)       24
Mag.              9.0
Station Code      NAR001
Station Lat.      34.7153
Station Long.     135.7276
Station Height(m) 149
Record Time       2011/03/11 14:49:38
Sampling Freq(Hz) 100Hz
Duration Time(s)  163
Dir.              E-W
Scale Factor      3920(gal)/6182761
Max. Acc. (gal)   3.999
Last Correction   2011/03/11 14:49:23
Memo.             
[...]
  -20467   -20493   -20532   -20592   -20670   -20735   -20799   -20912 
  -21078   -21271   -21496   -21740   -21985   -22262   -22590   -22929 
  -23247   -23559   -23874   -24185   -24512   -24846   -25132   -25378 
  -25627   -25900   -26201   -26469   -26666   -26838   -27009   -27154 
  -27279   -27385   -27453   -27510   -27595   -27691   -27763   -27796 
  -27774   -27721   -27691   -27667   -27599   -27493   -27365   -27230 
  -27120   -27010   -26864   -26715   -26590   -26482   -26383   -26273 
  -26140   -25995   -25834   -25651   -25475   -25302   -25101   -24894 
  -24716   -24544   -24363   -24179   -23971   -23751   -23563   -23386 
  -23161   -22872   -22550   -22231   -21921   -21605   -21292   -21003 
  -20715   -20441   -20224   -20054   -19909   -19797   -19735   -19734 
  -19789   -19888   -20025   -20196   -20386   -20577   -20759   -20935 
  -21124   -21345   -21578   -21798   -22043   -22330   -22593   -22816 
  -23041   -23237   -23373   -23480   -23550   -23569   -23569   -23567 
  -23558   -23552   -23559   -23577   -23617   -23692   -23795   -23907 
  -24007   -24105   -24227   -24360   -24488   -24614   -24734   -24853 
  -24977   -25112   -25263   -25417   -25566   -25712   -25840   -25951 
  -26037   -26087   -26136   -26172   -26152   -26117   -26103   -26082 
  -26060   -26058   -26054   -26028   -26016   -26022   -26008   -25998 
  -26006   -25978   -25936   -25908   -25846   -25766   -25698   -25586 
  -25425   -25279   -25154   -25000   -24797   -24547   -24270   -23993 
  -23713   -23453   -23221   -22951   -22645   -22359   -22085   -21824 
  -21605   -21407   -21216   -21046   -20889   -20763   -20727   -20732 
  -20656   -20524   -20425   -20339   -20272   -20245   -20201   -20133 
  -20100   -20106   -20141   -20232   -20346   -20433   -20542   -20677 
  -20788   -20914   -21077   -21231   -21387   -21560   -21703   -21820 
  -21980   -22217   -22495   -22735   -22918   -23071   -23220   -23365 
  -23461   -23498   -23528   -23534   -23477   -23403   -23350   -23287 
  -23168   -23002   -22835   -22666   -22515   -22439   -22441   -22484 
  -22505   -22448   -22361   -22316   -22313   -22303   -22271   -22261 
  -22276   -22300   -22391   -22537   -22674   -22791   -22869   -22887 
  -22864   -22814   -22775   -22795   -22839   -22877   -22918   -22921 
  -22908   -22954   -23050   -23158   -23248   -23277   -23269   -23301 
  -23352   -23382   -23425   -23476   -23506   -23531   -23610   -23690 
  -23685   -23669   -23670   -23651   -23660   -23712   -23767   -23797 
  -23784   -23771   -23796   -23796   -23721   -23549   -23281   -23026 
  -22851   -22777   -22734   -22461   -22052   -21897   -21860   -21655 
  -21453   -21323   -21135   -21002   -20935   -20790   -20621   -20443 
  -20256   -20155   -20087   -19956   -19797   -19674   -19654   -19772 
  -19942   -20001   -19915   -19897   -20113   -20359   -20449   -20561 
  -20779   -20991   -21246   -21570   -21906   -22270   -22578   -22804 
  -23063   -23342   -23613   -23947   -24312   -24632   -24911   -25154 
  -25331   -25435   -25496   -25506   -25438   -25325   -25290   -25334 
  -25214   -24912   -24751   -24671   -24383   -24081   -23889   -23566 
  -23254   -23136   -22916   -22557   -22334   -22233   -22079   -21834 
  -21692   -21718   -21640   -21481   -21482   -21447   -21365   -21503 
  -21647   -21740   -21966   -22154   -22397   -22822   -23137   -23423 
  -23896   -24304   -24575   -24891   -25173   -25394   -25602   -25753 
  -25958   -26163   -26180   -26218   -26400   -26456   -26368   -26349 
  -26289   -26110   -26037   -25997   -25808   -25663   -25587   -25466 
  -25393   -25338   -25253   -25241   -25276   -25278   -25292   -25315 
  -25319   -25379   -25497   -25604   -25679   -25727   -25803   -25891 
  -25878   -25787   -25714   -25647   -25549   -25403   -25256   -25180 
  -25089   -24878   -24623   -24369   -24066   -23717   -23335   -22887 
  -22380   -21901   -21526   -21181   -20762   -20325   -19936   -19544 
  -19127   -18759   -18495   -18283   -17995   -17602   -17269   -17248 
  -17489   -17517   -17354   -17484   -17719   -17830   -18052   -18335 
  -18608   -18947   -19336   -19787   -20275   -20768   -21251   -21718 
  -22155   -22546   -22937   -23308   -23641   -24018   -24389   -24672 
  -24954   -25246   -25460   -25674   -25956   -26207   -26379   -26516 
  -26594   -26561   -26529   -26680   -26855   -26767   -26655   -26718 
  -26741   -26726   -26688   -26586   -26602   -26658   -26618   -26682 
  -26829   -26832   -26780   -26833   -26870   -26803   -26703   -26572 
  -26420   -26302   -26171   -25961   -25721   -25536   -25430   -25346 
  -25233   -25071   -24850   -24627   -24415   -24136   -23821   -23578 
  -23378   -23115   -22811   -22556   -22334   -22097   -21826   -21481 
  -21090   -20725   -20364   -20014   -19768   -19617   -19456   -19303 
  -19342   -19518   -19434   -19250   -19651   -20146   -19870   -19710 
  -20244   -20666   -20955   -21174   -21238   -21793   -22413   -22450 
  -22760   -23349   -23450   -23616   -24068   -24253   -24413   -24762 
  -25088   -25300   -25336   -25261   -25302   -25564   -25737   -25677 
  -25569   -25454   -25640   -25952   -25904   -25921   -26082   -26117 
  -26131   -26085   -26083   -26075   -25974   -25945   -25752   -25470 
  -25665   -25902   -25443   -25063   -25301   -25377   -25183   -24937 
  -24678   -24535   -24208   -23823   -23605   -23280   -22995   -22829 
  -22575   -22263   -22009   -21883   -21764   -21615   -21537   -21316 
  -20937   -20860   -21083   -21035   -20677   -20561   -20664   -20644 
  -20579   -20474   -20441   -20545   -20521   -20593   -20790   -20736 
  -20812   -21229   -21448   -21468   -21719   -22077   -22320   -22654 
  -23004   -23228   -23550   -23862   -24091   -24397   -24647   -24902 
  -25256   -25497   -25648   -25883   -26128   -26276   -26407   -26509 
  -26572   -26727   -26878   -26896   -26919   -27056   -27167   -27139 
  -27102   -27057   -26907   -26740   -26530   -26206   -25847   -25552 
  -25311   -24952   -24543   -24282   -23993   -23633   -23386   -23194 
  -22960   -22723   -22550   -22388   -22212   -22162   -22180   -22130 
  -22112   -22085   -21927   -21824   -21845   -21807   -21758   -21737 
  -21669   -21660   -21745   -21730   -21566   -21676   -22061   -21930 
  -21732   -22170   -22166   -21835   -22175   -22282   -22008   -22147 
  -22115   -21886   -22094   -22179   -21956   -21954   -21964   -21919 
  -21984   -21906   -21819   -21850   -21768   -21713   -21669   -21634 
  -21859   -21940   -21824   -21934   -21969   -21853   -22029   -22416 
  -22409   -22261   -22626   -22886   -22887   -23217   -23502   -23507 
  -23484   -23599   -23866   -23980   -24048   -24222   -24226   -24218 
  -24340   -24411   -24454   -24402   -24307   -24410   -24547   -24556 
  -24572   -24524   -24414   -24514   -24648   -24562   -24548   -24653 
  -24537   -24376   -24432   -24466   -24560   -24676   -24523   -24579 
  -24766   -24782   -25110   -25278   -25081   -25295   -25544   -25479 
  -25689   -25915   -25721   -25670   -25817   -25676   -25603   -25766 
  -25620   -25440   -25507   -25255   -25063   -25243   -24935   -24477 
  -24587   -24416   -23911   -23884   -23766   -23308   -23184   -23138 
  -22807   -22608   -22575   -22326   -22164   -22283   -22244   -22209 
  -22393   -22533   -22709   -22965   -23167   -23390   -23716   -24069 
  -24319   -24539   -24826   -25090   -25341   -25651   -25923   -25956 
  -25963   -26230   -26311   -26119   -26130   -26172   -26069   -26006 
  -25933   -25794   -25672   -25631   -25603   -25489   -25380   -25296 
  -25161   -24975   -24814   -24730   -24542   -24357   -24404   -24375 
  -24218   -24240   -24373   -24359   -24306   -24502   -24680   -24669 
  -24814   -24996   -25049   -25182   -25334   -25392   -25435   -25497 
  -25512   -25528   -25595   -25575   -25566   -25632   -25601   -25528 
  -25459   -25424   -25400   -25241   -25049   -24941   -24965   -24982 
  -24753   -24621   -24738   -24696   -24646   -24754   -24718   -24637 
  -24634   -24531   -24461   -24466   -24279   -24108   -24181   -24119 
  -23936   -23878   -23831   -23840   -23841   -23816   -23805   -23630 
  -23609   -23769   -23600   -23394   -23471   -23500   -23396   -23266 
  -23213   -23386   -23532   -23467   -23528   -23701   -23790   -23962 
  -24134   -24286   -24539   -24542   -24576   -25012   -24949   -24763 
  -25351   -25542   -25301   -25550   -25716   -25779   -26006   -26007 
  -25922   -26004   -26177   -26220   -26002   -25910   -26070   -26047 
  -25852   -25791   -25828   -25828   -25744   -25593   -25484   -25362 
  -25131   -25017   -25029   -24731   -24226   -24155   -24166   -23689 
  -23422   -23422   -23071   -22765   -22657   -22511   -22385   -22175 
  -21999   -21874   -21639   -21573   -21514   -21187   -21017   -20919 
  -20641   -20572   -20558   -20364   -20349   -20397   -20341   -20381 
  -20552   -20756   -20825   -20982   -21416   -21768   -22058   -22434 
  -22779   -23209   -23685   -24051   -24389   -24703   -25008   -25372 
  -25762   -26168   -26447   -26571   -26790   -27059   -27250   -27447 
  -27592   -27612   -27647   -27774   -27888   -27905   -27929   -28032 
  -27986   -27934   -28068   -27968   -27791   -27808   -27602   -27388 
  -27396   -27213   -26940   -26768   -26524   -26288   -26109   -25893 
  -25740   -25513   -25137   -24982   -24888   -24583   -24437   -24276 
  -23788   -23530   -23494   -23172   -22884   -22727   -22473   -22321 
  -22146   -22014   -22026   -21709   -21486   -21661   -21522   -21304 
  -21370   -21310   -21169   -21146   -21186   -21217   -21118   -21070 
  -21274   -21415   -21389   -21499   -21604   -21637   -21827   -22025 
  -22217   -22481   -22597   -22748   -23056   -23248   -23432   -23582 
  -23646   -23925   -24096   -24083   -24379   -24668   -24708   -24836 
  -25043   -25242   -25414   -25518   -25722   -25969   -26039   -26147 
  -26409   -26598   -26719   -26927   -27219   -27474   -27689   -27930 
  -28134   -28301   -28404   -28468   -28618   -28628   -28450   -28410 
  -28375   -28167   -27974   -27808   -27564   -27288   -27072   -26885 
  -26622   -26340   -26101   -25867   -25613   -25318   -25030   -24737 
  -24383   -24061   -23754   -23383   -23014   -22617   -22224   -21892 
  -21500   -21150   -20897   -20555   -20240   -20048   -19808   -19551 
  -19398   -19258   -19052   -18885   -18784   -18667   -18571   -18546 
  -18525   -18466   -18442   -18497   -18546   -18555   -18586   -18641 
  -18684   -18739   -18828   -18916   -19005   -19095   -19169   -19243 
  -19312   -19384   -19507   -19660   -19785   -19921   -20111   -20273 
  -20443   -20702   -20917   -21087   -21308   -21488   -21637   -21832 
  -22035   -22247   -22455   -22643   -22854   -23053   -23192   -23306 
  -23410   -23485   -23534   -23535   -23491   -23440   -23345   -23218 
  -23106   -22957   -22774   -22601   -22429   -22256   -22069   -21886 
  -21704   -21487   -21264   -21070   -20871   -20686   -20562   -20423 
  -20264   -20183   -20124   -20033   -19975   -19946   -19891   -19841 
  -19806   -19721   -19646   -19614   -19524   -19493   -19573   -19590 
  -19640   -19753   -19790   -19881   -19995   -20040   -20198   -20341 
  -20371   -20533   -20687   -20743   -20935   -21127   -21237   -21460 
  -21679   -21834   -22103   -22368   -22560   -22870   -23175   -23355 
  -23654   -23981   -24153   -24418   -24692   -24802   -25042   -25297 
  -25397   -25620   -25787   -25780   -25916   -26002   -25954   -26049 
  -26067   -25961   -25972   -25881   -25683   -25627   -25472   -25195 
  -25044   -24816   -24510   -24331   -24052   -23708   -23478   -23124 
  -22726   -22441   -22034   -21640   -21371   -20949   -20549   -20315 
  -19965   -19617   -19427   -19134   -18826   -18684   -18435   -18154 
  -18073   -17918   -17730   -17717   -17637   -17555   -17626   -17587 
  -17529   -17608   -17595   -17598   -17734   -17728   -17736   -17930 
  -17988   -18041   -18287   -18395   -18482   -18759   -18935   -19103 
  -19409   -19641   -19921   -20289   -20532   -20836   -21246   -21527 
  -21885   -22387   -22694   -22973   -23428   -23772   -24078   -24533 
  -24878   -25165   -25572   -25842   -26023   -26317   -26498   -26603 
  -26789   -26846   -26848   -26966   -26972   -26890   -26907   -26823 
  -26652   -26590   -26443   -26192   -26037   -25805   -25461   -25190 
  -24855   -24444   -24123   -23734   -23290   -22991   -22642   -22198 
  -21888   -21571   -21178   -20924   -20667   -20302   -20068   -19882 
  -19602   -19449   -19340   -19102   -18961   -18865   -18647   -18525 
  -18463   -18276   -18150   -18084   -17919   -17813   -17807   -17744 
  -17721   -17791   -17808   -17829   -17922   -17973   -18006   -18098 
  -18199   -18303   -18433   -18593   -18766   -18884   -18981   -19144 
  -19284   -19392   -19577   -19754   -19882   -20075   -20294   -20496 
  -20730   -20963   -21185   -21467   -21786   -22093   -22432   -22812 
  -23169   -23521   -23893   -24252   -24604   -24952   -25266   -25576 
  -25889   -26173   -26445   -26699   -26914   -27111   -27299   -27486 
  -27653   -27768   -27874   -27969   -27999   -27976   -27914   -27788 
  -27606   -27391   -27141   -26859   -26569   -26270   -25952   -25615 
  -25254   -24870   -24464   -24052   -23630   -23161   -22671   -22206 
  -21765   -21331   -20906   -20514   -20134   -19723   -19340   -19042 
  -18746   -18425   -18166   -17950   -17720   -17516   -17359   -17207 
  -17040   -16903   -16823   -16779   -16744   -16733   -16786   -16886 
  -17005   -17163   -17349   -17537   -17741   -17986   -18283   -18610 
  -18917   -19212   -19558   -19939   -20298   -20681   -21106   -21517 
  -21910   -22297   -22674   -23051   -23419   -23766   -24095   -24386 
  -24627   -24849   -25081   -25319   -25562   -25810   -26055   -26300 
  -26532   -26724   -26891   -27042   -27154   -27254   -27400   -27560 
  -27686   -27811   -27926   -28001   -28075   -28123   -28117   -28108 
  -28090   -28039   -27956   -27843   -27719   -27582   -27413   -27210 
  -26983   -26756   -26555   -26377   -26208   -26057   -25928   -25795 
  -25624   -25435   -25260   -25063   -24845   -24654   -24474   -24305 
  -24144   -23958   -23772   -23590   -23373   -23159   -22966   -22768 
  -22584   -22412   -22249   -22125   -22003   -21865   -21760   -21669 
  -21555   -21449   -21363   -21296   -21242   -21189   -21172   -21208 
  -21245   -21255   -21266   -21292   -21312   -21308   -21293   -21279 
  -21255   -21241   -21247   -21270   -21306   -21350   -21425   -21536 
  -21662   -21788   -21911   -22052   -22207   -22348   -22482   -22611 
  -22724   -22827   -22908   -22960   -22994   -23010   -23018   -23029 
  -23020   -22985   -22955   -22925   -22887   -22868   -22863   -22855 
  -22852   -22865   -22891   -22928   -22970   -23012   -23057   -23080 
  -23073   -23064   -23053   -23018   -22953   -22861   -22767   -22676 
  -22571   -22474   -22395   -22314   -22225   -22130   -22043   -21971 
  -21911   -21857   -21809   -21768   -21713   -21635   -21553   -21473 
  -21410   -21365   -21324   -21284   -21230   -21157   -21066   -20947 
  -20820   -20695   -20564   -20440   -20319   -20194   -20071   -19939 
  -19789   -19631   -19475   -19331   -19201   -19067   -18953   -18889 
  -18840   -18759   -18673   -18604   -18533   -18440   -18341   -18241 
  -18127   -18018   -17924   -17826   -17732   -17677   -17674   -17716 
  -17797   -17928   -18103   -18295   -18497   -18727   -18979   -19254 
  -19566   -19901   -20264   -20659   -21063   -21479   -21929   -22397 
  -22861   -23321   -23777   -24225   -24667   -25086   -25455   -25796 
  -26141   -26469   -26773   -27070   -27367   -27656   -27918   -28146 
  -28362   -28563   -28722   -28856   -28982   -29080   -29155   -29232 
  -29286   -29311   -29326   -29318   -29294   -29266   -29212   -29116 
  -28998   -28852   -28639   -28366   -28059   -27712   -27340   -26972 
  -26598   -26219   -25841   -25443   -25028   -24618   -24205   -23802 
  -23428   -23070   -22713   -22372   -22056   -21745   -21444   -21172 
  -20896   -20621   -20390   -20158   -19902   -19686   -19504   -19308 
  -19122   -18961   -18792   -18633   -18501   -18375   -18263   -18154 
  -18029   -17920   -17827   -17727   -17641   -17584   -17536   -17499 
  -17488   -17510   -17576   -17683   -17807   -17954   -18140   -18350 
  -18581   -18829   -19076   -19341   -19638   -19954   -20286   -20616 
  -20944   -21299   -21670   -22031   -22386   -22738   -23075   -23402 
  -23745   -24103   -24433   -24740   -25053   -25347   -25601   -25820 
  -26002   -26155   -26273   -26354   -26423   -26475   -26493   -26474 
  -26422   -26342   -26219   -26065   -25899   -25696   -25447   -25167 
  -24862   -24550   -24231   -23896   -23552   -23205   -22850   -22487 
  -22122   -21756   -21379   -21000   -20631   -20293   -19988   -19686 
  -19409   -19187   -19009   -18863   -18742   -18637   -18546   -18458 
  -18356   -18252   -18169   -18097   -18045   -18036   -18067   -18129 
  -18225   -18346   -18485   -18634   -18786   -18949   -19116   -19274 
  -19434   -19600   -19746   -19879   -20028   -20185   -20330   -20446 
  -20520   -20566   -20589   -20592   -20602   -20625   -20647   -20665 
  -20685   -20715   -20752   -20802   -20880   -20967   -21044   -21111 
  -21168   -21202   -21210   -21230   -21294   -21383   -21471   -21564 
  -21660   -21754   -21846   -21925   -21983   -22042   -22102   -22093 
  -22021   -22010   -22042   -21992   -21928   -21940   -21921   -21820 
  -21730   -21660   -21538   -21374   -21229   -21099   -20971   -20857 
  -20747   -20621   -20482   -20346   -20206   -20062   -19931   -19776 
  -19591   -19448   -19362   -19289   -19203   -19137   -19133   -19148 
  -19141   -19172   -19264   -19352   -19444   -19589   -19752   -19889 
  -20008   -20113   -20209   -20300   -20395   -20508   -20627   -20721 
  -20809   -20908   -21000   -21083   -21176   -21263   -21334   -21424 
  -21567   -21722   -21838   -21952   -22090   -22232   -22361   -22466 
  -22575   -22708   -22823   -22912   -23024   -23162   -23300   -23435 
  -23566   -23712   -23919   -24140   -24322   -24536   -24785   -24978 
  -25152   -25364   -25570   -25751   -25933   -26095   -26214   -26328 
  -26453   -26557   -26608   -26608   -26570   -26500   -26410   -26289 
  -26094   -25848   -25636   -25459   -25248   -25018   -24813   -24631 
  -24481   -24358   -24239   -24146   -24084   -23998   -23892   -23818 
  -23766   -23712   -23676   -23658   -23642   -23634   -23623   -23611 
  -23634   -23677   -23698   -23717   -23756   -23784   -23798   -23812 
  -23808   -23802   -23816   -23825   -23827   -23841   -23830   -23775 
  -23720   -23680   -23635   -23571   -23482   -23378   -23278   -23183 
  -23060   -22920   -22805   -22699   -22564   -22425   -22302   -22192 
  -22102   -22012   -21920   -21855   -21797   -21721   -21661   -21632 
  -21606   -21562   -21515   -21506   -21516   -21501   -21481   -21467 
  -21431   -21372   -21301   -21227   -21150   -21065   -20989   -20915 
  -20812   -20702   -20593   -20443   -20271   -20140   -20022   -19866 
  -19697   -19549   -19420   -19290   -19130   -18964   -18839   -18735 
  -18623   -18549   -18538   -18535   -18520   -18520   -18544   -18590 
  -18650   -18709   -18787   -18900   -19039   -19190   -19348   -19529 
