Origin Time       2011/03/11 14:46:00
Lat.              38.103
Long.             142.860
Depth. (km)       24
Mag.              9.0
Station Code      NAR005
Station Lat.      34.3414
Station Long.     135.6844
Station Height(m) 97
Record Time       2011/03/11 14:51:01
Sampling Freq(Hz) 100Hz
Duration Time(s)  62
Dir.              E-W
Scale Factor      3920(gal)/6182761
Max. Acc. (gal)   1.396
Last Correction   2011/03/11 14:50:46
Memo.             
[...]
   -2045    -2024    -2034    -2065    -2061    -2082    -2124    -2140 
   -2164    -2167    -2145    -2136    -2096    -2038    -1985    -1895 
   -1785    -1694    -1590    -1465    -1372    -1295    -1208    -1170 
   -1156    -1135    -1168    -1218    -1267    -1357    -1446    -1542 
   -1670    -1785    -1906    -2057    -2206    -2351    -2506    -2658 
   -2806    -2978    -3134    -3252    -3379    -3476    -3537    -3590 
   -3586    -3565    -3545    -3457    -3343    -3233    -3083    -2911 
   -2743    -2558    -2364    -2172    -1955    -1725    -1514    -1302 
   -1108     -942     -769     -636     -546     -447     -389     -371 
    -357     -391     -449     -485     -543     -622     -698     -798 
    -899     -967    -1054    -1154    -1228    -1318    -1410    -1478 
   -1578    -1688    -1781    -1881    -1967    -2031    -2092    -2135 
   -2152    -2170    -2183    -2181    -2197    -2198    -2173    -2187 
   -2197    -2189    -2217    -2228    -2224    -2243    -2241    -2226 
   -2204    -2126    -2018    -1931    -1841    -1732    -1628    -1517 
   -1407    -1337    -1257    -1180    -1154    -1125    -1123    -1160 
   -1164    -1192    -1260    -1318    -1408    -1521    -1611    -1701 
   -1806    -1901    -1981    -2063    -2118    -2158    -2219    -2243 
   -2261    -2296    -2276    -2248    -2229    -2172    -2124    -2069 
   -1992    -1955    -1914    -1834    -1776    -1727    -1638    -1573 
   -1542    -1472    -1409    -1380    -1332    -1303    -1297    -1288 
   -1323    -1383    -1453    -1567    -1696    -1827    -1983    -2142 
   -2294    -2468    -2630    -2740    -2845    -2941    -3006    -3089 
   -3150    -3158    -3178    -3178    -3150    -3146    -3115    -3047 
   -3003    -2943    -2841    -2759    -2681    -2572    -2486    -2408 
   -2313    -2254    -2190    -2119    -2097    -2073    -2052    -2069 
   -2068    -2056    -2070    -2086    -2079    -2080    -2088    -2073 
   -2074    -2089    -2082    -2096    -2099    -2078    -2082    -2057 
   -2025    -2041    -2036    -2023    -2043    -2052    -2059    -2084 
   -2102    -2121    -2155    -2163    -2150    -2149    -2118    -2073 
   -2051    -1995    -1940    -1928    -1903    -1906    -1955    -1988 
   -2030    -2098    -2143    -2167    -2192    -2189    -2165    -2158 
   -2117    -2046    -2010    -1966    -1936    -1944    -1914    -1890 
   -1890    -1834    -1770    -1719    -1626    -1534    -1451    -1331 
   -1205    -1089     -949     -836     -773     -708     -689     -717 
    -726     -760     -819     -864     -936    -1033    -1136    -1272 
   -1419    -1546    -1692    -1868    -2033    -2208    -2397    -2553 
   -2719    -2892    -3020    -3152    -3271    -3342    -3426    -3484 
   -3481    -3488    -3497    -3473    -3431    -3372    -3287    -3197 
   -3086    -2949    -2836    -2717    -2567    -2433    -2264    -2065 
   -1916    -1766    -1636    -1566    -1485    -1418    -1416    -1436 
   -1462    -1532    -1626    -1714    -1831    -1953    -2055    -2180 
   -2286    -2370    -2492    -2599    -2705    -2833    -2901    -2945 
   -2998    -2995    -2968    -2942    -2890    -2840    -2813    -2766 
   -2705    -2676    -2633    -2582    -2563    -2515    -2475    -2482 
   -2462    -2442    -2452    -2468    -2525    -2618    -2715    -2823 
   -2925    -3000    -3073    -3163    -3240    -3316    -3405    -3457 
   -3521    -3621    -3686    -3753    -3835    -3883    -3929    -3967 
   -3962    -3947    -3916    -3845    -3772    -3705    -3614    -3540 
   -3478    -3373    -3279    -3207    -3110    -3047    -3006    -2952 
   -2950    -2972    -2990    -3056    -3141    -3230    -3366    -3517 
   -3646    -3790    -3928    -4011    -4079    -4125    -4131    -4147 
   -4142    -4105    -4106    -4098    -4055    -4028    -3987    -3928 
   -3895    -3858    -3789    -3717    -3636    -3546    -3484    -3414 
   -3337    -3310    -3278    -3236    -3239    -3223    -3209    -3250 
   -3283    -3322    -3397    -3466    -3535    -3619    -3685    -3733 
   -3789    -3826    -3841    -3862    -3840    -3802    -3794    -3736 
   -3657    -3606    -3511    -3401    -3308    -3180    -3044    -2913 
   -2757    -2615    -2503    -2387    -2292    -2242    -2186    -2143 
   -2147    -2140    -2147    -2194    -2224    -2281    -2359    -2419 
   -2514    -2614    -2687    -2780    -2860    -2904    -2961    -3018 
   -3048    -3091    -3147    -3177    -3219    -3255    -3240    -3241 
   -3252    -3230    -3231    -3229    -3194    -3183    -3169    -3126 
   -3106    -3086    -3038    -3004    -2965    -2895    -2840    -2776 
   -2677    -2594    -2499    -2395    -2331    -2252    -2160    -2104 
   -2041    -1973    -1932    -1890    -1855    -1870    -1894    -1903 
   -1960    -2040    -2122    -2254    -2380    -2493    -2644    -2772 
   -2879    -2988    -3044    -3076    -3112    -3121    -3128    -3159 
   -3185    -3201    -3214    -3178    -3129    -3118    -3065    -2985 
   -2926    -2826    -2722    -2641    -2529    -2435    -2364    -2279 
   -2215    -2151    -2066    -1999    -1950    -1886    -1832    -1813 
   -1782    -1762    -1783    -1791    -1826    -1895    -1930    -1987 
   -2065    -2112    -2189    -2279    -2331    -2386    -2435    -2450 
   -2477    -2523    -2546    -2570    -2597    -2592    -2605    -2635 
   -2636    -2664    -2701    -2707    -2737    -2748    -2711    -2696 
   -2679    -2635    -2614    -2595    -2553    -2543    -2558    -2566 
   -2607    -2659    -2686    -2726    -2756    -2758    -2779    -2779 
   -2740    -2705    -2646    -2566    -2496    -2405    -2295    -2213 
   -2134    -2056    -2019    -1980    -1943    -1970    -2009    -2049 
   -2132    -2210    -2288    -2388    -2469    -2542    -2622    -2682 
   -2743    -2813    -2848    -2863    -2898    -2913    -2907    -2910 
   -2874    -2824    -2788    -2710    -2636    -2586    -2505    -2441 
   -2402    -2344    -2307    -2292    -2246    -2188    -2147    -2086 
   -2026    -1981    -1906    -1848    -1824    -1771    -1756    -1786 
   -1797    -1844    -1910    -1961    -2042    -2122    -2192    -2281 
   -2352    -2403    -2475    -2541    -2565    -2596    -2641    -2650 
   -2672    -2705    -2698    -2695    -2670    -2598    -2545    -2490 
   -2417    -2358    -2280    -2197    -2152    -2107    -2055    -2029 
   -1996    -1941    -1918    -1901    -1855    -1843    -1853    -1858 
   -1892    -1921    -1956    -2031    -2086    -2135    -2218    -2284 
   -2329    -2376    -2391    -2381    -2378    -2361    -2333    -2318 
   -2285    -2251    -2238    -2214    -2210    -2227    -2224    -2252 
   -2314    -2361    -2418    -2477    -2494    -2514    -2554    -2561 
   -2566    -2581    -2543    -2494    -2450    -2354    -2270    -2210 
   -2124    -2071    -2035    -1965    -1903    -1830    -1737    -1672 
   -1603    -1515    -1465    -1423    -1350    -1309    -1287    -1244 
   -1244    -1257    -1248    -1283    -1329    -1367    -1447    -1530 
   -1615    -1728    -1823    -1903    -2012    -2126    -2224    -2327 
   -2402    -2426    -2454    -2453    -2413    -2400    -2365    -2309 
   -2291    -2251    -2201    -2197    -2176    -2146    -2148    -2138 
   -2106    -2093    -2070    -2015    -1969    -1921    -1867    -1844 
   -1824    -1821    -1865    -1903    -1954    -2030    -2080    -2146 
   -2218    -2238    -2256    -2280    -2275    -2275    -2288    -2285 
   -2286    -2303    -2289    -2259    -2244    -2192    -2122    -2050 
   -1952    -1875    -1806    -1717    -1661    -1625    -1605    -1640 
   -1692    -1738    -1827    -1934    -2009    -2092    -2174    -2204 
   -2249    -2299    -2298    -2317    -2347    -2336    -2340    -2354 
   -2356    -2387    -2421    -2437    -2464    -2480    -2465    -2449 
   -2413    -2348    -2300    -2242    -2167    -2137    -2105    -2068 
   -2091    -2110    -2112    -2154    -2196    -2223    -2263    -2289 
   -2301    -2344    -2380    -2398    -2455    -2519    -2586    -2686 
   -2762    -2830    -2916    -2969    -3018    -3074    -3092    -3103 
   -3134    -3146    -3152    -3186    -3215    -3236    -3276    -3296 
   -3302    -3330    -3327    -3313    -3319    -3290    -3259    -3233 
   -3157    -3079    -2990    -2860    -2752    -2650    -2525    -2411 
   -2307    -2198    -2112    -2072    -2045    -2037    -2047    -2040 
   -2061    -2102    -2121    -2162    -2197    -2200    -2225    -2250 
   -2272    -2328    -2380    -2413    -2482    -2576    -2654    -2754 
   -2861    -2921    -2981    -3038    -3064    -3110    -3136    -3127 
   -3130    -3100    -3034    -2981    -2913    -2836    -2778    -2693 
   -2595    -2527    -2445    -2350    -2286    -2223    -2173    -2185 
   -2199    -2192    -2206    -2234    -2281    -2350    -2408    -2474 
   -2554    -2609    -2660    -2725    -2763    -2781    -2817    -2838 
   -2856    -2893    -2885    -2864    -2873    -2849    -2812    -2781 
   -2705    -2619    -2549    -2468    -2392    -2335    -2273    -2229 
   -2200    -2142    -2096    -2080    -2033    -1991    -1941    -1836 
   -1760    -1712    -1637    -1592    -1556    -1497    -1472    -1462 
   -1415    -1369    -1355    -1338    -1332    -1350    -1355    -1387 
   -1447    -1487    -1548    -1608    -1636    -1681    -1698    -1684 
   -1702    -1705    -1687    -1675    -1633    -1576    -1545    -1502 
   -1436    -1405    -1381    -1331    -1302    -1261    -1205    -1197 
   -1195    -1180    -1180    -1162    -1141    -1126    -1085    -1053 
   -1041    -1005     -964     -939     -893     -837     -808     -760 
    -705     -707     -715     -726     -775     -797     -813     -859 
    -871     -885     -939     -974    -1003    -1046    -1074    -1106 
   -1162    -1202    -1249    -1318    -1348    -1378    -1415    -1406 
   -1408    -1424    -1405    -1392    -1373    -1329    -1317    -1319 
   -1295    -1290    -1320    -1352    -1417    -1495    -1541    -1597 
   -1662    -1722    -1820    -1919    -2000    -2097    -2176    -2241 
   -2324    -2383    -2420    -2468    -2479    -2446    -2429    -2387 
   -2293    -2218    -2131    -2003    -1889    -1760    -1620    -1519 
   -1399    -1258    -1137     -999     -859     -739     -605     -470 
    -378     -304     -238     -217     -206     -217     -298     -377 
    -463     -615     -757     -904    -1077    -1218    -1367    -1533 
   -1676    -1810    -1932    -2022    -2096    -2163    -2192    -2198 
   -2211    -2192    -2160    -2144    -2095    -2045    -2011    -1932 
   -1856    -1795    -1704    -1640    -1593    -1507    -1431    -1376 
   -1301    -1230    -1174    -1111    -1057     -998     -899     -805 
    -727     -637     -575     -533     -496     -510     -541     -568 
    -626     -681     -716     -781     -840     -869     -936    -1016 
   -1055    -1118    -1190    -1226    -1284    -1348    -1387    -1446 
   -1505    -1545    -1594    -1624    -1630    -1645    -1632    -1585 
   -1556    -1514    -1437    -1375    -1301    -1214    -1161    -1093 
   -1021     -987     -934     -884     -879     -864     -830     -826 
    -833     -831     -849     -859     -856     -888     -914     -933 
    -994    -1042    -1082    -1147    -1181    -1206    -1240    -1235 
   -1216    -1193    -1150    -1122    -1111    -1076    -1024     -983 
    -914     -827     -762     -666     -583     -546     -481     -441 
    -458     -474     -526     -601     -654     -729     -826     -905 
    -976    -1035    -1060    -1091    -1139    -1158    -1190    -1247 
   -1265    -1298    -1337    -1331    -1354    -1376    -1356    -1359 
   -1344    -1300    -1294    -1289    -1265    -1272    -1285    -1280 
   -1300    -1319    -1307    -1300    -1265    -1189    -1133    -1066 
    -971     -887     -789     -697     -642     -574     -503     -465 
    -414     -360     -348     -326     -292     -296     -279     -243 
    -244     -239     -236     -272     -300     -326     -368     -403 
    -447     -502     -545     -602     -688     -763     -852     -979 
   -1087    -1190    -1321    -1433    -1553    -1698    -1799    -1889 
   -1988    -2051    -2115    -2186    -2228    -2273    -2326    -2355 
   -2388    -2429    -2434    -2433    -2442    -2417    -2390    -2348 
   -2254    -2176    -2089    -1954    -1840    -1715    -1558    -1434 
   -1321    -1190    -1084    -1006     -917     -844     -802     -755 
    -735     -740     -742     -787     -829     -846     -905     -957 
   -1002    -1098    -1185    -1266    -1391    -1509    -1616    -1761 
   -1908    -2037    -2190    -2313    -2373    -2453    -2520    -2545 
   -2594    -2613    -2593    -2601    -2585    -2544    -2522    -2472 
   -2408    -2341    -2234    -2119    -2016    -1890    -1768    -1665 
   -1525    -1391    -1294    -1161    -1033     -955     -859     -769 
    -716     -657     -623     -623     -615     -635     -698     -753 
    -830     -933    -1001    -1076    -1164    -1211    -1273    -1340 
   -1363    -1407    -1455    -1459    -1485    -1524    -1533    -1547 
   -1558    -1541    -1546    -1565    -1543    -1524    -1514    -1477 
   -1479    -1497    -1472    -1462    -1448    -1408    -1389    -1350 
   -1284    -1234    -1171    -1094    -1035     -967     -871     -794 
    -716     -625     -587     -544     -465     -432     -391     -322 
    -291     -236     -162     -128      -86      -40      -18       12 
      26        7        4       16        2       -8      -12      -53 
     -92     -133     -219     -300     -403     -547     -662     -795 
    -957    -1079    -1204    -1355    -1496    -1638    -1784    -1911 
   -2034    -2161    -2261    -2355    -2455    -2520    -2585    -2657 
   -2692    -2733    -2768    -2763    -2769    -2772    -2735    -2700 
   -2648    -2559    -2482    -2414    -2321    -2240    -2169    -2084 
   -2031    -1984    -1902    -1854    -1834    -1798    -1779    -1751 
   -1710    -1701    -1687    -1669    -1674    -1670    -1668    -1706 
   -1745    -1782    -1856    -1909    -1938    -2001    -2036    -2048 
   -2093    -2103    -2083    -2080    -2059    -2026    -2008    -1967 
   -1911    -1871    -1814    -1757    -1735    -1695    -1658    -1651 
   -1609    -1578    -1579    -1541    -1518    -1520    -1490    -1486 
   -1522    -1536    -1550    -1590    -1623    -1662    -1714    -1732 
   -1734    -1748    -1728    -1720    -1754    -1773    -1823    -1899 
   -1946    -2020    -2095    -2132    -2191    -2247    -2278    -2329 
   -2368    -2358    -2361    -2392    -2394    -2405    -2430    -2420 
   -2433    -2455    -2446    -2465    -2469    -2447    -2460    -2462 
   -2462    -2502    -2533    -2566    -2636    -2699    -2754    -2841 
   -2914    -2954    -3025    -3081    -3093    -3114    -3094    -3048 
   -3033    -2975    -2882    -2812    -2719    -2614    -2522    -2394 
   -2240    -2104    -1950    -1780    -1629    -1453    -1265    -1104 
    -916     -733     -600     -468     -377     -336     -277     -243 
    -251     -233     -228     -252     -247     -250     -296     -314 
    -333     -396     -433     -475     -561     -633     -714     -808 
    -880     -964    -1050    -1125    -1233    -1345    -1430    -1542 
   -1661    -1730    -1818    -1922    -1975    -2045    -2105    -2091 
   -2101    -2119    -2080    -2065    -2061    -2026    -2022    -2035 
   -2026    -2037    -2077    -2103    -2137    -2188    -2213    -2240 
   -2261    -2257    -2288    -2309    -2308    -2359    -2399    -2423 
   -2493    -2550    -2582    -2625    -2633    -2593    -2557    -2502 
   -2408    -2342    -2284    -2208    -2157    -2095    -2052    -2062 
   -2039    -2018    -2034    -2010    -1991    -2001    -1975    -1947 
   -1945    -1908    -1854    -1832    -1804    -1777    -1789    -1784 
   -1770    -1792    -1792    -1780    -1774    -1739    -1726    -1729 
   -1708    -1716    -1740    -1755    -1820    -1909    -1969    -2053 
   -2153    -2213    -2287    -2371    -2403    -2454    -2521    -2543 
   -2587    -2639    -2655    -2690    -2721    -2722    -2733    -2717 
   -2659    -2609    -2543    -2443    -2353    -2238    -2076    -1941 
   -1798    -1626    -1488    -1335    -1160    -1025     -875     -703 
    -571     -452     -330     -247     -178     -111      -87      -72 
     -55      -92     -132     -177     -279     -357     -420     -531 
    -626     -711     -824     -926    -1034    -1160    -1265    -1361 
   -1468    -1558    -1632    -1713    -1757    -1773    -1803    -1789 
   -1760    -1761    -1722    -1690    -1689    -1640    -1590    -1563 
   -1506    -1451    -1409    -1347    -1294    -1268    -1229    -1194 
   -1181    -1150    -1141    -1172    -1179    -1208    -1273    -1312 
   -1369    -1441    -1485    -1553    -1636    -1710    -1809    -1914 
   -1995    -2085    -2177    -2237    -2306    -2378    -2399    -2428 
   -2479    -2504    -2536    -2552    -2526    -2516    -2492    -2424 
   -2374    -2325    -2242    -2172    -2091    -1973    -1889    -1812 
   -1706    -1647    -1599    -1523    -1492    -1454    -1378    -1331 
   -1288    -1246    -1239    -1233    -1239    -1289    -1332    -1385 
   -1502    -1621    -1738    -1912    -2073    -2218    -2393    -2527 
   -2634    -2769    -2865    -2936    -3002    -3009    -2993    -2986 
   -2950    -2893    -2831    -2742    -2646    -2565    -2448    -2334 
   -2259    -2155    -2065    -2005    -1900    -1819    -1771    -1682 
   -1625    -1611    -1575    -1551    -1555    -1538    -1524    -1555 
   -1579    -1609    -1677    -1735    -1821    -1934    -2002    -2083 
   -2161    -2188    -2225    -2252    -2249    -2271    -2286    -2275 
   -2288    -2306    -2311    -2350    -2409    -2444    -2506    -2585 
   -2625    -2678    -2724    -2742    -2789    -2813    -2803    -2825 
   -2828    -2814    -2829    -2821    -2793    -2788    -2766    -2729 
   -2718    -2688    -2630    -2601    -2553    -2473    -2430    -2377 
   -2317    -2312    -2289    -2255    -2249    -2227    -2211    -2221 
   -2219    -2211    -2220    -2229    -2246    -2280    -2286    -2281 
   -2296    -2283    -2275    -2286    -2247    -2218    -2226    -2211 
   -2205    -2201    -2168    -2145    -2120    -2066    -2022    -1977 
   -1901    -1847    -1795    -1706    -1652    -1628    -1591    -1590 
   -1596    -1585    -1608    -1637    -1657    -1696    -1726    -1749 
   -1811    -1872    -1902    -1962    -2017    -2021    -2050    -2073 
   -2056    -2073    -2073    -2044    -2052    -2038    -2012    -2018 
   -2003    -1972    -1957    -1935    -1904    -1880    -1845    -1803 
   -1774    -1727    -1694    -1716    -1727    -1749    -1814    -1852 
   -1896    -1960    -1987    -2027    -2082    -2109    -2149    -2214 
   -2264    -2298    -2341    -2370    -2385    -2435    -2480    -2506 
   -2530    -2514    -2503    -2506    -2451    -2406    -2388    -2341 
   -2319    -2311    -2265    -2222    -2181    -2123    -2083    -2056 
   -2018    -2014    -2027    -2006    -2013    -2047    -2058    -2103 
   -2168    -2219    -2291    -2346    -2375    -2409    -2414    -2407 
   -2420    -2408    -2376    -2363    -2328    -2250    -2183    -2103 
   -1990    -1903    -1798    -1661    -1573    -1488    -1377    -1288 
