Origin Time       2011/03/11 14:46:00
Lat.              38.103
Long.             142.860
Depth. (km)       24
Mag.              9.0
Station Code      NAR004
Station Lat.      34.5277
Station Long.     135.9511
Station Height(m) 308
Record Time       2011/03/11 14:50:28
Sampling Freq(Hz) 100Hz
Duration Time(s)  86
Dir.              N-S
Scale Factor      3920(gal)/6182761
Max. Acc. (gal)   2.752
Last Correction   2011/03/11 14:50:13
Memo.             
[...]
  -56599   -56456   -56320   -56199   -56089   -55983   -55912   -55903 
  -55898   -55871   -55879   -55920   -55929   -55931   -55986   -56041 
  -56061   -56103   -56160   -56193   -56241   -56300   -56303   -56276 
  -56298   -56341   -56368   -56439   -56553   -56640   -56701   -56761 
  -56804   -56848   -56918   -56963   -56944   -56920   -56906   -56852 
  -56789   -56786   -56790   -56728   -56674   -56664   -56623   -56596 
  -56635   -56676   -56710   -56753   -56777   -56810   -56887   -56962 
  -57004   -57047   -57106   -57149   -57179   -57237   -57322   -57404 
  -57472   -57521   -57543   -57556   -57593   -57617   -57592   -57558 
  -57513   -57443   -57413   -57453   -57523   -57608   -57726   -57856 
  -57952   -58033   -58113   -58138   -58123   -58108   -58056   -57984 
  -57973   -57993   -57957   -57891   -57876   -57882   -57850   -57812 
  -57796   -57764   -57725   -57689   -57617   -57534   -57496   -57474 
  -57455   -57462   -57478   -57486   -57509   -57520   -57471   -57401 
  -57351   -57276   -57184   -57154   -57173   -57184   -57196   -57201 
  -57155   -57096   -57100   -57151   -57206   -57275   -57371   -57470 
  -57540   -57585   -57589   -57545   -57506   -57464   -57372   -57283 
  -57255   -57254   -57245   -57236   -57194   -57119   -57076   -57081 
  -57096   -57102   -57102   -57098   -57066   -57004   -56918   -56803 
  -56693   -56597   -56482   -56369   -56297   -56251   -56208   -56163 
  -56101   -56022   -55944   -55897   -55877   -55876   -55906   -55925 
  -55915   -55943   -55981   -55965   -55931   -55908   -55863   -55798 
  -55756   -55737   -55695   -55633   -55581   -55530   -55484   -55487 
  -55526   -55583   -55680   -55780   -55847   -55904   -55957   -55994 
  -56039   -56099   -56141   -56153   -56168   -56210   -56246   -56245 
  -56233   -56219   -56203   -56205   -56232   -56274   -56325   -56364 
  -56370   -56366   -56384   -56397   -56393   -56406   -56419   -56407 
  -56414   -56454   -56470   -56461   -56474   -56473   -56427   -56396 
  -56399   -56389   -56379   -56417   -56474   -56508   -56549   -56613 
  -56674   -56748   -56860   -56993   -57122   -57255   -57408   -57571 
  -57726   -57864   -58004   -58162   -58323   -58457   -58574   -58714 
  -58872   -59021   -59185   -59374   -59538   -59658   -59757   -59828 
  -59890   -59971   -60049   -60096   -60116   -60131   -60127   -60077 
  -60009   -59954   -59907   -59860   -59804   -59727   -59607   -59447 
  -59273   -59085   -58908   -58769   -58627   -58485   -58372   -58261 
  -58173   -58110   -58014   -57906   -57853   -57829   -57796   -57790 
  -57824   -57836   -57824   -57851   -57919   -57972   -58003   -58043 
  -58083   -58144   -58248   -58306   -58281   -58263   -58246   -58174 
  -58106   -58091   -58078   -58046   -58020   -57976   -57879   -57772 
  -57682   -57565   -57426   -57322   -57246   -57187   -57164   -57152 
  -57133   -57153   -57208   -57247   -57271   -57317   -57359   -57352 
  -57332   -57323   -57293   -57266   -57260   -57237   -57195   -57175 
  -57194   -57246   -57329   -57429   -57521   -57590   -57666   -57774 
  -57881   -57970   -58060   -58143   -58224   -58289   -58287   -58268 
  -58313   -58357   -58336   -58314   -58310   -58259   -58176   -58107 
  -58009   -57861   -57713   -57545   -57348   -57191   -57075   -56975 
  -56924   -56916   -56904   -56906   -56939   -56928   -56835   -56733 
  -56661   -56563   -56430   -56317   -56216   -56096   -55999   -55940 
  -55880   -55827   -55815   -55827   -55842   -55899   -56001   -56105 
  -56219   -56350   -56466   -56564   -56670   -56762   -56810   -56855 
  -56952   -57055   -57120   -57184   -57235   -57243   -57252   -57271 
  -57251   -57214   -57209   -57212   -57210   -57229   -57222   -57185 
  -57189   -57211   -57191   -57157   -57147   -57130   -57088   -57052 
  -57009   -56968   -56980   -56992   -56953   -56917   -56909   -56861 
  -56758   -56683   -56636   -56540   -56444   -56409   -56414   -56431 
  -56469   -56513   -56532   -56583   -56676   -56726   -56759   -56845 
  -56954   -57064   -57182   -57272   -57308   -57362   -57458   -57517 
  -57549   -57605   -57644   -57659   -57708   -57778   -57802   -57797 
  -57825   -57851   -57860   -57910   -57982   -58024   -58089   -58228 
  -58378   -58487   -58576   -58624   -58632   -58664   -58703   -58698 
  -58685   -58693   -58676   -58627   -58601   -58586   -58533   -58484 
  -58475   -58449   -58425   -58468   -58529   -58564   -58616   -58702 
  -58773   -58824   -58898   -58979   -59083   -59246   -59376   -59436 
  -59531   -59666   -59768   -59851   -59952   -60044   -60107   -60179 
  -60249   -60280   -60320   -60376   -60377   -60346   -60363   -60399 
  -60392   -60398   -60475   -60560   -60634   -60709   -60719   -60676 
  -60666   -60661   -60616   -60576   -60526   -60421   -60292   -60171 
  -60039   -59912   -59852   -59837   -59792   -59734   -59705   -59666 
  -59597   -59536   -59480   -59415   -59365   -59325   -59261   -59208 
  -59215   -59188   -59069   -58960   -58894   -58832   -58797   -58789 
  -58773   -58787   -58875   -58973   -59058   -59225   -59446   -59583 
  -59648   -59730   -59821   -59892   -59974   -60058   -60103   -60138 
  -60184   -60222   -60282   -60377   -60426   -60405   -60412   -60478 
  -60537   -60580   -60655   -60720   -60734   -60757   -60785   -60744 
  -60690   -60680   -60656   -60596   -60534   -60463   -60379   -60320 
  -60263   -60145   -60005   -59888   -59720   -59488   -59286   -59105 
  -58880   -58640   -58416   -58179   -57962   -57804   -57634   -57441 
  -57305   -57176   -56983   -56807   -56699   -56595   -56493   -56442 
  -56382   -56247   -56106   -55995   -55856   -55707   -55606   -55504 
  -55370   -55279   -55254   -55239   -55274   -55392   -55490   -55536 
  -55593   -55627   -55609   -55608   -55637   -55662   -55742   -55882 
  -55978   -56056   -56204   -56362   -56457   -56533   -56611   -56626 
  -56592   -56595   -56590   -56530   -56499   -56491   -56422   -56347 
  -56345   -56356   -56335   -56326   -56308   -56241   -56188   -56158 
  -56077   -55962   -55872   -55790   -55732   -55757   -55841   -55913 
  -55991   -56080   -56120   -56129   -56149   -56142   -56080   -56021 
  -56010   -56013   -56004   -56009   -56019   -56022   -56064   -56135 
  -56193   -56273   -56397   -56513   -56602   -56698   -56788   -56847 
  -56918   -57012   -57070   -57098   -57135   -57145   -57114   -57099 
  -57088   -57028   -56937   -56840   -56730   -56647   -56628   -56611 
  -56545   -56504   -56524   -56521   -56500   -56532   -56566   -56548 
  -56538   -56548   -56526   -56533   -56612   -56685   -56744   -56842 
  -56950   -57041   -57157   -57292   -57399   -57509   -57651   -57775 
  -57884   -58022   -58153   -58231   -58304   -58408   -58515   -58638 
  -58804   -58936   -58990   -59040   -59107   -59142   -59165   -59214 
  -59240   -59216   -59212   -59241   -59262   -59292   -59327   -59322 
  -59318   -59384   -59457   -59494   -59586   -59737   -59860   -59976 
  -60113   -60204   -60275   -60415   -60541   -60566   -60577   -60579 
  -60508   -60456   -60479   -60483   -60456   -60471   -60488   -60463 
  -60468   -60498   -60458   -60380   -60339   -60299   -60226   -60183 
  -60209   -60239   -60264   -60330   -60384   -60414   -60471   -60479 
  -60406   -60365   -60358   -60286   -60200   -60192   -60203   -60187 
  -60190   -60190   -60156   -60164   -60227   -60240   -60209   -60221 
  -60249   -60230   -60194   -60149   -60056   -59974   -59955   -59915 
  -59851   -59843   -59854   -59816   -59781   -59774   -59744   -59721 
  -59740   -59713   -59607   -59523   -59465   -59328   -59151   -59048 
  -58973   -58882   -58827   -58764   -58655   -58578   -58535   -58425 
  -58263   -58139   -58024   -57887   -57783   -57711   -57623   -57545 
  -57503   -57427   -57296   -57205   -57134   -57010   -56920   -56871 
  -56748   -56586   -56475   -56394   -56325   -56276   -56208   -56092 
  -55983   -55907   -55790   -55654   -55594   -55562   -55479   -55388 
  -55311   -55206   -55113   -55096   -55100   -55074   -55071   -55109 
  -55141   -55168   -55227   -55278   -55285   -55270   -55211   -55083 
  -54952   -54849   -54718   -54602   -54583   -54583   -54546   -54563 
  -54645   -54724   -54814   -54925   -54996   -55034   -55091   -55131 
  -55149   -55214   -55288   -55312   -55355   -55462   -55574   -55660 
  -55740   -55785   -55764   -55747   -55775   -55780   -55771   -55813 
  -55851   -55841   -55868   -55952   -55990   -55978   -55982   -55977 
  -55946   -55918   -55894   -55881   -55911   -55956   -55963   -55967 
  -55999   -56001   -55979   -56028   -56147   -56248   -56334   -56470 
  -56622   -56733   -56838   -56964   -57086   -57211   -57334   -57425 
  -57519   -57660   -57798   -57889   -57990   -58083   -58100   -58090 
  -58094   -58083   -58079   -58098   -58087   -58032   -57989   -57959 
  -57906   -57877   -57919   -57975   -58030   -58124   -58200   -58198 
  -58187   -58199   -58199   -58219   -58313   -58441   -58558   -58690 
  -58819   -58885   -58939   -59049   -59169   -59262   -59368   -59479 
  -59562   -59672   -59832   -59949   -59999   -60076   -60206   -60350 
  -60513   -60665   -60750   -60812   -60898   -60927   -60871   -60872 
  -60983   -61098   -61160   -61146   -61037   -60885   -60775   -60692 
  -60612   -60613   -60684   -60726   -60765   -60833   -60863   -60833 
  -60778   -60687   -60557   -60461   -60443   -60449   -60462   -60498 
  -60527   -60533   -60540   -60565   -60598   -60634   -60681   -60736 
  -60782   -60817   -60858   -60924   -61021   -61106   -61121   -61090 
  -61074   -61049   -60971   -60884   -60821   -60760   -60701   -60639 
  -60569   -60504   -60451   -60389   -60279   -60154   -60087   -60047 
  -60003   -59967   -59922   -59874   -59834   -59770   -59689   -59632 
  -59566   -59434   -59293   -59224   -59192   -59136   -59080   -59051 
  -59010   -58942   -58877   -58821   -58791   -58807   -58851   -58897 
  -58962   -59065   -59169   -59263   -59368   -59452   -59481   -59486 
  -59495   -59509   -59554   -59639   -59687   -59672   -59672   -59711 
  -59742   -59762   -59798   -59846   -59903   -59960   -59977   -59947 
  -59915   -59898   -59887   -59878   -59875   -59872   -59846   -59803 
  -59748   -59670   -59606   -59582   -59551   -59499   -59474   -59466 
  -59441   -59416   -59383   -59327   -59278   -59231   -59163   -59101 
  -59073   -59068   -59069   -59077   -59089   -59102   -59130   -59161 
  -59174   -59212   -59304   -59369   -59369   -59380   -59402   -59386 
  -59378   -59397   -59391   -59363   -59369   -59395   -59397   -59399 
  -59411   -59408   -59394   -59356   -59296   -59230   -59137   -59032 
  -58941   -58848   -58739   -58619   -58523   -58464   -58405   -58339 
  -58286   -58242   -58188   -58131   -58090   -58064   -58066   -58097 
  -58124   -58137   -58135   -58116   -58084   -58048   -58021   -58014 
  -57994   -57939   -57888   -57851   -57823   -57816   -57801   -57782 
  -57791   -57763   -57668   -57603   -57573   -57503   -57428   -57410 
  -57411   -57391   -57364   -57342   -57325   -57321   -57310   -57264 
  -57205   -57173   -57165   -57169   -57170   -57150   -57126   -57113 
  -57095   -57085   -57094   -57097   -57073   -57014   -56949   -56887 
  -56832   -56821   -56837   -56824   -56798   -56788   -56776   -56751 
  -56724   -56700   -56665   -56621   -56600   -56629   -56706   -56803 
  -56876   -56907   -56911   -56891   -56842   -56824   -56877   -56944 
  -56977   -57013   -57064   -57088   -57100   -57139   -57173   -57159 
  -57120   -57075   -57006   -56947   -56942   -56952   -56959   -56984 
  -57008   -57033   -57077   -57089   -57038   -56987   -56984   -56996 
  -57009   -57042   -57071   -57103   -57165   -57213   -57234   -57292 
  -57404   -57493   -57533   -57577   -57626   -57659   -57716   -57797 
  -57867   -57946   -58041   -58126   -58218   -58352   -58481   -58525 
  -58534   -58599   -58663   -58658   -58639   -58634   -58625   -58631 
  -58654   -58660   -58656   -58662   -58644   -58578   -58515   -58495 
  -58491   -58472   -58454   -58455   -58453   -58428   -58368   -58299 
  -58285   -58319   -58345   -58402   -58522   -58622   -58670   -58722 
  -58761   -58750   -58742   -58742   -58724   -58742   -58804   -58837 
  -58850   -58893   -58910   -58836   -58715   -58606   -58467   -58296 
  -58164   -58045   -57898   -57771   -57673   -57574   -57480   -57391 
  -57295   -57207   -57146   -57064   -56924   -56797   -56702   -56586 
  -56488   -56475   -56511   -56520   -56509   -56523   -56546   -56565 
  -56597   -56638   -56701   -56805   -56889   -56896   -56902   -56938 
  -56933   -56919   -56955   -56994   -56990   -56969   -56961   -56967 
  -57006   -57076   -57128   -57157   -57191   -57227   -57248   -57285 
  -57354   -57394   -57408   -57444   -57481   -57525   -57617   -57724 
  -57777   -57815   -57886   -57928   -57942   -58015   -58135   -58246 
  -58362   -58500   -58612   -58689   -58782   -58870   -58927   -59006 
  -59099   -59152   -59171   -59196   -59235   -59275   -59334   -59397 
  -59436   -59507   -59612   -59669   -59706   -59793   -59879   -59920 
  -59987   -60089   -60161   -60239   -60363   -60454   -60488   -60563 
  -60685   -60774   -60861   -60988   -61088   -61140   -61190   -61228 
  -61268   -61373   -61497   -61582   -61704   -61855   -61891   -61856 
  -61910   -62003   -62035   -62077   -62173   -62269   -62364   -62451 
  -62471   -62437   -62440   -62485   -62499   -62498   -62530   -62548 
  -62514   -62475   -62437   -62368   -62323   -62301   -62209   -62087 
  -62017   -61962   -61882   -61814   -61773   -61727   -61679   -61620 
  -61510   -61379   -61267   -61140   -60986   -60871   -60796   -60699 
  -60593   -60525   -60472   -60407   -60355   -60309   -60232   -60154 
  -60092   -59991   -59882   -59834   -59795   -59715   -59660   -59646 
  -59609   -59582   -59603   -59599   -59567   -59587   -59640   -59658 
  -59681   -59735   -59751   -59736   -59749   -59775   -59795   -59828 
  -59846   -59821   -59801   -59801   -59760   -59700   -59679   -59654 
  -59574   -59474   -59376   -59256   -59135   -59056   -58986   -58906 
  -58868   -58864   -58829   -58789   -58793   -58784   -58729   -58693 
  -58689   -58681   -58702   -58740   -58732   -58722   -58748   -58743 
  -58699   -58685   -58682   -58631   -58582   -58573   -58533   -58448 
  -58394   -58355   -58279   -58217   -58200   -58168   -58130   -58137 
  -58136   -58071   -58010   -57977   -57910   -57813   -57712   -57576 
  -57434   -57331   -57214   -57056   -56942   -56886   -56816   -56737 
  -56670   -56593   -56541   -56553   -56571   -56572   -56628   -56731 
  -56799   -56853   -56945   -57041   -57111   -57176   -57235   -57281 
  -57368   -57499   -57588   -57652   -57784   -57946   -58033   -58069 
  -58121   -58149   -58152   -58203   -58250   -58240   -58252   -58274 
  -58230   -58201   -58221   -58198   -58152   -58144   -58125   -58081 
  -58076   -58099   -58083   -58082   -58150   -58182   -58154   -58169 
  -58202   -58198   -58264   -58429   -58560   -58641   -58734   -58792 
  -58810   -58869   -58955   -58998   -59029   -59070   -59079   -59074 
  -59105   -59150   -59167   -59184   -59228   -59249   -59251   -59294 
  -59324   -59281   -59256   -59314   -59372   -59414   -59508   -59610 
  -59680   -59785   -59904   -59976   -60050   -60150   -60207   -60223 
  -60277   -60351   -60366   -60377   -60440   -60485   -60518   -60587 
  -60633   -60639   -60652   -60624   -60515   -60429   -60399   -60308 
  -60183   -60117   -60049   -59946   -59880   -59827   -59710   -59604 
  -59561   -59463   -59290   -59159   -59069   -58953   -58837   -58764 
  -58723   -58702   -58703   -58697   -58675   -58680   -58694   -58663 
  -58638   -58664   -58682   -58680   -58740   -58856   -58936   -58997 
  -59063   -59057   -59007   -59017   -59048   -59032   -59025   -59062 
  -59066   -59041   -59040   -59024   -58987   -58969   -58918   -58815 
  -58745   -58720   -58659   -58586   -58563   -58526   -58430   -58354 
  -58320   -58258   -58181   -58108   -57991   -57874   -57826   -57772 
  -57656   -57560   -57507   -57421   -57338   -57328   -57339   -57359 
  -57403   -57397   -57345   -57361   -57408   -57369   -57288   -57249 
  -57210   -57124   -57049   -57012   -56974   -56952   -56962   -56942 
  -56892   -56878   -56891   -56885   -56909   -56969   -56967   -56919 
  -56918   -56903   -56822   -56766   -56759   -56716   -56659   -56661 
  -56663   -56627   -56618   -56620   -56588   -56582   -56604   -56570 
  -56525   -56547   -56557   -56531   -56583   -56676   -56698   -56726 
  -56824   -56911   -56984   -57085   -57162   -57223   -57362   -57529 
  -57609   -57685   -57837   -57958   -58016   -58103   -58184   -58208 
  -58261   -58360   -58425   -58471   -58547   -58588   -58574   -58619 
  -58716   -58749   -58767   -58841   -58901   -58917   -58949   -58976 
  -58969   -58993   -59050   -59055   -59023   -59036   -59065   -59068 
  -59119   -59230   -59291   -59296   -59315   -59313   -59268   -59261 
  -59286   -59270   -59278   -59344   -59358   -59336   -59367   -59380 
  -59330   -59278   -59234   -59190   -59201   -59273   -59323   -59339 
  -59379   -59398   -59346   -59285   -59243   -59174   -59100   -59063 
  -58996   -58886   -58825   -58795   -58717   -58658   -58675   -58650 
  -58524   -58414   -58364   -58315   -58265   -58216   -58129   -58046 
  -58013   -57972   -57910   -57892   -57879   -57801   -57740   -57749 
  -57720   -57631   -57593   -57589   -57531   -57492   -57523   -57522 
  -57494   -57515   -57517   -57460   -57432   -57431   -57399   -57396 
  -57437   -57420   -57374   -57382   -57382   -57337   -57327   -57342 
  -57306   -57251   -57236   -57211   -57177   -57194   -57217   -57192 
  -57172   -57193   -57198   -57159   -57147   -57174   -57187   -57219 
  -57285   -57351   -57436   -57544   -57629   -57694   -57789   -57879 
  -57894   -57909   -58001   -58089   -58125   -58175   -58253   -58308 
  -58367   -58454   -58537   -58638   -58730   -58745   -58755   -58821 
  -58863   -58837   -58811   -58825   -58793   -58712   -58690   -58671 
  -58612   -58608   -58643   -58650   -58655   -58684   -58678   -58626 
  -58621   -58642   -58605   -58556   -58527   -58513   -58504   -58471 
  -58418   -58355   -58331   -58352   -58324   -58290   -58319   -58303 
  -58235   -58207   -58176   -58115   -58102   -58121   -58085   -58034 
  -58037   -58026   -57950   -57887   -57876   -57869   -57844   -57801 
  -57742   -57685   -57652   -57611   -57530   -57500   -57556   -57579 
  -57594   -57702   -57812   -57854   -57887   -57909   -57909   -57954 
  -58039   -58068   -58069   -58140   -58189   -58132   -58105   -58132 
  -58126   -58138   -58201   -58241   -58255   -58304   -58382   -58419 
  -58462   -58564   -58616   -58631   -58718   -58822   -58901   -58969 
  -59012   -59028   -59065   -59169   -59256   -59300   -59388   -59445 
  -59433   -59465   -59552   -59619   -59638   -59672   -59716   -59695 
  -59696   -59715   -59663   -59624   -59631   -59631   -59595   -59543 
  -59494   -59410   -59332   -59305   -59275   -59258   -59277   -59251 
  -59175   -59165   -59196   -59146   -59098   -59136   -59164   -59168 
  -59208   -59253   -59266   -59295   -59346   -59349   -59334   -59364 
