Origin Time       2011/03/11 14:46:00
Lat.              38.103
Long.             142.860
Depth. (km)       24
Mag.              9.0
Station Code      NAR009
Station Lat.      33.9396
Station Long.     135.7530
Station Height(m) 198
Record Time       2011/03/11 14:51:11
Sampling Freq(Hz) 100Hz
Duration Time(s)  60
Dir.              N-S
Scale Factor      3920(gal)/6182761
Max. Acc. (gal)   1.866
Last Correction   2011/03/11 14:50:56
Memo.             
[...]
   13737    13703    13672    13686    13713    13699    13649    13584 
   13507    13427    13361    13325    13301    13265    13280    13413 
   13585    13692    13748    13791    13797    13750    13708    13702 
   13676    13615    13595    13629    13674    13743    13839    13935 
   14035    14121    14158    14158    14139    14091    14032    14003 
   14021    14072    14107    14111    14114    14117    14099    14082 
   14097    14106    14083    14062    14051    14021    13981    13970 
   13979    13966    13928    13866    13784    13740    13775    13838 
   13878    13916    13973    14014    14005    13989    13993    13968 
   13904    13827    13755    13713    13712    13757    13844    13915 
   13933    13915    13873    13800    13718    13656    13643    13675 
   13719    13753    13798    13869    13947    14032    14142    14244 
   14296    14311    14305    14269    14234    14237    14260    14302 
   14375    14445    14498    14562    14626    14654    14660    14663 
   14630    14551    14483    14459    14477    14559    14692    14812 
   14910    15020    15114    15154    15160    15147    15122    15102 
   15072    15025    15007    15029    15055    15112    15208    15254 
   15232    15204    15159    15096    15068    15073    15071    15086 
   15129    15139    15104    15074    15042    14989    14941    14895 
   14808    14693    14589    14499    14427    14374    14328    14322 
   14369    14417    14462    14545    14644    14697    14689    14650 
   14595    14510    14412    14316    14239    14194    14153    14118 
   14138    14204    14250    14284    14343    14386    14353    14263 
   14158    14067    14018    14003    13996    13992    13983    13973 
   13991    14038    14061    14031    13975    13902    13809    13721 
   13656    13603    13558    13533    13531    13530    13540    13581 
   13636    13691    13739    13765    13779    13786    13761    13696 
   13613    13524    13456    13453    13508    13573    13610    13621 
   13636    13660    13659    13632    13596    13542    13485    13445 
   13410    13373    13369    13422    13508    13596    13672    13718 
   13714    13679    13655    13659    13673    13679    13693    13730 
   13768    13793    13835    13881    13874    13839    13834    13848 
   13857    13881    13936    13991    14021    14040    14067    14094 
   14129    14209    14327    14415    14448    14475    14510    14510 
   14485    14481    14503    14531    14562    14606    14667    14726 
   14782    14852    14928    14977    14986    14978    14982    14988 
   14978    14969    14973    14969    14936    14904    14894    14893 
   14898    14902    14875    14818    14753    14699    14659    14627 
   14592    14536    14464    14408    14364    14310    14265    14250 
   14255    14263    14249    14192    14117    14060    14017    13974 
   13919    13847    13797    13801    13838    13893    13958    14030 
   14105    14152    14159    14155    14148    14114    14067    14045 
   14043    14041    14059    14112    14176    14220    14258    14314 
   14370    14375    14341    14317    14322    14337    14344    14357 
   14375    14373    14379    14441    14543    14631    14669    14664 
   14641    14608    14566    14524    14483    14434    14384    14378 
   14420    14460    14487    14522    14551    14562    14572    14576 
   14547    14494    14459    14463    14477    14473    14452    14437 
   14434    14424    14402    14383    14369    14367    14374    14390 
   14413    14429    14438    14464    14478    14443    14397    14370 
   14342    14319    14309    14293    14283    14301    14338    14373 
   14388    14381    14366    14343    14306    14258    14199    14128 
   14059    14005    13976    13975    13991    14015    14047    14091 
   14142    14187    14219    14228    14197    14140    14108    14110 
   14124    14168    14252    14332    14391    14428    14423    14372 
   14305    14241    14181    14138    14133    14150    14171    14208 
   14263    14313    14340    14346    14346    14331    14296    14264 
   14241    14220    14206    14208    14232    14264    14283    14284 
   14280    14285    14291    14278    14251    14220    14184    14167 
   14189    14219    14243    14264    14265    14252    14264    14297 
   14299    14284    14310    14364    14399    14420    14442    14458 
   14432    14360    14272    14184    14105    14048    14033    14061 
   14093    14123    14187    14297    14400    14437    14437    14445 
   14444    14422    14402    14393    14386    14368    14346    14354 
   14389    14411    14433    14487    14557    14585    14553    14503 
   14447    14387    14368    14395    14428    14460    14494    14528 
   14566    14600    14605    14586    14565    14547    14513    14458 
   14407    14391    14415    14465    14524    14571    14587    14570 
   14540    14520    14514    14501    14478    14448    14401    14359 
   14360    14391    14419    14425    14426    14439    14441    14414 
   14400    14408    14392    14339    14251    14152    14070    14016 
   13996    13993    13992    14004    14014    14006    13995    13988 
   13966    13920    13867    13825    13782    13713    13640    13610 
   13616    13625    13611    13581    13568    13565    13548    13531 
   13529    13543    13553    13559    13565    13543    13489    13442 
   13399    13332    13253    13200    13182    13178    13164    13165 
   13203    13246    13270    13258    13197    13112    13036    13011 
   13025    13011    12977    12949    12923    12917    12923    12924 
   12945    12988    13031    13051    13058    13090    13123    13126 
   13126    13130    13151    13202    13251    13289    13331    13382 
   13454    13540    13611    13642    13635    13621    13616    13614 
   13603    13581    13562    13548    13546    13558    13568    13555 
   13524    13511    13511    13499    13495    13518    13554    13568 
   13551    13503    13420    13344    13295    13249    13242    13297 
   13336    13324    13308    13283    13223    13165    13134    13106 
   13063    13034    13039    13046    13045    13043    13015    12979 
   12953    12901    12840    12819    12821    12824    12830    12815 
   12770    12737    12749    12777    12807    12837    12840    12809 
   12777    12750    12711    12668    12642    12632    12613    12598 
   12619    12638    12633    12616    12586    12563    12552    12530 
   12508    12517    12556    12591    12596    12594    12589    12553 
   12496    12451    12444    12470    12500    12541    12611    12687 
   12745    12805    12894    12970    12994    12997    12998    13000 
   13025    13054    13060    13054    13066    13108    13146    13170 
   13212    13267    13311    13326    13314    13323    13332    13280 
   13195    13122    13058    13010    12977    12964    12985    13019 
   13034    13041    13061    13098    13122    13104    13056    13004 
   12958    12932    12921    12888    12826    12769    12712    12646 
   12600    12568    12526    12505    12518    12514    12483    12450 
   12426    12411    12399    12408    12436    12438    12426    12428 
   12400    12338    12290    12251    12195    12138    12101    12083 
   12071    12050    12024    12014    12012    11979    11921    11878 
   11870    11879    11883    11893    11911    11903    11876    11871 
   11888    11897    11884    11873    11893    11934    11978    12016 
   12046    12085    12134    12157    12148    12149    12149    12105 
   12047    12027    12017    11982    11954    11968    11998    12025 
   12067    12106    12118    12124    12138    12140    12120    12106 
   12109    12091    12044    11990    11940    11920    11927    11941 
   11969    11996    12024    12087    12188    12289    12375    12442 
   12471    12452    12406    12360    12316    12251    12203    12220 
   12267    12313    12371    12445    12529    12613    12705    12811 
   12877    12856    12811    12795    12774    12744    12743    12770 
   12802    12836    12894    13000    13117    13204    13252    13281 
   13329    13369    13356    13352    13399    13455    13490    13509 
   13538    13552    13530    13547    13648    13760    13833    13888 
   13949    14001    14019    14045    14124    14209    14256    14292 
   14319    14330    14337    14338    14353    14381    14391    14407 
   14473    14567    14662    14746    14803    14826    14812    14759 
   14699    14643    14593    14568    14557    14558    14579    14574 
   14556    14565    14549    14494    14442    14381    14297    14181 
   14043    13924    13825    13753    13727    13705    13664    13648 
   13653    13656    13684    13720    13694    13615    13542    13485 
   13423    13354    13322    13334    13340    13360    13421    13465 
   13459    13428    13395    13355    13268    13137    13029    12955 
   12885    12847    12851    12870    12903    12945    12995    13046 
   13057    13026    12988    12935    12841    12730    12637    12549 
   12453    12369    12306    12244    12207    12241    12305    12344 
   12378    12418    12436    12434    12431    12422    12394    12368 
   12372    12378    12363    12362    12376    12389    12419    12476 
   12537    12565    12569    12595    12633    12669    12727    12792 
   12833    12870    12930    12990    13024    13026    13021    13024 
   13002    12960    12951    12976    12992    13007    13060    13120 
   13122    13092    13090    13092    13051    13004    12991    12986 
   12970    12960    12964    12976    12973    12954    12957    12966 
   12925    12859    12816    12780    12710    12638    12607    12580 
   12536    12514    12502    12480    12478    12490    12496    12513 
   12530    12538    12559    12603    12641    12648    12652    12681 
   12711    12730    12767    12821    12859    12886    12940    13030 
   13128    13203    13281    13389    13483    13526    13540    13548 
   13547    13537    13533    13564    13613    13644    13680    13754 
   13827    13865    13894    13931    13950    13938    13923    13899 
   13841    13772    13713    13652    13595    13568    13556    13534 
   13517    13517    13505    13466    13415    13356    13298    13244 
   13192    13174    13170    13116    13050    13018    12972    12920 
   12914    12930    12921    12908    12939    12979    12977    12970 
   12985    12986    12968    12963    12977    12988    12988    13012 
   13088    13196    13308    13413    13507    13590    13644    13665 
   13690    13736    13769    13762    13740    13746    13784    13837 
   13901    13982    14070    14122    14131    14155    14202    14210 
   14179    14173    14187    14161    14100    14070    14060    14026 
   13992    13972    13945    13928    13945    13973    13973    13957 
   13965    14001    14029    14032    14016    13985    13966    13968 
   13956    13923    13882    13819    13744    13713    13729    13740 
   13749    13802    13848    13814    13751    13708    13640    13542 
   13452    13381    13322    13282    13270    13283    13283    13260 
   13244    13248    13252    13243    13220    13196    13173    13131 
   13075    13018    12947    12874    12838    12831    12838    12855 
   12862    12839    12809    12813    12845    12856    12868    12922 
   12965    12946    12915    12926    12943    12943    12961    13001 
   13037    13068    13114    13178    13224    13236    13243    13268 
   13297    13306    13298    13300    13324    13354    13379    13405 
   13436    13476    13520    13560    13584    13576    13550    13550 
   13577    13590    13596    13627    13659    13656    13645    13670 
   13725    13768    13792    13814    13826    13823    13819    13820 
   13831    13859    13906    13967    14026    14060    14068    14082 
   14113    14163    14231    14289    14321    14328    14322    14324 
   14326    14305    14272    14256    14259    14268    14277    14290 
   14307    14324    14335    14334    14319    14289    14248    14207 
   14158    14088    14008    13938    13879    13825    13772    13734 
   13716    13702    13692    13695    13693    13665    13608    13531 
   13447    13364    13280    13196    13109    13040    13021    13035 
   13062    13095    13130    13178    13233    13253    13238    13216 
   13188    13146    13109    13087    13066    13041    13036    13058 
   13077    13088    13128    13203    13277    13333    13379    13416 
   13438    13453    13471    13485    13478    13445    13406    13401 
   13437    13488    13541    13594    13617    13602    13583    13582 
   13601    13616    13615    13613    13609    13591    13579    13586 
   13591    13585    13575    13560    13537    13507    13471    13435 
   13392    13327    13258    13214    13176    13134    13122    13144 
   13154    13125    13078    13034    12993    12953    12925    12909 
   12887    12861    12850    12855    12862    12844    12799    12759 
   12742    12734    12707    12660    12608    12546    12465    12383 
   12309    12241    12207    12229    12261    12260    12242    12213 
   12157    12090    12024    11945    11859    11782    11728    11701 
   11671    11616    11562    11530    11505    11471    11431    11401 
   11365    11295    11208    11127    11040    10950    10878    10837 
   10815    10794    10776    10781    10802    10814    10821    10828 
   10824    10820    10821    10818    10811    10803    10800    10797 
   10791    10809    10847    10864    10859    10875    10928    10981 
   11022    11078    11127    11142    11161    11202    11225    11233 
   11261    11303    11326    11329    11344    11380    11416    11452 
   11487    11514    11538    11562    11582    11589    11583    11580 
   11594    11631    11677    11698    11708    11742    11786    11812 
   11826    11848    11875    11884    11888    11924    11987    12037 
   12059    12073    12084    12091    12101    12119    12153    12207 
   12256    12285    12325    12367    12396    12444    12502    12532 
   12555    12594    12623    12653    12721    12790    12825    12872 
   12945    13005    13053    13108    13175    13238    13293    13353 
   13410    13448    13497    13567    13636    13710    13789    13857 
   13912    13953    13983    14010    14036    14070    14119    14173 
   14225    14289    14367    14437    14497    14563    14628    14666 
   14673    14661    14623    14569    14538    14549    14574    14588 
   14603    14622    14638    14653    14671    14699    14733    14745 
   14733    14717    14704    14678    14637    14618    14610    14571 
   14524    14498    14467    14421    14391    14373    14340    14308 
   14302    14306    14302    14290    14268    14237    14208    14182 
   14159    14136    14106    14079    14082    14109    14125    14140 
   14166    14193    14226    14261    14268    14264    14270    14263 
   14232    14203    14197    14204    14220    14252    14268    14242 
   14215    14217    14228    14233    14224    14195    14170    14159 
   14134    14110    14119    14144    14152    14141    14121    14095 
   14046    13997    13982    13980    13969    13967    13982    14001 
   14002    13995    14003    14004    13973    13942    13930    13911 
   13880    13857    13837    13815    13808    13814    13812    13804 
   13795    13786    13779    13761    13731    13688    13632    13577 
   13545    13545    13562    13573    13559    13527    13495    13462 
   13425    13388    13362    13343    13310    13273    13271    13293 
   13312    13347    13394    13415    13421    13442    13454    13428 
   13387    13367    13357    13356    13372    13388    13402    13418 
   13428    13440    13451    13445    13440    13457    13464    13437 
   13416    13412    13394    13372    13373    13391    13437    13506 
   13548    13552    13546    13534    13516    13503    13481    13437 
   13407    13399    13379    13364    13374    13380    13374    13396 
   13456    13502    13506    13496    13499    13508    13510    13524 
   13563    13597    13599    13604    13645    13699    13745    13791 
   13839    13881    13913    13932    13952    13980    13999    14000 
   13999    14007    14025    14059    14096    14123    14144    14145 
   14128    14142    14194    14245    14274    14302    14349    14397 
   14431    14443    14432    14405    14357    14296    14254    14248 
   14248    14234    14233    14255    14280    14314    14351    14372 
   14380    14378    14362    14334    14294    14247    14213    14205 
   14216    14238    14257    14266    14274    14275    14255    14228 
   14208    14197    14202    14220    14223    14209    14204    14214 
   14213    14198    14184    14176    14165    14143    14115    14091 
   14073    14067    14082    14097    14101    14106    14108    14105 
   14097    14084    14067    14050    14024    13995    13966    13935 
   13918    13928    13940    13947    13967    13983    13967    13941 
   13934    13927    13899    13871    13857    13841    13812    13784 
   13780    13789    13788    13777    13754    13717    13692    13689 
   13687    13686    13689    13682    13685    13714    13720    13690 
   13679    13682    13660    13643    13655    13670    13675    13693 
   13728    13753    13757    13753    13764    13785    13791    13776 
   13750    13720    13691    13670    13645    13620    13615    13632 
   13665    13712    13761    13782    13775    13775    13776    13737 
   13677    13642    13623    13596    13566    13537    13506    13482 
   13477    13486    13497    13501    13494    13486    13476    13454 
   13428    13421    13423    13413    13396    13397    13425    13460 
   13473    13456    13428    13412    13416    13425    13428    13439 
   13460    13487    13532    13584    13623    13661    13706    13751 
   13808    13884    13949    13990    14020    14055    14092    14111 
   14132    14180    14229    14279    14356    14439    14504    14574 
   14660    14742    14795    14819    14847    14890    14930    14976 
   15047    15117    15138    15114    15094    15111    15159    15187 
   15178    15174    15179    15165    15135    15102    15086    15088 
   15067    15034    15010    14958    14870    14800    14771    14744 
   14688    14635    14608    14578    14518    14452    14415    14376 
   14295    14199    14113    14018    13906    13802    13730    13677 
   13623    13582    13548    13491    13423    13377    13375    13397 
   13393    13354    13314    13272    13222    13193    13200    13205 
   13175    13147    13162    13181    13184    13216    13270    13301 
   13307    13318    13332    13353    13393    13422    13430    13441 
   13455    13456    13444    13429    13437    13465    13497    13533 
   13561    13583    13622    13664    13689    13698    13676    13624 
   13555    13485    13423    13361    13296    13260    13271    13302 
   13319    13322    13320    13304    13282    13255    13201    13116 
   13034    12987    12962    12947    12966    12994    12987    12968 
   12958    12940    12922    12921    12916    12895    12858    12822 
