Origin Time       2011/03/11 14:46:00
Lat.              38.103
Long.             142.860
Depth. (km)       24
Mag.              9.0
Station Code      NAR007
Station Lat.      34.2214
Station Long.     135.7368
Station Height(m) 762
Record Time       2011/03/11 14:50:56
Sampling Freq(Hz) 100Hz
Duration Time(s)  60
Dir.              U-D
Scale Factor      3920(gal)/6182761
Max. Acc. (gal)   1.557
Last Correction   2011/03/11 14:50:41
Memo.             
[...]
  -34437   -34429   -34418   -34407   -34397   -34403   -34426   -34448 
  -34474   -34509   -34542   -34570   -34592   -34600   -34606   -34615 
  -34618   -34613   -34611   -34618   -34631   -34630   -34612   -34594 
  -34582   -34569   -34556   -34551   -34552   -34558   -34562   -34562 
  -34571   -34584   -34580   -34576   -34585   -34594   -34595   -34598 
  -34598   -34590   -34577   -34546   -34501   -34460   -34422   -34382 
  -34356   -34352   -34361   -34366   -34360   -34348   -34339   -34330 
  -34310   -34289   -34283   -34287   -34292   -34306   -34318   -34320 
  -34314   -34299   -34277   -34254   -34231   -34206   -34185   -34169 
  -34149   -34135   -34127   -34110   -34091   -34068   -34033   -33988 
  -33938   -33883   -33827   -33764   -33689   -33621   -33567   -33525 
  -33505   -33503   -33502   -33502   -33513   -33533   -33551   -33560 
  -33566   -33574   -33582   -33598   -33622   -33640   -33643   -33634 
  -33619   -33605   -33597   -33596   -33601   -33609   -33622   -33645 
  -33674   -33697   -33713   -33733   -33757   -33784   -33817   -33861 
  -33911   -33950   -33977   -33996   -34005   -34011   -34017   -34013 
  -33999   -33989   -33982   -33978   -33981   -33992   -34009   -34020 
  -34018   -34007   -33995   -33983   -33972   -33956   -33938   -33919 
  -33904   -33895   -33889   -33886   -33888   -33893   -33900   -33912 
  -33937   -33973   -34001   -34014   -34025   -34030   -34034   -34042 
  -34054   -34073   -34100   -34128   -34169   -34221   -34274   -34322 
  -34349   -34347   -34331   -34308   -34278   -34242   -34207   -34177 
  -34142   -34098   -34047   -33995   -33952   -33920   -33885   -33853 
  -33832   -33812   -33794   -33786   -33782   -33778   -33765   -33737 
  -33704   -33675   -33637   -33582   -33521   -33464   -33403   -33339 
  -33279   -33228   -33192   -33164   -33136   -33118   -33106   -33093 
  -33079   -33067   -33066   -33078   -33091   -33110   -33142   -33181 
  -33219   -33253   -33278   -33299   -33320   -33337   -33368   -33421 
  -33468   -33493   -33509   -33526   -33554   -33587   -33612   -33635 
  -33662   -33688   -33710   -33738   -33771   -33803   -33824   -33836 
  -33852   -33868   -33874   -33877   -33879   -33872   -33853   -33827 
  -33801   -33782   -33770   -33763   -33759   -33759   -33761   -33774 
  -33790   -33811   -33836   -33853   -33866   -33886   -33899   -33917 
  -33951   -33984   -34011   -34032   -34051   -34079   -34101   -34112 
  -34125   -34130   -34121   -34098   -34068   -34051   -34054   -34059 
  -34059   -34060   -34055   -34038   -34016   -34003   -34002   -34013 
  -34032   -34054   -34075   -34099   -34128   -34157   -34183   -34207 
  -34228   -34242   -34251   -34266   -34296   -34335   -34374   -34398 
  -34399   -34396   -34402   -34412   -34421   -34425   -34425   -34422 
  -34415   -34410   -34412   -34427   -34447   -34459   -34465   -34480 
  -34500   -34514   -34527   -34548   -34572   -34593   -34609   -34617 
  -34619   -34628   -34647   -34671   -34691   -34705   -34718   -34737 
  -34751   -34755   -34757   -34762   -34769   -34765   -34747   -34735 
  -34736   -34744   -34763   -34793   -34831   -34873   -34912   -34944 
  -34979   -35026   -35076   -35123   -35174   -35226   -35277   -35326 
  -35372   -35419   -35467   -35509   -35537   -35553   -35571   -35595 
  -35614   -35620   -35608   -35582   -35558   -35542   -35537   -35546 
  -35555   -35546   -35519   -35483   -35451   -35425   -35408   -35406 
  -35421   -35450   -35499   -35571   -35651   -35725   -35791   -35839 
  -35863   -35876   -35889   -35896   -35892   -35891   -35901   -35922 
  -35940   -35946   -35952   -35953   -35942   -35926   -35904   -35882 
  -35855   -35815   -35781   -35754   -35727   -35708   -35697   -35688 
  -35684   -35683   -35680   -35674   -35653   -35618   -35573   -35518 
  -35469   -35436   -35409   -35387   -35372   -35362   -35360   -35364 
  -35368   -35371   -35366   -35346   -35323   -35302   -35281   -35268 
  -35260   -35262   -35287   -35316   -35339   -35356   -35358   -35352 
  -35348   -35337   -35309   -35270   -35238   -35223   -35212   -35201 
  -35204   -35212   -35212   -35211   -35198   -35185   -35191   -35207 
  -35226   -35251   -35279   -35300   -35309   -35321   -35343   -35362 
  -35378   -35386   -35376   -35352   -35335   -35334   -35342   -35342 
  -35336   -35329   -35320   -35324   -35346   -35371   -35389   -35394 
  -35393   -35407   -35429   -35443   -35463   -35508   -35555   -35591 
  -35635   -35695   -35752   -35787   -35798   -35808   -35827   -35842 
  -35838   -35813   -35790   -35776   -35752   -35715   -35682   -35654 
  -35625   -35593   -35548   -35504   -35489   -35494   -35495   -35499 
  -35512   -35527   -35542   -35561   -35587   -35607   -35609   -35601 
  -35595   -35607   -35640   -35675   -35703   -35724   -35731   -35731 
  -35734   -35738   -35743   -35746   -35742   -35730   -35724   -35724 
  -35715   -35700   -35703   -35716   -35707   -35672   -35645   -35635 
  -35626   -35628   -35636   -35617   -35577   -35532   -35482   -35445 
  -35428   -35421   -35429   -35442   -35444   -35452   -35492   -35543 
  -35574   -35590   -35610   -35639   -35668   -35686   -35698   -35713 
  -35724   -35730   -35737   -35747   -35760   -35754   -35728   -35717 
  -35723   -35729   -35742   -35759   -35766   -35769   -35774   -35781 
  -35799   -35830   -35846   -35840   -35833   -35834   -35831   -35815 
  -35793   -35770   -35741   -35717   -35707   -35714   -35738   -35777 
  -35828   -35891   -35952   -35995   -36013   -36003   -35982   -35963 
  -35940   -35911   -35876   -35838   -35812   -35809   -35825   -35849 
  -35864   -35862   -35854   -35835   -35806   -35784   -35773   -35761 
  -35747   -35736   -35725   -35706   -35686   -35673   -35670   -35683 
  -35688   -35670   -35664   -35676   -35684   -35697   -35730   -35760 
  -35776   -35789   -35806   -35822   -35838   -35857   -35866   -35871 
  -35892   -35919   -35936   -35950   -35955   -35941   -35922   -35911 
  -35900   -35879   -35842   -35791   -35723   -35639   -35553   -35485 
  -35442   -35405   -35359   -35311   -35267   -35230   -35203   -35166 
  -35114   -35060   -35005   -34957   -34937   -34936   -34934   -34927 
  -34914   -34906   -34910   -34903   -34871   -34828   -34789   -34752 
  -34714   -34687   -34671   -34666   -34657   -34627   -34597   -34581 
  -34573   -34570   -34562   -34557   -34568   -34589   -34610   -34627 
  -34647   -34676   -34704   -34724   -34739   -34751   -34754   -34736 
  -34691   -34637   -34584   -34528   -34475   -34432   -34390   -34342 
  -34294   -34256   -34232   -34217   -34201   -34176   -34131   -34057 
  -33963   -33872   -33794   -33734   -33698   -33689   -33706   -33738 
  -33766   -33783   -33791   -33790   -33787   -33798   -33828   -33868 
  -33908   -33949   -33993   -34032   -34062   -34078   -34088   -34091 
  -34091   -34102   -34124   -34155   -34205   -34260   -34314   -34374 
  -34424   -34455   -34475   -34488   -34501   -34531   -34573   -34606 
  -34639   -34684   -34731   -34765   -34783   -34803   -34837   -34871 
  -34896   -34928   -34975   -35013   -35018   -35016   -35017   -35002 
  -34981   -34975   -34989   -35016   -35035   -35036   -35034   -35040 
  -35052   -35069   -35079   -35090   -35110   -35136   -35166   -35202 
  -35238   -35265   -35279   -35278   -35271   -35277   -35291   -35302 
  -35328   -35374   -35437   -35516   -35602   -35684   -35764   -35845 
  -35906   -35935   -35954   -35977   -36020   -36075   -36122   -36163 
  -36190   -36192   -36185   -36185   -36200   -36231   -36264   -36290 
  -36315   -36351   -36397   -36438   -36459   -36458   -36447   -36431 
  -36412   -36398   -36390   -36380   -36370   -36369   -36363   -36341 
  -36305   -36255   -36198   -36147   -36107   -36090   -36087   -36084 
  -36094   -36126   -36163   -36190   -36197   -36196   -36207   -36219 
  -36225   -36239   -36266   -36299   -36316   -36322   -36349   -36389 
  -36422   -36441   -36438   -36425   -36409   -36384   -36363   -36340 
  -36292   -36230   -36170   -36116   -36084   -36070   -36057   -36043 
  -36015   -35968   -35918   -35872   -35819   -35756   -35692   -35636 
  -35599   -35577   -35566   -35565   -35563   -35547   -35515   -35470 
  -35419   -35377   -35350   -35316   -35270   -35232   -35209   -35194 
  -35175   -35141   -35093   -35035   -34970   -34908   -34848   -34798 
  -34763   -34729   -34691   -34667   -34661   -34661   -34657   -34639 
  -34608   -34581   -34557   -34534   -34519   -34511   -34504   -34493 
  -34484   -34489   -34506   -34533   -34565   -34576   -34560   -34542 
  -34523   -34512   -34526   -34549   -34571   -34596   -34625   -34652 
  -34669   -34677   -34670   -34642   -34602   -34556   -34502   -34445 
  -34389   -34335   -34290   -34266   -34255   -34242   -34230   -34217 
  -34206   -34201   -34193   -34179   -34153   -34106   -34057   -34024 
  -33994   -33959   -33934   -33925   -33914   -33889   -33858   -33832 
  -33805   -33774   -33754   -33750   -33747   -33743   -33743   -33748 
  -33755   -33764   -33774   -33780   -33763   -33725   -33686   -33646 
  -33604   -33568   -33547   -33544   -33542   -33518   -33492   -33488 
  -33492   -33486   -33467   -33434   -33398   -33371   -33342   -33315 
  -33302   -33306   -33317   -33320   -33320   -33338   -33369   -33392 
  -33410   -33436   -33464   -33479   -33474   -33463   -33468   -33481 
  -33493   -33521   -33554   -33572   -33583   -33590   -33591   -33593 
  -33597   -33605   -33620   -33637   -33648   -33664   -33697   -33729 
  -33738   -33728   -33713   -33707   -33709   -33707   -33702   -33702 
  -33691   -33658   -33639   -33652   -33680   -33718   -33762   -33802 
  -33838   -33873   -33902   -33929   -33963   -33994   -34018   -34045 
  -34078   -34111   -34144   -34180   -34205   -34213   -34213   -34214 
  -34218   -34220   -34218   -34230   -34261   -34295   -34325   -34352 
  -34383   -34418   -34454   -34488   -34528   -34583   -34641   -34700 
  -34773   -34856   -34929   -34981   -35011   -35034   -35071   -35130 
  -35194   -35260   -35327   -35369   -35371   -35346   -35321   -35314 
  -35316   -35304   -35287   -35281   -35280   -35276   -35271   -35265 
  -35255   -35241   -35232   -35239   -35247   -35249   -35253   -35260 
  -35267   -35269   -35267   -35270   -35277   -35283   -35282   -35280 
  -35286   -35291   -35288   -35287   -35289   -35298   -35316   -35331 
  -35349   -35371   -35380   -35374   -35364   -35356   -35355   -35346 
  -35309   -35239   -35150   -35062   -34985   -34915   -34838   -34750 
  -34662   -34582   -34516   -34475   -34454   -34428   -34381   -34326 
  -34272   -34229   -34199   -34170   -34142   -34126   -34116   -34099 
  -34081   -34073   -34059   -34034   -34005   -33978   -33968   -33974 
  -33978   -33987   -33998   -33991   -33972   -33957   -33951   -33961 
  -33982   -34004   -34031   -34072   -34108   -34129   -34154   -34184 
  -34215   -34246   -34269   -34299   -34344   -34374   -34378   -34377 
  -34382   -34387   -34385   -34388   -34405   -34426   -34438   -34447 
  -34461   -34489   -34511   -34520   -34517   -34498   -34491   -34513 
  -34544   -34582   -34622   -34648   -34673   -34719   -34786   -34858 
  -34915   -34968   -35032   -35092   -35145   -35210   -35280   -35343 
  -35392   -35434   -35488   -35551   -35612   -35666   -35720   -35783 
  -35846   -35893   -35926   -35942   -35947   -35951   -35949   -35945 
  -35951   -35961   -35966   -35978   -35996   -36008   -36010   -36009 
  -36004   -35987   -35962   -35939   -35922   -35916   -35913   -35901 
  -35891   -35875   -35839   -35794   -35754   -35716   -35681   -35655 
  -35634   -35611   -35592   -35585   -35591   -35605   -35618   -35626 
  -35625   -35601   -35566   -35534   -35499   -35468   -35450   -35424 
  -35391   -35359   -35336   -35321   -35309   -35305   -35302   -35296 
  -35291   -35285   -35283   -35290   -35303   -35330   -35372   -35408 
  -35426   -35438   -35461   -35494   -35531   -35564   -35580   -35587 
  -35600   -35619   -35637   -35651   -35655   -35648   -35634   -35622 
  -35609   -35597   -35592   -35586   -35566   -35532   -35499   -35482 
  -35470   -35448   -35429   -35426   -35432   -35443   -35455   -35477 
  -35505   -35509   -35498   -35504   -35517   -35515   -35489   -35438 
  -35379   -35335   -35298   -35266   -35250   -35228   -35182   -35129 
  -35072   -35003   -34930   -34860   -34794   -34725   -34649   -34570 
  -34494   -34436   -34390   -34333   -34270   -34208   -34140   -34070 
  -34014   -33966   -33921   -33892   -33879   -33871   -33872   -33877 
  -33877   -33876   -33866   -33844   -33833   -33831   -33810   -33791 
  -33801   -33821   -33844   -33871   -33892   -33915   -33941   -33955 
  -33957   -33956   -33955   -33953   -33954   -33945   -33918   -33891 
  -33865   -33831   -33806   -33796   -33776   -33737   -33695   -33657 
  -33617   -33576   -33519   -33453   -33402   -33364   -33325   -33284 
  -33237   -33183   -33131   -33092   -33066   -33051   -33053   -33061 
  -33056   -33045   -33039   -33041   -33059   -33092   -33129   -33167 
  -33196   -33204   -33204   -33216   -33249   -33292   -33325   -33349 
  -33382   -33419   -33441   -33445   -33437   -33418   -33383   -33339 
  -33290   -33250   -33219   -33182   -33136   -33081   -33022   -32969 
  -32923   -32891   -32870   -32855   -32838   -32815   -32789   -32760 
  -32732   -32713   -32695   -32672   -32644   -32608   -32578   -32559 
  -32539   -32521   -32512   -32513   -32521   -32531   -32548   -32576 
  -32598   -32614   -32640   -32677   -32710   -32723   -32725   -32739 
  -32758   -32775   -32794   -32825   -32869   -32909   -32942   -32980 
  -33020   -33045   -33051   -33055   -33071   -33074   -33041   -32999 
  -32977   -32977   -32986   -32997   -33001   -33002   -33001   -33002 
  -33006   -33002   -32993   -32997   -33008   -33023   -33045   -33078 
  -33122   -33161   -33189   -33224   -33279   -33346   -33412   -33477 
  -33542   -33614   -33692   -33766   -33827   -33873   -33918   -33977 
  -34034   -34086   -34148   -34202   -34244   -34295   -34373   -34469 
  -34566   -34649   -34706   -34744   -34780   -34820   -34863   -34912 
  -34966   -35006   -35020   -35035   -35070   -35109   -35136   -35151 
  -35179   -35224   -35263   -35292   -35315   -35325   -35335   -35345 
  -35340   -35322   -35297   -35271   -35261   -35260   -35256   -35253 
  -35242   -35221   -35197   -35168   -35135   -35105   -35089   -35076 
  -35053   -35024   -34987   -34935   -34872   -34812   -34753   -34696 
  -34650   -34609   -34558   -34512   -34489   -34467   -34429   -34392 
  -34364   -34333   -34287   -34232   -34183   -34146   -34116   -34091 
  -34062   -34036   -34028   -34035   -34043   -34046   -34039   -34014 
  -33978   -33939   -33903   -33876   -33853   -33830   -33804   -33772 
  -33736   -33693   -33639   -33589   -33551   -33502   -33439   -33384 
  -33338   -33294   -33261   -33245   -33239   -33238   -33243   -33245 
  -33243   -33245   -33240   -33222   -33198   -33171   -33151   -33145 
  -33148   -33143   -33138   -33159   -33196   -33234   -33281   -33331 
  -33370   -33392   -33402   -33417   -33449   -33491   -33527   -33554 
  -33585   -33623   -33666   -33709   -33744   -33775   -33804   -33827 
  -33845   -33864   -33899   -33948   -33985   -34016   -34058   -34101 
  -34145   -34190   -34227   -34255   -34279   -34304   -34331   -34351 
  -34359   -34355   -34349   -34347   -34347   -34338   -34320   -34301 
  -34276   -34239   -34200   -34169   -34133   -34081   -34021   -33975 
  -33950   -33929   -33909   -33896   -33883   -33865   -33851   -33839 
  -33818   -33790   -33760   -33727   -33692   -33664   -33644   -33631 
  -33617   -33598   -33587   -33572   -33544   -33518   -33494   -33460 
  -33419   -33385   -33362   -33338   -33310   -33299   -33299   -33296 
  -33295   -33295   -33296   -33294   -33295   -33309   -33325   -33324 
  -33322   -33328   -33343   -33370   -33402   -33431   -33460   -33487 
  -33505   -33513   -33530   -33559   -33592   -33620   -33643   -33674 
  -33714   -33750   -33778   -33803   -33835   -33881   -33935   -33980 
  -34013   -34052   -34101   -34147   -34185   -34219   -34253   -34289 
  -34323   -34346   -34363   -34375   -34377   -34380   -34394   -34417 
  -34436   -34441   -34447   -34465   -34485   -34502   -34514   -34517 
  -34514   -34496   -34475   -34468   -34466   -34468   -34479   -34490 
  -34502   -34522   -34545   -34568   -34589   -34606   -34623   -34641 
  -34671   -34719   -34778   -34838   -34891   -34943   -35008   -35067 
  -35113   -35155   -35202   -35250   -35287   -35314   -35338   -35360 
  -35376   -35384   -35397   -35414   -35423   -35428   -35425   -35409 
  -35397   -35392   -35383   -35377   -35381   -35388   -35393   -35392 
  -35388   -35391   -35404   -35428   -35452   -35458   -35446   -35428 
  -35413   -35392   -35355   -35314   -35270   -35219   -35169   -35125 
  -35094   -35084   -35089   -35089   -35081   -35074   -35066   -35051 
  -35033   -35015   -35003   -35002   -34999   -34995   -35006   -35034 
  -35071   -35110   -35144   -35167   -35183   -35205   -35226   -35243 
  -35258   -35267   -35281   -35300   -35314   -35323   -35321   -35308 
  -35297   -35296   -35300   -35301   -35297   -35303   -35318   -35333 
  -35350   -35376   -35402   -35424   -35435   -35442   -35459   -35483 
  -35493   -35484   -35472   -35471   -35470   -35455   -35429   -35402 
  -35372   -35340   -35307   -35274   -35242   -35206   -35162   -35125 
  -35107   -35094   -35074   -35050   -35023   -34996   -34976   -34959 
  -34934   -34898   -34857   -34823   -34797   -34776   -34766   -34761 
  -34746   -34726   -34719   -34722   -34719   -34710   -34704   -34705 
  -34705   -34702   -34702   -34714   -34735   -34754   -34767   -34786 
  -34806   -34818   -34822   -34821   -34817   -34818   -34817   -34813 
  -34816   -34830   -34845   -34848   -34846   -34853   -34872   -34895 
  -34915   -34922   -34918   -34916   -34917   -34923   -34937   -34942 
  -34926   -34903   -34883   -34862   -34838   -34809   -34766   -34720 
  -34697   -34703   -34714   -34708   -34688   -34666   -34647   -34629 
  -34615   -34600   -34572   -34533   -34490   -34440   -34388   -34348 
  -34318   -34285   -34247   -34202   -34156   -34123   -34091   -34059 
  -34035   -34006   -33976   -33960   -33952   -33955   -33967   -33978 
  -33991   -34005   -34003   -33996   -34004   -34024   -34042   -34068 
  -34116   -34185   -34259   -34332   -34411   -34492   -34563   -34621 
  -34667   -34705   -34738   -34771   -34798   -34817   -34843   -34878 
  -34906   -34925   -34944   -34962   -34981   -34993   -34990   -34983 
  -34984   -34989   -34991   -34993   -35000   -35011   -35015   -35010 
  -35013   -35029   -35047   -35063   -35080   -35103   -35132   -35163 
  -35199   -35235   -35262   -35287   -35313   -35333   -35348   -35355 
  -35363   -35377   -35382   -35384   -35392   -35407   -35420   -35412 
  -35398   -35390   -35381   -35374   -35369   -35357   -35336   -35305 
  -35271   -35244   -35223   -35206   -35193   -35193   -35211   -35234 
  -35255   -35277   -35291   -35300   -35311   -35318   -35334   -35363 
  -35385   -35404   -35424   -35447   -35478   -35506   -35528   -35554 
  -35583   -35610   -35635   -35661   -35697   -35742   -35777   -35801 
