Origin Time       2011/03/11 14:46:00
Lat.              38.103
Long.             142.860
Depth. (km)       24
Mag.              9.0
Station Code      NAR008
Station Lat.      34.1369
Station Long.     136.0063
Station Height(m) 332
Record Time       2011/03/11 14:51:00
Sampling Freq(Hz) 100Hz
Duration Time(s)  60
Dir.              E-W
Scale Factor      3920(gal)/6182761
Max. Acc. (gal)   1.238
Last Correction   2011/03/11 14:50:45
Memo.             
[...]
     999      921      886      873      829      738      626      521 
     441      404      391      390      400      364      309      289 
     240      187      210      214      173      167      142       75 
      33      -17      -78      -94      -98     -119     -118     -108 
    -135     -161     -140     -140     -177     -169     -164     -211 
    -211     -160     -126      -88      -40       -3       20       19 
       5        9       33       42       44       69       82       75 
      89       81       39       27       35       35       67      132 
     181      196      180      134       93       76       52       40 
      71       99      112      140      170      168      142      129 
     155      192      220      257      264      224      198      189 
     183      214      286      349      378      411      435      431 
     445      497      542      582      692      801      798      810 
     864      843      836      888      916      952      966      924 
     908      900      860      844      840      801      740      669 
     607      562      517      482      444      389      353      331 
     298      266      247      231      215      229      244      196 
     129       82       34       16       33       22      -16      -22 
     -22      -57      -92      -97      -80      -83      -96      -70 
     -59      -85      -72      -33      -51      -72      -27       19 
      15       -7       -4        5      -28      -41        8       36 
      40       74      126      199      243      213      183      187 
     185      196      235      277      354      425      433      450 
     466      455      475      493      514      582      647      692 
     708      686      693      718      700      695      729      747 
     746      772      819      829      809      795      779      760 
     760      777      809      842      843      844      861      858 
     875      915      907      901      946      945      917      936 
     921      887      915      939      950      982      986      983 
     992      990     1007     1055     1116     1169     1184     1179 
    1207     1241     1234     1236     1290     1343     1380     1487 
    1621     1676     1683     1672     1635     1633     1680     1718 
    1779     1910     2022     2043     2061     2066     1952     1840 
    1834     1816     1804     1880     1938     1925     1902     1844 
    1742     1677     1654     1632     1642     1676     1669     1626 
    1572     1508     1443     1375     1306     1270     1269     1257 
    1223     1171     1097     1022      962      937      954      945 
     915      938      961      941      926      933      964      972 
     929      893      848      790      758      704      656      678 
     657      553      478      419      345      310      285      268 
     277      245      166       64      -39      -79      -70      -58 
     -35      -32      -69     -138     -221     -247     -245     -284 
    -291     -279     -320     -306     -213     -161     -151     -151 
    -193     -220     -174     -115      -63       17       76      120 
     185      169      113      165      219      235      338      442 
     487      592      694      671      629      628      576      515 
     557      650      677      677      742      756      663      615 
     579      517      563      650      692      739      730      676 
     657      615      562      582      605      577      558      545 
     511      506      513      473      444      455      422      371 
     396      435      441      484      505      461      447      434 
     367      330      347      356      347      360      376      362 
     362      343      255      241      335      385      380      388 
     391      367      330      304      306      291      253      265 
     320      339      337      338      302      279      290      280 
     308      376      401      386      385      420      421      382 
     403      400      316      281      285      305      400      493 
     528      524      468      374      298      263      272      319 
     353      368      375      320      234      177      121       86 
     114      126       86       74       75       11      -36      -22 
     -29      -26        2        4      -12      -56      -98      -80 
     -41      -19       18       29      -19      -45      -45      -35 
      47      142      169      166      159      124       80       85 
     143      192      194      184      175      131       60       57 
     129      180      213      250      260      258      253      271 
     374      476      484      484      518      522      538      639 
     735      780      876      985     1017     1036     1082     1121 
    1167     1240     1303     1344     1379     1403     1439     1526 
    1645     1761     1881     1970     2006     1996     1978     2016 
    2060     2055     2101     2200     2218     2208     2227     2200 
    2187     2231     2227     2191     2202     2184     2091     2013 
    1959     1919     1933     1954     1955     1946     1875     1780 
    1711     1623     1554     1548     1507     1449     1441     1372 
    1258     1226     1206     1172     1126     1032     1006     1036 
     935      794      770      742      647      599      644      677 
     632      616      632      566      490      478      462      458 
     509      570      634      685      678      663      668      648 
     609      594      617      670      744      796      785      748 
     723      681      631      640      694      750      802      831 
     822      792      768      771      775      760      764      773 
     744      691      629      567      513      501      528      507 
     451      414      334      237      204      168      110      101 
     100      104      148      163      166      205      210      205 
     252      308      334      366      420      470      540      634 
     696      727      740      705      672      730      817      872 
     912      924      931      913      812      732      717      693 
     704      745      782      846      816      648      532      450 
     346      359      366      276      285      306      204      130 
      78      -27      -97     -127     -155     -179     -182     -141 
    -173     -305     -362     -395     -493     -529     -494     -485 
    -497     -521     -545     -553     -584     -615     -608     -616 
    -628     -617     -609     -592     -569     -515     -399     -288 
    -210     -175     -192     -177     -123      -57       73      245 
     338      340      355      376      366      386      433      474 
     546      585      512      450      467      462      471      553 
     604      608      587      507      444      437      442      507 
     654      755      782      848      867      791      798      854 
     874      926      990     1028     1064     1089     1142     1227 
    1252     1281     1343     1306     1272     1294     1209     1141 
    1182     1195     1213     1261     1281     1291     1264     1216 
    1260     1325     1289     1272     1324     1279     1178     1191 
    1240     1250     1321     1424     1466     1471     1439     1370 
    1344     1372     1359     1355     1474     1577     1576     1605 
    1655     1635     1608     1656     1733     1748     1741     1739 
    1700     1672     1692     1713     1716     1711     1688     1663 
    1668     1675     1688     1694     1662     1684     1691     1609 
    1615     1638     1561     1538     1551     1562     1634     1661 
    1624     1594     1540     1519     1590     1655     1659     1715 
    1809     1783     1751     1863     1958     1985     2027     2077 
    2152     2221     2263     2288     2261     2248     2278     2298 
    2324     2341     2343     2352     2322     2210     2108     2121 
    2114     2001     1994     2056     1995     1947     1944     1843 
    1747     1742     1711     1669     1658     1577     1456     1368 
    1257     1169     1200     1269     1249     1209     1212     1164 
    1070      985      887      826      866      958     1037     1132 
    1211     1160     1077     1063      984      884     1008     1247 
    1305     1328     1465     1441     1243     1172     1192     1161 
    1182     1304     1407     1400     1312     1206     1093     1029 
    1083     1166     1189     1198     1212     1190     1106     1012 
     987     1001     1024     1077     1104     1101     1072      946 
     808      811      863      874      931      960      869      813 
     809      746      714      736      703      679      717      795 
     886      883      819      833      895      937      981     1064 
    1162     1234     1286     1300     1297     1325     1345     1416 
    1549     1620     1645     1667     1708     1779     1780     1770 
    1833     1864     1903     1988     1976     1929     1951     1941 
    1887     1866     1858     1828     1838     1886     1895     1917 
    1923     1813     1720     1707     1692     1691     1728     1831 
    1936     1928     1887     1802     1598     1483     1547     1632 
    1708     1717     1617     1573     1565     1475     1379     1347 
    1332     1303     1326     1407     1409     1308     1223     1174 
    1137     1159     1215     1207     1158     1148     1137     1051 
     944      930      908      795      805      863      765      711 
     735      704      657      566      471      500      608      662 
     628      574      511      459      481      471      398      415 
     491      546      587      591      601      636      663      745 
     886     1015     1113     1159     1168     1219     1297     1358 
    1426     1524     1654     1762     1829     1892     1876     1800 
    1820     1882     1948     2067     2134     2104     2059     2015 
    1915     1742     1630     1637     1612     1577     1604     1537 
    1404     1297     1120      966      921      898      917      934 
     881      872      876      769      667      597      457      413 
     493      460      423      474      438      454      548      462 
     355      403      420      422      516      572      553      571 
     614      642      673      692      759      864      837      818 
     939      925      887     1037     1053      983     1058     1057 
    1011     1069     1097     1124     1202     1247     1285     1264 
    1197     1264     1281     1182     1274     1315     1219     1346 
    1355     1165     1255     1283     1026      991     1164     1165 
    1028     1032     1093      951      835      904      898      855 
     935      940      834      847      911      831      677      709 
     847      755      701      851      809      717      789      778 
     701      732      773      701      755      985      830      501 
     750      914      482      462      864      793      697      984 
    1036      862      765      595      655     1020      914      597 
     945     1209      812      683      967      940      621      564 
     846     1005      814      601      628      616      456      368 
     386      540      497      221      470      766      359      213 
     464      325      310      492      420      482      545      459 
     518      554      609      552      247      337      743      833 
     649      462      628      903      597      259      632     1098 
     917      452      595     1211     1070      233      420     1440 
    1165      196      693     1571     1080      451      744     1115 
    1118      869      618      915     1358      990      476      821 
    1265     1048      580      756     1468     1103      369      919 
    1181      821     1236     1268      637      951     1485     1041 
     758     1172     1168      889     1141     1221      866     1109 
    1415      823      772     1633     1492      760      878     1212 
    1386     1279      787     1143     1836     1273      693     1151 
    1558     1396     1051      944     1309     1480      972      893 
    1391     1248      945     1170     1393     1384      975      843 
    1469     1357      745     1082     1562     1423     1068      923 
    1275     1686     1361      893     1435     1864     1229     1116 
    1631     1496     1386     1802     1902     1576     1650     1976 
    1554     1469     2184     1900     1773     2339     1790     1712 
    2397     1943     1612     2150     2372     2088     1892     2037 
    2013     2015     2215     1754     1505     2074     1975     1553 
    1771     1809     1444     1373     1546     1543     1516     1426 
    1233     1367     1384     1187     1466     1462      917     1051 
    1621     1509     1017     1142     1663     1732     1573     1562 
    1539     1729     1902     1698     1812     2068     1910     1988 
    2144     2075     2233     2301     2262     2434     2442     2287 
    2174     2201     2402     2397     2340     2496     2537     2479 
    2421     2356     2376     2304     2186     2263     2347     2368 
    2398     2267     2181     2361     2467     2420     2369     2266 
    2224     2339     2471     2571     2652     2676     2660     2562 
    2525     2625     2560     2505     2776     2966     2918     2908 
    2829     2675     2637     2603     2600     2739     2834     2832 
    2751     2578     2515     2543     2465     2434     2459     2353 
    2268     2283     2273     2257     2238     2199     2183     2163 
    2079     1963     1923     1937     1925     1905     1902     1933 
    1957     1880     1727     1636     1624     1613     1679     1824 
    1804     1624     1549     1545     1482     1493     1595     1615 
    1545     1545     1628     1647     1597     1462     1285     1376 
    1593     1529     1487     1707     1778     1618     1536     1562 
    1561     1549     1583     1616     1633     1654     1583     1486 
    1586     1731     1689     1665     1781     1852     1804     1679 
    1600     1662     1692     1650     1776     1999     2024     1877 
    1794     1865     1942     1913     1904     1962     2023     2088 
    2111     2090     2119     2185     2179     2150     2202     2209 
    2153     2182     2182     2103     2122     2171     2160     2181 
    2205     2165     2049     1908     1893     1954     1972     1960 
    1862     1749     1734     1700     1603     1543     1591     1700 
    1686     1555     1448     1382     1369     1429     1534     1625 
    1631     1597     1523     1391     1378     1446     1443     1531 
    1678     1640     1498     1426     1406     1359     1311     1367 
    1480     1526     1523     1500     1445     1390     1343     1312 
    1336     1377     1413     1465     1477     1433     1395     1379 
    1365     1386     1456     1503     1531     1572     1552     1493 
    1478     1487     1523     1538     1524     1588     1640     1570 
    1540     1630     1704     1707     1693     1676     1643     1619 
    1637     1650     1641     1678     1743     1774     1808     1848 
    1845     1812     1733     1674     1747     1856     1894     1905 
    1924     1936     1892     1823     1801     1829     1915     2008 
    2034     2026     2013     1967     1906     1891     1926     1982 
    2057     2106     2125     2189     2247     2192     2097     2083 
    2123     2133     2139     2190     2235     2223     2187     2144 
    2096     2062     2069     2101     2102     2081     2060     2015 
    1970     1935     1899     1896     1878     1812     1793     1786 
    1703     1651     1702     1741     1711     1697     1713     1692 
    1652     1641     1653     1679     1683     1607     1515     1512 
    1525     1497     1489     1503     1484     1425     1390     1395 
    1356     1300     1292     1282     1285     1308     1274     1240 
    1215     1137     1098     1111     1092     1096     1137     1156 
    1120     1029      969      939      885      877      893      868 
     895      937      884      815      749      660      648      680 
     668      694      723      663      604      585      576      585 
     578      570      641      749      756      690      704      752 
     730      729      806      901      950      915      863      893 
     943      947      990     1081     1121     1130     1160     1185 
    1198     1211     1203     1206     1280     1340     1339     1360 
    1374     1342     1301     1259     1239     1234     1216     1228 
    1262     1252     1244     1247     1179     1105     1072      996 
     959      966      905      894      905      835      816      815 
     728      661      644      607      580      596      602      592 
     615      625      595      598      607      569      555      576 
     588      584      600      643      670      692      736      779 
     809      842      889      932      986     1067     1116     1136 
    1178     1208     1223     1272     1351     1438     1522     1590 
    1630     1665     1695     1687     1689     1731     1761     1786 
    1844     1874     1841     1830     1835     1784     1742     1791 
    1866     1855     1787     1762     1697     1588     1587     1616 
    1618     1664     1681     1672     1670     1594     1489     1463 
    1477     1462     1481     1557     1572     1506     1471     1456 
    1424     1425     1444     1460     1486     1455     1393     1389 
    1411     1426     1444     1468     1495     1483     1465     1476 
    1433     1363     1354     1351     1348     1385     1401     1372 
    1356     1344     1306     1272     1260     1238     1214     1225 
    1250     1250     1240     1200     1136     1121     1114     1068 
    1061     1090     1089     1093     1101     1061     1015      977 
     944      954      955      949      970      970      970      999 
    1014     1015     1018     1003      995     1021     1061     1084 
    1073     1078     1123     1148     1161     1183     1180     1173 
    1164     1143     1137     1153     1187     1188     1141     1125 
    1119     1082     1097     1138     1101     1065     1072     1030 
     976      965      943      936      975     1005     1024     1052 
    1037      998      996     1006     1033     1106     1179     1251 
    1326     1337     1316     1320     1337     1387     1486     1617 
    1705     1714     1717     1698     1649     1673     1734     1779 
    1861     1915     1916     1947     1969     1950     1965     2017 
    2045     2057     2079     2089     2095     2122     2128     2117 
    2121     2122     2134     2158     2173     2179     2150     2111 
    2094     2070     2055     2058     2049     2031     2029     2019 
    1973     1928     1906     1885     1870     1874     1885     1869 
    1806     1729     1661     1614     1588     1560     1547     1542 
    1489     1423     1386     1342     1298     1287     1284     1264 
    1224     1174     1129     1105     1099     1087     1070     1054 
