Origin Time       2011/03/11 14:46:00
Lat.              38.103
Long.             142.860
Depth. (km)       24
Mag.              9.0
Station Code      NAR004
Station Lat.      34.5277
Station Long.     135.9511
Station Height(m) 308
Record Time       2011/03/11 14:50:28
Sampling Freq(Hz) 100Hz
Duration Time(s)  86
Dir.              E-W
Scale Factor      3920(gal)/6182761
Max. Acc. (gal)   1.893
Last Correction   2011/03/11 14:50:13
Memo.             
[...]
    6215     6073     5947     5906     5889     5910     6034     6170 
    6256     6358     6462     6504     6536     6581     6574     6534 
    6543     6599     6679     6793     6923     7004     7028     7052 
    7026     6883     6690     6491     6294     6152     6058     5977 
    5936     5989     6110     6228     6377     6570     6692     6708 
    6704     6721     6750     6787     6826     6865     6914     6966 
    6994     6998     7032     7091     7116     7117     7105     7056 
    7015     7025     7033     7011     6997     6989     6931     6825 
    6728     6640     6538     6465     6435     6399     6385     6417 
    6410     6329     6211     6069     5928     5822     5734     5631 
    5538     5456     5354     5294     5318     5373     5443     5517 
    5572     5635     5757     5946     6124     6245     6337     6401 
    6474     6574     6622     6611     6616     6647     6660     6648 
    6664     6694     6679     6678     6724     6730     6713     6722 
    6725     6721     6715     6705     6663     6575     6516     6490 
    6458     6457     6461     6446     6441     6434     6401     6357 
    6340     6316     6220     6096     5992     5912     5881     5902 
    5920     5906     5912     5952     6008     6068     6114     6130 
    6106     6050     5963     5849     5760     5707     5684     5704 
    5734     5757     5774     5800     5859     5908     5901     5848 
    5779     5758     5793     5828     5865     5923     5987     6057 
    6145     6236     6297     6335     6369     6386     6397     6446 
    6526     6628     6727     6804     6874     6918     6945     6975 
    6984     7011     7069     7092     7054     6978     6906     6852 
    6822     6817     6770     6659     6542     6403     6223     6078 
    5992     5909     5818     5738     5676     5662     5727     5803 
    5832     5874     5944     5990     6050     6142     6241     6374 
    6537     6686     6790     6863     6939     6991     7002     7016 
    7035     7034     6996     6932     6860     6770     6677     6612 
    6552     6492     6446     6428     6474     6553     6598     6627 
    6669     6682     6620     6515     6409     6263     6100     5997 
    5934     5883     5863     5867     5849     5784     5722     5689 
    5643     5568     5481     5427     5451     5499     5524     5547 
    5584     5622     5638     5636     5635     5593     5485     5346 
    5187     5014     4871     4775     4692     4624     4612     4616 
    4596     4603     4644     4688     4729     4752     4758     4768 
    4832     4977     5131     5276     5429     5553     5676     5814 
    5935     6043     6147     6249     6330     6390     6456     6509 
    6575     6693     6790     6834     6869     6890     6876     6830 
    6782     6731     6658     6582     6495     6386     6295     6235 
    6177     6112     6036     5961     5897     5836     5776     5712 
    5668     5671     5672     5630     5584     5557     5525     5504 
    5527     5548     5548     5586     5652     5656     5591     5516 
    5438     5334     5259     5252     5242     5220     5218     5175 
    5099     5046     4984     4922     4895     4881     4864     4870 
    4917     4990     5075     5167     5255     5351     5449     5536 
    5629     5715     5773     5796     5784     5783     5816     5837 
    5833     5823     5822     5830     5835     5844     5876     5912 
    5942     5965     5961     5919     5849     5783     5734     5658 
    5545     5456     5400     5308     5204     5167     5141     5101 
    5112     5117     5059     5000     4963     4925     4884     4861 
    4854     4857     4935     5096     5219     5247     5255     5272 
    5262     5252     5269     5260     5219     5197     5198     5213 
    5245     5244     5195     5166     5171     5161     5153     5145 
    5072     4945     4834     4741     4637     4561     4507     4421 
    4343     4327     4318     4273     4232     4241     4282     4335 
    4432     4556     4671     4807     4969     5108     5221     5315 
    5373     5437     5551     5673     5775     5886     6002     6102 
    6191     6293     6390     6454     6509     6539     6502     6428 
    6365     6317     6293     6293     6279     6249     6258     6277 
    6258     6256     6287     6272     6218     6206     6196     6133 
    6094     6086     6029     5969     5946     5878     5774     5703 
    5636     5539     5477     5499     5546     5590     5677     5769 
    5837     5938     6038     6050     6008     5999     6009     5991 
    5968     5921     5815     5710     5642     5561     5471     5437 
    5439     5399     5352     5372     5411     5434     5476     5503 
    5484     5459     5441     5415     5408     5431     5433     5443 
    5527     5627     5707     5815     5924     5968     5975     6003 
    6025     6005     6026     6106     6142     6168     6265     6366 
    6422     6472     6480     6403     6303     6201     6064     5927 
    5827     5739     5676     5695     5741     5734     5724     5749 
    5745     5705     5678     5649     5611     5622     5681     5710 
    5723     5797     5892     5931     5959     5979     5944     5894 
    5861     5822     5818     5884     5951     5985     6066     6202 
    6326     6438     6533     6562     6527     6492     6460     6394 
    6320     6284     6272     6278     6316     6331     6301     6302 
    6322     6286     6265     6288     6247     6181     6212     6285 
    6335     6408     6502     6564     6586     6611     6637     6636 
    6632     6605     6515     6433     6405     6377     6329     6291 
    6232     6138     6076     6022     5928     5866     5871     5892 
    5911     5957     6000     5993     6019     6083     6062     6002 
    6007     6025     6017     6044     6117     6143     6108     6088 
    6047     5956     5909     5903     5869     5850     5874     5890 
    5910     5991     6082     6124     6173     6245     6273     6250 
    6188     6088     6014     6030     6064     6013     5933     5901 
    5879     5844     5792     5693     5567     5486     5447     5390 
    5335     5323     5300     5248     5231     5238     5196     5155 
    5186     5229     5263     5353     5471     5576     5709     5867 
    5981     6043     6102     6160     6186     6195     6178     6134 
    6111     6095     6027     5934     5876     5826     5734     5629 
    5538     5439     5348     5279     5166     5003     4898     4837 
    4733     4636     4582     4528     4488     4469     4444     4421 
    4426     4445     4434     4397     4371     4344     4324     4352 
    4376     4333     4297     4320     4332     4336     4408     4510 
    4560     4590     4634     4664     4707     4794     4860     4858 
    4847     4863     4879     4919     5002     5082     5135     5180 
    5249     5337     5423     5492     5539     5601     5684     5742 
    5799     5894     5975     6012     6048     6084     6077     6045 
    6067     6124     6134     6133     6166     6216     6318     6479 
    6622     6715     6791     6858     6904     6948     7009     7070 
    7141     7244     7338     7416     7522     7625     7688     7724 
    7722     7654     7551     7456     7343     7209     7126     7082 
    7011     6953     6927     6873     6808     6770     6714     6638 
    6588     6554     6514     6475     6450     6442     6426     6432 
    6475     6491     6489     6502     6493     6484     6529     6589 
    6616     6639     6659     6635     6603     6596     6548     6439 
    6355     6328     6299     6263     6254     6253     6235     6212 
    6182     6166     6174     6146     6088     6079     6098     6095 
    6090     6098     6089     6054     6032     6049     6079     6103 
    6132     6159     6164     6177     6229     6292     6356     6421 
    6473     6522     6546     6521     6484     6473     6506     6561 
    6618     6691     6753     6774     6787     6817     6831     6817 
    6813     6799     6741     6671     6614     6566     6533     6514 
    6502     6494     6491     6455     6413     6434     6461     6444 
    6433     6464     6501     6506     6510     6529     6523     6513 
    6532     6517     6418     6300     6218     6160     6094     6018 
    5982     5997     6020     6049     6086     6133     6207     6271 
    6295     6300     6285     6270     6298     6336     6347     6359 
    6385     6412     6409     6368     6317     6254     6183     6124 
    6069     6046     6054     6052     6078     6128     6128     6084 
    6052     6026     5977     5896     5789     5663     5561     5519 
    5508     5503     5526     5585     5660     5736     5808     5868 
    5912     5937     5928     5884     5833     5785     5731     5672 
    5620     5580     5542     5499     5466     5445     5429     5425 
    5430     5419     5411     5445     5505     5558     5607     5654 
    5708     5802     5906     5962     6001     6042     6046     6013 
    5985     5985     6009     6065     6154     6231     6294     6359 
    6399     6401     6391     6378     6322     6218     6115     6020 
    5936     5910     5885     5814     5762     5732     5690     5652 
    5618     5578     5533     5508     5508     5497     5492     5505 
    5499     5497     5530     5582     5639     5673     5671     5649 
    5632     5642     5649     5616     5583     5589     5608     5627 
    5680     5766     5841     5898     5966     6024     6064     6120 
    6181     6216     6262     6335     6387     6419     6491     6597 
    6684     6752     6806     6846     6877     6899     6926     6962 
    6991     7006     7006     7000     7002     7022     7062     7116 
    7179     7243     7311     7376     7437     7508     7584     7680 
    7810     7928     7998     8036     8058     8040     7972     7914 
    7900     7878     7818     7755     7708     7666     7657     7669 
    7635     7579     7546     7503     7440     7402     7394     7360 
    7298     7248     7194     7139     7114     7068     6989     6914 
    6831     6769     6757     6762     6755     6744     6760     6798 
    6814     6810     6808     6766     6668     6600     6577     6504 
    6406     6381     6409     6450     6496     6538     6578     6618 
    6641     6650     6661     6692     6729     6730     6701     6678 
    6651     6613     6604     6615     6591     6553     6521     6446 
    6366     6355     6372     6374     6354     6305     6249     6220 
    6212     6185     6117     6054     6035     6020     6000     6010 
    6041     6084     6131     6143     6133     6138     6124     6081 
    6060     6045     5989     5911     5820     5703     5585     5522 
    5495     5437     5395     5441     5499     5503     5506     5556 
    5627     5682     5726     5756     5769     5808     5873     5934 
    6013     6100     6169     6253     6340     6362     6330     6329 
    6337     6306     6301     6339     6344     6288     6226     6186 
    6133     6079     6029     5944     5862     5804     5717     5635 
    5628     5662     5671     5651     5621     5621     5688     5778 
    5822     5841     5882     5926     5934     5937     5946     5920 
    5889     5887     5872     5831     5811     5827     5847     5894 
    5982     6023     6031     6104     6211     6271     6307     6345 
    6360     6382     6472     6571     6592     6584     6584     6573 
    6592     6631     6606     6534     6498     6481     6445     6449 
    6491     6485     6478     6527     6581     6619     6681     6740 
    6761     6800     6866     6896     6910     6957     7014     7054 
    7106     7175     7203     7202     7238     7290     7326     7388 
    7462     7487     7496     7523     7503     7444     7413     7382 
    7346     7361     7378     7326     7258     7236     7207     7145 
    7108     7079     7009     6962     6968     6960     6960     7023 
    7100     7132     7123     7084     7008     6937     6888     6812 
    6737     6725     6707     6636     6602     6637     6647     6613 
    6601     6592     6572     6599     6647     6632     6605     6640 
    6673     6678     6725     6790     6824     6877     6931     6908 
    6862     6859     6850     6812     6818     6867     6887     6891 
    6919     6943     6930     6903     6853     6771     6718     6697 
    6624     6500     6407     6341     6251     6154     6077     6005 
    5961     5956     5915     5839     5827     5852     5820     5734 
    5649     5580     5497     5391     5280     5182     5123     5091 
    5019     4927     4863     4796     4736     4728     4729     4685 
    4631     4599     4559     4543     4603     4680     4721     4754 
    4774     4762     4748     4723     4647     4555     4522     4494 
    4392     4287     4210     4100     4011     4007     4023     4029 
    4066     4093     4071     4052     4053     4045     4021     4008 
    4018     4027     4059     4122     4173     4215     4245     4209 
    4138     4109     4097     4055     4007     3985     3967     3922 
    3869     3821     3776     3776     3823     3846     3826     3789 
    3735     3694     3695     3708     3720     3751     3754     3692 
    3648     3658     3653     3630     3610     3569     3523     3496 
    3484     3512     3574     3643     3713     3777     3845     3924 
    4002     4080     4145     4191     4248     4312     4338     4314 
    4309     4339     4324     4280     4283     4310     4328     4349 
    4337     4291     4304     4367     4392     4401     4442     4482 
    4517     4578     4632     4621     4583     4585     4593     4549 
    4504     4496     4485     4482     4511     4542     4588     4661 
    4739     4806     4878     4971     5057     5126     5225     5351 
    5464     5568     5671     5765     5883     6040     6186     6284 
    6356     6435     6529     6610     6652     6673     6727     6814 
    6876     6907     6935     6964     6981     6988     6986     6954 
    6926     6919     6862     6739     6615     6519     6434     6340 
    6255     6192     6129     6088     6068     6010     5941     5897 
    5847     5810     5780     5698     5599     5545     5503     5406 
    5286     5243     5260     5273     5304     5354     5408     5495 
    5591     5656     5710     5767     5811     5836     5863     5899 
    5951     6045     6151     6205     6234     6294     6348     6353 
    6358     6366     6327     6269     6235     6203     6181     6219 
    6282     6297     6300     6334     6368     6373     6350     6321 
    6309     6322     6347     6377     6429     6478     6501     6532 
    6594     6636     6598     6541     6526     6497     6467     6504 
    6550     6553     6548     6550     6525     6484     6484     6494 
    6450     6401     6336     6209     6114     6084     6034     5972 
    5928     5875     5802     5724     5661     5592     5509     5458 
    5423     5374     5348     5337     5306     5282     5248     5165 
    5074     5013     4988     5009     5043     5044     5019     5026 
    5063     5083     5125     5213     5281     5322     5398     5485 
    5495     5458     5466     5496     5520     5570     5612     5605 
    5592     5608     5611     5579     5560     5556     5541     5540 
    5560     5552     5526     5541     5578     5602     5643     5692 
    5734     5803     5874     5920     5995     6088     6116     6100 
    6113     6126     6107     6108     6136     6126     6099     6106 
    6100     6039     5979     5945     5903     5843     5798     5758 
    5699     5648     5582     5495     5462     5468     5438     5394 
    5380     5384     5385     5401     5411     5369     5319     5300 
    5289     5281     5300     5344     5379     5412     5468     5515 
    5546     5613     5686     5725     5772     5825     5840     5862 
    5935     5994     6039     6134     6235     6281     6308     6328 
    6330     6341     6348     6320     6295     6321     6383     6442 
    6505     6576     6618     6643     6684     6709     6716     6738 
    6762     6763     6750     6727     6704     6697     6711     6748 
    6781     6777     6792     6829     6823     6798     6798     6824 
    6879     6966     7059     7121     7158     7189     7228     7298 
    7374     7412     7441     7478     7463     7394     7341     7292 
    7232     7182     7129     7074     7022     6932     6811     6702 
    6608     6526     6452     6386     6352     6355     6377     6419 
    6467     6514     6596     6688     6724     6727     6750     6768 
    6782     6847     6942     7024     7108     7194     7269     7345 
    7430     7525     7629     7740     7856     7981     8118     8268 
    8424     8563     8665     8739     8803     8869     8932     8975 
    8985     8989     9015     9032     9025     9035     9054     9052 
    9032     9014     8997     8973     8948     8907     8841     8793 
    8765     8704     8629     8585     8562     8531     8456     8362 
    8291     8226     8154     8070     7983     7913     7827     7726 
    7653     7594     7527     7475     7437     7377     7311     7303 
    7339     7368     7375     7355     7316     7280     7244     7182 
    7090     7008     6957     6928     6914     6898     6900     6953 
    7004     6993     6965     6980     6989     6943     6888     6855 
    6803     6734     6691     6661     6613     6580     6562     6513 
    6444     6368     6282     6198     6103     5984     5872     5795 
    5743     5712     5701     5677     5608     5505     5407     5314 
    5204     5107     5049     4999     4975     5011     5063     5096 
    5138     5206     5287     5354     5378     5385     5413     5446 
    5498     5598     5694     5766     5861     5984     6100     6204 
    6289     6342     6377     6412     6459     6534     6594     6602 
    6606     6628     6623     6581     6553     6570     6594     6604 
    6626     6645     6650     6659     6669     6677     6679     6646 
    6557     6460     6396     6364     6366     6388     6405     6423 
    6448     6456     6433     6410     6427     6457     6458     6464 
    6518     6594     6647     6668     6690     6732     6765     6793 
    6824     6842     6864     6877     6843     6807     6817     6817 
    6784     6756     6728     6696     6701     6714     6667     6594 
    6546     6487     6411     6361     6315     6250     6185     6102 
    6004     5955     5954     5928     5864     5825     5843     5881 
    5898     5894     5894     5884     5838     5798     5819     5876 
    5916     5933     5955     5990     6039     6130     6258     6355 
    6399     6464     6565     6639     6718     6845     6960     7044 
    7137     7242     7343     7422     7481     7521     7524     7497 
    7464     7442     7431     7413     7356     7295     7271     7243 
    7191     7147     7088     6998     6927     6878     6816     6773 
    6802     6854     6849     6817     6811     6809     6814     6852 
    6893     6935     7001     7026     6981     6952     6966     6965 
