Origin Time       2011/03/11 14:46:00
Lat.              38.103
Long.             142.860
Depth. (km)       24
Mag.              9.0
Station Code      NAR009
Station Lat.      33.9396
Station Long.     135.7530
Station Height(m) 198
Record Time       2011/03/11 14:51:11
Sampling Freq(Hz) 100Hz
Duration Time(s)  60
Dir.              U-D
Scale Factor      3920(gal)/6182761
Max. Acc. (gal)   1.826
Last Correction   2011/03/11 14:50:56
Memo.             
   26131    26111    26079    26074    26087    26088    26094    26123 
   26150    26143    26126    26130    26152    26183    26209    26229 
   26233    26204    26163    26132    26107    26079    26058    26059 
   26061    26036    26001    25985    25979    25971    25965    25960 
   25943    25896    25830    25783    25767    25752    25733    25753 
   25802    25813    25773    25730    25689    25631    25579    25556 
   25541    25513    25485    25459    25427    25402    25402    25421 
   25431    25434    25440    25445    25440    25445    25475    25509 
   25537    25582    25629    25651    25656    25671    25725    25792 
   25846    25915    25993    26037    26068    26124    26173    26194 
   26224    26276    26323    26349    26352    26348    26368    26423 
   26489    26546    26600    26639    26649    26637    26636    26669 
   26711    26732    26754    26785    26797    26794    26808    26832 
   26835    26833    26839    26825    26798    26803    26830    26845 
   26849    26835    26800    26774    26787    26839    26888    26902 
   26898    26890    26848    26775    26737    26757    26782    26801 
   26840    26875    26876    26862    26870    26903    26942    26956 
   26944    26932    26923    26908    26913    26958    27012    27047 
   27072    27095    27116    27128    27136    27162    27199    27220 
   27223    27224    27227    27228    27224    27218    27228    27248 
   27243    27212    27181    27150    27118    27110    27136    27154 
   27153    27143    27112    27082    27098    27141    27167    27185 
   27207    27191    27130    27064    27000    26941    26914    26915 
   26929    26955    26967    26957    26956    26972    26982    26985 
   26994    26998    26995    26994    26979    26951    26945    26966 
   26973    26977    27010    27032    27008    26981    26966    26937 
   26906    26897    26884    26867    26862    26849    26820    26793 
   26753    26706    26698    26723    26727    26691    26628    26542 
   26449    26376    26303    26240    26206    26158    26090    26064 
   26076    26077    26079    26108    26125    26114    26105    26107 
   26105    26106    26107    26106    26115    26123    26125    26139 
   26146    26128    26108    26106    26122    26141    26154    26155 
   26138    26129    26149    26183    26219    26252    26266    26266 
   26273    26275    26271    26288    26327    26364    26397    26417 
   26409    26388    26381    26398    26422    26440    26446    26437 
   26421    26408    26403    26396    26385    26376    26374    26377 
   26375    26378    26398    26423    26448    26458    26453    26444 
   26433    26428    26445    26467    26479    26495    26514    26523 
   26535    26574    26621    26655    26686    26721    26752    26782 
   26827    26876    26911    26940    26979    27018    27030    27028 
   27051    27082    27092    27107    27148    27189    27208    27212 
   27218    27232    27250    27260    27269    27302    27345    27386 
   27444    27499    27527    27547    27570    27597    27622    27642 
   27673    27700    27701    27688    27680    27684    27709    27756 
   27798    27814    27814    27816    27827    27851    27881    27903 
   27933    27982    28024    28031    28023    28026    28048    28084 
   28122    28147    28160    28159    28141    28131    28138    28142 
   28148    28180    28225    28264    28287    28297    28314    28325 
   28301    28269    28257    28250    28232    28214    28206    28185 
   28141    28103    28095    28097    28091    28089    28100    28101 
   28077    28045    28024    28013    28003    27985    27965    27937 
   27885    27825    27783    27758    27735    27712    27688    27652 
   27601    27551    27520    27501    27471    27439    27433    27436 
   27416    27381    27348    27323    27301    27281    27270    27265 
   27262    27271    27282    27266    27225    27179    27136    27094 
   27052    27016    26989    26964    26937    26923    26922    26907 
   26868    26827    26785    26729    26668    26625    26600    26583 
   26574    26564    26544    26512    26482    26473    26472    26460 
   26452    26451    26440    26417    26398    26378    26355    26346 
   26353    26369    26393    26416    26423    26418    26415    26407 
   26393    26398    26418    26430    26449    26479    26497    26505 
   26505    26501    26512    26538    26568    26585    26585    26588 
   26599    26615    26641    26660    26660    26660    26689    26737 
   26769    26788    26819    26852    26872    26888    26917    26943 
   26950    26948    26951    26958    26970    26978    26983    26995 
   27018    27045    27075    27111    27156    27203    27251    27298 
   27338    27374    27411    27454    27517    27596    27663    27713 
   27757    27808    27875    27942    27987    28023    28061    28089 
   28108    28128    28155    28182    28213    28262    28305    28303 
   28285    28302    28350    28382    28376    28350    28332    28324 
   28313    28309    28336    28367    28360    28337    28327    28323 
   28319    28328    28359    28399    28419    28421    28420    28410 
   28400    28403    28415    28421    28410    28387    28373    28370 
   28358    28347    28347    28339    28324    28310    28275    28223 
   28186    28174    28182    28197    28187    28142    28087    28048 
   28030    28021    28017    28008    27984    27948    27909    27880 
   27873    27868    27842    27812    27803    27792    27761    27733 
   27727    27733    27729    27704    27671    27646    27636    27630 
   27608    27589    27591    27600    27606    27620    27650    27667 
   27663    27672    27693    27701    27698    27692    27703    27727 
   27721    27677    27640    27633    27629    27605    27578    27561 
   27536    27501    27475    27432    27355    27282    27234    27191 
   27138    27086    27050    27015    26969    26920    26878    26851 
   26829    26811    26792    26762    26733    26719    26720    26725 
   26715    26694    26676    26660    26662    26666    26656    26647 
   26642    26629    26621    26622    26623    26619    26608    26590 
   26583    26597    26628    26655    26652    26641    26654    26693 
   26749    26794    26814    26835    26863    26876    26873    26877 
   26899    26921    26927    26926    26933    26952    26975    26997 
   27021    27028    27000    26955    26920    26905    26897    26881 
   26852    26842    26848    26820    26778    26774    26782    26765 
   26742    26725    26705    26682    26668    26657    26626    26582 
   26541    26502    26469    26440    26405    26374    26352    26330 
   26308    26291    26278    26276    26283    26287    26283    26272 
   26256    26246    26245    26247    26244    26244    26252    26264 
   26271    26272    26280    26307    26328    26336    26352    26373 
   26389    26403    26412    26421    26442    26459    26459    26464 
   26488    26519    26544    26568    26601    26635    26647    26635 
   26625    26623    26621    26628    26654    26688    26702    26698 
   26704    26717    26716    26705    26697    26704    26718    26718 
   26703    26680    26663    26677    26704    26714    26713    26713 
   26710    26698    26678    26672    26673    26652    26615    26569 
   26525    26506    26502    26489    26463    26449    26447    26434 
   26405    26376    26365    26359    26332    26303    26275    26236 
   26201    26171    26142    26126    26109    26071    26029    26003 
   25986    25967    25956    25951    25938    25918    25887    25851 
   25830    25819    25797    25749    25708    25706    25721    25717 
   25701    25702    25715    25714    25690    25665    25665    25670 
   25650    25628    25631    25636    25621    25592    25571    25586 
   25598    25590    25615    25657    25671    25677    25706    25740 
   25754    25745    25731    25719    25720    25735    25727    25699 
   25686    25679    25680    25698    25727    25743    25739    25748 
   25769    25768    25758    25757    25753    25743    25748    25772 
   25788    25789    25807    25836    25849    25861    25888    25906 
   25910    25917    25930    25950    25977    25995    26014    26028 
   26026    26043    26088    26127    26161    26210    26258    26289 
   26314    26343    26377    26408    26438    26483    26539    26578 
   26594    26608    26643    26671    26683    26729    26789    26807 
   26808    26832    26856    26857    26862    26897    26934    26945 
   26942    26930    26921    26928    26932    26919    26927    26957 
   26961    26940    26939    26974    27009    27018    27036    27071 
   27068    27045    27070    27131    27183    27206    27221    27264 
   27309    27332    27365    27412    27437    27450    27467    27487 
   27524    27558    27568    27590    27612    27605    27602    27620 
   27646    27665    27664    27659    27655    27643    27623    27597 
   27581    27571    27557    27550    27553    27548    27529    27524 
   27531    27520    27494    27464    27426    27386    27344    27307 
   27273    27239    27225    27216    27177    27138    27114    27085 
   27078    27100    27108    27087    27056    27024    26989    26940 
   26884    26844    26808    26761    26730    26724    26712    26680 
   26657    26673    26690    26675    26660    26658    26653    26652 
   26664    26675    26674    26676    26693    26723    26740    26725 
   26709    26711    26709    26699    26705    26728    26743    26758 
   26784    26791    26778    26790    26823    26848    26871    26902 
   26927    26940    26962    27007    27052    27083    27120    27172 
   27209    27228    27255    27270    27265    27276    27311    27334 
   27334    27338    27349    27359    27380    27411    27435    27451 
   27474    27511    27540    27550    27556    27574    27592    27586 
   27586    27612    27614    27584    27576    27603    27619    27610 
   27616    27653    27675    27673    27675    27679    27668    27651 
   27646    27665    27686    27680    27681    27716    27729    27710 
   27716    27754    27785    27804    27840    27882    27906    27931 
   27958    27975    27997    28024    28045    28080    28133    28178 
   28215    28267    28330    28383    28418    28466    28530    28574 
   28604    28652    28720    28776    28816    28870    28937    28984 
   29012    29055    29114    29164    29205    29255    29313    29365 
   29405    29450    29507    29546    29577    29635    29698    29730 
   29748    29772    29799    29811    29819    29836    29840    29826 
   29815    29805    29793    29781    29762    29733    29705    29689 
   29675    29663    29651    29637    29636    29629    29598    29583 
   29597    29590    29566    29562    29551    29509    29484    29478 
   29447    29400    29366    29344    29308    29260    29235    29233 
   29216    29184    29169    29168    29144    29109    29091    29079 
   29071    29066    29056    29055    29066    29060    29041    29043 
   29060    29068    29062    29057    29070    29094    29108    29117 
   29140    29169    29178    29188    29229    29270    29278    29280 
   29308    29341    29347    29348    29363    29371    29370    29368 
   29354    29332    29328    29342    29351    29341    29333    29340 
   29349    29364    29379    29377    29366    29366    29376    29387 
   29397    29397    29370    29357    29382    29387    29351    29335 
   29346    29342    29329    29337    29347    29330    29309    29297 
   29275    29237    29193    29159    29139    29117    29087    29064 
   29042    29003    28956    28918    28887    28855    28824    28802 
   28775    28735    28706    28694    28679    28678    28693    28690 
   28667    28660    28675    28685    28675    28669    28677    28676 
   28664    28664    28679    28678    28662    28669    28686    28682 
   28680    28708    28738    28740    28726    28723    28728    28726 
   28719    28714    28718    28723    28708    28687    28682    28685 
   28685    28689    28704    28705    28672    28633    28620    28611 
   28589    28564    28542    28519    28481    28429    28384    28353 
   28325    28297    28268    28233    28198    28164    28119    28069 
   28020    27970    27916    27860    27801    27731    27655    27589 
   27542    27504    27464    27424    27385    27345    27307    27261 
   27201    27153    27120    27078    27032    26991    26945    26898 
   26870    26854    26833    26815    26797    26774    26755    26741 
   26719    26697    26683    26668    26653    26647    26645    26637 
   26622    26607    26605    26615    26626    26635    26644    26656 
   26670    26678    26679    26675    26675    26680    26689    26707 
   26724    26731    26739    26755    26772    26790    26807    26804 
   26782    26771    26766    26745    26721    26715    26706    26680 
   26657    26645    26636    26621    26595    26560    26520    26476 
   26428    26391    26365    26318    26249    26194    26150    26097 
   26042    26003    25974    25933    25870    25808    25771    25739 
   25691    25649    25623    25592    25551    25528    25520    25510 
   25505    25504    25495    25484    25471    25457    25458    25465 
   25462    25461    25464    25473    25491    25514    25541    25564 
   25576    25590    25611    25634    25660    25701    25751    25778 
   25795    25830    25871    25910    25951    25976    25989    26018 
   26058    26087    26115    26139    26149    26164    26183    26187 
   26184    26196    26210    26207    26201    26201    26200    26201 
   26208    26211    26210    26203    26187    26180    26190    26194 
   26173    26145    26122    26107    26095    26087    26086    26083 
   26066    26045    26034    26030    26027    26024    26024    26024 
   26022    26026    26045    26067    26085    26105    26122    26135 
   26156    26187    26212    26236    26269    26293    26319    26366 
   26431    26484    26513    26548    26600    26646    26693    26753 
   26812    26844    26859    26893    26942    26976    26994    27019 
   27045    27052    27057    27079    27093    27080    27070    27076 
   27076    27067    27048    27019    26988    26950    26905    26870 
   26846    26806    26739    26676    26638    26604    26555    26505 
   26466    26418    26354    26289    26233    26191    26149    26103 
   26062    26028    25996    25964    25935    25913    25893    25876 
   25865    25853    25831    25814    25809    25793    25773    25766 
   25754    25739    25754    25789    25815    25843    25879    25909 
   25933    25956    25980    26014    26057    26098    26136    26170 
   26199    26234    26283    26330    26372    26425    26477    26519 
   26559    26592    26622    26656    26697    26749    26796    26838 
   26887    26927    26944    26963    26993    27018    27036    27065 
   27097    27102    27080    27056    27049    27050    27035    27023 
   27034    27044    27032    27005    26989    26980    26959    26938 
   26926    26902    26867    26838    26823    26806    26775    26753 
   26743    26722    26700    26688    26678    26664    26652    26653 
   26656    26646    26635    26630    26627    26625    26623    26625 
   26626    26623    26628    26637    26653    26677    26688    26675 
   26667    26685    26707    26724    26755    26790    26809    26819 
   26833    26853    26883    26927    26979    27031    27072    27100 
   27134    27185    27231    27260    27295    27345    27394    27429 
   27448    27462    27495    27538    27571    27608    27640    27642 
   27633    27644    27657    27662    27676    27700    27708    27699 
   27688    27674    27656    27638    27630    27617    27587    27556 
   27535    27515    27492    27469    27446    27419    27387    27358 
   27342    27329    27314    27305    27283    27248    27224    27216 
   27211    27205    27195    27180    27166    27165    27165    27147 
   27133    27129    27111    27086    27079    27083    27080    27082 
   27102    27118    27118    27132    27159    27174    27183    27198 
   27215    27231    27242    27242    27240    27246    27264    27296 
   27322    27316    27304    27317    27339    27353    27367    27385 
   27398    27407    27415    27411    27405    27413    27423    27424 
   27415    27389    27363    27353    27341    27318    27309    27316 
   27308    27285    27267    27241    27198    27154    27123    27106 
   27086    27044    26993    26947    26892    26841    26822    26807 
   26764    26713    26672    26639    26604    26556    26500    26450 
   26417    26396    26370    26345    26339    26339    26326    26314 
   26324    26348    26364    26374    26400    26433    26459    26492 
   26544    26600    26642    26669    26700    26743    26787    26827 
   26873    26924    26970    27002    27024    27059    27100    27132 
   27157    27184    27211    27236    27257    27271    27281    27288 
   27296    27312    27323    27318    27311    27310    27311    27307 
   27295    27283    27278    27268    27247    27220    27191    27160 
   27138    27130    27124    27107    27074    27037    27013    27001 
   26989    26980    26983    26991    26987    26976    26969    26969 
   26974    26979    26981    26989    26997    26994    26992    27002 
   27017    27030    27041    27071    27117    27145    27158    27190 
   27247    27294    27326    27367    27414    27450    27492    27548 
   27597    27638    27687    27738    27776    27815    27866    27916 
   27955    27994    28035    28067    28092    28118    28146    28182 
   28228    28259    28277    28306    28344    28372    28388    28398 
   28392    28372    28361    28363    28358    28342    28338    28338 
   28324    28306    28295    28280    28255    28226    28194    28169 
   28156    28150    28136    28108    28077    28049    28009    27965 
   27942    27926    27886    27842    27809    27762    27697    27631 
   27572    27519    27470    27426    27389    27349    27303    27251 
   27202    27160    27117    27072    27033    26986    26921    26857 
   26808    26768    26723    26667    26610    26566    26525    26474 
   26412    26357    26326    26314    26304    26286    26258    26236 
   26227    26211    26179    26156    26158    26160    26152    26155 
   26171    26177    26164    26146    26137    26141    26166    26207 
   26233    26243    26257    26271    26273    26274    26291    26331 
   26374    26395    26403    26410    26402    26375    26361    26373 
   26385    26370    26328    26296    26289    26272    26230    26181 
   26150    26140    26114    26068    26034    26016    25996    25959 
   25922    25885    25829    25776    25749    25741    25727    25696 
   25663    25628    25577    25529    25514    25514    25495    25472 
   25461    25443    25408    25377    25362    25347    25333    25341 
   25359    25354    25321    25274    25254    25284    25324    25338 
   25348    25364    25368    25374    25410    25453    25461    25451 
   25470    25512    25544    25566    25598    25641    25677    25702 
