Origin Time       2011/03/11 14:46:00
Lat.              38.103
Long.             142.860
Depth. (km)       24
Mag.              9.0
Station Code      NAR002
Station Lat.      34.6682
Station Long.     135.8353
Station Height(m) 93
Record Time       2011/03/11 14:49:23
Sampling Freq(Hz) 100Hz
Duration Time(s)  229
Dir.              U-D
Scale Factor      3920(gal)/6182761
Max. Acc. (gal)   6.043
Last Correction   2011/03/11 14:49:08
Memo.             
[...]
  -22998   -23209   -23417   -23615   -23805   -23971   -24121   -24261 
  -24373   -24473   -24578   -24676   -24768   -24858   -24932   -24999 
  -25055   -25097   -25139   -25173   -25181   -25173   -25164   -25161 
  -25160   -25158   -25159   -25163   -25174   -25188   -25191   -25198 
  -25219   -25248   -25300   -25362   -25433   -25544   -25683   -25830 
  -26001   -26179   -26337   -26493   -26658   -26797   -26894   -26985 
  -27078   -27148   -27201   -27238   -27244   -27223   -27174   -27099 
  -27018   -26903   -26735   -26562   -26389   -26181   -25957   -25742 
  -25539   -25344   -25149   -24968   -24816   -24677   -24553   -24455 
  -24366   -24278   -24209   -24144   -24068   -24002   -23937   -23848 
  -23762   -23702   -23648   -23595   -23545   -23481   -23413   -23348 
  -23257   -23143   -23011   -22852   -22696   -22543   -22363   -22180 
  -22001   -21810   -21627   -21445   -21249   -21057   -20871   -20683 
  -20499   -20321   -20157   -20015   -19889   -19783   -19702   -19632 
  -19572   -19530   -19512   -19519   -19528   -19537   -19580   -19648 
  -19708   -19775   -19874   -19993   -20125   -20294   -20484   -20671 
  -20877   -21091   -21288   -21499   -21708   -21891   -22088   -22280 
  -22431   -22568   -22717   -22873   -23023   -23161   -23309   -23478 
  -23634   -23773   -23933   -24098   -24237   -24382   -24528   -24632 
  -24733   -24856   -24946   -25000   -25058   -25118   -25161   -25180 
  -25181   -25174   -25134   -25070   -25040   -25025   -24969   -24900 
  -24843   -24776   -24708   -24667   -24658   -24666   -24676   -24694 
  -24724   -24748   -24753   -24732   -24691   -24635   -24547   -24443 
  -24342   -24226   -24097   -23987   -23888   -23782   -23692   -23620 
  -23551   -23504   -23505   -23524   -23527   -23546   -23605   -23652 
  -23676   -23721   -23755   -23753   -23756   -23755   -23725   -23692 
  -23659   -23616   -23582   -23551   -23504   -23440   -23375   -23313 
  -23237   -23157   -23086   -22996   -22898   -22803   -22701   -22609 
  -22519   -22415   -22314   -22205   -22089   -21993   -21900   -21795 
  -21696   -21612   -21531   -21455   -21396   -21350   -21292   -21229 
  -21201   -21196   -21175   -21156   -21173   -21177   -21147   -21149 
  -21172   -21162   -21147   -21142   -21127   -21111   -21102   -21093 
  -21082   -21065   -21053   -21052   -21037   -21020   -21028   -21036 
  -21026   -21039   -21083   -21130   -21184   -21250   -21313   -21372 
  -21427   -21462   -21489   -21496   -21465   -21429   -21397   -21357 
  -21324   -21303   -21295   -21307   -21333   -21382   -21460   -21554 
  -21655   -21759   -21865   -21994   -22127   -22225   -22311   -22416 
  -22517   -22611   -22710   -22818   -22952   -23098   -23229   -23367 
  -23531   -23704   -23875   -24060   -24282   -24510   -24714   -24927 
  -25186   -25463   -25728   -25996   -26282   -26566   -26832   -27083 
  -27327   -27559   -27757   -27905   -28021   -28128   -28205   -28231 
  -28221   -28191   -28140   -28065   -27973   -27868   -27736   -27563 
  -27359   -27133   -26891   -26629   -26349   -26064   -25787   -25525 
  -25278   -25049   -24853   -24687   -24535   -24417   -24335   -24258 
  -24192   -24154   -24119   -24073   -24033   -24011   -23994   -23952 
  -23892   -23842   -23789   -23713   -23641   -23587   -23539   -23493 
  -23450   -23412   -23372   -23326   -23288   -23249   -23194   -23155 
  -23131   -23089   -23043   -23012   -22974   -22926   -22886   -22859 
  -22843   -22831   -22801   -22775   -22770   -22746   -22709   -22671 
  -22602   -22496   -22376   -22247   -22101   -21931   -21747   -21562 
  -21361   -21132   -20900   -20689   -20479   -20257   -20058   -19892 
  -19739   -19602   -19483   -19382   -19308   -19263   -19237   -19221 
  -19226   -19259   -19300   -19351   -19431   -19517   -19609   -19745 
  -19901   -20049   -20240   -20484   -20728   -20975   -21260   -21555 
  -21825   -22105   -22408   -22703   -22979   -23239   -23488   -23729 
  -23947   -24172   -24411   -24613   -24782   -24954   -25118   -25273 
  -25425   -25554   -25681   -25824   -25961   -26080   -26197   -26320 
  -26445   -26561   -26666   -26751   -26812   -26863   -26906   -26914 
  -26872   -26799   -26714   -26623   -26507   -26362   -26214   -26059 
  -25876   -25690   -25498   -25284   -25053   -24787   -24508   -24242 
  -23958   -23668   -23392   -23102   -22817   -22562   -22323   -22097 
  -21887   -21690   -21536   -21444   -21388   -21363   -21382   -21434 
  -21501   -21577   -21676   -21772   -21862   -21988   -22112   -22190 
  -22278   -22381   -22458   -22528   -22607   -22663   -22707   -22771 
  -22841   -22905   -22994   -23123   -23279   -23455   -23653   -23889 
  -24163   -24462   -24759   -25056   -25361   -25653   -25947   -26248 
  -26504   -26716   -26914   -27084   -27226   -27340   -27424   -27498 
  -27547   -27558   -27560   -27571   -27575   -27560   -27542   -27536 
  -27540   -27548   -27556   -27548   -27518   -27484   -27449   -27403 
  -27344   -27271   -27175   -27046   -26887   -26713   -26516   -26288 
  -26035   -25747   -25423   -25095   -24765   -24419   -24065   -23712 
  -23368   -23035   -22697   -22351   -21994   -21617   -21245   -20893 
  -20539   -20193   -19868   -19542   -19217   -18899   -18578   -18261 
  -17964   -17698   -17448   -17182   -16919   -16698   -16518   -16370 
  -16246   -16137   -16054   -16002   -15971   -15960   -15972   -16012 
  -16068   -16103   -16135   -16184   -16227   -16277   -16343   -16401 
  -16466   -16551   -16646   -16759   -16872   -16976   -17091   -17221 
  -17348   -17462   -17559   -17648   -17735   -17811   -17878   -17965 
  -18064   -18144   -18211   -18280   -18365   -18481   -18608   -18726 
  -18861   -19026   -19212   -19414   -19614   -19797   -19984   -20184 
  -20373   -20554   -20753   -20967   -21180   -21381   -21555   -21721 
  -21893   -22044   -22158   -22249   -22328   -22398   -22460   -22513 
  -22558   -22603   -22663   -22740   -22833   -22928   -23017   -23102 
  -23192   -23294   -23429   -23587   -23734   -23871   -24014   -24167 
  -24357   -24595   -24840   -25062   -25277   -25491   -25689   -25877 
  -26074   -26262   -26409   -26531   -26652   -26747   -26804   -26850 
  -26877   -26881   -26882   -26873   -26843   -26810   -26811   -26841 
  -26865   -26876   -26876   -26872   -26880   -26892   -26906   -26943 
  -26988   -27020   -27036   -27046   -27078   -27122   -27140   -27130 
  -27113   -27086   -27032   -26933   -26806   -26662   -26502   -26326 
  -26116   -25894   -25694   -25484   -25260   -25068   -24883   -24681 
  -24510   -24378   -24235   -24088   -23968   -23863   -23757   -23655 
  -23556   -23452   -23357   -23273   -23189   -23117   -23070   -23037 
  -23001   -22967   -22945   -22932   -22925   -22948   -23008   -23083 
  -23167   -23271   -23371   -23433   -23481   -23562   -23643   -23694 
  -23733   -23761   -23787   -23801   -23760   -23702   -23665   -23597 
  -23489   -23391   -23296   -23164   -23001   -22834   -22673   -22511 
  -22344   -22179   -22017   -21841   -21642   -21446   -21282   -21140 
  -21004   -20872   -20738   -20601   -20488   -20405   -20319   -20222 
  -20141   -20073   -20002   -19943   -19901   -19851   -19802   -19769 
  -19733   -19686   -19655   -19639   -19589   -19494   -19418   -19367 
  -19290   -19213   -19178   -19162   -19149   -19155   -19206   -19306 
  -19424   -19551   -19705   -19874   -20067   -20301   -20543   -20792 
  -21074   -21359   -21621   -21886   -22156   -22394   -22604   -22809 
  -22981   -23101   -23209   -23328   -23440   -23524   -23593   -23661 
  -23718   -23771   -23850   -23946   -24031   -24102   -24160   -24212 
  -24291   -24390   -24465   -24519   -24594   -24678   -24754   -24833 
  -24894   -24940   -24989   -25022   -25052   -25116   -25178   -25215 
  -25268   -25342   -25413   -25498   -25613   -25735   -25849   -25965 
  -26090   -26226   -26354   -26459   -26547   -26612   -26656   -26681 
  -26680   -26650   -26583   -26455   -26277   -26089   -25890   -25630 
  -25336   -25073   -24796   -24464   -24134   -23830   -23535   -23245 
  -22955   -22662   -22359   -22074   -21838   -21620   -21402   -21222 
  -21080   -20952   -20865   -20806   -20735   -20678   -20649   -20609 
  -20570   -20564   -20561   -20535   -20496   -20457   -20407   -20352 
  -20315   -20292   -20234   -20129   -20030   -19962   -19909   -19882 
  -19883   -19896   -19922   -19976   -20066   -20164   -20258   -20364 
  -20472   -20587   -20718   -20832   -20943   -21090   -21253   -21406 
  -21552   -21707   -21871   -22010   -22153   -22354   -22555   -22698 
  -22842   -23027   -23204   -23377   -23609   -23894   -24162   -24410 
  -24667   -24940   -25224   -25511   -25797   -26084   -26354   -26587 
  -26782   -26961   -27141   -27304   -27427   -27534   -27639   -27715 
  -27766   -27837   -27921   -27978   -28015   -28058   -28109   -28175 
  -28239   -28274   -28287   -28306   -28336   -28343   -28303   -28242 
  -28188   -28139   -28069   -27941   -27770   -27608   -27439   -27224 
  -26982   -26738   -26475   -26160   -25800   -25424   -25048   -24684 
  -24302   -23860   -23372   -22877   -22404   -21942   -21468   -21005 
  -20555   -20078   -19593   -19201   -18923   -18651   -18328   -18016 
  -17767   -17585   -17464   -17384   -17303   -17201   -17128   -17108 
  -17091   -17098   -17199   -17334   -17412   -17474   -17584   -17732 
  -17921   -18154   -18386   -18609   -18867   -19143   -19390   -19642 
  -19940   -20232   -20478   -20724   -20989   -21228   -21444   -21682 
  -21930   -22152   -22363   -22576   -22781   -22987   -23207   -23413 
  -23582   -23733   -23896   -24073   -24237   -24373   -24500   -24640 
  -24773   -24885   -24995   -25093   -25157   -25192   -25222   -25253 
  -25259   -25224   -25148   -25034   -24909   -24814   -24722   -24553 
  -24327   -24144   -23981   -23775   -23585   -23410   -23174   -22932 
  -22763   -22603   -22375   -22124   -21929   -21757   -21523   -21282 
  -21121   -20967   -20775   -20616   -20499   -20399   -20316   -20212 
  -20090   -20027   -20054   -20088   -20068   -20067   -20140   -20236 
  -20334   -20439   -20537   -20672   -20864   -21039   -21175   -21341 
  -21560   -21779   -21955   -22126   -22334   -22537   -22724   -22948 
  -23185   -23380   -23565   -23766   -23973   -24213   -24487   -24733 
  -24935   -25154   -25410   -25655   -25866   -26071   -26302   -26543 
  -26738   -26859   -26945   -27060   -27216   -27354   -27428   -27464 
  -27504   -27559   -27633   -27713   -27748   -27730   -27710   -27695 
  -27648   -27557   -27449   -27329   -27167   -26964   -26756   -26545 
  -26292   -26010   -25751   -25526   -25317   -25098   -24837   -24574 
  -24371   -24212   -24058   -23892   -23698   -23489   -23293   -23127 
  -22980   -22812   -22618   -22413   -22202   -22011   -21842   -21670 
  -21495   -21322   -21157   -21012   -20890   -20764   -20624   -20509 
  -20422   -20335   -20272   -20233   -20166   -20075   -20012   -19978 
  -19946   -19901   -19816   -19705   -19631   -19618   -19612   -19579 
  -19552   -19577   -19648   -19731   -19801   -19851   -19909   -20004 
  -20097   -20162   -20212   -20242   -20274   -20326   -20364   -20382 
  -20389   -20380   -20360   -20332   -20295   -20279   -20281   -20229 
  -20089   -19931   -19828   -19785   -19741   -19603   -19362   -19137 
  -18992   -18882   -18772   -18632   -18443   -18270   -18164   -18086 
  -18014   -17940   -17855   -17804   -17799   -17797   -17813   -17851 
  -17893   -17965   -18063   -18151   -18265   -18422   -18572   -18728 
  -18932   -19151   -19361   -19578   -19797   -20016   -20234   -20438 
  -20626   -20780   -20909   -21076   -21252   -21369   -21476   -21629 
  -21797   -21958   -22124   -22309   -22504   -22708   -22940   -23201 
  -23459   -23705   -23942   -24190   -24488   -24800   -25071   -25322 
  -25579   -25820   -26029   -26257   -26521   -26736   -26906   -27103 
  -27285   -27428   -27573   -27688   -27768   -27860   -27948   -27986 
  -27994   -28014   -28016   -27972   -27922   -27896   -27857   -27767 
  -27677   -27634   -27562   -27441   -27356   -27285   -27184   -27096 
  -27049   -26998   -26895   -26774   -26656   -26512   -26365   -26244 
  -26100   -25895   -25666   -25456   -25252   -25037   -24829   -24641 
  -24485   -24350   -24216   -24097   -23994   -23906   -23852   -23827 
  -23824   -23846   -23887   -23920   -23925   -23949   -24025   -24087 
  -24090   -24087   -24108   -24105   -24034   -23922   -23817   -23712 
  -23557   -23355   -23153   -22948   -22721   -22486   -22241   -22013 
  -21827   -21624   -21377   -21153   -21019   -20946   -20839   -20700 
  -20613   -20579   -20567   -20566   -20575   -20621   -20699   -20779 
  -20859   -20933   -21020   -21136   -21230   -21295   -21378   -21471 
  -21548   -21609   -21640   -21628   -21615   -21621   -21558   -21397 
  -21265   -21163   -20972   -20708   -20449   -20199   -19957   -19734 
  -19515   -19277   -18999   -18686   -18381   -18133   -17924   -17687 
  -17419   -17139   -16870   -16690   -16602   -16480   -16307   -16179 
  -16116   -16081   -16056   -16053   -16111   -16231   -16360   -16491 
  -16659   -16863   -17122   -17467   -17844   -18187   -18533   -18954 
  -19427   -19889   -20364   -20892   -21440   -21968   -22494   -23051 
  -23629   -24204   -24757   -25273   -25788   -26333   -26871   -27368 
  -27840   -28310   -28774   -29216   -29661   -30128   -30548   -30882 
  -31197   -31512   -31772   -31978   -32134   -32224   -32282   -32307 
  -32272   -32221   -32163   -32056   -31887   -31677   -31469   -31285 
  -31081   -30828   -30535   -30203   -29879   -29599   -29257   -28804 
  -28358   -27954   -27518   -27036   -26520   -25980   -25441   -24900 
  -24363   -23829   -23305   -22817   -22328   -21811   -21344   -20938 
  -20515   -20092   -19717   -19353   -18970   -18598   -18275   -17982 
  -17695   -17434   -17215   -17023   -16839   -16687   -16629   -16622 
  -16578   -16530   -16538   -16594   -16676   -16770   -16897   -17068 
  -17218   -17310   -17439   -17662   -17878   -18036   -18220   -18448 
  -18656   -18837   -19044   -19313   -19612   -19882   -20129   -20393 
  -20675   -20980   -21297   -21584   -21826   -22029   -22209   -22383 
  -22560   -22727   -22822   -22854   -22916   -23006   -23040   -23022 
  -22993   -22932   -22848   -22805   -22791   -22719   -22601   -22523 
  -22467   -22357   -22236   -22166   -22093   -21970   -21839   -21732 
  -21636   -21537   -21433   -21342   -21269   -21195   -21123   -21076 
  -21044   -21001   -20939   -20854   -20755   -20654   -20510   -20315 
  -20103   -19886   -19687   -19504   -19288   -19061   -18881   -18736 
  -18602   -18491   -18417   -18380   -18364   -18344   -18324   -18330 
  -18376   -18454   -18562   -18689   -18814   -18955   -19112   -19258 
  -19400   -19560   -19725   -19880   -20035   -20216   -20403   -20575 
  -20753   -20942   -21136   -21357   -21587   -21795   -22005   -22254 
  -22519   -22759   -22995   -23242   -23456   -23637   -23821   -24009 
  -24171   -24327   -24485   -24594   -24679   -24803   -24920   -24992 
  -25069   -25162   -25213   -25247   -25323   -25400   -25467   -25552 
  -25636   -25705   -25761   -25813   -25875   -25946   -26007   -26058 
  -26099   -26121   -26131   -26150   -26157   -26121   -26080   -26042 
  -25939   -25782   -25616   -25421   -25207   -25015   -24798   -24515 
  -24214   -23928   -23649   -23370   -23074   -22770   -22487   -22218 
  -21944   -21688   -21486   -21301   -21089   -20879   -20735   -20656 
  -20579   -20490   -20399   -20323   -20276   -20224   -20167   -20129 
  -20098   -20061   -20007   -19928   -19826   -19721   -19621   -19506 
  -19357   -19187   -19014   -18832   -18629   -18429   -18282   -18147 
  -17957   -17777   -17665   -17565   -17471   -17431   -17427   -17431 
  -17439   -17432   -17430   -17446   -17447   -17448   -17471   -17510 
  -17568   -17609   -17618   -17652   -17735   -17827   -17927   -18042 
  -18155   -18271   -18412   -18580   -18761   -18951   -19155   -19393 
  -19666   -19949   -20219   -20490   -20779   -21096   -21418   -21708 
  -21977   -22235   -22460   -22660   -22867   -23067   -23214   -23321 
  -23446   -23597   -23738   -23877   -24044   -24196   -24269   -24317 
  -24403   -24469   -24475   -24467   -24466   -24460   -24466   -24509 
  -24575   -24654   -24757   -24854   -24920   -25000   -25126   -25278 
  -25442   -25600   -25741   -25901   -26096   -26288   -26445   -26567 
  -26677   -26788   -26892   -26979   -27051   -27110   -27135   -27105 
  -27061   -27035   -26989   -26894   -26756   -26592   -26415   -26228 
  -26022   -25816   -25633   -25432   -25193   -24954   -24713   -24468 
  -24253   -24038   -23783   -23521   -23288   -23071   -22845   -22620 
  -22430   -22264   -22096   -21947   -21828   -21716   -21626   -21568 
  -21493   -21395   -21320   -21238   -21129   -21044   -20978   -20894 
  -20824   -20803   -20816   -20824   -20824   -20858   -20931   -21003 
  -21058   -21099   -21135   -21187   -21261   -21323   -21362   -21409 
  -21479   -21562   -21676   -21824   -21955   -22051   -22155   -22273 
  -22370   -22454   -22546   -22639   -22734   -22840   -22938   -23016 
  -23097   -23195   -23300   -23400   -23498   -23604   -23712   -23828 
  -23961   -24082   -24178   -24270   -24379   -24500   -24599   -24689 
  -24779   -24848   -24959   -25132   -25274   -25345   -25375   -25411 
  -25470   -25486   -25447   -25396   -25303   -25187   -25113   -25056 
  -24982   -24913   -24838   -24731   -24604   -24474   -24351   -24214 
  -24045   -23858   -23651   -23420   -23186   -22963   -22756   -22527 
  -22233   -21941   -21718   -21540   -21401   -21287   -21175   -21099 
  -21042   -20982   -20977   -21011   -21026   -21028   -21041   -21094 
  -21176   -21260   -21369   -21500   -21632   -21764   -21891   -22027 
  -22177   -22313   -22449   -22617   -22801   -22991   -23174   -23331 
  -23486   -23678   -23879   -24040   -24186   -24375   -24600   -24806 
  -24993   -25197   -25387   -25541   -25697   -25858   -26006   -26156 
  -26328   -26529   -26741   -26904   -26997   -27091   -27232   -27349 
  -27419   -27506   -27577   -27571   -27556   -27581   -27574   -27489 
  -27389   -27305   -27189   -27027   -26900   -26827   -26740   -26654 
  -26591   -26490   -26374   -26293   -26173   -25995   -25864   -25792 
  -25657   -25470   -25321   -25148   -24910   -24728   -24584   -24340 
  -24054   -23834   -23628   -23381   -23116   -22844   -22560   -22275 
  -22032   -21816   -21573   -21358   -21219   -21103   -21019   -20997 
  -20956   -20834   -20739   -20757   -20783   -20756   -20761   -20821 
  -20875   -20925   -20996   -21081   -21155   -21222   -21318   -21439 
  -21554   -21646   -21739   -21856   -21981   -22092   -22218   -22394 
  -22591   -22752   -22876   -22993   -23134   -23282   -23369   -23391 
  -23412   -23449   -23481   -23511   -23524   -23512   -23513   -23565 
  -23668   -23810   -23948   -24036   -24078   -24105   -24156   -24232 
  -24266   -24257   -24250   -24209   -24097   -23959   -23848   -23752 
  -23630   -23493   -23388   -23293   -23176   -23062   -22962   -22858 
  -22752   -22670   -22607   -22529   -22441   -22389   -22344   -22271 
  -22221   -22207   -22186   -22187   -22227   -22232   -22173   -22101 
