Origin Time       2011/03/11 14:46:00
Lat.              38.103
Long.             142.860
Depth. (km)       24
Mag.              9.0
Station Code      NAR003
Station Lat.      34.5171
Station Long.     135.7171
Station Height(m) 67
Record Time       2011/03/11 14:49:49
Sampling Freq(Hz) 100Hz
Duration Time(s)  150
Dir.              U-D
Scale Factor      3920(gal)/6182761
Max. Acc. (gal)   2.455
Last Correction   2011/03/11 14:49:34
Memo.             
[...]
  -22274   -22249   -22236   -22222   -22191   -22170   -22175   -22185 
  -22187   -22195   -22215   -22232   -22244   -22269   -22314   -22356 
  -22381   -22409   -22452   -22495   -22531   -22569   -22606   -22635 
  -22656   -22674   -22703   -22735   -22753   -22764   -22773   -22773 
  -22777   -22789   -22789   -22788   -22805   -22827   -22840   -22854 
  -22872   -22879   -22858   -22826   -22807   -22799   -22781   -22744 
  -22704   -22677   -22664   -22658   -22650   -22638   -22614   -22579 
  -22558   -22561   -22565   -22547   -22519   -22502   -22505   -22510 
  -22510   -22510   -22502   -22488   -22485   -22489   -22494   -22496 
  -22496   -22499   -22505   -22507   -22499   -22490   -22487   -22474 
  -22453   -22450   -22452   -22429   -22384   -22345   -22326   -22320 
  -22310   -22301   -22297   -22286   -22269   -22276   -22310   -22349 
  -22378   -22411   -22458   -22505   -22527   -22529   -22529   -22521 
  -22507   -22513   -22538   -22553   -22551   -22549   -22548   -22543 
  -22535   -22524   -22510   -22509   -22526   -22538   -22538   -22536 
  -22537   -22538   -22535   -22539   -22551   -22546   -22541   -22554 
  -22567   -22579   -22592   -22592   -22583   -22578   -22588   -22609 
  -22614   -22611   -22624   -22636   -22626   -22611   -22616   -22612 
  -22565   -22519   -22518   -22527   -22495   -22443   -22408   -22398 
  -22404   -22413   -22433   -22466   -22485   -22490   -22510   -22538 
  -22569   -22608   -22646   -22679   -22713   -22736   -22746   -22752 
  -22748   -22742   -22741   -22739   -22721   -22688   -22644   -22595 
  -22554   -22528   -22495   -22453   -22415   -22370   -22324   -22295 
  -22273   -22237   -22192   -22150   -22117   -22091   -22054   -22008 
  -21979   -21969   -21958   -21952   -21951   -21942   -21928   -21930 
  -21946   -21963   -21987   -22017   -22041   -22048   -22042   -22050 
  -22063   -22069   -22098   -22142   -22166   -22177   -22194   -22218 
  -22231   -22229   -22230   -22249   -22285   -22324   -22360   -22402 
  -22440   -22457   -22467   -22483   -22491   -22484   -22469   -22444 
  -22400   -22340   -22275   -22202   -22121   -22038   -21970   -21912 
  -21839   -21770   -21731   -21700   -21661   -21627   -21604   -21596 
  -21609   -21633   -21656   -21677   -21705   -21736   -21771   -21819 
  -21876   -21930   -21975   -22020   -22067   -22111   -22158   -22224 
  -22291   -22339   -22376   -22413   -22447   -22479   -22516   -22548 
  -22564   -22567   -22560   -22560   -22577   -22591   -22584   -22568 
  -22562   -22562   -22567   -22572   -22556   -22523   -22497   -22488 
  -22478   -22443   -22391   -22344   -22305   -22267   -22241   -22229 
  -22213   -22187   -22167   -22144   -22103   -22054   -22012   -21981 
  -21962   -21952   -21945   -21949   -21963   -21979   -22007   -22049 
  -22096   -22151   -22207   -22258   -22328   -22418   -22500   -22568 
  -22630   -22697   -22775   -22850   -22919   -22978   -23020   -23060 
  -23101   -23124   -23125   -23122   -23116   -23103   -23093   -23086 
  -23066   -23028   -22980   -22923   -22873   -22839   -22800   -22750 
  -22703   -22660   -22609   -22568   -22540   -22499   -22442   -22380 
  -22318   -22266   -22227   -22178   -22118   -22065   -22023   -21991 
  -21964   -21937   -21913   -21902   -21895   -21887   -21885   -21889 
  -21894   -21909   -21939   -21972   -22008   -22061   -22116   -22162 
  -22214   -22283   -22361   -22436   -22501   -22562   -22637   -22723 
  -22789   -22824   -22841   -22846   -22855   -22878   -22891   -22877 
  -22846   -22814   -22794   -22787   -22776   -22751   -22714   -22673 
  -22633   -22600   -22565   -22521   -22475   -22432   -22390   -22356 
  -22320   -22259   -22171   -22082   -22000   -21919   -21845   -21773 
  -21702   -21626   -21538   -21450   -21373   -21296   -21226   -21188 
  -21178   -21174   -21168   -21164   -21174   -21202   -21240   -21274 
  -21302   -21333   -21355   -21360   -21371   -21398   -21434   -21465 
  -21474   -21465   -21455   -21447   -21438   -21415   -21373   -21342 
  -21327   -21297   -21255   -21211   -21148   -21068   -20984   -20904 
  -20828   -20747   -20658   -20577   -20523   -20485   -20435   -20376 
  -20326   -20291   -20268   -20249   -20240   -20255   -20284   -20315 
  -20354   -20406   -20442   -20450   -20464   -20508   -20559   -20602 
  -20640   -20677   -20713   -20759   -20824   -20896   -20951   -20989 
  -21022   -21057   -21102   -21150   -21195   -21244   -21298   -21344 
  -21374   -21395   -21414   -21436   -21458   -21479   -21500   -21525 
  -21551   -21578   -21610   -21640   -21648   -21643   -21659   -21688 
  -21719   -21758   -21795   -21826   -21854   -21882   -21917   -21958 
  -22003   -22054   -22105   -22152   -22191   -22220   -22247   -22275 
  -22308   -22335   -22348   -22342   -22322   -22303   -22293   -22272 
  -22234   -22190   -22146   -22107   -22075   -22034   -21978   -21911 
  -21845   -21797   -21770   -21751   -21721   -21663   -21597   -21547 
  -21512   -21475   -21422   -21355   -21286   -21238   -21218   -21192 
  -21145   -21092   -21043   -21001   -20978   -20972   -20962   -20949 
  -20953   -20973   -20986   -20988   -20985   -20974   -20955   -20950 
  -20970   -20989   -20978   -20957   -20952   -20960   -20968   -20965 
  -20963   -20991   -21030   -21050   -21082   -21146   -21203   -21245 
  -21321   -21442   -21561   -21650   -21719   -21790   -21861   -21914 
  -21951   -21986   -22031   -22090   -22137   -22147   -22137   -22133 
  -22131   -22105   -22061   -22029   -22014   -22008   -22016   -22027 
  -22034   -22029   -22002   -21965   -21935   -21910   -21873   -21812 
  -21750   -21704   -21650   -21572   -21471   -21369   -21284   -21214 
  -21157   -21117   -21084   -21051   -21014   -20963   -20906   -20868 
  -20847   -20837   -20834   -20839   -20864   -20887   -20887   -20879 
  -20869   -20860   -20867   -20889   -20905   -20912   -20935   -20977 
  -21012   -21029   -21029   -21014   -20991   -20970   -20966   -20978 
  -20985   -20990   -21001   -21004   -20992   -20981   -20975   -20986 
  -21026   -21088   -21159   -21220   -21250   -21262   -21282   -21322 
  -21373   -21423   -21473   -21509   -21533   -21575   -21637   -21686 
  -21717   -21734   -21743   -21745   -21750   -21768   -21794   -21819 
  -21829   -21816   -21797   -21787   -21782   -21785   -21804   -21833 
  -21850   -21839   -21823   -21813   -21807   -21822   -21847   -21851 
  -21841   -21828   -21816   -21819   -21835   -21847   -21845   -21835 
  -21825   -21814   -21785   -21741   -21701   -21673   -21657   -21651 
  -21651   -21649   -21631   -21606   -21592   -21581   -21563   -21552 
  -21543   -21544   -21573   -21624   -21684   -21738   -21762   -21756 
  -21745   -21747   -21756   -21753   -21750   -21755   -21748   -21735 
  -21723   -21709   -21696   -21677   -21648   -21610   -21578   -21576 
  -21593   -21585   -21552   -21531   -21532   -21542   -21545   -21535 
  -21510   -21472   -21438   -21413   -21403   -21413   -21428   -21431 
  -21426   -21425   -21422   -21398   -21379   -21390   -21417   -21448 
  -21475   -21490   -21511   -21555   -21603   -21648   -21714   -21796 
  -21859   -21897   -21940   -22005   -22082   -22145   -22186   -22230 
  -22289   -22336   -22376   -22431   -22486   -22524   -22558   -22587 
  -22597   -22600   -22626   -22677   -22717   -22735   -22762   -22800 
  -22829   -22841   -22836   -22834   -22842   -22854   -22878   -22915 
  -22953   -22993   -23035   -23071   -23104   -23141   -23180   -23228 
  -23280   -23320   -23346   -23371   -23397   -23416   -23444   -23490 
  -23522   -23520   -23505   -23486   -23468   -23457   -23450   -23445 
  -23441   -23438   -23434   -23426   -23418   -23404   -23385   -23376 
  -23384   -23393   -23397   -23399   -23397   -23385   -23363   -23345 
  -23337   -23330   -23321   -23309   -23289   -23253   -23190   -23120 
  -23063   -23003   -22937   -22873   -22804   -22729   -22663   -22617 
  -22586   -22551   -22513   -22501   -22530   -22578   -22627   -22671 
  -22702   -22725   -22759   -22795   -22811   -22820   -22846   -22876 
  -22902   -22924   -22920   -22904   -22894   -22873   -22851   -22837 
  -22823   -22796   -22748   -22693   -22655   -22633   -22606   -22574 
  -22530   -22465   -22415   -22401   -22385   -22374   -22388   -22404 
  -22421   -22464   -22512   -22538   -22565   -22621   -22693   -22767 
  -22845   -22916   -22984   -23060   -23155   -23274   -23397   -23513 
  -23618   -23704   -23778   -23863   -23975   -24086   -24185   -24283 
  -24350   -24378   -24399   -24417   -24427   -24430   -24424   -24417 
  -24410   -24388   -24340   -24275   -24194   -24108   -24041   -23994 
  -23957   -23926   -23897   -23876   -23857   -23821   -23778   -23737 
  -23709   -23701   -23698   -23696   -23699   -23708   -23725   -23735 
  -23733   -23723   -23700   -23658   -23612   -23594   -23602   -23603 
  -23604   -23606   -23596   -23602   -23624   -23627   -23615   -23602 
  -23583   -23571   -23572   -23561   -23538   -23528   -23519   -23503 
  -23500   -23481   -23425   -23369   -23335   -23322   -23324   -23324 
  -23321   -23318   -23322   -23327   -23333   -23356   -23380   -23378 
  -23366   -23364   -23366   -23358   -23359   -23375   -23378   -23364 
  -23348   -23321   -23295   -23307   -23344   -23356   -23337   -23313 
  -23292   -23285   -23303   -23325   -23344   -23379   -23408   -23419 
  -23434   -23447   -23457   -23461   -23450   -23457   -23509   -23575 
  -23619   -23645   -23672   -23696   -23720   -23755   -23779   -23775 
  -23776   -23809   -23852   -23893   -23943   -23996   -24035   -24047 
  -24039   -24028   -24003   -23970   -23956   -23931   -23879   -23843 
  -23814   -23747   -23672   -23621   -23573   -23515   -23450   -23375 
  -23302   -23223   -23144   -23086   -23026   -22960   -22914   -22874 
  -22834   -22805   -22777   -22739   -22700   -22671   -22656   -22644 
  -22636   -22640   -22648   -22665   -22690   -22714   -22740   -22753 
  -22748   -22738   -22729   -22736   -22756   -22773   -22795   -22813 
  -22828   -22858   -22881   -22880   -22862   -22846   -22853   -22881 
  -22922   -22976   -23010   -23017   -23035   -23068   -23092   -23116 
  -23135   -23134   -23126   -23131   -23141   -23150   -23162   -23167 
  -23175   -23184   -23172   -23151   -23120   -23072   -23034   -23013 
  -22999   -22983   -22966   -22941   -22904   -22868   -22829   -22779 
  -22746   -22729   -22697   -22659   -22628   -22588   -22540   -22479 
  -22427   -22405   -22370   -22309   -22263   -22227   -22192   -22160 
  -22121   -22084   -22061   -22027   -21988   -21967   -21955   -21920 
  -21863   -21815   -21793   -21791   -21802   -21807   -21804   -21818 
  -21844   -21861   -21871   -21885   -21915   -21953   -21987   -22022 
  -22070   -22124   -22161   -22194   -22235   -22263   -22282   -22304 
  -22324   -22331   -22332   -22312   -22265   -22225   -22208   -22181 
  -22134   -22100   -22073   -22044   -22023   -22000   -21967   -21932 
  -21898   -21868   -21856   -21864   -21873   -21877   -21879   -21881 
  -21894   -21914   -21930   -21940   -21943   -21955   -21986   -22025 
  -22071   -22126   -22187   -22242   -22285   -22316   -22355   -22418 
  -22472   -22515   -22596   -22668   -22703   -22763   -22835   -22905 
  -22988   -23030   -23044   -23077   -23103   -23135   -23183   -23200 
  -23195   -23199   -23205   -23207   -23200   -23179   -23151   -23139 
  -23141   -23129   -23106   -23079   -23028   -22966   -22932   -22913 
  -22877   -22845   -22817   -22782   -22761   -22752   -22725   -22686 
  -22669   -22669   -22671   -22668   -22656   -22642   -22639   -22643 
  -22662   -22689   -22704   -22710   -22716   -22738   -22788   -22848 
  -22915   -22978   -23023   -23076   -23153   -23233   -23302   -23374 
  -23453   -23531   -23617   -23691   -23735   -23790   -23854   -23893 
  -23936   -23990   -24028   -24039   -24035   -24049   -24074   -24082 
  -24078   -24078   -24075   -24062   -24050   -24041   -24021   -24004 
  -23992   -23975   -23967   -23957   -23939   -23927   -23922   -23917 
  -23910   -23907   -23903   -23888   -23875   -23867   -23848   -23820 
  -23806   -23804   -23786   -23773   -23785   -23779   -23744   -23702 
  -23645   -23594   -23567   -23529   -23473   -23422   -23369   -23325 
  -23296   -23250   -23203   -23171   -23122   -23058   -23018   -22995 
  -22968   -22935   -22902   -22875   -22852   -22829   -22815   -22797 
  -22766   -22727   -22691   -22666   -22636   -22575   -22508   -22475 
  -22457   -22424   -22378   -22342   -22310   -22263   -22225   -22204 
  -22174   -22128   -22090   -22064   -22042   -22024   -22019   -22028 
  -22038   -22029   -22019   -22027   -22031   -22024   -22023   -22026 
  -22025   -22033   -22047   -22056   -22076   -22091   -22073   -22047 
  -22034   -22008   -21975   -21949   -21928   -21902   -21868   -21844 
  -21831   -21777   -21699   -21661   -21624   -21550   -21485   -21428 
  -21361   -21295   -21218   -21128   -21047   -20969   -20903   -20853 
  -20802   -20756   -20703   -20635   -20586   -20545   -20496   -20464 
  -20449   -20432   -20422   -20425   -20436   -20438   -20426   -20416 
  -20413   -20406   -20406   -20408   -20394   -20367   -20324   -20262 
  -20208   -20173   -20131   -20076   -20016   -19939   -19856   -19788 
  -19724   -19654   -19580   -19486   -19381   -19298   -19222   -19124 
  -19014   -18924   -18845   -18765   -18698   -18647   -18593   -18541 
  -18509   -18488   -18478   -18502   -18531   -18546   -18580   -18632 
  -18686   -18756   -18845   -18939   -19037   -19129   -19211   -19298 
  -19393   -19484   -19578   -19675   -19755   -19821   -19894   -19986 
  -20092   -20191   -20289   -20402   -20510   -20599   -20682   -20759 
  -20829   -20898   -20975   -21065   -21146   -21212   -21276   -21334 
  -21391   -21447   -21494   -21533   -21559   -21573   -21600   -21636 
  -21668   -21703   -21737   -21761   -21782   -21801   -21817   -21825 
  -21832   -21847   -21869   -21896   -21923   -21941   -21955   -21967 
  -21977   -21985   -21988   -21995   -22010   -22021   -22029   -22037 
  -22043   -22050   -22055   -22057   -22060   -22057   -22047   -22030 
  -22012   -21997   -21987   -21981   -21984   -21992   -21993   -21987 
  -21975   -21940   -21888   -21840   -21798   -21762   -21726   -21678 
  -21635   -21602   -21562   -21524   -21498   -21470   -21427   -21385 
  -21358   -21338   -21336   -21356   -21372   -21384   -21404   -21419 
  -21434   -21469   -21510   -21543   -21589   -21645   -21698   -21745 
  -21783   -21838   -21908   -21958   -22016   -22101   -22175   -22227 
  -22273   -22311   -22356   -22423   -22504   -22581   -22638   -22682 
  -22733   -22787   -22825   -22847   -22862   -22878   -22889   -22895 
  -22915   -22942   -22955   -22947   -22915   -22879   -22851   -22824 
  -22792   -22755   -22707   -22654   -22595   -22523   -22460   -22414 
  -22365   -22314   -22268   -22214   -22140   -22062   -21997   -21941 
  -21899   -21869   -21838   -21821   -21805   -21770   -21750   -21750 
  -21744   -21747   -21768   -21793   -21830   -21880   -21925   -21953 
  -21971   -21997   -22036   -22082   -22133   -22182   -22222   -22261 
  -22305   -22352   -22397   -22432   -22453   -22481   -22518   -22552 
  -22588   -22629   -22666   -22698   -22736   -22779   -22811   -22837 
  -22864   -22870   -22859   -22843   -22816   -22790   -22784   -22784 
  -22771   -22740   -22694   -22639   -22590   -22551   -22497   -22443 
  -22415   -22383   -22332   -22288   -22248   -22207   -22175   -22144 
  -22112   -22094   -22089   -22065   -22033   -22027   -22042   -22054 
  -22067   -22093   -22124   -22150   -22164   -22173   -22192   -22212 
  -22227   -22245   -22268   -22285   -22312   -22365   -22435   -22499 
  -22546   -22582   -22605   -22616   -22646   -22699   -22747   -22786 
  -22823   -22854   -22887   -22922   -22948   -22966   -22980   -22989 
  -23008   -23039   -23068   -23105   -23153   -23203   -23252   -23288 
  -23298   -23307   -23336   -23371   -23411   -23450   -23471   -23471 
  -23467   -23458   -23446   -23434   -23414   -23375   -23330   -23298 
  -23282   -23270   -23241   -23182   -23112   -23063   -23040   -23018 
  -22980   -22935   -22890   -22847   -22802   -22747   -22700   -22672 
  -22630   -22572   -22520   -22463   -22389   -22306   -22214   -22101 
  -21970   -21847   -21748   -21650   -21540   -21423   -21306   -21190 
  -21076   -20978   -20900   -20820   -20730   -20644   -20570   -20508 
  -20464   -20433   -20402   -20369   -20347   -20336   -20320   -20310 
  -20320   -20343   -20376   -20423   -20467   -20510   -20571   -20632 
  -20672   -20702   -20733   -20771   -20808   -20832   -20862   -20907 
  -20945   -20974   -21002   -21020   -21016   -20998   -20983   -20990 
  -21002   -20996   -20987   -20987   -20989   -21004   -21019   -21014 
  -20998   -20991   -20995   -20997   -20999   -21009   -21016   -21010 
  -21000   -20991   -20988   -20994   -20996   -20983   -20965   -20968 
  -20988   -21005   -21016   -21027   -21039   -21058   -21080   -21094 
  -21111   -21147   -21190   -21216   -21236   -21269   -21308   -21329 
  -21332   -21346   -21386   -21427   -21447   -21459   -21482   -21515 
  -21553   -21602   -21658   -21706   -21744   -21787   -21844   -21897 
  -21932   -21962   -22000   -22035   -22069   -22096   -22117   -22144 
  -22166   -22168   -22172   -22186   -22185   -22161   -22136   -22115 
  -22083   -22043   -22012   -21991   -21974   -21943   -21884   -21827 
  -21784   -21740   -21700   -21650   -21593   -21569   -21560   -21537 
  -21533   -21545   -21541   -21537   -21531   -21501   -21476   -21473 
  -21466   -21453   -21451   -21469   -21493   -21494   -21480   -21471 
  -21456   -21439   -21436   -21442   -21453   -21477   -21501   -21518 
  -21536   -21549   -21553   -21561   -21562   -21547   -21533   -21524 
  -21514   -21503   -21490   -21484   -21477   -21456   -21437   -21428 
  -21417   -21389   -21348   -21329   -21335   -21337   -21336   -21334 
  -21325   -21322   -21328   -21329   -21329   -21345   -21362   -21375 
  -21407   -21444   -21459   -21471   -21498   -21539   -21585   -21615 
  -21624   -21630   -21649   -21681   -21713   -21739   -21777   -21811 
  -21821   -21830   -21841   -21838   -21830   -21839   -21856   -21857 
  -21845   -21838   -21830   -21807   -21778   -21746   -21705   -21665 
  -21636   -21610   -21577   -21528   -21472   -21417   -21364   -21315 
  -21268   -21221   -21185   -21159   -21125   -21070   -21006   -20952 
  -20909   -20872   -20844   -20820   -20794   -20760   -20722   -20702 
  -20699   -20694   -20691   -20707   -20727   -20738   -20747   -20764 
  -20799   -20854   -20905   -20944   -20982   -21007   -21019   -21041 
  -21063   -21087   -21129   -21172   -21198   -21204   -21191   -21185 
  -21190   -21201   -21226   -21244   -21239   -21215   -21183   -21166 
  -21155   -21134   -21119   -21103   -21086   -21072   -21039   -21002 
  -20981   -20949   -20911   -20889   -20862   -20828   -20816   -20807 
  -20797   -20817   -20843   -20852   -20871   -20892   -20910   -20945 
  -20991   -21037   -21097   -21176   -21251   -21314   -21378   -21442 
  -21516   -21605   -21682   -21761   -21864   -21965   -22053   -22142 
  -22230   -22314   -22390   -22469   -22557   -22625   -22675   -22741 
