Origin Time       2011/03/11 14:46:00
Lat.              38.103
Long.             142.860
Depth. (km)       24
Mag.              9.0
Station Code      NAR006
Station Lat.      34.3384
Station Long.     135.9545
Station Height(m) 341
Record Time       2011/03/11 14:50:54
Sampling Freq(Hz) 100Hz
Duration Time(s)  60
Dir.              N-S
Scale Factor      3920(gal)/6182761
Max. Acc. (gal)   1.741
Last Correction   2011/03/11 14:50:39
Memo.             
[...]
  -16691   -16709   -16718   -16745   -16793   -16805   -16840   -16857 
  -16822   -16824   -16826   -16825   -16856   -16866   -16893   -16939 
  -16958   -16988   -16995   -16985   -16998   -16949   -16880   -16844 
  -16752   -16650   -16577   -16500   -16444   -16377   -16330   -16327 
  -16270   -16202   -16161   -16104   -16072   -16042   -16032   -16094 
  -16129   -16176   -16298   -16386   -16460   -16530   -16554   -16581 
  -16563   -16484   -16426   -16347   -16265   -16213   -16153   -16122 
  -16082   -16011   -15985   -15937   -15851   -15811   -15764   -15686 
  -15605   -15525   -15477   -15409   -15332   -15314   -15301   -15298 
  -15305   -15284   -15299   -15299   -15263   -15278   -15275   -15260 
  -15297   -15307   -15342   -15429   -15464   -15485   -15524   -15558 
  -15606   -15657   -15739   -15833   -15887   -15972   -16059   -16109 
  -16218   -16335   -16400   -16476   -16540   -16571   -16569   -16536 
  -16497   -16413   -16305   -16221   -16093   -15946   -15832   -15721 
  -15630   -15548   -15467   -15412   -15348   -15302   -15299   -15298 
  -15322   -15374   -15439   -15534   -15637   -15755   -15888   -16038 
  -16210   -16326   -16413   -16514   -16548   -16544   -16556   -16534 
  -16499   -16452   -16396   -16366   -16329   -16292   -16280   -16292 
  -16332   -16365   -16427   -16537   -16624   -16707   -16794   -16856 
  -16903   -16900   -16874   -16850   -16768   -16653   -16523   -16405 
  -16331   -16243   -16160   -16116   -16093   -16111   -16136   -16182 
  -16284   -16371   -16470   -16601   -16694   -16786   -16869   -16906 
  -16927   -16940   -16960   -16967   -16945   -16920   -16857   -16793 
  -16769   -16717   -16663   -16630   -16588   -16567   -16561   -16555 
  -16559   -16553   -16523   -16492   -16468   -16380   -16274   -16282 
  -16250   -16131   -16135   -16141   -16080   -16161   -16246   -16202 
  -16279   -16471   -16519   -16543   -16761   -16958   -16953   -16967 
  -17080   -17131   -17099   -17050   -17001   -16949   -16871   -16751 
  -16622   -16528   -16436   -16318   -16217   -16140   -16071   -16018 
  -15968   -15918   -15895   -15921   -15982   -16069   -16189   -16312 
  -16402   -16460   -16516   -16568   -16598   -16613   -16618   -16617 
  -16625   -16643   -16661   -16660   -16648   -16636   -16605   -16581 
  -16596   -16622   -16668   -16752   -16830   -16899   -16986   -17075 
  -17147   -17198   -17238   -17300   -17359   -17360   -17334   -17328 
  -17317   -17289   -17257   -17224   -17199   -17174   -17132   -17083 
  -17020   -16938   -16851   -16771   -16709   -16665   -16644   -16660 
  -16687   -16707   -16742   -16790   -16826   -16847   -16870   -16896 
  -16897   -16893   -16923   -16960   -16978   -16996   -17022   -17046 
  -17067   -17075   -17083   -17090   -17070   -17038   -17021   -17010 
  -16982   -16942   -16901   -16831   -16729   -16635   -16549   -16460 
  -16387   -16348   -16357   -16394   -16440   -16520   -16636   -16750 
  -16865   -16982   -17070   -17136   -17209   -17287   -17343   -17366 
  -17366   -17335   -17260   -17163   -17053   -16926   -16804   -16707 
  -16630   -16570   -16533   -16528   -16561   -16616   -16676   -16749 
  -16850   -16974   -17093   -17180   -17250   -17324   -17380   -17396 
  -17395   -17387   -17369   -17337   -17286   -17222   -17141   -17024 
  -16887   -16759   -16621   -16465   -16333   -16229   -16133   -16047 
  -15976   -15918   -15853   -15769   -15686   -15629   -15595   -15583 
  -15597   -15627   -15670   -15737   -15820   -15894   -15960   -16027 
  -16079   -16103   -16108   -16103   -16099   -16080   -16022   -15957 
  -15907   -15827   -15716   -15628   -15571   -15518   -15479   -15498 
  -15540   -15554   -15572   -15622   -15662   -15680   -15692   -15696 
  -15673   -15628   -15579   -15521   -15456   -15409   -15378   -15340 
  -15302   -15279   -15261   -15253   -15269   -15303   -15354   -15432 
  -15489   -15501   -15525   -15574   -15590   -15560   -15530   -15514 
  -15483   -15432   -15375   -15308   -15218   -15108   -15003   -14929 
  -14864   -14794   -14754   -14738   -14731   -14756   -14823   -14914 
  -15002   -15072   -15134   -15167   -15158   -15133   -15094   -15034 
  -14967   -14904   -14847   -14772   -14682   -14633   -14609   -14565 
  -14549   -14575   -14598   -14630   -14691   -14774   -14880   -14986 
  -15078   -15165   -15246   -15307   -15335   -15341   -15358   -15380 
  -15384   -15384   -15393   -15397   -15386   -15368   -15348   -15332 
  -15323   -15315   -15314   -15328   -15328   -15299   -15278   -15287 
  -15302   -15310   -15325   -15342   -15356   -15370   -15385   -15411 
  -15438   -15451   -15457   -15457   -15460   -15487   -15528   -15561 
  -15583   -15616   -15655   -15680   -15703   -15729   -15736   -15732 
  -15736   -15736   -15726   -15721   -15728   -15736   -15767   -15851 
  -15949   -16026   -16108   -16193   -16259   -16314   -16373   -16418 
  -16440   -16472   -16506   -16500   -16468   -16437   -16402   -16354 
  -16304   -16273   -16248   -16203   -16164   -16157   -16161   -16175 
  -16226   -16312   -16408   -16513   -16631   -16760   -16887   -16990 
  -17065   -17123   -17159   -17153   -17096   -17019   -16957   -16890 
  -16807   -16744   -16701   -16663   -16622   -16569   -16538   -16549 
  -16563   -16567   -16565   -16553   -16528   -16479   -16432   -16407 
  -16367   -16302   -16242   -16186   -16147   -16123   -16100   -16073 
  -16029   -15955   -15877   -15803   -15717   -15631   -15573   -15548 
  -15538   -15529   -15537   -15562   -15586   -15615   -15668   -15755 
  -15865   -15979   -16099   -16222   -16329   -16410   -16440   -16399 
  -16328   -16280   -16234   -16160   -16089   -16036   -15966   -15882 
  -15793   -15683   -15562   -15457   -15372   -15302   -15246   -15227 
  -15262   -15324   -15393   -15492   -15618   -15741   -15853   -15955 
  -16026   -16048   -16047   -16029   -15979   -15910   -15836   -15763 
  -15699   -15633   -15574   -15555   -15564   -15570   -15578   -15590 
  -15604   -15618   -15639   -15677   -15728   -15782   -15840   -15917 
  -15991   -16023   -16016   -15996   -15970   -15939   -15887   -15820 
  -15773   -15747   -15725   -15713   -15711   -15711   -15710   -15697 
  -15675   -15662   -15657   -15649   -15661   -15704   -15741   -15745 
  -15740   -15752   -15753   -15723   -15686   -15641   -15582   -15533 
  -15489   -15424   -15357   -15340   -15368   -15376   -15355   -15344 
  -15341   -15334   -15337   -15364   -15404   -15447   -15515   -15610 
  -15698   -15761   -15820   -15898   -15977   -16046   -16124   -16209 
  -16279   -16308   -16295   -16266   -16223   -16157   -16083   -16001 
  -15900   -15804   -15740   -15703   -15669   -15634   -15632   -15656 
  -15674   -15708   -15778   -15854   -15922   -15978   -16002   -15993 
  -15976   -15969   -15974   -15991   -16012   -16025   -16040   -16061 
  -16059   -16031   -15995   -15922   -15808   -15709   -15640   -15562 
  -15488   -15456   -15457   -15464   -15475   -15498   -15529   -15560 
  -15585   -15604   -15638   -15689   -15736   -15775   -15801   -15806 
  -15798   -15788   -15778   -15760   -15739   -15736   -15764   -15826 
  -15922   -16038   -16155   -16271   -16394   -16497   -16553   -16582 
  -16592   -16578   -16562   -16538   -16493   -16448   -16411   -16370 
  -16322   -16286   -16260   -16236   -16226   -16230   -16246   -16276 
  -16303   -16313   -16322   -16349   -16388   -16410   -16423   -16443 
  -16456   -16454   -16446   -16443   -16458   -16483   -16508   -16531 
  -16538   -16516   -16491   -16494   -16518   -16546   -16555   -16541 
  -16556   -16606   -16625   -16620   -16645   -16673   -16670   -16647 
  -16606   -16579   -16581   -16556   -16507   -16494   -16514   -16539 
  -16559   -16570   -16608   -16667   -16642   -16543   -16512   -16541 
  -16491   -16380   -16359   -16406   -16363   -16267   -16278   -16309 
  -16193   -16064   -16086   -16074   -15924   -15889   -15998   -15968 
  -15865   -15942   -16031   -15938   -15902   -16016   -16002   -15918 
  -16047   -16194   -16146   -16186   -16348   -16292   -16151   -16203 
  -16180   -15985   -15960   -15984   -15793   -15709   -15787   -15653 
  -15515   -15653   -15665   -15492   -15567   -15670   -15542   -15600 
  -15808   -15777   -15820   -16064   -16086   -16102   -16385   -16461 
  -16352   -16527   -16673   -16580   -16660   -16757   -16613   -16627 
  -16757   -16677   -16727   -16940   -16929   -16951   -17112   -17045 
  -16974   -17089   -17061   -17013   -17120   -17103   -17065   -17162 
  -17138   -17093   -17190   -17177   -17131   -17205   -17196   -17207 
  -17376   -17457   -17495   -17651   -17767   -17859   -18004   -18079 
  -18151   -18267   -18278   -18253   -18253   -18186   -18113   -18028 
  -17866   -17729   -17600   -17445   -17363   -17262   -17129   -17082 
  -16991   -16887   -16918   -16925   -16939   -17076   -17144   -17185 
  -17306   -17345   -17386   -17491   -17497   -17513   -17566   -17508 
  -17505   -17562   -17525   -17523   -17509   -17399   -17383   -17383 
  -17325   -17355   -17362   -17354   -17448   -17478   -17495   -17598 
  -17622   -17637   -17686   -17655   -17682   -17717   -17643   -17678 
  -17782   -17834   -17933   -17987   -17998   -18058   -18032   -18006 
  -18028   -17923   -17812   -17745   -17604   -17491   -17379   -17233 
  -17169   -17047   -16882   -16831   -16718   -16559   -16509   -16446 
  -16401   -16421   -16427   -16479   -16502   -16468   -16522   -16546 
  -16518   -16542   -16506   -16475   -16492   -16413   -16367   -16376 
  -16308   -16256   -16174   -16055   -16024   -15940   -15801   -15748 
  -15690   -15625   -15601   -15584   -15630   -15678   -15700   -15799 
  -15898   -15957   -16004   -15987   -16004   -16070   -16080   -16133 
  -16229   -16284   -16340   -16372   -16374   -16357   -16276   -16189 
  -16101   -15962   -15863   -15826   -15822   -15823   -15752   -15705 
  -15729   -15688   -15634   -15649   -15690   -15735   -15755   -15786 
  -15836   -15826   -15811   -15811   -15785   -15788   -15789   -15798 
  -15864   -15910   -16004   -16158   -16250   -16364   -16518   -16634 
  -16732   -16784   -16821   -16852   -16832   -16856   -16886   -16863 
  -16853   -16772   -16656   -16609   -16519   -16427   -16373   -16284 
  -16242   -16206   -16135   -16125   -16107   -16086   -16107   -16084 
  -16096   -16160   -16214   -16341   -16465   -16538   -16653   -16729 
  -16759   -16760   -16680   -16627   -16574   -16443   -16341   -16245 
  -16156   -16125   -16075   -16035   -15980   -15883   -15862   -15833 
  -15772   -15814   -15879   -15955   -16059   -16129   -16238   -16352 
  -16443   -16592   -16698   -16736   -16775   -16779   -16804   -16831 
  -16818   -16851   -16842   -16785   -16788   -16782   -16783   -16797 
  -16772   -16786   -16772   -16697   -16680   -16677   -16676   -16679 
  -16654   -16726   -16838   -16879   -16951   -17001   -16989   -16998 
  -16972   -16917   -16871   -16807   -16731   -16594   -16440   -16348 
  -16253   -16194   -16192   -16165   -16149   -16133   -16120   -16164 
  -16175   -16186   -16264   -16322   -16371   -16410   -16445   -16562 
  -16658   -16683   -16720   -16762   -16814   -16827   -16790   -16795 
  -16747   -16634   -16574   -16506   -16450   -16451   -16449   -16476 
  -16500   -16491   -16493   -16475   -16505   -16607   -16654   -16685 
  -16758   -16845   -16938   -17017   -17117   -17226   -17285   -17350 
  -17420   -17489   -17586   -17654   -17706   -17758   -17775   -17803 
  -17809   -17792   -17808   -17800   -17797   -17820   -17803   -17782 
  -17765   -17757   -17786   -17795   -17801   -17800   -17751   -17718 
  -17672   -17617   -17599   -17548   -17526   -17549   -17516   -17499 
  -17516   -17505   -17469   -17409   -17386   -17373   -17338   -17357 
  -17401   -17452   -17503   -17525   -17573   -17588   -17532   -17502 
  -17440   -17328   -17208   -17079   -17024   -16984   -16897   -16875 
  -16892   -16891   -16845   -16745   -16701   -16669   -16598   -16609 
  -16667   -16708   -16721   -16699   -16715   -16715   -16671   -16625 
  -16530   -16444   -16390   -16325   -16303   -16252   -16153   -16084 
  -15984   -15879   -15794   -15696   -15631   -15566   -15520   -15545 
  -15577   -15620   -15649   -15623   -15605   -15571   -15507   -15440 
  -15368   -15343   -15331   -15316   -15326   -15290   -15199   -15072 
  -14945   -14861   -14740   -14631   -14611   -14579   -14553   -14592 
  -14681   -14794   -14871   -14962   -15089   -15188   -15303   -15418 
  -15489   -15540   -15568   -15630   -15749   -15876   -15997   -16058 
  -16058   -16031   -15971   -15929   -15892   -15880   -15958   -16046 
  -16131   -16239   -16318   -16377   -16412   -16417   -16426   -16459 
  -16533   -16584   -16596   -16636   -16673   -16700   -16744   -16798 
  -16885   -16960   -16994   -17037   -17087   -17139   -17165   -17146 
  -17097   -17026   -16989   -16984   -16970   -16962   -16935   -16907 
  -16879   -16776   -16621   -16477   -16379   -16322   -16273   -16284 
  -16351   -16389   -16398   -16417   -16455   -16472   -16460   -16482 
  -16535   -16578   -16588   -16575   -16588   -16594   -16568   -16566 
  -16591   -16637   -16712   -16809   -16911   -16987   -17087   -17255 
  -17413   -17506   -17591   -17726   -17878   -18018   -18180   -18335 
  -18446   -18520   -18560   -18591   -18605   -18602   -18625   -18670 
  -18735   -18825   -18912   -19009   -19136   -19262   -19342   -19395 
  -19477   -19535   -19538   -19533   -19498   -19458   -19465   -19469 
  -19441   -19394   -19327   -19241   -19153   -19097   -19075   -19084 
  -19125   -19190   -19273   -19318   -19300   -19266   -19233   -19184 
  -19133   -19097   -19057   -19011   -18989   -18978   -18915   -18778 
  -18651   -18591   -18527   -18444   -18437   -18517   -18596   -18630 
  -18624   -18568   -18493   -18453   -18436   -18435   -18483   -18577 
  -18653   -18681   -18714   -18760   -18783   -18818   -18857   -18836 
  -18780   -18750   -18733   -18709   -18715   -18767   -18848   -18925 
  -18952   -18939   -18913   -18860   -18793   -18751   -18757   -18750 
  -18688   -18651   -18669   -18676   -18641   -18586   -18555   -18529 
  -18469   -18397   -18343   -18318   -18288   -18222   -18121   -17967 
  -17789   -17621   -17460   -17322   -17196   -17072   -16952   -16839 
  -16737   -16649   -16600   -16575   -16547   -16528   -16505   -16493 
  -16491   -16490   -16524   -16557   -16552   -16537   -16513   -16477 
  -16415   -16327   -16201   -16054   -15960   -15917   -15926   -15981 
  -16014   -16034   -16051   -16038   -15964   -15858   -15822   -15844 
  -15876   -15922   -15970   -16018   -16041   -16042   -16036   -16026 
  -16056   -16070   -16048   -16030   -15992   -15981   -15995   -15964 
  -15921   -15875   -15801   -15699   -15603   -15509   -15418   -15379 
  -15364   -15359   -15396   -15459   -15516   -15537   -15582   -15688 
  -15782   -15835   -15871   -15929   -15962   -15915   -15866   -15820 
  -15733   -15604   -15495   -15466   -15436   -15380   -15352   -15326 
  -15295   -15289   -15333   -15393   -15433   -15470   -15510   -15599 
  -15727   -15838   -15954   -16080   -16184   -16234   -16242   -16221 
  -16166   -16112   -16053   -15985   -15922   -15852   -15798   -15736 
  -15657   -15622   -15624   -15609   -15601   -15661   -15762   -15866 
  -15982   -16098   -16228   -16364   -16468   -16543   -16609   -16668 
  -16696   -16737   -16821   -16883   -16918   -16949   -16957   -16959 
  -16970   -16993   -17035   -17085   -17101   -17094   -17074   -17022 
  -16985   -17001   -17034   -17073   -17140   -17220   -17257   -17262 
  -17288   -17329   -17334   -17324   -17346   -17365   -17362   -17358 
  -17346   -17313   -17256   -17177   -17091   -17035   -16989   -16920 
  -16890   -16945   -17050   -17150   -17239   -17326   -17391   -17450 
  -17526   -17602   -17655   -17686   -17707   -17719   -17726   -17725 
  -17708   -17655   -17578   -17504   -17423   -17325   -17206   -17091 
  -16982   -16868   -16792   -16771   -16771   -16778   -16800   -16846 
  -16897   -16922   -16942   -16993   -17055   -17123   -17211   -17295 
  -17339   -17329   -17271   -17182   -17091   -17011   -16917   -16817 
  -16758   -16739   -16731   -16728   -16738   -16757   -16761   -16747 
  -16730   -16723   -16747   -16784   -16805   -16810   -16793   -16759 
  -16719   -16649   -16557   -16490   -16434   -16391   -16402   -16434 
  -16441   -16450   -16502   -16589   -16663   -16697   -16736   -16798 
  -16850   -16880   -16888   -16883   -16882   -16882   -16875   -16887 
  -16946   -17027   -17099   -17181   -17297   -17434   -17584   -17761 
  -17942   -18116   -18325   -18565   -18763   -18905   -19017   -19099 
  -19162   -19213   -19220   -19166   -19076   -18986   -18918   -18874 
  -18858   -18860   -18861   -18872   -18893   -18874   -18831   -18827 
  -18850   -18860   -18879   -18911   -18927   -18924   -18931   -18952 
  -18955   -18956   -18980   -18982   -18941   -18899   -18866   -18830 
  -18780   -18720   -18662   -18617   -18602   -18598   -18593   -18614 
  -18652   -18671   -18672   -18661   -18648   -18635   -18606   -18577 
  -18576   -18589   -18577   -18541   -18528   -18539   -18558   -18593 
  -18637   -18668   -18671   -18630   -18557   -18472   -18374   -18275 
  -18179   -18086   -18026   -18004   -17991   -17986   -17999   -18042 
  -18121   -18202   -18266   -18333   -18398   -18462   -18529   -18579 
  -18622   -18687   -18762   -18804   -18808   -18788   -18721   -18609 
  -18503   -18415   -18314   -18205   -18133   -18085   -18031   -17988 
  -17959   -17941   -17961   -18001   -18024   -18049   -18093   -18135 
  -18176   -18237   -18308   -18363   -18395   -18413   -18414   -18398 
  -18381   -18363   -18321   -18257   -18206   -18170   -18099   -17999 
  -17919   -17843   -17774   -17738   -17697   -17634   -17588   -17584 
  -17625   -17679   -17731   -17807   -17888   -17921   -17927   -17968 
  -18033   -18084   -18140   -18222   -18279   -18259   -18186   -18094 
  -17960   -17790   -17660   -17583   -17500   -17408   -17342   -17308 
  -17303   -17318   -17345   -17386   -17426   -17443   -17461   -17523 
  -17618   -17710   -17796   -17883   -17968   -18039   -18062   -18043 
  -18036   -18040   -18012   -17952   -17894   -17843   -17804   -17777 
  -17738   -17684   -17638   -17593   -17520   -17451   -17444   -17478 
  -17509   -17535   -17558   -17584   -17600   -17575   -17533   -17506 
  -17475   -17447   -17427   -17406   -17406   -17426   -17434   -17438 
  -17434   -17397   -17343   -17288   -17233   -17179   -17138   -17125 
  -17117   -17090   -17077   -17078   -17049   -17010   -17007   -17009 
  -16972   -16914   -16879   -16872   -16857   -16814   -16773   -16742 
  -16707   -16676   -16649   -16615   -16570   -16509   -16450   -16409 
  -16381   -16384   -16402   -16389   -16383   -16429   -16485   -16508 
  -16517   -16544   -16593   -16643   -16692   -16755   -16839   -16928 
  -16998   -17052   -17102   -17140   -17163   -17186   -17202   -17201 
  -17191   -17180   -17166   -17134   -17090   -17054   -17027   -16982 
  -16922   -16876   -16842   -16794   -16758   -16780   -16836   -16875 
  -16894   -16906   -16917   -16935   -16935   -16913   -16896   -16863 
  -16792   -16717   -16658   -16575   -16476   -16419   -16387   -16336 
