Origin Time       2011/03/11 14:46:00
Lat.              38.103
Long.             142.860
Depth. (km)       24
Mag.              9.0
Station Code      NGN018
Station Lat.      35.8129
Station Long.     137.5298
Station Height(m) 1012
Record Time       2011/03/11 14:47:56
Sampling Freq(Hz) 100Hz
Duration Time(s)  226
Dir.              U-D
Scale Factor      3920(gal)/6182761
Max. Acc. (gal)   5.469
Last Correction   2011/03/11 14:47:41
Memo.             
[...]
   27939    28097    28142    27946    27611    27296    27035    26755 
   26484    26370    26336    26081    25566    25031    24584    24208 
   23994    24100    24591    25261    25836    26414    27120    27734 
   28173    28556    28793    28817    28807    28817    28699    28372 
   27910    27517    27305    27124    26825    26504    26210    25837 
   25506    25515    25924    26547    27169    27662    27964    28089 
   28091    27937    27745    27697    27592    27200    26710    26289 
   25833    25384    25153    25158    25207    25171    25292    25854 
   26682    27475    28120    28588    28877    28979    29038    29219 
   29411    29555    29711    29647    29216    28815    28804    29075 
   29436    29879    30437    30897    31189    31658    32081    31979 
   31989    32569    32992    33128    33473    33803    33783    33464 
   33071    32930    32786    32274    31863    31753    31487    31153 
   31081    31120    31133    31280    31648    32084    32397    32458 
   32202    31763    31251    30559    29780    29140    28619    28194 
   27925    27736    27547    27312    26900    26280    25634    25062 
   24481    23926    23594    23553    23704    23975    24399    24977 
   25529    25894    26158    26392    26447    26291    26045    25696 
   25329    25131    25002    24877    24935    25142    25344    25665 
   26248    26978    27646    28097    28315    28337    28053    27500 
   27052    26839    26661    26527    26487    26456    26503    26695 
   26907    27014    26950    26689    26272    25817    25335    24773 
   24368    24407    24810    25399    26110    26733    26977    26873 
   26670    26441    26052    25450    24823    24252    23607    22972 
   22478    21923    21283    20964    21191    21895    23003    24276 
   25353    26195    26907    27353    27472    27426    27280    26995 
   26577    26063    25591    25315    25186    25074    24865    24452 
   23942    23625    23678    24047    24467    24702    24810    25036 
   25499    26013    26332    26522    26652    26620    26618    26889 
   27342    27852    28290    28625    29062    29547    29771    29767 
   29793    29926    30119    30367    30684    31016    31185    30929 
   30128    29035    28026    27155    26409    25856    25302    24579 
   23835    23237    22878    22771    22862    23107    23367    23517 
   23605    23692    23844    24112    24402    24591    24666    24645 
   24484    24250    24106    23995    23795    23634    23696    23969 
   24247    24327    24211    24024    23781    23467    23171    22975 
   22888    22948    23236    23786    24481    25076    25369    25363 
   25200    24952    24583    24161    23910    23889    23969    24174 
   24472    24647    24730    24944    25306    25660    25824    25783 
   25754    25866    26036    26183    26281    26301    26177    25921 
   25724    25691    25744    25782    25753    25790    26025    26179 
   25889    25312    24823    24596    24767    25313    26011    26806 
   27623    28176    28526    28893    29015    28748    28472    28376 
   28394    28515    28562    28346    27941    27426    26838    26352 
   26064    25868    25814    26064    26453    26684    26725    26601 
   26268    25883    25738    25812    25818    25724    25751    25955 
   26178    26412    26856    27464    27856    27906    27882    27882 
   27680    27114    26298    25554    25088    24786    24621    24826 
   25477    26253    26846    27256    27437    27208    26654    26043 
   25485    24930    24346    23847    23601    23648    23972    24500 
   25043    25552    26122    26691    27146    27542    27890    28046 
   28006    27872    27611    27300    27141    27168    27330    27548 
   27744    28024    28442    28816    29002    29050    29038    28966 
   28815    28580    28301    28143    28132    28111    28146    28428 
   28930    29631    30549    31562    32584    33504    33964    33808 
   33305    32615    31740    30904    30310    29834    29334    28862 
   28352    27580    26617    25778    25177    24834    24806    24941 
   25011    25053    25271    25749    26343    26859    27290    27695 
   28016    28199    28337    28565    28851    29071    29163    29047 
   28688    28224    27760    27367    27199    27261    27402    27575 
   27794    27983    28072    28046    27802    27246    26528    25951 
   25654    25582    25736    26212    27033    28070    29181    30415 
   31810    33062    33819    34096    34066    33757    33160    32384 
   31570    30778    29987    29162    28360    27774    27495    27392 
   27361    27391    27435    27483    27568    27695    27807    27763 
   27554    27419    27516    27789    28111    28391    28638    28872 
   28980    28925    28873    28857    28655    28173    27576    26987 
   26419    26042    26082    26437    26768    26894    26908    26960 
   27005    26911    26697    26423    26120    25899    25786    25672 
   25562    25549    25671    25958    26440    27092    27820    28441 
   28729    28642    28404    28158    27860    27584    27491    27611 
   27929    28462    29166    29932    30604    30951    30848    30352 
   29543    28596    27743    26955    26044    24997    23935    22968 
   22165    21598    21447    21808    22527    23373    24198    25033 
   25973    26949    27807    28443    28758    28693    28353    27899 
   27381    26857    26415    25999    25592    25333    25210    25095 
   25038    25077    25100    25125    25335    25863    26755    27932 
   29204    30460    31593    32390    32795    32958    32899    32445 
   31546    30412    29319    28464    27949    27697    27559    27488 
   27509    27632    27852    28079    28109    27815    27250    26571 
   25966    25593    25521    25726    26138    26726    27461    28197 
   28736    29052    29410    30006    30608    30973    31138    31119 
   30957    30796    30681    30531    30247    29739    28983    28031 
   26978    26004    25277    24731    24248    23967    24044    24358 
   24732    25234    26041    27045    27874    28342    28543    28555 
   28402    28196    28111    28278    28572    28732    28798    28873 
   28801    28533    28242    28097    28227    28634    29160    29669 
   30057    30188    29997    29541    28942    28377    28018    27928 
   28065    28352    28673    28887    28959    28902    28655    28235 
   27815    27540    27437    27489    27727    28182    28694    29013 
   29100    29108    29080    28905    28562    28159    27710    27247 
   26959    26976    27209    27518    27834    28123    28336    28414 
   28254    27742    26957    26114    25228    24217    23199    22404 
   22054    22270    22894    23628    24303    24926    25533    26061 
   26457    26756    26976    27164    27443    27859    28298    28571 
   28565    28307    27904    27501    27167    26816    26431    26174 
   26131    26225    26361    26403    26189    25732    25170    24607 
   24131    23828    23725    23862    24281    24856    25406    25876 
   26242    26556    26968    27464    27878    28156    28348    28466 
   28466    28326    28165    28147    28203    28094    27742    27175 
   26396    25606    25109    24849    24599    24435    24467    24526 
   24523    24590    24750    24947    25220    25621    26193    26845 
   27276    27364    27327    27248    26971    26514    26053    25602 
   25155    24959    25247    25953    26940    28141    29423    30609 
   31544    32096    32206    31921    31353    30613    29826    29154 
   28702    28512    28602    28873    29113    29105    28779    28329 
   28030    28036    28364    28814    29053    29008    28829    28501 
   27966    27330    26634    25864    25179    24717    24420    24227 
   24063    23809    23428    22996    22620    22275    21847    21407 
   21128    21037    21051    21084    21065    20975    20808    20475 
   19927    19319    18849    18589    18545    18665    18871    19154 
   19512    19895    20328    20844    21255    21318    21095    20871 
   20829    20869    20781    20635    20724    21078    21495    21858 
   22117    22197    22075    21806    21508    21309    21298    21511 
   21905    22364    22766    23076    23385    23751    24145    24525 
   24827    24997    25086    25206    25413    25694    25966    26097 
   26100    26198    26522    26959    27439    28025    28667    29202 
   29512    29559    29374    29045    28674    28308    27948    27655 
   27566    27732    27978    28054    27932    27737    27451    27008 
   26516    26095    25694    25238    24726    24202    23810    23716 
   23875    24105    24360    24726    25237    25905    26748    27707 
   28634    29367    29786    29920    29920    29828    29550    29154 
   28817    28481    27948    27154    26106    24831    23484    22302 
   21446    20950    20745    20747    20955    21454    22276    23264 
   24197    24991    25643    26110    26424    26726    27066    27352 
   27486    27460    27320    27107    26903    26875    27116    27521 
   27942    28272    28323    27947    27289    26671    26292    26165 
   26222    26326    26355    26323    26260    26085    25719    25165 
   24460    23741    23276    23183    23291    23442    23703    24241 
   25154    26422    27916    29460    30874    31991    32732    33193 
   33529    33769    33845    33724    33452    33050    32509    31918 
   31416    31060    30861    30928    31365    32096    32920    33615 
   34062    34320    34465    34536    34633    34798    34955    35052 
   35071    34962    34673    34168    33454    32654    31962    31486 
   31135    30757    30327    29887    29425    28957    28517    28093 
   27712    27420    27217    27134    27166    27152    26894    26310 
   25468    24559    23735    23066    22691    22715    23076    23704 
   24542    25429    26224    26966    27705    28353    28752    28825 
   28711    28620    28561    28480    28459    28534    28612    28652 
   28692    28737    28722    28598    28397    28188    28047    28041 
   28116    28160    28193    28298    28491    28812    29305    29855 
   30235    30313    30122    29779    29455    29338    29428    29506 
   29397    29106    28725    28341    28029    27840    27766    27755 
   27699    27496    27221    27089    27233    27662    28338    29099 
   29652    29822    29671    29257    28544    27661    26913    26455 
   26220    26153    26312    26779    27535    28448    29392    30242 
   30798    30984    30934    30775    30484    30023    29549    29277 
   29177    29072    28931    28809    28688    28490    28187    27919 
   27818    27734    27467    27066    26667    26252    25746    25217 
   24801    24423    23961    23556    23344    23180    22924    22673 
   22526    22433    22341    22247    22169    22210    22488    22964 
   23446    23772    23917    23921    23812    23631    23480    23495 
   23726    24135    24737    25584    26667    27909    29193    30385 
   31276    31582    31195    30305    29254    28333    27633    27083 
   26602    26198    25943    25881    26011    26312    26767    27392 
   28090    28568    28720    28750    28710    28451    28055    27814 
   27795    27797    27702    27599    27568    27595    27682    27801 
   27764    27427    26922    26480    26146    25856    25723    25919 
   26347    26776    27198    27693    28149    28371    28307    28029 
   27621    27185    26865    26816    27122    27681    28285    28858 
   29360    29579    29424    29053    28513    27777    27066    26663 
   26626    26845    27205    27657    28156    28571    28842    29084 
   29387    29624    29575    29251    28930    28768    28648    28459 
   28228    27960    27621    27261    26917    26540    26160    25865 
   25646    25428    25153    24825    24574    24522    24656    25017 
   25662    26497    27472    28564    29542    30189    30515    30530 
   30196    29615    29014    28518    28075    27675    27390    27269 
   27311    27424    27513    27611    27748    27856    27890    27854 
   27774    27648    27414    27110    26889    26808    26897    27246 
   27837    28528    29173    29683    29978    29993    29836    29722 
   29781    29991    30157    30170    30156    30162    30094    29933 
   29756    29673    29684    29701    29782    30027    30389    30831 
   31367    31970    32622    33252    33627    33595    33277    32805 
   32152    31366    30625    30017    29527    29130    28802    28554 
   28462    28584    28878    29303    29853    30419    30795    30875 
   30694    30314    29813    29291    28821    28398    27975    27542 
   27143    26865    26788    26900    27170    27594    28069    28425 
   28632    28782    28906    28971    29002    28982    28788    28401 
   27931    27437    26942    26444    25882    25278    24768    24424 
   24287    24387    24545    24564    24584    24785    25180    25785 
   26460    26961    27324    27669    27913    28029    28158    28391 
   28737    29199    29737    30273    30735    31054    31254    31398 
   31384    31109    30567    29757    28809    27913    27151    26563 
   26124    25771    25533    25458    25501    25571    25607    25586 
   25511    25420    25345    25262    25155    25055    24821    24267 
   23620    23044    22368    21652    20946    20110    19314    18777 
   18525    18605    19055    19856    20847    21718    22387    23112 
   23957    24593    24974    25504    26250    26862    27254    27617 
   27918    28014    28084    28132    27677    26873    26400    25934 
   25045    24362    24036    23623    23187    22866    22872    23206 
   23403    23589    24199    25112    25999    26687    27371    28179 
   28708    29017    29571    29975    29971    29987    29965    29824 
   29797    29801    29752    29727    29689    29531    29326    29212 
   28934    28430    28311    28629    28895    29252    29766    30002 
   29820    29372    28816    28182    27286    26219    25308    24449 
   23517    22777    22368    22275    22452    22880    23637    24486 
   25059    25432    25873    26452    27115    27716    28133    28393 
   28463    28310    28059    27828    27705    27744    27862    27999 
   28137    28239    28346    28363    28069    27571    27085    26613 
   26240    26067    26080    26316    26636    26789    26850    26959 
   27028    27044    27141    27377    27712    28126    28607    29103 
   29598    30063    30429    30629    30628    30529    30445    30268 
   29861    29231    28455    27697    27155    26889    26809    26879 
   27213    27829    28549    29239    29783    30014    29920    29610 
   29211    28841    28422    27832    27158    26545    26070    25716 
   25404    25129    24833    24311    23592    22964    22521    22174 
   21934    21921    22164    22439    22534    22555    22651    22746 
   22732    22655    22569    22357    21948    21499    21102    20766 
   20684    21005    21616    22291    22849    23374    23940    24250 
   24208    24133    24097    23898    23568    23289    23016    22708 
   22529    22600    22921    23433    24049    24650    25087    25324 
   25446    25569    25807    26159    26484    26697    26852    26952 
   26983    27136    27456    27711    27912    28177    28392    28458 
   28297    27931    27393    26682    26328    26490    26613    26905 
   27654    28464    29089    29523    29917    30183    29827    28984 
   28287    27826    27545    27360    27009    26703    26544    26382 
   26508    26804    26917    27217    27835    28316    28633    28944 
   29024    28818    28498    28184    28111    28213    28258    28465 
   28956    29441    29788    30038    30082    29839    29539    29438 
   29494    29603    29743    29807    29814    29922    30071    30263 
   30612    30850    30798    30702    30697    30760    30807    30794 
   30836    30848    30675    30407    30060    29529    28838    28183 
   27802    27717    27773    27972    28323    28579    28581    28374 
   28046    27784    27685    27637    27578    27528    27461    27376 
   27387    27577    27913    28377    28908    29405    29891    30228 
   30144    29774    29383    28986    28680    28587    28545    28450 
   28471    28678    28961    29305    29760    30300    30824    31185 
   31370    31495    31535    31447    31321    31209    31121    31069 
   31038    31069    31204    31369    31533    31784    32084    32294 
   32403    32484    32576    32652    32690    32695    32605    32331 
   31915    31494    31202    31077    31067    31114    31105    30919 
   30622    30350    30055    29738    29595    29645    29736    29831 
   29926    30082    30475    31067    31604    32015    32334    32426 
   32262    31988    31616    31124    30588    30053    29600    29327 
   29204    29221    29418    29740    30094    30409    30702    31024 
   31328    31639    32119    32778    33417    33839    33977    33868 
   33599    33250    32830    32329    31826    31439    31142    30842 
   30612    30488    30374    30312    30353    30439    30556    30646 
   30599    30388    29989    29410    28822    28415    28206    28135 
   28161    28194    28174    28097    27920    27615    27162    26552 
   25932    25427    24993    24704    24703    24866    24997    25058 
   25005    24770    24436    24134    23881    23709    23659    23691 
   23847    24190    24599    24924    25118    25139    24975    24767 
   24710    24801    24942    25145    25404    25618    25714    25757 
   25853    25894    25752    25610    25773    26249    26636    26656 
   26657    27011    27393    27329    27003    26906    27114    27322 
   27331    27367    27682    28004    28076    28109    28202    28174 
   27964    27753    27794    28059    28312    28565    29010    29574 
   29926    29897    29575    29071    28544    28147    27818    27413 
   26947    26604    26442    26235    25897    25595    25363    25117 
   24923    24904    24962    24924    24892    25073    25410    25706 
   25939    26147    26272    26236    26056    25884    25748    25577 
   25567    25833    26132    26295    26361    26419    26535    26652 
   26744    26920    27200    27484    27730    27988    28296    28515 
   28474    28339    28303    28231    28115    28129    28255    28517 
   28974    29394    29631    29803    29918    29918    29858    29799 
   29810    30005    30398    30832    31208    31582    31895    32059 
   32165    32240    32218    32138    32055    32040    32095    32063 
   31985    32076    32233    32245    32181    32122    31969    31588 
   31020    30527    30246    30093    30015    29961    29896    29789 
   29619    29467    29271    28892    28530    28347    28190    28086 
   28170    28321    28469    28621    28680    28617    28347    27794 
   27078    26298    25550    24945    24442    23980    23595    23332 
   23192    23142    23144    23275    23657    24189    24765    25444 
   26014    26306    26577    26849    26909    26868    26935    27050 
   27071    27058    27048    26976    26917    26949    27089    27335 
   27572    27733    27838    27846    27786    27854    28170    28653 
