Origin Time       2011/03/11 14:46:00
Lat.              38.103
Long.             142.860
Depth. (km)       24
Mag.              9.0
Station Code      NGN020
Station Lat.      35.8278
Station Long.     137.9548
Station Height(m) 633
Record Time       2011/03/11 14:47:58
Sampling Freq(Hz) 100Hz
Duration Time(s)  300
Dir.              E-W
Scale Factor      3920(gal)/6182761
Max. Acc. (gal)   26.336
Last Correction   2011/03/11 14:47:43
Memo.             
[...]
     498     1017     1357     1346     1105      877      770      804 
    1060     1653     2623     3795     4723     4965     4363     2997 
    1042    -1326    -3963    -6677    -9218   -11455   -13465   -15258 
  -16614   -17306   -17238   -16505   -15384   -14138   -12989   -12163 
  -11729   -11661   -12057   -12982   -14275   -15720   -17136   -18331 
  -19179   -19652   -19737   -19504   -19164   -18980   -19091   -19500 
  -20098   -20677   -21071   -21244   -21108   -20488   -19410   -18132 
  -16926   -15939   -15158   -14477   -13764   -12913   -11917   -10789 
   -9567    -8490    -7883    -7783    -7856    -7741    -7292    -6551 
   -5735    -5104    -4780    -4799    -5103    -5453    -5633    -5581 
   -5292    -4826    -4318    -3818    -3183    -2250    -1160     -302 
      69      -91     -790    -2007    -3581    -5099    -6075    -6368 
   -6249    -6104    -6112    -6288    -6649    -7149    -7752    -8434 
   -9055    -9548    -9995   -10340   -10316    -9640    -8335    -6911 
   -5885    -5377    -5312    -5670    -6473    -7480    -8315    -8939 
   -9418    -9744   -10080   -10524   -10836   -10795   -10442    -9916 
   -9289    -8592    -7988    -7727    -7815    -8098    -8407    -8545 
   -8540    -8608    -8752    -8789    -8576    -8077    -7393    -6688 
   -5983    -5246    -4761    -4889    -5553    -6415    -7274    -8076 
   -8852    -9653   -10443   -11198   -12010   -12894   -13737   -14463 
  -15019   -15386   -15595   -15642   -15427   -14818   -13877   -12735 
  -11349    -9809    -8387    -7291    -6666    -6508    -6655    -7005 
   -7471    -7910    -8228    -8354    -8257    -7993    -7578    -7068 
   -6549    -5947    -5321    -4943    -4823    -4820    -5023    -5498 
   -6076    -6595    -7051    -7509    -8043    -8691    -9429   -10208 
  -11082   -12257   -13760   -15273   -16564   -17674   -18570   -19052 
  -19015   -18546   -17838   -17148   -16709   -16505   -16300   -16111 
  -16181   -16468   -16777   -17041   -17113   -16874   -16404   -15721 
  -14805   -13735   -12679   -11866   -11333   -10964   -10743   -10595 
  -10419   -10254   -10005    -9465    -8604    -7481    -6117    -4510 
   -2774    -1238     -160      378      266     -398    -1162    -1717 
   -2086    -2282    -2189    -1804    -1299     -716      -95      279 
     223      -74     -333     -479     -509     -363     -152      -83 
    -136     -221     -338     -431     -498     -747    -1281    -1995 
   -2811    -3636    -4272    -4550    -4399    -3819    -2972    -2231 
   -1876    -1913    -2306    -3017    -3814    -4440    -4846    -5117 
   -5319    -5400    -5278    -4906    -4257    -3449    -2680    -2088 
   -1794    -1918    -2463    -3312    -4344    -5380    -6296    -7135 
   -7908    -8663    -9622   -10956   -12576   -14252   -15818   -17170 
  -18203   -18902   -19382   -19749   -20058   -20409   -20812   -21041 
  -21027   -21107   -21496   -22037   -22592   -23109   -23509   -23722 
  -23538   -22730   -21499   -20364   -19618   -19183   -18967   -19003 
  -19142   -19161   -19110   -19031   -18760   -18303   -17843   -17390 
  -16847   -16315   -15948   -15674   -15315   -14811   -14294   -13956 
  -13732   -13351   -12775   -12184   -11539   -10624    -9516    -8578 
   -7894    -7200    -6434    -5766    -5211    -4845    -4957    -5626 
   -6787    -8473   -10507   -12480   -14087   -15147   -15651   -15806 
  -15742   -15387   -14713   -13933   -13314   -12958   -12853   -12881 
  -12866   -12812   -12891   -13110   -13317   -13575   -14127   -15040 
  -16174   -17285   -18154   -18741   -19063   -19086   -18906   -18689 
  -18399   -17989   -17591   -17350   -17420   -17934   -18744   -19435 
  -19739   -19677   -19301   -18738   -18272   -18002   -17848   -17945 
  -18544   -19579   -20678   -21645   -22669   -23926   -25354   -26859 
  -28312   -29529   -30479   -31190   -31585   -31672   -31631   -31661 
  -31814   -31999   -32070   -31889   -31536   -31270   -31234   -31437 
  -31815   -32281   -32802   -33361   -33915   -34461   -34984   -35414 
  -35641   -35456   -34636   -33190   -31352   -29393   -27540   -25851 
  -24135   -22231   -20118   -17779   -15309   -12906   -10689    -8738 
   -7175    -6023    -5126    -4323    -3610    -3027    -2529    -2049 
   -1569    -1043     -454      121      665     1310     2079     2683 
    2852     2615     2057     1234      314     -525    -1173    -1570 
   -1745    -1723    -1431     -858      -98      755     1505     1836 
    1509      529     -793    -2029    -2949    -3587    -4019    -4123 
   -3666    -2690    -1557     -565      274     1045     1661     1921 
    1812     1578     1377     1145      811      385      -43     -354 
    -523     -634     -841    -1264    -1927    -2891    -4225    -5803 
   -7360    -8621    -9378    -9662    -9708    -9587    -9213    -8627 
   -7930    -7102    -6106    -5068    -4274    -3909    -3874    -3923 
   -3905    -3767    -3497    -3114    -2683    -2347    -2201    -2239 
   -2491    -2950    -3427    -3729    -3843    -3877    -3906    -3922 
   -3913    -3883    -3910    -4102    -4385    -4605    -4797    -5069 
   -5422    -5886    -6649    -7801    -9084   -10198   -11118   -11851 
  -12327   -12695   -13229   -13842   -14229   -14409   -14582   -14772 
  -15062   -15620   -16220   -16481   -16399   -16108   -15600   -14890 
  -14035   -13059   -12044   -11182   -10582   -10124    -9733    -9543 
   -9580    -9703    -9931   -10358   -10898   -11412   -11910   -12489 
  -13130   -13717   -14210   -14568   -14685   -14529   -14143   -13652 
  -13242   -12975   -12893   -13114   -13659   -14416   -15176   -15692 
  -15857   -15729   -15457   -15199   -14928   -14517   -13981   -13313 
  -12416   -11317   -10105    -8900    -7998    -7657    -7872    -8495 
   -9431   -10658   -12039   -13356   -14522   -15477   -16107   -16326 
  -16023   -15122   -13736   -12157   -10729    -9709    -9207    -9126 
   -9175    -9069    -8658    -7874    -6739    -5398    -4031    -2745 
   -1601     -625      245     1103     1974     2831     3586     4074 
    4150     3843     3425     3210     3304     3635     3991     4110 
    3902     3417     2734     2022     1470     1130      945      795 
     481     -186    -1261    -2689    -4340    -6035    -7711    -9522 
  -11662   -14187   -16945   -19562   -21671   -23072   -23628   -23421 
  -22927   -22609   -22579   -22854   -23398   -23900   -24093   -24087 
  -24058   -23997   -23793   -23275   -22296   -20862   -19114   -17284 
  -15599   -14177   -13063   -12307   -11936   -11890   -12101   -12602 
  -13457   -14525   -15453   -16080   -16408   -16266   -15524   -14223 
  -12378   -10132    -7873    -5954    -4493    -3452    -2795    -2525 
   -2638    -3068    -3635    -4204    -4855    -5731    -6729    -7556 
   -8133    -8553    -8763    -8657    -8278    -7787    -7397    -7247 
   -7315    -7452    -7592    -7864    -8272    -8598    -8743    -8738 
   -8515    -8073    -7694    -7604    -7701    -7810    -7851    -7821 
   -7795    -7885    -8180    -8733    -9596   -10762   -12087   -13435 
  -14754   -15836   -16289   -15973   -15105   -13870   -12416   -11012 
   -9788    -8646    -7602    -6768    -6120    -5602    -5227    -5112 
   -5434    -6189    -7229    -8463    -9838   -11363   -13037   -14744 
  -16346   -17750   -18849   -19514   -19682   -19374   -18778   -18194 
  -17625   -16785   -15472   -13708   -11711    -9751    -8040    -6685 
   -5775    -5510    -5974    -7019    -8483   -10352   -12643   -15085 
  -17230   -18823   -19785   -20202   -20404   -20726   -21240   -21826 
  -22384   -22892   -23349   -23740   -24059   -24302   -24476   -24608 
  -24608   -24232   -23348   -22021   -20389   -18598   -16788   -15112 
  -13674   -12454   -11395   -10543    -9917    -9464    -9290    -9551 
  -10245   -11263   -12391   -13361   -13946   -13965   -13418   -12519 
  -11459   -10259    -8937    -7603    -6371    -5374    -4685    -4269 
   -4055    -3899    -3674    -3356    -2930    -2422    -1835    -1137 
    -358      385      856      791      110    -1061    -2428    -3622 
   -4451    -5017    -5567    -6339    -7517    -9170   -11193   -13419 
  -15688   -17771   -19532   -21126   -22713   -24210   -25464   -26331 
  -26667   -26434   -25740   -24715   -23414   -21877   -20176   -18336 
  -16343   -14301   -12396   -10739    -9424    -8482    -7744    -7035 
   -6369    -5868    -5563    -5364    -5263    -5333    -5656    -6291 
   -7180    -8219    -9410   -10784   -12244   -13588   -14718   -15616 
  -16144   -16154   -15656   -14752   -13644   -12710   -12309   -12585 
  -13520   -14908   -16398   -17637   -18210   -17825   -16614   -14990 
  -13261   -11514    -9832    -8493    -7762    -7643    -8014    -8755 
   -9688   -10651   -11624   -12595   -13407   -13881   -13909   -13451 
  -12615   -11634   -10669    -9715    -8708    -7566    -6128    -4261 
   -2047      207     2078     3175     3361     2873     2079     1276 
     671      293       47     -177     -423     -569     -461      -87 
     444      879      914      490     -271    -1316    -2547    -3711 
   -4606    -5174    -5427    -5417    -5290    -5319    -5723    -6456 
   -7330    -8189    -8874    -9252    -9300    -9111    -8938    -9008 
   -9212    -9350    -9445    -9583    -9802   -10047   -10120    -9889 
   -9398    -8692    -7857    -7205    -7032    -7401    -8263    -9544 
  -11114   -12830   -14586   -16294   -17875   -19295   -20514   -21524 
  -22432   -23333   -24183   -24935   -25584   -26100   -26513   -26918 
  -27305   -27565   -27692   -27817   -28022   -28289   -28585   -28839 
  -28998   -29185   -29556   -30039   -30460   -30833   -31226   -31592 
  -31882   -32028   -31932   -31554   -30844   -29732   -28202   -26382 
  -24563   -22912   -21403   -20106   -19205   -18841   -19098   -19910 
  -21065   -22407   -23820   -25129   -26128   -26607   -26477   -25922 
  -25202   -24400   -23470   -22459   -21543   -20898   -20538   -20276 
  -19900   -19373   -18774   -18130   -17505   -17062   -16869   -16908 
  -17225   -17751   -18240   -18505   -18432   -17854   -16723   -15221 
  -13638   -12318   -11494   -11137   -11025   -10851   -10392    -9598 
   -8452    -6999    -5406    -3723    -1866      197     2535     5161 
    7814    10192    12201    13844    15138    16204    17182    18089 
   18846    19315    19318    18769    17742    16490    15311    14315 
   13548    13112    13048    13335    13880    14484    14972    15159 
   14802    13820    12315    10399     8211     5947     3840     2141 
    1032      561      689     1247     1961     2671     3322     3779 
    3932     3767     3339     2811     2347     1969     1603     1190 
     674      -43     -969    -2021    -3138    -4252    -5258    -6017 
   -6428    -6454    -6103    -5591    -5240    -5113    -5084    -5092 
   -5110    -5123    -5155    -5176    -5092    -4823    -4357    -3732 
   -3028    -2425    -2077    -1983    -2166    -2635    -3180    -3669 
   -4143    -4524    -4688    -4648    -4530    -4366    -4017    -3493 
   -2862    -2074    -1295     -861     -827    -1062    -1530    -2191 
   -2901    -3560    -4142    -4670    -5246    -6008    -7009    -8118 
   -9139   -10013   -10738   -11333   -11904   -12521   -13181   -13889 
  -14766   -15965   -17407   -18933   -20485   -21965   -23244   -24199 
  -24721   -24802   -24571   -24254   -24005   -23836   -23787   -23970 
  -24480   -25203   -25837   -26313   -26701   -26966   -27286   -27836 
  -28387   -28727   -28882   -28884   -28855   -28953   -29112   -29192 
  -29146   -28858   -28203   -27337   -26547   -25925   -25400   -24912 
  -24370   -23577   -22357   -20710   -18792   -16852   -15168   -13902 
  -13102   -12773   -12759   -12811   -12823   -12733   -12409   -11766 
  -10860    -9847    -8838    -7835    -6806    -5698    -4480    -3216 
   -1932     -567      824     2073     3121     3946     4351     4165 
    3376     1933     -151    -2774    -5931    -9466   -13094   -16684 
  -20130   -23162   -25518   -27353   -29013   -30506   -31784   -32965 
  -34097   -35154   -36100   -36945   -37765   -38542   -39182   -39611 
  -39779   -39767   -39686   -39622   -39728   -40088   -40722   -41690 
  -42933   -44265   -45564   -46727   -47595   -48027   -47943   -47365 
  -46297   -44675   -42578   -40120   -37320   -34289   -31234   -28256 
  -25357   -22542   -19797   -17118   -14570   -12236   -10093    -8039 
   -5997    -3918    -1764      464     2845     5502     8317    10956 
   13070    14445    15157    15342    15051    14453    13657    12550 
   11043     9189     7156     5138     3277     1661      246    -1117 
   -2531    -3983    -5438    -6880    -8281    -9582   -10714   -11711 
  -12647   -13446   -14096   -14755   -15427   -16000   -16410   -16645 
  -16778   -16888   -17021   -17216   -17523   -17979   -18539   -19092 
  -19553   -19813   -19724   -19225   -18351   -17167   -15817   -14505 
  -13376   -12411   -11477   -10557    -9782    -9294    -9211    -9553 
  -10187   -10975   -11944   -13194   -14726   -16544   -18604   -20644 
  -22477   -24070   -25302   -26123   -26604   -26638   -26040   -24960 
  -23759   -22608   -21543   -20631   -19870   -19095   -18067   -16680 
  -14944   -12810   -10295    -7616    -4975    -2400      140     2696 
    5276     7806    10265    12619    14746    16608    18244    19727 
   21195    22721    24264    25866    27552    29143    30376    31055 
   31117    30643    29736    28582    27508    26706    26142    25792 
   25679    25755    25925    26149    26454    26854    27295    27648 
   27770    27625    27221    26565    25728    24784    23753    22604 
   21274    19715    17920    15931    13767    11414     8939     6415 
    3800      937    -2347    -6032    -9976   -14121   -18444   -22849 
  -27136   -31077   -34445   -37054   -38908   -40157   -40928   -41319 
  -41427   -41306   -40972   -40412   -39579   -38489   -37239   -35892 
  -34517   -33190   -31951   -30863   -30007   -29417   -29060   -28897 
  -28894   -28910   -28719   -28261   -27676   -27030   -26267   -25361 
  -24342   -23351   -22488   -21624   -20596   -19378   -18041   -16677 
  -15332   -14084   -12999   -12044   -11220   -10583   -10155    -9955 
  -10012   -10300   -10774   -11359   -11975   -12596   -13115   -13419 
  -13548   -13515   -13345   -13185   -13074   -12951   -12847   -12804 
  -12852   -13015   -13224   -13502   -14032   -14875   -16021   -17519 
  -19303   -21202   -23086   -24824   -26288   -27503   -28655   -29855 
  -31015   -32066   -33106   -34162   -35089   -35757   -36125   -36280 
  -36390   -36509   -36582   -36616   -36632   -36560   -36313   -35855 
  -35191   -34374   -33502   -32663   -31874   -31075   -30183   -29183 
  -28188   -27309   -26546   -25895   -25384   -25023   -24763   -24551 
  -24366   -24125   -23744   -23158   -22249   -21012   -19587   -18118 
  -16778   -15690   -14785   -13945   -13145   -12379   -11689   -11125 
  -10639   -10184    -9706    -9153    -8600    -8097    -7610    -7198 
   -6960    -6910    -7003    -7190    -7391    -7545    -7659    -7714 
   -7596    -7163    -6305    -4946    -3064     -815     1546     3890 
    6122     8092     9741    11121    12282    13266    14123    14882 
   15558    16141    16588    16895    17096    17239    17370    17492 
   17593    17641    17548    17221    16674    16016    15331    14775 
   14537    14575    14705    14776    14657    14267    13574    12560 
   11226     9564     7614     5449     3118      735    -1497    -3450 
   -5091    -6316    -7103    -7699    -8394    -9423   -10879   -12504 
  -13956   -15081   -15781   -15980   -15740   -15280   -14856   -14601 
  -14537   -14707   -15126   -15739   -16527   -17369   -18034   -18467 
  -18716   -18823   -18885   -18961   -19032   -19043   -18942   -18688 
  -18257   -17695   -17062   -16366   -15590   -14643   -13461   -12089 
  -10603    -9162    -7919    -6886    -6067    -5475    -5043    -4680 
   -4334    -4023    -3866    -4018    -4550    -5420    -6492    -7575 
   -8534    -9240    -9562    -9599    -9613    -9762   -10093   -10587 
  -11122   -11561   -11852   -11985   -11978   -11915   -11834   -11688 
  -11452   -11188   -11022   -10999   -11106   -11365   -11674   -11869 
  -11952   -12013   -12102   -12228   -12370   -12509   -12702   -13058 
  -13585   -14188   -14777   -15299   -15658   -15650   -15141   -14230 
  -13063   -11782   -10635    -9784    -9256    -9104    -9240    -9454 
   -9696    -9973   -10220   -10392   -10547   -10754   -10932   -11026 
  -11177   -11507   -11950   -12348   -12642   -12875   -13062   -13179 
  -13250   -13400   -13739   -14236   -14842   -15531   -16231   -16851 
  -17296   -17568   -17832   -18240   -18795   -19442   -20135   -20781 
  -21281   -21618   -21792   -21824   -21808   -21727   -21479   -21090 
  -20616   -20054   -19438   -18856   -18350   -17888   -17454   -16987 
  -16341   -15445   -14319   -13048   -11764   -10545    -9424    -8460 
   -7734    -7289    -7027    -6781    -6506    -6191    -5705    -4947 
   -3995    -3001    -2081    -1285     -698     -391     -341     -559 
   -1050    -1684    -2276    -2688    -2851    -2781    -2529    -2131 
   -1645    -1174     -827     -678     -758    -1073    -1623    -2315 
   -2978    -3559    -4079    -4529    -4977    -5467    -5921    -6309 
   -6728    -7270    -7965    -8809    -9752   -10684   -11523   -12216 
  -12730   -13080   -13386   -13879   -14658   -15582   -16533   -17522 
  -18604   -19815   -21112   -22363   -23486   -24531   -25533   -26408 
  -27045   -27422   -27526   -27374   -27120   -26909   -26768   -26767 
  -27028   -27551   -28213   -28801   -29028   -28763   -28142   -27326 
  -26331   -25232   -24213   -23397   -22794   -22338   -21919   -21448 
  -20934   -20483   -20118   -19774   -19443   -19137   -18807   -18502 
  -18374   -18382   -18359   -18322   -18284   -18068   -17513   -16654 
  -15621   -14377   -12760   -10782    -8633    -6442    -4255    -2085 
      43     1987     3615     5015     6295     7439     8419     9190 
    9689     9943    10080    10274    10590    10928    11159    11180 
   10933    10500     9958     9282     8566     7995     7591     7299 
    7074     6777     6280     5609     4837     4015     3212     2415 
    1446      119    -1622    -3729    -6064    -8420   -10644   -12585 
  -14070   -15071   -15764   -16318   -16705   -16822   -16633   -16202 
  -15726   -15387   -15278   -15461   -15896   -16470   -17086   -17681 
  -18163   -18446   -18606   -18740   -18797   -18704   -18420   -17933 
  -17276   -16555   -15901   -15343   -14849   -14420   -14017   -13466 
  -12627   -11551   -10309    -8944    -7532    -6088    -4604    -3106 
   -1651     -311      897     1933     2701     3227     3554     3700 
    3793     3883     3890     3800     3599     3193     2533     1627 
     477     -909    -2425    -3882    -5162    -6269    -7256    -8198 
   -9190   -10254   -11303   -12292   -13220   -14116   -15066   -16077 
  -17085   -18035   -18820   -19338   -19528   -19381   -18975   -18382 
  -17673   -16983   -16366   -15858   -15551   -15432   -15433   -15492 
  -15503   -15365   -15019   -14462   -13760   -12910   -11891   -10848 
   -9917    -9081    -8366    -7810    -7381    -7026    -6653    -6175 
