Origin Time       2011/03/11 14:46:00
Lat.              38.103
Long.             142.860
Depth. (km)       24
Mag.              9.0
Station Code      NGN011
Station Lat.      36.2718
Station Long.     138.2584
Station Height(m) 630
Record Time       2011/03/11 14:48:19
Sampling Freq(Hz) 100Hz
Duration Time(s)  199
Dir.              E-W
Scale Factor      3920(gal)/6182761
Max. Acc. (gal)   8.264
Last Correction   2011/03/11 14:48:04
Memo.             
[...]
    -430    -1019    -1235    -1016     -652     -350       -8      514 
    1023     1118      747      343      356      735      939      701 
     456      670     1260     1774     1971     2238     3113     4406 
    5410     5916     6300     6666     6545     5643     4378     3341 
    2629     1924     1038      234     -189     -548    -1307    -2221 
   -2786    -2920    -2741    -2468    -2442    -2793    -3336    -3821 
   -4047    -3951    -3699    -3457    -3232    -3043    -2821    -2324 
   -1577     -864     -223      323      516      368      175       77 
      32      -68     -300     -543     -565     -346     -200     -343 
    -477     -267       64      169      237      630     1159     1275 
     877      472      544     1087     1734     2198     2492     2730 
    3041     3493     3786     3644     3403     3375     3278     2927 
    2596     2520     2708     3060     3481     3960     4299     4175 
    3728     3413     3376     3390     3147     2674     2348     2218 
    2015     1802     1797     1975     2242     2452     2459     2421 
    2578     2865     3135     3495     4077     4769     5346     5579 
    5432     5201     5073     4924     4706     4533     4471     4598 
    5015     5585     5986     6079     5985     5841     5532     4780 
    3565     2150      695     -739    -2026    -3099    -3967    -4659 
   -5309    -5977    -6463    -6608    -6526    -6442    -6340    -5701 
   -4304    -3007    -2648    -2896    -2993    -2922    -3304    -4342 
   -5404    -5949    -6160    -6273    -6040    -5314    -4512    -4077 
   -3961    -3893    -3725    -3426    -3063    -2750    -2551    -2416 
   -2354    -2509    -2841    -3182    -3490    -3772    -4045    -4177 
   -3889    -3260    -2729    -2552    -2623    -2720    -2776    -2830 
   -2763    -2364    -1657     -965     -689     -992    -1579    -2020 
   -2283    -2609    -3036    -3355    -3350    -2963    -2381    -1939 
   -1929    -2404    -2977    -3149    -3032    -3172    -3673    -4105 
   -4035    -3452    -2874    -2761    -2855    -2617    -1968    -1119 
    -196      623     1187     1611     2084     2777     3766     4776 
    5450     5728     5718     5582     5426     5237     4959     4498 
    3854     3278     2961     2654     2063     1311      566     -277 
   -1248    -2060    -2564    -3020    -3507    -3789    -3771    -3604 
   -3701    -4234    -4580    -4300    -3929    -3951    -4006    -3675 
   -3137    -2559    -1851    -1256    -1006     -847     -653     -485 
    -217      112      304      392      403      237        7     -122 
    -323     -700     -999    -1086    -1168    -1582    -2488    -3520 
   -3934    -3413    -2793    -2971    -3352    -3267    -3318    -3799 
   -4289    -4479    -4202    -3811    -3685    -3598    -3539    -3569 
   -3453    -3236    -2996    -2866    -3126    -3382    -3164    -2752 
   -2327    -1799    -1376    -1332    -1544    -1566    -1197     -617 
     -14      495      852     1008      808      303     -196     -673 
   -1200    -1378     -975     -445     -226     -401     -812     -915 
    -382      261      317     -284    -1182    -1993    -2504    -2788 
   -3035    -3164    -2941    -2569    -2454    -2499    -2487    -2569 
   -2653    -2326    -1584     -712      268     1333     2173     2677 
    3152     3778     4294     4400     4087     3504     2864     2390 
    2152     2188     2538     3115     3786     4349     4605     4523 
    4133     3509     2766     1876      932      343      303      620 
    1031     1172     1023     1274     2100     2658     2580     2290 
    1996     1531      679     -487    -1436    -1802    -1896    -2126 
   -2363    -2423    -2602    -3118    -3743    -4361    -5055    -5741 
   -6270    -6330    -5671    -4836    -4400    -4038    -3344    -2273 
   -1051     -362     -463     -859    -1167    -1036     -296      690 
    1654     2504     3036     3054     2612     2058     1521     1055 
    1067     1671     2400     2729     2476     2013     1859     2048 
    2110     1525      484     -299     -518     -354     -243     -326 
    -220      -51     -243     -476     -409     -181       74       78 
    -341     -873    -1361    -1866    -2234    -2353    -2332    -2331 
   -2237    -1787    -1196     -709     -318     -528    -1550    -2636 
   -3473    -4156    -4350    -4154    -4086    -4031    -3606    -2968 
   -2704    -3145    -3942    -4530    -4771    -4749    -4307    -3412 
   -2700    -2738    -3094    -3143    -3139    -3412    -3762    -4208 
   -4685    -4817    -4617    -4234    -3861    -3646    -3310    -3021 
   -3350    -4009    -4460    -4594    -4176    -3147    -2035    -1492 
   -1690    -2215    -2903    -4034    -5409    -6545    -7292    -7597 
   -7739    -8144    -8340    -7690    -6645    -5864    -5141    -4038 
   -2799    -1886    -1377    -1213    -1078     -614        2      731 
    1749     2557     2644     2049      860     -419    -1166    -1777 
   -2871    -4046    -4532    -4192    -3355    -2496    -1947    -1418 
    -544      460     1275     1836     2342     2950     3232     2747 
    1780      688     -551    -1805    -2720    -3143    -3204    -3069 
   -2770    -2407    -2263    -2513    -3027    -3545    -4012    -4655 
   -5554    -6476    -7159    -7435    -7255    -6813    -6500    -6657 
   -7235    -7570    -6882    -5228    -3409    -1828     -154     1752 
    3449     4477     4817     5021     5464     5411     4163     2414 
     990     -376    -2183    -4173    -5386    -5181    -4151    -3422 
   -3330    -3361    -3082    -2694    -2634    -3050    -3783    -4443 
   -4666    -4402    -3732    -2913    -2490    -2670    -3011    -3037 
   -2784    -2750    -3290    -4231    -5188    -5961    -6496    -6664 
   -6373    -5920    -5747    -5886    -6107    -6321    -6540    -6741 
   -6916    -7144    -7412    -7588    -7821    -8433    -9287    -9805 
   -9536    -8525    -7275    -6360    -5974    -5786    -5345    -4710 
   -4272    -4106    -4030    -3840    -3321    -2438    -1283      100 
    1676     3266     4410     4800     4776     4699     4388     3697 
    2792     1767      760       93     -139      -97      -66     -489 
   -1344    -1864    -1599     -864      -97      446      720      858 
     891      665      163     -387     -976    -1908    -3207    -4488 
   -5533    -6430    -7082    -7204    -6671    -5679    -4815    -4655 
   -5019    -4996    -4094    -2867    -1901    -1046      -13     1119 
    2051     2563     2810     3288     4165     4962     5176     4881 
    4574     4511     4515     4449     4440     4711     5251     5725 
    5928     6005     6086     6148     6300     6656     6938     6759 
    6225     5595     4711     3496     2401     1906     2152     2970 
    3932     4577     4661     4142     3173     2099     1180      494 
     217      617     1547     2368     2752     2972     3248     3522 
    3627     3312     2597     1956     1605     1105      117    -1143 
   -2285    -2883    -2629    -1793     -861      136     1272     2157 
    2306     1722      915      502      646      902      858      704 
     882     1384     1847     2084     2114     2076     2051     1815 
    1293      936     1017     1029      396     -531     -846     -222 
     827     1492     1349      808      482      301       72      171 
     861     1740     2201     1962     1219      431       68      489 
    1503     2387     2746     2626     2068     1242      400     -452 
   -1343    -2162    -2824    -3278    -3491    -3519    -3400    -3056 
   -2504    -2041    -2035    -2571    -3425    -4372    -5309    -6056 
   -6443    -6671    -7113    -7855    -8674    -9257    -9233    -8351 
   -6814    -5023    -3161    -1328      245     1289     1763     1933 
    2021     1806     1002      -39     -646     -693     -594     -587 
    -519     -308     -116     -114     -253     -299     -113      246 
     700     1356     2348     3562     4811     5958     6912     7668 
    8013     7567     6471     5540     5529     6297     6925     6820 
    6247     5565     4708     3598     2478     1621      843     -246 
   -1396    -1874    -1532    -1078    -1251    -2080    -3047    -3754 
   -4193    -4464    -4530    -4409    -4382    -4742    -5587    -6885 
   -8180    -8624    -7978    -7001    -6398    -6003    -5375    -4655 
   -4302    -4342    -4368    -4155    -3999    -4330    -5190    -6280 
   -7370    -8445    -9459   -10137   -10178    -9586    -8753    -8154 
   -7785    -7173    -6094    -4883    -3879    -2995    -1982     -807 
     239      740      603      125     -455    -1132    -1926    -2605 
   -2682    -1896     -597      582     1389     2104     3010     3996 
    4750     5046     4706     3738     2705     2326     2497     2315 
    1261     -360    -2075    -3459    -4172    -4219    -3842    -3465 
   -3496    -3854    -4135    -4003    -3401    -2751    -2617    -3153 
   -3970    -4286    -3641    -2548    -1770    -1388    -1055     -670 
    -561     -921    -1318    -1113     -139     1124     2031     2378 
    2387     2343     2421     2534     2300     1411      -56    -1739 
   -3109    -3739    -3763    -3527    -2974    -2030     -969      -47 
     738     1487     2059     1999     1104     -210    -1417    -2400 
   -3275    -4103    -4797    -5177    -5254    -5172    -4906    -4395 
   -3596    -2506    -1550    -1252    -1453    -1699    -1920    -2093 
   -2094    -2130    -2704    -4063    -5876    -7540    -8526    -8500 
   -7595    -6309    -4976    -3629    -2254     -901      346     1409 
    2292     3101     3856     4365     4382     3807     2804     1691 
     705      149      433     1592     3154     4562     5629     6650 
    7841     8909     9344     8832     7588     6305     5574     5443 
    5418     4957     3956     2698     1485      306     -949    -2072 
   -2745    -2943    -2826    -2418    -1495       60     1940     3676 
    5023     6052     6872     7305     7225     6949     6741     6541 
    6337     6017     5326     4508     4148     4306     4561     4563 
    4212     3588     2756     1713      610     -334    -1171    -2049 
   -2987    -3977    -4990    -6087    -7556    -9419   -10995   -11424 
  -10713    -9753    -9145    -8625    -7776    -6840    -6391    -6318 
   -6015    -5313    -4493    -3852    -3316    -2426    -1161     -249 
    -125     -416     -459      182     1283     2194     2629     2533 
    1734      254    -1616    -3528    -5186    -6481    -7242    -7064 
   -6040    -5035    -4732    -5022    -5339    -5289    -5066    -4993 
   -4800    -4144    -3415    -3254    -3701    -4094    -3638    -2397 
   -1340     -962     -839     -695     -643     -737    -1178    -2133 
   -3094    -3289    -2618    -1696    -1035     -621     -376     -452 
    -889    -1473    -1914    -1998    -1856    -1927    -2299    -2464 
   -2239    -2231    -2792    -3371    -3279    -2528    -1868    -1977 
   -2644    -3088    -2926    -2529    -2452    -2991    -4263    -5980 
   -7481    -8332    -8415    -7808    -6966    -6497    -6694    -7415 
   -8230    -8658    -8470    -7858    -7149    -6415    -5762    -5594 
   -6024    -6522    -6447    -5656    -4714    -4354    -4584    -4839 
   -4845    -4742    -4639    -4534    -4542    -4737    -4864    -4511 
   -3356    -1348     1186     3624     5224     5471     4306     2091 
    -361    -2285    -3836    -5487    -6794    -7082    -6617    -6178 
   -6235    -6515    -6178    -5131    -4405    -4529    -4864    -4702 
   -3975    -3179    -2675    -2099    -1266     -959    -1792    -3374 
   -4996    -6157    -6677    -6713    -6277    -5123    -3569    -2443 
   -1857    -1128      215     2099     4138     6019     7792     9472 
   10707    11175    10747     9336     7147     4828     3033     1986 
    1461     1152     1036     1191     1466     1760     2176     2646 
    2942     3092     3414     3963     4302     4208     3904     3588 
    3388     3086     2035      134    -1969    -3912    -5661    -6839 
   -7160    -6753    -5782    -4729    -4185    -3957    -3651    -3466 
   -3769    -4616    -5591    -6126    -6324    -6895    -7998    -8914 
   -9210    -9262    -9406    -9585    -9724    -9810    -9887   -10044 
  -10161    -9955    -9418    -8693    -7639    -6142    -4531    -3294 
   -2602    -2159    -1562     -788      -61      436      556      292 
    -178     -671    -1154    -1765    -2459    -2826    -2657    -2332 
   -2407    -3113    -4170    -5101    -5813    -6460    -6922    -7074 
   -7114    -7167    -7137    -7062    -7159    -7540    -7884    -7605 
   -6737    -5970    -5515    -4922    -3978    -2968    -2307    -2191 
   -2346    -2251    -1731     -990     -109     1087     2825     5015 
    6880     7624     7534     7426     7445     7406     7481     7763 
    7972     7910     7657     7462     7639     8170     8672     8973 
    9035     8671     7961     7079     5765     3888     1820       94 
    -631       43     1755     3593     4493     4084     3220     2703 
    2288     1599      848      399      336      539      858     1006 
     901      954     1298     1412      691    -1070    -3417    -5516 
   -6841    -7472    -7668    -7134    -5640    -4133    -3533    -3283 
   -2572    -1521     -505      316      743      676      314     -134 
    -622    -1026    -1361    -2044    -3390    -5285    -7420    -9471 
  -11274   -12714   -13505   -13454   -12743   -11698   -10463    -9045 
   -7668    -6777    -6435    -6008    -4961    -3728    -3045    -2768 
   -2286    -1478     -641     -158     -207     -505     -942    -1897 
   -3394    -4861    -5808    -6083    -5772    -5121    -4281    -3150 
   -1728     -310      709     1060      930      729      370     -470 
   -1582    -2314    -2179    -1357     -436      430     1465     2521 
    3073     2888     2329     1992     2052     2079     1816     1549 
    1236      437     -716    -1575    -1696    -1122     -494     -494 
   -1002    -1710    -2910    -4779    -6878    -8686    -9822   -10071 
   -9683    -9233    -9021    -8781    -8106    -7010    -5634    -3934 
   -1913      329     2360     3389     3220     2496     1668      709 
    -406    -1767    -3383    -4850    -5856    -6463    -6607    -6145 
   -5339    -4718    -4401    -4030    -3508    -3072    -2786    -2617 
   -2638    -2752    -2596    -2001    -1225     -570      -14      738 
    1943     3375     4398     4658     4207     3088     1397     -440 
   -1884    -2681    -2893    -2864    -3120    -3785    -4360    -4460 
   -4258    -4189    -4433    -4821    -5193    -5329    -4996    -4326 
   -3441    -2276     -904      673     2351     3523     3926     4163 
    4643     5069     5104     4632     3734     2799     2090     1412 
     592     -256    -1048    -1801    -2551    -3351    -3958    -3947 
   -3467    -3120    -3172    -3302    -2982    -2239    -1734    -1791 
   -2077    -2362    -2780    -3373    -3932    -4274    -4407    -4459 
   -4588    -4683    -4430    -3754    -2866    -2094    -1720    -1694 
   -1660    -1216     -234      890     1638     1992     2205     2350 
    2435     2460     2363     2269     2371     2450     2096     1318 
     614      385      383      106     -418     -686     -375      202 
     500      507      580      783      864      631       66     -749 
   -1665    -2409    -2607    -2091    -1028      353     1767     2780 
    3283     3808     4852     6146     6947     6957     6731     7021 
    7886     8626     8693     8522     8822     9405     9590     9269 
    8968     9123     9581     9924    10034    10031     9812     9169 
    8314     7859     8199     8958     9356     9097     8378     7359 
    6119     4814     3612     2534     1514      600     -109     -589 
    -889    -1086    -1264    -1579    -2203    -3049    -3687    -3804 
   -3549    -3115    -2483    -1713    -1002     -412      211      967 
    1667     2182     2750     3666     4829     5626     5433     4468 
    3516     2747     1783      625     -307     -746     -817     -604 
     236     1904     3787     4894     4869     4372     4332     4795 
    4973     4456     3619     2895     2381     1799      772     -494 
   -1516    -2366    -3345    -4400    -5299    -5825    -5856    -5559 
   -5227    -4926    -4597    -4286    -3962    -3436    -2789    -2338 
   -2135    -2082    -2182    -2382    -2421    -2025    -1336     -783 
    -488     -306     -175      -72      121      694     1898     3320 
    4076     3977     3520     2930     2224     1555     1058      719 
     229     -725    -1860    -2532    -2380    -1515     -318      796 
    1743     2850     4294     5761     6846     7359     7234     6594 
    5893     5580     5653     5750     5473     4580     3148     1497 
    -140    -1639    -2899    -4000    -4958    -5549    -5829    -6194 
   -6800    -7389    -7622    -7310    -6606    -5973    -5571    -5056 
   -4150    -2939    -1764    -1025     -755     -568     -366     -573 
   -1347    -2277    -3016    -3491    -3674    -3655    -3637    -3830 
   -4288    -4513    -3941    -2887    -2044    -1612    -1436    -1288 
   -1180    -1540    -2445    -3233    -3555    -3826    -4252    -4461 
   -4149    -3409    -2655    -2207    -1839    -1105      117     1502 
    2528     3128     3758     4665     5602     6237     6344     5718 
    4533     3353     2334     1044     -823    -3095    -5296    -6810 
   -7440    -7794    -8430    -9169    -9634    -9712    -9412    -8777 
   -7897    -6857    -5702    -4470    -3198    -1885     -625      289 
     657      534      136     -260     -561     -915    -1380    -1768 
   -1901    -1902    -1953    -1867    -1363     -596      134      818 
    1491     2078     2674     3469     4404     5161     5352     4894 
    4188     3675     3389     3026     2410     1640      839      214 
      26      353     1088     1947     2781     3848     5234     6405 
    6950     7215     7756     8603     9408     9973    10336    10544 
   10494    10009     9179     8377     7722     6942     5903     4625 
    3050     1364       -5     -957    -1725    -2487    -3307    -4181 
   -5111    -6118    -6937    -7154    -6853    -6588    -6675    -6847 
   -6562    -5542    -4165    -3164    -2631    -2093    -1413     -680 
      60      630      908      969      924      884      872      838 
     744      485       78      -92      269      892     1321     1476 
    1609     1851     1984     1777     1384     1104      961      666 
      15     -762    -1219    -1167     -686        4      583      926 
    1174     1426     1840     2621     3503     3906     3676     3194 
    2816     2616     2519     2304     1900     1663     1818     2080 
    2103     1915     1691     1364      850      343       36        9 
     329      860     1326     1597     1569     1156      504     -321 
   -1430    -2586    -3224    -3149    -2631    -1875     -938       85 
    1105     1970     2430     2350     1883     1333      817      186 
    -761    -1967    -3132    -4136    -5040    -5685    -5821    -5483 
   -4981    -4570    -4261    -3999    -3804    -3805    -4224    -5020 
   -5690    -5830    -5482    -4758    -3681    -2426    -1233     -220 
