Origin Time       2011/03/11 14:46:00
Lat.              38.103
Long.             142.860
Depth. (km)       24
Mag.              9.0
Station Code      NGN025
Station Lat.      35.2807
Station Long.     137.8567
Station Height(m) 400
Record Time       2011/03/11 14:48:04
Sampling Freq(Hz) 100Hz
Duration Time(s)  237
Dir.              U-D
Scale Factor      3920(gal)/6182761
Max. Acc. (gal)   7.978
Last Correction   2011/03/11 14:47:49
Memo.             
[...]
  -23371   -23516   -23475   -23459   -23530   -23571   -23567   -23600 
  -23689   -23772   -23858   -24045   -24343   -24670   -24998   -25265 
  -25352   -25302   -25368   -25725   -26261   -26805   -27343   -27800 
  -28072   -28307   -28703   -29236   -29755   -30166   -30519   -30784 
  -30872   -30850   -30688   -30273   -29779   -29459   -29348   -29329 
  -29277   -29047   -28589   -28123   -27837   -27583   -27209   -26839 
  -26589   -26374   -26142   -25968   -25850   -25772   -25846   -26088 
  -26373   -26662   -26980   -27254   -27308   -27194   -27191   -27418 
  -27803   -28238   -28587   -28776   -28867   -29011   -29182   -29136 
  -28748   -28188   -27670   -27238   -26923   -26788   -26761   -26705 
  -26610   -26554   -26531   -26487   -26504   -26677   -26912   -27084 
  -27218   -27317   -27227   -26942   -26694   -26585   -26512   -26333 
  -26033   -25755   -25577   -25438   -25319   -25227   -25076   -24855 
  -24652   -24398   -24059   -23830   -23737   -23653   -23690   -23927 
  -24092   -23997   -23786   -23594   -23417   -23328   -23321   -23171 
  -22880   -22742   -22753   -22596   -22268   -22005   -21717   -21223 
  -20655   -20125   -19556   -18987   -18652   -18727   -19066   -19346 
  -19510   -19788   -20285   -20838   -21343   -21865   -22402   -22883 
  -23328   -23755   -24108   -24428   -24777   -24959   -24740   -24211 
  -23590   -22954   -22406   -22116   -22046   -21973   -21817   -21647 
  -21429   -21166   -21066   -21209   -21380   -21442   -21490   -21604 
  -21762   -21954   -22163   -22309   -22361   -22385   -22431   -22491 
  -22475   -22327   -22243   -22443   -22785   -22974   -22917   -22698 
  -22445   -22237   -22160   -22291   -22493   -22581   -22527   -22317 
  -21998   -21755   -21635   -21478   -21265   -21058   -20742   -20323 
  -20021   -19884   -19748   -19527   -19251   -18974   -18775   -18673 
  -18592   -18441   -18278   -18318   -18561   -18813   -19047   -19343 
  -19668   -19857   -19756   -19381   -18927   -18617   -18483   -18322 
  -17984   -17562   -17157   -16741   -16390   -16268   -16309   -16316 
  -16358   -16658   -17220   -17892   -18535   -19050   -19466   -19920 
  -20512   -21238   -21944   -22426   -22761   -23175   -23669   -24166 
  -24597   -24778   -24670   -24508   -24468   -24504   -24493   -24443 
  -24493   -24677   -24830   -24899   -25028   -25224   -25369   -25461 
  -25512   -25460   -25315   -25206   -25150   -24958   -24534   -24056 
  -23655   -23269   -22868   -22426   -21938   -21524   -21268   -21149 
  -21098   -21071   -21154   -21440   -21812   -22070   -22251   -22451 
  -22557   -22515   -22445   -22413   -22338   -22212   -22189   -22270 
  -22258   -22104   -21869   -21507   -21034   -20624   -20322   -19944 
  -19399   -18808   -18278   -17815   -17400   -17052   -16854   -16781 
  -16700   -16627   -16686   -16816   -16870   -17017   -17478   -17999 
  -18272   -18407   -18557   -18640   -18702   -18957   -19358   -19746 
  -20249   -21019   -21884   -22627   -23328   -24022   -24505   -24740 
  -24897   -25050   -25239   -25540   -25905   -26222   -26391   -26317 
  -26152   -26214   -26480   -26646   -26640   -26647   -26762   -26858 
  -26830   -26752   -26729   -26773   -26893   -27104   -27256   -27268 
  -27341   -27545   -27745   -27948   -28293   -28786   -29214   -29512 
  -29856   -30269   -30576   -30736   -30855   -30941   -31026   -31289 
  -31761   -32217   -32503   -32749   -33107   -33493   -33815   -34068 
  -34185   -34237   -34432   -34749   -35002   -35196   -35441   -35588 
  -35404   -34979   -34568   -34232   -33831   -33289   -32743   -32363 
  -32126   -31888   -31512   -30962   -30384   -29919   -29536   -29152 
  -28716   -28228   -27771   -27412   -27113   -26854   -26662   -26456 
  -26108   -25601   -25127   -24947   -24978   -24878   -24593   -24288 
  -24021   -23856   -23872   -24005   -24138   -24238   -24318   -24333 
  -24160   -23833   -23480   -23034   -22533   -22185   -21949   -21675 
  -21392   -21198   -21134   -21199   -21346   -21455   -21592   -22012 
  -22618   -23081   -23381   -23620   -23789   -23960   -24198   -24423 
  -24575   -24717   -24934   -25188   -25335   -25293   -25150   -25075 
  -25152   -25336   -25531   -25721   -26025   -26475   -26940   -27347 
  -27676   -27916   -28206   -28688   -29242   -29717   -30189   -30693 
  -31114   -31407   -31644   -31853   -31963   -31959   -31965   -31959 
  -31723   -31326   -31060   -30974   -30891   -30707   -30491   -30235 
  -29844   -29379   -28845   -28195   -27646   -27412   -27351   -27223 
  -27036   -26892   -26742   -26545   -26416   -26401   -26408   -26415 
  -26440   -26486   -26628   -26869   -27129   -27398   -27615   -27727 
  -27856   -27984   -27988   -27956   -27857   -27551   -27260   -27226 
  -27302   -27265   -27040   -26657   -26159   -25602   -25099   -24664 
  -24145   -23477   -22870   -22535   -22287   -21838   -21232   -20640 
  -20111   -19629   -19163   -18662   -18110   -17617   -17299   -17056 
  -16716   -16269   -15821   -15543   -15557   -15770   -16020   -16275 
  -16533   -16734   -16896   -17188   -17729   -18376   -18850   -19106 
  -19385   -19818   -20336   -20858   -21297   -21650   -22019   -22413 
  -22828   -23385   -24089   -24778   -25358   -25880   -26452   -27048 
  -27378   -27286   -27023   -26797   -26545   -26218   -25891   -25607 
  -25321   -25016   -24714   -24442   -24302   -24316   -24339   -24312 
  -24286   -24329   -24402   -24348   -24309   -24544   -24909   -25183 
  -25388   -25594   -25783   -25909   -26022   -26188   -26353   -26435 
  -26418   -26320   -26230   -26189   -26117   -26058   -25982   -25713 
  -25374   -25078   -24709   -24368   -24193   -24053   -23758   -23289 
  -22812   -22309   -21618   -20921   -20395   -19846   -19117   -18309 
  -17604   -17075   -16682   -16415   -16285   -16247   -16389   -16853 
  -17394   -17719   -17959   -18244   -18588   -19064   -19501   -19644 
  -19591   -19467   -19200   -18788   -18345   -17934   -17514   -17098 
  -16803   -16656   -16544   -16399   -16305   -16269   -16234   -16361 
  -16832   -17553   -18306   -19049   -19783   -20263   -20393   -20480 
  -20703   -20900   -20880   -20617   -20247   -19958   -19835   -19786 
  -19651   -19386   -19163   -19165   -19285   -19318   -19359   -19589 
  -19909   -20251   -20751   -21380   -21947   -22375   -22678   -22864 
  -22961   -23025   -23035   -22960   -22955   -23110   -23294   -23442 
  -23552   -23631   -23751   -23880   -23916   -23916   -24047   -24306 
  -24530   -24679   -24817   -25016   -25350   -25763   -26124   -26360 
  -26472   -26493   -26383   -26119   -25871   -25699   -25373   -24844 
  -24373   -24037   -23728   -23419   -23122   -22863   -22658   -22461 
  -22167   -21642   -20897   -20161   -19648   -19352   -19202   -19238 
  -19447   -19636   -19652   -19564   -19520   -19537   -19589   -19775 
  -20192   -20725   -21216   -21691   -22218   -22796   -23411   -23996 
  -24421   -24769   -25244   -25652   -25781   -25875   -26066   -26158 
  -26076   -25950   -25878   -25813   -25655   -25413   -25212   -25186 
  -25325   -25353   -25081   -24778   -24624   -24374   -24102   -24158 
  -24368   -24489   -24698   -25007   -25213   -25328   -25553   -25999 
  -26565   -27164   -27779   -28317   -28817   -29422   -30047   -30508 
  -30790   -30951   -30988   -30853   -30502   -29995   -29446   -28868 
  -28228   -27612   -27147   -26786   -26377   -25889   -25348   -24803 
  -24260   -23589   -22830   -22103   -21343   -20596   -20041   -19722 
  -19506   -19236   -18951   -18725   -18565   -18467   -18281   -17949 
  -17614   -17233   -16776   -16432   -16314   -16382   -16588   -16913 
  -17316   -17718   -18179   -18833   -19499   -19905   -20251   -20749 
  -21186   -21461   -21705   -21923   -22057   -22170   -22353   -22546 
  -22709   -22964   -23319   -23689   -24093   -24499   -24847   -25193 
  -25535   -25768   -25897   -26112   -26511   -26952   -27340   -27749 
  -28223   -28703   -29263   -30040   -30850   -31470   -31974   -32357 
  -32552   -32743   -33065   -33350   -33467   -33602   -33952   -34446 
  -34907   -35232   -35424   -35477   -35336   -35102   -34920   -34768 
  -34597   -34442   -34360   -34360   -34378   -34344   -34220   -33984 
  -33662   -33366   -33164   -33006   -32875   -32763   -32590   -32296 
  -31879   -31348   -30718   -30066   -29503   -29020   -28555   -28131 
  -27712   -27167   -26515   -25867   -25234   -24713   -24391   -24182 
  -24023   -23915   -23885   -23949   -24037   -24198   -24535   -24985 
  -25443   -25840   -26098   -26234   -26308   -26234   -25916   -25422 
  -24761   -23959   -23190   -22450   -21643   -20872   -20224   -19604 
  -19051   -18792   -18824   -18970   -19137   -19243   -19332   -19559 
  -19926   -20342   -20716   -20943   -20981   -20875   -20659   -20401 
  -20269   -20250   -20113   -19873   -19712   -19569   -19366   -19185 
  -19009   -18816   -18748   -18853   -18992   -19065   -19056   -18951 
  -18725   -18392   -18025   -17664   -17300   -16976   -16728   -16587 
  -16606   -16747   -16952   -17254   -17637   -17970   -18164   -18335 
  -18696   -19263   -19937   -20678   -21438   -22202   -22958   -23589 
  -24071   -24531   -24987   -25317   -25484   -25608   -25797   -26015 
  -26164   -26199   -26086   -25880   -25779   -25855   -26077   -26456 
  -26896   -27260   -27553   -27857   -28187   -28493   -28790   -29165 
  -29725   -30431   -31094   -31604   -31905   -32040   -32231   -32573 
  -32938   -33253   -33576   -33897   -34101   -34144   -34003   -33629 
  -33085   -32510   -31962   -31353   -30558   -29619   -28641   -27687 
  -26937   -26543   -26392   -26347   -26446   -26717   -27086   -27451 
  -27770   -28163   -28769   -29485   -30148   -30816   -31569   -32269 
  -32730   -32916   -32871   -32621   -32278   -31915   -31360   -30548 
  -29651   -28705   -27674   -26596   -25499   -24471   -23678   -23169 
  -22844   -22652   -22674   -22931   -23279   -23631   -24041   -24468 
  -24870   -25379   -25942   -26348   -26540   -26570   -26524   -26409 
  -26192   -25922   -25584   -25148   -24737   -24526   -24501   -24504 
  -24489   -24496   -24564   -24764   -25082   -25415   -25757   -26185 
  -26714   -27255   -27760   -28296   -28819   -29148   -29301   -29402 
  -29382   -29161   -28843   -28518   -28101   -27530   -26942   -26445 
  -25930   -25359   -24894   -24576   -24285   -24007   -23846   -23800 
  -23821   -23982   -24305   -24657   -25003   -25458   -25960   -26187 
  -26053   -25893   -25841   -25700   -25468   -25292   -25122   -24781 
  -24238   -23621   -22971   -22323   -21819   -21486   -21277   -21163 
  -21084   -20995   -20863   -20691   -20583   -20596   -20619   -20559 
  -20369   -19963   -19383   -18805   -18347   -18005   -17729   -17555 
  -17518   -17497   -17428   -17444   -17604   -17809   -18030   -18314 
  -18639   -18958   -19293   -19690   -20129   -20539   -20883   -21215 
  -21671   -22269   -22815   -23198   -23478   -23679   -23844   -24026 
  -24213   -24490   -24876   -25221   -25462   -25624   -25717   -25754 
  -25749   -25704   -25579   -25362   -25101   -24813   -24500   -24247 
  -24150   -24147   -24097   -24029   -24082   -24316   -24654   -24977 
  -25288   -25650   -26050   -26466   -26810   -26964   -27056   -27263 
  -27469   -27532   -27544   -27628   -27785   -27973   -28162   -28363 
  -28625   -28908   -29112   -29209   -29185   -29055   -28862   -28600 
  -28317   -28026   -27598   -27079   -26659   -26257   -25703   -25068 
  -24388   -23602   -22830   -22175   -21560   -21045   -20794   -20755 
  -20735   -20672   -20662   -20767   -20912   -21026   -21153   -21357 
  -21625   -21947   -22353   -22794   -23175   -23477   -23779   -24132 
  -24426   -24570   -24687   -24934   -25321   -25723   -25970   -26045 
  -26053   -26056   -26066   -26024   -25835   -25499   -25133   -24812 
  -24494   -24167   -23916   -23791   -23715   -23604   -23559   -23712 
  -23928   -24022   -24018   -23905   -23503   -22814   -22064   -21322 
  -20563   -19841   -19123   -18364   -17632   -16927   -16230   -15551 
  -14836   -14115   -13540   -13211   -13116   -13160   -13243   -13375 
  -13598   -13887   -14235   -14707   -15358   -16190   -17226   -18467 
  -19831   -21233   -22657   -24089   -25444   -26582   -27465   -28117 
  -28477   -28557   -28565   -28634   -28688   -28638   -28481   -28266 
  -28088   -28028   -28092   -28165   -28157   -28195   -28469   -28861 
  -29128   -29357   -29727   -30183   -30662   -31126   -31435   -31515 
  -31492   -31468   -31320   -30973   -30591   -30254   -29831   -29215 
  -28461   -27678   -26896   -26097   -25284   -24477   -23802   -23401 
  -23175   -22943   -22695   -22500   -22343   -22164   -22007   -21952 
  -21905   -21755   -21653   -21767   -21937   -21958   -21876   -21757 
  -21551   -21276   -21044   -20946   -21034   -21301   -21626   -21945 
  -22374   -22968   -23612   -24179   -24618   -24934   -25148   -25246 
  -25185   -24943   -24553   -24072   -23556   -23133   -22911   -22780 
  -22616   -22488   -22452   -22440   -22405   -22314   -22147   -22007 
  -22049   -22270   -22504   -22652   -22735   -22736   -22598   -22328 
  -21975   -21572   -21169   -20787   -20374   -19895   -19395   -19017 
  -18919   -19024   -19095   -19101   -19186   -19419   -19724   -19942 
  -19986   -19844   -19540   -19194   -18882   -18489   -17852   -16988 
  -16099   -15315   -14611   -13962   -13366   -12768   -12141   -11637 
  -11432   -11482   -11649   -11872   -12162   -12608   -13280   -14112 
  -14958   -15764   -16620   -17557   -18504   -19420   -20282   -21027 
  -21622   -22122   -22511   -22712   -22843   -23107   -23483   -23807 
  -24043   -24298   -24592   -24870   -25170   -25476   -25642   -25674 
  -25722   -25792   -25846   -25953   -26171   -26464   -26727   -26911 
  -27035   -27064   -27014   -27021   -27138   -27276   -27392   -27563 
  -27806   -28035   -28181   -28204   -28086   -27861   -27501   -26944 
  -26223   -25441   -24682   -23971   -23369   -22892   -22404   -21898 
  -21563   -21469   -21536   -21775   -22246   -22859   -23532   -24379 
  -25456   -26562   -27507   -28314   -29005   -29428   -29497   -29332 
  -29068   -28730   -28297   -27779   -27196   -26578   -25987   -25411 
  -24765   -24077   -23442   -22825   -22208   -21725   -21440   -21289 
  -21272   -21452   -21753   -21974   -22054   -22069   -22037   -22019 
  -22131   -22336   -22572   -22906   -23325   -23659   -23809   -23841 
  -23870   -23996   -24293   -24753   -25256   -25695   -26110   -26552 
  -26908   -27059   -27052   -26957   -26720   -26326   -25855   -25337 
  -24739   -24046   -23274   -22471   -21715   -21095   -20671   -20429 
  -20367   -20451   -20602   -20878   -21331   -21799   -22191   -22562 
  -22938   -23350   -23802   -24213   -24542   -24796   -24967   -25016 
  -24953   -24862   -24756   -24549   -24278   -24109   -24005   -23835 
  -23675   -23583   -23501   -23412   -23293   -23159   -23035   -22885 
  -22680   -22356   -21888   -21478   -21306   -21216   -21023   -20873 
  -20869   -20842   -20747   -20686   -20624   -20537   -20539   -20640 
  -20736   -20825   -20984   -21153   -21183   -21099   -21131   -21431 
  -21912   -22427   -22920   -23360   -23746   -24146   -24594   -25061 
  -25531   -25964   -26283   -26499   -26657   -26698   -26568   -26351 
  -26180   -26069   -25913   -25699   -25453   -25105   -24644   -24124 
  -23574   -23075   -22705   -22457   -22260   -22071   -21866   -21651 
  -21515   -21500   -21524   -21542   -21574   -21672   -21873   -22129 
  -22350   -22486   -22522   -22477   -22404   -22319   -22234   -22174 
  -22134   -22164   -22305   -22487   -22697   -22994   -23330   -23596 
  -23791   -23965   -24141   -24290   -24292   -24125   -23935   -23721 
  -23314   -22769   -22334   -22060   -21835   -21674   -21647   -21698 
  -21773   -21948   -22253   -22596   -22922   -23217   -23370   -23278 
  -22999   -22654   -22273   -21809   -21206   -20511   -19848   -19243 
  -18668   -18131   -17592   -17017   -16496   -16124   -15850   -15562 
  -15306   -15199   -15192   -15157   -15166   -15388   -15798   -16246 
  -16703   -17182   -17634   -18125   -18753   -19393   -19890   -20317 
  -20773   -21241   -21717   -22221   -22741   -23269   -23790   -24278 
  -24749   -25229   -25708   -26160   -26558   -26927   -27303   -27646 
  -27943   -28232   -28481   -28683   -28950   -29307   -29664   -29994 
  -30341   -30740   -31158   -31545   -31901   -32154   -32219   -32144 
  -32000   -31818   -31666   -31601   -31628   -31713   -31785   -31840 
  -31948   -32080   -32139   -32122   -32051   -31915   -31775   -31688 
  -31584   -31409   -31222   -31047   -30776   -30344   -29835   -29311 
  -28739   -28122   -27440   -26642   -25804   -25017   -24249   -23457 
  -22680   -22023   -21509   -21033   -20559   -20167   -19877   -19687 
  -19639   -19682   -19688   -19605   -19453   -19324   -19325   -19437 
  -19567   -19673   -19828   -20158   -20611   -21046   -21503   -22051 
  -22616   -23090   -23421   -23624   -23764   -23897   -24035   -24142 
  -24162   -24135   -24151   -24178   -24155   -24142   -24136   -24092 
  -24100   -24258   -24528   -24795   -25001   -25169   -25279   -25277 
  -25131   -24866   -24535   -24139   -23669   -23130   -22528   -21938 
  -21399   -20902   -20540   -20378   -20310   -20252   -20242   -20277 
  -20295   -20307   -20400   -20616   -20903   -21192   -21447   -21595 
  -21553   -21395   -21278   -21227   -21174   -21118   -21126   -21248 
  -21420   -21525   -21564   -21577   -21518   -21378   -21205   -21009 
  -20850   -20815   -20892   -21024   -21205   -21397   -21561   -21793 
  -22212   -22752   -23248   -23703   -24257   -24929   -25623   -26320 
  -27068   -27879   -28750   -29642   -30418   -30986   -31429   -31863 
  -32242   -32418   -32339   -32093   -31784   -31451   -31085   -30683 
  -30196   -29537   -28761   -28043   -27467   -26990   -26526   -26050 
  -25587   -25095   -24521   -23927   -23409   -22970   -22558   -22168 
  -21780   -21337   -20853   -20399   -20005   -19694   -19475   -19322 
  -19230   -19172   -19061   -18845   -18551   -18266   -18001   -17701 
  -17435   -17267   -17149   -17026   -16873   -16703   -16534   -16358 
  -16171   -15979   -15792   -15657   -15662   -15870   -16268   -16794 
  -17397   -18106   -18970   -19894   -20713   -21446   -22182   -22869 
  -23429   -23836   -24078   -24212   -24356   -24518   -24618   -24710 
  -24881   -25058   -25174   -25276   -25401   -25541   -25694   -25859 
  -26014   -26147   -26297   -26473   -26596   -26652   -26723   -26825 
  -26874   -26809   -26649   -26465   -26304   -26166   -26096   -26126 
  -26151   -26084   -25989   -25915   -25781   -25515   -25154   -24758 
  -24338   -23901   -23463   -23039   -22663   -22371   -22125   -21885 
  -21733   -21707   -21700   -21680   -21717   -21817   -21904   -21932 
  -21946   -21988   -22018   -22016   -22012   -21952   -21826   -21769 
  -21816   -21844   -21841   -21935   -22152   -22352   -22460   -22567 
  -22745   -22955   -23139   -23252   -23292   -23320   -23335   -23261 
  -23037   -22615   -22027   -21373   -20693   -20017   -19423   -18953 
  -18547   -18160   -17873   -17749   -17683   -17528   -17279   -17041 
  -16831   -16586   -16318   -16060   -15827   -15655   -15573   -15573 
