Origin Time       2011/03/11 14:46:00
Lat.              38.103
Long.             142.860
Depth. (km)       24
Mag.              9.0
Station Code      NGN022
Station Lat.      35.6053
Station Long.     137.6126
Station Height(m) 453
Record Time       2011/03/11 14:48:02
Sampling Freq(Hz) 100Hz
Duration Time(s)  237
Dir.              E-W
Scale Factor      3920(gal)/6182761
Max. Acc. (gal)   22.596
Last Correction   2011/03/11 14:47:47
Memo.             
[...]
  -25795   -24789   -24413   -25324   -26982   -28338   -28903   -28815 
  -28437   -28070   -27635   -26911   -25929   -24914   -24125   -23916 
  -24418   -24849   -24480   -24085   -24896   -26789   -28327   -28547 
  -28157   -28422   -29822   -31853   -33298   -33286   -32114   -31066 
  -31245   -32206   -33016   -33523   -33513   -32748   -31532   -30204 
  -29059   -28580   -28739   -28660   -27698   -26279   -25253   -24960 
  -25079   -25027   -24890   -25581   -27423   -29561   -31142   -32181 
  -33118   -34211   -35455   -36551   -37036   -36800   -36281   -36075 
  -36367   -36668   -36592   -36353   -35889   -35040   -34316   -34000 
  -33638   -33117   -32969   -33056   -32839   -32690   -32837   -33009 
  -33587   -35148   -37600   -40123   -41822   -42608   -42859   -42852 
  -43008   -43516   -43817   -43305   -42111   -40838   -40046   -39951 
  -39899   -38936   -37094   -34899   -32503   -30159   -28405   -27373 
  -26503   -25459   -24876   -25441   -26792   -27696   -27193   -25556 
  -23936   -23173   -22958   -22450   -21821   -22201   -23866   -25354 
  -25101   -23278   -21293   -20251   -20486   -21870   -23411   -23810 
  -23350   -23218   -23866   -25171   -26525   -27289   -27546   -27882 
  -28722   -29740   -30389   -30876   -31635   -32499   -32969   -33073 
  -33200   -33102   -32574   -32405   -33233   -34720   -36166   -36876 
  -36438   -35309   -34496   -34580   -35338   -36043   -35990   -34912 
  -33401   -32446   -32397   -33078   -34202   -35190   -35311   -34496 
  -33569   -33233   -33099   -32100   -30315   -29269   -29600   -30141 
  -29642   -28256   -27111   -26920   -27459   -27855   -27209   -25509 
  -23785   -23249   -24158   -25322   -25661   -25438   -25206   -25299 
  -25497   -24769   -22842   -20941   -20502   -21548   -22788   -23336 
  -23276   -23049   -23400   -25078   -27493   -28977   -28841   -28031 
  -27601   -27791   -28671   -29761   -30172   -29953   -29557   -29125 
  -28850   -28805   -28770   -28705   -29063   -30073   -30978   -31140 
  -31180   -31827   -32953   -33973   -34528   -34736   -34543   -33737 
  -32529   -31394   -30630   -30132   -29643   -28857   -27602   -26517 
  -26487   -27243   -27781   -27933   -28180   -28457   -28358   -27726 
  -26719   -25658   -24822   -24474   -24619   -24794   -24401   -23441 
  -22682   -22665   -23324   -24389   -25424   -26084   -26508   -27288 
  -28846   -30918   -32885   -34138   -34374   -34232   -34754   -35909 
  -36783   -36776   -35958   -34952   -34415   -34548   -34540   -33019 
  -30208   -27833   -26788   -26685   -26578   -25724   -24450   -23624 
  -23333   -23039   -22828   -23209   -24004   -24837   -25597   -26033 
  -26300   -26887   -27625   -27771   -27091   -26340   -26279   -26977 
  -27784   -27674   -26449   -24881   -23745   -23427   -23551   -23072 
  -21471   -19392   -17735   -16683   -16403   -17300   -18723   -19646 
  -19930   -19687   -19242   -19485   -20803   -22359   -23277   -23601 
  -23975   -25015   -26495   -27345   -26925   -25727   -24780   -24971 
  -26387   -27985   -28615   -28101   -27060   -26187   -25888   -26323 
  -27317   -28212   -28454   -28089   -27616   -27783   -28822   -30182 
  -31159   -31314   -30755   -29890   -29264   -29316   -29714   -29996 
  -30252   -30650   -31233   -31860   -32314   -32489   -32269   -31793 
  -31345   -30931   -30437   -29640   -28562   -27770   -27812   -28637 
  -29519   -29956   -30157   -30224   -29909   -29088   -28019   -27129 
  -26622   -26779   -27990   -29824   -30830   -30109   -28505   -27254 
  -26626   -26387   -26622   -27618   -28700   -28779   -28046   -27148 
  -26267   -25873   -26405   -27386   -28101   -28522   -28976   -29411 
  -29414   -29258   -29821   -31194   -32634   -33426   -33238   -32313 
  -31602   -32093   -33480   -34541   -34920   -34653   -33410   -31852 
  -31149   -31280   -31630   -31890   -31948   -31740   -31356   -30816 
  -29858   -28613   -27698   -27468   -27670   -27793   -27630   -27090 
  -26192   -25399   -25303   -26118   -27029   -27272   -27637   -28641 
  -29344   -29187   -28566   -28037   -28090   -28691   -29165   -29008 
  -28365   -27557   -26669   -25940   -25565   -25606   -26361   -27357 
  -27670   -27422   -27196   -27209   -27562   -28405   -29323   -29414 
  -28799   -28451   -28873   -29741   -30182   -30288   -31034   -32240 
  -33188   -33931   -34542   -34669   -34271   -33818   -33557   -33397 
  -33210   -32855   -32406   -32204   -32299   -32286   -32027   -31581 
  -30667   -29336   -28349   -28252   -28355   -27607   -26205   -24759 
  -23375   -22040   -20795   -20143   -20558   -21368   -21331   -20504 
  -20179   -20856   -21893   -22415   -22258   -22487   -24016   -26179 
  -27227   -26604   -26103   -27593   -30604   -33038   -33831   -33437 
  -32336   -31210   -30749   -30352   -29173   -27536   -26109   -25136 
  -24436   -23409   -21766   -20324   -20264   -21420   -22346   -22199 
  -21315   -20643   -21099   -22733   -24910   -26875   -27899   -28121 
  -28783   -30390   -32038   -32949   -32978   -32301   -31309   -30421 
  -30085   -30168   -29890   -28941   -27805   -27232   -27378   -27733 
  -28278   -29471   -31025   -32104   -32737   -33649   -34943   -36259 
  -37288   -37465   -36537   -35284   -34578   -34489   -34568   -34454 
  -34161   -33748   -33323   -33259   -33515   -33354   -32342   -30893 
  -29607   -28942   -29148   -29882   -30500   -30761   -30689   -30232 
  -29549   -28949   -28300   -27143   -25482   -24000   -23499   -24469 
  -26528   -28334   -28802   -28108   -27332   -27304   -28074   -29023 
  -29188   -28549   -28415   -29541   -31099   -31875   -31761   -31866 
  -33010   -34600   -35581   -35734   -35498   -35335   -35691   -36512 
  -36814   -35764   -33609   -31314   -29861   -29528   -29722   -29663 
  -29029   -27845   -26478   -25822   -26280   -27128   -27795   -28519 
  -29549   -30889   -32459   -33894   -34793   -35318   -35922   -36729 
  -37623   -38405   -38839   -38858   -38448   -37665   -36806   -36020 
  -35114   -34072   -33225   -32797   -32596   -32208   -31382   -30009 
  -28225   -26617   -25861   -26316   -27831   -29583   -30491   -30328 
  -29978   -29982   -30170   -30438   -30605   -30499   -30156   -29603 
  -29045   -28829   -29024   -29314   -29342   -29055   -28770   -28982 
  -29878   -31015   -31880   -32424   -32756   -32998   -33569   -34953 
  -36985   -38706   -39192   -38487   -37507   -36780   -35930   -34718 
  -33635   -33286   -33484   -33249   -32008   -30197   -28862   -28808 
  -29520   -29643   -28666   -27339   -26550   -26403   -26388   -25886 
  -24728   -23507   -22918   -22940   -22873   -22319   -21995   -22870 
  -24758   -26473   -26977   -26197   -24953   -23978   -23322   -22689 
  -21942   -21369   -21124   -20814   -20097   -19158   -18511   -18377 
  -18391   -18174   -17830   -17840   -18820   -20761   -22842   -24525 
  -25948   -27470   -29358   -31493   -33354   -34357   -34510   -34650 
  -35494   -36799   -37779   -37951   -37470   -36943   -36810   -36794 
  -36214   -34781   -32937   -31433   -30655   -30613   -31117   -31559 
  -31429   -31059   -31006   -31143   -30930   -30408   -30175   -30554 
  -31563   -32920   -33907   -33977   -33219   -31976   -30302   -28343 
  -26603   -25108   -23522   -21899   -20458   -19480   -19120   -19025 
  -18996   -19203   -19473   -19265   -18414   -17638   -17741   -18885 
  -20952   -23354   -25189   -26319   -27301   -28653   -30392   -31883 
  -32556   -32625   -32593   -32700   -32894   -32612   -31208   -29147 
  -27645   -26998   -26463   -25502   -24246   -23073   -22136   -21265 
  -20497   -20264   -20658   -21091   -21027   -20682   -20465   -20251 
  -19836   -19300   -18705   -18041   -17513   -17587   -18312   -18900 
  -18425   -16701   -14672   -13604   -13743   -14521   -15474   -16412 
  -17307   -18147   -18935   -19785   -20695   -21497   -22377   -23807 
  -25996   -28615   -30808   -32087   -32725   -33080   -33450   -33729 
  -33416   -32734   -32260   -31991   -31819   -31561   -30897   -30007 
  -29409   -29360   -29656   -29847   -29797   -29655   -29561   -30006 
  -31548   -33874   -36055   -37595   -38815   -40164   -41336   -41730 
  -41477   -41283   -41655   -42426   -42923   -42735   -42193   -42063 
  -42534   -42807   -42138   -40428   -37888   -35165   -33060   -31734 
  -30668   -29384   -28004   -26879   -26084   -25384   -24434   -23206 
  -21983   -21246   -21711   -23580   -26158   -28584   -30356   -31430 
  -32027   -32303   -32306   -32072   -31808   -31874   -32513   -33539 
  -34291   -34247   -33486   -32749   -32727   -33088   -33096   -32555 
  -31785   -31414   -31848   -32847   -33505   -32865   -31255   -30133 
  -30176   -30666   -30467   -29120   -27386   -26387   -26535   -27604 
  -29021   -30234   -31008   -31458   -31880   -32168   -31897   -31005 
  -29828   -28970   -28808   -28901   -28578   -27702   -26575   -25543 
  -24610   -23362   -21552   -19707   -18465   -17767   -17406   -17305 
  -17397   -17860   -18887   -20337   -21536   -21748   -21203   -20848 
  -21250   -22155   -22870   -22964   -22594   -22468   -23275   -24985 
  -26879   -28246   -28949   -29230   -29306   -29271   -29160   -28970 
  -28622   -28150   -27834   -27936   -28600   -29831   -31310   -32371 
  -32529   -32050   -31519   -31025   -30462   -29909   -29311   -28490 
  -27518   -26639   -25804   -24943   -24506   -24918   -26112   -27710 
  -29231   -30402   -31554   -33286   -35534   -37641   -39078   -39952 
  -41090   -42925   -44875   -46177   -46289   -44942   -42534   -39894 
  -37552   -35520   -33532   -31482   -29620   -28208   -27145   -26042 
  -24629   -23036   -21396   -19554   -17596   -16065   -15543   -16132 
  -17298   -18453   -19509   -20714   -22204   -23784   -24934   -25317 
  -25349   -26031   -27965   -30370   -31939   -32394   -32212   -31914 
  -31911   -32196   -32413   -32302   -32082   -32383   -33342   -34114 
  -33888   -33026   -32472   -32591   -33233   -34063   -34540   -34394 
  -34030   -34127   -35031   -36290   -37069   -37153   -36759   -36052 
  -35322   -34841   -34708   -34742   -34691   -34568   -34256   -33541 
  -32401   -30969   -29759   -29329   -29753   -30771   -32035   -33483 
  -35368   -37592   -39586   -40985   -41723   -41730   -41201   -40561 
  -39916   -39075   -38067   -37234   -36721   -36055   -34556   -31871 
  -28049   -23730   -20001   -17605   -16359   -15477   -14450   -13328 
  -12493   -12300   -12493   -12471   -12100   -11846   -12471   -14314 
  -16770   -18977   -20691   -22235   -23972   -25918   -27640   -28644 
  -28941   -29181   -30143   -31885   -33688   -34889   -35402   -35715 
  -36444   -37799   -39643   -41725   -43858   -46048   -48274   -50356 
  -52095   -53498   -54842   -56291   -57818   -59426   -60867   -61577 
  -61079   -59137   -55843   -51661   -47213   -43055   -39455   -36181 
  -32815   -29428   -26579   -24661   -23596   -22906   -21947   -20628 
  -19715   -19907   -21020   -22350   -23269   -23555   -23517   -23615 
  -24091   -24993   -26058   -26788   -26934   -26526   -25702   -24708 
  -23755   -22954   -22207   -21333   -20556   -20444   -21238   -22517 
  -23718   -24712   -25557   -26228   -26914   -27800   -28659   -29364 
  -30183   -31117   -31714   -31696   -31262   -30641   -29745   -28637 
  -27451   -25872   -23936   -22386   -21510   -20764   -19650   -18236 
  -16731   -15197   -13624   -11908   -10021    -8203    -6991    -6875 
   -7692    -8604    -8848    -8368    -7646    -7331    -8054    -9888 
  -12209   -14368   -16081   -17547   -19102   -20509   -21385   -21857 
  -22187   -22624   -23535   -25123   -27044   -28511   -28983   -28557 
  -27815   -27459   -27593   -27660   -27358   -26950   -26829   -27257 
  -28193   -29110   -29255   -28310   -26576   -24716   -23379   -22590 
  -21811   -20785   -19920   -19894   -20871   -22369   -23978   -25613 
  -27444   -29735   -32349   -34803   -36878   -38755   -40575   -42230 
  -43519   -44271   -44635   -44969   -45173   -45072   -44973   -45055 
  -45231   -45577   -46183   -46966   -47762   -48407   -48881   -49450 
  -50310   -51155   -51486   -51077   -50013   -48616   -47245   -45959 
  -44659   -43256   -41528   -39283   -36588   -33745   -31146   -28930 
  -26946   -24953   -22736   -20365   -18279   -17085   -17079   -17849 
  -18690   -19224   -19663   -20606   -22177   -23688   -24551   -24972 
  -25570   -26777   -28566   -30409   -31718   -32458   -33172   -34288 
  -35509   -36163   -35909   -34944   -33791   -32830   -32162   -31803 
  -31735   -31995   -32534   -32942   -32802   -32314   -32036   -32167 
  -32569   -33015   -33184   -33068   -33147   -33827   -35073   -36405 
  -37145   -36915   -36028   -35346   -35499   -36401   -37674   -38976 
  -40052   -40744   -40953   -40834   -40810   -41178   -41875   -42434 
  -42237   -41004   -39018   -37023   -35800   -35606   -36053   -36532 
  -36675   -36440   -35987   -35505   -35080   -34731   -34388   -33891 
  -33326   -32997   -32928   -32840   -32413   -31497   -30389   -29660 
  -29705   -30434   -31209   -31465   -31150   -30494   -29911   -29884 
  -30559   -31460   -31701   -30687   -28640   -26476   -25096   -24801 
  -25677   -27541   -29589   -31243   -32443   -33455   -34784   -36480 
  -38357   -40263   -41914   -43270   -44387   -45136   -45230   -44416 
  -42705   -40407   -38097   -36151   -34419   -32279   -29002   -24644 
  -20196   -16693   -14366   -12598   -10630    -8032    -4919    -2004 
     127     1559     2853     4448     5938     6439     5502     3430 
    1112     -691    -1975    -3466    -6102   -10260   -15460   -20775 
  -25476   -29316   -32310   -34487   -35803   -36363   -36734   -37563 
  -38869   -40067   -40685   -40800   -40775   -40725   -40390   -39515 
  -38006   -35949   -33768   -31939   -30447   -28731   -26332   -23458 
  -20647   -18307   -16548   -15036   -13439   -12071   -11575   -12127 
  -13277   -14373   -15067   -15530   -16250   -17512   -18938   -19856 
  -20116   -20148   -20363   -20852   -21447   -21911   -22169   -22199 
  -21895   -21346   -20959   -21029   -21371   -21711   -21990   -22123 
  -22101   -22143   -22463   -23153   -24286   -25939   -28111   -30568 
  -32831   -34483   -35404   -35876   -36413   -37340   -38472   -39255 
  -39449   -39540   -40306   -41956   -43998   -45865   -47209   -47999 
  -48466   -48884   -49411   -49987   -50495   -50875   -51104   -51126 
  -50817   -50165   -49062   -47156   -44442   -41460   -38748   -36622 
  -35098   -33930   -33107   -32820   -33065   -33705   -34516   -35274 
  -35864   -36211   -36345   -36338   -36328   -36623   -37333   -38243 
  -39009   -39301   -39089   -38554   -37689   -36317   -34285   -31627 
  -28691   -25940   -23748   -22141   -20662   -18857   -16717   -14612 
  -12942   -11803   -11192   -11437   -12907   -15357   -18009   -20234 
  -21767   -22661   -23367   -24358   -25629   -26922   -28332   -30362 
  -33192   -36235   -38549   -39529   -39303   -38649   -38509   -39266 
  -40569   -41795   -42490   -42694   -42839   -43341   -44269   -45039 
  -44733   -43203   -41468   -40697   -41201   -42499   -44047   -45661 
  -47378   -49210   -50954   -52226   -52868   -53080   -52888   -52019 
  -50526   -48775   -47010   -45530   -44591   -44105   -43733   -42945 
  -41449   -39509   -37583   -36073   -35258   -35202   -35803   -36878 
  -38298   -39955   -41569   -42767   -43440   -43874   -44390   -45020 
  -45461   -45309   -44561   -43629   -42776   -42057   -41468   -40591 
  -38800   -36126   -33102   -29961   -26714   -23414   -20207   -17419 
  -15331   -13927   -12861   -11827   -11132   -11310   -12162   -12838 
  -12911   -12693   -12703   -13321   -14368   -15234   -15789   -16384 
  -17211   -18274   -19383   -20215   -20687   -21038   -21575   -22412 
  -23397   -24338   -25326   -26620   -28198   -29790   -31174   -32283 
  -33392   -34770   -36231   -37407   -37968   -37668   -36523   -34880 
  -33349   -32309   -31479   -30229   -28193   -25536   -22884   -20816 
  -19244   -17686   -16017   -14545   -13678   -13604   -14285   -15560 
  -16936   -17910   -18609   -19524   -20876   -22566   -24495   -26571 
  -28560   -30264   -31736   -33025   -33832   -33702   -32509   -30816 
  -29554   -29133   -29157   -29175   -29294   -29935   -31199   -32652 
  -33749   -34354   -34805   -35436   -36019   -36009   -35375   -34823 
  -35274   -37086   -39723   -42343   -44368   -45561   -46032   -46064 
  -45746   -44887   -43575   -42431   -41926   -41832   -41548   -40880 
  -40236   -39932   -39779   -39399   -38534   -37144   -35393   -33613 
  -32246   -31500   -31020   -30269   -29150   -27873   -26662   -25617 
  -24530   -23154   -21369   -19114   -16601   -14145   -12050   -10727 
  -10266   -10149    -9714    -8827    -7893    -7352    -7409    -7841 
   -8171    -8365    -8914   -10230   -12285   -14728   -17184   -19380 
  -21284   -23159   -25231   -27443   -29571   -31499   -33355   -35247 
  -37021   -38483   -39526   -40051   -40126   -40034   -40051   -40272 
  -40579   -40811   -40899   -40824   -40759   -40882   -40957   -40764 
  -40494   -40391   -40478   -40533   -40343   -40068   -39981   -40029 
  -39936   -39554   -38910   -38160   -37589   -37482   -37941   -38859 
  -40019   -41265   -42463   -43360   -43769   -43777   -43571   -43276 
  -42922   -42496   -42150   -42079   -42090   -41913   -41569   -40963 
  -39932   -38644   -37292   -35974   -34877   -34127   -33700   -33355 
  -32834   -32168   -31439   -30717   -30192   -29957   -30043   -30415 
  -30806   -30870   -30326   -29144   -27828   -27210   -27709   -28838 
  -29794   -30313   -30494   -30414   -30292   -30257   -30001   -29272 
  -28375   -27825   -27674   -27513   -27017   -26068   -24793   -23649 
  -22955   -22607   -22442   -22569   -23233   -24444   -25786   -26700 
  -27025   -27125   -27356   -27640   -27724   -27573   -27463   -27661 
  -27997   -28168   -28071   -27618   -26881   -26081   -25235   -24244 
  -23067   -21824   -20753   -19905   -19091   -18146   -17204   -16676 
  -16868   -17782   -19228   -20951   -22778   -24559   -26095   -27408 
  -28782   -30359   -31951   -33369   -34591   -35539   -35997   -35615 
  -34139   -31956   -29913   -28472   -27430   -26303   -24823   -23132 
  -21417   -19687   -18084   -16730   -15546   -14766   -14847   -15758 
  -17070   -18521   -20157   -22034   -23937   -25577   -26987   -28377 
  -29736   -30851   -31623   -32051   -32206   -32401   -32887   -33488 
  -33839   -33721   -33133   -32228   -31097   -29780   -28599   -27804 
  -27082   -26132   -25154   -24451   -24033   -23768   -23557   -23275 
  -22989   -22939   -23205   -23693   -24166   -24475   -24870   -25692 
  -27006   -28634   -30194   -31285   -31889   -32317   -32852   -33579 
  -34250   -34487   -34267   -33867   -33521   -33187   -32611   -31695 
  -30647   -29750   -28938   -27788   -26062   -24101   -22742   -22710 
  -24038   -26095   -28080   -29621   -30903   -32190   -33528   -34855 
  -36129   -37364   -38588   -39767   -40854   -41983   -43398   -45063 
  -46622   -47721   -48187   -48165   -47955   -47645   -47255   -47067 
  -47283   -47555   -47231   -45766   -43039   -39553   -36143   -33426 
  -31415   -29568   -27380   -24919   -22677   -20964   -19672   -18619 
  -17676   -16742   -15973   -15685   -16010   -16682   -17060   -16773 
