Origin Time       2011/03/11 14:46:00
Lat.              38.103
Long.             142.860
Depth. (km)       24
Mag.              9.0
Station Code      NGN009
Station Lat.      36.3371
Station Long.     137.8718
Station Height(m) 562
Record Time       2011/03/11 14:48:29
Sampling Freq(Hz) 100Hz
Duration Time(s)  238
Dir.              N-S
Scale Factor      3920(gal)/6182761
Max. Acc. (gal)   8.791
Last Correction   2011/03/11 14:48:14
Memo.             
[...]
  -34797   -34826   -34740   -34662   -34564   -34376   -34174   -34021 
  -33871   -33682   -33501   -33380   -33296   -33201   -33086   -32990 
  -32944   -32955   -33013   -33099   -33196   -33290   -33389   -33504 
  -33586   -33569   -33445   -33251   -33029   -32811   -32594   -32370 
  -32195   -32138   -32231   -32508   -32936   -33400   -33845   -34271 
  -34645   -34914   -35094   -35256   -35400   -35480   -35535   -35613 
  -35667   -35658   -35624   -35583   -35484   -35299   -35057   -34772 
  -34446   -34146   -33890   -33596   -33217   -32779   -32367   -32056 
  -31838   -31677   -31529   -31410   -31364   -31382   -31470   -31587 
  -31618   -31552   -31481   -31434   -31392   -31409   -31546   -31731 
  -31880   -32066   -32377   -32759   -33121   -33444   -33740   -33980 
  -34113   -34157   -34182   -34220   -34216   -34138   -34022   -33829 
  -33497   -33073   -32602   -32084   -31546   -31030   -30576   -30192 
  -29836   -29492   -29186   -28961   -28878   -28939   -29086   -29270 
  -29443   -29583   -29714   -29860   -30003   -30093   -30124   -30128 
  -30112   -30067   -29985   -29892   -29800   -29666   -29511   -29376 
  -29220   -29010   -28748   -28458   -28235   -28172   -28257   -28433 
  -28678   -28939   -29159   -29360   -29616   -29983   -30431   -30875 
  -31277   -31627   -31876   -31990   -32005   -32004   -32012   -31989 
  -31930   -31883   -31884   -31954   -32108   -32323   -32572   -32873 
  -33202   -33472   -33669   -33809   -33843   -33758   -33667   -33636 
  -33581   -33436   -33179   -32808   -32382   -31931   -31440   -30941 
  -30496   -30129   -29813   -29501   -29167   -28824   -28520   -28270 
  -28048   -27829   -27558   -27204   -26832   -26519   -26307   -26221 
  -26241   -26354   -26561   -26817   -27103   -27415   -27709   -27962 
  -28175   -28345   -28494   -28670   -28890   -29099   -29280   -29451 
  -29575   -29679   -29831   -29995   -30124   -30224   -30292   -30326 
  -30350   -30377   -30416   -30488   -30578   -30684   -30844   -31055 
  -31264   -31451   -31662   -31902   -32128   -32375   -32700   -33041 
  -33292   -33421   -33456   -33417   -33330   -33246   -33164   -33021 
  -32817   -32605   -32421   -32255   -32101   -31987   -31914   -31856 
  -31808   -31776   -31739   -31681   -31593   -31455   -31250   -31003 
  -30782   -30632   -30520   -30412   -30323   -30243   -30143   -30012 
  -29845   -29636   -29377   -29054   -28654   -28188   -27718   -27308 
  -26997   -26830   -26806   -26848   -26914   -27031   -27170   -27276 
  -27370   -27467   -27524   -27543   -27553   -27538   -27494   -27427 
  -27330   -27194   -27012   -26808   -26587   -26361   -26228   -26267 
  -26450   -26725   -27058   -27408   -27746   -28068   -28403   -28793 
  -29230   -29674   -30106   -30482   -30744   -30886   -30941   -30918 
  -30821   -30658   -30424   -30150   -29866   -29572   -29274   -28959 
  -28632   -28344   -28118   -27926   -27741   -27526   -27218   -26842 
  -26505   -26224   -25991   -25851   -25783   -25759   -25814   -25946 
  -26125   -26337   -26571   -26832   -27086   -27303   -27491   -27634 
  -27700   -27710   -27715   -27753   -27853   -28018   -28215   -28435 
  -28696   -28949   -29168   -29419   -29674   -29839   -29935   -30006 
  -30036   -30056   -30138   -30295   -30479   -30695   -30952   -31194 
  -31411   -31664   -31924   -32141   -32337   -32529   -32695   -32821 
  -32910   -32963   -32982   -33029   -33168   -33362   -33571   -33825 
  -34100   -34346   -34601   -34867   -35062   -35206   -35357   -35498 
  -35635   -35804   -35987   -36178   -36394   -36580   -36683   -36714 
  -36691   -36636   -36566   -36465   -36292   -36024   -35696   -35387 
  -35109   -34829   -34538   -34224   -33858   -33434   -33005   -32645 
  -32361   -32123   -31922   -31706   -31423   -31115   -30855   -30657 
  -30491   -30316   -30136   -30012   -29954   -29916   -29884   -29853 
  -29791   -29722   -29693   -29687   -29699   -29760   -29853   -29940 
  -30039   -30150   -30215   -30210   -30137   -29998   -29824   -29637 
  -29456   -29313   -29209   -29133   -29103   -29137   -29236   -29383 
  -29533   -29639   -29694   -29721   -29707   -29622   -29466   -29267 
  -29069   -28899   -28762   -28686   -28691   -28782   -28980   -29275 
  -29596   -29927   -30295   -30665   -30986   -31267   -31538   -31804 
  -32066   -32342   -32649   -32946   -33172   -33342   -33505   -33681 
  -33867   -34061   -34285   -34539   -34771   -34933   -35029   -35052 
  -34968   -34803   -34621   -34425   -34201   -33991   -33841   -33766 
  -33807   -34005   -34315   -34646   -34931   -35153   -35330   -35487 
  -35614   -35688   -35693   -35632   -35556   -35530   -35550   -35567 
  -35561   -35552   -35571   -35649   -35837   -36147   -36541   -36995 
  -37508   -38056   -38595   -39081   -39502   -39820   -39960   -39951 
  -39859   -39674   -39430   -39186   -38936   -38675   -38418   -38181 
  -37955   -37704   -37448   -37252   -37147   -37132   -37179   -37249 
  -37327   -37439   -37623   -37881   -38171   -38429   -38638   -38820 
  -38978   -39111   -39237   -39346   -39416   -39449   -39464   -39455 
  -39391   -39287   -39178   -39049   -38915   -38814   -38735   -38661 
  -38621   -38628   -38622   -38531   -38323   -37989   -37552   -37026 
  -36429   -35846   -35349   -34935   -34590   -34301   -34030   -33753 
  -33506   -33341   -33259   -33225   -33238   -33307   -33376   -33412 
  -33429   -33419   -33372   -33318   -33300   -33288   -33232   -33149 
  -33042   -32916   -32812   -32740   -32716   -32764   -32851   -32914 
  -32930   -32909   -32842   -32742   -32661   -32605   -32543   -32449 
  -32297   -32081   -31851   -31671   -31547   -31442   -31363   -31326 
  -31311   -31323   -31358   -31341   -31248   -31125   -30997   -30837 
  -30634   -30414   -30176   -29909   -29642   -29354   -29016   -28683 
  -28426   -28264   -28213   -28276   -28425   -28645   -28946   -29290 
  -29619   -29931   -30221   -30434   -30533   -30532   -30449   -30277 
  -30030   -29761   -29471   -29152   -28861   -28638   -28471   -28365 
  -28312   -28286   -28318   -28466   -28724   -29029   -29317   -29531 
  -29618   -29561   -29387   -29110   -28737   -28320   -27919   -27552 
  -27241   -27029   -26911   -26877   -26947   -27154   -27507   -27937 
  -28358   -28744   -29039   -29181   -29184   -29091   -28936   -28784 
  -28691   -28662   -28660   -28645   -28617   -28566   -28468   -28348 
  -28225   -28101   -28014   -27973   -27924   -27865   -27843   -27863 
  -27883   -27871   -27796   -27652   -27493   -27386   -27362   -27405 
  -27484   -27558   -27586   -27574   -27545   -27460   -27271   -26974 
  -26592   -26132   -25627   -25151   -24739   -24400   -24159   -24016 
  -23969   -24050   -24265   -24560   -24879   -25194   -25463   -25661 
  -25854   -26079   -26282   -26461   -26620   -26710   -26705   -26604 
  -26408   -26161   -25947   -25793   -25660   -25576   -25605   -25724 
  -25909   -26169   -26486   -26839   -27244   -27700   -28136   -28454 
  -28634   -28669   -28542   -28308   -28045   -27810   -27670   -27650 
  -27763   -28055   -28510   -29065   -29655   -30218   -30720   -31135 
  -31422   -31574   -31628   -31594   -31451   -31246   -31028   -30778 
  -30488   -30151   -29768   -29422   -29176   -29026   -28965   -28953 
  -28922   -28833   -28693   -28525   -28325   -28075   -27784   -27488 
  -27208   -26955   -26756   -26629   -26575   -26589   -26631   -26681 
  -26757   -26857   -26945   -27000   -27013   -26962   -26834   -26629 
  -26319   -25886   -25371   -24834   -24315   -23852   -23482   -23182 
  -22917   -22735   -22667   -22688   -22804   -22986   -23186   -23378 
  -23512   -23571   -23600   -23651   -23781   -24044   -24463   -25028 
  -25693   -26412   -27159   -27899   -28614   -29313   -29964   -30530 
  -30992   -31351   -31632   -31864   -32097   -32378   -32719   -33120 
  -33584   -34081   -34589   -35094   -35570   -35989   -36319   -36498 
  -36515   -36396   -36132   -35716   -35195   -34627   -34058   -33546 
  -33151   -32891   -32730   -32630   -32562   -32482   -32366   -32257 
  -32197   -32193   -32225   -32250   -32241   -32208   -32155   -32061 
  -31921   -31774   -31644   -31511   -31367   -31205   -31000   -30787 
  -30655   -30647   -30785   -31051   -31352   -31628   -31902   -32202 
  -32504   -32770   -33018   -33278   -33493   -33615   -33687   -33705 
  -33640   -33547   -33471   -33437   -33518   -33720   -33954   -34179 
  -34407   -34621   -34799   -34949   -35048   -35039   -34933   -34756 
  -34471   -34088   -33698   -33366   -33112   -32973   -32950   -32963 
  -32923   -32771   -32442   -31901   -31214   -30453   -29640   -28849 
  -28180   -27665   -27328   -27192   -27234   -27438   -27797   -28263 
  -28768   -29294   -29808   -30262   -30674   -31086   -31521   -32007 
  -32560   -33170   -33845   -34587   -35340   -36023   -36599   -37046 
  -37369   -37623   -37837   -38006   -38126   -38172   -38139   -38056 
  -37950   -37869   -37827   -37782   -37720   -37650   -37586   -37518 
  -37401   -37219   -36994   -36736   -36454   -36155   -35855   -35572 
  -35325   -35140   -35002   -34876   -34744   -34569   -34328   -34048 
  -33769   -33523   -33320   -33163   -33069   -33011   -32932   -32802 
  -32624   -32413   -32172   -31920   -31668   -31379   -31018   -30598 
  -30121   -29577   -28997   -28453   -28006   -27705   -27594   -27667 
  -27871   -28190   -28604   -29069   -29582   -30141   -30684   -31134 
  -31439   -31554   -31468   -31239   -30960   -30712   -30543   -30492 
  -30577   -30774   -31080   -31488   -31935   -32387   -32832   -33239 
  -33593   -33896   -34139   -34323   -34462   -34566   -34649   -34737 
  -34844   -34968   -35081   -35126   -35084   -34988   -34885   -34787 
  -34687   -34623   -34639   -34698   -34746   -34776   -34775   -34746 
  -34706   -34614   -34443   -34257   -34078   -33840   -33566   -33349 
  -33176   -32982   -32791   -32681   -32678   -32741   -32830   -32939 
  -33092   -33326   -33652   -34018   -34364   -34697   -35003   -35211 
  -35325   -35368   -35280   -35064   -34796   -34500   -34232   -34074 
  -33996   -33981   -34125   -34463   -34933   -35486   -36083   -36664 
  -37177   -37631   -38070   -38489   -38864   -39178   -39351   -39318 
  -39138   -38863   -38477   -37963   -37318   -36570   -35801   -35106 
  -34552   -34169   -33933   -33758   -33573   -33395   -33296   -33334 
  -33512   -33794   -34119   -34451   -34824   -35250   -35714   -36223 
  -36748   -37215   -37608   -37958   -38271   -38500   -38587   -38512 
  -38301   -37998   -37674   -37358   -37029   -36713   -36427   -36088 
  -35656   -35151   -34559   -33931   -33351   -32819   -32342   -31957 
  -31642   -31370   -31208   -31231   -31408   -31644   -31817   -31801 
  -31553   -31119   -30591   -30086   -29715   -29552   -29618   -29840 
  -30132   -30435   -30689   -30860   -30924   -30827   -30578   -30230 
  -29787   -29267   -28738   -28227   -27738   -27293   -26897   -26539 
  -26214   -25931   -25717   -25603   -25634   -25831   -26152   -26581 
  -27114   -27678   -28229   -28807   -29397   -29934   -30394   -30748 
  -30957   -31050   -31086   -31068   -30966   -30792   -30567   -30282 
  -29987   -29772   -29651   -29597   -29615   -29722   -29863   -30009 
  -30220   -30471   -30713   -30960   -31151   -31226   -31208   -31137 
  -31038   -30917   -30852   -30898   -30988   -31117   -31317   -31574 
  -31922   -32347   -32727   -32968   -33073   -33092   -33060   -32970 
  -32791   -32479   -32044   -31541   -30989   -30372   -29718   -29072 
  -28418   -27778   -27215   -26728   -26315   -26024   -25834   -25670 
  -25529   -25446   -25424   -25476   -25643   -25914   -26257   -26678 
  -27194   -27756   -28315   -28846   -29292   -29618   -29843   -29973 
  -30016   -29994   -29919   -29815   -29697   -29577   -29467   -29341 
  -29186   -29031   -28874   -28669   -28377   -27979   -27508   -27020 
  -26541   -26070   -25620   -25212   -24840   -24457   -24047   -23606 
  -23102   -22539   -21954   -21379   -20880   -20554   -20448   -20562 
  -20873   -21314   -21818   -22366   -22948   -23523   -24054   -24528 
  -24926   -25243   -25528   -25850   -26232   -26660   -27123   -27608 
  -28098   -28597   -29054   -29370   -29491   -29418   -29205   -28929 
  -28625   -28270   -27813   -27271   -26727   -26217   -25763   -25420 
  -25170   -24945   -24749   -24605   -24513   -24529   -24696   -24960 
  -25262   -25597   -25960   -26358   -26798   -27236   -27623   -27941 
  -28202   -28438   -28648   -28813   -28913   -28898   -28776   -28577 
  -28282   -27952   -27671   -27453   -27316   -27278   -27277   -27239 
  -27177   -27137   -27124   -27170   -27292   -27428   -27516   -27539 
  -27502   -27424   -27331   -27261   -27175   -26994   -26721   -26345 
  -25820   -25201   -24573   -23998   -23559   -23306   -23221   -23265 
  -23414   -23661   -23991   -24407   -24929   -25529   -26136   -26688 
  -27162   -27560   -27885   -28150   -28341   -28422   -28415   -28370 
  -28315   -28304   -28406   -28643   -29025   -29593   -30376   -31341 
  -32436   -33606   -34743   -35700   -36416   -36925   -37274   -37490 
  -37577   -37525   -37359   -37138   -36952   -36895   -37033   -37401 
  -37983   -38713   -39529   -40377   -41196   -41962   -42690   -43374 
  -43988   -44501   -44859   -45035   -45064   -44972   -44774   -44545 
  -44358   -44247   -44245   -44348   -44511   -44731   -45012   -45277 
  -45475   -45636   -45766   -45852   -45884   -45832   -45709   -45565 
  -45377   -45095   -44695   -44147   -43476   -42790   -42169   -41626 
  -41152   -40723   -40320   -39914   -39468   -38980   -38497   -38045 
  -37633   -37286   -37030   -36888   -36891   -37046   -37326   -37697 
  -38115   -38502   -38808   -39054   -39239   -39304   -39232   -39016 
  -38605   -38023   -37370   -36713   -36106   -35629   -35337   -35196 
  -35157   -35222   -35364   -35539   -35744   -35942   -36070   -36146 
  -36207   -36245   -36292   -36401   -36544   -36686   -36825   -36937 
  -37006   -37034   -37008   -36902   -36717   -36494   -36291   -36141 
  -36046   -35994   -35964   -35922   -35846   -35712   -35514   -35303 
  -35113   -34908   -34654   -34363   -34039   -33678   -33317   -33001 
  -32717   -32447   -32228   -32081   -31983   -31913   -31810   -31640 
  -31443   -31231   -30993   -30774   -30589   -30417   -30287   -30240 
  -30263   -30373   -30617   -31004   -31518   -32135   -32799   -33447 
  -34046   -34586   -35068   -35473   -35795   -36063   -36246   -36318 
  -36325   -36265   -36124   -35963   -35805   -35631   -35473   -35351 
  -35241   -35146   -35084   -35042   -35000   -34965   -34910   -34751 
  -34475   -34144   -33759   -33296   -32799   -32309   -31831   -31407 
  -31055   -30730   -30442   -30223   -30058   -29917   -29773   -29611 
  -29430   -29229   -29032   -28823   -28552   -28228   -27879   -27506 
  -27133   -26783   -26433   -26041   -25597   -25124   -24644   -24206 
  -23869   -23616   -23405   -23211   -23001   -22762   -22512   -22289 
  -22116   -21957   -21771   -21524   -21195   -20821   -20453   -20101 
  -19767   -19466   -19203   -18980   -18809   -18699   -18654   -18697 
  -18845   -19088   -19448   -19933   -20487   -21084   -21727   -22405 
  -23113   -23832   -24532   -25180   -25750   -26262   -26732   -27145 
  -27529   -27903   -28239   -28518   -28726   -28860   -28935   -28969 
  -28977   -28990   -29052   -29161   -29294   -29451   -29619   -29754 
  -29827   -29815   -29711   -29513   -29218   -28843   -28398   -27871 
  -27263   -26594   -25898   -25229   -24644   -24162   -23791   -23532 
  -23335   -23124   -22860   -22534   -22148   -21750   -21411   -21165 
  -21016   -20989   -21089   -21285   -21576   -21940   -22299   -22640 
  -22985   -23324   -23677   -24076   -24523   -25028   -25600   -26238 
  -26910   -27582   -28228   -28831   -29394   -29922   -30404   -30857 
  -31308   -31753   -32177   -32562   -32881   -33128   -33292   -33346 
  -33291   -33139   -32928   -32712   -32520   -32357   -32205   -32036 
  -31833   -31570   -31217   -30751   -30173   -29528   -28870   -28255 
  -27767   -27476   -27385   -27462   -27675   -27965   -28272   -28554 
  -28764   -28870   -28902   -28881   -28819   -28773   -28776   -28808 
  -28859   -28941   -29046   -29161   -29297   -29449   -29591   -29735 
  -29883   -30020   -30167   -30328   -30480   -30620   -30745   -30835 
  -30852   -30748   -30542   -30289   -30004   -29722   -29493   -29338 
  -29271   -29298   -29412   -29628   -29976   -30463   -31053   -31699 
  -32372   -33020   -33574   -34057   -34538   -35037   -35582   -36168 
  -36732   -37253   -37759   -38241   -38678   -39057   -39369   -39614 
  -39789   -39883   -39865   -39693   -39387   -39033   -38700   -38435 
  -38272   -38187   -38158   -38192   -38288   -38452   -38651   -38846 
  -39028   -39154   -39218   -39251   -39242   -39198   -39140   -39040 
  -38892   -38712   -38471   -38138   -37739   -37295   -36817   -36355 
  -35952   -35602   -35304   -35059   -34822   -34564   -34317   -34089 
  -33850   -33612   -33379   -33117   -32828   -32544   -32292   -32104 
  -31995   -31972   -32022   -32126   -32289   -32476   -32632   -32734 
  -32767   -32722   -32634   -32562   -32501   -32371   -32137   -31836 
  -31496   -31130   -30770   -30432   -30108   -29828   -29651   -29583 
  -29620   -29749   -29930   -30140   -30368   -30568   -30714   -30815 
  -30870   -30900   -30967   -31144   -31475   -31964   -32609   -33372 
  -34171   -34939   -35643   -36287   -36885   -37419   -37884   -38282 
  -38607   -38862   -39057   -39211   -39311   -39333   -39310   -39302 
  -39336   -39410   -39475   -39472   -39396   -39267   -39107   -38937 
  -38728   -38443   -38116   -37772   -37420   -37104   -36832   -36556 
  -36273   -36012   -35768   -35528   -35318   -35150   -35014   -34909 
  -34831   -34808   -34854   -34911   -34959   -35021   -35062   -35055 
  -35033   -35028   -35044   -35103   -35249   -35485   -35779   -36119 
  -36470   -36776   -37034   -37265   -37494   -37724   -37950   -38169 
  -38367   -38559   -38779   -39005   -39197   -39339   -39394   -39357 
  -39280   -39211   -39155   -39083   -38992   -38887   -38762   -38631 
  -38506   -38344   -38112   -37822   -37465   -37045   -36617   -36213 
  -35808   -35422   -35123   -34913   -34774   -34734   -34777   -34847 
  -34934   -35031   -35087   -35071   -34963   -34739   -34417   -34062 
  -33705   -33365   -33044   -32695   -32279   -31812   -31337   -30898 
  -30521   -30195   -29886   -29553   -29170   -28755   -28340   -27945 
  -27590   -27284   -27027   -26848   -26785   -26854   -27075   -27457 
  -27960   -28522   -29096   -29625   -30088   -30518   -30903   -31235 
  -31577   -31970   -32408   -32878   -33370   -33885   -34428   -34989 
  -35558   -36133   -36670   -37146   -37613   -38093   -38576   -39070 
  -39570   -40039   -40435   -40714   -40852   -40844   -40700   -40444 
  -40098   -39700   -39294   -38895   -38537   -38254   -38015   -37811 
  -37669   -37573   -37483   -37393   -37313   -37234   -37158   -37124 
  -37158   -37218   -37265   -37298   -37304   -37248   -37127   -36975 
  -36796   -36587   -36373   -36164   -35963   -35774   -35553   -35234 
  -34813   -34305   -33713   -33077   -32461   -31889   -31373   -30944 
