Origin Time       2011/03/11 14:46:00
Lat.              38.103
Long.             142.860
Depth. (km)       24
Mag.              9.0
Station Code      NGN006
Station Lat.      36.5084
Station Long.     137.8514
Station Height(m) 733
Record Time       2011/03/11 14:48:25
Sampling Freq(Hz) 100Hz
Duration Time(s)  245
Dir.              U-D
Scale Factor      3920(gal)/6182761
Max. Acc. (gal)   9.974
Last Correction   2011/03/11 14:48:10
Memo.             
[...]
   26084    25959    25804    25678    25640    25533    25134    24557 
   24102    23791    23549    23456    23441    23419    23492    23588 
   23556    23477    23443    23361    23173    22930    22631    22403 
   22355    22389    22587    22937    23198    23456    23644    23490 
   23178    22812    22273    21751    21421    21225    21087    20989 
   20962    20979    20986    21006    21041    21102    21263    21528 
   21878    22310    22744    23125    23409    23568    23737    23994 
   24210    24267    24144    23915    23689    23573    23609    23679 
   23725    23713    23598    23589    23708    23732    23621    23338 
   22964    22663    22427    22371    22515    22632    22674    22770 
   23011    23244    23317    23383    23430    23383    23423    23647 
   24045    24437    24654    24915    25267    25601    26090    26736 
   27353    27969    28615    29088    29258    29421    29842    30311 
   30700    31198    31747    32092    32246    32364    32418    32335 
   32229    32163    31947    31478    30923    30403    29880    29427 
   29103    28738    28351    28128    28043    28003    27914    27714 
   27402    27007    26607    26102    25578    25346    25212    25057 
   25060    25008    24938    25001    24796    24347    24126    24065 
   23914    23783    23726    23550    23348    23365    23500    23635 
   23790    23855    23666    23351    23171    23074    23063    23246 
   23406    23499    23592    23553    23505    23523    23414    23258 
   23164    22957    22682    22536    22479    22592    22907    23106 
   23214    23330    23183    22914    22805    22685    22493    22375 
   22300    22211    22201    22172    21991    22028    22437    22704 
   22676    22703    22833    22892    22896    22990    23136    23092 
   23080    23677    24475    24623    24520    24910    25403    25350 
   25149    25341    25364    24957    24869    25092    24969    24705 
   24816    25150    25404    25591    25798    26017    26010    25794 
   25800    25912    25769    25655    25868    26033    25810    25731 
   26082    26209    25978    25904    26018    25967    25662    25419 
   25311    25051    24861    25072    25257    25122    24967    24945 
   25062    25177    25117    25141    25283    25288    25367    25624 
   25796    25983    26378    26782    27036    27185    27241    27217 
   27128    26986    26805    26633    26528    26417    26384    26548 
   26689    26814    27158    27575    27905    28238    28505    28637 
   28754    28770    28653    28705    28960    29164    29318    29569 
   29914    30203    30313    30383    30552    30597    30496    30526 
   30595    30508    30365    30261    30125    29854    29550    29373 
   29201    28844    28415    28111    27803    27260    26678    26372 
   26168    25918    25781    25602    25338    25251    25236    25169 
   25172    25224    25218    25182    25191    25163    25095    25109 
   25143    25061    24889    24754    24640    24440    24311    24360 
   24294    24041    23964    24112    24289    24412    24367    24245 
   24197    24142    24180    24414    24601    24544    24367    24287 
   24274    24185    24101    24071    23857    23440    23148    23040 
   22880    22825    23239    23757    23967    24218    24520    24487 
   24382    24526    24689    24766    24965    25247    25413    25520 
   25677    25785    25777    25806    25877    25806    25634    25471 
   25286    25093    25035    25130    25114    24909    24764    24778 
   24797    24703    24682    24869    24960    24817    24826    25137 
   25345    25262    25167    25202    25192    24984    24782    24885 
   25063    25030    25084    25232    25163    25164    25400    25521 
   25408    25141    24874    24764    24694    24649    24886    25288 
   25505    25695    25996    26041    25764    25547    25647    25929 
   26166    26431    26671    26675    26636    26700    26658    26598 
   26748    26928    26958    26979    27085    27194    27292    27456 
   27598    27666    27833    28019    28003    27964    28098    28158 
   27965    27695    27420    27074    26765    26601    26452    26236 
   26109    26108    26139    26253    26491    26743    26885    26853 
   26591    26192    25939    25924    25870    25596    25437    25530 
   25406    25178    25262    25173    24724    24503    24471    24279 
   24109    24110    24158    24173    24210    24256    24193    24188 
   24413    24587    24635    24837    25149    25427    25695    25918 
   26122    26290    26327    26460    26807    27089    27286    27480 
   27615    27803    27965    27952    28093    28452    28554    28509 
   28642    28639    28353    28014    27857    28059    28376    28620 
   28827    28692    28233    27917    27700    27357    27074    26945 
   26815    26736    26926    27322    27555    27483    27383    27400 
   27266    26879    26487    26119    25769    25676    25808    25872 
   25856    25905    25865    25514    25178    25254    25485    25580 
   25730    25927    25860    25696    25780    25788    25380    25102 
   25412    25711    25597    25569    25797    25893    25829    25932 
   26121    26129    26155    26227    26140    26163    26295    26150 
   25937    25921    25800    25564    25532    25470    25140    25005 
   25184    25117    24764    24596    24672    24861    25203    25579 
   25685    25481    25300    25421    25605    25548    25537    25706 
   25807    25926    26020    26073    26408    26798    27044    27378 
   27568    27518    27669    27977    28092    28104    28203    28379 
   28413    28194    28105    28205    28087    27930    28053    28284 
   28395    28334    28242    28194    28083    27981    27858    27491 
   27090    27023    27062    26789    26574    26844    26964    26607 
   26410    26363    26084    25903    26012    26056    25935    25849 
   25715    25472    25391    25531    25668    25750    25997    26396 
   26467    26200    26157    26405    26738    27113    27288    27251 
   27268    27273    27222    27253    27272    27122    26895    26920 
   27190    27324    27406    27510    27349    27163    27183    27112 
   26926    26767    26666    26626    26503    26297    26048    25814 
   25709    25457    25071    24913    24828    24738    24700    24504 
   24229    24132    24113    24123    24335    24411    24077    23801 
   23654    23485    23560    23710    23602    23493    23704    23997 
   24012    23987    24167    24165    23839    23763    24056    23934 
   23447    23528    23777    23485    23306    23471    23559    23709 
   23910    23979    23929    23739    23641    23820    24022    24030 
   24027    24271    24492    24259    23893    23863    23758    23301 
   23114    23360    23450    23242    22979    22721    22510    22368 
   22368    22585    22643    22410    22387    22517    22418    22393 
   22818    23366    23567    23681    24055    24384    24551    24775 
   25030    25175    25081    24971    25288    25684    25684    25608 
   25589    25512    25507    25503    25451    25451    25211    24684 
   24508    24572    24294    24149    24368    24383    24251    24331 
   24541    24474    24114    23919    23883    23997    24333    24454 
   24426    24568    24596    24496    24547    24676    24844    25068 
   25227    25342    25390    25339    25478    25721    25695    25625 
   25668    25580    25488    25491    25383    25263    25267    25259 
   25198    25130    25123    25215    25253    25259    25456    25607 
   25591    25841    26115    26081    26138    26168    26027    26024 
   26025    26071    26281    26237    25986    25951    25989    25888 
   25790    25884    26138    26180    25958    25907    25897    25619 
   25494    25634    25598    25547    25736    25761    25586    25712 
   25994    25934    25744    25796    25795    25535    25430    25589 
   25588    25500    25696    25888    25885    26038    26212    26008 
   25662    25579    25677    25662    25537    25487    25477    25285 
   24911    24700    24807    24830    24532    24510    24897    24928 
   24724    24845    24970    24969    25192    25453    25390    25314 
   25475    25458    25273    25371    25675    26038    26425    26553 
   26529    26698    26869    26866    26954    27270    27582    27811 
   28078    28141    28020    28207    28375    28185    28353    28794 
   28764    28770    29218    29488    29488    29589    29649    29510 
   29600    30052    30309    30412    30670    30773    31063    31772 
   31936    31713    32011    32221    31969    32001    32291    32418 
   32418    32334    32455    32701    32617    32604    32615    32217 
   32105    32221    31855    31515    31453    31265    31071    31069 
   31238    31382    31293    31223    31239    30996    30718    30692 
   30479    30073    30122    30287    30005    29938    30173    29886 
   29308    29007    28746    28451    28310    28123    28002    28184 
   28225    28075    28007    27843    27838    28005    27792    27572 
   27504    27013    26597    26647    26472    26248    26596    26965 
   26919    26961    27113    27091    27315    27865    28136    28153 
   28431    28892    29223    29480    29608    29501    29325    29089 
   28946    29031    28950    28744    28678    28539    28422    28385 
   28189    27991    27926    27855    27664    27390    27260    27169 
   26919    26776    26644    26246    26037    26038    25696    25258 
   24876    24423    24403    24587    24480    24470    24347    23982 
   23992    24178    24107    23798    23440    23344    23311    23128 
   22953    22709    22476    22478    22565    22465    22167    21951 
   21964    21971    21776    21602    21533    21297    21241    21586 
   21645    21382    21326    21393    21385    21377    21503    21608 
   21475    21387    21462    21391    21253    21261    21219    21143 
   21270    21464    21571    21598    21607    21703    21833    21917 
   21930    21975    22168    22375    22537    22583    22640    22987 
   23109    22795    22788    22967    22876    22883    22949    22891 
   22992    23067    23193    23649    23708    23378    23565    23880 
   23942    24311    24753    24866    24987    25128    25137    25207 
   25339    25438    25508    25451    25495    25908    26131    25802 
   25617    25865    26060    26122    26152    26031    25947    26055 
   25936    25619    25719    25876    25655    25691    25944    25918 
   25838    25688    25477    25570    25747    25623    25388    25355 
   25285    24660    23864    24001    24840    24853    24654    26089 
   27668    27872    28601    28924    26049    24096    26807    28106 
   25314    25820    30257    30678    27410    26339    26031    24607 
   25445    27938    29050    29571    29180    27516    27290    28346 
   28449    28016    27497    25840    23862    25272    29945    31182 
   27725    27348    31112    30852    26254    24884    27217    29335 
   30275    29729    28751    27901    26741    27712    30952    32244 
   30685    29607    30275    30641    29628    28953    29583    29375 
   28279    28939    30092    29088    27370    27759    29197    28574 
   27566    29088    29938    27085    25931    28652    26960    23986 
   28434    29033    22533    25302    33726    32639    27414    27605 
   29242    26671    22350    23055    28573    29925    26503    27140 
   29618    26037    24071    30717    32304    24201    22765    29984 
   32421    28348    26430    28248    26794    23059    23902    25718 
   24870    27124    32663    34070    30274    27196    27988    29947 
   29780    27863    26697    27420    27773    25199    23156    26189 
   28296    25609    28258    33932    29664    23596    23926    23719 
   24623    28818    30380    28285    25025    24191    27538    29757 
   28903    29778    30125    26017    23906    26269    26353    23672 
   23943    27791    29431    28445    29828    27815    20828    22600 
   28699    25358    23252    28496    29085    26065    25458    23049 
   20380    22061    25319    27757    27846    23883    19747    20433 
   24021    25690    27060    30093    29364    25278    24157    23272 
   21177    23513    26677    25396    26542    30659    28184    22612 
   23445    27310    27967    26505    26130    27203    27364    24843 
   22279    24109    27009    27031    29359    31558    28309    27356 
   28981    27126    26729    29018    29639    29025    27976    28375 
   30086    29467    29226    31050    30291    27924    27175    26423 
   26138    27919    29163    29940    32200    31497    27370    26647 
   27280    25255    26628    30701    29941    29756    33101    30027 
   24614    26257    28383    28045    28288    28669    29744    29080 
   27091    26209    23581    24902    31348    29778    25214    27396 
   26367    23309    27044    30073    29033    28535    28706    30851 
   31812    27514    25699    28332    26418    23385    28196    31317 
   23535    19522    25961    26333    21421    25275    29238    23902 
   20614    25274    28140    24151    21865    27631    31995    26672 
   21652    24770    25801    20874    22777    32247    33831    26026 
   21503    22420    23267    22251    18668    17447    23101    26899 
   25763    28905    33296    31452    29402    29910    26154    19261 
   16048    13869    10643    13729    21830    24874    24315    28825 
   35103    34057    29642    27413    22289    16472    17667    18792 
   15785    21145    32264    34538    31517    29664    28042    27693 
   28785    32021    34448    29509    19910    13614    15271    21042 
   21093    17596    18380    21744    26098    30482    32687    33622 
   32239    30407    30971    28472    23605    22139    19744    15002 
   15257    23778    34085    35372    29876    29213    29789    23361 
   19454    24005    23180    14014    12446    20935    25562    24496 
   27056    27430    20588    21844    30891    32032    29813    30708 
   30569    29702    25415    17718    19345    30010    32066    24666 
   22315    24604    26501    33185    38176    30928    23760    25257 
   21121    13741    21756    32470    29349    30408    37424    30907 
   23713    31533    38307    34348    31490    34245    30943    20343 
   17587    24069    26430    22999    24609    31476    30757    24563 
   26425    32308    33328    30696    24173    18589    23342    31867 
   32466    31414    37104    39701    30635    19930    17416    18225 
   18964    26066    34225    29695    21204    25021    33564    32830 
   25915    22842    22614    19034    18575    25805    29424    29036 
   34065    35706    24906    15175    17756    22858    23811    26531 
   29141    26518    23530    24914    25783    20425    16729    23469 
   31712    33108    30236    24331    20879    25479    29708    26882 
   22974    22914    26648    30821    28055    19613    18356    24953 
   26221    23310    25596    27850    26272    27135    28170    23019 
   17650    21649    27185    23002    20759    26618    29449    33728 
   39654    32922    23507    25894    30489    31250    32099    31966 
   28756    25406    27431    29008    21210    17761    27029    31377 
   28361    28593    26321    20562    19519    20156    20317    23280 
   23270    20362    25564    32221    27669    21850    23871    25514 
   22742    21324    22737    22080    20029    21634    24631    24099 
   20751    19504    23225    27109    25572    21720    20766    21605 
   23410    26769    27214    24245    23523    24723    24200    22855 
   24472    28903    30412    28490    27828    28228    28941    30397 
   28669    22154    17916    20084    22140    23139    29252    34391 
   31995    28957    27873    26273    25386    23461    20925    22194 
   25394    27241    27838    27775    29491    32194    31279    29593 
   31076    29338    23819    24363    28503    26966    23505    24756 
   27542    27644    29144    32161    28611    23448    26424    31151 
   30825    27973    26216    26639    26122    24769    26174    27564 
   27270    28568    29263    28728    32664    36960    33860    29902 
   30149    27214    22688    27006    34844    34373    30334    29958 
   28469    24154    22860    25362    27118    27144    28333    30307 
   29429    25822    24066    27052    30171    27267    22925    24183 
   26039    23014    21301    25007    27943    26801    25369    25069 
   24076    23234    24786    26432    24689    22362    23839    27365 
   27216    23251    22903    27143    28954    28026    28157    28434 
   26881    25112    26462    28139    25648    24164    27643    29284 
   25687    23412    24193    23070    23170    27286    29008    26944 
   24788    24697    27185    28685    28044    28429    29460    28478 
   25346    23438    25416    27867    27312    25994    25571    24529 
   23581    25602    29207    29359    26381    24694    23865    22417 
   22861    24940    25424    25786    27661    26748    22929    22870 
   26506    28373    28084    27238    25223    22312    21931    25421 
   26980    24161    23439    25694    26268    27150    28798    26140 
   21738    22062    24868    25030    23214    23063    25397    26341 
   24150    23298    24671    24423    23424    22818    21655    22709 
   24857    23560    22059    22602    22497    23612    25546    24085 
   22172    23048    22866    21703    24237    27035    24808    22618 
   24338    24646    22582    23711    27363    27884    25428    24253 
   24420    23115    20593    19541    20357    20835    20151    20379 
   23141    25911    25803    24743    24776    24663    24173    24607 
   26025    26833    25510    23913    25064    26811    26221    25748 
   26469    25959    25276    26442    27450    26811    26187    26232 
   25624    24800    25745    27370    26888    26442    28819    29955 
   28236    28325    29311    28250    28062    29610    30609    31363 
   31538    29325    26731    26858    28000    28495    29918    30974 
   29844    28879    28092    26338    26431    27834    27907    28298 
   28688    27698    27629    28112    26678    25635    27305    28577 
   28155    29150    30713    28824    25088    25139    28572    29745 
   28501    28565    29465    29169    28003    27117    27335    28489 
   29324    29755    30077    28949    27256    27243    27250    26415 
   27786    30654    30268    27748    27806    29012    28699    28300 
   28638    29222    29508    28630    27924    29430    30510    29226 
   29820    31852    30461    29168    31001    31294    29698    28917 
   28276    28411    29345    28934    28736    30394    31047    30067 
   30044    29872    28225    28178    29631    29023    27965    28850 
   29160    28527    29038    28741    26863    26417    26974    26868 
   26813    26558    25987    26188    27101    26857    24974    25038 
   27652    28085    26629    27051    27792    27166    27324    28400 
   28127    26550    26513    28660    28975    26720    26131    26860 
   26849    27842    29143    28849    28358    27741    26705    27304 
   27721    25904    26416    29020    27813    26005    28072    28881 
