Origin Time       2011/03/11 14:46:00
Lat.              38.103
Long.             142.860
Depth. (km)       24
Mag.              9.0
Station Code      NGN017
Station Lat.      35.9749
Station Long.     137.8259
Station Height(m) 916
Record Time       2011/03/11 14:47:56
Sampling Freq(Hz) 100Hz
Duration Time(s)  248
Dir.              U-D
Scale Factor      3920(gal)/6182761
Max. Acc. (gal)   6.763
Last Correction   2011/03/11 14:47:41
Memo.             
[...]
  -13881   -12560   -11400   -10844   -10802   -10732   -10261    -9547 
   -9044    -8935    -9043    -9336   -10021   -11076   -12116   -12757 
  -13031   -13361   -14041   -15003   -15983   -16504   -16132   -15151 
  -14390   -14134   -13840   -13010   -11779   -10712   -10368   -10928 
  -12036   -13031   -13563   -13911   -14395   -14874   -15065   -14843 
  -14264   -13551   -12956   -12559   -12257   -12004   -11880   -11838 
  -11738   -11620   -11476   -11093   -10516   -10233   -10666   -11602 
  -12307   -12405   -12394   -12920   -13810   -14331   -14307   -14309 
  -14625   -14745   -14140   -13055   -12127   -11526   -10868    -9997 
   -9298    -9093    -9298    -9710   -10277   -11165   -12407   -13517 
  -13988   -13983   -14061   -14514   -15271   -16074   -16560   -16507 
  -16123   -15803   -15608   -15271   -14743   -14310   -14195   -14332 
  -14459   -14318   -13789   -12886   -11877   -11313   -11488   -12041 
  -12355   -12095   -11463   -10993   -10874   -10820   -10673   -10573 
  -10687   -11000   -11199   -11097   -11028   -11362   -12010   -12707 
  -13329   -13857   -14351   -14832   -15065   -14773   -14013   -13077 
  -12190   -11388   -10641   -10090    -9961   -10174   -10377   -10394 
  -10377   -10378   -10205    -9989   -10223   -10903   -11357   -11115 
  -10459   -10143   -10684   -11704   -12224   -11813   -11090   -11015 
  -11957   -13331   -14056   -13609   -12480   -11431   -10819   -10721 
  -11165   -12090   -13230   -14190   -14694   -14606   -13820   -12546 
  -11534   -11401   -11885   -12210   -11965   -11336   -10691   -10245 
  -10067   -10205   -10736   -11586   -12417   -12994   -13445   -13879 
  -14099   -13878   -13148   -12043   -11079   -11014   -12121   -13817 
  -15253   -15999   -16005   -15375   -14431   -13575   -12833   -11894 
  -10706    -9785    -9690   -10308   -10979   -11102   -10577    -9901 
   -9637    -9809   -10165   -10709   -11499   -12174   -12183   -11510 
  -10833   -10816   -11443   -12249   -12926   -13478   -14040   -14667 
  -15107   -14956   -14054   -12579   -10934    -9643    -9129    -9382 
   -9879   -10089    -9911    -9513    -9123    -8957    -8984    -8893 
   -8490    -7838    -7114    -6569    -6543    -7241    -8373    -9298 
   -9797   -10229   -10758   -11090   -11044   -10892   -10945   -11234 
  -11906   -13291   -15071   -16246   -16439   -16346   -16583   -16860 
  -16538   -15586   -14705   -14392   -14261   -13806   -13226   -12883 
  -12681   -12406   -11993   -11494   -11107   -10981   -11154   -11600 
  -11970   -11807   -11224   -10841   -11020   -11559   -12138   -12729 
  -13348   -13769   -13847   -13801   -13850   -13901   -13896   -14023 
  -14245   -14221   -14023   -14181   -14681   -14805   -14100   -12806 
  -11462   -10394    -9543    -8730    -7915    -7273    -7205    -7968 
   -9109    -9722    -9585    -9586   -10516   -11898   -12538   -11881 
  -10563    -9697    -9729   -10103   -10038    -9322    -8371    -7882 
   -8278    -9250   -10141   -10782   -11528   -12471   -13189   -13388 
  -13275   -13114   -12765   -12054   -11392   -11392   -12079   -12953 
  -13527   -13569   -13073   -12275   -11644   -11528   -11746   -11808 
  -11476   -10997   -10873   -11426   -12581   -14026   -15296   -15835 
  -15373   -14175   -12968   -12615   -13353   -14403   -14754   -14226 
  -13621   -13829   -14693   -14980   -13848   -11978   -10807   -10982 
  -11933   -12773   -13167   -13214   -13125   -13262   -13826   -14423 
  -14539   -14270   -14085   -13985   -13329   -11769    -9987    -8996 
   -9029    -9628   -10421   -11304   -12081   -12513   -12683   -12830 
  -12915   -12754   -12492   -12552   -12966   -13259   -13123   -12849 
  -12938   -13326   -13464   -13250   -13181   -13341   -13029   -11773 
  -10059    -8722    -8221    -8521    -9176    -9721   -10130   -10712 
  -11676   -12765   -13160   -12308   -10842   -10039   -10513   -11722 
  -12557   -12391   -11485   -10518    -9986    -9751    -9368    -8966 
   -8983    -9233    -9291    -9402   -10137   -11338   -12064   -11972 
  -12096   -13456   -15581   -17093   -17239   -16437   -15492   -14701 
  -13979   -13501   -13728   -14732   -15694   -15704   -14864   -13795 
  -12714   -11637   -10742   -10249   -10191   -10358   -10553   -10895 
  -11636   -12555   -12983   -12691   -12218   -12173   -12495   -12638 
  -12515   -12692   -13425   -14182   -14308   -13704   -12794   -12194 
  -12466   -13791   -15541   -16658   -16781   -16442   -16216   -16248 
  -16306   -16027   -15249   -14140   -13039   -12156   -11472   -11068 
  -11155   -11573   -11696   -11057    -9920    -9151    -9402   -10426 
  -11328   -11506   -11319   -11712   -13083   -14758   -15651   -15320 
  -14350   -13726   -13974   -14933   -15964   -16402   -16192   -15893 
  -15796   -15558   -14819   -13721   -12865   -12722   -12989   -12957 
  -12380   -11450   -10538   -10253   -10954   -12158   -12874   -12444 
  -11072    -9761    -9477   -10258   -11362   -12098   -12162   -11630 
  -11068   -11104   -11625   -11939   -11693   -11094   -10546   -10440 
  -10923   -11736   -12457   -12760   -12593   -12216   -11916   -11838 
  -11950   -11926   -11529   -11033   -10873   -11274   -12171   -12939 
  -12685   -11401   -10224   -10068   -10759   -11729   -12585   -13042 
  -13067   -12972   -13201   -14080   -15460   -16659   -17139   -16961 
  -16352   -15451   -14567   -14147   -14407   -15052   -15606   -16022 
  -16470   -16711   -16408   -15756   -15280   -15261   -15590   -15973 
  -16190   -16154   -15803   -15162   -14471   -13953   -13558   -13210 
  -12922   -12570   -12123   -11867   -11958   -12093   -11918   -11563 
  -11615   -12432   -13665   -14758   -15599   -16266   -16540   -16161 
  -15272   -14322   -13677   -13384   -13251   -13128   -13005   -12951 
  -13047   -13224   -13093   -12319   -11215   -10505   -10461   -10671 
  -10691   -10657   -10984   -11714   -12562   -13236   -13460   -13081 
  -12393   -12023   -12317   -13003   -13519   -13532   -13128   -12691 
  -12463   -12215   -11777   -11570   -11950   -12579   -12878   -12647 
  -12174   -11935   -12178   -12821   -13534   -13792   -13329   -12556 
  -12089   -12017   -11931   -11399   -10325    -9157    -8657    -9152 
  -10246   -11476   -12752   -13900   -14453   -14286   -13947   -13998 
  -14266   -14228   -13831   -13446   -13441   -14000   -14981   -15977 
  -16483   -16175   -15422   -15009   -15078   -14982   -14174   -12813 
  -11601   -11020   -10809   -10428    -9804    -9266    -8963    -8862 
   -9039    -9429    -9792   -10207   -10908   -11728   -12296   -12481 
  -12488   -12774   -13571   -14372   -14364   -13426   -12192   -11221 
  -10533    -9743    -8455    -6822    -5613    -5469    -6333    -7779 
   -9406   -10828   -11803   -12393   -12767   -13065   -13367   -13671 
  -14093   -14790   -15527   -15870   -15815   -15704   -15552   -15054 
  -14209   -13427   -12949   -12551   -11902   -11053   -10362    -9991 
   -9856    -9951   -10220   -10331   -10037    -9691    -9965   -10913 
  -11816   -12130   -12076   -12153   -12463   -12761   -12957   -13285 
  -13921   -14628   -14958   -14939   -15173   -15812   -16086   -15300 
  -13692   -12193   -11692   -12253   -13068   -13357   -12950   -12076 
  -11077   -10387   -10382   -10845   -11015   -10521    -9822    -9590 
   -9962   -10457   -10517   -10050    -9665   -10196   -11611   -12949 
  -13810   -14716   -15746   -16224   -15776   -14668   -13391   -12357 
  -11578   -10696    -9562    -8579    -8335    -8987   -10060   -10789 
  -10724   -10385   -10924   -12482   -13721   -13586   -12611   -12159 
  -12878   -14199   -15254   -15594   -15078   -13964   -12908   -12314 
  -11940   -11312   -10368    -9603    -9457    -9791   -10140   -10324 
  -10694   -11724   -13223   -14266   -14215   -13545   -13351   -14098 
  -15208   -15774   -15358   -14277   -13214   -12483   -11903   -11479 
  -11523   -11975   -12331   -12276   -11875   -11356   -11085   -11467 
  -12423   -13184   -13178   -12869   -13081   -13896   -14732   -14907 
  -13995   -12282   -10684    -9812    -9467    -9239    -9186    -9655 
  -10609   -11523   -12036   -12346   -12673   -12663   -11908   -10801 
  -10121   -10071   -10375   -10875   -11518   -12074   -12156   -11678 
  -11139   -10992   -10967   -10544    -9805    -9420    -9808   -10502 
  -10640   -10046    -9487    -9829   -11095   -12440   -13024   -12780 
  -12371   -12572   -13483   -14443   -14833   -14598   -14253   -14553 
  -15630   -16792   -17321   -16792   -15011   -12462   -10200    -8877 
   -8431    -8376    -8067    -7228    -6236    -5786    -6376    -7818 
   -9331   -10323   -10800   -10963   -10879   -10738   -10827   -11134 
  -11463   -11818   -12323   -12870   -13106   -12791   -12145   -11816 
  -12302   -13310   -13977   -13919   -13679   -13831   -14201   -14282 
  -13843   -12994   -12092   -11628   -11915   -12851   -14019   -15092 
  -16072   -16920   -17300   -17107   -16631   -16202   -16232   -17094 
  -18532   -19694   -19949   -19383   -18327   -16851   -15066   -13427 
  -12392   -11964   -11742   -11444   -11071   -10721   -10643   -11118 
  -11971   -12679   -13103   -13578   -14227   -14717   -14798   -14627 
  -14510   -14523   -14265   -13144   -11308    -9917    -9944   -10985 
  -11635   -10926    -9209    -7665    -7152    -7505    -7865    -7692 
   -7225    -7048    -7580    -8919   -10853   -12730   -13705   -13675 
  -13542   -14051   -14850   -15096   -14572   -13815   -13287   -12718 
  -11612   -10272    -9717   -10448   -11674   -12104   -11395   -10344 
   -9801    -9954   -10610   -11750   -13283   -14440   -14405   -13487 
  -12921   -13530   -14836   -15645   -15491   -14986   -14768   -14687 
  -14164   -13087   -12057   -11546   -11143   -10205    -8903    -8019 
   -8043    -8937   -10430   -12005   -12893   -12822   -12717   -13812 
  -16007   -17899   -18364   -17481   -16158   -15295   -15157   -15265 
  -14788   -13218   -10982    -9387    -9293    -9901    -9883    -9338 
   -9318    -9969   -10545   -10683   -10690   -10957   -11578   -12423 
  -13381   -14365   -15166   -15547   -15619   -15940   -16882   -18208 
  -19401   -19989   -19756   -18827   -17360   -15383   -13066   -10959 
   -9818    -9894   -10463   -10556   -10002    -9373    -9203    -9634 
  -10603   -11941   -13311   -14475   -15564   -16834   -18227   -19166 
  -18997   -17900   -16842   -16503   -16617   -16310   -15132   -13742 
  -13158   -13478   -13772   -13032   -11111    -8938    -7754    -8124 
   -9548   -10862   -11344   -11381   -11792   -12771   -13699   -13956 
  -13644   -13205   -12817   -12566   -12558   -12478   -11823   -10835 
  -10225    -9948    -9271    -7873    -6226    -5140    -5106    -5873 
   -6714    -7131    -7193    -7159    -7040    -6931    -7304    -8307 
   -9499   -10640   -11762   -12627   -13056   -13444   -14158   -14665 
  -14052   -12485   -11392   -11820   -13294   -14667   -15387   -15529 
  -15135   -14153   -12976   -12266   -12056   -11700   -10866   -10096 
  -10154   -10948   -11664   -11996   -12298   -12610   -12782   -13252 
  -14472   -15862   -16145   -14653   -12088    -9934    -9304   -10320 
  -12089   -13172   -12721   -11322   -10256   -10184   -10852   -11524 
  -11659   -11501   -11662   -12258   -12969   -13642   -14181   -13901 
  -12080    -9424    -7745    -7828    -8761    -9349    -9373    -9665 
  -11150   -13683   -16044   -17148   -17098   -16942   -17377   -18101 
  -18347   -17443   -15152   -12218   -10157    -9859   -10731   -11500 
  -11526   -11133   -10996   -11476   -12346   -12927   -12700   -11950 
  -11513   -11692   -11943   -11887   -11854   -12086   -12317   -12344 
  -12168   -11648   -10758    -9953    -9646    -9647    -9656    -9758 
  -10026   -10284   -10466   -10705   -11041   -11387   -11774   -12425 
  -13484   -14747   -15742   -16028   -15608   -15020   -14722   -14675 
  -14821   -15252   -15712   -15714   -15224   -14636   -14053   -13124 
  -11691   -10272    -9801   -10753   -12472   -13590   -13113   -11236 
   -9209    -8106    -7992    -8531    -9445   -10257   -10580   -10543 
  -10447   -10365   -10225   -10000    -9887   -10278   -11421   -13097 
  -14495   -14623   -13374   -11881   -11352   -11942   -12955   -13723 
  -14021   -13948   -13660   -13163   -12235   -10580    -8427    -6910 
   -7119    -8761   -10617   -12209   -13935   -15670   -16380   -15570 
  -14390   -14417   -15737   -17044   -17178   -16114   -14824   -14360 
  -14904   -15527   -15067   -13407   -11501   -10351   -10468   -11722 
  -13140   -13478   -12382   -10697    -9669    -9915   -10981   -12053 
  -12930   -13673   -13856   -13067   -11591   -10179    -9511    -9663 
  -10199   -11128   -12901   -15247   -17147   -17928   -17631   -16885 
  -16593   -16897   -16847   -15798   -14404   -13712   -13798   -13782 
  -13052   -12036   -11617   -12039   -12641   -12647   -11984   -11091 
  -10255    -9572    -9263    -9456    -9730    -9630    -9541   -10209 
  -11720   -13513   -14721   -14524   -13019   -11418   -10861   -11375 
  -12236   -12768   -12425   -10944    -9106    -8286    -8770    -9478 
   -9522    -9281    -9675   -11019   -13015   -15160   -16809   -17661 
  -18118   -18387   -17972   -16739   -15413   -14830   -15392   -16790 
  -17917   -17663   -16219   -15235   -15897   -17207   -17153   -15199 
  -12875   -12062   -13101   -14551   -14567   -12656   -10315    -9802 
  -11878   -14937   -16793   -16911   -16243   -15444   -14365   -13263 
  -13341   -15479   -18975   -22022   -23171   -22013   -19150   -16143 
  -14629   -14789   -15346   -15230   -14605   -14236   -14262   -14165 
  -13739   -13120   -12228   -11083   -10312   -10627   -11977   -13564 
  -14537   -14427   -13549   -13241   -14607   -16969   -18729   -19251 
  -18784   -17422   -15064   -11891    -8724    -6703    -6072    -5821 
   -5038    -3888    -3021    -2670    -2573    -2659    -3430    -5256 
   -7679    -9859   -11294   -12008   -12503   -13497   -15319   -17567 
  -19587   -21053   -21873   -21921   -21211   -20096   -18862   -17233 
  -14853   -12288   -10889   -11160   -11892   -11733   -10999   -10925 
  -11744   -12513   -12454   -11769   -11195   -11138   -11285   -11103 
  -10633   -10344   -10539   -11313   -12534   -13683   -14318   -14561 
  -14701   -14753   -14604   -14112   -13373   -12913   -12914   -12772 
  -11991   -10837    -9881    -9305    -8846    -8362    -8132    -8404 
   -8887    -9026    -8714    -8481    -8935   -10124   -11504   -12495 
  -13003   -13295   -13550   -13954   -14920   -16604   -18334   -19011 
  -18105   -16198   -14701   -14746   -16055   -17261   -17372   -16440 
  -14973   -13511   -12735   -12922   -13271   -12624   -10771    -8555 
   -6959    -6486    -7197    -8729   -10134   -10328    -9317    -8506 
   -8939   -10065   -11170   -12500   -14055   -14684   -13393   -11029 
   -9794   -10744   -12448   -12857   -11828   -11001   -11625   -13265 
  -14619   -15057   -15074   -15455   -16238   -16720   -16534   -16335 
  -16959   -18051   -18130   -16270   -13304   -10958   -10254   -11017 
  -12278   -13153   -13521   -13565   -13306   -13088   -13481   -14324 
  -14706   -14030   -12918   -12832   -14433   -16660   -17889   -17549 
  -16126   -14427   -13472   -13942   -15267   -16183   -16142   -15667 
  -15517   -15800   -15868   -15012   -13300   -11530   -10225    -9200 
   -8378    -8415    -9895   -11888   -12450   -11194    -9919   -10298 
  -12246   -14284   -14685   -12788    -9637    -7160    -6601    -7706 
   -9154    -9647    -8983    -8021    -7421    -6980    -6323    -5568 
   -5270    -5866    -7009    -7873    -8201    -8463    -9180   -10358 
  -11322   -11549   -11708   -12809   -14475   -15238   -14442   -12822 
  -11222    -9684    -8149    -7179    -7215    -7774    -8158    -8232 
   -8163    -8015    -7730    -7226    -6492    -5740    -5534    -6496 
   -8643   -11004   -12431   -12879   -13180   -13908   -15217   -17044 
  -19011   -20459   -20807   -20039   -18594   -16958   -15769   -15517 
  -15739   -15494   -14713   -14094   -13723   -12947   -11661   -10554 
  -10049    -9844    -9383    -8533    -7989    -8653   -10423   -12332 
  -13700   -14362   -14388   -14054   -13741   -13942   -15045   -16625 
  -17565   -17290   -16235   -14966   -13625   -12352   -11523   -11384 
  -11705   -11847   -11303   -10427   -10292   -11256   -12142   -11674 
  -10185    -9052    -8917    -9166    -9109    -8899    -8970    -9362 
  -10012   -10944   -11856   -12200   -11938   -11695   -12003   -12595 
  -12654   -11979   -11503   -11953   -12627   -12430   -11495   -11020 
  -11814   -13404   -14557   -14544   -13772   -13165   -13165   -13500 
  -13569   -12789   -11329   -10576   -11593   -13495   -14605   -14239 
  -12838   -11408   -10832   -11128   -11764   -12618   -13656   -14215 
  -13676   -12398   -11503   -11904   -13351   -14591   -14702   -13813 
  -12616   -11906   -12236   -13160   -13397   -12522   -11539   -11518 
  -12698   -14359   -15063   -14097   -12514   -11851   -12466   -13651 
  -14643   -15199   -15590   -16099   -16600   -16837   -16616   -15551 
  -13542   -11397   -10172   -10110   -10556   -10706   -10400   -10024 
   -9661    -9024    -8514    -9328   -11743   -14094   -14599   -13606 
  -12874   -13329   -14534   -15572   -15773   -15204   -14610   -14577 
  -14828   -14621   -13962   -13761   -14472   -15474   -15793   -14939 
  -13487   -12759   -13410   -14574   -14703   -13262   -11337   -10199 
  -10002   -10344   -10926   -11248   -10749    -9619    -8768    -8846 
   -9823   -11192   -12163   -12452   -12823   -13956   -15459   -16682 
  -17474   -17702   -16934   -15231   -13786   -13599   -13858   -13019 
  -11111    -9686    -9771   -10913   -12053   -12672   -12915   -12767 
  -11817   -10193    -9013    -9060    -9610    -9683    -9518    -9702 
  -10196   -10977   -12436   -14497   -15995   -16037   -15660   -16665 
  -19099   -21114   -21003   -18964   -16885   -16176   -16515   -16916 
  -16743   -15722   -13876   -11524    -9469    -8630    -8923    -9355 
   -9396    -9536   -10565   -12629   -14940   -16477   -17187   -18139 
  -19832   -21101   -20829   -19827   -19591   -19922   -19300   -17434 
  -15785   -15130   -14465   -13014   -11460   -10563   -10187    -9946 
   -9645    -9295    -9198    -9543   -10238   -11372   -12782   -13533 
  -13041   -12092   -11931   -12870   -14121   -14630   -13996   -12687 
  -11584   -11550   -12822   -14635   -16117   -17078   -17780   -18755 
  -20345   -21891   -22207   -21073   -19435   -18233   -17662   -17237 
  -16260   -14559   -12678   -11246   -10553   -10435   -10035    -8370 
   -5831    -4189    -4496    -5860    -6715    -6747    -7098    -8823 
  -11683   -14352   -15604   -15555   -15561   -16508   -17763   -18081 
  -16806   -14275   -11915   -11290   -12176   -12563   -11266    -9396 
   -8666    -9269   -10091   -10276    -9608    -8133    -6585    -6275 
   -7571    -9538   -11478   -13395   -14919   -15210   -13923   -11707 
  -10100   -10634   -13338   -16522   -18422   -18510   -17062   -14599 
  -12292   -11479   -12047   -12535   -11983   -10733    -9841   -10138 
  -11427   -12482   -12053   -10205    -8621    -8842   -10426   -11665 
  -11567   -10579    -9887   -10401   -12062   -13643   -13658   -12271 
  -11458   -12525   -14660   -16120   -15715   -13446   -10548    -8773 
