Origin Time       2011/03/11 14:46:00
Lat.              38.103
Long.             142.860
Depth. (km)       24
Mag.              9.0
Station Code      NGN022
Station Lat.      35.6053
Station Long.     137.6126
Station Height(m) 453
Record Time       2011/03/11 14:48:02
Sampling Freq(Hz) 100Hz
Duration Time(s)  237
Dir.              N-S
Scale Factor      3920(gal)/6182761
Max. Acc. (gal)   25.000
Last Correction   2011/03/11 14:47:47
Memo.             
[...]
  -74640   -75602   -76992   -78167   -78622   -78781   -79349   -80321 
  -81066   -81238   -81157   -80983   -80483   -80010   -80134   -80725 
  -81468   -82111   -82359   -81980   -80919   -79608   -78490   -77574 
  -76602   -75121   -73285   -71957   -71223   -70552   -70028   -69974 
  -70539   -71691   -72951   -73860   -74693   -76202   -78630   -81288 
  -83252   -84170   -84439   -84880   -85798   -86636   -86944   -86683 
  -85914   -84870   -83543   -81747   -79971   -79184   -79854   -81345 
  -82518   -83020   -83229   -83188   -82495   -81111   -79812   -79479 
  -79934   -80199   -79691   -78860   -78686   -79289   -79534   -78139 
  -75238   -72741   -72137   -72820   -72991   -71518   -69075   -67104 
  -66345   -66531   -66570   -65981   -65472   -65353   -65665   -66955 
  -69060   -71042   -72368   -72924   -72891   -73016   -73795   -74603 
  -74674   -73944   -72854   -72233   -72639   -73762   -74544   -74245 
  -73426   -72734   -72115   -71615   -71018   -70023   -69013   -68185 
  -67345   -66639   -66340   -66397   -66521   -66434   -65923   -65318 
  -65452   -66445   -67733   -68945   -69709   -69651   -69276   -69778 
  -71540   -73964   -76316   -77897   -78702   -79686   -81394   -83261 
  -84596   -85392   -85907   -86014   -85485   -84601   -83984   -83919 
  -83795   -82621   -80401   -78089   -76395   -75326   -74317   -72872 
  -71215   -70057   -70068   -71320   -73200   -75035   -76285   -76801 
  -77104   -77654   -78553   -79649   -80543   -81291   -82455   -84280 
  -86295   -87713   -88400   -88917   -89661   -90625   -91470   -91831 
  -91725   -91381   -90782   -89528   -87454   -85209   -83883   -84100 
  -85278   -86049   -85435   -83732   -82228   -81410   -80592   -79355 
  -77931   -76863   -76436   -76371   -76276   -75941   -75766   -76347 
  -77354   -78144   -78773   -79653   -81193   -83133   -84045   -83128 
  -81535   -80587   -80310   -79861   -78761   -77658   -77132   -76812 
  -76225   -74954   -72621   -69791   -67608   -66213   -65061   -64427 
  -64846   -65696   -65899   -65423   -65049   -65555   -67332   -69650 
  -71274   -72383   -74014   -76068   -77660   -78399   -78565   -78848 
  -79678   -80600   -80820   -80302   -79602   -78813   -77767   -76590 
  -75641   -75764   -77373   -79446   -80893   -81441   -81278   -81128 
  -81603   -82322   -82511   -82293   -82391   -82945   -83768   -84398 
  -84066   -82846   -81279   -79649   -78264   -76944   -75328   -73735 
  -72746   -72472   -72483   -72464   -72315   -72200   -72747   -73808 
  -74382   -74340   -74455   -75227   -76356   -76892   -76376   -75670 
  -75758   -76600   -77562   -78058   -77831   -77038   -76362   -76657 
  -77756   -78697   -79184   -79590   -80214   -80981   -81180   -80319 
  -79352   -79596   -80782   -81315   -80333   -78763   -78108   -78796 
  -79775   -79947   -79670   -79981   -80970   -81471   -80567   -78893 
  -77770   -77980   -79096   -79640   -79012   -78253   -78282   -78903 
  -79164   -78288   -76743   -75544   -75364   -76091   -76303   -75176 
  -73816   -73301   -73561   -74023   -74139   -73546   -72596   -72229 
  -72632   -73191   -73384   -72935   -71868   -70542   -69408   -68862 
  -69325   -70640   -71526   -71031   -69901   -69502   -70253   -71426 
  -72212   -72580   -73015   -73899   -75085   -76168   -77007   -77706 
  -78446   -79109   -79133   -78422   -77949   -78419   -78986   -78403 
  -76543   -74457   -73599   -74298   -75504   -76209   -75990   -74969 
  -73791   -73279   -73732   -74404   -74446   -73873   -73437   -74007 
  -75481   -76901   -77714   -77894   -77639   -77474   -77831   -78889 
  -80775   -83040   -84649   -85002   -84504   -84037   -83839   -83355 
  -82448   -81599   -81178   -81553   -82598   -83243   -82985   -82243 
  -81039   -79381   -77786   -76285   -74563   -72849   -71487   -70401 
  -69319   -68119   -66959   -66266   -66577   -67901   -69554   -71012 
  -72263   -73568   -75073   -76316   -76778   -76740   -76824   -77412 
  -78514   -79548   -79976   -79911   -79552   -79040   -78575   -77965 
  -76872   -75575   -74765   -74709   -74988   -75174   -75292   -75546 
  -76199   -77289   -78240   -78573   -78529   -78354   -77931   -77301 
  -76687   -76088   -75396   -74697   -74136   -73798   -73763   -73959 
  -74329   -75016   -75860   -76200   -75870   -75702   -76304   -77437 
  -78875   -80693   -83010   -85723   -88215   -89824   -90700   -91353 
  -91706   -91492   -90637   -89094   -87249   -85683   -84382   -82889 
  -80800   -78040   -75002   -72389   -70783   -70004   -69057   -67116 
  -64559   -62899   -63235   -64969   -66695   -67608   -67600   -67055 
  -66604   -66470   -66487   -66671   -67401   -69060   -71432   -73782 
  -75570   -76903   -78311   -79681   -80272   -79978   -79366   -79031 
  -79178   -79292   -78878   -78343   -78625   -80026   -81524   -81681 
  -80090   -77659   -75657   -74467   -73516   -72294   -70939   -70071 
  -70139   -70990   -72150   -73254   -74218   -75103   -75787   -76021 
  -75811   -75783   -76810   -78838   -80716   -81278   -80315   -78896 
  -78287   -78500   -78481   -77405   -75548   -73843   -72909   -72696 
  -72656   -72435   -72222   -72309   -72970   -74421   -76262   -77472 
  -77597   -77280   -77356   -78301   -79997   -81821   -83581   -85513 
  -87465   -89041   -90071   -90612   -90697   -90370   -89799   -88969 
  -87686   -85657   -82620   -79017   -75687   -72933   -70595   -68584 
  -67129   -66321   -66093   -66868   -68601   -70386   -71786   -72825 
  -73678   -74902   -76687   -78579   -80261   -81875   -83518   -84814 
  -85294   -84910   -84174   -83905   -84252   -84450   -84204   -84153 
  -84885   -86345   -87730   -88105   -87622   -87135   -86906   -86576 
  -85588   -83736   -81652   -80029   -78682   -76866   -74177   -71025 
  -68082   -65548   -63128   -60387   -57365   -54689   -52941   -52199 
  -52082   -52193   -52416   -52837   -53686   -55141   -57158   -59691 
  -62872   -66785   -71183   -75464   -78774   -80462   -80629   -80038 
  -79327   -78410   -76864   -74602   -72172   -70606   -70341   -70542 
  -70242   -69523   -69177   -69690   -70737   -71534   -71756   -71870 
  -72194   -72727   -73545   -74318   -74789   -75215   -75506   -75457 
  -75229   -74900   -74379   -73493   -72208   -70747   -69084   -67221 
  -65669   -64818   -64755   -65486   -66671   -67895   -69068   -70478 
  -72508   -74755   -76353   -77208   -77908   -79014   -80685   -82378 
  -83335   -83539   -83695   -84418   -85814   -87609   -89315   -90506 
  -91150   -91464   -91718   -92114   -92478   -92457   -92029   -91365 
  -90711   -90454   -90536   -90207   -88950   -87121   -85464   -84401 
  -83737   -82768   -80880   -78230   -75661   -73756   -72265   -70724 
  -69115   -67985   -67930   -68823   -69966   -70671   -70850   -71279 
  -72456   -73937   -75172   -76045   -76856   -77959   -79315   -80489 
  -81038   -81153   -81547   -82427   -83599   -84982   -86044   -86171 
  -85604   -84775   -83627   -81832   -79276   -76518   -74380   -73180 
  -72485   -71599   -70298   -68762   -67271   -66026   -64817   -63330 
  -61749   -60599   -60108   -59890   -59246   -57918   -56543   -56034 
  -56767   -58544   -60818   -63063   -65202   -67298   -69227   -70885 
  -72031   -72374   -72123   -71852   -72173   -73402   -75202   -77025 
  -78677   -80166   -81472   -82682   -84065   -85801   -87578   -88790 
  -89255   -89436   -90155   -91732   -93381   -94298   -94444   -94094 
  -93568   -92930   -91789   -89562   -86123   -82272   -78965   -76407 
  -74158   -71499   -68196   -65057   -62820   -60976   -58520   -55231 
  -51766   -49013   -47397   -46649   -46258   -46055   -46416   -47911 
  -50530   -53623   -56635   -59310   -61752   -64592   -68275   -72497 
  -76671   -80559   -84281   -87835   -91055   -93849   -96213   -98340 
 -100314  -101794  -102449  -102244  -101318   -99789   -97571   -94658 
  -91213   -87351   -83440   -80046   -77227   -74683   -72523   -71217 
  -70901   -71153   -71497   -71841   -72542   -74197   -77077   -80638 
  -83769   -85759   -86733   -87114   -87248   -87137   -86399   -84895 
  -83033   -81346   -79802   -77904   -75457   -72621   -69709   -67102 
  -64987   -63376   -62321   -61881   -61959   -62344   -62948   -63795 
  -64645   -65138   -65385   -65809   -66515   -67295   -67929   -68186 
  -68034   -67886   -68109   -68500   -68484   -67734   -66629   -65969 
  -66196   -66786   -66800   -66345   -66587   -68376   -71609   -75380 
  -78504   -80300   -81039   -81648   -82627   -83499   -83730   -83434 
  -83041   -82980   -83266   -83280   -82487   -81116   -79951   -79760 
  -80721   -82309   -83889   -85199   -86372   -87584   -88567   -88786 
  -88015   -86481   -84701   -83211   -82167   -81383   -80866   -80879 
  -81491   -82320   -82708   -82265   -81384   -80901   -81085   -81528 
  -81935   -82478   -83453   -84662   -85466   -85633   -85497   -85389 
  -85391   -85356   -84998   -84003   -82285   -80173   -77919   -75423 
  -72611   -69482   -66341   -64054   -63196   -63248   -63178   -62522 
  -61734   -61584   -62309   -63480   -64553   -65504   -66966   -69296 
  -71885   -73921   -75175   -76043   -77282   -79227   -81342   -82905 
  -83847   -84732   -85907   -87083   -88114   -89437   -91482   -94097 
  -96420   -97618   -97800   -97712   -97874   -98001   -97243   -95050 
  -91740   -88449   -86223   -85057   -84172   -82986   -81410   -79434 
  -76957   -73920   -70668   -68134   -67003   -66821   -66439   -65336 
  -64042   -63262   -63230   -63708   -64189   -64306   -64291   -64785 
  -65824   -66679   -66702   -65689   -63991   -62409   -61265   -60024 
  -58335   -56554   -55158   -54440   -54388   -54756   -55482   -56479 
  -57301   -57515   -57079   -56465   -56259   -56481   -56728   -56906 
  -57555   -59364   -62259   -65273   -67555   -69069   -70288   -71627 
  -73107   -74494   -75697   -76767   -77891   -79386   -81275   -83216 
  -84761   -85604   -86030   -86782   -88184   -89820   -91070   -91554 
  -91208   -90323   -89299   -88250   -87041   -85782   -85017   -85019 
  -85349   -85434   -84997   -84150   -83309   -82669   -81967   -80961 
  -79680   -78186   -76584   -75105   -73827   -72761   -72131   -72097 
  -72475   -73054   -73811   -74767   -76014   -77501   -78839   -79949 
  -81152   -82482   -83784   -84957   -85907   -86705   -87459   -88245 
  -89074   -89673   -89670   -88941   -87716   -86426   -85302   -84292 
  -83418   -82955   -83229   -84320   -85883   -87248   -87873   -87776 
  -87459   -87263   -87022   -86444   -85581   -84882   -84812   -85394 
  -86103   -86297   -85668   -84140   -81767   -78869   -75873   -72883 
  -69733   -66560   -63842   -61790   -60123   -58450   -56629   -54770 
  -53108   -51720   -50289   -48638   -47257   -46756   -47037   -47367 
  -47271   -47086   -47542   -49002   -51049   -52576   -52652   -51442 
  -49937   -48903   -48301   -47590   -46456   -45262   -44782   -45593 
  -47795   -51226   -55697   -60994   -66662   -72031   -76721   -80863 
  -84939   -89379   -94108   -98804  -103354  -107699  -111526  -114250 
 -115494  -115612  -115398  -115375  -115542  -115640  -115527  -115241 
 -114771  -113941  -112377  -109763  -106125  -101645   -96685   -91855 
  -87490   -83466   -79632   -76272   -74073   -73408   -73892   -74553 
  -74254   -72586   -70209   -68026   -66453   -65449   -64754   -64169 
  -63799   -63530   -62838   -61567   -59970   -58543   -57685   -57211 
  -56933   -56725   -56448   -56372   -56808   -57889   -59508   -61286 
  -63166   -65434   -68144   -71071   -73791   -75769   -76742   -76946 
  -77065   -77570   -77971   -77486   -76137   -74778   -74283   -74584 
  -74844   -74562   -73865   -73194   -73025   -73480   -74292   -75016 
  -75337   -75491   -76025   -77094   -78263   -78984   -79171   -79184 
  -79294   -79522   -79789   -79788   -79043   -77277   -74629   -71632 
  -68866   -66817   -65832   -65884   -66809   -68400   -70251   -72071 
  -73760   -75340   -76882   -78181   -78923   -79037   -78867   -79118 
  -80201   -81766   -83131   -83912   -84252   -84568   -84751   -83986 
  -81907   -79185   -76763   -74893   -73132   -71232   -69425   -68002 
  -67099   -66776   -67258   -68825   -71385   -74412   -77391   -80221 
  -83031   -85657   -87520   -88171   -87805   -87146   -87001   -87834 
  -89456   -91123   -92095   -92219   -91875   -91346   -90590   -89523 
  -88291   -87253   -86662   -86514   -86566   -86578   -86703   -87269 
  -88365   -89828   -91350   -92713   -93880   -94742   -94955   -94193 
  -92538   -90460   -88484   -86908   -85761   -84943   -84342   -83832 
  -83123   -81863   -80034   -77884   -75691   -73482   -70842   -67526 
  -63839   -60128   -56711   -53967   -52015   -50957   -50884   -51387 
  -52007   -52796   -53996   -55614   -57252   -58427   -59117   -59685 
  -60362   -60764   -60328   -59210   -58086   -57548   -57718   -58134 
  -58473   -58869   -59330   -59603   -59486   -59164   -59172   -59930 
  -61568   -63871   -66265   -68185   -69384   -70037   -70599   -71557 
  -73265   -75769   -78815   -82047   -84967   -86987   -87742   -87129 
  -85343   -82904   -80346   -78065   -76529   -76259   -77311   -79030 
  -80498   -81159   -81291   -81760   -83050   -84620   -85462   -85273 
  -84780   -84841   -85488   -86062   -86085   -85728   -85531   -85712 
  -86000   -86234   -86617   -87274   -88015   -88597   -88963   -89545 
  -91160   -94059   -97577  -100971  -104017  -106710  -108939  -110676 
 -112051  -113279  -114552  -115591  -115710  -114667  -112983  -111329 
 -109688  -107229  -103325   -98409   -93487   -89122   -85040   -80661 
  -75915   -71496   -68290   -66471   -65373   -64362   -63582   -63563 
  -64312   -65134   -65090   -63785   -61935   -60709   -60559   -61075 
  -61707   -62179   -62491   -62905   -63511   -63889   -63633   -62857 
  -61989   -61315   -60730   -59958   -59001   -58160   -57700   -57659 
  -57828   -57868   -57718   -57795   -58462   -59520   -60422   -60706 
  -60418   -60169   -60457   -61191   -61934   -62296   -62054   -61340 
  -60843   -61284   -62711   -64459   -65634   -65882   -65649   -65601 
  -65930   -66095   -65328   -63539   -61669   -60894   -61432   -62483 
  -63228   -63517   -63776   -64501   -65865   -67736   -69854   -72026 
  -74198   -76336   -78460   -80679   -83073   -85630   -88164   -90270 
  -91574   -92023   -91934   -91756   -91579   -91187   -90625   -90214 
  -90171   -90502   -90945   -91230   -91427   -91558   -91448   -91173 
  -90914   -90717   -90523   -90222   -89983   -90236   -91139   -92254 
  -92796   -92288   -90720   -88202   -85038   -81879   -79328   -77642 
  -76727   -76093   -75188   -73949   -72699   -71666   -70849   -70140 
  -69467   -68924   -68575   -68255   -67813   -67372   -67081   -66910 
  -66699   -66210   -65410   -64681   -64417   -64464   -64148   -63078 
  -61610   -60353   -59562   -58982   -58319   -57732   -57400   -57157 
  -56874   -56666   -56945   -58129   -60031   -61960   -63315   -63907 
  -64002   -64101   -64601   -65659   -67191   -68983   -70862   -72727 
  -74629   -76846   -79479   -82116   -84272   -85850   -87097   -88353 
  -89644   -90505   -90375   -89102   -87107   -85109   -83534   -82113 
  -80237   -77806   -75308   -73109   -71201   -69474   -67949   -66837 
  -66349   -66360   -66428   -66216   -65691   -65034   -64470   -63926 
  -63188   -62433   -62206   -63016   -64853   -66981   -68497   -68921 
  -68327   -67229   -66131   -65134   -64137   -63138   -62298   -62046 
  -62800   -64545   -66867   -69240   -71467   -73718   -76101   -78593 
  -81149   -83631   -85805   -87505   -88842   -90189   -91817   -93708 
  -95752   -97698   -99275  -100552  -101668  -102545  -103031  -102941 
 -102117  -100613   -98636   -96328   -93718   -90795   -87539   -83951 
  -80188   -76735   -74111   -72170   -70138   -67361   -63800   -60153 
  -57385   -55806   -54906   -54056   -53103   -52337   -51977   -51896 
  -51836   -51771   -52056   -53044   -54602   -56172   -57341   -58240 
  -59273   -60514   -61560   -61942   -61785   -61920   -63019   -64800 
  -66307   -66771   -66156   -65052   -64045   -63261   -62572   -62032 
  -61914   -62354   -63181   -64062   -64764   -65467   -66704   -68863 
  -71807   -74981   -77935   -80610   -83129   -85497   -87475   -88819 
  -89535   -89761   -89686   -89550   -89511   -89496   -89190   -88322 
  -86924   -85319   -83760   -82175   -80409   -78531   -77008   -76324 
  -76163   -75552   -74009   -71923   -69898   -68197   -66651   -65166 
  -64135   -63806   -63767   -63414   -62539   -61503   -60819   -60695 
  -60885   -60756   -59975   -58990   -58501   -58774   -59457   -60021 
  -60378   -60889   -61981   -63909   -66544   -69329   -71651   -73233 
  -74221   -75042   -76025   -77163   -78336   -79501   -80632   -81704 
  -82815   -84207   -85919   -87738   -89661   -91859   -94309   -96706 
  -98504   -99253   -99101   -98600   -98057   -97353   -96384   -95454 
  -95012   -95135   -95494   -95580   -94992   -93746   -92199   -90649 
  -89055   -87050   -84421   -81571   -79261   -77956   -77394   -76773 
  -75578   -74036   -72622   -71537   -70739   -70090   -69511   -69048 
  -68633   -68102   -67620   -67606   -68152   -68884   -69341   -69440 
  -69455   -69635   -70033   -70426   -70478   -70093   -69454   -68989 
  -69047   -69470   -69989   -70713   -72007   -74159   -77025   -80059 
  -82792   -85056   -86905   -88560   -90249   -92018   -93633   -94711 
  -95150   -95393   -95948   -96773   -97342   -97127   -96023   -94593 
  -93608   -93291   -93153   -92408   -90687   -88375   -86045   -83932 
  -81928   -79803   -77480   -75010   -72435   -69757   -66976   -64114 
  -61189   -58362   -55920   -54121   -53142   -52891   -52993   -53063 
  -52983   -52895   -52866   -52867   -52920   -53129   -53629   -54337 
  -54994   -55470   -55799   -56181   -56851   -57743   -58557   -59087 
  -59396   -59689   -60132   -60898   -62050   -63494   -65199   -67088 
  -68797   -69800   -69810   -69253   -69009   -69475   -70424   -71577 
  -72800   -74126   -75603   -77017   -78162   -79109   -79978   -80786 
  -81512   -82102   -82528   -82880   -83263   -83682   -84068   -84398 
  -84728   -85132   -85794   -86831   -87901   -88562   -88721   -88426 
  -87711   -86504   -84460   -81468   -78185   -75447   -73504   -71959 
  -70324   -68618   -67234   -66451   -66101   -65662   -64982   -64446 
  -64391   -64905   -65918   -67272   -68919   -70848   -72781   -74369 
  -75623   -76774   -77857   -78692   -79061   -78790   -77870   -76625 
  -75676   -75461   -75899   -76675   -77495   -78327   -79514   -81256 
  -83336   -85371   -86980   -88100   -89077   -90297   -91850   -93453 
  -94816   -96009   -97241   -98426   -99135   -99087   -98348   -96869 
  -94490   -91419   -88175   -85221   -82773   -80858   -79469   -78550 
  -77994   -77713   -77656   -77922   -78582   -79352   -79777   -79607 
  -78937   -78097   -77304   -76471   -75315   -73666   -71808   -70405 
  -69882   -69996   -70061   -69659   -69093   -68931   -69280   -69659 
  -69527   -69069   -69130   -70024   -71161   -72052   -72808   -73764 
  -75074   -76511   -77720   -78721   -79773   -80794   -81441   -81618 
  -81447   -81067   -80551   -79788   -78590   -76974   -75212   -73673 
  -72640   -72100   -71652   -70970   -70245   -69854   -69958   -70488 
