Origin Time       2011/03/11 14:46:00
Lat.              38.103
Long.             142.860
Depth. (km)       24
Mag.              9.0
Station Code      NGN016
Station Lat.      35.9133
Station Long.     138.2229
Station Height(m) 965
Record Time       2011/03/11 14:47:48
Sampling Freq(Hz) 100Hz
Duration Time(s)  300
Dir.              U-D
Scale Factor      3920(gal)/6182761
Max. Acc. (gal)   21.039
Last Correction   2011/03/11 14:47:33
Memo.             
[...]
   -5502    -4780    -4642    -4916    -5350    -5585    -5183    -4447 
   -4180    -4391    -4338    -3528    -2165    -1182    -1575    -3240 
   -5132    -6380    -6592    -5872    -4871    -4260    -3930    -3000 
    -820     2357     5594     8010     9491    10435    11143    11801 
   12376    12618    12551    12404    12273    12320    12577    12544 
   11747    10284     8534     6679     4581     2271      144    -1520 
   -2652    -3468    -4571    -6241    -8000    -9286    -9961   -10400 
  -11438   -13359   -15212   -15921   -15458   -14723   -14575   -15177 
  -16297   -17533   -18672   -20045   -21573   -22427   -22304   -21836 
  -21759   -22232   -22889   -23175   -22366   -20201   -17643   -16037 
  -15742   -15959   -15593   -14401   -13032   -12045   -11469   -10923 
  -10021    -8840    -7360    -5227    -2700     -551      907     1847 
    2635     3734     5320     6846     7247     5928     3518     1460 
     889     1784     2995     3346     2734     1651      305    -1158 
   -2552    -3906    -5319    -6978    -9150   -11797   -14439   -16677 
  -18483   -19771   -20259   -19754   -18381   -16659   -15178   -14343 
  -14288   -14544   -14329   -13368   -12001   -10910   -10499   -10194 
   -8848    -5796    -1533     2503     5198     6577     7297     8067 
    9338    10842    11665    11024     8863     6055     3807     2583 
    2079     1762      983     -476    -2070    -3407    -4776    -6547 
   -8714   -10887   -12530   -13354   -13504   -13418   -13462   -13782 
  -14460   -15431   -16492   -17821   -19762   -22102   -24189   -25289 
  -24988   -23646   -21935   -20274   -18779   -17323   -15874   -14472 
  -12787   -10303    -6890    -3306     -790      193       45     -819 
   -1820    -1909     -267     2990     6903    10034    11186    10468 
    9034     7905     7757     8784    10181    10609     9410     7282 
    5545     4661     3969     2767     1174       -1     -233       84 
     144     -687    -2738    -5774    -8930   -11424   -13094   -14034 
  -14355   -14352   -14366   -14320   -13655   -11905    -9014    -5195 
   -1036     2161     3102     2130     1108     1425     2826     3945 
    3608     1962      371       19      563      197    -2502    -6797 
  -10500   -12283   -12597   -12640   -13071   -13544   -13298   -12337 
  -11640   -11999   -13165   -14295   -15066   -16014   -17634   -19764 
  -21801   -22930   -22505   -20611   -17926   -15108   -12746   -11348 
  -10723   -10089    -9104    -7961    -6664    -5075    -3253    -1265 
     791     2573     3893     4892     5640     6339     7451     8908 
   10227    11406    12665    13780    14294    13993    12869    10877 
    8031     4563     1030    -1817    -3795    -5562    -7720   -10087 
  -11842   -12336   -11795   -11131   -11249   -12290   -13413   -13643 
  -12670   -10867    -8918    -7274    -6022    -5167    -4666    -4498 
   -4583    -4605    -4522    -4779    -5518    -6196    -6290    -6051 
   -6205    -7116    -8361    -8848    -7856    -6094    -5268    -6624 
   -9662   -12296   -12713   -10886    -8309    -6769    -7107    -8648 
   -9892    -9887    -8905    -7724    -6581    -5222    -3570    -1935 
    -845     -701    -1468    -2561    -3210    -3274    -3473    -4623 
   -6590    -8244    -8597    -7354    -4761    -1838      -34       99 
    -634    -1098     -695      482     1585     1773     1335     1336 
    2385     4070     5379     5807     5791     5825     5996     6294 
    6512     6338     5765     4973     4065     2866      900    -1961 
   -5014    -7245    -8209    -8221    -8005    -8368    -9688   -11636 
  -13581   -14950   -15159   -13694   -10679    -7225    -4779    -4038 
   -4466    -4832    -4384    -3414    -2907    -3721    -5618    -7198 
   -7052    -4908    -1794      836     2101     1930      968      176 
     -10        6     -403    -1386    -2437    -2967    -2961    -2527 
   -1453      148     1564     1707     -219    -3616    -7045    -9685 
  -11433   -12768   -14460   -16584   -18490   -19751   -20355   -20501 
  -20585   -21083   -22256   -23594   -23827   -22073   -18659   -14774 
  -11340    -8359    -5694    -3747    -2921    -3183    -4208    -5297 
   -5583    -4629    -2638     -236     1978     3650     4658     5163 
    5287     4931     4216     3587     3384     3342     2633      758 
   -1841    -4195    -5698    -6576    -7314    -8017    -8569    -8691 
   -8086    -7346    -7956   -10936   -15669   -19849   -21366   -20371 
  -18578   -17562   -18321   -20672   -22902   -23363   -21898   -19429 
  -17036   -15276   -13968   -12767   -11525   -10065    -8357    -6727 
   -5334    -4082    -3228    -3183    -3882    -4758    -5070    -4418 
   -3027    -1286      676     2836     5124     7202     8259     7630 
    5709     3649     2282     1499      465    -1323    -3454    -5339 
   -6629    -7085    -7013    -7041    -7053    -6455    -5298    -4239 
   -3780    -4018    -4999    -6771    -8723    -9664    -8970    -7046 
   -4781    -2912    -1663     -754      151      827      635     -430 
   -1522    -2166    -2960    -4871    -8281   -12357   -15365   -16206 
  -15362   -14285   -14124   -14679   -14772   -13710   -11859   -10284 
  -10037   -11061   -12550   -14131   -15652   -16947   -18022   -18674 
  -18561   -17718   -16538   -15466   -14637   -13893   -13102   -12171 
  -11070    -9857    -8660    -7822    -7507    -7314    -6512    -4439 
   -1220     2117     4531     5437     5078     4729     5299     6067 
    5743     4201     2579     2019     2681     3833     4558     4466 
    3998     3735     3522     2994     2297     1550      442    -1475 
   -4276    -7421   -10323   -12643   -14227   -15253   -15884   -16267 
  -16857   -17972   -19517   -21084   -22099   -22294   -21750   -20821 
  -20350   -20824   -21525   -21410   -19998   -17588   -15245   -13802 
  -13000   -11958   -10088    -7558    -5025    -3218    -2805    -3922 
   -5704    -7023    -7641    -7994    -8181    -7877    -6837    -5200 
   -3386    -1670      -20     1718     3367     4303     4178     3247 
    2068     1153      508     -110     -772    -1562    -2413    -2957 
   -2970    -2684    -2695    -3497    -5062    -6917    -8478    -9224 
   -8819    -7399    -5682    -4579    -4501    -5010    -5328    -5030 
   -4162    -3117    -2451    -2415    -2762    -3206    -3666    -3967 
   -3699    -2432     -215     2130     3661     4046     3539     2541 
    1299      -85    -1576    -3102    -4531    -5771    -6591    -6634 
   -6105    -5680    -5564    -5475    -5235    -4860    -4546    -4481 
   -4655    -5155    -6111    -7501    -9147   -10438   -10755   -10276 
   -9767    -9885   -10780   -12161   -13574   -14567   -14847   -14452 
  -13752   -13070   -12325   -11277    -9893    -8517    -7680    -7516 
   -7748    -7910    -7296    -5628    -3787    -2992    -3401    -4099 
   -4291    -4039    -3926    -4318    -5195    -6514    -8330   -10696 
  -13546   -16537   -19282   -21550   -22972   -23501   -23806   -24416 
  -25546   -27403   -29665   -31420   -31916   -31175   -29787   -28217 
  -26588   -24757   -22502   -19850   -16991   -14219   -11848    -9732 
   -7476    -5111    -3123    -1952    -1451     -818      530     2186 
    3338     3675     3305     2405     1300      423       76      482 
    1717     3291     4304     4247     3305     1783     -197    -2276 
   -3859    -4682    -5051    -5411    -5836    -6128    -6008    -5335 
   -4379    -3476    -2798    -2571    -2938    -3956    -5755    -8321 
  -11235   -13654   -14808   -14750   -14323   -14337   -14843   -15161 
  -14818   -14083   -13407   -13101   -13375   -14077   -14598   -14183 
  -12631   -10564    -8663    -7249    -6582    -6583    -6621    -6352 
   -6110    -5994    -5500    -4338    -2787    -1320     -332       99 
     282      487      685      757      544       16     -425     -429 
    -211      -62       34       53     -300    -1314    -2903    -4616 
   -6173    -7673    -9208   -10582   -11456   -11959   -12933   -15030 
  -17852   -20348   -21610   -21200   -19435   -17378   -15978   -15327 
  -15008   -14479   -13151   -11147    -9497    -9050    -9810   -11136 
  -12162   -12086   -10609    -8578    -7494    -8104    -9946   -11779 
  -12394   -11674   -10685   -10389   -10766   -11320   -11675   -11567 
  -10901   -10069    -9823   -10443   -11310   -11636   -11234   -10536 
  -10070   -10076   -10593   -11439   -12279   -12958   -13501   -14013 
  -14573   -15042   -15275   -15522   -16104   -16752   -16915   -16649 
  -16494   -16692   -17051   -17095   -16343   -15065   -14224   -14208 
  -14463   -14516   -14272   -13645   -12950   -12510   -11937   -11148 
  -10703   -10641   -10540   -10174    -9296    -7667    -5462    -3111 
   -1047      292      698      310     -371     -473      532     2001 
    2576     1505     -646    -2421    -2575    -1285     -123     -409 
   -2171    -4290    -5072    -3812    -1609      196     1215     1513 
    1175      393     -525    -1367    -1977    -2071    -1469     -305 
     919     1402      780     -439    -1541    -2073    -1955    -1867 
   -2772    -4718    -6775    -8256    -9531   -11221   -13136   -14538 
  -14911   -14394   -13982   -14780   -16720   -18732   -19913   -20042 
  -19650   -19584   -20037   -20488   -20356   -19266   -17226   -14918 
  -13305   -12797   -13128   -13613   -13525   -12804   -12018   -11873 
  -12752   -13942   -14317   -14012   -14119   -15469   -18125   -21083 
  -23037   -23546   -22985   -22123   -21419   -20476   -18951   -17117 
  -15278   -13538   -11635    -9058    -5782    -2410      263     1841 
    2938     4459     6236     7248     6729     4798     2413      604 
     -32      645     1946     2769     2727     2132     1412     1053 
    1514     2725     4046     5059     5740     6213     6917     8065 
    9329    10553    11662    12160    11391     9029     5610     2556 
    1019      769      504     -737    -2823    -5175    -7296    -8803 
   -9622    -9952   -10099   -10260   -10155    -9498    -8802    -8841 
   -9683   -10835   -11663   -11793   -11608   -11789   -12341   -12700 
  -12477   -11727   -10703    -9302    -6966    -3542      244     3392 
    5270     5785     5478     5381     6035     6750     6346     4250 
     877    -2618    -5109    -6242    -6478    -6470    -6558    -6728 
   -6663    -6128    -5457    -5304    -6080    -7596    -9015    -9677 
   -9764    -9734    -9883   -10387   -11099   -11636   -11665   -11112 
  -10234    -9282    -8448    -8110    -8458    -9016    -8993    -8099 
   -6721    -5412    -4577    -4157    -3634    -2913    -2650    -3434 
   -4933    -6199    -6770    -6994    -7589    -8972   -10708   -11962 
  -12205   -11387   -10011    -8863    -8468    -8743    -9052    -8898 
   -8532    -8513    -9048    -9924   -10636   -10945   -11387   -12496 
  -13925   -14882   -15057   -14935   -15344   -16532   -17717   -17876 
  -16843   -15182   -13540   -12428   -11797   -10809    -8826    -6160 
   -3591    -1817    -1086    -1077    -1313    -1562    -1881    -2325 
   -2667    -2721    -2670    -2933    -3944    -5829    -8211   -10561 
  -12343   -13099   -13072   -12999   -13303   -14046   -14865   -15050 
  -14418   -13646   -13522   -14098   -14604   -14319   -13333   -12208 
  -11321   -10483    -8962    -6425    -3667    -1719     -759     -321 
     -60     -228    -1260    -3005    -4856    -6098    -6144    -5085 
   -3595    -2214    -1097     -384     -415    -1233    -2194    -2434 
   -1571      100     1913     3349     4430     5652     7346     9006 
    9379     7456     3628     -597    -4217    -7294    -9997   -11946 
  -12642   -12086   -10835    -9912   -10413   -12525   -15271   -17471 
  -18787   -19819   -21202   -22903   -24381   -25015   -24491   -23115 
  -21475   -19588   -17164   -14563   -12330   -10527    -9056    -7804 
   -6870    -6637    -7139    -7889    -8232    -7896    -7506    -7921 
   -9322   -11297   -13033   -13654   -13308   -13367   -14842   -17390 
  -19931   -21329   -21148   -20173   -19584   -19900   -20695   -20873 
  -19531   -16607   -12567    -7924    -3019     2150     7710    13382 
   18415    22059    24150    25063    25085    24447    23415    21807 
   19460    16790    14253    12327    11567    11762    11986    11735 
   11198    10887    11276    12089    12475    12137    11503    11000 
   10483     9363     7410     5037     2777      810    -1258    -4008 
   -7485   -10994   -13420   -14047   -13359   -12650   -12905   -14089 
  -15313   -15982   -16451   -17332   -18637   -19661   -19832   -19583 
  -19857   -21066   -22820   -24267   -24645   -23899   -22736   -21548 
  -19869   -17384   -14415   -11417    -8546    -5578    -2470      295 
    2223     3160     3248     2858     2520     2598     2866     2849 
    2240      721    -1857    -5170    -8546   -11437   -13982   -16783 
  -20044   -23326   -25819   -26685   -25815   -24310   -23602   -24037 
  -24637   -24206   -22395   -19989   -18100   -16870   -15792   -14708 
  -13684   -12882   -12328   -11564   -10265    -8621    -7052    -6082 
   -6022    -6692    -7564    -8030    -7745    -6905    -5907    -4918 
   -4166    -4168    -5216    -7012    -8974   -10601   -11575   -11860 
  -11815   -11878   -12090   -12368   -12780   -12993   -12491   -11240 
   -9420    -7318    -5359    -3655    -1934      101     2586     5457 
    8376    11030    13499    15880    18057    19995    21669    23023 
   23991    24505    24783    25242    26015    26727    26646    25143 
   22006    17633    13108     9361     6364     3636      819    -2319 
   -5709    -9014   -12213   -15470   -18279   -19976   -20786   -21389 
  -22185   -23059   -23055   -21056   -17182   -12535    -8055    -4164 
    -784     2174     4443     5528     4820     2242    -1416    -5160 
   -8267   -10571   -12508   -14358   -15754   -16320   -16471   -17122 
  -18432   -19515   -19746   -19271   -18291   -17026   -15939   -15403 
  -15395   -15619   -15941   -16490   -17217   -17621   -17080   -15316 
  -12581    -9606    -7119    -5362    -4051    -2769    -1562     -761 
    -306       30       97     -382    -1373    -2794    -4820    -7365 
   -9693   -10999   -10912    -9553    -7490    -5122    -2536      -96 
    1861     3350     4273     4567     4419     3949     3348     2780 
    1915      321    -2055    -4742    -6629    -6887    -5888    -4623 
   -3974    -4610    -6519    -8741   -10280   -11076   -11948   -13594 
  -15746   -17517   -18259   -18106   -17816   -17745   -17234   -15310 
  -11699    -7164    -3033     -218     1257     1969     2681     3670 
    4413     4162     2633      372    -1776    -3365    -4106    -3773 
   -2466     -415     2231     5238     8145    10388    11584    11747 
   11230    10535    10119    10175    10640    11281    11746    11735 
   11083     9877     8492     7155     5802     4317     2666     1165 
     138     -719    -2089    -4512    -7876   -11287   -13934   -15784 
  -17407   -19483   -22202   -24881   -26375   -26052   -24306   -22155 
  -20440   -19427   -18804   -18020   -17053   -16379   -16093   -15735 
  -14737   -12770    -9984    -6863    -3756     -882     1432     3125 
    4400     5202     5526     5545     5088     4010     2653     1447 
     528      -67     -170      296     1047     1567     1350      249 
   -1163    -2105    -2735    -4082    -6763   -10254   -13366   -15369 
  -16675   -18237   -20268   -21994   -22713   -22480   -22004   -22084 
  -22840   -23499   -22879   -20618   -17736   -15368   -13763   -12532 
  -11170    -9466    -7723    -6561    -6183    -6083    -5777    -5293 
   -4890    -4451    -3506    -2030     -573      305      417      356 
    1069     2866     5379     7876     9662    10744    11494    11798 
   11201     9496     6870     3789      864    -1472    -3294    -4959 
   -6593    -7956    -8762    -9120    -9369    -9487    -9442    -9685 
  -10376   -10988   -10880    -9744    -7845    -5945    -4794    -4608 
   -4858    -4729    -3866    -2719    -2129    -2365    -2829    -2846 
   -2314    -1766    -1984    -3109    -4366    -4912    -4561    -3848 
   -3539    -3876    -4608    -5674    -7414   -10099   -13457   -16830 
  -19746   -22114   -24119   -25895   -27093   -27305   -26755   -26187 
  -26379   -27487   -28725   -29195   -28946   -28788   -29281   -30335 
  -31363   -31680   -31139   -30032   -28524   -26589   -24277   -21852 
  -19503   -17244   -15010   -12498    -9414    -5862    -2299      705 
    3025     5174     7460     9261     9572     8105     5688     3724 
    3002     3252     4032     5033     5855     6342     6380     5641 
    4107     1971     -715    -3617    -6153    -8082    -9581   -11021 
  -12480   -13374   -12935   -10969    -8200    -5732    -4136    -3200 
   -2330    -1200      -27      734      662     -161     -897     -771 
     233     1603     2780     3642     4434     5099     5298     4985 
    4358     3542     2549     1530      723      -93    -1337    -3122 
   -5535    -8500   -11725   -15157   -18698   -22054   -25055   -27545 
  -29359   -30367   -30468   -29885   -29156   -28602   -27980   -26795 
  -24884   -22576   -20546   -19507   -19688   -20629   -21617   -22267 
  -22572   -22799   -23422   -24690   -26290   -27604   -28226   -28342 
  -28387   -28286   -27551   -25899   -23515   -21030   -19041   -17546 
  -15908   -13348    -9883    -6533    -4363    -3489    -2984    -1744 
     691     3998     7244     9502    10413    10228     9647     9275 
    9043     8527     7421     5558     3290     1386      120     -802 
   -1805    -3218    -4914    -6448    -7493    -7942    -7790    -6917 
   -5211    -2778      205     3475     6635     9428    11773    13687 
   15289    16536    17070    16551    15024    12940    10739     8572 
    6429     4186     1689    -1077    -3965    -6703    -9035   -10975 
  -12829   -14749   -16525   -18082   -19703   -21591   -23553   -25058 
  -25550   -24921   -23544   -21772   -19527   -16459   -12486    -8073 
   -3918     -489     2233     4718     7303     9930    12389    14278 
   15321    15617    15182    14142    13065    12534    12753    13421 
   13838    13510    12663    11984    11948    12512    13210    13409 
   12819    11786    10909    10471    10175     9308     7429     4794 
    1930     -816    -3440    -6280    -9646   -13544   -17725   -21802 
  -25526   -28814   -31485   -33346   -34424   -34726   -34045   -32473 
  -30695   -29402   -28796   -28583   -28163   -27098   -25379   -23158 
  -20709   -18464   -16612   -14817   -12593    -9780    -6483    -3017 
      71     2414     4092     5303     6008     5960     5102     3832 
    2818     2595     3165     4001     4550     4751     5013     5731 
    6931     8107     8381     7411     5740     4094     2996     2801 
    3475     4375     4666     4256     3931     4429     5754     7306 
    8403     8610     8074     7709     8065     8477     8225     7170 
    5282     2864      462    -1543    -2764    -3032    -2585    -1695 
    -785     -336     -225        6      381      587      478      212 
     103      365      758      680      -75    -1076    -1837    -2222 
   -2487    -3071    -4236    -5977    -8072   -10184   -12145   -14038 
  -16064   -18353   -20647   -22436   -23467   -23758   -23201   -21588 
