Origin Time       2011/03/11 14:46:00
Lat.              38.103
Long.             142.860
Depth. (km)       24
Mag.              9.0
Station Code      NGN001
Station Lat.      36.8513
Station Long.     138.3657
Station Height(m) 315
Record Time       2011/03/11 14:47:53
Sampling Freq(Hz) 100Hz
Duration Time(s)  300
Dir.              U-D
Scale Factor      3920(gal)/6182761
Max. Acc. (gal)   10.321
Last Correction   2011/03/11 14:47:38
Memo.             
[...]
   22627    23915    24793    24992    24605    23965    23481    23310 
   23277    23238    23287    23563    24088    24712    25133    25140 
   24833    24409    23920    23370    22780    22157    21535    20962 
   20478    20176    20086    20056    19851    19316    18556    17889 
   17477    17137    16570    15593    14244    12849    11862    11531 
   11695    11939    11970    11724    11263    10755    10414    10354 
   10581    10995    11346    11384    11036    10461     9938     9661 
    9695    10042    10591    11149    11585    11886    12135    12431 
   12758    12932    12747    12209    11591    11190    11146    11476 
   12088    12812    13585    14493    15558    16604    17415    18015 
   18638    19439    20410    21486    22475    23030    22942    22374 
   21631    20844    20106    19631    19436    19303    19108    18775 
   18227    17632    17366    17593    18099    18626    19102    19537 
   19970    20447    20887    21110    21044    20840    20704    20648 
   20577    20442    20182    19746    19232    18836    18689    18755 
   18771    18437    17746    17058    16831    17294    18259    19249 
   19885    20158    20300    20550    21017    21607    22123    22442 
   22446    22048    21408    20849    20557    20525    20640    20742 
   20743    20716    20732    20707    20450    19818    18923    18159 
   17890    18126    18509    18601    18257    17715    17274    16944 
   16504    15865    15203    14775    14699    14890    15255    15805 
   16490    17140    17543    17488    16948    16193    15628    15559 
   16070    16971    17829    18208    17981    17374    16804    16570 
   16647    16839    17048    17296    17600    17944    18242    18273 
   17798    16817    15650    14750    14445    14760    15355    15710 
   15482    14682    13644    12794    12296    11984    11553    10748 
    9653     8734     8433     8810     9523    10060    10145     9975 
   10014    10604    11712    12962    13814    13907    13375    12667 
   12134    11973    12188    12491    12562    12375    12153    12164 
   12577    13326    14113    14618    14778    14844    15131    15759 
   16520    16924    16610    15714    14691    13989    13944    14545 
   15398    16069    16243    15860    15227    14702    14400    14303 
   14322    14340    14344    14422    14681    15089    15393    15433 
   15334    15194    14949    14688    14726    15274    16241    17315 
   18175    18653    18744    18616    18535    18576    18613    18665 
   18899    19392    20108    20869    21429    21826    22347    23121 
   24006    24700    24939    24655    23916    22881    21832    21006 
   20391    19838    19235    18483    17561    16651    15982    15553 
   15247    15022    14838    14686    14694    14916    15132    15024 
   14475    13693    13069    12882    13117    13495    13717    13712 
   13644    13722    14037    14509    14991    15356    15540    15634 
   15782    15936    15938    15765    15533    15371    15300    15243 
   15162    15094    15096    15156    15120    14761    14022    13163 
   12574    12443    12583    12576    12132    11245    10084     8934 
    8065     7578     7479     7665     7949     8319     8928     9822 
   10937    12119    13119    13836    14413    14951    15418    15751 
   15824    15546    15092    14760    14692    14885    15174    15269 
   15062    14791    14866    15526    16511    17322    17766    17913 
   17916    18074    18539    19137    19701    20195    20638    21160 
   21914    22901    23960    24834    25308    25309    24867    24135 
   23507    23407    23822    24292    24396    24120    23750    23464 
   23265    23177    23132    22983    22769    22566    22327    22134 
   22239    22716    23350    23799    23787    23321    22654    21969 
   21262    20437    19443    18415    17549    16815    16106    15506 
   15177    15164    15417    15824    16213    16438    16429    16227 
   16068    16191    16597    17163    17714    18021    18124    18352 
   18815    19307    19647    19681    19286    18557    17674    16801 
   16202    16014    16006    15796    15100    13900    12545    11453 
   10719    10188     9803     9691     9908    10285    10517    10238 
    9305     8160     7574     7908     8907    10098    11055    11571 
   11885    12445    13404    14525    15386    15710    15671    15712 
   16144    17021    18039    18588    18299    17436    16568    16113 
   16251    16877    17621    18171    18539    18953    19645    20595 
   21468    21910    21782    21147    20310    19699    19483    19381 
   18899    17831    16494    15414    14976    15219    15751    16068 
   16015    15892    16115    16827    17806    18636    18977    18835 
   18539    18454    18756    19331    19769    19732    19370    19114 
   19344    20261    21635    22937    23745    23980    24033    24391 
   25141    25991    26456    26222    25448    24577    23976    23761 
   23713    23341    22335    20966    19853    19429    19677    20183 
   20430    20107    19232    18151    17259    16603    15968    15190 
   14225    13272    12758    12865    13249    13364    12905    12020 
   11207    10940    11424    12575    13975    15014    15368    15258 
   15133    15286    15706    16133    16294    16115    15753    15533 
   15696    16136    16603    17012    17404    17828    18301    18723 
   18984    19188    19591    20264    21004    21614    22048    22296 
   22346    22263    22157    22023    21715    21097    20145    18988 
   17943    17304    17017    16800    16553    16424    16549    16909 
   17318    17459    17121    16432    15739    15394    15605    16298 
   17106    17552    17310    16460    15487    14873    14681    14569 
   14115    13152    11946    11045    10858    11329    12055    12616 
   12808    12702    12533    12492    12660    13055    13612    14258 
   14906    15412    15800    16327    17124    18018    18711    18979 
   18838    18592    18520    18556    18488    18360    18427    18800 
   19310    19679    19749    19605    19498    19556    19667    19685 
   19568    19392    19351    19586    19982    20214    20031    19423 
   18583    17787    17295    17221    17452    17785    18136    18544 
   19062    19644    20091    20251    20188    20043    19961    20131 
   20600    21137    21366    21037    20259    19410    18828    18560 
   18416    18198    17777    17156    16611    16545    17107    18002 
   18702    18825    18403    17888    17819    18419    19486    20521 
   21019    20837    20252    19671    19288    18951    18388    17552 
   16720    16264    16294    16591    16869    17000    17055    17220 
   17551    17828    17785    17384    16802    16324    16232    16628 
   17322    17870    17848    17263    16494    15948    15917    16366 
   16894    17175    17197    17103    17120    17482    18173    18790 
   18886    18444    17833    17406    17276    17268    17013    16330 
   15471    14822    14505    14338    14024    13441    12766    12269 
   12043    11946    11765    11452    11125    10917    10941    11263 
   11794    12311    12660    12904    13224    13682    14130    14416 
   14560    14717    15049    15579    16111    16443    16605    16719 
   16786    16727    16549    16478    16849    17774    18968    20008 
   20688    21038    21177    21276    21409    21469    21362    21080 
   20553    19736    18790    17989    17533    17380    17193    16638 
   15717    14663    13728    13079    12646    12176    11585    11002 
   10556    10395    10623    11125    11698    12225    12698    13237 
   13980    14864    15636    16048    15998    15687    15600    16089 
   17035    18032    18686    18729    18192    17470    16964    16756 
   16703    16637    16509    16457    16610    16826    16788    16245 
   15153    13799    12738    12443    12966    13885    14645    14941 
   14811    14529    14333    14155    13771    13165    12582    12274 
   12293    12462    12454    12039    11319    10621    10230    10298 
   10795    11453    11945    12127    12016    11703    11346    11070 
   10902    10826    10831    10995    11473    12249    12981    13298 
   13173    12866    12587    12453    12578    13019    13655    14171 
   14308    14094    13744    13551    13776    14413    15192    15905 
   16555    17229    17939    18534    18824    18803    18653    18632 
   19025    19888    20938    21845    22375    22443    22292    22327 
   22683    23084    23124    22710    22134    21661    21281    20946 
   20688    20550    20556    20659    20768    20766    20536    20153 
   19847    19628    19337    18961    18528    17992    17313    16521 
   15775    15293    15178    15361    15661    15899    15974    15949 
   16027    16330    16793    17275    17650    17847    17944    18130 
   18465    18817    19035    19053    18934    18861    18956    19190 
   19453    19651    19868    20355    21227    22280    23119    23417 
   23232    23039    23268    23900    24534    24647    23957    22759 
   21747    21388    21546    21750    21673    21271    20738    20435 
   20582    21026    21333    21136    20576    20162    20263    20907 
   21728    22106    21744    20993    20479    20474    20737    20857 
   20523    19699    18737    18012    17558    17279    17130    17022 
   16907    16871    16920    16914    16767    16424    15813    14979 
   14125    13533    13362    13488    13661    13684    13463    13132 
   12967    13049    13249    13427    13405    13060    12586    12340 
   12459    12821    13154    13173    12855    12487    12341    12402 
   12456    12368    12208    12153    12336    12711    13060    13238 
   13324    13428    13590    13827    14085    14195    13983    13421 
   12683    12023    11583    11302    10944    10275     9312     8285 
    7384     6739     6514     6797     7377     7903     8196     8261 
    8193     8194     8424     8758     8905     8791     8613     8522 
    8557     8804     9289     9874    10407    10850    11313    11909 
   12614    13332    13974    14526    15116    15893    16835    17690 
   18094    17864    17214    16642    16543    16948    17635    18377 
   18981    19263    19178    18905    18716    18772    19017    19238 
   19226    18900    18315    17691    17377    17576    18167    18777 
   19058    19031    19057    19417    20069    20761    21224    21319 
   21139    20879    20643    20462    20332    20136    19709    19028 
   18263    17623    17185    16945    16921    17141    17671    18572 
   19778    21110    22327    23165    23545    23660    23668    23509 
   23050    22209    21095    20099    19575    19467    19459    19304 
   18972    18725    18938    19681    20580    21071    20770    19782 
   18603    17717    17330    17327    17308    16881    16027    15010 
   14094    13453    13101    12932    12932    13125    13427    13755 
   14068    14274    14346    14388    14413    14318    14110    13887 
   13723    13618    13477    13304    13326    13745    14554    15600 
   16641    17390    17674    17619    17493    17395    17253    16924 
   16276    15452    14808    14452    14195    13942    13729    13526 
   13243    12823    12348    12071    12250    12996    14156    15264 
   15882    15952    15764    15688    15971    16709    17770    18732 
   19206    19209    19125    19306    19701    20013    20071    19906 
   19710    19681    19766    19744    19563    19382    19342    19525 
   20048    20889    21783    22463    22879    23180    23496    23835 
   24159    24382    24373    24144    23855    23585    23268    22772 
   21975    20988    20216    20012    20349    20933    21465    21802 
   21999    22191    22443    22667    22671    22351    21765    21034 
   20361    19876    19372    18561    17480    16332    15368    14958 
   15164    15528    15630    15468    15258    15227    15513    16022 
   16445    16423    15738    14556    13364    12557    12286    12484 
   12848    13091    13200    13353    13779    14604    15631    16531 
   17239    17926    18722    19596    20352    20699    20425    19572 
   18504    17699    17390    17428    17506    17460    17314    17165 
   17124    17271    17614    18104    18547    18628    18249    17611 
   16922    16314    15802    15293    14792    14375    14108    14160 
   14623    15339    16063    16548    16680    16624    16619    16804 
   17231    17743    18079    18136    17870    17184    16099    14885 
   13894    13296    13068    13054    13015    12864    12738    12755 
   12892    13063    13090    12772    12195    11573    10835     9888 
    8902     8060     7482     7263     7355     7699     8331     9203 
   10250    11457    12598    13400    13964    14553    15257    16013 
   16678    17052    16967    16446    15766    15217    14991    15134 
   15399    15544    15704    16110    16750    17542    18515    19714 
   21062    22411    23578    24321    24467    24044    23308    22667 
   22331    22219    22221    22200    22057    21871    21644    21308 
   20905    20450    19995    19711    19725    20077    20662    21242 
   21728    22184    22614    23007    23462    24113    25036    26174 
   27269    27998    28326    28548    28959    29594    30127    30166 
   29879    29781    29966    30256    30535    30673    30898    31637 
   32629    33241    33280    32756    31707    30424    29121    27697 
   26108    24584    23452    22965    23159    23734    24240    24377 
   24082    23567    23284    23542    24149    24635    24636    24016 
   22959    21908    21078    20298    19400    18381    17316    16313 
   15427    14654    13901    12934    11653    10266     9030     8096 
    7539     7248     6970     6605     6322     6343     6792     7635 
    8675     9699    10627    11480    12248    12857    13307    13622 
   13739    13706    13679    13664    13599    13539    13563    13624 
   13613    13604    13888    14553    15315    15849    16075    16149 
   16243    16408    16533    16291    15519    14514    13514    12476 
   11434    10487     9771     9475     9515     9645     9806     9992 
   10108    10057     9761     9255     8704     8225     7869     7673 
    7622     7770     8171     8623     8893     9019     9246     9802 
   10691    11643    12426    13117    13883    14675    15413    16146 
   16849    17473    18036    18421    18443    18087    17565    17212 
   17217    17525    17993    18350    18308    17949    17606    17479 
   17550    17621    17473    17075    16567    16208    16261    16702 
   17212    17420    17091    16347    15682    15556    16064    16965 
   17774    18047    17765    17257    16857    16749    16808    16733 
   16407    15989    15780    16027    16709    17518    18108    18417 
   18647    18976    19438    19957    20343    20397    20108    19656 
   19249    19020    19002    19073    19055    18918    18711    18440 
   18134    17836    17514    17163    16890    16766    16763    16833 
   16909    16873    16605    16117    15641    15433    15473    15545 
   15530    15401    15142    14927    15022    15369    15695    15924 
   16098    16211    16304    16471    16794    17280    17850    18461 
   19112    19715    20131    20321    20326    20183    19941    19600 
   19163    18732    18401    18216    18200    18241    18149    17907 
   17601    17175    16559    15884    15329    14993    14933    15078 
   15249    15365    15430    15430    15407    15435    15562    15839 
   16246    16654    16969    17125    17035    16759    16501    16324 
   16140    15858    15452    14962    14454    14045    13936    14200 
   14670    15160    15640    16184    16859    17640    18379    18893 
   19086    19006    18797    18539    18178    17663    17040    16383 
   15784    15369    15177    15010    14573    13836    13029    12357 
   11881    11490    11027    10587    10419    10558    10783    10841 
   10642    10343    10180    10227    10496    11045    11806    12550 
   13088    13337    13360    13425    13816    14567    15483    16287 
   16741    16771    16505    16131    15844    15879    16340    17078 
   17936    18880    19895    20857    21538    21845    21997    22271 
   22727    23254    23649    23755    23611    23342    23014    22620 
   22137    21657    21368    21294    21276    21306    21564    22123 
   22919    23811    24474    24654    24566    24574    24705    24717 
   24371    23635    22782    22153    21841    21691    21560    21436 
   21395    21530    21865    22326    22834    23251    23302    22842 
   22077    21382    21037    21015    21020    20858    20623    20495 
   20498    20437    20094    19493    18786    18075    17447    16940 
   16532    16254    16163    16208    16161    15755    15069    14536 
   14457    14768    15218    15570    15750    15887    16099    16296 
   16294    15964    15286    14388    13480    12842    12780    13195 
   13547    13552    13417    13509    14015    14769    15433    15850 
   16213    16840    17684    18267    18171    17435    16442    15605 
   15126    14907    14761    14609    14344    13813    13032    12232 
   11731    11714    12081    12551    12890    13087    13349    13817 
   14303    14445    14079    13359    12680    12504    13056    14052 
   14913    15331    15512    15846    16526    17436    18284    18899 
   19387    19998    20927    22157    23412    24458    25317    26019 
   26464    26620    26545    26315    26049    25808    25448    24715 
   23571    22276    21152    20363    19874    19616    19563    19592 
   19537    19380    19188    19027    18996    19136    19354    19559 
   19682    19633    19372    18879    18105    17161    16320    15765 
   15559    15671    15867    15907    15799    15590    15176    14527 
   13822    13336    13223    13370    13558    13720    13891    14075 
   14217    14286    14438    14899    15562    16038    16053    15557 
   14763    14081    13697    13430    13017    12316    11454    10710 
   10219    10006    10038    10061     9838     9434     8934     8295 
    7603     7060     6732     6490     6159     5727     5342     5111 
    5087     5318     5754     6319     7021     7771     8321     8574 
    8717     8929     9146     9229     9224     9386     9973    11004 
   12142    12931    13241    13413    13823    14525    15392    16265 
   16973    17433    17733    18107    18762    19621    20308    20494 
   20224    19856    19749    20060    20690    21358    21881    22288 
   22622    22810    22776    22549    22278    22199    22452    22939 
   23426    23763    23951    24080    24251    24513    24853    25204 
   25395    25257    24811    24291    24013    24132    24447    24583 
   24317    23702    23088    22973    23606    24734    25689    25792 
   24950    23753    22862    22482    22359    22040    21270    20250 
   19429    19039    18940    18890    18765    18448    17788    16850 
   16030    15793    16256    16966    17233    16783    15977    15403 
   15355    15668    15921    15704    14942    14081    13650    13717 
   14080    14622    15146    15322    15081    14772    14847    15424 
