Origin Time       2011/03/11 14:46:00
Lat.              38.103
Long.             142.860
Depth. (km)       24
Mag.              9.0
Station Code      NGN005
Station Lat.      36.6987
Station Long.     137.8630
Station Height(m) 702
Record Time       2011/03/11 14:48:34
Sampling Freq(Hz) 100Hz
Duration Time(s)  221
Dir.              U-D
Scale Factor      3920(gal)/6182761
Max. Acc. (gal)   4.542
Last Correction   2011/03/11 14:48:19
Memo.             
[...]
  -31100   -30823   -31143   -31883   -31756   -31653   -31839   -31870 
  -32269   -32561   -32427   -32390   -32556   -33051   -33392   -33039 
  -32687   -32638   -32445   -32323   -32608   -32752   -32256   -31634 
  -31536   -31908   -32046   -31619   -31322   -31310   -31088   -30856 
  -30826   -30801   -30836   -30904   -30819   -30623   -30375   -30388 
  -30644   -30542   -30344   -30368   -30611   -31132   -31031   -30323 
  -30038   -30090   -30348   -30624   -30677   -30839   -31028   -31270 
  -31642   -31788   -31698   -31510   -31436   -31561   -31499   -31426 
  -31707   -31924   -32070   -32266   -32076   -31840   -31630   -30887 
  -30507   -31144   -31662   -31538   -31335   -31179   -30919   -30644 
  -30305   -29931   -29604   -29182   -29099   -29465   -29369   -28783 
  -28276   -27905   -27712   -27587   -27337   -26960   -26726   -26842 
  -26809   -26547   -26501   -26477   -26520   -26823   -26827   -26462 
  -26401   -26665   -26917   -27126   -27232   -27256   -27132   -27105 
  -27540   -27512   -26748   -26437   -26557   -26453   -26248   -26200 
  -26102   -25513   -24798   -24612   -24805   -24738   -24160   -23764 
  -23938   -23984   -23627   -23316   -23273   -23321   -23235   -23250 
  -23663   -23902   -23446   -23128   -23348   -23272   -23092   -23303 
  -23701   -24035   -23882   -23874   -24344   -24488   -24712   -25076 
  -25027   -24969   -25085   -25524   -26090   -26138   -26076   -26363 
  -26617   -26710   -26964   -27226   -27196   -27167   -27373   -27796 
  -28069   -27860   -27583   -27207   -26692   -26696   -26902   -26642 
  -26216   -26212   -26457   -26107   -25366   -25132   -25282   -25150 
  -24539   -24211   -24850   -25582   -25542   -25221   -25166   -25293 
  -25320   -25390   -25686   -25709   -25323   -25133   -25421   -25808 
  -25790   -25404   -25055   -24942   -25018   -25157   -25102   -24808 
  -24581   -24509   -24695   -25034   -25182   -25442   -25424   -24460 
  -23864   -24465   -25097   -25253   -25205   -24984   -24932   -25286 
  -25496   -25025   -24413   -24275   -24342   -24590   -24853   -24749 
  -25018   -25577   -25155   -24335   -24358   -24558   -24281   -24181 
  -24529   -24857   -24687   -24273   -24423   -24825   -24756   -24580 
  -24713   -24954   -24975   -24921   -25201   -25383   -25062   -24924 
  -25214   -25345   -25278   -25421   -25830   -26250   -26319   -26030 
  -25947   -26085   -26109   -26365   -26866   -27090   -27060   -27141 
  -27416   -27691   -27732   -27592   -27654   -27936   -28114   -28182 
  -28160   -28113   -28181   -28197   -28208   -28370   -28427   -28270 
  -28114   -28054   -28003   -27914   -27807   -27632   -27466   -27454 
  -27485   -27319   -27014   -27001   -27348   -27560   -27565   -27745 
  -28009   -28133   -28239   -28252   -28296   -28722   -29157   -29251 
  -29270   -29452   -29688   -29731   -29786   -29970   -30018   -30029 
  -30150   -30255   -30149   -29928   -29908   -29946   -29874   -29755 
  -29500   -29198   -29064   -28999   -28758   -28515   -28475   -28362 
  -28126   -27835   -27554   -27585   -27779   -27868   -27909   -27877 
  -27800   -27734   -27654   -27605   -27689   -27820   -27897   -28035 
  -28095   -28024   -28063   -28090   -28098   -28270   -28450   -28582 
  -28708   -28847   -29181   -29543   -29663   -29758   -29913   -30161 
  -30651   -30999   -31086   -31319   -31581   -31676   -31734   -31800 
  -31906   -31956   -31949   -32059   -32120   -32055   -32022   -31940 
  -31771   -31623   -31514   -31349   -31054   -30783   -30645   -30520 
  -30310   -30077   -30034   -30070   -29870   -29605   -29448   -29225 
  -28958   -28787   -28742   -28784   -28797   -28728   -28639   -28531 
  -28492   -28614   -28685   -28679   -28748   -28760   -28775   -28889 
  -28874   -28801   -28904   -29068   -29145   -29149   -29156   -29223 
  -29284   -29290   -29307   -29365   -29477   -29532   -29420   -29337 
  -29368   -29334   -29116   -28780   -28616   -28712   -28738   -28488 
  -28121   -27874   -27794   -27688   -27460   -27420   -27529   -27283 
  -26850   -26683   -26647   -26482   -26137   -25867   -25918   -25964 
  -25815   -25809   -25973   -25958   -25705   -25656   -25983   -26179 
  -26118   -26151   -26227   -26194   -26202   -26388   -26557   -26464 
  -26292   -26256   -26213   -26093   -25981   -25825   -25675   -25637 
  -25583   -25446   -25348   -25313   -25269   -25237   -25295   -25278 
  -25103   -25094   -25239   -25220   -25165   -25185   -25153   -25152 
  -25329   -25624   -25775   -25719   -25803   -26064   -26150   -26174 
  -26357   -26537   -26740   -26920   -26908   -26935   -27028   -27105 
  -27283   -27409   -27454   -27582   -27693   -27731   -27793   -27883 
  -27993   -28095   -28084   -28027   -28030   -28097   -28322   -28545 
  -28548   -28621   -28884   -29029   -29022   -29108   -29310   -29422 
  -29423   -29465   -29570   -29711   -29915   -30161   -30349   -30483 
  -30669   -30810   -30804   -30818   -31002   -31285   -31481   -31571 
  -31679   -31709   -31649   -31769   -32036   -32192   -32184   -32147 
  -32253   -32410   -32496   -32603   -32676   -32693   -32697   -32656 
  -32686   -32757   -32783   -32755   -32590   -32488   -32546   -32553 
  -32545   -32536   -32446   -32404   -32385   -32269   -32156   -32100 
  -32064   -32042   -31931   -31771   -31680   -31464   -31151   -31063 
  -31079   -30979   -30883   -30819   -30672   -30536   -30570   -30659 
  -30590   -30445   -30443   -30409   -30266   -30416   -30708   -30605 
  -30418   -30673   -31017   -31127   -31417   -31812   -31814   -31671 
  -31807   -32212   -32464   -32326   -32373   -32650   -32683   -32717 
  -32718   -32582   -32663   -32534   -32054   -32089   -32331   -32009 
  -31818   -32037   -31961   -31565   -31227   -31238   -31330   -31012 
  -30671   -30575   -30429   -30213   -30167   -30331   -30387   -30212 
  -29835   -29475   -29420   -29249   -28932   -28961   -29051   -28895 
  -28628   -28484   -28525   -28434   -28329   -28440   -28399   -28183 
  -28051   -28028   -28137   -28140   -27969   -28060   -28273   -28163 
  -28012   -28075   -28183   -28295   -28369   -28383   -28432   -28374 
  -28226   -28337   -28589   -28656   -28639   -28719   -28977   -29247 
  -29284   -29346   -29637   -29819   -29781   -29793   -29904   -29990 
  -30096   -30248   -30328   -30330   -30313   -30281   -30250   -30164 
  -30071   -30162   -30327   -30298   -30183   -30211   -30272   -30246 
  -30235   -30269   -30308   -30298   -30318   -30514   -30668   -30601 
  -30582   -30705   -30780   -30760   -30707   -30816   -31097   -31204 
  -31178   -31271   -31337   -31273   -31216   -31238   -31231   -31116 
  -31110   -31255   -31259   -31122   -31043   -31042   -31026   -30921 
  -30785   -30761   -30929   -31077   -30993   -30921   -30970   -30927 
  -30845   -30816   -30829   -30883   -30893   -30971   -31047   -30880 
  -30859   -31099   -31193   -31154   -31017   -30838   -30814   -30826 
  -30775   -30700   -30618   -30525   -30301   -30088   -30136   -30172 
  -29977   -29842   -29914   -29910   -29670   -29559   -29723   -29732 
  -29525   -29379   -29399   -29603   -29685   -29523   -29437   -29403 
  -29320   -29332   -29502   -29655   -29374   -28893   -28906   -29117 
  -29110   -29085   -29091   -29155   -29154   -29009   -29003   -28984 
  -28853   -28945   -29163   -29245   -29180   -29131   -29228   -29223 
  -29086   -29111   -29176   -29156   -29152   -29164   -29183   -29118 
  -29038   -29072   -29102   -29171   -29241   -29169   -29109   -29154 
  -29258   -29293   -29134   -28903   -28708   -28647   -28768   -28811 
  -28603   -28260   -28036   -28007   -27927   -27780   -27703   -27568 
  -27379   -27289   -27324   -27451   -27476   -27353   -27439   -27721 
  -27814   -27796   -27877   -27968   -28080   -28248   -28356   -28389 
  -28454   -28640   -28831   -28841   -28844   -29012   -29083   -28971 
  -28965   -29068   -29083   -29076   -29057   -28961   -28887   -28863 
  -28846   -28817   -28788   -28798   -28784   -28737   -28694   -28592 
  -28466   -28345   -28207   -28147   -28096   -27911   -27781   -27843 
  -27915   -27943   -27983   -27962   -27909   -27916   -27952   -27930 
  -27800   -27685   -27694   -27760   -27827   -27838   -27778   -27751 
  -27796   -27884   -27959   -27963   -27999   -28111   -28244   -28431 
  -28526   -28508   -28631   -28853   -29023   -29126   -29190   -29329 
  -29538   -29708   -29839   -29978   -30184   -30420   -30602   -30770 
  -30935   -31052   -31101   -31115   -31202   -31271   -31227   -31198 
  -31120   -30975   -30959   -30945   -30806   -30722   -30671   -30567 
  -30516   -30492   -30436   -30400   -30337   -30246   -30216   -30184 
  -30163   -30207   -30178   -30114   -30159   -30213   -30270   -30359 
  -30376   -30384   -30455   -30509   -30559   -30602   -30579   -30599 
  -30763   -30938   -31037   -31066   -31011   -31012   -31088   -31067 
  -31010   -31028   -31094   -31185   -31204   -31110   -30994   -30891 
  -30808   -30735   -30557   -30222   -29977   -29994   -29976   -29802 
  -29845   -30009   -29751   -29171   -28852   -29099   -29543   -29396 
  -28958   -29664   -31131   -30854   -28480   -26777   -27162   -27835 
  -27223   -26496   -27073   -27937   -27814   -27370   -27389   -27596 
  -27547   -26721   -25543   -25982   -28124   -29130   -28075   -27051 
  -26996   -27427   -28368   -29267   -28900   -27180   -25595   -25571 
  -26473   -27178   -27991   -28142   -26802   -26319   -27360   -27274 
  -26049   -25622   -26200   -26804   -26835   -27246   -28491   -28900 
  -28182   -27800   -27633   -27160   -27066   -27725   -28114   -26912 
  -25874   -27563   -29436   -28258   -25620   -24345   -25742   -28934 
  -30519   -28037   -23821   -23193   -26585   -28603   -27607   -27011 
  -27610   -27453   -26614   -26086   -25939   -26371   -26504   -25894 
  -26108   -27092   -27639   -27663   -27769   -28567   -28947   -28193 
  -28150   -29150   -29197   -28530   -29457   -31163   -30907   -29489 
  -28754   -28728   -28985   -29160   -29774   -30222   -29534   -29419 
  -30100   -29450   -27921   -27574   -28086   -28045   -28038   -29334 
  -31112   -31301   -30499   -30997   -31732   -30796   -30071   -31348 
  -32376   -31736   -31774   -32676   -31732   -29673   -30138   -32851 
  -34187   -33359   -31657   -30682   -31829   -33474   -33367   -32127 
  -30914   -29595   -28871   -29801   -31945   -32983   -30694   -28575 
  -29966   -31557   -31559   -31263   -30932   -29757   -28595   -30049 
  -31735   -30401   -28486   -28247   -29340   -30252   -29903   -29189 
  -28619   -28554   -29101   -28849   -28424   -29296   -29748   -28783 
  -28189   -28408   -28483   -27813   -26247   -25649   -27332   -29271 
  -30270   -30344   -28871   -27207   -27056   -28109   -29819   -30734 
  -29693   -28426   -28050   -28218   -29547   -30847   -30389   -29076 
  -27916   -28608   -31303   -32472   -31333   -29525   -28592   -30189 
  -31999   -31136   -29503   -28755   -27995   -27733   -28944   -30604 
  -31427   -30920   -29926   -29573   -29195   -29307   -30544   -29542 
  -26160   -25813   -28613   -30014   -29050   -27095   -25745   -26532 
  -29059   -30776   -29859   -27294   -25506   -26034   -27301   -27943 
  -29036   -29174   -27218   -25366   -25265   -27101   -29007   -28871 
  -27439   -26444   -26281   -26784   -28054   -29087   -28445   -26572 
  -25536   -26218   -27069   -27213   -27074   -26849   -26653   -26263 
  -26439   -27951   -28984   -27946   -26174   -25910   -27366   -28583 
  -28144   -26964   -26650   -27040   -27667   -28968   -29543   -28230 
  -27296   -27973   -28731   -28807   -28595   -28677   -28969   -28796 
  -28793   -29471   -29464   -28676   -28721   -29440   -29463   -28989 
  -29169   -30036   -30625   -30461   -29826   -29243   -29226   -29485 
  -29515   -29237   -28391   -27664   -27828   -28483   -29396   -29808 
  -28975   -27736   -27193   -27490   -27997   -28020   -27590   -27627 
  -27732   -26764   -26470   -27739   -28163   -27675   -28077   -28408 
  -27392   -26624   -27531   -28770   -28857   -28494   -28426   -28202 
  -28389   -29521   -29891   -28702   -27983   -28818   -29590   -29404 
  -29160   -29102   -29170   -29630   -29905   -29463   -29023   -29380 
  -29786   -29345   -28812   -28698   -28852   -29260   -29322   -29129 
  -29338   -29579   -29250   -28472   -28325   -29292   -29881   -29002 
  -27960   -28293   -28989   -28502   -27801   -27884   -27954   -27351 
  -26489   -26659   -27337   -26816   -26747   -27830   -27567   -26232 
  -25564   -26034   -27175   -27345   -26641   -26429   -26783   -27333 
  -27059   -26125   -26139   -26215   -25430   -25294   -25881   -25933 
  -25798   -26139   -26350   -25732   -24836   -25437   -26841   -25945 
  -23924   -24132   -25650   -26261   -26211   -26252   -25888   -24818 
  -24138   -24948   -26324   -26744   -26866   -26780   -25400   -24181 
  -24538   -25783   -26924   -26765   -25737   -25187   -24606   -24321 
  -25615   -27139   -26773   -25000   -23827   -23889   -24414   -24969 
  -25283   -24709   -23516   -23208   -24055   -25452   -26683   -25655 
  -22942   -22374   -24419   -26199   -26319   -25704   -25368   -24686 
  -23191   -22483   -22647   -22376   -22836   -23816   -23861   -24161 
  -25237   -26567   -27186   -25247   -22356   -21933   -23819   -26147 
  -27072   -25546   -23593   -23012   -23453   -24944   -26533   -26584 
  -25061   -22934   -22238   -23934   -25770   -26399   -26689   -25766 
  -22933   -21084   -22218   -24573   -25902   -25227   -23265   -21941 
  -22619   -24975   -26381   -25483   -24253   -23177   -22097   -23324 
  -26406   -27374   -25666   -24298   -24573   -25357   -25556   -25122 
  -24670   -24636   -24928   -25191   -25156   -25219   -25512   -25260 
  -24949   -25413   -25784   -25857   -25702   -24383   -23108   -23535 
  -24371   -24783   -25545   -26365   -26180   -24879   -24110   -24836 
  -25291   -24724   -24445   -24355   -23988   -24251   -25331   -26047 
  -25674   -24916   -24688   -24576   -24090   -23777   -23738   -23987 
  -24785   -25356   -25289   -25226   -25113   -24743   -24548   -24359 
  -23829   -23782   -25213   -26848   -26478   -24738   -23418   -23248 
  -24260   -25440   -26398   -26975   -26092   -24642   -24490   -25071 
  -25075   -24629   -24852   -26213   -27476   -27510   -26564   -25474 
  -25443   -26731   -27471   -26636   -26293   -27180   -27161   -26379 
  -26380   -26865   -27275   -27388   -27781   -28531   -28025   -26668 
  -26110   -26431   -27246   -27471   -27112   -27187   -26913   -26299 
  -26072   -26026   -26495   -27332   -28200   -28715   -27810   -26574 
  -26858   -27605   -27571   -27498   -27681   -27611   -27602   -28036 
  -28473   -28420   -27914   -27732   -28210   -28753   -28963   -28590 
  -28124   -28211   -28397   -28624   -28902   -28948   -29131   -29198 
  -28705   -27908   -27328   -27818   -28947   -29211   -28753   -28285 
  -27840   -27883   -28206   -28151   -28060   -28069   -28248   -28782 
  -29117   -29193   -29426   -29217   -28274   -27809   -28401   -29155 
  -29155   -28507   -28457   -29021   -28824   -28094   -28084   -28895 
  -29460   -29254   -28772   -28383   -28068   -27922   -28818   -30179 
  -29808   -28533   -28609   -29494   -29485   -28633   -28630   -29576 
  -29968   -29906   -30144   -30240   -29883   -29632   -29705   -29905 
  -29991   -29474   -28929   -29174   -29391   -28949   -28478   -28677 
  -29111   -29198   -29522   -29872   -29400   -28715   -28861   -29484 
  -29515   -29241   -29435   -29823   -30059   -30246   -30657   -31101 
  -30845   -29989   -29773   -30557   -30956   -30634   -30951   -31858 
  -32089   -31407   -30614   -30547   -30838   -30727   -30594   -30534 
  -30129   -29500   -29014   -29161   -29284   -28738   -28578   -28963 
  -29169   -29122   -28995   -28704   -27994   -27748   -28397   -28697 
  -28194   -27533   -27016   -26533   -26335   -26767   -27412   -27558 
  -27139   -26922   -27098   -26965   -26613   -26492   -26703   -27240 
  -27603   -27559   -27324   -26951   -26621   -26217   -25782   -25827 
  -26011   -26147   -26982   -27982   -27774   -26978   -27043   -27390 
  -26929   -26530   -27040   -27421   -27225   -27508   -28098   -27852 
  -27080   -26685   -26759   -27030   -27052   -26759   -26883   -27330 
  -27240   -26944   -26986   -27250   -27489   -27224   -26790   -26831 
  -27006   -26969   -26693   -26420   -26621   -27047   -26921   -26516 
  -26807   -27293   -27057   -26526   -26369   -26682   -26711   -26339 
  -26594   -27052   -26931   -26638   -26359   -26133   -26007   -25953 
  -25878   -25622   -25749   -26442   -26784   -26481   -26003   -25846 
  -26090   -26201   -26052   -25890   -25669   -25441   -25347   -25466 
  -25624   -25405   -25168   -25449   -25634   -25256   -24829   -24511 
  -24105   -23995   -24320   -24697   -25008   -24955   -24531   -24364 
  -24405   -24356   -24219   -24148   -24601   -25257   -25354   -24981 
  -24642   -24794   -25245   -25339   -25137   -25083   -25288   -25560 
  -25830   -26134   -26260   -26292   -26235   -25903   -25807   -26108 
  -26320   -26370   -26326   -26433   -26793   -26887   -26776   -26875 
  -26838   -26468   -26244   -26402   -26803   -27181   -27049   -26560 
  -26395   -26540   -26841   -27132   -27026   -26739   -26662   -26832 
  -27060   -27049   -26997   -27093   -27060   -26952   -27021   -27323 
  -27613   -27549   -27419   -27510   -27678   -27898   -27850   -27448 
  -27504   -28117   -28359   -28037   -27792   -27729   -27632   -27641 
  -27604   -27396   -27330   -27474   -27852   -28127   -27839   -27592 
  -27763   -27936   -27985   -27787   -27391   -27226   -27232   -27205 
  -27406   -27789   -27922   -27874   -27884   -27886   -27917   -27996 
  -28125   -28344   -28345   -28149   -28138   -28133   -28130   -28380 
  -28564   -28441   -28240   -28013   -27759   -27860   -28151   -28113 
  -28087   -28156   -27978   -27799   -27793   -27771   -27645   -27549 
  -27511   -27285   -27066   -27368   -27771   -27598   -27271   -27194 
  -27057   -26925   -27158   -27448   -27252   -26788   -26627   -26904 
  -27204   -27150   -27042   -27023   -26854   -26670   -26599   -26598 
  -26724   -26945   -27007   -26845   -26746   -26853   -27027   -27012 
  -26861   -26880   -27113   -27380   -27372   -27073   -26788   -26757 
  -27091   -27399   -27308   -27029   -26788   -26814   -27118   -27297 
  -27190   -26880   -26620   -26703   -26811   -26646   -26532   -26562 
  -26616   -26748   -26820   -26811   -26777   -26639   -26674   -26899 
  -26875   -26741   -26836   -27050   -27278   -27526   -27690   -27570 
  -27261   -27319   -27756   -27954   -27957   -28087   -28115   -28017 
  -28158   -28371   -28389   -28505   -28706   -28740   -28675   -28723 
  -29066   -29291   -29115   -29174   -29591   -29867   -29971   -29952 
  -29962   -30271   -30481   -30355   -30450   -30885   -31104   -30894 
  -30688   -30782   -30997   -31239   -31375   -31131   -30754   -30828 
  -31215   -31232   -30930   -30793   -30836   -30918   -30896   -30794 
  -30804   -30795   -30654   -30510   -30377   -30250   -30029   -29708 
  -29742   -30058   -30082   -30041   -30071   -29860   -29633   -29427 
  -29279   -29451   -29493   -29355   -29468   -29627   -29745   -29818 
  -29691   -29533   -29447   -29506   -29818   -30096   -30024   -29743 
