Origin Time       2011/03/11 14:46:00
Lat.              38.103
Long.             142.860
Depth. (km)       24
Mag.              9.0
Station Code      NGN002
Station Lat.      36.8068
Station Long.     138.2069
Station Height(m) 677
Record Time       2011/03/11 14:47:59
Sampling Freq(Hz) 100Hz
Duration Time(s)  300
Dir.              N-S
Scale Factor      3920(gal)/6182761
Max. Acc. (gal)   17.686
Last Correction   2011/03/11 14:47:44
Memo.             
[...]
  -22263   -22736   -23210   -23659   -24072   -24491   -24950   -25529 
  -26360   -27484   -28844   -30349   -31911   -33467   -34995   -36473 
  -37830   -38987   -39927   -40666   -41210   -41558   -41740   -41862 
  -42008   -42128   -42108   -41888   -41475   -40937   -40361   -39809 
  -39300   -38841   -38472   -38246   -38190   -38299   -38515   -38760 
  -39002   -39220   -39374   -39491   -39645   -39848   -40033   -40119 
  -40041   -39787   -39402   -38923   -38383   -37833   -37301   -36776 
  -36217   -35564   -34768   -33809   -32687   -31421   -30044   -28610 
  -27187   -25815   -24509   -23303   -22287   -21568   -21206   -21208 
  -21515   -21980   -22446   -22793   -22920   -22754   -22293   -21631 
  -20907   -20245   -19715   -19338   -19133   -19121   -19310   -19714 
  -20346   -21200   -22217   -23310   -24396   -25402   -26295   -27063 
  -27660   -28042   -28219   -28272   -28330   -28505   -28821   -29252 
  -29747   -30244   -30719   -31217   -31818   -32586   -33557   -34712 
  -35964   -37203   -38357   -39376   -40242   -41001   -41728   -42487 
  -43305   -44170   -45049   -45952   -46879   -47796   -48686   -49553 
  -50357   -51014   -51465   -51703   -51743   -51606   -51303   -50826 
  -50183   -49401   -48492   -47494   -46504   -45598   -44784   -44049 
  -43361   -42661   -41920   -41184   -40514   -39935   -39454   -39107 
  -38914   -38850   -38888   -39013   -39178   -39299   -39280   -39048 
  -38552   -37811   -36915   -35949   -34949   -33944   -32995   -32184 
  -31569   -31170   -30963   -30914   -31019   -31308   -31801   -32491 
  -33346   -34313   -35339   -36386   -37416   -38375   -39174   -39709 
  -39898   -39715   -39182   -38335   -37236   -35980   -34633   -33212 
  -31752   -30307   -28919   -27606   -26373   -25243   -24260   -23476 
  -22976   -22801   -22861   -23009   -23153   -23260   -23336   -23409 
  -23504   -23618   -23723   -23792   -23829   -23874   -23962   -24079 
  -24160   -24122   -23884   -23379   -22616   -21696   -20717   -19721 
  -18732   -17814   -17065   -16556   -16312   -16325   -16595   -17139 
  -17984   -19196   -20783   -22613   -24532   -26438   -28212   -29823 
  -31332   -32660   -33630   -34191   -34375   -34247   -33950   -33584 
  -33158   -32665   -32104   -31485   -30808   -30015   -29086   -28099 
  -27080   -25952   -24735   -23579   -22570   -21722   -21106   -20784 
  -20738   -20920   -21246   -21643   -22090   -22576   -23085   -23625 
  -24231   -24908   -25588   -26185   -26711   -27221   -27643   -27824 
  -27731   -27489   -27240   -27012   -26786   -26595   -26466   -26407 
  -26416   -26443   -26497   -26632   -26826   -27067   -27410   -27878 
  -28494   -29304   -30281   -31361   -32526   -33748   -34976   -36161 
  -37244   -38198   -39042   -39815   -40581   -41381   -42206   -43025 
  -43781   -44431   -44947   -45307   -45546   -45735   -45955   -46287 
  -46747   -47274   -47813   -48311   -48717   -49042   -49333   -49599 
  -49827   -50019   -50144   -50139   -49954   -49553   -48886   -47906 
  -46581   -44942   -43077   -41050   -38901   -36695   -34506   -32433 
  -30615   -29185   -28229   -27762   -27731   -28039   -28542   -29107 
  -29641   -30085   -30431   -30684   -30843   -30937   -30980   -30972 
  -30940   -30881   -30751   -30493   -30004   -29239   -28248   -27098 
  -25871   -24674   -23563   -22577   -21786   -21213   -20852   -20755 
  -20955   -21419   -22117   -22994   -23988   -25097   -26397   -27968 
  -29773   -31670   -33501   -35130   -36463   -37439   -38002   -38134 
  -37844   -37163   -36165   -34912   -33408   -31689   -29875   -28091 
  -26439   -25011   -23876   -23081   -22601   -22359   -22359   -22645 
  -23154   -23780   -24467   -25152   -25751   -26208   -26453   -26406 
  -26059   -25456   -24639   -23694   -22712   -21737   -20813   -19961 
  -19143   -18375   -17774   -17446   -17469   -17879   -18628   -19698 
  -21099   -22745   -24533   -26440   -28431   -30459   -32508   -34553 
  -36573   -38548   -40399   -42026   -43352   -44306   -44854   -45031 
  -44908   -44593   -44199   -43783   -43376   -42994   -42630   -42260 
  -41853   -41417   -41051   -40881   -41023   -41547   -42404   -43453 
  -44577   -45711   -46793   -47778   -48627   -49309   -49850   -50282 
  -50595   -50800   -50931   -51030   -51187   -51508   -52028   -52669 
  -53272   -53643   -53602   -53062   -52022   -50549   -48803   -46957 
  -45101   -43313   -41694   -40324   -39206   -38274   -37494   -36866 
  -36359   -35974   -35741   -35608   -35480   -35278   -34935   -34416 
  -33732   -32948   -32155   -31430   -30840   -30402   -30080   -29840 
  -29651   -29492   -29343   -29183   -28989   -28727   -28377   -27941 
  -27388   -26732   -26055   -25404   -24830   -24414   -24165   -24027 
  -23944   -23844   -23680   -23470   -23252   -23061   -22931   -22879 
  -22900   -22974   -23066   -23149   -23211   -23225   -23139   -22892 
  -22494   -22035   -21632   -21382   -21321   -21428   -21702   -22185 
  -22914   -23842   -24872   -25953   -27086   -28246   -29384   -30486 
  -31576   -32674   -33749   -34720   -35477   -35906   -35937   -35588 
  -34960   -34183   -33376   -32641   -32068   -31726   -31619   -31664 
  -31715   -31623   -31343   -30892   -30292   -29638   -29069   -28634 
  -28334   -28210   -28288   -28541   -28906   -29321   -29758   -30224 
  -30690   -31073   -31285   -31277   -31054   -30698   -30336   -30051 
  -29832   -29600   -29271   -28765   -28067   -27285   -26575   -26028 
  -25653   -25432   -25401   -25639   -26179   -26990   -27992   -29099 
  -30279   -31525   -32828   -34222   -35750   -37383   -39067   -40776 
  -42468   -44126   -45769   -47347   -48723   -49790   -50504   -50837 
  -50806   -50507   -50080   -49618   -49123   -48562   -47939   -47254 
  -46497   -45700   -44906   -44126   -43353   -42555   -41764   -41086 
  -40564   -40184   -39948   -39832   -39790   -39819   -39923   -40108 
  -40389   -40760   -41197   -41665   -42092   -42415   -42641   -42810 
  -42901   -42878   -42743   -42486   -42128   -41821   -41738   -41887 
  -42146   -42425   -42670   -42815   -42813   -42675   -42452   -42132 
  -41657   -41088   -40583   -40227   -40064   -40093   -40195   -40213 
  -40089   -39835   -39458   -38946   -38295   -37539   -36722   -35867 
  -34996   -34134   -33310   -32570   -32002   -31688   -31658   -31899 
  -32342   -32850   -33298   -33619   -33764   -33718   -33482   -33022 
  -32298   -31325   -30182   -28968   -27743   -26539   -25384   -24259 
  -23083   -21828   -20530   -19226   -17961   -16790   -15784   -14997 
  -14432   -14087   -13963   -14013   -14152   -14297   -14390   -14409 
  -14352   -14224   -14056   -13914   -13852   -13929   -14236   -14828 
  -15738   -16993   -18516   -20171   -21871   -23592   -25366   -27241 
  -29165   -31005   -32610   -33841   -34639   -35082   -35272   -35243 
  -34959   -34318   -33199   -31623   -29785   -27926   -26257   -24932 
  -24019   -23523   -23377   -23488   -23804   -24296   -24930   -25689 
  -26523   -27368   -28155   -28747   -29019   -28935   -28477   -27700 
  -26778   -25889   -25105   -24400   -23725   -23044   -22335   -21632 
  -21036   -20626   -20422   -20419   -20598   -20919   -21336   -21840 
  -22431   -23043   -23580   -23981   -24225   -24341   -24352   -24267 
  -24163   -24159   -24294   -24524   -24801   -25081   -25299   -25419 
  -25479   -25523   -25562   -25627   -25786   -26127   -26737   -27673 
  -28944   -30517   -32322   -34293   -36351   -38385   -40297   -42023 
  -43513   -44726   -45619   -46182   -46453   -46497   -46393   -46194 
  -45935   -45649   -45340   -44978   -44547   -44071   -43549   -42925 
  -42207   -41439   -40610   -39703   -38707   -37609   -36398   -35044 
  -33554   -31998   -30475   -29103   -28003   -27238   -26827   -26739 
  -26900   -27229   -27639   -28054   -28450   -28848   -29250   -29646 
  -30043   -30443   -30805   -31055   -31107   -30909   -30486   -29925 
  -29312   -28736   -28296   -28029   -27886   -27790   -27672   -27503 
  -27279   -26982   -26552   -25937   -25173   -24384   -23725   -23358 
  -23428   -24007   -25072   -26547   -28334   -30281   -32220   -34076 
  -35822   -37376   -38681   -39722   -40513   -41114   -41590   -41957 
  -42219   -42371   -42409   -42349   -42194   -41925   -41530   -40993 
  -40321   -39556   -38734   -37891   -37060   -36202   -35280   -34311 
  -33323   -32381   -31574   -30940   -30456   -30076   -29780   -29575 
  -29485   -29509   -29601   -29710   -29796   -29816   -29749   -29613 
  -29410   -29112   -28690   -28149   -27524   -26884   -26313   -25939 
  -25889   -26175   -26705   -27354   -27941   -28326   -28502   -28444 
  -28063   -27412   -26636   -25807   -25040   -24525   -24389   -24690 
  -25436   -26584   -28047   -29660   -31295   -32957   -34666   -36421 
  -38268   -40240   -42301   -44345   -46190   -47625   -48505   -48801 
  -48618   -48132   -47533   -47015   -46725   -46720   -46950   -47259 
  -47487   -47509   -47200   -46520   -45522   -44274   -42869   -41388 
  -39867   -38347   -36841   -35305   -33718   -32070   -30333   -28534 
  -26746   -25035   -23468   -22089   -20892   -19838   -18920   -18171 
  -17598   -17194   -16979   -16977   -17276   -18006   -19185   -20696 
  -22415   -24248   -26065   -27722   -29145   -30329   -31330   -32213 
  -32994   -33624   -34069   -34344   -34425   -34227   -33671   -32699 
  -31314   -29621   -27778   -25949   -24315   -23030   -22173   -21782 
  -21887   -22511   -23662   -25295   -27325   -29647   -32101   -34481 
  -36605   -38337   -39602   -40424   -40882   -41030   -40911   -40539 
  -39903   -39059   -38123   -37181   -36303   -35538   -34883   -34302 
  -33752   -33197   -32649   -32159   -31733   -31363   -31098   -30963 
  -30966   -31179   -31652   -32405   -33430   -34616   -35838   -37059 
  -38260   -39418   -40520   -41529   -42367   -42924   -43071   -42714 
  -41847   -40520   -38775   -36665   -34313   -31888   -29548   -27418 
  -25606   -24213   -23307   -22887   -22866   -23091   -23390   -23619 
  -23680   -23528   -23195   -22799   -22485   -22369   -22510   -22881 
  -23425   -24097   -24814   -25485   -26092   -26607   -26937   -27019 
  -26862   -26525   -26081   -25571   -25062   -24648   -24377   -24233 
  -24200   -24240   -24308   -24414   -24607   -24908   -25288   -25668 
  -25949   -26087   -26107   -26047   -25939   -25799   -25646   -25529 
  -25510   -25651   -26007   -26563   -27276   -28121   -29048   -29991 
  -30940   -31920   -32906   -33843   -34655   -35254   -35629   -35868 
  -36095   -36417   -36863   -37406   -38017   -38649   -39232   -39710 
  -40026   -40137   -40041   -39771   -39422   -39116   -38931   -38932 
  -39169   -39565   -39988   -40411   -40854   -41269   -41565   -41659 
  -41487   -41069   -40471   -39708   -38782   -37716   -36517   -35213 
  -33912   -32727   -31718   -30912   -30330   -29981   -29878   -30027 
  -30389   -30901   -31516   -32166   -32741   -33166   -33464   -33722 
  -34009   -34373   -34860   -35477   -36190   -36950   -37690   -38351 
  -38882   -39247   -39427   -39442   -39344   -39138   -38783   -38267 
  -37648   -37043   -36569   -36287   -36198   -36270   -36446   -36668 
  -36945   -37348   -37937   -38730   -39672   -40619   -41401   -41890 
  -42002   -41744   -41211   -40482   -39618   -38718   -37866   -37074 
  -36311   -35557   -34806   -34061   -33330   -32644   -32024   -31464 
  -30947   -30474   -30061   -29694   -29303   -28814   -28185   -27404 
  -26536   -25721   -25115   -24812   -24812   -25074   -25550   -26172 
  -26905   -27763   -28722   -29714   -30686   -31611   -32468   -33212 
  -33772   -34055   -33976   -33508   -32693   -31619   -30423   -29256 
  -28255   -27554   -27271   -27440   -28009   -28876   -29894   -30899 
  -31792   -32564   -33235   -33830   -34379   -34930   -35584   -36502 
  -37766   -39285   -40924   -42585   -44190   -45698   -47073   -48268 
  -49279   -50074   -50596   -50846   -50844   -50624   -50258   -49784 
  -49184   -48475   -47685   -46816   -45902   -45007   -44224   -43658 
  -43348   -43281   -43456   -43866   -44493   -45325   -46325   -47382 
  -48356   -49139   -49677   -49922   -49791   -49217   -48223   -46866 
  -45194   -43257   -41097   -38763   -36316   -33808   -31305   -28845 
  -26424   -24086   -21908   -19958   -18277   -16856   -15658   -14646 
  -13770   -13001   -12360   -11856   -11451   -11103   -10786   -10506 
  -10312   -10241   -10284   -10414   -10624   -10951   -11463   -12207 
  -13174   -14319   -15611   -17016   -18426   -19709   -20770   -21548 
  -22036   -22307   -22460   -22594   -22770   -22983   -23224   -23508 
  -23814   -24076   -24250   -24311   -24205   -23862   -23240   -22352 
  -21279   -20117   -18948   -17901   -17128   -16733   -16759   -17212 
  -18051   -19206   -20616   -22195   -23872   -25647   -27493   -29337 
  -31143   -32886   -34535   -36082   -37524   -38882   -40190   -41454 
  -42634   -43626   -44309   -44603   -44464   -43912   -43049   -42009 
  -40945   -40018   -39340   -38963   -38904   -39119   -39548   -40140 
  -40820   -41492   -42098   -42635   -43173   -43800   -44564   -45474 
  -46497   -47569   -48621   -49577   -50389   -51020   -51436   -51658 
  -51738   -51726   -51699   -51710   -51765   -51870   -52037   -52301 
  -52690   -53164   -53635   -54035   -54295   -54391   -54386   -54377 
  -54456   -54708   -55210   -55995   -57004   -58112   -59168   -60013 
  -60508   -60572   -60213   -59512   -58560   -57432   -56165   -54755 
  -53174   -51387   -49364   -47142   -44829   -42559   -40448   -38590 
  -37050   -35865   -35060   -34634   -34546   -34761   -35229   -35855 
  -36571   -37331   -38040   -38609   -39012   -39257   -39360   -39283 
  -38945   -38341   -37552   -36682   -35835   -35092   -34469   -33916 
  -33370   -32823   -32295   -31806   -31403   -31193   -31292   -31759 
  -32604   -33812   -35321   -37037   -38840   -40559   -41999   -43053 
  -43735   -44128   -44321   -44364   -44275   -44071   -43744   -43268 
  -42634   -41850   -40952   -40033   -39183   -38490   -38060   -37940 
  -38079   -38373   -38713   -38970   -39041   -38921   -38646   -38212 
  -37614   -36847   -35901   -34774   -33480   -32090   -30721   -29463 
  -28329   -27285   -26264   -25231   -24208   -23229   -22354   -21679 
  -21249   -21076   -21188   -21581   -22190   -22943   -23768   -24598 
  -25369   -25990   -26370   -26519   -26530   -26475   -26375   -26227 
  -26017   -25767   -25484   -25092   -24578   -24088   -23713   -23412 
  -23152   -22899   -22586   -22222   -21993   -22097   -22490   -23009 
  -23588   -24159   -24620   -24915   -24938   -24522   -23614   -22296 
  -20704   -19033   -17461   -16053   -14888   -14124   -13858   -14096 
  -14803   -15880   -17201   -18683   -20275   -21960   -23732   -25505 
  -27139   -28584   -29869   -31028   -32096   -33101   -34053   -34916 
  -35612   -36042   -36112   -35796   -35145   -34212   -33057   -31767 
  -30443   -29178   -28018   -26991   -26139   -25491   -25093   -24998 
  -25210   -25703   -26454   -27476   -28811   -30457   -32361   -34414 
  -36423   -38223   -39671   -40645   -41138   -41183   -40857   -40340 
  -39813   -39415   -39204   -39125   -39078   -38945   -38642   -38212 
  -37694   -37030   -36194   -35215   -34136   -33033   -31990   -31066 
  -30316   -29801   -29567   -29649   -30049   -30711   -31569   -32548 
  -33506   -34284   -34793   -34996   -34922   -34690   -34424   -34176 
  -33918   -33568   -33042   -32324   -31456   -30485   -29434   -28306 
  -27120   -25922   -24729   -23522   -22321   -21198   -20199   -19340 
  -18646   -18115   -17683   -17312   -17048   -17019   -17359   -18114 
  -19260   -20719   -22304   -23808   -25145   -26321   -27324   -28093 
  -28610   -28933   -29103   -29155   -29151   -29105   -28995   -28820 
  -28590   -28322   -28067   -27903   -27876   -28007   -28314   -28802 
  -29499   -30437   -31563   -32749   -33885   -34887   -35660   -36131 
  -36263   -36016   -35396   -34473   -33336   -32110   -30944   -29957 
  -29214   -28753   -28651   -28956   -29605   -30513   -31624   -32820 
  -33959   -34934   -35664   -36168   -36547   -36861   -37138   -37404 
  -37647   -37834   -37944   -37970   -37907   -37740   -37471   -37135 
  -36740   -36291   -35816   -35358   -34924   -34510   -34152   -33888 
  -33717   -33656   -33761   -34077   -34579   -35177   -35801   -36421 
  -36987   -37461   -37850   -38168   -38435   -38685   -38945   -39200 
  -39397   -39470   -39382   -39144   -38790   -38350   -37837   -37274 
  -36692   -36095   -35466   -34785   -34040   -33248   -32452   -31708 
  -31081   -30628   -30403   -30419   -30592   -30809   -31028   -31267 
  -31585   -32019   -32538   -33110   -33741   -34449   -35227   -36033 
  -36821   -37563   -38234   -38850   -39445   -40020   -40580   -41107 
  -41534   -41805   -41908   -41884   -41779   -41568   -41227   -40759 
  -40146   -39395   -38570   -37724   -36873   -36012   -35143   -34291 
  -33475   -32707   -31982   -31265   -30567   -29962   -29429   -28920 
  -28523   -28299   -28176   -28062   -27859   -27527   -27118   -26680 
  -26241   -25791   -25271   -24630   -23866   -22998   -22039   -21031 
  -20055   -19164   -18380   -17768   -17410   -17361   -17642   -18248 
  -19166   -20356   -21739   -23229   -24740   -26191   -27502   -28567 
  -29297   -29654   -29629   -29257   -28635   -27880   -27091   -26364 
  -25807   -25492   -25438   -25667   -26219   -27109   -28272   -29540 
  -30773   -31957   -33109   -34201   -35204   -36112   -36960   -37791 
  -38593   -39358   -40109   -40856   -41582   -42269   -42925   -43529 
  -43983   -44194   -44113   -43634   -42686   -41324   -39680   -37914 
  -36159   -34507   -33091   -31972   -31012   -30079   -29210   -28456 
  -27755   -27038   -26346   -25821   -25545   -25399   -25241   -25175 
  -25347   -25676   -25985   -26205   -26371   -26542   -26778   -27109 
  -27439   -27624   -27648   -27584   -27462   -27259   -26950   -26575 
  -26209   -25863   -25544   -25325   -25271   -25390   -25691   -26197 
  -26975   -28097   -29573   -31316   -33116   -34735   -36095   -37236 
  -38168   -38850   -39272   -39546   -39887   -40432   -41178   -42019 
  -42828   -43582   -44351   -45174   -46061   -47021   -48061   -49174 
  -50298   -51303   -52065   -52514   -52682   -52676   -52589   -52471 
  -52301   -52013   -51570   -50928   -50039   -48935   -47677   -46281 
  -44757   -43114   -41365   -39545   -37718   -35974   -34359   -32869 
  -31556   -30478   -29592   -28838   -28231   -27837   -27687   -27738 
  -27926   -28197   -28485   -28723   -28852   -28812   -28576   -28143 
  -27541   -26834   -26055   -25189   -24236   -23243   -22280   -21387 
  -20571   -19795   -19000   -18186   -17405   -16670   -15962   -15273 
  -14625   -14062   -13653   -13503   -13697   -14218   -14991   -15938 
  -16954   -17941   -18904   -19918   -21016   -22198   -23452   -24727 
  -25975   -27185   -28338   -29369   -30186   -30741   -31070   -31222 
  -31226   -31147   -31081   -31100   -31280   -31693   -32360   -33287 
  -34438   -35691   -36907   -37992   -38885   -39539   -39894   -39932 
  -39737   -39375   -38855   -38208   -37427   -36468   -35327   -34017 
  -32559   -30988   -29355   -27726   -26176   -24773   -23587   -22660 
