Origin Time       2011/03/11 14:46:00
Lat.              38.103
Long.             142.860
Depth. (km)       24
Mag.              9.0
Station Code      NGN024
Station Lat.      35.5232
Station Long.     137.8382
Station Height(m) 536
Record Time       2011/03/11 14:47:55
Sampling Freq(Hz) 100Hz
Duration Time(s)  300
Dir.              E-W
Scale Factor      3920(gal)/6182761
Max. Acc. (gal)   23.252
Last Correction   2011/03/11 14:47:40
Memo.             
[...]
  -62219   -64443   -66101   -67289   -68139   -68740   -69174   -69543 
  -69908   -70287   -70465   -70013   -68714   -66681   -64248   -61888 
  -59825   -57772   -55360   -52565   -49670   -47154   -45457   -44694 
  -44672   -45209   -46237   -47669   -49314   -50822   -51951   -52870 
  -53869   -54928   -55751   -56141   -56205   -56190   -56216   -56245 
  -56283   -56330   -56312   -56357   -56714   -57340   -57896   -58089 
  -57918   -57548   -57061   -56433   -55506   -54070   -52127   -49929 
  -47860   -46294   -45395   -45098   -45289   -45824   -46365   -46483 
  -45870   -44492   -42604   -40536   -38583   -37002   -35851   -34983 
  -34245   -33663   -33479   -33896   -34712   -35451   -35780   -35713 
  -35547   -35599   -35974   -36663   -37748   -39242   -40893   -42393 
  -43522   -44201   -44591   -44911   -45328   -45972   -46712   -47283 
  -47725   -48346   -49325   -50522   -51587   -52275   -52642   -52902 
  -53272   -53864   -54638   -55567   -56641   -57700   -58498   -58902 
  -58877   -58479   -57909   -57403   -57050   -56864   -56977   -57456 
  -58152   -58905   -59518   -59827   -59888   -59946   -60290   -61006 
  -61897   -62492   -62205   -60843   -58805   -56690   -54876   -53351 
  -51870   -50302   -48636   -46934   -45524   -44677   -44261   -44065 
  -44013   -43963   -43777   -43504   -43273   -43346   -44092   -45649 
  -47859   -50448   -53143   -55783   -58386   -61065   -63844   -66579 
  -68990   -70646   -71227   -70870   -70001   -68944   -67821   -66606 
  -65197   -63528   -61596   -59441   -57199   -54986   -52717   -50249 
  -47650   -45202   -43267   -42093   -41647   -41709   -42044   -42388 
  -42494   -42295   -41792   -40949   -39855   -38722   -37723   -37001 
  -36574   -36170   -35424   -34110   -32227   -30070   -28070   -26549 
  -25676   -25586   -26407   -28139   -30525   -33208   -36008   -38883 
  -41921   -45253   -48673   -51717   -53996   -55175   -55136   -54190 
  -52750   -51129   -49582   -48157   -46825   -45676   -44718   -43798 
  -42788   -41525   -39756   -37415   -34735   -32114   -30022   -28845 
  -28641   -29122   -29792   -30199   -30225   -30038   -29898   -29984 
  -30239   -30508   -30827   -31264   -31769   -32385   -33260   -34451 
  -35893   -37469   -39134   -40846   -42404   -43705   -44968   -46441 
  -48267   -50558   -53189   -55778   -57943   -59414   -60234   -60814 
  -61497   -62256   -62829   -62980   -62664   -62070   -61482   -61007 
  -60641   -60428   -60347   -60364   -60518   -60881   -61546   -62526 
  -63686   -64827   -65719   -66070   -65612   -64244   -62118   -59639 
  -57382   -55794   -54933   -54651   -54807   -55253   -55779   -56124 
  -56105   -55738   -55251   -54906   -54838   -55072   -55513   -56129 
  -57072   -58351   -59581   -60203   -59823   -58340   -56019   -53438 
  -51089   -49058   -47292   -45943   -45268   -45436   -46440   -48025 
  -49746   -51210   -52346   -53340   -54379   -55632   -57318   -59633 
  -62676   -66281   -69862   -72719   -74423   -74813   -73955   -72168 
  -69886   -67548   -65587   -64314   -63743   -63593   -63435   -62911 
  -61987   -60830   -59486   -57902   -56007   -53809   -51588   -49678 
  -48201   -47211   -46770   -46907   -47636   -48911   -50511   -52109 
  -53467   -54404   -54797   -54652   -53932   -52557   -50721   -48773 
  -46873   -45108   -43509   -41803   -39720   -37339   -34858   -32487 
  -30423   -28763   -27671   -27436   -28250   -30059   -32685   -35954 
  -39692   -43750   -47921   -51826   -55043   -57342   -58751   -59480 
  -59817   -59947   -59704   -58792   -57311   -55622   -53900   -52120 
  -50203   -48127   -46123   -44648   -43979   -44153   -45233   -47206 
  -49825   -52651   -55134   -57010   -58396   -59464   -60461   -61668 
  -63181   -64981   -66943   -68903   -70688   -71980   -72561   -72553 
  -72119   -71308   -70157   -68643   -66745   -64519   -62087   -59673 
  -57510   -55650   -53982   -52448   -51121   -50073   -49414   -49296 
  -49690   -50502   -51673   -53002   -54262   -55324   -56057   -56292 
  -55900   -54790   -52892   -50360   -47599   -44994   -42727   -40699 
  -38695   -36728   -35055   -33984   -33601   -33632   -33810   -34100 
  -34499   -35119   -36286   -38160   -40501   -42846   -44746   -45963 
  -46572   -46903   -47257   -47734   -48299   -48708   -48559   -47696 
  -46216   -44243   -42017   -39856   -38102   -37016   -36543   -36518 
  -36871   -37513   -38421   -39535   -40621   -41416   -41826   -42204 
  -43095   -44619   -46563   -48549   -49980   -50438   -50012   -49077 
  -47985   -46910   -45914   -45028   -44102   -42772   -40778   -38132 
  -35005   -31683   -28506   -25683   -23187   -20888   -18828   -17248 
  -16329   -16182   -16994   -18857   -21656   -25284   -29625   -34396 
  -39154   -43387   -46702   -48855   -49708   -49444   -48606   -47798 
  -47450   -47653   -48240   -49129   -50364   -51915   -53719   -55780 
  -58089   -60540   -62963   -65266   -67391   -69213   -70649   -71553 
  -71799   -71658   -71510   -71448   -71459   -71599   -71900   -72244 
  -72380   -72128   -71438   -70321   -68978   -67777   -67028   -66877 
  -67211   -67630   -67629   -66958   -65714   -64004   -61847   -59347 
  -56754   -54355   -52260   -50422   -48872   -47628   -46634   -45907 
  -45492   -45457   -45818   -46385   -47012   -47730   -48556   -49479 
  -50533   -51782   -53290   -54910   -56212   -56846   -56780   -56103 
  -54890   -53322   -51708   -50322   -49273   -48612   -48567   -49384 
  -51086   -53625   -56907   -60631   -64287   -67365   -69557   -70845 
  -71458   -71672   -71601   -71138   -70121   -68574   -66702   -64594 
  -61976   -58472   -54094   -49218   -44263   -39607   -35545   -32226 
  -29785   -28338   -27818   -27984   -28461   -28862   -29054   -29089 
  -29052   -29202   -29758   -30697   -32036   -33857   -35925   -37975 
  -40139   -42577   -45425   -48942   -53165   -57697   -61948   -65481 
  -68080   -69668   -70328   -70214   -69448   -68289   -66994   -65659 
  -64420   -63240   -62008   -60836   -59734   -58708   -58011   -57892 
  -58465   -59688   -61177   -62269   -62467   -61735   -60297   -58190 
  -55447   -52491   -49812   -47488   -45301   -42919   -40048   -36777 
  -33434   -30274   -27529   -25439   -24220   -23963   -24667   -26341 
  -28952   -32416   -36541   -41053   -45753   -50484   -55091   -59388 
  -63083   -65856   -67441   -67632   -66368   -63844   -60395   -56293 
  -51837   -47521   -43861   -41113   -39371   -38736   -39121   -40292 
  -42053   -44135   -46309   -48490   -50722   -53096   -55401   -57185 
  -58048   -57725   -56185   -53741   -51077   -48844   -47282   -46251 
  -45278   -43947   -42373   -40924   -39815   -39171   -39149   -39921 
  -41572   -44005   -46925   -49970   -52970   -55877   -58575   -60838 
  -62363   -62884   -62340   -60893   -58648   -55665   -52185   -48500 
  -44976   -42112   -40186   -39200   -39082   -39573   -40369   -41390 
  -42707   -44489   -46809   -49507   -52465   -55648   -58855   -61660 
  -63532   -64097   -63329   -61504   -59212   -57087   -55414   -54295 
  -53882   -54197   -55147   -56632   -58382   -59964   -61124   -61845 
  -62059   -61663   -60685   -59265   -57580   -55671   -53436   -50960 
  -48588   -46709   -45499   -44797   -44341   -43970   -43622   -43288 
  -42941   -42637   -42431   -42160   -41616   -40606   -38934   -36653 
  -34190   -32169   -31053   -30892   -31428   -32341   -33346   -34223 
  -34969   -35985   -37800   -40638   -44458   -48965   -53475   -57190 
  -59528   -60233   -59503   -57893   -55876   -53666   -51359   -49071 
  -47088   -45702   -44893   -44496   -44520   -45012   -45932   -47219 
  -48750   -50340   -51968   -53866   -56152   -58661   -61138   -63383 
  -65182   -66213   -66223   -65170   -63117   -60323   -57247   -54251 
  -51470   -48889   -46578   -44841   -43883   -43624   -43830   -44123 
  -44253   -44370   -44766   -45678   -47225   -49256   -51298   -52708 
  -52941   -51911   -50037   -47831   -45779   -44370   -43778   -43850 
  -44361   -45070   -45858   -46722   -47609   -48430   -49119   -49620 
  -49855   -49798   -49628   -49680   -50259   -51477   -53202   -55166 
  -57139   -58935   -60479   -61762   -62661   -63089   -63165   -63079 
  -63002   -63015   -63001   -62727   -62127   -61243   -60055   -58641 
  -57195   -55975   -55358   -55526   -56275   -57289   -58312   -59131 
  -59648   -59888   -59853   -59479   -58807   -57989   -57117   -56163 
  -54991   -53367   -51105   -48218   -44927   -41543   -38375   -35780 
  -34025   -33125   -32894   -33006   -33206   -33542   -34265   -35603 
  -37574   -39822   -41859   -43536   -45034   -46524   -47975   -49109 
  -49488   -48837   -47240   -44995   -42451   -39879   -37444   -35362 
  -33885   -33163   -33255   -34137   -35655   -37590   -39703   -41728 
  -43453   -44759   -45681   -46415   -47051   -47509   -47710   -47622 
  -47368   -47254   -47620   -48711   -50477   -52605   -54746   -56599 
  -58075   -59393   -60893   -62862   -65367   -68206   -71119   -73971 
  -76639   -78920   -80692   -82011   -82944   -83472   -83550   -83188 
  -82493   -81650   -80764   -79740   -78295   -76049   -72646   -67902 
  -62109   -56015   -50360   -45566   -41798   -39042   -37002   -35177 
  -33299   -31591   -30536   -30522   -31573   -33279   -35130   -36879 
  -38545   -40348   -42644   -45844   -50273   -55791   -61680   -67171 
  -71868   -75724   -78795   -80923   -81820   -81351   -79590   -76799 
  -73342   -69621   -66112   -63202   -61116   -60008   -59790   -60120 
  -60709   -61393   -62065   -62695   -63281   -63628   -63320   -62081 
  -60002   -57383   -54481   -51434   -48334   -45148   -41819   -38530 
  -35587   -33179   -31250   -29485   -27580   -25494   -23489   -22038 
  -21599   -22444   -24677   -28228   -32814   -38006   -43252   -48003 
  -51915   -54848   -56811   -57904   -58141   -57544   -56376   -54984 
  -53598   -52296   -50906   -49185   -47159   -45115   -43314   -41833 
  -40726   -40217   -40507   -41483   -42971   -45028   -47630   -50544 
  -53623   -56637   -59082   -60534   -60865   -60240   -59134   -58143 
  -57749   -58113   -59062   -60317   -61464   -62021   -61865   -61152 
  -60012   -58648   -57335   -56184   -55094   -53989   -53015   -52515 
  -52863   -54334   -56913   -60262   -64023   -67835   -71247   -73838 
  -75233   -75170   -73565   -70476   -66163   -61050   -55612   -50261 
  -45174   -40280   -35451   -30684   -26213   -22350   -19309   -17296 
  -16361   -16269   -16702   -17406   -18273   -19328   -20527   -21823 
  -23319   -25202   -27689   -30893   -34697   -38767   -42599   -45696 
  -47649   -48279   -47844   -46799   -45573   -44603   -44205   -44511 
  -45509   -47008   -48725   -50316   -51312   -51368   -50440   -48680 
  -46332   -43644   -40844   -38111   -35534   -33111   -30801   -28648 
  -26899   -25802   -25383   -25702   -26835   -28548   -30429   -32232 
  -33951   -35777   -38085   -41261   -45348   -49980   -54649   -58925 
  -62443   -64880   -66207   -66762   -66939   -67014   -67177   -67534 
  -68019   -68485   -68885   -69197   -69245   -68761   -67699   -66213 
  -64467   -62643   -60878   -59332   -58233   -57653   -57503   -57572 
  -57549   -57287   -56850   -56291   -55666   -55075   -54598   -54330 
  -54354   -54658   -55177   -55748   -56151   -56352   -56368   -56010 
  -55047   -53502   -51710   -50221   -49558   -49873   -50932   -52323 
  -53586   -54388   -54651   -54621   -54726   -55208   -55941   -56659 
  -57111   -57078   -56511   -55568   -54536   -53656   -53027   -52760 
  -53013   -53906   -55516   -57643   -59870   -61988   -63899   -65407 
  -66472   -67260   -67887   -68455   -69143   -69924   -70476   -70676 
  -70751   -70929   -71255   -71579   -71725   -71601   -71078   -70052 
  -68592   -67007   -65682   -64792   -64284   -64038   -63980   -64173 
  -64755   -65654   -66606   -67520   -68501   -69713   -71280   -73176 
  -75158   -76872   -78100   -78799   -78954   -78587   -77826   -76781 
  -75493   -73995   -72164   -69744   -66648   -63045   -59196   -55311 
  -51567   -48118   -45101   -42670   -40998   -40199   -40099   -40243 
  -40337   -40283   -39906   -39253   -38844   -39224   -40563   -42697 
  -45188   -47462   -49047   -49732   -49648   -49055   -48247   -47538 
  -47029   -46669   -46391   -45940   -45040   -43712   -42175   -40703 
  -39532   -38699   -38183   -38031   -38303   -38947   -39796   -40782 
  -41996   -43446   -44981   -46553   -48310   -50408   -52772   -55032 
  -56882   -58286   -59298   -60013   -60712   -61739   -63206   -65034 
  -67040   -68854   -70082   -70519   -70195   -69400   -68582   -68086 
  -68023   -68213   -68288   -67983   -67153   -65729   -63833   -61680 
  -59507   -57565   -55902   -54362   -52772   -50878   -48398   -45170 
  -41164   -36625   -32028   -27791   -24307   -21887   -20495   -19808 
  -19401   -18924   -18223   -17340   -16575   -16336   -16762   -17702 
  -18923   -20241   -21602   -22943   -24070   -24788   -25040   -25058 
  -25273   -25933   -26954   -28104   -29144   -29956   -30574   -30998 
  -31233   -31347   -31327   -31205   -31118   -31098   -31131   -31343 
  -31860   -32618   -33473   -34330   -35118   -35739   -36042   -35871 
  -35175   -34104   -32951   -32016   -31507   -31530   -32064   -32858 
  -33559   -34023   -34443   -35224   -36694   -38876   -41590   -44708 
  -48121   -51738   -55588   -59642   -63680   -67443   -70697   -73274 
  -75250   -76957   -78736   -80713   -82796   -84766   -86295   -87008 
  -86679   -85296   -83034   -80311   -77614   -75237   -73325   -71937 
  -71046   -70573   -70464   -70697   -71214   -71823   -72255   -72371 
  -72147   -71533   -70499   -69020   -67043   -64589   -61793   -58971 
  -56643   -55277   -54964   -55336   -55942   -56552   -57028   -57415 
  -58053   -59207   -60844   -62739   -64602   -66235   -67600   -68682 
  -69423   -69872   -70191   -70364   -70300   -70146   -70004   -69791 
  -69616   -69613   -69573   -69336   -69020   -68733   -68526   -68410 
  -68259   -67981   -67613   -67217   -66761   -66206   -65661   -65292 
  -65216   -65418   -65680   -65767   -65486   -64677   -63399   -61919 
  -60582   -59653   -59136   -58775   -58170   -56968   -55038   -52430 
  -49297   -45823   -42153   -38429   -34794   -31331   -28080   -25090 
  -22390   -20097   -18520   -17771   -17572   -17647   -17870   -18214 
  -18760   -19635   -20933   -22657   -24690   -26957   -29551   -32553 
  -35821   -39085   -42094   -44636   -46594   -47933   -48687   -49006 
  -49036   -48868   -48670   -48574   -48461   -48024   -47007   -45283 
  -42883   -40110   -37414   -35157   -33524   -32514   -31935   -31492 
  -31058   -30788   -30897   -31402   -32260   -33564   -35390   -37719 
  -40543   -43784   -47242   -50665   -53794   -56433   -58549   -60288 
  -61848   -63315   -64742   -66274   -67996   -69795   -71437   -72741 
  -73652   -74179   -74345   -74185   -73710   -72918   -71872   -70661 
  -69358   -68104   -66995   -65981   -65023   -64170   -63494   -62941 
  -62314   -61599   -61040   -60902   -61278   -62040   -62926   -63595 
  -63724   -63139   -61834   -59991   -57958   -56101   -54737   -54059 
  -54011   -54297   -54595   -54652   -54234   -53334   -52214   -51060 
  -49969   -49052   -48303   -47610   -46909   -46172   -45387   -44642 
  -44063   -43683   -43545   -43744   -44324   -45266   -46465   -47761 
  -48977   -49921   -50491   -50792   -51080   -51475   -51874   -52178 
  -52386   -52515   -52578   -52619   -52609   -52387   -51873   -51153 
  -50446   -50057   -50168   -50727   -51541   -52347   -52933   -53164 
  -52972   -52482   -52010   -51888   -52265   -52967   -53635   -54060 
  -54378   -54866   -55659   -56793   -58259   -59931   -61584   -62932 
  -63784   -64171   -64253   -64195   -64075   -63767   -63080   -62077 
  -61000   -59999   -59160   -58383   -57369   -56036   -54457   -52675 
  -50917   -49426   -48177   -47141   -46394   -45950   -45823   -46090 
  -46679   -47307   -47777   -48111   -48432   -48878   -49372   -49689 
  -49778   -49745   -49725   -49743   -49623   -49117   -48085   -46574 
  -44732   -42672   -40475   -38229   -36046   -34065   -32328   -30791 
  -29576   -28892   -28810   -29331   -30341   -31539   -32709   -33947 
  -35486   -37420   -39689   -42159   -44647   -47039   -49353   -51522 
  -53304   -54527   -55141   -55222   -55020   -54739   -54347   -53721 
  -52842   -51824   -50803   -49793   -48708   -47482   -46125   -44701 
  -43363   -42345   -41734   -41377   -41007   -40348   -39350   -38192 
  -37033   -35981   -34989   -33844   -32452   -30951   -29649   -28888 
  -28825   -29345   -30341   -31812   -33504   -34956   -35900   -36269 
  -36090   -35582   -35057   -34688   -34570   -34756   -35231   -36059 
  -37287   -38762   -40293   -41738   -43002   -44156   -45345   -46611 
  -47898   -48998   -49675   -49947   -49954   -49790   -49617   -49576 
  -49596   -49565   -49414   -48958   -48081   -46966   -45924   -45240 
  -45124   -45578   -46418   -47506   -48831   -50478   -52575   -55109 
  -57869   -60608   -63158   -65389   -67289   -69016   -70680   -72334 
  -73997   -75397   -76107   -75946   -74887   -72914   -70320   -67587 
  -64919   -62362   -60053   -58134   -56702   -55874   -55780   -56431 
  -57599   -58956   -60281   -61454   -62490   -63476   -64361   -64971 
  -65194   -65041   -64589   -63967   -63315   -62711   -62184   -61669 
  -60962   -59857   -58271   -56238   -53876   -51362   -48988   -47076 
  -45723   -44854   -44397   -44253   -44313   -44527   -44877   -45236 
  -45437   -45516   -45582   -45592   -45520   -45313   -44748   -43719 
  -42348   -40882   -39634   -38707   -37981   -37348   -36706   -36004 
  -35372   -35043   -35185   -35875   -37154   -39008   -41283   -43675 
  -45902   -47862   -49521   -50935   -52311   -53740   -55057   -56072 
  -56800   -57397   -58024   -58842   -59889   -61029   -62158   -63303 
  -64542   -65879   -67278   -68759   -70278   -71722   -73060   -74298 
  -75312   -75945   -76268   -76413   -76349   -76001   -75229   -73871 
  -71941   -69664   -67367   -65251   -63231   -61028   -58441   -55472 
  -52194   -48770   -45533   -42784   -40620   -38952   -37624   -36547 
  -35761   -35298   -35063   -35015   -35259   -35888   -36880   -38081 
  -39340   -40690   -42220   -43980   -45984   -48061   -49936   -51396 
  -52350   -52910   -53180   -53152   -52847   -52362   -51882   -51525 
  -51292   -51244   -51323   -51290   -51057   -50667   -50089   -49373 
  -48756   -48419   -48413   -48757   -49388   -50172   -51007   -51818 
  -52520   -53017   -53237   -53168   -52862   -52335   -51625   -50913 
  -50411   -50247   -50502   -51186   -52161   -53197   -54109   -54822 
  -55348   -55743   -56045   -56249   -56362   -56399   -56312   -56061 
  -55692   -55268   -54749   -54070   -53296   -52444   -51438   -50316 
  -49203   -48136   -47087   -45975   -44625   -42963   -41078   -39046 
  -37009   -35142   -33473   -32015   -30818   -29861   -29136   -28661 
  -28389   -28282   -28362   -28586   -28838   -29075   -29344   -29713 
  -30238   -30875   -31579   -32337   -33006   -33494   -33875   -34244 
  -34696   -35265   -35909   -36634   -37472   -38364   -39299   -40359 
  -41515   -42654   -43735   -44725   -45538   -46192   -46830   -47519 
