Origin Time       2011/03/11 14:46:00
Lat.              38.103
Long.             142.860
Depth. (km)       24
Mag.              9.0
Station Code      NGN019
Station Lat.      35.8561
Station Long.     137.7080
Station Height(m) 789
Record Time       2011/03/11 14:47:57
Sampling Freq(Hz) 100Hz
Duration Time(s)  223
Dir.              E-W
Scale Factor      3920(gal)/6182761
Max. Acc. (gal)   9.283
Last Correction   2011/03/11 14:47:42
Memo.             
[...]
  -37509   -38956   -40372   -41077   -40757   -39659   -38758   -38898 
  -40233   -42167   -43441   -42982   -40608   -37037   -33692   -31786 
  -31410   -31958   -32787   -33443   -33790   -33782   -33384   -32990 
  -33251   -34359   -35839   -37040   -37633   -37474   -36513   -35112 
  -33916   -33491   -34041   -35031   -35455   -34779   -33435   -32424 
  -32610   -34353   -37284   -40348   -42219   -41911   -39616   -36738 
  -34656   -34014   -34842   -36423   -37590   -37573   -36327   -34536 
  -33276   -33110   -33714   -34401   -34642   -34337   -33950   -34252 
  -35796   -38534   -41769   -44299   -44959   -43646   -41368   -39324 
  -38413   -38668   -39391   -40147   -40611   -40711   -41081   -41892 
  -42797   -43828   -44593   -44496   -43837   -43055   -42411   -42306 
  -42611   -42990   -43466   -43781   -43478   -42317   -40379   -38284 
  -36549   -35250   -34636   -34936   -36066   -37792   -39630   -41297 
  -42837   -43983   -44464   -44313   -43514   -42246   -40951   -39758 
  -38628   -37873   -37828   -38396   -39151   -39570   -39208   -38026 
  -36616   -35625   -35143   -35029   -35182   -35434   -35801   -36554 
  -37970   -39951   -41665   -42202   -41436   -39735   -37677   -35904 
  -34740   -34407   -35001   -35933   -36363   -36055   -35419   -35084 
  -35296   -35825   -36714   -38165   -39774   -41018   -41758   -41947 
  -41668   -40955   -39737   -38324   -37091   -35994   -34794   -33290 
  -31560   -30137   -29723   -30526   -31822   -32594   -32464   -31800 
  -31403   -32058   -33860   -36037   -37822   -39068   -39851   -40259 
  -40419   -40280   -39752   -38951   -38144   -37775   -38139   -38982 
  -39700   -39523   -38129   -36403   -35613   -36268   -38184   -40518 
  -41968   -41874   -40740   -39459   -38637   -38439   -38457   -37968 
  -36595   -34401   -31634   -29073   -27801   -28269   -30170   -32560 
  -34246   -34808   -34627   -34355   -34658   -35769   -37442   -39260 
  -40820   -41876   -42451   -42853   -43500   -44597   -45610   -45306 
  -42904   -38653   -33664   -29692   -28061   -28804   -30982   -33278 
  -34650   -34747   -33899   -32973   -32839   -33645   -34798   -35500 
  -35014   -33038   -30209   -27713   -26629   -27487   -29772   -32397 
  -34392   -35044   -34632   -34286   -34625   -35567   -36727   -37515 
  -37487   -36506   -34850   -33319   -32657   -32948   -33822   -34731 
  -35076   -34583   -33464   -32402   -32174   -32957   -34508   -36504 
  -38365   -39352   -38847   -36846   -34188   -31940   -30871   -31263 
  -32930   -35325   -37636   -39178   -39736   -39641   -39502   -39651 
  -40182   -41008   -41661   -41891   -42085   -42647   -43392   -43681 
  -43220   -42252   -41060   -39885   -38800   -37567   -36020   -34248 
  -32626   -31851   -32418   -34195   -36552   -38513   -39209   -38609 
  -37480   -36858   -37500   -39317   -41467   -42898   -42921   -41780 
  -40296   -38937   -37610   -36102   -34381   -32652   -31480   -31343 
  -32195   -33826   -35700   -37028   -37682   -38054   -38559   -39338 
  -39695   -38864   -37180   -35624   -35063   -35726   -36885   -37576 
  -37279   -35996   -34276   -32851   -32316   -32905   -34146   -35260 
  -35953   -36597   -37735   -39550   -41610   -42748   -42069   -40013 
  -37557   -35588   -35055   -36069   -37664   -38724   -38331   -36378 
  -33707   -31207   -29591   -28884   -28197   -27120   -26116   -25796 
  -26699   -28917   -32098   -35619   -38501   -40009   -39924   -38333 
  -35836   -33282   -31441   -30934   -31690   -32920   -33754   -33706 
  -32898   -31890   -31189   -30936   -31128   -31839   -32900   -33813 
  -34395   -34915   -35512   -36204   -36930   -37382   -37457   -37201 
  -36432   -35276   -34213   -33456   -32788   -31631   -29789   -28082 
  -27402   -27751   -28439   -28660   -28256   -27902   -28370   -30142 
  -33296   -37257   -41163   -44082   -45148   -44460   -43125   -42248 
  -42412   -43242   -43637   -42954   -41347   -39416   -37974   -37505 
  -37830   -38380   -38552   -37962   -36668   -35403   -35291   -36750 
  -39253   -42179   -44947   -46924   -47859   -47865   -47013   -45270 
  -42927   -40590   -38761   -37647   -36944   -36129   -35023   -33845 
  -33066   -33041   -33751   -34697   -35111   -34727   -33998   -33851 
  -35123   -37686   -40809   -43668   -45163   -44839   -43563   -42409 
  -41916   -42104   -42483   -42389   -41340   -39428   -37457   -36155 
  -35737   -36246   -37248   -37894   -37850   -37269   -36507   -36166 
  -36488   -37141   -37672   -37771   -37475   -37169   -37197   -37536 
  -37935   -38160   -38026   -37458   -36548   -35505   -34722   -34544 
  -34727   -34755   -34542   -34338   -34524   -35441   -37042   -39017 
  -40878   -42024   -42303   -42086   -41950   -42369   -43226   -44095 
  -44730   -45017   -45157   -45478   -45963   -46365   -46359   -45637 
  -44257   -42791   -41776   -41306   -41428   -42257   -43627   -45078 
  -46016   -46136   -45633   -44557   -42647   -40147   -37847   -36394 
  -36137   -37019   -38462   -39863   -40897   -41365   -41330   -41163 
  -41126   -41204   -41184   -40801   -40034   -39100   -38293   -37961 
  -38202   -38727   -39380   -40116   -40725   -41165   -41347   -41002 
  -40314   -39615   -39036   -38920   -39429   -40232   -41014   -41401 
  -41055   -40220   -39299   -38367   -37571   -37198   -37316   -37860 
  -38712   -39587   -40181   -40364   -40321   -40387   -40730   -41480 
  -42655   -43970   -45038   -45463   -45055   -44020   -42666   -41300 
  -40170   -39185   -38153   -37117   -36162   -35522   -35676   -36702 
  -38215   -39697   -40487   -40427   -40094   -39969   -40273   -41042 
  -41978   -42787   -43401   -43838   -44191   -44547   -44768   -44584 
  -43983   -43114   -41955   -40502   -38990   -37706   -36692   -35792 
  -35037   -34442   -33746   -32818   -31777   -30953   -30832   -31580 
  -32879   -34083   -34724   -34973   -35239   -35736   -36440   -37140 
  -37724   -38165   -38394   -38463   -38643   -39154   -39803   -40159 
  -39995   -39403   -38739   -38393   -38492   -38836   -39087   -39125 
  -39123   -39417   -40514   -42657   -45331   -47506   -48231   -47217 
  -45198   -43565   -43219   -43919   -44784   -44831   -43424   -40779 
  -37811   -35660   -35133   -36109   -37618   -38596   -38620   -38045 
  -37474   -37361   -37828   -38450   -38677   -38168   -36771   -34916 
  -33422   -32901   -33708   -35569   -37484   -38447   -37925   -36156 
  -34079   -32524   -31838   -32048   -32837   -33722   -34364   -34715 
  -35130   -36143   -37924   -40135   -42203   -43487   -43679   -43001 
  -41781   -40467   -39505   -38713   -37819   -37032   -36358   -35713 
  -35448   -35751   -36394   -37134   -37774   -38189   -38339   -38133 
  -37526   -36701   -36019   -35821   -36143   -36605   -36741   -36239 
  -34971   -32991   -30527   -28246   -27096   -27514   -28996   -30450 
  -31152   -31178   -31102   -31724   -33386   -35627   -37770   -38975 
  -38452   -36353   -33710   -31756   -31406   -32575   -34291   -35718 
  -36564   -36828   -36690   -36550   -36887   -37915   -39420   -41038 
  -42432   -43171   -42949   -41722   -39750   -37976   -37282   -37351 
  -37312   -36636   -35275   -33845   -33042   -32818   -32751   -32454 
  -31458   -29731   -28010   -27089   -27404   -28995   -31290   -33546 
  -35603   -37739   -40083   -42429   -44291   -45078   -44444   -42552 
  -40074   -37922   -36905   -37383   -38911   -40338   -40654   -39731 
  -38323   -37522   -37986   -39506   -41357   -42877   -43710   -44127 
  -44954   -46551   -48413   -49745   -49846   -48487   -46034   -42956 
  -39687   -36793   -34640   -33183   -32272   -31809   -31825   -32357 
  -33146   -33821   -34172   -34108   -33705   -33073   -32418   -32285 
  -33095   -34757   -36877   -38932   -40513   -41305   -41038   -39813 
  -38052   -36153   -34262   -32425   -30886   -29923   -29806   -30758 
  -32557   -34792   -37261   -39715   -41941   -43813   -44978   -45177 
  -44762   -44269   -43773   -43257   -42932   -42728   -42400   -41758 
  -40663   -39308   -38082   -37259   -36858   -36596   -36381   -36439 
  -37049   -38374   -40086   -41453   -41914   -41242   -39471   -36919 
  -34039   -31263   -29082   -27968   -27930   -28313   -28378   -27992 
  -27393   -26735   -26423   -27097   -28894   -31417   -34218   -36750 
  -38450   -39153   -39106   -38686   -38347   -38416   -38620   -38507 
  -38103   -37569   -36978   -36522   -36349   -36446   -36785   -37322 
  -37926   -38452   -38692   -38369   -37618   -37056   -37194   -38220 
  -39922   -41677   -42935   -43473   -43294   -42669   -41878   -40868 
  -39587   -38385   -37746   -37803   -38140   -38195   -37884   -37548 
  -37521   -37960   -38778   -39860   -41207   -42511   -43325   -43747 
  -44146   -44729   -45569   -46457   -46966   -46813   -45905   -44325 
  -42378   -40491   -39042   -38032   -36998   -35718   -34434   -33363 
  -32915   -33552   -35120   -37189   -39329   -40897   -41615   -41900 
  -42155   -42442   -42762   -43051   -43107   -42673   -41639   -40255 
  -38882   -37659   -36540   -35339   -33981   -32877   -32586   -33227 
  -34527   -36198   -38029   -39777   -41216   -42190   -42646   -42675 
  -42342   -41752   -41162   -40722   -40438   -40364   -40535   -40805 
  -40872   -40528   -39916   -39591   -40155   -41650   -43625   -45585 
  -47142   -48246   -49148   -49946   -50534   -50731   -50321   -49299 
  -47916   -46391   -44800   -43185   -41556   -39872   -38268   -37133 
  -36739   -36918   -37175   -37171   -36947   -36688   -36515   -36507 
  -36668   -36721   -36286   -35271   -33932   -32890   -32576   -32693 
  -32820   -32811   -32705   -32900   -33800   -35385   -37257   -38741 
  -39298   -38952   -38136   -37484   -37583   -38414   -39292   -39557 
  -39058   -38137   -37428   -37483   -38306   -39390   -40178   -40358 
  -39906   -39106   -38440   -38254   -38440   -38468   -37879   -36569 
  -34717   -32800   -31308   -30456   -30304   -30746   -31516   -32380 
  -33200   -33979   -34785   -35565   -36170   -36542   -36890   -37453 
  -38096   -38522   -38538   -37960   -36850   -35591   -34494   -33775 
  -33507   -33329   -32809   -31864   -30707   -29925   -30210   -31716 
  -34019   -36485   -38507   -39752   -40227   -40166   -40113   -40572 
  -41323   -41710   -41459   -40792   -40097   -39580   -39164   -38852 
  -38916   -39465   -40246   -40917   -41183   -40927   -40383   -39894 
  -39565   -39373   -39357   -39333   -38840   -37640   -35921   -34109 
  -32661   -31809   -31487   -31420   -31242   -30702   -29767   -28745 
  -28243   -28657   -29947   -31877   -34068   -36068   -37626   -38798 
  -39868   -41274   -43300   -45716   -47836   -48902   -48552   -47118 
  -45428   -44324   -44180   -44770   -45523   -45841   -45348   -44093 
  -42589   -41621   -41750   -42904   -44385   -45317   -45193   -44127 
  -42693   -41623   -41460   -42196   -43418   -44661   -45610   -46231 
  -46558   -46663   -46713   -46564   -45982   -44919   -43332   -41349 
  -39220   -37193   -35587   -34428   -33372   -32160   -30832   -29619 
  -28722   -28297   -28549   -29609   -31481   -33961   -36530   -38620 
  -39861   -40166   -39892   -39596   -39348   -38795   -37831   -36586 
  -35225   -34071   -33447   -33627   -34753   -36519   -38415   -40158 
  -41650   -42829   -43575   -43704   -43249   -42642   -42346   -42481 
  -42934   -43460   -43674   -43211   -41945   -40176   -38500   -37373 
  -36852   -36579   -36050   -35046   -33805   -32899   -32849   -33791 
  -35525   -37674   -39798   -41498   -42537   -42953   -42994   -43009 
  -43465   -44694   -46323   -47463   -47510   -46330   -44406   -42809 
  -42381   -43237   -44779   -45864   -45688   -44423   -42720   -41131 
  -39963   -39304   -39095   -39145   -39279   -39547   -39964   -40370 
  -40722   -40947   -40814   -40179   -38893   -36866   -34423   -32274 
  -31156   -31377   -32608   -34170   -35454   -36146   -36276   -36097 
  -35907   -36046   -36763   -37933   -39129   -39945   -40230   -40057 
  -39679   -39524   -39780   -40125   -40166   -39747   -39041   -38629 
  -39005   -40048   -41302   -42235   -42390   -41856   -41054   -40072 
  -38662   -36652   -34206   -31768   -29857   -28872   -28922   -29782 
  -30999   -32035   -32355   -31680   -30279   -28735   -27469   -26612 
  -26179   -26266   -27045   -28432   -30005   -31464   -32844   -34161 
  -35156   -35399   -34691   -33262   -31554   -30094   -29362   -29580 
  -30684   -32116   -32983   -32970   -32683   -32928   -34122   -36157 
  -38420   -40216   -41196   -41385   -41132   -40914   -40965   -41227 
  -41488   -41359   -40459   -38867   -37220   -36357   -36656   -37637 
  -38456   -38589   -38097   -37537   -37529   -38329   -39761   -41361 
  -42557   -42954   -42655   -42243   -42199   -42390   -42387   -41879 
  -40650   -38858   -37155   -36217   -36394   -37478   -38811   -39777 
  -40155   -40247   -40536   -41122   -41705   -41982   -41807   -41147 
  -40117   -38960   -37956   -37263   -36599   -35484   -33783   -31805 
  -30199   -29533   -29764   -30508   -31619   -33136   -34952   -36998 
  -39419   -42101   -44485   -46025   -46548   -46211   -45277   -43993 
  -42513   -40895   -39124   -37134   -35071   -33293   -32127   -31927 
  -32942   -35097   -38006   -41218   -44407   -47065   -48716   -49487 
  -49701   -49421   -48590   -47191   -45359   -43382   -41769   -41217 
  -41989   -43519   -44856   -45222   -44483   -43280   -42548   -42950 
  -44590   -47088   -49719   -51655   -52456   -52258   -51585   -50905 
  -50231   -49329   -48040   -46457   -44872   -43556   -42763   -42563 
  -42694   -42862   -43092   -43594   -44388   -45233   -45775   -45853 
  -45812   -46175   -47037   -48105   -49063   -49606   -49538   -48974 
  -48181   -47507   -47326   -47598   -47852   -47738   -47263   -46701 
  -46527   -47083   -48300   -49777   -50846   -50889   -49807   -47987 
  -45962   -44097   -42427   -40894   -39612   -38758   -38450   -38619 
  -38893   -38896   -38538   -37953   -37255   -36299   -34909   -33178 
  -31442   -30105   -29359   -29185   -29474   -29957   -30376   -30559 
  -30519   -30795   -31981   -33987   -36217   -38096   -39359   -40219 
  -41227   -42662   -44371   -46148   -47690   -48561   -48498   -47717 
  -46877   -46559   -46725   -46696   -45851   -44311   -42765   -41851 
  -41672   -41900   -42141   -41993   -41312   -40416   -39737   -39623 
  -40252   -41322   -42298   -42959   -43233   -43195   -43237   -43457 
  -43564   -43454   -43153   -42649   -41896   -40927   -40056   -39574 
  -39493   -39640   -39675   -39338   -38638   -37783   -37065   -36660 
  -36565   -36571   -36481   -36445   -36628   -36936   -37349   -37863 
  -38340   -38717   -39015   -39256   -39412   -39344   -38976   -38373 
  -37586   -36702   -35919   -35296   -34699   -34107   -33702   -33746 
  -34420   -35629   -37098   -38542   -39639   -40135   -40128   -40002 
  -40145   -40646   -41147   -41352   -41135   -40325   -39052   -37487 
  -35530   -33353   -31372   -29688   -28153   -26813   -25872   -25379 
  -25257   -25362   -25552   -25910   -26679   -27925   -29352   -30498 
  -31003   -30714   -29826   -28780   -27895   -27200   -26646   -26338 
  -26423   -27101   -28582   -30715   -33026   -35083   -36673   -37897 
  -39017   -40170   -41251   -41973   -42101   -41686   -40984   -40159 
  -39147   -37806   -36063   -34036   -32098   -30600   -29696   -29447 
  -29727   -30236   -30774   -31297   -31947   -32974   -34296   -35559 
  -36509   -37036   -37234   -37310   -37426   -37667   -37982   -38351 
  -38856   -39530   -40372   -41393   -42519   -43549   -44326   -44787 
  -44872   -44628   -44266   -44111   -44482   -45487   -46858   -47945 
  -48219   -47690   -46617   -45045   -42838   -40060   -36990   -34013 
  -31654   -30267   -29881   -30335   -31162   -31838   -32288   -32648 
  -33027   -33596   -34231   -34619   -34763   -34865   -35094   -35425 
  -35617   -35469   -34894   -33910   -32631   -31246   -30017   -29233 
  -29192   -30063   -31843   -34434   -37433   -40116   -41834   -42439 
  -42426   -42466   -42935   -43872   -45124   -46534   -47965   -49295 
  -50353   -50872   -50618   -49353   -47086   -44427   -42005   -40197 
  -39323   -39360   -40036   -41195   -42620   -43882   -44547   -44475 
  -43823   -42928   -42283   -42168   -42458   -42959   -43348   -43184 
  -42537   -41904   -41530   -41423   -41432   -41253   -40748   -39940 
  -38880   -37850   -37381   -37791   -38840   -40003   -40820   -41045 
  -40769   -40311   -40010   -40073   -40383   -40593   -40313   -39262 
  -37504   -35440   -33617   -32624   -32722   -33616   -34875   -36192 
  -37442   -38732   -39894   -40459   -40470   -40386   -40444   -40536 
  -40226   -39130   -37522   -36051   -35149   -34967   -35216   -35309 
  -35027   -34472   -33717   -32903   -32270   -32081   -32421   -32823 
  -32775   -32474   -32540   -33396   -34919   -36581   -37951   -38780 
  -39095   -39326   -39804   -40608   -41836   -43197   -44048   -44169 
  -43528   -41989   -39877   -37819   -36246   -35458   -35499   -35964 
  -36386   -36673   -36935   -37156   -37232   -37068   -36597   -35951 
  -35539   -35621   -36066   -36831   -38097   -39771   -41497   -42881 
  -43545   -43531   -43269   -42862   -42005   -40628   -39149   -38092 
  -37553   -37188   -36680   -36008   -35364   -34977   -34993   -35464 
  -36276   -37155   -37740   -37663   -36863   -35702   -34578   -33742 
  -33269   -32845   -32237   -31703   -31516   -31784   -32669   -34228 
  -36262   -38432   -40329   -41651   -42491   -43126   -43712   -44364 
  -45081   -45619   -45635   -44901   -43506   -41868   -40576   -40030 
  -40013   -39896   -39197   -37843   -36299   -35302   -35326   -36417 
  -38268   -40331   -42004   -43027   -43709   -44466   -45411   -46349 
  -46892   -46759   -46033   -45135   -44456   -43994   -43427   -42357 
  -40599   -38357   -36054   -34160   -33032   -32683   -32847   -33324 
  -34063   -35183   -36911   -39119   -41341   -43233   -44476   -44798 
  -44295   -43313   -42235   -41375   -40798   -40282   -39624   -38798 
  -37753   -36365   -34753   -33430   -32862   -33042   -33767   -34995 
  -36654   -38578   -40577   -42240   -43116   -43138   -42562   -41779 
  -41191   -40961   -40953   -40863   -40273   -38962   -37257   -35857 
  -35255   -35372   -35766   -36007   -35794   -34969   -33637   -32343 
  -31853   -32476   -33834   -35219   -36105   -36534   -36971   -37706 
  -38705   -39801   -40634   -40816   -40247   -39182   -38120   -37480 
  -37266   -37175   -36962   -36647   -36451   -36647   -37371   -38427 
  -39407   -40024   -40201   -40072   -39948   -39984   -39897   -39333 
  -38264   -36768   -35039   -33552   -32614   -32075   -31676   -31251 
  -30758   -30494   -30890   -31947   -33369   -34976   -36598   -38053 
  -39240   -39998   -40200   -40000   -39667   -39243   -38550   -37518 
  -36263   -34923   -33630   -32522   -31681   -31112   -30788   -30726 
  -31056   -31826   -32753   -33537   -34179   -34854   -35785   -37010 
  -38336   -39663   -40945   -41956   -42580   -42855   -42596   -41681 
  -40323   -38671   -36890   -35393   -34288   -33221   -31952   -30549 
  -29450   -29280   -30158   -31637   -33152   -34247   -34868   -35288 
  -35736   -36426   -37493   -38741   -39685   -39861   -39246   -38251 
