Origin Time       2011/03/11 14:46:00
Lat.              38.103
Long.             142.860
Depth. (km)       24
Mag.              9.0
Station Code      NGN001
Station Lat.      36.8513
Station Long.     138.3657
Station Height(m) 315
Record Time       2011/03/11 14:47:53
Sampling Freq(Hz) 100Hz
Duration Time(s)  300
Dir.              N-S
Scale Factor      3920(gal)/6182761
Max. Acc. (gal)   15.429
Last Correction   2011/03/11 14:47:38
Memo.             
[...]
    1831     1406     1350     1626     2148     2922     4022     5437 
    6963     8278     9109     9354     9102     8526     7817     7171 
    6730     6577     6817     7534     8725    10277    11904    13178 
   13743    13502    12664    11648    10820    10265     9848     9436 
    9000     8588     8355     8523     9258    10558    12172    13707 
   14878    15608    15930    15950    15815    15582    15197    14600 
   13768    12743    11623    10571     9776     9309     9132     9149 
    9182     9116     9052     9129     9306     9465     9546     9537 
    9441     9205     8740     8066     7325     6671     6223     6084 
    6291     6762     7360     8026     8818     9733    10539    10965 
   10902    10346     9374     8054     6362     4382     2438      898 
      -7     -152      456     1636     3116     4597     5831     6722 
    7301     7621     7715     7672     7533     7248     6862     6448 
    5985     5469     4829     3923     2860     1969     1537     1774 
    2721     4066     5385     6561     7675     8730     9725    10664 
   11412    11801    11813    11518    11052    10631    10394    10344 
   10374    10330    10165     9846     9196     8136     6885     5772 
    4928     4204     3498     2995     2928     3420     4546     6285 
    8557    11221    14012    16643    18894    20499    21143    20729 
   19487    17793    16021    14392    12974    11886    11263    11168 
   11614    12476    13515    14457    15013    14936    14108    12653 
   11004     9664     8856     8537     8605     8884     9145     9246 
    9061     8482     7519     6331     5259     4705     4867     5628 
    6643     7554     8209     8660     8954     9029     8809     8207 
    7157     5712     4053     2493     1385      884      960     1544 
    2483     3489     4296     4806     4954     4686     4110     3408 
    2584     1518      229    -1001    -1823    -2129    -1982    -1448 
    -746     -153      242      480      769     1403     2447     3681 
    4673     5023     4655     3704     2350      777     -867    -2411 
   -3684    -4548    -4863    -4617    -3958    -3041    -1936     -619 
     935     2609     4163     5441     6453     7256     7918     8519 
    9006     9159     8765     7842     6637     5417     4449     4009 
    4217     4985     6136     7517     9000    10425    11708    12863 
   13847    14556    14879    14702    13968    12761    11283     9770 
    8446     7528     7151     7290     7780     8399     9007     9600 
   10189    10729    11194    11579    11873    12019    11874    11362 
   10645     9949     9402     9041     8876     8991     9498    10373 
   11483    12693    13795    14533    14800    14640    14050    13055 
   11784    10350     8865     7433     6080     4773     3516     2459 
    1756     1387     1233     1145     1007      822      655      515 
     344       99     -193     -401     -326      159     1129     2641 
    4479     6207     7565     8500     9024     9171     8903     8230 
    7404     6693     6225     6096     6254     6449     6454     6139 
    5454     4485     3361     2165      963     -157    -1015    -1326 
    -915      118     1481     2860     4018     4860     5365     5512 
    5388     5183     4976     4822     4861     5158     5755     6718 
    7948     9268    10556    11541    11861    11356    10039     8101 
    6011     4258     3092     2592     2707     3283     4168     5137 
    5975     6731     7527     8220     8564     8503     8191     7864 
    7718     7833     8224     8929     9950    11128    12318    13564 
   14945    16425    17876    19175    20380    21597    22600    23008 
   22736    21892    20475    18443    15970    13504    11494    10231 
    9879    10415    11631    13344    15505    18060    20805    23367 
   25301    26345    26447    25638    24185    22528    20992    19775 
   18932    18372    17982    17666    17409    17337    17525    17912 
   18429    19036    19658    20100    20066    19388    18140    16587 
   15052    13744    12712    11971    11517    11229    10966    10683 
   10322     9883     9481     9227     9291     9776    10512    11274 
   11888    12144    11968    11454    10722     9864     8889     7846 
    6948     6319     5883     5551     5275     4964     4548     4122 
    3821     3703     3854     4313     5064     6110     7330     8554 
    9734    10819    11665    12187    12354    12143    11660    11053 
   10388     9813     9567     9753    10237    10738    10993    10863 
   10396     9810     9285     8809     8311     7852     7558     7442 
    7440     7507     7615     7732     7785     7750     7721     7759 
    7766     7508     6818     5810     4787     4009     3596     3546 
    3761     3998     3883     3221     2261     1418      853      584 
     703     1305     2411     3917     5551     6974     7884     8111 
    7797     7285     6776     6272     5717     5052     4284     3475 
    2641     1851     1270      983      967     1157     1379     1437 
    1324     1113      710      -38    -1100    -2332    -3641    -4959 
   -6192    -7202    -7840    -8178    -8504    -9025    -9724   -10436 
  -11010   -11436   -11701   -11715   -11428   -10841    -9973    -8917 
   -7829    -6800    -5853    -5022    -4339    -3791    -3306    -2768 
   -2192    -1733    -1439    -1239    -1064     -810     -376      214 
     855     1493     2183     3010     3963     4867     5464     5607 
    5323     4779     4267     3977     3813     3658     3462     3110 
    2593     2103     1789     1728     2007     2671     3732     5141 
    6737     8352     9935    11512    13094    14650    16055    17143 
   17885    18378    18658    18638    18271    17719    17202    16724 
   16136    15415    14705    14144    13828    13824    14129    14711 
   15515    16358    16955    17067    16653    15892    14998    14049 
   13046    11982    10851     9680     8566     7643     7029     6801 
    6948     7343     7807     8197     8422     8452     8345     8265 
    8433     8973     9898    11171    12609    13884    14730    15071 
   14966    14513    13836    13098    12454    12057    12039    12411 
   13089    13976    14946    15806    16333    16414    16169    15728 
   15049    14122    13078    12087    11294    10800    10653    10834 
   11272    11805    12150    12115    11783    11389    11125    11061 
   11112    11079    10835    10385     9801     9199     8683     8346 
    8327     8718     9448    10328    11111    11582    11663    11408 
   10936    10371     9814     9346     8990     8701     8464     8398 
    8739     9635    10994    12581    14140    15426    16291    16723 
   16782    16578    16253    15868    15338    14534    13448    12261 
   11229    10571    10409    10655    11004    11190    11145    10907 
   10538    10083     9551     9026     8629     8373     8308     8572 
    9160     9930    10734    11443    12027    12537    13037    13634 
   14365    15045    15370    15118    14232    12833    11196     9652 
    8520     8054     8331     9170    10235    11245    12002    12369 
   12348    12083    11803    11723    11877    12059    12004    11640 
   11037    10212     9137     7842     6479     5301     4469     3924 
    3581     3561     4083     5164     6536     7843     8866     9575 
   10019    10297    10651    11251    11854    12162    12149    11734 
   11015    10365     9844     9425     9313     9603    10156    10767 
   11353    11901    12395    12825    13048    12881    12303    11450 
   10619    10146    10129    10434    10901    11349    11594    11514 
   11019    10106     8933     7635     6203     4670     3260     2262 
    1935     2434     3627     5136     6513     7342     7419     6810 
    5613     3884     1839     -139    -1736    -2918    -3889    -4822 
   -5651    -6199    -6413    -6358    -6133    -5822    -5397    -4776 
   -3956    -3037    -2220    -1682    -1397    -1234    -1153    -1190 
   -1400    -1753    -2069    -2195    -2126    -1796    -1065      -19 
    1039     1838     2223     2250     2155     2105     2081     1947 
    1549      850      -62    -1019    -1803    -2166    -1899     -932 
     632     2567     4602     6481     8031     9131     9638     9444 
    8593     7274     5772     4469     3711     3591     3957     4634 
    5494     6402     7258     8003     8578     8926     8996     8767 
    8254     7528     6759     6160     5953     6369     7442     8797 
    9892    10410    10383    10043     9643     9397     9472     9927 
   10666    11546    12445    13306    14179    15055    15769    16174 
   16244    16053    15689    15208    14687    14207    13779    13417 
   13166    12999    12854    12706    12527    12272    11906    11466 
   11087    10951    11233    11992    13108    14299    15230    15723 
   15846    15825    15859    15900    15667    14931    13732    12415 
   11462    11166    11457    12001    12424    12486    12133    11459 
   10612     9706     8772     7810     6863     6048     5537     5459 
    5815     6483     7230     7808     8090     8089     7917     7721 
    7534     7268     6868     6407     6080     6099     6572     7540 
    8918    10410    11690    12476    12548    11925    10846     9583 
    8388     7505     7176     7607     8853    10738    12922    15008 
   16635    17551    17705    17192    16240    15118    13773    11961 
    9686     7226     5175     4177     4396     5544     7133     8622 
    9609     9905     9428     8155     6172     3655      859    -1869 
   -4259    -6207    -7509    -7714    -6407    -3671     -300     2664 
    4637     5542     5413     4347     2558      280    -2212    -4554 
   -6289    -7118    -7178    -6712    -5765    -4600    -3643    -2976 
   -2497    -2151    -1986    -2218    -2902    -3751    -4351    -4331 
   -3522    -2061     -286     1402     2623     3180     3183     2869 
    2367     1773     1247      943      940     1136     1365     1549 
    1555     1237      643      -21     -473     -496      -69      686 
    1538     2261     2745     2973     3006     2880     2612     2372 
    2398     2758     3326     3968     4592     5008     5020     4591 
    3743     2503     1059     -252    -1042     -923      284     2370 
    4832     7100     8766     9681     9808     9179     7976     6466 
    4873     3374     2014      771     -188     -569     -224      783 
    2234     3872     5511     6995     8179     8990     9438     9520 
    9214     8526     7544     6459     5521     4931     4734     4929 
    5654     7040     8944    11002    12815    14042    14500    14335 
   13961    13708    13705    13968    14380    14826    15354    16072 
   17023    18181    19487    20828    21911    22407    22227    21490 
   20345    18990    17681    16631    15948    15678    15823    16277 
   16932    17856    19144    20556    21523    21683    21151    20113 
   18485    16248    13911    12134    11059    10391     9719     8740 
    7596     6751     6664     7625     9514    11744    13633    14827 
   15412    15690    15815    15704    15273    14499    13299    11631 
    9614     7477     5432     3637     2276     1498     1225     1235 
    1362     1550     1834     2302     3069     4217     5674     7244 
    8800    10284    11612    12628    13150    13141    12756    12178 
   11504    10720     9818     8883     8114     7774     7967     8435 
    8721     8442     7496     6238     5272     4897     4995     5347 
    5839     6463     7210     7979     8642     9140     9504     9731 
    9814     9960    10489    11566    13199    15232    17187    18373 
   18315    17140    15519    14037    12895    12267    12228    12574 
   13048    13334    13070    12119    10704     9291     8215     7455 
    6771     5979     5164     4656     4721     5332     6202     6948 
    7337     7409     7375     7535     8137     9145    10306    11352 
   12022    12164    11909    11636    11801    12715    14327    16193 
   17809    18913    19439    19442    19144    18847    18831    19209 
   19712    19806    19039    17239    14637    11848     9469     7800 
    6958     6957     7668     8834    10172    11480    12623    13511 
   14118    14454    14526    14395    14245    14289    14593    15098 
   15762    16613    17506    17957    17443    15791    13237    10307 
    7660     5807     4812     4390     4184     3773     2796     1246 
    -605    -2364    -3529    -3762    -3117    -1973     -925     -523 
    -911    -1855    -2952    -3743    -3926    -3463    -2482    -1234 
     -64      755     1132     1137     1005     1012     1277     1744 
    2212     2399     2214     1892     1819     2283     3293     4573 
    5735     6415     6416     5792     4712     3348     1866      356 
   -1032    -1897    -1854     -849      947     3225     5547     7495 
    8772     9204     8780     7743     6533     5560     5015     4876 
    5083     5657     6655     8008     9482    10832    11838    12340 
   12342    11846    10771     9208     7440     5774     4603     4388 
    5338     7215     9476    11548    13136    14292    15168    15761 
   15866    15261    14020    12586    11569    11508    12681    14941 
   17727    20365    22426    23838    24825    25755    26829    27931 
   28859    29505    29816    29831    29737    29782    30169    30900 
   31676    32020    31512    29953    27496    24696    22307    20906 
   20709    21507    22698    23593    23752    23122    22003    20785 
   19712    18928    18467    18131    17618    16868    16107    15585 
   15420    15493    15535    15394    14978    14152    12891    11325 
    9705     8329     7304     6576     6165     6075     6199     6471 
    6855     7192     7235     6793     5897     4791     3649     2408 
     960     -628    -2087    -3097    -3462    -3167    -2398    -1464 
    -656     -240     -384     -992    -1758    -2349    -2555    -2437 
   -2304    -2444    -2894    -3429    -3680    -3363    -2488    -1267 
      97     1484     2808     3948     4753     5101     4959     4449 
    3803     3238     2866     2626     2327     1825     1098      351 
     -44       75      565     1231     1984     2893     4048     5338 
    6481     7321     7987     8602     9083     9344     9425     9482 
    9765    10406    11253    12033    12580    12777    12469    11627 
   10478     9389     8676     8428     8460     8469     8154     7325 
    6063     4635     3274     2198     1548     1365     1773     2814 
    4271     5849     7269     8353     9209    10098    11126    12132 
   12794    12934    12749    12588    12639    12848    12921    12501 
   11387     9499     6890     3901     1093    -1028    -2175    -2288 
   -1602     -702     -169     -101     -320     -762    -1291    -1627 
   -1671    -1484    -1063     -330      747     2144     3748     5374 
    6853     7997     8639     8737     8202     7038     5741     4780 
    3970     3126     2369     1597      774      179      -57      -42 
      62      126       92       57      291     1027     2340     4186 
    6318     8273     9516     9631     8564     6736     4802     3314 
    2628     2797     3480     4226     4734     4879     4915     5382 
    6524     8072     9462    10115     9902     9172     8219     7204 
    6461     6266     6436     6472     6019     5194     4545     4690 
    5932     8040    10349    12189    13211    13340    12730    11796 
   11030    10842    11546    13214    15563    18031    19981    21024 
   21166    20631    19577    17995    15872    13279    10405     7675 
    5565     4429     4605     6211     8834    11730    14093    15418 
   15845    15702    15032    13913    12629    11504    10908    11125 
   12130    13770    15876    18106    20061    21494    22240    22178 
   21314    19714    17497    15058    13072    12105    12295    13375 
   14965    16815    18752    20485    21646    22007    21651    20918 
   20120    19290    18261    16856    15174    13757    13111    13221 
   13914    15087    16453    17587    18200    18300    18188    18065 
   17651    16551    14903    13299    12417    12662    13794    15242 
   16614    17603    17939    17596    16745    15572    14218    12654 
   10768     8665     6654     5081     4178     3958     4404     5468 
    6866     8277     9458    10049     9882     9368     9013     8854 
    8669     8377     8123     8058     8177     8381     8598     8812 
    9028     9228     9372     9417     9354     9171     8861     8514 
    8294     8261     8361     8565     8918     9402     9805     9903 
    9625     9005     8155     7103     5712     3922     1855     -273 
   -2212    -3799    -5005    -5849    -6323    -6413    -6209    -5940 
   -5872    -6133    -6665    -7405    -8377    -9578   -10847   -11846 
  -12312   -12362   -12353   -12466   -12623   -12748   -12973   -13500 
  -14315   -15136   -15587   -15405   -14657   -13657   -12577   -11391 
  -10095    -8754    -7608    -6936    -6667    -6572    -6579    -6732 
   -7089    -7498    -7591    -7184    -6356    -5275    -4218    -3524 
   -3494    -4206    -5245    -5938    -5940    -5320    -4387    -3564 
   -3033    -2600    -2028    -1197     -165      768     1263     1182 
     679       95     -393     -889    -1420    -1838    -2019    -1917 
   -1571    -1052     -354      592     1930     3825     6238     8787 
   10923    12271    12799    12731    12391    12178    12413    13160 
   14389    16062    17948    19745    21409    23053    24714    26374 
   27857    28900    29366    29169    28275    26860    25204    23500 
   21947    20763    19954    19376    18920    18504    18131    17848 
   17657    17616    17818    18261    18855    19396    19631    19549 
   19323    19100    19056    19300    19804    20507    21327    22121 
   22696    22866    22446    21343    19674    17680    15692    14113 
   13220    13044    13470    14269    15141    15940    16652    17157 
   17295    16967    16089    14722    13151    11718    10640     9988 
    9686     9540     9495     9663     9913     9767     8861     7307 
    5547     3967     2779     2115     1941     2032     2267     2631 
    2982     3307     3864     4708     5590     6295     6672     6581 
    6057     5266     4316     3229     1975      579     -721    -1670 
   -2213    -2295    -1850    -1088     -444     -261     -591    -1142 
   -1435    -1219     -740     -531     -974    -2015    -3185    -4099 
   -4744    -5133    -5171    -4880    -4382    -3826    -3383    -3083 
   -2733    -2135    -1303     -452      212      626      745      559 
     258      178      534     1307     2344     3396     4174     4613 
    4930     5278     5601     5843     5912     5743     5611     6027 
    7265     9018    10582    11522    11868    11787    11417    10799 
    9825     8453     6981     5935     5631     6024     6915     7980 
    8818     9199     9194     9114     9230     9554    10037    10719 
   11671    12910    14309    15690    16903    17702    17807    17087 
   15651    13867    12099    10519     9361     8858     8906     9329 
   10054    10830    11381    11753    12047    12186    12172    12021 
