Origin Time       2011/03/11 14:46:00
Lat.              38.103
Long.             142.860
Depth. (km)       24
Mag.              9.0
Station Code      NGN012
Station Lat.      36.2571
Station Long.     137.9796
Station Height(m) 637
Record Time       2011/03/11 14:48:14
Sampling Freq(Hz) 100Hz
Duration Time(s)  258
Dir.              N-S
Scale Factor      3920(gal)/6182761
Max. Acc. (gal)   17.095
Last Correction   2011/03/11 14:47:59
Memo.             
[...]
  -34830   -34825   -34808   -34743   -34626   -34520   -34487   -34543 
  -34671   -34791   -34776   -34580   -34258   -33887   -33560   -33370 
  -33325   -33392   -33580   -33877   -34189   -34424   -34578   -34719 
  -34978   -35464   -36097   -36750   -37416   -38108   -38835   -39660 
  -40608   -41593   -42460   -43102   -43538   -43810   -43881   -43668 
  -43152   -42438   -41654   -40866   -40169   -39647   -39235   -38754 
  -38075   -37216   -36316   -35504   -34868   -34495   -34425   -34583 
  -34781   -34864   -34864   -34853   -34789   -34662   -34577   -34608 
  -34720   -34811   -34853   -34940   -35108   -35269   -35314   -35135 
  -34637   -33838   -32886   -31999   -31343   -30908   -30537   -30109 
  -29661   -29375   -29438   -29889   -30660   -31648   -32717   -33692 
  -34362   -34541   -34210   -33526   -32713   -31941   -31238   -30557 
  -29944   -29524   -29383   -29546   -30003   -30728   -31709   -32873 
  -33998   -34866   -35417   -35730   -36038   -36647   -37658   -38979 
  -40526   -42127   -43505   -44462   -44982   -45211   -45249   -44962 
  -44192   -42979   -41500   -39986   -38600   -37328   -36124   -34991 
  -33908   -32838   -31744   -30573   -29312   -28034   -26909   -26156 
  -25881   -25958   -26152   -26361   -26676   -27245   -28079   -29014 
  -29861   -30489   -30887   -31217   -31662   -32220   -32773   -33186 
  -33326   -33188   -32923   -32648   -32473   -32595   -33128   -33965 
  -34837   -35441   -35627   -35435   -34985   -34469   -34106   -34006 
  -34108   -34276   -34458   -34656   -34742   -34488   -33755   -32641 
  -31419   -30244   -29080   -27909   -26855   -26098   -25738   -25726 
  -25965   -26402   -27028   -27850   -28845   -29955   -31087   -32105 
  -32932   -33621   -34234   -34794   -35336   -35894   -36458   -36972 
  -37404   -37835   -38356   -38905   -39287   -39302   -38866   -38064 
  -37093   -36171   -35501   -35246   -35445   -35937   -36426   -36647 
  -36462   -35873   -34946   -33705   -32214   -30696   -29403   -28518 
  -28208   -28533   -29333   -30337   -31355   -32264   -32924   -33306 
  -33455   -33429   -33446   -33729   -34229   -34775   -35264   -35646 
  -35804   -35573   -34945   -34110   -33309   -32707   -32327   -32049 
  -31742   -31371   -30909   -30320   -29650   -28992   -28403   -27964 
  -27779   -27924   -28491   -29560   -31099   -33005   -35168   -37426 
  -39566   -41343   -42493   -42875   -42601   -41964   -41303   -40863 
  -40732   -40888   -41214   -41546   -41825   -42045   -42181   -42233 
  -42154   -41846   -41316   -40659   -40025   -39577   -39343   -39268 
  -39391   -39745   -40237   -40775   -41302   -41774   -42232   -42722 
  -43215   -43700   -44174   -44591   -44851   -44801   -44353   -43602 
  -42738   -41950   -41392   -41127   -41137   -41359   -41732   -42244 
  -42869   -43569   -44321   -45111   -45965   -46948   -48065   -49261 
  -50435   -51434   -52089   -52247   -51853   -51094   -50365   -49968 
  -49930   -50119   -50379   -50583   -50640   -50477   -50100   -49575 
  -48965   -48285   -47498   -46628   -45778   -44960   -44119   -43244 
  -42361   -41553   -40893   -40353   -39966   -39876   -40122   -40640 
  -41369   -42181   -42886   -43279   -43204   -42673   -41867   -40998 
  -40203   -39475   -38710   -37891   -37106   -36424   -35948   -35815 
  -36007   -36387   -36781   -36964   -36785   -36262   -35418   -34251 
  -32812   -31188   -29547   -28171   -27251   -26822   -26863   -27245 
  -27822   -28534   -29264   -29861   -30245   -30405   -30446   -30580 
  -30943   -31543   -32358   -33355   -34448   -35509   -36406   -37026 
  -37278   -37098   -36519   -35685   -34662   -33434   -32124   -31032 
  -30440   -30406   -30711   -31029   -31148   -31081   -30971   -30909 
  -30923   -31074   -31505   -32354   -33609   -35063   -36404   -37369 
  -37801   -37636   -36907   -35809   -34746   -34109   -34004   -34351 
  -35111   -36271   -37749   -39286   -40515   -41327   -41918   -42443 
  -42962   -43522   -44153   -44890   -45656   -46243   -46519   -46432 
  -46002   -45421   -44946   -44800   -45102   -45721   -46393   -46949 
  -47299   -47400   -47265   -46929   -46510   -46228   -46266   -46619 
  -47082   -47405   -47395   -46920   -45959   -44578   -42874   -41035 
  -39377   -38151   -37411   -37155   -37352   -37861   -38474   -38949 
  -39077   -38793   -38170   -37349   -36446   -35539   -34707   -33942 
  -33180   -32390   -31491   -30470   -29484   -28616   -27832   -27166 
  -26653   -26240   -25849   -25484   -25257   -25302   -25658   -26215 
  -26719   -26977   -27036   -27079   -27297   -27752   -28233   -28515 
  -28646   -28790   -29047   -29427   -29817   -30093   -30220   -30205 
  -30022   -29592   -28906   -28153   -27506   -26996   -26686   -26621 
  -26792   -27309   -28275   -29613   -31199   -32880   -34412   -35588 
  -36311   -36623   -36678   -36633   -36701   -37014   -37402   -37629 
  -37608   -37359   -37017   -36738   -36566   -36506   -36539   -36628 
  -36819   -37217   -37920   -38934   -40038   -40960   -41507   -41498 
  -40978   -40197   -39253   -38202   -37130   -36045   -35007   -34104 
  -33381   -32914   -32705   -32568   -32294   -31781   -31089   -30461 
  -30148   -30241   -30706   -31362   -31959   -32371   -32543   -32480 
  -32394   -32562   -33114   -34079   -35371   -36767   -38065   -39091 
  -39706   -40009   -40224   -40420   -40553   -40553   -40401   -40175 
  -40031   -40106   -40419   -40953   -41646   -42328   -42877   -43241 
  -43457   -43682   -43964   -44264   -44607   -44940   -45027   -44608 
  -43667   -42472   -41347   -40560   -40161   -39986   -39874   -39741 
  -39589   -39393   -39102   -38867   -38883   -39175   -39779   -40709 
  -41720   -42536   -43166   -43625   -43737   -43334   -42319   -40777 
  -39053   -37482   -36222   -35360   -34901   -34624   -34228   -33667 
  -33117   -32692   -32367   -32064   -31719   -31192   -30414   -29599 
  -28959   -28537   -28259   -27854   -27070   -25941   -24658   -23421 
  -22390   -21534   -20654   -19723   -18941   -18361   -17931   -17783 
  -18026   -18612   -19470   -20469   -21518   -22626   -23723   -24696 
  -25495   -26060   -26403   -26707   -27208   -28073   -29237   -30386 
  -31257   -31748   -31774   -31376   -30801   -30279   -29893   -29671 
  -29598   -29569   -29549   -29713   -30187   -30813   -31375   -31819 
  -32182   -32472   -32669   -32811   -32937   -33037   -33169   -33293 
  -33128   -32516   -31504   -30225   -29065   -28423   -28347   -28720 
  -29404   -30289   -31289   -32190   -32876   -33458   -33882   -33987 
  -33923   -33886   -33892   -34082   -34536   -35004   -35260   -35280 
  -35046   -34632   -34282   -34205   -34356   -34556   -34905   -35553 
  -36266   -37036   -38250   -39837   -41298   -42381   -42998   -43022 
  -42524   -41837   -41224   -40686   -40221   -39823   -39245   -38319 
  -37120   -35687   -34205   -32976   -31917   -30743   -29538   -28682 
  -28296   -28176   -28185   -28324   -28560   -28816   -29083   -29379 
  -29677   -30008   -30438   -30990   -31739   -32697   -33705   -34639 
  -35452   -36061   -36441   -36705   -36999   -37434   -38069   -38797 
  -39419   -39848   -40086   -40156   -40138   -39978   -39493   -38735 
  -37969   -37418   -37143   -37011   -36939   -37023   -37341   -37852 
  -38508   -39194   -39597   -39531   -39138   -38685   -38409   -38366 
  -38443   -38633   -38998   -39567   -40343   -41261   -42310   -43543 
  -44848   -46054   -47089   -47842   -48211   -48323   -48335   -48238 
  -48078   -47972   -47981   -48104   -48207   -48177   -47993   -47640 
  -47231   -46822   -46252   -45455   -44487   -43390   -42340   -41571 
  -41133   -40931   -40810   -40550   -39951   -38996   -37879   -36878 
  -36143   -35641   -35315   -35107   -34940   -34773   -34525   -34095 
  -33627   -33392   -33416   -33583   -33817   -33992   -34061   -34105 
  -34167   -34335   -34762   -35452   -36315   -37247   -38049   -38546 
  -38722   -38643   -38434   -38212   -38038   -38046   -38357   -38957 
  -39815   -40808   -41723   -42461   -42914   -42900   -42373   -41465 
  -40457   -39691   -39272   -39112   -39187   -39513   -40064   -40669 
  -41022   -41047   -40959   -40897   -40787   -40495   -40044   -39714 
  -39740   -40020   -40252   -40185   -39808   -39293   -38678   -37884 
  -36965   -36059   -35298   -34794   -34573   -34600   -34800   -35005 
  -35111   -35246   -35570   -36076   -36718   -37494   -38398   -39420 
  -40493   -41415   -41913   -41802   -41088   -39952   -38633   -37278 
  -35896   -34440   -32929   -31460   -30220   -29445   -29249   -29550 
  -30192   -30959   -31553   -31780   -31760   -31748   -31820   -31989 
  -32378   -33044   -33947   -35077   -36378   -37784   -39213   -40394 
  -41067   -41357   -41540   -41626   -41532   -41350   -41175   -40928 
  -40468   -39810   -39055   -38236   -37505   -37083   -36891   -36585 
  -35842   -34598   -33156   -31956   -31272   -31136   -31409   -31845 
  -32157   -32141   -31789   -31275   -30834   -30594   -30528   -30564 
  -30631   -30614   -30422   -30119   -29868   -29772   -29908   -30312 
  -30886   -31529   -32232   -32979   -33797   -34796   -35998   -37262 
  -38442   -39434   -40152   -40638   -41130   -41831   -42659   -43332 
  -43639   -43537   -43145   -42680   -42277   -41912   -41598   -41418 
  -41345   -41277   -41140   -40872   -40482   -40114   -39882   -39682 
  -39369   -38962   -38513   -38055   -37679   -37388   -37062   -36662 
  -36234   -35765   -35229   -34687   -34268   -34126   -34308   -34684 
  -35102   -35493   -35951   -36605   -37392   -38249   -39229   -40213 
  -40958   -41393   -41585   -41597   -41503   -41342   -41066   -40545 
  -39694   -38646   -37547   -36382   -35331   -34647   -34226   -33888 
  -33586   -33194   -32626   -31965   -31391   -30971   -30510   -29910 
  -29247   -28482   -27758   -27508   -27942   -28951   -30231   -31391 
  -32211   -32753   -33173   -33458   -33500   -33295   -32914   -32372 
  -31742   -31333   -31314   -31544   -31959   -32469   -32901   -33265 
  -33626   -34037   -34587   -35328   -36240   -37134   -37833   -38376 
  -38819   -39154   -39386   -39533   -39628   -39738   -39898   -40023 
  -40012   -39823   -39464   -39020   -38563   -38056   -37410   -36659 
  -36051   -35758   -35727   -35832   -35882   -35730   -35394   -34953 
  -34534   -34268   -34110   -33879   -33515   -33167   -33041   -33235 
  -33689   -34245   -34753   -35127   -35373   -35557   -35755   -36022 
  -36321   -36608   -36921   -37312   -37838   -38556   -39362   -40013 
  -40382   -40556   -40669   -40725   -40698   -40649   -40511   -40102 
  -39470   -38860   -38396   -38040   -37710   -37372   -37060   -36671 
  -36088   -35495   -35046   -34625   -34128   -33663   -33414   -33363 
  -33349   -33270   -33083   -32787   -32289   -31497   -30537   -29617 
  -28903   -28498   -28342   -28378   -28694   -29286   -30023   -30907 
  -32009   -33343   -34790   -36091   -37239   -38427   -39484   -40019 
  -40030   -39853   -39558   -38933   -38011   -37146   -36545   -36140 
  -36005   -36323   -37032   -37946   -38962   -39936   -40664   -41070 
  -41095   -40717   -40134   -39460   -38632   -37669   -36650   -35628 
  -34635   -33685   -32903   -32518   -32487   -32437   -32194   -32042 
  -32252   -32699   -33236   -34003   -35056   -36192   -37243   -38162 
  -38883   -39315   -39480   -39483   -39315   -38972   -38595   -38346 
  -38339   -38477   -38517   -38446   -38416   -38395   -38239   -37836 
  -37143   -36414   -35991   -35683   -35211   -34911   -35100   -35524 
  -35892   -36213   -36458   -36434   -36097   -35569   -34973   -34457 
  -34101   -33906   -33917   -34115   -34411   -34805   -35323   -35894 
  -36475   -37083   -37721   -38426   -39119   -39628   -40022   -40475 
  -41034   -41633   -42014   -42048   -42005   -42020   -41891   -41620 
  -41499   -41588   -41659   -41612   -41469   -41234   -41036   -41124 
  -41629   -42352   -42895   -43020   -42731   -42149   -41405   -40643 
  -40034   -39684   -39635   -39831   -40039   -39976   -39574   -39057 
  -38678   -38466   -38379   -38401   -38512   -38716   -38948   -39184 
  -39554   -40071   -40631   -41187   -41663   -42032   -42348   -42498 
  -42321   -41932   -41498   -41001   -40388   -39713   -39168   -38922 
  -38882   -38878   -38966   -39298   -39783   -40146   -40273   -40324 
  -40471   -40632   -40618   -40442   -40347   -40439   -40394   -39945 
  -39339   -38763   -38102   -37397   -36829   -36500   -36426   -36462 
  -36416   -36331   -36310   -36327   -36429   -36653   -36895   -37039 
  -37014   -36815   -36445   -35922   -35337   -34772   -34279   -33856 
  -33489   -33253   -33146   -33085   -33085   -33187   -33387   -33639 
  -33851   -34027   -34288   -34644   -34972   -35230   -35481   -35732 
  -35959   -36236   -36706   -37457   -38419   -39392   -40228   -40906 
  -41442   -41855   -42194   -42507   -42759   -42852   -42728   -42390 
  -41947   -41625   -41620   -42014   -42720   -43475   -44066   -44457 
  -44672   -44702   -44513   -44093   -43478   -42724   -41879   -41011 
  -40176   -39378   -38622   -37944   -37355   -36793   -36164   -35449 
  -34743   -34090   -33369   -32488   -31539   -30685   -30025   -29549 
  -29155   -28783   -28437   -28104   -27753   -27365   -26936   -26439 
  -25833   -25105   -24246   -23260   -22194   -21102   -20072   -19199 
  -18473   -17789   -17035   -16209   -15367   -14423   -13292   -12129 
  -11145   -10420    -9938    -9689    -9774   -10324   -11343   -12726 
  -14335   -16049   -17788   -19454   -20954   -22275   -23495   -24724 
  -25964   -27167   -28353   -29529   -30664   -31736   -32703   -33563 
  -34360   -35149   -36030   -37057   -38207   -39426   -40645   -41849 
  -43045   -44181   -45244   -46280   -47316   -48382   -49471   -50495 
  -51400   -52201   -52872   -53353   -53542   -53306   -52668   -51871 
  -51102   -50387   -49780   -49366   -49104   -48944   -48923   -48983 
  -48985   -48867   -48578   -48041   -47259   -46276   -45159   -44020 
  -42987   -42122   -41375   -40659   -39961   -39346   -38862   -38524 
  -38316   -38130   -37815   -37304   -36628   -35856   -35042   -34227 
  -33433   -32678   -32029   -31576   -31307   -31076   -30756   -30364 
  -30001   -29753   -29652   -29646   -29657   -29588   -29360   -28995 
  -28540   -28035   -27558   -27175   -26885   -26677   -26552   -26495 
  -26478   -26489   -26536   -26555   -26466   -26282   -26018   -25672 
  -25303   -24950   -24622   -24358   -24197   -24132   -24126   -24179 
  -24317   -24514   -24733   -24939   -25106   -25296   -25611   -26121 
  -26847   -27750   -28755   -29783   -30725   -31482   -32023   -32371 
  -32597   -32824   -33151   -33605   -34178   -34853   -35599   -36424 
  -37331   -38244   -39068   -39762   -40343   -40891   -41515   -42248 
  -42999   -43671   -44277   -44889   -45502   -46015   -46329   -46424 
  -46306   -45986   -45532   -45037   -44588   -44244   -44030   -43965 
  -44017   -44090   -44132   -44139   -44081   -43923   -43665   -43353 
  -43100   -42948   -42782   -42530   -42242   -41977   -41781   -41665 
  -41585   -41522   -41501   -41497   -41435   -41277   -41039   -40772 
  -40532   -40304   -40006   -39526   -38783   -37792   -36657   -35540 
  -34592   -33859   -33316   -32940   -32705   -32574   -32540   -32622 
  -32813   -33087   -33419   -33802   -34269   -34805   -35307   -35651 
  -35759   -35660   -35484   -35407   -35574   -35987   -36516   -37002 
  -37335   -37475   -37447   -37332   -37179   -36984   -36754   -36509 
  -36227   -35851   -35350   -34759   -34149   -33576   -33049   -32595 
  -32357   -32456   -32844   -33420   -34096   -34816   -35606   -36434 
  -37194   -37870   -38541   -39338   -40334   -41438   -42489   -43342 
  -43841   -43944   -43746   -43343   -42788   -42148   -41523   -40960 
  -40432   -39907   -39342   -38728   -38123   -37541   -36982   -36420 
  -35780   -35059   -34398   -33997   -33971   -34255   -34665   -35003 
  -35115   -34920   -34465   -33934   -33455   -33006   -32584   -32246 
  -32028   -31985   -32160   -32508   -32931   -33337   -33741   -34192 
  -34657   -35126   -35638   -36203   -36849   -37575   -38348   -39167 
  -40000   -40801   -41588   -42396   -43246   -44109   -44860   -45373 
  -45606   -45596   -45468   -45350   -45307   -45348   -45424   -45453 
  -45409   -45311   -45134   -44831   -44373   -43768   -43071   -42372 
  -41770   -41309   -40948   -40628   -40299   -39968   -39674   -39430 
  -39267   -39238   -39342   -39530   -39715   -39777   -39669   -39428 
  -39076   -38658   -38193   -37629   -36987   -36355   -35774   -35309 
  -34998   -34824   -34802   -34950   -35240   -35590   -35895   -36103 
  -36180   -36121   -35993   -35834   -35620   -35335   -34980   -34601 
  -34258   -33928   -33549   -33114   -32666   -32271   -32014   -31969 
  -32166   -32581   -33153   -33806   -34485   -35175   -35902   -36669 
  -37444   -38217   -38966   -39643   -40206   -40657   -41070   -41526 
  -42055   -42611   -43107   -43493   -43777   -43961   -44047   -44099 
  -44177   -44256   -44316   -44408   -44553   -44687   -44764   -44772 
  -44671   -44493   -44348   -44290   -44304   -44339   -44312   -44215 
  -44133   -44126   -44189   -44296   -44399   -44416   -44311   -44118 
  -43892   -43640   -43297   -42804   -42184   -41472   -40726   -40017 
  -39395   -38918   -38630   -38558   -38709   -38979   -39185   -39205 
  -39030   -38761   -38507   -38302   -38147   -37994   -37745   -37342 
  -36774   -36098   -35445   -34930   -34598   -34451   -34486   -34673 
  -34941   -35268   -35693   -36240   -36890   -37558   -38152   -38647 
  -39023   -39240   -39336   -39401   -39491   -39643   -39844   -40014 
  -40135   -40258   -40390   -40520   -40685   -40969   -41434   -42028 
  -42613   -43094   -43464   -43741   -43927   -44032   -44060   -43987 
  -43785   -43418   -42884   -42237   -41561   -40922   -40369   -39924 
  -39506   -38983   -38306   -37456   -36380   -35114   -33777   -32446 
  -31191   -30112   -29275   -28751   -28619   -28805   -29136   -29532 
  -29985   -30463   -30932   -31345   -31642   -31798   -31822   -31758 
  -31704   -31749   -31912   -32151   -32387   -32586   -32755   -32860 
  -32900   -32916   -32877   -32733   -32444   -32001   -31505   -31098 
  -30806   -30597   -30490   -30523   -30705   -31030   -31459   -31931 
  -32342   -32558   -32489   -32120   -31536   -30874   -30198   -29517 
  -28855   -28209   -27569   -26966   -26419   -25953   -25650   -25558 
  -25632   -25829   -26131   -26525   -27028   -27650   -28350   -29054 
  -29687   -30188   -30560   -30876   -31199   -31522   -31786   -31919 
  -31897   -31735   -31471   -31216   -31104   -31180   -31407   -31697 
  -31938   -32040   -31986   -31832   -31631   -31408   -31189   -31024 
  -30954   -30934   -30870   -30690   -30380   -30013   -29659   -29350 
  -29147   -29068   -29067   -29153   -29341   -29614   -29998   -30500 
  -31036   -31489   -31771   -31876   -31908   -31991   -32190   -32502 
  -32902   -33399   -34035   -34804   -35650   -36533   -37428   -38297 
  -39092   -39764   -40274   -40610   -40797   -40875   -40867   -40768 
  -40571   -40318   -40074   -39841   -39585   -39305   -39027   -38796 
  -38623   -38455   -38247   -38003   -37740   -37465   -37180   -36904 
