Origin Time       2011/03/11 14:46:00
Lat.              38.103
Long.             142.860
Depth. (km)       24
Mag.              9.0
Station Code      NGN023
Station Lat.      35.5775
Station Long.     138.0338
Station Height(m) 673
Record Time       2011/03/11 14:47:56
Sampling Freq(Hz) 100Hz
Duration Time(s)  218
Dir.              N-S
Scale Factor      3920(gal)/6182761
Max. Acc. (gal)   14.353
Last Correction   2011/03/11 14:47:41
Memo.             
[...]
  -60899   -61663   -62530   -63800   -65363   -67036   -68694   -70112 
  -71066   -71364   -71109   -70675   -70065   -68978   -67502   -66191 
  -65538   -65608   -66210   -67078   -67948   -68870   -69997   -71006 
  -71546   -71887   -72332   -72601   -72350   -71584   -70437   -69184 
  -68108   -67252   -66558   -65987   -65588   -65404   -65237   -64856 
  -64154   -63064   -61940   -61337   -61099   -60754   -60383   -60209 
  -60300   -60629   -60817   -60648   -60597   -61199   -62486   -64005 
  -65181   -65836   -66099   -66092   -65977   -65780   -65297   -64666 
  -64362   -64486   -64855   -65385   -65930   -66559   -67598   -68644 
  -68818   -68158   -67324   -66668   -66378   -66525   -67071   -67986 
  -68952   -69550   -69670   -69233   -68253   -67063   -65727   -64107 
  -62510   -61238   -60292   -59899   -60175   -60700   -61282   -62282 
  -63834   -65554   -66895   -67493   -67508   -67420   -67513   -67962 
  -68837   -69830   -70624   -71230   -71653   -71786   -71642   -71383 
  -71118   -70912   -70972   -71529   -72619   -74029   -75440   -76699 
  -77718   -78284   -78378   -78353   -78280   -77567   -75837   -73608 
  -71669   -70432   -69846   -69439   -68835   -68447   -68989   -70541 
  -72721   -74924   -76288   -76525   -76197   -75618   -74636   -73293 
  -71753   -70028   -68138   -66296   -64893   -64394   -65197   -67048 
  -68848   -69843   -70344   -70916   -71777   -72863   -73903   -74528 
  -74606   -74283   -73629   -72733   -71840   -71090   -70571   -70307 
  -70119   -69917   -69788   -69809   -70202   -71180   -72349   -73084 
  -73421   -73748   -74233   -74850   -75174   -74620   -73191   -71328 
  -69376   -67583   -66143   -65211   -64882   -65023   -65425   -66174 
  -67609   -69834   -72346   -74290   -75078   -74668   -73376   -71564 
  -69448   -67251   -65390   -64171   -63503   -63398   -64254   -66213 
  -68876   -71686   -74043   -75514   -76270   -76704   -76773   -76317 
  -75402   -73949   -71863   -69426   -66977   -64766   -62989   -61651 
  -60817   -60593   -60947   -61902   -63282   -64669   -65871   -66808 
  -67377   -67616   -67596   -67301   -66641   -65495   -64038   -62992 
  -62943   -63588   -64485   -65643   -66817   -67697   -68529   -69410 
  -70098   -70688   -71286   -71698   -71709   -70975   -69359   -67499 
  -66204   -65562   -64945   -63861   -62639   -61985   -62212   -63069 
  -64114   -65300   -66813   -68411   -69500   -69726   -69354   -69006 
  -68989   -69115   -69167   -69345   -70185   -72018   -74602   -77292 
  -79385   -80515   -80808   -80431   -79272   -77391   -75280   -73287 
  -71290   -69136   -66986   -65162   -63795   -62828   -62468   -63198 
  -65174   -67960   -70810   -73178   -75041   -76419   -77047   -76852 
  -76168   -75413   -74712   -73935   -73238   -73013   -73351   -73991 
  -74499   -74647   -74722   -74994   -75207   -74970   -74163   -72837 
  -71161   -69452   -68013   -66865   -65872   -65121   -64742   -64700 
  -65120   -66202   -67883   -69933   -71993   -73542   -74314   -74650 
  -74990   -75156   -74560   -72864   -70431   -68161   -66482   -64959 
  -63361   -62185   -61960   -62796   -64361   -66174   -68121   -70273 
  -72383   -73952   -74729   -74848   -74374   -73183   -71343   -69191 
  -67174   -65557   -64135   -62606   -61037   -59773   -59159   -59181 
  -59584   -60432   -61855   -63486   -64765   -65465   -65737   -65821 
  -65776   -65528   -65039   -64334   -63342   -61850   -59992   -58457 
  -57785   -57959   -58785   -60009   -61343   -62754   -64230   -65465 
  -66096   -65900   -64899   -63394   -61851   -60862   -60884   -61840 
  -63280   -64745   -65954   -66900   -67631   -68024   -67986   -67514 
  -66620   -65478   -64323   -63307   -62708   -62787   -63435   -64560 
  -66265   -68299   -70118   -71359   -71873   -71708   -71023   -70057 
  -69240   -68868   -68730   -68517   -68242   -67939   -67610   -67506 
  -67683   -67801   -67720   -67475   -67026   -66637   -66719   -67111 
  -67402   -67600   -68015   -69087   -71060   -73575   -76061   -78221 
  -79833   -80452   -79532   -77044   -73763   -70458   -67196   -63784 
  -60473   -58082   -57503   -59014   -61981   -65374   -68623   -71643 
  -74269   -76179   -77234   -77520   -76992   -75569   -73677   -71972 
  -70567   -69335   -68324   -67421   -66757   -66887   -67838   -69097 
  -70456   -71930   -73178   -73810   -73964   -73756   -73009   -71881 
  -70548   -68910   -67136   -65630   -64721   -64719   -65865   -68068 
  -70846   -73635   -75992   -77732   -78876   -79143   -78134   -76015 
  -73324   -70583   -68244   -66488   -65198   -64332   -64112   -64694 
  -65766   -66921   -68188   -69503   -70454   -70870   -70715   -70015 
  -69224   -68613   -67806   -66632   -65627   -65444   -66277   -67661 
  -68761   -69331   -69853   -70501   -70932   -71039   -71183   -71632 
  -72008   -71687   -70849   -70344   -70319   -70104   -69462   -68727 
  -68171   -67812   -67509   -67434   -68187   -69983   -72315   -74527 
  -76302   -77658   -78570   -78678   -77635   -75637   -73299   -71113 
  -69185   -67449   -65885   -64508   -63480   -63148   -63598   -64430 
  -65258   -66011   -66695   -67300   -67762   -67826   -67306   -66363 
  -65192   -63805   -62473   -61781   -61973   -62812   -63967   -65250 
  -66685   -68276   -69769   -70882   -71529   -71738   -71444   -70565 
  -69207   -67520   -65553   -63540   -61955   -61170   -61186   -61514 
  -61752   -62249   -63464   -65216   -67062   -68723   -70078   -71001 
  -71228   -70705   -70020   -69884   -70399   -71138   -71484   -71132 
  -70441   -69972   -69795   -69416   -68522   -67503   -66604   -65505 
  -64061   -62565   -61436   -60967   -61040   -61128   -60893   -60634 
  -60857   -61754   -63245   -65186   -67408   -69569   -71097   -71518 
  -70778   -69400   -68169   -67340   -66604   -65935   -65728   -66195 
  -67338   -69139   -71303   -73465   -75611   -77671   -79245   -80117 
  -80383   -80107   -79383   -78338   -76908   -75065   -73043   -71138 
  -69579   -68397   -67580   -67476   -68347   -69858   -71742   -73958 
  -75985   -77198   -77555   -77220   -76279   -74981   -73703   -72535 
  -71225   -69744   -68463   -67823   -68144   -69269   -70564   -71763 
  -73106   -74456   -75287   -75474   -75208   -74441   -73088   -71313 
  -69359   -67474   -66006   -65332   -65660   -66736   -67999   -69184 
  -70290   -71188   -71689   -71608   -70889   -69772   -68540   -67310 
  -66004   -64415   -62570   -60896   -59798   -59348   -59478   -60027 
  -60828   -61884   -63242   -64914   -66846   -68946   -71145   -73143 
  -74491   -75071   -75082   -74612   -73621   -72235   -70528   -68660 
  -67228   -66423   -65859   -65444   -65013   -64228   -63449   -63192 
  -63447   -64283   -65596   -66691   -67127   -66988   -66477   -65734 
  -64741   -63614   -62822   -62783   -63407   -64276   -65255   -66451 
  -67845   -69297   -70504   -71142   -71133   -70576   -69711   -68934 
  -68518   -68458   -68741   -69386   -70244   -71044   -71406   -71177 
  -70738   -70332   -69763   -68871   -67803   -67149   -67301   -67929 
  -68655   -69349   -70105   -71085   -71917   -72106   -71771   -71297 
  -70757   -69873   -68656   -67692   -67544   -68273   -69516   -70698 
  -71453   -72092   -72952   -73470   -73219   -72783   -72652   -72719 
  -72882   -73122   -73517   -74309   -75362   -76017   -75787   -74679 
  -73078   -71568   -70364   -69129   -67608   -66016   -64731   -63824 
  -63279   -63399   -64424   -66160   -67943   -68929   -68956   -68457 
  -67602   -66329   -64620   -62652   -60912   -59694   -59013   -59103 
  -60102   -61772   -63816   -65858   -67612   -69046   -70042   -70486 
  -70333   -69484   -68210   -67071   -66289   -65798   -65622   -65989 
  -67166   -69065   -71134   -72827   -73976   -74485   -74214   -73382 
  -72470   -71802   -71411   -71041   -70556   -70088   -69719   -69479 
  -69148   -68481   -67764   -67146   -66424   -65854   -65832   -66265 
  -66997   -67851   -68151   -67333   -65720   -63941   -62353   -61205 
  -60588   -60416   -60762   -61552   -62446   -63547   -64907   -65949 
  -66531   -66925   -66993   -66860   -66952   -67208   -67493   -67810 
  -68006   -68224   -68660   -69057   -69454   -70156   -71081   -72006 
  -72732   -73222   -73349   -72693   -71287   -69400   -67179   -65103 
  -63347   -61681   -60315   -59725   -60398   -62605   -65881   -69311 
  -72169   -74225   -75612   -76396   -76602   -76476   -76196   -75451 
  -73999   -72193   -70384   -68881   -68119   -67957   -68093   -68393 
  -68226   -67380   -66442   -65511   -64321   -62853   -61233   -59751 
  -58797   -58641   -59157   -60071   -61503   -63327   -64914   -66054 
  -66762   -66822   -66317   -65434   -64194   -62838   -61643   -60746 
  -60253   -60203   -60549   -61165   -62036   -63100   -64140   -65186 
  -66277   -67314   -68074   -68128   -67550   -66759   -65854   -65062 
  -64598   -64152   -63647   -63487   -63674   -64198   -65565   -67792 
  -70161   -72009   -73163   -73652   -73384   -72629   -71614   -69841 
  -67352   -65025   -63230   -62010   -61559   -61707   -62148   -63024 
  -64372   -65576   -66148   -66259   -66216   -66097   -65757   -65265 
  -65104   -65413   -65963   -66653   -67218   -67593   -68106   -68653 
  -68933   -68910   -68385   -67206   -65763   -64649   -64046   -64033 
  -65202   -67672   -70652   -73498   -75544   -76409   -76461   -75661 
  -73925   -71687   -69204   -66936   -65304   -64229   -63864   -64514 
  -66114   -68271   -70722   -73415   -76137   -78773   -81013   -82077 
  -81957   -81266   -79892   -77724   -75359   -73022   -70347   -67476 
  -65061   -63344   -62596   -63346   -65109   -67127   -69711   -72834 
  -75786   -78318   -80333   -81677   -82155   -81434   -79700   -77681 
  -75935   -74539   -73451   -72643   -71901   -71478   -71709   -71864 
  -71498   -71225   -71202   -71058   -70782   -70367   -69720   -69313 
  -69396   -69571   -70010   -70903   -71799   -72651   -73419   -73556 
  -72834   -71417   -69653   -68041   -66707   -65596   -64800   -64164 
  -63578   -63065   -62479   -61915   -61484   -61025   -60582   -60340 
  -60519   -61429   -62913   -64398   -65655   -66668   -67405   -68062 
  -68583   -68598   -68194   -67726   -67202   -66390   -65406   -64927 
  -65353   -66133   -66402   -66036   -65698   -65768   -65946   -65930 
  -65699   -65426   -65339   -65406   -65257   -64692   -64108   -63816 
  -63766   -64018   -64611   -65695   -67108   -67909   -67803   -67372 
  -66843   -66256   -65496   -64272   -62878   -61724   -60663   -59583 
  -58573   -57487   -56347   -55650   -55655   -56171   -56957   -57787 
  -58599   -59310   -59593   -59554   -59871   -60953   -62791   -65129 
  -67268   -68682   -69587   -70097   -69929   -69126   -67922   -66513 
  -65350   -64691   -64460   -64946   -66395   -68432   -70593   -72469 
  -73669   -74030   -73406   -71755   -69391   -66798   -64628   -63435 
  -63300   -64221   -66051   -68120   -70004   -71808   -73235   -73763 
  -73457   -72645   -71454   -69998   -68613   -67754   -67894   -69192 
  -71109   -72960   -74240   -74547   -74076   -73117   -71504   -69503 
  -67617   -65900   -64445   -63329   -62422   -61961   -62355   -63560 
  -65169   -66716   -67935   -68882   -69512   -69529   -68980   -68078 
  -66737   -65121   -63624   -62399   -61498   -60706   -59844   -59173 
  -58796   -58758   -59303   -60322   -61635   -63415   -65582   -67742 
  -69880   -72136   -74170   -75561   -76324   -76606   -76368   -75638 
  -74697   -73692   -72506   -71039   -69382   -67939   -67370   -68265 
  -70456   -73083   -75764   -78272   -79896   -80380   -79667   -77579 
  -74759   -72029   -69433   -67076   -65495   -64862   -64884   -65267 
  -65662   -65894   -66226   -66729   -67073   -67042   -66825   -66697 
  -66486   -66104   -65952   -66191   -66857   -67968   -68934   -69440 
  -70014   -70929   -71922   -72667   -72978   -72877   -72438   -71734 
  -70945   -70201   -69371   -68355   -67374   -66620   -66120   -66053 
  -66843   -68733   -71421   -74288   -76689   -78246   -79006   -79101 
  -78383   -76619   -74070   -71404   -69076   -67317   -66279   -65867 
  -65836   -66155   -67072   -68492   -69787   -70527   -70654   -70164 
  -69040   -67281   -65093   -62877   -61089   -60194   -60281   -61063 
  -62345   -63892   -65290   -66329   -67049   -67364   -67276   -67113 
  -67076   -67145   -67197   -66885   -66108   -65207   -64400   -63628 
  -62787   -62018   -61980   -63283   -65602   -68056   -70094   -71439 
  -71978   -72143   -72535   -73122   -73556   -73759   -73741   -73605 
  -73674   -74085   -74694   -75524   -76640   -77724   -78385   -78621 
  -78572   -78141   -77245   -76018   -74457   -72364   -69521   -65896 
  -61922   -58285   -55515   -53811   -53088   -53290   -54569   -57068 
  -60447   -63870   -66796   -69328   -71661   -73625   -74738   -74643 
  -73444   -71539   -69258   -66759   -64286   -62180   -60719   -60186 
  -60540   -61431   -62934   -65096   -67243   -68604   -68508   -66439 
  -62914   -59162   -55797   -52719   -49858   -47709   -47345   -49318 
  -52730   -56125   -58890   -61366   -64012   -66747   -69218   -71455 
  -73506   -74926   -75147   -73846   -71296   -68352   -65693   -63602 
  -62414   -62498   -63686   -65356   -67181   -69142   -71171   -73029 
  -74167   -74077   -72866   -71024   -68852   -66586   -64464   -62663 
  -61674   -61862   -63155   -65796   -69885   -74734   -79658   -84225 
  -87934   -90252   -90824   -89811   -87739   -85056   -82058   -78829 
  -75472   -72631   -71101   -70937   -71622   -72812   -74391   -76247 
  -78136   -79564   -80043   -79563   -78658   -77728   -76638   -75340 
  -74155   -73311   -72726   -72083   -71145   -69974   -68787   -67690 
  -66523   -65324   -64662   -64996   -66181   -67654   -68757   -69075 
  -68691   -68086   -67617   -67385   -67557   -67990   -67992   -67271 
  -66173   -64885   -63554   -62439   -61422   -60508   -60097   -60278 
  -60952   -62093   -63393   -64540   -65554   -66314   -66452   -65978 
  -65255   -64446   -63424   -61939   -59938   -57784   -55834   -54202 
  -53132   -52956   -53692   -55113   -56827   -58402   -59839   -61403 
  -62983   -64244   -65013   -65342   -65562   -66018   -66654   -67141 
  -67143   -66634   -66214   -66474   -67220   -67919   -68320   -68484 
  -68756   -69433   -70380   -71185   -71537   -71477   -71139   -70306 
  -68832   -67134   -65778   -65042   -65034   -65750   -66832   -67644 
  -67881   -67859   -68048   -68591   -69332   -69936   -70109   -69819 
  -68915   -67093   -64678   -62408   -60555   -59105   -58197   -58018 
  -58797   -60634   -63151   -65736   -68033   -69990   -71591   -72571 
  -72444   -71019   -68800   -66542   -64713   -63596   -63336   -63895 
  -65207   -67229   -69945   -73223   -76659   -79914   -82820   -85099 
  -86463   -86905   -86779   -86451   -85893   -84795   -83044   -81093 
  -79556   -78389   -76957   -74968   -72816   -70940   -69541   -68669 
  -68042   -67417   -66991   -66961   -67257   -67585   -67560   -67103 
  -66460   -65846   -65441   -65530   -66471   -68547   -71627   -75134 
  -78639   -82045   -85059   -87050   -87426   -85906   -82798   -78891 
  -74673   -70202   -65898   -62496   -60479   -60259   -62056   -65421 
  -69352   -72701   -74768   -75667   -75739   -74915   -72901   -69729 
  -66045   -62668   -59889   -57566   -55827   -55007   -55000   -55433 
  -56129   -57012   -58076   -59384   -60728   -61701   -62058   -61834 
  -61503   -61662   -62399   -63534   -64949   -66426   -67808   -69191 
  -70747   -72479   -74129   -75533   -76837   -78106   -79143   -79802 
  -80120   -80175   -79934   -79203   -77944   -76476   -75161   -74136 
  -73217   -72104   -70858   -69771   -68827   -67884   -67029   -66120 
  -64803   -63363   -62477   -62355   -62812   -63482   -63884   -63780 
  -63195   -62221   -61144   -60441   -60349   -60691   -61277   -62156 
  -63478   -65188   -66917   -68337   -69323   -69938   -70444   -71046 
  -71827   -72821   -73893   -74857   -75526   -75690   -75206   -73978 
  -72074   -69701   -66954   -64041   -61351   -59058   -57206   -55825 
  -54860   -54370   -54587   -55608   -57087   -58397   -59219   -59704 
  -60074   -60336   -60538   -60922   -61512   -61927   -61769   -61013 
  -59953   -58911   -58161   -57868   -58051   -58764   -59897   -60918 
  -61510   -61995   -62551   -62811   -62619   -62400   -62679   -63682 
  -65244   -66777   -67688   -67999   -67981   -67399   -65860   -63521 
  -61088   -59268   -58415   -58696   -60110   -62371   -64960   -67122 
  -68190   -68133   -67299   -66069   -64990   -64364   -64011   -63916 
  -64198   -64732   -65560   -66942   -68732   -70422   -71624   -72047 
  -71446   -69890   -67646   -64931   -62284   -60577   -60149   -60976 
  -63331   -67044   -71200   -74942   -77552   -78525   -78067   -76825 
  -75368   -74097   -72967   -71473   -69554   -67911   -67044   -66864 
  -67120   -67506   -67816   -68143   -68715   -69675   -70768   -71363 
  -70927   -69393   -67278   -65249   -63658   -62694   -62456   -62871 
  -63616   -64048   -63620   -62371   -60745   -59130   -57657   -56343 
  -55316   -54545   -53680   -52556   -51301   -50092   -49217   -48950 
  -49278   -50007   -51120   -52736   -54659   -56497   -58179   -59860 
  -61515   -62938   -64073   -65177   -66413   -67555   -68198   -68024 
  -67148   -66236   -65840   -65945   -66400   -67348   -69024   -71427 
  -74326   -77397   -80352   -83028   -85255   -86777   -87538   -87786 
  -87691   -87139   -85946   -84006   -81302   -78171   -75231   -72730 
  -70631   -69189   -68717   -69297   -70727   -72451   -74112   -75856 
  -77709   -79338   -80382   -80724   -80681   -80723   -80851   -80688 
  -80204   -79843   -79983   -80598   -81333   -81820   -81949   -81770 
  -81138   -79585   -76879   -73486   -70107   -67163   -64907   -63696 
  -63930   -65569   -67970   -70357   -72315   -73984   -75562   -76691 
  -76751   -75395   -72774   -69576   -66581   -63984   -61575   -59523 
  -58333   -58325   -59560   -61706   -64029   -66036   -67757   -69153 
  -69943   -70117   -69883   -69370   -68695   -67900   -67046   -66306 
  -65754   -65356   -65028   -64714   -64531   -64543   -64668   -64865 
  -65010   -64920   -64540   -63835   -62938   -62255   -62030   -62183 
  -62540   -63105   -64130   -65679   -67447   -69064   -70224   -70734 
  -70564   -69729   -68294   -66443   -64275   -61844   -59549   -57909 
  -57028   -56680   -56720   -57243   -58425   -60194   -62088   -63632 
  -64701   -65282   -65186   -64281   -62767   -61045   -59492   -58352 
  -57557   -56811   -56102   -55729   -55707   -55823   -55946   -55880 
  -55590   -55397   -55368   -55086   -54290   -53273   -52553   -52418 
  -52728   -53073   -53186   -53092   -52932   -52914   -53219   -53861 
  -54746   -55580   -55871   -55447   -54658   -53940   -53657   -54089 
  -55213   -56827   -58762   -60770   -62635   -64378   -65979   -67175 
  -67744   -67559   -66406   -64321   -61845   -59513   -57442   -55533 
  -53830   -52635   -52279   -52799   -53884   -55243   -56967   -59152 
  -61431   -63342   -64656   -65209   -65055   -64567   -64083   -63837 
  -63911   -64155   -64629   -65785   -67911   -70712   -73586   -76186 
  -78230   -79151   -78732   -77436   -75773   -74092   -72574   -71138 
