Origin Time       2011/03/11 14:46:00
Lat.              38.103
Long.             142.860
Depth. (km)       24
Mag.              9.0
Station Code      NGN004
Station Lat.      36.6475
Station Long.     138.1941
Station Height(m) 361
Record Time       2011/03/11 14:48:13
Sampling Freq(Hz) 100Hz
Duration Time(s)  300
Dir.              U-D
Scale Factor      3920(gal)/6182761
Max. Acc. (gal)   6.041
Last Correction   2011/03/11 14:47:58
Memo.             
[...]
   -7966    -7862    -7620    -7320    -7129    -7051    -6964    -6847 
   -6640    -6345    -6305    -6674    -7049    -7103    -6935    -6730 
   -6513    -6268    -6125    -6176    -6324    -6435    -6396    -6286 
   -6338    -6448    -6152    -5329    -4492    -4112    -4185    -4613 
   -5304    -5989    -6384    -6395    -6250    -6429    -7057    -7556 
   -7398    -6898    -6646    -6649    -6675    -6894    -7557    -8434 
   -9112    -9547    -9905   -10150   -10146    -9858    -9346    -8790 
   -8457    -8484    -8713    -8838    -8732    -8638    -8753    -8738 
   -8278    -7501    -6509    -5414    -4486    -3863    -3578    -3601 
   -3755    -3939    -4302    -4888    -5468    -5921    -6209    -6172 
   -5876    -5628    -5532    -5500    -5418    -5137    -4725    -4500 
   -4603    -4866    -5004    -4827    -4413    -4042    -3994    -4248 
   -4445    -4424    -4295    -4053    -3815    -3943    -4585    -5413 
   -5881    -5849    -5707    -5741    -5697    -5215    -4450    -3942 
   -3990    -4396    -4755    -4750    -4295    -3633    -3062    -2677 
   -2536    -2684    -3019    -3275    -3311    -3310    -3385    -3488 
   -3721    -4096    -4366    -4432    -4427    -4364    -4233    -4181 
   -4031    -3461    -2770    -2506    -2765    -3277    -3739    -4161 
   -4796    -5470    -5629    -5178    -4545    -4170    -4301    -4854 
   -5419    -5610    -5437    -5190    -5001    -4834    -4737    -4918 
   -5491    -6085    -6191    -5891    -5536    -5044    -4251    -3440 
   -3034    -3213    -3918    -4823    -5344    -5101    -4291    -3370 
   -2727    -2567    -2732    -2931    -3084    -3184    -3194    -3179 
   -3275    -3598    -4085    -4319    -3982    -3398    -3028    -2892 
   -2804    -2584    -2188    -1856    -1741    -1769    -1975    -2311 
   -2489    -2479    -2486    -2387    -1943    -1469    -1376    -1368 
    -942     -296       34       68       98      -67     -652    -1233 
   -1380    -1345    -1409    -1336     -985     -668     -577     -542 
    -459     -357     -265     -223     -195     -155      -86      208 
     755     1232     1416     1336     1139      967      660      -68 
    -961    -1409    -1424    -1637    -2330    -3130    -3602    -3718 
   -3641    -3521    -3574    -3873    -4284    -4737    -5222    -5684 
   -6022    -6175    -6333    -6701    -7097    -7205    -7007    -6817 
   -7053    -7821    -8696    -9117    -8881    -8234    -7597    -7130 
   -6723    -6393    -6237    -6168    -6039    -5777    -5431    -5177 
   -5131    -5175    -5150    -5133    -5215    -5259    -5197    -5167 
   -5243    -5304    -5282    -5338    -5487    -5454    -5244    -5214 
   -5437    -5515    -5213    -4852    -4758    -4861    -5016    -5136 
   -5078    -4797    -4421    -4036    -3643    -3408    -3560    -4056 
   -4656    -5031    -4855    -4157    -3376    -2817    -2468    -2391 
   -2695    -3107    -3211    -3021    -2890    -2997    -3175    -3212 
   -3110    -3077    -3218    -3406    -3558    -3750    -4067    -4476 
   -4861    -5184    -5534    -5899    -5960    -5502    -4805    -4282 
   -4108    -4147    -4030    -3572    -2992    -2639    -2649    -2852 
   -3076    -3308    -3489    -3526    -3420    -3386    -3733    -4328 
   -4740    -4891    -4895    -4828    -4881    -5041    -5028    -4797 
   -4580    -4557    -4755    -5117    -5552    -5839    -5628    -4861 
   -4048    -3651    -3474    -3129    -2616    -2059    -1469     -856 
    -327     -151     -581    -1434    -2205    -2615    -2735    -2827 
   -3163    -3695    -4131    -4228    -3846    -3112    -2364    -1782 
   -1451    -1548    -1920    -1866     -938      354     1125     1020 
     298     -474     -834     -810     -670     -541     -560     -949 
   -1552    -1849    -1647    -1042     -150      575      782      702 
     551      319       43     -218     -406     -500     -543     -622 
    -872    -1253    -1506    -1660    -2016    -2459    -2587    -2377 
   -2030    -1572    -1130     -983    -1150    -1429    -1730    -2064 
   -2268    -2035    -1371     -608      -88      -14     -272     -630 
   -1204    -2153    -3205    -3940    -4268    -4349    -4179    -3721 
   -3237    -3052    -3270    -3771    -4268    -4421    -4050    -3403 
   -2983    -2949    -3008    -2891    -2717    -2684    -2642    -2573 
   -2755    -3012    -2974    -2903    -3198    -3633    -3788    -3723 
   -3688    -3634    -3427    -3119    -2836    -2742    -2890    -3032 
   -2932    -2704    -2621    -2756    -2871    -2715    -2344    -1953 
   -1625    -1442    -1431    -1485    -1523    -1534    -1669    -2244 
   -3316    -4471    -5213    -5471    -5602    -5933    -6454    -6944 
   -7277    -7393    -7243    -7019    -6977    -7112    -7328    -7560 
   -7689    -7614    -7398    -7290    -7472    -7884    -8275    -8281 
   -7831    -7305    -6889    -6455    -6112    -6089    -6373    -6624 
   -6535    -6308    -6113    -5716    -5245    -5070    -4963    -4470 
   -3754    -3374    -3506    -3846    -4150    -4506    -5000    -5374 
   -5283    -4779    -4230    -3913    -3985    -4503    -5244    -5851 
   -6145    -6118    -5817    -5229    -4430    -3752    -3391    -3205 
   -2997    -2695    -2321    -1939    -1709    -1686    -1648    -1409 
   -1033     -633     -160      439      974     1262     1344     1257 
    1016      779      652      596      719      995      964      457 
    -132     -482     -509     -194      401     1195     2003     2471 
    2401     1853      990       98     -567     -971    -1263    -1540 
   -1795    -2059    -2237    -2267    -2333    -2472    -2755    -3442 
   -4222    -4418    -3909    -3016    -2033    -1224     -839     -938 
   -1306    -1647    -1802    -1801    -1759    -1786    -1894    -1902 
   -1649    -1217     -799     -610     -854    -1478    -2165    -2680 
   -2919    -2885    -2829    -2972    -3193    -3277    -3219    -3269 
   -3700    -4545    -5654    -6773    -7580    -7896    -7794    -7500 
   -7322    -7511    -8091    -8816    -9350    -9537    -9421    -9109 
   -8645    -8093    -7801    -8024    -8361    -8237    -7609    -6877 
   -6442    -6290    -6071    -5669    -5306    -5105    -4933    -4549 
   -3883    -3264    -3111    -3330    -3516    -3593    -3749    -3951 
   -3939    -3570    -2908    -2134    -1461    -1001     -714     -469 
    -168      228      777     1453     1925     1648      505     -871 
   -1817    -2156    -1894    -1208     -543     -312     -620    -1248 
   -1800    -1939    -1629    -1165     -884     -954    -1423    -2254 
   -3188    -3772    -3822    -3564    -3181    -2793    -2564    -2312 
   -1730     -980     -439     -297     -629    -1328    -1980    -2315 
   -2410    -2164    -1506    -1015    -1206    -1760    -2207    -2565 
   -3072    -3720    -4242    -4543    -4840    -5313    -5864    -6282 
   -6518    -6633    -6674    -6780    -7017    -7178    -7019    -6496 
   -5891    -5598    -5639    -5773    -5870    -5851    -5586    -5137 
   -4895    -5179    -5880    -6706    -7341    -7388    -6548    -4938 
   -3232    -2228    -2140    -2626    -3264    -3646    -3405    -2542 
   -1547     -944     -847     -924     -746     -281      168      314 
     -49     -809    -1585    -2167    -2362    -2004    -1479    -1281 
   -1264    -1151    -1059    -1072    -1022     -890     -977    -1374 
   -1553    -1071     -256      308      556      722      692      365 
      60     -114     -425     -957    -1430    -1444    -1010     -727 
   -1104    -2044    -2914    -2891    -1850     -710     -441    -1215 
   -2590    -4084    -5468    -6635    -7421    -7742    -7771    -7657 
   -7366    -7053    -7027    -7415    -8044    -8293    -7724    -6918 
   -6573    -6475    -6372    -6570    -7052    -7388    -7511    -7626 
   -7711    -7659    -7506    -7230    -6827    -6588    -6700    -6945 
   -6981    -6558    -5868    -5433    -5347    -5315    -5008    -4192 
   -3082    -2216    -1728    -1324    -1018    -1053    -1122     -769 
    -248      -82     -440    -1174    -1779    -1849    -1643    -1682 
   -2159    -2946    -3976    -5255    -6391    -6761    -6207    -5272 
   -4752    -4992    -5775    -6706    -7441    -7771    -7682    -7360 
   -7065    -7008    -7335    -7899    -8187    -8025    -7940    -8250 
   -8470    -8255    -8128    -8562    -9202    -9505    -9292    -8604 
   -7687    -6961    -6847    -7593    -8919   -10072   -10614   -10676 
  -10478   -10221   -10101   -10080    -9993    -9668    -8935    -7961 
   -7190    -6726    -6381    -6066    -5693    -5082    -4249    -3524 
   -3012    -2391    -1679    -1392    -1740    -2407    -3117    -3859 
   -4502    -4717    -4388    -3682    -2867    -2239    -1899    -1825 
   -2209    -3026    -3652    -3676    -3457    -3420    -3605    -4151 
   -5301    -6687    -7517    -7472    -6727    -5578    -4469    -3734 
   -3469    -3792    -4536    -5029    -4874    -4331    -3683    -3060 
   -2714    -2849    -3483    -4474    -5545    -6383    -6733    -6487 
   -5778    -4969    -4384    -4157    -4483    -5441    -6540    -7066 
   -6667    -5532    -4374    -3897    -4128    -4668    -5118    -5180 
   -5036    -5130    -5461    -5843    -6207    -6200    -5492    -4449 
   -3725    -3539    -3743    -4073    -4156    -3809    -3330    -3017 
   -2775    -2556    -2552    -2743    -2876    -2937    -3117    -3278 
   -3045    -2478    -1940    -1541    -1309    -1329    -1375    -1077 
    -464      -77     -416    -1284    -2010    -2019    -1079      392 
    1363     1048     -294    -1651    -2355    -2424    -2080    -1607 
   -1381    -1658    -2349    -2861    -2581    -1761    -1350    -1810 
   -2553    -2743    -2227    -1454    -1132    -1766    -3039    -4238 
   -5089    -5455    -5102    -4205    -3343    -2975    -3098    -3303 
   -3245    -2985    -2860    -3061    -3414    -3685    -3866    -3920 
   -3605    -2800    -1643     -324      699      813       43    -1057 
   -2099    -2925    -3494    -3856    -3913    -3334    -1981     -321 
     865     1212      841     -213    -1816    -3398    -4495    -4981 
   -4585    -3125    -1273     -152     -115     -798    -1915    -3052 
   -3489    -3053    -2353    -1832    -1421    -1074     -831     -553 
    -278     -415    -1009    -1415    -1158     -436      453     1552 
    2867     3913     4099     3455     2368     1152      163     -534 
   -1228    -1863    -2115    -2144    -2474    -3093    -3333    -2856 
   -2100    -1575    -1453    -1763    -2443    -3218    -3645    -3539 
   -3194    -3022    -3215    -3729    -4483    -5342    -6025    -6413 
   -6566    -6428    -5824    -4751    -3771    -3653    -4392    -5334 
   -6045    -6429    -6421    -5895    -4881    -3939    -3693    -3934 
   -4085    -3938    -3350    -2336    -1359     -788     -671    -1084 
   -1959    -2742    -2834    -2308    -1739    -1403    -1163    -1175 
   -1813    -2813    -3542    -3857    -3892    -3607    -2871    -1806 
    -926     -644     -978    -1702    -2266    -2123    -1421     -756 
    -459     -470     -549     -453     -136      242      602      842 
     693       56     -950    -1994    -2482    -2203    -1524     -797 
    -458     -940    -1916    -2552    -2298    -1203      -38      341 
    -177    -1192    -2271    -3008    -3161    -2806    -2294    -2062 
   -2315    -2736    -2757    -2315    -2063    -2586    -3735    -4876 
   -5432    -5165    -4309    -3469    -3098    -3246    -3840    -4597 
   -4965    -4732    -4206    -3775    -3712    -3981    -4127    -3732 
   -2979    -2513    -2643    -3138    -3936    -5002    -5654    -5203 
   -3950    -2795    -2370    -2914    -4345    -6137    -7506    -8028 
   -7931    -7647    -7410    -7281    -7173    -6925    -6306    -5096 
   -3559    -2432    -2206    -2740    -3415    -3613    -3165    -2344 
   -1701    -1652    -1996    -2310    -2488    -2495    -2200    -1697 
   -1409    -1644    -2106    -2234    -1850    -1110     -191      745 
    1564     2139     2382     2462     2621     2847     2991     2819 
    2211     1576     1416     1459     1033      261     -167     -250 
    -498    -1076    -1709    -1916    -1487     -525      685     1432 
    1305      895      886     1320     2095     3100     3559     2575 
     520    -1357    -2250    -2071    -1359     -990    -1434    -2482 
   -3663    -4524    -4729    -4296    -3576    -2943    -2649    -2623 
   -2557    -2505    -2788    -3411    -4282    -5295    -6053    -6234 
   -5665    -4277    -2756    -2197    -2946    -4398    -5710    -6401 
   -6391    -5897    -5348    -5183    -5630    -6467    -7192    -7409 
   -6976    -6227    -5833    -6126    -6776    -7124    -6833    -6261 
   -5952    -5824    -5492    -5089    -4941    -4872    -4392    -3300 
   -1948     -866     -367     -580    -1345    -2104    -2350    -1914 
    -873      428     1454     1849     1723     1343      720     -185 
   -1179    -1904    -2243    -2353    -2108    -1392     -668     -335 
    -289     -380     -520     -513     -126      544      849      346 
    -717    -2113    -3533    -4275    -4220    -3829    -3287    -2863 
   -2942    -3467    -4157    -4639    -4607    -4438    -4614    -4735 
   -4455    -4308    -4603    -4937    -5131    -5485    -6015    -6343 
   -6567    -7100    -7788    -8320    -8643    -8621    -8270    -8016 
   -8330    -9205   -10181   -10893   -11158   -11163   -11578   -12505 
  -13207   -13259   -12741   -11758   -10620    -9798    -9369    -9092 
   -9033    -9400    -9832    -9833    -9551    -9192    -8641    -8141 
   -8106    -8389    -8679    -8826    -8537    -7757    -6957    -6590 
   -6814    -7470    -8019    -7873    -6921    -5698    -4740    -4050 
   -3520    -3012    -2256    -1356     -481      597     1886     2996 
    3575     3536     3071     2231     1118      498     1100     2637 
    4168     5022     5116     4576     3540     2306     1332      965 
    1118     1403     1557     1480     1294     1368     1819     2198 
    1969     1327     1036     1330     1863     2336     2614     2732 
    2718     2510     2349     2432     2401     2076     1756     1646 
    1952     2683     3262     3111     2193      823     -584    -1740 
   -2578    -3114    -3494    -3890    -4215    -4327    -4246    -4053 
   -3858    -3825    -4168    -4933    -5716    -6001    -5860    -5864 
   -6389    -7423    -8708    -9681    -9839    -9269    -8417    -7656 
   -7150    -6983    -7162    -7337    -7293    -7140    -6630    -5708 
   -4919    -4434    -4101    -4077    -4508    -5130    -5534    -5706 
   -5833    -5885    -5974    -6172    -6027    -5324    -4421    -3648 
   -3353    -3846    -4868    -5725    -5932    -5344    -3928    -2135 
    -995     -929    -1274    -1392    -1156     -704     -334     -129 
     -10      -43     -275     -752    -1364    -1667    -1609    -1634 
   -1831    -2087    -2672    -3694    -4518    -4697    -4574    -4355 
   -4196    -4626    -5695    -6853    -7372    -6850    -5824    -4899 
   -4197    -4243    -5320    -6476    -6884    -6807    -6587    -6175 
   -5690    -5635    -6318    -7300    -8041    -8468    -8512    -8243 
   -8109    -8286    -8488    -8582    -8747    -8897    -8774    -8584 
   -8387    -7755    -6822    -6068    -5418    -4792    -4418    -4339 
   -4338    -4267    -4335    -4652    -4896    -4805    -4266    -3483 
   -2926    -2438    -1760    -1241     -864     -395     -211     -542 
   -1118    -1712    -2041    -1846    -1314     -860     -716    -1020 
   -1783    -2567    -2775    -2163     -953      144      430     -152 
   -1012    -1199     -320      980     1911     2144     1746      985 
      54     -794    -1105     -638      201      699      658      479 
     485      624      702      641      588      778     1074      872 
     -18     -943    -1374    -1409    -1354    -1437    -1566    -1455 
   -1164     -990     -993    -1072    -1206    -1393    -1481    -1248 
    -618      415     1773     3055     3863     4107     3714     2772 
    1777     1062      698      849     1434     2120     2563     2450 
    1866     1079      161     -688    -1241    -1439    -1227     -704 
    -269     -415    -1144    -1777    -1817    -1522    -1325    -1183 
    -838     -497     -625    -1271    -2147    -3119    -4193    -5263 
   -6043    -6223    -6034    -6112    -6552    -7045    -7444    -7809 
   -8264    -8620    -8634    -8603    -8866    -9227    -9357    -9175 
   -8683    -8007    -7477    -7323    -7583    -8084    -8384    -8309 
   -8012    -7474    -6805    -6426    -6475    -6590    -6439    -6035 
   -5543    -5256    -5460    -6089    -6843    -7399    -7567    -7368 
   -6741    -5781    -5154    -5275    -5693    -6110    -6819    -7575 
   -7510    -6521    -5352    -4426    -3792    -3682    -4171    -4895 
   -5479    -5855    -6023    -5883    -5535    -5255    -4923    -4285 
   -3648    -3415    -3654    -4333    -5084    -5401    -5219    -4668 
   -3994    -3660    -3748    -3888    -3882    -3772    -3563    -3144 
   -2551    -2091    -1889    -1832    -1946    -2183    -2233    -1932 
   -1422     -922     -689     -873    -1385    -2101    -2901    -3493 
   -3510    -3002    -2603    -2657    -2719    -2626    -2826    -3188 
   -3173    -2833    -2431    -2172    -2464    -3485    -4894    -6086 
   -6534    -6346    -6103    -6103    -6473    -7320    -8365    -9211 
   -9705    -9688    -9125    -8462    -8241    -8605    -9470   -10608 
  -11504   -11756   -11461   -11020   -10843   -11172   -11832   -12299 
  -12159   -11401   -10436    -9738    -9394    -9296    -9327    -9116 
   -8370    -7371    -6609    -6185    -5811    -5309    -4854    -4659 
   -4716    -4711    -4431    -4295    -4800    -5664    -6227    -6312 
   -6240    -6146    -5897    -5679    -5848    -6280    -6349    -5718 
   -4963    -4752    -5091    -5748    -6407    -6708    -6481    -5753 
   -4918    -4489    -4479    -4566    -4473    -4047    -3418    -2913 
   -2794    -3005    -3014    -2469    -1600     -580      401      909 
     837      401     -164     -466     -100      899     1989     2611 
    2510     1714      699      200      496     1279     2175     2956 
    3388     3288     2771     2218     1914     1810     1690     1361 
     837      553      763     1112     1328     1360     1022      338 
    -379     -990    -1521    -1906    -2148    -2347    -2471    -2556 
   -2845    -3314    -3587    -3549    -3487    -3574    -3681    -3660 
   -3496    -3350    -3428    -3674    -3900    -4179    -4678    -5201 
   -5264    -4878    -4673    -4779    -4675    -4230    -3705    -3041 
   -2196    -1679    -1818    -2340    -3007    -3458    -3111    -2105 
   -1217     -767     -627     -833    -1429    -2237    -3035    -3486 
   -3192    -2311    -1510    -1109     -991    -1163    -1684    -2308 
   -2636    -2496    -1988    -1294     -776     -743     -887     -844 
    -898    -1259    -1507    -1304     -825     -326       15       -9 
    -367     -748     -922     -919     -675      -97      397      298 
    -340    -1186    -1885    -2082    -1700     -933       69     1009 
    1193      211    -1368    -2539    -2780    -2218    -1270     -467 
    -346    -1030    -2118    -3169    -3872    -4139    -4291    -4704 
