Origin Time       2011/03/11 14:46:00
Lat.              38.103
Long.             142.860
Depth. (km)       24
Mag.              9.0
Station Code      NGN012
Station Lat.      36.2571
Station Long.     137.9796
Station Height(m) 637
Record Time       2011/03/11 14:48:14
Sampling Freq(Hz) 100Hz
Duration Time(s)  258
Dir.              E-W
Scale Factor      3920(gal)/6182761
Max. Acc. (gal)   8.556
Last Correction   2011/03/11 14:47:59
Memo.             
[...]
  -55228   -55550   -55668   -55601   -55459   -55225   -54821   -54328 
  -53912   -53663   -53569   -53515   -53406   -53250   -53100   -52995 
  -52975   -53112   -53493   -54133   -54901   -55565   -55957   -56088 
  -56096   -56115   -56236   -56575   -57116   -57691   -58203   -58593 
  -58786   -58763   -58536   -58241   -58112   -58227   -58467   -58652 
  -58713   -58720   -58677   -58490   -58135   -57733   -57423   -57228 
  -57120   -57076   -57087   -57186   -57375   -57639   -57988   -58334 
  -58521   -58458   -58104   -57491   -56727   -55916   -55106   -54249 
  -53305   -52411   -51803   -51552   -51476   -51363   -51154   -50863 
  -50480   -49976   -49388   -48852   -48471   -48261   -48186   -48189 
  -48190   -48034   -47653   -47252   -47070   -47092   -47158   -47230 
  -47449   -47878   -48393   -48861   -49265   -49632   -49911   -50085 
  -50274   -50573   -50930   -51249   -51561   -52017   -52619   -53163 
  -53483   -53596   -53586   -53454   -53220   -52994   -52880   -52961 
  -53259   -53616   -53803   -53782   -53688   -53638   -53620   -53574 
  -53560   -53700   -53945   -54188   -54413   -54630   -54851   -55074 
  -55272   -55422   -55457   -55301   -54959   -54470   -53925   -53467 
  -53156   -52971   -52904   -52951   -53088   -53262   -53325   -53138 
  -52772   -52398   -52111   -51954   -51935   -52029   -52193   -52418 
  -52745   -53159   -53589   -54020   -54440   -54804   -55104   -55297 
  -55282   -55077   -54819   -54571   -54272   -53882   -53463   -53041 
  -52590   -52100   -51573   -51048   -50504   -49798   -48986   -48331 
  -47912   -47665   -47642   -48031   -48922   -50055   -50970   -51395 
  -51453   -51528   -51869   -52396   -52884   -53233   -53580   -54089 
  -54660   -55023   -55088   -55043   -55088   -55206   -55253   -55200 
  -55154   -55197   -55261   -55244   -55210   -55327   -55609   -55885 
  -55979   -55855   -55561   -55117   -54526   -53845   -53182   -52626 
  -52178   -51767   -51354   -50927   -50457   -49958   -49502   -49097 
  -48616   -48028   -47530   -47232   -47034   -46891   -46809   -46700 
  -46488   -46177   -45816   -45516   -45374   -45365   -45424   -45578 
  -45890   -46349   -46895   -47493   -48106   -48655   -49058   -49367 
  -49795   -50537   -51591   -52804   -54031   -55184   -56164   -56851 
  -57216   -57405   -57644   -58045   -58568   -59060   -59329   -59332 
  -59210   -59065   -58836   -58432   -57955   -57633   -57490   -57361 
  -57191   -57091   -57141   -57234   -57220   -57191   -57377   -57820 
  -58325   -58665   -58786   -58879   -59194   -59697   -60019   -59856 
  -59272   -58554   -57885   -57276   -56661   -55961   -55184   -54454 
  -53919   -53592   -53350   -53134   -53066   -53252   -53621   -54081 
  -54648   -55288   -55886   -56392   -56835   -57262   -57679   -58022 
  -58225   -58329   -58433   -58570   -58762   -59080   -59543   -60031 
  -60448   -60811   -61035   -60906   -60393   -59686   -58903   -58056 
  -57128   -56096   -55065   -54183   -53368   -52388   -51227   -50095 
  -49057   -48022   -47086   -46490   -46297   -46316   -46325   -46293 
  -46255   -46172   -46038   -45855   -45600   -45306   -45085   -45087 
  -45340   -45693   -46119   -46777   -47684   -48664   -49634   -50665 
  -51817   -52984   -53959   -54663   -55271   -55982   -56768   -57522 
  -58267   -58998   -59556   -59806   -59798   -59641   -59320   -58785 
  -58138   -57518   -56950   -56397   -55849   -55426   -55332   -55504 
  -55586   -55430   -55256   -55281   -55437   -55564   -55746   -56180 
  -56802   -57318   -57518   -57529   -57658   -58005   -58420   -58693 
  -58680   -58325   -57619   -56635   -55512   -54377   -53385   -52644 
  -52186   -52064   -52228   -52508   -52789   -52989   -53124   -53355 
  -53731   -54129   -54426   -54661   -54956   -55187   -55127   -54831 
  -54419   -53878   -53287   -52810   -52584   -52727   -53223   -53851 
  -54323   -54506   -54488   -54456   -54521   -54570   -54505   -54566 
  -54965   -55534   -56026   -56443   -56954   -57569   -58048   -58248 
  -58201   -57927   -57390   -56534   -55427   -54336   -53479   -52853 
  -52388   -52051   -51770   -51477   -51195   -50939   -50634   -50233 
  -49838   -49593   -49516   -49502   -49463   -49463   -49657   -50067 
  -50612   -51294   -52147   -53154   -54247   -55223   -55898   -56367 
  -56874   -57438   -57846   -57949   -57848   -57735   -57638   -57428 
  -57070   -56726   -56516   -56385   -56268   -56166   -56091   -55991 
  -55746   -55345   -54924   -54596   -54403   -54343   -54391   -54477 
  -54485   -54433   -54474   -54678   -54960   -55176   -55272   -55302 
  -55300   -55286   -55268   -55198   -54979   -54501   -53803   -53107 
  -52599   -52317   -52218   -52219   -52249   -52272   -52274   -52246 
  -52160   -52027   -51946   -52004   -52235   -52606   -53028   -53339 
  -53347   -53139   -53113   -53451   -53985   -54499   -54876   -55201 
  -55621   -56053   -56241   -56001   -55429   -54802   -54285   -53898 
  -53542   -53076   -52476   -51801   -51081   -50283   -49384   -48458 
  -47642   -47100   -46999   -47318   -47794   -48222   -48677   -49319 
  -50130   -50930   -51577   -52093   -52582   -53142   -53878   -54804 
  -55744   -56361   -56435   -56113   -55670   -55206   -54687   -54044 
  -53274   -52524   -51975   -51612   -51182   -50475   -49587   -48842 
  -48466   -48359   -48248   -47998   -47742   -47695   -47989   -48645 
  -49580   -50728   -52034   -53277   -54149   -54502   -54493   -54455 
  -54530   -54644   -54752   -54903   -55195   -55617   -55963   -56065 
  -55996   -55941   -56000   -56148   -56286   -56326   -56306   -56282 
  -56211   -56083   -56003   -56126   -56447   -56720   -56709   -56411 
  -56001   -55626   -55232   -54666   -53959   -53330   -52923   -52698 
  -52541   -52407   -52323   -52233   -51972   -51503   -51024   -50699 
  -50448   -50176   -49970   -49855   -49681   -49329   -48843   -48396 
  -48104   -47976   -48054   -48390   -48987   -49810   -50757   -51692 
  -52518   -53238   -53989   -54947   -56136   -57347   -58344   -59077 
  -59583   -59818   -59688   -59204   -58570   -58039   -57687   -57449 
  -57306   -57237   -57135   -56870   -56321   -55394   -54073   -52487 
  -50882   -49514   -48495   -47744   -47198   -46909   -46831   -46845 
  -46967   -47272   -47758   -48302   -48737   -49020   -49244   -49518 
  -49876   -50254   -50597   -50911   -51212   -51488   -51747   -52051 
  -52373   -52554   -52549   -52468   -52371   -52257   -52113   -51983 
  -51981   -52115   -52228   -52157   -51838   -51319   -50776   -50419 
  -50307   -50314   -50352   -50461   -50706   -51055   -51335   -51467 
  -51612   -51881   -52234   -52655   -53131   -53581   -53846   -53792 
  -53511   -53219   -52980   -52727   -52475   -52344   -52318   -52142 
  -51568   -50584   -49365   -48135   -47085   -46394   -46157   -46272 
  -46663   -47367   -48262   -49088   -49670   -50025   -50363   -50839 
  -51413   -52013   -52624   -53280   -54005   -54702   -55220   -55465 
  -55441   -55281   -55161   -55141   -55145   -55111   -55083   -55155 
  -55364   -55667   -55880   -55781   -55400   -54959   -54593   -54337 
  -54146   -53956   -53779   -53629   -53564   -53744   -54204   -54830 
  -55472   -55936   -56089   -55919   -55523   -55148   -55006   -55111 
  -55410   -55860   -56413   -57010   -57458   -57490   -57107   -56607 
  -56247   -55972   -55519   -54744   -53652   -52324   -50922   -49610 
  -48525   -47734   -47266   -47215   -47577   -48114   -48573   -48864 
  -49086   -49318   -49442   -49385   -49308   -49407   -49804   -50545 
  -51598   -52916   -54407   -55864   -57090   -57932   -58281   -58200 
  -57878   -57494   -57215   -57169   -57443   -58018   -58646   -58988 
  -58935   -58605   -58149   -57709   -57393   -57190   -56995   -56770 
  -56629   -56710   -57053   -57603   -58211   -58636   -58674   -58301 
  -57677   -57088   -56791   -56788   -56858   -56850   -56817   -56930 
  -57309   -57905   -58575   -59202   -59627   -59621   -59135   -58421 
  -57807   -57496   -57505   -57687   -57871   -57901   -57630   -57055 
  -56463   -56251   -56514   -56977   -57383   -57743   -58189   -58634 
  -58735   -58309   -57530   -56643   -55728   -54797   -53958   -53387 
  -53140   -53071   -53018   -52933   -52826   -52725   -52643   -52585 
  -52597   -52723   -52943   -53153   -53266   -53313   -53371   -53439 
  -53392   -53029   -52240   -51157   -50068   -49264   -48865   -48751 
  -48721   -48654   -48451   -48044   -47506   -46966   -46506   -46179 
  -46010   -45913   -45750   -45520   -45398   -45543   -45959   -46544 
  -47216   -47962   -48733   -49364   -49682   -49661   -49436   -49124 
  -48730   -48340   -48184   -48380   -48907   -49687   -50588   -51522 
  -52416   -53172   -53667   -53797   -53613   -53219   -52649   -51996 
  -51396   -50983   -50864   -50977   -51101   -50984   -50536   -49908 
  -49301   -48902   -48871   -49231   -49920   -50890   -52019   -53127 
  -54038   -54640   -54939   -54954   -54597   -53806   -52722   -51658 
  -50862   -50360   -50093   -50066   -50245   -50427   -50337   -49859 
  -49154   -48567   -48405   -48811   -49829   -51398   -53319   -55328 
  -57145   -58663   -60002   -61257   -62382   -63243   -63738   -63975 
  -64161   -64345   -64419   -64296   -64060   -63790   -63401   -62767 
  -61804   -60482   -58968   -57666   -56912   -56713   -56877   -57192 
  -57476   -57574   -57316   -56601   -55592   -54631   -53942   -53597 
  -53631   -54016   -54660   -55483   -56426   -57391   -58179   -58600 
  -58689   -58712   -58937   -59395   -59836   -59935   -59538   -58735 
  -57745   -56727   -55774   -55058   -54819   -55178   -55975   -56858 
  -57565   -58002   -58102   -57773   -56927   -55585   -54002   -52543 
  -51376   -50520   -50083   -50195   -50849   -51900   -53124   -54388 
  -55672   -56929   -58051   -58904   -59375   -59428   -59065   -58334 
  -57423   -56529   -55696   -54962   -54369   -53774   -52976   -51952 
  -50856   -49894   -49198   -48903   -49218   -50180   -51502   -52753 
  -53631   -54081   -54272   -54430   -54640   -54883   -55178   -55551 
  -56067   -56726   -57324   -57650   -57653   -57424   -57174   -57070 
  -57135   -57393   -57900   -58506   -58969   -59197   -59097   -58540 
  -57498   -56089   -54666   -53615   -52991   -52626   -52404   -52203 
  -51844   -51244   -50470   -49677   -49009   -48517   -48193   -48024 
  -47927   -47816   -47708   -47640   -47617   -47681   -47863   -48102 
  -48291   -48382   -48443   -48623   -48958   -49186   -48940   -48135 
  -47005   -45805   -44640   -43526   -42605   -42189   -42367   -42883 
  -43492   -44084   -44579   -44909   -45009   -44895   -44715   -44566 
  -44428   -44308   -44234   -44217   -44281   -44457   -44816   -45436 
  -46287   -47269   -48298   -49333   -50422   -51596   -52706   -53560 
  -54141   -54515   -54786   -55146   -55722   -56458   -57208   -57797 
  -58094   -58086   -57733   -56938   -55815   -54717   -53996   -53856 
  -54254   -54991   -55834   -56528   -56928   -57085   -57058   -56874 
  -56665   -56631   -56895   -57479   -58332   -59355   -60385   -61181 
  -61451   -61006   -59874   -58200   -56144   -53941   -51901   -50262 
  -49155   -48682   -48788   -49161   -49502   -49771   -50091   -50601 
  -51377   -52383   -53538   -54737   -55857   -56850   -57752   -58645 
  -59606   -60528   -61097   -61141   -60786   -60229   -59677   -59243 
  -58846   -58375   -57637   -56372   -54559   -52394   -50129   -48035 
  -46294   -44998   -44239   -44124   -44712   -45880   -47371   -48983 
  -50504   -51672   -52328   -52488   -52302   -52028   -51932   -52066 
  -52231   -52316   -52422   -52566   -52579   -52362   -52014   -51699 
  -51487   -51298   -51077   -50925   -50952   -51245   -51881   -52673 
  -53258   -53564   -53758   -53921   -54112   -54416   -54828   -55256 
  -55520   -55506   -55361   -55284   -55325   -55569   -56089   -56703 
  -57139   -57289   -57137   -56777   -56432   -56277   -56465   -57091 
  -58020   -59046   -60051   -60917   -61504   -61723   -61517   -60790 
  -59537   -58032   -56683   -55722   -55062   -54531   -54171   -54099 
  -54292   -54454   -54193   -53593   -53091   -52902   -53080   -53593 
  -54270   -54967   -55582   -55971   -55932   -55340   -54381   -53519 
  -53218   -53608   -54533   -55840   -57258   -58333   -58854   -58932 
  -58575   -57636   -56169   -54457   -52833   -51644   -51107   -51137 
  -51423   -51623   -51561   -51354   -51215   -51161   -51138   -51264 
  -51662   -52207   -52599   -52672   -52514   -52153   -51515   -50710 
  -49933   -49255   -48643   -48066   -47657   -47599   -47891   -48330 
  -48713   -49011   -49257   -49464   -49703   -49993   -50260   -50509 
  -50746   -50894   -50911   -50770   -50466   -50020   -49350   -48469 
  -47716   -47487   -48026   -49360   -51117   -52750   -53988   -54818 
  -55311   -55484   -55220   -54467   -53389   -52281   -51332   -50482 
  -49686   -49033   -48511   -48028   -47494   -46827   -46109   -45584 
  -45440   -45691   -46341   -47498   -49115   -50891   -52592   -54246 
  -55912   -57551   -59109   -60440   -61317   -61705   -61713   -61316 
  -60508   -59537   -58662   -57925   -57229   -56496   -55712   -54888 
  -54118   -53426   -52556   -51392   -50290   -49627   -49578   -50200 
  -51276   -52433   -53482   -54401   -55107   -55551   -55829   -56057 
  -56304   -56561   -56923   -57587   -58505   -59616   -61079   -62837 
  -64523   -65768   -66355   -66267   -65633   -64589   -63176   -61480 
  -59774   -58325   -57228   -56410   -55793   -55449   -55348   -55372 
  -55523   -55683   -55740   -55747   -55599   -55161   -54634   -54396 
  -54617   -55164   -55791   -56356   -56853   -57270   -57499   -57451 
  -57154   -56656   -55995   -55170   -54155   -53065   -52048   -51127 
  -50304   -49508   -48701   -48076   -47808   -47855   -48147   -48687 
  -49390   -50000   -50266   -50224   -50174   -50343   -50723   -51199 
  -51730   -52447   -53375   -54224   -54766   -55035   -55100   -54980 
  -54703   -54382   -54136   -53971   -53894   -53864   -53647   -53117 
  -52468   -51863   -51279   -50759   -50414   -50306   -50439   -50700 
  -50932   -51054   -51028   -50814   -50457   -50176   -50098   -50077 
  -50073   -50237   -50617   -51212   -52015   -52897   -53733   -54382 
  -54693   -54755   -54711   -54589   -54545   -54783   -55363   -56181 
  -56936   -57400   -57647   -57798   -57826   -57722   -57565   -57402 
  -57231   -57060   -56837   -56467   -55920   -55244   -54566   -53983 
  -53426   -52825   -52171   -51390   -50433   -49363   -48226   -47107 
  -46188   -45623   -45530   -45867   -46379   -46888   -47332   -47594 
  -47637   -47549   -47476   -47608   -48045   -48773   -49746   -50828 
  -51757   -52258   -52163   -51558   -50892   -50614   -50757   -51079 
  -51422   -51791   -52188   -52503   -52557   -52207   -51568   -50983 
  -50623   -50390   -50182   -50094   -50264   -50537   -50684   -50758 
  -50906   -51213   -51658   -52052   -52296   -52433   -52392   -51987 
  -51172   -50137   -49035   -47931   -46923   -45933   -44783   -43505 
  -42371   -41825   -42114   -43019   -44202   -45441   -46613   -47694 
  -48602   -49294   -49993   -50907   -51931   -52778   -53226   -53320 
  -53282   -53229   -53244   -53484   -53938   -54319   -54410   -54394 
  -54518   -54550   -54164   -53549   -53111   -53038   -53247   -53492 
  -53693   -54103   -54924   -55951   -56909   -57788   -58685   -59651 
  -60712   -61891   -63120   -64179   -64925   -65297   -65271   -65049 
  -64854   -64630   -64198   -63444   -62410   -61254   -60169   -59341 
  -58836   -58606   -58590   -58653   -58623   -58476   -58385   -58577 
  -59069   -59608   -59938   -60030   -59950   -59717   -59300   -58647 
  -57775   -56843   -55967   -55081   -54081   -52944   -51727   -50672 
  -50100   -50027   -50208   -50549   -51167   -52106   -53181   -54169 
  -54971   -55571   -56022   -56343   -56417   -56224   -55977   -55902 
  -56018   -56198   -56368   -56504   -56586   -56659   -56717   -56644 
  -56423   -56249   -56322   -56616   -56943   -57095   -56996   -56724 
  -56352   -55916   -55537   -55337   -55248   -55100   -54772   -54194 
  -53333   -52154   -50734   -49301   -47927   -46591   -45462   -44697 
  -44361   -44546   -45275   -46434   -47844   -49386   -50990   -52498 
  -53809   -54955   -55808   -56209   -56327   -56323   -56088   -55735 
  -55622   -55781   -55987   -56162   -56390   -56665   -56828   -56894 
  -56985   -56915   -56531   -55936   -55182   -54403   -53811   -53405 
  -53049   -52688   -52360   -51994   -51431   -50754   -50181   -49814 
  -49686   -49792   -50096   -50551   -51130   -51748   -52226   -52553 
  -52833   -53016   -53163   -53550   -54226   -54928   -55497   -56040 
  -56597   -57034   -57267   -57339   -57355   -57406   -57480   -57541 
  -57675   -57980   -58298   -58413   -58345   -58212   -58035   -57825 
  -57635   -57457   -57309   -57441   -58039   -58861   -59519   -59871 
  -59995   -59990   -59837   -59407   -58671   -57813   -57029   -56318 
  -55560   -54685   -53687   -52536   -51207   -49777   -48428   -47327 
  -46497   -45853   -45330   -44967   -44871   -45081   -45548   -46197 
  -46968   -47843   -48756   -49482   -49822   -49812   -49554   -49104 
  -48621   -48278   -48124   -48248   -48775   -49645   -50606   -51365 
  -51725   -51653   -51257   -50663   -50026   -49554   -49336   -49287 
  -49304   -49409   -49590   -49733   -49912   -50224   -50529   -50723 
  -50708   -50343   -49793   -49370   -49136   -48997   -48899   -48790 
  -48554   -48171   -47834   -47672   -47634   -47723   -47908   -48200 
  -48741   -49505   -50313   -51030   -51650   -52244   -52772   -53244 
  -53693   -54042   -54251   -54277   -54109   -53860   -53579   -53305 
  -53169   -53227   -53448   -53796   -54171   -54585   -55088   -55505 
  -55797   -56118   -56367   -56429   -56496   -56620   -56585   -56330 
  -55966   -55486   -54773   -53860   -52945   -52185   -51656   -51333 
  -51040   -50684   -50412   -50347   -50524   -51004   -51719   -52571 
  -53569   -54630   -55703   -56845   -58059   -59296   -60417   -61334 
  -61992   -62163   -61732   -60845   -59616   -58128   -56610   -55310 
  -54262   -53454   -53017   -52886   -52764   -52642   -52674   -52728 
  -52610   -52346   -52015   -51653   -51291   -51005   -50872   -50807 
  -50702   -50645   -50663   -50564   -50308   -50070   -50017   -50186 
  -50347   -50403   -50706   -51286   -51683   -51794   -51783   -51527 
  -50937   -50171   -49499   -49192   -49282   -49615   -50104   -50590 
  -50847   -50907   -51005   -51360   -52072   -52934   -53637   -54087 
  -54270   -54141   -53716   -53082   -52398   -51858   -51545   -51498 
  -51646   -51704   -51527   -51243   -50937   -50625   -50350   -50114 
  -49879   -49627   -49360   -49157   -49076   -49034   -49067   -49443 
  -50144   -50635   -50636   -50590   -50902   -51268   -51278   -51079 
  -50868   -50474   -49973   -49679   -49525   -49322   -49019   -48453 
  -47521   -46457   -45547   -44708   -43752   -42948   -42775   -43122 
  -43418   -43679   -44405   -45410   -46044   -46346   -46765   -47252 
  -47628   -48154   -49018   -50028   -51027   -51974   -52768   -53345 
  -53751   -53996   -53999   -53756   -53375   -52958   -52589   -52301 
