Origin Time       2011/03/11 14:46:00
Lat.              38.103
Long.             142.860
Depth. (km)       24
Mag.              9.0
Station Code      NGN004
Station Lat.      36.6475
Station Long.     138.1941
Station Height(m) 361
Record Time       2011/03/11 14:48:13
Sampling Freq(Hz) 100Hz
Duration Time(s)  300
Dir.              E-W
Scale Factor      3920(gal)/6182761
Max. Acc. (gal)   8.608
Last Correction   2011/03/11 14:47:58
Memo.             
[...]
  -79853   -80489   -80887   -81115   -81349   -81438   -81109   -80402 
  -79666   -79157   -78901   -78836   -78851   -78870   -78908   -78897 
  -78627   -78089   -77605   -77443   -77682   -78291   -78985   -79323 
  -79226   -78985   -78641   -78127   -77722   -77622   -77853   -78460 
  -79141   -79480   -79475   -79343   -79271   -79364   -79547   -79689 
  -79822   -80073   -80471   -80866   -81042   -81114   -81409   -81846 
  -82099   -82101   -82041   -82073   -82207   -82534   -83075   -83509 
  -83697   -83830   -83829   -83533   -83106   -82710   -82358   -82056 
  -81757   -81427   -81028   -80552   -80153   -79955   -79992   -80178 
  -80193   -79919   -79681   -79632   -79508   -79143   -78648   -78152 
  -77750   -77508   -77509   -77794   -78249   -78822   -79474   -79931 
  -80120   -80234   -80185   -79971   -79861   -79726   -79441   -79219 
  -79176   -79468   -79993   -80317   -80306   -79967   -79424   -78741 
  -77661   -76335   -75272   -74664   -74530   -74779   -75032   -75015 
  -74813   -74518   -74212   -74024   -73770   -73232   -72624   -72202 
  -72028   -72107   -72218   -72198   -72172   -71945   -71347   -70817 
  -70748   -71075   -71390   -71447   -71507   -71727   -72044   -72499 
  -73109   -73746   -74205   -74394   -74386   -74325   -74251   -74086 
  -73938   -73996   -74287   -74729   -75036   -75049   -74998   -74942 
  -74683   -74268   -73901   -73644   -73437   -73193   -72847   -72454 
  -72227   -72310   -72525   -72543   -72344   -72251   -72338   -72306 
  -72059   -71822   -71779   -71910   -72030   -72029   -71980   -71934 
  -71849   -71727   -71738   -71972   -72303   -72791   -73514   -74122 
  -74377   -74520   -74727   -74953   -75238   -75624   -75988   -76247 
  -76517   -76875   -77126   -77060   -76791   -76712   -77209   -78182 
  -79006   -79342   -79439   -79542   -79638   -79612   -79425   -79282 
  -79347   -79502   -79614   -79538   -79159   -78627   -78121   -77740 
  -77586   -77650   -77823   -77959   -78008   -78089   -78236   -78446 
  -78845   -79513   -80280   -80827   -81028   -80912   -80508   -80006 
  -79605   -79164   -78615   -78445   -79042   -79959   -80596   -80896 
  -80975   -80954   -80998   -80984   -80652   -80017   -79395   -79219 
  -79476   -79670   -79638   -79640   -79978   -80787   -81624   -81921 
  -81764   -81474   -81072   -80412   -79518   -78647   -78004   -77753 
  -78069   -78580   -78536   -77997   -77751   -77930   -78078   -78057 
  -77992   -78101   -78497   -78830   -78797   -78628   -78628   -78849 
  -79257   -79764   -80087   -79964   -79631   -79623   -79892   -79934 
  -79811   -79948   -80220   -80077   -79295   -78299   -77600   -77233 
  -77150   -77390   -77765   -78061   -78379   -78697   -78534   -77942 
  -77591   -77564   -77760   -78200   -78703   -79312   -79812   -79963 
  -80050   -80015   -79723   -79372   -79067   -78951   -79011   -78980 
  -78931   -79192   -79662   -79993   -80034   -79855   -79814   -80045 
  -80305   -80472   -80444   -80190   -80018   -80163   -80264   -79938 
  -79585   -79492   -79455   -79463   -79288   -78736   -78075   -77515 
  -77211   -77033   -76686   -76303   -76134   -76252   -76464   -76413 
  -76125   -76053   -76392   -76812   -76911   -76590   -76262   -76418 
  -76842   -76963   -76614   -76066   -75761   -75931   -76308   -76390 
  -76127   -75810   -75532   -75373   -75336   -75265   -75435   -76078 
  -76780   -77343   -77943   -78422   -78611   -78657   -78723   -78931 
  -79304   -79650   -79819   -79863   -79769   -79516   -79394   -79689 
  -80253   -80683   -80766   -80709   -80736   -80810   -80889   -80863 
  -80600   -80267   -80108   -80237   -80707   -81170   -81205   -81222 
  -81535   -81728   -81766   -81795   -81818   -81889   -81814   -81672 
  -81636   -81569   -81536   -81504   -81428   -81552   -81824   -82033 
  -82271   -82517   -82557   -82474   -82369   -82269   -82407   -82710 
  -82857   -82872   -82956   -83201   -83607   -84197   -84711   -84869 
  -85054   -85328   -85329   -85399   -85804   -86348   -86711   -86667 
  -86636   -86813   -86790   -86467   -85920   -85306   -84901   -84738 
  -84771   -84987   -85224   -85305   -85206   -84886   -84430   -84139 
  -84044   -83970   -84014   -84259   -84519   -84586   -84389   -84091 
  -83919   -83839   -83679   -83373   -83160   -83241   -83221   -82591 
  -81309   -80045   -79543   -79387   -79050   -78827   -78878   -79043 
  -79000   -78635   -78347   -78370   -78354   -77821   -76898   -76128 
  -75595   -75064   -74552   -74056   -73271   -72210   -71485   -71366 
  -71415   -71235   -70861   -70581   -70750   -71525   -72318   -72193 
  -71155   -70065   -69778   -70145   -69974   -69131   -68740   -69325 
  -70194   -70232   -69417   -68735   -68661   -68813   -68632   -68025 
  -67346   -67070   -67502   -68306   -68641   -68144   -67521   -67717 
  -68625   -69223   -68845   -67854   -67146   -67288   -68103   -68819 
  -68690   -67810   -67133   -67376   -68223   -68774   -68732   -68775 
  -69440   -70521   -71409   -71471   -70992   -70954   -71583   -72369 
  -72668   -72259   -71785   -71747   -71878   -71833   -71505   -71173 
  -71358   -72067   -72755   -73071   -73123   -73141   -73320   -73716 
  -74023   -73857   -73330   -72839   -72535   -72378   -72348   -72340 
  -72193   -72056   -72339   -72963   -73362   -73456   -73653   -74078 
  -74504   -74643   -74453   -74318   -74474   -74752   -75156   -75716 
  -76087   -76133   -76170   -76455   -76898   -77136   -77059   -77088 
  -77399   -77597   -77522   -77528   -77872   -78369   -78857   -79469 
  -80096   -80404   -80456   -80671   -81189   -81485   -81261   -81230 
  -81757   -82274   -82357   -82029   -81724   -81613   -81434   -81344 
  -81354   -81282   -81435   -81965   -82648   -83140   -83111   -82894 
  -83212   -83784   -83797   -83372   -83095   -83206   -83559   -83982 
  -84430   -84543   -84386   -84543   -84952   -85432   -85756   -85609 
  -85591   -86045   -86520   -86799   -86799   -86873   -87183   -87287 
  -87430   -87722   -87637   -87268   -86972   -86700   -86202   -85367 
  -84556   -84297   -84529   -84763   -84723   -84362   -83966   -83812 
  -83628   -83179   -82571   -82030   -81875   -82024   -82013   -81825 
  -81777   -81815   -81781   -81783   -81814   -81797   -81761   -81740 
  -81788   -81750   -81670   -81687   -81511   -81354   -81464   -81665 
  -82098   -82432   -82450   -82537   -82623   -82656   -82535   -82109 
  -81722   -81491   -81496   -81850   -82143   -82160   -82035   -82019 
  -82417   -83029   -83492   -83693   -83505   -83178   -83229   -83405 
  -83102   -82538   -82129   -82134   -82703   -83162   -83137   -83036 
  -82976   -82984   -82769   -82053   -81327   -81053   -81331   -81791 
  -81677   -81136   -81052   -81540   -82169   -82551   -82300   -81619 
  -81256   -81552   -82080   -82091   -81500   -80756   -80172   -80501 
  -81539   -81562   -80638   -79822   -79239   -79484   -80289   -80704 
  -80668   -80142   -79805   -80206   -80468   -80110   -79525   -79129 
  -79106   -79250   -79159   -78855   -78797   -79103   -79516   -79595 
  -79189   -79015   -79313   -79466   -79242   -78757   -78270   -77995 
  -77946   -78162   -78393   -78318   -78134   -78126   -78192   -78372 
  -78792   -78917   -78415   -77941   -77946   -78015   -78006   -78128 
  -78034   -77698   -77613   -77679   -77423   -76767   -76331   -76396 
  -76422   -76353   -76421   -76458   -76529   -76881   -77284   -77182 
  -76383   -75497   -75165   -75049   -74584   -73868   -73263   -72985 
  -73168   -73709   -73921   -73421   -72759   -72601   -73109   -73515 
  -73250   -72950   -72987   -73144   -73102   -72546   -71848   -71705 
  -72144   -72489   -72224   -71562   -71026   -70904   -71057   -71064 
  -70512   -69612   -69328   -70074   -71014   -71246   -70787   -70227 
  -70093   -70480   -71047   -71250   -70643   -69542   -68995   -69438 
  -70157   -70272   -69843   -69814   -70530   -71168   -71181   -70923 
  -70962   -71454   -71874   -71742   -71206   -70721   -70730   -71165 
  -71536   -71623   -71491   -71460   -71833   -72334   -72551   -72443 
  -72136   -71855   -71805   -72019   -72335   -72289   -71729   -71340 
  -71461   -71597   -71582   -71566   -71529   -71530   -71467   -71235 
  -71142   -71259   -71481   -71833   -72171   -72473   -72704   -72707 
  -72727   -73019   -73448   -73743   -73725   -73572   -73554   -73703 
  -73974   -74245   -74483   -74882   -75529   -76387   -77260   -77877 
  -78329   -78724   -78895   -78791   -78566   -78449   -78458   -78400 
  -78404   -78861   -79645   -80078   -80142   -80412   -80836   -81089 
  -81013   -80670   -80474   -80327   -80050   -80010   -80093   -80072 
  -80271   -80786   -81246   -81295   -81080   -81106   -81466   -81682 
  -81525   -81261   -81070   -81103   -81409   -81752   -82007   -82037 
  -81796   -81636   -81873   -82406   -82544   -81819   -81037   -80939 
  -81072   -81090   -81133   -81270   -81455   -81534   -81707   -82058 
  -82070   -81824   -81899   -82180   -82218   -81888   -81379   -80998 
  -80864   -80845   -80780   -80579   -80272   -80031   -79948   -79904 
  -79659   -79123   -78712   -78768   -79047   -79337   -79540   -79563 
  -79658   -79939   -80170   -80353   -80515   -80406   -80045   -79743 
  -79634   -79660   -79541   -79302   -79371   -79729   -80124   -80298 
  -80073   -79736   -79538   -79521   -79573   -79355   -78810   -78259 
  -77936   -77853   -77835   -77592   -77190   -77067   -77347   -77736 
  -77887   -77692   -77260   -76830   -76789   -77145   -77273   -76763 
  -76028   -75774   -76369   -77446   -78042   -77911   -77829   -78275 
  -78969   -79370   -79316   -79055   -79035   -79609   -80214   -80232 
  -80093   -80212   -80503   -80737   -80645   -80250   -79790   -79589 
  -79844   -80295   -80671   -80911   -80896   -80695   -80656   -80907 
  -81179   -80966   -80214   -79838   -80334   -80973   -81252   -81106 
  -80648   -80388   -80268   -80101   -80219   -80375   -80473   -80786 
  -80876   -80729   -80806   -80971   -81079   -81140   -81237   -81483 
  -81508   -81062   -80415   -79879   -79760   -79900   -79701   -79151 
  -78765   -78808   -79088   -79211   -79180   -79250   -79210   -78978 
  -78974   -79075   -79034   -79053   -79195   -79733   -80489   -80830 
  -81093   -81459   -81656   -81768   -81561   -81093   -81050   -81531 
  -81853   -81539   -80891   -80373   -80203   -80547   -81131   -81336 
  -81040   -80703   -80827   -81340   -81568   -81271   -80851   -80646 
  -80782   -81225   -81683   -81581   -80939   -80602   -80832   -81206 
  -81194   -80589   -80126   -80441   -81185   -81650   -81578   -81402 
  -81522   -81817   -81853   -81345   -80529   -79857   -79691   -80060 
  -80373   -80095   -79537   -79301   -79467   -79684   -79537   -78914 
  -78143   -77659   -77681   -78032   -78277   -78108   -77601   -77391 
  -77946   -78638   -78754   -78381   -77819   -77591   -77872   -77935 
  -77585   -77267   -77175   -77398   -77605   -77447   -77146   -76867 
  -76695   -76688   -76695   -76676   -76573   -76362   -76175   -75940 
  -75693   -75579   -75350   -74858   -74395   -74263   -74419   -74465 
  -74137   -73702   -73579   -73729   -73967   -74331   -74532   -74390 
  -74305   -74299   -74347   -74648   -75040   -75495   -76042   -76557 
  -77027   -77257   -77183   -77142   -77292   -77519   -77735   -77922 
  -78090   -78272   -78586   -79031   -79277   -79173   -78957   -78862 
  -78983   -79106   -78978   -78793   -78716   -78599   -78461   -78568 
  -78903   -78984   -78660   -78422   -78512   -78635   -78511   -78089 
  -77558   -77290   -77365   -77441   -77389   -77434   -77665   -77938 
  -78160   -78260   -78029   -77565   -77320   -77292   -77137   -76867 
  -76686   -76593   -76463   -76191   -75831   -75560   -75366   -75100 
  -74782   -74581   -74548   -74509   -74383   -74282   -74199   -74047 
  -73868   -73708   -73528   -73409   -73456   -73531   -73543   -73484 
  -73291   -73111   -73095   -73222   -73415   -73429   -73208   -72987 
  -72778   -72502   -72234   -72027   -71918   -71988   -72299   -72678 
  -72728   -72440   -72250   -72351   -72610   -72908   -73149   -73230 
  -73168   -73055   -72938   -72913   -73110   -73561   -74171   -74699 
  -75052   -75279   -75232   -75091   -75131   -75124   -75001   -74775 
  -74591   -74796   -74972   -74718   -74246   -73752   -73607   -74013 
  -74681   -74988   -74366   -73219   -72519   -72581   -73035   -73350 
  -73317   -73266   -73555   -74126   -74541   -74326   -73521   -72669 
  -72379   -72822   -73428   -73547   -73069   -72483   -72572   -73272 
  -73664   -73294   -72773   -72990   -73640   -73860   -73650   -73281 
  -72881   -72835   -73415   -74069   -74177   -74151   -74527   -75197 
  -75883   -76351   -76600   -76857   -77219   -77697   -78263   -78810 
  -79202   -79263   -79093   -79293   -80173   -81220   -81858   -82016 
  -82204   -83060   -84228   -84825   -84845   -84716   -84786   -85285 
  -85904   -86365   -86692   -86883   -87239   -87724   -87705   -87241 
  -86953   -87052   -87396   -87830   -88377   -89001   -89397   -89459 
  -89447   -89588   -89876   -90111   -90150   -90137   -90305   -90551 
  -90566   -90375   -90284   -90457   -90728   -90863   -91015   -91257 
  -91310   -91289   -91379   -91452   -91516   -91440   -91238   -91218 
  -91194   -90964   -90704   -90493   -90402   -90485   -90683   -90892 
  -90867   -90549   -90252   -90249   -90551   -90960   -91331   -91662 
  -91831   -91724   -91396   -90980   -90701   -90672   -90783   -90887 
  -90931   -90970   -90900   -90568   -90236   -90207   -90282   -90066 
  -89522   -88921   -88431   -88095   -87918   -87760   -87503   -87133 
  -86690   -86334   -86064   -85744   -85486   -85451   -85552   -85601 
  -85515   -85325   -85122   -84995   -84872   -84653   -84382   -84032 
  -83539   -83075   -82842   -82742   -82634   -82561   -82536   -82542 
  -82402   -81881   -81330   -81103   -80932   -80680   -80430   -80165 
  -79918   -79662   -79398   -79236   -79154   -79148   -79262   -79356 
  -79310   -79256   -79360   -79510   -79433   -79091   -78641   -78283 
  -78251   -78451   -78474   -78209   -77961   -77913   -77954   -77968 
  -77829   -77562   -77417   -77271   -76988   -76852   -76720   -76343 
  -76003   -75918   -76105   -76388   -76472   -76430   -76380   -76278 
  -76092   -75758   -75406   -75231   -75223   -75352   -75547   -75689 
  -75704   -75606   -75563   -75662   -75703   -75519   -75221   -75013 
  -74981   -74928   -74606   -74128   -73755   -73531   -73375   -73237 
  -73076   -72817   -72407   -72061   -72153   -72575   -72813   -72693 
  -72382   -72036   -71776   -71576   -71325   -71083   -70940   -70871 
  -70773   -70632   -70532   -70407   -70226   -70188   -70298   -70282 
  -70110   -69993   -69929   -69896   -70043   -70261   -70352   -70364 
  -70352   -70386   -70544   -70816   -71114   -71173   -70990   -70946 
  -71000   -70895   -70857   -71034   -71296   -71734   -72328   -72813 
  -73025   -72950   -72827   -72878   -73047   -73250   -73273   -72985 
  -72783   -73055   -73606   -74076   -74421   -74739   -75039   -75344 
  -75639   -75809   -75830   -75869   -76172   -76697   -77071   -77133 
  -77004   -76790   -76646   -76764   -77113   -77445   -77651   -77849 
  -78014   -77989   -77926   -77976   -77954   -77884   -77959   -78046 
  -78032   -78077   -78272   -78570   -78988   -79483   -79783   -79750 
  -79550   -79291   -79049   -78963   -78916   -78667   -78314   -78127 
  -78110   -78074   -77917   -77720   -77613   -77569   -77467   -77254 
  -76993   -76745   -76539   -76434   -76363   -76184   -75937   -75690 
  -75458   -75274   -75130   -74994   -74843   -74794   -74969   -75137 
  -75151   -75240   -75433   -75564   -75688   -75868   -76078   -76403 
  -76857   -77290   -77624   -77811   -77802   -77680   -77519   -77252 
  -76855   -76461   -76186   -76090   -76194   -76356   -76426   -76426 
  -76522   -76848   -77275   -77508   -77442   -77260   -77182   -77239 
  -77438   -77595   -77422   -77230   -77335   -77561   -77852   -78068 
  -78104   -78108   -78084   -78256   -78637   -78765   -78689   -78675 
  -78706   -78796   -78879   -78876   -78835   -78900   -79341   -80047 
  -80414   -80169   -79720   -79647   -79986   -80314   -80422   -80351 
  -80268   -80245   -80109   -80037   -80166   -80089   -79892   -79898 
  -79948   -80036   -80093   -79983   -79900   -79836   -79737   -79682 
  -79579   -79421   -79259   -79090   -78923   -78701   -78525   -78472 
  -78351   -78219   -78181   -78077   -77913   -77761   -77642   -77687 
  -77899   -78156   -78332   -78266   -78024   -77949   -78159   -78352 
  -78310   -78170   -78159   -78323   -78466   -78474   -78510   -78585 
  -78547   -78484   -78506   -78529   -78512   -78506   -78548   -78636 
  -78791   -79079   -79400   -79617   -79810   -80009   -80127   -80181 
  -80204   -80200   -80236   -80390   -80614   -80822   -81047   -81267 
  -81339   -81217   -80949   -80670   -80527   -80449   -80369   -80387 
  -80499   -80660   -80810   -80829   -80816   -80856   -80772   -80516 
  -80201   -79921   -79749   -79637   -79470   -79275   -79253   -79484 
  -79793   -80038   -80151   -80108   -80056   -80084   -80150   -80192 
  -80118   -79959   -79914   -80138   -80568   -80900   -80981   -81040 
  -81246   -81468   -81612   -81681   -81604   -81411   -81309   -81308 
  -81168   -80947   -80920   -81000   -80997   -80956   -80929   -80935 
  -80962   -81034   -81265   -81596   -81877   -82086   -82198   -82293 
  -82542   -82850   -82979   -82899   -82666   -82292   -81894   -81662 
  -81615   -81686   -81958   -82461   -82969   -83320   -83524   -83544 
  -83348   -83047   -82838   -82760   -82609   -82340   -82235   -82383 
  -82483   -82325   -82004   -81594   -81141   -80794   -80581   -80401 
  -80220   -80069   -79955   -79799   -79567   -79364   -79250   -79174 
  -79090   -78966   -78726   -78325   -77913   -77659   -77549   -77541 
  -77546   -77353   -76985   -76740   -76641   -76509   -76409   -76403 
  -76462   -76746   -77227   -77510   -77425   -77158   -76898   -76759 
  -76782   -76890   -77020   -77132   -77206   -77350   -77542   -77594 
  -77607   -77702   -77685   -77534   -77464   -77516   -77547   -77405 
  -77165   -77071   -77157   -77284   -77393   -77532   -77766   -78064 
  -78314   -78342   -78081   -77860   -77994   -78358   -78735   -79032 
  -79222   -79278   -79180   -79106   -79176   -79170   -78974   -78766 
  -78646   -78628   -78806   -79112   -79224   -79085   -78941   -78861 
  -78810   -78730   -78536   -78330   -78210   -78074   -77940   -77997 
  -78226   -78463   -78676   -78896   -79238   -79694   -79926   -79808 
  -79582   -79415   -79402   -79603   -79839   -79873   -79766   -79771 
  -79871   -79874   -79795   -79688   -79525   -79446   -79574   -79795 
  -79897   -79806   -79731   -79899   -80227   -80473   -80469   -80217 
  -79829   -79400   -79027   -78821   -78809   -78936   -79157   -79425 
  -79614   -79707   -79837   -79981   -80048   -80128   -80227   -80169 
  -79916   -79620   -79426   -79339   -79218   -79037   -78946   -78987 
  -79070   -79149   -79220   -79302   -79369   -79348   -79275   -79166 
  -78941   -78673   -78500   -78405   -78348   -78331   -78308   -78279 
  -78435   -78931   -79567   -79997   -80084   -79967   -79810   -79542 
