Origin Time       2011/03/11 14:46:00
Lat.              38.103
Long.             142.860
Depth. (km)       24
Mag.              9.0
Station Code      NGN002
Station Lat.      36.8068
Station Long.     138.2069
Station Height(m) 677
Record Time       2011/03/11 14:47:59
Sampling Freq(Hz) 100Hz
Duration Time(s)  300
Dir.              U-D
Scale Factor      3920(gal)/6182761
Max. Acc. (gal)   11.368
Last Correction   2011/03/11 14:47:44
Memo.             
[...]
     548      561      601      552      329      -67     -545     -986 
   -1317    -1495    -1491    -1404    -1366    -1410    -1520    -1662 
   -1820    -2009    -2219    -2451    -2698    -2893    -2994    -3027 
   -3003    -2932    -2879    -2929    -3119    -3402    -3710    -4026 
   -4342    -4652    -4932    -5138    -5239    -5225    -5107    -4907 
   -4641    -4337    -4081    -3950    -3949    -4043    -4189    -4303 
   -4288    -4115    -3823    -3459    -3044    -2539    -1884    -1124 
    -358      361      990     1525     2018     2471     2835     3066 
    3156     3165     3151     3114     3069     3073     3141     3256 
    3434     3691     4032     4451     4881     5223     5416     5436 
    5262     4900     4413     3925     3563     3398     3428     3574 
    3747     3910     4019     4021     3911     3669     3238     2591 
    1780      933      194     -317     -557     -565     -383      -61 
     324      701     1014     1248     1410     1510     1606     1757 
    1936     2097     2242     2378     2465     2437     2285     2064 
    1820     1595     1432     1365     1418     1574     1793     2052 
    2301     2493     2598     2574     2433     2231     1964     1637 
    1337     1139     1029      939      828      719      640      545 
     378      151     -121     -444     -798    -1136    -1448    -1746 
   -2028    -2291    -2553    -2840    -3160    -3473    -3737    -3971 
   -4210    -4485    -4802    -5110    -5387    -5667    -5981    -6361 
   -6809    -7270    -7683    -7987    -8121    -8070    -7859    -7511 
   -7061    -6569    -6076    -5594    -5143    -4771    -4531    -4417 
   -4382    -4406    -4500    -4650    -4805    -4953    -5104    -5213 
   -5235    -5173    -5029    -4794    -4454    -3997    -3463    -2925 
   -2432    -2018    -1697    -1455    -1297    -1222    -1211    -1259 
   -1353    -1452    -1479    -1377    -1151     -839     -469      -54 
     394      815     1129     1292     1319     1269     1207     1176 
    1209     1317     1491     1713     1961     2242     2529     2763 
    2962     3150     3303     3423     3492     3444     3255     2981 
    2720     2571     2578     2742     3068     3550     4124     4703 
    5217     5614     5879     6033     6082     6075     6099     6189 
    6337     6537     6742     6888     6931     6879     6797     6745 
    6740     6766     6783     6732     6542     6194     5722     5174 
    4663     4310     4166     4231     4491     4933     5503     6110 
    6681     7138     7413     7509     7420     7141     6724     6211 
    5620     5005     4446     4016     3741     3551     3351     3124 
    2889     2670     2505     2439     2478     2608     2825     3110 
    3440     3797     4122     4339     4429     4425     4355     4227 
    4060     3886     3733     3594     3437     3232     2959     2601 
    2185     1791     1503     1401     1510     1765     2081     2368 
    2517     2458     2162     1620      863      -58    -1077    -2099 
   -3030    -3843    -4575    -5229    -5761    -6189    -6581    -6948 
   -7253    -7440    -7468    -7342    -7089    -6724    -6243    -5659 
   -5033    -4406    -3776    -3148    -2548    -2014    -1556    -1130 
    -711     -331       29      415      798     1117     1317     1350 
    1212      948      600      208     -168     -478     -694     -819 
    -883     -926     -962     -985    -1000    -1003     -965     -871 
    -711     -444      -78      289      570      720      702      531 
     285       43     -115     -127       21      298      622      882 
     978      889      691      495      378      360      435      585 
     798     1086     1416     1706     1931     2068     2081     2002 
    1903     1835     1851     1972     2178     2433     2701     2946 
    3082     3028     2810     2453     1969     1442      958      563 
     322      290      492      885     1346     1753     2001     2010 
    1825     1586     1388     1292     1390     1727     2222     2727 
    3138     3414     3548     3532     3357     3068     2729     2352 
    1933     1518     1154      824      445      -58     -662    -1309 
   -1956    -2555    -3055    -3395    -3516    -3418    -3163    -2825 
   -2466    -2134    -1835    -1550    -1280    -1064     -971    -1023 
   -1154    -1262    -1288    -1219    -1080     -939     -852     -860 
    -979    -1191    -1475    -1833    -2259    -2723    -3202    -3688 
   -4187    -4689    -5163    -5565    -5836    -5931    -5835    -5530 
   -5031    -4409    -3751    -3150    -2711    -2474    -2425    -2576 
   -2920    -3381    -3868    -4324    -4704    -4954    -5028    -4924 
   -4678    -4329    -3909    -3453    -3018    -2673    -2476    -2418 
   -2432    -2452    -2451    -2366    -2123    -1756    -1387    -1090 
    -887     -794     -849    -1127    -1670    -2425    -3301    -4192 
   -4971    -5540    -5870    -5975    -5888    -5676    -5396    -5055 
   -4693    -4358    -4015    -3625    -3215    -2836    -2535    -2344 
   -2273    -2323    -2513    -2863    -3363    -3961    -4580    -5132 
   -5527    -5728    -5761    -5646    -5357    -4882    -4246    -3488 
   -2643    -1781    -1012     -417      -34      115       67      -91 
    -282     -429     -480     -410     -229      -27      127      234 
     262      167      -87     -543    -1179    -1919    -2691    -3385 
   -3903    -4260    -4528    -4692    -4721    -4650    -4532    -4421 
   -4361    -4330    -4242    -4016    -3649    -3186    -2665    -2104 
   -1518     -949     -415      124      660     1127     1532     1952 
    2425     2940     3461     3922     4292     4541     4587     4411 
    4067     3597     3066     2577     2178     1857     1598     1368 
    1113      808      472      141     -132     -298     -336     -269 
    -166     -101     -137     -293     -545     -860    -1209    -1582 
   -1971    -2352    -2689    -2924    -3017    -2983    -2891    -2803 
   -2721    -2609    -2466    -2299    -2106    -1872    -1572    -1186 
    -684      -41      718     1508     2243     2865     3350     3710 
    3940     4014     3935     3765     3606     3529     3536     3598 
    3713     3880     4076     4260     4396     4496     4612     4752 
    4908     5087     5302     5581     5911     6227     6465     6573 
    6549     6452     6308     6104     5859     5578     5255     4918 
    4562     4142     3651     3099     2501     1935     1473     1098 
     740      347      -86     -501     -809     -957     -967     -913 
    -870     -897    -1060    -1364    -1762    -2220    -2695    -3098 
   -3354    -3441    -3393    -3287    -3190    -3165    -3259    -3482 
   -3787    -4093    -4303    -4349    -4217    -3950    -3608    -3265 
   -3002    -2883    -2953    -3223    -3651    -4168    -4695    -5117 
   -5308    -5185    -4709    -3889    -2817    -1643     -529      378 
     989     1265     1178      775      217     -323     -731     -945 
   -1003    -1007    -1026    -1111    -1294    -1573    -1948    -2387 
   -2792    -3088    -3223    -3137    -2866    -2526    -2175    -1838 
   -1546    -1325    -1222    -1266    -1414    -1584    -1682    -1662 
   -1573    -1474    -1374    -1276    -1185    -1052     -807     -476 
    -134      164      355      423      431      410      355      284 
     204      111       16      -87     -206     -347     -518     -695 
    -850    -1000    -1183    -1407    -1657    -1910    -2109    -2190 
   -2151    -2000    -1728    -1354     -955     -584     -199      208 
     600      981     1293     1471     1564     1653     1783     1973 
    2242     2567     2882     3173     3461     3709     3911     4139 
    4458     4875     5400     6026     6651     7143     7422     7434 
    7133     6499     5575     4475     3333     2284     1461      917 
     640      575      586      592      616      664      703      697 
     654      615      634      769     1017     1309     1571     1738 
    1768     1657     1428     1131      822      505      158     -232 
    -696    -1236    -1785    -2295    -2744    -3071    -3251    -3324 
   -3321    -3259    -3185    -3162    -3241    -3470    -3883    -4448 
   -5112    -5819    -6464    -6915    -7093    -6987    -6657    -6216 
   -5779    -5438    -5235    -5122    -5037    -4957    -4876    -4814 
   -4835    -4989    -5258    -5579    -5893    -6143    -6309    -6438 
   -6632    -6963    -7419    -7926    -8389    -8750    -8997    -9126 
   -9143    -9068    -8939    -8819    -8730    -8647    -8569    -8472 
   -8372    -8466    -8618    -8356    -8016    -8024    -7773    -7230 
   -6924    -6574    -6183    -6268    -6678    -6988    -7267    -7703 
   -8161    -8556    -8876    -8950    -8788    -8440    -7806    -6990 
   -6097    -5117    -4184    -3400    -2676    -1874     -976     -119 
     539      911     1049     1055      920      605      158     -304 
    -705    -1085    -1451    -1711    -1812    -1754    -1541    -1189 
    -713     -110      600     1372     2106     2646     2883     2768 
    2315     1638      886      193     -341     -689     -876     -952 
    -998    -1085    -1267    -1568    -1994    -2568    -3272    -4010 
   -4692    -5241    -5561    -5571    -5245    -4635    -3890    -3173 
   -2535    -1959    -1452    -1010     -629     -344     -170      -82 
     -35       44      219      532     1019     1662     2368     3062 
    3693     4177     4478     4615     4618     4517     4277     3823 
    3135     2264     1305      362     -488    -1201    -1781    -2257 
   -2634    -2861    -2857    -2599    -2119    -1452     -649      219 
    1117     2018     2835     3435     3696     3556     3043     2258 
    1284      179     -967    -2044    -2928    -3509    -3787    -3865 
   -3854    -3830    -3828    -3818    -3771    -3662    -3449    -3127 
   -2699    -2153    -1528     -929     -462     -210     -202     -380 
    -657    -1009    -1451    -1997    -2659    -3416    -4253    -5199 
   -6228    -7261    -8207    -8923    -9261    -9163    -8705    -8063 
   -7437    -6978    -6756    -6754    -6909    -7145    -7385    -7557 
   -7621    -7554    -7362    -7064    -6635    -6023    -5206    -4183 
   -2992    -1714     -432      758     1757     2527     3049     3256 
    3109     2635     1940     1207      586      117     -222     -456 
    -599     -629     -541     -378     -170       71      322      575 
     828     1092     1400     1785     2266     2842     3458     4044 
    4529     4851     5009     4997     4758     4287     3615     2790 
    1928     1123      412     -180     -724    -1326    -2009    -2763 
   -3532    -4213    -4778    -5231    -5561    -5809    -6006    -6137 
   -6241    -6392    -6605    -6847    -7089    -7332    -7579    -7834 
   -8112    -8382    -8569    -8614    -8484    -8169    -7710    -7177 
   -6594    -5911    -5106    -4244    -3410    -2668    -2042    -1554 
   -1265    -1206    -1371    -1728    -2137    -2433    -2543    -2426 
   -2084    -1604    -1059     -482       97      664     1198     1633 
    1892     1958     1827     1512     1078      579       39     -511 
   -1101    -1761    -2421    -3003    -3470    -3791    -3958    -3990 
   -3918    -3804    -3745    -3799    -3953    -4181    -4459    -4765 
   -5105    -5472    -5834    -6191    -6536    -6825    -7020    -7122 
   -7152    -7081    -6834    -6327    -5520    -4463    -3260    -2036 
    -935      -53      573      966     1230     1503     1866     2352 
    2998     3810     4716     5625     6473     7226     7880     8454 
    8943     9357     9765    10214    10715    11261    11791    12211 
   12454    12517    12448    12294    12080    11780    11350    10787 
   10110     9337     8481     7548     6589     5682     4877     4209 
    3682     3239     2831     2447     2043     1608     1209      894 
     681      561      472      345      121     -267     -837    -1555 
   -2355    -3142    -3837    -4392    -4753    -4889    -4829    -4613 
   -4276    -3859    -3394    -2891    -2407    -2048    -1872    -1883 
   -2049    -2282    -2493    -2669    -2823    -2941    -2992    -2948 
   -2794    -2580    -2423    -2412    -2563    -2819    -3106    -3398 
   -3707    -4062    -4468    -4890    -5267    -5538    -5645    -5567 
   -5348    -5051    -4699    -4316    -3954    -3652    -3399    -3123 
   -2742    -2247    -1722    -1302    -1076    -1036    -1139    -1331 
   -1518    -1614    -1596    -1492    -1366    -1284    -1251    -1267 
   -1364    -1529    -1714    -1865    -1925    -1889    -1798    -1664 
   -1486    -1302    -1190    -1243    -1516    -1998    -2673    -3515 
   -4438    -5333    -6091    -6598    -6754    -6456    -5647    -4430 
   -3018    -1623     -421      468      980     1118      982      720 
     470      351      423      701     1155     1699     2232     2673 
    2942     3009     2943     2878     2944     3237     3790     4563 
    5451     6309     6995     7432     7630     7631     7432     6996 
    6327     5496     4588     3685     2871     2205     1725     1439 
    1303     1220     1120      992      823      632      512      529 
     676      901     1104     1178     1027      572     -178    -1132 
   -2198    -3313    -4428    -5487    -6429    -7224    -7900    -8552 
   -9269   -10035   -10789   -11531   -12297   -13117   -13980   -14806 
  -15553   -16226   -16817   -17321   -17747   -18099   -18367   -18500 
  -18456   -18303   -18150   -18022   -17838   -17466   -16757   -15615 
  -14063   -12226   -10287    -8426    -6750    -5320    -4211    -3456 
   -3026    -2855    -2847    -2907    -2964    -2953    -2782    -2364 
   -1676     -740      377     1570     2746     3860     4922     5978 
    7060     8138     9124     9917    10429    10601    10454    10040 
    9444     8836     8334     7959     7758     7731     7870     8207 
    8654     9098     9531     9896    10077    10012     9694     9192 
    8597     7951     7322     6792     6381     6090     5917     5825 
    5767     5681     5482     5103     4535     3831     3038     2161 
    1196      138    -1056    -2405    -3828    -5196    -6381    -7279 
   -7885    -8280    -8548    -8723    -8809    -8823    -8778    -8709 
   -8681    -8738    -8873    -9022    -9073    -8953    -8654    -8192 
   -7637    -7075    -6525    -5994    -5493    -5007    -4570    -4216 
   -3942    -3784    -3783    -3901    -4095    -4354    -4651    -4982 
   -5379    -5799    -6166    -6452    -6617    -6640    -6588    -6545 
   -6576    -6737    -7028    -7400    -7809    -8204    -8523    -8713 
   -8722    -8567    -8326    -8057    -7786    -7545    -7359    -7237 
   -7167    -7131    -7116    -7139    -7224    -7362    -7544    -7768 
   -8035    -8329    -8578    -8705    -8637    -8310    -7714    -6923 
   -6067    -5264    -4579    -4021    -3550    -3072    -2444    -1528 
    -262     1296     2995     4666     6157     7377     8317     8994 
    9441     9749    10012    10236    10400    10521    10620    10706 
   10775    10809    10791    10687    10498    10318    10237    10258 
   10364    10556    10812    11069    11239    11221    10957    10449 
    9739     8964     8335     7973     7828     7791     7774     7713 
    7592     7374     7013     6561     6102     5655     5240     4865 
    4525     4253     4009     3722     3406     3036     2534     1917 
    1227      481     -229     -829    -1373    -1918    -2498    -3160 
   -3857    -4474    -4996    -5505    -6116    -6914    -7845    -8739 
   -9455    -9907   -10063    -9962    -9656    -9203    -8673    -8059 
   -7310    -6453    -5567    -4707    -3916    -3237    -2679    -2237 
   -1881    -1524    -1089     -528      161      901     1591     2192 
    2684     3027     3203     3241     3160     2946     2607     2202 
    1821     1529     1343     1278     1314     1388     1463     1518 
    1558     1628     1752     1871     1837     1503      838     -112 
   -1238    -2398    -3486    -4361    -4913    -5151    -5092    -4795 
   -4408    -4045    -3805    -3767    -3930    -4291    -4854    -5554 
   -6308    -7035    -7645    -8117    -8483    -8748    -8892    -8871 
   -8627    -8193    -7639    -6981    -6228    -5366    -4343    -3202 
   -2066    -1052     -286      170      367      401      386      442 
     633      976     1469     2056     2644     3156     3564     3888 
    4198     4557     4933     5247     5444     5487     5357     5084 
    4678     4112     3379     2508     1595      807      296      169 
     480     1161     2066     3064     4048     4933     5640     6075 
    6186     6008     5622     5119     4578     4049     3547     3096 
    2721     2358     1884     1221      349     -682    -1723    -2624 
   -3308    -3753    -3982    -4042    -3949    -3704    -3362    -2978 
   -2544    -2062    -1570    -1104     -722     -454     -261     -113 
     -12        3     -159     -559    -1172    -1901    -2602    -3146 
   -3454    -3506    -3351    -3040    -2606    -2075    -1467     -824 
    -174      524     1283     2036     2714     3279     3733     4088 
    4326     4406     4246     3778     3031     2046      844     -429 
   -1568    -2448    -3002    -3192    -2993    -2429    -1601     -645 
     270     1014     1529     1783     1805     1651     1383     1096 
     870      779      858     1067     1273     1296     1029      463 
    -350    -1315    -2308    -3205    -3977    -4661    -5284    -5906 
   -6552    -7165    -7720    -8220    -8643    -9016    -9390    -9785 
  -10163   -10442   -10568   -10513   -10240    -9784    -9251    -8701 
   -8158    -7631    -7100    -6553    -5989    -5371    -4648    -3790 
   -2792    -1711     -660      273     1016     1451     1492     1173 
     578     -201    -1002    -1623    -1950    -1985    -1795    -1438 
    -936     -346      234      750     1171     1447     1578     1601 
    1594     1682     1916     2225     2576     3031     3617     4341 
    5205     6165     7143     8069     8866     9479     9922    10252 
   10493    10677    10883    11151    11414    11544    11423    11023 
   10381     9566     8681     7818     7039     6385     5865     5464 
    5159     4949     4831     4736     4573     4283     3859     3343 
    2762     2134     1522      947      395     -157     -792    -1583 
   -2497    -3465    -4443    -5393    -6294    -7115    -7786    -8236 
   -8443    -8411    -8147    -7742    -7335    -7027    -6871    -6834 
   -6861    -6903    -6871    -6716    -6437    -6027    -5532    -5021 
   -4511    -4031    -3673    -3521    -3569    -3740    -3948    -4153 
   -4331    -4400    -4273    -3930    -3371    -2608    -1731     -893 
    -243       99      114     -126     -503     -861    -1127    -1331 
   -1473    -1553    -1599    -1618    -1634    -1718    -1885    -2085 
   -2270    -2375    -2322    -2096    -1740    -1316     -910     -578 
    -330     -174     -113     -143     -300     -617    -1050    -1521 
   -1985    -2403    -2730    -2928    -2952    -2803    -2538    -2203 
   -1832    -1473    -1136     -760     -193      749     2112     3755 
    5453     7018     8333     9299     9846     9989     9778     9296 
