Origin Time       2011/03/11 14:46:00
Lat.              38.103
Long.             142.860
Depth. (km)       24
Mag.              9.0
Station Code      NGN016
Station Lat.      35.9133
Station Long.     138.2229
Station Height(m) 965
Record Time       2011/03/11 14:47:48
Sampling Freq(Hz) 100Hz
Duration Time(s)  300
Dir.              N-S
Scale Factor      3920(gal)/6182761
Max. Acc. (gal)   43.336
Last Correction   2011/03/11 14:47:33
Memo.             
[...]
  -85946   -81893   -78185   -75230   -73163   -72059   -71827   -71936 
  -71718   -70755   -69007   -66691   -63921   -60706   -57276   -54072 
  -51557   -50019   -49424   -49574   -50313   -51470   -52778   -53912 
  -54598   -54747   -54401   -53615   -52443   -50868   -48832   -46424 
  -43914   -41635   -39813   -38384   -37111   -35801   -34332   -32713 
  -31128   -29838   -29094   -29081   -29857   -31312   -33197   -35231 
  -37087   -38313   -38663   -38514   -38571   -39116   -39852   -40354 
  -40312   -39580   -38221   -36437   -34531   -32912   -31957   -31826 
  -32272   -32696   -32558   -31611   -29806   -27285   -24455   -21876 
  -20062   -19414   -20143   -22025   -24467   -26909   -29012   -30494 
  -31122   -31012   -30825   -31409   -33123   -35562   -37975   -39808 
  -40767   -40672   -39663   -38556   -38674   -40948   -45213   -50509 
  -55792   -60176   -62960   -63785   -62837   -60817   -58635   -57061 
  -56449   -56721   -57551   -58352   -58464   -57747   -56622   -55450 
  -54267   -52976   -51467   -49660   -47580   -45412   -43511   -42182 
  -41324   -40477   -39126   -36860   -33587   -29590   -25320   -21409 
  -18618   -17333   -17283   -17816   -18167   -17762   -16658   -15590 
  -15446   -16593   -18779   -21558   -24652   -28020   -31696   -35556 
  -39443   -43434   -47609   -51644   -55043   -57578   -59271   -60240 
  -60651   -60640   -60367   -60263   -60878   -62388   -64547   -66871 
  -68715   -69398   -68366   -65523   -61386   -56866   -52969   -50433 
  -49434   -49573   -50028   -49960   -48909   -46771   -43688   -40071 
  -36435   -33254   -31090   -30469   -31387   -33110   -34625   -35239 
  -34772   -33391   -31478   -29582   -28271   -27899   -28465   -29647 
  -30931   -31777   -31782   -30781   -28963   -27070   -26128   -26777 
  -29036   -32360   -35816   -38673   -40726   -41875   -41909   -40957 
  -39803   -39494   -40661   -43089   -45893   -48070   -48861   -47993 
  -45872   -43379   -41409   -40516   -40709   -41623   -42812   -43822 
  -44241   -43697   -41939   -39183   -36072   -33204   -30832   -28896 
  -27317   -26226   -25767   -25844   -26059   -25840   -24823   -23157 
  -21391   -20058   -19320   -18943   -18596   -18138   -17593   -16954 
  -16053   -14618   -12522    -9854    -6866    -4033    -1891     -838 
   -1160    -3065    -6652   -11730   -17611   -23353   -28171   -31624 
  -33695   -34721   -35301   -36115   -37697   -40345   -44029   -48418 
  -53065   -57554   -61685   -65442   -68917   -72369   -76060   -80102 
  -84520   -89126   -93500   -97404  -100828  -103603  -105384  -105944 
 -105361  -103942  -101927   -99268   -95868   -91978   -88138   -84731 
  -81861   -79652   -78291   -77702   -77406   -76730   -75160   -72643 
  -69412   -65606   -61373   -57171   -53572   -50784   -48370   -45562 
  -42036   -38072   -33997   -30039   -26636   -24408   -23853   -25051 
  -27452   -30215   -32762   -34847   -36352   -37209   -37414   -37113 
  -36584   -36006   -35358   -34663   -34150   -33998   -34054   -33923 
  -33185   -31525   -28783   -24986   -20378   -15418   -10791    -7272 
   -5316    -4830    -5359    -6342    -7246    -7748    -7812    -7593 
   -7447    -7832    -9013   -10974   -13527   -16318   -18801   -20460 
  -21047   -20575   -19349   -17993   -17276   -17913   -20299   -24188 
  -28849   -33545   -37760   -41059   -43043   -43505   -42539   -40546 
  -38033   -35303   -32525   -29979   -28038   -27014   -26951   -27618 
  -28763   -30062   -31014   -31351   -31393   -31957   -33907   -37463 
  -42007   -46699   -50998   -54642   -57340   -58561   -57900   -55586 
  -52344   -48914   -45676   -42695   -40182   -38483   -37663   -37582 
  -38164   -39285   -40737   -42317   -43851   -45306   -46770   -48114 
  -48849   -48438   -46754   -44166   -41192   -38294   -35844   -34125 
  -33338   -33490   -34327   -35500   -36699   -37597   -37842   -37148 
  -35449   -33035   -30487   -28453   -27663   -28930   -32680   -38531 
  -45326   -51586   -56191   -58718   -59346   -58488   -56491   -53937 
  -51693   -50141   -48921   -47319   -44579   -40200   -34084   -26418 
  -17652    -8517       53     7034    11713    14049    14447    13415 
   11577     9662     8137     6785     4798     1249    -4504   -12503 
  -22096   -32160   -41258   -48031   -51970   -53494   -53393   -52554 
  -51810   -51851   -53185   -55948   -59785   -64069   -68298   -72272 
  -75942   -79249   -82053   -84170   -85446   -85807   -85401   -84600 
  -83753   -83064   -82729   -83035   -84116   -85630   -86915   -87333 
  -86327   -83484   -78796   -72722   -66010   -59541   -53985   -49504 
  -45946   -43000   -40253   -37430   -34409   -31208   -27899   -24388 
  -20542   -16425   -12319    -8731    -6275    -5399    -6307    -9020 
  -13294   -18536   -23985   -28994   -33352   -37430   -41875   -47198 
  -53476   -60185   -66359   -71026   -73529   -73586   -71192   -66721 
  -61052   -55192   -49868   -45511   -42097   -39061   -35737   -31667 
  -26580   -20746   -15224   -11374   -10064   -11142   -13682   -16682 
  -19319   -20864   -20816   -19227   -16934   -15314   -15532   -18005 
  -22415   -27871   -33085   -36651   -37402   -34874   -29612   -22946 
  -16438   -11659   -10105   -12552   -18423   -26067   -33675   -40055 
  -44752   -47882   -50104   -52395   -55593   -60059   -65432   -70580 
  -74090   -74978   -72941   -68175   -61342   -53649   -46476   -40756 
  -36599   -33419   -30554   -27731   -24871   -21820   -18545   -15339 
  -12737   -11207   -10857   -11454   -12698   -14262   -15677   -16386 
  -15919   -14167   -11545    -8751    -6581    -5979    -7702   -11782 
  -17483   -23754   -29706   -34848   -38956   -41968   -44176   -46197 
  -48582   -51454   -54451   -57061   -59022   -60367   -61079   -60965 
  -60081   -58763   -57203   -55389   -53282   -50986   -48691   -46321 
  -43581   -40474   -37503   -35368   -34607   -35425   -37735   -41297 
  -45825   -50905   -56030   -60900   -65616   -70425   -75350   -80332 
  -85450   -90650   -95582   -99698  -102367  -103162  -101982   -98928 
  -94336   -88802   -83040   -77684   -73195   -69773   -67234   -65068 
  -62787   -60152   -57041   -53455   -49808   -46896   -45457   -45737 
  -47324   -49393   -51134   -52020   -51857   -50733   -49028   -47221 
  -45582   -44193   -43077   -42158   -41351   -40760   -40780   -41817 
  -43767   -46044   -48171   -50149   -52392   -55353   -59097   -63314 
  -67579   -71322   -73762   -74064   -71646   -66482   -59202   -50818 
  -42438   -35219   -30082   -27200   -25916   -25237   -24409   -23030 
  -20950   -18469   -16349   -15489   -16477   -19124   -22581   -26050 
  -29029   -31153   -32217   -32359   -32133   -32303   -33501   -36076 
  -40044   -45113   -50599   -55285   -57836   -57552   -54648   -50074 
  -45176   -41367   -39806   -40957   -44232   -48222   -51387   -52541 
  -50971   -46689   -40754   -34911   -30755   -29144   -30032   -32700 
  -36070   -38699   -39024   -36063   -29914   -21723   -13093    -5333 
     726     4614     6379     6574     5854     4639     2901      373 
   -2914    -6759   -11037   -15312   -18811   -20868   -21279   -20455 
  -19258   -18764   -20045   -23733   -29654   -36829   -43939   -50061 
  -54953   -58789   -61810   -64126   -65820   -67072   -68035   -68612 
  -68442   -67160   -64574   -60708   -55960   -51057   -46725   -43543 
  -41715   -40780   -40024   -39094   -37950   -36684   -35592   -35127 
  -35833   -38154   -42067   -47079   -52511   -57612   -61789   -64905 
  -67248   -69272   -71206   -72937   -74334   -75261   -75383   -74410 
  -72314   -69407   -66361   -63767   -61862   -60755   -60327   -59976 
  -58855   -56264   -52036   -46741   -41356   -36884   -34149   -33365 
  -33760   -33857   -32315   -28727   -23777   -18708   -14877   -13518 
  -15324   -20171   -26906   -33482   -37919   -39042   -36708   -32094 
  -27406   -24875   -25837   -30264   -36900   -43765   -48758   -50338 
  -48205   -43430   -37869   -33521   -31949   -33687   -38084   -43586 
  -48451   -51558   -52553   -51694   -49712   -47366   -45267   -43932 
  -43412   -43013   -41639   -38469   -33519   -27517   -21313   -15634 
  -11137    -8287    -7192    -7625    -9008   -10462   -11252   -11266 
  -11120   -11809   -14179   -18629   -24819   -31641   -37930   -43019 
  -46676   -48989   -50257   -50912   -51505   -52475   -53900   -55523 
  -57038   -58371   -59494   -60258   -60801   -61609   -63063   -65365 
  -68556   -72169   -75252   -76787   -75954   -72451   -66816   -60253 
  -54112   -49506   -47132   -47047   -48646   -50904   -52611   -52882 
  -51708   -49887   -48450   -48149   -49276   -51551   -54059   -55502 
  -54786   -51576   -46355   -40009   -33511   -27904   -24050   -22104 
  -21498   -21388   -20911   -19424   -16799   -13581   -10833    -9474 
   -9838   -11730   -14415   -16912   -18452   -18509   -16944   -14328 
  -11784   -10460   -11150   -13939   -18155   -22810   -26987   -30036 
  -31784   -32553   -33055   -34148   -36480   -40195   -44810   -49487 
  -53494   -56423   -58229   -59230   -60116   -61781   -64837   -69199 
  -74016   -78075   -80347   -80124   -77073   -71465   -64274   -56852 
  -50262   -45085   -41674   -40007   -39502   -39219   -38202   -36104 
  -33462   -31137   -29788   -29669   -30755   -32939   -35912   -39147 
  -42150   -44739   -47166   -49707   -52294   -54795   -57256   -59717 
  -62071   -64147   -65848   -67320   -68803   -70186   -71032   -70923 
  -69677   -67569   -65124   -62640   -60257   -58173   -56517   -55199 
  -54037   -52867   -51539   -50052   -48534   -47228   -46585   -46927 
  -48160   -50110   -52704   -55775   -58850   -61282   -62594   -62546 
  -61146   -58692   -55635   -52507   -49735   -47343   -45206   -43383 
  -41944   -40743   -39406   -37607   -35323   -32721   -29965   -27157 
  -24454   -22207   -20678   -19764   -19143   -18413   -17264   -15605 
  -13426   -10738    -7832    -5323    -3608    -2546    -1748     -841 
     518     2631     5570     8906    11926    14162    15575    16434 
   16995    17272    17172    16671    15874    14929    13815    12234 
    9704     5861      711    -5478   -12403   -19618   -26375   -31850 
  -35370   -36489   -35297   -32630   -29641   -27300   -26185   -26315 
  -27311   -28621   -29602   -29896   -29551   -28680   -27469   -26442 
  -26359   -27866   -31150   -35830   -41193   -46512   -51249   -55139 
  -58178   -60566   -62597   -64440   -65966   -66891   -67005   -66265 
  -64739   -62394   -59119   -55100   -50824   -46714   -43023   -39913 
  -37522   -35916   -34900   -34088   -33371   -32908   -32678   -32480 
  -32162   -31638   -30905   -29954   -28699   -27149   -25542   -24196 
  -23279   -22776   -22763   -23545   -25336   -28114   -31654   -35488 
  -39058   -41830   -43379   -43516   -42328   -40171   -37631   -35312 
  -33565   -32410   -31702   -31154   -30294   -28656   -25984   -22426 
  -18540   -15033   -12586   -11660   -12281   -14054   -16328   -18437 
  -19991   -21050   -22064   -23722   -26705   -31261   -37102   -43583 
  -49718   -54323   -56416   -55608   -52440   -48198   -44252   -41650 
  -40987   -42015   -43560   -44177   -42840   -39437   -34799   -30185 
  -26909   -26070   -28143   -32754   -38825   -45071   -50541   -54937 
  -58600   -62218   -66415   -71366   -76732   -81652   -84774   -84923 
  -81836   -76320   -69981   -64549   -61295   -60807   -62861   -66480 
  -70251   -72760   -73053   -71004   -67404   -63674   -61186   -60620 
  -61875   -64364   -67142   -69105   -69522   -68271   -65690   -62501 
  -59507   -57170   -55557   -54522   -53813   -52979   -51308   -48188 
  -43629   -38278   -33014   -28593   -25500   -23981   -23960   -24972 
  -26387   -27703   -28742   -29646   -30848   -33079   -36838   -41896 
  -47566   -53012   -57412   -60266   -61464   -61176   -59957   -58612 
  -57597   -56689   -55270   -52716   -48602   -42868   -35965   -28781 
  -22401   -17689   -14918   -13785   -13583   -13449   -12786   -11397 
   -9527    -7908    -7389    -8491   -11172   -14903   -19040   -23015 
  -26318   -28590   -29905   -30896   -32272   -34372   -37141   -40257 
  -43328   -45993   -48021   -49425   -50458   -51495   -52708   -53927 
  -54833   -55135   -54691   -53437   -51251   -48279   -45230   -42985 
  -42052   -42288   -43035   -43554   -43245   -41746   -38940   -34879 
  -29977   -25158   -21633   -20429   -21953   -25884   -31280   -36914 
  -41694   -44858   -46061   -45400   -43468   -41362   -40378   -41462 
  -44783   -49828   -55714   -61226   -65034   -66283   -65026   -62051 
  -58466   -55416   -53701   -53477   -54351   -55506   -55885   -54570 
  -51016   -45212   -37621   -28894   -19849   -11457    -4563      334 
    3102     3986     3528     2329      973       69      232     1967 
    5229     9207    12784    15075    15599    14187    10895     6194 
    1034    -3593    -7131    -9649   -11731   -14178   -17837   -23433 
  -31117   -40233   -49653   -58414   -66031   -72245   -76671   -78911 
  -78956   -77311   -74833   -72447   -70768   -69996   -70037   -70569 
  -71151   -71373   -70962   -69797   -67832   -65094   -61757   -58077 
  -54224   -50308   -46562   -43522   -41854   -41862   -43200   -45024 
  -46412   -46797   -46082   -44491   -42651   -41625   -42355   -45152 
  -49817   -55804   -62162   -67673   -71296   -72596   -71982   -70546 
  -69553   -70061   -72720   -77732   -84814   -92873  -100306  -105871 
 -108997  -109718  -108368  -105217  -100574   -94960   -89038   -83431 
  -78406   -73856   -69751   -66219   -63307   -60894   -58807   -57028 
  -55631   -54580   -53708   -52918   -52312   -51970   -51791   -51525 
  -50783   -49271   -46914   -43755   -40034   -36147   -32469   -29194 
  -26287   -23652   -21233   -18931   -16665   -14530   -12791   -11586 
  -10813   -10301    -9852    -9305    -8639    -7906    -7341    -7417 
   -8435   -10197   -12156   -13709   -14400   -14052   -12778   -10856 
   -8678    -6671    -5164    -4435    -4590    -5365    -6310    -6895 
   -6714    -5822    -4482    -2861    -1138      494     1845     2663 
    2682     1729     -335    -3622    -8031   -13250   -18966   -24862 
  -30479   -35235   -38781   -41326   -43425   -45552   -47914   -50339 
  -52310   -53332   -53117   -51577   -48981   -46003   -43431   -41905 
  -41755   -42842   -44630   -46485   -48008   -49197   -50325   -51759 
  -53771   -56327   -59127   -61749   -63795   -65161   -66017   -66531 
  -66824   -67018   -67178   -67278   -67288   -67248   -67305   -67758 
  -68883   -70723   -73134   -75883   -78655   -81057   -82604   -82716 
  -80996   -77555   -72894   -67635   -62392   -57728   -54078   -51498 
  -49617   -47896   -45953   -43701   -41190   -38592   -36237   -34415 
  -33207   -32381   -31528   -30448   -29110   -27344   -24922   -21702 
  -17613   -12784    -7669    -2898      938     3487     4706     4658 
    3467     1511     -720    -2948    -5096    -7245    -9720   -13001 
  -17562   -23719   -31377   -39933   -48452   -56047   -62193   -66728 
  -69742   -71563   -72757   -73902   -75331   -77060   -78782   -80033 
  -80393   -79447   -76814   -72328   -66130   -58700   -50821   -43465 
  -37634   -34142   -33332   -34816   -37555   -40344   -42280   -43015 
  -42794   -42226   -42047   -42875   -44824   -47419   -49827   -51028 
  -50211   -47346   -43249   -39134   -36124   -34901   -35596   -37817 
  -40800   -43716   -45935   -47067   -46890   -45514   -43500   -41467 
  -39943   -39414   -40056   -41693   -43886   -45912   -47136   -47395 
  -46803   -45495   -43813   -42319   -41277   -40415   -39083   -36591 
  -32743   -27916   -22702   -17693   -13375   -10123    -8153    -7303 
   -7044    -6737    -5913    -4486    -2687     -862      613     1349 
    1186      417     -426     -898     -810     -255      589     1542 
    2223     2098      688    -2149    -5968   -10124   -14266   -18249 
  -22038   -25796   -29811   -34327   -39365   -44713   -50074   -55119 
  -59607   -63443   -66538   -68941   -70932   -72659   -74019   -74926 
  -75303   -75036   -74157   -72733   -70695   -68081   -65134   -62167 
  -59488   -57231   -55272   -53367   -51257   -48846   -46272   -43719 
  -41352   -39404   -38101   -37482   -37349   -37410   -37449   -37244 
  -36452   -34788   -32220   -29040   -25794   -23035   -21032   -19849 
  -19743   -20938   -23193   -26072   -29315   -32888   -36929   -41530 
  -46591   -51923   -57301   -62277   -66186   -68514   -69267   -68936 
  -68164   -67539   -67523   -68353   -69875   -71622   -73125   -74047 
  -74299   -74057   -73602   -73269   -73416   -74270   -75738   -77456 
  -79133   -80643   -81959   -83042   -83747   -83977   -83712   -82972 
  -81984   -81048   -80217   -79252   -77759   -75462   -72428   -68887 
  -65000   -60940   -56906   -53066   -49701   -47076   -45180   -43893 
  -43133   -42722   -42421   -42035   -41387   -40416   -39226   -37978 
  -36993   -36690   -37109   -37741   -37888   -37082   -35212   -32362 
  -28704   -24493   -20173   -16440   -13963   -13082   -13811   -15893 
  -18816   -21941   -24827   -27348   -29497   -31352   -32985   -34292 
  -35243   -35956   -36411   -36508   -36282   -35898   -35614   -35665 
  -36080   -36728   -37481   -38220   -38866   -39428   -39965   -40442 
  -40592   -40118   -39047   -37662   -36113   -34366   -32419   -30399 
  -28520   -26903   -25431   -23886   -22231   -20699   -19588   -19028 
  -19080   -19813   -21051   -22330   -23195   -23445   -23216   -22860 
  -22681   -22847   -23461   -24476   -25581   -26407   -26754   -26588 
  -26049   -25455   -25191   -25540   -26431   -27416   -27980   -27809 
  -26792   -25039   -22951   -21130   -20186   -20504   -22034   -24384 
  -27017   -29346   -30915   -31517   -31203   -30252   -29070   -28020 
  -27250   -26721   -26376   -26213   -26283   -26701   -27598   -29100 
  -31391   -34538   -38366   -42639   -47101   -51467   -55578   -59376 
  -62783   -65766   -68398   -70729   -72740   -74470   -76067   -77668 
  -79258   -80630   -81513   -81820   -81632   -81047   -80279   -79616 
  -79235   -79118   -78992   -78498   -77475   -75929   -73807   -71029 
  -67712   -64055   -60197   -56273   -52371   -48680   -45505   -43002 
  -41228   -40278   -40239   -41084   -42517   -44156   -45775   -47253 
  -48630   -50024   -51384   -52548   -53419   -54068   -54640   -55174 
  -55546   -55629   -55485   -55396   -55834   -57211   -59506   -62325 
  -65191   -67591   -69041   -69281   -68229   -66024   -63228   -60512 
  -58337   -56987   -56470   -56479   -56467   -55757   -53787   -50344 
  -45680   -40410   -35238   -30775   -27437   -25246   -23726   -22202 
  -20225   -17658   -14736   -12113   -10429    -9937   -10506   -11575 
  -12320   -12115   -10746    -8312    -5177    -1880     1133     3606 
    5436     6718     7669     8580     9852    11857    14612    17712 
   20627    22920    24262    24422    23355    21332    18854    16306 
   13686    10733     7210     3000    -1980    -7795   -14326   -21134 
  -27702   -33771   -39260   -44043   -47941   -50850   -52881   -54331 
  -55425   -56196   -56705   -57098   -57387   -57328   -56580   -54995 
  -52754   -50258   -47898   -45925   -44497   -43648   -43128   -42342 
  -40577   -37446   -33027   -27735   -22339   -17707   -14376   -12460 
