Origin Time       2011/03/11 14:46:00
Lat.              38.103
Long.             142.860
Depth. (km)       24
Mag.              9.0
Station Code      NGN005
Station Lat.      36.6987
Station Long.     137.8630
Station Height(m) 702
Record Time       2011/03/11 14:48:34
Sampling Freq(Hz) 100Hz
Duration Time(s)  221
Dir.              N-S
Scale Factor      3920(gal)/6182761
Max. Acc. (gal)   7.712
Last Correction   2011/03/11 14:48:19
Memo.             
[...]
  -27978   -27879   -27223   -26770   -26985   -27676   -28373   -28512 
  -27717   -26327   -25098   -24409   -24346   -24929   -25806   -26412 
  -26567   -26344   -25705   -24756   -23988   -23811   -23930   -24016 
  -24229   -24425   -24627   -25201   -25700   -25841   -26109   -26502 
  -26674   -26386   -25668   -25215   -25335   -25601   -26005   -26487 
  -26460   -25776   -25042   -25207   -25968   -25608   -24214   -23533 
  -23517   -23380   -23637   -24323   -24842   -25599   -26797   -27481 
  -26981   -25563   -24174   -23979   -25231   -26879   -27671   -27575 
  -27484   -27602   -27571   -27732   -28323   -28374   -27474   -26922 
  -27153   -26934   -26246   -26443   -27656   -28775   -29269   -29430 
  -29083   -27849   -26567   -26013   -25837   -25971   -26410   -26634 
  -26587   -26477   -26231   -26232   -26944   -27599   -27343   -26663 
  -26118   -25573   -24996   -24742   -24954   -25142   -25181   -25645 
  -26459   -26982   -27157   -27284   -27257   -27110   -27288   -27564 
  -27459   -27237   -27051   -26801   -26628   -26568   -26740   -27280 
  -27853   -28037   -27931   -27854   -27621   -27162   -27127   -27575 
  -27943   -28391   -28990   -29111   -28777   -28399   -27914   -27643 
  -28029   -28546   -28849   -29529   -30354   -30327   -29780   -29534 
  -29291   -29005   -29381   -30232   -30768   -30902   -30725   -30035 
  -29008   -28355   -28452   -28816   -28998   -29081   -29035   -28904 
  -28927   -28874   -28572   -28500   -28786   -28915   -28847   -28906 
  -28953   -28778   -28449   -27977   -27513   -27455   -27768   -28026 
  -28155   -28148   -27720   -27039   -26888   -27594   -28462   -28808 
  -28814   -28700   -28408   -28251   -28333   -28405   -28708   -29191 
  -29216   -28809   -28468   -28313   -28245   -28341   -28871   -29617 
  -29877   -29648   -29242   -28537   -27884   -27728   -27670   -27617 
  -28032   -28685   -29025   -29070   -28855   -28311   -27763   -27528 
  -27658   -27970   -28150   -28261   -28510   -28717   -28760   -28773 
  -28573   -28010   -27722   -28007   -28283   -28488   -28730   -28517 
  -27980   -27927   -28349   -28640   -28838   -29080   -29081   -29079 
  -29538   -30196   -30607   -30659   -30416   -30021   -29516   -28964 
  -28647   -28685   -28892   -29147   -29339   -29282   -29047   -28768 
  -28312   -27795   -27492   -27245   -26941   -26766   -26694   -26523 
  -26236   -26050   -26106   -26187   -26154   -26099   -25977   -25907 
  -26068   -26067   -25687   -25510   -25774   -26065   -26408   -26977 
  -27383   -27421   -27407   -27515   -27787   -28257   -28743   -29051 
  -29173   -29114   -28939   -28826   -28918   -29257   -29612   -29655 
  -29550   -29517   -29301   -28965   -28985   -29226   -29358   -29621 
  -29982   -30009   -29818   -29585   -29056   -28393   -28220   -28577 
  -28876   -28888   -28745   -28408   -28094   -28163   -28278   -28038 
  -27748   -27611   -27387   -27033   -26722   -26495   -26335   -26348 
  -26461   -26364   -26085   -25773   -25336   -25031   -25189   -25560 
  -25775   -25751   -25564   -25327   -25159   -25091   -25009   -25051 
  -25431   -25770   -25645   -25366   -25347   -25472   -25532   -25637 
  -25869   -26010   -25991   -26055   -26135   -25949   -25671   -25549 
  -25464   -25401   -25405   -25237   -24891   -24787   -24939   -24934 
  -24864   -25050   -25223   -25082   -24875   -24808   -24784   -24750 
  -24680   -24492   -24178   -23912   -23864   -23876   -23750   -23583 
  -23465   -23400   -23446   -23575   -23630   -23482   -23316   -23452 
  -23808   -24122   -24267   -24137   -23898   -23898   -24091   -24325 
  -24765   -25366   -25667   -25605   -25583   -25657   -25742   -25983 
  -26209   -26203   -26298   -26743   -27240   -27488   -27525   -27486 
  -27382   -27203   -27108   -27277   -27538   -27602   -27610   -27805 
  -28079   -28256   -28265   -28155   -28193   -28460   -28548   -28362 
  -28397   -28626   -28609   -28537   -28648   -28649   -28396   -28031 
  -27748   -27792   -28108   -28345   -28440   -28544   -28506   -28108 
  -27640   -27523   -27554   -27468   -27497   -27623   -27557   -27448 
  -27533   -27653   -27559   -27239   -26877   -26612   -26467   -26467 
  -26547   -26526   -26421   -26378   -26287   -25957   -25453   -25028 
  -24856   -24946   -25175   -25270   -25124   -24975   -24811   -24405 
  -24047   -24030   -24005   -23799   -23677   -23642   -23549   -23417 
  -23200   -22935   -22927   -23245   -23597   -23828   -23862   -23545 
  -23129   -23027   -23077   -23023   -23033   -23178   -23294   -23297 
  -23148   -22871   -22628   -22617   -22831   -23061   -23303   -23593 
  -23687   -23674   -23931   -24222   -24198   -24117   -24172   -24316 
  -24613   -24914   -25026   -25042   -24952   -24758   -24741   -24965 
  -25152   -25172   -25172   -25304   -25447   -25413   -25301   -25191 
  -25041   -24968   -24961   -24876   -24869   -25074   -25242   -25176 
  -25009   -24807   -24524   -24358   -24431   -24423   -24177   -24052 
  -24150   -24144   -24074   -24160   -24288   -24404   -24631   -24939 
  -25166   -25268   -25326   -25396   -25553   -25787   -25940   -25994 
  -26034   -26070   -26073   -25972   -25845   -25883   -26064   -26272 
  -26439   -26534   -26581   -26533   -26402   -26433   -26600   -26679 
  -26821   -27093   -27218   -27197   -27277   -27428   -27478   -27423 
  -27255   -26952   -26727   -26722   -26753   -26706   -26679   -26689 
  -26742   -26908   -26990   -26783   -26631   -26818   -27021   -27041 
  -27073   -27147   -27159   -27117   -27082   -27065   -27010   -26946 
  -26941   -26935   -26967   -27098   -27155   -27111   -27087   -26986 
  -26780   -26631   -26579   -26611   -26769   -26995   -27191   -27332 
  -27318   -27109   -26959   -27036   -27213   -27421   -27664   -27836 
  -27875   -27779   -27598   -27521   -27614   -27845   -28273   -28716 
  -28860   -28760   -28625   -28456   -28250   -28210   -28462   -28814 
  -29036   -29067   -28933   -28708   -28503   -28410   -28479   -28687 
  -28866   -28775   -28444   -28129   -27864   -27597   -27556   -27859 
  -28161   -28214   -28137   -27934   -27550   -27196   -27045   -27055 
  -27113   -27085   -26981   -26936   -26929   -26894   -26882   -26898 
  -26911   -26871   -26726   -26633   -26684   -26670   -26580   -26648 
  -26804   -26879   -26898   -26844   -26724   -26687   -26709   -26613 
  -26444   -26365   -26416   -26569   -26686   -26603   -26416   -26297 
  -26259   -26271   -26234   -26047   -25835   -25700   -25517   -25262 
  -24997   -24750   -24605   -24483   -24221   -23919   -23628   -23228 
  -22834   -22606   -22413   -22168   -21963   -21807   -21630   -21421 
  -21235   -21096   -20987   -20926   -20883   -20820   -20840   -20969 
  -21047   -21031   -21012   -21019   -21141   -21453   -21746   -21796 
  -21770   -21866   -21962   -21968   -21986   -22053   -22173   -22414 
  -22709   -22883   -22939   -23004   -23089   -23194   -23436   -23755 
  -23921   -23965   -24040   -24103   -24105   -24072   -24028   -23995 
  -23957   -23972   -24106   -24225   -24199   -24103   -24021   -23965 
  -23969   -24021   -24028   -23964   -23910   -23975   -24185   -24321 
  -24196   -23997   -23930   -23960   -24050   -24191   -24324   -24449 
  -24575   -24684   -24822   -24986   -25094   -25154   -25224   -25324 
  -25465   -25605   -25725   -25898   -26051   -26070   -26080   -26155 
  -26188   -26224   -26305   -26290   -26205   -26218   -26293   -26301 
  -26267   -26268   -26279   -26287   -26350   -26396   -26295   -26148 
  -26108   -26101   -26041   -26077   -26290   -26464   -26503   -26580 
  -26601   -26379   -26129   -26059   -26070   -26022   -25890   -25805 
  -25846   -25859   -25778   -25671   -25538   -25439   -25454   -25494 
  -25447   -25312   -25159   -25095   -25152   -25207   -25169   -25162 
  -25264   -25330   -25287   -25196   -25076   -25009   -25114   -25321 
  -25418   -25367   -25340   -25377   -25372   -25363   -25437   -25516 
  -25580   -25686   -25723   -25653   -25615   -25566   -25449   -25407 
  -25405   -25279   -25119   -25056   -25026   -24958   -24852   -24767 
  -24784   -24799   -24710   -24672   -24716   -24724   -24764   -24851 
  -24826   -24754   -24841   -24986   -24991   -24913   -24862   -24853 
  -24885   -24954   -25049   -25117   -25146   -25260   -25467   -25656 
  -25861   -26102   -26316   -26513   -26656   -26728   -26828   -26946 
  -26992   -26985   -27015   -27153   -27354   -27507   -27591   -27587 
  -27508   -27448   -27375   -27233   -27161   -27189   -27240   -27375 
  -27565   -27664   -27663   -27623   -27533   -27406   -27326   -27261 
  -27161   -27093   -27028   -26923   -26884   -26874   -26786   -26724 
  -26740   -26680   -26549   -26506   -26517   -26488   -26384   -26221 
  -26130   -26134   -26167   -26231   -26291   -26353   -26397   -26316 
  -26209   -26238   -26329   -26411   -26510   -26525   -26407   -26275 
  -26168   -26134   -26266   -26397   -26327   -26212   -26200   -26231 
  -26306   -26350   -26288   -26242   -26195   -26073   -26021   -26092 
  -26145   -26201   -26316   -26329   -26209   -26097   -26002   -25942 
  -25980   -26052   -26101   -26109   -26024   -25878   -25801   -25880 
  -26001   -25998   -25910   -25873   -25953   -26088   -26204   -26325 
  -26370   -26312   -26315   -26438   -26569   -26585   -26573   -26670 
  -26769   -26857   -27069   -27282   -27336   -27355   -27444   -27505 
  -27459   -27385   -27409   -27539   -27693   -27825   -27950   -28053 
  -28103   -28141   -28222   -28312   -28330   -28269   -28212   -28182 
  -28184   -28255   -28331   -28368   -28422   -28492   -28540   -28578 
  -28618   -28684   -28786   -28841   -28798   -28750   -28782   -28858 
  -28942   -29071   -29225   -29318   -29303   -29211   -29190   -29301 
  -29401   -29451   -29520   -29516   -29424   -29370   -29342   -29384 
  -29585   -29756   -29758   -29694   -29553   -29324   -29161   -29097 
  -29051   -29056   -29120   -29117   -29010   -28943   -28961   -28919 
  -28808   -28804   -28824   -28682   -28568   -28632   -28661   -28572 
  -28472   -28372   -28347   -28456   -28555   -28539   -28456   -28427 
  -28473   -28470   -28479   -28637   -28777   -28831   -28996   -29136 
  -29015   -28926   -29047   -29046   -28846   -28684   -28553   -28363 
  -28176   -28058   -27976   -27840   -27690   -27658   -27672   -27591 
  -27463   -27311   -27158   -27170   -27279   -27212   -27042   -27026 
  -27096   -27084   -27094   -27213   -27296   -27283   -27330   -27433 
  -27411   -27331   -27320   -27300   -27247   -27220   -27254   -27382 
  -27517   -27534   -27491   -27461   -27428   -27503   -27714   -27870 
  -27959   -28056   -28111   -28139   -28224   -28359   -28417   -28399 
  -28458   -28543   -28505   -28353   -28159   -27966   -27772   -27580 
  -27425   -27357   -27392   -27424   -27414   -27431   -27370   -27164 
  -27044   -27118   -27219   -27267   -27276   -27185   -26945   -26692 
  -26592   -26553   -26421   -26295   -26319   -26383   -26347   -26287 
  -26240   -26143   -26049   -26007   -26025   -26158   -26306   -26321 
  -26279   -26266   -26262   -26302   -26410   -26574   -26679   -26614 
  -26558   -26646   -26768   -26910   -27028   -27045   -27042   -27028 
  -26997   -27099   -27360   -27639   -27824   -27873   -27842   -27851 
  -27915   -27966   -28034   -28141   -28217   -28259   -28320   -28371 
  -28401   -28440   -28428   -28326   -28248   -28248   -28268   -28252 
  -28212   -28216   -28190   -28091   -28204   -28515   -28599   -28500 
  -28465   -28346   -28183   -28235   -28347   -28376   -28558   -28842 
  -28884   -28775   -28835   -28974   -28936   -28830   -28851   -28839 
  -28698   -28710   -28830   -28643   -28240   -27905   -27562   -27336 
  -27443   -27603   -27565   -27442   -27248   -26967   -26752   -26662 
  -26610   -26608   -26734   -26863   -26747   -26431   -26152   -25960 
  -25874   -26011   -26310   -26534   -26578   -26523   -26332   -25967 
  -25707   -25725   -25844   -25942   -25987   -25893   -25698   -25569 
  -25569   -25602   -25646   -25767   -25791   -25564   -25359   -25298 
  -25259   -25424   -25747   -25824   -25741   -25673   -25521   -25514 
  -25550   -25190   -25250   -26243   -26482   -25501   -25398   -26175 
  -25728   -24982   -26004   -26950   -26042   -25744   -26881   -26466 
  -24869   -25250   -26440   -26192   -26366   -27352   -26316   -24503 
  -25233   -26415   -25653   -25618   -27130   -27230   -26040   -25748 
  -25775   -25323   -25385   -26229   -26971   -26729   -25633   -25084 
  -25578   -26352   -26902   -26650   -25970   -26241   -26987   -27034 
  -26923   -27144   -26931   -25801   -24907   -25589   -26708   -26761 
  -26906   -27355   -26192   -24598   -25325   -27079   -27548   -27272 
  -26834   -25927   -25479   -26454   -27624   -27605   -27309   -27676 
  -27940   -27822   -27929   -27887   -27188   -26742   -27118   -27411 
  -27457   -27799   -27672   -26881   -26941   -27721   -27540   -26833 
  -26845   -26841   -26577   -27054   -27356   -26557   -26272   -26948 
  -27129   -26870   -26750   -26393   -25981   -26071   -26458   -26670 
  -26649   -26507   -26261   -26170   -26305   -26210   -26049   -26461 
  -26966   -26764   -26312   -26112   -25908   -25876   -26140   -25928 
  -25191   -25202   -26145   -26538   -26073   -25763   -25511   -25015 
  -24847   -24884   -24996   -25796   -26592   -26185   -24968   -24023 
  -23955   -24159   -23774   -23162   -22011   -20006   -20054   -24556 
  -31073   -36203   -39013   -39029   -35724   -29539   -21755   -15751 
  -15473   -20562   -27377   -32719   -34104   -31786   -29150   -27717 
  -26498   -25354   -24678   -24892   -26496   -28333   -28972   -29187 
  -29770   -30332   -31510   -33859   -35745   -35248   -32062   -27714 
  -24793   -24267   -24959   -26573   -29698   -32936   -33628   -30727 
  -26058   -23078   -23199   -25170   -28516   -32680   -34688   -33162 
  -30463   -28510   -27348   -26947   -27569   -29395   -31688   -32408 
  -30037   -25841   -22561   -21309   -22362   -26201   -31016   -33272 
  -31949   -29151   -26921   -25552   -24735   -24932   -26931   -29907 
  -31566   -31127   -29679   -28090   -27256   -28011   -29284   -29403 
  -28612   -27626   -26238   -25200   -25884   -27204   -27249   -26543 
  -25557   -23951   -23144   -23661   -24039   -24664   -26183   -27200 
  -27666   -28688   -29542   -29573   -29573   -29862   -29852   -28847 
  -26917   -25335   -25151   -26144   -27622   -28825   -28778   -27139 
  -25138   -24130   -24006   -24795   -26931   -29017   -29219   -27878 
  -26285   -25283   -25438   -26443   -27326   -28012   -28980   -29840 
  -30012   -29606   -28575   -26992   -26222   -26994   -27645   -27242 
  -26970   -26909   -26277   -25744   -25910   -26557   -27660   -28602 
  -28674   -28277   -27812   -27415   -27450   -27808   -28288   -29030 
  -29735   -29953   -29625   -28907   -28303   -28294   -28720   -29142 
  -29179   -28684   -28298   -28602   -28852   -28616   -28795   -29361 
  -29434   -29559   -30387   -30946   -30812   -30885   -31212   -31376 
  -31601   -31636   -31132   -30673   -30725   -31113   -31675   -32220 
  -32291   -31550   -30376   -29754   -30147   -30925   -31350   -31308 
  -30958   -30552   -30424   -30652   -31037   -31311   -31123   -30547 
  -30274   -30554   -30906   -30990   -30812   -30461   -30119   -29839 
  -29389   -28729   -28220   -28044   -28052   -28210   -28388   -28271 
  -28094   -28193   -28352   -28559   -28881   -28989   -28958   -29044 
  -28938   -28437   -27707   -26957   -26489   -26283   -26131   -26263 
  -26727   -27233   -27667   -27754   -27446   -27246   -27228   -27157 
  -27145   -27155   -27073   -27183   -27503   -27552   -27311   -27194 
  -27323   -27617   -27818   -27570   -26956   -26403   -26109   -25990 
  -26061   -26389   -26704   -26728   -26578   -26352   -26030   -25838 
  -25930   -26099   -26151   -25983   -25581   -25219   -25086   -24986 
  -24745   -24443   -24196   -24066   -24177   -24502   -24831   -25124 
  -25180   -24748   -24338   -24398   -24533   -24607   -24881   -25205 
  -25470   -25769   -25803   -25316   -24697   -24447   -24555   -24825 
  -25216   -25563   -25724   -25870   -26071   -26145   -26125   -26193 
  -26233   -26140   -26086   -26022   -25849   -25725   -25678   -25717 
  -25922   -26177   -26388   -26524   -26493   -26292   -26017   -25853 
  -26032   -26479   -26883   -27232   -27590   -27708   -27605   -27647 
  -27814   -27885   -27895   -27847   -27646   -27387   -27285   -27423 
  -27624   -27651   -27471   -27202   -27107   -27373   -27699   -27773 
  -27653   -27442   -27322   -27509   -27885   -28161   -28303   -28445 
  -28541   -28522   -28482   -28422   -28308   -28271   -28394   -28573 
  -28725   -28942   -29286   -29596   -29819   -29989   -29950   -29796 
  -29822   -29910   -29945   -30106   -30414   -30804   -31122   -31080 
  -30780   -30497   -30254   -30199   -30494   -30916   -31247   -31441 
  -31384   -31103   -30743   -30325   -29959   -29736   -29553   -29407 
  -29273   -29076   -28968   -29007   -29077   -29166   -29169   -28997 
  -28757   -28413   -27984   -27782   -27887   -28087   -28224   -28165 
  -27950   -27789   -27729   -27673   -27568   -27474   -27493   -27532 
  -27487   -27384   -27160   -26859   -26681   -26675   -26779   -26835 
  -26766   -26730   -26611   -26232   -25916   -25799   -25661   -25593 
  -25661   -25688   -25692   -25709   -25609   -25413   -25246   -25146 
  -25122   -25186   -25359   -25634   -25910   -26142   -26333   -26375 
  -26193   -25960   -25886   -25974   -26167   -26432   -26659   -26766 
  -26798   -26810   -26789   -26788   -26871   -26971   -27070   -27208 
  -27331   -27429   -27506   -27494   -27478   -27592   -27666   -27568 
  -27504   -27519   -27425   -27273   -27271   -27417   -27548   -27563 
  -27547   -27593   -27594   -27517   -27572   -27765   -27834   -27769 
  -27736   -27697   -27592   -27435   -27301   -27365   -27619   -27875 
  -28006   -27937   -27807   -27793   -27691   -27419   -27282   -27392 
  -27564   -27650   -27621   -27504   -27403   -27410   -27438   -27406 
  -27429   -27554   -27634   -27564   -27434   -27356   -27343   -27399 
  -27501   -27528   -27451   -27423   -27552   -27782   -28005   -28116 
  -28036   -27824   -27618   -27539   -27615   -27759   -27903   -27974 
  -27892   -27746   -27592   -27368   -27163   -27103   -27194   -27403 
  -27630   -27740   -27678   -27437   -27155   -27065   -27155   -27254 
  -27365   -27543   -27682   -27640   -27491   -27403   -27361   -27292 
  -27214   -27192   -27240   -27212   -27047   -26916   -26893   -26925 
  -27008   -27069   -27008   -26889   -26790   -26703   -26679   -26731 
  -26809   -26902   -26908   -26808   -26801   -26845   -26725   -26600 
  -26607   -26528   -26372   -26315   -26278   -26270   -26343   -26303 
  -26202   -26310   -26473   -26455   -26437   -26512   -26495   -26391 
  -26449   -26677   -26778   -26666   -26584   -26682   -26879   -26951 
  -26835   -26830   -26979   -26944   -26800   -26831   -26900   -26863 
  -26859   -26991   -27179   -27258   -27211   -27236   -27376   -27448 
  -27389   -27372   -27473   -27443   -27287   -27388   -27607   -27578 
  -27471   -27401   -27235   -27114   -27126   -27088   -26992   -26990 
  -27100   -27201   -27153   -26989   -26831   -26697   -26654   -26764 
