Origin Time       2011/03/11 14:46:00
Lat.              38.103
Long.             142.860
Depth. (km)       24
Mag.              9.0
Station Code      NGN018
Station Lat.      35.8129
Station Long.     137.5298
Station Height(m) 1012
Record Time       2011/03/11 14:47:56
Sampling Freq(Hz) 100Hz
Duration Time(s)  226
Dir.              N-S
Scale Factor      3920(gal)/6182761
Max. Acc. (gal)   9.992
Last Correction   2011/03/11 14:47:41
Memo.             
[...]
 -103748  -104511  -104919  -104928  -104649  -104180  -103643  -103196 
 -102890  -102667  -102432  -102029  -101331  -100334   -99121   -97850 
  -96738   -95967   -95683   -96029   -96948   -98068   -99016   -99695 
 -100130  -100333  -100404  -100456  -100479  -100508  -100675  -101006 
 -101359  -101583  -101651  -101595  -101462  -101320  -101206  -101144 
 -101102  -100926  -100594  -100320  -100245  -100298  -100333  -100221 
  -99906   -99491   -99248   -99350   -99580   -99591   -99425   -99369 
  -99406   -99256   -98870   -98553   -98599   -98980   -99464   -99963 
 -100569  -101326  -102189  -103131  -104097  -104937  -105551  -105991 
 -106186  -105874  -104982  -103738  -102439  -101251  -100195   -99277 
  -98448   -97572   -96661   -95915   -95443   -95193   -95106   -95138 
  -95239   -95396   -95634   -96012   -96623   -97572   -98854  -100288 
 -101639  -102750  -103567  -104203  -104864  -105585  -106202  -106567 
 -106636  -106510  -106414  -106381  -106027  -105010  -103805  -103153 
 -102633  -101528  -100660  -100936  -101497  -101493  -101580  -102262 
 -102853  -102938  -102918  -102793  -102168  -101133   -99948   -98634 
  -97212   -95885   -94913   -94195   -93607   -93591   -94270   -94988 
  -95536   -96395   -97687   -99065  -100274  -101164  -101736  -102211 
 -102605  -102725  -102655  -102584  -102386  -101843  -101094  -100540 
 -100273  -100045   -99760   -99486   -99205   -98847   -98372   -97740 
  -96983   -96290   -95847   -95598   -95423   -95330   -95259   -95102 
  -94888   -94656   -94443   -94374   -94513   -94788   -95139   -95543 
  -95971   -96453   -97109   -97984   -98939   -99888  -100909  -101976 
 -102921  -103576  -103911  -104081  -104122  -103906  -103459  -102862 
 -102118  -101298  -100581  -100120   -99897   -99756   -99544   -99210 
  -98844   -98515   -98182   -97844   -97502   -97141   -96814   -96474 
  -96027   -95627   -95491   -95664   -96181   -97046   -98067   -98910 
  -99296   -99265   -99143   -99089   -98975   -98880   -99110   -99657 
 -100220  -100713  -101245  -101895  -102729  -103684  -104542  -105192 
 -105628  -105704  -105243  -104293  -103063  -101738  -100483   -99536 
  -99173   -99473  -100084  -100551  -100726  -100540   -99955   -99242 
  -98656   -98189   -97907   -97943   -98285   -98909   -99785  -100856 
 -102134  -103515  -104759  -105822  -106905  -108147  -109295  -109854 
 -109737  -109261  -108477  -107195  -105563  -103905  -102096   -99959 
  -97910   -96440   -95566   -95114   -95020   -95314   -95978   -96960 
  -98258   -99784  -101391  -102988  -104406  -105547  -106506  -107210 
 -107395  -107011  -106174  -104949  -103551  -102355  -101481  -100797 
 -100223   -99757   -99462   -99414   -99531   -99712   -99981  -100285 
 -100488  -100520  -100264   -99634   -98839   -98152   -97672   -97465 
  -97547   -97742   -97825   -97819   -97925   -98183   -98531   -99035 
  -99712  -100443  -101176  -101832  -102149  -101919  -101234  -100279 
  -99147   -97995   -96985   -96154   -95646   -95697   -96255   -97053 
  -97903   -98697   -99351   -99785   -99923   -99805   -99509   -99020 
  -98356   -97639   -96881   -96022   -95256   -94804   -94506   -94167 
  -93967   -94113   -94539   -95152   -95964   -96909   -97844   -98650 
  -99182   -99343   -99168   -98688   -97946   -97113   -96319   -95616 
  -95186   -95177   -95430   -95695   -95897   -96072   -96181   -96181 
  -96304   -96853   -97690   -98363   -98687   -98836   -98970   -99055 
  -99137   -99517  -100378  -101496  -102575  -103460  -103916  -103791 
 -103327  -102801  -102250  -101765  -101539  -101604  -101878  -102371 
 -103144  -104005  -104538  -104573  -104304  -103911  -103452  -103066 
 -102880  -102822  -102799  -102809  -102753  -102579  -102441  -102388 
 -102271  -102024  -101650  -101118  -100392   -99442   -98337   -97259 
  -96334   -95541   -94803   -94182   -93863   -93889   -94136   -94514 
  -94953   -95358   -95736   -96176   -96720   -97376   -98212   -99293 
 -100594  -102007  -103362  -104512  -105386  -105929  -106157  -106240 
 -106316  -106262  -105841  -105013  -103884  -102540  -101086   -99647 
  -98343   -97321   -96671   -96334   -96205   -96233   -96433   -96804 
  -97305   -97989   -98980  -100192  -101338  -102268  -103036  -103576 
 -103701  -103374  -102693  -101797  -100872  -100050   -99364   -98821 
  -98446   -98267   -98252   -98241   -98124   -98084   -98274   -98534 
  -98768   -99073   -99401   -99569   -99493   -99148   -98559   -97920 
  -97503   -97387   -97428   -97506   -97622   -97825   -98223   -98860 
  -99545  -100044  -100406  -100775  -101084  -101220  -101205  -101094 
 -100964  -100869  -100736  -100523  -100307  -100113   -99896   -99637 
  -99362   -99166   -99112   -99099   -99072   -99214   -99621  -100046 
 -100323  -100622  -101036  -101447  -101889  -102531  -103398  -104402 
 -105428  -106342  -107050  -107550  -107891  -108063  -107897  -107235 
 -106176  -104971  -103775  -102658  -101616  -100530   -99316   -98052 
  -96866   -95852   -95046   -94449   -94112   -94089   -94330   -94797 
  -95500   -96300   -96924   -97276   -97508   -97815   -98282   -98860 
  -99460  -100088  -100737  -101370  -102055  -102792  -103438  -104010 
 -104599  -105071  -105284  -105317  -105320  -105294  -105138  -104809 
 -104335  -103783  -103287  -102948  -102755  -102670  -102720  -103023 
 -103697  -104682  -105737  -106674  -107403  -107756  -107536  -106735 
 -105527  -104016  -102211  -100256   -98415   -96787   -95345   -94164 
  -93320   -92765   -92455   -92423   -92740   -93495   -94755   -96463 
  -98421  -100460  -102527  -104526  -106240  -107432  -107977  -107874 
 -107128  -105743  -103862  -101742   -99558   -97374   -95304   -93512 
  -92022   -90740   -89585   -88523   -87640   -87124   -87004   -87067 
  -87137   -87288   -87726   -88568   -89758   -91210   -92926   -94874 
  -96897   -98876  -100808  -102627  -104112  -105096  -105602  -105715 
 -105431  -104694  -103574  -102240  -100782   -99262   -97812   -96523 
  -95464   -94690   -94135   -93752   -93624   -93786   -94130   -94517 
  -94885   -95229   -95531   -95762   -95967   -96245   -96562   -96816 
  -97035   -97272   -97526   -97851   -98309   -98875   -99479  -100107 
 -100829  -101653  -102436  -103015  -103387  -103699  -104064  -104453 
 -104752  -104788  -104425  -103765  -103084  -102538  -102076  -101579 
 -100982  -100331   -99836   -99728  -100063  -100725  -101554  -102451 
 -103392  -104303  -105068  -105677  -106215  -106698  -107044  -107095 
 -106707  -105850  -104590  -103073  -101539  -100191   -99068   -98087 
  -97119   -96053   -94889   -93722   -92663   -91829   -91408   -91603 
  -92433   -93699   -95191   -96838   -98627  -100482  -102373  -104380 
 -106449  -108339  -109881  -111022  -111742  -112070  -112041  -111693 
 -111114  -110334  -109330  -108182  -106998  -105733  -104324  -102822 
 -101213   -99385   -97384   -95404   -93573   -91938   -90584   -89641 
  -89170   -89136   -89519   -90365   -91686   -93390   -95293   -97207 
  -99040  -100769  -102311  -103545  -104406  -104881  -105010  -104879 
 -104549  -104013  -103278  -102460  -101683  -100983  -100372   -99808 
  -99211   -98644   -98218   -97901   -97589   -97268   -96956   -96609 
  -96182   -95675   -95057   -94276   -93345   -92369   -91482   -90776 
  -90355   -90380   -90981   -92194   -93993   -96263   -98780  -101287 
 -103607  -105698  -107565  -109136  -110314  -111067  -111397  -111244 
 -110495  -109122  -107200  -104804  -102038   -99148   -96435   -94084 
  -92133   -90521   -89222   -88329   -87870   -87724   -87857   -88445 
  -89577   -91059   -92635   -94180   -95653   -97035   -98340   -99618 
 -100917  -102210  -103459  -104726  -106044  -107253  -108184  -108833 
 -109221  -109301  -109070  -108595  -107935  -107124  -106256  -105465 
 -104783  -104128  -103447  -102818  -102321  -101862  -101380  -100998 
 -100829  -100896  -101164  -101489  -101716  -101818  -101803  -101639 
 -101346  -101007  -100658  -100331  -100088   -99937   -99876   -99929 
 -100013  -100016  -100026  -100221  -100608  -101055  -101535  -102128 
 -102796  -103349  -103680  -103831  -103854  -103787  -103651  -103379 
 -102931  -102375  -101766  -101089  -100337   -99584   -98945   -98455 
  -97998   -97483   -96998   -96642   -96434   -96416   -96620   -96975 
  -97352   -97650   -97911   -98311   -99018  -100081  -101452  -103022 
 -104636  -106128  -107327  -108129  -108588  -108821  -108818  -108440 
 -107536  -106096  -104326  -102528  -100926   -99568   -98372   -97322 
  -96548   -96099   -95783   -95337   -94674   -93921   -93244   -92767 
  -92619   -92881   -93548   -94533   -95672   -96782   -97741   -98529 
  -99211   -99866  -100537  -101226  -101880  -102434  -102886  -103283 
 -103609  -103788  -103799  -103683  -103490  -103278  -103105  -102954 
 -102701  -102272  -101716  -101023  -100048   -98704   -97069   -95283 
  -93500   -91952   -90885   -90377   -90330   -90565   -90815   -90891 
  -90901   -91063   -91442   -92042   -92895   -94004   -95375   -97009 
  -98768  -100444  -101940  -103259  -104415  -105384  -106094  -106493 
 -106650  -106718  -106767  -106715  -106482  -106117  -105712  -105284 
 -104815  -104344  -103977  -103809  -103838  -103925  -103853  -103478 
 -102765  -101806  -100799   -99936   -99302   -98828   -98388   -97969 
  -97643   -97399   -97181   -97030   -97040   -97244   -97645   -98262 
  -99072   -99996  -100945  -101778  -102304  -102380  -101973  -101128 
  -99924   -98528   -97220   -96237   -95618   -95267   -95130   -95241 
  -95631   -96234   -96931   -97732   -98774  -100082  -101554  -103082 
 -104551  -105814  -106749  -107353  -107714  -107958  -108200  -108388 
 -108299  -107836  -107124  -106309  -105420  -104413  -103299  -102186 
 -101185  -100302   -99477   -98697   -97957   -97257   -96660   -96260 
  -96121   -96255   -96583   -96961   -97309   -97641   -98005   -98454 
  -98953   -99342   -99551   -99680   -99775   -99736   -99480   -99058 
  -98581   -98136   -97729   -97241   -96611   -95998   -95590   -95483 
  -95799   -96569   -97612   -98713   -99716  -100513  -101150  -101849 
 -102744  -103716  -104583  -105294  -105857  -106231  -106376  -106282 
 -105934  -105283  -104310  -103107  -101800  -100469   -99250   -98351 
  -97837   -97563   -97359   -97142   -96830   -96314   -95581   -94815 
  -94314   -94304   -94863   -96003   -97691   -99754  -101920  -103954 
 -105694  -106990  -107702  -107791  -107372  -106640  -105730  -104728 
 -103757  -102879  -102011  -101108  -100277   -99593   -98978   -98345 
  -97748   -97284   -96947   -96631   -96247   -95863   -95732   -96054 
  -96831   -97996   -99449  -100995  -102458  -103755  -104827  -105638 
 -106211  -106620  -106905  -107012  -106839  -106338  -105596  -104795 
 -104081  -103512  -103100  -102830  -102711  -102769  -102952  -103158 
 -103352  -103513  -103538  -103306  -102787  -102074  -101286  -100486 
  -99747   -99171   -98759   -98383   -97952   -97578   -97457   -97606 
  -97857   -98098   -98369   -98718   -99090   -99398   -99654   -99893 
 -100071  -100192  -100345  -100512  -100574  -100500  -100334  -100022 
  -99436   -98547   -97487   -96420   -95470   -94728   -94246   -94045 
  -94107   -94338   -94608   -94843   -95090   -95440   -95859   -96180 
  -96271   -96196   -96149   -96180   -96127   -95893   -95603   -95435 
  -95485   -95814   -96440   -97280   -98165   -98902   -99401   -99742 
 -100030  -100313  -100619  -100911  -101094  -101108  -100966  -100721 
 -100422  -100103   -99810   -99588   -99488   -99506   -99486   -99221 
  -98654   -97911   -97203   -96713   -96499   -96450   -96407   -96381 
  -96517   -96905   -97509   -98182   -98759   -99148   -99307   -99281 
  -99204   -99190   -99226   -99163   -98856   -98314   -97646   -96967 
  -96378   -95947   -95696   -95601   -95616   -95708   -95818   -95884 
  -95951   -96147   -96539   -97150   -98015   -99102  -100277  -101434 
 -102548  -103521  -104141  -104255  -103834  -102870  -101326   -99261 
  -96965   -94794   -92853   -91055   -89404   -88025   -86996   -86271 
  -85744   -85398   -85333   -85671   -86482   -87743   -89340   -91144 
  -93074   -95075   -97030   -98776  -100264  -101637  -103005  -104254 
 -105205  -105809  -106083  -106018  -105603  -104822  -103633  -102062 
 -100277   -98472   -96734   -95086   -93656   -92682   -92247   -92151 
  -92162   -92241   -92442   -92812   -93391   -94156   -95111   -96258 
  -97391   -98331   -99244  -100281  -101322  -102253  -103074  -103813 
 -104453  -104895  -105075  -105060  -104836  -104282  -103457  -102531 
 -101577  -100690   -99996   -99504   -99208   -99104   -99100   -99124 
  -99187   -99293   -99461   -99722  -100024  -100308  -100646  -101070 
 -101431  -101592  -101569  -101436  -101233  -100977  -100736  -100676 
 -100997  -101760  -102797  -103919  -105074  -106191  -107118  -107744 
 -108062  -108159  -108116  -107925  -107563  -107017  -106274  -105350 
 -104285  -103151  -102034  -100978  -100005   -99157   -98487   -97990 
  -97677   -97677   -98110   -98933   -99961  -100965  -101811  -102490 
 -102960  -103074  -102691  -101819  -100639   -99369   -98151   -97086 
  -96291   -95867   -95843   -96149   -96633   -97184   -97792   -98385 
  -98797   -99002   -99168   -99441   -99806  -100159  -100457  -100736 
 -101038  -101365  -101722  -102178  -102810  -103574  -104270  -104678 
 -104682  -104274  -103455  -102211  -100540   -98446   -96027   -93543 
  -91260   -89283   -87596   -86220   -85231   -84708   -84669   -85043 
  -85792   -86989   -88659   -90659   -92766   -94818   -96790   -98661 
 -100279  -101528  -102514  -103316  -103825  -103956  -103763  -103354 
 -102811  -102144  -101398  -100712  -100234  -100105  -100441  -101231 
 -102319  -103470  -104449  -105026  -105117  -104926  -104690  -104435 
 -104165  -103925  -103646  -103252  -102829  -102371  -101678  -100859 
 -100265   -99819   -99236   -98633   -98228   -97949   -97729   -97712 
  -98056   -98687   -99308   -99799  -100477  -101484  -102230  -102393 
 -102520  -102661  -102262  -101486  -100806  -100408  -100598  -101209 
 -101490  -101382  -101338  -101304  -101152  -101174  -101590  -102116 
 -102438  -102599  -102497  -102080  -101753  -101467  -100773   -99944 
  -99335   -98543   -97314   -96096   -95206   -94405   -93592   -92989 
  -92520   -92020   -91657   -91558   -91682   -92073   -92647   -93178 
  -93679   -94229   -94742   -95268   -96021   -97029   -98135   -99207 
 -100224  -101182  -101970  -102545  -102990  -103280  -103360  -103093 
 -102179  -100804   -99304   -97407   -95216   -93328   -91843   -90769 
  -90208   -89964   -89943   -90274   -90956   -91973   -93436   -95403 
  -97830  -100626  -103562  -106294  -108663  -110721  -112437  -113684 
 -114347  -114338  -113743  -112804  -111622  -110124  -108310  -106321 
 -104223  -102008   -99868   -98080   -96706   -95694   -95078   -94909 
  -95152   -95712   -96529   -97581   -98794  -100070  -101397  -102834 
 -104354  -105799  -107035  -107977  -108500  -108578  -108314  -107789 
 -107068  -106182  -105167  -104264  -103728  -103459  -103176  -102742 
 -102124  -101307  -100367   -99504   -98859   -98434   -98201   -98083 
  -97998   -97972   -97969   -97858   -97658   -97461   -97235   -96947 
  -96649   -96382   -96157   -95889   -95514   -95212   -95160   -95328 
  -95669   -96116   -96652   -97422   -98474   -99604  -100643  -101637 
 -102672  -103734  -104791  -105801  -106653  -107240  -107467  -107238 
 -106578  -105599  -104380  -103052  -101742  -100485   -99386   -98640 
  -98315   -98275   -98410   -98745   -99196   -99727  -100663  -102084 
 -103550  -104849  -105991  -106845  -107395  -107626  -107466  -107072 
 -106597  -105885  -104756  -103382  -102013  -100671   -99434   -98410 
  -97621   -97266   -97474   -97965   -98343   -98632   -99403  -100593 
 -101144  -101206  -102002  -103037  -103050  -102507  -102269  -101743 
 -100499   -99480   -98956   -98332   -97952   -98418   -99543  -100600 
 -100919  -100906  -101229  -101486  -101476  -101754  -102380  -102978 
 -103431  -103690  -103689  -103517  -103264  -103058  -103076  -103231 
 -103352  -103529  -103771  -103865  -103837  -103938  -104156  -104311 
 -104359  -104364  -104375  -104276  -104020  -103850  -103796  -103609 
 -103237  -102732  -102192  -101785  -101483  -101258  -101245  -101382 
 -101522  -101758  -102162  -102582  -102882  -103052  -103043  -102845 
 -102555  -102186  -101794  -101590  -101710  -102125  -102634  -102945 
 -103000  -102892  -102559  -101962  -101235  -100434   -99599   -98869 
  -98195   -97514   -97088   -97069   -97211   -97373   -97688   -98193 
  -98761   -99325   -99942  -100555  -100875  -100829  -100735  -100788 
 -100939  -101202  -101588  -101987  -102329  -102563  -102577  -102362 
 -102062  -101812  -101716  -101841  -102112  -102403  -102688  -102976 
 -103219  -103377  -103497  -103624  -103732  -103765  -103623  -103181 
 -102406  -101372  -100172   -98882   -97598   -96445   -95506   -94821 
  -94432   -94326   -94384   -94476   -94586   -94776   -95050   -95397 
  -95846   -96328   -96696   -96893   -96973   -97092   -97371   -97785 
  -98302   -98918   -99481   -99807   -99919   -99953   -99944   -99869 
  -99695   -99365   -98902   -98403   -97852   -97168   -96380   -95596 
  -94905   -94358   -93947   -93677   -93629   -93831   -94185   -94593 
  -95008   -95393   -95707   -95883   -95881   -95799   -95815   -95997 
  -96261   -96535   -96844   -97220   -97641   -98119   -98694   -99299 
  -99809  -100217  -100581  -100872  -100978  -100795  -100325   -99742 
  -99188   -98515   -97555   -96434   -95382   -94497   -93846   -93552 
  -93689   -94287   -95322   -96623   -97969   -99262  -100497  -101668 
 -102738  -103624  -104230  -104526  -104556  -104370  -103986  -103484 
 -102955  -102406  -101818  -101134  -100265   -99322   -98558   -98109 
  -97965   -98075   -98436   -99038   -99782  -100551  -101236  -101693 
 -101826  -101680  -101434  -101247  -101108  -100980  -100990  -101253 
 -101612  -101803  -101880  -102148  -102656  -103118  -103345  -103421 
 -103459  -103438  -103224  -102696  -101910  -101096  -100448   -99987 
  -99637   -99332   -99082   -99022   -99256   -99655   -99922   -99856 
  -99545   -99244   -99026   -98738   -98330   -97901   -97542   -97326 
  -97263   -97219   -97131   -97169   -97444   -97814   -98150   -98546 
  -99159  -100016  -101053  -102257  -103594  -104854  -105800  -106461 
 -106947  -107242  -107398  -107507  -107526  -107336  -106793  -105779 
 -104368  -102825  -101405  -100185   -99078   -98000   -96947   -95994 
  -95211   -94519   -93838   -93410   -93511   -93971   -94582   -95435 
  -96538   -97798   -99130  -100323  -101338  -102283  -102972  -103255 
 -103410  -103660  -103881  -104007  -104188  -104455  -104731  -105054 
 -105460  -105910  -106438  -107062  -107660  -108086  -108261  -108206 
 -108067  -107968  -107917  -107874  -107790  -107653  -107500  -107322 
 -107057  -106630  -105989  -105205  -104417  -103690  -103029  -102473 
 -102097  -101923  -101878  -101936  -102148  -102451  -102663  -102726 
 -102728  -102660  -102473  -102269  -102116  -101986  -101947  -102070 
 -102243  -102341  -102340  -102194  -101829  -101240  -100522   -99824 
  -99242   -98748   -98360   -98177   -98175   -98352   -98833   -99462 
