Origin Time       2011/03/11 14:46:00
Lat.              38.103
Long.             142.860
Depth. (km)       24
Mag.              9.0
Station Code      NGN023
Station Lat.      35.5775
Station Long.     138.0338
Station Height(m) 673
Record Time       2011/03/11 14:47:56
Sampling Freq(Hz) 100Hz
Duration Time(s)  218
Dir.              U-D
Scale Factor      3920(gal)/6182761
Max. Acc. (gal)   8.809
Last Correction   2011/03/11 14:47:41
Memo.             
[...]
   -9143    -9275    -8801    -8061    -8019    -9030   -10279   -11085 
  -11269   -10708    -9751    -9107    -8943    -8810    -8239    -7262 
   -6449    -6040    -5801    -5668    -5503    -5188    -4859    -4372 
   -3738    -3507    -3846    -4652    -6054    -7582    -8180    -7636 
   -6900    -6636    -6676    -6992    -7447    -7755    -8275    -8883 
   -8816    -8229    -7663    -7359    -7490    -7734    -7595    -7152 
   -6672    -6201    -6060    -6571    -7064    -6763    -6074    -5706 
   -5640    -5694    -5904    -6066    -6168    -6443    -6440    -5822 
   -5412    -5859    -6497    -6415    -5632    -4758    -4160    -3941 
   -4232    -4796    -5229    -5644    -6105    -6450    -6751    -7075 
   -7479    -7905    -8073    -7813    -7200    -6417    -5666    -5440 
   -5799    -5677    -4738    -3850    -3255    -2889    -3173    -3949 
   -4358    -4268    -4387    -4882    -5331    -5851    -6891    -8450 
  -10037   -10824   -10507    -9972   -10054   -10516   -10766   -10471 
   -9682    -8741    -7870    -7238    -7153    -7541    -7650    -7068 
   -6083    -4770    -3427    -2685    -2711    -3429    -4540    -5505 
   -5879    -5773    -5941    -6568    -7110    -7372    -7363    -6942 
   -6354    -6235    -6622    -6839    -6635    -6396    -6580    -7499 
   -8712    -9238    -8852    -8295    -8356    -8821    -8883    -8576 
   -8172    -7409    -6565    -6186    -5747    -4746    -3737    -3072 
   -2641    -2363    -1798     -818     -218     -325     -495     -393 
    -269     -288     -458     -791    -1223    -1568    -1728    -1659 
   -1401    -1267    -1576    -2374    -3103    -3157    -2844    -2593 
   -2459    -2371    -2135    -2044    -2256    -2106    -1386     -790 
    -934    -1672    -2409    -2813    -2843    -2796    -3242    -4059 
   -4468    -4465    -4597    -4897    -5109    -5127    -5099    -4987 
   -4632    -4372    -4279    -4073    -3980    -4036    -3975    -4155 
   -4937    -5996    -6848    -7289    -7523    -7867    -8114    -7806 
   -7076    -6519    -6506    -7008    -7444    -7109    -6514    -6702 
   -7464    -8061    -8261    -7877    -6980    -6321    -6372    -6669 
   -6784    -6867    -6987    -6778    -6155    -5688    -5481    -5286 
   -5394    -5819    -6086    -6126    -6176    -6293    -6665    -7485 
   -8314    -8571    -8136    -7405    -6949    -6952    -7287    -7340 
   -6518    -5527    -5227    -5301    -5350    -5521    -5839    -6039 
   -6077    -6252    -6763    -7599    -8749    -9978   -10802   -11115 
  -11049   -10618   -10472   -11170   -11962   -12161   -11725   -10775 
   -9972    -9779    -9901    -9932    -9814    -9735    -9619    -9278 
   -8731    -8003    -7112    -6192    -5456    -4972    -4494    -3610 
   -2531    -2016    -1979    -1689     -865      537     2189     3218 
    3299     3004     2914     3106     3333     3434     3431     3443 
    3585     3716     3541     2973     2267     1864     1783     1426 
     536     -409     -952    -1063    -1031    -1300    -2067    -2890 
   -3080    -2578    -1730     -802     -171      -35      -30      430 
    1464     2690     3867     4787     5097     4889     4508     4026 
    3666     3876     4549     4944     4417     2933     1281      474 
     577     1030     1516     1753     1503      995      551      184 
    -219    -1285    -3404    -5374    -6180    -6144    -5473    -4620 
   -4399    -4647    -4959    -5394    -5686    -5603    -5419    -5317 
   -5318    -5637    -6413    -7280    -7779    -7685    -6921    -5785 
   -4835    -4553    -4949    -5392    -5510    -5504    -5688    -6333 
   -7198    -7699    -7719    -7360    -6578    -5543    -4586    -3703 
   -2806    -2163    -1907    -1866    -2002    -2244    -2342    -2330 
   -2544    -3094    -3775    -4298    -4482    -4461    -4380    -4336 
   -4800    -5843    -6612    -6618    -6340    -6325    -6583    -6897 
   -7178    -7263    -7078    -6821    -6394    -5554    -4735    -4528 
   -4807    -5164    -5130    -4341    -3230    -2373    -1691    -1255 
   -1429    -2036    -2514    -2632    -2545    -2538    -2804    -3092 
   -2849    -2019    -1185     -765     -777    -1278    -2165    -2904 
   -3116    -3031    -3073    -3492    -4213    -4664    -4472    -3984 
   -3544    -3272    -3218    -3159    -3047    -3045    -2861    -2209 
   -1329     -445      249      518      688     1157     1664     1915 
    1864     1559     1359     1596     1997     2101     1964     1752 
    1436     1343     1669     1928     1877     1595      860     -314 
   -1492    -2405    -2916    -3014    -2995    -3062    -2961    -2427 
   -1671    -1107     -871     -761     -619     -528     -580     -972 
   -1948    -3169    -4009    -4439    -4769    -5012    -5050    -4934 
   -4706    -4370    -4046    -3845    -3675    -3324    -2796    -2375 
   -2211    -2099    -1806    -1401    -1005     -740     -872    -1318 
   -1641    -1657    -1540    -1536    -1600    -1561    -1508    -1544 
   -1771    -2325    -2953    -3373    -3730    -4082    -4196    -3992 
   -3803    -4092    -4764    -5155    -4891    -4305    -4043    -4367 
   -4814    -4872    -4752    -5019    -5933    -7337    -8632    -9241 
   -9167    -8607    -7714    -6794    -6147    -5954    -6176    -6431 
   -6179    -4984    -3135    -1936    -2179    -3000    -3329    -3220 
   -3287    -3994    -5347    -6716    -7454    -7623    -7686    -8029 
   -8699    -9320    -9752   -10262   -10794   -11033   -10853   -10165 
   -9014    -7943    -7592    -7864    -8150    -7986    -7320    -6632 
   -6305    -5994    -5272    -4111    -2583     -937      349      884 
     548     -363    -1311    -2025    -2576    -3094    -3684    -4226 
   -4344    -4024    -3574    -2993    -2304    -1775    -1366    -1086 
   -1315    -1808    -1840    -1549    -1558    -2005    -2700    -3214 
   -2965    -1999    -1188    -1258    -2088    -3091    -4016    -5065 
   -6201    -7127    -7862    -8513    -9048    -9531    -9774    -9284 
   -8113    -6678    -5069    -3744    -3513    -4213    -5104    -5940 
   -6534    -6531    -6019    -5359    -4744    -4387    -4172    -3483 
   -2281    -1186     -636     -906    -1850    -2663    -2922    -2978 
   -3107    -3302    -3547    -3703    -3700    -3710    -3664    -3317 
   -2908    -2915    -3527    -4667    -5798    -6167    -5749    -5180 
   -4866    -4887    -5426    -6504    -7543    -7876    -7324    -6170 
   -5209    -5174    -5762    -6062    -5791    -5269    -4693    -4190 
   -3943    -3911    -3861    -3412    -2419    -1534    -1158     -819 
    -508     -641     -966    -1047     -789     -202      281      -67 
   -1245    -2381    -2727    -2434    -2259    -2804    -4308    -6597 
   -8825   -10118   -10582   -10799   -11009   -11289   -11402   -10907 
  -10029    -9340    -8804    -8109    -7153    -5852    -4251    -2673 
   -1376     -498     -144     -151     -169      -29      282      716 
    1023      902      389     -215     -711    -1246    -2155    -3373 
   -4390    -4962    -5427    -6135    -6977    -7785    -8487    -8762 
   -8478    -7932    -7285    -6661    -6336    -6415    -6861    -7526 
   -8060    -8199    -7978    -7840    -8276    -9019    -9575    -9995 
  -10111    -9587    -8809    -8336    -8293    -8676    -9117    -8895 
   -7955    -6953    -6314    -6158    -6390    -6683    -6996    -7354 
   -7485    -7534    -8104    -9211   -10252   -10891   -11114   -11071 
  -11109   -11053   -10438    -9542    -8829    -8262    -7810    -7658 
   -7895    -8474    -9157    -9367    -8764    -7744    -6767    -5920 
   -5289    -5028    -5206    -5805    -6517    -7003    -7597    -8735 
   -9974   -10644   -10665   -10255    -9671    -9198    -8941    -8778 
   -8640    -8447    -7896    -7107    -6778    -7150    -7668    -7659 
   -6962    -5944    -5062    -4536    -4280    -4035    -3717    -3419 
   -2970    -2096    -1177     -764     -619     -455     -401     -331 
    -210     -525    -1412    -2394    -3276    -4229    -5230    -6202 
   -7087    -7630    -7668    -7461    -7397    -7524    -7489    -6927 
   -5900    -4934    -4527    -4618    -4756    -4749    -4630    -4320 
   -3809    -3279    -3065    -3516    -4438    -5141    -5195    -4689 
   -4146    -4179    -4831    -5562    -5766    -5221    -4119    -2728 
   -1383     -434      104      540     1273     2452     3656     4305 
    4388     4259     3971     3623     3673     4062     4182     4028 
    4015     4211     4522     4955     5454     5801     5759     5191 
    4064     2609     1177     -149    -1486    -2805    -3880    -4543 
   -4721    -4402    -3784    -3162    -2731    -2364    -1685     -830 
    -439     -677    -1072    -1084     -624     -194     -215     -450 
    -450      -22      743     1512     2040     2201     1749      894 
     444      749     1487     2242     2512     1967      998      227 
    -130      -97      257      703      881      586      -21     -450 
    -189      729     1629     2003     1864     1201      199     -512 
    -748     -812     -817    -1087    -2057    -3208    -3623    -3142 
   -2026     -706       -3     -291     -824     -755     -117      586 
     920      738      361      241      459      771      863      450 
    -511    -1520    -2004    -2136    -2497    -3197    -3942    -4551 
   -5074    -5567    -5835    -5577    -4755    -3760    -3346    -3825 
   -4488    -4631    -4356    -3996    -3802    -3979    -4334    -4310 
   -3649    -2703    -2024    -1841    -2023    -2422    -2828    -2932 
   -2868    -3062    -3402    -3498    -3339    -3125    -3068    -3374 
   -3909    -4224    -4290    -4411    -4482    -4320    -4176    -4288 
   -4542    -4751    -4875    -4922    -4997    -5294    -5781    -6337 
   -6890    -7188    -7151    -7090    -7067    -6720    -5955    -5106 
   -4391    -3733    -2949    -2084    -1618    -1806    -2138    -1981 
   -1386     -966    -1013    -1262    -1421    -1332    -1012     -773 
    -892    -1368    -2182    -3353    -4719    -5989    -6862    -7208 
   -7429    -8163    -9356   -10184   -10035    -9201    -8449    -8136 
   -8026    -7848    -7732    -8023    -8650    -9000    -8772    -8307 
   -7945    -7835    -7928    -7766    -7112    -6563    -6825    -7920 
   -9384   -10684   -11485   -11913   -12354   -12968   -13635   -14137 
  -14340   -14304   -14016   -13437   -12872   -12572   -12339   -11968 
  -11455   -10845   -10181    -9452    -8693    -8053    -7407    -6299 
   -4730    -3327    -2530    -2370    -2566    -2482    -1777     -873 
    -312     -171     -284     -574     -923    -1163    -1332    -1474 
   -1410    -1067     -591     -132      131      116        8      -53 
    -149     -422     -954    -1571    -1973    -2310    -3204    -4925 
   -6819    -7846    -7535    -6348    -5196    -4498    -4052    -3628 
   -3074    -2296    -1357     -351      590     1240     1475     1509 
    1705     2331     3501     4860     5691     5662     5179     4837 
    4711     4680     4854     5035     4785     4152     3568     3438 
    3870     4522     4961     4962     4535     4077     3967     4119 
    4484     5100     5571     5419     4623     3563     2691     2186 
    1869     1431      816      326      185      255      297       27 
    -824    -2110    -3372    -4338    -5075    -5733    -6152    -6066 
   -5630    -5248    -5058    -4864    -4463    -3987    -3718    -3720 
   -3956    -4463    -5168    -5796    -6116    -6068    -5670    -5110 
   -4694    -4456    -4124    -3466    -2459    -1229      -42      689 
     813      792     1108     1583     1736     1444      917      331 
    -250     -743    -1050    -1127     -949     -507       51      434 
     516      508      671      945      918      260     -839    -1781 
   -1948    -1255     -395        7       -9     -165     -323     -496 
    -678     -833    -1103    -1648    -2470    -3475    -4506    -5456 
   -6288    -7009    -7614    -8046    -8366    -8549    -8314    -7637 
   -6975    -6719    -6841    -7204    -7806    -8472    -8830    -8851 
   -8823    -8665    -8174    -7709    -7589    -7604    -7621    -7553 
   -7107    -6382    -5739    -5278    -5087    -5283    -5779    -6344 
   -6791    -7059    -7073    -6826    -6450    -6012    -5506    -4987 
   -4591    -4406    -4392    -4503    -4524    -4058    -3183    -2320 
   -1381     -176      977     1814     2396     2851     3385     4087 
    4710     4952     4734     4177     3535     3187     3375     3806 
    3887     3449     2950     2877     3149     3318     3170     2959 
    3081     3509     3728     3426     2966     2821     2809     2356 
    1509      901      664      363     -188     -774    -1126    -1045 
    -578     -131       93      254      430      854     1635     2264 
    2369     2005     1305      683      432      238     -194     -395 
     333     1454     1796     1552     1531     1981     2780     3160 
    2952     3106     3648     4231     5020     5628     5952     6188 
    5784     4929     4487     4127     3211     1715       25     -705 
    -487    -1066    -2390    -2776    -1999    -1333    -2218    -4059 
   -4301    -3507    -4644    -6707    -7112    -6455    -6122    -6713 
   -8059    -8682    -8163    -8093    -9075    -9663    -9030    -8457 
   -8922    -9800   -10570   -11320   -12156   -13099   -14078   -14794 
  -14825   -14630   -14918   -15037   -15015   -15749   -16339   -16461 
  -17030   -17442   -17358   -17516   -17811   -17737   -17465   -17378 
  -17228   -16649   -15920   -15242   -14476   -13776   -13059   -12296 
  -12205   -12232   -11285   -10332    -9893    -9136    -8172    -7126 
   -5837    -4757    -4093    -3714    -3429    -2798    -1921    -1664 
   -2081    -2301    -2253    -2336    -2483    -2708    -3119    -3418 
   -2965    -1771    -1048    -1188     -971     -143      627     1374 
    1602      731      -94      -19      195      292      402       19 
    -548     -668    -1011    -1975    -2667    -2676    -2508    -2452 
   -2512    -2826    -3352    -3289    -2217    -1063     -499     -319 
    -205      337     1236     1788     2320     3245     3671     3284 
    2832     2731     2727     2498     2460     2501     1789     1145 
    1286     1005      448      594      717      790     1391     1819 
    1977     1974     1237      730     1173      833     -625    -1276 
    -992    -1062    -1377    -1323    -1484    -2538    -3674    -4051 
   -4250    -4768    -5314    -5833    -6540    -7235    -7496    -7460 
   -7606    -7872    -7798    -7543    -7851    -8777    -9461    -9281 
   -8744    -8805    -9162    -8902    -8338    -8070    -7843    -7407 
   -6872    -6298    -5776    -5661    -6127    -6638    -6426    -5488 
   -4852    -5116    -5494    -5299    -4953    -5101    -5450    -5230 
   -4765    -4610    -4241    -3473    -2804    -2072     -959      367 
    1669     2457     2549     2697     3333     3977     4111     3571 
    2616     1882     1681     1706     1576     1302     1258     1377 
     977      152     -349     -650     -984    -1143    -1557    -2355 
   -2802    -2791    -2670    -2679    -3199    -3947    -4082    -3517 
   -2847    -2792    -3708    -4931    -5684    -6257    -7132    -8041 
   -8492    -8556    -8736    -9241    -9872   -10269   -10057    -9187 
   -8128    -7518    -7395    -7241    -6906    -6479    -5888    -5378 
   -5348    -5819    -6580    -7212    -7334    -7107    -6803    -6269 
   -5461    -4649    -4021    -3635    -3198    -2242     -985      -60 
     382      534      537      797     1569     2116     1994     1871 
    1840     1300      501       96      -94     -521    -1145    -2006 
   -3082    -3803    -4189    -4745    -5067    -4752    -4313    -4074 
   -3923    -3882    -4059    -4413    -4692    -4807    -4886    -4998 
   -5312    -5826    -6066    -5828    -5420    -5047    -4725    -4553 
   -4519    -4408    -4252    -4215    -4133    -3779    -3345    -3227 
   -3330    -3252    -3034    -2676    -1771     -481      549     1309 
    2065     2639     2911     3041     3042     2918     2861     2902 
    2810     2575     2517     2716     2893     2942     2987     3031 
    3010     2950     2921     3013     3243     3482     3618     3609 
    3500     3493     3581     3569     3621     3808     3727     3323 
    2974     2645     2016     1190      591      333      281      305 
     140     -229     -376     -200      -59      -33       99      319 
     349       72     -319     -539     -388       91      438      209 
    -490    -1327    -2112    -2699    -3035    -3275    -3566    -3865 
   -4121    -4288    -4220    -3871    -3492    -3446    -3801    -4233 
   -4455    -4484    -4431    -4364    -4342    -4352    -4345    -4317 
   -4221    -4040    -3917    -3884    -3747    -3562    -3687    -4168 
   -4774    -5360    -5654    -5501    -5220    -5077    -5086    -5232 
   -5332    -5290    -5437    -5919    -6395    -6761    -7238    -7845 
   -8504    -9091    -9350    -9293    -9222    -9326    -9595    -9866 
   -9988   -10011   -10090   -10410   -11052   -11776   -12317   -12701 
  -12962   -12968   -12710   -12461   -12411   -12361   -12105   -11790 
  -11655   -11707   -11630   -11189   -10730   -10621   -10637   -10483 
  -10207    -9922    -9564    -9078    -8600    -8179    -7694    -7209 
   -6909    -6792    -6755    -6699    -6507    -6164    -5858    -5807 
   -6009    -6281    -6423    -6313    -6051    -5897    -5992    -6227 
   -6366    -6394    -6482    -6505    -6198    -5691    -5376    -5360 
   -5361    -5105    -4642    -4256    -4056    -3806    -3341    -2875 
   -2648    -2541    -2231    -1701    -1288    -1058     -702     -124 
     520     1061     1331     1316     1180     1020      839      686 
     689      844      998     1145     1350     1570     1774     1955 
    2072     2086     2075     2245     2626     2983     3167     3200 
    3174     3224     3282     3068     2625     2275     2075     1926 
    1742     1343      796      422      216      -54     -410     -940 
   -1768    -2537    -2851    -2981    -3316    -3709    -3952    -4106 
   -4170    -4249    -4605    -4934    -4663    -4071    -3888    -4175 
   -4513    -4768    -5007    -5118    -5081    -5102    -5178    -5247 
   -5459    -5686    -5609    -5267    -4742    -3980    -3206    -2832 
   -2913    -3033    -2843    -2467    -2176    -2127    -2345    -2584 
   -2647    -2723    -2815    -2560    -1913    -1160     -441      145 
     495      725      942      997      821      627      531      445 
     359      350      471      711      930     1005     1043     1166 
    1242     1129      908      755      792      926      831      393 
     -53     -272     -351     -393     -556     -917    -1321    -1716 
   -2028    -1952    -1509    -1132     -954     -698     -209      343 
     724      852      757      515      202     -133     -533    -1141 
   -1949    -2639    -2866    -2651    -2419    -2500    -2670    -2571 
   -2320    -2195    -2149    -2134    -2255    -2409    -2519    -2754 
   -3162    -3673    -4295    -4890    -5190    -5115    -4849    -4712 
   -4886    -5250    -5590    -5871    -6233    -6731    -7222    -7554 
   -7761    -8046    -8527    -9019    -9203    -9040    -8855    -8823 
