Origin Time       2011/03/11 14:46:00
Lat.              38.103
Long.             142.860
Depth. (km)       24
Mag.              9.0
Station Code      NGN020
Station Lat.      35.8278
Station Long.     137.9548
Station Height(m) 633
Record Time       2011/03/11 14:47:58
Sampling Freq(Hz) 100Hz
Duration Time(s)  300
Dir.              N-S
Scale Factor      3920(gal)/6182761
Max. Acc. (gal)   19.673
Last Correction   2011/03/11 14:47:43
Memo.             
[...]
  -55505   -55934   -56258   -56560   -56921   -57277   -57635   -57984 
  -58181   -58268   -58470   -58841   -59331   -59960   -60616   -61160 
  -61633   -62000   -62133   -62139   -62126   -61919   -61507   -61181 
  -61010   -60897   -60884   -60905   -60758   -60413   -59889   -59061 
  -57860   -56354   -54639   -52881   -51225   -49713   -48543   -47952 
  -47817   -47938   -48345   -48915   -49380   -49670   -49757   -49541 
  -49056   -48434   -47745   -47088   -46608   -46388   -46471   -46840 
  -47408   -48133   -48998   -49835   -50435   -50805   -51060   -51240 
  -51430   -51771   -52277   -52865   -53464   -53972   -54259   -54260 
  -53984   -53440   -52672   -51785   -50858   -50020   -49416   -49048 
  -48788   -48440   -47851   -47003   -45959   -44890   -44024   -43489 
  -43347   -43596   -44127   -44808   -45506   -46099   -46461   -46573 
  -46629   -46750   -46874   -47023   -47226   -47360   -47354   -47257 
  -47171   -47158   -47150   -47084   -47102   -47284   -47451   -47590 
  -47898   -48360   -48949   -49745   -50599   -51213   -51540   -51748 
  -51935   -52079   -52206   -52388   -52567   -52658   -52601   -52331 
  -51981   -51629   -51087   -50395   -49836   -49397   -48919   -48510 
  -48246   -47898   -47395   -46958   -46576   -46154   -45964   -46234 
  -46849   -47735   -48831   -49806   -50430   -50739   -50706   -50441 
  -50327   -50560   -51049   -51736   -52645   -53714   -54866   -56119 
  -57419   -58611   -59574   -60195   -60359   -60158   -59889   -59802 
  -60019   -60591   -61462   -62417   -63220   -63717   -63821   -63587 
  -63121   -62458   -61786   -61332   -61042   -60866   -60868   -60892 
  -60791   -60643   -60409   -59882   -59061   -58161   -57182   -56070 
  -55080   -54319   -53719   -53312   -52955   -52532   -52213   -51987 
  -51557   -50886   -50227   -49648   -49055   -48571   -48396   -48408 
  -48423   -48462   -48467   -48392   -48291   -48099   -47833   -47604 
  -47443   -47449   -47655   -47916   -48179   -48497   -48848   -49091 
  -49206   -49366   -49609   -49903   -50304   -50654   -50775   -50753 
  -50559   -50079   -49416   -48608   -47658   -46766   -46035   -45386 
  -44753   -44090   -43363   -42610   -41893   -41242   -40765   -40630 
  -40882   -41484   -42327   -43187   -44107   -45368   -46814   -48183 
  -49573   -50785   -51394   -51481   -51289   -50763   -49848   -48815 
  -48049   -47568   -47353   -47650   -48380   -49118   -49642   -49963 
  -50142   -50204   -50287   -50654   -51247   -51859   -52555   -53327 
  -53948   -54349   -54664   -54975   -55164   -55146   -55010   -54786 
  -54363   -53721   -53007   -52334   -51664   -51004   -50411   -49693 
  -48633   -47413   -46350   -45506   -44753   -44172   -44087   -44428 
  -44805   -45274   -45987   -46582   -46775   -46733   -46521   -46041 
  -45451   -44968   -44542   -44078   -43601   -43114   -42632   -42279 
  -42101   -41917   -41536   -40967   -40299   -39666   -39260   -39167 
  -39400   -40014   -40968   -42013   -42936   -43709   -44285   -44681 
  -45039   -45358   -45603   -45826   -46034   -46180   -46304   -46608 
  -47120   -47543   -47736   -47857   -47954   -47931   -47880   -47901 
  -47969   -48212   -48737   -49378   -49915   -50326   -50616   -50484 
  -49794   -48997   -48359   -47737   -47174   -46735   -46225   -45635 
  -45144   -44660   -44020   -43375   -43039   -43100   -43408   -43836 
  -44275   -44575   -44597   -44301   -43878   -43599   -43593   -43884 
  -44406   -45063   -45790   -46499   -47183   -47922   -48614   -49198 
  -49856   -50586   -51371   -52470   -53858   -55299   -56835   -58533 
  -60378   -62402   -64594   -66905   -69222   -71347   -73128   -74466 
  -75329   -75851   -76163   -76281   -76290   -76252   -76086   -75689 
  -75014   -74123   -73155   -72188   -71150   -70002   -68907   -68027 
  -67422   -67163   -67245   -67518   -67856   -68133   -68113   -67674 
  -66943   -66066   -65063   -63952   -62838   -61791   -60749   -59667 
  -58569   -57368   -56019   -54714   -53549   -52459   -51525   -50751 
  -49909   -48948   -47992   -47049   -46125   -45306   -44628   -44080 
  -43702   -43599   -43819   -44259   -44734   -45083   -45186   -45029 
  -44783   -44624   -44586   -44743   -45247   -46073   -47004   -47925 
  -48876   -49817   -50688   -51565   -52465   -53251   -53823   -54163 
  -54277   -54184   -53922   -53540   -53073   -52507   -51798   -50946 
  -49943   -48761   -47473   -46205   -45082   -44216   -43622   -43260 
  -43075   -42957   -42764   -42371   -41712   -40841   -39900   -38967 
  -38065   -37397   -37201   -37406   -37860   -38541   -39359   -40155 
  -40843   -41407   -41857   -42208   -42559   -43023   -43496   -43856 
  -44177   -44480   -44719   -44990   -45376   -45763   -46069   -46401 
  -46859   -47459   -48192   -48961   -49628   -50144   -50541   -50824 
  -50926   -50848   -50684   -50428   -50028   -49562   -49197   -49030 
  -49040   -49180   -49384   -49553   -49698   -49847   -49838   -49646 
  -49576   -49799   -50205   -50774   -51553   -52393   -53151   -53844 
  -54386   -54762   -55221   -55789   -56214   -56442   -56522   -56309 
  -55581   -54258   -52525   -50660   -48858   -47388   -46526   -46271 
  -46476   -47019   -47707   -48338   -48917   -49491   -49990   -50402 
  -50784   -51112   -51341   -51544   -51786   -52020   -52324   -52843 
  -53384   -53633   -53656   -53598   -53297   -52658   -51971   -51538 
  -51370   -51393   -51673   -52288   -53215   -54326   -55334   -55990 
  -56253   -56080   -55395   -54372   -53361   -52530   -51844   -51371 
  -51237   -51333   -51449   -51522   -51492   -51200   -50612   -49854 
  -48962   -47936   -46930   -46040   -45202   -44430   -43770   -43218 
  -42863   -42733   -42696   -42856   -43428   -44152   -44758   -45449 
  -46286   -46987   -47415   -47605   -47532   -47179   -46662   -46140 
  -45722   -45561   -45864   -46646   -47698   -48940   -50383   -51818 
  -52996   -53771   -53936   -53367   -52200   -50644   -48882   -47177 
  -45782   -44794   -44276   -44313   -44807   -45467   -46102   -46719 
  -47371   -48153   -49240   -50711   -52420   -54127   -55600   -56584 
  -56905   -56617   -55882   -54901   -53980   -53343   -53012   -53025 
  -53401   -53951   -54484   -55059   -55735   -56396   -57095   -58050 
  -59064   -59698   -59958   -60103   -60179   -60206   -60342   -60666 
  -61041   -61307   -61429   -61392   -61160   -60778   -60335   -59791 
  -59062   -58280   -57622   -56997   -56337   -55792   -55405   -55170 
  -55246   -55675   -56185   -56441   -56391   -56206   -55828   -55115 
  -54222   -53270   -52194   -51039   -49851   -48549   -47182   -45964 
  -45026   -44400   -44089   -43958   -43843   -43716   -43501   -43037 
  -42367   -41681   -41058   -40501   -40181   -40326   -40925   -41899 
  -43231   -44663   -45873   -46840   -47597   -48105   -48488   -48952 
  -49505   -50086   -50682   -51132   -51235   -50964   -50359   -49480 
  -48604   -48177   -48395   -49115   -50197   -51445   -52455   -53011 
  -53183   -52949   -52236   -51232   -50228   -49325   -48504   -47869 
  -47535   -47390   -47334   -47440   -47666   -47899   -48129   -48265 
  -48192   -47960   -47579   -47014   -46437   -46015   -45647   -45198 
  -44717   -44272   -43866   -43613   -43643   -43915   -44407   -45176 
  -46214   -47418   -48592   -49612   -50493   -51116   -51401   -51528 
  -51557   -51499   -51586   -51907   -52380   -53124   -54179   -55235 
  -56087   -56759   -57153   -57171   -56905   -56458   -55889   -55278 
  -54733   -54308   -53977   -53738   -53589   -53448   -53289   -53184 
  -53125   -53079   -53154   -53362   -53509   -53520   -53501   -53487 
  -53468   -53504   -53649   -53874   -54186   -54657   -55320   -56157 
  -57213   -58533   -59935   -61160   -62138   -62814   -63097   -63067 
  -62886   -62570   -62100   -61573   -61038   -60464   -59931   -59602 
  -59487   -59480   -59583   -59878   -60423   -61258   -62315   -63381 
  -64246   -64728   -64715   -64251   -63455   -62455   -61361   -60263 
  -59323   -58691   -58343   -58267   -58523   -58973   -59371   -59643 
  -59686   -59304   -58531   -57575   -56532   -55502   -54704   -54264 
  -54111   -54101   -54053   -53802   -53251   -52388   -51365   -50363 
  -49437   -48654   -48091   -47698   -47447   -47401   -47506   -47664 
  -47859   -47885   -47521   -46915   -46247   -45564   -45003   -44658 
  -44508   -44569   -44853   -45329   -45977   -46786   -47719   -48610 
  -49223   -49532   -49639   -49541   -49314   -49183   -49186   -49216 
  -49236   -49094   -48638   -47991   -47272   -46565   -46164   -46353 
  -47203   -48627   -50351   -52051   -53558   -54773   -55607   -56138 
  -56544   -56918   -57365   -57954   -58570   -59193   -59995   -60998 
  -62139   -63414   -64607   -65456   -66032   -66340   -66236   -65873 
  -65434   -64884   -64273   -63684   -63068   -62367   -61561   -60601 
  -59452   -58136   -56740   -55332   -53878   -52395   -50999   -49719 
  -48526   -47445   -46496   -45674   -45055   -44834   -45092   -45748 
  -46818   -48282   -49900   -51494   -52943   -54046   -54760   -55140 
  -55154   -54861   -54363   -53693   -52972   -52316   -51751   -51347 
  -51121   -51027   -51151   -51651   -52558   -53769   -55094   -56315 
  -57319   -58032   -58327   -58174   -57703   -56967   -55906   -54552 
  -53046   -51541   -50209   -49201   -48684   -48827   -49595   -50761 
  -52134   -53506   -54606   -55364   -55845   -55960   -55631   -54980 
  -54107   -53105   -52127   -51230   -50432   -49746   -49074   -48371 
  -47685   -47011   -46327   -45660   -45062   -44604   -44279   -43967 
  -43567   -43043   -42329   -41394   -40322   -39127   -37816   -36572 
  -35421   -34179   -32878   -31638   -30320   -28865   -27545   -26564 
  -25989   -26025   -26716   -27711   -28667   -29461   -30003   -30313 
  -30577   -30968   -31613   -32583   -33863   -35376   -36991   -38577 
  -40125   -41719   -43412   -45286   -47471   -49922   -52460   -54960 
  -57132   -58587   -59245   -59211   -58557   -57495   -56265   -54918 
  -53573   -52462   -51549   -50529   -49252   -47772   -46092   -44210 
  -42291   -40532   -39028   -37828   -36893   -36063   -35191   -34319 
  -33605   -33061   -32597   -32287   -32207   -32231   -32280   -32366 
  -32379   -32216   -31936   -31652   -31437   -31367   -31521   -31961 
  -32705   -33711   -34923   -36322   -37878   -39456   -40929   -42273 
  -43462   -44448   -45231   -45857   -46348   -46638   -46743   -46896 
  -47275   -47889   -48809   -50101   -51649   -53306   -55068   -56912 
  -58706   -60325   -61643   -62543   -63007   -63111   -62988   -62727 
  -62415   -62238   -62290   -62523   -62850   -63120   -63132   -62765 
  -62131   -61475   -60957   -60718   -60799   -61003   -61177   -61294 
  -61225   -60967   -60747   -60666   -60687   -60877   -61270   -61804 
  -62509   -63355   -64130   -64653   -64797   -64457   -63687   -62593 
  -61281   -59885   -58451   -56984   -55608   -54527   -53880   -53780 
  -54304   -55260   -56384   -57538   -58447   -58880   -58880   -58466 
  -57574   -56305   -54931   -53608   -52266   -50868   -49411   -47783 
  -45954   -44031   -42147   -40426   -38939   -37889   -37473   -37522 
  -37840   -38401   -39028   -39560   -40048   -40474   -40724   -40756 
  -40609   -40322   -39933   -39524   -39143   -38852   -38759   -38840 
  -38983   -39089   -39147   -39306   -39674   -40231   -40901   -41545 
  -42084   -42518   -42786   -42804   -42645   -42530   -42591   -42938 
  -43714   -44896   -46437   -48341   -50440   -52499   -54439   -56229 
  -57691   -58721   -59456   -59924   -60031   -59790   -59238   -58569 
  -58100   -57951   -58093   -58543   -59223   -59911   -60430   -60703 
  -60660   -60274   -59573   -58579   -57354   -55968   -54423   -52794 
  -51173   -49485   -47715   -45983   -44269   -42542   -40936   -39486 
  -38169   -37131   -36454   -36093   -36005   -36073   -36176   -36329 
  -36567   -36919   -37432   -38051   -38761   -39700   -40872   -42143 
  -43495   -44811   -45819   -46457   -46754   -46564   -45834   -44798 
  -43777   -43022   -42698   -42885   -43569   -44577   -45610   -46500 
  -47281   -48000   -48624   -49065   -49253   -49203   -48954   -48547 
  -48165   -48053   -48192   -48426   -48740   -49097   -49294   -49228 
  -49070   -48977   -48994   -49273   -49897   -50734   -51644   -52436 
  -52896   -53066   -53086   -52965   -52787   -52752   -52932   -53305 
  -53838   -54405   -54896   -55366   -55893   -56486   -57191   -58043 
  -58997   -60032   -61127   -62241   -63404   -64561   -65450   -65897 
  -65852   -65213   -64046   -62689   -61382   -60199   -59381   -59101 
  -59204   -59535   -59912   -60007   -59697   -58984   -57815   -56315 
  -54714   -53124   -51603   -50270   -49261   -48603   -48314   -48498 
  -49150   -50101   -51147   -52205   -53350   -54550   -55683   -56770 
  -57720   -58214   -58139   -57620   -56689   -55420   -53970   -52360 
  -50612   -48906   -47423   -46244   -45420   -44935   -44665   -44538 
  -44527   -44520   -44467   -44438   -44450   -44532   -44749   -45032 
  -45326   -45713   -46227   -46794   -47305   -47648   -47770   -47692 
  -47391   -46879   -46315   -45753   -45011   -44061   -42975   -41638 
  -40028   -38258   -36316   -34298   -32532   -31191   -30193   -29501 
  -29067   -28684   -28222   -27674   -27004   -26240   -25428   -24576 
  -23802   -23196   -22698   -22294   -21996   -21685   -21303   -20930 
  -20593   -20331   -20322   -20624   -21052   -21496   -21957   -22344 
  -22634   -22948   -23337   -23845   -24582   -25540   -26600   -27696 
  -28793   -29843   -30849   -31860   -32931   -34129   -35461   -36859 
  -38295   -39787   -41317   -42865   -44434   -45979   -47512   -49128 
  -50804   -52448   -54075   -55666   -57139   -58513   -59790   -60894 
  -61849   -62675   -63274   -63603   -63727   -63662   -63397   -63000 
  -62524   -62018   -61600   -61371   -61364   -61529   -61689   -61699 
  -61576   -61318   -60827   -60092   -59199   -58170   -56998   -55771 
  -54567   -53395   -52365   -51585   -51002   -50679   -50728   -50960 
  -51153   -51276   -51216   -50862   -50347   -49832   -49367   -49061 
  -49008   -49168   -49508   -49964   -50401   -50839   -51338   -51785 
  -52181   -52696   -53320   -53966   -54655   -55359   -55977   -56542 
  -57129   -57701   -58274   -58996   -59939   -61115   -62554   -64203 
  -65965   -67794   -69594   -71220   -72609   -73684   -74355   -74723 
  -74919   -74913   -74738   -74476   -74050   -73387   -72533   -71534 
  -70510   -69674   -69092   -68714   -68590   -68708   -68874   -68970 
  -68990   -68882   -68682   -68505   -68338   -68184   -68139   -68215 
  -68356   -68567   -68860   -69200   -69584   -70043   -70517   -70937 
  -71365   -71775   -72074   -72334   -72592   -72780   -72947   -73129 
  -73191   -73111   -72979   -72740   -72389   -72084   -71874   -71703 
  -71602   -71555   -71432   -71166   -70699   -69909   -68832   -67627 
  -66289   -64778   -63194   -61522   -59655   -57675   -55701   -53720 
  -51769   -49921   -48190   -46614   -45259   -44154   -43302   -42646 
  -42024   -41307   -40534   -39753   -38991   -38378   -37993   -37778 
  -37709   -37730   -37692   -37571   -37421   -37200   -36931   -36760 
  -36744   -36860   -37181   -37745   -38404   -39042   -39622   -40025 
  -40210   -40283   -40277   -40228   -40311   -40586   -40988   -41563 
  -42333   -43141   -43878   -44551   -45135   -45648   -46191   -46831 
  -47620   -48524   -49385   -50096   -50637   -50989   -51169   -51256 
  -51284   -51223   -51141   -51140   -51209   -51409   -51889   -52583 
  -53383   -54354   -55410   -56311   -57026   -57591   -57859   -57824 
  -57701   -57481   -57013   -56308   -55350   -54093   -52636   -51130 
  -49669   -48398   -47480   -46892   -46491   -46150   -45708   -45077 
  -44301   -43402   -42388   -41344   -40312   -39280   -38350   -37584 
  -36885   -36248   -35766   -35436   -35247   -35234   -35370   -35613 
  -35953   -36282   -36466   -36515   -36486   -36456   -36568   -36870 
  -37289   -37797   -38360   -38872   -39280   -39672   -40109   -40513 
  -40929   -41493   -42114   -42657   -43141   -43430   -43320   -42914 
  -42386   -41770   -41165   -40643   -40162   -39751   -39497   -39390 
  -39396   -39512   -39676   -39869   -40177   -40641   -41261   -42007 
  -42770   -43493   -44224   -45039   -46031   -47260   -48702   -50237 
  -51750   -53160   -54353   -55302   -56154   -57004   -57809   -58589 
  -59413   -60212   -60912   -61602   -62333   -63056   -63832   -64731 
  -65650   -66474   -67155   -67568   -67627   -67444   -67204   -67019 
  -66963   -67088   -67334   -67570   -67743   -67839   -67838   -67704 
  -67396   -66963   -66476   -65939   -65394   -64948   -64600   -64260 
  -63907   -63506   -62938   -62194   -61379   -60539   -59761   -59203 
  -58958   -59053   -59500   -60260   -61224   -62315   -63456   -64505 
  -65443   -66333   -67080   -67614   -68037   -68314   -68272   -67918 
  -67353   -66595   -65721   -64871   -64073   -63305   -62612   -61972 
  -61291   -60615   -60012   -59395   -58742   -58131   -57530   -56876 
  -56224   -55686   -55288   -54948   -54544   -54037   -53435   -52672 
  -51724   -50740   -49858   -49076   -48390   -47748   -47005   -46216 
  -45590   -45138   -44847   -44808   -44953   -45130   -45368   -45681 
  -45923   -46065   -46242   -46471   -46710   -46983   -47203   -47230 
  -47050   -46652   -46057   -45433   -44901   -44445   -44112   -43977 
  -43956   -43939   -43902   -43773   -43469   -42967   -42231   -41330 
  -40507   -39918   -39573   -39565   -40004   -40766   -41649   -42600 
  -43505   -44190   -44719   -45195   -45546   -45822   -46154   -46528 
  -46969   -47506   -48000   -48394   -48820   -49288   -49696   -50068 
  -50472   -50867   -51201   -51514   -51875   -52251   -52486   -52460 
  -52177   -51673   -50982   -50176   -49384   -48755   -48292   -47907 
  -47580   -47297   -46976   -46599   -46257   -46030   -45895   -45828 
  -45897   -46163   -46597   -47110   -47699   -48393   -49075   -49656 
  -50218   -50830   -51486   -52217   -53014   -53804   -54531   -55115 
  -55456   -55581   -55571   -55410   -55092   -54761   -54545   -54411 
  -54442   -54889   -55769   -56906   -58250   -59716   -61060   -62088 
  -62723   -62946   -62834   -62514   -62097   -61701   -61394   -61145 
  -60884   -60558   -60092   -59430   -58639   -57803   -56968   -56201 
  -55497   -54741   -53866   -52902   -51863   -50756   -49696   -48786 
  -48015   -47406   -47012   -46741   -46508   -46335   -46127   -45793 
  -45485   -45288   -45159   -45201   -45417   -45529   -45371   -44964 
  -44228   -43108   -41798   -40448   -39053   -37688   -36434   -35312 
  -34392   -33745   -33345   -33125   -33054   -33157   -33508   -34108 
  -34833   -35579   -36318   -37003   -37628   -38249   -38830   -39324 
  -39760   -40096   -40216   -40118   -39901   -39613   -39297   -39017 
  -38765   -38517   -38311   -38168   -38046   -37976   -38043   -38175 
  -38262   -38371   -38579   -38885   -39310   -39815   -40303   -40748 
  -41159   -41478   -41668   -41817   -42031   -42353   -42817   -43409 
  -44027   -44599   -45072   -45291   -45149   -44745   -44223   -43641 
  -43104   -42713   -42399   -42088   -41834   -41665   -41566   -41552 
