Origin Time       2011/03/11 14:46:00
Lat.              38.103
Long.             142.860
Depth. (km)       24
Mag.              9.0
Station Code      NGN004
Station Lat.      36.6475
Station Long.     138.1941
Station Height(m) 361
Record Time       2011/03/11 14:48:13
Sampling Freq(Hz) 100Hz
Duration Time(s)  300
Dir.              N-S
Scale Factor      3920(gal)/6182761
Max. Acc. (gal)   11.293
Last Correction   2011/03/11 14:47:58
Memo.             
[...]
  -27799   -27708   -27398   -26951   -26395   -25741   -25042   -24393 
  -23848   -23435   -23302   -23563   -24143   -24812   -25244   -25194 
  -24645   -23842   -23150   -22756   -22630   -22624   -22635   -22697 
  -22832   -22966   -22967   -22718   -22211   -21560   -20985   -20706 
  -20775   -21057   -21390   -21675   -21862   -21968   -21985   -21848 
  -21589   -21349   -21341   -21712   -22291   -22742   -22873   -22690 
  -22281   -21768   -21306   -21006   -20935   -21182   -21826   -22858 
  -24087   -25160   -25716   -25639   -25220   -24960   -25054   -25254 
  -25314   -25207   -25080   -25287   -26045   -27169   -28249   -28976 
  -29318   -29255   -28736   -27924   -27063   -26397   -26147   -26309 
  -26604   -26700   -26512   -26225   -26076   -26193   -26543   -26963 
  -27266   -27406   -27480   -27570   -27692   -27909   -28363   -28985 
  -29465   -29546   -29042   -27965   -26625   -25420   -24686   -24596 
  -25093   -25890   -26681   -27338   -27709   -27679   -27316   -26721 
  -26064   -25626   -25520   -25619   -25845   -26209   -26518   -26532 
  -26248   -25808   -25426   -25318   -25535   -25902   -26203   -26362 
  -26398   -26339   -26149   -25783   -25395   -25154   -25049   -25202 
  -25802   -26729   -27786   -28922   -29975   -30638   -30752   -30351 
  -29486   -28325   -27240   -26511   -26125   -25939   -25796   -25556 
  -25203   -24825   -24447   -23999   -23441   -22786   -22028   -21276 
  -20771   -20566   -20464   -20307   -20051   -19698   -19347   -19147 
  -19176   -19495   -20088   -20880   -21810   -22695   -23225   -23205 
  -22777   -22165   -21499   -21006   -20873   -21204   -21979   -22933 
  -23921   -24892   -25705   -26397   -26986   -27288   -27219   -26942 
  -26706   -26590   -26500   -26375   -26288   -26325   -26414   -26407 
  -26245   -25948   -25525   -24962   -24339   -23763   -23183   -22585 
  -22137   -21982   -22151   -22576   -23059   -23404   -23543   -23461 
  -23153   -22699   -22291   -22182   -22463   -23025   -23794   -24678 
  -25559   -26411   -27118   -27488   -27507   -27303   -26960   -26453 
  -25739   -24788   -23616   -22392   -21401   -20802   -20590   -20770 
  -21275   -22036   -23213   -24855   -26562   -27801   -28392   -28531 
  -28356   -27976   -27635   -27418   -27344   -27453   -27607   -27733 
  -27819   -27654   -27109   -26368   -25637   -25012   -24608   -24433 
  -24409   -24453   -24459   -24418   -24427   -24540   -24631   -24510 
  -24154   -23628   -23079   -22665   -22369   -22161   -22037   -22058 
  -22399   -23031   -23707   -24157   -24151   -23679   -22907   -22077 
  -21531   -21414   -21608   -22009   -22484   -22794   -22736   -22291 
  -21682   -21144   -20773   -20722   -21169   -21973   -22768   -23307 
  -23480   -23287   -22950   -22706   -22513   -22229   -21880   -21629 
  -21682   -22217   -23205   -24268   -24912   -24936   -24512   -23860 
  -23062   -22303   -21848   -21744   -21991   -22675   -23707   -24875 
  -26015   -27042   -27906   -28455   -28550   -28182   -27415   -26434 
  -25496   -24786   -24373   -24286   -24517   -24821   -24947   -24926 
  -24824   -24699   -24680   -24871   -25340   -25969   -26534   -26921 
  -26935   -26370   -25398   -24465   -23891   -23794   -24161   -24871 
  -25708   -26448   -26993   -27254   -27111   -26624   -25950   -25292 
  -24824   -24484   -24203   -24028   -24055   -24432   -25120   -26003 
  -26943   -27558   -27644   -27238   -26386   -25390   -24571   -24006 
  -23762   -23882   -24342   -24977   -25499   -25827   -26093   -26332 
  -26521   -26684   -26835   -26962   -27086   -27174   -27189   -27322 
  -27581   -27620   -27369   -27034   -26714   -26445   -26317   -26410 
  -26605   -26670   -26492   -26050   -25378   -24611   -23949   -23428 
  -22914   -22390   -21959   -21762   -21874   -22144   -22419   -22708 
  -23120   -23788   -24666   -25499   -25943   -25761   -25159   -24625 
  -24480   -24778   -25350   -26057   -26992   -28191   -29518   -30796 
  -31841   -32653   -33337   -33839   -34135   -34318   -34402   -34286 
  -33815   -33004   -32180   -31661   -31516   -31659   -31915   -32103 
  -32066   -31651   -30851   -29871   -28932   -28146   -27582   -27308 
  -27362   -27678   -28092   -28464   -28786   -29149   -29686   -30469 
  -31414   -32352   -33147   -33763   -34190   -34361   -34276   -34070 
  -33889   -33782   -33738   -33723   -33655   -33467   -33196   -32963 
  -32911   -33083   -33389   -33728   -34048   -34406   -34800   -35085 
  -35163   -34985   -34553   -33954   -33289   -32716   -32367   -32314 
  -32581   -32989   -33272   -33266   -32899   -32221   -31332   -30399 
  -29779   -29762   -30357   -31477   -32952   -34437   -35568   -36122 
  -36125   -35790   -35306   -34830   -34522   -34446   -34538   -34774 
  -35081   -35149   -34750   -33976   -33052   -32261   -31819   -31703 
  -31715   -31634   -31293   -30546   -29420   -28222   -27239   -26651 
  -26585   -27049   -27954   -29096   -30233   -31121   -31469   -31185 
  -30546   -29955   -29616   -29505   -29574   -29845   -30343   -30939 
  -31386   -31538   -31400   -31169   -31066   -31093   -31179   -31199 
  -30934   -30317   -29429   -28417   -27500   -26886   -26807   -27355 
  -28250   -29066   -29584   -29770   -29601   -29122   -28504   -27873 
  -27211   -26535   -26057   -25919   -26043   -26362   -26872   -27468 
  -27964   -28214   -28276   -28356   -28534   -28733   -28809   -28505 
  -27682   -26543   -25463   -24790   -24744   -25293   -26188   -27161 
  -27969   -28376   -28277   -27776   -27112   -26563   -26267   -26191 
  -26258   -26377   -26370   -26076   -25562   -24986   -24408   -23899 
  -23492   -23094   -22703   -22434   -22314   -22376   -22726   -23379 
  -24177   -24850   -25205   -25237   -25114   -25050   -25191   -25598 
  -26109   -26430   -26577   -26695   -26699   -26611   -26585   -26583 
  -26547   -26511   -26484   -26388   -26200   -26036   -25901   -25683 
  -25369   -25011   -24712   -24664   -24856   -25055   -25278   -25653 
  -26072   -26408   -26576   -26529   -26358   -26137   -25890   -25641 
  -25389   -25131   -24873   -24599   -24194   -23594   -22881   -22018 
  -20965   -19968   -19362   -19248   -19352   -19421   -19570   -19933 
  -20560   -21504   -22575   -23487   -24167   -24628   -24904   -25127 
  -25389   -25696   -26101   -26732   -27773   -29280   -30969   -32422 
  -33256   -33230   -32553   -31665   -30843   -30308   -30132   -30123 
  -30071   -29789   -29253   -28786   -28576   -28501   -28486   -28539 
  -28719   -28981   -29083   -28855   -28289   -27509   -26762   -26220 
  -25978   -26142   -26692   -27464   -28323   -29221   -30091   -30748 
  -31047   -31084   -31029   -30915   -30674   -30233   -29579   -28918 
  -28553   -28437   -28317   -28052   -27528   -26950   -26679   -26660 
  -26641   -26432   -25945   -25118   -23894   -22534   -21408   -20633 
  -20267   -20313   -20599   -20862   -20981   -21003   -20955   -20974 
  -21217   -21628   -22233   -23084   -23869   -24301   -24452   -24342 
  -24003   -23751   -23678   -23569   -23443   -23394   -23344   -23310 
  -23299   -23237   -23126   -22939   -22723   -22640   -22845   -23470 
  -24387   -25254   -25891   -26278   -26442   -26465   -26380   -26090 
  -25627   -25169   -24774   -24437   -24141   -23870   -23628   -23340 
  -23124   -23169   -23285   -23171   -22619   -21592   -20346   -19155 
  -18300   -18020   -18175   -18526   -18944   -19229   -19274   -19249 
  -19317   -19489   -19848   -20422   -21122   -21944   -22765   -23351 
  -23523   -23060   -21942   -20548   -19308   -18399   -17857   -17616 
  -17573   -17843   -18501   -19381   -20315   -21265   -22374   -23633 
  -24801   -25951   -27209   -28257   -28775   -28749   -28302   -27693 
  -27258   -27090   -27035   -26978   -26881   -26663   -26224   -25573 
  -24870   -24316   -24173   -24605   -25411   -26223   -26686   -26525 
  -25760   -24619   -23331   -22121   -21210   -20834   -21218   -22265 
  -23521   -24606   -25287   -25413   -25123   -24657   -24148   -23813 
  -23876   -24401   -25317   -26354   -27151   -27593   -27813   -27856 
  -27692   -27392   -26990   -26533   -26237   -26253   -26387   -26257 
  -25729   -25063   -24553   -24272   -24205   -24257   -24278   -24158 
  -23764   -23028   -22100   -21226   -20572   -20137   -19806   -19391 
  -18779   -18198   -17905   -17900   -18200   -18693   -19116   -19462 
  -19792   -20049   -20242   -20430   -20536   -20457   -20346   -20457 
  -20882   -21658   -22714   -23658   -24131   -24225   -24227   -24350 
  -24657   -25028   -25335   -25519   -25663   -25862   -26056   -26188 
  -26142   -25704   -24785   -23446   -21879   -20398   -19395   -19270 
  -20184   -21829   -23527   -24732   -25258   -25209   -24975   -24866 
  -24940   -25253   -25717   -26095   -26232   -25959   -25126   -23875 
  -22569   -21382   -20243   -19104   -18017   -17102   -16530   -16517 
  -17016   -17632   -18208   -18845   -19581   -20475   -21499   -22516 
  -23439   -24248   -24958   -25542   -25902   -25885   -25473   -24948 
  -24682   -24925   -25627   -26547   -27484   -28144   -28321   -28067 
  -27490   -26762   -25999   -25240   -24609   -24229   -24208   -24542 
  -25027   -25454   -25689   -25655   -25299   -24637   -23901   -23420 
  -23302   -23372   -23414   -23363   -23259   -23064   -22738   -22309 
  -21812   -21390   -21161   -20959   -20634   -20248   -19820   -19342 
  -18936   -18851   -19315   -20213   -21154   -21969   -22700   -23383 
  -24072   -24639   -24888   -25022   -25379   -26077   -27166   -28507 
  -29740   -30597   -30895   -30622   -29967   -29057   -28091   -27282 
  -26600   -26044   -25670   -25452   -25335   -25142   -24826   -24658 
  -24719   -24800   -24717   -24275   -23429   -22401   -21310   -20184 
  -19086   -18043   -17298   -17170   -17612   -18413   -19363   -20212 
  -20848   -21277   -21576   -21879   -22187   -22465   -22892   -23507 
  -23998   -24199   -24150   -23853   -23460   -23236   -23237   -23258 
  -22986   -22326   -21555   -21079   -21153   -21800   -22745   -23544 
  -24018   -24286   -24461   -24592   -24664   -24573   -24262   -23724 
  -23021   -22355   -21966   -21948   -22181   -22433   -22420   -21757 
  -20300   -18497   -16951   -16013   -16012   -17164   -19310   -22094 
  -24975   -27134   -27954   -27431   -26035   -24462   -23390   -23162 
  -23595   -24199   -24658   -24823   -24498   -23819   -23437   -23982 
  -25608   -27909   -30143   -31601   -31878   -31075   -29701   -28260 
  -27045   -26206   -25856   -26124   -27106   -28851   -31209   -33650 
  -35523   -36446   -36333   -35270   -33466   -31282   -29304   -28162 
  -28154   -29118   -30498   -31624   -32142   -31997   -31266   -30273 
  -29465   -29008   -28797   -28817   -29298   -30443   -32060   -33705 
  -35036   -35813   -36002   -35902   -35707   -35263   -34655   -34457 
  -34960   -35851   -36820   -37704   -38281   -38422   -38134   -37469 
  -36659   -36122   -36123   -36618   -37296   -37712   -37722   -37453 
  -37030   -36755   -36813   -37046   -37354   -37664   -37847   -37891 
  -37774   -37285   -36107   -34214   -32039   -30037   -28590   -28164 
  -28965   -30727   -32933   -34982   -36365   -36926   -36861   -36468 
  -35926   -35197   -34281   -33499   -33195   -33421   -34093   -35067 
  -36057   -36730   -36944   -36825   -36617   -36625   -37038   -37761 
  -38634   -39510   -40168   -40431   -40246   -39779   -39390   -39196 
  -38866   -38011   -36558   -34735   -32906   -31499   -30855   -31029 
  -31874   -33206   -34831   -36526   -38019   -38917   -38827   -37831 
  -36563   -35513   -34623   -33526   -31995   -30129   -28282   -26997 
  -26670   -27118   -27652   -27628   -26809   -25273   -23378   -21632 
  -20421   -19957   -20286   -21274   -22624   -23937   -24927   -25560 
  -25994   -26274   -26225   -25789   -25140   -24549   -24387   -25001 
  -26400   -28098   -29287   -29289   -27918   -25599   -23078   -20969 
  -19649   -19289   -19968   -21613   -23762   -25828   -27315   -27783 
  -27281   -26558   -26425   -27162   -28446   -29547   -29834   -29139 
  -27676   -26060   -25062   -25049   -25935   -27480   -29412   -31355 
  -32884   -33770   -33917   -33165   -31541   -29479   -27501   -25899 
  -24763   -24140   -24134   -24793   -25886   -26996   -27827   -28285 
  -28370   -28206   -28053   -28094   -28297   -28552   -28850   -29161 
  -29428   -29771   -30372   -31252   -32190   -32778   -32688   -31662 
  -29588   -26897   -24401   -22887   -22968   -24736   -27619   -30711 
  -33090   -34101   -33621   -32044   -30059   -28378   -27402   -27114 
  -27273   -27658   -28200   -28929   -29759   -30348   -30312   -29587 
  -28510   -27471   -26600   -25916   -25353   -24792   -24502   -24972 
  -26320   -28264   -30167   -31116   -30534   -28797   -26986   -25805 
  -25017   -24017   -22567   -20973   -19767   -19120   -18683   -18230 
  -17993   -18373   -19720   -22150   -25343   -28573   -30982   -31946 
  -31181   -28699   -24869   -20380   -16021   -12625   -11051   -11748 
  -14335   -17739   -20793   -22788   -23491   -22951   -21386   -19175 
  -16896   -15164   -14319   -14368   -15171   -16401   -17614   -18618 
  -19320   -19628   -19853   -20395   -21408   -23084   -25538   -28482 
  -31104   -32512   -32519   -31475   -29808   -28196   -27278   -27183 
  -27891   -29207   -30455   -31063   -30745   -29257   -26616   -23096 
  -19425   -16692   -15422   -15531   -16660   -18065   -18902   -18537 
  -16764   -14067   -11269    -9188    -8540    -9557   -11902   -14918 
  -17762   -19722   -20581   -20528   -19803   -18676   -17635   -17072 
  -16950   -17053   -17324   -17858   -18625   -19429   -19950   -19731 
  -18615   -17007   -15477   -14432   -13973   -13911   -13999   -13980 
  -13629   -13080   -12829   -13265   -14405   -15976   -17530   -18570 
  -18778   -18191   -17330   -16979   -17526   -18708   -19953   -20701 
  -20696   -20179   -19603   -19169   -18753   -18243   -17774   -17554 
  -17682   -18211   -19114   -20230   -21277   -21945   -22038   -21407 
  -19916   -17861   -16050   -15224   -15688   -17258   -19363   -21459 
  -23258   -24476   -24689   -23532   -21132   -18220   -15607   -13836 
  -13322   -14364   -16899   -20319   -23619   -26018   -27495   -28556 
  -29606   -30624   -31270   -31259   -30561   -29384   -28053   -26898 
  -26300   -26503   -27299   -28237   -29000   -29526   -29768   -29510 
  -28755   -27909   -27385   -27314   -27534   -27851   -28275   -28926 
  -29738   -30358   -30557   -30505   -30469   -30748   -31622   -32903 
  -33946   -34157   -33329   -31729   -29905   -28532   -28214   -28990 
  -30437   -32233   -34143   -35827   -36930   -37223   -36752   -35758 
  -34478   -33098   -31761   -30675   -30234   -30719   -31819   -32811 
  -33133   -32585   -31313   -29722   -28317   -27515   -27377   -27620 
  -27878   -27966   -28056   -28333   -28620   -28614   -28105   -27087 
  -26005   -25592   -26256   -27752   -29526   -31179   -32523   -33420 
  -33776   -33679   -33374   -33222   -33655   -34839   -36483   -37896 
  -38359   -37817   -36740   -35511   -34512   -34137   -34579   -35865 
  -37844   -40089   -41836   -42261   -40978   -38260   -34813   -31395 
  -28655   -27149   -27242   -28815   -31238   -33753   -35655   -36429 
  -36122   -35201   -34114   -33177   -32514   -32014   -31595   -31241 
  -30791   -30039   -28855   -27159   -25066   -23051   -21749   -21493 
  -22164   -23340   -24398   -24881   -24857   -24738   -24936   -25680 
  -26919   -28305   -29382   -29863   -29605   -28505   -26595   -24067 
  -21329   -19023   -17822   -18173   -20043   -22854   -25756   -27947 
  -28910   -28492   -26971   -25023   -23388   -22487   -22335   -22782 
  -23608   -24401   -24743   -24569   -24167   -23891   -24004   -24600 
  -25467   -26204   -26399   -25503   -23150   -19772   -16463   -14292 
  -13743   -14558   -16087   -17727   -19100   -19962   -20176   -19853 
  -19280   -18749   -18535   -18756   -19255   -19782   -20193   -20407 
  -20293   -19692   -18600   -17419   -16789   -16967   -17634   -18356 
  -18889   -19137   -18994   -18247   -16745   -14701   -12737   -11524 
  -11349   -12092   -13462   -15059   -16368   -16932   -16529   -15245 
  -13575   -12189   -11416   -11196   -11270   -11402   -11613   -12012 
  -12496   -12752   -12538   -11934   -11366   -11328   -11951   -13053 
  -14374   -15487   -15891   -15418   -14444   -13597   -13380   -14189 
  -16079   -18459   -20504   -21806   -22343   -22103   -21227   -20183 
  -19384   -19040   -19250   -19983   -21225   -22960   -24918   -26592 
  -27504   -27410   -26251   -24152   -21608   -19245   -17437   -16415 
  -16250   -16851   -18298   -20730   -23795   -26514   -27859   -27472 
  -25818   -23850   -22425   -21832   -21974   -22676   -23592   -24323 
  -24698   -24694   -24234   -23243   -21902   -20689   -19958   -19638 
  -19578   -19971   -21111   -22875   -24738   -26086   -26455   -25884 
  -24952   -24352   -24569   -25753   -27563   -29256   -30241   -30477 
  -30316   -30201   -30340   -30572   -30692   -30753   -31008   -31683 
  -32748   -33876   -34642   -34676   -33778   -32176   -30529   -29556 
  -29646   -30673   -32072   -33139   -33465   -33108   -32344   -31486 
  -30962   -31211   -32298   -33677   -34533   -34511   -33929   -33343 
  -33172   -33545   -34279   -35039   -35459   -35326   -34685   -33660 
  -32395   -31089   -29957   -29191   -28807   -28681   -28762   -29135 
  -29973   -31380   -33138   -34569   -34925   -34000   -32259   -30568 
  -29778   -30370   -32294   -35011   -37711   -39509   -39761   -38542 
  -36561   -34461   -32416   -30399   -28437   -26606   -25199   -24678 
  -25240   -26558   -28027   -29199   -29850   -29914   -29563   -29088 
  -28679   -28374   -28161   -28015   -27933   -27883   -27618   -26937 
  -25983   -25088   -24695   -25169   -26363   -27645   -28417   -28640 
  -28852   -29628   -31141   -33140   -35147   -36626   -37174   -36722 
  -35585   -34229   -33057   -32355   -32217   -32546   -33085   -33445 
  -33290   -32498   -31291   -30057   -28983   -28088   -27395   -26955 
  -26853   -27200   -27979   -28925   -29770   -30383   -30688   -30714 
  -30558   -30255   -29790   -29166   -28396   -27445   -26332   -25192 
  -24157   -23361   -22945   -23017   -23564   -24439   -25490   -26455 
  -26949   -26810   -26105   -24961   -23472   -21758   -20127   -18864 
  -18113   -18048   -18762   -20048   -21513   -22780   -23504   -23520 
  -23002   -22303   -21872   -22110   -22990   -24143   -25247   -26096 
  -26493   -26331   -25661   -24612   -23471   -22682   -22481   -22769 
  -23308   -23832   -24166   -24408   -24824   -25421   -25881   -26074 
  -26297   -26878   -27844   -28995   -30016   -30641   -30848   -30739 
  -30385   -29856   -29429   -29629   -30730   -32432   -34094   -35057 
  -35018   -34146   -32682   -30813   -29109   -28476   -29296   -30917 
  -32244   -32648   -32138   -31014   -29574   -28010   -26489   -25211 
  -24282   -23830   -24104   -25183   -26805   -28412   -29307   -29073 
  -27902   -26498   -25563   -25420   -26070   -27278   -28726   -30128 
  -31130   -31360   -30727   -29470   -27943   -26734   -26594   -27786 
  -30059   -33000   -35896   -37879   -38469   -37754   -36199   -34500 
  -33366   -33184   -33849   -34859   -35630   -35724   -35048   -33934 
