Origin Time       2011/03/11 14:46:00
Lat.              38.103
Long.             142.860
Depth. (km)       24
Mag.              9.0
Station Code      NGN013
Station Lat.      36.1827
Station Long.     137.7850
Station Height(m) 733
Record Time       2011/03/11 14:48:34
Sampling Freq(Hz) 100Hz
Duration Time(s)  180
Dir.              E-W
Scale Factor      3920(gal)/6182761
Max. Acc. (gal)   11.826
Last Correction   2011/03/11 14:48:19
Memo.             
[...]
  -19347   -19462   -19701   -20070   -20529   -20994   -21411   -21736 
  -21947   -22029   -21960   -21789   -21569   -21299   -21011   -20788 
  -20685   -20656   -20604   -20490   -20343   -20199   -20130   -20187 
  -20364   -20641   -20961   -21234   -21373   -21368   -21285   -21159 
  -21010   -20902   -20782   -20529   -20190   -19871   -19600   -19414 
  -19329   -19297   -19221   -19022   -18750   -18505   -18277   -18018 
  -17767   -17592   -17495   -17459   -17497   -17596   -17720   -17870 
  -18050   -18234   -18418   -18637   -18932   -19286   -19659   -20059 
  -20488   -20902   -21303   -21748   -22229   -22640   -22918   -23080 
  -23141   -23142   -23101   -22960   -22751   -22535   -22267   -21908 
  -21480   -21040   -20632   -20261   -19960   -19728   -19473   -19186 
  -18929   -18719   -18615   -18667   -18842   -19078   -19340   -19689 
  -20171   -20690   -21160   -21575   -21968   -22353   -22679   -22952 
  -23174   -23253   -23218   -23169   -23106   -23021   -22932   -22844 
  -22769   -22702   -22636   -22591   -22564   -22510   -22400   -22285 
  -22235   -22213   -22164   -22128   -22181   -22328   -22492   -22605 
  -22674   -22702   -22681   -22612   -22463   -22221   -21959   -21730 
  -21533   -21347   -21120   -20858   -20605   -20382   -20249   -20263 
  -20385   -20531   -20683   -20878   -21111   -21357   -21584   -21750 
  -21866   -21958   -22053   -22203   -22434   -22704   -22946   -23164 
  -23392   -23579   -23705   -23856   -24045   -24193   -24248   -24230 
  -24182   -24075   -23880   -23701   -23595   -23468   -23273   -23051 
  -22825   -22627   -22430   -22147   -21736   -21237   -20693   -20094 
  -19476   -18944   -18556   -18342   -18289   -18294   -18315   -18385 
  -18455   -18468   -18438   -18400   -18405   -18427   -18423   -18444 
  -18476   -18437   -18353   -18297   -18298   -18338   -18414   -18522 
  -18621   -18702   -18801   -18962   -19209   -19500   -19806   -20133 
  -20448   -20768   -21143   -21486   -21694   -21792   -21790   -21633 
  -21313   -20903   -20453   -19975   -19521   -19174   -19014   -19068 
  -19253   -19484   -19736   -19950   -20068   -20146   -20310   -20604 
  -20936   -21282   -21710   -22112   -22327   -22396   -22397   -22360 
  -22320   -22312   -22410   -22607   -22755   -22804   -22839   -22904 
  -22967   -22991   -23022   -23119   -23231   -23344   -23498   -23617 
  -23635   -23579   -23437   -23205   -22916   -22637   -22438   -22306 
  -22250   -22334   -22513   -22666   -22722   -22702   -22635   -22511 
  -22369   -22307   -22341   -22405   -22491   -22659   -22874   -23069 
  -23271   -23473   -23656   -23821   -23884   -23841   -23781   -23641 
  -23378   -23125   -22949   -22796   -22640   -22495   -22371   -22265 
  -22180   -22142   -22177   -22266   -22399   -22581   -22748   -22852 
  -22974   -23131   -23197   -23157   -23057   -22831   -22484   -22089 
  -21634   -21167   -20789   -20551   -20460   -20428   -20436   -20606 
  -20887   -21075   -21190   -21393   -21600   -21673   -21727   -21850 
  -21975   -22127   -22386   -22734   -23060   -23293   -23477   -23608 
  -23600   -23459   -23305   -23242   -23239   -23241   -23346   -23631 
  -23985   -24278   -24538   -24773   -24843   -24742   -24672   -24714 
  -24717   -24604   -24655   -25025   -25246   -25046   -25008   -25436 
  -25660   -25329   -25123   -25460   -25591   -24980   -24396   -24293 
  -23979   -23158   -22329   -21747   -21077   -20281   -19838   -19611 
  -19159   -18773   -18753   -18873   -18880   -18684   -18486   -18541 
  -18681   -18646   -18609   -18957   -19709   -20459   -21041   -21735 
  -22567   -23124   -23382   -23723   -24079   -24144   -24022   -23997 
  -24042   -23961   -23883   -23939   -23839   -23595   -23615   -23767 
  -23697   -23625   -23867   -24324   -24693   -24838   -24919   -25124 
  -25347   -25305   -24948   -24502   -24060   -23607   -23265   -23020 
  -22877   -22972   -23102   -23082   -23082   -23207   -23397   -23490 
  -23406   -23312   -23237   -23047   -22795   -22657   -22636   -22449 
  -21987   -21550   -21340   -21277   -21220   -21175   -21245   -21306 
  -21267   -21277   -21314   -21336   -21498   -21744   -21859   -21881 
  -21951   -22038   -22094   -22162   -22283   -22556   -23033   -23444 
  -23573   -23606   -23622   -23406   -22898   -22346   -21980   -21638 
  -21105   -20562   -20156   -19808   -19495   -19310   -19326   -19437 
  -19655   -20045   -20349   -20462   -20532   -20600   -20775   -21069 
  -21197   -21028   -20761   -20506   -20205   -19969   -19877   -19888 
  -19985   -20021   -20055   -20309   -20528   -20555   -20686   -20940 
  -21116   -21166   -21190   -21311   -21422   -21394   -21302   -21226 
  -21209   -21249   -21307   -21465   -21813   -22229   -22533   -22761 
  -23012   -23267   -23552   -23911   -24287   -24608   -24844   -25036 
  -25194   -25253   -25261   -25392   -25678   -25913   -26034   -26237 
  -26502   -26614   -26598   -26611   -26645   -26580   -26427   -26417 
  -26608   -26713   -26625   -26561   -26598   -26530   -26247   -26005 
  -25995   -25948   -25618   -25159   -24768   -24385   -23841   -23211 
  -22802   -22634   -22468   -22327   -22429   -22728   -22935   -22963 
  -23015   -23179   -23241   -23157   -23215   -23464   -23714   -23860 
  -23889   -23971   -24137   -24244   -24443   -24755   -24915   -24984 
  -25218   -25587   -25898   -26203   -26622   -26958   -27037   -26937 
  -26717   -26388   -25995   -25666   -25455   -25205   -24923   -24688 
  -24301   -23733   -23283   -23071   -22868   -22538   -22328   -22372 
  -22340   -22084   -21930   -22014   -22110   -22140   -22276   -22554 
  -22696   -22554   -22364   -22292   -22266   -22241   -22239   -22276 
  -22338   -22359   -22284   -22151   -22054   -22109   -22309   -22430 
  -22387   -22319   -22269   -22214   -22063   -21766   -21563   -21635 
  -21948   -22419   -22833   -23023   -22914   -22495   -22109   -22086 
  -22188   -22137   -22117   -22223   -22196   -21884   -21414   -20971 
  -20715   -20792   -21097   -21313   -21436   -21597   -21673   -21626 
  -21606   -21746   -21978   -21958   -21744   -21751   -21868   -21783 
  -21599   -21611   -21951   -22401   -22732   -22990   -23202   -23321 
  -23425   -23616   -23823   -23873   -23854   -24048   -24338   -24424 
  -24345   -24222   -24114   -23971   -23762   -23755   -23905   -23656 
  -22979   -22382   -22000   -21563   -21002   -20710   -20796   -20715 
  -20373   -20159   -20068   -19992   -19956   -20133   -20605   -20804 
  -20572   -20671   -21285   -21927   -22455   -23111   -23815   -24109 
  -24101   -24287   -24629   -24808   -24819   -24970   -25247   -25269 
  -25146   -25255   -25441   -25364   -25068   -24782   -24533   -24310 
  -24256   -24332   -24281   -24002   -23734   -23676   -23613   -23460 
  -23480   -23570   -23352   -23021   -22984   -22996   -22741   -22418 
  -22163   -21832   -21306   -20721   -20467   -20685   -21183   -21813 
  -22387   -22695   -22750   -22704   -22665   -22707   -22878   -23212 
  -23613   -23823   -23837   -23866   -23781   -23404   -23058   -22974 
  -22955   -22842   -22602   -22448   -22619   -22873   -23105   -23472 
  -23823   -24047   -24185   -24128   -23815   -23369   -22932   -22571 
  -22308   -22082   -21711   -21195   -20746   -20485   -20404   -20401 
  -20476   -20662   -20766   -20806   -21205   -22009   -22584   -22723 
  -22944   -23242   -23242   -23096   -23103   -23341   -23618   -23735 
  -23747   -23578   -23243   -23082   -23088   -23020   -22941   -22941 
  -22842   -22533   -22288   -22303   -22426   -22608   -22914   -23210 
  -23336   -23275   -23126   -23027   -23000   -23057   -23194   -23197 
  -23070   -23080   -23074   -22762   -22434   -22452   -22561   -22545 
  -22693   -23100   -23459   -23614   -23765   -24087   -24419   -24545 
  -24545   -24625   -24704   -24616   -24498   -24439   -24329   -24264 
  -24382   -24637   -24911   -25039   -25076   -25168   -25227   -25216 
  -25211   -25295   -25444   -25521   -25614   -25801   -25914   -25908 
  -25891   -25909   -25930   -25846   -25656   -25419   -25118   -24848 
  -24764   -24815   -24831   -24780   -24764   -24737   -24587   -24383 
  -24205   -24063   -23946   -23802   -23700   -23727   -23826   -23999 
  -24268   -24561   -24898   -25357   -25727   -25577   -25141   -25138 
  -25357   -25232   -25145   -25385   -25443   -25191   -25024   -24991 
  -24985   -25010   -24853   -24469   -24288   -24404   -24321   -24024 
  -24108   -24571   -24985   -25359   -25761   -26071   -26303   -26532 
  -26723   -26828   -26918   -27054   -27159   -27201   -27259   -27382 
  -27494   -27390   -27138   -27126   -27322   -27433   -27511   -27603 
  -27611   -27552   -27545   -27647   -27704   -27657   -27628   -27528 
  -27188   -26731   -26349   -26005   -25565   -25043   -24534   -24124 
  -23907   -23830   -23712   -23565   -23482   -23385   -23231   -23022 
  -22853   -22981   -23296   -23446   -23497   -23629   -23835   -24142 
  -24589   -25081   -25408   -25537   -25681   -25922   -26232   -26575 
  -26910   -27219   -27384   -27381   -27328   -27258   -27268   -27353 
  -27246   -26962   -26787   -26694   -26467   -26197   -26147   -26242 
  -26341   -26662   -27198   -27558   -27683   -27876   -28323   -28818 
  -29043   -29166   -29486   -29759   -29634   -29384   -29410   -29499 
  -29376   -29211   -29124   -29041   -28889   -28711   -28597   -28379 
  -27941   -27662   -27753   -28002   -28413   -28926   -29061   -28790 
  -28790   -29234   -29451   -29136   -28713   -28690   -29116   -29176 
  -28382   -27877   -28309   -28436   -27899   -27814   -27985   -27655 
  -27478   -27544   -26945   -26090   -25804   -25815   -25925   -26007 
  -25532   -24825   -24817   -25316   -25079   -24148   -24494   -26437 
  -27177   -25429   -24132   -25235   -25994   -24819   -24667   -26674 
  -27683   -25879   -23510   -23471   -24964   -24574   -22528   -22863 
  -25695   -26393   -23834   -21930   -22175   -22363   -22146   -22912 
  -24434   -25156   -24371   -23772   -24622   -24511   -22600   -22900 
  -25847   -26680   -25016   -24807   -26692   -27249   -24766   -22776 
  -24403   -27039   -26965   -25443   -26317   -28740   -28415   -25713 
  -24723   -25562   -25477   -25032   -26236   -27838   -27243   -25022 
  -24078   -24922   -25320   -24364   -24302   -26553   -27878   -26139 
  -24862   -26034   -27046   -26755   -26848   -27903   -28252   -26837 
  -25550   -26535   -27685   -26224   -24698   -25984   -27579   -27114 
  -26483   -27018   -27507   -27230   -26911   -27012   -26698   -26258 
  -26876   -27129   -25588   -24302   -24976   -26092   -26204   -25649 
  -25468   -26220   -26681   -26202   -26098   -26430   -26107   -25826 
  -26666   -27546   -27203   -25967   -24821   -24457   -24463   -24111 
  -23718   -24187   -25199   -25490   -25336   -25468   -25451   -24889 
  -23971   -23494   -23590   -23491   -23410   -23627   -23672   -23063 
  -21571   -20525   -21075   -21598   -20821   -19887   -20010   -20949 
  -21347   -20713   -20530   -21557   -22022   -20868   -20224   -21794 
  -23373   -22841   -21945   -22352   -23021   -23058   -23142   -23532 
  -23349   -23033   -24336   -26356   -25796   -23422   -23698   -25935 
  -25273   -22188   -21728   -23956   -23665   -20727   -20277   -22158 
  -21620   -18995   -18792   -20809   -20764   -18602   -18300   -19786 
  -19218   -17136   -17546   -20402   -21604   -20404   -20605   -22501 
  -22571   -20685   -20114   -21474   -22101   -21885   -22379   -23001 
  -23008   -22541   -22289   -22921   -23712   -23399   -22994   -23603 
  -22776   -20257   -20139   -22356   -22753   -21441   -21793   -23496 
  -23805   -22573   -21446   -20960   -20781   -20803   -20842   -20739 
  -20911   -22292   -24640   -26329   -26975   -26719   -25505   -25027 
  -25866   -25462   -23676   -23576   -24693   -23560   -21280   -22396 
  -25547   -25288   -22844   -23126   -25072   -25241   -24201   -23933 
  -24442   -24637   -23964   -23045   -22978   -22989   -22355   -23232 
  -25320   -24998   -23111   -23216   -24287   -23898   -23135   -23371 
  -23782   -23706   -23441   -23754   -25003   -25679   -24913   -24329 
  -24934   -25307   -24650   -24875   -25804   -24504   -22338   -22886 
  -24564   -23995   -22709   -23553   -24678   -24140   -23658   -24038 
  -24284   -23669   -22629   -22833   -23631   -22536   -21330   -22645 
  -23529   -22193   -21514   -21772   -21376   -21378   -22506   -23105 
  -22554   -22022   -21517   -21120   -21466   -21963   -23435   -25568 
  -25083   -24010   -25383   -25382   -22899   -21396   -21219   -21398 
  -21373   -20511   -19938   -20292   -20126   -19868   -20858   -21652 
  -21599   -21710   -21222   -20404   -21272   -22635   -22259   -21555 
  -21925   -21939   -20938   -20161   -20437   -21747   -23133   -22796 
  -21145   -20869   -21678   -20830   -19020   -19071   -20818   -21659 
  -20534   -19845   -20907   -20209   -17407   -18103   -21897   -22830 
  -21385   -21077   -20838   -19434   -18713   -19708   -20897   -20964 
  -20353   -19895   -20058   -20993   -21673   -21320   -21463   -22464 
  -22262   -21663   -22998   -24525   -24341   -24306   -25455   -26032 
  -23955   -19722   -17135   -16864   -16238   -17440   -22769   -27544 
  -28355   -27934   -27710   -26158   -24335   -24035   -24035   -23341 
  -22686   -23355   -25778   -27632   -27891   -27830   -26051   -22046 
  -19101   -18938   -20435   -22875   -26287   -29143   -29694   -27730 
  -23506   -20405   -23355   -30817   -36602   -39413   -41848   -41782 
  -36158   -28617   -24021   -23768   -27343   -32221   -35714   -36072 
  -31486   -23129   -15880   -12562   -11311    -9630    -8698   -11629 
  -17605   -22259   -24431   -27285   -31431   -31417   -23687   -14587 
  -13278   -19351   -25991   -31455   -36276   -36425   -29567   -19638 
  -12188   -10809   -14863   -20665   -25248   -24818   -17582    -9132 
   -7069   -13629   -23219   -29597   -34039   -37068   -35419   -30360 
  -25157   -21781   -21082   -20612   -20179   -23335   -28609   -31436 
  -31449   -29026   -23034   -15738   -11577   -11570   -13583   -15437 
  -16835   -19258   -22613   -24505   -24973   -26658   -29160   -30012 
  -29853   -28906   -24009   -16631   -13860   -18563   -26622   -31330 
  -30581   -28497   -26601   -23642   -21310   -20992   -21314   -20355 
  -18798   -19455   -22422   -25795   -29417   -33607   -36023   -33994 
  -29955   -28107   -27435   -24902   -22497   -24358   -28899   -30954 
  -29103   -25792   -23486   -22559   -22397   -23350   -24894   -25200 
  -25269   -27504   -29764   -27876   -22746   -18833   -17537   -17499 
  -19501   -24913   -30518   -31627   -28320   -23380   -19114   -17731 
  -19260   -21068   -21471   -20284   -17742   -15504   -15180   -16933 
  -20234   -23387   -26009   -29038   -29900   -26274   -21253   -18742 
  -18568   -18088   -16686   -15961   -16772   -19352   -23254   -26138 
  -25639   -22438   -19384   -17565   -16806   -17659   -19613   -21828 
  -23898   -24020   -22110   -21196   -21861   -21946   -20949   -19684 
  -19026   -19258   -19103   -18371   -18747   -20161   -21137   -21303 
  -21343   -22147   -22900   -22664   -22828   -23001   -22372   -23443 
  -25788   -26286   -25630   -25082   -23826   -22848   -23799   -24778 
  -22975   -19787   -18977   -20459   -20710   -19277   -18790   -19382 
  -19350   -19148   -19474   -19729   -20293   -21302   -21548   -20571 
  -19235   -19026   -20630   -22477   -22457   -21065   -19920   -18739 
  -17171   -16452   -17614   -20051   -21829   -21800   -21170   -21672 
  -22813   -22729   -21312   -20322   -20519   -20200   -18676   -18779 
  -21350   -22880   -21935   -20810   -20542   -19958   -19598   -21229 
  -23521   -24069   -23794   -24920   -26633   -26247   -24083   -22832 
  -22810   -22662   -22892   -24715   -27398   -28529   -26810   -24578 
  -25080   -27160   -26863   -24173   -22568   -22263   -21044   -19924 
  -20897   -22949   -24588   -25444   -25527   -25677   -25512   -23868 
  -21849   -20322   -19451   -20310   -22188   -23683   -25151   -26067 
  -24800   -21692   -18697   -17354   -18105   -19693   -20787   -21839 
  -22735   -22325   -21116   -20067   -18835   -17799   -17944   -19082 
  -20632   -21769   -21799   -20985   -19247   -17122   -16630   -17906 
  -19403   -20808   -21956   -22446   -22078   -20483   -19031   -19794 
  -22040   -23714   -24287   -23792   -21743   -19197   -18565   -19511 
  -20083   -20743   -21893   -22123   -21076   -19626   -19136   -20579 
  -22429   -23078   -23312   -23057   -21229   -19267   -19161   -20256 
  -21064   -21276   -21137   -21088   -21581   -22230   -22480   -21981 
  -20759   -20185   -20570   -20762   -21283   -22284   -22345   -21413 
  -20240   -19634   -20491   -21656   -21987   -22849   -24299   -24033 
  -21453   -18994   -18861   -20042   -20514   -20870   -22277   -22880 
  -21142   -19702   -20564   -21360   -20434   -19956   -21067   -21559 
  -20660   -20342   -21162   -21460   -20627   -20302   -21316   -22427 
  -23313   -24697   -25405   -24143   -22733   -22463   -21905   -21234 
  -21590   -22076   -22093   -22114   -21906   -21340   -21399   -22309 
  -22386   -21326   -21023   -21537   -21704   -21745   -22139   -22921 
  -23007   -21590   -20549   -21146   -21729   -21097   -20302   -20387 
  -20745   -20744   -20705   -20642   -20153   -19909   -20575   -20762 
  -20136   -20198   -20536   -20477   -20773   -21120   -20675   -20146 
  -20603   -21430   -21284   -20194   -19488   -19960   -20995   -21644 
  -22044   -22887   -23152   -21769   -20817   -22008   -23361   -22980 
  -22073   -21847   -21160   -20256   -21430   -23679   -24158   -23474 
  -23301   -23022   -21657   -20145   -20137   -21448   -22368   -22201 
  -21836   -21666   -21392   -21292   -21111   -20366   -20098   -21103 
  -22224   -22436   -22324   -22211   -21321   -20372   -21381   -23651 
  -24619   -24136   -23970   -24684   -25003   -23932   -22871   -23589 
  -24527   -23732   -22803   -22628   -22081   -22180   -23653   -24777 
  -24825   -24107   -22932   -22719   -23904   -24846   -25205   -25610 
  -25245   -23856   -22956   -23703   -25302   -25890   -25431   -25378 
  -25369   -24327   -23176   -23413   -24686   -25497   -25832   -26470 
  -26882   -26739   -26463   -25763   -24471   -23489   -23913   -25148 
  -25330   -24561   -23931   -23104   -22422   -22952   -24032   -24157 
  -23306   -22816   -22671   -21503   -20213   -20829   -22213   -22154 
  -21271   -20856   -20732   -21039   -21870   -21990   -21126   -20937 
  -22094   -22876   -22121   -21281   -21464   -21974   -22225   -22047 
  -21859   -22014   -21884   -21688   -22196   -22860   -22996   -22588 
  -21669   -20707   -20664   -21935   -23415   -23575   -22693   -21947 
  -21397   -20948   -20839   -20952   -21172   -21152   -20748   -20596 
  -20526   -20352   -20857   -21273   -20656   -20284   -20902   -21712 
  -21848   -21248   -21022   -21344   -21092   -20613   -20817   -21268 
  -21591   -21695   -21179   -20510   -20609   -21298   -21979   -22583 
  -23100   -23006   -21896   -20930   -21495   -22553   -22677   -22569 
  -22581   -21775   -20697   -20841   -21923   -22564   -22201   -21452 
  -21363   -22163   -23261   -24277   -25259   -26115   -26176   -25252 
  -24338   -24286   -25060   -26026   -26371   -25678   -24404   -23630 
