Origin Time       2011/03/11 14:46:00
Lat.              38.103
Long.             142.860
Depth. (km)       24
Mag.              9.0
Station Code      NGN015
Station Lat.      36.0451
Station Long.     138.1114
Station Height(m) 761
Record Time       2011/03/11 14:47:45
Sampling Freq(Hz) 100Hz
Duration Time(s)  300
Dir.              N-S
Scale Factor      3920(gal)/6182761
Max. Acc. (gal)   47.065
Last Correction   2011/03/11 14:47:30
Memo.             
[...]
  -39736   -39269   -38682   -37894   -36827   -35462   -33826   -31985 
  -30018   -27972   -25901   -23857   -21904   -20138   -18646   -17464 
  -16583   -15979   -15618   -15472   -15502   -15662   -15921   -16247 
  -16619   -17072   -17679   -18502   -19589   -20947   -22509   -24156 
  -25715   -26988   -27862   -28326   -28400   -28120   -27548   -26703 
  -25581   -24208   -22619   -20872   -19061   -17270   -15580   -14109 
  -12966   -12237   -11961   -12053   -12297   -12473   -12435   -12159 
  -11757   -11399   -11206   -11207   -11360   -11576   -11789   -11996 
  -12210   -12400   -12511   -12495   -12315   -11990   -11596   -11191 
  -10821   -10512   -10243   -10021    -9905    -9935   -10154   -10594 
  -11240   -12057   -13005   -13993   -14947   -15854   -16674   -17320 
  -17703   -17718   -17268   -16350   -15034   -13431   -11728   -10114 
   -8679    -7448    -6380    -5380    -4383    -3326    -2124     -678 
    1117     3348     6053     9208    12698    16311    19833    23064 
   25817    28008    29623    30631    31031    30837    30034    28638 
   26736    24432    21857    19176    16578    14263    12372    10945 
    9943     9268     8802     8442     8064     7515     6690     5521 
    3934     1891     -595    -3473    -6643    -9997   -13452   -16906 
  -20253   -23423   -26378   -29116   -31662   -34049   -36322   -38534 
  -40691   -42734   -44606   -46285   -47771   -49095   -50308   -51462 
  -52588   -53665   -54643   -55445   -55935   -55958   -55370   -54084 
  -52122   -49601   -46694   -43559   -40328   -37150   -34141   -31377 
  -28924   -26817   -25079   -23693   -22602   -21755   -21111   -20625 
  -20257   -19950   -19608   -19152   -18545   -17757   -16770   -15565 
  -14109   -12386   -10445    -8401    -6410    -4680    -3417    -2742 
   -2701    -3260    -4302    -5712    -7410    -9309   -11308   -13302 
  -15203   -16946   -18534   -20019   -21409   -22668   -23706   -24365 
  -24524   -24153   -23287   -22061   -20658   -19231   -17944   -16904 
  -16101   -15502   -15061   -14727   -14484   -14339   -14288   -14313 
  -14427   -14703   -15178   -15824   -16597   -17404   -18121   -18690 
  -19131   -19522   -19995   -20667   -21540   -22521   -23526   -24546 
  -25611   -26714   -27764   -28618   -29094   -29021   -28315   -26978 
  -25053   -22623   -19811   -16741   -13516   -10237    -6991    -3832 
    -784     2168     5089     8048    11026    13945    16698    19139 
   21161    22767    24026    25070    26043    26987    27868    28625 
   29161    29399    29355    29053    28489    27684    26625    25238 
   23505    21498    19323    17127    15082    13292    11767    10488 
    9403     8399     7386     6336     5261     4249     3432     2895 
    2681     2751     2964     3159     3179     2852     2065      848 
    -731    -2669    -4847    -7048    -9270   -11536   -13755   -15930 
  -18006   -19857   -21519   -23008   -24280   -25349   -26168   -26644 
  -26809   -26775   -26612   -26413   -26225   -25951   -25500   -24917 
  -24274   -23648   -23101   -22588   -22053   -21503   -20955   -20512 
  -20331   -20497   -21022   -21882   -22996   -24247   -25550   -26823 
  -27933   -28739   -29155   -29136   -28690   -27930   -26995   -25954 
  -24836   -23657   -22420   -21152   -19947   -18942   -18258   -17991 
  -18186   -18815   -19821   -21177   -22909   -25052   -27596   -30430 
  -33320   -35985   -38213   -39870   -40907   -41398   -41480   -41245 
  -40753   -40064   -39207   -38189   -37015   -35673   -34143   -32430 
  -30549   -28568   -26619   -24821   -23251   -21953   -20947   -20244 
  -19867   -19848   -20184   -20829   -21695   -22658   -23629   -24567 
  -25435   -26247   -27099   -28057   -29096   -30161   -31160   -32010 
  -32678   -33140   -33390   -33425   -33223   -32738   -31918   -30720 
  -29104   -27043   -24556   -21682   -18483   -15069   -11571    -8144 
   -4954    -2150      158     1898     3034     3579     3573     3082 
    2228     1215      293     -304     -377      187     1373     3133 
    5402     8065    11021    14222    17636    21214    24877    28521 
   32040    35361    38430    41214    43673    45735    47343    48472 
   49135    49367    49172    48590    47691    46503    45036    43284 
   41241    38937    36379    33550    30460    27090    23366    19269 
   14885    10374     5945     1799    -1917    -5093    -7663    -9626 
  -10994   -11773   -11991   -11754   -11223   -10523    -9753    -9058 
   -8577    -8363    -8462    -8932    -9759   -10861   -12088   -13262 
  -14259   -14987   -15379   -15473   -15402   -15280   -15199   -15256 
  -15500   -15937   -16561   -17309   -18118   -18995   -20011   -21247 
  -22768   -24587   -26641   -28800   -30906   -32791   -34311   -35400 
  -36052   -36312   -36275   -36088   -35934   -35935   -36098   -36360 
  -36642   -36907   -37188   -37504   -37861   -38244   -38582   -38814 
  -38881   -38692   -38163   -37220   -35798   -33868   -31441   -28597 
  -25483   -22244   -18989   -15833   -12910   -10339    -8203    -6517 
   -5253    -4389    -3901    -3762    -3991    -4585    -5461    -6489 
   -7458    -8125    -8324    -7997    -7183    -6014    -4668    -3326 
   -2126    -1169     -545     -275     -309     -563     -901    -1178 
   -1288    -1187     -903     -535     -256     -241     -568    -1239 
   -2156    -3107    -3859    -4224    -4113    -3561    -2644    -1473 
    -221      934     1842     2407     2609     2479     2085     1498 
     770      -48     -927    -1885    -2955    -4162    -5518    -7003 
   -8566   -10141   -11646   -12991   -14147   -15126   -15947   -16665 
  -17293   -17848   -18430   -19082   -19785   -20524   -21233   -21875 
  -22474   -23016   -23499   -23957   -24393   -24814   -25268   -25830 
  -26589   -27615   -28952   -30614   -32580   -34767   -37031   -39213 
  -41133   -42596   -43449   -43607   -43059   -41883   -40257   -38408 
  -36539   -34807   -33285   -31938   -30651   -29279   -27692   -25837 
  -23706   -21324   -18797   -16268   -13853   -11660    -9768    -8203 
   -6935    -5868    -4879    -3888    -2887    -1886     -885       97 
    1027     1905     2771     3685     4696     5826     7067     8395 
    9782    11210    12700    14314    16092    17993    19932    21809 
   23557    25202    26807    28432    30129    31893    33659    35317 
   36710    37664    38017    37639    36479    34620    32262    29690 
   27209    25073    23416    22240    21466    20982    20676    20426 
   20128    19723    19130    18235    16973    15308    13209    10697 
    7817     4647     1342    -1967    -5261    -8546   -11778   -14904 
  -17852   -20534   -22902   -24915   -26566   -27928   -29068   -30046 
  -30945   -31837   -32778   -33823   -35018   -36379   -37903   -39559 
  -41295   -42997   -44504   -45710   -46528   -46881   -46790   -46322 
  -45549   -44554   -43375   -42021   -40559   -39122   -37865   -36954 
  -36574   -36884   -37970   -39802   -42235   -45036   -47945   -50731 
  -53230   -55344   -57006   -58159   -58769   -58838   -58395   -57523 
  -56325   -54888   -53329   -51764   -50229   -48733   -47269   -45783 
  -44221   -42555   -40783   -38934   -37064   -35181   -33206   -31051 
  -28613   -25818   -22720   -19400   -15900   -12285    -8553    -4684 
    -808     2818     5956     8542    10694    12540    14157    15635 
   17083    18557    19980    21300    22593    23725    24435    24796 
   24891    24626    24110    23511    22867    22254    21715    21141 
   20399    19378    17951    16100    13914    11489     8965     6503 
    4230     2270      706     -426    -1088    -1316    -1204     -789 
     -96      755     1633     2468     3193     3753     4089     4074 
    3580     2555     1027     -908    -3124    -5495    -7924   -10353 
  -12769   -15146   -17429   -19558   -21430   -22921   -24030   -24859 
  -25524   -26138   -26759   -27434   -28233   -29169   -30226   -31380 
  -32516   -33496   -34251   -34740   -34986   -35134   -35316   -35604 
  -36053   -36660   -37364   -38083   -38701   -39142   -39425   -39576 
  -39598   -39483   -39162   -38620   -37975   -37346   -36834   -36509 
  -36380   -36429   -36578   -36705   -36746   -36753   -36877   -37237 
  -37825   -38565   -39297   -39790   -39902   -39603   -38895   -37838 
  -36519   -34963   -33221   -31386   -29461   -27425   -25255   -22841 
  -20113   -17067   -13694   -10096    -6428    -2787      724     4023 
    7054     9711    11907    13599    14776    15480    15799    15874 
   15850    15833    15930    16201    16606    17060    17486    17851 
   18158    18439    18747    19164    19764    20548    21515    22682 
   24014    25512    27201    29013    30877    32759    34585    36291 
   37834    39114    40049    40674    41057    41200    41110    40840 
   40411    39823    39067    38111    36904    35328    33265    30655 
   27503    23900    19938    15671    11173     6571     2039    -2300 
   -6402   -10192   -13605   -16652   -19393   -21939   -24394   -26751 
  -28983   -31129   -33254   -35405   -37605   -39883   -42285   -44850 
  -47537   -50232   -52899   -55567   -58205   -60713   -62951   -64829 
  -66341   -67502   -68335   -68882   -69190   -69347   -69470   -69647 
  -69927   -70269   -70532   -70573   -70314   -69700   -68701   -67322 
  -65555   -63352   -60649   -57418   -53716   -49657   -45432   -41259 
  -37274   -33533   -30092   -27020   -24360   -22130   -20373   -19113 
  -18321   -17966   -18022   -18442   -19140   -19979   -20751   -21276 
  -21486   -21358   -20907   -20191   -19235   -18077   -16798   -15442 
  -14049   -12677   -11371   -10127    -8924    -7769    -6651    -5522 
   -4357    -3153    -1923     -750      266     1130     1931     2839 
    4074     5730     7781    10138    12680    15345    18067    20729 
   23277    25703    27972    29990    31651    32903    33714    34054 
   33917    33296    32186    30590    28512    25966    22985    19648 
   16027    12141     8025     3757     -580    -4880    -9073   -13165 
  -17132   -20928   -24527   -27852   -30797   -33285   -35265   -36709 
  -37631   -38125   -38303   -38259   -38126   -38033   -38107   -38482 
  -39196   -40181   -41340   -42596   -43930   -45360   -46929   -48650 
  -50461   -52281   -54052   -55710   -57210   -58515   -59560   -60287 
  -60685   -60742   -60427   -59709   -58547   -56937   -54968   -52747 
  -50347   -47859   -45355   -42868   -40447   -38108   -35808   -33538 
  -31342   -29321   -27617   -26298   -25311   -24567   -23952   -23349 
  -22654   -21766   -20570   -18983   -16969   -14552   -11839    -8967 
   -6037    -3123     -270     2485     5075     7494     9769    11860 
   13700    15258    16565    17691    18675    19537    20311    20999 
   21591    22113    22618    23155    23762    24438    25112    25680 
   26046    26129    25927    25502    24918    24244    23564    22932 
   22362    21840    21320    20733    20014    19118    18038    16824 
   15561    14296    13081    11970    10939     9957     9032     8129 
    7205     6229     5137     3878     2450      857     -893    -2740 
   -4558    -6255    -7818    -9239   -10522   -11693   -12769   -13729 
  -14490   -14962   -15141   -15070   -14814   -14475   -14146   -13875 
  -13674   -13551   -13516   -13588   -13790   -14106   -14459   -14790 
  -15101   -15413   -15788   -16322   -17055   -17949   -18930   -19928 
  -20856   -21600   -22071   -22192   -21887   -21132   -19949   -18384 
  -16529   -14493   -12366   -10233    -8186    -6289    -4567    -3016 
   -1615     -364      700     1534     2084     2287     2102     1470 
     306    -1406    -3611    -6241    -9191   -12350   -15619   -18866 
  -21962   -24801   -27266   -29252   -30714   -31646   -32061   -31967 
  -31365   -30315   -28927   -27356   -25841   -24612   -23807   -23476 
  -23578   -24014   -24662   -25431   -26284   -27186   -28096   -28972 
  -29757   -30411   -30911   -31249   -31427   -31421   -31179   -30648 
  -29786   -28611   -27161   -25453   -23518   -21399   -19126   -16730 
  -14244   -11737    -9318    -7081    -5068    -3289    -1755     -484 
     524     1290     1842     2191     2313     2160     1663      736 
    -692    -2641    -5081    -7960   -11206   -14693   -18246   -21695 
  -24896   -27731   -30103   -31957   -33284   -34104   -34493   -34557 
  -34354   -33920   -33300   -32488   -31487   -30348   -29094   -27739 
  -26297   -24741   -23066   -21346   -19673   -18124   -16773   -15663 
  -14768   -14009   -13312   -12643   -12010   -11462   -11043   -10777 
  -10707   -10860   -11221   -11747   -12374   -13042   -13683   -14247 
  -14707   -15021   -15140   -15029   -14626   -13868   -12718   -11160 
   -9230    -7037    -4735    -2481     -395     1465     3079     4456 
    5599     6508     7217     7815     8411     9100     9956    10999 
   12204    13525    14872    16155    17342    18435    19467    20499 
   21558    22645    23744    24815    25864    26924    27977    28981 
   29887    30634    31196    31586    31840    31995    32083    32128 
   32131    32069    31933    31744    31528    31272    30936    30457 
   29729    28657    27220    25395    23142    20442    17270    13587 
    9344     4545     -707    -6264   -11930   -17472   -22718   -27606 
  -32146   -36396   -40460   -44440   -48383   -52266   -56081   -59852 
  -63576   -67216   -70715   -73991   -76956   -79562   -81819   -83722 
  -85225   -86313   -86994   -87272   -87161   -86680   -85857   -84724 
  -83308   -81684   -79947   -78153   -76361   -74606   -72880   -71169 
  -69438   -67642   -65768   -63832   -61880   -59949   -58041   -56163 
  -54346   -52602   -50956   -49490   -48234   -47175   -46318   -45625 
  -45035   -44497   -43936   -43310   -42597   -41800   -40997   -40226 
  -39483   -38816   -38228   -37636   -36986   -36211   -35233   -34032 
  -32560   -30723   -28478   -25782   -22629   -19127   -15367   -11380 
   -7233    -3033     1096     5027     8666    11944    14823    17299 
   19353    20979    22197    23000    23391    23397    23091    22584 
   21919    21103    20165    19140    18092    17125    16312    15675 
   15211    14884    14664    14572    14657    14970    15521    16222 
   16940    17587    18128    18602    19062    19532    20016    20434 
   20633    20513    20077    19388    18489    17425    16264    15036 
   13818    12756    11971    11528    11414    11553    11876    12295 
   12707    13041    13206    13114    12746    12104    11211    10158 
    9060     7980     6921     5905     4941     4009     3056     1995 
     786     -588    -2157    -3877    -5680    -7529    -9408   -11288 
  -13141   -14944   -16667   -18312   -19916   -21501   -23089   -24717 
  -26424   -28270   -30317   -32601   -35134   -37839   -40576   -43231 
  -45673   -47764   -49440   -50718   -51668   -52370   -52902   -53307 
  -53584   -53748   -53850   -53946   -54063   -54174   -54211   -54099 
  -53778   -53163   -52195   -50875   -49190   -47149   -44816   -42232 
  -39426   -36464   -33392   -30258   -27158   -24165   -21334   -18737 
  -16380   -14240   -12326   -10566    -8857    -7167    -5464    -3732 
   -2001     -296     1375     3030     4711     6462     8310    10253 
   12272    14349    16421    18390    20147    21576    22558    22995 
   22858    22196    21109    19723    18178    16582    15016    13578 
   12353    11394    10736    10387    10314    10451    10713    11034 
   11393    11750    12067    12318    12417    12275    11842    11056 
    9899     8386     6485     4197     1560    -1427    -4728    -8270 
  -11987   -15819   -19723   -23698   -27740   -31830   -35929   -39957 
  -43821   -47446   -50793   -53865   -56682   -59230   -61474   -63399 
  -64999   -66269   -67259   -68033   -68622   -69040   -69287   -69350 
  -69234   -68947   -68512   -67970   -67370   -66758   -66146   -65543 
  -65025   -64662   -64465   -64426   -64512   -64684   -64890   -65075 
  -65228   -65334   -65375   -65341   -65192   -64870   -64281   -63300 
  -61868   -59991   -57662   -54910   -51846   -48620   -45363   -42179 
  -39136   -36259   -33565   -31070   -28725   -26460   -24196   -21827 
  -19306   -16638   -13851   -11053    -8356    -5833    -3543    -1482 
     406     2164     3829     5434     6959     8364     9623    10704 
   11595    12292    12792    13115    13290    13376    13469    13643 
   13925    14298    14744    15246    15780    16310    16812    17289 
   17687    17909    17922    17720    17285    16633    15835    14982 
   14131    13332    12629    12051    11660    11519    11670    12206 
   13204    14651    16447    18428    20457    22473    24385    26080 
   27532    28738    29660    30322    30786    31113    31397    31731 
   32183    32783    33459    34113    34655    34969    34960    34575 
   33782    32560    30910    28870    26482    23812    20976    18095 
   15279    12630    10197     7982     5973     4165     2549     1096 
    -223    -1424    -2514    -3509    -4438    -5324    -6176    -7004 
   -7826    -8655    -9505   -10389   -11312   -12303   -13407   -14668 
  -16099   -17669   -19336   -21055   -22754   -24353   -25790   -27029 
  -28056   -28870   -29498   -29988   -30396   -30808   -31292   -31883 
  -32611   -33443   -34293   -35108   -35849   -36465   -36920   -37207 
  -37326   -37287   -37105   -36775   -36306   -35734   -35090   -34436 
  -33856   -33402   -33139   -33114   -33303   -33682   -34217   -34832 
  -35433   -35912   -36178   -36172   -35868   -35333   -34676   -33962 
  -33272   -32723   -32416   -32395   -32635   -33086   -33697   -34387 
  -35089   -35760   -36339   -36794   -37126   -37302   -37275   -37028 
  -36547   -35856   -35019   -34074   -33019   -31811   -30395   -28756 
  -26890   -24807   -22560   -20201   -17765   -15305   -12842   -10365 
   -7906    -5514    -3223    -1101      753     2251     3307     3910 
    4130     4027     3654     3079     2359     1552      726      -88 
    -882    -1622    -2268    -2783    -3175    -3519    -3890    -4308 
   -4763    -5227    -5679    -6092    -6411    -6566    -6492    -6176 
   -5626    -4832    -3823    -2648    -1373      -81     1151     2256 
    3180     3879     4319     4491     4412     4105     3593     2924 
    2176     1438      806      340       45      -79      -32      159 
     505     1050     1805     2750     3833     4963     6054     7029 
    7823     8415     8762     8826     8632     8214     7601     6858 
    6054     5229     4443     3766     3234     2862     2626     2450 
    2206     1760     1025      -50    -1523    -3423    -5704    -8304 
  -11160   -14150   -17147   -20119   -23051   -25903   -28659   -31313 
  -33857   -36269   -38515   -40594   -42521   -44296   -45926   -47412 
  -48742   -49902   -50866   -51600   -52086   -52302   -52247   -51948 
  -51426   -50679   -49708   -48497   -46999   -45191   -43081   -40696 
  -38084   -35310   -32434   -29521   -26629   -23777   -20986   -18283 
  -15681   -13208   -10876    -8681    -6649    -4817    -3192    -1766 
    -515      609     1672     2711     3738     4774     5831     6911 
    8019     9151    10320    11537    12775    13992    15148    16211 
   17192    18112    19000    19882    20734    21530    22271    22937 
