Origin Time       2011/03/11 14:46:00
Lat.              38.103
Long.             142.860
Depth. (km)       24
Mag.              9.0
Station Code      NGN008
Station Lat.      36.4022
Station Long.     138.2491
Station Height(m) 482
Record Time       2011/03/11 14:47:52
Sampling Freq(Hz) 100Hz
Duration Time(s)  300
Dir.              E-W
Scale Factor      3920(gal)/6182761
Max. Acc. (gal)   20.170
Last Correction   2011/03/11 14:47:37
Memo.             
[...]
  -36297   -36584   -35796   -33958   -31152   -27805   -24812   -23003 
  -22701   -23751   -25480   -26918   -27575   -27638   -27524   -27749 
  -28721   -30364   -32272   -34067   -35428   -36039   -35798   -35156 
  -34865   -35253   -36173   -37450   -38946   -40428   -41797   -43048 
  -43848   -43746   -42765   -41313   -39676   -37923   -36166   -34545 
  -33193   -32140   -31037   -29559   -28004   -26863   -26281   -26230 
  -26615   -27182   -27651   -27764   -27450   -26995   -26534   -25940 
  -25277   -24632   -23974   -23424   -23152   -23171   -23294   -23120 
  -22329   -21019   -19639   -18724   -18570   -19028   -19719   -20218 
  -20063   -18974   -17145   -15144   -13534   -12757   -13083   -14385 
  -16096   -17450   -18044   -18143   -18148   -18215   -18491   -19068 
  -19565   -19365   -18434   -17336   -16562   -16351   -16706   -17356 
  -17952   -18378   -18792   -19190   -19362   -19576   -20547   -22416 
  -24613   -26596   -27958   -28335   -27723   -26460   -24933   -23594 
  -22954   -23329   -24772   -27149   -30061   -32679   -34040   -33786 
  -32355   -30431   -28642   -27682   -28175   -30184   -32994   -35577 
  -37165   -37567   -37175   -36416   -35529   -34957   -35205   -36356 
  -37895   -39054   -39381   -38797   -37372   -35286   -32726   -29844 
  -26997   -24692   -23301   -22954   -23489   -24465   -25211   -25254 
  -24954   -25173   -26409   -28575   -31251   -33918   -36146   -37635 
  -38074   -37454   -36481   -35868   -35646   -35707   -36029   -36267 
  -36058   -35402   -34451   -33308   -31908   -30208   -28620   -27622 
  -27167   -27007   -27009   -27027   -27061   -27254   -27518   -27678 
  -27862   -28267   -28791   -29237   -29668   -30259   -30983   -31680 
  -32211   -32503   -32510   -32127   -31227   -29800   -27972   -25857 
  -23498   -21092   -19050   -17591   -16417   -14994   -13120   -11081 
   -9356    -8204    -7508    -7178    -7411    -8273    -9549   -11122 
  -12939   -14897   -16974   -19012   -20795   -22342   -23725   -24962 
  -25977   -26587   -26815   -26839   -26639   -26120   -25379   -24791 
  -24770   -25310   -26103   -26910   -27455   -27482   -27099   -26690 
  -26591   -27046   -28187   -29982   -32287   -34774   -36900   -38181 
  -38459   -37853   -36583   -34845   -32834   -30870   -29231   -27921 
  -26856   -26116   -25723   -25331   -24478   -23149   -21852   -21011 
  -20604   -20558   -21004   -22009   -23403   -24930   -26340   -27488 
  -28545   -29724   -30843   -31537   -31666   -31464   -31369   -31528 
  -31675   -31618   -31487   -31509   -31718   -31942   -32019   -31916 
  -31701   -31413   -31036   -30702   -30671   -31220   -32536   -34515 
  -36920   -39504   -41944   -44040   -45801   -47272   -48342   -48752 
  -48418   -47574   -46538   -45484   -44505   -43810   -43656   -44178 
  -45172   -46045   -46252   -45630   -44329   -42777   -41484   -40702 
  -40345   -40164   -40066   -40067   -39960   -39603   -39197   -38825 
  -38381   -38067   -38266   -38963   -39698   -39981   -39554   -38348 
  -36569   -34781   -33562   -33075   -33097   -33354   -33686   -33901 
  -33767   -33147   -32048   -30598   -29093   -27915   -27315   -27353 
  -27961   -28972   -30189   -31286   -31875   -31969   -31961   -32111 
  -32381   -32631   -32780   -32839   -32800   -32562   -32030   -31195 
  -30145   -29060   -27991   -26844   -25664   -24639   -23975   -23798 
  -24033   -24491   -24901   -24919   -24423   -23706   -23224   -23312 
  -24161   -25694   -27447   -28771   -29133   -28415   -27073   -25714 
  -24501   -23287   -22101   -21196   -20755   -20716   -20962   -21545 
  -22452   -23284   -23466   -22807   -21711   -20741   -20140   -19921 
  -20112   -20655   -21239   -21500   -21299   -20795   -20305   -19979 
  -19727   -19422   -18944   -18249   -17508   -16970   -16729   -16784 
  -17142   -17862   -18926   -20063   -21000   -21723   -22386   -23063 
  -23654   -24072   -24313   -24362   -24374   -24681   -25443   -26630 
  -28209   -30102   -32049   -33630   -34561   -34942   -35093   -35256 
  -35550   -36049   -36841   -38108   -39954   -42041   -43692   -44358 
  -43996   -43138   -42399   -41984   -41912   -42344   -43372   -44671 
  -45692   -46142   -46020   -45439   -44502   -43243   -41780   -40519 
  -40030   -40451   -41248   -41817   -41990   -41867   -41501   -40882 
  -40087   -39350   -38971   -39046   -39394   -39615   -39190   -37839 
  -35706   -33189   -30786   -28953   -28012   -27972   -28336   -28364 
  -27554   -25813   -23383   -20713   -18302   -16495   -15391   -14789 
  -14274   -13601   -12807   -11930   -10949    -9885    -8742    -7499 
   -6284    -5379    -4887    -4676    -4577    -4457    -4314    -4242 
   -4270    -4418    -4871    -5890    -7466    -9269   -10909   -12097 
  -12643   -12470   -11837   -11348   -11494   -12395   -13953   -15960 
  -18124   -20145   -21763   -22875   -23570   -24080   -24629   -25183 
  -25621   -26051   -26702   -27663   -28654   -29210   -29237   -29089 
  -29147   -29509   -30048   -30735   -31807   -33492   -35709   -38009 
  -39719   -40438   -40401   -40179   -40157   -40433   -40995   -41844 
  -42961   -44179   -45113   -45403   -44954   -43926   -42563   -40936 
  -38961   -36591   -33811   -30740   -27773   -25295   -23425   -22143 
  -21486   -21475   -21842   -22126   -21950   -21165   -20153   -19610 
  -19773   -20380   -21194   -21989   -22398   -22173   -21443   -20593 
  -20002   -19850   -20120   -20596   -20894   -20781   -20317   -19627 
  -18845   -18256   -18138   -18410   -18759   -19087   -19552   -20327 
  -21416   -22611   -23649   -24406   -25016   -25784   -26930   -28477 
  -30343   -32376   -34313   -35919   -37079   -37730   -37914   -37896 
  -38068   -38673   -39572   -40364   -40788   -40929   -41087   -41443 
  -41873   -42282   -42824   -43617   -44553   -45301   -45465   -44864 
  -43635   -42188   -41027   -40356   -39909   -39344   -38483   -37222 
  -35668   -34134   -32819   -31693   -30722   -29976   -29503   -29320 
  -29396   -29657   -30164   -31078   -32479   -34264   -36214   -38051 
  -39472   -40298   -40572   -40449   -39920   -38887   -37598   -36526 
  -35842   -35414   -35150   -35034   -34999   -34917   -34544   -33670 
  -32356   -30878   -29479   -28322   -27726   -28015   -29115   -30635 
  -32195   -33615   -34888   -35985   -36698   -36675   -35807   -34452 
  -33262   -32760   -32883   -33179   -33348   -33349   -33139   -32504 
  -31224   -29242   -26683   -23876   -21079   -18295   -15621   -13360 
  -11646   -10338    -9062    -7507    -5793    -4133    -2528    -1027 
     239     1198     1841     2227     2386     2274     1897     1353 
     655     -386    -1899    -3663    -5269    -6529    -7542    -8438 
   -9193    -9700    -9897    -9745    -9253    -8559    -7834    -7228 
   -6881    -6695    -6343    -5659    -4797    -4076    -3821    -4294 
   -5641    -7826   -10591   -13556   -16350   -18718   -20736   -22712 
  -24793   -26809   -28522   -30075   -31747   -33375   -34646   -35394 
  -35417   -34614   -33166   -31428   -29908   -29139   -29314   -30186 
  -31251   -31963   -31928   -30984   -29169   -26767   -24435   -23022 
  -23014   -24182   -25813   -27418   -28978   -30547   -32084   -33470 
  -34606   -35656   -36872   -38147   -39110   -39568   -39582   -39358 
  -39067   -38657   -38038   -37340   -36870   -36869   -37188   -37310 
  -36783   -35549   -33913   -32283   -30817   -29368   -27913   -26698 
  -25883   -25411   -25182   -25129   -25122   -24958   -24484   -23799 
  -23215   -22964   -23074   -23342   -23559   -23675   -23592   -23151 
  -22205   -20710   -18893   -17140   -15791   -15022   -14904   -15411 
  -16299   -17172   -17655   -17571   -17098   -16578   -16182   -15998 
  -16216   -17046   -18644   -20949   -23585   -26103   -28110   -29360 
  -29946   -30213   -30504   -30905   -31255   -31533   -31888   -32267 
  -32544   -32855   -33449   -34318   -35162   -35631   -35528   -34884 
  -33915   -32869   -31899   -31121   -30752   -30903   -31325   -31678 
  -31876   -32043   -32329   -32791   -33313   -33657   -33657   -33360 
  -32983   -32740   -32701   -32725   -32556   -32220   -32139   -32673 
  -33745   -34977   -36044   -36852   -37386   -37568   -37475   -37455 
  -37856   -38792   -40012   -41075   -41739   -42035   -42101   -42014 
  -41887   -41996   -42610   -43783   -45215   -46319   -46615   -46036 
  -44824   -43332   -41912   -40773   -39890   -39148   -38531   -38115 
  -37837   -37423   -36606   -35283   -33544   -31690   -30036   -28741 
  -27895   -27545   -27502   -27305   -26486   -24866   -22601   -20051 
  -17654   -15730   -14379   -13505   -12832   -12052   -10991    -9621 
   -8119    -6766    -5707    -4903    -4270    -3813    -3533    -3319 
   -3147    -3107    -3177    -3388    -3818    -4297    -4576    -4503 
   -3957    -3074    -2311    -2013    -2241    -2959    -4105    -5508 
   -6886    -8032    -8909    -9597   -10268   -11106   -12213   -13527 
  -14951   -16494   -18220   -20167   -22210   -24167   -26028   -27923 
  -30060   -32582   -35491   -38756   -42213   -45509   -48280   -50246 
  -51398   -52003   -52284   -52513   -52986   -53673   -54439   -55243 
  -56003   -56665   -57175   -57397   -57162   -56322   -54868   -53078 
  -51233   -49248   -46932   -44367   -41820   -39536   -37594   -35858 
  -34193   -32580   -31013   -29570   -28399   -27473   -26720   -26231 
  -26101   -26222   -26323   -26261   -26291   -26686   -27239   -27552 
  -27449   -27019   -26537   -26136   -25690   -25108   -24459   -23944 
  -23691   -23489   -23029   -22246   -21174   -19873   -18562   -17502 
  -16907   -16997   -17738   -18773   -19805   -20744   -21522   -22187 
  -22947   -23798   -24533   -25156   -25820   -26534   -27133   -27380 
  -27171   -26648   -26015   -25420   -24969   -24710   -24649   -24656 
  -24438   -23776   -22664   -21262   -19903   -18912   -18373   -18269 
  -18547   -19002   -19423   -19769   -20105   -20555   -21238   -22088 
  -22876   -23482   -23895   -23958   -23622   -23226   -23013   -23027 
  -23382   -23892   -24112   -23889   -23306   -22442   -21300   -19957 
  -18600   -17278   -16042   -14995   -14136   -13523   -13332   -13629 
  -14233   -14923   -15689   -16605   -17706   -18978   -20304   -21651 
  -23148   -24842   -26492   -27880   -29202   -30499   -31355   -31644 
  -31540   -31215   -30953   -30889   -31082   -31697   -32760   -34130 
  -35437   -36276   -36579   -36500   -36252   -36018   -35899   -35958 
  -36175   -36401   -36408   -36083   -35481   -34722   -33919   -33065 
  -32131   -31315   -30829   -30546   -30241   -29995   -29874   -29663 
  -29364   -29172   -29090   -29152   -29424   -29909   -30620   -31453 
  -32280   -33137   -34069   -34947   -35558   -35869   -35950   -35730 
  -35101   -34128   -33135   -32480   -32304   -32690   -33702   -35208 
  -36837   -38155   -39049   -39678   -40010   -40166   -40702   -41823 
  -43224   -44684   -46035   -47061   -47532   -47353   -46626   -45432 
  -43965   -42503   -41205   -40198   -39387   -38482   -37448   -36448 
  -35628   -35100   -34737   -34175   -33195   -31857   -30262   -28317 
  -25975   -23590   -21650   -20248   -19221   -18481   -17842   -17178 
  -16563   -15897   -15094   -14265   -13414   -12490   -11461   -10326 
   -9127    -7897    -6687    -5505    -4380    -3421    -2666    -2049 
   -1448     -802     -235       75      151      126     -121     -815 
   -1867    -3062    -4389    -5920    -7552    -9095   -10589   -12121 
  -13584   -14978   -16381   -17682   -18768   -19710   -20735   -22092 
  -23901   -26198   -28876   -31710   -34577   -37467   -40344   -43063 
  -45554   -47847   -49867   -51584   -53120   -54508   -55737   -56928 
  -58152   -59153   -59596   -59533   -59272   -59038   -58911   -58899 
  -59025   -59204   -59150   -58663   -57756   -56512   -55011   -53363 
  -51857   -50761   -50034   -49527   -49128   -48693   -48067   -47138 
  -45898   -44367   -42561   -40565   -38540   -36609   -34786   -33067 
  -31410   -29653   -27734   -25796   -24003   -22383   -20809   -19272 
  -17961   -16925   -15995   -14918   -13659   -12443   -11345   -10380 
   -9734    -9536    -9797   -10400   -11058   -11514   -11596   -11183 
  -10362    -9414    -8610    -8119    -8066    -8570    -9612   -10967 
  -12398   -13731   -14955   -16268   -17732   -19222   -20748   -22416 
  -24256   -26184   -28082   -29921   -31679   -33268   -34608   -35627 
  -36266   -36528   -36529   -36442   -36450   -36821   -37676   -38739 
  -39650   -40231   -40381   -40094   -39527   -38903   -38410   -38125 
  -38012   -38052   -38181   -38199   -37935   -37334   -36597   -36156 
  -36111   -36162   -36263   -36529   -36764   -36814   -36814   -36836 
  -36806   -36615   -36159   -35416   -34537   -33744   -33060   -32396 
  -31783   -31267   -30704   -29857   -28714   -27457   -26234   -25161 
  -24353   -23863   -23669   -23678   -23689   -23487   -22941   -21985 
  -20686   -19281   -18125   -17497   -17365   -17434   -17365   -16884 
  -15928   -14700   -13499   -12567   -12105   -12280   -13097   -14299 
  -15480   -16355   -16890   -17131   -17112   -16939   -16812   -16960 
  -17442   -18133   -18953   -19850   -20741   -21578   -22282   -22775 
  -23169   -23700   -24482   -25415   -26348   -27211   -27964   -28641 
  -29308   -29973   -30716   -31698   -33003   -34622   -36579   -38965 
  -41664   -44343   -46894   -49366   -51611   -53472   -54999   -56222 
  -57127   -57869   -58613   -59348   -59933   -60222   -60128   -59607 
  -58731   -57706   -56630   -55544   -54583   -53806   -53162   -52593 
  -51990   -51209   -50208   -49112   -48139   -47425   -46874   -46216 
  -45260   -44021   -42591   -41024   -39341   -37570   -35831   -34266 
  -32851   -31377   -29585   -27499   -25357   -23155   -20774   -18299 
  -15848   -13428   -11107    -8977    -7002    -5189    -3586    -2204 
   -1140     -433       -4      221      315      358      407      465 
     455      295       15     -296     -634     -948    -1055     -919 
    -631     -208      253      559      598      397      107     -186 
    -560    -1088    -1784    -2599    -3417    -4227    -5127    -6094 
   -7065    -8073    -9092   -10047   -11062   -12377   -14015   -15832 
  -17692   -19479   -21196   -22924   -24651   -26307   -27910   -29538 
  -31153   -32641   -34027   -35480   -37061   -38624   -40014   -41134 
  -41999   -42815   -43762   -44862   -46062   -47249   -48282   -49080 
  -49569   -49593   -49163   -48511   -47676   -46672   -45909   -45536 
  -45152   -44640   -44169   -43710   -43292   -42998   -42664   -42141 
  -41534   -41043   -40829   -40821   -40690   -40261   -39637   -38944 
  -38298   -37832   -37532   -37224   -36909   -36678   -36412   -35978 
  -35412   -34885   -34544   -34314   -34075   -33852   -33562   -32967 
  -32060   -31096   -30251   -29674   -29512   -29674   -29998   -30375 
  -30530   -30303   -29911   -29539   -29213   -28948   -28686   -28388 
  -28154   -28014   -27778   -27335   -26800   -26218   -25584   -25028 
  -24635   -24417   -24337   -24162   -23746   -23188   -22490   -21639 
  -20818   -20039   -19273   -18718   -18360   -18095   -18028   -18152 
  -18513   -19125   -19652   -19890   -19991   -20130   -20323   -20474 
  -20512   -20517   -20625   -20747   -20702   -20512   -20319   -20193 
  -20066   -19893   -19789   -19865   -20114   -20566   -21301   -22336 
  -23483   -24385   -25002   -25556   -26042   -26567   -27395   -28452 
  -29584   -30782   -31933   -32941   -33883   -34792   -35716   -36777 
  -37985   -39335   -40819   -42320   -43821   -45384   -46934   -48406 
  -49796   -51021   -51995   -52784   -53540   -54357   -55331   -56448 
  -57351   -57710   -57566   -57111   -56580   -56154   -55785   -55432 
  -55223   -55180   -55079   -54675   -53929   -52950   -51788   -50523 
  -49348   -48283   -47131   -45903   -44778   -43674   -42462   -41280 
  -40145   -38872   -37528   -36319   -35188   -34022   -32947   -32029 
  -31032   -29793   -28495   -27266   -26020   -24829   -23792   -22876 
  -22167   -21696   -21276   -20780   -20075   -18993   -17632   -16258 
  -14960   -13731   -12693   -11989   -11619   -11541   -11711   -12008 
  -12288   -12515   -12782   -13175   -13737   -14573   -15698   -16889 
  -17939   -18890   -19773   -20511   -21297   -22359   -23537   -24704 
  -25905   -27068   -28104   -29032   -29874   -30604   -31228   -31841 
  -32559   -33483   -34672   -36051   -37428   -38625   -39585   -40290 
  -40700   -40974   -41412   -42014   -42506   -42760   -42819   -42649 
  -42170   -41481   -40795   -40075   -39163   -38074   -36847   -35535 
  -34192   -32719   -31033   -29171   -27142   -24994   -22934   -21130 
  -19578   -18237   -17054   -15856   -14465   -12953   -11538   -10311 
   -9262    -8454    -7900    -7415    -6897    -6469    -6235    -6160 
   -6177    -6307    -6618    -7064    -7473    -7683    -7662    -7431 
   -7024    -6635    -6548    -6921    -7704    -8704    -9694   -10600 
  -11523   -12554   -13713   -14991   -16395   -17948   -19632   -21420 
  -23299   -25268   -27382   -29542   -31409   -32922   -34342   -35657 
  -36689   -37522   -38393   -39414   -40527   -41655   -42718   -43508 
  -43901   -44001   -43966   -43904   -43830   -43673   -43370   -42887 
  -42289   -41763   -41382   -41020   -40517   -39885   -39332   -38895 
  -38348   -37678   -37070   -36473   -35686   -34645   -33477   -32329 
  -31246   -30281   -29407   -28436   -27316   -26099   -24701   -23171 
  -21780   -20640   -19702   -18914   -18131   -17266   -16388   -15522 
  -14617   -13671   -12800   -12128   -11711   -11610   -11830   -12287 
  -12968   -13866   -14881   -15917   -16923   -17886   -18849   -19842 
  -20781   -21543   -22005   -22212   -22519   -23052   -23611   -24163 
  -24681   -25100   -25535   -26065   -26766   -27744   -28846   -29781 
  -30420   -30841   -31175   -31417   -31603   -31941   -32486   -33108 
  -33823   -34680   -35497   -36055   -36306   -36318   -36253   -36280 
  -36404   -36561   -36870   -37459   -38156   -38583   -38548   -38273 
  -37986   -37628   -37230   -36968   -36820   -36592   -36186   -35643 
  -35096   -34701   -34442   -34225   -34040   -33827   -33509   -33137 
  -32722   -32238   -31774   -31403   -31046   -30560   -29922   -29281 
  -28722   -28205   -27723   -27357   -27227   -27328   -27547   -27841 
  -28239   -28698   -29159   -29622   -30025   -30278   -30396   -30329 
  -29966   -29380   -28734   -28162   -27837   -27796   -27878   -27991 
  -28068   -27916   -27544   -27163   -26850   -26644   -26615   -26726 
  -26909   -27136   -27305   -27336   -27338   -27391   -27423   -27509 
  -27767   -27978   -27883   -27613   -27361   -27112   -26927   -26933 
  -27097   -27283   -27417   -27436   -27259   -27022   -26950   -27011 
  -27090   -27227   -27512   -27972   -28595   -29388   -30276   -31076 
  -31705   -32162   -32399   -32461   -32506   -32621   -32794   -33038 
  -33384   -33747   -33968   -33992   -33853   -33576   -33218   -32909 
  -32739   -32660   -32594   -32561   -32716   -33096   -33502   -33841 
  -34204   -34550   -34741   -34838   -34966   -35091   -35168   -35234 
  -35291   -35246   -35025   -34696   -34322   -33896   -33431   -32988 
  -32637   -32473   -32535   -32668   -32788   -33044   -33471   -33975 
