Origin Time       2011/03/11 14:46:00
Lat.              38.103
Long.             142.860
Depth. (km)       24
Mag.              9.0
Station Code      NGN017
Station Lat.      35.9749
Station Long.     137.8259
Station Height(m) 916
Record Time       2011/03/11 14:47:56
Sampling Freq(Hz) 100Hz
Duration Time(s)  248
Dir.              E-W
Scale Factor      3920(gal)/6182761
Max. Acc. (gal)   12.506
Last Correction   2011/03/11 14:47:41
Memo.             
[...]
  -10081   -11026   -11371   -11192   -10861   -10656   -10569   -10495 
  -10356   -10057    -9467    -8540    -7465    -6471    -5629    -5045 
   -4887    -5082    -5330    -5381    -5151    -4746    -4294    -3739 
   -3108    -2660    -2517    -2541    -2607    -2706    -2882    -3112 
   -3284    -3496    -4106    -5267    -6716    -8071    -9024    -9397 
   -9290    -8951    -8589    -8435    -8569    -8926    -9592   -10434 
  -10951   -10904   -10401    -9552    -8434    -7189    -6082    -5322 
   -4843    -4620    -4815    -5309    -5647    -5571    -5217    -4831 
   -4513    -4345    -4561    -5206    -5914    -6335    -6500    -6564 
   -6538    -6425    -6291    -6223    -6204    -5975    -5426    -4770 
   -4058    -3162    -2128    -1129     -393     -117     -346    -1005 
   -1996    -3175    -4315    -5288    -6096    -6707    -7078    -7335 
   -7876    -9022   -10588   -12220   -13710   -14804   -15323   -15412 
  -15301   -15074   -14681   -13958   -12873   -11728   -10846   -10229 
   -9676    -9079    -8378    -7458    -6360    -5319    -4488    -3807 
   -3185    -2725    -2541    -2480    -2413    -2431    -2591    -2905 
   -3574    -4910    -6996    -9532   -12034   -14072   -15283   -15421 
  -14585   -13187   -11668   -10263    -9098    -8478    -8618    -9126 
   -9352    -9120    -8749    -8481    -8215    -7906    -7744    -7784 
   -7882    -8045    -8425    -9024    -9592    -9885    -9990   -10162 
  -10445   -10703   -10817   -10693   -10285    -9633    -8713    -7405 
   -5708    -3774    -1717      418     2472     4065     4809     4675 
    3950     2859     1572      330     -706    -1457    -1804    -1623 
    -890      121      877      931      108    -1530    -3700    -5959 
   -7905    -9410   -10583   -11478   -12028   -12253   -12379   -12710 
  -13405   -14329   -15134   -15539   -15500   -15121   -14543   -13904 
  -13258   -12425   -11178    -9652    -8177    -6939    -6076    -5687 
   -5713    -5983    -6369    -6836    -7241    -7297    -6939    -6443 
   -6130    -6157    -6460    -6890    -7396    -7917    -8344    -8668 
   -8893    -8967    -8950    -9048    -9431   -10017   -10507   -10722 
  -10722   -10620   -10439   -10172    -9913    -9768    -9536    -8890 
   -7896    -6809    -5651    -4379    -3128    -2194    -1750    -1526 
   -1234    -1143    -1599    -2471    -3497    -4547    -5442    -5954 
   -5942    -5495    -4973    -4785    -5168    -6200    -7766    -9469 
  -10903   -11955   -12700   -13332   -14030   -14645   -14788   -14234 
  -13128   -11846   -10579    -9066    -7028    -4679    -2494     -765 
     441     1156     1501     1713     1977     2235     2243     1864 
    1236      526     -377    -1605    -2948    -4009    -4661    -5108 
   -5481    -5627    -5432    -5154    -5337    -6381    -8238   -10479 
  -12518   -13848   -14233   -13702   -12566   -11352   -10428    -9752 
   -9173    -8658    -8096    -7187    -5795    -4231    -2947    -2109 
   -1716    -1844    -2591    -3877    -5331    -6542    -7450    -8284 
   -9231   -10298   -11421   -12602   -13811   -14888   -15607   -15751 
  -15246   -14220   -12892   -11474   -10032    -8484    -6857    -5367 
   -4247    -3576    -3201    -2897    -2672    -2679    -2891    -3253 
   -4014    -5561    -8079   -11359   -14770   -17614   -19518   -20432 
  -20533   -20129   -19432   -18483   -17342   -16225   -15376   -14844 
  -14478   -14040   -13422   -12841   -12588   -12637   -12687   -12520 
  -12231   -12032   -11972   -12055   -12287   -12543   -12637   -12413 
  -11776   -10800    -9659    -8516    -7542    -6856    -6391    -5910 
   -5239    -4471    -3832    -3525    -3761    -4553    -5586    -6503 
   -7146    -7541    -7779    -7944    -8118    -8323    -8417    -8294 
   -8095    -7983    -8032    -8388    -9156   -10272   -11532   -12660 
  -13486   -14028   -14350   -14555   -14757   -14816   -14370   -13213 
  -11494    -9654    -8192    -7332    -6949    -6752    -6449    -5945 
   -5323    -4701    -4265    -4120    -4227    -4480    -4704    -4765 
   -4528    -3786    -2537    -1201     -392     -501    -1487    -2946 
   -4331    -5285    -5839    -6129    -6058    -5538    -4845    -4357 
   -4079    -3714    -3098    -2379    -1770    -1298     -947     -766 
    -815    -1139    -1755    -2734    -4128    -5696    -7130    -8418 
   -9672   -10928   -12185   -13280   -13933   -14081   -13865   -13253 
  -12003   -10112    -7983    -5949    -4039    -2201     -377     1445 
    3127     4399     4957     4725     4044     3372     2865     2392 
    1840     1173      299     -911    -2580    -4671    -6746    -8172 
   -8596    -8188    -7549    -7132    -6876    -6725    -6898    -7489 
   -8370    -9470   -10813   -12361   -13878   -15007   -15605   -15831 
  -15898   -15943   -16015   -15988   -15589   -14539   -12788   -10747 
   -9082    -8229    -8139    -8397    -8557    -8388    -7835    -6973 
   -6099    -5593    -5634    -6078    -6480    -6470    -6086    -5532 
   -5074    -5018    -5332    -5537    -5147    -4191    -3175    -2476 
   -2140    -2072    -2022    -1699     -963      119     1154     1586 
    1212      334     -632    -1441    -1989    -2232    -2200    -2133 
   -2385    -2997    -3604    -3885    -3898    -3891    -3928    -3925 
   -3864    -3767    -3643    -3403    -3002    -2677    -2591    -2513 
   -2115    -1259      -27     1397     2870     4175     4966     5074 
    4649     3973     3280     2512     1297     -527    -2691    -4931 
   -7244    -9596   -11711   -13268   -14198   -14674   -14805   -14541 
  -13883   -12941   -11847   -10780   -10016    -9802   -10097   -10586 
  -11056   -11620   -12390   -13127   -13443   -13242   -12776   -12264 
  -11728   -11298   -11251   -11623   -12145   -12458   -12312   -11861 
  -11614   -11983   -13031   -14511   -16080   -17387   -17964   -17435 
  -15918   -13898   -11782    -9716    -7694    -5740    -4042    -2820 
   -2096    -1690    -1381     -976     -410      232      933     1788 
    2678     3246     3257     2806     2186     1668     1451     1726 
    2531     3593     4532     5144     5439     5493     5323     4840 
    3946     2600      719    -1732    -4549    -7492   -10426   -13170 
  -15481   -17184   -18260   -18773   -18772   -18338   -17504   -16156 
  -14386   -12610   -11074    -9610    -7927    -5899    -3657    -1461 
     450     1792     2309     2086     1478      657     -385    -1494 
   -2397    -3066    -3772    -4739    -5917    -7066    -7889    -8222 
   -8141    -7765    -7198    -6621    -6138    -5687    -5203    -4599 
   -3704    -2526    -1386     -625     -393     -688    -1466    -2745 
   -4475    -6306    -7798    -8791    -9332    -9485    -9393    -9201 
   -8952    -8722    -8681    -8978    -9582   -10182   -10416   -10239 
   -9882    -9480    -8935    -8130    -7089    -5843    -4394    -2861 
   -1449     -337      391      811      925      449     -841    -2954 
   -5954    -9786   -14018   -18043   -21220   -23025   -23406   -22692 
  -21027   -18389   -15133   -11897    -9146    -7120    -5722    -4481 
   -3055    -1517      -96     1058     1846     2046     1353     -283 
   -2560    -5072    -7476    -9515   -11005   -11893   -12260   -12155 
  -11562   -10565    -9331    -8016    -6658    -5045    -3016     -711 
    1787     4318     6236     6973     6552     5311     3678     2110 
     928      102     -810    -2314    -4569    -7410   -10621   -13949 
  -16935   -19016   -19982   -20093   -19677   -18807   -17421   -15646 
  -13859   -12384   -11338   -10804   -10809   -11170   -11638   -12084 
  -12441   -12610   -12407   -11684   -10687   -10098   -10406   -11484 
  -12887   -14119   -14695   -14278   -12854   -10852    -9009    -7898 
   -7545    -7500    -7177    -6174    -4516    -2679    -1293     -818 
   -1447    -3120    -5571    -8405   -11067   -12856   -13266   -12452 
  -11164   -10094    -9449    -9129    -9100    -9495   -10415   -11767 
  -13389   -15136   -16797   -18176   -19183   -19766   -19994   -20018 
  -19806   -19249   -18417   -17385   -16054   -14295   -12207   -10192 
   -8721    -7986    -7817    -7884    -7898    -7692    -7325    -7014 
   -6941    -7119    -7345    -7462    -7502    -7430    -7122    -6581 
   -5958    -5465    -5243    -5312    -5622    -6058    -6567    -7259 
   -8164    -9085    -9862   -10585   -11215   -11333   -10706    -9643 
   -8589    -7825    -7269    -6491    -5329    -4090    -2996    -2160 
   -1822    -2104    -2793    -3442    -3574    -3046    -2177    -1333 
    -727     -549     -868    -1628    -2786    -4090    -5170    -6042 
   -7035    -8202    -9246    -9897   -10142   -10209   -10469   -11197 
  -12417   -14005   -15717   -17137   -17858   -17682   -16658   -14991 
  -12906   -10576    -8262    -6327    -4999    -4327    -4237    -4497 
   -4856    -5194    -5482    -5778    -6190    -6660    -6949    -6986 
   -6935    -6985    -7320    -8041    -9029   -10171   -11547   -13279 
  -15379   -17623   -19626   -21139   -22021   -22020   -20978   -19152 
  -17052   -15042   -13275   -11867   -10837    -9911    -8746    -7313 
   -5723    -4032    -2385    -1050     -248       80      163      -24 
    -808    -2356    -4320    -6082    -7350    -8250    -8939    -9456 
   -9972   -10736   -11595   -12038   -11809   -11108   -10232    -9347 
   -8521    -7784    -7183    -6750    -6472    -6275    -6020    -5613 
   -5103    -4666    -4503    -4705    -5317    -6443    -8119   -10283 
  -12886   -15710   -18203   -19829   -20486   -20450   -19965   -18932 
  -17142   -14635   -11517    -7819    -3789       68     3270     5503 
    6722     7021     6429     5123     3483     1804      300     -989 
   -2381    -4160    -6295    -8649   -10951   -12810   -13997   -14541 
  -14701   -14724   -14477   -13493   -11396    -8326    -4973    -2061 
     -49      797      410     -987    -2896    -4908    -7020    -9244 
  -11208   -12485   -13005   -12854   -12050   -10687    -9052    -7560 
   -6623    -6403    -6688    -7085    -7233    -7068    -6945    -7270 
   -8257    -9903   -11727   -12938   -13055   -12032   -10088    -7741 
   -5637    -4181    -3525    -3650    -4368    -5435    -6678    -7989 
   -9131    -9653    -9327    -8410    -7315    -6408    -5911    -5739 
   -5701    -5736    -5726    -5477    -4977    -4334    -3527    -2479 
   -1240        7     1110     2040     2681     2763     2138      877 
    -902    -2998    -5142    -7175    -9033   -10725   -12302   -13525 
  -13909   -13257   -11802    -9971    -8161    -6594    -5238    -3867 
   -2342     -753      748     2004     2881     3401     3685     3820 
    3788     3479     2805     1745      212    -1928    -4568    -7158 
   -9024    -9874    -9872    -9365    -8738    -8330    -8290    -8586 
   -9122    -9800   -10462   -10982   -11400   -11670   -11593   -11260 
  -11081   -11350   -12214   -13628   -15167   -16449   -17408   -17955 
  -18020   -17723   -17215   -16678   -16333   -16319   -16643   -17061 
  -17206   -16915   -16078   -14510   -12267    -9620    -6814    -4143 
   -1925     -352      460      530       94     -538    -1071    -1349 
   -1529    -1943    -2743    -3769    -4771    -5630    -6312    -6785 
   -7099    -7426    -7880    -8335    -8550    -8393    -7903    -7203 
   -6439    -5786    -5391    -5194    -5083    -5214    -5865    -7100 
   -8715   -10461   -12184   -13769   -15099   -16079   -16654   -16924 
  -17128   -17485   -18078   -18768   -19314   -19572   -19447   -18934 
  -18337   -18048   -18116   -18206   -17836   -16607   -14398   -11509 
   -8626    -6389    -4994    -4294    -4113    -4346    -4878    -5484 
   -5959    -6314    -6632    -6952    -7392    -8040    -8882    -9961 
  -11269   -12553   -13475   -13885   -13945   -14015   -14318   -14792 
  -15295   -15728   -15929   -15587   -14416   -12511   -10303    -8144 
   -6263    -4888    -4142    -4016    -4496    -5510    -6792    -8008 
   -8871    -9132    -8847    -8502    -8427    -8462    -8380    -8200 
   -7905    -7159    -5705    -3864    -2225    -1107     -577     -639 
   -1273    -2386    -3619    -4424    -4521    -4064    -3361    -2570 
   -1600     -434      661     1486     2151     2835     3542     4140 
    4452     4242     3253     1459     -823    -3227    -5593    -7837 
   -9747   -11066   -11750   -11974   -11883   -11425   -10387    -8625 
   -6338    -3999    -2002     -574      126       76     -572    -1530 
   -2383    -2788    -2785    -2764    -3100    -3970    -5423    -7393 
   -9722   -12281   -14890   -17216   -18997   -20135   -20582   -20462 
  -20068   -19558   -18922   -18144   -17235   -16164   -14815   -13009 
  -10626    -7787    -4895    -2379     -502      569      774      304 
    -560    -1690    -3078    -4658    -6266    -7815    -9346   -10812 
  -12129   -13343   -14420   -15111   -15258   -15039   -14702   -14346 
  -14085   -14089   -14455   -15160   -15883   -16187   -16000   -15408 
  -14342   -12894   -11348    -9743    -7890    -5786    -3729    -2078 
   -1070     -860    -1500    -2758    -4132    -5123    -5426    -5088 
   -4481    -3918    -3387    -2762    -2073    -1444     -886     -286 
     443     1314     2279     3139     3527     3193     2247      951 
    -571    -2238    -3845    -5140    -5906    -5977    -5360    -4357 
   -3356    -2497    -1790    -1388    -1497    -2118    -3052    -4113 
   -5265    -6511    -7806    -9139   -10542   -12051   -13845   -16156 
  -18910   -21730   -24156   -25775   -26343   -25872   -24633   -23036 
  -21409   -19923   -18702   -17871   -17416   -17168   -17067   -17231 
  -17623   -17914   -17739   -16908   -15510   -13856   -12191   -10558 
   -8874    -6948    -4521    -1434     2140     5597     8209     9575 
    9767     9177     8273     7371     6572     5769     4689     3131 
    1210     -697    -2286    -3504    -4428    -5186    -5994    -6993 
   -8099    -9077    -9717   -10013   -10173   -10387   -10744   -11264 
  -11835   -12275   -12485   -12527   -12539   -12597   -12614   -12324 
  -11408    -9812    -7866    -5946    -4151    -2415     -713      902 
    2268     3242     3811     3918     3437     2367      805    -1100 
   -3155    -5203    -7118    -8697    -9701   -10071    -9987    -9699 
   -9382    -9150    -9135    -9419    -9947   -10604   -11321   -12007 
  -12511   -12805   -13038   -13306   -13564   -13757   -13975   -14363 
  -14777   -14790   -14087   -12618   -10587    -8526    -6929    -5775 
   -4742    -3682    -2652    -1695     -850     -328     -410    -1130 
   -2222    -3456    -4829    -6469    -8397   -10387   -12122   -13444 
  -14300   -14601   -14294   -13488   -12395   -11204   -10078    -9151 
   -8441    -7809    -7046    -6083    -5131    -4475    -4286    -4620 
   -5384    -6411    -7562    -8655    -9581   -10491   -11556   -12724 
  -13871   -14897   -15753   -16519   -17165   -17387   -16963   -15989 
  -14677   -13052   -11019    -8714    -6422    -4179    -1967      -35 
    1339     2097     2373     2440     2498     2453     2063     1231 
      78    -1161    -2204    -2862    -3155    -3249    -3432    -4056 
   -5214    -6671    -8052    -8907    -8885    -7951    -6352    -4426 
   -2470     -688      887     2429     4093     5758     7120     7981 
    8338     8203     7475     6056     4061     1763     -671    -3282 
   -6035    -8671   -10997   -13028   -14742   -15971   -16555   -16448 
  -15748   -14746   -13825   -13248   -12991   -12770   -12229   -11203 
   -9874    -8594    -7569    -6869    -6528    -6505    -6707    -7052 
   -7449    -7770    -7954    -8083    -8241    -8334    -8237    -7974 
   -7651    -7351    -7085    -6767    -6247    -5368    -4088    -2555 
    -954      569     1764     2323     2136     1358      241     -969 
   -2031    -2850    -3530    -4238    -5174    -6521    -8326   -10470 
  -12625   -14383   -15428   -15560   -14786   -13313   -11387    -9250 
   -7152    -5281    -3773    -2768    -2288    -2118    -1979    -1858 
   -1926    -2171    -2515    -3177    -4356    -5823    -7197    -8197 
   -8587    -8358    -7728    -6926    -6321    -6180    -6186    -5911 
   -5390    -4773    -4153    -3703    -3408    -3188    -3269    -3821 
   -4678    -5610    -6393    -6801    -6779    -6457    -5989    -5430 
   -4772    -4110    -3644    -3464    -3489    -3545    -3402    -3001 
   -2662    -2751    -3305    -4129    -5011    -5737    -6096    -6050 
   -5800    -5698    -6030    -6791    -7753    -8604    -9083    -9150 
   -8896    -8432    -7981    -7721    -7542    -7239    -6789    -6339 
   -5998    -5611    -4869    -3621    -1982     -284     1034     1619 
    1343      340    -1064    -2540    -3878    -4978    -5838    -6574 
   -7383    -8345    -9248    -9752    -9820    -9763    -9770    -9750 
   -9615    -9377    -8999    -8442    -7770    -7094    -6546    -6262 
   -6203    -6158    -6093    -6302    -7009    -8067    -9256   -10542 
  -11807   -12744   -13116   -12912   -12295   -11450   -10482    -9425 
   -8332    -7304    -6326    -5282    -4169    -3052    -1928     -786 
     382     1649     2979     3990     4202     3523     2238      742 
    -575    -1410    -1638    -1343     -731      -50      426      577 
     535      501      551      540      207     -589    -1787    -3203 
   -4683    -6154    -7544    -8816   -10043   -11256   -12387   -13367 
  -14128   -14558   -14597   -14306   -13907   -13683   -13745   -14083 
  -14669   -15292   -15622   -15528   -15059   -14304   -13399   -12494 
  -11757   -11295   -10949   -10379    -9419    -8198    -6959    -5929 
   -5323    -5244    -5574    -6185    -7086    -8199    -9275   -10168 
  -10919   -11511   -11868   -12042   -12078   -11902   -11441   -10666 
   -9696    -8766    -7963    -7275    -6774    -6484    -6280    -6022 
   -5668    -5230    -4703    -4093    -3534    -3239    -3271    -3522 
   -3866    -4215    -4523    -4785    -5015    -5305    -5845    -6777 
   -8041    -9361   -10422   -11087   -11413   -11456   -11107   -10216 
   -8871    -7378    -5924    -4496    -3143    -2079    -1455    -1165 
    -939     -619     -224      153      367      312       25     -398 
    -903    -1513    -2288    -3264    -4400    -5483    -6174    -6275 
   -5900    -5269    -4505    -3744    -3206    -2975    -2834    -2513 
   -2029    -1582    -1321    -1305    -1565    -2164    -3119    -4302 
   -5528    -6606    -7322    -7590    -7620    -7745    -8019    -8180 
   -8009    -7507    -6806    -6175    -6005    -6504    -7618    -9231 
  -11133   -13011   -14673   -16021   -16930   -17302   -17158   -16610 
  -15804   -14861   -13861   -12846   -11887   -11074   -10346    -9490 
   -8411    -7295    -6440    -6059    -6244    -6895    -7615    -7911 
   -7563    -6719    -5690    -4726    -3918    -3206    -2411    -1259 
     414     2480     4636     6558     7991     8804     8983     8635 
    7991     7285     6598     5836     4857     3600     2086      408 
   -1277    -2834    -4207    -5348    -6197    -6711    -6911    -6883 
   -6709    -6454    -6201    -5983    -5739    -5424    -5086    -4782 
   -4559    -4499    -4671    -5035    -5423    -5664    -5721    -5639 
   -5446    -5189    -4926    -4654    -4331    -3932    -3490    -3094 
   -2867    -2914    -3253    -3734    -4035    -3879    -3319    -2645 
