Origin Time       2011/03/11 14:46:00
Lat.              38.103
Long.             142.860
Depth. (km)       24
Mag.              9.0
Station Code      NGN002
Station Lat.      36.8068
Station Long.     138.2069
Station Height(m) 677
Record Time       2011/03/11 14:47:59
Sampling Freq(Hz) 100Hz
Duration Time(s)  300
Dir.              E-W
Scale Factor      3920(gal)/6182761
Max. Acc. (gal)   15.791
Last Correction   2011/03/11 14:47:44
Memo.             
[...]
  -16720   -16656   -16545   -16368   -16053   -15559   -14931   -14245 
  -13571   -13024   -12733   -12736   -12983   -13402   -13867   -14207 
  -14311   -14140   -13700   -13035   -12188   -11217   -10230    -9320 
   -8535    -7894    -7401    -7049    -6797    -6591    -6411    -6260 
   -6152    -6120    -6179    -6353    -6679    -7163    -7811    -8660 
   -9736   -11020   -12462   -13956   -15330   -16466   -17315   -17883 
  -18258   -18549   -18810   -19043   -19204   -19288   -19341   -19414 
  -19600   -19978   -20554   -21279   -22042   -22695   -23172   -23510 
  -23763   -23968   -24200   -24528   -24946   -25414   -25931   -26464 
  -26943   -27377   -27785   -28116   -28363   -28570   -28750   -28953 
  -29266   -29708   -30199   -30605   -30859   -30989   -31026   -30986 
  -30876   -30683   -30388   -29982   -29483   -28964   -28523   -28206 
  -27984   -27816   -27671   -27495   -27220   -26804   -26193   -25299 
  -24113   -22706   -21146   -19523   -17938   -16459   -15165   -14109 
  -13285   -12678   -12245   -11890   -11542   -11175   -10761   -10280 
   -9733    -9165    -8637    -8173    -7795    -7557    -7476    -7527 
   -7655    -7778    -7847    -7829    -7683    -7457    -7252    -7134 
   -7177    -7474    -8061    -8910    -9994   -11290   -12731   -14213 
  -15621   -16870   -17844   -18391   -18486   -18223   -17702   -17090 
  -16550   -16130   -15864   -15790   -15937   -16362   -17104   -18102 
  -19184   -20181   -20998   -21594   -22029   -22434   -22836   -23185 
  -23441   -23521   -23352   -22977   -22418   -21667   -20748   -19650 
  -18391   -17114   -16017   -15260   -14926   -14978   -15279   -15686 
  -16102   -16486   -16870   -17280   -17746   -18372   -19227   -20302 
  -21548   -22834   -23976   -24837   -25393   -25702   -25846   -25926 
  -25974   -25880   -25557   -25031   -24383   -23753   -23263   -22957 
  -22897   -23111   -23492   -23926   -24366   -24732   -24887   -24738 
  -24294   -23699   -23151   -22798   -22715   -22908   -23297   -23729 
  -24013   -23984   -23578   -22890   -22139   -21498   -21017   -20723 
  -20652   -20753   -20895   -20975   -20950   -20819   -20625   -20397 
  -20157   -19944   -19757   -19545   -19231   -18742   -18075   -17264 
  -16341   -15347   -14320   -13265   -12176   -11092   -10078    -9162 
   -8292    -7386    -6373    -5224    -3969    -2685    -1493     -554 
      30      243       74     -480    -1319    -2310    -3409    -4623 
   -5944    -7354    -8769   -10059   -11125   -11936   -12544   -13035 
  -13458   -13829   -14114   -14267   -14289   -14197   -14012   -13755 
  -13417   -13022   -12672   -12474   -12522   -12844   -13333   -13838 
  -14291   -14656   -14872   -14885   -14685   -14277   -13664   -12843 
  -11820   -10618    -9270    -7837    -6417    -5081    -3843    -2699 
   -1618     -580      328      955     1148      822       35    -1066 
   -2309    -3472    -4367    -4954    -5277    -5402    -5402    -5328 
   -5206    -5068    -4956    -4981    -5275    -5896    -6851    -8145 
   -9738   -11519   -13331   -15066   -16669   -18098   -19344   -20458 
  -21476   -22372   -23113   -23702   -24155   -24521   -24900   -25354 
  -25815   -26154   -26348   -26453   -26478   -26430   -26349   -26227 
  -26036   -25787   -25526   -25304   -25165   -25144   -25252   -25456 
  -25708   -26013   -26376   -26691   -26831   -26807   -26685   -26532 
  -26451   -26471   -26491   -26346   -25909   -25136   -24025   -22612 
  -21044   -19482   -18020   -16757   -15801   -15184   -14914   -15007 
  -15450   -16219   -17285   -18570   -19954   -21316   -22573   -23711 
  -24782   -25879   -27065   -28316   -29615   -30997   -32452   -33953 
  -35513   -37016   -38200   -38873   -38925   -38275   -36942   -35078 
  -32883   -30559   -28291   -26156   -24154   -22303   -20664   -19393 
  -18654   -18460   -18709   -19269   -19953   -20616   -21221   -21812 
  -22484   -23319   -24322   -25451   -26644   -27808   -28824   -29569 
  -29877   -29585   -28680   -27290   -25591   -23807   -22148   -20709 
  -19526   -18683   -18264   -18287   -18722   -19495   -20447   -21443 
  -22441   -23428   -24434   -25476   -26441   -27174   -27584   -27659 
  -27459   -27119   -26780   -26476   -26138   -25700   -25135   -24455 
  -23667   -22776   -21797   -20733   -19572   -18337   -17078   -15802 
  -14531   -13356   -12311   -11402   -10689   -10192    -9862    -9637 
   -9500    -9472    -9552    -9708    -9884   -10011   -10076   -10063 
   -9926    -9682    -9403    -9122    -8845    -8569    -8268    -7920 
   -7516    -7049    -6519    -5982    -5508    -5140    -4888    -4727 
   -4622    -4544    -4487    -4488    -4617    -4938    -5497    -6317 
   -7345    -8475    -9649   -10890   -12219   -13634   -15123   -16644 
  -18108   -19390   -20397   -21101   -21500   -21627   -21573   -21424 
  -21243   -21083   -21011   -21056   -21167   -21288   -21389   -21433 
  -21427   -21461   -21633   -22000   -22556   -23235   -23951   -24604 
  -25083   -25353   -25478   -25506   -25473   -25442   -25463   -25551 
  -25684   -25788   -25739   -25430   -24846   -24052   -23121   -22125 
  -21150   -20297   -19661   -19299   -19257   -19612   -20414   -21604 
  -22999   -24375   -25530   -26323   -26702   -26683   -26353   -25829 
  -25193   -24504   -23789   -23014   -22135   -21139   -20028   -18832 
  -17643   -16579   -15722   -15136   -14921   -15159   -15824   -16836 
  -18129   -19639   -21287   -22968   -24552   -25903   -26940   -27639 
  -27962   -27914   -27588   -27050   -26303   -25367   -24258   -23024 
  -21789   -20704   -19876   -19326   -18989   -18780   -18612   -18439 
  -18308   -18302   -18478   -18835   -19296   -19772   -20160   -20307 
  -20101   -19551   -18698   -17538   -16132   -14633   -13152   -11749 
  -10493    -9428    -8577    -7985    -7679    -7707    -8109    -8828 
   -9751   -10784   -11808   -12710   -13425   -13941   -14293   -14533 
  -14627   -14472   -14038   -13377   -12575   -11807   -11294   -11137 
  -11357   -11989   -12975   -14163   -15433   -16703   -17861   -18803 
  -19458   -19785   -19830   -19767   -19859   -20283   -21041   -22006 
  -22978   -23725   -24040   -23784   -22943   -21609   -19896   -17976 
  -16072   -14312   -12720   -11327   -10151    -9154    -8325    -7720 
   -7411    -7456    -7846    -8478    -9267   -10178   -11169   -12172 
  -13122   -13980   -14740   -15409   -15976   -16396   -16620   -16584 
  -16227   -15523   -14482   -13189   -11834   -10590    -9531    -8690 
   -8079    -7658    -7353    -7060    -6693    -6269    -5871    -5573 
   -5405    -5377    -5485    -5668    -5857    -6069    -6361    -6729 
   -7121    -7485    -7763    -7894    -7850    -7665    -7396    -7112 
   -6928    -6986    -7385    -8187    -9444   -11136   -13137   -15250 
  -17292   -19165   -20836   -22319   -23674   -24940   -26098   -27132 
  -28068   -28942   -29796   -30642   -31415   -32024   -32380   -32438 
  -32230   -31859   -31410   -30896   -30301   -29646   -28970   -28297 
  -27621   -26943   -26289   -25680   -25136   -24689   -24369   -24134 
  -23793   -23120   -22054   -20727   -19315   -17908   -16538   -15268 
  -14133   -13136   -12301   -11648   -11156   -10786   -10537   -10470 
  -10663   -11158   -11930   -12880   -13850   -14665   -15201   -15409 
  -15293   -14922   -14416   -13928   -13586   -13441   -13476   -13639 
  -13867   -14112   -14381   -14699   -15100   -15634   -16261   -16845 
  -17282   -17567   -17757   -17906   -18036   -18152   -18212   -18135 
  -17903   -17586   -17250   -16885   -16438   -15899   -15306   -14702 
  -14106   -13499   -12823   -12029   -11143   -10266    -9498    -8906 
   -8503    -8192    -7830    -7334    -6713    -6062    -5511    -5135 
   -4913    -4733    -4487    -4175    -3893    -3708    -3627    -3636 
   -3698    -3773    -3829    -3856    -3910    -4048    -4207    -4285 
   -4301    -4379    -4662    -5231    -6078    -7174    -8459    -9828 
  -11184   -12468   -13682   -14838   -15869   -16720   -17440   -18070 
  -18643   -19211   -19765   -20242   -20579   -20725   -20684   -20537 
  -20376   -20223   -20036   -19776   -19436   -19035   -18582   -18066 
  -17460   -16706   -15783   -14771   -13816   -13082   -12705   -12741 
  -13166   -13928   -14946   -16132   -17434   -18811   -20180   -21425 
  -22433   -23153   -23614   -23869   -23950   -23904   -23774   -23611 
  -23525   -23616   -23908   -24363   -24893   -25400   -25829   -26126 
  -26277   -26351   -26457   -26697   -27140   -27791   -28615   -29558 
  -30567   -31597   -32613   -33594   -34512   -35278   -35763   -35888 
  -35656   -35120   -34328   -33311   -32091   -30697   -29208   -27736 
  -26373   -25192   -24259   -23595   -23214   -23146   -23380   -23823 
  -24324   -24736   -24996   -25121   -25145   -25071   -24848   -24396 
  -23664   -22653   -21404   -19985   -18460   -16871   -15254   -13664 
  -12163   -10805    -9643    -8699    -7961    -7444    -7178    -7150 
   -7325    -7645    -8004    -8308    -8561    -8815    -9080    -9361 
   -9677   -10032   -10441   -10880   -11300   -11728   -12231   -12825 
  -13501   -14243   -15034   -15851   -16622   -17262   -17789   -18255 
  -18643   -18956   -19272   -19693   -20331   -21286   -22574   -24127 
  -25820   -27461   -28850   -29863   -30500   -30815   -30855   -30678 
  -30313   -29739   -28953   -28014   -27065   -26272   -25713   -25404 
  -25285   -25224   -25113   -24880   -24465   -23831   -22985   -21969 
  -20824   -19558   -18175   -16714   -15262   -13925   -12781   -11869 
  -11169   -10594   -10076    -9612    -9201    -8829    -8497    -8185 
   -7841    -7410    -6896    -6369    -5929    -5640    -5532    -5648 
   -6003    -6555    -7271    -8139    -9129   -10183   -11230   -12195 
  -12999   -13588   -13939   -14022   -13860   -13554   -13205   -12897 
  -12751   -12851   -13166   -13637   -14250   -15000   -15870   -16814 
  -17746   -18586   -19279   -19787   -20065   -20065   -19777   -19242 
  -18546   -17774   -16950   -16058   -15112   -14132   -13140   -12172 
  -11275   -10473    -9793    -9274    -8919    -8690    -8545    -8416 
   -8242    -8009    -7755    -7558    -7505    -7695    -8180    -8921 
   -9831   -10789   -11641   -12288   -12717   -12955   -13030   -12986 
  -12886   -12793   -12772   -12866   -13066   -13304   -13497   -13580 
  -13510   -13263   -12852   -12308   -11672   -11057   -10594   -10303 
  -10115    -9926    -9612    -9131    -8560    -8028    -7656    -7529 
   -7649    -7939    -8299    -8647    -8890    -8966    -8877    -8648 
   -8322    -7947    -7538    -7102    -6651    -6201    -5766    -5359 
   -5011    -4777    -4738    -4995    -5623    -6652    -8076    -9844 
  -11838   -13881   -15756   -17314   -18493   -19273   -19712   -19894 
  -19869   -19695   -19410   -19038   -18638   -18268   -17954   -17685 
  -17415   -17098   -16745   -16406   -16173   -16182   -16541   -17304 
  -18482   -20002   -21736   -23586   -25451   -27219   -28815   -30185 
  -31265   -31982   -32252   -32010   -31257   -30035   -28426   -26570 
  -24657   -22871   -21360   -20216   -19458   -19027   -18853   -18846 
  -18794   -18512   -17997   -17286   -16475   -15714   -15018   -14339 
  -13657   -12897   -12019   -11051   -10019    -8961    -7937    -6987 
   -6131    -5429    -4986    -4895    -5184    -5823    -6732    -7821 
   -9052   -10398   -11810   -13262   -14698   -16001   -17125   -18121 
  -19028   -19852   -20589   -21232   -21767   -22166   -22419   -22594 
  -22829   -23249   -23907   -24788   -25862   -27096   -28429   -29776 
  -31042   -32168   -33199   -34166   -35039   -35817   -36499   -37048 
  -37471   -37790   -37958   -37971   -37875   -37613   -37183   -36781 
  -36527   -36364   -36185   -35876   -35333   -34538   -33568   -32491 
  -31307   -29990   -28533   -26954   -25281   -23566   -21893   -20316 
  -18850   -17504   -16261   -15104   -14063   -13141   -12284   -11424 
  -10484    -9453    -8448    -7596    -6961    -6556    -6373    -6431 
   -6738    -7226    -7825    -8450    -8940    -9157    -9074    -8720 
   -8153    -7464    -6756    -6096    -5511    -5020    -4672    -4564 
   -4770    -5275    -6019    -6934    -7943    -8953    -9906   -10830 
  -11763   -12742   -13802   -14876   -15857   -16680   -17227   -17414 
  -17284   -16863   -16163   -15249   -14211   -13150   -12164   -11333 
  -10697   -10220    -9844    -9522    -9221    -8953    -8749    -8623 
   -8625    -8811    -9196    -9771   -10495   -11330   -12282   -13350 
  -14481   -15574   -16484   -17072   -17263   -17061   -16541   -15814 
  -14975   -14075   -13106   -12055   -10964    -9897    -8913    -8128 
   -7686    -7675    -8112    -8941   -10066   -11416   -12927   -14505 
  -16060   -17544   -18888   -20003   -20882   -21509   -21797   -21711 
  -21263   -20455   -19395   -18304   -17359   -16674   -16317   -16244 
  -16337   -16506   -16662   -16722   -16705   -16676   -16648   -16624 
  -16645   -16735   -16852   -16912   -16859   -16676   -16344   -15863 
  -15279   -14619   -13867   -12979   -11921   -10725    -9491    -8325 
   -7306    -6461    -5778    -5250    -4830    -4426    -4029    -3689 
   -3398    -3188    -3110    -3151    -3336    -3710    -4235    -4807 
   -5285    -5508    -5354    -4776    -3864    -2804    -1736     -760 
      62      747     1300     1678     1853     1838     1677     1457 
    1345     1468     1833     2421     3216     4156     5166     6164 
    7071     7801     8294     8550     8579     8403     8101     7721 
    7274     6814     6379     5967     5593     5286     5042     4810 
    4543     4221     3856     3494     3189     2975     2880     2890 
    2934     2917     2736     2330     1697      873     -104    -1262 
   -2686    -4431    -6482    -8798   -11313   -13918   -16493   -18938 
  -21189   -23204   -24939   -26366   -27488   -28355   -29023   -29507 
  -29788   -29848   -29686   -29324   -28808   -28213   -27614   -27098 
  -26762   -26649   -26768   -27098   -27557   -28098   -28721   -29403 
  -30088   -30698   -31139   -31336   -31263   -30938   -30400   -29685 
  -28856   -27975   -27103   -26343   -25806   -25544   -25516   -25647 
  -25879   -26153   -26430   -26720   -27044   -27378   -27650   -27799 
  -27805   -27647   -27334   -26935   -26523   -26152   -25829   -25510 
  -25147   -24715   -24200   -23652   -23182   -22871   -22741   -22798 
  -23027   -23377   -23824   -24365   -24946   -25468   -25872   -26143 
  -26299   -26354   -26317   -26230   -26121   -25958   -25733   -25486 
  -25257   -25111   -25098   -25108   -25008   -24821   -24557   -24113 
  -23508   -22903   -22408   -22095   -22067   -22395   -23054   -23979 
  -25096   -26335   -27620   -28834   -29848   -30639   -31233   -31578 
  -31652   -31561   -31389   -31081   -30585   -30000   -29461   -28952 
  -28379   -27776   -27293   -27001   -26826   -26713   -26683   -26746 
  -26861   -26986   -27147   -27412   -27763   -28104   -28368   -28461 
  -28206   -27486   -26302   -24706   -22827   -20890   -19092   -17527 
  -16216   -15139   -14266   -13600   -13155   -12898   -12729   -12524 
  -12213   -11802   -11296   -10682    -9977    -9199    -8370    -7579 
   -6867    -6117    -5233    -4227    -3159    -2100    -1100     -201 
     517      984     1205     1192      881      222     -714    -1799 
   -2953    -4156    -5397    -6623    -7758    -8760    -9664   -10577 
  -11616   -12806   -14048   -15160   -15991   -16519   -16812   -16888 
  -16741   -16429   -16025   -15611   -15275   -15070   -15036   -15195 
  -15545   -16060   -16648   -17199   -17698   -18168   -18581   -18883 
  -19062   -19110   -18967   -18582   -17980   -17219   -16364   -15461 
  -14531   -13617   -12728   -11825   -10895    -9955    -9018    -8127 
   -7328    -6659    -6164    -5834    -5647    -5618    -5728    -5920 
   -6137    -6271    -6233    -6052    -5806    -5523    -5171    -4715 
   -4178    -3605    -2999    -2326    -1581     -813      -56      678 
    1368     2005     2571     3063     3529     4011     4507     4974 
    5336     5511     5464     5248     4980     4731     4511     4299 
    4011     3560     2928     2126     1185      182     -775    -1591 
   -2222    -2697    -3121    -3650    -4416    -5434    -6613    -7829 
   -8958    -9922   -10717   -11363   -11877   -12295   -12692   -13184 
  -13868   -14730   -15701   -16742   -17784   -18732   -19563   -20296 
  -20997   -21752   -22604   -23589   -24728   -25961   -27220   -28420 
  -29426   -30154   -30594   -30791   -30831   -30782   -30685   -30561 
  -30406   -30232   -30062   -29889   -29721   -29606   -29558   -29541 
  -29504   -29361   -29062   -28628   -28058   -27355   -26614   -25951 
  -25399   -24977   -24698   -24533   -24470   -24521   -24609   -24672 
  -24768   -24933   -25111   -25261   -25342   -25320   -25182   -24898 
  -24414   -23669   -22665   -21488   -20208   -18806   -17224   -15448 
  -13520   -11499    -9487    -7629    -6056    -4820    -3883    -3225 
   -2844    -2634    -2534    -2630    -2935    -3390    -3948    -4539 
   -5143    -5768    -6369    -6907    -7358    -7705    -7957    -8161 
   -8319    -8384    -8354    -8213    -7902    -7400    -6688    -5742 
   -4585    -3275    -1891     -528      708     1736     2519     3036 
    3247     3112     2583     1648      348    -1241    -3014    -4833 
   -6604    -8286    -9844   -11250   -12501   -13595   -14512   -15224 
  -15687   -15880   -15831   -15588   -15236   -14889   -14630   -14527 
  -14670   -15125   -15937   -17132   -18671   -20434   -22239   -23883 
  -25222   -26194   -26771   -26949   -26763   -26296   -25639   -24849 
  -23992   -23158   -22388   -21650   -20900   -20105   -19276   -18487 
  -17801   -17228   -16785   -16476   -16264   -16157   -16203   -16443 
  -16918   -17647   -18595   -19702   -20866   -21995   -23048   -23963 
  -24685   -25247   -25703   -26088   -26474   -26968   -27644   -28520 
  -29557   -30674   -31815   -32917   -33874   -34624   -35150   -35426 
  -35464   -35319   -35004   -34491   -33755   -32783   -31575   -30175 
  -28706   -27301   -25994   -24811   -23824   -23055   -22512   -22201 
  -22069   -22050   -22085   -22120   -22101   -21970   -21753   -21497 
  -21158   -20734   -20246   -19642   -18953   -18274   -17636   -17049 
  -16530   -16082   -15697   -15365   -15088   -14885   -14782   -14806 
  -14945   -15120   -15261   -15321   -15290   -15263   -15354   -15604 
  -15991   -16441   -16868   -17237   -17565   -17902   -18274   -18675 
  -19086   -19457   -19726   -19861   -19874   -19829   -19773   -19696 
  -19581   -19417   -19176   -18838   -18386   -17789   -17045   -16164 
  -15155   -14070   -12998   -12011   -11130   -10367    -9729    -9208 
   -8791    -8472    -8199    -7909    -7584    -7246    -6948    -6738 
   -6637    -6644    -6726    -6853    -7024    -7238    -7521    -7920 
   -8467    -9184   -10053   -11009   -12011   -13063   -14153   -15249 
  -16341   -17412   -18471   -19523   -20533   -21495   -22415   -23287 
  -24108   -24875   -25567   -26135   -26517   -26654   -26530   -26197 
  -25706   -25082   -24352   -23557   -22757   -21997   -21273   -20616 
  -20068   -19595   -19161   -18773   -18426   -18150   -18015   -18060 
  -18269   -18615   -19091   -19683   -20378   -21166   -21988   -22751 
