Origin Time       2011/03/11 14:46:00
Lat.              38.103
Long.             142.860
Depth. (km)       24
Mag.              9.0
Station Code      NGN015
Station Lat.      36.0451
Station Long.     138.1114
Station Height(m) 761
Record Time       2011/03/11 14:47:45
Sampling Freq(Hz) 100Hz
Duration Time(s)  300
Dir.              U-D
Scale Factor      3920(gal)/6182761
Max. Acc. (gal)   24.551
Last Correction   2011/03/11 14:47:30
Memo.             
[...]
  -10693   -10675   -10891   -11378   -12317   -13800   -15748   -17930 
  -20007   -21700   -22909   -23747   -24420   -25093   -25877   -26752 
  -27564   -28134   -28363   -28287   -27997   -27589   -27132   -26589 
  -25964   -25446   -25311   -25776   -26941   -28728   -30844   -33035 
  -35207   -37269   -39125   -40647   -41655   -42034   -41769   -40941 
  -39720   -38327   -36990   -35857   -34933   -34116   -33250   -32176 
  -30830   -29344   -28000   -27065   -26702   -26953   -27710   -28815 
  -30194   -31819   -33640   -35605   -37617   -39506   -41061   -42090 
  -42465   -42201   -41398   -40141   -38481   -36496   -34399   -32501 
  -31034   -30055   -29448   -28970   -28320   -27315   -26032   -24690 
  -23478   -22468   -21608   -20840   -20129   -19472   -18955   -18702 
  -18801   -19287   -20140   -21305   -22754   -24516   -26639   -29112 
  -31801   -34518   -37063   -39214   -40807   -41779   -42168   -42075 
  -41666   -41180   -40751   -40380   -40076   -39777   -39391   -38879 
  -38155   -37146   -35899   -34529   -33200   -32134   -31521   -31412 
  -31742   -32372   -33132   -33922   -34738   -35554   -36294   -36884 
  -37280   -37480   -37505   -37342   -36878   -35927   -34396   -32340 
  -29927   -27437   -25104   -23012   -21151   -19428   -17710   -15935 
  -14221   -12768   -11676   -10957   -10605   -10626   -11108   -12192 
  -13899   -16050   -18308   -20290   -21695   -22347   -22233   -21493 
  -20359   -19056   -17751   -16621   -15858   -15564   -15754   -16341 
  -17158   -18053   -18872   -19570   -20253   -20980   -21731   -22469 
  -23172   -23929   -24903   -26220   -27911   -29873   -31903   -33806 
  -35502   -36987   -38286   -39424   -40357   -41085   -41651   -42010 
  -42117   -41953   -41457   -40671   -39762   -38903   -38214   -37641 
  -36921   -35788   -34123   -32065   -29998   -28281   -27137   -26619 
  -26499   -26518   -26638   -26877   -27131   -27197   -26825   -25838 
  -24228   -22150   -19917   -17889   -16276   -15103   -14281   -13640 
  -13014   -12301   -11433   -10395    -9278    -8268    -7588    -7401 
   -7769    -8644    -9901   -11400   -13026   -14743   -16542   -18321 
  -20023   -21721   -23446   -25177   -26847   -28269   -29273   -29784 
  -29758   -29217   -28232   -26877   -25253   -23447   -21539   -19649 
  -17915   -16484   -15491   -14968   -14775   -14630   -14309   -13823 
  -13444   -13519   -14225   -15535   -17304   -19339   -21437   -23481 
  -25518   -27592   -29676   -31746   -33715   -35465   -36911   -37948 
  -38498   -38527   -38038   -37129   -36002   -34892   -33901   -32980 
  -32047   -31049   -30002   -28959   -27941   -26974   -26086   -25318 
  -24783   -24614   -24881   -25509   -26323   -27242   -28332   -29787 
  -31838   -34516   -37599   -40705   -43380   -45336   -46554   -47163 
  -47394   -47466   -47434   -47218   -46698   -45795   -44553   -43114 
  -41570   -39877   -37986   -35930   -33812   -31760   -29809   -27898 
  -25984   -24045   -22099   -20263   -18640   -17354   -16618   -16522 
  -16978   -17854   -18999   -20282   -21664   -23183   -24830   -26456 
  -27735   -28279   -27893   -26657   -24823   -22736   -20744   -19071 
  -17759   -16747   -16008   -15521   -15218   -15053   -15003   -15065 
  -15318   -15885   -16868   -18346   -20264   -22447   -24770   -27106 
  -29327   -31305   -32844   -33803   -34161   -33971   -33330   -32317 
  -31010   -29504   -27910   -26385   -25141   -24315   -23874   -23673 
  -23560   -23498   -23539   -23739   -24118   -24641   -25281   -26013 
  -26768   -27501   -28174   -28701   -28965   -28805   -28175   -27330 
  -26633   -26325   -26481   -27008   -27789   -28706   -29596   -30412 
  -31140   -31678   -31933   -31792   -31192   -30220   -29072   -28021 
  -27255   -26787   -26528   -26358   -26182   -25937   -25610   -25292 
  -25074   -24932   -24815   -24711   -24570   -24418   -24422   -24731 
  -25415   -26451   -27699   -28958   -29986   -30556   -30586   -30107 
  -29116   -27616   -25750   -23786   -21966   -20445   -19287   -18449 
  -17797   -17182   -16611   -16239   -16226   -16683   -17625   -18996 
  -20722   -22749   -25054   -27548   -30002   -32118   -33630   -34405 
  -34498   -34064   -33236   -32093   -30586   -28629   -26335   -24003 
  -21995   -20655   -20148   -20315   -20778   -21118   -21060   -20613 
  -19989   -19459   -19292   -19630   -20416   -21519   -22820   -24214 
  -25604   -26932   -28132   -29113   -29813   -30218   -30410   -30537 
  -30698   -30894   -31071   -31133   -30973   -30590   -30101   -29731 
  -29739   -30152   -30731   -31236   -31523   -31526   -31352   -31195 
  -31209   -31520   -32124   -32850   -33459   -33712   -33438   -32620 
  -31316   -29626   -27755   -25948   -24440   -23440   -23037   -23219 
  -23901   -24863   -25843   -26684   -27323   -27749   -28086   -28582 
  -29433   -30626   -31929   -32959   -33397   -33178   -32473   -31526 
  -30525   -29597   -28782   -28033   -27275   -26440   -25506   -24474 
  -23325   -22034   -20562   -18922   -17191   -15384   -13479   -11492 
   -9446    -7455    -5703    -4323    -3440    -3134    -3392    -4196 
   -5455    -6988    -8614   -10167   -11578   -12926   -14382   -16164 
  -18449   -21271   -24488   -27824   -30927   -33487   -35376   -36642 
  -37434   -37922   -38216   -38358   -38295   -37909   -37137   -36070 
  -34905   -33754   -32591   -31347   -30018   -28717   -27632   -26965 
  -26826   -27118   -27609   -28090   -28494   -28927   -29572   -30508 
  -31573   -32412   -32688   -32300   -31451   -30462   -29577   -28976 
  -28755   -28878   -29245   -29820   -30639   -31664   -32767   -33822 
  -34740   -35507   -36158   -36738   -37270   -37753   -38179   -38449 
  -38383   -37861   -36889   -35588   -34138   -32703   -31398   -30305 
  -29484   -28963   -28734   -28762   -28978   -29224   -29253   -28864 
  -28045   -26975   -25898   -25024   -24444   -24151   -24138   -24357 
  -24740   -25305   -26048   -26893   -27697   -28213   -28223   -27665 
  -26626   -25344   -24117   -23136   -22459   -22051   -21806   -21641 
  -21545   -21541   -21677   -21996   -22471   -22990   -23434   -23802 
  -24170   -24516   -24763   -24890   -24922   -24938   -25036   -25251 
  -25535   -25788   -25859   -25589   -24902   -23848   -22510   -21003 
  -19458   -17904   -16334   -14753   -13110   -11406    -9769    -8370 
   -7365    -6872    -6923    -7502    -8580   -10043   -11711   -13461 
  -15248   -17077   -18979   -20954   -22903   -24634   -25956   -26819 
  -27316   -27552   -27584   -27414   -27035   -26443   -25625   -24564 
  -23245   -21722   -20128   -18599   -17238   -16098   -15163   -14373 
  -13705   -13171   -12731   -12354   -12010   -11557   -10920   -10295 
   -9968   -10136   -11005   -12688   -14997   -17563   -20008   -22047 
  -23570   -24623   -25343   -25900   -26422   -26909   -27262   -27510 
  -27811   -28206   -28697   -29271   -29703   -29782   -29546   -29077 
  -28488   -27955   -27518   -27151   -26914   -26942   -27413   -28429 
  -29960   -31867   -33914   -35873   -37556   -38816   -39636   -40062 
  -40168   -40027   -39650   -39138   -38696   -38417   -38259   -38125 
  -37841   -37141   -35766   -33711   -31263   -28781   -26640   -25215 
  -24696   -25020   -25925   -27052   -28094   -28822   -29068   -28768 
  -27917   -26649   -25258   -24067   -23355   -23307   -24007   -25403 
  -27309   -29513   -31841   -34107   -36079   -37548   -38376   -38530 
  -38166   -37553   -36920   -36448   -36228   -36229   -36361   -36523 
  -36640   -36720   -36828   -37034   -37409   -38017   -38894   -40036 
  -41376   -42831   -44324   -45751   -46918   -47584   -47630   -47057 
  -45917   -44260   -42081   -39421   -36402   -33198   -30067   -27244 
  -24826   -22749   -20873   -19079   -17314   -15678   -14376   -13607 
  -13530   -14196   -15593   -17705   -20387   -23318   -26138   -28627 
  -30653   -32074   -32795   -32761   -31996   -30651   -28944   -27107 
  -25280   -23509   -21789   -20037   -18247   -16550   -15097   -14019 
  -13363   -13027   -12937   -13152   -13742   -14782   -16328   -18293 
  -20510   -22807   -25010   -26979   -28602   -29839   -30759   -31443 
  -31981   -32561   -33402   -34632   -36242   -38132   -40173   -42272 
  -44458   -46783   -49191   -51528   -53583   -55118   -55929   -55939 
  -55215   -53920   -52196   -50151   -47898   -45503   -43052   -40669 
  -38401   -36244   -34148   -32027   -29891   -27836   -26014   -24652 
  -23885   -23642   -23763   -24105   -24499   -24804   -24998   -25034 
  -24808   -24275   -23360   -21971   -20156   -18041   -15778   -13576 
  -11628   -10053    -8889    -8062    -7382    -6658    -5842    -5002 
   -4244    -3730    -3643    -4114    -5161    -6673    -8479   -10382 
  -12157   -13599   -14590   -15143   -15396   -15597   -16016   -16870 
  -18324   -20384   -22867   -25536   -28198   -30760   -33230   -35639 
  -37946   -40020   -41673   -42738   -43148   -42933   -42228   -41201 
  -39988   -38689   -37369   -36111   -35000   -34067   -33303   -32672 
  -32101   -31534   -30973   -30440   -30015   -29823   -29867   -30016 
  -30085   -29891   -29369   -28588   -27741   -27102   -26858   -27084 
  -27759   -28756   -29949   -31235   -32530   -33815   -35126   -36474 
  -37788   -38997   -40073   -40943   -41517   -41715   -41471   -40784 
  -39695   -38311   -36787   -35161   -33340   -31256   -28880   -26216 
  -23365   -20536   -17941   -15714   -13943   -12696   -11937   -11568 
  -11538   -11817   -12424   -13394   -14648   -16083   -17612   -19143 
  -20637   -22063   -23355   -24386   -24951   -24894   -24183   -22932 
  -21377   -19748   -18168   -16630   -15107   -13638   -12306   -11243 
  -10605   -10509   -10987   -11977   -13348   -14913   -16481   -17919 
  -19197   -20431   -21779   -23358   -25263   -27464   -29786   -32028 
  -34009   -35600   -36743   -37384   -37476   -37007   -36015   -34629 
  -33012   -31294   -29569   -27905   -26339   -24905   -23701   -22895 
  -22596   -22817   -23484   -24501   -25843   -27494   -29359   -31282 
  -33105   -34713   -36025   -36956   -37454   -37519   -37180   -36433 
  -35256   -33713   -31901   -29867   -27632   -25256   -22846   -20507 
  -18393   -16679   -15454   -14762   -14596   -14879   -15532   -16395 
  -17223   -17834   -18130   -18095   -17845   -17536   -17262   -17026 
  -16805   -16602   -16438   -16415   -16622   -17016   -17487   -17863 
  -18028   -18058   -18027   -17897   -17692   -17488   -17302   -17226 
  -17415   -17915   -18670   -19573   -20530   -21532   -22643   -23950 
  -25453   -27038   -28618   -30101   -31403   -32528   -33520   -34440 
  -35353   -36258   -37169   -38043   -38646   -38750   -38266   -37215 
  -35752   -34107   -32506   -31109   -29973   -29107   -28507   -28189 
  -28249   -28805   -29848   -31203   -32633   -33953   -35059   -35854 
  -36287   -36411   -36247   -35787   -35089   -34231   -33265   -32232 
  -31169   -30094   -29074   -28238   -27655   -27267   -26839   -26096 
  -24909   -23284   -21375   -19452   -17702   -16167   -14828   -13701 
  -12897   -12530   -12625   -13115   -13811   -14443   -14830   -14932 
  -14873   -14994   -15621   -16814   -18440   -20302   -22220   -24054 
  -25702   -27096   -28212   -29061   -29589   -29714   -29522   -29189 
  -28738   -28200   -27697   -27122   -26201   -24983   -23720   -22513 
  -21525   -20952   -20765   -20900   -21319   -21853   -22288   -22583 
  -22866   -23249   -23776   -24447   -25164   -25839   -26445   -27001 
  -27627   -28486   -29697   -31282   -33102   -35017   -37048   -39141 
  -41105   -42853   -44309   -45327   -45850   -45947   -45785   -45556 
  -45398   -45348   -45347   -45342   -45246   -44893   -44194   -43219 
  -42082   -40827   -39510   -38099   -36437   -34429   -32071   -29414 
  -26609   -23832   -21230   -18950   -17021   -15340   -13897   -12801 
  -12138   -11915   -12028   -12294   -12512   -12562   -12493   -12451 
  -12540   -12782   -13113   -13453   -13833   -14425   -15399   -16762 
  -18375   -20027   -21493   -22657   -23557   -24278   -24883   -25371 
  -25643   -25584   -25129   -24318   -23312   -22282   -21320   -20445 
  -19636   -18907   -18258   -17615   -16883   -16077   -15356   -14815 
  -14375   -13942   -13464   -12914   -12336   -11802   -11367   -11056 
  -10821   -10586   -10345   -10176   -10161   -10398   -10991   -11917 
  -13097   -14430   -15742   -16912   -17923   -18824   -19710   -20624 
  -21516   -22331   -23007   -23530   -23947   -24305   -24618   -24891 
  -25131   -25383   -25695   -25980   -26082   -25981   -25736   -25433 
  -25213   -25214   -25564   -26318   -27418   -28799   -30409   -32147 
  -33965   -35813   -37526   -38982   -40138   -40998   -41700   -42397 
  -43158   -44017   -44916   -45653   -45963   -45687   -44810   -43339 
  -41393   -39281   -37263   -35446   -33925   -32728   -31827   -31286 
  -31186   -31496   -32075   -32769   -33519   -34281   -34981   -35600 
  -36137   -36627   -37198   -37984   -39059   -40427   -41995   -43543 
  -44803   -45593   -45897   -45753   -45215   -44383   -43335   -42096 
  -40671   -39069   -37340   -35578   -33938   -32603   -31681   -31145 
  -30941   -30971   -31023   -30935   -30654   -30172   -29551   -28816 
  -27970   -27058   -26065   -24953   -23766   -22561   -21362   -20062 
  -18414   -16305   -13861   -11311    -8849    -6582    -4495    -2425 
    -183     2288     4862     7258     9167    10497    11340    11819 
   12009    11901    11494    10768     9628     8071     6194     4135 
    2060       42    -1916    -3840    -5805    -7829    -9889   -11948 
  -13939   -15947   -18108   -20453   -23043   -25842   -28591   -31053 
  -33114   -34722   -35948   -36943   -37782   -38494   -39090   -39581 
  -40031   -40477   -40873   -41127   -41142   -40878   -40423   -39963 
  -39677   -39639   -39777   -39933   -40012   -39975   -39778   -39428 
  -38861   -37934   -36705   -35366   -34080   -32989   -32137   -31479 
  -30916   -30343   -29781   -29312   -28969   -28747   -28634   -28621 
  -28714   -28880   -28987   -28933   -28752   -28562   -28471   -28471 
  -28471   -28345   -27983   -27411   -26698   -25847   -24907   -23918 
  -22882   -21860   -20863   -19862   -18899   -17925   -16786   -15490 
  -14150   -12873   -11829   -11127   -10759   -10722   -10987   -11469 
  -12056   -12646   -13114   -13368   -13402   -13206   -12748   -12139 
  -11636   -11498   -11894   -12848   -14224   -15801   -17403   -18983 
  -20616   -22405   -24371   -26418   -28403   -30192   -31676   -32801 
  -33556   -33890   -33718   -32966   -31653   -29939   -28061   -26306 
  -24918   -23982   -23422   -23131   -23057   -23164   -23438   -23947 
  -24733   -25804   -27151   -28664   -30258   -31892   -33489   -34998 
  -36380   -37585   -38623   -39533   -40277   -40804   -41076   -41079 
  -40872   -40525   -40089   -39593   -39079   -38671   -38487   -38572 
  -38952   -39636   -40520   -41425   -42217   -42813   -43166   -43200 
  -42830   -42064   -40942   -39488   -37806   -35997   -34059   -32010 
  -29983   -28106   -26469   -25110   -23913   -22674   -21240   -19509 
  -17511   -15436   -13469   -11702   -10110    -8640    -7281    -6080 
   -5074    -4252    -3639    -3270    -3149    -3275    -3613    -4148 
   -4933    -6004    -7386    -9109   -11134   -13351   -15659   -17990 
  -20356   -22795   -25235   -27472   -29241   -30334   -30752   -30702 
  -30432   -30129   -29866   -29593   -29204   -28657   -28002   -27304 
  -26658   -26185   -25904   -25780   -25821   -26055   -26518   -27215 
  -28058   -28908   -29657   -30258   -30765   -31281   -31823   -32325 
  -32744   -33069   -33235   -33118   -32640   -31784   -30556   -29014 
  -27322   -25708   -24372   -23424   -22875   -22667   -22703   -22879 
  -23161   -23586   -24147   -24805   -25506   -26157   -26716   -27188 
  -27573   -27887   -28122   -28221   -28121   -27814   -27349   -26747 
  -25978   -24981   -23653   -21911   -19773   -17408   -15082   -13051 
  -11499   -10499   -10031   -10036   -10382   -10854   -11298   -11650 
  -11893   -12048   -12143   -12188   -12236   -12422   -12879   -13655 
  -14685   -15812   -16855   -17676   -18227   -18531   -18654   -18665 
  -18588   -18454   -18322   -18272   -18464   -19063   -20104   -21506 
  -23126   -24804   -26398   -27803   -28983   -29947   -30698   -31279 
  -31830   -32547   -33594   -35007   -36634   -38210   -39488   -40358 
  -40870   -41166   -41447   -41870   -42445   -43052   -43542   -43833 
  -43875   -43639   -43127   -42368   -41442   -40417   -39293   -38105 
  -36916   -35685   -34316   -32804   -31234   -29669   -28155   -26734 
  -25454   -24402   -23648   -23164   -22866   -22606   -22222   -21692 
  -21133   -20713   -20566   -20722   -21110   -21557   -21893   -22009 
  -21864   -21567   -21283   -21042   -20770   -20377   -19781   -18927 
  -17805   -16483   -15057   -13624   -12325   -11275   -10512   -10043 
   -9840    -9840   -10049   -10473   -11036   -11696   -12440   -13269 
  -14267   -15566   -17247   -19271   -21488   -23686   -25659   -27375 
  -28991   -30731   -32736   -34959   -37207   -39248   -40868   -41963 
  -42582   -42865   -42966   -42980   -42953   -42904   -42814   -42622 
  -42259   -41691   -40950   -40098   -39194   -38238   -37172   -35983 
  -34705   -33366   -32025   -30731   -29438   -28148   -26985   -26085 
  -25608   -25699   -26349   -27384   -28517   -29474   -30127   -30446 
  -30435   -30136   -29625   -28970   -28187   -27254   -26141   -24823 
  -23296   -21592   -19742   -17800   -15865   -14006   -12274   -10724 
   -9401    -8382    -7707    -7431    -7672    -8482    -9818   -11552 
  -13472   -15473   -17528   -19543   -21513   -23497   -25428   -27201 
  -28687   -29769   -30504   -31017   -31433   -31877   -32378   -32917 
  -33497   -34078   -34636   -35228   -35914   -36757   -37804   -39033 
  -40354   -41659   -42845   -43798   -44441   -44741   -44686   -44363 
  -43912   -43371   -42738   -41994   -41056   -39920   -38718   -37608 
  -36723   -36087   -35538   -34838   -33832   -32497   -30958   -29459 
  -28197   -27211   -26417   -25672   -24834   -23803   -22559   -21149 
  -19615   -17978   -16260   -14501   -12821   -11413   -10430    -9965 
  -10037   -10591   -11562   -12879   -14453   -16186   -18011   -19863 
  -21629   -23178   -24362   -25088   -25378   -25298   -24952   -24446 
  -23814   -23002   -21928   -20622   -19245   -17988   -17000   -16382 
  -16185   -16375   -16837   -17446   -18149   -18937   -19762   -20591 
  -21427   -22243   -23062   -23955   -24949   -26068   -27334   -28685 
  -30034   -31300   -32369   -33168   -33635   -33701   -33392   -32785 
  -31986   -31134   -30283   -29454   -28731   -28143   -27608   -27020 
  -26316   -25500   -24628   -23760   -22977   -22409   -22117   -22025 
  -21995   -21910   -21674   -21228   -20589   -19839   -19057   -18308 
  -17667   -17212   -16956   -16849   -16817   -16769   -16641   -16468 
  -16330   -16247   -16184   -16069   -15844   -15508   -15104   -14701 
  -14402   -14309   -14467   -14919   -15772   -17091   -18865   -21046 
  -23488   -26012   -28536   -30988   -33294   -35461   -37462   -39220 
  -40675   -41778   -42495   -42805   -42697   -42160   -41250   -40064 
  -38651   -37098   -35533   -34049   -32748   -31684   -30837   -30171 
