Origin Time       2011/03/11 14:46:00
Lat.              38.103
Long.             142.860
Depth. (km)       24
Mag.              9.0
Station Code      NGN019
Station Lat.      35.8561
Station Long.     137.7080
Station Height(m) 789
Record Time       2011/03/11 14:47:57
Sampling Freq(Hz) 100Hz
Duration Time(s)  223
Dir.              U-D
Scale Factor      3920(gal)/6182761
Max. Acc. (gal)   6.909
Last Correction   2011/03/11 14:47:42
Memo.             
[...]
  -17647   -18344   -18772   -18720   -18144   -17149   -16103   -15408 
  -15131   -15230   -15804   -16899   -18341   -19765   -20825   -21575 
  -22291   -22877   -23068   -22844   -22307   -21720   -21263   -20645 
  -19767   -19085   -18868   -18940   -19017   -18930   -18794   -18868 
  -19124   -19332   -19536   -20047   -21076   -22436   -23511   -23783 
  -23370   -22760   -22229   -21787   -21497   -21471   -21723   -22099 
  -22305   -22186   -21909   -21775   -21998   -22534   -23108   -23410 
  -23296   -22983   -22833   -22951   -23152   -23190   -22955   -22380 
  -21500   -20729   -20483   -20718   -21164   -21541   -21714   -21905 
  -22400   -23238   -24351   -25642   -26845   -27630   -27868   -27708 
  -27511   -27563   -27773   -27966   -28250   -28784   -29477   -29924 
  -29662   -28746   -27648   -26607   -25669   -24980   -24747   -25194 
  -26204   -27181   -27642   -27559   -27125   -26418   -25447   -24400 
  -23495   -22602   -21392   -19931   -18690   -18078   -18190   -18900 
  -20172   -21829   -23454   -24980   -26478   -27702   -28359   -28350 
  -27977   -27630   -27103   -25938   -24192   -22423   -21215   -20626 
  -20313   -20228   -20701   -21966   -23752   -25495   -27009   -28294 
  -29256   -29925   -30257   -30076   -29352   -28028   -26083   -23901 
  -22124   -21228   -21293   -21831   -22030   -21646   -21245   -21309 
  -21751   -22232   -22498   -22672   -23057   -23648   -24184   -24402 
  -24168   -23680   -23387   -23541   -23948   -24076   -23551   -22593 
  -21662   -21090   -21190   -21900   -22567   -22588   -21951   -21109 
  -20532   -20367   -20458   -20652   -20996   -21503   -21917   -21874 
  -21239   -20273   -19292   -18336   -17501   -17111   -17314   -18004 
  -18959   -19874   -20604   -21243   -21795   -22084   -22057   -21865 
  -21546   -20992   -20237   -19443   -18742   -18164   -17670   -17359 
  -17460   -17986   -18661   -19117   -19075   -18547   -17797   -17103 
  -16717   -16718   -16827   -16787   -16632   -16417   -16222   -16225 
  -16495   -17000   -17658   -18340   -18979   -19526   -19924   -20270 
  -20652   -20892   -20769   -20187   -19144   -17897   -16886   -16330 
  -16070   -15807   -15464   -15214   -15225   -15480   -15711   -15662 
  -15400   -15126   -14869   -14605   -14489   -14674   -15054   -15366 
  -15455   -15439   -15474   -15397   -14933   -14163   -13500   -13180 
  -13105   -13109   -13055   -12919   -12899   -13233   -13974   -14924 
  -15792   -16466   -16930   -16998   -16523   -15640   -14587   -13483 
  -12297   -10996    -9781    -8989    -8791    -9239   -10294   -11654 
  -12891   -13716   -14035   -14007   -13936   -14068   -14557   -15407 
  -16400   -17322   -18203   -19146   -20133   -21102   -21886   -22150 
  -21653   -20511   -19108   -17818   -16841   -16206   -16002   -16457 
  -17581   -18975   -20022   -20351   -20202   -20019   -19895   -19725 
  -19484   -19291   -19338   -19550   -19508   -18902   -17832   -16647 
  -15628   -14890   -14593   -14886   -15659   -16656   -17673   -18664 
  -19716   -20843   -21819   -22171   -21564   -20146   -18313   -16394 
  -14564   -12961   -11822   -11405   -11839   -13010   -14585   -16239 
  -17882   -19620   -21408   -22981   -24162   -24854   -24955   -24449 
  -23334   -21695   -19861   -18029   -16124   -14319   -13164   -13048 
  -13857   -15175   -16670   -18136   -19308   -19922   -19900   -19440 
  -18923   -18563   -18262   -17904   -17729   -18089   -18822   -19522 
  -19942   -19906   -19530   -19127   -18920   -19149   -19862   -20706 
  -21402   -22016   -22677   -23462   -24298   -24958   -25374   -25522 
  -25226   -24357   -22948   -21401   -20335   -19897   -19744   -19612 
  -19532   -19660   -20086   -20789   -21598   -22201   -22356   -22088 
  -21627   -21294   -21289   -21332   -20956   -20243   -19686   -19514 
  -19641   -19913   -20123   -20198   -20313   -20542   -20805   -21134 
  -21601   -22225   -22984   -23666   -23952   -23781   -23312   -22698 
  -22046   -21327   -20444   -19564   -19007   -18836   -18881   -18953 
  -19073   -19474   -20183   -20912   -21451   -21862   -22223   -22347 
  -21900   -20849   -19642   -18749   -18165   -17564   -16797   -16141 
  -15968   -16235   -16545   -16641   -16594   -16513   -16399   -16237 
  -16058   -16006   -16175   -16345   -16317   -16141   -15980   -16076 
  -16396   -16531   -16249   -15724   -15229   -14846   -14455   -14098 
  -14140   -14749   -15663   -16646   -17521   -18049   -18182   -17957 
  -17505   -17254   -17434   -17814   -18154   -18231   -17958   -17728 
  -17859   -18176   -18401   -18467   -18593   -19015   -19804   -20915 
  -22000   -22799   -23490   -24123   -24547   -24707   -24453   -23757 
  -22902   -22039   -21008   -19716   -18423   -17383   -16473   -15546 
  -14800   -14638   -15284   -16459   -17543   -18189   -18500   -18731 
  -19019   -19321   -19555   -19629   -19463   -19074   -18543   -18021 
  -17587   -17033   -16165   -15169   -14452   -14181   -14247   -14640 
  -15357   -16162   -16789   -17181   -17598   -18286   -19083   -19743 
  -20194   -20357   -20254   -19957   -19341   -18357   -17154   -15844 
  -14565   -13578   -13075   -13033   -13286   -13669   -14082   -14690 
  -15861   -17680   -19776   -21596   -22690   -22955   -22604   -21912 
  -21048   -20017   -18840   -17673   -16682   -15992   -15728   -15928 
  -16425   -16952   -17418   -17988   -18845   -19843   -20557   -20750 
  -20555   -20232   -19848   -19227   -18293   -17313   -16670   -16606 
  -17080   -17792   -18492   -19098   -19534   -19816   -20095   -20471 
  -20845   -21000   -20915   -20862   -21065   -21449   -21742   -21800 
  -21871   -22205   -22589   -22622   -22175   -21434   -20588   -19604 
  -18568   -17839   -17737   -18319   -19234   -19900   -20086   -20065 
  -20044   -19828   -19252   -18433   -17568   -16837   -16283   -15774 
  -15364   -15209   -15095   -14798   -14461   -14274   -14321   -14512 
  -14604   -14614   -14861   -15490   -16312   -17000   -17257   -17107 
  -16923   -17024   -17505   -18262   -19022   -19586   -20036   -20571 
  -21261   -22132   -23015   -23426   -23163   -22625   -22321   -22383 
  -22600   -22773   -22845   -22844   -22817   -22801   -22824   -22799 
  -22610   -22334   -22223   -22528   -23240   -24069   -24793   -25373 
  -25746   -25893   -25921   -25896   -25686   -25075   -24092   -22987 
  -22051   -21479   -21238   -21299   -21668   -22149   -22648   -23275 
  -24001   -24672   -25174   -25473   -25628   -25565   -25027   -23970 
  -22714   -21746   -21284   -21072   -20804   -20508   -20463   -20865 
  -21478   -21760   -21472   -20955   -20692   -20787   -20987   -20998 
  -20751   -20517   -20601   -20910   -21134   -21163   -21114   -21086 
  -20973   -20586   -20005   -19639   -19795   -20239   -20454   -20250 
  -19899   -19796   -20044   -20440   -20780   -20942   -20880   -20729 
  -20616   -20461   -20228   -19995   -19732   -19391   -19017   -18700 
  -18566   -18716   -19122   -19529   -19685   -19677   -19805   -20266 
  -20908   -21383   -21701   -22137   -22624   -22857   -22817   -22707 
  -22605   -22381   -21948   -21533   -21515   -21875   -22089   -21907 
  -21712   -21835   -22232   -22733   -23140   -23382   -23549   -23617 
  -23486   -23278   -23202   -23271   -23331   -23189   -22804   -22397 
  -22307   -22609   -22949   -22985   -22840   -22813   -22981   -23278 
  -23638   -24070   -24579   -25043   -25361   -25626   -25961   -26336 
  -26627   -26602   -26099   -25249   -24244   -23276   -22493   -21799 
  -21258   -21206   -21614   -22081   -22317   -22332   -22318   -22368 
  -22335   -22124   -21864   -21644   -21383   -21042   -20815   -20933 
  -21271   -21461   -21336   -21017   -20721   -20536   -20377   -20135 
  -19745   -19194   -18593   -18137   -17972   -18147   -18573   -19069 
  -19361   -19114   -18353   -17472   -16687   -15973   -15227   -14457 
  -13911   -13800   -14043   -14390   -14761   -15216   -15624   -15892 
  -16064   -16072   -15928   -15695   -15294   -14814   -14465   -14315 
  -14468   -14845   -15089   -15195   -15381   -15627   -15909   -16269 
  -16738   -17307   -17747   -17849   -17762   -17700   -17546   -17025 
  -16209   -15515   -15172   -15071   -15019   -14902   -14763   -14726 
  -14846   -15131   -15564   -16035   -16274   -16033   -15419   -14729 
  -14143   -13683   -13258   -12913   -12836   -13009   -13250   -13490 
  -13863   -14453   -15081   -15453   -15412   -15050   -14577   -14095 
  -13566   -12931   -12271   -11874   -12033   -12702   -13519   -14217 
  -14743   -15102   -15359   -15635   -16009   -16500   -17013   -17344 
  -17410   -17318   -17147   -16903   -16603   -16277   -15980   -15800 
  -15759   -15796   -15822   -15710   -15399   -15029   -14762   -14594 
  -14469   -14434   -14558   -14724   -14768   -14729   -14802   -15130 
  -15612   -15947   -15941   -15680   -15326   -14939   -14567   -14387 
  -14518   -14833   -15122   -15263   -15275   -15311   -15400   -15489 
  -15696   -16096   -16609   -17227   -17886   -18434   -18826   -18979 
  -18791   -18340   -17714   -16871   -15848   -14859   -14024   -13342 
  -12934   -12990   -13622   -14769   -16155   -17471   -18545   -19261 
  -19480   -19266   -18997   -18956   -18982   -18782   -18370   -18019 
  -17881   -17775   -17428   -16939   -16731   -17045   -17788   -18727 
  -19485   -19698   -19316   -18610   -18036   -17902   -18085   -18245 
  -18124   -17808   -17822   -18572   -19907   -21362   -22527   -23211 
  -23480   -23452   -23219   -23014   -23025   -23103   -22998   -22676 
  -22321   -22122   -22118   -22317   -22802   -23534   -24218   -24600 
  -24635   -24388   -23999   -23608   -23292   -22955   -22389   -21634 
  -20932   -20471   -20356   -20536   -20861   -21222   -21552   -21854 
  -22203   -22596   -22957   -23217   -23295   -23220   -23086   -22867 
  -22538   -22115   -21570   -20992   -20518   -20055   -19481   -18918 
  -18571   -18578   -18906   -19378   -20033   -21024   -22156   -22966 
  -23210   -23128   -23154   -23428   -23662   -23501   -22958   -22328 
  -21834   -21568   -21482   -21425   -21292   -21002   -20474   -19758 
  -19019   -18438   -18107   -17934   -17791   -17683   -17611   -17510 
  -17367   -17138   -16746   -16286   -15869   -15394   -14805   -14173 
  -13564   -13101   -12932   -13124   -13630   -14255   -14775   -15043 
  -15060   -14973   -14919   -14949   -15040   -15135   -15246   -15331 
  -15263   -15091   -15035   -15214   -15532   -15727   -15689   -15709 
  -16022   -16428   -16717   -17000   -17456   -18052   -18496   -18539 
  -18345   -18246   -18310   -18396   -18386   -18375   -18634   -19187 
  -19651   -19621   -19066   -18297   -17546   -16763   -15887   -15214 
  -15219   -15920   -16828   -17564   -18191   -19002   -20041   -20957 
  -21457   -21522   -21151   -20382   -19307   -17976   -16711   -15995 
  -15892   -16120   -16385   -16594   -16932   -17488   -18040   -18441 
  -18857   -19462   -20149   -20649   -20872   -20944   -20971   -20910 
  -20660   -20260   -19811   -19253   -18509   -17672   -16881   -16230 
  -15790   -15576   -15499   -15483   -15564   -15794   -16147   -16441 
  -16444   -16158   -15811   -15585   -15524   -15610   -15782   -15859 
  -15639   -15181   -14819   -14861   -15301   -15847   -16302   -16728 
  -17142   -17372   -17290   -16972   -16572   -16114   -15573   -15073 
  -14796   -14740   -14695   -14486   -14203   -14074   -14182   -14469 
  -14852   -15205   -15431   -15478   -15401   -15424   -15655   -15933 
  -16097   -16155   -16146   -16014   -15679   -15135   -14516   -14019 
  -13723   -13622   -13763   -14240   -15131   -16314   -17456   -18376 
  -19071   -19426   -19310   -18750   -17900   -17018   -16266   -15563 
  -14838   -14212   -13783   -13572   -13664   -14138   -14857   -15526 
  -15984   -16374   -17008   -17935   -18748   -19092   -18997   -18665 
  -18326   -18093   -17922   -17755   -17496   -17096   -16701   -16482 
  -16455   -16461   -16332   -16073   -15844   -15843   -16190   -16878 
  -17718   -18421   -18932   -19469   -20229   -21175   -21992   -22342 
  -22238   -21918   -21494   -21095   -20948   -21105   -21541   -22239 
  -23101   -24110   -25139   -25809   -25971   -25802   -25537   -25311 
  -25078   -24771   -24381   -23889   -23352   -22906   -22632   -22516 
  -22426   -22198   -21872   -21646   -21531   -21381   -21191   -21100 
  -21181   -21358   -21554   -21761   -21957   -22048   -21895   -21484 
  -20973   -20531   -20237   -20150   -20313   -20619   -20891   -21138 
  -21464   -21830   -22111   -22170   -21989   -21709   -21362   -21005 
  -20767   -20487   -20021   -19453   -18865   -18360   -17994   -17752 
  -17694   -17874   -18223   -18616   -19033   -19544   -20122   -20606 
  -20872   -20991   -21115   -21314   -21503   -21442   -21034   -20563 
  -20356   -20397   -20505   -20571   -20494   -20184   -19756   -19528 
  -19677   -20053   -20389   -20528   -20558   -20645   -20776   -20916 
  -21114   -21339   -21504   -21552   -21571   -21725   -21950   -22008 
  -21942   -22069   -22523   -23164   -23700   -23922   -23990   -24106 
  -24189   -24139   -23927   -23449   -22737   -22031   -21542   -21393 
  -21490   -21482   -21280   -21147   -21220   -21441   -21637   -21591 
  -21240   -20689   -20131   -19674   -19173   -18498   -17721   -16983 
  -16394   -15913   -15451   -15092   -14938   -14906   -14915   -15027 
  -15201   -15235   -14987   -14468   -13864   -13350   -12886   -12400 
  -11846   -11131   -10241    -9353    -8752    -8615    -8906    -9439 
  -10037   -10618   -11141   -11591   -11946   -12236   -12623   -13113 
  -13558   -13900   -14056   -14035   -13980   -13873   -13655   -13372 
  -13096   -12910   -12799   -12694   -12596   -12581   -12823   -13510 
  -14641   -16047   -17504   -18810   -19858   -20624   -21053   -21079 
  -20669   -19846   -18812   -17844   -17137   -16800   -16783   -16896 
  -16994   -17077   -17255   -17629   -18234   -18981   -19714   -20363 
  -20996   -21615   -21988   -21934   -21575   -21187   -20990   -20907 
  -20576   -19953   -19399   -19112   -19061   -19178   -19380   -19737 
  -20331   -20917   -21250   -21362   -21303   -21095   -20789   -20470 
  -20282   -20190   -19954   -19442   -18664   -17688   -16750   -16217 
  -16228   -16536   -16852   -17046   -17177   -17443   -17798   -18074 
  -18334   -18547   -18559   -18386   -18083   -17780   -17702   -17794 
  -17792   -17672   -17522   -17296   -17067   -16978   -17002   -17048 
  -17037   -17053   -17364   -17981   -18634   -19105   -19274   -19160 
  -18906   -18553   -18097   -17598   -17069   -16567   -16267   -16240 
  -16454   -16913   -17532   -18089   -18425   -18599   -18816   -19189 
  -19699   -20339   -20938   -21225   -21252   -21224   -21170   -21030 
  -20727   -20339   -20118   -20075   -20028   -20002   -20126   -20411 
  -20625   -20535   -20418   -20628   -21088   -21645   -22077   -22124 
  -21866   -21427   -20849   -20346   -20007   -19688   -19362   -19081 
  -18882   -18796   -18748   -18759   -19026   -19547   -20155   -20806 
  -21443   -21911   -22111   -22017   -21731   -21460   -21218   -20860 
  -20399   -19979   -19698   -19539   -19460   -19531   -19778   -20097 
  -20488   -21041   -21733   -22375   -22717   -22692   -22488   -22280 
  -22065   -21744   -21328   -20919   -20541   -20284   -20260   -20357 
  -20450   -20567   -20724   -20879   -21019   -21154   -21284   -21458 
  -21729   -22062   -22330   -22468   -22633   -22891   -23137   -23368 
  -23531   -23577   -23592   -23550   -23433   -23311   -23117   -22769 
  -22354   -22033   -21878   -21818   -21747   -21698   -21845   -22235 
  -22669   -22923   -22904   -22587   -22045   -21448   -20835   -20268 
  -19936   -19727   -19543   -19548   -19601   -19540   -19447   -19293 
  -19197   -19302   -19358   -19184   -18878   -18519   -18175   -17940 
  -17868   -18011   -18289   -18401   -18276   -18142   -18049   -18002 
  -18053   -18031   -17922   -17953   -18103   -18286   -18536   -18725 
  -18715   -18583   -18522   -18772   -19329   -19763   -19732   -19435 
  -19292   -19434   -19694   -19954   -20207   -20447   -20660   -20815 
  -20948   -21051   -21033   -21019   -21047   -21009   -21094   -21363 
  -21641   -21906   -22051   -22094   -22306   -22616   -22822   -22849 
  -22599   -22219   -21928   -21712   -21615   -21690   -21884   -22180 
  -22527   -22796   -22906   -22947   -23037   -23115   -23170   -23400 
  -23818   -24156   -24290   -24354   -24525   -24833   -25012   -24932 
  -24843   -24739   -24432   -24049   -23749   -23580   -23529   -23441 
  -23327   -23448   -23865   -24370   -24736   -24801   -24566   -24185 
  -23816   -23544   -23441   -23533   -23642   -23518   -23228   -23087 
  -23245   -23598   -23966   -24188   -24264   -24312   -24348   -24291 
  -24094   -23826   -23663   -23707   -23898   -24082   -24212   -24312 
  -24251   -24100   -24116   -24202   -24167   -23957   -23569   -23205 
  -22974   -22781   -22694   -22758   -22833   -22864   -22871   -22888 
  -23041   -23259   -23260   -23038   -22757   -22435   -22120   -21870 
  -21594   -21314   -21062   -20649   -20049   -19491   -19184   -19202 
  -19364   -19481   -19633   -19859   -20064   -20227   -20375   -20522 
  -20579   -20365   -19842   -19098   -18244   -17489   -16942   -16508 
  -16161   -15971   -15957   -16099   -16335   -16589   -16866   -17099 
  -17154   -17088   -16990   -16871   -16756   -16585   -16307   -15974 
  -15681   -15574   -15654   -15741   -15805   -15942   -16138   -16422 
  -16887   -17555   -18354   -18968   -19114   -18941   -18758   -18752 
  -18929   -19123   -19261   -19435   -19746   -20201   -20668   -20937 
  -20843   -20474   -20055   -19667   -19341   -19155   -19156   -19270 
  -19358   -19508   -19896   -20462   -21028   -21420   -21568   -21553 
  -21353   -20870   -20280   -19824   -19396   -18885   -18494   -18287 
  -18135   -18030   -17845   -17506   -17277   -17295   -17526   -17953 
  -18423   -18823   -19081   -19066   -18875   -18671   -18494   -18431 
  -18389   -18171   -17910   -17869   -18064   -18276   -18353   -18410 
  -18570   -18765   -18936   -19140   -19394   -19553   -19524   -19459 
  -19486   -19614   -19858   -20111   -20217   -20182   -20047   -19922 
  -19987   -20180   -20332   -20529   -20907   -21376   -21790   -22141 
  -22504   -22836   -22925   -22720   -22441   -22257   -22160   -21986 
  -21578   -21103   -20824   -20737   -20700   -20615   -20502   -20541 
  -20816   -21136   -21291   -21259   -21124   -20999   -20873   -20654 
  -20407   -20187   -19971   -19803   -19683   -19693   -20054   -20645 
  -21098   -21257   -21201   -21256   -21621   -21958   -21898   -21506 
  -21031   -20697   -20638   -20690   -20568   -20365   -20330   -20364 
  -20347   -20416   -20638   -20926   -21090   -20973   -20806   -20951 
  -21359   -21763   -22058   -22292   -22564   -22810   -22835   -22682 
  -22545   -22466   -22455   -22512   -22548   -22563   -22653   -22843 
  -23128   -23514   -23917   -24180   -24205   -24036   -23794   -23490 
  -23077   -22629   -22312   -22236   -22373   -22522   -22533   -22500 
  -22589   -22872   -23280   -23646   -23847   -23890   -23827   -23655 
  -23418   -23231   -23139   -23229   -23486   -23552   -23271   -22901 
  -22563   -22270   -22170   -22310   -22589   -22964   -23386   -23736 
