Origin Time       2011/03/11 14:46:00
Lat.              38.103
Long.             142.860
Depth. (km)       24
Mag.              9.0
Station Code      NGN014
Station Lat.      36.0956
Station Long.     138.4839
Station Height(m) 855
Record Time       2011/03/11 14:47:38
Sampling Freq(Hz) 100Hz
Duration Time(s)  281
Dir.              N-S
Scale Factor      3920(gal)/6182761
Max. Acc. (gal)   63.256
Last Correction   2011/03/11 14:47:23
Memo.             
[...]
  -41737   -43709   -45409   -43778   -39354   -35271   -32613   -30391 
  -28692   -29625   -34276   -40431   -44842   -46068   -45372   -44509 
  -42518   -38199   -34118   -34260   -39962   -49300   -58454   -64111 
  -65219   -62344   -56433   -48834   -42138   -39084   -39569   -40897 
  -40765   -38630   -35534   -33237   -32985   -34850   -37352   -37767 
  -34975   -31790   -31985   -36402   -43247   -49776   -53638   -53369 
  -47637   -36953   -25433   -17678   -15882   -20501   -30493   -42708 
  -53258   -59510   -59868   -53777   -43437   -33117   -25884   -22525 
  -23230   -28284   -36310   -43932   -48800   -50653   -49236   -44424 
  -38562   -35680   -37435   -42564   -49465   -55677   -57950   -55525 
  -51010   -48204   -49293   -52551   -53697   -50594   -44953   -39672 
  -36683   -36630   -39237   -43785   -48015   -47832   -41785   -34564 
  -32469   -36837   -44352   -51457   -56223   -57560   -54286   -45969 
  -35059   -26553   -24751   -30152   -39131   -47714   -54498   -58869 
  -59923   -57660   -52920   -47510   -44428   -45538   -48891   -49755 
  -44620   -34098   -23158   -17637   -18835   -23472   -28600   -34122 
  -40938   -47436   -49729   -46781   -42291   -40050   -40046   -40395 
  -40999   -43069   -46569   -50328   -53271   -54229   -51915   -45800 
  -36212   -24201   -12620    -6256    -8658   -18986   -33513   -48668 
  -61369   -68882   -69837   -65132   -57336   -48776   -40729   -33915 
  -29266   -28094   -30416   -33752   -35040   -33601   -32218   -34533 
  -40047   -43754   -42524   -38593   -35440   -34349   -35706   -39866 
  -45812   -50252   -49562   -44008   -38491   -37590   -41658   -48296 
  -55092   -59920   -59989   -52773   -39459   -26065   -19217   -20426 
  -25220   -29201   -32818   -37821   -42444   -43508   -41287   -39317 
  -39952   -41972   -43265   -44188   -45959   -47804   -48305   -47519 
  -46588   -46183   -45351   -42624   -37817   -32053   -27702   -27456 
  -32148   -39977   -47014   -49632   -47678   -43271   -38292   -35280 
  -37084   -44009   -52741   -58714   -60764   -61543   -61938   -59204 
  -51815   -42281   -33938   -28299   -26404   -28851   -33896   -38154 
  -39312   -37594   -34695   -32463   -33048   -37775   -45535   -54142 
  -61749   -66231   -65082   -57043   -44321   -31766   -23262   -20903 
  -25630   -35548   -46295   -54526   -58980   -59400   -56026   -49862 
  -43179   -37694   -32829   -28238   -25779   -27782   -34791   -44186 
  -50959   -51162   -44823   -35587   -28134   -25789   -28771   -34514 
  -40545   -44953   -45532   -42685   -39746   -38116   -36639   -35185 
  -34547   -34181   -33622   -35053   -41468   -51815   -59684   -59178 
  -50961   -39963   -29746   -21658   -16773   -16201   -19936   -26440 
  -33690   -40308   -45682   -49320   -50735   -49889   -46998   -42766 
  -38175   -33302   -28836   -26978   -28069   -30632   -35295   -43346 
  -53214   -62368   -69236   -71601   -67126   -56370   -43506   -33811 
  -30588   -34443   -43870   -54489   -60453   -59510   -54058   -47269 
  -41207   -36736   -33550   -31058   -28603   -26553   -27708   -34384 
  -44705   -53919   -58447   -57746   -53065   -46318   -40558   -39172 
  -43138   -49656   -54207   -54383   -51254   -47079   -43156   -39647 
  -36271   -33313   -31607   -31356   -32173   -34044   -37057   -40804 
  -44645   -47790   -49151   -48220   -46503   -46452   -47856   -47722 
  -44249   -38295   -31655   -26298   -24487   -27721   -34972   -41854 
  -43117   -38714   -36000   -41886   -54262   -65175   -68871   -63408 
  -50048   -33558   -19990   -14136   -18095   -29359   -41682   -50184 
  -54887   -57984   -59712   -59361   -56761   -50663   -40081   -27936 
  -19266   -15874   -16230   -19505   -26432   -37201   -50192   -62047 
  -68717   -67503   -58260   -43529   -28615   -19004   -16485   -19512 
  -26359   -36073   -46718   -54471   -56356   -53257   -48567   -44956 
  -43293   -43917   -47756   -54372   -60381   -62528   -61006   -58192 
  -55136   -50653   -43265   -32829   -21687   -14651   -15054   -21314 
  -29262   -36120   -41243   -44281   -44393   -41934   -39065   -37874 
  -38796   -41125   -44483   -48427   -51584   -52867   -51614   -47030 
  -40400   -34885   -31410   -28717   -26714   -25957   -26018   -27436 
  -32484   -41474   -50895   -56476   -56570   -52427   -46279   -40438 
  -37286   -38006   -42518   -50281   -59025   -64985   -65856   -61818 
  -54393   -45382   -36493   -29538   -25908   -25887   -28750   -33045 
  -37425   -41354   -44805   -47381   -47238   -42211   -32831   -22875 
  -16448   -15123   -18749   -27648   -41389   -56702   -68930   -74735 
  -73147   -65209   -53554   -41639   -32104   -26621   -26271   -29757 
  -33120   -32574   -27103   -19667   -15523   -18334   -28305   -42136 
  -54572   -61941   -63791   -62180   -60069   -59367   -60865   -63945 
  -65513   -62126   -52861   -39830   -27474   -19992   -18546   -21213 
  -24361   -25085   -24241   -26264   -35173   -50330   -65929   -75198 
  -74977   -66702   -54208   -41405   -31945   -29139   -34095   -43811 
  -52391   -55483   -53070   -47113   -39020   -30613   -24253   -21561 
  -23920   -31903   -43073   -53538   -61492   -67124   -70324   -69362 
  -62554   -51673   -40627   -31356   -24175   -19432   -17832   -20992 
  -29692   -41885   -54695   -66173   -74067   -75711   -70148   -59650 
  -48960   -41705   -37120   -32421   -27190   -22615   -19099   -16997 
  -17762   -22993   -31759   -39512   -41830   -38286   -30856   -21531 
  -13509   -11133   -17404   -32497   -52527   -70133   -78725   -75910 
  -64179   -49656   -37751   -29422   -23506   -20703   -22601   -28988 
  -37582   -45163   -49269   -49076   -45039   -38975   -33327   -29049 
  -25864   -24800   -28163   -36531   -47365   -57051   -63068   -63931 
  -58774   -48240   -35671   -25731   -20702   -19989   -22612   -27060 
  -30514   -31188   -30358   -31059   -35015   -40861   -46294   -51190 
  -55634   -57236   -54903   -51812   -50817   -50546   -47990   -42314 
  -35674   -31421   -31619   -35984   -42397   -48096   -51236   -52119 
  -52567   -53786   -55142   -54715   -51236   -45407   -38978   -33948 
  -31946   -32494   -33098   -31403   -26664   -21304   -20834   -28842 
  -42256   -53648   -57587   -53371   -43225   -31299   -23201   -22663 
  -29156   -39259   -48540   -53289   -52348   -47331   -41349   -36960 
  -34852   -34532   -35275   -35895   -35397   -34849   -36314   -39512 
  -42371   -44031   -44680   -44301   -43339   -42839   -43212   -43832 
  -43581   -42207   -41838   -45067   -51241   -56864   -59397   -59084 
  -56920   -52630   -45848   -38458   -34742   -37721   -44759   -49027 
  -46239   -38509   -31248   -27022   -24369   -23054   -26368   -35704 
  -46849   -55758   -64028   -73587   -80920   -80914   -72249   -57740 
  -41929   -28362   -19043   -15016   -15176   -16739   -18697   -22464 
  -29027   -37526   -45815   -51120   -50774   -43737   -33237   -26440 
  -28385   -38446   -53116   -67231   -74319   -70853   -58028   -39609 
  -21326    -8721    -3804    -6448   -15817   -28019   -38093   -45532 
  -52473   -58437   -60398   -55808   -45682   -34269   -25268   -20768 
  -21308   -25267   -30223   -34086   -36165   -37902   -39793   -39644 
  -36107   -31183   -28529   -30373   -36256   -44616   -53854   -61888 
  -66773   -67143   -62235   -53475   -44950   -40134   -38768   -38413 
  -38151   -39374   -43248   -48510   -52286   -52211   -47746   -40535 
  -33391   -29686   -33081   -44263   -58392   -68385   -70593   -66858 
  -60982   -54734   -47986   -40621   -33600   -28369   -26133   -28133 
  -34325   -42146   -48931   -54058   -57529   -58854   -57958   -55765 
  -53206   -49948   -45895   -42488   -40752   -41010   -43737   -48462 
  -54050   -59440   -63019   -63498   -61200   -57591   -54128   -51423 
  -49336   -47541   -46119   -45636   -46368   -48175   -50896   -54605 
  -59018   -62523   -63611   -62011   -56895   -47321   -34837   -22933 
  -14612   -11207   -12425   -17165   -24591   -34331   -44855   -52464 
  -54637   -53483   -53285   -55545   -57315   -54433   -46891   -39237 
  -35034   -33693   -33278   -33156   -32906   -31453   -28931   -27809 
  -30386   -35982   -42257   -48136   -53290   -56246   -55595   -51966 
  -47070   -42049   -38112   -37009   -38787   -40768   -40446   -37483 
  -32514   -26732   -22442   -21942   -26241   -34319   -42787   -48387 
  -50977   -51973   -51324   -48191   -43329   -39202   -37765   -38657 
  -40152   -41427   -42510   -43206   -43890   -45445   -47016   -46198 
  -42987   -40620   -41085   -43647   -47478   -51790   -55122   -56644 
  -56555   -55274   -52793   -48576   -43397   -39949   -39600   -40958 
  -41742   -40597   -38670   -38698   -41451   -45324   -49516   -54501 
  -59265   -61286   -59016   -52488   -43326   -34951   -30349   -29281 
  -29065   -27788   -25964   -25389   -27081   -30835   -36134   -42287 
  -48267   -53382   -57512   -60113   -59886   -56883   -53538   -51563 
  -49735   -45750   -38913   -31190   -25654   -23387   -22760   -22322 
  -23487   -28749   -36828   -42589   -43181   -40253   -36273   -32623 
  -30258   -30086   -32204   -35772   -39680   -41919   -41035   -38923 
  -38876   -42038   -47088   -51897   -54781   -54062   -48258   -38523 
  -29247   -24709   -26072   -31597   -38280   -43693   -47282   -49183 
  -48404   -43851   -36316   -28026   -20883   -16002   -14674   -18813 
  -28991   -42396   -54721   -63480   -67873   -66851   -60543   -52908 
  -48882   -49009   -49771   -49049   -48788   -51178   -54561   -55061 
  -50905   -43371   -34101   -24173   -16030   -13240   -17514   -27374 
  -39504   -50572   -57824   -58930   -53571   -45121   -38114   -34680 
  -34975   -38489   -43197   -45952   -45106   -41563   -37111   -33033 
  -30615   -30669   -31571   -29878   -23734   -15632   -11907   -17361 
  -30508   -46157   -59334   -65458   -62051   -51507   -39505   -29747 
  -21890   -15799   -13604   -15775   -19608   -22681   -25303   -29091 
  -34466   -40402   -45826   -50399   -53569   -53561   -49606   -44638 
  -43099   -46836   -53824   -59158   -58421   -51581   -42223   -33641 
  -27557   -25370   -28232   -35290   -43323   -49580   -54379   -59304 
  -63316   -63550   -59461   -53405   -48274   -45419   -44401   -44961 
  -47095   -49856   -52562   -54633   -54002   -48961   -40948   -33775 
  -30088   -29253   -28806   -26932   -23629   -20850   -21889   -29073 
  -40893   -52287   -58142   -56878   -51411   -45964   -42183   -39259 
  -36733   -35544   -36391   -38187   -39153   -39249   -40012   -42153 
  -45078   -48257   -51457   -53898   -54850   -54837   -54432   -52947 
  -49547   -44107   -37480   -32027   -29948   -30977   -32648   -32314 
  -29933   -27870   -27163   -27697   -30732   -37349   -46727   -56975 
  -65987   -71084   -68438   -56473   -40165   -27433   -22006   -21476 
  -21163   -19915   -20611   -25151   -32319   -40315   -48049   -53569 
  -54758   -52237   -48648   -46114   -46287   -49739   -54003   -55354 
  -52470   -46997   -41834   -38497   -35275   -29420   -20537   -10579 
   -2553      331    -3434   -12216   -22889   -33933   -44856   -53147 
  -55826   -53748   -51301   -51270   -52057   -51083   -48357   -46096 
  -46952   -51250   -55153   -53914   -46210   -33957   -20870   -11118 
   -6480    -6538   -11975   -24235   -41894   -59514   -70573   -71708 
  -64657   -53716   -42019   -31957   -27116   -30606   -41518   -54010 
  -61122   -60222   -54167   -47686   -43297   -39741   -33948   -24976 
  -15537    -9482    -9177   -15371   -26708   -38839   -46461   -46469 
  -39437   -29783   -23163   -22416   -26896   -33694   -38360   -37982 
  -34764   -33610   -35972   -39681   -44085   -50561   -58182   -62476 
  -60123   -53334   -46861   -42631   -39087   -33646   -25992   -18898 
  -15714   -18643   -27008   -36486   -42613   -43243   -38106   -29414 
  -21799   -20386   -27838   -41624   -55307   -63080   -63515   -59664 
  -55169   -51764   -49460   -46367   -40815   -34874   -33029   -37410 
  -46206   -55253   -59510   -55876   -46377   -36508   -30871   -32301 
  -41762   -56574   -71939   -84315   -91076   -89419   -78675   -61692 
  -42139   -23868   -12038   -10139   -17759   -31880   -48374   -63365 
  -73508   -76895   -74083   -66175   -54464   -41540   -30189   -22570 
  -19463   -19366   -19600   -19041   -19295   -21048   -22576   -24477 
  -29777   -38464   -45457   -44775   -36849   -28627   -25297   -26669 
  -30362   -34150   -36316   -35942   -33000   -28634   -24806   -22108 
  -19187   -15908   -14956   -18499   -25519   -33974   -42598   -50194 
  -55974   -59758   -61598   -62050   -61231   -57756   -49823   -37846 
  -26063   -19809   -21432   -29691   -40816   -49970   -53823   -52159 
  -47187   -41629   -37919   -37803   -40068   -40522   -36232   -28115 
  -19856   -15229   -15839   -21755   -33030   -48655   -64848   -75491 
  -75145   -63153   -44893   -28537   -20929   -25485   -40636   -59837 
  -75574   -83461   -83268   -77310   -67137   -52912   -35992   -19884 
   -8785    -5151    -7672   -12678   -18673   -27691   -41040   -57055 
  -73912   -89662  -100049  -100450   -88987   -69674   -52706   -45507 
  -45731   -46169   -41505   -30753   -17459    -6886    -1398      225 
   -1017    -6242   -16625   -31214   -47552   -62866   -73505   -75871 
  -68545   -53752   -37755   -27363   -25892   -31589   -37667   -37093 
  -28882   -17682    -7820     -904     2112      740    -4768   -15136 
  -33254   -61132   -94686  -124457  -141097  -140684  -127519  -108819 
  -86991   -62655   -40969   -27031   -19764   -14246    -6237     2637 
    5289    -1040   -12281   -23078   -28568   -28251   -28066   -32999 
  -43546   -57986   -72172   -81807   -85740   -84355   -77704   -65702 
  -49498   -32683   -17888    -5342     2757     4023      233    -5775 
  -12621   -19854   -28546   -40582   -56282   -72189   -82352   -82883 
  -74471   -62435   -53381   -49527   -49003   -50611   -53526   -54637 
  -51242   -44913   -40434   -41221   -45696   -49495   -51403   -54722 
  -61830   -69866   -74344   -73956   -69495   -61360   -49089   -32478 
  -14106      474     7485     8688     8235     6745      523   -13714 
  -35264   -59765   -80238   -88732   -80780   -59726   -35491   -18454 
  -14239   -22116   -36410   -48735   -49677   -34549    -9241    14856 
   30076    34551    29016    14018    -9435   -37052   -60972   -75106 
  -79501   -78598   -78219   -81533   -86882   -91773   -95164   -94905 
  -87736   -73442   -55762   -37680   -19069     -158    15784    24589 
   24084    14884      -25   -16849   -33120   -48219   -61801   -73164 
  -81759   -87123   -89345   -87467   -78033   -60500   -41460   -29251 
  -25558   -23800   -17369    -6776     3428     9195     8723     3329 
   -5368   -17806   -34625   -54235   -73277   -89204  -100243  -104222 
 -100007   -88794   -73560   -57697   -43280   -29983   -16516    -3625 
    5825     9824     9025     5469     -739   -12264   -30391   -52109 
  -71773   -83302   -83825   -76847   -68592   -62519   -58315   -54797 
  -53169   -54664   -55811   -50636   -37644   -21631    -8597    -1351 
    -481    -6299   -18050   -34050   -52496   -70166   -83148   -89058 
  -87261   -79030   -67253   -55211   -45372   -37313   -27615   -14127 
      66     8071     4243   -12674   -38486   -63835   -78423   -76667 
  -60972   -41091   -27918   -25849   -32068   -42380   -53531   -61807 
  -64653   -61686   -54035   -44706   -36617   -29996   -23352   -15809 
   -8326    -2916    -1037    -4024   -14198   -33129   -57866   -81142 
  -96352   -99778   -90204   -70147   -45089   -20782    -2042     8453 
    9786     1642   -13244   -28916   -39487   -41100   -35196   -28217 
  -25614   -29208   -38417   -50995   -62782   -68660   -66337   -58949 
  -52478   -50243   -50590   -50228   -48339   -45798   -41990   -34996 
  -24487   -13511    -7027    -7933   -15002   -25646   -39902   -58492 
  -77376   -89075   -90195   -84701   -77823   -70076   -59776   -46218 
  -30063   -15019    -6567    -7258   -16401   -31469   -46469   -54149 
  -51855   -43468   -35476   -31020   -29187   -28698   -30274   -35295 
  -41701   -45190   -45114   -44039   -42923   -41030   -38850   -38571 
  -42257   -49289   -56031   -59370   -58252   -52322   -43054   -33705 
  -26519   -23137   -24917   -30484   -36649   -41472   -43774   -41063 
  -31650   -19681   -13619   -17387   -26858   -36186   -43507   -49435 
  -54110   -58010   -62264   -65793   -65063   -58056   -46074   -32140 
  -20167   -14274   -16809   -26861   -40506   -52570   -58936   -58189 
  -51467   -41454   -31369   -23639   -20687   -24577   -32698   -39361 
  -42474   -43475   -43823   -43952   -43116   -40993   -39030   -38547 
  -38521   -35701   -28163   -18822   -13129   -14454   -22522   -34440 
  -46363   -54449   -55956   -51295   -45322   -44795   -52279   -63272 
  -70474   -70154   -63943   -55061   -44854   -34516   -26931   -23914 
  -24606   -27220   -30048   -31974   -32743   -32800   -33905   -38500 
  -46875   -56132   -62818   -65082   -62140   -54357   -44572   -37153 
  -34323   -34693   -35937   -36876   -37406   -37556   -35960   -31260 
  -25154   -21336   -22252   -27552   -35062   -42963   -49407   -51999 
  -50698   -49339   -52935   -63239   -75953   -83178   -78902   -62336 
  -37675   -12079     6201    11730     5230    -9251   -26318   -39233 
  -44926   -45059   -41061   -34174   -26980   -22013   -21359   -26436 
  -36231   -46794   -55066   -61235   -64928   -63603   -55940   -43481 
  -30035   -20729   -19404   -25700   -35465   -43641   -46753   -44292 
  -37208   -26144   -13469    -3518      762    -1397    -9552   -21660 
  -34352   -44462   -49989   -50831   -49044   -46890   -44932   -43000 
  -41795   -41888   -42243   -42037   -42628   -45657   -50324   -53968 
  -55262   -54843   -52554   -47001   -37817   -26638   -16234    -9716 
  -10133   -18137   -29723   -38029   -38217   -32012   -26556   -27695 
  -36224   -48922   -60658   -67135   -67163   -63500   -60748   -60693 
  -61668   -61480   -58621   -52506   -42724   -28802   -12481     2041 
    9629     5088   -13010   -38635   -61769   -75343   -77936   -72031 
  -61351   -49404   -39065   -31834   -27924   -27181   -29127   -32902 
  -37003   -40176   -43608   -49120   -55363   -58571   -56246   -50045 
  -44881   -43946   -46055   -48196   -48480   -47250   -46585   -47157 
  -46936   -44731   -41621   -39133   -38808   -41122   -43971   -44933 
  -44441   -44482   -46157   -49185   -51205   -50013   -47099   -44826 
  -42617   -38686   -32862   -26846   -22252   -19083   -16648   -14670 
  -12979   -11758   -12277   -15368   -19996   -25053   -30400   -36103 
  -42394   -48844   -53690   -55363   -53962   -51129   -48586   -47076 
  -46942   -48019   -49180   -50262   -52646   -56467   -60262   -63333 
  -65246   -64014   -57402   -46175   -34865   -28273   -27778   -31671 
  -37615   -43302   -45977   -44085   -39022   -33211   -27714   -23449 
  -22849   -28034   -37961   -48299   -54523   -55583   -53574   -50383 
  -46807   -43658   -41294   -38704   -34913   -31077   -29597   -31833 
  -37232   -43693   -49594   -55377   -62090   -69441   -75062   -75526 
  -69398   -58181   -44724   -32440   -23984   -20071   -20141   -22552 
  -24836   -25428   -24826   -24671   -25309   -25683   -27009   -33317 
