Origin Time       2011/03/11 14:46:00
Lat.              38.103
Long.             142.860
Depth. (km)       24
Mag.              9.0
Station Code      NGN012
Station Lat.      36.2571
Station Long.     137.9796
Station Height(m) 637
Record Time       2011/03/11 14:48:14
Sampling Freq(Hz) 100Hz
Duration Time(s)  258
Dir.              U-D
Scale Factor      3920(gal)/6182761
Max. Acc. (gal)   5.645
Last Correction   2011/03/11 14:47:59
Memo.             
[...]
  -28004   -27249   -26425   -25702   -25272   -25165   -25215   -25274 
  -25412   -25685   -25883   -25890   -26000   -26376   -26677   -26671 
  -26624   -26817   -27133   -27235   -27008   -26766   -26842   -27101 
  -27337   -27715   -28304   -28780   -28894   -28732   -28497   -28286 
  -28106   -27978   -27815   -27373   -26638   -25966   -25674   -25713 
  -25798   -25799   -25868   -26141   -26586   -27159   -27813   -28387 
  -28742   -28983   -29280   -29557   -29647   -29613   -29672   -29953 
  -30395   -30753   -30830   -30765   -30746   -30662   -30396   -30032 
  -29634   -29234   -28908   -28669   -28485   -28355   -28257   -28173 
  -28183   -28426   -28901   -29382   -29649   -29672   -29541   -29395 
  -29351   -29406   -29544   -29723   -29741   -29452   -29002   -28641 
  -28515   -28608   -28775   -28972   -29212   -29278   -29005   -28614 
  -28358   -28287   -28394   -28685   -29173   -29827   -30438   -30738 
  -30692   -30496   -30337   -30271   -30307   -30401   -30271   -29554 
  -28314   -27096   -26360   -26063   -25816   -25425   -25140   -25161 
  -25266   -25251   -25243   -25455   -25994   -26734   -27360   -27750 
  -28037   -28237   -28349   -28606   -29111   -29652   -30065   -30351 
  -30576   -30789   -30951   -30998   -30932   -30711   -30202   -29412 
  -28599   -27992   -27582   -27214   -26752   -26206   -25780   -25710 
  -26077   -26736   -27264   -27246   -26797   -26431   -26414   -26575 
  -26686   -26746   -26899   -27164   -27441   -27753   -28120   -28428 
  -28657   -28884   -29086   -29130   -28948   -28708   -28604   -28591 
  -28564   -28530   -28439   -28162   -27668   -27133   -26869   -26949 
  -27074   -26995   -26749   -26483   -26307   -26315   -26515   -26734 
  -26905   -27218   -27722   -28195   -28482   -28644   -28842   -29228 
  -29805   -30341   -30573   -30486   -30311   -30205   -30029   -29634 
  -29159   -28884   -28926   -29104   -29127   -28842   -28330   -27796 
  -27426   -27343   -27524   -27719   -27722   -27613   -27572   -27725 
  -28090   -28447   -28562   -28533   -28564   -28618   -28502   -28129 
  -27646   -27272   -27109   -27162   -27337   -27515   -27676   -27888 
  -28287   -28866   -29381   -29649   -29715   -29721   -29797   -29981 
  -30133   -30125   -30082   -30162   -30322   -30437   -30407   -30265 
  -30170   -30183   -30274   -30455   -30706   -30955   -31237   -31632 
  -31976   -31985   -31593   -30997   -30514   -30278   -30100   -29757 
  -29278   -28850   -28553   -28356   -28242   -28150   -27988   -27792 
  -27649   -27467   -27090   -26636   -26403   -26465   -26652   -26783 
  -26810   -26793   -26745   -26675   -26769   -27182   -27742   -28172 
  -28441   -28703   -29082   -29584   -30101   -30510   -30726   -30683 
  -30331   -29633   -28685   -27777   -27143   -26821   -26758   -26888 
  -27185   -27646   -28218   -28820   -29349   -29738   -30110   -30556 
  -30774   -30483   -29913   -29364   -28829   -28292   -27822   -27497 
  -27417   -27589   -27881   -28109   -28216   -28372   -28705   -29086 
  -29334   -29453   -29630   -29937   -30124   -29927   -29404   -28786 
  -28177   -27535   -26891   -26401   -26167   -26180   -26410   -26747 
  -27017   -27213   -27460   -27748   -27968   -28125   -28306   -28480 
  -28539   -28625   -29011   -29605   -30062   -30314   -30588   -30933 
  -31124   -31121   -31178   -31458   -31873   -32163   -32098   -31752 
  -31394   -31173   -31042   -30816   -30258   -29390   -28626   -28331 
  -28455   -28702   -28827   -28853   -29001   -29306   -29517   -29453 
  -29230   -29050   -28866   -28501   -28029   -27697   -27522   -27241 
  -26638   -25862   -25266   -24963   -24800   -24660   -24501   -24363 
  -24344   -24440   -24512   -24458   -24369   -24454   -24726   -24961 
  -25023   -25056   -25308   -25821   -26362   -26694   -26793   -26750 
  -26632   -26482   -26395   -26503   -26811   -27188   -27571   -27997 
  -28436   -28811   -29157   -29573   -30009   -30240   -30124   -29750 
  -29276   -28802   -28446   -28287   -28150   -27806   -27399   -27249 
  -27359   -27403   -27116   -26648   -26383   -26320   -26118   -25714 
  -25347   -25153   -25166   -25452   -25931   -26296   -26407   -26486 
  -26684   -26805   -26698   -26542   -26615   -27014   -27529   -27797 
  -27729   -27543   -27516   -27809   -28248   -28490   -28550   -28706 
  -28995   -29192   -29102   -28828   -28679   -28677   -28571   -28282 
  -27858   -27251   -26417   -25509   -24889   -24829   -25133   -25317 
  -25177   -24930   -24843   -24947   -25047   -25023   -25082   -25509 
  -26172   -26569   -26435   -26036   -25829   -26015   -26368   -26522 
  -26437   -26329   -26247   -26028   -25621   -25240   -25199   -25603 
  -26228   -26756   -26987   -26825   -26396   -26101   -26212   -26537 
  -26736   -26771   -26809   -26925   -27020   -26955   -26880   -27224 
  -28098   -29063   -29583   -29483   -28991   -28428   -27934   -27507 
  -27211   -27092   -26936   -26529   -26016   -25577   -25099   -24472 
  -23856   -23386   -22972   -22621   -22510   -22659   -22796   -22665 
  -22379   -22332   -22780   -23548   -24239   -24676   -24938   -25093 
  -25143   -25110   -25126   -25364   -25749   -26008   -26085   -26187 
  -26381   -26561   -26773   -27111   -27458   -27610   -27558   -27473 
  -27485   -27656   -27933   -28093   -28011   -27874   -27927   -28202 
  -28525   -28661   -28500   -28239   -28218   -28529   -28909   -29093 
  -29179   -29446   -29927   -30392   -30616   -30472   -29976   -29359 
  -28848   -28420   -27952   -27327   -26502   -25749   -25324   -25063 
  -24783   -24559   -24500   -24681   -25175   -25912   -26634   -27096 
  -27278   -27315   -27247   -27018   -26638   -26151   -25624   -25184 
  -24896   -24711   -24520   -24285   -24137   -24215   -24498   -24868 
  -25233   -25459   -25374   -24966   -24350   -23621   -22876   -22217 
  -21729   -21398   -21080   -20744   -20591   -20731   -21017   -21230 
  -21201   -21043   -21137   -21576   -22004   -22154   -22105   -22120 
  -22265   -22304   -22198   -22212   -22413   -22708   -23119   -23624 
  -24082   -24409   -24689   -25145   -25930   -26996   -28105   -28904 
  -29149   -28957   -28678   -28518   -28393   -28168   -27853   -27442 
  -26861   -26132   -25412   -24843   -24413   -24029   -23680   -23409 
  -23217   -23081   -22959   -22882   -22948   -23092   -23129   -22998 
  -22754   -22528   -22422   -22416   -22543   -22935   -23611   -24359 
  -24885   -25180   -25559   -26156   -26744   -27162   -27445   -27536 
  -27326   -26953   -26783   -26947   -27110   -26899   -26367   -25880 
  -25625   -25474   -25289   -25045   -24817   -24691   -24606   -24584 
  -24751   -24873   -24732   -24671   -24969   -25328   -25380   -25224 
  -25218   -25488   -25900   -26317   -26592   -26590   -26420   -26358 
  -26545   -26920   -27349   -27774   -28175   -28521   -28762   -28868 
  -28938   -29072   -29235   -29393   -29564   -29718   -29723   -29394 
  -28744   -28113   -27899   -28101   -28271   -28171   -28092   -28248 
  -28451   -28538   -28652   -28977   -29429   -29826   -30132   -30323 
  -30356   -30209   -29917   -29616   -29307   -28923   -28588   -28333 
  -28076   -27726   -27152   -26572   -26252   -25954   -25373   -24563 
  -23968   -24083   -24792   -25464   -25699   -25573   -25394   -25365 
  -25359   -25144   -24647   -23958   -23289   -22788   -22494   -22559 
  -22941   -23256   -23388   -23570   -23877   -24115   -24105   -23916 
  -23712   -23640   -23917   -24442   -24683   -24552   -24521   -24735 
  -25004   -25325   -25690   -25920   -25986   -25996   -26069   -26400 
  -27005   -27558   -27757   -27635   -27384   -27081   -26756   -26458 
  -26167   -25871   -25640   -25522   -25555   -25880   -26485   -27066 
  -27464   -27727   -27873   -28117   -28701   -29312   -29455   -29202 
  -28965   -28966   -29179   -29301   -29061   -28686   -28458   -28225 
  -27844   -27417   -26932   -26276   -25551   -24965   -24609   -24515 
  -24605   -24689   -24683   -24654   -24697   -24896   -25277   -25763 
  -26241   -26619   -26849   -26895   -26708   -26345   -26061   -26076 
  -26440   -27042   -27499   -27458   -27090   -26831   -26924   -27386 
  -27965   -28283   -28261   -28138   -28105   -28141   -28080   -27845 
  -27532   -27186   -26838   -26667   -26747   -26915   -27029   -27102 
  -27194   -27315   -27509   -27881   -28340   -28644   -28806   -28994 
  -29073   -28823   -28467   -28352   -28347   -28092   -27619   -27284 
  -27258   -27428   -27629   -27819   -28089   -28413   -28561   -28394 
  -27993   -27513   -27106   -26788   -26401   -25865   -25311   -24858 
  -24472   -23972   -23257   -22656   -22662   -23267   -24025   -24609 
  -25002   -25326   -25638   -25927   -26215   -26466   -26526   -26257 
  -25682   -25014   -24480   -24090   -23714   -23347   -23145   -23126 
  -22985   -22432   -21649   -21087   -20899   -20944   -21207   -21827 
  -22742   -23595   -24028   -23991   -23780   -23737   -23888   -24041 
  -24178   -24472   -24964   -25430   -25609   -25475   -25382   -25799 
  -26711   -27545   -27840   -27821   -28046   -28533   -28737   -28397 
  -27894   -27662   -27615   -27422   -27216   -27480   -28235   -28914 
  -29046   -28724   -28421   -28569   -29194   -29864   -30219   -30456 
  -30976   -31797   -32582   -33111   -33510   -33995   -34480   -34710 
  -34623   -34224   -33475   -32578   -31889   -31501   -31190   -30689 
  -29884   -28847   -27789   -26948   -26475   -26337   -26355   -26332 
  -26097   -25610   -25161   -25147   -25501   -25785   -25755   -25485 
  -25189   -25036   -24995   -24977   -24992   -25103   -25426   -25970 
  -26459   -26603   -26465   -26338   -26292   -26136   -25886   -25727 
  -25501   -24844   -23758   -22677   -22008   -21781   -21725   -21691 
  -21837   -22317   -23013   -23645   -24011   -24168   -24358   -24739 
  -25292   -26002   -26786   -27363   -27527   -27387   -27180   -27008 
  -26853   -26759   -26812   -26919   -26875   -26596   -26220   -25986 
  -25978   -26039   -25977   -25768   -25566   -25500   -25511   -25510 
  -25563   -25666   -25572   -25128   -24544   -24155   -24094   -24227 
  -24340   -24399   -24499   -24588   -24544   -24545   -24883   -25436 
  -25774   -25667   -25223   -24687   -24292   -24166   -24310   -24646 
  -25076   -25489   -25788   -25851   -25666   -25460   -25394   -25334 
  -25102   -24714   -24305   -23994   -23943   -24214   -24513   -24492 
  -24219   -24113   -24414   -24843   -25057   -25127   -25301   -25649 
  -25958   -25951   -25656   -25320   -25117   -25089   -25156   -25146 
  -25012   -24940   -25018   -25086   -25032   -24880   -24720   -24723 
  -24952   -25230   -25312   -25159   -25017   -25137   -25485   -25740 
  -25696   -25669   -26105   -26893   -27593   -28070   -28474   -28904 
  -29392   -29962   -30605   -31329   -31996   -32297   -32200   -31888 
  -31326   -30520   -29808   -29472   -29433   -29438   -29399   -29446 
  -29704   -30154   -30702   -31261   -31685   -31795   -31644   -31550 
  -31664   -31761   -31600   -31188   -30745   -30541   -30571   -30570 
  -30468   -30370   -30260   -30090   -29915   -29777   -29547   -29106 
  -28624   -28332   -28180   -27957   -27550   -27077   -26719   -26413 
  -26076   -25895   -25929   -25877   -25566   -25274   -25266   -25412 
  -25478   -25504   -25662   -25848   -25754   -25311   -24764   -24366 
  -24186   -24130   -24024   -23814   -23726   -23964   -24401   -24788 
  -24977   -24972   -24951   -25057   -25240   -25444   -25717   -26095 
  -26542   -26983   -27340   -27585   -27815   -28136   -28474   -28741 
  -29026   -29320   -29387   -29241   -29252   -29551   -29818   -29690 
  -29106   -28293   -27468   -26623   -25667   -24707   -24058   -23880 
  -24025   -24308   -24593   -24821   -25096   -25523   -26028   -26490 
  -26864   -27183   -27510   -27908   -28405   -28868   -29122   -29330 
  -29733   -30193   -30422   -30392   -30414   -30702   -31009   -31183 
  -31518   -32078   -32515   -32705   -32898   -33218   -33403   -33258 
  -33074   -33195   -33531   -33689   -33316   -32523   -31870   -31706 
  -31907   -32083   -31918   -31558   -31328   -31126   -30658   -30019 
  -29638   -29715   -29950   -29933   -29599   -29152   -28735   -28423 
  -28246   -28139   -28209   -28682   -29401   -29956   -30229   -30422 
  -30722   -31071   -31326   -31584   -31976   -32344   -32537   -32559 
  -32356   -31859   -31151   -30495   -30112   -29816   -29177   -28056 
  -26716   -25503   -24602   -24022   -23691   -23490   -23274   -22991 
  -22734   -22528   -22251   -21848   -21443   -21227   -21316   -21677 
  -22210   -22838   -23486   -24064   -24495   -24836   -25298   -25940 
  -26535   -26931   -27178   -27309   -27322   -27254   -27137   -27015 
  -26967   -27038   -27196   -27432   -27747   -28086   -28518   -29130 
  -29743   -30312   -31131   -32134   -32807   -32938   -32789   -32669 
  -32522   -31994   -31019   -30004   -29303   -28894   -28441   -27623 
  -26721   -26524   -27189   -27924   -28154   -28106   -28114   -28252 
  -28521   -28802   -28946   -28977   -28942   -28879   -28966   -29219 
  -29398   -29562   -30050   -30774   -31354   -31746   -31989   -31909 
  -31460   -30861   -30362   -30051   -29759   -29249   -28509   -27680 
  -26860   -26184   -25807   -25667   -25511   -25291   -25235   -25452 
  -25825   -26225   -26616   -27140   -27943   -28828   -29429   -29794 
  -30381   -31348   -32300   -32972   -33603   -34348   -34980   -35361 
  -35615   -35844   -35971   -35797   -35241   -34477   -33665   -32883 
  -32315   -32113   -32172   -32314   -32495   -32601   -32373   -31809 
  -31286   -31023   -30804   -30369   -29737   -29092   -28500   -27850 
  -27085   -26337   -25732   -25222   -24843   -24767   -24841   -24628 
  -24034   -23353   -22889   -22760   -22807   -22824   -22917   -23266 
  -23677   -23830   -23848   -24188   -24926   -25486   -25380   -24950 
  -24865   -25150   -25335   -25287   -25249   -25407   -25688   -25808 
  -25637   -25462   -25491   -25449   -25156   -24791   -24347   -23755 
  -23230   -22874   -22598   -22418   -22342   -22308   -22324   -22455 
  -22693   -22931   -23120   -23332   -23694   -24284   -24931   -25305 
  -25443   -25651   -25882   -25909   -25770   -25615   -25515   -25464 
  -25445   -25521   -25727   -26026   -26400   -26781   -26981   -26927 
  -26930   -27298   -27781   -28034   -28219   -28550   -28848   -28925 
  -28926   -29122   -29588   -30085   -30281   -30203   -30203   -30441 
  -30734   -30839   -30704   -30465   -30295   -30325   -30419   -30213 
  -29745   -29455   -29498   -29697   -29882   -29934   -29829   -29585 
  -29193   -28748   -28402   -28189   -28040   -27918   -27905   -28031 
  -28244   -28572   -28940   -29078   -28967   -28921   -29079   -29290 
  -29382   -29319   -29261   -29371   -29456   -29232   -28852   -28618 
  -28445   -28102   -27630   -27199   -26882   -26607   -26218   -25730 
  -25324   -24985   -24571   -24153   -23966   -24106   -24409   -24708 
  -25020   -25276   -25220   -24829   -24381   -24126   -24146   -24373 
  -24736   -25179   -25515   -25605   -25514   -25396   -25488   -25869 
  -26217   -26235   -26039   -25933   -26037   -26228   -26389   -26520 
  -26617   -26717   -26927   -27337   -27828   -28011   -27756   -27504 
  -27641   -28061   -28387   -28368   -28117   -27914   -27915   -28058 
  -28105   -27956   -27818   -27836   -27949   -28062   -28006   -27667 
  -27332   -27381   -27789   -28299   -28604   -28438   -28032   -27944 
  -28137   -28062   -27427   -26373   -25345   -24803   -24726   -24701 
  -24424   -23893   -23301   -22810   -22502   -22340   -22062   -21561 
  -21131   -21040   -21255   -21542   -21611   -21378   -21135   -21307 
  -21957   -22679   -23113   -23315   -23595   -24228   -25146   -25897 
  -26224   -26387   -26733   -27371   -28217   -29032   -29621   -30063 
  -30445   -30651   -30625   -30476   -30368   -30453   -30694   -30902 
  -31052   -31311   -31716   -32075   -32188   -32004   -31632   -31241 
  -30907   -30618   -30369   -30198   -30109   -29986   -29746   -29523 
  -29471   -29547   -29601   -29596   -29610   -29703   -29916   -30251 
  -30554   -30703   -30795   -30915   -30937   -30702   -30358   -30210 
  -30178   -29850   -29127   -28390   -27892   -27397   -26695   -26021 
  -25628   -25420   -25151   -24758   -24419   -24158   -23648   -22769 
  -21867   -21253   -20953   -20915   -21077   -21268   -21320   -21354 
  -21598   -21997   -22338   -22501   -22535   -22675   -22963   -22969 
  -22430   -21738   -21379   -21372   -21420   -21423   -21600   -22009 
  -22365   -22520   -22626   -22808   -23100   -23625   -24530   -25654 
  -26578   -27139   -27517   -27850   -28168   -28483   -28753   -28907 
  -28920   -28797   -28580   -28425   -28523   -28864   -29204   -29324 
  -29258   -29138   -28944   -28657   -28446   -28452   -28635   -28904 
  -29232   -29623   -29988   -30175   -30214   -30303   -30536   -30814 
  -31015   -31127   -31249   -31537   -32064   -32642   -33004   -33106 
  -33116   -33226   -33475   -33698   -33742   -33600   -33266   -32759 
  -32182   -31635   -31186   -30805   -30359   -29887   -29626   -29603 
  -29547   -29324   -29067   -28862   -28650   -28374   -28031   -27640 
  -27200   -26725   -26333   -26176   -26240   -26397   -26614   -26901 
  -27135   -27183   -27133   -27249   -27700   -28300   -28680   -28763 
  -28712   -28586   -28419   -28305   -28234   -28227   -28457   -28935 
  -29466   -29939   -30320   -30508   -30456   -30404   -30700   -31191 
  -31373   -31260   -31302   -31564   -31784   -31959   -32260   -32607 
  -32713   -32465   -32086   -31887   -31943   -32097   -32174   -32139 
  -32062   -32026   -32102   -32321   -32596   -32730   -32585   -32298 
  -32210   -32424   -32574   -32235   -31482   -30730   -30181   -29794 
  -29511   -29214   -28787   -28268   -27779   -27404   -27086   -26757 
  -26570   -26668   -26858   -26852   -26631   -26402   -26352   -26470 
  -26608   -26689   -26785   -26987   -27313   -27705   -28035   -28186 
  -28214   -28228   -28135   -27777   -27235   -26768   -26422   -25965 
  -25367   -24939   -24831   -24834   -24710   -24418   -24088   -23879 
  -23901   -24209   -24723   -25283   -25808   -26261   -26640   -27029 
  -27427   -27682   -27657   -27378   -26982   -26590   -26269   -26058 
  -25939   -25793   -25450   -24918   -24389   -23950   -23606   -23408 
  -23331   -23326   -23347   -23249   -23056   -23084   -23493   -24105 
  -24700   -25178   -25593   -26039   -26377   -26526   -26855   -27619 
  -28456   -28971   -29347   -29995   -30896   -31643   -32015   -32276 
  -32806   -33376   -33390   -32932   -32653   -32769   -32956   -32924 
  -32637   -32224   -31753   -31157   -30458   -29845   -29491   -29388 
  -29310   -29077   -28710   -28251   -27746   -27276   -26797   -26217 
  -25620   -25222   -25151   -25307   -25470   -25563   -25693   -25921 
  -26113   -26129   -26032   -25973   -25974   -25931   -25810   -25688 
  -25626   -25655   -25826   -26119   -26390   -26541   -26636   -26712 
  -26716   -26695   -26722   -26798   -27034   -27566   -28310   -29099 
  -29826   -30323   -30445   -30236   -29791   -29218   -28715   -28424 
  -28323   -28367   -28597   -28996   -29353   -29485   -29451   -29361 
  -29243   -29125   -28919   -28480   -27982   -27773   -27879   -28087 
