Origin Time       2011/03/11 14:46:00
Lat.              38.103
Long.             142.860
Depth. (km)       24
Mag.              9.0
Station Code      NGN005
Station Lat.      36.6987
Station Long.     137.8630
Station Height(m) 702
Record Time       2011/03/11 14:48:34
Sampling Freq(Hz) 100Hz
Duration Time(s)  221
Dir.              E-W
Scale Factor      3920(gal)/6182761
Max. Acc. (gal)   7.112
Last Correction   2011/03/11 14:48:19
Memo.             
[...]
  -23610   -24431   -24777   -24375   -24083   -24033   -23269   -22056 
  -21569   -22021   -22791   -23479   -23804   -23515   -22871   -22127 
  -21284   -20610   -20338   -20684   -21950   -23623   -24784   -25081 
  -24671   -24167   -23695   -23043   -22929   -23566   -24004   -23888 
  -23612   -23575   -23844   -24046   -24070   -24184   -23983   -23273 
  -23215   -24216   -24945   -24680   -24377   -24750   -24925   -24159 
  -23102   -22559   -22560   -22872   -23426   -23752   -23375   -22746 
  -22542   -22939   -23392   -23242   -22844   -22725   -22746   -22549 
  -21982   -21555   -21771   -22268   -22647   -23090   -23284   -22656 
  -22035   -22189   -22343   -22160   -22262   -22724   -22838   -22210 
  -21546   -21688   -22421   -23113   -23528   -23474   -22976   -22487 
  -22173   -22125   -22484   -22805   -22878   -23002   -22996   -22726 
  -22765   -23539   -24493   -24643   -23959   -23399   -23531   -24018 
  -24406   -24658   -24656   -24262   -23664   -22878   -22240   -22384 
  -23039   -23513   -23555   -23370   -23272   -23210   -23000   -22920 
  -23258   -23475   -23273   -23338   -23846   -24258   -24244   -23786 
  -23306   -23197   -23271   -23158   -22861   -22768   -23020   -23423 
  -24025   -24729   -24918   -24361   -23735   -23586   -23692   -24014 
  -24738   -25422   -25666   -25747   -25921   -26074   -26024   -25939 
  -26287   -27038   -27632   -27890   -28127   -28511   -28735   -28484 
  -28174   -28341   -28767   -29008   -28999   -28946   -28951   -28871 
  -28740   -28777   -28789   -28580   -28539   -28799   -28998   -28986 
  -28763   -28618   -28891   -29215   -29145   -28684   -28107   -27721 
  -27476   -27345   -27397   -27439   -27405   -27254   -26904   -26709 
  -26803   -26731   -26453   -26122   -25495   -24908   -24882   -25052 
  -25177   -25341   -25395   -25535   -25874   -26098   -26258   -26391 
  -26312   -26174   -26062   -25917   -26044   -26585   -27086   -27041 
  -26547   -26285   -26505   -26471   -25873   -25521   -25663   -25734 
  -25813   -26182   -26547   -26604   -26296   -25910   -25985   -26476 
  -26749   -26714   -26789   -26971   -27133   -27349   -27546   -27714 
  -27877   -27887   -27761   -27600   -27459   -27652   -28435   -29292 
  -29382   -28723   -27984   -27570   -27548   -27789   -28040   -28188 
  -28348   -28600   -28763   -28767   -28783   -28920   -29244   -29501 
  -29213   -28673   -28586   -28929   -29206   -29231   -29128   -29077 
  -29295   -29681   -29706   -29274   -28923   -29010   -29245   -29174 
  -28916   -28900   -29130   -29312   -29283   -29179   -29256   -29536 
  -29791   -29810   -29677   -29637   -29732   -29908   -30139   -30291 
  -30240   -29999   -29711   -29559   -29557   -29578   -29451   -29079 
  -28646   -28445   -28584   -28885   -29042   -28890   -28444   -27955 
  -27700   -27657   -27704   -27725   -27536   -27180   -26957   -27008 
  -27190   -27312   -27348   -27398   -27493   -27543   -27462   -27316 
  -27340   -27590   -27727   -27608   -27540   -27644   -27871   -28135 
  -27988   -27407   -27067   -27236   -27663   -28009   -28026   -27875 
  -27872   -27917   -27772   -27611   -27713   -27999   -28175   -28135 
  -28088   -28148   -28127   -28003   -27950   -27981   -28104   -28255 
  -28228   -28113   -28004   -27776   -27569   -27550   -27574   -27552 
  -27488   -27305   -27033   -26699   -26167   -25578   -25270   -25306 
  -25464   -25502   -25384   -25152   -24847   -24575   -24408   -24374 
  -24423   -24579   -24918   -25209   -25217   -25042   -24824   -24645 
  -24649   -24814   -24935   -25035   -25272   -25496   -25458   -25244 
  -25158   -25364   -25749   -25992   -25890   -25637   -25527   -25594 
  -25707   -25786   -25815   -25790   -25750   -25696   -25570   -25414 
  -25354   -25396   -25440   -25572   -25840   -25960   -25948   -26100 
  -26235   -26161   -26092   -26158   -26444   -26820   -26850   -26587 
  -26410   -26425   -26635   -26899   -27018   -27050   -27076   -27095 
  -27165   -27217   -27053   -26777   -26713   -26846   -26911   -26887 
  -26791   -26515   -26116   -25624   -25096   -24834   -24802   -24726 
  -24711   -24820   -24756   -24431   -24100   -23897   -23798   -23742 
  -23677   -23664   -23733   -23766   -23681   -23547   -23518   -23653 
  -23800   -23803   -23734   -23684   -23557   -23236   -22788   -22488 
  -22578   -23022   -23524   -23848   -24078   -24242   -24140   -23875 
  -23807   -24050   -24413   -24750   -25054   -25060   -24729   -24553 
  -24627   -24834   -25195   -25385   -25354   -25442   -25500   -25379 
  -25414   -25723   -26012   -26138   -26213   -26259   -26244   -26246 
  -26295   -26339   -26424   -26624   -26787   -26731   -26621   -26685 
  -26897   -27100   -27100   -26949   -26970   -27157   -27232   -27142 
  -27045   -27086   -27182   -27200   -27201   -27213   -27213   -27192 
  -27081   -26976   -27052   -27193   -27223   -27254   -27425   -27671 
  -27839   -27816   -27740   -27794   -27811   -27648   -27513   -27625 
  -27906   -28025   -27834   -27559   -27312   -26934   -26558   -26581 
  -26907   -27130   -27093   -26739   -26287   -26150   -26280   -26487 
  -26779   -26904   -26615   -26238   -26126   -26196   -26305   -26344 
  -26256   -26127   -26006   -25992   -26170   -26399   -26567   -26579 
  -26408   -26281   -26288   -26317   -26374   -26491   -26601   -26648 
  -26633   -26575   -26555   -26596   -26661   -26770   -26859   -26794 
  -26622   -26503   -26536   -26732   -26970   -27127   -27276   -27456 
  -27570   -27628   -27661   -27656   -27661   -27759   -27920   -28020 
  -28126   -28402   -28746   -28981   -29062   -28956   -28688   -28459 
  -28501   -28829   -29166   -29201   -28952   -28630   -28293   -28018 
  -27972   -28131   -28278   -28239   -27996   -27643   -27332   -27173 
  -27181   -27265   -27285   -27264   -27381   -27589   -27609   -27450 
  -27367   -27363   -27334   -27337   -27374   -27360   -27289   -27199 
  -27148   -27170   -27240   -27372   -27492   -27506   -27546   -27663 
  -27672   -27536   -27368   -27235   -27219   -27356   -27545   -27684 
  -27731   -27666   -27515   -27319   -27148   -27124   -27215   -27266 
  -27269   -27225   -27074   -26908   -26772   -26562   -26391   -26395 
  -26411   -26378   -26414   -26468   -26478   -26495   -26540   -26624 
  -26743   -26882   -27003   -27033   -27026   -27030   -26911   -26705 
  -26634   -26678   -26723   -26814   -26903   -26901   -26860   -26784 
  -26604   -26334   -26112   -26006   -26001   -26089   -26128   -26033 
  -25947   -25913   -25857   -25787   -25637   -25339   -25036   -24861 
  -24777   -24738   -24750   -24811   -24867   -24844   -24742   -24615 
  -24523   -24554   -24743   -25001   -25208   -25327   -25463   -25686 
  -25928   -26103   -26250   -26503   -26817   -27047   -27282   -27593 
  -27803   -27857   -27905   -28034   -28261   -28540   -28777   -28962 
  -29133   -29279   -29428   -29636   -29826   -29925   -29989   -30119 
  -30383   -30648   -30729   -30704   -30703   -30705   -30698   -30669 
  -30582   -30475   -30429   -30470   -30535   -30520   -30435   -30364 
  -30314   -30247   -30114   -29885   -29629   -29413   -29230   -29099 
  -29051   -29000   -28858   -28659   -28459   -28286   -28162   -28099 
  -28002   -27759   -27519   -27486   -27578   -27623   -27564   -27440 
  -27371   -27393   -27376   -27252   -27127   -27058   -26937   -26775 
  -26651   -26526   -26476   -26588   -26688   -26668   -26666   -26799 
  -27037   -27259   -27373   -27404   -27449   -27555   -27702   -27854 
  -27962   -28030   -28126   -28230   -28209   -28056   -27982   -28119 
  -28393   -28617   -28627   -28493   -28377   -28327   -28350   -28398 
  -28422   -28420   -28335   -28244   -28290   -28383   -28365   -28178 
  -27870   -27629   -27570   -27638   -27734   -27774   -27742   -27668 
  -27527   -27269   -27042   -27052   -27170   -27181   -27053   -26837 
  -26694   -26716   -26744   -26652   -26544   -26453   -26283   -26133 
  -26084   -26053   -26050   -26036   -25901   -25733   -25643   -25589 
  -25553   -25545   -25534   -25555   -25678   -25834   -25931   -26005 
  -26077   -26140   -26221   -26274   -26278   -26314   -26384   -26451 
  -26568   -26737   -26884   -27063   -27330   -27566   -27726   -27869 
  -27976   -28059   -28175   -28289   -28383   -28506   -28654   -28757 
  -28860   -29060   -29303   -29493   -29616   -29696   -29770   -29840 
  -29896   -29975   -30099   -30225   -30282   -30292   -30352   -30475 
  -30584   -30658   -30693   -30695   -30694   -30679   -30673   -30721 
  -30800   -30900   -31015   -31120   -31237   -31369   -31451   -31440 
  -31340   -31200   -31126   -31167   -31285   -31480   -31710   -31824 
  -31813   -31803   -31777   -31691   -31677   -31767   -31803   -31779 
  -31796   -31801   -31739   -31631   -31496   -31363   -31233   -31115 
  -31005   -30869   -30773   -30741   -30675   -30562   -30472   -30418 
  -30351   -30297   -30330   -30401   -30479   -30575   -30600   -30582 
  -30602   -30621   -30676   -30769   -30823   -30862   -30864   -30823 
  -30838   -30828   -30662   -30488   -30474   -30590   -30734   -30733 
  -30543   -30363   -30285   -30226   -30174   -30161   -30155   -30150 
  -30190   -30243   -30262   -30312   -30389   -30386   -30304   -30148 
  -29981   -29998   -30082   -29991   -29846   -29755   -29608   -29416 
  -29281   -29229   -29268   -29362   -29403   -29301   -29113   -28998 
  -28926   -28779   -28661   -28638   -28610   -28537   -28443   -28405 
  -28467   -28540   -28587   -28611   -28536   -28350   -28126   -27974 
  -27977   -28101   -28264   -28406   -28486   -28494   -28481   -28518 
  -28608   -28732   -28846   -28902   -28902   -28891   -28922   -29002 
  -29111   -29238   -29308   -29278   -29296   -29464   -29658   -29781 
  -29829   -29791   -29770   -29850   -29970   -30114   -30251   -30247 
  -30080   -29900   -29787   -29760   -29906   -30191   -30409   -30496 
  -30484   -30363   -30249   -30267   -30370   -30442   -30432   -30404 
  -30355   -30212   -30089   -30059   -29990   -29888   -29850   -29843 
  -29831   -29818   -29810   -29811   -29789   -29729   -29657   -29628 
  -29700   -29815   -29822   -29738   -29764   -29932   -30067   -30167 
  -30310   -30351   -30235   -30139   -30133   -30177   -30221   -30207 
  -30144   -30108   -30156   -30242   -30308   -30417   -30550   -30555 
  -30415   -30298   -30329   -30433   -30478   -30415   -30266   -30124 
  -30116   -30271   -30443   -30533   -30581   -30596   -30570   -30510 
  -30465   -30502   -30555   -30566   -30576   -30564   -30465   -30316 
  -30192   -30063   -29938   -29919   -29982   -30039   -30026   -29864 
  -29589   -29379   -29306   -29246   -29140   -29045   -28961   -28831 
  -28632   -28465   -28390   -28354   -28389   -28416   -28326   -28235 
  -28182   -28091   -27968   -27859   -27743   -27577   -27486   -27498 
  -27470   -27459   -27483   -27402   -27280   -27287   -27402   -27477 
  -27505   -27603   -27826   -28062   -28110   -27991   -27889   -27877 
  -27935   -27972   -27998   -28061   -28054   -27942   -27830   -27786 
  -27801   -27828   -27840   -27824   -27787   -27782   -27881   -28057 
  -28253   -28467   -28604   -28602   -28577   -28617   -28711   -28813 
  -28923   -29050   -29152   -29230   -29281   -29292   -29301   -29305 
  -29276   -29270   -29346   -29432   -29493   -29580   -29653   -29713 
  -29806   -29847   -29822   -29812   -29860   -29947   -30005   -30028 
  -29996   -29909   -29891   -29934   -29951   -29996   -30077   -30106 
  -30113   -30112   -29935   -29646   -29597   -29763   -29836   -29859 
  -29948   -29949   -29859   -29849   -29818   -29613   -29361   -29215 
  -29187   -29223   -29216   -29162   -29117   -29068   -28991   -28829 
  -28628   -28534   -28491   -28408   -28290   -28052   -27805   -27843 
  -28044   -28096   -27971   -27747   -27557   -27504   -27490   -27424 
  -27352   -27370   -27459   -27457   -27342   -27217   -27158   -27150 
  -27034   -26812   -26683   -26674   -26699   -26680   -26609   -26564 
  -26507   -26317   -26034   -25812   -25786   -25959   -26127   -26122 
  -26023   -25926   -25837   -25751   -25628   -25566   -25799   -26280 
  -26567   -26336   -25764   -25449   -25771   -26113   -25747   -25367 
  -25943   -26712   -26438   -25603   -25086   -24759   -25052   -26337 
  -26995   -26094   -25326   -25735   -26205   -25958   -25648   -25475 
  -25193   -25722   -26859   -26711   -25660   -25608   -26365   -26432 
  -25810   -25843   -26595   -27118   -27255   -27008   -26256   -25535 
  -25956   -27344   -27754   -26671   -25731   -26010   -26916   -27225 
  -26641   -25865   -25991   -27210   -27844   -27077   -26331   -26143 
  -25854   -25985   -26804   -26947   -25935   -25170   -25359   -25492 
  -25296   -25561   -26110   -26604   -27075   -26908   -25967   -25322 
  -25572   -26072   -26209   -26201   -26244   -26091   -25858   -26045 
  -26515   -26632   -26347   -25917   -25488   -25568   -26338   -27009 
  -26873   -26357   -26301   -26557   -26869   -27389   -27451   -27012 
  -27145   -27648   -27747   -27593   -27737   -28255   -28290   -27808 
  -27762   -28161   -28688   -29046   -29011   -28978   -29051   -28996 
  -28915   -29181   -29700   -29745   -29438   -29517   -29987   -30333 
  -30179   -29754   -29542   -29886   -30408   -30050   -29308   -29420 
  -29984   -30238   -29866   -29091   -28724   -28875   -28904   -28016 
  -26326   -25136   -24794   -24662   -24363   -24152   -25399   -28826 
  -33415   -37290   -38779   -38758   -38365   -35326   -28404   -21078 
  -17700   -18917   -21901   -24776   -27817   -30397   -30889   -28854 
  -25802   -24213   -24701   -25088   -23857   -22383   -22874   -25797 
  -29093   -30343   -30114   -30459   -30667   -28403   -24092   -20964 
  -21064   -22786   -23569   -23713   -24705   -26386   -27943   -28705 
  -28388   -27565   -26439   -24716   -23203   -23168   -24308   -25424 
  -26425   -27509   -28004   -27661   -27051   -26658   -26468   -26083 
  -25418   -24743   -24511   -25223   -26575   -28004   -29406   -30179 
  -29611   -28290   -27323   -27148   -28066   -29847   -31187   -31569 
  -31538   -30967   -29723   -28483   -27527   -26910   -26979   -27148 
  -26794   -26567   -26723   -26830   -26910   -26942   -26764   -26629 
  -26678   -26555   -26203   -26545   -28198   -29747   -29842   -29303 
  -28687   -27710   -26951   -26794   -26942   -27202   -27308   -27231 
  -26921   -26042   -25034   -24703   -25212   -26150   -26711   -26515 
  -25930   -25333   -24963   -24843   -25022   -25829   -26749   -26925 
  -27108   -28059   -28669   -28143   -27158   -26438   -26299   -26485 
  -26706   -27343   -28004   -27801   -27195   -27049   -27503   -28137 
  -28391   -28501   -28938   -29435   -29881   -30425   -30798   -30914 
  -30832   -30522   -30291   -30051   -29306   -28366   -27950   -28196 
  -28717   -28952   -28788   -28571   -28215   -27541   -26776   -26143 
  -25958   -26201   -26380   -26687   -27403   -27782   -27445   -27247 
  -27584   -27829   -27729   -27601   -27498   -27354   -27312   -27296 
  -27015   -26587   -26379   -26381   -26325   -26099   -25842   -25667 
  -25524   -25499   -25697   -25893   -25782   -25321   -24831   -24763 
  -25110   -25263   -24713   -23906   -23791   -24420   -24963   -24930 
  -24609   -24506   -24517   -24126   -23452   -23135   -23444   -24165 
  -24992   -25605   -25606   -24849   -23583   -22258   -21441   -21378 
  -21822   -22584   -23577   -24389   -24569   -24181   -23574   -22990 
  -22556   -22375   -22530   -22939   -23404   -23784   -24025   -24243 
  -24522   -24683   -24715   -24865   -25064   -24997   -24645   -24178 
  -23672   -23240   -23086   -23272   -23614   -23852   -23884   -23925 
  -24176   -24496   -24663   -24648   -24638   -24822   -25141   -25390 
  -25477   -25475   -25497   -25713   -26249   -26886   -27205   -27018 
  -26605   -26426   -26561   -26798   -27049   -27264   -27288   -27113 
  -26960   -27029   -27286   -27453   -27315   -26890   -26350   -25938 
  -25836   -26021   -26181   -26130   -26036   -25887   -25647   -25617 
  -25860   -26103   -26168   -26017   -25680   -25270   -24930   -24774 
  -24842   -25018   -25146   -25190   -25073   -24741   -24370   -24267 
  -24582   -25027   -25243   -25201   -24960   -24663   -24511   -24408 
  -24180   -23954   -23826   -23744   -23819   -24074   -24337   -24526 
  -24530   -24265   -23858   -23473   -23257   -23305   -23508   -23633 
  -23639   -23688   -23877   -24152   -24305   -24222   -24022   -23739 
  -23455   -23445   -23694   -23914   -24010   -24071   -24157   -24270 
  -24327   -24276   -24289   -24460   -24576   -24565   -24545   -24475 
  -24297   -24187   -24293   -24483   -24730   -25117   -25456   -25639 
  -25760   -25781   -25774   -25919   -26081   -26044   -25932   -25968 
  -26142   -26343   -26505   -26603   -26653   -26671   -26651   -26761 
  -27093   -27348   -27344   -27256   -27216   -27267   -27375   -27430 
  -27375   -27236   -27147   -27220   -27338   -27271   -27009   -26735 
  -26554   -26481   -26500   -26527   -26539   -26620   -26743   -26790 
  -26852   -27026   -27146   -27146   -27185   -27300   -27396   -27449 
  -27469   -27450   -27487   -27678   -27886   -28005   -28096   -28123 
  -28039   -27977   -28054   -28178   -28238   -28255   -28252   -28217 
  -28144   -28094   -28118   -28192   -28352   -28534   -28592   -28596 
  -28626   -28613   -28540   -28425   -28235   -27933   -27631   -27460 
  -27322   -27118   -26931   -26793   -26629   -26384   -26171   -26190 
  -26376   -26493   -26477   -26392   -26304   -26251   -26244   -26267 
  -26253   -26210   -26197   -26204   -26195   -26161   -26192   -26334 
  -26400   -26290   -26166   -26163   -26221   -26249   -26298   -26397 
  -26461   -26467   -26453   -26446   -26437   -26389   -26391   -26503 
  -26622   -26768   -26929   -26932   -26831   -26756   -26660   -26555 
  -26590   -26795   -26965   -26953   -26806   -26606   -26469   -26462 
  -26563   -26756   -26987   -27187   -27344   -27417   -27366   -27241 
  -27153   -27207   -27331   -27421   -27549   -27699   -27712   -27559 
  -27364   -27280   -27309   -27335   -27340   -27312   -27200   -27115 
  -27173   -27267   -27327   -27386   -27332   -27161   -27034   -26953 
  -26939   -27056   -27135   -27054   -26899   -26732   -26589   -26469 
  -26315   -26145   -26050   -26096   -26213   -26229   -26092   -25929 
  -25847   -25830   -25837   -25804   -25693   -25598   -25531   -25371 
  -25175   -25069   -24994   -24833   -24622   -24504   -24435   -24263 
  -24058   -23942   -23895   -23890   -23919   -23962   -23995   -23971 
  -23888   -23858   -23946   -24038   -24044   -23979   -23862   -23773 
  -23775   -23803   -23883   -24096   -24295   -24346   -24353   -24384 
  -24434   -24471   -24444   -24405   -24429   -24550   -24717   -24760 
  -24640   -24484   -24436   -24546   -24649   -24647   -24666   -24742 
  -24843   -25006   -25198   -25309   -25347   -25413   -25551   -25731 
  -25843   -25803   -25759   -25800   -25790   -25718   -25616   -25510 
  -25488   -25517   -25601   -25726   -25795   -25849   -25893   -25926 
  -25977   -25938   -25795   -25722   -25786   -25839   -25855   -25967 
  -26068   -26048   -26021   -26048   -26146   -26286   -26364   -26402 
  -26484   -26628   -26761   -26792   -26824   -26948   -26972   -26802 
