Origin Time       2011/03/11 14:46:00
Lat.              38.103
Long.             142.860
Depth. (km)       24
Mag.              9.0
Station Code      NIG026
Station Lat.      37.0224
Station Long.     138.2506
Station Height(m) 70
Record Time       2011/03/11 14:48:19
Sampling Freq(Hz) 100Hz
Duration Time(s)  225
Dir.              U-D
Scale Factor      3920(gal)/6182761
Max. Acc. (gal)   6.018
Last Correction   2011/03/11 14:48:04
Memo.             
[...]
  -23966   -23505   -23187   -23025   -22890   -22706   -22525   -22374 
  -22258   -22265   -22484   -22897   -23389   -23789   -23932   -23779 
  -23415   -22912   -22306   -21703   -21250   -20971   -20795   -20737 
  -20840   -21017   -21175   -21399   -21742   -22049   -22149   -22041 
  -21846   -21700   -21659   -21722   -21829   -21862   -21765   -21594 
  -21417   -21296   -21274   -21313   -21366   -21449   -21573   -21734 
  -21965   -22283   -22615   -22839   -22855   -22584   -21983   -21119 
  -20162   -19278   -18590   -18230   -18243   -18467   -18709   -18963 
  -19297   -19659   -19948   -20131   -20238   -20308   -20374   -20463 
  -20618   -20896   -21257   -21581   -21877   -22276   -22822   -23472 
  -24168   -24888   -25588   -26084   -26240   -26162   -25944   -25531 
  -24898   -24159   -23491   -22953   -22409   -21691   -20833   -20089 
  -19717   -19786   -20159   -20620   -21014   -21254   -21303   -21188 
  -21006   -20891   -20922   -21067   -21236   -21337   -21333   -21278 
  -21247   -21234   -21195   -21186   -21326   -21598   -21854   -22020 
  -22146   -22288   -22453   -22628   -22779   -22835   -22755   -22592 
  -22419   -22206   -21841   -21288   -20688   -20201   -19864   -19704 
  -19702   -19702   -19575   -19363   -19218   -19231   -19357   -19560 
  -19881   -20325   -20780   -21081   -21096   -20797   -20260   -19614 
  -18979   -18384   -17833   -17424   -17203   -16991   -16634   -16270 
  -16127   -16207   -16371   -16568   -16821   -17124   -17446   -17764 
  -18054   -18219   -18154   -17930   -17707   -17507   -17300   -17139 
  -17101   -17255   -17652   -18187   -18712   -19188   -19595   -19875 
  -19993   -19993   -19956   -19905   -19844   -19794   -19756   -19672 
  -19426   -18984   -18512   -18190   -18014   -17872   -17651   -17313 
  -16903   -16445   -15910   -15301   -14728   -14370   -14274   -14271 
  -14231   -14239   -14481   -15007   -15607   -16018   -16182   -16237 
  -16354   -16623   -17039   -17549   -18134   -18776   -19353   -19705 
  -19823   -19867   -19983   -20220   -20546   -20898   -21224   -21450 
  -21497   -21346   -21085   -20866   -20806   -20918   -21149   -21456 
  -21806   -22136   -22397   -22591   -22739   -22864   -22988   -23097 
  -23164   -23205   -23231   -23224   -23163   -23012   -22750   -22450 
  -22253   -22285   -22527   -22808   -23044   -23279   -23565   -23948 
  -24402   -24807   -25083   -25169   -24941   -24378   -23658   -22967 
  -22364   -21854   -21473   -21238   -21061   -20815   -20474   -20084 
  -19735   -19568   -19657   -19894   -20078   -20097   -19952   -19684 
  -19356   -19042   -18724   -18319   -17799   -17191   -16542   -15952 
  -15442   -14843   -14015   -13075   -12274   -11754   -11468   -11319 
  -11292   -11423   -11743   -12209   -12647   -12910   -13071   -13288 
  -13618   -14043   -14536   -15074   -15663   -16289   -16890   -17387 
  -17672   -17665   -17456   -17219   -17001   -16722   -16323   -15801 
  -15105   -14173   -13125   -12198   -11578   -11348   -11457   -11792 
  -12268   -12786   -13272   -13764   -14289   -14784   -15192   -15533 
  -15861   -16204   -16576   -16977   -17407   -17891   -18444   -19030 
  -19561   -19955   -20238   -20549   -20973   -21430   -21792   -22005 
  -22073   -22045   -21994   -21999   -22091   -22163   -22108   -21975 
  -21829   -21654   -21444   -21206   -20920   -20613   -20346   -20109 
  -19892   -19775   -19818   -19979   -20176   -20362   -20532   -20632 
  -20581   -20395   -20086   -19636   -19140   -18683   -18151   -17445 
  -16751   -16369   -16357   -16540   -16775   -17029   -17265   -17449 
  -17584   -17644   -17632   -17664   -17785   -17878   -17927   -18070 
  -18306   -18486   -18587   -18710   -18868   -18982   -19008   -18983 
  -18971   -18973   -18974   -19020   -19162   -19360   -19462   -19379 
  -19206   -19081   -19052   -19094   -19142   -19135   -18987   -18642 
  -18199   -17808   -17510   -17258   -16984   -16685   -16459   -16376 
  -16372   -16336   -16201   -15978   -15734   -15467   -15167   -14916 
  -14751   -14622   -14561   -14646   -14813   -14915   -14930   -14920 
  -14893   -14844   -14798   -14784   -14851   -15064   -15452   -15987 
  -16581   -17077   -17311   -17186   -16741   -16158   -15637   -15298 
  -15129   -14997   -14790   -14535   -14347   -14350   -14587   -15017 
  -15608   -16311   -16976   -17458   -17777   -18046   -18337   -18662 
  -19038   -19482   -19888   -20042   -19866   -19448   -18831   -18058 
  -17353   -16977   -17023   -17412   -17963   -18502   -18964   -19364 
  -19698   -19889   -19833   -19518   -19063   -18611   -18249   -18042 
  -18002   -18086   -18215   -18289   -18222   -17945   -17467   -16986 
  -16773   -16868   -17089   -17268   -17350   -17257   -16823   -16023 
  -15058   -14133   -13358   -12791   -12421   -12240   -12260   -12448 
  -12754   -13150   -13581   -14028   -14509   -14947   -15231   -15352 
  -15320   -15161   -15001   -14929   -14919   -14934   -14950   -14946 
  -14984   -15235   -15819   -16643   -17487   -18214   -18771   -19100 
  -19198   -19190   -19267   -19542   -19978   -20470   -20921   -21215 
  -21210   -20834   -20142   -19308   -18530   -17880   -17291   -16734 
  -16273   -15941   -15670   -15387   -15094   -14828   -14629   -14508 
  -14414   -14343   -14370   -14548   -14846   -15200   -15637   -16259 
  -17060   -17947   -18833   -19651   -20430   -21288   -22233   -23115 
  -23816   -24290   -24513   -24500   -24240   -23726   -23093   -22540 
  -22189   -22063   -22029   -21906   -21662   -21348   -20970   -20543 
  -20114   -19706   -19295   -18864   -18464   -18150   -17921   -17747 
  -17587   -17380   -17124   -16911   -16836   -16927   -17115   -17311 
  -17538   -17879   -18306   -18723   -19077   -19371   -19618   -19834 
  -20029   -20219   -20421   -20591   -20647   -20587   -20489   -20440 
  -20483   -20587   -20708   -20814   -20879   -20928   -21035   -21255 
  -21554   -21813   -21976   -22075   -22080   -21925   -21644   -21294 
  -20893   -20500   -20212   -20083   -20071   -20079   -20109   -20203 
  -20299   -20330   -20268   -20134   -20035   -20058   -20163   -20248 
  -20229   -20072   -19789   -19429   -19074   -18795   -18587   -18388 
  -18168   -17983   -17888   -17909   -18072   -18401   -18893   -19448 
  -19890   -20125   -20209   -20276   -20434   -20723   -21077   -21342 
  -21428   -21328   -21026   -20490   -19741   -18916   -18185   -17614 
  -17219   -17022   -16995   -17093   -17332   -17738   -18245   -18704 
  -19007   -19111   -19024   -18820   -18579   -18334   -18133   -18037 
  -18033   -18039   -17996   -17925   -17875   -17850   -17814   -17692 
  -17427   -17060   -16665   -16252   -15795   -15290   -14720   -14050 
  -13302   -12552   -11871   -11265   -10707   -10270   -10078   -10155 
  -10413   -10709   -10911   -10960   -10914   -10913   -11066   -11374 
  -11783   -12285   -12898   -13575   -14191   -14648   -14927   -15073 
  -15216   -15477   -15877   -16355   -16790   -17097   -17290   -17414 
  -17495   -17547   -17583   -17651   -17818   -18128   -18542   -18942 
  -19250   -19493   -19714   -19939   -20172   -20427   -20735   -21062 
  -21354   -21583   -21696   -21671   -21523   -21251   -20847   -20306 
  -19658   -18947   -18149   -17221   -16244   -15395   -14800   -14488 
  -14477   -14806   -15388   -16007   -16510   -16813   -16901   -16898 
  -16909   -16929   -16936   -16963   -17118   -17519   -18181   -19023 
  -19950   -20883   -21743   -22448   -22939   -23183   -23145   -22849 
  -22427   -22018   -21748   -21743   -21998   -22412   -22905   -23401 
  -23841   -24201   -24479   -24710   -24886   -24931   -24772   -24400 
  -23884   -23331   -22824   -22389   -21982   -21571   -21188   -20881 
  -20655   -20446   -20149   -19716   -19158   -18476   -17684   -16852 
  -16084   -15490   -15122   -14944   -14871   -14857   -14911   -15019 
  -15151   -15349   -15636   -15938   -16207   -16449   -16701   -17000 
  -17328   -17666   -18028   -18340   -18431   -18243   -17934   -17694 
  -17609   -17722   -18048   -18514   -18973   -19351   -19654   -19805 
  -19702   -19379   -18969   -18598   -18296   -17999   -17675   -17383 
  -17205   -17161   -17182   -17152   -16995   -16703   -16296   -15833 
  -15418   -15133   -15011   -15030   -15105   -15123   -15018   -14814 
  -14621   -14543   -14637   -14948   -15459   -16088   -16764   -17446 
  -18105   -18690   -19138   -19445   -19593   -19503   -19209   -18883 
  -18638   -18450   -18303   -18272   -18353   -18446   -18580   -18897 
  -19389   -19906   -20365   -20780   -21163   -21506   -21830   -22149 
  -22427   -22598   -22642   -22624   -22619   -22591   -22424   -22113 
  -21800   -21602   -21470   -21311   -21166   -21111   -21089   -20952 
  -20618   -20154   -19688   -19282   -18954   -18768   -18768   -18905 
  -19116   -19365   -19632   -19870   -19963   -19849   -19597   -19316 
  -19091   -18939   -18768   -18594   -18537   -18551   -18502   -18352 
  -18128   -17899   -17705   -17517   -17318   -17112   -16918   -16767 
  -16652   -16546   -16433   -16343   -16348   -16469   -16649   -16818 
  -16923   -16920   -16771   -16497   -16150   -15770   -15401   -15047 
  -14707   -14463   -14384   -14428   -14534   -14652   -14740   -14866 
  -15160   -15646   -16254   -16891   -17487   -17992   -18330   -18444 
  -18362   -18171   -17979   -17857   -17834   -17893   -17977   -18078 
  -18239   -18427   -18548   -18566   -18516   -18455   -18376   -18195 
  -17866   -17447   -17041   -16744   -16622   -16671   -16861   -17222 
  -17806   -18556   -19311   -19933   -20367   -20597   -20585   -20276 
  -19678   -18921   -18185   -17573   -17116   -16845   -16738   -16686 
  -16635   -16659   -16831   -17123   -17446   -17686   -17673   -17339 
  -16868   -16486   -16266   -16233   -16465   -16948   -17523   -18058 
  -18531   -18934   -19184   -19212   -19042   -18731   -18281   -17676 
  -17012   -16421   -15945   -15587   -15381   -15384   -15629   -16074 
  -16642   -17251   -17829   -18384   -18960   -19519   -20015   -20497 
  -21010   -21518   -21983   -22400   -22799   -23266   -23817   -24303 
  -24669   -25010   -25272   -25300   -25115   -24846   -24512   -24134 
  -23815   -23618   -23564   -23614   -23647   -23573   -23407   -23173 
  -22893   -22600   -22268   -21875   -21470   -21103   -20705   -20189 
  -19626   -19139   -18724   -18327   -17942   -17591   -17281   -17028 
  -16874   -16831   -16840   -16864   -16961   -17168   -17393   -17565 
  -17710   -17852   -17973   -18045   -18100   -18236   -18441   -18602 
  -18678   -18699   -18661   -18576   -18488   -18372   -18166   -17877 
  -17592   -17400   -17256   -17061   -16817   -16551   -16281   -16090 
  -16097   -16371   -16820   -17257   -17592   -17834   -18010   -18152 
  -18296   -18478   -18665   -18784   -18861   -18955   -19060   -19149 
  -19223   -19313   -19374   -19282   -19119   -19098   -19202   -19265 
  -19223   -19113   -18984   -18838   -18638   -18415   -18267   -18260 
  -18396   -18598   -18737   -18727   -18581   -18385   -18236   -18219 
  -18344   -18564   -18878   -19277   -19700   -20093   -20394   -20557 
  -20608   -20616   -20629   -20621   -20534   -20400   -20320   -20391 
  -20638   -20960   -21195   -21252   -21147   -20987   -20869   -20784 
  -20662   -20467   -20247   -20027   -19710   -19285   -18925   -18778 
  -18850   -19076   -19347   -19608   -19916   -20285   -20614   -20793 
  -20799   -20625   -20219   -19594   -18879   -18235   -17772   -17472 
  -17222   -16975   -16770   -16637   -16592   -16650   -16867   -17291 
  -17823   -18256   -18456   -18421   -18228   -17984   -17772   -17614 
  -17498   -17441   -17475   -17560   -17597   -17519   -17423   -17476 
  -17726   -18080   -18397   -18657   -18958   -19332   -19714   -20046 
  -20336   -20594   -20794   -20924   -21014   -21134   -21345   -21603 
  -21792   -21861   -21855   -21826   -21800   -21761   -21658   -21494 
  -21296   -21020   -20640   -20182   -19661   -19179   -18883   -18772 
  -18768   -18869   -19035   -19136   -19111   -19011   -18899   -18790 
  -18680   -18563   -18431   -18315   -18239   -18213   -18305   -18576 
  -18969   -19384   -19738   -19932   -19957   -19925   -19897   -19883 
  -19883   -19877   -19870   -19810   -19572   -19129   -18565   -17967 
  -17414   -16981   -16773   -16868   -17256   -17852   -18489   -18988 
  -19241   -19188   -18881   -18514   -18262   -18192   -18313   -18595 
  -18915   -19048   -18868   -18502   -18160   -17923   -17704   -17422 
  -17127   -16958   -17006   -17203   -17366   -17439   -17533   -17745 
  -18082   -18447   -18678   -18724   -18680   -18680   -18828   -19134 
  -19479   -19712   -19743   -19527   -19028   -18229   -17212   -16228 
  -15530   -15212   -15283   -15660   -16100   -16365   -16386   -16214 
  -15914   -15557   -15238   -15008   -14887   -14919   -15118   -15426 
  -15763   -16079   -16379   -16707   -17066   -17396   -17655   -17867 
  -18064   -18251   -18437   -18607   -18689   -18666   -18639   -18672 
  -18731   -18806   -18917   -19050   -19164   -19240   -19356   -19663 
  -20211   -20892   -21580   -22211   -22717   -23007   -23071   -23049 
  -23068   -23156   -23298   -23459   -23615   -23771   -23912   -23994 
  -23999   -23975   -23978   -24011   -24039   -24011   -23867   -23623 
  -23380   -23225   -23215   -23372   -23671   -24052   -24437   -24793 
  -25106   -25335   -25510   -25778   -26258   -26895   -27497   -27918 
  -28109   -27989   -27511   -26839   -26222   -25749   -25380   -25084 
  -24840   -24606   -24328   -23969   -23586   -23266   -23015   -22781 
  -22506   -22222   -22055   -22091   -22276   -22498   -22737   -22995 
  -23157   -23116   -22902   -22641   -22482   -22496   -22651   -22867 
  -23063   -23177   -23197   -23168   -23106   -22965   -22736   -22416 
  -21955   -21404   -20959   -20727   -20647   -20628   -20616   -20582 
  -20522   -20466   -20442   -20428   -20412   -20453   -20610   -20774 
  -20716   -20310   -19583   -18670   -17819   -17259   -17045   -17097 
  -17283   -17522   -17819   -18163   -18479   -18653   -18594   -18299 
  -17828   -17273   -16787   -16556   -16651   -16981   -17422   -17960 
  -18581   -19128   -19462   -19609   -19656   -19651   -19563   -19359 
  -19105   -18931   -18897   -18965   -19063   -19139   -19175   -19168 
  -19132   -19106   -19096   -19076   -19068   -19130   -19255   -19379 
  -19453   -19491   -19591   -19824   -20123   -20382   -20534   -20546 
  -20454   -20313   -20129   -19891   -19607   -19293   -18932   -18485 
  -17978   -17469   -16962   -16509   -16270   -16379   -16787   -17296 
  -17743   -18074   -18306   -18515   -18796   -19163   -19543   -19899 
  -20275   -20705   -21130   -21431   -21545   -21516   -21407   -21228 
  -20984   -20746   -20599   -20509   -20408   -20329   -20311   -20353 
  -20482   -20683   -20920   -21168   -21349   -21441   -21507   -21529 
  -21445   -21309   -21188   -20985   -20632   -20232   -19801   -19251 
  -18630   -18018   -17452   -17025   -16778   -16677   -16717   -16902 
  -17210   -17601   -17963   -18191   -18310   -18380   -18440   -18539 
  -18659   -18699   -18594   -18339   -18001   -17705   -17519   -17460 
  -17575   -17864   -18217   -18569   -18934   -19234   -19356   -19300 
  -19092   -18687   -18067   -17338   -16690   -16229   -15867   -15543 
  -15349   -15298   -15264   -15205   -15136   -15063   -15015   -14986 
  -14884   -14619   -14170   -13577   -12947   -12424   -12083   -11874 
  -11731   -11666   -11681   -11683   -11566   -11344   -11121   -10973 
  -10940   -11024   -11159   -11334   -11579   -11823   -12005   -12134 
  -12248   -12405   -12661   -13047   -13549   -14104   -14679   -15265 
  -15782   -16146   -16381   -16533   -16588   -16538   -16451   -16402 
  -16392   -16354   -16264   -16199   -16252   -16478   -16914   -17550 
  -18274   -18920   -19396   -19771   -20154   -20524   -20821   -21077 
  -21314   -21488   -21549   -21473   -21270   -20959   -20565   -20141 
  -19725   -19350   -19117   -19133   -19391   -19784   -20250   -20795 
  -21395   -21939   -22288   -22385   -22280   -22116   -22103   -22379 
  -22915   -23609   -24331   -24975   -25506   -25889   -26073   -26063 
  -25922   -25703   -25429   -25142   -24916   -24791   -24759   -24749 
  -24647   -24444   -24208   -23978   -23802   -23711   -23646   -23499 
  -23218   -22868   -22509   -22127   -21753   -21444   -21196   -20989 
  -20817   -20624   -20326   -19885   -19354   -18872   -18597   -18536 
  -18578   -18715   -18978   -19244   -19378   -19366   -19252   -19134 
  -19130   -19202   -19222   -19209   -19238   -19250   -19153   -18933 
  -18593   -18178   -17767   -17403   -17126   -17020   -17129   -17400 
  -17750   -18087   -18329   -18514   -18788   -19233   -19840   -20588 
  -21370   -21973   -22287   -22378   -22363   -22334   -22301   -22253 
  -22238   -22293   -22380   -22432   -22450   -22472   -22447   -22266 
  -21848   -21252   -20722   -20482   -20537   -20738   -20955   -21139 
  -21289   -21403   -21531   -21825   -22344   -22945   -23460   -23762 
  -23733   -23351   -22757   -22195   -21827   -21614   -21412   -21094 
  -20613   -20019   -19386   -18739   -18107   -17553   -17091   -16711 
  -16442   -16271   -16125   -15967   -15813   -15662   -15461   -15180 
  -14863   -14513   -14112   -13772   -13619   -13607   -13681   -13849 
  -14091   -14358   -14582   -14709   -14743   -14712   -14642   -14513 
  -14275   -13969   -13686   -13427   -13164   -12936   -12828   -12894 
  -13097   -13416   -13834   -14242   -14525   -14619   -14502   -14250 
  -13967   -13721   -13602   -13652   -13864   -14291   -14833   -15336 
  -15895   -16430   -16657   -16813   -17275   -17865   -18382   -18832 
  -19090   -19134   -19127   -19174   -19327   -19524   -19618   -19618 
  -19606   -19603   -19633   -19670   -19636   -19538   -19462   -19458 
  -19539   -19781   -20243   -20848   -21440   -21862   -21989   -21787 
  -21322   -20735   -20179   -19727   -19348   -18991   -18659   -18388 
  -18186   -18031   -17903   -17814   -17757   -17649   -17407   -17040 
  -16579   -15974   -15276   -14698   -14383   -14289   -14323   -14439 
  -14603   -14768   -14913   -15054   -15222   -15387   -15475   -15490 
  -15502   -15499   -15417   -15262   -15104   -15026   -15045   -15045 
  -14915   -14733   -14630   -14598   -14613   -14689   -14743   -14652 
  -14382   -14016   -13737   -13717   -13957   -14313   -14744   -15308 
  -15847   -16077   -15941   -15583   -15227   -15076   -15095   -15093 
  -15069   -15179   -15465   -15869   -16366   -16950   -17567   -18119 
  -18551   -18842   -18953   -18900   -18757   -18561   -18307   -18012 
  -17770   -17665   -17653   -17683   -17846   -18249   -18849   -19491 
  -20084   -20606   -20930   -20928   -20732   -20522   -20266   -19915 
  -19592   -19373   -19156   -18880   -18609   -18348   -18055   -17724 
  -17354   -16997   -16721   -16424   -15967   -15401   -14882   -14504 
  -14260   -14133   -14122   -14179   -14270   -14408   -14579   -14721 
  -14783   -14743   -14614   -14428   -14238   -14099   -14008   -13891 
  -13681   -13403   -13183   -13092   -13054   -12975   -12859   -12774 
  -12722   -12704   -12780   -12902   -12911   -12785   -12626   -12505 
  -12420   -12323   -12211   -12138   -12103   -12049   -11936   -11753 
