Origin Time       2011/03/11 14:46:00
Lat.              38.103
Long.             142.860
Depth. (km)       24
Mag.              9.0
Station Code      NIG013
Station Lat.      37.7634
Station Long.     138.8830
Station Height(m) 7
Record Time       2011/03/11 14:47:37
Sampling Freq(Hz) 100Hz
Duration Time(s)  300
Dir.              N-S
Scale Factor      3920(gal)/6182761
Max. Acc. (gal)   30.027
Last Correction   2011/03/11 14:47:22
Memo.             
[...]
   33198    32496    31681    30785    29893    29091    28411    27883 
   27498    27204    26930    26594    26171    25716    25288    24971 
   24851    24905    25067    25266    25340    25108    24443    23251 
   21528    19398    17037    14621    12347    10444     9064     8222 
    7876     7887     8003     8065     8061     7995     7828     7487 
    6893     6005     4807     3376     1883      416     -965    -2157 
   -3166    -4057    -4812    -5420    -5951    -6419    -6771    -7032 
   -7247    -7427    -7594    -7742    -7845    -7920    -7976    -8026 
   -8123    -8299    -8539    -8818    -9063    -9179    -9155    -9007 
   -8668    -8075    -7227    -6142    -4858    -3492    -2206    -1098 
    -224      357      737     1136     1706     2542     3770     5429 
    7419     9597    11827    14005    16070    18013    19870    21637 
   23224    24551    25538    26116    26349    26373    26208    25784 
   25109    24263    23298    22216    21056    19874    18617    17232 
   15706    13900    11824     9726     7723     5911     4453     3343 
    2589     2263     2234     2350     2539     2626     2516     2260 
    1931     1626     1355     1120      990      876      615      243 
    -157     -573     -959    -1395    -2044    -2832    -3552    -4008 
   -4092    -3940    -3701    -3415    -3054    -2464    -1616     -671 
     128      524      543      334       71       55      242      648 
    1574     2728     3813     4970     6092     6599     5954     5240 
    5123     4038     2674     1949     -150    -2767    -4419    -6644 
   -8898   -10445   -12476   -14304   -15630   -17484   -19071   -20031 
  -21281   -22555   -23665   -24942   -25994   -26589   -26783   -26386 
  -25391   -23932   -22055   -19869   -17611   -15553   -13892   -12692 
  -11953   -11643   -11605   -11602   -11390   -10820   -10027    -9201 
   -8354    -7430    -6380    -5235    -4104    -3040    -2037    -1102 
    -190      817     1885     2848     3691     4474     5211     5970 
    6853     7866     8968    10118    11184    12108    12967    13773 
   14478    15058    15463    15630    15659    15651    15550    15396 
   15326    15395    15666    16212    17035    18035    19066    20098 
   21206    22397    23651    24935    26135    27179    28017    28543 
   28720    28528    27924    26947    25627    23945    22005    19994 
   18102    16581    15648    15353    15634    16392    17504    18852 
   20348    21905    23390    24676    25740    26633    27390    28053 
   28763    29643    30689    31823    32913    33814    34446    34745 
   34641    34184    33519    32717    31812    30977    30455    30414 
   30976    32200    34001    36174    38498    40816    43002    44948 
   46588    47855    48678    49040    48973    48479    47566    46304 
   44772    43057    41204    39128    36727    33994    30952    27700 
   24461    21406    18622    16238    14370    12991    12013    11415 
   11169    11215    11535    12072    12734    13473    14225    14982 
   15764    16525    17303    18140    18985    19873    20932    22323 
   23989    25484    26417    26728    26408    25412    23817    21806 
   19461    16771    13802    10777     7963     5543     3755     2762 
    2452     2810     3893     5418     7056     8746    10365    11566 
   12223    12426    12087    11299    10378     9321     8061     6733 
    5428     4233     3268     2604     2348     2590     3358     4673 
    6433     8336    10132    11835    13478    14952    16211    17154 
   17598    17537    17049    16255    15311    14310    13375    12644 
   12096    11542    10803     9828     8594     7150     5615     3982 
    2275      675     -712    -1883    -2846    -3631    -4261    -4764 
   -5181    -5535    -5795    -5952    -6090    -6233    -6316    -6377 
   -6559    -6915    -7414    -8016    -8686    -9423   -10182   -10884 
  -11518   -12072   -12607   -13229   -13879   -14567   -15447   -16512 
  -17742   -19117   -20524   -21959   -23411   -24811   -26055   -26967 
  -27489   -27617   -27297   -26517   -25202   -23283   -20907   -18244 
  -15397   -12509    -9635    -6745    -3819     -817     2193     5111 
    7951    10652    13098    15261    17107    18631    19897    20946 
   21848    22696    23579    24586    25705    26906    28128    29189 
   30007    30596    30942    31094    31071    30826    30347    29621 
   28657    27538    26358    25235    24276    23504    22914    22396 
   21742    20834    19595    18068    16485    15017    13759    12828 
   12285    12150    12377    12802    13245    13598    13789    13747 
   13453    12978    12402    11758    11148    10746    10648    10808 
   11176    11806    12667    13570    14438    15286    16067    16739 
   17270    17578    17536    16958    15690    13801    11531     9149 
    6867     4763     2894     1290      -85    -1133    -1723    -1846 
   -1388     -237     1475     3546     5740     7828     9788    11493 
   12692    13392    13640    13481    13147    12921    13033    13537 
   14359    15452    16640    17680    18471    18893    18853    18454 
   17718    16540    14991    13221    11389     9771     8520     7560 
    6840     6320     5790     5135     4467     3857     3346     2957 
    2736     2892     3541     4669     6284     8163    10051    11884 
   13537    14946    16158    17134    17855    18330    18583    18745 
   18891    19048    19329    19717    20036    20167    20038    19659 
   19168    18635    17981    17147    16121    14887    13510    12076 
   10584     9001     7286     5430     3479     1506     -374    -2106 
   -3698    -5107    -6329    -7405    -8338    -9136    -9859   -10563 
  -11267   -12002   -12732   -13379   -13965   -14455   -14749   -14774 
  -14439   -13720   -12624   -11170    -9457    -7563    -5588    -3670 
   -1930     -474      614     1255     1531     1542     1253      773 
     281      -93     -268     -221      130      647     1040     1340 
    1675     1988     2119     1941     1586     1172      619       89 
    -148      -37      466     1181     1701     2040     2641     3462 
    3921     4009     4038     3846     3433     2932     2108      898 
    -429    -1703    -2945    -4099    -4932    -5356    -5373    -4932 
   -4240    -3650    -3262    -3179    -3553    -4254    -5277    -6530 
   -7436    -7933    -8184    -7891    -7217    -6568    -5836    -5002 
   -4405    -4220    -4339    -4640    -5101    -5699    -6217    -6434 
   -6379    -6065    -5517    -4866    -4157    -3439    -2752    -2049 
   -1249     -256      920     2258     3835     5631     7545     9526 
   11485    13253    14704    15783    16497    16998    17356    17481 
   17408    17117    16499    15627    14545    13362    12252    11105 
    9950     8927     7881     6785     5629     4140     2330      392 
   -1684    -3858    -5924    -7632    -8800    -9351    -9279    -8624 
   -7337    -5413    -3039     -397     2386     5152     7745    10029 
   11881    13219    13990    14178    13824    12995    11881    10761 
    9815     9208     9125     9553    10284    11026    11474    11433 
   10850     9766     8231     6292     4116     1941      -54    -1804 
   -3403    -4939    -6416    -7884    -9333   -10661   -11795   -12696 
  -13343   -13708   -13753   -13438   -12654   -11309    -9445    -7174 
   -4608    -1916      624     2707     4128     4832     4911     4520 
    3845     3045     2094      944     -360    -1799    -3290    -4752 
   -6254    -7859    -9556   -11358   -13239   -15094   -16838   -18500 
  -20136   -21745   -23277   -24673   -25899   -26862   -27548   -28046 
  -28277   -28174   -27736   -26911   -25754   -24349   -22690   -20755 
  -18553   -16210   -13937   -11950   -10472    -9590    -9208    -9198 
   -9443    -9774   -10023   -10158   -10244   -10305   -10388   -10558 
  -10821   -11269   -11966   -12789   -13593   -14244   -14591   -14597 
  -14336   -13881   -13341   -12852   -12420   -12006   -11743   -11803 
  -12276   -13195   -14486   -16009   -17653   -19379   -21195   -23041 
  -24848   -26641   -28359   -29848   -31041   -31934   -32529   -32889 
  -33062   -33013   -32622   -31721   -30207   -28098   -25517   -22644 
  -19626   -16571   -13526   -10512    -7540    -4621    -1761     1128 
    4143     7280    10473    13601    16525    19112    21240    22930 
   24300    25385    26231    26987    27655    28108    28600    29187 
   29443    29759    30313    30462    30754    31371    31569    31877 
   32257    32077    31818    31213    30010    28807    27448    26133 
   25212    24281    23514    22895    22144    21635    21153    20542 
   20238    20017    19900    20145    20420    20834    21521    22279 
   23324    24529    25658    26917    28033    28882    29761    30452 
   30945    31448    31804    32241    32950    33735    34694    35716 
   36521    37179    37521    37446    37108    36320    35128    33796 
   32259    30680    29262    27980    27013    26328    25783    25585 
   25694    25988    26551    27194    27815    28460    28980    29376 
   29632    29699    29778    29885    29961    30083    30064    29785 
   29327    28511    27294    25832    24079    22146    20224    18333 
   16640    15265    14238    13788    13978    14684    15854    17234 
   18451    19340    19842    20069    20246    20506    21041    21926 
   22903    23847    24759    25487    26054    26613    27126    27625 
   28236    29001    30021    31322    32823    34463    36102    37645 
   39080    40269    41130    41630    41684    41399    40891    40155 
   39319    38436    37425    36405    35471    34591    33850    33246 
   32695    32248    31874    31459    31019    30591    30212    29956 
   29862    29970    30291    30808    31574    32607    33849    35286 
   36939    38816    40869    42940    44840    46431    47606    48325 
   48692    48816    48662    48176    47360    46228    44842    43297 
   41718    40230    38808    37372    35943    34549    33174    31793 
   30329    28687    26789    24626    22335    20085    18000    16218 
   14789    13634    12693    11956    11450    11234    11322    11685 
   12268    12943    13557    14008    14235    14213    13995    13662 
   13258    12881    12705    12864    13447    14460    15796    17341 
   18956    20480    21808    22872    23618    24040    24220    24232 
   24045    23634    22985    21988    20536    18605    16199    13327 
   10035     6444     2722     -960    -4386    -7279    -9440   -10825 
  -11478   -11527   -11154   -10507    -9720    -8969    -8410    -8087 
   -8017    -8251    -8744    -9374   -10084   -10796   -11327   -11568 
  -11526   -11142   -10354    -9163    -7635    -5925    -4198    -2689 
   -1608     -974     -718     -780    -1119    -1683    -2462    -3450 
   -4556    -5708    -6864    -7925    -8786    -9429    -9938   -10425 
  -10868   -11152   -11279   -11341   -11431   -11706   -12347   -13456 
  -14982   -16716   -18416   -19903   -21050   -21729   -21867   -21435 
  -20447   -19012   -17253   -15220   -12900   -10321    -7644    -5058 
   -2655     -525     1154     2232     2599     2161      987     -647 
   -2416    -4082    -5512    -6656    -7552    -8244    -8643    -8549 
   -7813    -6488    -4798    -3028    -1512     -484       20       46 
    -320     -999    -1964    -3138    -4374    -5571    -6633    -7417 
   -7816    -7770    -7243    -6235    -4811    -3151    -1423      352 
    2142     3819     5279     6416     7068     7124     6531     5247 
    3301      791    -2068    -5046    -7963   -10500   -12463   -14047 
  -15359   -16342   -17149   -17987   -18894   -19827   -20700   -21490 
  -22236   -22980   -23766   -24559   -25247   -25787   -26142   -26185 
  -25828   -25059   -23908   -22486   -20926   -19313   -17736   -16224 
  -14733   -13302   -11945   -10515    -8890    -7030    -4952    -2760 
    -481     2014     4749     7601    10451    13130    15463    17444 
   19166    20614    21729    22578    23197    23521    23529    23095 
   22018    20324    18192    15806    13345    10924     8668     6700 
    5051     3778     3000     2777     3160     4129     5427     6699 
    7837     8918     9802    10251    10281    10012     9528     9021 
    8675     8433     8065     7427     6614     5818     5147     4681 
    4546     4832     5553     6620     7752     8605     8903     8448 
    7244     5572     3780     2038      470     -647    -1070     -756 
     125     1235     2333     3392     4336     4984     5282     5319 
    5222     5143     5233     5635     6421     7515     8728     9971 
   11323    12824    14347    15733    16968    18243    19820    21811 
   24149    26695    29273    31720    33957    35924    37543    38802 
   39792    40699    41695    42863    44210    45582    46683    47249 
   47075    46021    44011    41081    37467    33542    29698    26252 
   23440    21427    20208    19695    19780    20188    20641    21047 
   21290    21232    20892    20403    19854    19237    18533    17697 
   16621    15260    13633    11741     9697     7700     5774     3778 
    1652     -555    -2757    -4838    -6657    -8149    -9376   -10423 
  -11295   -11992   -12573   -13118   -13684   -14288   -14941   -15670 
  -16489   -17467   -18723   -20276   -22053   -23981   -25994   -28012 
  -29896   -31601   -33194   -34670   -35996   -37206   -38305   -39198 
  -39802   -40049   -39641   -38287   -36053   -33070   -29426   -25410 
  -21348   -17397   -13640   -10061    -6573    -3170      102     3126 
    5806     8124    10049    11612    12888    14025    15251    16656 
   18182    19780    21469    23232    24985    26634    28109    29416 
   30538    31374    31906    32280    32680    33192    33810    34363 
   34537    34174    33344    32210    30939    29661    28557    27839 
   27698    28247    29364    30805    32383    33812    34833    35343 
   35221    34542    33606    32567    31577    30783    30200    29972 
   30166    30621    31287    32086    32806    33304    33300    32408 
   30546    27856    24558    21076    17936    15422    13586    12461 
   12040    12269    13123    14483    16102    17798    19435    20851 
   22012    22979    23773    24404    24863    25110    25152    25075 
   25057    25177    25346    25430    25223    24529    23334    21825 
   20298    18949    17872    17131    16651    16280    15934    15525 
   14931    14024    12770    11314     9818     8333     6835     5262 
    3609     1912      204    -1436    -2925    -4245    -5411    -6408 
   -7265    -8116    -9083   -10228   -11608   -13237   -15039   -16944 
  -18864   -20596   -22001   -23057   -23694   -23818   -23432   -22588 
  -21295   -19646   -17891   -16194   -14637   -13336   -12322   -11620 
  -11303   -11402   -12035   -13166   -14484   -15916   -17378   -18500 
  -19256   -19662   -19441   -18654   -17395   -15669   -13834   -12135 
  -10740    -9899    -9694   -10273   -11521   -13141   -15205   -17598 
  -20081   -22637   -25007   -26810   -27866   -28502   -28739   -27676 
  -25900   -24222   -21276   -17614   -14485   -10394    -5986    -2569 
    1363     5073     7491    10149    12512    14042    16086    17891 
   19108    20867    22327    23266    24434    24893    24981    25717 
   26270    27116    28951    30698    32770    35539    37911    40422 
   43257    45367    47258    48946    49760    50505    51038    50676 
   50123    49218    47684    46439    45305    44135    43722    43530 
   43134    43013    42556    41511    40302    38457    36275    34549 
   32881    31346    30394    29666    29409    29927    30600    31377 
   32299    32865    33279    33612    33467    33246    33085    32603 
   32110    31625    30835    30129    29544    28848    28414    28203 
   27955    27968    28202    28452    28803    28983    28873    28725 
   28340    27662    26958    26112    25202    24488    23734    22897 
   22226    21716    21484    21614    21821    22000    22077    21718 
   20905    19787    18436    17187    16231    15437    14847    14410 
   13911    13367    12827    12350    12154    12265    12585    13157 
   13889    14631    15388    16031    16392    16560    16615    16555 
   16420    16155    15807    15475    15139    15034    15360    15863 
   16336    16662    16707    16548    16146    15314    14116    12665 
   10951     9046     7046     5049     3262     1865     1049      936 
    1339     2014     2730     3166     3261     3149     2822     2318 
    1834     1580     1752     2375     3267     4271     5260     6146 
    6914     7426     7498     7077     6092     4587     2785      745 
   -1548    -3939    -6199    -8050    -9314   -10127   -10794   -11548 
  -12474   -13496   -14511   -15473   -16275   -16773   -16880   -16524 
  -15747   -14699   -13489   -12214   -10948    -9700    -8471    -7218 
   -6001    -5068    -4544    -4457    -4827    -5504    -6396    -7486 
   -8614    -9650   -10494   -10889   -10573    -9392    -7372    -4831 
   -2105      658     3312     5803     8231    10564    12491    13574 
   13638    12836    11351     9399     7232     4932     2463     -192 
   -3040    -6055    -9132   -12053   -14587   -16683   -18363   -19610 
  -20527   -21272   -21873   -22307   -22591   -22763   -22826   -22653 
  -22126   -21254   -20069   -18648   -17122   -15668   -14473   -13578 
  -12969   -12704   -12751   -12987   -13303   -13552   -13602   -13404 
  -12961   -12210   -11090    -9733    -8272    -6736    -5271    -4061 
   -3182    -2711    -2677    -3046    -3807    -4939    -6473    -8493 
  -10942   -13598   -16150   -18268   -19791   -20811   -21484   -21902 
  -22144   -22255   -22209   -21968   -21523   -20873   -19946   -18720 
  -17301   -15796   -14330   -13066   -12124   -11618   -11612   -12003 
  -12631   -13409   -14210   -14842   -15165   -15078   -14659   -14239 
  -14051   -14117   -14455   -15006   -15607   -16187   -16695   -17043 
  -17223   -17289   -17294   -17252   -17181   -17074   -16862   -16520 
  -16034   -15398   -14657   -13866   -13146   -12601   -12200   -11982 
  -12061   -12464   -13171   -14062   -14915   -15563   -15872   -15712 
  -15014   -13778   -12102   -10122    -7872    -5358    -2670      161 
    3199     6456     9898    13426    16868    20149    23280    26240 
   28951    31195    32768    33696    34069    33873    33045    31578 
   29566    27144    24433    21571    18775    16278    14248    12827 
   12066    11859    12041    12486    13153    13980    14808    15558 
   16258    16924    17544    17995    18065    17730    17051    15978 
   14559    12960    11299     9726     8463     7708     7603     8216 
    9424    11045    13046    15368    17851    20399    22941    25359 
   27546    29449    30991    32110    32870    33296    33362    33145 
   32636    31766    30628    29337    28092    27180    26752    26982 
   28043    29830    32079    34506    36814    38717    40018    40688 
   40761    40330    39600    38691    37654    36668    35992    35818 
   36147    36732    37346    37908    38344    38712    39091    39421 
   39720    40020    40232    40303    40169    39715    38910    37855 
   36811    35975    35309    34798    34473    34338    34485    34938 
