Origin Time       2011/03/11 14:46:00
Lat.              38.103
Long.             142.860
Depth. (km)       24
Mag.              9.0
Station Code      NIG019
Station Lat.      37.3043
Station Long.     138.8121
Station Height(m) 65
Record Time       2011/03/11 14:47:39
Sampling Freq(Hz) 100Hz
Duration Time(s)  300
Dir.              U-D
Scale Factor      3920(gal)/6182761
Max. Acc. (gal)   17.270
Last Correction   2011/03/11 14:47:24
Memo.             
[...]
    2606     1314      -92    -1392    -2428    -2879    -2726    -2515 
   -2683    -3180    -3975    -5271    -7130    -9282   -11265   -12555 
  -12712   -11571    -9329    -6460    -3484     -787     1166     1749 
     848     -680    -1681    -1610     -832     -261     -411     -927 
   -1292    -1387    -1246     -960     -643     -102      948     2237 
    3156     3585     3754     3480     2479     1199      283     -460 
   -1642    -3259    -4673    -5226    -4719    -3644    -2807    -2600 
   -2848    -3103    -2907    -2061     -734      727     1969     2702 
    2785     2218     1056     -612    -2496    -4031    -4760    -4705 
   -4250    -3892    -3941    -4364    -5061    -6088    -7368    -8504 
   -9191    -9491    -9477    -9085    -8400    -7613    -6783    -6005 
   -5624    -5887    -6540    -7110    -7342    -7174    -6610    -5638 
   -4249    -2718    -1582    -1080     -974     -887     -462      558 
    2081     3682     5052     6216     7160     7515     6923     5526 
    3908     2700     2280     2686     3743     5266     7098     8879 
   10017    10151     9379     7986     6394     5295     5217     5948 
    6767     7216     7340     7208     6685     5667     4216     2529 
     854     -692    -2213    -3858    -5515    -6866    -7804    -8557 
   -9427   -10558   -11816   -12937   -13684   -13707   -12695   -10959 
   -9357    -8492    -8368    -8739    -9356    -9922   -10202   -10085 
   -9453    -8215    -6369    -4086    -1934     -599     -160     -169 
    -288     -289      130     1024     2062     2922     3543     3982 
    4074     3423     2045      770      457     1064     1939     2599 
    2883     2718     1997      765     -434     -818     -173     1093 
    2626     4219     5427     5734     4980     3411     1456     -544 
   -2516    -4482    -6297    -7664    -8409    -8676    -8713    -8470 
   -7691    -6200    -3957    -1259     1116     2421     2459     1421 
    -433    -2844    -5457    -7729    -9099    -9441    -9257    -9195 
   -9600   -10664   -12463   -14628   -16382   -16995   -16073   -13652 
  -10276    -6837    -4111    -2419    -1565    -1128    -1089    -1745 
   -2766    -3271    -3074    -2939    -3331    -3578    -2899    -1798 
   -1500    -2343    -3689    -5018    -6278    -7409    -8140    -8233 
   -7678    -6616    -5332    -4315    -4059    -4732    -6249    -8596 
  -11754   -15214   -18052   -19745   -20538   -20751   -20229   -18786 
  -16676   -14293   -11868    -9536    -7259    -4823    -2254       11 
    1527     2244     2364     2026     1373      626       24     -126 
     535     2120     4304     6525     8355     9547     9842     9147 
    7845     6416     4873     2993      722    -1823    -4283    -5976 
   -6280    -5123    -3015     -733     1056     2012     2008     1125 
    -143    -1108    -1487    -1599    -1830    -2224    -2772    -3579 
   -4463    -4905    -4657    -4081    -3680    -3547    -3515    -3595 
   -3842    -4056    -4150    -4398    -5001    -5881    -6899    -7816 
   -8399    -8734    -9090    -9502    -9808   -10059   -10452   -10907 
  -11148   -10932   -10085    -8777    -7674    -7398    -7949    -8763 
   -9057    -8199    -6275    -4221    -2901    -2230    -1600     -800 
    -134       70     -212     -769    -1242    -1183     -413      724 
    1753     2368     2257     1253     -275    -1792    -3318    -5253 
   -7724   -10512   -13179   -15009   -15440   -14799   -14002   -13562 
  -13536   -14065   -15179   -16402   -17013   -16484   -14660   -11920 
   -9159    -7221    -6225    -5659    -5167    -5018    -5579    -6416 
   -6340    -4551    -1404     2107     5167     7173     7568     6232 
    3839     1459      -70     -451       14      565      461     -464 
   -1869    -3535    -5541    -7759    -9619   -10585   -10587    -9970 
   -9254    -8879    -8855    -8669    -7840    -6612    -5740    -5421 
   -4957    -3657    -1602      612     2411     3340     2996     1283 
   -1265    -3754    -5493    -6118    -5563    -4221    -2844    -1874 
   -1076     -180      640     1260     1729     1774     1080       11 
    -606     -459      -93     -115     -413     -621    -1024    -2243 
   -4142    -5749    -6409    -6490    -6852    -7974    -9611   -11122 
  -12037   -12255   -11664   -10038    -7691    -5685    -4916    -5285 
   -5952    -6195    -5779    -4760    -3372    -1905     -537      579 
    1406     2357     4021     6408     8803    10393    10942    10859 
   10722    10791    10854    10644    10393    10548    10991    11197 
   11045    10835    10648    10314     9945     9976    10524    11175 
   11509    11440    11141    10873    10811    11010    11361    11549 
   11272    10537     9599     8632     7481     5785     3420      774 
   -1580    -3373    -4667    -5703    -6731    -7695    -8244    -8295 
   -8284    -8652    -9343   -10003   -10451   -10842   -11364   -11696 
  -11037    -9005    -6212    -3535    -1215      972     3027     4738 
    6114     7173     7540     7008     6182     5708     5324     4263 
    2214     -313    -2280    -2830    -2009     -690      421     1304 
    1917     1850     1068      156     -428     -732     -867     -633 
     206     1546     3072     4379     4885     4180     2468      412 
   -1334    -2483    -3047    -2979    -2198     -902      453     1495 
    2165     2449     1909       17    -3020    -6265    -8770   -10085 
  -10273    -9485    -7767    -5467    -3394    -2153    -1607    -1187 
    -400      979     2664     3861     4082     3650     3106     2700 
    2524     2488     2271     1690      930      296     -106     -327 
    -242      487     1950     3653     4886     5371     5397     5334 
    5214     4827     4119     3191     1895      -28    -2316    -4248 
   -5318    -5517    -5206    -4910    -4915    -5231    -5951    -7030 
   -7952    -8190    -7651    -6511    -5072    -3836    -3402    -4157 
   -5878    -7607    -8255    -7556    -6141    -4699    -3578    -2993 
   -2985    -3249    -3417    -3470    -3748    -4501    -5637    -6944 
   -8233    -9192    -9451    -8880    -7786    -6663    -5663    -4609 
   -3645    -3362    -4085    -5440    -6814    -7873    -8502    -8672 
   -8479    -8024    -7284    -6302    -5318    -4562    -4118    -4052 
   -4456    -5142    -5469    -5009    -4223    -3959    -4499    -5514 
   -6607    -7480    -7731    -6892    -4872    -2246      144     1659 
    1915      972     -572    -2074    -3198    -3714    -3536    -3033 
   -2865    -3434    -4728    -6523    -8303    -9239    -8804    -7331 
   -5653    -4298    -3212    -2124    -1081     -647    -1259    -2333 
   -2689    -2073    -1409    -1353    -1393     -567     1345     3414 
    4318     3622     2233     1498     1816     2333     2074      962 
    -518    -2107    -3774    -5334    -6530    -7184    -7121    -6505 
   -5944    -5640    -5167    -4588    -4758    -6142    -8050    -9221 
   -8832    -7177    -5521    -4947    -5383    -6211    -7354    -9074 
  -11259   -13358   -14598   -14310   -12551   -10259    -8443    -7403 
   -7058    -7568    -8889   -10147   -10434    -9943    -9583    -9785 
  -10101    -9694    -8123    -5768    -3599    -2589    -3185    -4945 
   -6764    -7749    -7743    -6863    -5036    -2392      279     1972 
    2221     1257     -443    -2508    -4422    -5462    -5354    -4630 
   -4071    -3966    -3998    -3771    -3154    -2216    -1258     -681 
    -613     -907    -1254    -1182     -397     1011     2881     5017 
    7000     8610    10172    11883    13097    12868    11172     9212 
    8118     7622     6587     4623     2425      682     -541    -1167 
    -745      767     2602     3895     4221     3607     2450     1307 
     618      651     1562     3346     5688     7993     9622    10065 
    9092     7072     4877     3198     2270     2048     2259     2672 
    3428     4756     6455     7833     8119     6998     4872     2698 
    1377     1250     2318     4466     7069     9119    10044     9828 
    8546     6349     3569      419    -2993    -6162    -8308    -9162 
   -9072    -8502    -7967    -8091    -9142   -10746   -12357   -13645 
  -14286   -13971   -12761   -11079    -9302    -7565    -5912    -4521 
   -3755    -3736    -3892    -3495    -2747    -2744    -4166    -6610 
   -9292   -11553   -12588   -11638    -8857    -5547    -3360    -3161 
   -4388    -5594    -5793    -5182    -4573    -4462    -4703    -4760 
   -4097    -2612     -921      -17     -412    -1728    -3272    -4747 
   -6067    -6867    -6843    -6268    -5686    -5321    -5065    -4917 
   -5256    -6630    -9199   -12426   -15379   -17320   -18040   -17668 
  -16348   -14373   -12234   -10212    -8350    -6850    -5921    -5425 
   -5063    -4520    -3439    -1742       41     1119     1047      -12 
   -1379    -2381    -3060    -3927    -4863    -5039    -3973    -2007 
      96     1527     1736      706    -1072    -2814    -3831    -4054 
   -3948    -3785    -3453    -3011    -2853    -3162    -3579    -3624 
   -3233    -2772    -2627    -2892    -3388    -3853    -4084    -3883 
   -3052    -1706     -433      140     -116     -801    -1341    -1360 
    -956     -572     -417     -474    -1046    -2403    -4184    -5986 
   -8027   -10664   -13693   -16476   -18455   -19225   -18400   -15918 
  -12453    -9127    -6683    -5218    -4584    -4650    -5161    -5712 
   -5965    -5805    -5401    -5198    -5527    -6062    -5957    -4698 
   -2785    -1470    -1541    -2437    -2886    -2232     -799      694 
    1434      696    -1400    -3698    -5208    -5947    -6339    -6498 
   -6332    -5848    -5127    -4185    -2961    -1370      653     3071 
    5768     8495    10598    11512    11658    11786    11615    10300 
    7941     5501     3658     2590     2294     2618     3620     5722 
    8801    11831    13924    14943    15123    14879    14766    14920 
   14731    13704    12319    11345    10820    10427    10203    10246 
   10321    10306    10467    10928    11329    10992     9338     6608 
    3967     2453     2327     3532     5923     8879    11292    12293 
   11838    10518     9027     7788     6887     6270     5999     6232 
    6725     6681     5628     3951     2335     1423     1717     2980 
    4228     4799     4876     4868     4705     3943     2542     1119 
     248       16      435     1727     3964     6698     9112    10531 
   10906    10706    10284     9685     9045     8630     8446     8166 
    7507     6605     6061     6503     7899     9302     9529     8256 
    6352     4975     4334     3589     2126      499     -345     -342 
    -220     -430     -834    -1380    -2430    -4235    -6435    -8285 
   -9235    -9085    -7795    -5563    -3042    -1121     -307     -375 
    -739     -970     -991    -1066    -1481    -2016    -2110    -1609 
    -795      100      698      314    -1301    -3720    -6390    -8541 
   -8951    -6873    -2937     1252     4169     5127     4486     3031 
    1039    -1477    -3774    -4662    -3786    -2134    -1370    -2562 
   -5232    -7912    -9849   -11743   -14528   -17979   -21040   -23136 
  -24473   -25161   -24789   -23161   -20839   -18549   -16519   -14675 
  -13066   -11728   -10435    -9103    -8175    -8305    -9994   -13138 
  -16529   -18674   -19231   -18659   -17020   -14441   -11961   -10639 
  -10515   -10998   -11577   -11977   -12108   -11940   -11321   -10100 
   -8570    -7344    -6576    -5907    -5270    -5060    -5469    -6057 
   -5992    -4615    -1968     1036     3184     3848     3186     1791 
     621      663     1982     3751     5295     6284     6332     5311 
    3711     2195     1077      443      285      330      180     -298 
   -1008    -2005    -3670    -6208    -8863   -10542   -11439   -12747 
  -14678   -16168   -16402   -15658   -14883   -14788   -15171   -15169 
  -14187   -12411   -10514    -9122    -8535    -8821    -9972   -11683 
  -13055   -13096   -11679    -9579    -7645    -6228    -5168    -4173 
   -3376    -3300    -4170    -5540    -6740    -7432    -7508    -6869 
   -5791    -5028    -5056    -5565    -6026    -6429    -7169    -8322 
   -9336    -9636    -9395    -9324    -9762   -10352   -10666   -10666 
  -10282    -9132    -7023    -4263    -1371     1076     2342     1753 
    -811    -4666    -8490   -11019   -11938   -11958   -11800   -11458 
  -10767   -10149   -10281   -11253   -12446   -13179   -13380   -13549 
  -14012   -14435   -14392   -14069   -13881   -13847   -13816   -13712 
  -13392   -12857   -12451   -12317   -11906   -10606    -8548    -6137 
   -3434     -835      573      249    -1098    -2688    -4701    -7390 
   -9976   -11394   -11434   -10540    -9079    -7120    -4762    -2605 
   -1343     -775      -32     1131     1959     1664      305    -1414 
   -2788    -3360    -3045    -2083     -575     1631     4318     6734 
    8219     8545     7902     6997     6585     6684     6764     6599 
    6478     6738     7457     8562     9810    10560    10224     9028 
    7619     6099     4185     1829     -892    -3764    -6090    -7263 
   -7591    -7748    -7806    -7370    -6192    -4316    -2005      361 
    2263     3058     2321      309    -1876    -2944    -2661    -1927 
   -1482    -1240     -609      828     2561     3310     2574     1616 
    1980     3511     4938     5762     6386     6927     7025     6676 
    6572     7440     9334    11800    14450    16999    19026    20286 
   21117    21979    22756    23166    23447    23956    24569    24786 
   24009    21763    18213    14309    11002     8439     6291     4673 
    4154     4820     5800     6024     5242     3981     2794     1888 
    1187      621      456      985     1758     1818      913     -102 
    -267      365      872      655      161      308     1508     3256 
    4579     4893     4158     2545      489    -1386    -2735    -3426 
   -3181    -1842      207     2198     3462     3850     3849     4129 
    4975     6105     6753     6178     4488     2557      932     -520 
   -1800    -2379    -1788     -118     2035     3808     4503     4095 
    3098     1982      945      -65    -1196    -2372    -3322    -3993 
   -4582    -5119    -5129    -3861    -1218     1708     3628     4326 
    4370     4017     3061     1436     -403    -1674    -1876    -1237 
    -379      300      730      830      354     -857    -2624    -4484 
   -5857    -6284    -5796    -4944    -4264    -3911    -3851    -4032 
   -4365    -4786    -5187    -5260    -4842    -4218    -3541    -2377 
    -568     1018     1417      905      730     1614     3176     4880 
    6734     8864    11061    12807    13435    12605    10873     9273 
    8173     7198     6171     5276     4565     3885     3008     1710 
       8    -1874    -3806    -5771    -7665    -9287   -10460   -11091 
  -11180   -10919   -10713   -10914   -11428   -11715   -11426   -10849 
  -10351    -9689    -8528    -7340    -7024    -7817    -9143   -10338 
  -11133   -11664   -12230   -12820   -12977   -12237   -10425    -7730 
   -4862    -2890    -2658    -4304    -7302   -10940   -14567   -17395 
  -18686   -18409   -17239   -15909   -14850   -14253   -14183   -14638 
  -15481   -16390   -17149   -17963   -19023   -19783   -19426   -17754 
  -15083   -12035    -9437    -7368    -4888    -1570     1659     3750 
    4639     4789     4509     3938     3312     3140     3890     5523 
    7500     9003     9283     8327     6965     5863     4787     3317 
    1737      644      131     -218     -740    -1241    -1207     -566 
     141      410      157     -329     -553     -437     -560    -1229 
   -2007    -2491    -2952    -3862    -5039    -5886    -6337    -6765 
   -7081    -6601    -4998    -3046    -1863    -1557    -1389     -972 
    -516     -357     -680    -1276    -1547    -1141     -416      -17 
    -304    -1226    -2264    -2651    -2188    -1417     -685      112 
     784      746     -228    -1606    -2386    -1844     -307     1085 
    1635     1605     1279      266    -1873    -4806    -7486    -8970 
   -9299    -9311    -9492    -9390    -8321    -6348    -4400    -3533 
   -4105    -5528    -7011    -8437    -9947   -11060   -11060    -9991 
   -8620    -7682    -7466    -7736    -7811    -7121    -5789    -4414 
   -3341    -2436    -1607    -1144    -1317    -1916    -2385    -2217 
   -1182      655     3030     5628     8108    10109    11435    11975 
   11490     9901     7484     4667     2139      710      361       45 
    -950    -2076    -2430    -1881     -829      385     1369     1581 
     767     -727    -2290    -3594    -4661    -5673    -6838    -8124 
   -9064    -9158    -8588    -8270    -8854    -9934   -10713   -11074 
  -11491   -12242   -13196   -14238   -15450   -16864   -18153   -18703 
  -18244   -17107   -15613   -13742   -11553    -9533    -8435    -8694 
  -10006   -11677   -13308   -14873   -16267   -17072   -16876   -15678 
  -13831   -11831   -10407   -10200   -10946   -11611   -11469   -10518 
   -9185    -8019    -7298    -6954    -7092    -7969    -9192    -9822 
   -9516    -8635    -7318    -5489    -3618    -2555    -2575    -3190 
   -3865    -4480    -5061    -5292    -4639    -3120    -1413       53 
    1494     3195     5110     6992     8447     8884     7996     6368 
    4954     4037     3325     2765     2497     2194     1266     -413 
   -2530    -4666    -6237    -6729    -6268    -5487    -4694    -3730 
   -2846    -2975    -4779    -7882   -11080   -13060   -13296   -12524 
  -11898   -11768   -11815   -11890   -11968   -11934   -11893   -12074 
  -12373   -12518   -12485   -12413   -12253   -11814   -11060   -10210 
   -9565    -9297    -9481   -10255   -11533   -12701   -13203   -13253 
  -13414   -13921   -14616   -15059   -14911   -14641   -15299   -17273 
  -19817   -21903   -23010   -23059   -22022   -19906   -17032   -14158 
  -12263   -11946   -12826   -13841   -14171   -13631   -12496   -11275 
  -10504   -10496   -11078   -11637   -11684   -11350   -10993   -10591 
  -10072    -9752    -9874   -10087    -9717    -8542    -7232    -6601 
   -6480    -5926    -4493    -2784    -1617    -1059     -746     -648 
   -1005    -1890    -3183    -4634    -5911    -6792    -7228    -7224 
   -6976    -7135    -8390   -10695   -13390   -15781   -17179   -17052 
  -15503   -13230   -11147   -10060   -10208   -11177   -12539   -14173 
  -15857   -17074   -17387   -16800   -15876   -15583   -16660   -18697 
  -20338   -20792   -20507   -20079   -19266   -17506   -14924   -12367 
  -10614    -9813    -9566    -9344    -8900    -8507    -8619    -9110 
   -9220    -8399    -6918    -5517    -4504    -3538    -2416    -1511 
   -1296    -1810    -2597    -3187    -3537    -3855    -4126    -3981 
   -3234    -2439    -2351    -2887    -3261    -3000    -2376    -2062 
   -2477    -3318    -3970    -4303    -4542    -4540    -3856    -2423 
    -597     1198     2518     3045     2879     2285     1400      461 
    -242     -691     -883     -417     1178     3666     6082     7692 
    8505     8695     8217     7136     5837     4701     3789     2932 
    1978      999      346      165     -102    -1118    -2785    -4585 
   -6248    -7571    -8185    -7911    -7031    -6033    -5304    -5067 
   -5334    -5856    -6412    -6997    -7529    -7877    -8272    -8995 
