Origin Time       2011/03/11 14:46:00
Lat.              38.103
Long.             142.860
Depth. (km)       24
Mag.              9.0
Station Code      NIG009
Station Lat.      37.9510
Station Long.     139.3377
Station Height(m) 11
Record Time       2011/03/11 14:47:23
Sampling Freq(Hz) 100Hz
Duration Time(s)  300
Dir.              E-W
Scale Factor      3920(gal)/6182761
Max. Acc. (gal)   24.118
Last Correction   2011/03/11 14:47:08
Memo.             
[...]
   -6976    -8163    -9218   -10060   -10801   -11466   -11923   -12054 
  -11909   -11635   -11288   -10879   -10419    -9934    -9529    -9324 
   -9360    -9547    -9703    -9724    -9585    -9200    -8487    -7495 
   -6298    -4858    -3245    -1691     -294      988     2165     3213 
    4035     4621     5101     5459     5562     5403     5049     4483 
    3586     2371     1008     -456    -2031    -3567    -4964    -6333 
   -7765    -9249   -10821   -12470   -14092   -15584   -16781   -17589 
  -18065   -18217   -18019   -17432   -16502   -15543   -14765   -14173 
  -13994   -14294   -14763   -15246   -15633   -15695   -15413   -14900 
  -14257   -13528   -12636   -11575   -10457    -9439    -8636    -7985 
   -7377    -6744    -5909    -4772    -3443    -2033     -667      556 
    1753     3069     4421     5618     6610     7553     8631     9966 
   11564    13208    14587    15454    15764    15735    15520    15095 
   14523    13928    13412    13058    12727    12109    11058     9616 
    7983     6432     5101     4029     3173     2404     1597      621 
    -648    -2162    -3603    -4600    -5055    -5065    -4781    -4379 
   -4054    -4023    -4324    -4859    -5620    -6518    -7377    -8165 
   -8839    -9292    -9521    -9504    -9195    -8571    -7484    -5894 
   -4090    -2410    -1060     -111      508      945     1372     1907 
    2558     3224     3736     3934     3724     3202     2576     1899 
    1236      778      577      565      667      735      615      263 
    -223     -697    -1016    -1029     -726     -245      228      458 
     278     -285    -1120    -2028    -2633    -2701    -2281    -1423 
    -252      862     1678     2341     2949     3441     4035     4902 
    5812     6718     7768     8828     9649    10083    10010     9280 
    7796     5684     3233      611    -2211    -5137    -7888   -10288 
  -12248   -13701   -14747   -15650   -16587   -17485   -18205   -18677 
  -18739   -18232   -17148   -15513   -13501   -11442    -9483    -7667 
   -6071    -4693    -3496    -2402    -1352     -476       74      238 
      -3     -598    -1442    -2259    -2631    -2371    -1585     -329 
    1438     3539     5590     7320     8686     9814    10882    11943 
   12907    13625    13968    13957    13718    13297    12639    11681 
   10544     9457     8594     8120     7993     7971     7977     8001 
    7941     7830     7731     7560     7368     7299     7354     7556 
    7891     8154     8306     8481     8533     8283     7882     7457 
    7052     6780     6673     6739     6966     7300     7794     8417 
    8949     9293     9574     9894    10271    10763    11394    12087 
   12849    13809    15039    16442    17782    18880    19689    20176 
   20301    20161    19900    19447    18731    17893    16929    15720 
   14303    12675    10893     9148     7370     5472     3657     2028 
     545     -802    -1997    -2982    -3727    -4152    -4107    -3587 
   -2755    -1875    -1141     -567     -139      194      563     1008 
    1439     1703     1718     1581     1400     1189     1004      932 
     979     1037      969      813      717      663      564      467 
     405      279       74      -14      189      719     1583     2681 
    3759     4604     5060     5124     5010     4820     4506     4079 
    3601     3293     3359     3737     4252     4710     4962     4934 
    4522     3692     2580     1303      -46    -1138    -1626    -1604 
   -1456    -1551    -2042    -2746    -3433    -3964    -4303    -4672 
   -5192    -5589    -5629    -5371    -4877    -4061    -2953    -1685 
    -339      950     2092     3065     3770     4203     4386     4147 
    3417     2457     1561      943      673      561      586      951 
    1484     1772     1549      612     -949    -2700    -4271    -5433 
   -6122    -6526    -6804    -6885    -6695    -6343    -5998    -5698 
   -5500    -5516    -5728    -6140    -6785    -7636    -8710    -9821 
  -10614   -11058   -11240   -11181   -10982   -10533    -9697    -8765 
   -8006    -7427    -7133    -7225    -7538    -7776    -7758    -7392 
   -6579    -5314    -3770    -2274    -1076     -147      423      450 
     126     -368     -981    -1414    -1454    -1118     -478      202 
     635      754      601      300       46      -35       67      300 
     704     1451     2511     3604     4633     5593     6423     7120 
    7617     7877     8032     8179     8361     8545     8548     8222 
    7653     7055     6550     6048     5316     4277     3117     2039 
    1235      919     1041     1316     1727     2517     3722     5176 
    6688     8104     9367    10417    11197    11769    12279    12780 
   13033    12824    12390    11865    11124    10327     9492     8344 
    6950     5513     4094     2549      674    -1318    -3172    -4969 
   -6816    -8847   -11010   -13013   -14752   -16149   -16994   -17277 
  -17224   -17078   -16876   -16519   -16036   -15481   -14717   -13633 
  -12427   -11357   -10387    -9362    -8355    -7497    -6750    -6023 
   -5282    -4563    -3952    -3501    -3233    -3145    -3163    -3243 
   -3458    -3790    -3942    -3618    -2824    -1707     -355     1115 
    2499     3741     4964     6132     7018     7511     7678     7630 
    7535     7718     8444     9603    10871    11965    12661    12887 
   12792    12569    12240    11669    10793     9697     8585     7687 
    7072     6718     6671     6879     7187     7468     7671     7854 
    8126     8614     9370    10142    10509    10338     9851     9315 
    8841     8445     8168     7928     7449     6624     5561     4228 
    2596      837     -917    -2608    -4096    -5192    -5750    -5844 
   -5752    -5649    -5631    -5794    -6089    -6372    -6586    -6767 
   -6986    -7256    -7487    -7571    -7453    -7054    -6269    -5110 
   -3715    -2245     -866      324     1393     2558     4010     5608 
    7089     8498     9878    11065    12069    12922    13397    13399 
   13078    12520    11804    11051    10298     9522     8667     7741 
    6823     5980     5388     5281     5674     6374     7025     7234 
    6942     6403     5790     5077     4100     2754     1163     -407 
   -1702    -2724    -3769    -5087    -6570    -7842    -8708    -9318 
   -9792   -10145   -10382   -10413   -10237   -10079   -10135   -10405 
  -10758   -11073   -11410   -11946   -12728   -13636   -14499   -15169 
  -15598   -15894   -16218   -16601   -17003   -17482   -18123   -18993 
  -19979   -20715   -20986   -20863   -20478   -20045   -19755   -19496 
  -19051   -18449   -17920   -17525   -16989   -16072   -14858   -13592 
  -12520   -11796   -11340   -10836    -9953    -8720    -7451    -6344 
   -5455    -4819    -4449    -4337    -4460    -4777    -5251    -5823 
   -6262    -6367    -6325    -6372    -6469    -6516    -6473    -6222 
   -5534    -4383    -3144    -2287    -2060    -2390    -3053    -3959 
   -5110    -6444    -7815    -8944    -9596    -9873   -10014   -10167 
  -10435   -10798   -11116   -11338   -11480   -11491   -11399   -11345 
  -11322   -11250   -11187   -11256   -11510   -11941   -12478   -13029 
  -13610   -14237   -14771   -15079   -15112   -14838   -14228   -13270 
  -11971   -10384    -8699    -7121    -5711    -4443    -3211    -1877 
    -320     1494     3413     5247     6924     8429     9694    10638 
   11285    11741    12093    12470    12992    13611    14204    14731 
   15202    15632    15989    16197    16263    16212    15976    15403 
   14309    12769    11180     9784     8562     7549     6777     6266 
    6121     6339     6759     7208     7507     7601     7549     7415 
    7326     7336     7429     7643     7881     8055     8329     8820 
    9427    10137    11150    12591    14350    16212    18011    19702 
   21284    22642    23577    24001    24045    23925    23706    23286 
   22596    21630    20427    19081    17586    15837    13861    11872 
   10191     9095     8656     8692     8902     9184     9596    10045 
   10352    10447    10294     9844     9120     8177     7052     5880 
    4880     4160     3697     3374     3033     2647     2306     2040 
    1769     1264      242    -1350    -3269    -5143    -6707    -7909 
   -8728    -9156    -9318    -9332    -9181    -8820    -8280    -7658 
   -7056    -6545    -6158    -5852    -5495    -4981    -4356    -3770 
   -3294    -2840    -2312    -1682     -973     -260      492     1421 
    2588     3960     5409     6716     7725     8392     8756     8871 
    8663     8062     7360     6999     7201     7937     8909     9725 
   10194    10393    10539    10738    10865    10811    10723    10819 
   11230    12063    13209    14330    15252    16021    16683    17231 
   17590    17642    17336    16688    15745    14659    13639    12717 
   11772    10739     9697     8903     8627     8923     9683    10732 
   11910    13159    14349    15187    15399    14846    13654    12095 
   10295     8386     6595     5045     3796     2806     1958     1409 
    1246     1193     1253     1680     2485     3643     4997     6128 
    6813     7055     6833     6189     5252     4116     3026     2469 
    2667     3283     3798     3899     3650     3254     2684     1923 
    1068       91    -1007    -2175    -3371    -4449    -5387    -6319 
   -7249    -8168    -9131   -10094   -11047   -12089   -13215   -14271 
  -15067   -15533   -15892   -16500   -17520   -18918   -20502   -21948 
  -23095   -23916   -24140   -23552   -22293   -20509   -18309   -16053 
  -14250   -13175   -12613   -12210   -11942   -11944   -12289   -13107 
  -14532   -16454   -18615   -20802   -22811   -24489   -25868   -27046 
  -27953   -28488   -28783   -29046   -29329   -29631   -29882   -29880 
  -29554   -29007   -28270   -27279   -26061   -24823   -23854   -23414 
  -23545   -23886   -23940   -23419   -22298   -20884   -19486   -18086 
  -16752   -15626   -14638   -13912   -13665   -13739   -13811   -13581 
  -12846   -11753   -10674    -9879    -9432    -9243    -9288    -9630 
  -10280   -11193   -12320   -13598   -14914   -16197   -17436   -18501 
  -19258   -19667   -19749   -19658   -19625   -19885   -20496   -21192 
  -21630   -21696   -21450   -20986   -20357   -19550   -18638   -17752 
  -16913   -16192   -15740   -15514   -15323   -15047   -14715   -14445 
  -14307   -14349   -14500   -14490   -14130   -13423   -12485   -11486 
  -10543    -9693    -8892    -8051    -7179    -6359    -5513    -4580 
   -3776    -3222    -2827    -2558    -2200    -1317      255     2341 
    4667     6958     9031    10790    12105    12959    13481    13703 
   13715    13783    13948    14143    14369    14391    14061    13584 
   13084    12554    12021    11515    11071    10690    10452    10570 
   11069    11708    12323    12920    13504    14043    14544    15014 
   15343    15455    15476    15513    15543    15555    15526    15454 
   15433    15539    15757    15879    15600    14833    13663    12128 
   10331     8455     6501     4401     2285      306    -1436    -2801 
   -3716    -4193    -4229    -3910    -3360    -2610    -1739     -936 
    -328        9       21     -236     -645    -1057    -1277    -1265 
   -1167    -1036     -881     -812     -901    -1151    -1468    -1567 
   -1242     -570      377     1670     3226     4788     6239     7592 
    8827     9956    11037    12104    13141    14115    14938    15508 
   15832    15976    16066    16243    16454    16595    16731    16880 
   16933    16814    16547    16185    15746    15265    14785    14237 
   13583    12937    12360    11761    11045    10235     9498     9023 
    8831     8724     8517     8311     8276     8303     8193     7880 
    7400     6902     6492     6136     5789     5330     4700     4049 
    3346     2492     1695     1117      695      445      484      814 
    1319     1952     2749     3643     4558     5553     6630     7718 
    8853    10057    11275    12522    13865    15282    16652    17804 
   18641    19165    19283    18891    18148    17267    16417    15815 
   15528    15393    15162    14614    13734    12821    12287    12250 
   12539    13141    14141    15260    16129    16685    16905    16717 
   16212    15587    15087    14827    14713    14660    14556    14368 
   14300    14458    14724    14931    15024    15175    15509    15925 
   16274    16399    16215    15795    15261    14752    14357    14064 
   13868    13738    13613    13475    13183    12511    11489    10371 
    9335     8318     7092     5563     3883     2220      694     -531 
   -1382    -1914    -2153    -2166    -2213    -2596    -3403    -4465 
   -5617    -6859    -8238    -9683   -10984   -11937   -12432   -12440 
  -12121   -11781   -11585   -11411   -10947    -9933    -8321    -6204 
   -3747    -1164     1329     3525     5280     6494     7068     7029 
    6557     5639     4119     2123     -168    -2724    -5426    -8152 
  -10774   -13000   -14664   -15817   -16557   -17124   -17756   -18463 
  -19256   -20184   -21165   -22135   -22991   -23397   -23058   -22035 
  -20578   -18929   -17261   -15580   -13803   -11887    -9832    -7723 
   -5584    -3243     -609     2124     4636     6701     8259     9358 
   10176    10973    11924    13235    15156    17540    19934    22099 
   23954    25440    26633    27630    28430    28947    29118    29089 
   29168    29514    30000    30473    31032    31819    32819    34003 
   35309    36608    37838    38902    39531    39524    38940    37966 
   36867    36058    35741    35560    35080    34192    32918    31403 
   29887    28541    27475    26673    25970    25221    24251    22818 
   20854    18549    16203    14038    12098    10383     8926     7723 
    6814     6208     5796     5445     4846     3641     1799     -536 
   -3250    -6236    -9381   -12533   -15549   -18298   -20644   -22533 
  -23938   -24771   -24962   -24514   -23460   -21844   -19747   -17360 
  -15035   -13211   -12132   -11704   -11747   -12045   -12302   -12385 
  -12335   -12176   -11843   -11180   -10096    -8646    -7008    -5383 
   -3894    -2662    -1713     -918     -277       76      211      295 
     226      -58     -261     -129      378     1192     2038     2597 
    2746     2473     1836      989       87     -717    -1306    -1760 
   -2140    -2227    -1783     -765      622     1958     2994     3691 
    3909     3561     2743     1670      713      105     -294     -613 
    -793     -890     -970     -939     -800     -631     -379      102 
     921     1991     3077     3917     4290     4173     3731     3172 
    2621     2029     1353      696       24     -917    -2155    -3486 
   -4843    -6164    -7261    -8052    -8561    -8765    -8597    -8029 
   -7197    -6329    -5544    -4810    -3991    -3008    -1890     -624 
     655     1678     2465     3143     3728     4397     5230     5990 
    6506     6786     6904     6911     6845     6915     7311     7984 
    8829     9753    10660    11496    12230    12890    13543    14180 
   14632    14849    15116    15613    16183    16729    17207    17327 
   16800    15545    13628    11286     8696     6014     3614     1748 
     524      -11     -128      -74       66      118      -22     -298 
    -568     -670     -457      101      686      949      907      603 
      -3     -731    -1216    -1237     -829     -136      532      965 
    1413     1975     2496     3100     3727     4089     4198     4146 
    4111     4224     4286     4143     3763     3061     2051      893 
    -304    -1560    -2788    -3842    -4722    -5330    -5608    -5780 
   -5840    -5613    -5252    -4779    -3947    -2765    -1432     -182 
     715     1203     1478     1585     1398     1061      821      815 
    1259     2092     2930     3579     3993     4201     4392     4682 
    5042     5452     5941     6382     6599     6802     7229     7702 
    8202     8835     9351     9556     9400     8919     8367     7705 
    6842     6173     5939     6112     6806     7901     9038    10125 
   11110    11788    12298    12797    13079    13307    13750    14350 
   15311    16624    17837    18749    19259    19363    19285    19019 
   18426    17479    16282    15064    13943    12987    12329    11946 
   11763    11849    12204    12659    13044    13263    13286    13147 
   12912    12547    11842    10572     8772     6635     4250     1771 
    -501    -2349    -3677    -4494    -4809    -4734    -4628    -4520 
   -4185    -3614    -2778    -1835     -937      128     1102     1569 
    1687     1608     1439     1446     1681     2104     2751     3577 
    4500     5372     5934     6230     6452     6488     6438     6648 
    7122     7719     8349     9017     9753    10248    10398    10621 
   10916    10990    11037    11253    11596    12202    13032    13620 
   13753    13640    13355    12871    12356    11989    11801    11710 
   11526    11149    10622     9926     9261     9050     9332     9875 
   10492    11057    11518    11713    11657    11675    11751    11586 
   11030    10156     9276     8470     7468     6266     5183     4416 
    3960     3691     3315     2549     1306     -400    -2430    -4438 
   -6226    -7806    -9057    -9884   -10282   -10272   -10107    -9897 
   -9454    -8770    -7938    -7119    -6435    -5629    -4451    -2902 
   -1132      548     1988     3161     4020     4730     5318     5626 
    5732     5611     5120     4407     3582     2646     1775     1001 
     147     -786    -1772    -2934    -4142    -5033    -5547    -5790 
   -5770    -5591    -5369    -5161    -5048    -5121    -5458    -5889 
   -6155    -6365    -6714    -7070    -7201    -7047    -6593    -5747 
   -4473    -2840    -1077      566     2085     3483     4746     6030 
    7260     8203     8915     9392     9437     9115     8594     7759 
    6475     4886     3242     1733      474     -570    -1542    -2434 
   -3190    -3986    -4921    -5889    -6931    -8091    -9225   -10293 
  -11282   -12040   -12523   -12691   -12317   -11451   -10516    -9787 
   -9394    -9373    -9526    -9761   -10163   -10687   -11244   -11710 
  -11872   -11737   -11521   -11303   -11009   -10593   -10109    -9606 
   -8997    -8082    -6800    -5489    -4482    -3656    -2876    -2314 
   -2068    -2084    -2272    -2536    -2968    -3683    -4420    -4788 
   -4790    -4664    -4399    -3978    -3614    -3311    -3023    -2865 
   -2818    -2823    -2776    -2536    -2186    -1875    -1578    -1061 
    -289      561     1681     3222     4971     6783     8452     9866 
   11129    12104    12625    12868    13210    13924    14768    15265 
   15316    15140    14995    15018    15180    15394    15508    15184 
   14182    12678    10984     9246     7562     6014     4657     3682 
    3379     3760     4441     5071     5652     6208     6659     7217 
    8005     8694     9240     9954    10811    11628    12239    12448 
   12463    12572    12621    12712    13230    14029    14873    15823 
   16654    17040    16952    16329    15112    13500    11764    10073 
    8549     7323     6526     6150     6012     6073     6404     6788 
    6952     6908     6951     7295     7737     8122     8562     9022 
    9346     9566     9791     9939     9934     9831     9655     9603 
