Origin Time       2011/03/11 14:46:00
Lat.              38.103
Long.             142.860
Depth. (km)       24
Mag.              9.0
Station Code      NIG016
Station Lat.      37.6458
Station Long.     138.7730
Station Height(m) 32
Record Time       2011/03/11 14:47:36
Sampling Freq(Hz) 100Hz
Duration Time(s)  291
Dir.              U-D
Scale Factor      3920(gal)/6182761
Max. Acc. (gal)   9.681
Last Correction   2011/03/11 14:47:21
Memo.             
[...]
   -5358    -5226    -5400    -5892    -6652    -7583    -8555    -9439 
  -10076   -10326   -10143    -9664    -9156    -8755    -8377    -7951 
   -7528    -7133    -6739    -6359    -6080    -5991    -6015    -5942 
   -5684    -5291    -4829    -4400    -4121    -4018    -4079    -4341 
   -4780    -5258    -5723    -6228    -6681    -6852    -6690    -6406 
   -6224    -6188    -6251    -6463    -6820    -7104    -7212    -7223 
   -7152    -7127    -7349    -7760    -8248    -8769    -9184    -9442 
   -9551    -9451    -9225    -9014    -8839    -8674    -8412    -7964 
   -7426    -6823    -6054    -5266    -4643    -4074    -3545    -3228 
   -3181    -3466    -4151    -5094    -6088    -7022    -7798    -8340 
   -8598    -8534    -8200    -7674    -7051    -6495    -6084    -5752 
   -5480    -5271    -5025    -4656    -4160    -3507    -2733    -2041 
   -1632    -1558    -1766    -2133    -2505    -2820    -3104    -3268 
   -3182    -2952    -2734    -2567    -2517    -2654    -2951    -3252 
   -3426    -3544    -3709    -3987    -4422    -4979    -5683    -6552 
   -7490    -8426    -9236    -9779   -10097   -10214   -10030    -9551 
   -8813    -7811    -6684    -5634    -4805    -4337    -4234    -4402 
   -4788    -5273    -5715    -6047    -6188    -6121    -5922    -5729 
   -5776    -6158    -6789    -7562    -8201    -8415    -8244    -7865 
   -7398    -6970    -6698    -6635    -6745    -6962    -7215    -7399 
   -7485    -7473    -7295    -6985    -6658    -6342    -6076    -5945 
   -5941    -6019    -6131    -6215    -6323    -6573    -6943    -7320 
   -7649    -7935    -8199    -8491    -8859    -9265    -9653   -10013 
  -10277   -10338   -10098    -9528    -8726    -7824    -6942    -6176 
   -5519    -4922    -4363    -3821    -3294    -2814    -2410    -2124 
   -1942    -1815    -1742    -1757    -1917    -2217    -2553    -2861 
   -3124    -3270    -3243    -3086    -2857    -2694    -2764    -2999 
   -3234    -3371    -3287    -2914    -2262    -1437     -649      -39 
     315      383      281       79     -294     -809    -1359    -1949 
   -2526    -2931    -3141    -3273    -3421    -3611    -3830    -4138 
   -4598    -5186    -5859    -6582    -7323    -8044    -8779    -9557 
  -10262   -10821   -11190   -11222   -10885   -10268    -9492    -8742 
   -8161    -7747    -7401    -7041    -6646    -6203    -5733    -5268 
   -4910    -4794    -4854    -4939    -5038    -5192    -5496    -6042 
   -6818    -7794    -8898    -9959   -10791   -11312   -11615   -11861 
  -12161   -12545   -12950   -13341   -13698   -13955   -14151   -14375 
  -14643   -14965   -15276   -15434   -15365   -15058   -14528   -13832 
  -13012   -12090   -11149   -10262    -9405    -8625    -7994    -7485 
   -7095    -6859    -6756    -6738    -6828    -7142    -7674    -8297 
   -8956    -9585   -10134   -10576   -10778   -10727   -10653   -10733 
  -11000   -11428   -11925   -12346   -12618   -12756   -12756   -12623 
  -12389   -12001   -11426   -10847   -10552   -10629   -10930   -11279 
  -11521   -11534   -11299   -10836   -10198    -9504    -8862    -8366 
   -8035    -7732    -7338    -6839    -6229    -5514    -4745    -4028 
   -3486    -3153    -3020    -3086    -3234    -3232    -2902    -2263 
   -1460     -602      198      756      905      564     -172    -1038 
   -1803    -2339    -2635    -2822    -2958    -2997    -3041    -3237 
   -3598    -4118    -4780    -5506    -6294    -7169    -7961    -8465 
   -8670    -8658    -8515    -8312    -7997    -7471    -6780    -5985 
   -5177    -4562    -4192    -4018    -4093    -4370    -4743    -5161 
   -5495    -5638    -5681    -5731    -5788    -5869    -5967    -5997 
   -5950    -5947    -6083    -6359    -6747    -7129    -7305    -7234 
   -7008    -6594    -6011    -5496    -5211    -5135    -5180    -5233 
   -5266    -5215    -5033    -4854    -4764    -4762    -4880    -5001 
   -5039    -5136    -5262    -5191    -4952    -4644    -4254    -3895 
   -3710    -3732    -3941    -4224    -4430    -4452    -4315    -4108 
   -3765    -3229    -2671    -2304    -2166    -2221    -2437    -2648 
   -2664    -2423    -1906    -1181     -441      153      532      574 
     118     -827    -2075    -3401    -4575    -5431    -5880    -5913 
   -5721    -5552    -5524    -5669    -5927    -6188    -6357    -6400 
   -6405    -6394    -6298    -6078    -5719    -5281    -4809    -4310 
   -3864    -3504    -3215    -3030    -3046    -3372    -3990    -4767 
   -5566    -6307    -6985    -7510    -7680    -7397    -6786    -6089 
   -5505    -5195    -5268    -5664    -6284    -7045    -7753    -8247 
   -8542    -8762    -9096    -9589   -10063   -10381   -10453   -10243 
   -9831    -9277    -8643    -8034    -7502    -7080    -6714    -6342 
   -6052    -5889    -5812    -5786    -5744    -5659    -5555    -5470 
   -5413    -5360    -5376    -5583    -5996    -6447    -6758    -6907 
   -7011    -7190    -7435    -7679    -7940    -8185    -8313    -8334 
   -8225    -7928    -7528    -7124    -6733    -6375    -6076    -5930 
   -5999    -6199    -6459    -6695    -6823    -6836    -6688    -6436 
   -6213    -6079    -6133    -6404    -6799    -7306    -7885    -8413 
   -8889    -9347    -9771   -10152   -10402   -10429   -10215    -9784 
   -9293    -8921    -8710    -8642    -8678    -8706    -8608    -8369 
   -8070    -7801    -7639    -7645    -7753    -7845    -7913    -7965 
   -8075    -8340    -8745    -9332   -10099   -10869   -11552   -12093 
  -12361   -12340   -12094   -11668   -11211   -10877   -10609   -10325 
  -10113   -10108   -10355   -10757   -11119   -11280   -11114   -10531 
   -9555    -8313    -7023    -5872    -4886    -4015    -3148    -2191 
   -1335     -843     -725     -902    -1270    -1728    -2256    -2781 
   -3158    -3354    -3471    -3589    -3700    -3798    -3921    -4153 
   -4588    -5149    -5711    -6271    -6748    -7006    -7004    -6735 
   -6251    -5656    -5040    -4484    -4081    -3906    -3912    -3986 
   -4001    -3837    -3528    -3143    -2673    -2233    -1935    -1750 
   -1699    -1792    -1923    -2121    -2497    -2971    -3407    -3807 
   -4215    -4592    -4968    -5404    -5847    -6338    -6908    -7402 
   -7760    -8002    -8200    -8501    -8881    -9227    -9473    -9514 
   -9309    -8899    -8312    -7685    -7243    -6997    -6854    -6873 
   -7081    -7393    -7683    -7806    -7699    -7428    -7140    -6981 
   -6982    -7015    -6946    -6666    -6042    -5031    -3698    -2237 
    -968      -82      527     1089     1645     1991     2002     1657 
     919      -35     -965    -1780    -2333    -2550    -2579    -2607 
   -2857    -3534    -4621    -5879    -7027    -7990    -8835    -9498 
  -10027   -10647   -11427   -12339   -13238   -13825   -14008   -13903 
  -13594   -13136   -12536   -11767   -10903   -10094    -9415    -8860 
   -8395    -7902    -7295    -6647    -6032    -5477    -5043    -4752 
   -4513    -4289    -4168    -4138    -4109    -4047    -3885    -3591 
   -3301    -3145    -3150    -3398    -3988    -4845    -5929    -7220 
   -8376    -9078    -9305    -9070    -8558    -8092    -7775    -7591 
   -7512    -7427    -7262    -7002    -6621    -6235    -5937    -5618 
   -5238    -4875    -4562    -4360    -4351    -4597    -5153    -5967 
   -6869    -7677    -8257    -8538    -8553    -8471    -8516    -8861 
   -9518   -10262   -10797   -10932   -10582    -9884    -9136    -8551 
   -8265    -8245    -8170    -7756    -6998    -6056    -5078    -4187 
   -3546    -3191    -2924    -2583    -2173    -1793    -1679    -1987 
   -2516    -2974    -3287    -3459    -3412    -3055    -2449    -1924 
   -1926    -2579    -3599    -4783    -6065    -7218    -7982    -8169 
   -7700    -6810    -5868    -5052    -4425    -4010    -3772    -3745 
   -3931    -4099    -4013    -3669    -3143    -2486    -1751     -953 
    -192      310      447      256     -246     -914    -1423    -1653 
   -1731    -1782    -2081    -2901    -4135    -5473    -6587    -7143 
   -6977    -6201    -5260    -4742    -4901    -5555    -6264    -6494 
   -6070    -5407    -5059    -5288    -5884    -6248    -5908    -4806 
   -3200    -1634     -760     -954    -2113    -3574    -4503    -4607 
   -4151    -3537    -3118    -3033    -3281    -3947    -4881    -5431 
   -5054    -3870    -2419    -1200     -362       91      -23     -620 
   -1084     -918     -248      396      670      672      655      787 
    1113     1548     1791     1368       98    -1639    -3243    -4262 
   -4539    -4313    -4108    -4342    -5101    -6167    -7105    -7537 
   -7435    -7019    -6457    -5857    -5391    -5140    -5020    -4979 
   -4951    -4815    -4533    -4181    -3945    -3974    -4164    -4321 
   -4299    -3995    -3520    -3231    -3474    -4323    -5501    -6591 
   -7269    -7383    -7019    -6484    -6136    -6172    -6532    -6976 
   -7295    -7410    -7347    -7231    -7210    -7374    -7733    -8064 
   -8137    -8061    -7998    -7967    -7979    -8003    -8119    -8498 
   -9009    -9361    -9511    -9601    -9758   -10039   -10342   -10482 
  -10397   -10117    -9660    -9118    -8637    -8358    -8287    -8167 
   -7764    -7078    -6161    -5115    -4088    -3117    -2237    -1536 
   -1004     -633     -466     -517     -768    -1102    -1352    -1425 
   -1333    -1212    -1167    -1263    -1577    -1985    -2233    -2225 
   -2081    -2055    -2346    -2973    -3817    -4619    -5089    -5150 
   -4878    -4359    -3825    -3588    -3639    -3739    -3825    -4004 
   -4367    -4967    -5708    -6327    -6625    -6547    -6196    -5893 
   -5919    -6322    -7016    -7818    -8537    -9092    -9466    -9554 
   -9194    -8445    -7608    -6923    -6356    -5796    -5310    -5054 
   -5034    -5060    -5023    -5095    -5433    -5933    -6347    -6530 
   -6613    -6824    -7191    -7591    -7944    -8232    -8452    -8640 
   -8841    -9014    -9114    -9232    -9483    -9834   -10224   -10648 
  -11054   -11335   -11403   -11222   -10860   -10424    -9908    -9204 
   -8241    -7103    -6011    -5139    -4536    -4170    -3902    -3629 
   -3486    -3632    -4075    -4742    -5444    -6003    -6332    -6339 
   -6106    -5855    -5638    -5395    -5045    -4541    -4083    -3913 
   -4064    -4569    -5456    -6481    -7209    -7349    -6986    -6394 
   -5747    -5071    -4290    -3478    -2910    -2679    -2637    -2636 
   -2597    -2586    -2778    -3173    -3586    -3966    -4370    -4734 
   -4976    -5127    -5329    -5710    -6185    -6470    -6342    -5878 
   -5334    -4789    -4204    -3691    -3291    -2887    -2414    -1848 
   -1297     -971     -947    -1212    -1727    -2402    -3017    -3333 
   -3373    -3275    -3083    -2914    -2841    -2786    -2723    -2722 
   -2925    -3496    -4275    -4859    -5164    -5376    -5588    -5749 
   -5761    -5686    -5695    -5821    -5968    -6015    -5970    -5920 
   -5791    -5461    -5025    -4787    -5077    -5926    -6998    -7952 
   -8607    -8893    -8792    -8348    -7841    -7577    -7537    -7547 
   -7511    -7402    -7264    -7050    -6578    -5854    -5127    -4553 
   -4167    -3981    -4054    -4494    -5169    -5790    -6262    -6545 
   -6535    -6158    -5403    -4510    -3950    -3939    -4328    -4964 
   -5798    -6787    -7825    -8703    -9283    -9593    -9629    -9320 
   -8677    -7779    -6710    -5630    -4642    -3718    -2887    -2237 
   -1822    -1717    -1933    -2424    -3137    -3891    -4425    -4641 
   -4676    -4722    -4808    -4858    -4944    -5265    -5932    -6849 
   -7798    -8646    -9368    -9984   -10543   -11012   -11298   -11331 
  -11056   -10507    -9788    -8930    -7949    -6931    -5995    -5251 
   -4750    -4405    -4156    -4121    -4362    -4704    -4960    -5089 
   -5064    -4891    -4730    -4794    -5230    -6016    -6865    -7414 
   -7562    -7458    -7213    -6893    -6584    -6284    -5898    -5261 
   -4299    -3237    -2467    -2324    -2849    -3668    -4389    -4914 
   -5276    -5485    -5446    -5111    -4657    -4275    -3984    -3786 
   -3657    -3546    -3459    -3329    -3113    -2958    -3019    -3378 
   -4022    -4816    -5626    -6411    -7119    -7652    -7941    -7911 
   -7519    -6837    -6027    -5300    -4776    -4508    -4525    -4728 
   -4985    -5189    -5148    -4778    -4338    -4110    -4108    -4273 
   -4611    -5128    -5793    -6429    -6842    -7089    -7300    -7519 
   -7790    -8081    -8289    -8427    -8619    -8951    -9393    -9830 
  -10155   -10326   -10366   -10256    -9907    -9325    -8688    -8217 
   -7980    -7810    -7578    -7371    -7318    -7430    -7621    -7871 
   -8225    -8700    -9315   -10045   -10820   -11553   -12091   -12339 
  -12351   -12247   -12162   -12100   -11936   -11687   -11562   -11685 
  -12005   -12425   -12900   -13404   -13866   -14134   -14042   -13631 
  -13043   -12318   -11491   -10529    -9377    -8122    -6758    -5207 
   -3590    -2108     -857      165     1048     1898     2717     3406 
    3841     3872     3445     2608     1275     -527    -2425    -4113 
   -5409    -6109    -6258    -6047    -5594    -5119    -4834    -4753 
   -4844    -5008    -4980    -4612    -3953    -3051    -1985     -852 
     258     1156     1606     1551     1200      803      463      168 
    -120     -394     -589     -687     -769     -851     -861     -756 
    -501     -178       29      127      254      538     1101     1957 
    3064     4482     6226     8010     9409    10163    10186     9538 
    8396     6945     5397     3919     2468      954     -522    -1781 
   -2835    -3780    -4530    -4959    -5127    -5217    -5333    -5363 
   -5161    -4762    -4338    -4068    -4065    -4425    -5123    -5848 
   -6298    -6445    -6361    -6051    -5438    -4553    -3627    -2843 
   -2255    -1874    -1685    -1717    -2014    -2532    -3139    -3612 
   -3741    -3515    -3157    -2933    -2933    -3110    -3420    -3778 
   -4007    -3925    -3516    -2940    -2363    -1872    -1523    -1468 
   -1946    -2977    -4291    -5567    -6585    -7306    -7806    -8134 
   -8334    -8504    -8798    -9288    -9828   -10161   -10095    -9639 
   -9031    -8560    -8505    -8988    -9813   -10727   -11605   -12385 
  -13041   -13437   -13356   -12699   -11440    -9650    -7631    -5915 
   -4978    -4930    -5548    -6433    -7239    -7857    -8253    -8359 
   -8237    -8029    -7844    -7783    -7846    -7921    -7914    -7756 
   -7529    -7495    -7708    -7947    -8071    -8061    -7991    -8028 
   -8202    -8430    -8731    -9138    -9537    -9765    -9810    -9777 
   -9762    -9759    -9703    -9598    -9406    -8996    -8351    -7482 
   -6315    -4954    -3698    -2795    -2397    -2501    -2867    -3272 
   -3675    -4069    -4401    -4690    -4905    -4923    -4710    -4276 
   -3671    -3084    -2636    -2387    -2476    -2914    -3519    -4094 
   -4549    -4869    -4966    -4756    -4368    -4099    -4207    -4738 
   -5512    -6233    -6639    -6666    -6471    -6399    -6845    -7866 
   -9141   -10414   -11550   -12327   -12624   -12532   -12221   -11886 
  -11692   -11625   -11512   -11228   -10793   -10215    -9469    -8579 
   -7535    -6354    -5168    -4062    -3115    -2454    -2168    -2294 
   -2755    -3337    -3828    -4119    -4295    -4396    -4313    -4217 
   -4422    -5023    -6078    -7544    -9226   -10969   -12583   -13885 
  -14724   -14907   -14386   -13330   -11976   -10593    -9489    -8857 
   -8641    -8635    -8610    -8356    -7696    -6627    -5439    -4434 
   -3646    -3025    -2621    -2435    -2237    -1702     -718      610 
    2060     3327     4065     4021     3336     2575     2281     2634 
    3411     4046     4005     3152     1708       66    -1483    -2817 
   -3865    -4700    -5457    -6077    -6368    -6249    -5820    -5206 
   -4490    -3844    -3480    -3457    -3660    -3912    -4139    -4414 
   -4806    -5245    -5562    -5573    -5268    -4917    -4754    -4798 
   -5024    -5395    -5851    -6362    -6929    -7591    -8410    -9313 
  -10031   -10357   -10275    -9884    -9275    -8441    -7405    -6308 
   -5249    -4295    -3566    -3274    -3605    -4473    -5629    -6854 
   -7932    -8693    -9062    -9044    -8722    -8223    -7776    -7580 
   -7612    -7807    -8138    -8506    -8821    -9092    -9449    -9994 
  -10654   -11307   -11862   -12213   -12302   -12144   -11766   -11277 
  -10837   -10412    -9848    -8987    -7747    -6423    -5372    -4624 
   -4228    -4258    -4598    -5122    -5702    -6141    -6348    -6396 
   -6344    -6151    -5853    -5522    -5138    -4717    -4268    -3665 
   -2863    -1938     -968      -56      732     1408     1992     2491 
    2925     3314     3638     3942     4377     4978     5635     6179 
    6378     6094     5324     4122     2633     1051     -401    -1546 
   -2436    -3227    -3941    -4570    -5234    -6021    -6751    -7128 
   -7144    -7038    -6821    -6262    -5332    -4312    -3456    -2740 
   -1990    -1171     -399      287     1057     2154     3590     5076 
    6329     7243     7801     8037     8001     7749     7380     6882 
    6096     4977     3680     2346      966     -411    -1499    -2085 
   -2251    -2272    -2439    -2849    -3450    -4163    -4765    -5028 
   -4963    -4736    -4500    -4347    -4306    -4382    -4600    -4914 
   -5237    -5583    -6003    -6509    -7082    -7598    -7813    -7490 
   -6595    -5325    -3960    -2751    -1784     -969     -313        7 
    -139     -728    -1681    -2971    -4572    -6300    -7812    -8832 
   -9322    -9487    -9579    -9673    -9712    -9627    -9356    -8947 
   -8583    -8407    -8488    -8865    -9552   -10511   -11566   -12433 
  -12827   -12547   -11610   -10195    -8537    -6882    -5425    -4333 
   -3666    -3333    -3280    -3474    -3847    -4324    -4741    -4985 
   -5116    -5247    -5486    -5828    -6120    -6253    -6242    -6107 
   -5884    -5728    -5775    -5978    -6160    -6128    -5721    -4855 
   -3586    -2142     -818      137      598      626      380      -66 
    -660    -1283    -1792    -2065    -2119    -2083    -2048    -2088 
   -2310    -2824    -3657    -4620    -5416    -5843    -5923    -5927 
   -6075    -6328    -6615    -6972    -7414    -7865    -8229    -8509 
   -8703    -8641    -8231    -7622    -7013    -6574    -6384    -6396 
   -6521    -6668    -6787    -6841    -6730    -6380    -5827    -5118 
   -4364    -3792    -3496    -3431    -3597    -3915    -4258    -4612 
   -5058    -5731    -6703    -7888    -9148   -10401   -11564   -12472 
  -13020   -13275   -13358   -13325   -13173   -12946   -12747   -12656 
  -12773   -13158   -13679   -14145   -14494   -14679   -14589   -14138 
  -13381   -12515   -11698   -11016   -10557   -10337   -10328   -10476 
  -10635   -10635   -10348    -9764    -9047    -8313    -7555    -6907 
   -6505    -6205    -5888    -5642    -5544    -5551    -5492    -5290 
   -5104    -5079    -5212    -5392    -5433    -5209    -4748    -4208 
   -3750    -3457    -3373    -3486    -3735    -4057    -4315    -4341 
   -4120    -3734    -3251    -2838    -2715    -2907    -3287    -3742 
   -4185    -4537    -4733    -4779    -4788    -4810    -4768    -4657 
   -4599    -4705    -4987    -5364    -5731    -6023    -6214    -6301 
