Origin Time       2011/03/11 14:46:00
Lat.              38.103
Long.             142.860
Depth. (km)       24
Mag.              9.0
Station Code      NIG024
Station Lat.      37.1274
Station Long.     138.4442
Station Height(m) 83
Record Time       2011/03/11 14:47:53
Sampling Freq(Hz) 100Hz
Duration Time(s)  286
Dir.              N-S
Scale Factor      3920(gal)/6182761
Max. Acc. (gal)   17.080
Last Correction   2011/03/11 14:47:38
Memo.             
[...]
   22527    22992    23706    24498    25259    25971    26658    27301 
   27860    28299    28610    28883    29186    29448    29652    29891 
   30223    30688    31305    31998    32673    33292    33825    34196 
   34273    33901    32974    31538    29775    27871    26033    24490 
   23370    22721    22606    23085    24108    25469    26884    28121 
   29103    29919    30661    31337    31973    32583    33070    33294 
   33201    32797    32122    31266    30361    29603    29203    29296 
   29909    30930    32130    33190    33744    33531    32498    30808 
   28796    26810    25149    24076    23757    24180    25156    26413 
   27802    29274    30490    31056    31205    31382    31497    31362 
   31338    31723    32177    32581    33137    33600    33652    33492 
   33495    33591    33579    33668    33947    34140    34192    34198 
   34016    33534    32973    32603    32463    32507    32688    32832 
   32813    32634    32223    31579    30952    30560    30419    30586 
   31108    31758    32330    32844    33255    33466    33465    33335 
   33192    32912    32335    31739    31418    31210    30956    30919 
   31102    31083    30910    30794    30548    30104    29710    29516 
   29362    29172    29162    29389    29688    30063    30524    30828 
   30836    30656    30330    29774    29002    28120    27158    26170 
   25329    24801    24696    25126    26092    27417    28898    30378 
   31679    32664    33228    33225    32619    31610    30510    29578 
   28898    28437    28166    28029    27910    27655    27194    26638 
   26205    26093    26397    27078    27972    28862    29568    29934 
   29789    28989    27541    25689    23828    22291    21274    20904 
   21212    22092    23400    25017    26794    28572    30267    31855 
   33315    34676    35957    37069    37878    38277    38228    37802 
   37135    36401    35854    35709    35950    36412    36990    37599 
   38167    38654    38906    38749    38191    37304    36107    34691 
   33161    31516    29846    28373    27195    26310    25660    25083 
   24491    23954    23496    23098    22864    22861    23008    23303 
   23840    24654    25670    26653    27363    27722    27631    26922 
   25699    24282    22861    21700    21190    21509    22571    24112 
   25781    27317    28565    29420    29849    29909    29705    29353 
   28913    28341    27628    26890    26215    25612    25144    24842 
   24593    24331    24038    23558    22703    21417    19782    17997 
   16295    14896    14003    13698    13862    14360    15150    16198 
   17472    18931    20474    21991    23339    24218    24365    23792 
   22602    20945    19228    17823    16744    15964    15580    15562 
   15772    16063    16248    16158    15704    14907    13952    13073 
   12391    11928    11621    11371    11215    11247    11404    11582 
   11816    12152    12600    13274    14259    15395    16389    16988 
   17050    16552    15567    14274    12909    11599    10391     9467 
    9007     9039     9663    11021    13013    15409    18090    20935 
   23641    25995    28043    29766    31014    31702    31908    31700 
   31055    30230    29635    29343    29338    29743    30474    31220 
   31796    32122    32052    31540    30787    30072    29543    29292 
   29461    30084    31022    32141    33331    34435    35364    36124 
   36608    36729    36565    36123    35399    34534    33639    32886 
   32570    32581    32528    32469    32608    32834    33090    33756 
   35064    36409    37506    38714    39754    40161    40029    39554 
   38633    37109    35279    33468    31532    29417    27486    25927 
   24590    23587    23209    23400    24006    24921    25853    26516 
   26799    26630    26041    25194    24192    23112    22168    21598 
   21546    22001    22669    23316    23966    24328    24102    23794 
   24051    24637    25212    26471    28588    30502    31933    32898 
   32855    31774    30160    28530    27007    25703    25132    25421 
   26276    27646    29467    31265    32655    33775    34694    35158 
   35164    34839    34053    32748    31095    29284    27522    26084 
   25207    25046    25758    27267    29146    31094    33013    34616 
   35707    36418    36818    37133    37766    38772    40130    41739 
   43222    44376    45116    45262    44679    43381    41716    40140 
   38913    38224    38165    38475    38753    38932    39108    39091 
   38714    38211    37832    37599    37531    37690    38073    38579 
   39191    39850    40359    40755    40870    40231    38944    37266 
   35244    33251    31604    30507    30173    30419    31027    31880 
   32710    33239    33252    33143    33448    33834    34382    35651 
   37235    38651    39950    41004    41433    41073    40253    39329 
   38509    38174    38624    39707    41167    42950    44854    46522 
   47718    48306    48178    47362    46155    44859    43591    42516 
   41676    40930    40231    39641    39354    39567    40201    40991 
   41812    42957    44473    45651    46495    47837    49536    50445 
   50275    50012    49316    47219    44836    42963    41009    39027 
   37719    37212    36720    35910    35067    33850    32076    30352 
   28815    27230    25932    25129    24600    24453    24944    25851 
   26843    27893    28768    29193    29303    29107    28545    27794 
   26742    25357    24443    24500    24646    24373    24495    25290 
   25815    25420    25111    25331    24758    23938    24367    25482 
   26561    27960    29873    31531    32400    33021    33548    33530 
   33140    32968    33018    32859    32590    32362    31642    30280 
   28660    26804    24766    22895    21260    19667    18124    16704 
   15410    14525    14290    14492    14896    15364    15928    16652 
   16977    16695    16532    16741    16845    16658    16841    17599 
   18191    18905    20401    22192    23856    25624    27512    28971 
   29701    30072    30257    30022    29459    28827    27987    26712 
   25229    24002    22967    21727    20416    19376    18669    18436 
   18876    19981    21448    22811    23804    24392    24735    24987 
   25221    25566    25772    25578    25770    26824    27582    27598 
   27966    28859    29275    29067    29562    30824    31502    32195 
   33667    34886    35280    35423    35699    35516    34536    33368 
   32051    30061    27724    25634    23690    22028    21264    20969 
   20250    19304    18268    16806    15222    13956    12882    12037 
   11930    12410    13129    14288    15289    15512    15378    14805 
   13547    12197    11038    10047     9577     9803    10651    11883 
   13235    14713    16055    16950    17527    17809    17655    17166 
   16696    16439    16346    16500    16999    17692    18468    19460 
   20785    22282    23694    25022    26351    27497    28279    28704 
   28643    27906    26600    25112    23764    22725    22218    22320 
   22931    24182    25996    27535    28241    28659    29222    29380 
   28865    28601    28975    29228    29390    29898    30383    30468 
   30475    30884    31450    31800    32137    32493    32465    32050 
   31711    31590    31542    31615    31830    32029    32120    31887 
   31004    29499    27496    25003    22359    20249    19190    19363 
   20947    23922    27715    31713    35464    38569    40804    41874 
   41661    40577    38713    35840    32543    29599    27018    24622 
   22655    21370    20314    19132    18172    17576    17244    17342 
   18130    19478    20987    22581    24265    25740    26737    27262 
   27297    26701    25617    24558    23932    23801    24164    25007 
   25993    26708    27011    26765    25904    24719    23526    22547 
   22113    22447    23507    25200    27303    29398    31197    32544 
   33235    33233    32756    31981    30997    30045    29445    29234 
   29179    29098    28900    28473    27739    26735    25527    24160 
   22785    21674    21076    21153    22015    23626    25757    28090 
   30213    31840    32929    33403    33214    32449    31249    29850 
   28487    27320    26494    26071    25977    26041    26078    25905 
   25404    24644    23787    22941    22249    21916    22036    22512 
   23157    23810    24303    24410    24019    23253    22333    21516 
   21040    21040    21521    22375    23499    24908    26579    28318 
   29864    30962    31431    31270    30650    29729    28575    27357 
   26262    25283    24406    23615    22742    21627    20395    19320 
   18415    17618    17046    16792    16841    17092    17421    17717 
   17843    17711    17393    17086    16913    16816    16726    16666 
   16682    16803    16967    17085    17215    17484    17969    18718 
   19617    20420    20952    21090    20753    20003    18989    17848 
   16717    15770    15199    15123    15597    16625    18097    19807 
   21542    23148    24586    25912    27175    28341    29301    29959 
   30276    30130    29380    28188    26862    25455    23938    22554 
   21571    20877    20348    20216    20635    21469    22592    23967 
   25422    26666    27534    27971    27839    27062    25756    24030 
   22018    20056    18458    17250    16368    15919    15898    15992 
   15873    15367    14348    12793    10844     8638     6467     4881 
    3913     3188     3024     3814     4968     5875     6836     8099 
    9057     9393     9503     9375     8595     7262     5914     4726 
    3638     3046     3420     4658     6525     9062    12094    15139 
   17936    20403    22302    23451    23928    23833    23267    22442 
   21564    20802    20392    20575    21408    22765    24486    26350 
   28069    29423    30256    30460    30064    29137    27806    26434 
   25369    24727    24683    25265    26173    27201    28063    28325 
   27932    26955    25363    23314    21132    19041    17066    15265 
   13779    12653    11839    11307    11099    11300    11987    13183 
   14869    16970    19243    21413    23299    24753    25651    25883 
   25465    24507    22979    20930    18631    16366    14485    13367 
   13204    14059    15975    18780    21902    24863    27654    30184 
   31907    32622    32980    33071    32549    32104    32316    32988 
   34099    35840    38145    40513    42567    44272    45410    45702 
   45251    44354    43113    41517    39662    37786    36159    34712 
   33046    31188    29458    27791    26292    25439    25410    26043 
   27140    28461    29665    30657    31523    32191    32773    33232 
   33163    33125    34202    35854    37228    39194    42178    44660 
   45503    45775    46048    45072    43353    42326    41449    39922 
   38235    37019    35767    34192    33140    32830    32716    32914 
   33677    34623    35591    36690    37549    37753    37336    36350 
   34700    32717    30756    28653    26526    24576    22724    21355 
   20723    20709    21781    23737    25136    25838    26826    27721 
   27406    26279    25497    24624    23319    22733    23165    23862 
   24426    24953    25118    24132    22300    20605    19143    17845 
   17351    18097    19759    21982    24798    28049    31196    33784 
   35582    36525    36696    36221    35287    34236    33304    32547 
   32267    32745    33923    35629    37530    39389    41303    43073 
   44376    45641    47299    48886    50084    51332    52570    53038 
   52644    51766    50364    48356    46181    44448    43216    42317 
   41902    42095    42752    43547    44239    44878    45457    45743 
   45532    44701    43071    40531    37351    33947    30703    28152 
   26639    26246    26963    28460    30201    31696    32591    32788 
   32148    30515    28483    27130    26890    27606    29380    32051 
   34740    36843    38040    37910    36293    33323    29584    25828 
   22568    20162    18802    18530    19158    20328    21669    22701 
   23060    22680    21665    20434    19674    19856    21144    23545 
   26730    30070    33107    35549    36966    37132    36235    34577 
   32619    31098    30601    31194    32702    34973    37642    40075 
   41904    43302    44355    44920    45173    45372    45531    45664 
   45895    46284    46702    47055    47408    47758    48214    49235 
   50810    52186    53054    53506    53194    51985    50320    48335 
   46043    44148    42997    42304    42292    42725    42742    42250 
   41345    39915    38237    36571    34939    33569    32616    31968 
   31679    31843    32328    32904    33219    32997    32204    30786 
   28744    26356    24043    22089    20589    19700    19608    20274 
   21525    23137    24725    25839    26175    25654    24332    22347 
   19962    17558    15519    14097    13398    13483    14396    16051 
   18199    20487    22524    23950    24472    23948    22438    20097 
   17213    14272    11784    10083     9228     9161     9836    11047 
   12453    13933    15521    17165    18876    20873    23353    26248 
   29298    32240    34768    36499    37127    36556    34786    31903 
   28344    24826    21924    19992    19272    19760    21166    23061 
   24977    26444    27052    26587    25125    23010    20751    18899 
   17883    17838    18653    20167    22213    24527    26818    28783 
   30011    30315    29812    28386    25724    21897    17576    13309 
    9175     5559     2971     1301      334      198      897     2099 
    3616     5465     7415     9040    10101    10481    10055     8900 
    7424     6044     4935     4287     4376     5254     6822     9043 
   11774    14677    17343    19378    20433    20286    18904    16342 
   12893     9227     5954     3415     2020     2027     3163     5180 
    8075    11533    15111    18645    21944    24586    26148    26490 
   25702    23979    21733    19491    17599    16222    15576    15807 
   16734    17986    19183    19898    19812    18885    17211    14979 
   12632    10702     9454     8921     9110     9822    10548    10826 
   10468     9553     8358     7304     6831     7125     8278    10430 
   13425    16795    20031    22795    24935    26162    26212    25400 
   24228    22855    21468    20519    20345    20855    21835    23272 
   25039    26753    28142    29102    29465    29050    27920    26330 
   24466    22564    21082    20455    20830    22050    23696    25241 
   26268    26609    26272    25415    24409    23688    23573    24174 
   25361    26924    28596    30045    31081    31640    31621    31063 
   30356    29925    29769    29925    30757    32065    33298    34371 
   35104    35106    34392    33337    32293    31403    30779    30538 
   30592    30735    30873    30915    30668    30077    29402    28964 
   28933    29396    30303    31356    32265    33016    33771    34645 
   35644    36728    37798    38686    39319    39719    39857    39724 
   39381    38904    38403    38011    37828    37900    38239    38783 
   39309    39575    39530    39240    38777    38275    37886    37681 
   37697    37935    38375    39004    39708    40340    40840    41183 
   41345    41303    41087    40675    39945    38947    37820    36599 
   35380    34326    33550    33133    33115    33452    34030    34792 
   35728    36726    37655    38453    39015    39240    39118    38743 
   38262    37713    37105    36663    36609    36752    36877    37098 
   37200    36725    35780    34634    33340    32038    30921    30072 
   29390    28753    28164    27580    26894    26105    25257    24377 
   23624    23334    23777    24970    26729    28711    30397    31316 
   31262    30234    28413    26181    23978    22160    20971    20526 
   20772    21474    22247    22703    22702    22359    21840    21284 
   20840    20667    20847    21359    22186    23267    24394    25338 
   26001    26438    26749    26986    27220    27553    28034    28645 
   29340    30044    30633    30978    30968    30536    29702    28541 
   27096    25442    23817    22502    21690    21541    22157    23489 
   25283    27191    28913    30212    30992    31310    31255    30943 
   30534    30210    30243    30934    32349    34270    36318    38046 
   39090    39248    38431    36749    34550    32283    30405    29234 
   28827    29022    29506    30006    30396    30596    30569    30315 
   29813    29073    28208    27332    26528    25933    25731    26043 
   26876    28154    29693    31216    32456    33169    33144    32313 
   30829    29026    27345    26174    25774    26386    27850    29371 
   30453    31233    31558    30907    29476    28219    27435    26997 
   27521    29312    31662    33972    36241    38376    39895    40630 
   40902    40820    40295    39562    38944    38400    37826    37411 
   37128    36586    35717    34674    33391    31983    30784    29869 
   29168    28746    28548    28384    28347    28583    29008    29618 
   30361    31027    31630    32419    33327    33801    33600    33080 
   32414    31428    30395    30146    30670    31263    32028    33042 
   33537    32940    31435    29286    26357    22949    19951    17843 
   16723    16787    17990    19739    21324    22412    22786    22167 
   20740    19081    17558    16411    15844    15789    16076    16659 
   17313    17650    17592    17172    16289    15079    13904    12986 
   12424    12266    12459    12909    13518    14195    14846    15505 
   16409    17639    19072    20738    22690    24716    26465    27724 
   28487    28751    28551    28142    27778    27488    27256    27099 
   26919    26549    25926    25156    24476    24124    24264    24992 
   26314    28095    30002    31605    32564    32705    32052    30843 
   29442    28196    27352    27108    27518    28357    29435    30742 
   32158    33374    34172    34729    35134    35127    34805    34480 
   34130    33763    33514    33272    32761    31947    31028    30167 
   29517    29353    29919    31140    32703    34314    35610    36194 
   35982    35125    33662    31692    29537    27444    25586    24259 
   23585    23489    24017    25090    26319    27400    28245    28828 
   29200    29483    29780    30229    30911    31723    32539    33269 
   33801    33994    33746    33165    32404    31573    30953    30739 
   30876    31244    31720    32225    32677    32980    33151    33233 
   33156    32854    32316    31590    30873    30358    30127    30260 
   30756    31421    32074    32637    32946    32876    32431    31543 
   30158    28486    26865    25461    24398    23839    23580    23198 
   22600    21933    21281    20753    20554    20756    21221    21901 
   22970    24465    26067    27495    28610    29204    29266    29137 
   29146    29376    29747    30180    30601    30820    30632    29956 
   28829    27384    25824    24427    23491    23223    23660    24571 
   25608    26503    26962    26850    26446    26178    26331    27030 
   28347    30231    32316    34098    35344    36080    36288    35950 
   35235    34380    33578    33046    33014    33591    34767    36446 
   38405    40315    41899    43044    43762    44072    43977    43529 
   42879    42141    41323    40513    39819    39192    38542    37890 
