Origin Time       2011/03/11 14:46:00
Lat.              38.103
Long.             142.860
Depth. (km)       24
Mag.              9.0
Station Code      NIG023
Station Lat.      37.0134
Station Long.     138.6546
Station Height(m) 245
Record Time       2011/03/11 14:47:43
Sampling Freq(Hz) 100Hz
Duration Time(s)  300
Dir.              N-S
Scale Factor      3920(gal)/6182761
Max. Acc. (gal)   15.656
Last Correction   2011/03/11 14:47:28
Memo.             
[...]
    1479      429     -168     -278     -278     -508     -765     -612 
      88     1000     1718     2423     3472     4461     4743     4393 
    3884     3455     3212     3282     3533     3449     2616     1282 
     110     -635    -1160    -1523    -1535    -1256    -1086    -1293 
   -1766    -2170    -2125    -1423     -239      946     1754     2267 
    2790     3328     3655     3681     3496     3203     2851     2452 
    2005     1614     1490     1681     1888     1660      813     -354 
   -1491    -2615    -3739    -4490    -4521    -3962    -3222    -2525 
   -1780     -949     -378     -454    -1138    -2127    -3304    -4707 
   -6094    -7043    -7738    -8838   -10394   -11777   -12480   -12524 
  -12310   -12018   -11488   -10786   -10112    -9453    -8782    -8346 
   -8547    -9246    -9690    -9448    -8834    -8495    -8837    -9742 
  -10843   -11826   -12370   -12302   -11902   -11669   -11712   -11592 
  -10886    -9639    -8354    -7719    -8098    -9370   -11184   -12995 
  -14137   -14179   -13160   -11379    -9155    -6904    -5081    -3882 
   -3227    -3031    -3386    -4356    -5527    -6075    -5639    -4793 
   -4370    -4766    -5930    -7418    -8591    -9160    -9328    -9432 
   -9640    -9879    -9977    -9794    -9276    -8552    -8018    -8056 
   -8623    -9357   -10020   -10677   -11632   -13124   -14965   -16653 
  -17754   -18057   -17689   -16985   -16168   -15341   -14599   -14063 
  -13850   -13997   -14450   -15107   -15854   -16645   -17613   -18778 
  -19588   -19333   -18070   -16749   -16331   -16948   -17968   -18676 
  -18704   -18072   -17139   -16378   -15993   -15836   -15660   -15400 
  -15233   -15480   -16428   -17965   -19356   -19706   -18692   -16772 
  -14735   -13210   -12491   -12610   -13440   -14620   -15572   -15837 
  -15448   -14757   -13935   -12913   -11683   -10445    -9442    -8676 
   -7826    -6544    -4808    -2835     -981      198      312     -422 
   -1375    -2045    -2422    -2771    -3209    -3660    -4119    -4749 
   -5491    -5913    -5837    -5533    -5271    -4992    -4403    -3549 
   -2939    -2822    -3008    -3386    -4003    -4807    -5671    -6515 
   -7226    -7490    -6993    -5852    -4530    -3467    -2965    -3189 
   -4134    -5581    -7150    -8441    -9127    -8963    -7824    -5912 
   -3831    -2173    -1164     -816    -1180    -2070    -2815    -2826 
   -2213    -1617    -1573    -1988    -2414    -2775    -3333    -4225 
   -5391    -6578    -7394    -7591    -7211    -6598    -6203    -6331 
   -7072    -8119    -8870    -9042    -8769    -8225    -7574    -6951 
   -6282    -5506    -4891    -4868    -5662    -7055    -8590    -9881 
  -10610   -10633   -10184    -9759    -9678    -9799    -9927   -10272 
  -11060   -12040   -12682   -12711   -12326   -11856   -11437   -11100 
  -10825   -10489   -10017    -9599    -9468    -9556    -9637    -9607 
   -9424    -9066    -8812    -9162   -10122   -11064   -11537   -11740 
  -11983   -12141   -12073   -12121   -12613   -13246   -13454   -13035 
  -12148   -10903    -9153    -6844    -4518    -3026    -2763    -3389 
   -4237    -4868    -5227    -5433    -5507    -5291    -4677    -3791 
   -2827    -2026    -1718    -1972    -2399    -2597    -2642    -2860 
   -3310    -3816    -4199    -4395    -4387    -4104    -3658    -3436 
   -3817    -4847    -6141    -7185    -7708    -7892    -8389    -9781 
  -11866   -13789   -14983   -15657   -16226   -16811   -17403   -17965 
  -18405   -18658   -18559   -17818   -16499   -15288   -14920   -15354 
  -15764   -15412   -14299   -13007   -12166   -12064   -12606   -13506 
  -14503   -15399   -15778   -15059   -13292   -11447   -10445   -10338 
  -10650   -11024   -11450   -12042   -12645   -12917   -12674   -11894 
  -10670    -9337    -8388    -8099    -8223    -8306    -8242    -8261 
   -8531    -8935    -9281    -9703   -10425   -11208   -11572   -11373 
  -10912   -10545   -10290    -9991    -9582    -8928    -7899    -6800 
   -6290    -6639    -7403    -7985    -8152    -7917    -7316    -6548 
   -6112    -6292    -6714    -6775    -6300    -5659    -5207    -4843 
   -4296    -3566    -2989    -2921    -3390    -4201    -5067    -5680 
   -5966    -6165    -6571    -7296    -8192    -9084   -10039   -11116 
  -12057   -12577   -12685   -12513   -12035   -11168   -10157    -9532 
   -9526    -9809    -9911    -9713    -9434    -9304    -9485   -10102 
  -10981   -11626   -11707   -11468   -11496   -12045   -12802   -13343 
  -13504   -13336   -12987   -12708   -12717   -12866   -12621   -11553 
   -9820    -8077    -6984    -6914    -7871    -9318   -10449   -10914 
  -11047   -11317   -11784   -12314   -13013   -13941   -14744   -15043 
  -14925   -14830   -15050   -15459   -15791   -15887   -15627   -14977 
  -14133   -13521   -13520   -14109   -14868   -15296   -15123   -14398 
  -13441   -12687   -12278   -11841   -10881    -9301    -7629    -6704 
   -6951    -8087    -9400   -10283   -10611   -10600   -10621   -11098 
  -12128   -13292   -14029   -14180   -14062   -14039   -14220   -14491 
  -14629   -14456   -13913   -13079   -12138   -11284   -10648   -10180 
   -9648    -8848    -7808    -6940    -6764    -7242    -7739    -7619 
   -6651    -5042    -3284    -2046    -1910    -2950    -4633    -6183 
   -7091    -7302    -6995    -6455    -6083    -6209    -6815    -7493 
   -7790    -7607    -7225    -7063    -7411    -8152    -8763    -8756 
   -8177    -7560    -7351    -7601    -8202    -9149   -10512   -12114 
  -13327   -13410   -12138   -10050    -8000    -6462    -5464    -5046 
   -5192    -5554    -5832    -6100    -6521    -7031    -7384    -7505 
   -7552    -7485    -7100    -6637    -6680    -7295    -7888    -8011 
   -7874    -7903    -8249    -8984   -10116   -11150   -11256   -10141 
   -8403    -6875    -5893    -5242    -4655    -4151    -3807    -3610 
   -3679    -4107    -4580    -4669    -4371    -4079    -4228    -5147 
   -6839    -8726   -10010   -10276    -9583    -8471    -7788    -7774 
   -7662    -6585    -4496    -2091     -114     1029     1226      661 
    -268    -1123    -1453     -957      295     1960     3695     5329 
    6672     7282     6883     5865     4897     4323     4134     4249 
    4572     4765     4453     3746     3122     2850     2760     2520 
    1918      974      -47     -939    -1756    -2400    -2399    -1515 
    -302      380      217     -462    -1177    -1768    -2443    -3416 
   -4736    -6414    -8343   -10274   -12070   -13662   -14810   -15174 
  -14612   -13431   -12384   -12144   -12533   -12693   -12372   -12310 
  -13012   -14116   -14979   -15187   -14797   -14104   -13261   -12457 
  -11932   -11611   -11095   -10076    -8592    -6869    -5159    -3648 
   -2368    -1195        7     1132     1829     1674      360    -1810 
   -3742    -4509    -4223    -3519    -2977    -2960    -3438    -4109 
   -4409    -3835    -2686    -1697    -1143     -908     -858     -906 
   -1060    -1570    -2946    -5447    -8507   -11072   -12659   -13618 
  -14282   -14645   -14690   -14359   -13528   -12209   -10554    -8772 
   -7024    -5359    -3885    -2746    -1843    -1029     -413     -238 
    -724    -1908    -3508    -5050    -5974    -5909    -5041    -3990 
   -3083    -2143    -1183     -454       70      690     1641     2637 
    3001     2514     1560      482     -641    -1793    -3056    -4686 
   -6827    -9109   -10685   -10949   -10078    -8593    -6803    -5119 
   -4304    -4815    -6283    -7979    -9536   -10936   -11912   -12044 
  -11477   -10765   -10282    -9924    -9259    -8308    -7523    -7140 
   -7166    -7350    -7205    -6345    -4735    -2716     -961     -209 
    -784    -2317    -4108    -5774    -7398    -9001   -10144   -10379 
   -9817    -8998    -8318    -7665    -6917    -6404    -6508    -7065 
   -7269    -6487    -4829    -2874    -1305     -495     -542    -1381 
   -2412    -2887    -2557    -1629     -506      499     1108      943 
     -61    -1563    -3343    -5372    -7473    -9200    -9920    -9224 
   -7463    -5620    -4411    -3821    -3571    -3458    -3282    -2831 
   -1971     -844      173      667      418     -417    -1344    -1750 
   -1386     -667     -188     -186     -400     -371       -3      505 
    1012     1286     1023      243     -543     -707     -136      731 
    1587     2500     3347     3495     2381      238    -2107    -4143 
   -5875    -7196    -7702    -7286    -6566    -6432    -7319    -9103 
  -11378   -13669   -15431   -16137   -15732   -14631   -13282   -12097 
  -11287   -10744   -10278    -9620    -8543    -7307    -6523    -6492 
   -6965    -7563    -7986    -7988    -7680    -7384    -7167    -6972 
   -6674    -6120    -5419    -4921    -4997    -5654    -6412    -6925 
   -7231    -7205    -6560    -5431    -4258    -3238    -2318    -1547 
   -1120    -1036     -952     -541      -73     -238    -1192    -2225 
   -2616    -2566    -2779    -3399    -4044    -4489    -4806    -5014 
   -4975    -4745    -4654    -4870    -5198    -5532    -6171    -7429 
   -9097   -10547   -11340   -11475   -11232   -10955   -10719   -10402 
  -10116   -10174   -10672   -11267   -11501   -11290   -10827   -10300 
   -9939   -10110   -11132   -12855   -14604   -15715   -15962   -15554 
  -14919   -14490   -14712   -15934   -17949   -19881   -20914   -20997 
  -20564   -19752   -18281   -16157   -14165   -13188   -13254   -13760 
  -14318   -14873   -15377   -15631   -15296   -14300   -12936   -11479 
  -10073    -8688    -7269    -6022    -5164    -4783    -4935    -5345 
   -5567    -5353    -4714    -3959    -3281    -2492    -1504     -610 
    -173     -208     -643    -1720    -3463    -5390    -7084    -8355 
   -9073    -9124    -8475    -7375    -6339    -5819    -5871    -6151 
   -6381    -6644    -7050    -7363    -7273    -6671    -5473    -3487 
    -715     2188     4118     4540     3927     3050     2113      784 
    -883    -2194    -2726    -2704    -2546    -2451    -2416    -2587 
   -3048    -3423    -3394    -3233    -3464    -4055    -4294    -3795 
   -3106    -3173    -4526    -6885    -9453   -11269   -11547   -10351 
   -8657    -7620    -7916    -9470   -11690   -13980   -16069   -17971 
  -19682   -21067   -21936   -22064   -21496   -20749   -20403   -20688 
  -21342   -21768   -21636   -21110   -20563   -20361   -20442   -20341 
  -19860   -19220   -18665   -18353   -18373   -18774   -19563   -20556 
  -21299   -21176   -19959   -18211   -16749   -15997   -15824   -15826 
  -15787   -15739   -15848   -16228   -16726   -17090   -17075   -16315 
  -14512   -11842    -9155    -7478    -7090    -7451    -7952    -8493 
   -9492   -11349   -13916   -16525   -18475   -19418   -19298   -18164 
  -16275   -14359   -13324   -13506   -14483   -15501   -16063   -16262 
  -16316   -16223   -16131   -16242   -16382   -16176   -15367   -13851 
  -11686    -9115    -6579    -4552    -3143    -2105    -1374    -1357 
   -2412    -4247    -6035    -7007    -6992    -6333    -5415    -4529 
   -3849    -3341    -2918    -2597    -2249    -1580     -659       21 
     168       23       29      324      725     1080     1370     1533 
    1375      732     -278    -1298    -1862    -1540     -391     1009 
    2211     3094     3590     3692     3456     2942     2289     1594 
     819       55     -454     -622     -552     -348      -92      110 
     104     -143     -489     -992    -2050    -4025    -7010   -10678 
  -14222   -16900   -18500   -19181   -19202   -18768   -18102   -17627 
  -17836   -18835   -20190   -21304   -21609   -20766   -18956   -16521 
  -13646   -10569    -7744    -5733    -4777    -4591    -4744    -4909 
   -4868    -4591    -4175    -3617    -2745    -1502     -227      764 
    1600     2416     2861     2385      883    -1130    -3006    -4382 
   -5261    -5940    -6765    -7835    -9027   -10277   -11654   -13099 
  -14231   -14554   -13954   -12832   -11670   -10665    -9815    -9146 
   -8735    -8531    -8293    -7823    -7148    -6469    -5983    -5599 
   -5012    -4155    -3321    -2821    -2775    -3101    -3589    -4015 
   -4209    -4063    -3523    -2594    -1425     -344      361      738 
    1077     1516     1951     2177     1966     1187     -226    -2294 
   -4722    -6903    -8385    -9142    -9406    -9527    -9878   -10493 
  -10706    -9468    -6373    -2309     1331     3862     5367     5966 
    5534     3965     1405    -1827    -5420    -9136   -12723   -15767 
  -17858   -18771   -18380   -16743   -14210   -11489    -9341    -8030 
   -7518    -7693    -8133    -8396    -8513    -8932   -10102   -12103 
  -14534   -16899   -19078   -21161   -22965   -23947   -23587   -21834 
  -19273   -16941   -15579   -15113   -15043   -14990   -14731   -14085 
  -13130   -12340   -12194   -12884   -14268   -15768   -16703   -16978 
  -16941   -16809   -16651   -16446   -16072   -15461   -14630   -13708 
  -12944   -12456   -12083   -11584   -10859    -9978    -9161    -8782 
   -9053    -9706   -10288   -10541   -10435   -10043    -9374    -8411 
   -7190    -5695    -3896    -1829      509     3054     5355     6697 
    6725     5688     3981     1849     -397    -2273    -3370    -3759 
   -3866    -3834    -3591    -3386    -3653    -4513    -5714    -6936 
   -7857    -7940    -6686    -4258    -1483      834     2177     2252 
    1091     -819    -2466    -3105    -3089    -2949    -2592    -1845 
    -626     1227     3652     6233     8427     9848    10608    11232 
   12044    13165    14727    16354    17254    17156    16345    15204 
   14053    13062    12351    12010    11954    12014    11903    11177 
    9636     7383     4637     2036      403       97     1000     2545 
    3897     4580     4521     3782     2667     1704     1300     1457 
    1823     2031     1923     1528     1111     1063     1388     1639 
    1568     1492     1695     1829     1397      381     -787    -1530 
   -1483     -545     1016     2365     2768     2401     2193     3005 
    4717     6208     6487     5480     3674     1563     -395    -1696 
   -2015    -1507     -750     -203      189      678     1245     1616 
    1508      901      211     -153     -319     -736    -1601    -2632 
   -3366    -3591    -3365    -2937    -2830    -3483    -4699    -5907 
   -6819    -7622    -8734   -10324   -12107   -13687   -14917   -15823 
  -16368   -16450   -15986   -14989   -13566   -11787    -9803    -8082 
   -7046    -6598    -6219    -5271    -3411     -995     1170     2418 
    2659     2385     2128     1888     1207     -183    -2042    -4023 
   -5992    -7778    -9066    -9655    -9617    -9266    -8810    -8138 
   -7282    -6608    -6216    -5733    -5006    -4411    -4292    -4505 
   -4520    -3986    -3111    -2299    -1946    -2509    -4116    -6232 
   -7991    -8926    -9320    -9719   -10365   -11167   -11794   -11772 
  -10934    -9716    -8535    -7266    -5605    -3563    -1621     -558 
    -916    -2542    -4617    -6173    -6798    -6797    -6614    -6317 
   -5830    -5303    -4785    -4014    -3064    -2547    -2842    -3820 
   -5345    -7432    -9867   -12050   -13555   -14462   -14858   -14697 
  -14200   -13778   -13606   -13294   -12111    -9744    -6513    -3004 
     283     3135     5421     7046     8176     8852     8660     7344 
    5250     2933      841     -802    -2034    -3060    -4245    -5865 
   -7742    -9461   -10922   -12465   -14439   -16707   -18488   -18885 
  -17695   -15649   -14028   -13749   -14647   -15793   -16326   -15874 
  -14494   -12591   -10847    -9935   -10025   -10692   -11418   -11921 
  -12056   -11761   -11197   -10681   -10454   -10630   -11235   -12171 
  -13232   -14066   -14287   -13868   -13165   -12500   -11943   -11350 
  -10673   -10060    -9496    -8759    -7768    -6760    -6215    -6831 
   -9181   -12998   -17164   -20504   -22394   -22800   -21993   -20440 
  -18642   -16757   -14715   -12666   -11079   -10468   -10979   -12389 
  -14481   -17041   -19592   -21553   -22667   -23072   -22926   -22145 
  -20656   -18753   -17110   -16310   -16375   -16937   -17541   -17728 
  -17117   -15461   -12920   -10221    -8174    -7283    -7754    -9410 
  -11703   -13913   -15362   -15870   -15885   -15871   -15838   -15538 
  -14775   -13499   -11987   -10797   -10327   -10580   -11274   -12043 
  -12701   -13220   -13402   -12937   -11724   -10048    -8484    -7379 
   -6615    -6019    -5489    -4818    -3821    -2534    -1018      704 
    2407     3649     4024     3600     3031     2904     3216     3642 
    3951     4026     3705     2855     1695      799      577      895 
    1269     1385     1359     1489     1860     2189     1973      880 
    -905    -2707    -3790    -3892    -3360    -2690    -2088    -1520 
    -951     -512     -510    -1156    -2455    -4525    -7477   -10902 
  -14034   -16313   -17547   -17766   -17156   -16104   -14959   -13768 
  -12560   -11530   -10560    -9211    -7465    -5741    -4405    -3675 
   -3515    -3690    -3982    -4117    -3836    -3095    -2006     -849 
    -115     -205    -1121    -2434    -3565    -4177    -4139    -3517 
   -2775    -2441    -2584    -2899    -3165    -3436    -3925    -4957 
   -6707    -8737   -10312   -11142   -11235   -10555    -9273    -7912 
   -6985    -6601    -6557    -6787    -7454    -8547    -9749   -10741 
  -11352   -11635   -11961   -12631   -13512   -14290   -14741   -14786 
  -14527   -14120   -13717   -13666   -14372   -15815   -17458   -18598 
  -18641   -17324   -15050   -12783   -11466   -11476   -12297   -12856 
  -12365   -10616    -7803    -4511    -1689     -241     -398    -1547 
   -2879    -4057    -5046    -5962    -7113    -8529    -9831   -10771 
  -11390   -11915   -12645   -13588   -14478   -15097   -15145   -14381 
  -12911   -10943    -8807    -6990    -5712    -4827    -4148    -3664 
   -3447    -3342    -2909    -1905     -656      279      643      495 
      30     -600    -1571    -3176    -5287    -7288    -8587    -9156 
   -9367    -9626   -10170   -10750   -10899   -10474    -9643    -8792 
   -8309    -8292    -8728    -9596   -10763   -12164   -13821   -15687 
  -17613   -19280   -20297   -20419   -19633   -18160   -16297   -14186 
  -11835    -9276    -6753    -4677    -3185    -1917     -243     2209 
    5127     7915    10047    11005    10561     8854     6373     4074 
    2742     2336     2374     2347     1846      864     -345    -1760 
   -3543    -5702    -8070   -10298   -11925   -12704   -12687   -12184 
  -11663   -11319   -11119   -11124   -11473   -12424   -14158   -16409 
  -18620   -20250   -20871   -20368   -19160   -18026   -17657   -18221 
  -19309   -20481   -21564   -22419   -22920   -23109   -23039   -22683 
  -22148   -21780   -21855   -22242   -22660   -23003   -23204   -23213 
  -22975   -22223   -20549   -17680   -13771    -9618    -6380    -4834 
   -4978    -6258    -7986    -9659   -10919   -11418   -10980    -9745 
   -8178    -6996    -6753    -7524    -9101   -11052   -12746   -13604 
  -13253   -11931   -10639   -10264   -10764   -11441   -11720   -11556 
  -11218   -10951   -10839   -10692   -10206    -9531    -9352   -10130 
  -11667   -13433   -14996   -16168   -16848   -17091   -17280   -17771 
  -18481   -18982   -18913   -18356   -17741   -17373   -17202   -16956 
  -16503   -15811   -14551   -12445    -9731    -6928    -4560    -2991 
