Origin Time       2011/03/11 14:46:00
Lat.              38.103
Long.             142.860
Depth. (km)       24
Mag.              9.0
Station Code      NIG007
Station Lat.      38.2306
Station Long.     139.4863
Station Height(m) 10
Record Time       2011/03/11 14:47:12
Sampling Freq(Hz) 100Hz
Duration Time(s)  300
Dir.              U-D
Scale Factor      3920(gal)/6182761
Max. Acc. (gal)   24.307
Last Correction   2011/03/11 14:46:57
Memo.             
[...]
  -49824   -50762   -51854   -52977   -54428   -55852   -55952   -53928 
  -51023   -49214   -48937   -48964   -48610   -49167   -51371   -53141 
  -52178   -49443   -48367   -50530   -53581   -54582   -53443   -51798 
  -50367   -48814   -47161   -45076   -41170   -35768   -31847   -31096 
  -31492   -30069   -26692   -23716   -22271   -21312   -20279   -19761 
  -19911   -20389   -21846   -25641   -30809   -34215   -34836   -34191 
  -33025   -30666   -27292   -24794   -24369   -24693   -23587   -20148 
  -15200   -10791    -8542    -7954    -7527    -7259    -8571   -12020 
  -15990   -18430   -19333   -19569   -18948   -17771   -17400   -17895 
  -17867   -17048   -16935   -18548   -21344   -24454   -27345   -29190 
  -29113   -27849   -26978   -26345   -25404   -24826   -25291   -26903 
  -28695   -29879   -32179   -37549   -44616   -50011   -52070   -51839 
  -51262   -51624   -53121   -54937   -55801   -54676   -51849   -49184 
  -47932   -47487   -46983   -46402   -46189   -46508   -46702   -45811 
  -43873   -42216   -42222   -43402   -43184   -40395   -36892   -33575 
  -29041   -23278   -18352   -15931   -15701   -15343   -13458   -11967 
  -13546   -18231   -23734   -27504   -27544   -23290   -17764   -16415 
  -20808   -26008   -26828   -23400   -19082   -16581   -16771   -18670 
  -20975   -23766   -26766   -27963   -26736   -25740   -27299   -29833 
  -29654   -26026   -22450   -21606   -22092   -22202   -23054   -25529 
  -27924   -28790   -28294   -26588   -24038   -21671   -20109   -19020 
  -17706   -16297   -15959   -17364   -19429   -20477   -20522   -21291 
  -23655   -26546   -29055   -31389   -33097   -32819   -30260   -26563 
  -22263   -17138   -12638   -11309   -13654   -17347   -19128   -18212 
  -18186   -23494   -33408   -41753   -44160   -42530   -41054   -41613 
  -43231   -44195   -44838   -46243   -46971   -45405   -43450   -43559 
  -44439   -43506   -41355   -40156   -39496   -37766   -36160   -37321 
  -41035   -44343   -45451   -45471   -45907   -46265   -45729   -45451 
  -47133   -50332   -52578   -52107   -49891   -48196   -47460   -46429 
  -45464   -46528   -49342   -51125   -50180   -47553   -45485   -44758 
  -44019   -42086   -39855   -39077   -40092   -41928   -43126   -41671 
  -36858   -31350   -28860   -30028   -31540   -29985   -26647   -25906 
  -28547   -30843   -30632   -29541   -28929   -28059   -26737   -26298 
  -27118   -26971   -22996   -15436    -8615    -6912   -10213   -15094 
  -19602   -24292   -29803   -35904   -41239   -43612   -42751   -40926 
  -39639   -38678   -37969   -37763   -37542   -36590   -35725   -36409 
  -38248   -39700   -40322   -40484   -40059   -38533   -36362   -35085 
  -35002   -34753   -33552   -32053   -31544   -32197   -32551   -32419 
  -33626   -35998   -36627   -34636   -32946   -34357   -37890   -39992 
  -39333   -38626   -40575   -44584   -47840   -47906   -45519   -43934 
  -44135   -44071   -42305   -39025   -35293   -32311   -29809   -27019 
  -25555   -27809   -32508   -35617   -35624   -34863   -35891   -38132 
  -38601   -35741   -31070   -27394   -26360   -27138   -27752   -27038 
  -25050   -23106   -22805   -24021   -25293   -26185   -27514   -30019 
  -33697   -37453   -40102   -42250   -45335   -49020   -51754   -52614 
  -51290   -48752   -47369   -48026   -48990   -48766   -47580   -45647 
  -42851   -40391   -40456   -43847   -48087   -49087   -46462   -44861 
  -47560   -51662   -52050   -47989   -43950   -43888   -46182   -46452 
  -43591   -40136   -38000   -36117   -32963   -29923   -30155   -34503 
  -39448   -40083   -35463   -29322   -25708   -25574   -27361   -29149 
  -29250   -26661   -22940   -21246   -21985   -22666   -22043   -21278 
  -22180   -24846   -26385   -24373   -20738   -19343   -21379   -24333 
  -25299   -25090   -26403   -29304   -32393   -35464   -37999   -38030 
  -34870   -30903   -28637   -28012   -27744   -27573   -28838   -32536 
  -36158   -35358   -30133   -25457   -25348   -29678   -35657   -39949 
  -40706   -39282   -38972   -41114   -44003   -45317   -43780   -40232 
  -37438   -37023   -37746   -37268   -34621   -31005   -28267   -27205 
  -28046   -31120   -36041   -41673   -46726   -49973   -50726   -48840 
  -45673   -44832   -48130   -52142   -52627   -49854   -46583   -44183 
  -42758   -42253   -42707   -43884   -44407   -42918   -40479   -39416 
  -39981   -40819   -41695   -42960   -43751   -42972   -40888   -38510 
  -36179   -33594   -30653   -27686   -25503   -25302   -27758   -31886 
  -35158   -35982   -36137   -38667   -42948   -45187   -44468   -43933 
  -46007   -49575   -51100   -48589   -44700   -43603   -45302   -46043 
  -44074   -41560   -40538   -40856   -41626   -42102   -42552   -43569 
  -44384   -44868   -46318   -48149   -48338   -46886   -45217   -43700 
  -41752   -39137   -36550   -35542   -36996   -39424   -40509   -39843 
  -38338   -36125   -32860   -29097   -25887   -23844   -22997   -22317 
  -20291   -17281   -15601   -16472   -18818   -21083   -22797   -24819 
  -28019   -31243   -32128   -30360   -28211   -27892   -29600   -31467 
  -31406   -29940   -29394   -30195   -31373   -32809   -34022   -33709 
  -32308   -32632   -36155   -40362   -41616   -39102   -35103   -32567 
  -32402   -33141   -33328   -33080   -33249   -34184   -35947   -39090 
  -43455   -46723   -46212   -41828   -36393   -32994   -32116   -31557 
  -29289   -26284   -24986   -25053   -24254   -22768   -22074   -21799 
  -21298   -21779   -24615   -29291   -34222   -37838   -38569   -36133 
  -32469   -29844   -28569   -27204   -25122   -23865   -24849   -27390 
  -30171   -32374   -32927   -31244   -28874   -28473   -31055   -35166 
  -38534   -40035   -40521   -42268   -46535   -51198   -52259   -48188 
  -42236   -39524   -41514   -44611   -44535   -41168   -38380   -39387 
  -43556   -47356   -47572   -44151   -39429   -35271   -32251   -30097 
  -28553   -27897   -28041   -28750   -30294   -31826   -31656   -30461 
  -30028   -29482   -27350   -24505   -21483   -17296   -13387   -13809 
  -19783   -27639   -32578   -33252   -32580   -34137   -38420   -42160 
  -41541   -37242   -34251   -35834   -39790   -41548   -39708   -36742 
  -34838   -33519   -31938   -30981   -31501   -32559   -33172   -34376 
  -37004   -39098   -38628   -35969   -32800   -31385   -32665   -34058 
  -32189   -27667   -25327   -28743   -35315   -39309   -39226   -38795 
  -40920   -44436   -47624   -50696   -53429   -54580   -54508   -55406 
  -58529   -61986   -62606   -60451   -58484   -57840   -57511   -57413 
  -57920   -58017   -56699   -54678   -53235   -52527   -51359   -48404 
  -44126   -40552   -38454   -37118   -36843   -38393   -41212   -44184 
  -46334   -47145   -46780   -45553   -44482   -45008   -46518   -46604 
  -44590   -42006   -39347   -36377   -34928   -37202   -41944   -44324 
  -41434   -36778   -35193   -36874   -39710   -41734   -40837   -37302 
  -35019   -36450   -38761   -38616   -37610   -38482   -39977   -39670 
  -38064   -37198   -37633   -37862   -36698   -35213   -34280   -32743 
  -29859   -26843   -25436   -26098   -27671   -28832   -29454   -29915 
  -29531   -27215   -23588   -20539   -18791   -17496   -15879   -14123 
  -13017   -13382   -15300   -18054   -21246   -24588   -26874   -27162 
  -26222   -25424   -25037   -24683   -24795   -26273   -28631   -30076 
  -29449   -26747   -23380   -21862   -22401   -22159   -19819   -16866 
  -14705   -14076   -14794   -15057   -13858   -12072   -10552   -10465 
  -13090   -16895   -18376   -16787   -15137   -16220   -19848   -23830 
  -26311   -27492   -28925   -30784   -31092   -28544   -25163   -24579 
  -27934   -32604   -34874   -33539   -31072   -30687   -31863   -31067 
  -27415   -23758   -22196   -22603   -24626   -27772   -30526   -31725 
  -32512   -34976   -38908   -42243   -43620   -42836   -41276   -41535 
  -44530   -48368   -49983   -47945   -44714   -44173   -46804   -49504 
  -49862   -48953   -49219   -51347   -54186   -55878   -54925   -51674 
  -48222   -46004   -44550   -42929   -41248   -40379   -40640   -41397 
  -41854   -41367   -39656   -37498   -36372   -36951   -38364   -38923 
  -38094   -37457   -38229   -39788   -42141   -45916   -49459   -49974 
  -47718   -46745   -49845   -54074   -54705   -51644   -48554   -47452 
  -46872   -45418   -44165   -44161   -45279   -47504   -49867   -50234 
  -47186   -41077   -35100   -33222   -35466   -38542   -39856   -39003 
  -37751   -38364   -40693   -42038   -39941   -34902   -30191   -28244 
  -28545   -29713   -31529   -33851   -35263   -34722   -33258   -32299 
  -31284   -28428   -24057   -21304   -22114   -24841   -27176   -28805 
  -29957   -29967   -28583   -26984   -26494   -27479   -29936   -33527 
  -37201   -39630   -40021   -39691   -41895   -47790   -53895   -55504 
  -51628   -45012   -38756   -34493   -32005   -29892   -27593   -26220 
  -26763   -27896   -26898   -23120   -19448   -19067   -20981   -21389 
  -19238   -17006   -16775   -17990   -19182   -19859   -19289   -16439 
  -12298    -9312    -8342    -7978    -7328    -7812   -10715   -14692 
  -17432   -18656   -19710   -20949   -21392   -20866   -20800   -22018 
  -23319   -23245   -21833   -20375   -20312   -21919   -23672   -24329 
  -25184   -27789   -31037   -32848   -32841   -32127   -32056   -33345 
  -34705   -33160   -28195   -23879   -24375   -28831   -32322   -31412 
  -27460   -24395   -24635   -26839   -27423   -24891   -21021   -17979 
  -17287   -20448   -27506   -35498   -39800   -38511   -34867   -33289 
  -34832   -37152   -37008   -33563   -28821   -24942   -23494   -24658 
  -25807   -24693   -22766   -22626   -24713   -27706   -30029   -30865 
  -31073   -31732   -32141   -31978   -33155   -36517   -39485   -39455 
  -37225   -35356   -34858   -34593   -33474   -32647   -34167   -37658 
  -40637   -41712   -41398   -40410   -38366   -34508   -29693   -26650 
  -27085   -29166   -29832   -28565   -26687   -25048   -24025   -23863 
  -24304   -24767   -25387   -27616   -32173   -36536   -37337   -35022 
  -33138   -34093   -37777   -42039   -44239   -44177   -43395   -42081 
  -40085   -38797   -39153   -40119   -40449   -40205   -40051   -39718 
  -38401   -36673   -35998   -36468   -36721   -35735   -33842   -31837 
  -29812   -28437   -29895   -34561   -39030   -40330   -39453   -38976 
  -39492   -39689   -39019   -38555   -38647   -37700   -34325   -29818 
  -27735   -30095   -34267   -35597   -33031   -29255   -26442   -25154 
  -25480   -26941   -27984   -26878   -24262   -23621   -27804   -35566 
  -41900   -42821   -39794   -37490   -38259   -40713   -42617   -43678 
  -44921   -46355   -46706   -45131   -42321   -39787   -38181   -37260 
  -37503   -39181   -40359   -39103   -36680   -35904   -37121   -37972 
  -36557   -33371   -30715   -30184   -30384   -29050   -26970   -26129 
  -25646   -23927   -22098   -21969   -23268   -24354   -24261   -23637 
  -23578   -24014   -24110   -23733   -23583   -24057   -25008   -26483 
  -28136   -28745   -28302   -28969   -32042   -35640   -37314   -37274 
  -37478   -38868   -39737   -37480   -33299   -31642   -34075   -37903 
  -39884   -39374   -38788   -40074   -41969   -42555   -41893   -41631 
  -43169   -45345   -45812   -44930   -44720   -45151   -44701   -43933 
  -45607   -49662   -51855   -50228   -48289   -49571   -52726   -53519 
  -50593   -47643   -48667   -52393   -53828   -51092   -47170   -44874 
  -44269   -44189   -43179   -40593   -37479   -35100   -33807   -33825 
  -35213   -36840   -37264   -36679   -36042   -35095   -33513   -32393 
  -32474   -32892   -33200   -34072   -35048   -34783   -33711   -33411 
  -34631   -37232   -39982   -41189   -40666   -39217   -36647   -32249 
  -26483   -21584   -20562   -23751   -26999   -25568   -19355   -13111 
  -11310   -13572   -15846   -15562   -13900   -13002   -13961   -16655 
  -18703   -17387   -13396    -9932    -8998   -10007   -11620   -12980 
  -12518    -9741    -7886    -9672   -12720   -12901    -9667    -6357 
   -6613   -10715   -15097   -16388   -14996   -13370   -12741   -12610 
  -12656   -13812   -15728   -15937   -13315    -9611    -7658    -8643 
  -10898   -12443   -13434   -14783   -16416   -18255   -20798   -23739 
  -26360   -28755   -30969   -32467   -32821   -32189   -31444   -31527 
  -32862   -35103   -36696   -36412   -35644   -36933   -40388   -42966 
  -42023   -38713   -36193   -35797   -36263   -36336   -36411   -36682 
  -36710   -36076   -33725   -29903   -27045   -26506   -27434   -28475 
  -28866   -28831   -29200   -30367   -31703   -32003   -30472   -27554 
  -25058   -24563   -25169   -24567   -22601   -20790   -19188   -17241 
  -15946   -16596   -18702   -20309   -20573   -21203   -24102   -28419 
  -31192   -30591   -28001   -26220   -26218   -27284   -28809   -30398 
  -32061   -34126   -36047   -36807   -36858   -37855   -39715   -40438 
  -39606   -39097   -39855   -40169   -38411   -36042   -36149   -39952 
  -44941   -46883   -44900   -42184   -41062   -40926   -40707   -39758 
  -37213   -33331   -30108   -29404   -31668   -35930   -40102   -42120 
  -41639   -40091   -38510   -36333   -33063   -29955   -29113   -31049 
  -33629   -33921   -31042   -26906   -24024   -22946   -22509   -21801 
  -21002   -20814   -21404   -22361   -23502   -24972   -26879   -28955 
  -30233   -29877   -28796   -28690   -29201   -29007   -28578   -28086 
  -26004   -22233   -18658   -16964   -17637   -19467   -20743   -21443 
  -23076   -26778   -32081   -38006   -44379   -50417   -54687   -57568 
  -60431   -63727   -67639   -71510   -73231   -71597   -67687   -63237 
  -59210   -55894   -52884   -49068   -43715   -37869   -34377   -35139 
  -38271   -39798   -38120   -35645   -35342   -36706   -37227   -36125 
  -34587   -33520   -31686   -27645   -23437   -22082   -22653   -22300 
  -20654   -19227   -19127   -20812   -23770   -26015   -25896   -23800 
  -21659   -21770   -24489   -26887   -25810   -22011   -19258   -19368 
  -20329   -19200   -15539   -12017   -11605   -15209   -21436   -26791 
  -28075   -25626   -22530   -20857   -19795   -17755   -15009   -13314 
  -13805   -15897   -18429   -20313   -19898   -17123   -14689   -14371 
  -15066   -14770   -12514    -9027    -6601    -7621   -11298   -13452 
  -12123   -10527   -11929   -14985   -16806   -17485   -19239   -23161 
  -27935   -31040   -31195   -29941   -30174   -32302   -33468   -32123 
  -31119   -33904   -39329   -43059   -43230   -41741   -40924   -41533 
  -42629   -42408   -40734   -39619   -40365   -42725   -46325   -50020 
  -50988   -47310   -41124   -37220   -37852   -40445   -41528   -40628 
  -39429   -39417   -40744   -42589   -44513   -47079   -51035   -55655 
  -58570   -58676   -57976   -59208   -62990   -67599   -70572   -70483 
  -67839   -64738   -63381   -64541   -66605   -66331   -62159   -56270 
  -52237   -51420   -52522   -54373   -56861   -58676   -57933   -55600 
  -54539   -55420   -56869   -58101   -58965   -59299   -58939   -57695 
  -55805   -53812   -52086   -50512   -48319   -45124   -41874   -40363 
  -41755   -44877   -46617   -44771   -40796   -38908   -40765   -43693 
  -45772   -47891   -50085   -50723   -49534   -47763   -45673   -42879 
  -40469   -40092   -41152   -41201   -39437   -37551   -37142   -38240 
  -39599   -39401   -37224   -34676   -32065   -27849   -23609   -23781 
  -28606   -33320   -34227   -31860   -29676   -29532   -28798   -24796 
  -18745   -13115    -9266    -7926    -8656    -9734   -10560   -11779 
  -13090   -14490   -16985   -19895   -21701   -22793   -23991   -24810 
  -24313   -22449   -20620   -20593   -22966   -25982   -26897   -25880 
  -24326   -21612   -18557   -17868   -19260   -19725   -17813   -15461 
  -16090   -20864   -26939   -29259   -25188   -18565   -16528   -21558 
  -29316   -34012   -34478   -34490   -37050   -40801   -42567   -40327 
  -34638   -29430   -28634   -31554   -34575   -35960   -36359   -36667 
  -37531   -39417   -41615   -42604   -42171   -41616   -41615   -41514 
  -40951   -40604   -41145   -42406   -43491   -43253   -40899   -36921 
  -33578   -33470   -36198   -38042   -37189   -35649   -35150   -35630 
  -36694   -37778   -38222   -38061   -37649   -36649   -35216   -34826 
  -35820   -36627   -36092   -34479   -32966   -33250   -36458   -41616 
  -46279   -48608   -48051   -45627   -43038   -40769   -38989   -38294 
  -37929   -36612   -35015   -34802   -36320   -38240   -38831   -37563 
  -35605   -34813   -35589   -35665   -32997   -29417   -28646   -31549 
  -35241   -36501   -35345   -34072   -33725   -33711   -33501   -33144 
  -32713   -31526   -29181   -27213   -27378   -29029   -29947   -29071 
  -27902   -28722   -31336   -33289   -33458   -33178   -33709   -34835 
  -35808   -35700   -33554   -29848   -26788   -25944   -26489   -26538 
  -25504   -24276   -23763   -24192   -24693   -23565   -20739   -18631 
  -19324   -22564   -26184   -27717   -26808   -25504   -25464   -26669 
  -28539   -30121   -29956   -27698   -25453   -25399   -26561   -26593 
  -25578   -25632   -28138   -32845   -38320   -42216   -42814   -41115 
  -39979   -41363   -45014   -48848   -50828   -51230   -52035   -54258 
  -57541   -61189   -63880   -64241   -62502   -60109   -58575   -59129 
  -61256   -61849   -58653   -54091   -52632   -55036   -58150   -59135 
  -57488   -54724   -53183   -53879   -55601   -56227   -54905   -52664 
  -50577   -49056   -48652   -49348   -50114   -50232   -50046   -49880 
  -48780   -45734   -42165   -41015   -43500   -48009   -51443   -51825 
  -49709   -47297   -47142   -49708   -52031   -51532   -49085   -46688 
  -45324   -45291   -45990   -45851   -44168   -42469   -42408   -43190 
  -43089   -42204   -41709   -41946   -42957   -45077   -47600   -48557 
  -46601   -42735   -40101   -41217   -45129   -47770   -45964   -41646 
  -40086   -43419   -48631   -51015   -47825   -40990   -36376   -37760 
  -42267   -43699   -39858   -34961   -33908   -35836   -36158   -33636 
  -31025   -29681   -28745   -28390   -29488   -31376   -32104   -30855 
  -29818   -31675   -35411   -37368   -36162   -34278   -34466   -36401 
  -38220   -38995   -38203   -36148   -34915   -35490   -36145   -35636 
  -35126   -36175   -38671   -41380   -43376   -44180   -43357   -40718 
  -36927   -33780   -32775   -32732   -30958   -27250   -24119   -23593 
  -25582   -28113   -28844   -27151   -24331   -22018   -20673   -19664 
  -18948   -19025   -18992   -17186   -14448   -14188   -18014   -23624 
  -27615   -28741   -28283   -28062   -29074   -31753   -35426   -37523 
  -36201   -33364   -32095   -32578   -32884   -32501   -33124   -35927 
  -39766   -42634   -43894   -44419   -45122   -46380   -48046   -49105 
  -48022   -44649   -41703   -42295   -45886   -48499   -47022   -42379 
  -37814   -35301   -34808   -35028   -34460   -33262   -32887   -33873 
  -35364   -36581   -37767   -38616   -37936   -36161   -34805   -34060 
  -33534   -33102   -32262   -30820   -30150   -31433   -33336   -33864 
  -32765   -31371   -31236   -32737   -35376   -37843   -38278   -36728 
  -35208   -34803   -34741   -34016   -32317   -30151   -28798   -28386 
  -27252   -24883   -23039   -23080   -24374   -25754   -26943   -28696 
  -31984   -35993   -38313   -38603   -39148   -41182   -44014   -46749 
  -48790   -49879   -49847   -48641   -47270   -47144   -48146   -48540 
  -46739   -43376   -40836   -40356   -41535   -43263   -43916   -43243 
