Origin Time       2011/03/11 14:46:00
Lat.              38.103
Long.             142.860
Depth. (km)       24
Mag.              9.0
Station Code      NIG006
Station Lat.      38.4514
Station Long.     139.4963
Station Height(m) 4
Record Time       2011/03/11 14:47:15
Sampling Freq(Hz) 100Hz
Duration Time(s)  283
Dir.              U-D
Scale Factor      3920(gal)/6182761
Max. Acc. (gal)   8.095
Last Correction   2011/03/11 14:47:00
Memo.             
[...]
   -9166    -8392    -8655    -9693   -10711   -11209   -11428   -11269 
  -10530    -9977   -10003    -9908    -9434    -9019    -8587    -7630 
   -6467    -5791    -5339    -5226    -6395    -8051    -8780    -9361 
  -10525   -11389   -11677   -11919   -12032   -11636   -10916   -10283 
   -9800    -9605    -9985   -10855   -11726   -12087   -11985   -11824 
  -11661   -11431   -11101   -10730   -10912   -12069   -13547   -14488 
  -14787   -14518   -13724   -13034   -12857   -12748   -12638   -12760 
  -12753   -12504   -12402   -12462   -12171   -11167   -10138   -10184 
  -11051   -11577   -11497   -11323   -11073   -10413    -9607    -9256 
   -9409    -9720   -10143   -10497   -10146    -9091    -7848    -6558 
   -5465    -4818    -4353    -4046    -4232    -4898    -5774    -6656 
   -7575    -8712    -9803   -10477   -10949   -11288   -11460   -12056 
  -13002   -13327   -12827   -11736   -10003    -7991    -6200    -4803 
   -4198    -4807    -6355    -8165    -9823   -11218   -12074   -11734 
  -10004    -7999    -7284    -7886    -8434    -8730    -9788   -11687 
  -13764   -15469   -16489   -17331   -18443   -18795   -17627   -16104 
  -15008   -13694   -12152   -10851    -9643    -8658    -8276    -8299 
   -8783   -10361   -12773   -14542   -14561   -13050   -11112    -9847 
   -9343    -8789    -7903    -6819    -5130    -2947    -1302     -442 
     -13     -706    -3215    -6598    -9315   -10774   -11719   -13371 
  -15833   -17931   -18853   -18896   -18313   -16894   -14970   -13435 
  -12745   -12776   -13599   -15177   -16659   -17500   -17911   -17786 
  -17063   -16066   -14720   -12887   -10968    -9329    -8091    -7530 
   -8023    -9892   -12752   -15294   -17060   -18577   -19688   -20302 
  -20657   -20166   -18612   -16696   -14436   -11628    -8961    -7235 
   -7014    -8714   -11452   -13237   -13554   -13584   -14034   -14748 
  -15263   -15321   -15204   -14856   -13948   -12920   -12243   -11565 
  -10387    -8783    -7543    -7500    -8628   -10363   -12189   -13539 
  -14158   -14612   -15490   -16411   -16711   -16428   -16073   -15926 
  -15671   -15042   -14444   -14025   -13234   -11938   -10814   -10826 
  -12335   -14370   -15693   -16143   -16120   -15849   -15270   -14159 
  -12705   -11674   -11560   -11816   -11573   -11030   -10975   -11342 
  -11520   -11377   -11274   -11404   -11388   -10737    -9563    -8603 
   -8311    -8374    -8537    -9109   -10540   -12653   -14582   -16194 
  -18068   -19942   -21093   -21208   -20290   -18527   -16174   -13646 
  -11157    -8768    -7184    -6514    -5668    -4591    -3929    -3220 
   -2407    -2554    -3906    -6059    -8956   -11881   -13822   -14988 
  -16032   -16909   -17371   -17477   -17311   -16727   -15671   -14554 
  -13996   -14325   -15535   -17456   -19554   -21083   -21668   -21316 
  -20636   -20700   -21511   -22059   -21951   -21335   -20324   -19293 
  -18601   -18266   -18281   -18639   -19321   -20282   -21194   -21796 
  -21955   -21296   -20009   -18836   -17625   -15855   -13981   -12711 
  -12098   -12075   -12789   -14005   -15181   -16031   -16361   -16234 
  -16087   -16022   -15890   -15783   -16081   -17057   -18135   -18528 
  -18154   -17420   -16992   -17000   -16824   -16396   -16271   -16666 
  -17429   -18517   -19919   -20991   -20845   -19451   -17769   -16905 
  -16644   -16000   -15114   -14224   -12868   -11387   -10454    -9682 
   -8447    -6992    -5937    -5519    -5647    -5958    -6126    -6414 
   -6976    -7281    -7043    -6635    -6408    -6454    -7033    -8280 
   -9673   -10786   -11874   -13154   -14502   -15798   -16704   -16817 
  -16473   -16249   -16172   -16258   -16527   -16532   -15827   -14698 
  -14157   -14664   -15264   -15071   -14526   -14542   -15598   -17328 
  -18453   -18258   -17583   -17452   -17993   -18584   -18249   -16694 
  -14679   -12964   -11713   -10793   -10282   -10616   -11731   -12850 
  -13594   -14319   -15531   -17090   -18229   -18634   -18577   -18247 
  -17668   -16926   -16248   -15718   -15248   -14909   -15070   -16078 
  -17365   -17827   -17385   -16525   -15395   -14407   -13763   -12887 
  -11718   -10890   -10425   -10086   -10416   -11979   -14313   -16374 
  -17586   -18091   -18023   -17370   -16464   -15839   -15739   -15899 
  -16085   -16407   -16439   -15427   -13734   -12488   -12235   -12703 
  -13086   -12917   -12691   -12759   -12807   -12788   -13032   -13704 
  -14391   -14424   -13856   -13074   -12216   -11617   -11282   -10694 
  -10073    -9943   -10049   -10448   -11552   -12832   -13880   -14777 
  -14808   -13640   -12155   -10973   -10151    -9715    -9825   -10621 
  -11578   -12099   -12400   -12533   -12240   -11941   -12127   -12594 
  -12793   -12612   -12755   -13579   -14384   -14479   -13943   -13211 
  -12304   -11138   -10374   -10628   -11530   -12440   -13162   -13675 
  -13756   -13503   -13871   -15573   -17873   -19360   -19483   -18880 
  -18340   -17838   -16816   -15158   -13761   -13324   -13107   -12644 
  -12577   -12863   -13062   -13241   -13166   -12675   -12296   -12398 
  -12894   -13900   -15347   -16384   -16705   -17062   -17657   -18246 
  -19007   -19841   -20465   -20714   -20329   -19806   -19805   -19525 
  -18384   -17229   -16496   -16031   -15559   -14239   -12007    -9876 
   -8221    -7178    -7266    -8191    -9025    -9596   -10184   -10627 
  -10909   -11317   -11509   -11301   -11288   -11388   -11385   -11866 
  -12491   -12581   -12997   -14224   -15291   -15747   -15563   -14146 
  -11726    -9814    -9142    -9129    -9526   -10709   -12666   -14662 
  -15955   -16602   -17036   -17437   -17652   -17109   -15676   -14065 
  -13000   -12826   -13010   -12654   -12148   -12186   -12291   -12006 
  -11598   -11699   -12895   -14608   -15646   -16334   -17694   -19205 
  -19756   -19338   -18502   -17858   -17697   -17432   -16671   -15989 
  -16053   -16803   -17276   -16672   -15484   -14514   -13814   -13009 
  -11723   -10328    -9814   -10134   -10522   -10867   -10805    -9750 
   -8584    -8494    -9378   -11075   -13244   -14333   -13620   -12355 
  -11853   -12335   -13115   -13555   -13823   -14206   -14811   -15713 
  -16601   -17133   -17569   -18387   -19182   -18856   -17494   -16382 
  -16083   -16149   -16061   -15547   -14678   -13841   -13300   -13110 
  -13460   -14415   -15700   -17028   -18023   -18315   -18145   -18120 
  -18207   -17630   -16244   -14933   -13868   -12525   -11344   -10827 
  -10600   -10627   -11032   -11347   -11475   -11993   -12773   -12900 
  -12321   -11619   -10742    -9731    -9108    -8801    -8441    -8386 
   -8933    -9676   -10519   -11582   -12254   -12024   -11444   -11277 
  -11505   -11641   -11374   -10831   -10429   -10111    -9307    -8249 
   -8020    -8730    -9306    -9309    -9364   -10172   -11730   -13001 
  -13090   -12550   -12328   -12298   -11682   -10557   -10076   -10739 
  -12005   -13498   -14771   -15317   -15484   -15514   -14968   -14248 
  -14325   -14987   -15237   -14724   -14031   -13919   -14425   -15236 
  -16262   -17161   -17728   -18260   -18653   -18772   -19047   -19348 
  -18981   -17800   -16184   -14746   -14088   -14357   -15296   -16590 
  -18044   -19372   -20065   -19930   -19372   -18994   -18967   -18701 
  -17489   -15631   -14158   -13341   -12573   -11525   -10384    -9466 
   -8937    -8602    -8527    -9321   -10652   -11243   -11079   -11225 
  -11765   -12118   -12460   -13219   -14163   -14907   -15248   -15171 
  -15159   -15331   -14803   -13046   -10840    -9623   -10155   -11635 
  -12656   -12887   -12881   -12768   -12591   -13065   -14358   -15814 
  -17462   -19366   -20523   -20487   -19986   -19159   -17765   -16614 
  -16309   -16030   -15358   -14936   -14823   -14889   -15729   -17161 
  -17997   -17832   -17070   -16114   -15547   -15567   -15465   -14764 
  -13859   -13270   -13175   -13279   -13243   -13501   -14516   -15764 
  -16782   -17815   -18965   -19934   -20152   -19379   -18415   -17939 
  -17566   -16958   -16250   -15442   -14592   -13786   -12833   -11910 
  -11594   -11975   -12741   -13612   -14253   -14448   -14619   -15372 
  -16518   -17754   -19250   -20666   -21256   -21121   -21211   -22004 
  -22895   -23165   -22749   -22157   -21822   -21458   -20734   -20037 
  -19827   -20113   -20716   -21397   -21839   -21835   -21348   -20436 
  -19428   -18813   -18772   -19193   -19924   -20614   -20601   -19668 
  -18417   -17165   -15809   -14993   -15393   -16603   -17937   -18766 
  -18578   -17618   -16379   -15136   -14106   -12975   -11415   -10082 
   -9750   -10323   -11218   -11840   -11976   -11933   -11719   -10724 
   -8805    -6703    -5185    -4532    -4507    -4685    -5149    -6280 
   -7750    -8718    -9202   -10018   -11305   -12574   -13684   -14760 
  -15772   -16388   -16183   -14914   -12818   -10974   -10221   -10200 
  -10572   -11327   -11967   -12454   -13344   -14097   -13757   -12605 
  -11092    -9340    -7950    -7175    -6762    -6912    -7883    -9464 
  -11072   -12164   -12543   -12169   -11531   -11347   -11431   -11235 
  -10738   -10294   -10163   -10190   -10181    -9987    -9423    -8887 
   -9083   -10131   -11658   -13412   -15266   -16420   -15919   -14279 
  -12695   -11333   -10029    -9236    -9010    -8742    -8661    -9493 
  -10959   -12325   -13209   -13263   -12279   -10650    -9136    -8146 
   -7522    -7082    -6623    -5399    -3075     -928     -313     -902 
   -1956    -3479    -5138    -6425    -7918   -10023   -11707   -12169 
  -11884   -11625   -11912   -12817   -13670   -13570   -12741   -12530 
  -13321   -14208   -14663   -14397   -13309   -12379   -12186   -11783 
  -10759    -9984    -9602    -8761    -7394    -6293    -5869    -5979 
   -6315    -6644    -7017    -7643    -8480    -9157    -9185    -8389 
   -7569    -7820    -8696    -9059    -9188    -9682   -10287   -10914 
  -11272   -10676    -9821    -9907   -10354   -10298   -10115    -9839 
   -9004    -7728    -6330    -5394    -5553    -6552    -7944    -9696 
  -11688   -13875   -15934   -16903   -16428   -15015   -13556   -13250 
  -13792   -13450   -12232   -11477   -11206   -10711   -10153   -10196 
  -10731   -11080   -11277   -11818   -12851   -14213   -15207   -15272 
  -15057   -14926   -14061   -12193   -10010    -8206    -7064    -6280 
   -5465    -4761    -4486    -4458    -4250    -3889    -3543    -3306 
   -3610    -4653    -5939    -7007    -7809    -8434    -9001    -9473 
   -9500    -8949    -8210    -7447    -6375    -5204    -4361    -3553 
   -2617    -2007    -2164    -3457    -5548    -7251    -8178    -8996 
  -10062   -11072   -11394   -10641    -9422    -8635    -8246    -7862 
   -7509    -7286    -7257    -7390    -7582    -7940    -8636    -9882 
  -11621   -13236   -14499   -15609   -16227   -16096   -15679   -15219 
  -14324   -13053   -12046   -11282   -10426    -9807    -9572    -9381 
   -9224    -9328    -9721   -10067    -9882    -9194    -8437    -7888 
   -7715    -7860    -8044    -8549    -9751   -10763   -10813   -11068 
  -12493   -13958   -14333   -13652   -12158   -10658   -10178   -10448 
  -10928   -11938   -13262   -14017   -14210   -14474   -14876   -15131 
  -15273   -15435   -15652   -16016   -16361   -16199   -15468   -14723 
  -14424   -14630   -15124   -15490   -15714   -16271   -17114   -17584 
  -17518   -17298   -17020   -16710   -16674   -16787   -16357   -15233 
  -14229   -14175   -15113   -16722   -18913   -21161   -22337   -22154 
  -21173   -19534   -17361   -15259   -13540   -12092   -10916   -10305 
  -10770   -12351   -14350   -16257   -17895   -19040   -19662   -19592 
  -18649   -17535   -16981   -16568   -15584   -14023   -12415   -11423 
  -11314   -11601   -11862   -12663   -14584   -16892   -18541   -19612 
  -20444   -20586   -19702   -18205   -16465   -14649   -13213   -12351 
  -11477   -10472   -10114   -10410   -10712   -11069   -11536   -11810 
  -11996   -12619   -14201   -16443   -18442   -20017   -21314   -22310 
  -23208   -23723   -23512   -23221   -23125   -22442   -20833   -18696 
  -16245   -13692   -11508    -9705    -8234    -7534    -7454    -7561 
   -8264    -9998   -12609   -15514   -17926   -19747   -21313   -22282 
  -22286   -21566   -20324   -18683   -16992   -15524   -14368   -13676 
  -13613   -13802   -13350   -12212   -11565   -12016   -13097   -14524 
  -15999   -16743   -16694   -16708   -17128   -17723   -18321   -18514 
  -18092   -17554   -17020   -16184   -15563   -15748   -16278   -16664 
  -17115   -17955   -19338   -21031   -22210   -22103   -21010   -19918 
  -19352   -19247   -18851   -17427   -15885   -15303   -14857   -13553 
  -11661    -9600    -7491    -5724    -4621    -3862    -3119    -2682 
   -2985    -4032    -5598    -7549    -9294    -9823    -9259    -8889 
   -8975    -8574    -7644    -7065    -7257    -8314   -10133   -11942 
  -12992   -13684   -14765   -15630   -15276   -14216   -13386   -12651 
  -11793   -11108   -10714   -10574   -10758   -10979   -10585    -9715 
   -9255    -9480   -10419   -12052   -13144   -12700   -11560   -10511 
   -9181    -7473    -6187    -5943    -6558    -7615    -8615    -9275 
  -10335   -12399   -14766   -16577   -17239   -16536   -15516   -15114 
  -14828   -14308   -13750   -13067   -12524   -12237   -11508   -10440 
   -9923    -9911    -9854    -9733    -9721   -10000   -10954   -12309 
  -12983   -12715   -12156   -11429   -10322    -9097    -8324    -8579 
   -9716   -10710   -11253   -11942   -12826   -13753   -14930   -16274 
  -17595   -18879   -20220   -21856   -23543   -24438   -24070   -22756 
  -21061   -19283   -17638   -16123   -14288   -12245   -10780   -10334 
  -10750   -11338   -11764   -12571   -13855   -15306   -17190   -19583 
  -21873   -23192   -23044   -21888   -20595   -19638   -18864   -17480 
  -15169   -13059   -12248   -12168   -11621   -10506    -9599    -9533 
  -10501   -12130   -13556   -14219   -14481   -14879   -14958   -13955 
  -12074    -9929    -8015    -6903    -6452    -5929    -5470    -5665 
   -6440    -7703    -9615   -11742   -13197   -13575   -13085   -12192 
  -11229   -10043    -8595    -7543    -7253    -7201    -7016    -6809 
   -6669    -6769    -7007    -7066    -7405    -8463    -9896   -11447 
  -12707   -13077   -12867   -12813   -12933   -12623   -11433    -9746 
   -8358    -7645    -7571    -7974    -8809   -10061   -11385   -12399 
  -13031   -13326   -13456   -13571   -13399   -12865   -12627   -12870 
  -12706   -11642   -10139    -8578    -7160    -6281    -6070    -6519 
   -7718    -9154   -10110   -10543   -10623   -10663   -10990   -11247 
  -11331   -11604   -11545   -10899   -10665   -10915   -10734   -10338 
  -10159    -9749    -9319    -9686   -10381   -10166    -9106    -8252 
   -7931    -7934    -8030    -7858    -7820    -8846   -10559   -11682 
  -12138   -12835   -13773   -14104   -13617   -12678   -11624   -10982 
  -11052   -11450   -11973   -12831   -13635   -14075   -15005   -16771 
  -18646   -20479   -21954   -22220   -21529   -20409   -18533   -15960 
  -13554   -11969   -11314   -11408   -11765   -12149   -13023   -14733 
  -17249   -20125   -22214   -22860   -22518   -21809   -21374   -21331 
  -20830   -19649   -18284   -16559   -14718   -13612   -12888   -12186 
  -12346   -13457   -14683   -15745   -16508   -16668   -16192   -14967 
  -12959   -10949    -9824    -9378    -8744    -7727    -6952    -6506 
   -5669    -4679    -4660    -5649    -6871    -8022    -9038   -10036 
  -11366   -12571   -12831   -12630   -12710   -12754   -12545   -12220 
  -11445   -10118    -8913    -8091    -7092    -5836    -4888    -4672 
   -5445    -6971    -8483    -9455    -9795    -9815    -9975   -10326 
  -10561   -10332    -9635    -8884    -8291    -7822    -7791    -8610 
   -9920   -11023   -11886   -12574   -12701   -12240   -11582   -10885 
  -10320   -10109    -9968    -9701    -9806   -10466   -10984   -10745 
  -10069    -9617    -9399    -9228    -9117    -9023    -9078    -8934 
   -7869    -6420    -5889    -6792    -8594   -10114   -10657   -10489 
  -10172   -10192   -10671   -11392   -12186   -12687   -12253   -10776 
   -9112    -8064    -7450    -7116    -7557    -8794   -10276   -11707 
  -12990   -14055   -14897   -15546   -16115   -16595   -16702   -16262 
  -15326   -13751   -11750   -10373   -10247   -10895   -11366   -10871 
   -9744    -8999    -8697    -8416    -8273    -8423    -8945   -10012 
  -11110   -11185   -10279    -9586    -9740   -10072    -9637    -8833 
   -8748    -8914    -8328    -7485    -7129    -7279    -7707    -7627 
   -6656    -5742    -5466    -5413    -5127    -4370    -3451    -2779 
   -2254    -2028    -2615    -3883    -4771    -4594    -3868    -3173 
   -2777    -2955    -3582    -4458    -5529    -6547    -7330    -7957 
   -8670    -9781   -11194   -12208   -12179   -10898    -8481    -5642 
   -3179    -1319     -232      135       11    -1062    -3108    -5125 
   -6761    -8018    -8447    -8282    -7917    -6914    -5291    -3742 
   -2584    -2163    -2769    -3646    -4043    -4275    -4311    -3819 
   -3710    -4692    -5811    -6272    -6473    -6822    -7238    -7501 
   -7235    -6255    -5180    -4744    -4873    -5296    -6309    -8165 
  -10278   -11810   -12616   -13056   -13341   -13320   -12946   -12656 
  -12558   -12083   -11054    -9699    -8025    -6561    -6185    -6901 
   -8296    -9896   -10876   -10973   -10537    -9670    -8727    -8200 
   -7808    -7263    -6829    -6496    -6071    -5820    -5971    -6408 
   -7139    -7932    -8027    -7151    -5825    -4673    -4052    -3798 
   -3598    -3682    -4131    -4405    -4293    -3970    -3702    -4169 
   -5471    -6672    -7112    -6788    -6282    -6357    -6661    -6489 
   -6312    -6738    -7475    -8102    -8324    -7877    -7255    -7270 
   -7754    -8173    -8431    -8300    -7733    -7275    -7298    -8053 
   -9598   -10922   -11076   -10536    -9923    -9109    -8133    -7227 
   -6236    -5309    -4998    -5223    -5447    -5409    -5159    -5008 
   -5194    -5557    -5775    -5841    -6133    -6882    -8141    -9921 
  -11762   -13138   -14092   -14673   -14657   -14116   -13400   -12686 
  -12162   -12089   -12311   -12363   -11969   -11003    -9453    -7851 
   -6882    -6155    -4993    -3889    -3422    -3373    -3718    -4724 
   -6118    -7296    -8036    -8305    -8062    -7444    -6352    -4637 
   -2750    -1301     -570     -552     -952    -1274    -1294    -1368 
   -1763    -2317    -2881    -3233    -3354    -3567    -3794    -3748 
   -3376    -2724    -2116    -2028    -2587    -3512    -4286    -4723 
   -5157    -5693    -6033    -6307    -6955    -7686    -7880    -7764 
   -7804    -7621    -7036    -7009    -8053    -9422   -10356   -10498 
   -9998    -9711   -10076   -10726   -11459   -12225   -12556   -12014 
  -10937   -10160    -9936    -9808    -9646    -9529    -8968    -7693 
   -6216    -4796    -3299    -2059    -1537    -1537    -1484    -1263 
   -1353    -2036    -3045    -4038    -4807    -5337    -5858    -6569 
   -7456    -8254    -8700    -8955    -9164    -9114    -8932    -8979 
   -9047    -8634    -7561    -6226    -5186    -4313    -3202    -1927 
    -747       36       75     -561    -1267    -1688    -2161    -2739 
   -3035    -3227    -3580    -3948    -4234    -4260    -4021    -4018 
   -4393    -4678    -4696    -4708    -4890    -5427    -6342    -7041 
