Origin Time       2011/03/11 14:46:00
Lat.              38.103
Long.             142.860
Depth. (km)       24
Mag.              9.0
Station Code      NIG001
Station Lat.      38.2570
Station Long.     138.4318
Station Height(m) 6
Record Time       2011/03/11 14:47:37
Sampling Freq(Hz) 100Hz
Duration Time(s)  249
Dir.              E-W
Scale Factor      3920(gal)/6182761
Max. Acc. (gal)   9.346
Last Correction   2011/03/11 14:47:22
Memo.             
[...]
  -21836   -21301   -20757   -20211   -19762   -19270   -18668   -18032 
  -17340   -16676   -16164   -15738   -15382   -15157   -15057   -15059 
  -15083   -15031   -14892   -14710   -14541   -14398   -14287   -14229 
  -14176   -14101   -14023   -13856   -13521   -13120   -12788   -12510 
  -12227   -11961   -11754   -11676   -11743   -11839   -11971   -12229 
  -12547   -12937   -13455   -13944   -14403   -14920   -15339   -15671 
  -16002   -16169   -16247   -16437   -16621   -16696   -16666   -16541 
  -16502   -16631   -16799   -17038   -17433   -17888   -18374   -18927 
  -19425   -19867   -20465   -21148   -21767   -22433   -23090   -23621 
  -24125   -24553   -24768   -24779   -24598   -24234   -23770   -23344 
  -22975   -22585   -22160   -21691   -21292   -21104   -20968   -20787 
  -20631   -20439   -20268   -20194   -20029   -19736   -19486   -19270 
  -19130   -19245   -19448   -19536   -19662   -19789   -19826   -19847 
  -19635   -19213   -18906   -18594   -18185   -17779   -17331   -17000 
  -16941   -17037   -17284   -17704   -18231   -18819   -19302   -19573 
  -19696   -19687   -19625   -19579   -19478   -19388   -19319   -19112 
  -18890   -18808   -18802   -18947   -19242   -19554   -19906   -20213 
  -20358   -20416   -20345   -20112   -19838   -19424   -18836   -18335 
  -17937   -17533   -17195   -16946   -16869   -17106   -17579   -18147 
  -18694   -19162   -19659   -20213   -20650   -20831   -20740   -20473 
  -20174   -19891   -19558   -19048   -18412   -17962   -17855   -17985 
  -18223   -18468   -18760   -19237   -19820   -20308   -20644   -20923 
  -21239   -21524   -21673   -21773   -21886   -21933   -21961   -22007 
  -21930   -21735   -21556   -21406   -21210   -20879   -20411   -19917 
  -19466   -19061   -18736   -18532   -18513   -18746   -19125   -19486 
  -19828   -20165   -20490   -20892   -21365   -21711   -21847   -21904 
  -22000   -22125   -22184   -22213   -22344   -22588   -22887   -23068 
  -22910   -22488   -22079   -21848   -21693   -21394   -20957   -20654 
  -20682   -20834   -20785   -20508   -20171   -20019   -20074   -20078 
  -19966   -19749   -19522   -19624   -19942   -20049   -19917   -19682 
  -19556   -19646   -19575   -19121   -18597   -18314   -18279   -18269 
  -18097   -17872   -17878   -18229   -18687   -18820   -18565   -18299 
  -18193   -18103   -17918   -17627   -17406   -17501   -17930   -18538 
  -19039   -19320   -19710   -20182   -20353   -20284   -19907   -19181 
  -18657   -18314   -17722   -17107   -16608   -16171   -16026   -16123 
  -16259   -16494   -16904   -17580   -18487   -19351   -20055   -20695 
  -21400   -22220   -23015   -23550   -23663   -23417   -23044   -22612 
  -22068   -21368   -20437   -19521   -18986   -18603   -18014   -17318 
  -16704   -16354   -16350   -16500   -16583   -16529   -16609   -17161 
  -17897   -18322   -18452   -18592   -18845   -18986   -18794   -18397 
  -18102   -18034   -18033   -17948   -17834   -17742   -17624   -17553 
  -17631   -17699   -17598   -17450   -17322   -17197   -17096   -16878 
  -16579   -16590   -16950   -17342   -17660   -17952   -18309   -18847 
  -19433   -19745   -19726   -19592   -19447   -19258   -18929   -18442 
  -18047   -17887   -17974   -18436   -19010   -19331   -19528   -19667 
  -19708   -19735   -19616   -19271   -18911   -18645   -18399   -18070 
  -17594   -17049   -16697   -16831   -17360   -17895   -18323   -18865 
  -19681   -20623   -21342   -21640   -21716   -22007   -22587   -22976 
  -22784   -22197   -21730   -21669   -21722   -21440   -20784   -20184 
  -20169   -20535   -20546   -20119   -19623   -19356   -19540   -19767 
  -19496   -19013   -18853   -19128   -19560   -19726   -19596   -19478 
  -19522   -19708   -19812   -19494   -18925   -18592   -18581   -18734 
  -18800   -18611   -18420   -18491   -18840   -19304   -19549   -19636 
  -19956   -20546   -21272   -21907   -22170   -22320   -22697   -23095 
  -23277   -23180   -22909   -22757   -22787   -22901   -22944   -22807 
  -22728   -22871   -23097   -23194   -22922   -22451   -22118   -21786 
  -21406   -21073   -20627   -20250   -20245   -20443   -20694   -20992 
  -21358   -21918   -22551   -22988   -23193   -23222   -23248   -23366 
  -23294   -22894   -22224   -21409   -20872   -20508   -19789   -18825 
  -17733   -16557   -15726   -15075   -14209   -13321   -12632   -12432 
  -12688   -12786   -12718   -12762   -12891   -13335   -13955   -14253 
  -14446   -14813   -15086   -15247   -15448   -15608   -15854   -16308 
  -16775   -17176   -17412   -17410   -17486   -17725   -17862   -17861 
  -17698   -17383   -17285   -17440   -17424   -17366   -17607   -17970 
  -18453   -19081   -19487   -19852   -20560   -21361   -22119   -22840 
  -23355   -23837   -24443   -24980   -25366   -25542   -25508   -25562 
  -25718   -25664   -25451   -25324   -25372   -25692   -26211   -26610 
  -26806   -26911   -26826   -26449   -25884   -25217   -24492   -23840 
  -23312   -22815   -22333   -21883   -21413   -21002   -20800   -20780 
  -20804   -20747   -20542   -20305   -20187   -20094   -19981   -20018 
  -20162   -20215   -20190   -20064   -19756   -19399   -19074   -18717 
  -18288   -17714   -17138   -16832   -16721   -16730   -17006   -17544 
  -18348   -19471   -20689   -21742   -22619   -23411   -24099   -24529 
  -24662   -24599   -24389   -24105   -23803   -23459   -23015   -22389 
  -21641   -20924   -20300   -19789   -19372   -19026   -18831   -18872 
  -19035   -19175   -19421   -19885   -20462   -21143   -21849   -22322 
  -22546   -22556   -22235   -21722   -21150   -20367   -19453   -18621 
  -17843   -17152   -16587   -16098   -15807   -15677   -15526   -15455 
  -15420   -15288   -15270   -15393   -15515   -15864   -16505   -17091 
  -17485   -17779   -18035   -18369   -18791   -19114   -19288   -19452 
  -19709   -20015   -20212   -20283   -20497   -21068   -21870   -22658 
  -23258   -23652   -24062   -24613   -25156   -25612   -26013   -26307 
  -26500   -26646   -26558   -26034   -25293   -24659   -24098   -23429 
  -22523   -21395   -20367   -19630   -18880   -17929   -16968   -16176 
  -15702   -15541   -15349   -15092   -15064   -15157   -15236   -15368 
  -15343   -15154   -15129   -15242   -15415   -15757   -16195   -16718 
  -17385   -18046   -18658   -19255   -19768   -20294   -20945   -21637 
  -22281   -22897   -23584   -24353   -25024   -25463   -25770   -26061 
  -26269   -26302   -26098   -25600   -24928   -24282   -23703   -23111 
  -22464   -21849   -21401   -21210   -21248   -21312   -21280   -21229 
  -21125   -20799   -20233   -19531   -18821   -18296   -18015   -17854 
  -17774   -17664   -17389   -17100   -16862   -16574   -16255   -15920 
  -15620   -15408   -15148   -14778   -14426   -14237   -14289   -14500 
  -14744   -14961   -15147   -15342   -15460   -15425   -15360   -15331 
  -15335   -15426   -15647   -16088   -16801   -17653   -18545   -19509 
  -20525   -21517   -22402   -23134   -23838   -24591   -25246   -25825 
  -26455   -27064   -27613   -28089   -28361   -28493   -28650   -28752 
  -28779   -28856   -28870   -28779   -28711   -28484   -28000   -27455 
  -26749   -25734   -24557   -23330   -22094   -20876   -19745   -18786 
  -17969   -17369   -17118   -17068   -17115   -17340   -17722   -18221 
  -18794   -19250   -19418   -19338   -19191   -19114   -19112   -19176 
  -19309   -19465   -19654   -19953   -20340   -20749   -21184   -21625 
  -21986   -22212   -22249   -21938   -21240   -20413   -19660   -19003 
  -18451   -17995   -17747   -17798   -17993   -18247   -18523   -18786 
  -19179   -19670   -20124   -20494   -20589   -20357   -19876   -19144 
  -18427   -17928   -17625   -17670   -17992   -18327   -18711   -19120 
  -19416   -19649   -19769   -19666   -19395   -18973   -18437   -17912 
  -17424   -17013   -16721   -16559   -16647   -16955   -17209   -17311 
  -17482   -17947   -18565   -19014   -19246   -19432   -19711   -20086 
  -20467   -20803   -21016   -21091   -21175   -21284   -21257   -21025 
  -20834   -20941   -21210   -21411   -21356   -20944   -20496   -20237 
  -19978   -19556   -18947   -18367   -17992   -17690   -17424   -17126 
  -16786   -16780   -17202   -17815   -18602   -19578   -20678   -21876 
  -23099   -24115   -24674   -24847   -24923   -24958   -24847   -24566 
  -24089   -23557   -23254   -23048   -22620   -22027   -21446   -20970 
  -20599   -20163   -19534   -18771   -18034   -17511   -17209   -16975 
  -16818   -16870   -17091   -17338   -17583   -17803   -17970   -18295 
  -18864   -19341   -19605   -19761   -19695   -19423   -19077   -18573 
  -17891   -17153   -16474   -15888   -15246   -14514   -13909   -13509 
  -13238   -13055   -12909   -12836   -12879   -12963   -13128   -13480 
  -14026   -14743   -15517   -16235   -16842   -17200   -17383   -17628 
  -17879   -18038   -18180   -18318   -18398   -18462   -18565   -18610 
  -18627   -18881   -19462   -20219   -20933   -21463   -21861   -22234 
  -22637   -22933   -22937   -22840   -22922   -23185   -23530   -23874 
  -24203   -24535   -24859   -25094   -25078   -24816   -24341   -23537 
  -22607   -21860   -21159   -20380   -19689   -19164   -18782   -18610 
  -18699   -18920   -19227   -19736   -20308   -20655   -20694   -20464 
  -20021   -19470   -18940   -18394   -17716   -17078   -16629   -16226 
  -15799   -15367   -14957   -14729   -14724   -14759   -14763   -14870 
  -15179   -15654   -16195   -16753   -17258   -17595   -17862   -18216 
  -18536   -18729   -18814   -18678   -18366   -18051   -17673   -17162 
  -16608   -16143   -15853   -15679   -15554   -15485   -15440   -15382 
  -15301   -15277   -15428   -15732   -16124   -16549   -17020   -17647 
  -18432   -19264   -20011   -20567   -21001   -21381   -21601   -21669 
  -21750   -21838   -21836   -21767   -21618   -21373   -21106   -20918 
  -20984   -21352   -21821   -22320   -22917   -23529   -24081   -24609 
  -25092   -25437   -25569   -25577   -25550   -25386   -25100   -24831 
  -24542   -24281   -24189   -24149   -24018   -23886   -23780   -23565 
  -23254   -23011   -22839   -22622   -22412   -22290   -22135   -21893 
  -21624   -21236   -20720   -20188   -19620   -19107   -18723   -18280 
  -17764   -17285   -16846   -16557   -16420   -16350   -16391   -16448 
  -16494   -16622   -16695   -16767   -17032   -17368   -17722   -18077 
  -18319   -18556   -18837   -19015   -19099   -19249   -19573   -19986 
  -20403   -20925   -21565   -22238   -22937   -23616   -24238   -24820 
  -25245   -25423   -25468   -25388   -25089   -24580   -23810   -22840 
  -21911   -21102   -20526   -20330   -20401   -20686   -21191   -21736 
  -22235   -22665   -22903   -22938   -22827   -22650   -22582   -22584 
  -22573   -22710   -22971   -23285   -23775   -24299   -24686   -25021 
  -25265   -25460   -25783   -26160   -26407   -26367   -26002   -25389 
  -24466   -23236   -21945   -20858   -20153   -19758   -19458   -19260 
  -19234   -19359   -19709   -20164   -20390   -20395   -20339   -20309 
  -20442   -20622   -20635   -20555   -20454   -20362   -20358   -20341 
  -20257   -20367   -20743   -21095   -21260   -21231   -21003   -20726 
  -20573   -20530   -20588   -20826   -21223   -21693   -22185   -22538 
  -22595   -22441   -22189   -21829   -21351   -20780   -20251   -19951 
  -19936   -20175   -20629   -21295   -22112   -22937   -23740   -24516 
  -25158   -25669   -26077   -26318   -26363   -26124   -25471   -24467 
  -23325   -22204   -21135   -20139   -19334   -18799   -18451   -18164 
  -17919   -17794   -17847   -18067   -18345   -18495   -18358   -18012 
  -17736   -17471   -17006   -16660   -16638   -16679   -16779   -16998 
  -17163   -17255   -17270   -17210   -17187   -17147   -17059   -17027 
  -17034   -17081   -17213   -17332   -17427   -17612   -17899   -18291 
  -18761   -19238   -19815   -20557   -21366   -22208   -23057   -23785 
  -24315   -24639   -24702   -24503   -24132   -23632   -23017   -22337 
  -21605   -20913   -20457   -20263   -20139   -19968   -19775   -19541 
  -19235   -18809   -18126   -17270   -16538   -16015   -15612   -15165 
  -14616   -14193   -14016   -14083   -14443   -14958   -15498   -16092 
  -16718   -17302   -17758   -18026   -18128   -18155   -18207   -18312 
  -18465   -18631   -18818   -19100   -19371   -19508   -19548   -19504 
  -19518   -19700   -19841   -19902   -20032   -20228   -20431   -20497 
  -20376   -20178   -19922   -19665   -19470   -19326   -19309   -19401 
  -19589   -20018   -20578   -21090   -21619   -22124   -22503   -22754 
  -22816   -22702   -22458   -22067   -21601   -21095   -20534   -20094 
  -19891   -19816   -19863   -20131   -20500   -20830   -21216   -21644 
  -21996   -22325   -22634   -22871   -23085   -23224   -23265   -23354 
  -23533   -23779   -24167   -24629   -24953   -25063   -24928   -24468 
  -23744   -22896   -21941   -20892   -19872   -18950   -18041   -17131 
  -16371   -15880   -15715   -15832   -15979   -16065   -16287   -16682 
  -17142   -17606   -18140   -18951   -19957   -20882   -21755   -22549 
  -23114   -23537   -23740   -23420   -22546   -21276   -19752   -18205 
  -16848   -15685   -14708   -14073   -13803   -13814   -14165   -14800 
  -15551   -16361   -17115   -17646   -17857   -17747   -17392   -16894 
  -16398   -15996   -15774   -15847   -16225   -16919   -17810   -18602 
  -19308   -19996   -20516   -20886   -21152   -21218   -21129   -21113 
  -21314   -21690   -22128   -22515   -22862   -23303   -23828   -24408 
  -25150   -26065   -27113   -28267   -29384   -30461   -31641   -32818 
  -33742   -34294   -34400   -34058   -33366   -32333   -30968   -29529 
  -28351   -27618   -27303   -27186   -27049   -26843   -26601   -26270 
  -25723   -24979   -24130   -23187   -22245   -21386   -20562   -19766 
  -19003   -18358   -17997   -17875   -17819   -17769   -17665   -17490 
  -17353   -17211   -16990   -16807   -16763   -16946   -17311   -17600 
  -17919   -18436   -18899   -19217   -19414   -19457   -19565   -19790 
  -19979   -20115   -20259   -20592   -21127   -21590   -21853   -21907 
  -21783   -21621   -21436   -21168   -20910   -20725   -20648   -20842 
  -21268   -21626   -21817   -21950   -22221   -22638   -22762   -22415 
  -21901   -21277   -20552   -19874   -19087   -18151   -17403   -16956 
  -16621   -16263   -15785   -15191   -14690   -14444   -14418   -14489 
  -14532   -14624   -14947   -15463   -16042   -16633   -17205   -17852 
  -18678   -19474   -20045   -20639   -21373   -22036   -22661   -23197 
  -23431   -23573   -23746   -23849   -24047   -24282   -24384   -24589 
  -24972   -25344   -25636   -25736   -25606   -25472   -25404   -25126 
  -24541   -23890   -23341   -22974   -22865   -22939   -23205   -23719 
  -24296   -24789   -25176   -25358   -25298   -25122   -24948   -24855 
  -24878   -24898   -24956   -25234   -25583   -25778   -25750   -25433 
  -24996   -24614   -24162   -23605   -23058   -22546   -22044   -21477 
  -20762   -19967   -19203   -18469   -17742   -17033   -16321   -15597 
  -14905   -14290   -13758   -13306   -13006   -12994   -13339   -13987 
  -14762   -15404   -15879   -16407   -17033   -17646   -18180   -18588 
  -18910   -19173   -19334   -19409   -19343   -19146   -19000   -18978 
  -19108   -19458   -20014   -20779   -21680   -22551   -23330   -23972 
  -24419   -24692   -24803   -24736   -24501   -24243   -24134   -24001 
  -23607   -23118   -22676   -22257   -22022   -21996   -22048   -22192 
  -22402   -22663   -22858   -22759   -22463   -22010   -21331   -20702 
  -20186   -19679   -19346   -19212   -19318   -19787   -20387   -20997 
  -21715   -22425   -22967   -23303   -23486   -23584   -23583   -23473 
  -23246   -22925   -22542   -22092   -21704   -21405   -21078   -20817 
  -20696   -20727   -21074   -21653   -22218   -22801   -23397   -23912 
  -24411   -24857   -25196   -25526   -25866   -26208   -26515   -26690 
  -26827   -27014   -27091   -26981   -26757   -26416   -25878   -25148 
  -24319   -23490   -22822   -22416   -22186   -22046   -21999   -22083 
  -22264   -22318   -22018   -21353   -20384   -19244   -18126   -17021 
  -15928   -15058   -14506   -14184   -14041   -14070   -14256   -14598 
  -15116   -15769   -16448   -17074   -17583   -17929   -18147   -18275 
  -18351   -18490   -18776   -19231   -19887   -20732   -21692   -22704 
  -23655   -24420   -24967   -25260   -25286   -25121   -24762   -24286 
  -23926   -23740   -23707   -23790   -23877   -23962   -23929   -23586 
  -23021   -22370   -21713   -21148   -20649   -20207   -19880   -19632 
  -19392   -19223   -19185   -19215   -19378   -19663   -19784   -19676 
  -19426   -19019   -18577   -18209   -17941   -17833   -17868   -18058 
  -18457   -19031   -19679   -20241   -20668   -21015   -21304   -21581 
  -21886   -22289   -22857   -23530   -24306   -25208   -26093   -26795 
  -27304   -27712   -27972   -27983   -27802   -27486   -27185   -27027 
  -26757   -26201   -25571   -25030   -24525   -23890   -23013   -22102 
  -21503   -21226   -21110   -21158   -21224   -21220   -21412   -21689 
  -21681   -21421   -20929   -20224   -19591   -19030   -18281   -17338 
  -16369   -15567   -15045   -14691   -14342   -14059   -14065   -14416 
  -14899   -15263   -15500   -15815   -16267   -16655   -16808   -16700 
  -16314   -15782   -15316   -14853   -14387   -14137   -14103   -14351 
  -15029   -15841   -16598   -17438   -18299   -19131   -19823   -20019 
  -19776   -19402   -18834   -18088   -17372   -16684   -16131   -15937 
  -16034   -16166   -16176   -16130   -16106   -16075   -16087   -16041 
  -15864   -15896   -16159   -16295   -16231   -15900   -15370   -15036 
  -14854   -14586   -14369   -14374   -14769   -15591   -16504   -17298 
  -17974   -18484   -18865   -19161   -19237   -18984   -18570   -18289 
  -18205   -18217   -18247   -18251   -18357   -18697   -19133   -19523 
  -19842   -20092   -20391   -20771   -21030   -21099   -21112   -21185 
  -21436   -21839   -22280   -22782   -23233   -23503   -23740   -23946 
  -24023   -24051   -24082   -24190   -24321   -24248   -23966   -23606 
  -23312   -23146   -22973   -22762   -22600   -22570   -22729   -22887 
  -22845   -22670   -22438   -22259   -22229   -22271   -22346   -22409 
  -22316   -22054   -21720   -21324   -20833   -20353   -20087   -20040 
  -20099   -20351   -20837   -21344   -21721   -21909   -21804   -21392 
  -20669   -19634   -18485   -17346   -16219   -15269   -14576   -14104 
  -13953   -14042   -14145   -14202   -14174   -14074   -13991   -13977 
  -14220   -14809   -15539   -16367   -17308   -18221   -19169   -20191 
  -21072   -21756   -22218   -22277   -21935   -21306   -20444   -19485 
  -18615   -17961   -17614   -17643   -18033   -18658   -19402   -20232 
  -21120   -21919   -22484   -22967   -23538   -24097   -24533   -24837 
  -25111   -25508   -25922   -26183   -26319   -26351   -26334   -26417 
  -26603   -26757   -26861   -26954   -26896   -26581   -26063   -25199 
  -23913   -22558   -21384   -20340   -19448   -18761   -18330   -18260 
  -18475   -18830   -19315   -19869   -20384   -20819   -21140   -21325 
  -21312   -21044   -20560   -19904   -19197   -18588   -18088   -17744 
  -17549   -17389   -17260   -17094   -16818   -16551   -16302   -16028 
  -15828   -15689   -15514   -15411   -15590   -16047   -16650   -17350 
  -18051   -18605   -18948   -19045   -18979   -18931   -18999   -19238 
  -19570   -19836   -20116   -20521   -20849   -20897   -20759   -20595 
