Origin Time       2011/03/11 14:46:00
Lat.              38.103
Long.             142.860
Depth. (km)       24
Mag.              9.0
Station Code      NIG016
Station Lat.      37.6458
Station Long.     138.7730
Station Height(m) 32
Record Time       2011/03/11 14:47:36
Sampling Freq(Hz) 100Hz
Duration Time(s)  291
Dir.              E-W
Scale Factor      3920(gal)/6182761
Max. Acc. (gal)   17.867
Last Correction   2011/03/11 14:47:21
Memo.             
[...]
   14023    13787    13588    13455    13345    13027    12366    11444 
   10478     9586     8766     8090     7695     7672     7916     8163 
    8230     8085     7757     7295     6725     6056     5345     4700 
    4243     4067     4191     4585     5141     5659     5966     5962 
    5470     4310     2575      588    -1335    -2872    -3720    -3768 
   -3057    -1760     -242     1164     2371     3492     4638     5723 
    6655     7528     8465     9531    10741    11994    13083    13823 
   14130    13972    13501    13066    12934    13197    13799    14588 
   15437    16289    17085    17791    18441    19033    19493    19619 
   19151    18107    16721    15202    13761    12570    11857    11841 
   12484    13607    15008    16389    17547    18488    19236    19810 
   20391    21209    22320    23599    24687    25175    24994    24400 
   23705    23107    22686    22523    22580    22640    22538    22199 
   21566    20668    19557    18268    16831    15278    13670    12048 
   10463     9066     8016     7443     7371     7665     8180     8753 
    9236     9567     9648     9469     9188     8943     8889     9092 
    9394     9731    10216    10872    11693    12782    14090    15246 
   15981    16369    16570    16609    16425    16115    15953    16185 
   16882    17861    18760    19221    19062    18366    17399    16418 
   15561    14821    14021    12993    11801    10594     9474     8437 
    7426     6661     6454     6771     7397     8174     8951     9532 
    9800     9816     9739     9712     9785     9890     9938     9882 
    9713     9520     9470     9627     9989    10562    11333    12259 
   13190    13987    14595    14852    14710    14401    14162    14173 
   14464    15007    15934    17121    18082    18590    18664    18256 
   17518    16724    15947    15239    14749    14639    15019    15797 
   16691    17416    17813    17903    17812    17679    17530    17266 
   16854    16303    15605    14805    13948    13073    12212    11442 
   11004    11021    11384    12027    12843    13672    14500    15357 
   16101    16550    16721    16652    16287    15746    15180    14589 
   14072    13781    13729    13857    14205    14816    15523    16177 
   16726    17016    16961    16614    16023    15281    14435    13467 
   12447    11439    10545    10104    10451    11631    13471    15636 
   17704    19404    20683    21595    22175    22386    22254    21913 
   21494    21120    20854    20724    20803    21012    21175    21366 
   21737    22378    23414    24732    25985    26890    27264    27060 
   26360    25331    24220    23197    22251    21352    20520    19786 
   19136    18411    17437    16302    15241    14303    13415    12624 
   12080    11949    12433    13639    15369    17262    18952    20071 
   20485    20382    19923    19245    18548    17915    17476    17398 
   17613    17968    18338    18626    18840    18999    19187    19569 
   20038    20305    20340    20247    20074    19864    19564    19113 
   18566    17950    17389    17173    17509    18458    19883    21416 
   22801    23992    24886    25389    25472    25112    24331    23159 
   21668    20036    18534    17448    16780    16288    15852    15425 
   14884    14179    13432    12709    11960    11227    10587    10060 
    9667     9305     8878     8541     8578     9107    10091    11532 
   13310    15095    16587    17558    17943    17850    17347    16531 
   15576    14523    13239    11759    10318     9029     8049     7641 
    7745     8165     8793     9398     9813    10015     9925     9516 
    8825     7951     7278     7143     7472     8197     9339    10631 
   11755    12627    13179    13293    12976    12450    12040    12025 
   12473    13172    13909    14566    15002    15299    15744    16466 
   17509    18930    20627    22442    24236    25828    27029    27694 
   27964    28138    28141    27899    27705    27717    27892    28084 
   28050    27793    27440    26921    26174    25226    24124    22939 
   21678    20330    18881    17349    15851    14378    12822    11181 
    9488     7867     6545     5614     5079     4971     5251     5821 
    6612     7513     8402     9334    10448    11676    12816    13792 
   14666    15484    16178    16737    17321    17956    18496    18879 
   19155    19483    19970    20464    20786    20918    20946    20991 
   21153    21415    21588    21443    20817    19742    18596    17720 
   17165    17042    17491    18398    19539    20691    21575    21923 
   21499    20152    18074    15763    13677    12180    11471    11493 
   12145    13325    14797    16256    17516    18640    19643    20298 
   20540    20482    20102    19466    18775    18109    17480    16970 
   16787    17168    18142    19490    20820    21851    22612    23064 
   23102    22875    22537    22191    21921    21657    21378    21092 
   20778    20616    20770    21154    21613    22065    22480    22736 
   22632    22132    21286    20026    18346    16458    14716    13477 
   12817    12480    12316    12398    12692    13107    13686    14500 
   15497    16476    17258    17758    17889    17594    16911    15995 
   15069    14163    13179    12250    11561    11076    10768    10536 
   10106     9457     8804     8393     8436     8851     9459    10195 
   10928    11612    12362    13309    14483    15666    16541    16918 
   16671    15851    14874    14169    13811    13705    13703    13528 
   12937    11832    10311     8753     7450     6326     5312     4575 
    4428     5045     6283     7912     9770    11774    13868    15877 
   17612    18986    19855    19996    19336    18202    17139    16456 
   16275    16733    17782    19143    20476    21540    22292    22766 
   23052    23323    23704    24184    24571    24647    24387    23799 
   22834    21632    20393    19152    17984    17022    16323    15872 
   15504    15060    14594    14164    13694    13052    12116    10900 
    9630     8631     8136     8262     8991    10152    11661    13422 
   15123    16533    17579    18077    17892    17200    16313    15389 
   14412    13365    12388    11651    11198    11058    11238    11694 
   12413    13326    14334    15427    16498    17339    17868    18093 
   18104    18064    18031    17892    17408    16511    15419    14300 
   13284    12584    12197    11971    11961    12282    12912    13713 
   14490    15079    15374    15385    15235    15129    15257    15606 
   16073    16562    16926    17101    17060    16757    16279    15653 
   14846    14154    13848    13785    13863    14116    14353    14538 
   14863    15194    15360    15448    15399    15053    14477    13818 
   12990    11974    11117    10701    10857    11745    13274    14987 
   16399    17276    17515    17102    16202    14922    13364    11806 
   10433     9410     8915     8904     9245     9700     9965     9913 
    9503     8903     8424     8126     8068     8344     8783     9307 
    9954    10487    10720    10818    10938    11073    11215    11435 
   11769    12135    12411    12440    12230    12033    12125    12777 
   14041    15634    17368    19115    20567    21530    22053    22258 
   22250    22052    21656    21098    20393    19487    18404    17345 
   16433    15659    15089    14773    14676    14649    14366    13583 
   12246    10494     8710     7161     5957     5329     5240     5384 
    5605     5787     5837     5676     5367     5238     5392     5707 
    6264     7142     8184     9233    10185    10786    10985    11083 
   11152    11204    11414    11695    11922    12200    12547    12851 
   13110    13474    13990    14452    14711    14795    14734    14550 
   14324    14051    13646    13235    13044    13076    13281    13654 
   13990    14120    14140    14110    13990    13750    13354    12944 
   12763    12979    13667    14736    16057    17436    18496    19034 
   19051    18508    17493    16249    14897    13453    12049    10792 
    9598     8459     7563     6986     6620     6338     6025     5599 
    5096     4631     4228     3900     3874     4375     5313     6508 
    7918     9412    10662    11539    12246    12867    13337    13727 
   14045    14218    14366    14573    14647    14424    13971    13398 
   12747    12190    12017    12295    12818    13393    13980    14493 
   14734    14639    14244    13643    13129    12896    12824    12681 
   12262    11465    10402     9368     8529     7849     7344     6996 
    6650     6111     5284     4326     3442     2825     2721     3180 
    4025     4966     5799     6644     7754     9271    11067    12814 
   14295    15264    15517    15218    14505    13485    12521    11786 
   11237    11015    11283    11989    12937    13959    14898    15583 
   16068    16562    17063    17466    17670    17386    16345    14510 
   11924     8859     5825     3234     1352      340      218      900 
    2129     3506     4665     5316     5307     4714     3750     2639 
    1515      371     -782    -1873    -2851    -3603    -3951    -3675 
   -2618     -879     1329     3702     5797     7330     8209     8355 
    7816     6769     5445     4344     4004     4475     5530     6939 
    8360     9515    10349    10941    11443    11878    12050    11775 
   11013     9816     8242     6338     4267     2321      778     -245 
    -737     -704     -173      778     1943     3137     4293     5309 
    6127     6825     7472     8084     8450     8160     7063     5431 
    3770     2635     2435     3237     4752     6598     8541    10417 
   12059    13342    14047    13910    12916    11318     9489     7784 
    6328     5081     3986     3008     2170     1496     1153     1370 
    2069     3088     4455     6071     7578     8576     8832     8409 
    7573     6547     5556     4872     4530     4498     4982     6034 
    7464     9246    11296    13252    14738    15494    15434    14673 
   13369    11709     9976     8495     7473     6861     6594     6912 
    8009     9598    11249    12683    13726    14526    15347    16198 
   16977    17391    17044    15932    14278    12341    10522     9045 
    7874     7009     6478     6328     6596     7131     7682     8065 
    8179     7973     7526     6955     6258     5500     4760     4016 
    3482     3449     3767     4149     4521     4816     5029     5339 
    5875     6624     7449     8112     8400     8289     7900     7337 
    6789     6498     6508     6827     7482     8357     9343    10326 
   11089    11587    11942    12260    12689    13266    13821    14322 
   14796    14969    14500    13327    11467     8996     6350     4009 
    2104      714      -62     -271      -22      464      869     1003 
     975     1035     1193     1416     1892     2576     3227     3885 
    4545     4966     4997     4611     3967     3382     3183     3682 
    4976     6815     8834    10823    12670    14173    15163    15610 
   15477    14681    13162    11061     8802     6865     5530     4758 
    4336     4078     3774     3221     2327     1173      -29    -1185 
   -2299    -3199    -3761    -4071    -4050    -3475    -2291     -546 
    1581     3638     5203     6118     6427     6369     6215     6065 
    5929     5802     5673     5691     6102     6886     7820     8787 
    9728    10413    10643    10590    10335     9647     8701     7958 
    7586     7678     8183     8773     9285     9735    10134    10468 
   10566    10346     9931     9410     8877     8373     7932     7695 
    7628     7595     7582     7558     7462     7282     7017     6704 
    6461     6446     6842     7766     9067    10421    11512    12055 
   11959    11361    10368     9022     7462     5980     4870     4261 
    4174     4473     4870     5160     5190     4940     4571     4133 
    3700     3353     3019     2812     2806     2728     2448     2063 
    1584     1048      684      743     1218     1926     2813     3847 
    4916     6070     7479     9170    10932    12466    13638    14418 
   14691    14430    13741    12618    11062     9243     7323     5562 
    4264     3403     2771     2310     2001     1755     1471     1033 
     349     -501    -1368    -2183    -2844    -3279    -3546    -3730 
   -3855    -3752    -3179    -2087     -467     1588     3703     5811 
    8070    10002    11029    11173    10559     9395     8153     7095 
    6189     5431     5018     5182     5964     7273     8921    10660 
   12239    13386    14010    14257    14335    14630    15370    16231 
   16953    17538    17811    17706    17395    16967    16607    16541 
   16639    16672    16626    16510    16404    16624    17460    18782 
   20193    21386    22017    21829    21014    19887    18551    17111 
   15783    14699    13922    13591    13614    13655    13670    13682 
   13521    13255    13115    13253    13884    15089    16693    18431 
   20022    21296    22106    22136    21182    19371    17015    14546 
   12418    10939    10242    10319    11049    12183    13369    14300 
   14782    14703    14191    13605    13074    12436    11618    10715 
    9927     9481     9494    10001    11017    12479    14207    16016 
   17740    19135    19941    20078    19678    19005    18386    17965 
   17673    17535    17618    17870    18294    18947    19842    21007 
   22487    24298    26344    28455    30587    32776    35015    37170 
   38978    40273    40962    40857    39930    38371    36308    33903 
   31404    29032    27012    25484    24498    24063    24091    24473 
   25016    25415    25504    25160    24183    22606    20665    18532 
   16416    14526    12914    11593    10693    10373    10653    11377 
   12246    12933    13365    13625    13688    13519    13046    12084 
   10503     8385     6081     3965     2185      835       23     -173 
     316     1463     3188     5385     7769     9986    11823    13296 
   14592    15735    16541    16988    17167    17051    16769    16647 
   16776    16975    17054    16948    16822    16831    16884    16971 
   17254    17783    18582    19656    20756    21531    21796    21504 
   20714    19600    18300    16886    15542    14422    13523    12807 
   12255    11869    11522    11071    10702    10558    10477    10408 
   10436    10624    11044    11643    12348    13197    14142    15216 
   16627    18409    20393    22309    23817    24777    25291    25504 
   25491    25270    24887    24292    23402    22386    21440    20547 
   19567    18350    16913    15463    14203    13279    12778    12582 
   12450    12329    12236    12074    11836    11654    11584    11583 
   11684    11967    12439    13232    14443    15724    16714    17403 
   17759    17809    17851    18055    18511    19352    20318    21043 
   21604    22088    22400    22545    22318    21404    19966    18260 
   16255    14079    11842     9372     6760     4258     1911     -177 
   -1972    -3577    -4848    -5496    -5366    -4600    -3679    -2983 
   -2670    -2869    -3401    -3920    -4272    -4327    -4014    -3330 
   -2256     -841      891     2813     4872     7200     9594    11816 
   13788    15276    16257    16752    16605    15968    15098    14124 
   13298    12757    12367    12048    11855    11799    11693    11286 
   10511     9411     8018     6448     4852     3392     2360     1826 
    1635     1762     2000     2225     2649     3313     4421     6243 
    8526    10874    12999    14760    16257    17563    18655    19511 
   20195    20850    21455    21888    22105    22001    21421    20455 
   19549    19013    18704    18369    17703    16452    14699    12639 
   10382     8025     5692     3520     1632      192     -711    -1119 
   -1000     -434      292     1074     1933     2891     4032     5177 
    6115     6981     7833     8785    10147    11832    13622    15517 
   17410    19323    21420    23528    25347    26649    27236    27231 
   26973    26793    27043    27846    29021    30249    31027    30924 
   29906    28160    25951    23559    21078    18542    16060    13756 
   11864    10549     9737     9347     9195     9018     8976     9402 
   10253    11339    12416    13105    13283    13189    13105    13160 
   13283    13460    13794    14288    15017    16189    17859    19858 
   21872    23618    24989    25918    26247    25905    24927    23245 
   20929    18384    15937    13850    12450    11736    11472    11472 
   11522    11555    11668    11850    11961    11868    11590    11188 
   10695    10297    10165    10264    10498    10807    11296    12074 
   12957    13674    14102    14305    14518    14877    15292    15492 
   15201    14359    13000    11357     9893     8790     7944     7200 
    6346     5451     4730     4178     3888     3987     4192     4215 
    4097     3859     3606     3653     3954     4308     4870     5592 
    6197     6705     7044     6999     6704     6434     6340     6501 
    6930     7537     8029     8326     8704     9232     9953    11003 
   12118    13014    13723    14190    14328    14212    13905    13399 
   12621    11646    10694     9722     8801     8369     8571     9353 
   10807    12769    14871    16822    18287    19014    19015    18361 
   17035    15216    13350    11748    10553     9911     9816    10231 
   11188    12535    14050    15581    16840    17486    17438    16887 
   16015    14858    13564    12388    11354    10346     9367     8508 
    7899     7526     7291     7275     7444     7656     7950     8238 
    8335     8167     7558     6455     5064     3604     2261     1230 
     736      816     1288     2073     3154     4360     5374     6036 
    6473     6753     6947     7213     7515     7874     8471     9332 
   10545    12286    14364    16339    17914    18956    19478    19769 
   20195    20937    21996    23110    24122    25191    26230    27006 
   27504    27599    27149    26528    26137    25862    25683    25623 
   25332    24704    23964    23260    22697    22374    22289    22204 
   22098    22091    21822    21101    20128    18958    17716    16525 
   15497    14798    14291    13850    13474    13124    12900    12696 
   12305    11740    11033    10444    10228    10483    11323    12526 
   13804    15062    16131    17015    18007    19295    20634    21702 
   22597    23366    23885    24229    24386    24445    24627    24768 
   24948    25494    26155    26563    26643    26420    26021    25547 
   24851    23619    22029    20614    19436    18582    18323    18481 
   18853    19245    19338    19177    18855    18343    17657    16775 
   15900    15249    14816    14735    15429    17010    18965    21062 
   23264    25035    26214    27100    27714    28051    28336    28750 
   29034    28888    28387    27260    25240    23008    21133    19457 
   18090    17292    16894    16727    16802    16979    17066    17005 
   16695    16049    15291    14656    14064    13500    12964    12103 
   10773     9286     7932     7014     6733     6866     7222     7823 
    8429     8970     9612    10167    10633    11132    11574    12036 
   12504    13089    13987    14826    15523    16350    17052    17460 
   17874    18447    19132    20033    21089    21919    22496    23139 
