Origin Time       2011/03/11 14:46:00
Lat.              38.103
Long.             142.860
Depth. (km)       24
Mag.              9.0
Station Code      NIG005
Station Lat.      37.9207
Station Long.     138.4971
Station Height(m) 3
Record Time       2011/03/11 14:47:55
Sampling Freq(Hz) 100Hz
Duration Time(s)  228
Dir.              E-W
Scale Factor      3920(gal)/6182761
Max. Acc. (gal)   7.066
Last Correction   2011/03/11 14:47:40
Memo.             
[...]
   24617    24519    24402    24314    24235    24213    24354    24505 
   24489    24373    24194    23935    23649    23371    23082    22794 
   22630    22673    22809    22892    22958    23119    23379    23614 
   23648    23414    23045    22627    22156    21677    21171    20666 
   20272    19982    19764    19661    19679    19722    19710    19734 
   19773    19656    19506    19468    19383    19218    19082    18970 
   18923    18995    19178    19474    19901    20525    21292    22008 
   22642    23176    23535    23830    24179    24547    24968    25521 
   26054    26455    26864    27226    27434    27691    28075    28470 
   28812    28965    28942    28933    28951    28978    28963    28767 
   28493    28335    28222    28039    27819    27605    27397    27243 
   27148    27058    26985    26930    26922    27043    27192    27231 
   27205    27192    27255    27426    27638    27819    28013    28241 
   28417    28523    28608    28655    28711    28842    29015    29249 
   29512    29644    29603    29461    29313    29185    28973    28695 
   28424    28098    27756    27486    27245    27055    26937    26842 
   26765    26708    26742    26934    27251    27644    27984    28189 
   28319    28327    28274    28343    28472    28637    28872    29045 
   29105    29051    28919    28897    29041    29247    29343    29173 
   28857    28509    28064    27625    27341    27245    27359    27603 
   27859    28023    28012    27836    27485    27135    27067    27150 
   27158    27031    26698    26287    25888    25420    25035    24816 
   24597    24355    24079    23742    23498    23460    23635    24047 
   24582    25089    25539    25873    26109    26327    26449    26442 
   26356    26173    25962    25861    25874    26001    26336    26828 
   27358    27752    27816    27621    27229    26696    26201    25672 
   25099    24595    24047    23492    23191    23207    23433    23881 
   24516    24953    25039    25047    24957    24779    24776    24799 
   24790    24896    24779    24485    24470    24676    25105    25667 
   26068    26465    26798    26902    26926    26825    26781    26985 
   27321    27771    28099    28304    28674    29010    29308    29711 
   29927    29954    29840    29378    28685    27916    27212    26763 
   26384    26056    25912    25824    25776    25676    25489    25341 
   25167    25026    24869    24587    24414    24328    24218    24169 
   24096    24023    24066    24324    24936    25811    26845    27991 
   29014    29818    30439    30868    31245    31644    31904    31876 
   31705    31680    31691    31582    31608    31769    31850    31861 
   31591    30860    29881    28820    27771    26722    25735    25152 
   24891    24776    24932    25141    25407    25918    26371    26744 
   27039    27174    27491    27833    28037    28391    28687    29028 
   29701    30405    31149    31848    32275    32625    32728    32517 
   32330    32158    32083    32059    31759    31349    30880    30239 
   29691    29226    28799    28486    28029    27450    26883    26271 
   25813    25395    24842    24427    24170    24086    24171    24165 
   24198    24318    24405    24580    24723    24865    25142    25421 
   25849    26389    26816    27293    27685    27863    27955    27733 
   27337    27076    26893    27001    27214    27191    27234    27262 
   27273    27618    28031    28409    28712    28589    28229    27768 
   27126    26410    25566    24831    24426    24166    24224    24554 
   24734    24815    24776    24542    24298    24071    24041    24307 
   24656    25086    25493    25893    26621    27496    28297    29021 
   29427    29633    29784    29676    29425    29106    28673    28238 
   27689    27122    26787    26589    26523    26549    26464    26264 
   25952    25590    25244    24779    24243    23775    23396    23180 
   23154    23327    23592    23781    24022    24380    24788    25354 
   25962    26427    26813    27034    27076    27204    27429    27527 
   27532    27650    27845    27954    27929    27763    27516    27336 
   27254    27120    26828    26411    25881    25283    24727    24225 
   23776    23473    23304    23174    23078    23048    23113    23297 
   23616    24079    24585    25015    25410    25891    26496    27055 
   27438    27674    27695    27597    27644    27797    27926    28057 
   28165    28230    28285    28314    28232    27992    27759    27619 
   27471    27449    27618    27819    28061    28288    28458    28742 
   29117    29475    29815    30094    30305    30427    30468    30536 
   30683    30966    31388    31808    32138    32359    32501    32668 
   32881    33107    33283    33310    33210    33040    32857    32754 
   32621    32316    31956    31569    31046    30471    29974    29560 
   29164    28708    28169    27593    27096    26762    26549    26470 
   26445    26258    25949    25621    25264    25004    24897    24893 
   25027    25266    25485    25690    25976    26356    26732    27042 
   27354    27628    27766    27872    27940    27888    27863    27924 
   28042    28296    28640    28934    29080    29063    28891    28474 
   27945    27598    27407    27280    27196    27097    27025    26947 
   26799    26580    26195    25694    25252    24850    24483    24267 
   24206    24171    24182    24348    24466    24386    24311    24233 
   24102    24114    24264    24506    24894    25330    25715    26020 
   26337    26833    27417    27983    28553    29004    29394    29822 
   30200    30700    31372    32014    32636    33127    33377    33512 
   33506    33445    33515    33568    33473    33241    32949    32728 
   32486    32195    31947    31615    31150    30532    29749    29085 
   28619    28281    28217    28360    28611    28997    29444    29996 
   30626    31162    31513    31552    31438    31453    31511    31628 
   31976    32425    32796    33013    33046    32933    32722    32478 
   32174    31769    31328    30756    30004    29279    28663    28223 
   28100    28286    28647    28911    28960    28896    28695    28324 
   27790    27249    27044    27169    27511    28057    28519    28887 
   29406    29908    30271    30578    30710    30638    30470    30197 
   29878    29666    29632    29798    30250    30895    31454    31917 
   32266    32295    32128    31925    31726    31629    31476    31350 
   31572    31941    32243    32488    32486    32240    31957    31604 
   31061    30392    29766    29314    29062    28857    28612    28440 
   28230    27834    27459    27212    27034    27000    27048    26921 
   26587    26390    26594    27003    27410    27821    28189    28531 
   28848    28937    28780    28606    28540    28495    28450    28582 
   28794    28848    28836    28742    28510    28384    28341    28158 
   27935    27763    27561    27322    27023    26579    26096    25853 
   25888    25994    26105    26255    26465    26776    27154    27500 
   27697    27727    27702    27711    27819    28024    28309    28682 
   29024    29257    29341    29155    28745    28295    27894    27568 
   27349    27232    27162    27160    27381    27757    27953    27798 
   27328    26631    25929    25479    25348    25473    25809    26277 
   26724    27097    27535    28118    28729    29138    29074    28590 
   28091    27750    27501    27416    27529    27680    27812    27960 
   28000    27805    27449    27074    26761    26626    26763    26949 
   27029    27227    27450    27446    27469    27694    27947    28240 
   28619    28994    29449    29934    30127    30033    29932    29985 
   30211    30464    30761    31272    31854    32280    32507    32528 
   32444    32319    32044    31617    31130    30580    29959    29361 
   28901    28530    28174    27817    27318    26607    25768    24864 
   24075    23581    23282    22989    22761    22732    22823    22979 
   23199    23364    23525    23806    24069    24270    24537    24808 
   25053    25424    25976    26721    27651    28533    29168    29619 
   30006    30380    30848    31469    32107    32717    33353    33864 
   34152    34312    34384    34351    34142    33715    33203    32633 
   31948    31265    30615    30013    29657    29489    29228    28863 
   28516    28272    28217    28326    28457    28495    28439    28343 
   28239    28169    28136    28138    28235    28336    28262    28101 
   28066    28176    28344    28514    28594    28456    28180    27929 
   27649    27354    27142    26881    26594    26391    26143    25947 
   25956    25955    25907    25946    25970    25961    26005    26046 
   26100    26283    26553    26771    26918    27041    27142    27220 
   27240    27160    27061    27040    27077    27112    27145    27315 
   27706    28174    28600    28974    29257    29418    29412    29221 
   28927    28587    28277    28125    28140    28242    28365    28402 
   28262    28046    27917    27831    27720    27650    27539    27202 
   26683    26131    25587    25103    24776    24678    24754    24928 
   25248    25671    26189    26947    27832    28594    29199    29656 
   29862    29742    29438    29183    29102    29213    29349    29336 
   29323    29431    29508    29534    29620    29823    30201    30649 
   30975    31070    30895    30537    30027    29426    28937    28510 
   28042    27701    27453    27167    27005    27076    27322    27766 
   28337    28800    29077    29282    29378    29197    28897    28827 
   29047    29519    30191    30790    31140    31281    31227    31002 
   30748    30595    30528    30499    30480    30374    30134    29881 
   29721    29689    29778    29881    29898    29835    29782    29834 
   29934    30022    30173    30365    30497    30536    30405    30074 
   29669    29346    29204    29234    29288    29161    28847    28506 
   28199    27979    27888    27845    27830    27841    27708    27406 
   27246    27401    27686    28003    28355    28672    29032    29492 
   29866    30033    29979    29730    29464    29282    29143    29099 
   29102    29041    29059    29256    29551    29894    30206    30391 
   30473    30478    30399    30290    30216    30240    30370    30546 
   30760    31041    31344    31562    31695    31839    31962    31995 
   31913    31716    31487    31275    31063    30879    30675    30376 
   30032    29635    29112    28482    27783    27151    26751    26565 
   26510    26467    26398    26416    26482    26515    26559    26619 
   26793    27170    27586    27906    28081    28116    28251    28684 
   29346    30127    30886    31471    31877    32135    32275    32307 
   32193    31989    31701    31229    30657    30189    29914    29810 
   29832    29915    29948    29844    29573    29153    28703    28359 
   28142    27981    27799    27600    27411    27227    27068    27038 
   27251    27708    28266    28759    29061    29120    28980    28733 
   28505    28384    28358    28353    28270    28085    27913    27880 
   28034    28297    28537    28710    28736    28541    28198    27756 
   27224    26687    26217    25836    25583    25457    25420    25475 
   25594    25724    25822    25799    25626    25339    24905    24351 
   23893    23692    23671    23728    23842    24000    24275    24705 
   25187    25640    25958    26050    26041    26068    26157    26383 
   26756    27127    27383    27501    27507    27480    27479    27526 
   27636    27750    27768    27614    27287    26938    26731    26693 
   26838    27157    27524    27796    27840    27627    27385    27323 
   27457    27743    28021    28126    28085    27993    27936    28021 
   28317    28801    29385    30018    30602    31023    31366    31750 
   32163    32574    32985    33428    33898    34337    34721    34974 
   35013    34969    34942    34779    34405    33911    33350    32722 
   32030    31343    30744    30258    29880    29544    29129    28606 
   28056    27579    27195    26793    26357    26009    25791    25797 
   26142    26686    27268    27850    28329    28613    28737    28838 
   28999    29137    29228    29390    29663    30013    30401    30782 
   31153    31549    31941    32245    32383    32356    32212    31963 
   31692    31558    31572    31673    31941    32406    32923    33386 
   33754    33949    33986    33984    33940    33736    33458    33282 
   33206    33266    33505    33735    33803    33779    33720    33580 
   33352    33061    32721    32362    31946    31350    30534    29630 
   28775    27920    27056    26353    25795    25224    24641    24109 
   23664    23352    23162    23025    22888    22760    22667    22664 
   22807    23039    23266    23496    23855    24501    25440    26574 
   27782    28821    29595    30304    30924    31236    31351    31456 
   31425    31195    30987    30931    30980    31142    31394    31593 
   31611    31365    30853    30200    29517    28850    28253    27768 
   27448    27352    27399    27438    27437    27444    27493    27536 
   27467    27346    27328    27428    27635    27946    28250    28422 
   28422    28335    28279    28299    28433    28671    28867    28872 
   28662    28388    28268    28429    28890    29567    30285    30878 
   31240    31399    31527    31754    32103    32612    33235    33843 
   34459    35136    35799    36457    37161    37804    38305    38648 
   38780    38685    38392    37976    37491    36951    36391    35786 
   35208    34790    34474    34193    33887    33431    32844    32149 
   31283    30370    29641    29159    28888    28849    28994    29136 
   29196    29260    29336    29361    29380    29480    29714    30056 
   30407    30820    31403    32048    32635    33136    33456    33590 
   33659    33692    33629    33447    33212    32950    32606    32273 
   32157    32317    32635    32916    33070    33195    33327    33414 
   33504    33597    33645    33697    33717    33551    33183    32742 
   32387    32231    32282    32466    32670    32826    32982    33142 
   33237    33224    33059    32753    32390    32033    31733    31493 
   31317    31210    31066    30866    30674    30443    30121    29712 
   29280    28941    28652    28346    28073    27777    27422    27098 
   26803    26541    26422    26459    26558    26596    26475    26193 
   25844    25605    25627    25892    26354    26953    27489    27860 
   28164    28519    28993    29607    30247    30656    30687    30471 
   30212    30026    29989    30084    30156    30114    30028    29940 
   29869    29894    29976    30010    29999    29912    29670    29302 
   28904    28578    28385    28316    28293    28221    28135    28084 
   27957    27757    27583    27383    27107    26821    26575    26330 
   26041    25781    25585    25386    25187    25048    25007    25042 
   25056    24967    24777    24537    24281    24004    23765    23662 
   23733    24000    24435    24916    25371    25811    26250    26703 
   27151    27504    27702    27723    27575    27368    27202    27051 
   26908    26803    26718    26653    26613    26538    26366    26106 
   25768    25309    24762    24198    23549    22849    22348    22111 
   22000    21930    21825    21697    21651    21709    21864    22096 
   22364    22668    22998    23369    23806    24247    24652    25028 
   25340    25555    25643    25634    25625    25672    25769    25847 
   25861    25921    26118    26350    26488    26526    26497    26438 
   26430    26507    26640    26835    27065    27280    27505    27764 
   28036    28275    28438    28516    28576    28712    28930    29200 
   29495    29738    29893    29949    29877    29749    29602    29406 
   29285    29267    29204    29094    28945    28706    28401    28047 
   27704    27434    27195    26982    26759    26429    26010    25595 
   25252    25001    24916    25127    25534    25892    26165    26417 
   26620    26760    26886    27103    27488    27943    28342    28609 
   28721    28848    29120    29507    30015    30598    31171    31715 
   32103    32244    32274    32324    32432    32554    32544    32352 
   32036    31630    31160    30666    30290    30126    30055    29994 
   29907    29713    29451    29143    28700    28134    27509    26912 
   26464    26218    26143    26095    25986    25931    25944    25984 
   26192    26587    27041    27544    28020    28356    28649    29044 
   29541    30090    30724    31462    32150    32597    32777    32709 
   32401    32019    31732    31535    31400    31327    31250    31077 
   30848    30660    30478    30323    30286    30278    30211    30090 
   29842    29468    29101    28794    28590    28600    28807    29036 
   29245    29575    29993    30281    30385    30331    30061    29614 
   29081    28473    27895    27468    27149    26896    26757    26713 
   26735    26903    27242    27567    27747    27821    27778    27609 
   27383    27171    27121    27316    27640    28006    28362    28591 
   28713    28915    29287    29714    30016    30114    30036    29819 
   29495    29175    28970    28900    28980    29157    29273    29245 
   29134    29016    28929    28911    28886    28706    28417    28147 
   27908    27736    27597    27371    27143    27034    27025    27092 
   27163    27125    26987    26788    26502    26171    25905    25723 
   25591    25518    25482    25464    25544    25741    25967    26214 
   26449    26503    26352    26146    25980    25912    25923    25896 
   25765    25562    25338    25052    24669    24292    23968    23628 
   23270    22910    22524    22167    21921    21804    21794    21864 
   21985    22096    22138    22152    22191    22299    22559    22855 
   22946    22831    22660    22523    22435    22330    22185    22038 
   21940    21955    21985    21913    21831    21768    21701    21695 
   21723    21759    21887    22189    22645    23130    23590    24027 
   24358    24565    24697    24728    24642    24497    24358    24286 
   24389    24732    25270    25928    26547    26943    27123    27177 
   27045    26590    25924    25266    24655    24161    23875    23671 
   23440    23302    23311    23280    23151    22980    22655    22198 
   21791    21544    21486    21522    21605    21648    21469    21048 
   20468    19929    19587    19417    19370    19272    19049    18846 
   18751    18837    19140    19597    20057    20327    20459    20619 
   20771    20858    20938    21057    21240    21544    21916    22322 
   22892    23611    24296    24926    25594    26222    26640    26898 
   27044    26984    26855    26820    26756    26608    26500    26401 
   26152    25789    25377    24831    24201    23571    22908    22263 
   21728    21300    20994    20851    20793    20731    20720    20773 
   20853    20964    21067    21116    21143    21267    21505    21638 
   21607    21635    21820    22157    22651    23170    23634    24115 
   24561    24864    24998    24917    24597    24126    23610    23086 
   22647    22478    22563    22755    23035    23324    23521    23711 
   23960    24237    24510    24775    25044    25284    25511    25829 
   26201    26538    26875    27178    27325    27334    27264    27070 
