Origin Time       2011/03/11 14:46:00
Lat.              38.103
Long.             142.860
Depth. (km)       24
Mag.              9.0
Station Code      NIG012
Station Lat.      37.6863
Station Long.     139.4771
Station Height(m) 70
Record Time       2011/03/11 14:47:20
Sampling Freq(Hz) 100Hz
Duration Time(s)  300
Dir.              E-W
Scale Factor      3920(gal)/6182761
Max. Acc. (gal)   71.721
Last Correction   2011/03/11 14:47:05
Memo.             
[...]
  -18809   -21185   -22737   -23452   -23119   -21814   -20354   -19060 
  -17734   -16287   -14400   -11247    -5999     1380    10025    18535 
   25454    29873    31411    30278    27226    22442    15807     8194 
     734    -6057   -12222   -18469   -25007   -31127   -36426   -40599 
  -43396   -45189   -46438   -47758   -49705   -51879   -53602   -54845 
  -55861   -56562   -56453   -55026   -51945   -47015   -40627   -33840 
  -27334   -20974   -14872    -9620    -5356    -2055     -137      350 
     120     -345    -1018    -1545    -1276      127     2250     4276 
    5894     7172     7841     7511     6227     4279     1769     -998 
   -3254    -4786    -6453    -9184   -13246   -18338   -23550   -27572 
  -29434   -28911   -26484   -22909   -18653   -14407   -11359    -9755 
   -8928    -8694    -8822    -8751    -8717    -9385   -11066   -14122 
  -18722   -24345   -30280   -35741   -39881   -42332   -43318   -43498 
  -43588   -43960   -44754   -45668   -46046   -45876   -45846   -46582 
  -48159   -49825   -50282   -48323   -43514   -36508   -28764   -22299 
  -18464   -16476   -14662   -12330    -9459    -5963    -1612     3398 
    8057    11735    14948    18551    23271    29339    36253    43399 
   49979    54872    58051    60667    63111    64962    66026    66189 
   65229    62796    58655    52711    44641    34882    24688    14432 
    4170    -5075   -12295   -17387   -20846   -23503   -26620   -31723 
  -39673   -49812   -60486   -70196   -77527   -80751   -78839   -72488 
  -63709   -54496   -46114   -39216   -33600   -28786   -25047   -22558 
  -21105   -21004   -22541   -25203   -28101   -30557   -32523   -34182 
  -35400   -36263   -37239   -38566   -40574   -43678   -47201   -49687 
  -50216   -48196   -43280   -35828   -26554   -16327    -5659     5405 
   16011    24294    28957    30866    32041    33056    33420    33134 
   32166    29921    25905    20322    13682     6486     -690    -7681 
  -14745   -21841   -28481   -34152   -38750   -42049   -43515   -43623 
  -43307   -41985   -38741   -34270   -30044   -27098   -25675   -25489 
  -26392   -28062   -30025   -32430   -35606   -39265   -42527   -44519 
  -44814   -43235   -40109   -36401   -33014   -30137   -27229   -24017 
  -20808   -17551   -14071   -10790    -8129    -6104    -4655    -3575 
   -2436     -825     1573     4706     8349    12608    17256    21494 
   24852    27189    28211    27985    27238    26453    25503    24266 
   22813    21339    20120    19278    18594    17851    17440    17828 
   18768    19772    20216    19536    17900    15539    12397     8795 
    5238     2252      609      798     2481     4834     7312     9898 
   12595    15048    16835    17629    17019    14814    11434     7391 
    2830    -2169    -7452   -12849   -18142   -23393   -28843   -34243 
  -38911   -42318   -44179   -44553   -43986   -42864   -41155   -39092 
  -37085   -35031   -32561   -29558   -25977   -21862   -17668   -13886 
  -10639    -7867    -5324    -3090    -1883    -1885    -2579    -3578 
   -4575    -5746    -7442    -8882    -8991    -7564    -4694     -387 
    5132    11275    17512    23737    29888    35372    39508    42431 
   44263    44152    41440    36162    28412    18662     7736    -3722 
  -15245   -26686   -37967   -48553   -57837   -65723   -72686   -78932 
  -83796   -86725   -87828   -87652   -86946   -86026   -85017   -84148 
  -82943   -80349   -75773   -69208   -60803   -50832   -39887   -28782 
  -18233    -8591     -112     6428    10310    11847    11799    10869 
    9915     9608    10223    11609    13252    14496    14318    12034 
    8338     4523     1635      370      190     -379    -1815    -3923 
   -6830   -10077   -12979   -15307   -16747   -17552   -18236   -18611 
  -19091   -20565   -22723   -24778   -26306   -27001   -26928   -26214 
  -24641   -21927   -17911   -13103    -8714    -5246    -2257      344 
    2408     3964     4822     5112     5454     5938     6234     6312 
    6252     6062     5794     5589     5615     5852     6141     6123 
    5500     4621     3607     2044      221    -1254    -2349    -3193 
   -3824    -4481    -5595    -7145    -8633   -10020   -11587   -13248 
  -14889   -16751   -19205   -22230   -25455   -28981   -33142   -37482 
  -40970   -42972   -43288   -41768   -38781   -35385   -32426   -30137 
  -28619   -27930   -27717   -27195   -25457   -22031   -17041   -10881 
   -4203     2425     8889    14844    19562    22745    24695    25939 
   26799    27404    27963    28265    27953    27322    26610    25576 
   23842    20952    16794    11855     6975     2955       69    -1876 
   -3196    -4176    -4965    -5611    -6156    -6569    -6587    -5973 
   -5039    -4531    -5200    -7452   -10945   -14904   -18621   -21094 
  -21445   -19743   -16471   -12310    -8051    -3752      514     4014 
    6582     8435     9318     9169     8289     6767     4425     1196 
   -2881    -7970   -13973   -20302   -26249   -30964   -33937   -35117 
  -34451   -32277   -29376   -26268   -23143   -20385   -18479   -17225 
  -15973   -14305   -11972    -9139    -6197    -3286     -724     1232 
    2832     4457     6386     8695    11343    14419    17803    21085 
   24094    26804    29092    30922    32044    32373    32302    31499 
   29046    24584    18297    11069     4009    -2557    -8415   -13153 
  -17140   -21051   -25362   -30870   -37679   -44726   -51369   -57235 
  -61353   -63140   -62633   -59895   -55463   -50115   -44324   -38920 
  -34814   -31830   -29345   -27249   -25329   -23156   -20935   -19115 
  -17694   -16862   -16947   -17739   -19015   -20647   -22302   -23997 
  -26169   -29388   -33891   -39277   -45232   -51454   -56943   -60673 
  -62261   -61633   -58913   -54610   -49719   -45512   -42585   -40311 
  -37979   -35776   -34059   -32926   -33307   -36375   -41306   -46413 
  -51339   -55925   -59676   -62670   -65236   -67608   -69666   -70694 
  -70294   -68700   -65939   -62250   -58404   -54653   -51049   -47851 
  -44809   -41711   -38707   -35742   -32614   -28959   -24563   -19546 
  -13902    -8026    -2828     1573     5853    10267    14537    18568 
   22581    26921    31969    37782    44015    50106    55212    58509 
   59876    59926    59377    58623    57444    55141    51318    46166 
   40023    33171    26040    19319    13627     9311     6571     5309 
    5238     6333     8620    11981    16335    21254    25919    29733 
   32426    33729    33404    31699    29351    26956    24611    21990 
   18504    13621     7245     -331    -8440   -16300   -23845   -31425 
  -38919   -46162   -53209   -59931   -65933   -70394   -72630   -72860 
  -71636   -69660   -68035   -67630   -68920   -72120   -76759   -81784 
  -86344   -90148   -93275   -95804   -97719   -99069   -99891  -100217 
 -100066   -99206   -97426   -94543   -90133   -84094   -76703   -68187 
  -58963   -49559   -40473   -32157   -24613   -17619   -10971    -4219 
    2935    10286    17159    22692    26478    28552    29332    29582 
   29726    30052    31276    33894    37607    41545    44563    45863 
   45534    44058    41996    39811    37224    33802    29781    25393 
   20346    14440     8174     2419    -2209    -5267    -6337    -5560 
   -3881    -2244    -1054     -755    -2001    -4776    -8220   -11563 
  -14566   -17197   -19483   -21546   -23555   -25636   -27510   -28615 
  -28873   -28491   -27503   -26155   -24682   -22842   -20192   -16401 
  -11547    -6284    -1547     1754     3192     3026     1762      271 
    -383     -468    -1452    -4260    -9132   -16018   -24239   -32572 
  -39987   -45890   -49480   -50226   -48762   -46097   -43056   -40748 
  -40098   -40868   -41990   -42559   -42095   -40660   -38667   -36508 
  -34526   -32658   -30813   -29514   -29026   -29007   -28893   -27598 
  -24426   -19953   -14979   -10271    -6571    -3655     -957     1589 
    3963     5814     6742     7101     7537     8326     9020     8687 
    6557     1923    -5548   -15292   -26443   -37878   -47965   -55371 
  -59867   -62083   -62423   -60999   -58675   -56018   -52278   -47443 
  -42952   -39880   -38541   -39148   -41364   -43994   -45948   -46720 
  -46423   -46082   -46517   -47639   -49240   -50877   -52067   -53103 
  -54291   -55002   -54432   -52408   -49019   -44478   -39252   -33799 
  -28693   -24719   -22483   -21950   -22447   -23233   -23683   -23531 
  -23037   -22330   -21607   -21533   -22277   -23394   -24656   -25733 
  -26014   -25134   -22993   -19757   -15800   -11414    -6723    -1494 
    4492    10978    17806    24763    31145    36553    40946    44216 
   46853    49650    52582    55520    59125    63823    69019    73874 
   77891    80676    82005    82190    81930    81676    81094    79292 
   75680    70510    64462    58040    51348    44029    35583    25749 
   14544     2194   -10822   -23733   -35568   -45326   -52336   -56469 
  -57738   -56541   -54281   -52339   -50992   -50005   -49209   -48255 
  -46391   -43171   -38905   -33975   -28877   -24706   -22345   -21655 
  -21865   -22264   -22458   -22195   -21338   -20089   -18783   -17462 
  -16208   -15634   -16049   -16818   -17725   -19717   -23316   -27672 
  -31631   -34830   -37294   -38924   -40158   -41884   -44370   -47376 
  -50567   -52999   -53549   -52392   -50717   -49063   -46977   -44068 
  -40732   -37484   -34381   -31384   -28605   -26474   -25159   -23978 
  -22586   -21308   -20075   -19051   -19133   -20731   -23739   -28216 
  -33690   -38839   -42465   -44093   -43533   -40914   -37039   -32597 
  -27897   -23552   -20048   -17292   -14978   -12642   -10131    -7962 
   -6637    -6624    -8765   -13638   -20747   -28644   -35880   -41545 
  -44727   -44489   -40814   -34792   -27741   -20250   -12400    -4986 
     781     4656     7066     8340     8954     9497     9827     9012 
    6531     2671    -2243    -7662   -12399   -15380   -16124   -14831 
  -12028    -8102    -3973     -547     2269     4433     5964     7791 
   10507    14002    18121    22462    26140    28123    28056    26746 
   25461    24691    24130    23891    24330    24798    24085    21391 
   16249     8634     -571    -9832   -17777   -23410   -26212   -26806 
  -26407   -25912   -26031   -27281   -29911   -33800   -38504   -43040 
  -45547   -45082   -42044   -36736   -30319   -24520   -20116   -17556 
  -16818   -17076   -17604   -17566   -15692   -11374    -5117     2115 
    8927    13533    14552    11537     5057    -3498   -12317   -19350 
  -23095   -23427   -20568   -14610    -6679     1539     8969    14701 
   17402    16063    10948     3138    -5837   -14085   -20300   -23929 
  -25070   -24569   -23223   -21618   -20328   -19332   -18177   -16381 
  -13321    -8887    -4128     -495     1257     1359      418    -1208 
   -2959    -3594    -1694     3458    11008    18757    25124    29911 
   32640    32477    29235    22634    12923     1864    -9092   -19546 
  -29026   -37144   -43968   -49498   -53464   -55314   -54485   -51608 
  -48104   -44421   -40541   -36739   -32943   -28730   -23675   -17849 
  -12177    -7734    -4979    -4098    -5212    -7461    -9252    -9790 
   -9295    -8443    -8098    -9183   -12572   -18309   -25130   -31573 
  -36823   -40251   -41463   -40603   -38119   -34672   -30887   -27002 
  -22829   -18056   -12892    -8244    -5064    -3991    -5323    -8436 
  -11991   -15410   -19142   -23538   -28802   -35439   -43415   -51753 
  -59320   -65083   -68367   -69001   -66834   -61960   -54999   -46771 
  -37997   -29448   -22567   -18494   -17074   -18263   -22052   -27137 
  -32089   -36185   -38536   -38817   -38328   -38420   -39026   -39458 
  -39124   -37305   -33494   -28250   -22854   -18207   -14871   -13195 
  -12807   -12648   -11634    -9343    -5511      209     6962    12975 
   16930    18039    16577    14467    13919    15678    19696    26237 
   34102    40454    43751    43800    40724    35988    31586    28621 
   27728    29020    31975    35731    39314    42161    43985    44275 
   42464    38178    31555    23432    14759     6008    -2656   -11056 
  -18919   -26057   -32381   -37740   -42316   -46277   -48874   -49559 
  -48889   -46977   -43518   -39515   -36062   -32680   -28576   -23678 
  -18493   -14008   -11085    -9895   -10257   -12161   -15490   -19302 
  -22147   -23364   -23529   -23675   -24430   -26128   -29311   -34208 
  -40689   -48756   -57695   -65977   -72304   -75682   -75456   -71948 
  -66302   -59536   -52465   -45870   -40139   -35448   -31660   -28622 
  -27099   -28107   -31975   -37978   -44234   -48870   -51079   -50991 
  -48784   -44376   -38125   -30425   -21333   -11405    -1052    10475 
   23732    38025    52409    65657    75607    81243    83808    84814 
   85249    85693    85795    84825    82440    78546    72472    62791 
   49466    35144    22967    14221     8143     3425     -849    -5753 
  -11921   -19024   -26756   -34813   -42523   -49172   -54071   -56937 
  -58515   -60240   -62968   -66370   -69637   -72021   -73207   -73738 
  -74324   -75047   -75299   -74055   -70841   -65756   -58736   -50173 
  -41097   -32394   -24747   -18746   -14740   -12877   -13192   -15401 
  -18559   -21606   -24145   -26031   -27235   -28311   -29455   -30262 
  -31130   -32755   -34974   -37514   -40316   -43137   -45834   -48061 
  -48884   -47426   -43162   -36004   -26420   -14899    -2006    11468 
   25404    40009    54423    67000    76746    84303    91019    96671 
   99930   100127    96820    90080    81094    70846    60194    50627 
   43083    37548    33773    31473    30224    29289    28256    27606 
   27530    27314    26565    25396    23075    18108     9895     -959 
  -13454   -26241   -37540   -45920   -51160   -53766   -54291   -53891 
  -54117   -55628   -57960   -60118   -60819   -58788   -53308   -44693 
  -34821   -26542   -21699   -20205   -21245   -24147   -27479   -29525 
  -30104   -29848   -29250   -29188   -30321   -32384   -34557   -35901 
  -35895   -34704   -32742   -30221   -27128   -23710   -20881   -19472 
  -19722   -22111   -26941   -33274   -39910   -46255   -51990   -56772 
  -60068   -61838   -62545   -62147   -60702   -58205   -53970   -47881 
  -40666   -33768   -29016   -27336   -28628   -32067   -36544   -41305 
  -45859   -50033   -53625   -56011   -56701   -55424   -51954   -46234 
  -38043   -27685   -17049    -7900      -84     7241    14345    21425 
   28923    36955    44906    51810    56892    59955    61127    60127 
   56928    52799    49091    46097    43691    41832    40662    40067 
   39319    37900    35771    32858    28923    23514    16870    10288 
    4171    -1913    -7672   -13219   -19062   -24868   -30421   -35642 
  -39740   -42149   -42999   -42635   -41379   -39116   -35176   -29429 
  -23203   -18001   -14182   -11772   -11035   -11852   -13552   -15266 
  -16079   -15221   -12837   -10329    -9137    -9531   -10960   -12875 
  -14992   -17334   -19998   -22761   -25415   -28150   -31076   -33801 
  -35777   -36892   -37255   -36901   -36472   -36873   -38075   -39569 
  -41198   -43158   -45766   -49145   -53181   -57376   -60935   -63393 
  -64400   -63249   -59451   -53290   -45481   -36619   -26884   -16405 
   -5961     3142     9950    14454    17087    17973    17163    15015 
   12585    11656    13272    17111    22258    27274    30864    32604 
   32321    30579    29191    29789    32704    37115    41873    45876 
   47487    45022    38039    27262    14470     2615    -6344   -12619 
  -16258   -16960   -15865   -14593   -13813   -13556   -14019   -15712 
  -18815   -23063   -27709   -31377   -33048   -32473   -29728   -25578 
  -20981   -16327   -12100    -8530    -5122    -1907      369     1031 
    -510    -4524   -10511   -17729   -26194   -36132   -46562   -55717 
  -62294   -65985   -67221   -66137   -62615   -57003   -49787   -41607 
  -33665   -27094   -22284   -18922   -16585   -15397   -15501   -16627 
  -19043   -23273   -29089   -36156   -43610   -49237   -51364   -49811 
  -45090   -38462   -31467   -25126   -20010   -16556   -15179   -15485 
  -16046   -15904   -15102   -13614   -11139    -7703    -3487     1272 
    5965    10008    12930    14494    15179    15345    15008    14682 
   14594    14018    12177     8584     3336    -2349    -6892    -9291 
   -9188    -6714    -2342     3078     8574    13613    18004    21585 
   24346    26485    28238    29254    28219    23984    16548     6867 
   -3614   -14184   -25121   -36110   -46108   -54448   -60980   -65772 
  -69142   -71912   -74547   -76316   -76633   -75574   -72825   -68105 
  -61937   -55341   -49435   -44953   -41964   -40078   -38609   -36911 
  -34443   -30463   -24690   -17903   -11310    -6016    -2936    -2533 
   -4379    -7162    -9501   -10410    -9254    -6117    -1635     3597 
    8798    12829    14705    14026    11253     7491     3697      507 
   -1452    -1734     -543     1366     3198     4556     5480     5671 
    4820     3725     3036     2677     3447     6285    10988    17475 
   25681    34240    41668    47287    50677    52007    52076    51886 
   52222    52969    53677    54346    54765    54281    52473    49088 
   43805    36913    29588    23165    18500    15757    14566    14542 
   15507    17147    18716    19248    18123    15376    11570     7473 
    3478     -313    -3667    -6627    -9495   -12255   -14582   -16007 
  -16325   -15739   -14537   -13511   -13409   -13821   -14201   -14643 
  -15440   -16997   -19403   -22033   -23987   -24952   -25847   -27698 
  -29788   -30872   -31401   -32073   -32888   -34854   -38943   -44558 
  -50715   -56305   -60068   -61497   -60650   -57696   -53266   -48675 
  -45190   -43257   -42631   -42477   -41823   -40476   -38641   -36543 
  -34818   -34105   -34696   -36632   -39671   -43343   -46887   -49555 
  -51299   -52524   -53532   -54906   -57532   -61736   -67015   -72689 
  -78356   -83789   -88826   -93413   -97530  -100978  -103364  -104370 
 -103617  -100641   -95376   -87859   -78637   -69588   -62193   -56194 
  -50635   -44366   -36716   -27957   -18292    -8069     1718    10417 
   17956    24402    29839    34504    38897    43204    47257    50796 
   53339    54819    55517    55224    53803    51301    47105    40451 
   31692    22703    15555    10664     7445     5895     5929     6975 
    8861    11318    13414    14370    13999    12562    10748     9471 
    9274     9943    10882    11477    11193     9896     7501     3848 
    -460    -4624    -8245   -10668   -11490   -10841    -8569    -4660 
      93     4663     8127     9754     9367     6976     2636    -2800 
   -7974   -12029   -14769   -16323   -16814   -16176   -14481   -12095 
   -9502    -7483    -6773    -7593   -10115   -14024   -18139   -21725 
  -24606   -26121   -25545   -22798   -17970   -11261    -3721     3148 
    8527    12434    15252    17450    19298    20734    21904    23007 
   23519    22761    20484    16750    12013     6847     1899    -2223 
   -5495    -7933    -9186    -9364    -9228    -9532   -10581   -12274 
  -14643   -18020   -22782   -29166   -36834   -44806   -52070   -57778 
  -61199   -62159   -61240   -59079   -55855   -51798   -47391   -43172 
  -39870   -37788   -36424   -35406   -34681   -34220   -34074   -33898 
  -32752   -29835   -25180   -19651   -14551   -11138    -9957   -10521 
