Origin Time       2011/03/11 14:46:00
Lat.              38.103
Long.             142.860
Depth. (km)       24
Mag.              9.0
Station Code      NIG009
Station Lat.      37.9510
Station Long.     139.3377
Station Height(m) 11
Record Time       2011/03/11 14:47:23
Sampling Freq(Hz) 100Hz
Duration Time(s)  300
Dir.              U-D
Scale Factor      3920(gal)/6182761
Max. Acc. (gal)   13.287
Last Correction   2011/03/11 14:47:08
Memo.             
[...]
  -29808   -28927   -27959   -27149   -26688   -26669   -26805   -26502 
  -25712   -25030   -24752   -24807   -25386   -26557   -27796   -28609 
  -29127   -29701   -30390   -31152   -31980   -32591   -32680   -32434 
  -32319   -32525   -32809   -32569   -31225   -28943   -26480   -24270 
  -22447   -21279   -20938   -21281   -21951   -22640   -23293   -23916 
  -24424   -24724   -24774   -24617   -24391   -24257   -24300   -24414 
  -24388   -24135   -23455   -21936   -19703   -17670   -16627   -16681 
  -17484   -18477   -19297   -20125   -21245   -22460   -23292   -23569 
  -23364   -22520   -20833   -18696   -16925   -15984   -15788   -16051 
  -16512   -16975   -17257   -17271   -17259   -17591   -18230   -18706 
  -18566   -17630   -16089   -14548   -13655   -13569   -14008   -14701 
  -15560   -16541   -17545   -18450   -19161   -19615   -19792   -19672 
  -19229   -18732   -18666   -19023   -19436   -19923   -20660   -21440 
  -21816   -21588   -21001   -20332   -19790   -19817   -20638   -21890 
  -23172   -24330   -25173   -25407   -24869   -23813   -22789   -22148 
  -21993   -22375   -23154   -23992   -24747   -25581   -26633   -27802 
  -28879   -29679   -30124   -30391   -30761   -31366   -32241   -33333 
  -34356   -34867   -34669   -34051   -33511   -33315   -33320   -33128 
  -32504   -31644   -30932   -30603   -30690   -31139   -31823   -32509 
  -33087   -33636   -34137   -34531   -34861   -35027   -34811   -34304 
  -33832   -33390   -32558   -31144   -29473   -27973   -26926   -26609 
  -27033   -27676   -27992   -27876   -27455   -26981   -26879   -27407 
  -28421   -29652   -30898   -31855   -32319   -32475   -32491   -32141 
  -31149   -29492   -27257   -24632   -22071   -20095   -18941   -18585 
  -18832   -19357   -19927   -20586   -21420   -22337   -23169   -23792 
  -24094   -23853   -22875   -21426   -20131   -19368   -19213   -19649 
  -20417   -21120   -21617   -21980   -22288   -22614   -23001   -23423 
  -23775   -23988   -24181   -24424   -24521   -24301   -23803   -23144 
  -22507   -22106   -21983   -21881   -21456   -20705   -19945   -19357 
  -18940   -18806   -19161   -20062   -21332   -22606   -23461   -23754 
  -23812   -24040   -24441   -24682   -24361   -23285   -21754   -20306 
  -19199   -18461   -18139   -18279   -18878   -19850   -20881   -21437 
  -21165   -20083   -18385   -16413   -14586   -13200   -12377   -12065 
  -12106   -12342   -12623   -12897   -13181   -13448   -13702   -13967 
  -14214   -14449   -14775   -15234   -15661   -15900   -16102   -16546 
  -17259   -17902   -17903   -16916   -15388   -14277   -14115   -14734 
  -15629   -16298   -16559   -16638   -16889   -17447   -18229   -19214 
  -20337   -21256   -21655   -21596   -21448   -21621   -22129   -22472 
  -22343   -22124   -22403   -23486   -25231   -26990   -28087   -28505 
  -28804   -29403   -30262   -31139   -31733   -31737   -31083   -30076 
  -29133   -28351   -27511   -26516   -25600   -25176   -25523   -26429 
  -27269   -27504   -27055   -26255   -25502   -24982   -24723   -24727 
  -24970   -25339   -25770   -26469   -27674   -29194   -30601   -31590 
  -31952   -31732   -31325   -31123   -31243   -31568   -31835   -31725 
  -31137   -30271   -29188   -27755   -26122   -24687   -23757   -23484 
  -23837   -24580   -25434   -26179   -26581   -26462   -25920   -25279 
  -24715   -24164   -23686   -23511   -23669   -24066   -24755   -25834 
  -27024   -27710   -27644   -27008   -26008   -24990   -24240   -23624 
  -22934   -22080   -20743   -18612   -16060   -13857   -12369   -11581 
  -11263   -10971   -10513   -10195   -10357   -11043   -12130   -13413 
  -14569   -15241   -15154   -14337   -13220   -12197   -11293   -10425 
   -9629    -9101    -9031    -9254    -9364    -9236    -9077    -9049 
   -9202    -9647   -10290   -10662   -10485    -9992    -9416    -8724 
   -8000    -7505    -7241    -6987    -6674    -6371    -6167    -6181 
   -6549    -7385    -8528    -9512   -10171   -10882   -11970   -13305 
  -14648   -15905   -16918   -17496   -17802   -18147   -18532   -18879 
  -19178   -19248   -18953   -18338   -17414   -16211   -14925   -14033 
  -14199   -15653   -17852   -20194   -22531   -24597   -25786   -25875 
  -25270   -24544   -24178   -24431   -25027   -25399   -25379   -25139 
  -24681   -23960   -23101   -22099   -20923   -19928   -19479   -19444 
  -19509   -19565   -19600   -19562   -19423   -19340   -19579   -20098 
  -20603   -20929   -20883   -20184   -18849   -17357   -16475   -16729 
  -17966   -19576   -20966   -21871   -22451   -23084   -24000   -25042 
  -25628   -25147   -23409   -20633   -17469   -15005   -14111   -14728 
  -16253   -18379   -20926   -23307   -24788   -25079   -24414   -23181 
  -21751   -20417   -19188   -18034   -17138   -16591   -16276   -16036 
  -15856   -15930   -16354   -16877   -17193   -17156   -16628   -15663 
  -14744   -14327   -14303   -14175   -13543   -12498   -11444   -10468 
   -9469    -8696    -8316    -8006    -7596    -7317    -7122    -6618 
   -5698    -4550    -3286    -2192    -1789    -2209    -3178    -4554 
   -6184    -7723    -9036   -10228   -11388   -12558   -13646   -14455 
  -14840   -14786   -14460   -13995   -13326   -12474   -11671   -11196 
  -11324   -12115   -13309   -14668   -16058   -17187   -17780   -17857 
  -17584   -17109   -16526   -15882   -15231   -14746   -14609   -14675 
  -14641   -14515   -14511   -14798   -15444   -16225   -16780   -17144 
  -17722   -18658   -19542   -19884   -19636   -19093   -18793   -19353 
  -20955   -23196   -25292   -26463   -26544   -26012   -25458   -25128 
  -24780   -24061   -23021   -22026   -21299   -20813   -20455   -20139 
  -19747   -19167   -18498   -17899   -17393   -17044   -17022   -17386 
  -17990   -18743   -19710   -20852   -21927   -22766   -23528   -24286 
  -24636   -24281   -23427   -22417   -21683   -21685   -22353   -23177 
  -23809   -24189   -24419   -24597   -24794   -25255   -26285   -27741 
  -28975   -29481   -29284   -28549   -27390   -26086   -24974   -24282 
  -24158   -24707   -25875   -27238   -28297   -28913   -29023   -28483 
  -27400   -26080   -24822   -23902   -23419   -23197   -23027   -22770 
  -22194   -21177   -20105   -19635   -20119   -21306   -22492   -23017 
  -22703   -21738   -20423   -19209   -18417   -17900   -17582   -17956 
  -19442   -21685   -23909   -25432   -25862   -25423   -24850   -24506 
  -23940   -22605   -20450   -17771   -15193   -13521   -13164   -13936 
  -15337   -16962   -18577   -19881   -20645   -20948   -21057   -21040 
  -20665   -19817   -18439   -16372   -13965   -12020   -10934   -10678 
  -11284   -12645   -14236   -15539   -16435   -17040   -17466   -17718 
  -17773   -17554   -16869   -15858   -15153   -15180   -15675   -16086 
  -16061   -15430   -14261   -13121   -12673   -12881   -13128   -13022 
  -12606   -12126   -11970   -12459   -13573   -15174   -17251   -19746 
  -22380   -24795   -26759   -28236   -29296   -29941   -30107   -29823 
  -29170   -28161   -26958   -26024   -25854   -26726   -28540   -30688 
  -32359   -32888   -31931   -29717   -26912   -24105   -21728   -20188 
  -19597   -19649   -20140   -21196   -22639   -23831   -24423   -24392 
  -23730   -22710   -21713   -20727   -19673   -18863   -18769   -19584 
  -20950   -22285   -23247   -23594   -23139   -21906   -20003   -17581 
  -14921   -12455   -10716   -10075   -10418   -11229   -11960   -12195 
  -11885   -11565   -11847   -12822   -14260   -15899   -17445   -18644 
  -19466   -20190   -21058   -21887   -22330   -22288   -21771   -20806 
  -19727   -18946   -18403   -17872   -17365   -16869   -16343   -15827 
  -15315   -14911   -14840   -15206   -16029   -17314   -19008   -20864 
  -22315   -22831   -22584   -22338   -22593   -23178   -23612   -23496 
  -22615   -21092   -19446   -18119   -17060   -16012   -15024   -14554 
  -15057   -16449   -18208   -19752   -20522   -20341   -19604   -18830 
  -18420   -18533   -19068   -19896   -20947   -22224   -23554   -24299 
  -23774   -21856   -19083   -16284   -14185   -13279   -13655   -14957 
  -16596   -17884   -18264   -17836   -17404   -17784   -19193   -21070 
  -22367   -22495   -21690   -20472   -19536   -19575   -20380   -20999 
  -21015   -20834   -20918   -21411   -22288   -23299   -24010   -24100 
  -23581   -22916   -22576   -22590   -23088   -24394   -26175   -27514 
  -27922   -27527   -26687   -25874   -25422   -25417   -25853   -26382 
  -26332   -25250   -23060   -19992   -16611   -13724   -11933   -11293 
  -11661   -12746   -13878   -14623   -15084   -15305   -15251   -15010 
  -14537   -13641   -12398   -11328   -10954   -11224   -11708   -12052 
  -12098   -12002   -12063   -12182   -12014   -11589   -11225   -11142 
  -11450   -12140   -13000   -13695   -13974   -13806   -13275   -12582 
  -12124   -12168   -12553   -13035   -13728   -14703   -15781   -16986 
  -18245   -19247   -20066   -20927   -21724   -22398   -23065   -23652 
  -23981   -24080   -24060   -23867   -23398   -22675   -21724   -20732 
  -20181   -20339   -21054   -21998   -22631   -22634   -22551   -23083 
  -24130   -25215   -26158   -26935   -27391   -27324   -26608   -25332 
  -23896   -22773   -22269   -22567   -23645   -25211   -27071   -29238 
  -31479   -33382   -34734   -35370   -35135   -34085   -32585   -31351 
  -30950   -31195   -31452   -31342   -30963   -30681   -30845   -31592 
  -32780   -33957   -34471   -33869   -32361   -30653   -29210   -28031 
  -27011   -26073   -25057   -23826   -22591   -21796   -21520   -21444 
  -21254   -20755   -19947   -19098   -18665   -19064   -20227   -21427 
  -21899   -21653   -21225   -20905   -20702   -20524   -20213   -19730 
  -19224   -18986   -19221   -19712   -19998   -19732   -18756   -17121 
  -15149   -13468   -12511   -12123   -12188   -12837   -13825   -14477 
  -14270   -13270   -12016   -10978   -10338   -10217   -10541   -10876 
  -11004   -11090   -11190   -11315   -11622   -12163   -12778   -13274 
  -13687   -14358   -15583   -17342   -19387   -21395   -23130   -24597 
  -25966   -27334   -28541   -29297   -29438   -28992   -28167   -27247 
  -26379   -25518   -24573   -23602   -22968   -23051   -23854   -25335 
  -27612   -30398   -32870   -34200   -33995   -32370   -29710   -26552 
  -23504   -21097   -19573   -18710   -18228   -18095   -18277   -18900 
  -20198   -21790   -22803   -22709   -21554   -19773   -17937   -16515 
  -15656   -14999   -14061   -12905   -12056   -12005   -12768   -13695 
  -14012   -13545   -12733   -12057   -11641   -11322   -10812    -9932 
   -8987    -8545    -8702    -9278   -10441   -12161   -13790   -14986 
  -16193   -17922   -20116   -22211   -23529   -23506   -22175   -20589 
  -19973   -20573   -21752   -22629   -22579   -21794   -21210   -21486 
  -22423   -23508   -24452   -25195   -25885   -26679   -27417   -27738 
  -27369   -26303   -24903   -23688   -22934   -22548   -22336   -22427 
  -23130   -24227   -24997   -25082   -24696   -24059   -23196   -22164 
  -20993   -19638   -18216   -16920   -15802   -14956   -14566   -14854 
  -16019   -17749   -19110   -19271   -18086   -15987   -13628   -11623 
  -10290    -9640    -9673   -10338   -11357   -12343   -12856   -12682 
  -12227   -12210   -13057   -14542   -15714   -15533   -13863   -11736 
  -10460   -10484   -11411   -12731   -14026   -14982   -15559   -15943 
  -16255   -16380   -16171   -15695   -15108   -14498   -14006   -13861 
  -14247   -15270   -16989   -19302   -21816   -23830   -24746   -24814 
  -25023   -26034   -27780   -29932   -31961   -33007   -32511   -30929 
  -29391   -28701   -28849   -29179   -28970   -28139   -27130   -26217 
  -25409   -24802   -24661   -25186   -26214   -27309   -28190   -28830 
  -29207   -29339   -29300   -28950   -28147   -26996   -25573   -23923 
  -22371   -21320   -20910   -21024   -21442   -22091   -23169   -24811 
  -26807   -28719   -30030   -30382   -29897   -29066   -28290   -27697 
  -27318   -27026   -26388   -25075   -23226   -21217   -19389   -18073 
  -17499   -17585   -17997   -18472   -18940   -19352   -19577   -19536 
  -19300   -19008   -18855   -19006   -19289   -19373   -19245   -19154 
  -19358   -19911   -20469   -20633   -20420   -20285   -20765   -21843 
  -22930   -23647   -24027   -24089   -23733   -22850   -21442   -19745 
  -18167   -17138   -16882   -17317   -18258   -19358   -20092   -20152 
  -19569   -18679   -18010   -17681   -17310   -16788   -16324   -15707 
  -14560   -13204   -12351   -12323   -13036   -14220   -15617   -17238 
  -19090   -20761   -21839   -22437   -22911   -23399   -23727   -23631 
  -23068   -22324   -21777   -21535   -21422   -21263   -20876   -20112 
  -19188   -18471   -17902   -17218   -16459   -15811   -15313   -14911 
  -14627   -14609   -15017   -15948   -17250   -18453   -19324   -20151 
  -21237   -22555   -23758   -24338   -24005   -22965   -21845   -21287 
  -21549   -22402   -23298   -23743   -23696   -23444   -23150   -22909 
  -22850   -22742   -22008   -20447   -18582   -17171   -16545   -16601 
  -17078   -17481   -17215   -16188   -14926   -13937   -13293   -12916 
  -12827   -12955   -13205   -13626   -14138   -14430   -14204   -13347 
  -12035   -10583    -9198    -8028    -7231    -6943    -7247    -7927 
   -8402    -8203    -7298    -5957    -4667    -3850    -3480    -3231 
   -2878    -2525    -2532    -3027    -3772    -4521    -5063    -5303 
   -5513    -5921    -6327    -6621    -7074    -7798    -8492    -8904 
   -9047    -8922    -8363    -7128    -5104    -2638     -466      880 
    1323     1021      240     -812    -2138    -3641    -4916    -5723 
   -6355    -7269    -8515    -9575    -9748    -8938    -7942    -7682 
   -8473   -10121   -12226   -14392   -16425   -18312   -20122   -21851 
  -23265   -24216   -24896   -25582   -26327   -26708   -26029   -24095 
  -21464   -19027   -17572   -17343   -17869   -18436   -18735   -18970 
  -19326   -19571   -19544   -19655   -20346   -21445   -22508   -23392 
  -24156   -24711   -24830   -24348   -23294   -21795   -19986   -18061 
  -16196   -14609   -13809   -14218   -15668   -17703   -20028   -22467 
  -24754   -26517   -27501   -27670   -27123   -26234   -25573   -25164 
  -24458   -23370   -22437   -22019   -22126   -22686   -23570   -24474 
  -25021   -25111   -24923   -24582   -24141   -23746   -23510   -23349 
  -23161   -23039   -23200   -23774   -24595   -25175   -25091   -24493 
  -23974   -23909   -24284   -24924   -25504   -25664   -25304   -24606 
  -23773   -22978   -22548   -22715   -23305   -23914   -23927   -22684 
  -20196   -17350   -15362   -15018   -16017   -17255   -17783   -17162 
  -15464   -13386   -11817   -11117   -11070   -11431   -12150   -13271 
  -14816   -16399   -17214   -16852   -15683   -14424   -13773   -14163 
  -15498   -17131   -18340   -18945   -19266   -19653   -20204   -20706 
  -20848   -20553   -20105   -19920   -20050   -20143   -19959   -19596 
  -19348   -19494   -20003   -20621   -21194   -21459   -21059   -20187 
  -19443   -19048   -18888   -18921   -19063   -19098   -18938   -18707 
  -18459   -18160   -17854   -17502   -16858   -15690   -14049   -12268 
  -10824   -10305   -11086   -12847   -14689   -15872   -16314   -16265 
  -15827   -15032   -13962   -12740   -11671   -11102   -11025   -11154 
  -11213   -11180   -11380   -12129   -13552   -15679   -18222   -20656 
  -22550   -23588   -23857   -23938   -24219   -24572   -24637   -24119 
  -23038   -21709   -20616   -20177   -20126   -19747   -19053   -18724 
  -18954   -19368   -19634   -19495   -18794   -17805   -17090   -16987 
  -17539   -18685   -20179   -21633   -22785   -23530   -23803   -23575 
  -23011   -22500   -22246   -21991   -21505   -20922   -20322   -19631 
  -19024   -18730   -18658   -18705   -19008   -19695   -20793   -22364 
  -24334   -26212   -27266   -27043   -25673   -23770   -22081   -21242 
  -21545   -22587   -23448   -23359   -22091   -20044   -18010   -16445 
  -15138   -13795   -12499   -11457   -10658    -9951    -9378    -9202 
   -9556   -10396   -11709   -13324   -14803   -15855   -16455   -16559 
  -16211   -15729   -15325   -14754   -13735   -12320   -10679    -8979 
   -7364    -5872    -4585    -3600    -2938    -2770    -3257    -4088 
   -4717    -4983    -5040    -4859    -4252    -3126    -1508      223 
    1198      744     -948    -3081    -4815    -5660    -5767    -5644 
   -5439    -4984    -4466    -4310    -4574    -5013    -5367    -5395 
   -5041    -4474    -3817    -3007    -1917     -733        9      152 
      61     -196     -845    -1767    -2661    -3522    -4421    -5343 
   -6478    -8054    -9947   -11900   -13719   -14973   -15033   -13682 
  -11295    -8462    -6007    -4914    -5628    -7785   -10724   -13897 
  -16819   -18918   -19821   -19620   -18596   -17107   -15702   -14908 
  -14998   -15864   -16955   -17661   -17889   -18035   -18345   -18640 
  -18808   -19176   -20090   -21665   -24023   -26958   -29645   -31266 
  -31606   -31034   -30200   -29717   -29820   -30205   -30567   -31003 
  -31716   -32772   -33804   -34072   -33371   -32147   -30782   -29588 
  -28947   -28982   -29587   -30730   -32163   -33330   -34055   -34663 
  -35299   -35825   -36058   -35611   -34129   -31821   -29294   -27085 
  -25553   -24811   -24802   -25537   -26879   -28383   -29672   -30622 
  -31225   -31620   -32081   -32674   -32996   -32594   -31508   -30098 
  -28668   -27257   -25555   -23216   -20255   -17085   -14327   -12420 
  -11332   -10608    -9813    -9137    -9280   -10627   -12803   -14986 
  -16448   -16730   -15728   -13973   -12299   -10982    -9789    -8812 
   -8298    -8172    -8601   -10014   -12291   -14680   -16188   -16110 
  -14624   -12581   -10825    -9877    -9764   -10082   -10335   -10295 
  -10247   -10659   -11430   -11910   -11744   -11274   -11159   -11886 
  -13383   -15018   -16119   -16289   -15388   -13532   -11019    -8397 
   -6586    -6419    -7884   -10162   -12432   -14191   -15076   -15021 
  -14286   -13138   -12044   -11768   -12579   -13914   -15111   -15798 
  -15742   -14978   -13908   -12966   -12228   -11489   -10717   -10103 
   -9677    -9167    -8356    -7514    -7265    -7993    -9573   -11654 
  -14106   -17093   -20612   -24162   -27046   -28857   -29352   -28433 
  -26711   -25201   -24276   -23678   -23083   -22335   -21723   -21750 
  -22577   -24042   -25700   -26838   -27118   -26772   -26126   -25458 
  -25092   -25294   -26030   -26766   -26936   -26509   -25739   -24885 
  -24330   -24397   -24967   -25485   -25401   -24594   -23386   -22142 
  -21094   -20615   -21089   -22402   -24111   -25803   -26999   -27284 
  -26674   -25530   -24157   -22733   -21474   -20492   -19715   -19078 
  -18451   -17715   -16902   -15988   -15135   -15019   -16127   -17970 
  -19334   -19246   -17663   -15413   -13592   -12802   -12857   -13252 
  -13648   -13953   -14412   -15392   -16806   -18370   -20071   -21636 
  -22474   -22408   -21659   -20394   -18642   -16527   -14521   -13263 
  -12959   -13193   -13484   -13643   -13692   -13850   -14162   -14400 
  -14711   -15613   -17360   -19473   -20998   -21622   -22024   -22899 
  -24115   -24677   -23668   -21324   -18658   -16268   -14272   -12777 
  -11760   -11189   -11103   -11298   -11463   -11558   -11811   -12420 
  -13293   -14130   -14700   -15015   -15050   -14595   -13658   -12483 
  -11244   -10314   -10371   -11469   -12740   -13639   -14389   -15126 
