Origin Time       2011/03/11 14:46:00
Lat.              38.103
Long.             142.860
Depth. (km)       24
Mag.              9.0
Station Code      NIG002
Station Lat.      38.0748
Station Long.     138.4407
Station Height(m) 3
Record Time       2011/03/11 14:47:35
Sampling Freq(Hz) 100Hz
Duration Time(s)  300
Dir.              E-W
Scale Factor      3920(gal)/6182761
Max. Acc. (gal)   15.565
Last Correction   2011/03/11 14:47:20
Memo.             
[...]
    1673     1968     2204     2460     2660     2687     2688     2808 
    2979     3183     3523     4033     4659     5394     6265     7153 
    7954     8769     9623    10406    11120    11772    12290    12624 
   12763    12761    12696    12559    12356    12174    12102    12172 
   12316    12434    12590    12924    13244    13318    13402    13689 
   14007    14314    14687    15087    15399    15525    15416    15084 
   14621    14171    13872    13718    13613    13657    13987    14490 
   15020    15542    16040    16416    16486    16277    16031    15865 
   15759    15690    15591    15423    15264    15079    14763    14407 
   14084    13789    13642    13614    13440    13113    12889    12700 
   12343    11985    11812    11860    12020    12024    12016    12205 
   12240    11995    11708    11365    10866    10192     9449     8815 
    8244     7639     7110     6707     6263     5687     5060     4462 
    3908     3345     2866     2632     2440     2048     1577     1190 
     871      522      162      -69     -183     -366     -716    -1156 
   -1613    -2122    -2592    -2859    -3017    -3182    -3237    -3099 
   -2847    -2533    -2114    -1622    -1206     -894     -610     -343 
     -50      349      916     1716     2671     3554     4370     5233 
    6029     6664     7182     7627     8102     8695     9390    10097 
   10713    11221    11646    12036    12439    12770    12915    12966 
   13072    13178    13234    13384    13721    14158    14590    15020 
   15428    15734    15896    15976    16114    16305    16419    16597 
   17069    17595    17856    18012    18151    18032    17710    17418 
   17102    16713    16324    15998    15862    15963    16189    16417 
   16587    16656    16475    15967    15307    14579    13760    13008 
   12407    11820    11175    10596    10159     9729     9314     9049 
    8787     8347     7737     7034     6431     6000     5634     5419 
    5470     5618     5675     5635     5487     5219     4907     4617 
    4421     4350     4312     4256     4211     4145     3981     3744 
    3579     3495     3310     3133     3262     3592     3972     4568 
    5298     5834     6066     5960     5553     5042     4447     3743 
    3189     2937     2776     2565     2410     2344     2241     2071 
    1870     1607     1283      898      438       41     -158     -207 
     -44      451     1137     1987     3068     4154     5179     6266 
    7266     8049     8647     9048     9282     9334     9133     8812 
    8596     8561     8601     8604     8706     9029     9428     9755 
   10044    10440    10971    11457    11872    12275    12467    12479 
   12674    12793    12436    12212    12242    11762    11207    10950 
   10376     9838     9628     9150     8512     8035     7499     6991 
    6640     6163     5672     5396     5008     4434     4043     3728 
    3136     2613     2384     2119     2094     2454     2723     3174 
    4063     4778     5179     5655     6198     6694     7106     7397 
    7741     8204     8591     8992     9633    10401    11092    11601 
   11916    12044    11882    11512    11096    10520     9773     9109 
    8713     8497     8380     8545     8983     9398     9704     9887 
    9781     9370     8858     8399     8073     7901     7745     7595 
    7620     7772     7914     8087     8275     8471     8797     9278 
    9828    10372    10844    11189    11419    11493    11319    10969 
   10532    10006     9315     8454     7744     7364     7090     6861 
    6730     6521     6124     5719     5381     4906     4240     3526 
    2815     2022     1142      407      -84     -475     -761     -842 
    -660     -232      384     1231     2300     3485     4721     5890 
    6883     7741     8495     9063     9449     9711     9762     9580 
    9288     8916     8434     7973     7720     7641     7640     7832 
    8253     8729     9193     9743    10497    11393    12262    13042 
   13699    14284    14840    15351    15913    16498    17023    17408 
   17412    17059    16667    16377    16155    16052    16222    16679 
   17277    17888    18323    18439    18398    18321    18082    17706 
   17340    16891    16093    14859    13381    11852    10343     8906 
    7681     6777     6109     5587     5194     4837     4403     3889 
    3329     2659     1824      915      -17    -1101    -2412    -3786 
   -5100    -6405    -7649    -8685    -9495   -10086   -10498   -10882 
  -11254   -11492   -11540   -11433   -11252   -10996   -10636   -10215 
   -9731    -9151    -8476    -7702    -6816    -5853    -4895    -3982 
   -3147    -2482    -2037    -1718    -1477    -1435    -1548    -1657 
   -1666    -1436    -1046     -569      139      950     1710     2532 
    3447     4390     5305     6146     6890     7558     8179     8698 
    9061     9218     9104     8737     8141     7357     6552     5851 
    5310     5039     5023     5087     5162     5295     5428     5466 
    5528     5726     5910     6091     6477     6983     7449     7895 
    8317     8695     9042     9361     9704    10051    10225    10126 
    9801     9282     8588     7783     6958     6167     5485     5016 
    4722     4524     4419     4352     4315     4364     4378     4246 
    4106     4061     4006     3871     3768     3784     3858     3948 
    4118     4393     4728     5164     5708     6220     6623     6925 
    7012     6743     6159     5396     4606     3914     3390     3195 
    3458     4037     4790     5704     6690     7691     8625     9255 
    9586     9814    10006    10211    10455    10772    11222    11736 
   12302    12965    13678    14458    15313    16133    16847    17413 
   17799    18035    18000    17608    17088    16557    15926    15217 
   14555    14085    13760    13476    13293    13219    13188    13134 
   13002    12765    12409    11982    11533    11142    10961    11030 
   11363    12001    12840    13736    14672    15643    16541    17282 
   17884    18377    18702    18719    18406    17856    17107    16251 
   15532    15143    15099    15359    15870    16504    17180    17964 
   18879    19775    20503    21049    21440    21686    21793    21756 
   21576    21350    21192    21052    20904    20879    20940    20906 
   20767    20639    20501    20192    19651    18949    18119    17087 
   15835    14530    13276    12081    11049    10210     9417     8583 
    7825     7207     6582     5933     5423     5093     4888     4759 
    4675     4622     4593     4578     4586     4672     4887     5237 
    5678     6145     6567     6845     6931     6770     6311     5691 
    5050     4367     3674     3072     2599     2233     1930     1636 
    1330     1052      809      547      322      248      339      543 
     755      881      915      985     1247     1614     1926     2252 
    2639     2934     3011     2898     2692     2480     2258     1959 
    1635     1397     1219     1029      886      884      987     1096 
    1195     1321     1461     1523     1435     1221      943      615 
     291       54     -188     -481     -597     -479     -325     -136 
     231      770     1353     1913     2490     3082     3639     4154 
    4586     4831     4826     4625     4315     3912     3380     2752 
    2155     1612     1061      578      248       50       -2      127 
     433      868     1251     1363     1214      918      418     -339 
   -1202    -1945    -2514    -2987    -3319    -3427    -3427    -3419 
   -3360    -3266    -3132    -2838    -2389    -1902    -1385     -826 
    -298      128      413      548      627      766      916     1012 
    1178     1490     1891     2311     2691     3074     3527     3995 
    4466     4958     5402     5772     6077     6323     6555     6764 
    6962     7215     7510     7801     8087     8402     8726     9006 
    9360     9861    10410    10964    11563    12193    12739    13140 
   13418    13574    13620    13508    13180    12655    11979    11254 
   10548     9867     9246     8700     8234     7883     7618     7365 
    7175     7211     7478     7844     8328     9014     9757    10332 
   10703    10889    10847    10577    10110     9499     8820     8153 
    7615     7214     6940     6895     7089     7525     8235     9112 
   10070    11056    11922    12598    13093    13357    13399    13251 
   12919    12509    12105    11750    11545    11497    11574    11793 
   12123    12572    13178    13815    14357    14802    15063    15049 
   14791    14328    13730    13135    12626    12226    12004    12022 
   12240    12653    13323    14147    14905    15546    16126    16601 
   16936    17134    17251    17400    17663    18135    18837    19686 
   20654    21661    22622    23470    23990    24142    24120    23966 
   23693    23478    23468    23662    23997    24445    24975    25483 
   25936    26351    26615    26640    26425    25974    25325    24387 
   23117    21674    20109    18448    16838    15331    13830    12284 
   10800     9426     8077     6721     5360     3992     2663     1398 
     191     -862    -1653    -2192    -2535    -2753    -2819    -2663 
   -2404    -2099    -1655    -1145     -645      -73      564     1169 
    1708     2198     2686     3244     3973     4988     6281     7635 
    8840     9902    10876    11741    12506    13155    13650    14026 
   14271    14302    14093    13693    13236    12765    12101    11269 
   10479     9668     8859     8222     7665     7167     6828     6577 
    6332     6115     5942     5675     5203     4637     4072     3518 
    3054     2754     2620     2720     3129     3673     4130     4493 
    4767     4930     5022     5066     5093     5188     5316     5300 
    5099     4820     4494     4074     3545     2931     2297     1673 
    1023      411      -30     -298     -495     -650     -762     -926 
   -1269    -1778    -2362    -3062    -3844    -4469    -4881    -5185 
   -5332    -5232    -4944    -4651    -4450    -4258    -4053    -3961 
   -4028    -4168    -4287    -4395    -4545    -4684    -4744    -4724 
   -4633    -4500    -4278    -3898    -3371    -2683    -1798     -755 
     390     1574     2641     3425     3920     4161     4110     3730 
    3091     2389     1731     1075      438     -150     -725    -1287 
   -1871    -2457    -2932    -3258    -3377    -3260    -3089    -2930 
   -2615    -2176    -1762    -1307     -724      -39      702     1410 
    2012     2556     3049     3437     3767     4138     4597     5101 
    5561     5988     6454     6950     7457     7947     8369     8770 
    9155     9344     9286     9061     8665     8183     7671     6992 
    6153     5355     4668     4042     3553     3367     3494     3835 
    4366     5098     6023     7135     8428     9847    11221    12504 
   13805    14994    15900    16696    17526    18326    19063    19707 
   20269    20857    21377    21634    21738    21947    22287    22606 
   22896    23282    23790    24351    24887    25346    25684    25854 
   25850    25688    25367    24941    24520    24151    23761    23309 
   22855    22388    21852    21250    20610    19990    19419    18862 
   18298    17744    17270    16937    16676    16407    16231    16255 
   16367    16407    16341    16153    15780    15179    14311    13093 
   11539     9811     7959     5960     3929     2026      309    -1270 
   -2708    -3957    -5040    -5984    -6776    -7360    -7694    -7815 
   -7741    -7479    -7160    -6878    -6550    -6116    -5604    -4954 
   -4155    -3355    -2644    -1989    -1312     -533      388     1487 
    2788     4304     5981     7628     9118    10463    11640    12535 
   13073    13320    13335    13151    12913    12758    12676    12637 
   12686    12860    13070    13144    13090    13019    12854    12439 
   11834    11235    10710    10252     9912     9746     9794    10036 
   10425    10900    11326    11700    12117    12506    12756    12897 
   13032    13156    13182    13214    13414    13684    13957    14354 
   14857    15423    16086    16691    17128    17512    17834    17965 
   17889    17689    17420    17108    16826    16596    16405    16331 
   16404    16570    16823    17179    17639    18134    18573    18941 
   19289    19731    20294    20923    21630    22360    23041    23681 
   24178    24437    24531    24490    24226    23722    23104    22457 
   21737    20947    20168    19450    18828    18348    17951    17515 
   17074    16666    16213    15737    15353    15103    14918    14773 
   14744    14785    14777    14738    14698    14605    14371    13957 
   13410    12702    11794    10856     9952     8959     7945     7054 
    6274     5624     5154     4843     4742     4857     5014     5148 
    5346     5551     5621     5462     5067     4621     4253     3840 
    3364     3011     2844     2830     3048     3548     4278     5174 
    6154     7128     7972     8605     9088     9440     9583     9597 
    9658     9743     9818    10019    10401    10897    11462    12063 
   12669    13212    13617    13848    13890    13724    13352    12846 
   12315    11823    11387    11022    10736    10438    10029     9548 
    9063     8597     8125     7624     7132     6635     6043     5339 
    4632     3979     3306     2618     2033     1524      988      411 
    -179     -822    -1636    -2653    -3806    -5119    -6603    -8149 
   -9680   -11194   -12643   -13897   -14876   -15584   -15938   -15923 
  -15683   -15245   -14647   -13995   -13211   -12277   -11359   -10447 
   -9433    -8332    -7170    -5972    -4752    -3420    -1984     -593 
     722     1971     3143     4320     5513     6634     7737     8866 
    9883    10709    11396    12020    12683    13426    14234    15138 
   16166    17223    18092    18651    18994    19181    19186    19126 
   19133    19157    19129    19097    19097    19042    18867    18616 
   18290    17869    17395    16877    16254    15423    14297    12917 
   11432     9935     8445     7105     6111     5519     5339     5583 
    6188     7030     7925     8723     9314     9561     9506     9246 
    8713     7937     7066     6228     5566     5087     4757     4727 
    5002     5335     5627     5966     6355     6688     6905     7023 
    7023     6921     6784     6590     6326     6119     6121     6395 
    6908     7653     8697    10017    11405    12661    13801    14929 
   15989    16821    17413    17939    18405    18619    18605    18533 
   18529    18686    18993    19393    19817    20187    20513    20778 
   20852    20719    20581    20607    20715    20762    20850    21135 
   21492    21722    21833    21911    21991    22040    22032    21990 
   21951    21928    21924    21945    21963    21946    21886    21718 
   21393    21006    20711    20572    20542    20601    20800    21101 
   21319    21298    21062    20745    20387    19956    19584    19499 
   19760    20294    21000    21778    22593    23437    24253    24965 
   25525    25966    26346    26602    26625    26419    26075    25676 
   25194    24498    23641    22858    22126    21295    20463    19737 
   19074    18419    17751    17126    16571    16060    15626    15249 
   14863    14469    14069    13657    13208    12722    12334    12150 
   12010    11752    11472    11245    10957    10537    10030     9494 
    8948     8375     7832     7456     7301     7283     7343     7475 
    7661     7907     8212     8497     8652     8597     8365     8018 
    7549     6996     6511     6154     5796     5386     5020     4698 
    4418     4215     4053     3960     3962     3974     3967     3912 
    3774     3616     3495     3437     3466     3543     3655     3792 
    3830     3675     3402     3062     2570     1868     1028      179 
    -617    -1389    -2087    -2584    -2877    -3044    -3098    -2980 
   -2666    -2245    -1788    -1304     -892     -616     -459     -461 
    -595     -715     -721     -605     -410     -125      341      986 
    1655     2350     3276     4343     5293     6129     6767     7212 
    7598     7710     7624     7706     7873     8111     8564     9198 
    9995    10921    11911    12893    13717    14327    14798    15094 
   15161    15146    15243    15454    15717    16052    16464    16869 
   17139    17188    17042    16768    16399    15961    15479    14909 
   14174    13330    12488    11605    10635     9679     8831     8098 
    7464     6972     6683     6545     6515     6600     6730     6882 
    7048     7125     7125     7158     7180     7105     7035     7100 
    7219     7273     7261     7183     6985     6701     6471     6340 
    6188     5955     5693     5395     4981     4470     4029     3772 
    3623     3459     3245     2934     2523     2089     1661     1280 
    1052     1031     1188     1359     1395     1374     1309     1062 
     714      462      421      628     1005     1548     2265     2960 
    3510     3942     4208     4235     3978     3434     2744     2036 
    1361      862      596      484      589     1031     1743     2538 
    3326     4155     5000     5719     6252     6681     7154     7719 
    8241     8680     9190     9786    10285    10607    10870    11207 
   11592    11920    12198    12511    12882    13354    13946    14604 
   15319    16116    16901    17452    17635    17497    17124    16567 
   15823    14926    14058    13260    12374    11410    10495     9673 
    8931     8263     7730     7394     7231     7195     7288     7512 
    7850     8259     8676     9079     9469     9827    10175    10582 
   11060    11554    12082    12607    12933    13049    13066    12846 
   12278    11497    10637     9693     8621     7477     6365     5316 
    4327     3405     2550     1742      950      163     -617    -1406 
   -2195    -2894    -3431    -3894    -4361    -4695    -4799    -4768 
   -4588    -4089    -3228    -2098     -732      844     2486     4019 
    5311     6334     7229     8074     8797     9421    10000    10504 
   10893    11171    11442    11790    12180    12661    13400    14368 
   15409    16488    17622    18748    19737    20540    21172    21490 
   21360    20850    19982    18779    17454    16226    15179    14317 
   13598    12995    12514    12123    11812    11639    11592    11625 
   11779    12070    12436    12807    13150    13448    13630    13649 
   13546    13339    13042    12695    12296    11932    11731    11633 
   11611    11844    12384    13000    13440    13714    13955    14032 
   13763    13255    12626    11839    10901     9884     8851     7853 
    6936     6155     5540     5113     4978     5197     5706     6458 
    7449     8617     9782    10748    11537    12306    13001    13479 
   13833    14256    14758    15237    15661    16062    16463    16798 
   17003    17175    17362    17450    17401    17231    16900    16436 
   15895    15340    14885    14592    14483    14606    14861    15097 
   15385    15868    16533    17295    18111    18989    19910    20737 
   21397    22012    22639    23145    23445    23618    23702    23600 
   23260    22769    22208    21613    21039    20590    20307    20120 
   20020    20041    20065    19930    19681    19405    19000    18353 
