Origin Time       2011/03/11 14:46:00
Lat.              38.103
Long.             142.860
Depth. (km)       24
Mag.              9.0
Station Code      NIG018
Station Lat.      37.3727
Station Long.     138.5583
Station Height(m) 10
Record Time       2011/03/11 14:47:43
Sampling Freq(Hz) 100Hz
Duration Time(s)  300
Dir.              U-D
Scale Factor      3920(gal)/6182761
Max. Acc. (gal)   10.765
Last Correction   2011/03/11 14:47:28
Memo.             
[...]
   18579    18213    18052    17925    17863    17924    17726    17179 
   16569    16078    15899    16095    16521    17009    17334    17423 
   17444    17446    17383    17332    17345    17373    17398    17427 
   17421    17396    17440    17460    17244    16748    16064    15281 
   14502    13944    13804    14037    14444    14748    14671    14225 
   13643    13095    12609    12071    11421    10782    10178     9530 
    8910     8391     8015     7862     7877     7915     7963     8112 
    8454     8907     9265     9554    10013    10814    11980    13415 
   14936    16333    17513    18548    19488    20268    20859    21441 
   22087    22527    22615    22463    22144    21708    21242    20824 
   20459    20060    19626    19273    18996    18651    18159    17518 
   16759    16125    15912    16023    16171    16282    16390    16527 
   16730    16976    17260    17726    18496    19375    19980    20147 
   19970    19652    19490    19570    19632    19517    19246    18800 
   18351    18144    18045    17791    17310    16519    15423    14252 
   13115    11993    10906     9783     8639     7688     6943     6251 
    5664     5329     5265     5416     5659     5951     6251     6354 
    6370     6562     6710     6764     7043     7420     7658     7830 
    7960     8194     8861    10016    11364    12542    13324    13680 
   13789    13747    13430    12942    12484    11935    11183    10276 
    9232     8253     7677     7615     7928     8379     8857     9425 
   10105    10872    11655    12295    12661    12708    12496    12066 
   11398    10596     9826     9164     8665     8471     8656     9014 
    9374     9873    10528    11157    11766    12434    12999    13281 
   13343    13270    13104    13024    13177    13472    13705    13694 
   13305    12473    11345    10240     9364     8807     8627     8687 
    8735     8663     8394     7884     7358     7097     7164     7536 
    8117     8756     9401    10048    10737    11547    12455    13416 
   14432    15489    16578    17596    18388    18973    19424    19666 
   19615    19338    18915    18311    17482    16527    15579    14590 
   13532    12613    11977    11447    10798    10040     9352     8871 
    8643     8637     8613     8283     7695     7133     6885     7144 
    7801     8560     9255     9897    10553    11247    11919    12559 
   13192    13693    13917    13883    13601    13115    12737    12637 
   12619    12508    12175    11732    11543    11687    11984    12270 
   12466    12587    12743    13026    13222    13128    12882    12643 
   12440    12255    12084    11941    11800    11584    11174    10531 
    9772     9062     8547     8234     7959     7569     7032     6592 
    6615     7106     7843     8765     9747    10539    11127    11690 
   12333    13022    13631    14114    14458    14493    14177    13750 
   13349    12932    12501    12066    11625    11258    11069    11138 
   11449    11894    12402    12894    13314    13745    14239    14755 
   15282    15815    16324    16702    16849    16884    17023    17358 
   17852    18368    18786    19157    19581    20081    20607    21016 
   21163    21048    20735    20241    19608    18886    18111    17396 
   16879    16571    16340    16056    15728    15402    15051    14633 
   14209    13854    13536    13199    12805    12326    11765    11122 
   10358     9470     8574     7785     7071     6371     5676     4968 
    4250     3565     2971     2554     2328     2165     1965     1770 
    1639     1612     1794     2262     2945     3775     4748     5814 
    6930     8066     9055     9823    10539    11272    11979    12725 
   13458    14048    14604    15186    15710    16210    16624    16862 
   17029    17162    17158    16906    16358    15658    15028    14593 
   14360    14264    14242    14343    14645    15012    15310    15712 
   16377    17298    18425    19541    20383    20899    21098    20946 
   20552    20049    19474    18922    18475    18158    17941    17640 
   17083    16352    15673    15131    14630    14034    13261    12422 
   11735    11111    10306     9307     8223     7227     6489     5995 
    5631     5306     4977     4640     4314     4061     3977     4175 
    4692     5333     5887     6363     6744     6970     7232     7817 
    8705     9691    10675    11552    12212    12743    13251    13665 
   13951    14148    14214    14200    14321    14616    14923    15161 
   15308    15307    15122    14782    14363    13942    13530    13063 
   12575    12179    11830    11409    10882    10269     9672     9218 
    8895     8621     8425     8386     8487     8712     9035     9352 
    9663    10014    10371    10760    11218    11693    12232    12926 
   13676    14317    14691    14623    14136    13499    12995    12831 
   13086    13534    13782    13636    13184    12685    12363    12230 
   12215    12233    12147    11851    11408    11030    10881    10993 
   11322    11712    12020    12253    12494    12830    13284    13738 
   14033    14074    13862    13488    13115    12973    13131    13422 
   13682    13802    13821    13997    14501    15289    16277    17330 
   18251    18910    19204    19099    18767    18333    17754    17043 
   16176    15026    13647    12199    10756     9473     8507     7788 
    7243     6862     6552     6311     6117     5788     5301     4756 
    4145     3523     3070     2869     2886     3095     3457     3925 
    4329     4439     4277     4006     3713     3477     3363     3336 
    3247     2980     2579     2177     1904     1764     1684     1645 
    1565     1379     1271     1427     1801     2322     2916     3438 
    3910     4483     5196     6071     7089     8125     9109    10058 
   11034    12070    13056    13774    14172    14373    14394    14404 
   14765    15309    15557    15552    15599    15717    15936    16347 
   16752    16966    17007    16867    16645    16462    16223    15945 
   15689    15292    14715    14037    13187    12191    11301    10688 
   10357    10234    10132     9959     9813     9848    10198    10795 
   11470    12212    12914    13347    13503    13458    13262    13084 
   13020    12998    13049    13292    13713    14168    14549    14860 
   15050    15011    14781    14420    13846    13060    12255    11554 
   10874    10150     9370     8565     7932     7529     7149     6740 
    6457     6444     6745     7209     7593     7810     7954     8204 
    8709     9322     9737     9908     9934     9939    10191    10827 
   11708    12711    13728    14584    15226    15714    16116    16484 
   16718    16631    16223    15590    14815    14093    13579    13280 
   13194    13295    13443    13548    13692    13912    14130    14319 
   14416    14323    14084    13750    13238    12528    11743    10983 
   10261     9617     9108     8694     8341     8070     7854     7763 
    7971     8458     9084     9765    10396    10934    11457    12024 
   12701    13483    14188    14725    15206    15664    16028    16342 
   16713    17182    17748    18361    18916    19319    19576    19801 
   19987    19952    19563    18776    17690    16542    15497    14639 
   14058    13742    13594    13607    13856    14287    14844    15563 
   16333    17011    17582    18005    18232    18288    18228    18099 
   17953    17857    17803    17799    17925    18183    18462    18599 
   18538    18432    18390    18299    18036    17615    17090    16475 
   15781    15102    14536    14105    13832    13713    13656    13620 
   13635    13729    13890    14047    14158    14220    14229    14215 
   14142    13955    13690    13377    13053    12822    12730    12790 
   13046    13417    13774    14157    14630    15112    15489    15697 
   15772    15897    16250    16811    17419    17897    18136    18198 
   18217    18269    18400    18616    18932    19410    19997    20612 
   21237    21687    21840    21814    21666    21505    21492    21458 
   21218    20865    20472    20123    19913    19841    19969    20344 
   20779    20998    20846    20335    19639    18934    18269    17627 
   16894    15983    14937    13773    12523    11335    10389     9827 
    9665     9765     9930    10003     9916     9636     9153     8571 
    8053     7711     7639     7847     8165     8364     8350     8191 
    7982     7791     7687     7634     7513     7276     6913     6509 
    6306     6457     6941     7699     8646     9745    11001    12346 
   13701    15061    16444    17764    18927    20030    21196    22376 
   23416    24204    24817    25380    25857    26174    26305    26251 
   26011    25535    24779    23721    22425    21139    19980    18893 
   18007    17478    17397    17836    18649    19598    20505    21136 
   21312    21102    20658    20022    19259    18465    17612    16696 
   15782    14934    14270    13842    13561    13375    13235    13049 
   12779    12415    11942    11428    10975    10618    10399    10361 
   10423    10481    10544    10667    10828    10962    11118    11450 
   12055    12933    13999    15087    16099    17028    17839    18519 
   19087    19499    19719    19789    19727    19528    19294    19100 
   18925    18834    18834    18749    18566    18295    17768    17054 
   16344    15702    15210    14833    14477    14209    14110    14189 
   14422    14707    14924    14966    14704    14177    13665    13268 
   12965    12943    13186    13413    13560    13711    13918    14129 
   14287    14448    14486    14255    13916    13623    13455    13510 
   13741    14059    14433    14807    15086    15132    14839    14288 
   13718    13326    13136    13071    12979    12717    12343    12043 
   11889    11829    11827    11858    11851    11721    11269    10453 
    9700     9234     8864     8720     8962     9369     9916    10588 
   11319    12306    13396    14266    15014    15761    16595    17469 
   18072    18372    18465    18303    18052    17716    17035    16233 
   15672    15255    14996    15078    15241    15289    15364    15274 
   14975    14822    14904    15214    15678    16065    16278    16333 
   16378    16515    16643    16708    16622    16168    15334    14385 
   13514    12751    12195    11949    11952    12076    12237    12400 
   12542    12707    13067    13589    13971    14113    14115    14081 
   14136    14293    14467    14614    14679    14639    14502    14231 
   13887    13575    13224    12687    11933    11125    10559    10404 
   10581    10952    11355    11603    11662    11658    11673    11683 
   11658    11623    11617    11697    11960    12389    12836    13179 
   13272    13091    12804    12441    11978    11589    11391    11308 
   11339    11545    11945    12585    13383    14186    14932    15556 
   15965    16044    15804    15407    14963    14608    14506    14603 
   14736    14879    15151    15646    16148    16335    16338    16456 
   16604    16675    16811    17028    17240    17465    17799    18266 
   18629    18813    19126    19549    19895    20229    20393    20186 
   19845    19739    19951    20311    20658    20948    21099    21037 
   20954    21055    21293    21563    21707    21632    21337    20840 
   20237    19510    18647    17833    17141    16583    16377    16619 
   16906    16834    16623    16476    16224    16033    16097    16128 
   15967    15775    15629    15439    15053    14396    13633    13010 
   12563    12257    12170    12251    12256    12047    11700    11287 
   10831    10379     9962     9666     9517     9430     9429     9426 
    9335     9444     9868    10498    11397    12399    13272    14024 
   14621    15119    15600    15991    16250    16346    16299    16225 
   16169    16185    16317    16464    16582    16723    16882    17129 
   17586    18164    18667    19097    19673    20469    21149    21513 
   21825    22054    21966    21717    21442    21143    20874    20618 
   20325    19922    19409    18884    18377    17849    17376    16965 
   16306    15431    14608    13638    12563    11610    10495     9240 
    8220     7363     6605     6076     5685     5338     5103     4977 
    4977     5314     6005     6675     7215     7813     8391     8930 
    9539    10129    10670    11187    11570    11718    11689    11753 
   12116    12746    13559    14456    15279    15965    16581    17171 
   17767    18417    19039    19468    19679    19710    19530    19228 
   19025    19025    19185    19451    19795    20150    20489    20820 
   21033    21087    21117    21100    20911    20651    20440    20276 
   20251    20510    21000    21434    21653    21775    21809    21679 
   21563    21581    21547    21316    20896    20275    19446    18580 
   17906    17414    16957    16473    15905    15257    14656    14128 
   13639    13220    12762    12132    11459    10900    10504    10268 
   10221    10520    11085    11576    11987    12542    13238    13972 
   14737    15509    16183    16663    16937    17163    17482    17856 
   18307    18931    19690    20429    20945    21266    21618    21923 
   21988    21891    21592    20911    20052    19319    18797    18625 
   18855    19351    19965    20607    21373    22288    23199    24234 
   25538    26749    27566    28163    28664    28973    29144    29325 
   29487    29508    29410    29357    29467    29714    30000    30333 
   30701    30781    30447    30002    29505    28927    28360    27604 
   26444    25004    23454    21864    20391    19150    18017    17002 
   16269    15602    14659    13450    12286    11530    10962    10047 
    9080     8625     8403     7997     7660     7405     7133     7319 
    7506     7106     7071     7521     7440     6853     6328     6115 
    6089     5997     6184     6810     7108     6970     7156     7652 
    7953     8215     8768     9250     9309     9261     9179     8883 
    8638     8737     9221     9965    10781    11608    12331    12864 
   13299    13729    14128    14311    14085    13460    12602    11710 
   11068    10903    11055    11273    11700    12555    13619    14523 
   15210    15729    16008    16009    15892    15698    15302    14806 
   14188    13393    12733    12265    11846    11507    11121    10715 
   10549    10406     9939     9399     9063     8800     8525     8336 
    8405     8599     8498     8207     8124     8316     8676     9034 
    9385     9677     9676     9587     9612     9395     8865     8319 
    7562     6401     5348     4709     4370     4488     4812     4789 
    4914     5616     6063     6038     6318     6789     7042     7404 
    7941     8287     8457     8793     9364     9871    10295    11312 
   12994    14503    15815    16877    17653    19120    20632    21056 
   21532    22685    23581    23937    24427    25255    25627    25429 
   25578    25913    25607    25020    24702    24190    23286    22569 
   21873    20881    20110    19609    19231    18922    18341    17643 
   17177    16841    16484    16347    16478    16414    16156    16133 
   16120    15656    15047    14564    14464    15045    15720    16431 
   17460    18176    18633    19321    20092    20882    21496    21641 
   21471    21122    20719    20350    19824    19450    19560    19684 
   19630    19696    19940    20430    21050    21214    20894    20589 
   20211    19487    18604    17949    17478    16823    16189    15818 
   15482    15141    14878    14769    14892    15093    15256    15636 
   16306    16801    16936    17100    17530    17989    18219    18211 
   17936    17650    17744    17959    18056    18447    19389    20426 
   21084    21457    21666    21532    21090    20732    20462    19894 
   19053    18101    17242    16654    15881    15163    15469    16169 
   16018    15423    15395    15216    14084    13463    13417    12374 
   11109    10430     9645     8737     8194     7917     7571     7372 
    7337     7327     7767     8420     8748     9205     9836    10089 
   10362    10903    11384    12355    13785    14777    15783    17054 
   17596    17583    17752    17745    17508    17375    16890    15916 
   14954    13990    13035    12446    12141    11918    11908    12203 
   12408    12177    11944    12009    11960    11500    10897    10522 
   10077     9339     8993     9098     9134     9491    10475    11822 
   13531    15379    16953    18291    19423    20148    20410    20352 
   19965    19093    17875    16530    15296    14491    13899    13172 
   12459    11878    11397    11100    11040    10989    10656    10137 
    9607     9053     8496     7784     6836     5899     5073     4414 
    4104     4053     4144     4427     4801     5106     5370     5800 
    6536     7317     7882     8401     8824     9076     9501    10012 
   10425    10881    11275    11673    12213    12774    13507    14547 
   15574    16240    16562    16643    16353    15773    15398    15417 
   15451    15206    14773    14338    13952    13549    13174    12904 
   12586    12237    12037    11765    11314    10868    10361     9864 
    9489     9093     8823     8893     9296    10065    11131    12263 
   13301    14281    15311    16328    17223    18012    18688    19144 
   19345    19326    18978    18318    17561    16743    15835    14871 
   13866    12826    11738    10626     9519     8435     7362     6221 
    5053     4017     3089     2123     1239      651      354      413 
     860     1472     2183     3041     3911     4683     5395     6165 
    7052     7971     8839     9756    10733    11533    12170    12824 
   13352    13719    14122    14628    15257    15940    16623    17394 
   18179    18980    19945    20925    21752    22453    22971    23295 
   23501    23654    23861    24160    24449    24667    24870    25081 
   25289    25550    25915    26323    26628    26749    26698    26449 
   26065    25696    25332    24838    24115    23240    22418    21628 
   20789    20064    19528    19187    19162    19354    19481    19445 
   19354    19271    19112    18875    18620    18316    17932    17446 
   16732    15636    14258    12966    11978    11141    10338     9591 
    8768     7848     6980     6228     5657     5257     4926     4619 
    4285     3840     3306     2936     2933     3194     3592     4020 
    4316     4603     5133     5863     6693     7579     8380     9000 
    9431     9679     9784     9755     9576     9322     9106     8995 
    9112     9631    10514    11526    12557    13523    14272    14859 
   15403    15799    15902    15720    15323    14733    13960    13091 
   12172    11237    10413     9779     9320     9004     8780     8620 
    8568     8678     8950     9295     9606     9846    10000    10053 
   10000     9862     9712     9633     9611     9554     9442     9348 
    9402     9703    10171    10631    10987    11188    11259    11313 
   11369    11318    11008    10364     9579     8922     8438     8042 
    7613     6990     6126     5178     4347     3795     3604     3670 
    3872     4187     4544     4918     5458     6206     7002     7744 
    8401     8827     8879     8704     8523     8295     8040     8005 
    8268     8766     9440    10137    10833    11572    12206    12586 
