Origin Time       2011/03/11 14:46:00
Lat.              38.103
Long.             142.860
Depth. (km)       24
Mag.              9.0
Station Code      NIG014
Station Lat.      37.6412
Station Long.     138.9553
Station Height(m) 9
Record Time       2011/03/11 14:47:33
Sampling Freq(Hz) 100Hz
Duration Time(s)  300
Dir.              E-W
Scale Factor      3920(gal)/6182761
Max. Acc. (gal)   40.400
Last Correction   2011/03/11 14:47:18
Memo.             
[...]
   19325    17308    15185    13045    10876     8841     7103     5855 
    5208     4966     5033     5265     5394     5444     5466     5283 
    4779     4013     3092     2025      856     -201     -963    -1380 
   -1384     -851      182     1571     3279     5243     7383     9763 
   12401    15146    17917    20666    23250    25649    27839    29641 
   31099    32355    33348    34055    34420    34254    33492    32025 
   29753    26782    23141    18913    14377     9752     5196      770 
   -3468    -7355   -10773   -13688   -16292   -18665   -20510   -21794 
  -22610   -22781   -22362   -21445   -19800   -17390   -14386   -10859 
   -6969    -3031      700     3948     6437     8114     9046     9395 
    9334     8909     8214     7316     6214     5021     3864     2731 
    1602      486     -749    -2089    -3213    -3975    -4511    -4783 
   -4470    -3453    -1896       84     2377     4797     7215     9494 
   11383    12837    14021    14832    15226    15376    15242    14926 
   14677    14400    14087    13960    14051    14388    15036    15997 
   17286    18712    20012    21118    22072    22865    23392    23597 
   23384    22486    20925    19026    16749    13923    10784     7420 
    3747       65    -3483    -7001   -10276   -13128   -15528   -17357 
  -18495   -18810   -18298   -17042   -15099   -12715   -10107    -7334 
   -4599    -2047      389     2618     4497     6101     7332     8037 
    8245     7908     7068     6002     5043     4166     3074     1854 
     729     -281    -1087    -1618    -2079    -2599    -2945    -3038 
   -2971    -2795    -2823    -3200    -3837    -4794    -6038    -7544 
   -9228   -10825   -12260   -13600   -14855   -15976   -16785   -17057 
  -16762   -16064   -15139   -14205   -13390   -12568   -11660   -10669 
   -9481    -8009    -6394    -4822    -3264    -1747     -345     1147 
    2753     4309     5940     7713     9521    11293    12932    14421 
   15865    17335    18797    20256    21743    23132    24409    25669 
   26765    27564    28078    28173    27743    26881    25749    24381 
   22663    20693    18676    16566    14423    12462    10656     8973 
    7496     6143     4863     3737     2726     1849     1257      840 
     248     -647    -1709    -2907    -4223    -5467    -6627    -7875 
   -9181   -10423   -11777   -13445   -15131   -16640   -18205   -19792 
  -21273   -22666   -23810   -24505   -24691   -24461   -23954   -23135 
  -22032   -20734   -19221   -17554   -15729   -13517   -10885    -8075 
   -5167    -2127      850     3611     6114     8148     9684    10969 
   12081    13026    13832    14387    14567    14343    13759    12963 
   12077    11126    10190     9289     8375     7497     6562     5278 
    3637     1866     -115    -2309    -4332    -6201    -8107    -9751 
  -11073   -12310   -13178   -13455   -13397   -13002   -12089   -10804 
   -9360    -7739    -5985    -4314    -2762    -1275       61     1276 
    2445     3501     4333     4809     5011     5251     5571     5894 
    6333     6836     7295     7855     8502     9098     9789    10680 
   11611    12518    13454    14273    14794    14969    14770    14208 
   13200    11686     9855     7760     5398     3066      958     -922 
   -2379    -3293    -3917    -4424    -4694    -4696    -4520    -4159 
   -3544    -2736    -1903    -1094     -359       61       46     -300 
   -1042    -2327    -4043    -6050    -8317   -10713   -13052   -15261 
  -17379   -19344   -21094   -22869   -24702   -26339   -27936   -29619 
  -31107   -32391   -33652   -34863   -36154   -37761   -39638   -41676 
  -43811   -45977   -48119   -50013   -51526   -52738   -53539   -53820 
  -53656   -53049   -51885   -50053   -47600   -44593   -41050   -37097 
  -32894   -28659   -24588   -20761   -17260   -14062   -11048    -8149 
   -5315    -2520      191     2746     5058     7069     8845    10528 
   12212    13856    15339    16550    17321    17632    17575    17017 
   16014    14904    13826    12826    11975    11256    10598     9912 
    9219     8603     8010     7402     6749     6074     5597     5329 
    5157     5179     5312     5443     5614     5595     5219     4580 
    3704     2629     1411       72    -1300    -2516    -3418    -4047 
   -4399    -4379    -4111    -3700    -3050    -2197    -1391     -783 
    -260      192      487      807     1287     1764     2029     2098 
    2015     1581      826      -22    -1081    -2377    -3724    -5318 
   -7294    -9261   -11048   -12845   -14522   -15892   -17082   -18088 
  -18916   -19868   -21017   -22204   -23460   -24768   -25956   -27001 
  -27949   -28725   -29140   -29118   -28928   -28701   -28221   -27628 
  -27083   -26405   -25623   -24947   -24369   -23502   -22150   -20510 
  -18568   -16437   -14463   -12761   -11400   -10364    -9421    -8504 
   -7650    -6579    -5028    -3019     -385     3012     6896    11058 
   15395    19659    23618    27075    29907    32134    33801    35091 
   36166    36926    37572    38521    39707    41046    42765    44788 
   46833    48901    50921    52707    54305    55505    56089    56383 
   56506    56448    56429    56388    56283    56296    56244    55860 
   55295    54423    52986    51455    49953    48084    46211    44469 
   42601    41185    40390    39788    39556    39539    39445    39558 
   39625    39338    38947    38187    36793    34980    32629    29947 
   27382    24706    22014    19465    16574    13431    10368     7108 
    3652      287    -3070    -6389    -9332   -11820   -13831   -15213 
  -16064   -16365   -15958   -15034   -13700   -12040   -10407    -8883 
   -7501    -6508    -5829    -5377    -5413    -5861    -6519    -7583 
   -9016   -10729   -12898   -15226   -17301   -19136   -20670   -21668 
  -22012   -21858   -21375   -20505   -19218   -17497   -15341   -12870 
  -10082    -7128    -4368    -1807      471     2130     3395     4630 
    5806     6941     7995     8996    10212    11395    12094    12592 
   13038    12985    12540    12055    11354    10530     9865     9215 
    8672     8375     8035     7720     7457     6886     6137     5376 
    4327     3021     1759      631     -282     -938    -1448    -1897 
   -2376    -2880    -3496    -4541    -6013    -7662    -9382   -11079 
  -12692   -14375   -16172   -17853   -19445   -21093   -22558   -23725 
  -24825   -25850   -26652   -27337   -27958   -28323   -28381   -28133 
  -27415   -26208   -24572   -22559   -20423   -18196   -15957   -14214 
  -12941   -11879   -11237   -10836   -10352   -10110   -10140   -10099 
  -10228   -10565   -10800   -11243   -11879   -12227   -12438   -12460 
  -11969   -11262   -10275    -8714    -7042    -5374    -3471    -1673 
      59     1948     3621     5116     6547     7551     8332     9085 
    9473     9655     9808     9667     9270     8634     7618     6415 
    4950     2980      776    -1603    -4345    -7119    -9757   -12463 
  -15084   -17504   -19871   -21994   -23791   -25450   -26691   -27277 
  -27288   -26587   -25320   -23726   -21693   -19522   -17465   -15294 
  -13218   -11375    -9590    -8139    -7005    -5995    -5464    -5384 
   -5486    -5734    -5838    -5779    -5755    -5719    -5875    -6315 
   -7024    -8244    -9725   -11242   -13040   -14967   -16894   -18959 
  -21167   -23520   -25875   -28212   -30760   -33400   -36014   -38670 
  -41076   -43144   -45004   -46268   -46912   -47260   -47107   -46625 
  -46097   -45185   -44042   -42872   -41224   -39097   -36709   -33834 
  -30498   -26801   -22652   -18370   -14121    -9737    -5523    -1542 
    2428     6143     9727    13532    17381    21227    25054    28518 
   31370    33532    35008    35864    36151    35963    35439    34624 
   33537    32274    30795    28925    26740    24391    21682    18828 
   16391    14181    12064    10237     8503     6885     5444     4007 
    2721     1583      490     -375    -1043    -1553    -1838    -1992 
   -1927    -1595    -1104     -328      676     1692     2827     3973 
    4812     5313     5385     5017     4343     3293     2087      830 
    -862    -2780    -4645    -6752    -9009   -11247   -13651   -16202 
  -18858   -21601   -24249   -26689   -28746   -30043   -30454   -30163 
  -29222   -27785   -26354   -25177   -24241   -23687   -23500   -23658 
  -24238   -25055   -26045   -27236   -28382   -29401   -30304   -30887 
  -31108   -30944   -30293   -29318   -27948   -25953   -23543   -20734 
  -17449   -14111   -10847    -7534    -4453    -1586     1225     3639 
    5535     7133     8506     9696    10763    11654    12341    12861 
   13037    12696    11844    10534     9055     7607     6143     4823 
    3841     3246     3024     3080     3311     3457     3263     2782 
    2023      871     -557    -2141    -3871    -5446    -6716    -7832 
   -8675    -9241    -9621    -9722    -9873   -10337   -10888   -11570 
  -12292   -12714   -13044   -13292   -13140   -12899   -12703   -12228 
  -11706   -11299   -10543    -9389    -8110    -6635    -5089    -3822 
   -2844    -2100    -1609    -1101     -428      222      837     1440 
    1879     2114     2099     1865     1791     2122     2938     4476 
    6714     9468    12594    15732    18636    21284    23536    25306 
   26807    28030    28733    29007    28861    28329    27775    27212 
   26678    26501    26508    26513    26624    26512    25847    24720 
   23171    21273    19272    17352    15560    13963    12649    11392 
    9878     8143     6195     3912     1419    -1074    -3528    -5862 
   -7995   -10132   -12393   -14536   -16541   -18365   -19613   -20324 
  -20715   -20643   -20237   -19669   -18765   -17680   -16571   -15235 
  -13735   -11953    -9578    -6884    -3990     -734     2590     5988 
    9695    13490    17387    21397    25225    28977    32622    35777 
   38518    40925    42828    44392    45704    46643    47406    48121 
   48690    49152    49406    49352    49226    48944    48151    46881 
   45222    43186    40985    38626    36112    33822    31802    29938 
   28532    27612    26911    26410    25992    25646    25521    25400 
   25389    25769    26186    26595    27133    27447    27633    27938 
   28104    28092    27902    27340    26520    25477    24018    22275 
   20488    18715    17075    15675    14497    13616    12965    12212 
   11365    10506     9318     7854     6489     5158     3899     3036 
    2613     2603     2920     3309     3787     4391     4978     5675 
    6566     7512     8602     9750    10713    11657    12531    13038 
   13422    13878    14263    14778    15484    16034    16476    16891 
   17009    16840    16538    16048    15385    14632    13710    12603 
   11464    10352     9261     8113     6725     5068     3184     1044 
   -1202    -3315    -5254    -6886    -8048    -8934    -9646   -10135 
  -10624   -11187   -11735   -12478   -13530   -14797   -16265   -17888 
  -19633   -21494   -23485   -25616   -27745   -29809   -31823   -33726 
  -35460   -36910   -37980   -38676   -39061   -39240   -39336   -39504 
  -39718   -39816   -39847   -39872   -39755   -39413   -38908   -38167 
  -37124   -35993   -34774   -33361   -31998   -30652   -28941   -26888 
  -24582   -21944   -19231   -16503   -13673   -11098    -8685    -6043 
   -3383     -698     2116     4498     6287     7700     8547     8990 
    9247     9188     9174     9418     9680    10050    10352    10294 
   10150     9903     9446     8941     8208     7326     6637     5917 
    5059     4306     3687     3288     3151     3106     3116     3203 
    3363     3457     3294     2924     2383     1652      915      381 
      43     -163     -200     -125      -56      -48     -206     -579 
   -1116    -1812    -2814    -4240    -5965    -7792    -9564   -11235 
  -12965   -14735   -16402   -18157   -19968   -21563   -23115   -24509 
  -25327   -25760   -25885   -25531   -24952   -24173   -23053   -21871 
  -20556   -18729   -16512   -13970   -10969    -7873    -5046    -2635 
    -940       41      534      701      885     1293     1883     2828 
    4154     5622     7383     9521    11723    13895    15993    17861 
   19332    20041    19858    18981    17480    15494    13244    10887 
    8598     6160     3164     -204    -3685    -7392   -11070   -14391 
  -17326   -19442   -20585   -21107   -20926   -20163   -19142   -17806 
  -16503   -15500   -14378   -13102   -11870   -10438    -8836    -7224 
   -5328    -3165     -846     1817     4492     6814     9009    10957 
   12424    13677    14680    15304    15767    16017    15944    15747 
   15581    15504    15630    15969    16463    17228    18304    19638 
   21314    23170    24933    26551    27896    28937    29685    29944 
   29719    29106    28001    26368    24301    21789    18875    15758 
   12479     9059     5735     2691      -76    -2605    -4840    -6650 
   -8036    -9105    -9858   -10228   -10224    -9915    -9363    -8740 
   -8199    -7711    -7388    -7348    -7509    -7828    -8283    -8963 
   -9925   -10937   -11874   -12614   -12909   -12793   -12361   -11698 
  -11034   -10393    -9692    -8951    -8095    -7116    -6133    -5100 
   -3975    -2841    -1585       -2     1947     4294     7043     9986 
   12882    15699    18474    21037    23286    25365    27265    28927 
   30472    31906    33231    34634    36150    37751    39617    41840 
   44324    46983    49755    52591    55331    57798    60006    61912 
   63354    64391    65139    65490    65418    65189    64870    64190 
   63174    61979    60368    58337    56115    53546    50542    47148 
   43357    39320    35257    31447    28040    25012    22456    20409 
   18723    17267    15999    14837    13684    12453    11120     9690 
    8042     6305     4779     3469     2492     2020     1862     1826 
    1974     2378     2893     3312     3626     3861     3847     3391 
    2521     1280     -376    -2364    -4592    -7010    -9372   -11484 
  -13290   -14661   -15625   -16207   -16404   -16473   -16403   -16057 
  -15741   -15475   -14840   -13831   -12780   -11810   -10873    -9967 
   -9146    -8491    -7939    -7304    -6571    -5753    -4804    -3802 
   -2923    -2245    -1462     -274     1237     3060     5271     7699 
   10094    12372    14479    16269    17677    18725    19362    19486 
   19034    18022    16569    14830    12905    10817     8616     6466 
    4402     2383      519    -1156    -2551    -3408    -3808    -3937 
   -3721    -3210    -2504    -1590     -489      798     2324     4074 
    5833     7492     9257    11128    13151    15594    18234    20862 
   23666    26401    28744    30763    32288    33200    33723    33857 
   33541    32804    31675    30364    28991    27471    25609    23196 
   20444    17699    14948    12176     9510     6997     4523     1941 
    -739    -3543    -6666   -10195   -14005   -17851   -21372   -24396 
  -27064   -29307   -30927   -31971   -32522   -32602   -32190   -31329 
  -30217   -28998   -27778   -26734   -26017   -25572   -25145   -24716 
  -24360   -23963   -23633   -23479   -23413   -23537   -23804   -24015 
  -24247   -24517   -24735   -24921   -25015   -25006   -24832   -24185 
  -22969   -21295   -19139   -16610   -14073   -11694    -9450    -7428 
   -5646    -3974    -2327     -784      551     1594     2236     2516 
    2479     2256     2070     1762     1373     1376     1840     2671 
    3828     5034     6212     7444     8665     9868    11014    12048 
   12963    13684    14299    14938    15545    16116    16724    17388 
   18177    19018    19553    19539    18960    17826    16053    13642 
   10852     7778     4515     1349    -1727    -4795    -7847   -10888 
  -13852   -16736   -19503   -22002   -24111   -25657   -26529   -26919 
  -26949   -26631   -26144   -25451   -24537   -23629   -22663   -21577 
  -20582   -19744   -19092   -18708   -18597   -18815   -19173   -19223 
  -18923   -18298   -17209   -15889   -14546   -13272   -12299   -11715 
  -11635   -12065   -12794   -13664   -14416   -14879   -15101   -15115 
  -14972   -14894   -15123   -15569   -16113   -16811   -17561   -18362 
  -19220   -19929   -20613   -21398   -22050   -22528   -22732   -22393 
  -21635   -20613   -19214   -17525   -15799   -14073   -12279   -10453 
   -8581    -6510    -4089    -1329     1587     4625     7773    10740 
   13411    15878    18054    19862    21445    23031    24662    26213 
   27641    29030    30490    31912    33108    34100    34906    35603 
   36320    36959    37387    37608    37663    37429    36783    35752 
   34367    32857    31397    29983    28853    27955    27060    26529 
   26531    26750    27288    28094    28659    28990    29103    28679 
   27831    26724    25401    24046    22656    21193    19696    18125 
   16584    15184    13843    12574    11408    10207     8917     7437 
    5564     3219      248    -3405    -7541   -11989   -16659   -21565 
  -26579   -31410   -35928   -39966   -43372   -46251   -48593   -50362 
  -51749   -52825   -53540   -53879   -53834   -53330   -52143   -50132 
  -47296   -43716   -39596   -34967   -29846   -24584   -19297   -14037 
   -9101    -4413       94     4215     8074    11854    15452    18728 
   21716    24451    26602    28020    29078    29762    29893    29736 
   29389    28768    28039    27338    26599    25718    24672    23507 
   22183    20719    19230    17653    16078    14752    13643    12793 
   12274    11878    11687    11798    11931    12135    12578    13049 
   13363    13607    13823    13874    13762    13562    13331    13093 
   12794    12448    11946    11085     9959     8589     6794     4719 
    2603      567    -1289    -3116    -5055    -7006    -9034   -11289 
  -13657   -16111   -18571   -20697   -22592   -24412   -26014   -27536 
  -28997   -30203   -31224   -32107   -32710   -33038   -33187   -33085 
  -32645   -31917   -30930   -29588   -27896   -26079   -24187   -22170 
  -20155   -18049   -15792   -13608   -11527    -9557    -7758    -6007 
   -4159    -2067      285     2783     5476     8309    11051    13661 
   16114    18229    19926    21322    22478    23451    24425    25414 
   26335    27224    28024    28662    29081    29062    28690    28314 
   27895    27351    26842    26351    25823    25317    24701    23854 
   22854    21626    20170    18799    17698    16883    16448    16357 
   16449    16809    17541    18424    19259    20099    20989    21792 
   22396    22826    22963    22651    22031    21211    20191    19190 
   18372    17575    16563    15285    13816    12148    10170     7820 
    5235     2585     -112    -2833    -5473    -7926   -10164   -12174 
  -13900   -15347   -16518   -17310   -17704   -17776   -17510   -16955 
  -16278   -15626   -15220   -15232   -15658   -16361   -17093   -17750 
  -18319   -18529   -18156   -17341   -16168   -14611   -12817   -11006 
   -9342    -7910    -6724    -5687    -4648    -3499    -2191     -677 
    1129     3131     5111     7166     9386    11387    13060    14707 
   16050    16895    17492    17680    17424    16982    16333    15644 
   15148    14711    14374    14138    13621    12684    11341     9574 
    7597     5592     3738     2318     1260      389     -207     -600 
   -1002    -1418    -1728    -2012    -2429    -2838    -3079    -3227 
