Origin Time       2011/03/11 14:46:00
Lat.              38.103
Long.             142.860
Depth. (km)       24
Mag.              9.0
Station Code      NIG013
Station Lat.      37.7634
Station Long.     138.8830
Station Height(m) 7
Record Time       2011/03/11 14:47:37
Sampling Freq(Hz) 100Hz
Duration Time(s)  300
Dir.              E-W
Scale Factor      3920(gal)/6182761
Max. Acc. (gal)   26.977
Last Correction   2011/03/11 14:47:22
Memo.             
[...]
   10043    10458    10766    10983    10983    10865    10742    10589 
   10449    10343    10098     9685     9175     8356     7250     6082 
    4793     3362     1765       60    -1511    -2825    -3815    -4541 
   -5087    -5392    -5469    -5458    -5479    -5538    -5658    -5997 
   -6593    -7384    -8635   -10418   -12170   -13548   -14671   -15601 
  -16344   -16628   -16155   -15355   -14557   -13642   -12852   -12152 
  -11246   -10394   -10022   -10158   -10303   -10082    -9657    -9404 
   -9558    -9697    -9463    -9196    -8875    -8231    -7534    -6921 
   -6282    -5653    -5052    -4766    -4766    -4407    -3744    -2942 
   -1799     -534      811     2148     3041     3355     3150     2594 
    1858     1085      454        0     -333     -660     -978    -1137 
   -1054     -605      363     1909     3885     5896     7690     9282 
   10770    12369    14265    16408    18682    20915    22796    24219 
   25226    25771    25913    25628    24869    23821    22530    21005 
   19533    18364    17620    17421    17664    18156    18905    19825 
   20750    21700    22797    24182    25814    27513    29140    30495 
   31494    32101    32177    31774    31055    30165    29314    28590 
   28030    27670    27453    27277    26892    26136    25089    23726 
   22138    20649    19432    18453    17646    17060    16831    17062 
   17829    19097    20772    22808    25011    27008    28619    29929 
   30994    31898    32758    33522    34216    34790    35004    34969 
   34928    34926    34919    34754    34412    33778    32542    30726 
   28479    25960    23571    21572    20018    18872    17869    16785 
   15613    14307    12836    11420    10196     9081     8103     7208 
    6141     4833     3505     2432     1731     1407     1348     1322 
    1240     1177     1245     1550     2097     2948     4174     5616 
    7053     8345     9405    10264    11074    11877    12572    13163 
   13653    13921    13911    13598    12997    12227    11341    10352 
    9256     8002     6669     5426     4459     4014     4164     4703 
    5276     5459     4995     3984     2653     1175     -213    -1342 
   -2267    -3159    -4219    -5535    -6972    -8289    -9227    -9603 
   -9449    -8862    -7870    -6535    -4972    -3337    -1767     -205 
    1470     3261     5097     6850     8399     9710    10752    11443 
   11739    11709    11477    11167    10949    10937    11081    11366 
   11802    12280    12724    13079    13249    13163    12680    11633 
   10011     7959     5744     3669     1944      651     -221     -666 
    -704     -498     -219       38      194      212       65     -269 
    -783    -1479    -2342    -3274    -4135    -4860    -5412    -5655 
   -5542    -5199    -4678    -4024    -3332    -2552    -1616     -541 
     680     1913     2963     3769     4287     4539     4687     4880 
    5066     5113     5032     4703     4057     3426     2961     2592 
    2372     2169     1825     1437     1061      768      707      949 
    1575     2614     3919     5328     6620     7538     7974     7863 
    7165     5922     4267     2399      337    -1831    -3786    -5503 
   -6897    -7754    -8342    -8570    -8153    -7495    -6614    -5384 
   -4256    -3178    -2101    -1434    -1012     -739     -838    -1036 
   -1163    -1209     -852     -168      705     2053     3759     5602 
    7577     9251    10426    11401    12082    12388    12572    12641 
   12689    12908    13120    13317    13635    13911    14212    14726 
   15384    16115    16797    17305    17688    17996    18283    18658 
   19255    20141    21251    22521    23879    25053    25644    25498 
   24873    24138    23458    22785    22224    22049    22308    22729 
   22949    22890    22637    22234    21815    21396    21040    20940 
   20990    21101    21202    21207    21318    21444    21365    21146 
   20991    21215    21694    22297    23311    24572    25647    26595 
   27635    28574    29251    29879    30441    30829    31097    31186 
   31193    31332    31589    31847    31945    31797    31564    31397 
   31085    30550    30212    30235    30636    31390    32108    32823 
   33612    34061    34025    33534    32635    31352    29443    26957 
   24258    21293    18035    14759    11606     8890     6776     5014 
    3572     2552     1904     1566     1575     1847     2140     2307 
    2233     1807     1113      353     -392    -1125    -1781    -2289 
   -2639    -2874    -3013    -3025    -2908    -2718    -2467    -2079 
   -1569     -931      -64     1036     2326     3687     4822     5476 
    5505     4945     3989     2812     1640      613     -192     -675 
    -944    -1228    -1698    -2423    -3281    -4095    -4764    -5152 
   -5177    -4927    -4511    -4076    -3793    -3638    -3447    -3125 
   -2652    -2128    -1783    -1813    -2282    -3135    -4232    -5374 
   -6394    -7163    -7575    -7677    -7647    -7609    -7621    -7737 
   -7958    -8203    -8371    -8361    -8074    -7500    -6753    -5932 
   -5124    -4554    -4399    -4674    -5384    -6459    -7756    -9141 
  -10426   -11467   -12257   -12804   -13126   -13301   -13420   -13619 
  -14009   -14560   -15241   -16049   -16902   -17764   -18625   -19333 
  -19754   -19898   -19742   -19247   -18483   -17553   -16568   -15649 
  -14824   -14048   -13296   -12584   -11923   -11309   -10750   -10235 
   -9794    -9412    -8983    -8477    -7864    -7127    -6403    -5797 
   -5319    -4951    -4622    -4274    -3832    -3241    -2669    -2339 
   -2336    -2698    -3336    -4003    -4506    -4790    -4844    -4672 
   -4331    -3817    -3160    -2469    -1705     -827      137     1246 
    2439     3688     5079     6423     7276     7314     6737     6233 
    6194     6049     4674     1983     -799    -3073    -4949    -6091 
   -6775    -7649    -8494    -9351   -10134   -10243   -10050    -9746 
   -9115    -8719    -8508    -8174    -8005    -7252    -5545    -4057 
   -2950    -1789     -684      134      245       29     -305    -1128 
   -1771    -1916    -2159    -2300    -1777     -799      178     1027 
    1467     1143      300     -689    -1673    -2407    -2877    -3012 
   -2681    -2285    -1837    -1195     -742     -390      157      940 
    1932     2866     3757     4661     5204     5504     5885     6243 
    6546     6586     6184     5594     4932     4275     3795     3651 
    3847     4147     4444     4518     4043     3068     1792      376 
   -1013    -2246    -3267    -4120    -4982    -6099    -7434    -8787 
  -10108   -11239   -12041   -12544   -12811   -12978   -13138   -13380 
  -13784   -14232   -14675   -15123   -15494   -15870   -16390   -17029 
  -17821   -18740   -19639   -20510   -21302   -21893   -22298   -22529 
  -22600   -22539   -22369   -22139   -21791   -21306   -20711   -19920 
  -18915   -17763   -16513   -15199   -13789   -12310   -10954    -9741 
   -8515    -7326    -6224    -5095    -3861    -2437     -817      837 
    2402     3900     5366     6705     7763     8518     9174     9924 
   10777    11776    13019    14473    15969    17430    18931    20428 
   21795    23014    24095    24967    25572    25962    26213    26404 
   26619    26877    27096    27149    27057    26942    26903    27006 
   27208    27408    27513    27434    27221    27040    26998    27126 
   27444    27883    28293    28595    28717    28617    28410    28230 
   28179    28300    28558    28957    29501    30129    30835    31676 
   32668    33727    34789    35828    36734    37480    38125    38630 
   39020    39376    39697    39995    40277    40477    40540    40437 
   40176    39779    39191    38334    37219    35895    34392    32734 
   30975    29203    27490    25810    24046    22201    20346    18454 
   16651    15095    13804    12844    12136    11503    10951    10438 
    9892     9326     8737     8119     7507     6929     6395     5933 
    5575     5333     5241     5309     5495     5782     6204     6774 
    7463     8255     9137    10046    10906    11618    12042    12145 
   12010    11691    11269    10906    10703    10698    10927    11341 
   11789    12133    12281    12127    11645    10935    10121     9315 
    8603     8057     7714     7568     7671     8074     8702     9476 
   10286    10919    11247    11236    10880    10293     9681     9254 
    9178     9539    10305    11279    12248    13118    13815    14281 
   14546    14668    14721    14829    15086    15510    16056    16702 
   17408    18106    18968    20189    21603    23111    24631    25842 
   26672    27132    27063    26459    25434    24070    22424    20587 
   18659    16795    15339    14483    14106    14090    14407    14986 
   15673    16318    16854    17264    17533    17717    17891    17834 
   17298    16417    15286    13872    12309    10680     9051     7609 
    6486     5770     5258     4647     4120     3836     3584     3268 
    2789     2046     1183      223     -794    -1640    -2115    -1977 
   -1231     -136     1120     2295     3199     3804     4123     4082 
    3669     3126     2545     1868     1220      694      337      243 
     490     1076     1785     2464     3081     3442     3481     3323 
    2946     2392     1885     1430      877      307     -228     -837 
   -1395    -1818    -2221    -2603    -3002    -3407    -3730    -4101 
   -4446    -4428    -4086    -3734    -3438    -3092    -2658    -2229 
   -1929    -1703    -1390     -770      139     1085     2081     3117 
    4123     5310     6759     8286     9870    11494    12820    13698 
   14294    14723    15196    15931    16902    17996    19114    20168 
   21105    21846    22291    22493    22624    22824    23181    23722 
   24448    25336    26285    27245    28296    29519    30942    32551 
   34253    35966    37684    39272    40472    41155    41270    40832 
   39999    38959    37909    37061    36527    36255    36139    36065 
   35880    35512    34973    34257    33359    32230    30847    29264 
   27539    25708    23793    21908    20166    18636    17521    16819 
   16347    16096    15826    15301    14557    13468    12184    10962 
    9753     8823     8238     7721     7310     6837     6198     5619 
    5025     4476     4096     3834     3817     3914     4060     4229 
    4077     3856     3563     2791     2137     1565      604      -88 
    -723    -1725    -2418    -3060    -3951    -4633    -5504    -6684 
   -7795    -9205   -10786   -12140   -13625   -15126   -16412   -17746 
  -18808   -19498   -20283   -20884   -21135   -21374   -21357   -21059 
  -20781   -20255   -19605   -19257   -19002   -18828   -18789   -18501 
  -18025   -17468   -16508   -15274   -13920   -12289   -10606    -8918 
   -7115    -5621    -4446    -3198    -2018     -909      340     1486 
    2465     3451     4193     4590     5044     5851     7076     8646 
   10317    11895    13344    14670    15908    16996    17807    18515 
   19049    18965    18541    18100    17676    17925    18140    16913 
   15230    13836    12325    11267    10717    10645    11432    12165 
   12574    13198    13720    14297    14876    14966    14914    15011 
   15366    15855    16005    15800    15530    15226    14765    14209 
   13592    12925    12332    11818    11390    10996    10582    10294 
   10126     9945     9709     9300     8682     8021     7385     6762 
    6237     5800     5359     4846     4131     3197     2116      941 
    -116     -918    -1515    -1937    -2337    -2876    -3466    -4022 
   -4529    -4893    -5068    -5031    -4772    -4417    -3998    -3434 
   -2733    -1859     -820      265     1332     2233     2901     3394 
    3706     4083     4763     5654     6740     7970     9065     9868 
   10394    10649    10602    10293     9924     9653     9457     9271 
    9027     8708     8310     7831     7411     7141     6996     6980 
    7032     7044     7010     6959     6895     6851     6888     7036 
    7319     7774     8389     9124     9971    10861    11721    12496 
   13110    13639    14256    14965    15631    16115    16341    16268 
   15881    15179    14151    12942    11804    10821    10020     9496 
    9269     9240     9235     9142     8919     8506     7971     7406 
    6775     6088     5327     4466     3630     2893     2152     1316 
     448     -380    -1164    -1922    -2679    -3395    -4000    -4497 
   -4942    -5260    -5311    -5187    -5038    -4902    -4822    -4758 
   -4753    -4968    -5331    -5782    -6350    -6856    -7263    -7628 
   -7881    -8071    -8178    -8175    -8209    -8275    -8325    -8358 
   -8335    -8270    -8139    -7933    -7712    -7510    -7315    -7058 
   -6678    -6112    -5358    -4450    -3307    -1903     -430      905 
    2135     3385     4580     5692     6864     8161     9651    11364 
   13044    14447    15555    16291    16607    16584    16195    15516 
   14809    14159    13567    13007    12364    11770    11438    11311 
   11359    11567    11773    12036    12508    13064    13655    14314 
   14906    15451    16017    16470    16850    17266    17663    18140 
   18788    19475    20239    21182    22190    23281    24491    25639 
   26679    27602    28336    28981    29632    30310    31089    32017 
   33145    34470    35863    37287    38728    40051    41247    42382 
   43417    44360    45244    46042    46841    47689    48445    49042 
   49493    49755    49807    49600    49080    48351    47518    46547 
   45460    44400    43515    42932    42676    42655    42753    42824 
   42735    42385    41715    40819    39903    39114    38564    38305 
   38285    38371    38364    38131    37688    37092    36363    35523 
   34593    33537    32319    30878    29193    27431    25661    23724 
   21587    19430    17484    15812    14241    12534    10594     8682 
    7218     6179     5219     4240     3350     2608     1959     1192 
     252     -671    -1576    -2562    -3594    -4601    -5523    -6384 
   -7186    -7835    -8236    -8345    -8265    -7997    -7383    -6582 
   -5866    -5224    -4704    -4527    -4710    -5128    -5688    -6315 
   -7119    -8227    -9396   -10396   -11225   -11862   -12486   -13199 
  -13767   -14164   -14436   -14525   -14651   -14861   -14940   -14951 
  -15036   -15273   -15533   -15547   -15343   -15049   -14732   -14386 
  -13855   -13128   -12424   -11847   -11288   -10661    -9996    -9362 
   -8904    -8721    -8650    -8475    -8085    -7410    -6617    -5941 
   -5436    -5060    -4718    -4548    -4745    -5111    -5502    -5954 
   -6345    -6687    -7139    -7587    -7951    -8359    -8750    -9084 
   -9480    -9858   -10178   -10535   -10847   -11079   -11355   -11640 
  -11704   -11412   -10893   -10221    -9341    -8395    -7573    -6848 
   -6212    -5797    -5646    -5638    -5659    -5724    -5800    -5700 
   -5322    -4693    -3886    -2941    -1739     -354      931     2197 
    3490     4466     5133     5734     6260     6779     7259     7635 
    8134     8729     9324    10045    10821    11623    12367    12772 
   12955    13244    13615    13935    14329    14972    15768    16504 
   17088    17560    18061    18609    19007    19206    19369    19603 
   19972    20468    21015    21669    22538    23568    24590    25501 
   26225    26674    26879    26941    26919    26854    26847    27074 
   27540    28086    28587    28900    28972    28890    28725    28521 
   28314    28105    27844    27428    26745    25782    24631    23414 
   22224    21132    20159    19205    18191    17224    16431    15775 
   15128    14388    13556    12634    11543    10287     8980     7707 
    6540     5504     4538     3675     2970     2254     1420      615 
    -124     -853    -1556    -2304    -3133    -3899    -4521    -5042 
   -5487    -5937    -6529    -7238    -7893    -8332    -8416    -8118 
   -7621    -6996    -6025    -4598    -2903    -1192      374     1749 
    2965     4038     4895     5506     6044     6666     7425     8439 
    9686    10837    11712    12442    13098    13677    13849    13186 
   12382    12120    11614    10381     8971     7735     6904     6899 
    7375     6996     5368     3708     2610     1583      715      155 
    -567    -1601    -2907    -3788    -3363    -2879    -3431    -4083 
   -4331    -4319    -4255    -4539    -4939    -4979    -5142    -5619 
   -5686    -5448    -5110    -4241    -2918    -1539     -188     1106 
    2009     2574     3155     3514     3415     3019     2493     1968 
    1471     1034      749      641      745      982     1113     1068 
     934      727      437      -37     -829    -1780    -2694    -3648 
   -4618    -5443    -6133    -6681    -7010    -7249    -7465    -7601 
   -7795    -8082    -8394    -8851    -9476   -10166   -11000   -12032 
  -13052   -13753   -13902   -13456   -12684   -11895   -11151   -10462 
   -9983    -9854   -10037   -10367   -10681   -11019   -11587   -12466 
  -13503   -14487   -15319   -16002   -16513   -16834   -17008   -17125 
  -17302   -17526   -17762   -18157   -18780   -19585   -20531   -21449 
  -22131   -22489   -22548   -22393   -22117   -21661   -20944   -20087 
  -19235   -18526   -18022   -17631   -17294   -16946   -16512   -15998 
  -15488   -15067   -14716   -14302   -13693   -12878   -11874   -10588 
   -9035    -7437    -6020    -4765    -3468    -2106     -895       39 
     776     1521     2432     3506     4765     6274     7922     9521 
   11023    12465    13831    15025    15973    16728    17409    18077 
   18768    19581    20551    21497    22163    22414    22316    22090 
   21912    21845    21969    22296    22567    22491    22110    21660 
   21296    21114    21141    21222    21173    21054    21076    21258 
   21323    20937    20135    19406    19161    19319    19477    19355 
   18928    18275    17569    16921    16280    15652    15097    14592 
   14096    13530    12783    11873    10921    10071     9390     8796 
    8350     8373     8987     9889    10648    11115    11464    11860 
   12309    12695    12873    12831    12638    12410    12301    12316 
   12367    12438    12479    12442    12410    12509    12832    13416 
   14160    14864    15394    15878    16569    17456    18286    18825 
   18915    18624    18213    17863    17655    17515    17206    16751 
   16474    16540    16745    16663    16194    15741    15516    15392 
   15307    15157    14854    14425    13814    13023    12179    11294 
   10392     9692     9373     9390     9527     9560     9509     9498 
    9459     9333     9208     9183     9226     9149     8829     8310 
    7744     7225     6639     5887     5025     4186     3561     3244 
    3110     2926     2543     2033     1637     1536     1645     1750 
    1716     1575     1521     1644     1856     2117     2455     2894 
    3484     4223     4948     5551     6053     6416     6622     6744 
    6814     6866     7000     7285     7680     8051     8267     8319 
    8319     8350     8386     8416     8529     8711     8896     9196 
    9780    10503    10940    11066    11248    11719    12333    12609 
   12636    12776    12714    12438    12192    11755    11275    11018 
   10733    10434    10307    10189    10035     9854     9668     9635 
