Origin Time       2011/03/11 14:46:00
Lat.              38.103
Long.             142.860
Depth. (km)       24
Mag.              9.0
Station Code      NIG027
Station Lat.      37.0235
Station Long.     137.8613
Station Height(m) 107
Record Time       2011/03/11 14:48:10
Sampling Freq(Hz) 100Hz
Duration Time(s)  265
Dir.              N-S
Scale Factor      3920(gal)/6182761
Max. Acc. (gal)   7.730
Last Correction   2011/03/11 14:47:55
Memo.             
[...]
   -7946    -7709    -7392    -7020    -6635    -6221    -5789    -5464 
   -5376    -5531    -5853    -6239    -6613    -6941    -7177    -7321 
   -7466    -7677    -7881    -7995    -8034    -7994    -7809    -7467 
   -7066    -6715    -6451    -6307    -6254    -6177    -6089    -6054 
   -6042    -6045    -6050    -6060    -6163    -6434    -6873    -7383 
   -7821    -8117    -8261    -8307    -8346    -8365    -8326    -8255 
   -8177    -8093    -7992    -7898    -7841    -7825    -7926    -8174 
   -8465    -8735    -9023    -9369    -9787   -10299   -10891   -11495 
  -12071   -12649   -13201   -13580   -13676   -13519   -13214   -12840 
  -12475   -12189   -11932   -11681   -11535   -11527   -11600   -11714 
  -11792   -11686   -11339   -10909   -10547   -10240    -9918    -9565 
   -9214    -8886    -8591    -8287    -7867    -7305    -6721    -6263 
   -6000    -5888    -5826    -5801    -5912    -6218    -6658    -7147 
   -7617    -7969    -8157    -8170    -7940    -7474    -6865    -6142 
   -5302    -4437    -3689    -3103    -2685    -2468    -2416    -2496 
   -2799    -3349    -4066    -4926    -5885    -6810    -7629    -8342 
   -8921    -9297    -9464    -9525    -9500    -9287    -8867    -8360 
   -7916    -7585    -7371    -7320    -7437    -7665    -7933    -8197 
   -8448    -8684    -8879    -8991    -9040    -9091    -9094    -8958 
   -8682    -8320    -7946    -7620    -7326    -7030    -6731    -6462 
   -6297    -6242    -6197    -6099    -5978    -5899    -5911    -6005 
   -6124    -6221    -6295    -6366    -6443    -6554    -6698    -6820 
   -6935    -7065    -7179    -7268    -7332    -7381    -7445    -7497 
   -7489    -7390    -7175    -6846    -6462    -6082    -5719    -5405 
   -5181    -4986    -4705    -4286    -3812    -3363    -2911    -2430 
   -1920    -1382     -890     -524     -306     -246     -366     -680 
   -1140    -1671    -2210    -2711    -3123    -3398    -3532    -3525 
   -3395    -3204    -2942    -2590    -2248    -2021    -1970    -2076 
   -2243    -2445    -2689    -2980    -3374    -3873    -4466    -5147 
   -5851    -6580    -7334    -8018    -8599    -9074    -9366    -9422 
   -9276    -9057    -8878    -8796    -8872    -9079    -9254    -9337 
   -9428    -9595    -9876   -10250   -10592   -10781   -10818   -10785 
  -10663   -10428   -10195   -10077   -10157   -10482   -10953   -11463 
  -11953   -12333   -12555   -12642   -12651   -12595   -12430   -12178 
  -11888   -11498   -10977   -10405    -9816    -9205    -8624    -8128 
   -7690    -7271    -6925    -6649    -6352    -6054    -5844    -5750 
   -5787    -5947    -6131    -6197    -6086    -5845    -5557    -5282 
   -5036    -4835    -4677    -4543    -4416    -4282    -4172    -4111 
   -4116    -4242    -4452    -4719    -5112    -5618    -6145    -6624 
   -7025    -7304    -7406    -7374    -7265    -7068    -6764    -6326 
   -5852    -5525    -5370    -5335    -5379    -5436    -5474    -5525 
   -5602    -5616    -5464    -5082    -4461    -3730    -3060    -2566 
   -2316    -2281    -2360    -2464    -2563    -2662    -2747    -2834 
   -2928    -2985    -2996    -2985    -2977    -3030    -3217    -3563 
   -4050    -4633    -5255    -5858    -6411    -6882    -7179    -7246 
   -7129    -6865    -6544    -6307    -6206    -6245    -6435    -6760 
   -7129    -7403    -7554    -7624    -7609    -7547    -7530    -7561 
   -7488    -7203    -6777    -6244    -5623    -5089    -4745    -4502 
   -4331    -4348    -4595    -4964    -5349    -5687    -5915    -6037 
   -6150    -6310    -6440    -6456    -6364    -6209    -6070    -6037 
   -6200    -6659    -7382    -8205    -9002    -9725   -10356   -10866 
  -11290   -11737   -12240   -12743   -13194   -13552   -13741   -13698 
  -13460   -13168   -12931   -12695   -12364   -11895   -11249   -10474 
   -9671    -8902    -8239    -7734    -7430    -7339    -7411    -7607 
   -7837    -7976    -8039    -8093    -8156    -8188    -8102    -7835 
   -7371    -6793    -6240    -5731    -5201    -4634    -4074    -3631 
   -3367    -3233    -3178    -3170    -3237    -3462    -3856    -4329 
   -4761    -5135    -5554    -6082    -6665    -7210    -7661    -8028 
   -8311    -8465    -8510    -8451    -8192    -7724    -7193    -6714 
   -6265    -5778    -5289    -4893    -4605    -4409    -4305    -4256 
   -4203    -4123    -4093    -4202    -4394    -4575    -4776    -5041 
   -5307    -5467    -5504    -5495    -5492    -5552    -5730    -5958 
   -6092    -6029    -5790    -5477    -5111    -4737    -4508    -4468 
   -4518    -4619    -4795    -5013    -5201    -5279    -5156    -4843 
   -4454    -4078    -3761    -3527    -3383    -3286    -3151    -2999 
   -2946    -3057    -3309    -3654    -4064    -4527    -4996    -5414 
   -5753    -5965    -6008    -5923    -5828    -5807    -5817    -5838 
   -5950    -6151    -6407    -6758    -7177    -7579    -7980    -8438 
   -8927    -9350    -9618    -9665    -9441    -8996    -8454    -7864 
   -7232    -6610    -6053    -5618    -5347    -5222    -5178    -5199 
   -5434    -6067    -7081    -8258    -9321   -10096   -10585   -10884 
  -11064   -11067   -10781   -10240    -9596    -8969    -8412    -7891 
   -7353    -6808    -6303    -5913    -5709    -5700    -5875    -6211 
   -6622    -7027    -7420    -7779    -8016    -8048    -7921    -7744 
   -7492    -7094    -6625    -6224    -5946    -5752    -5574    -5363 
   -5123    -4948    -4943    -5081    -5222    -5238    -5163    -5137 
   -5206    -5361    -5565    -5658    -5516    -5210    -4908    -4741 
   -4707    -4741    -4825    -4965    -5167    -5425    -5668    -5815 
   -5885    -5920    -5849    -5546    -4984    -4278    -3575    -2983 
   -2564    -2321    -2197    -2196    -2415    -2886    -3521    -4221 
   -4911    -5546    -6181    -6902    -7639    -8223    -8509    -8438 
   -8063    -7449    -6647    -5739    -4790    -3887    -3114    -2482 
   -1959    -1441     -866     -295      265      770     1149     1473 
    1774     1973     2070     2105     2099     2054     1931     1743 
    1541     1379     1322     1383     1509     1620     1633     1562 
    1510     1497     1468     1426     1437     1529     1652     1769 
    1844     1746     1393      859      250     -378     -993    -1540 
   -2016    -2513    -3073    -3604    -3978    -4164    -4213    -4141 
   -4005    -3936    -3987    -4171    -4501    -4902    -5276    -5587 
   -5798    -5897    -5934    -5966    -6029    -6093    -6081    -6014 
   -6001    -6104    -6333    -6673    -7102    -7628    -8267    -8930 
   -9462    -9804   -10014   -10208   -10431   -10647   -10815   -10857 
  -10738   -10560   -10438   -10445   -10560   -10730   -10924   -11064 
  -11117   -11149   -11205   -11231   -11166   -11076   -11113   -11339 
  -11672   -12053   -12456   -12777   -12978   -13085   -13062   -12940 
  -12767   -12514   -12234   -12011   -11821   -11618   -11403   -11150 
  -10836   -10513   -10206    -9932    -9780    -9818   -10050   -10484 
  -11066   -11691   -12333   -12922   -13372   -13698   -13889   -13970 
  -14024   -14081   -14152   -14246   -14364   -14519   -14715   -14949 
  -15232   -15553   -15855   -16089   -16238   -16211   -15947   -15542 
  -15052   -14442   -13763   -13146   -12578   -11982   -11498   -11231 
  -11085   -11044   -11187   -11493   -11887   -12292   -12621   -12779 
  -12711   -12508   -12246   -11852   -11342   -10760   -10070    -9411 
   -8890    -8406    -7998    -7716    -7454    -7240    -7095    -6937 
   -6840    -6906    -7114    -7422    -7820    -8235    -8478    -8504 
   -8488    -8484    -8471    -8575    -8810    -9034    -9220    -9408 
   -9571    -9726    -9937   -10174   -10386   -10592   -10841   -11100 
  -11286   -11419   -11467   -11353   -11136   -10863   -10543   -10248 
  -10018    -9855    -9777    -9781    -9843    -9926   -10025   -10173 
  -10323   -10369   -10291   -10153   -10012    -9850    -9665    -9447 
   -9093    -8585    -8009    -7467    -7069    -6838    -6681    -6478 
   -6174    -5754    -5283    -4944    -4793    -4761    -4835    -4984 
   -5149    -5299    -5483    -5766    -6104    -6510    -7069    -7757 
   -8470    -9087    -9531    -9690    -9549    -9320    -9110    -8901 
   -8740    -8650    -8610    -8580    -8523    -8475    -8479    -8542 
   -8772    -9178    -9560    -9823    -9950    -9994   -10008    -9881 
   -9645    -9407    -9160    -8987    -8904    -8777    -8569    -8264 
   -7838    -7387    -7013    -6776    -6770    -6976    -7249    -7574 
   -7923    -8199    -8441    -8630    -8707    -8711    -8650    -8538 
   -8407    -8242    -8100    -8022    -7994    -8042    -8117    -8187 
   -8333    -8560    -8870    -9290    -9760   -10225   -10627   -10872 
  -10972   -10902   -10552   -10011    -9380    -8652    -7953    -7363 
   -6904    -6662    -6523    -6449    -6617    -6942    -7310    -7668 
   -7847    -7806    -7573    -7130    -6544    -5955    -5422    -4977 
   -4669    -4418    -4184    -3984    -3750    -3547    -3514    -3629 
   -3859    -4221    -4665    -5170    -5812    -6589    -7322    -7883 
   -8295    -8564    -8714    -8836    -8922    -8807    -8468    -8113 
   -7781    -7452    -7287    -7286    -7347    -7486    -7618    -7638 
   -7570    -7464    -7405    -7442    -7552    -7758    -8099    -8516 
   -9031    -9649   -10135   -10491   -10881   -11195   -11441   -11716 
  -11974   -12179   -12249   -12192   -12110   -11946   -11650   -11256 
  -10735   -10105    -9489    -8892    -8244    -7597    -7008    -6561 
   -6345    -6276    -6277    -6270    -6241    -6280    -6335    -6388 
   -6481    -6536    -6602    -6721    -6800    -6964    -7349    -7864 
   -8436    -9012    -9565   -10099   -10391   -10318   -10101    -9829 
   -9467    -9039    -8569    -8117    -7728    -7476    -7417    -7527 
   -7826    -8318    -9013    -9897   -10846   -11725   -12440   -13017 
  -13538   -14030   -14553   -15043   -15389   -15636   -15765   -15780 
  -15734   -15496   -15065   -14571   -14037   -13633   -13408   -13200 
  -13021   -12862   -12735   -12708   -12695   -12757   -12980   -13214 
  -13345   -13384   -13340   -13157   -12869   -12592   -12330   -12060 
  -11848   -11775   -11753   -11675   -11670   -11760   -11798   -11791 
  -11771   -11681   -11442   -11067   -10673   -10299    -9963    -9723 
   -9499    -9212    -8923    -8577    -8070    -7486    -6918    -6400 
   -5970    -5583    -5207    -4927    -4747    -4569    -4468    -4504 
   -4490    -4517    -4861    -5322    -5824    -6535    -7202    -7656 
   -8039    -8406    -8764    -9119    -9396    -9427    -9184    -8827 
   -8460    -8117    -7882    -7875    -8045    -8272    -8648    -9080 
   -9333    -9520    -9744   -10011   -10340   -10570   -10603   -10385 
   -9854    -9150    -8358    -7507    -6727    -6007    -5443    -5317 
   -5562    -5981    -6642    -7473    -8341    -9244   -10014   -10627 
  -11137   -11371   -11327   -11116   -10777   -10324    -9770    -9238 
   -8722    -8203    -7828    -7565    -7334    -7296    -7548    -7992 
   -8685    -9619   -10483   -11152   -11639   -11916   -12074   -12018 
  -11780   -11572   -11334   -11249   -11440   -11627   -11881   -12216 
  -12482   -12824   -13212   -13517   -13772   -13941   -13958   -13754 
  -13274   -12538   -11641   -10638    -9583    -8581    -7540    -6411 
   -5349    -4407    -3751    -3385    -3060    -2899    -2970    -3219 
   -3740    -4420    -5152    -5819    -6218    -6359    -6305    -6157 
   -5973    -5612    -5137    -4785    -4588    -4427    -4292    -4269 
   -4271    -4241    -4290    -4345    -4325    -4178    -3771    -3244 
   -2733    -2321    -2136    -1919    -1649    -1662    -1783    -1945 
   -2334    -2825    -3324    -3730    -4107    -4623    -5031    -5219 
   -5299    -5191    -4815    -4242    -3608    -2831    -1921    -1192 
    -607      -60      189      123      -16     -178     -553    -1221 
   -1863    -2471    -3178    -3706    -4171    -4780    -5280    -5535 
   -5562    -5417    -5090    -4579    -4173    -3873    -3423    -3016 
   -2925    -3155    -3654    -4397    -5361    -6348    -7181    -7905 
   -8522    -9147    -9856   -10359   -10693   -11106   -11477   -11777 
  -11945   -11845   -11742   -11723   -11699   -11875   -12232   -12615 
  -13042   -13462   -13876   -14390   -14894   -15217   -15465   -15619 
  -15569   -15380   -14948   -14215   -13375   -12630   -12112   -11722 
  -11375   -11173   -11199   -11450   -11869   -12521   -13292   -13936 
  -14588   -15194   -15536   -15655   -15459   -14820   -13829   -12703 
  -11546   -10343    -9247    -8339    -7483    -6665    -5980    -5523 
   -5385    -5490    -5708    -6114    -6757    -7364    -7708    -7863 
   -7804    -7517    -7046    -6419    -5909    -5594    -5433    -5556 
   -5810    -6180    -6734    -7162    -7568    -8135    -8697    -9263 
   -9653    -9760    -9768    -9482    -8810    -8064    -7360    -6634 
   -5996    -5468    -4916    -4450    -4093    -3800    -3773    -3912 
   -4109    -4456    -4791    -5169    -5527    -5472    -5193    -4690 
   -3738    -2814    -1929     -793      184     1021     1926     2592 
    3138     3726     4141     4434     4528     4396     4266     3926 
    3416     3082     2803     2612     2559     2525     2562     2394 
    1992     1800     1674     1532     1659     1821     1971     2357 
    2676     2936     3397     3748     4033     4332     4382     4488 
    4687     4699     4739     4701     4448     4232     3951     3493 
    2974     2274     1318      317     -618    -1494    -2181    -2704 
   -3172    -3436    -3504    -3436    -3137    -2830    -2628    -2359 
   -2212    -2281    -2393    -2615    -3028    -3595    -4187    -4703 
   -5261    -5789    -6225    -6667    -6913    -7016    -7195    -7271 
   -7317    -7516    -7810    -8257    -8712    -8988    -9207    -9328 
   -9249    -9118    -9030    -8943    -8874    -8920    -9118    -9526 
  -10271   -11130   -11813   -12450   -13076   -13585   -13988   -14265 
  -14462   -14522   -14353   -14082   -13764   -13515   -13406   -13250 
  -13187   -13389   -13591   -13639   -13683   -13807   -13924   -14031 
  -14137   -14101   -14024   -14018   -13911   -13666   -13298   -12811 
  -12219   -11405   -10477    -9682    -9022    -8424    -7936    -7712 
   -7818    -8040    -8218    -8511    -8874    -9112    -9286    -9410 
   -9387    -9256    -9008    -8435    -7685    -7013    -6123    -5077 
   -4238    -3534    -3139    -3190    -3499    -4228    -5321    -6418 
   -7557    -8703    -9661   -10360   -10684   -10683   -10479    -9866 
   -8833    -7610    -6105    -4446    -3015    -1796     -798     -274 
    -150     -126     -254     -580     -936    -1372    -1894    -2313 
   -2544    -2572    -2384    -2045    -1704    -1284     -663      -59 
     513     1186     1704     1959     2055     1911     1471      735 
    -261    -1297    -2223    -3031    -3562    -3844    -4109    -4169 
   -3932    -3694    -3352    -2791    -2336    -2056    -1911    -1995 
   -2210    -2654    -3467    -4359    -5255    -6278    -7171    -7789 
   -8382    -8917    -9096    -8993    -8667    -8069    -7458    -6909 
   -6378    -5938    -5522    -5285    -5244    -5146    -5303    -5805 
   -6229    -6649    -7135    -7466    -7701    -7800    -7562    -7055 
   -6391    -5684    -4999    -4330    -3891    -3687    -3622    -3938 
   -4610    -5400    -6303    -7183    -7902    -8589    -9192    -9487 
   -9490    -9312    -8923    -8261    -7334    -6236    -5269    -4643 
   -4305    -4368    -4931    -5842    -7010    -8290    -9558   -10757 
  -11673   -12261   -12578   -12611   -12444   -11918   -10957    -9957 
   -8998    -7943    -7108    -6686    -6511    -6520    -6741    -7215 
   -7782    -8353    -9231   -10152   -10706   -11187   -11450   -11199 
  -10745   -10186    -9447    -8526    -7545    -6752    -6104    -5620 
   -5327    -5006    -4794    -4774    -4663    -4505    -4464    -4393 
   -4162    -3909    -3764    -3556    -3189    -2900    -2696    -2410 
   -2221    -2121    -1927    -1791    -1768    -1781    -1927    -2172 
   -2415    -2889    -3534    -3971    -4483    -5118    -5445    -5721 
   -5950    -5755    -5395    -5021    -4670    -4480    -4245    -4025 
   -3959    -3727    -3304    -3066    -2989    -2781    -2641    -2564 
   -2266    -2186    -2327    -2188    -1949    -1678    -1271     -722 
     -26      424      718     1172     1438     1421     1337     1272 
    1202     1025      795      468       58     -249     -633    -1092 
   -1286    -1324    -1365    -1257     -957     -636     -394     -148 
      82      166      167      134     -151     -725    -1365    -2064 
   -2807    -3450    -4029    -4524    -4895    -5145    -5188    -5223 
   -5481    -5853    -6371    -7184    -8090    -8869    -9778   -10947 
  -11993   -12784   -13414   -13755   -13850   -13820   -13603   -13192 
  -12650   -12153   -11864   -11687   -11531   -11543   -11718   -11958 
  -12473   -13222   -13904   -14541   -15191   -15825   -16407   -16838 
  -17033   -16900   -16523   -16141   -15805   -15346   -14841   -14494 
  -14015   -13441   -13333   -13339   -13083   -13000   -13006   -12892 
  -12874   -12942   -12940   -12815   -12674   -12540   -12211   -11772 
  -11381   -10749    -9881    -9131    -8418    -7792    -7535    -7552 
   -7844    -8421    -9160   -10033   -10865   -11652   -12369   -12815 
  -13128   -13268   -13229   -13245   -13126   -12951   -12935   -12825 
  -12635   -12451   -12115   -11690   -11324   -11013   -10666   -10265 
   -9962    -9713    -9287    -8847    -8505    -7950    -7282    -6779 
   -6248    -5667    -5319    -5138    -4953    -4968    -5223    -5452 
   -5706    -6106    -6468    -6559    -6377    -6076    -5590    -4936 
   -4426    -4008    -3541    -3164    -2800    -2391    -2119    -2001 
   -1988    -2069    -2211    -2503    -3006    -3556    -3985    -4349 
   -4652    -4810    -4980    -5226    -5412    -5482    -5428    -5476 
   -5618    -5652    -5796    -5878    -5815    -6028    -6227    -6356 
   -6635    -6674    -6616    -6604    -6425    -6355    -6165    -5560 
   -5011    -4540    -3964    -3547    -3239    -2855    -2522    -2173 
   -1756    -1510    -1390    -1318    -1501    -1826    -2045    -2197 
   -2273    -2207    -2082    -1983    -1940    -1919    -1834    -1752 
   -1759    -1821    -2025    -2398    -2817    -3381    -4131    -4859 
   -5691    -6780    -7711    -8338    -8929    -9302    -9407    -9472 
   -9451    -9334    -9120    -8917    -8862    -8737    -8632    -8714 
   -8774    -8870    -8998    -9096    -9326    -9471    -9498    -9609 
   -9579    -9456    -9294    -8891    -8414    -7794    -6969    -6205 
   -5486    -4915    -4535    -4185    -4112    -4412    -4812    -5322 
   -6135    -7074    -7854    -8659    -9603   -10394   -10980   -11514 
  -11853   -11887   -11899   -11881   -11594   -11221   -10857   -10407 
   -9993    -9709    -9635    -9775    -9818    -9695    -9693    -9674 
   -9467    -9361    -9279    -9085    -9077    -9263    -9525    -9793 
   -9983   -10210   -10283   -10203   -10364   -10493   -10433   -10622 
  -10922   -11222   -11901   -12644   -13025   -13255   -13277   -12890 
  -12252   -11504   -10645    -9629    -8595    -7836    -7296    -6811 
