Origin Time       2011/03/11 14:46:00
Lat.              38.103
Long.             142.860
Depth. (km)       24
Mag.              9.0
Station Code      NIG014
Station Lat.      37.6412
Station Long.     138.9553
Station Height(m) 9
Record Time       2011/03/11 14:47:33
Sampling Freq(Hz) 100Hz
Duration Time(s)  300
Dir.              U-D
Scale Factor      3920(gal)/6182761
Max. Acc. (gal)   15.743
Last Correction   2011/03/11 14:47:18
Memo.             
[...]
    -356    -1059    -1700    -2214    -2522    -2486    -1948     -934 
     350     1673     2914     4139     5437     6755     7983     8946 
    9461     9524     9214     8590     7682     6483     5031     3477 
    2036      825     -165     -950    -1603    -2177    -2638    -3031 
   -3356    -3550    -3604    -3530    -3356    -3073    -2768    -2558 
   -2415    -2478    -2908    -3671    -4752    -5953    -6979    -7713 
   -8067    -7919    -7216    -6040    -4501    -2698     -728     1423 
    3669     5809     7691     9138    10057    10424    10258     9683 
    8752     7507     6051     4415     2677      987     -492    -1590 
   -2275    -2591    -2511    -2057    -1342     -430      687     1950 
    3236     4448     5470     6181     6509     6385     5809     4952 
    4010     3064     2181     1402      685       22     -527     -866 
    -948     -756     -262      410     1059     1516     1716     1758 
    1709     1596     1422     1145      780      378        6     -259 
    -335     -268     -233     -182       33      362      630      784 
    1043     1659     2651     3898     5329     6943     8690    10466 
   12149    13613    14857    15959    16892    17562    17868    17714 
   17173    16399    15523    14586    13346    11563     9286     6638 
    3870     1343     -682    -2088    -3003    -3686    -4285    -4833 
   -5287    -5645    -5953    -6254    -6514    -6567    -6366    -6086 
   -5869    -5672    -5352    -4794    -3972    -3076    -2431    -2206 
   -2391    -2902    -3602    -4335    -4912    -5146    -4975    -4388 
   -3393    -2130     -794      437     1407     2016     2219     2021 
    1424      540     -467    -1488    -2330    -2797    -2731    -2093 
   -1036      308     1822     3389     4939     6384     7743     9022 
   10022    10659    11092    11402    11634    11839    11845    11545 
   11073    10393     9417     8380     7478     6726     6155     5639 
    5030     4376     3752     3237     2973     3131     3735     4571 
    5470     6418     7383     8361     9385    10342    11011    11292 
   11110    10345     9073     7488     5714     3838     1982      348 
    -961    -1968    -2652    -3091    -3431    -3744    -3992    -4049 
   -3875    -3463    -2876    -2268    -1674    -1188     -848     -496 
    -132      174      366      380      248       -8     -383     -931 
   -1767    -2836    -3979    -5000    -5756    -6273    -6642    -6948 
   -7173    -7184    -6848    -6092    -4894    -3284    -1477      171 
    1459     2396     3106     3682     4131     4485     4702     4643 
    4220     3509     2677     1800      927       82     -756    -1503 
   -2056    -2332    -2309    -2155    -2073    -2157    -2317    -2383 
   -2354    -2249    -2092    -1998    -1993    -2027    -2017    -1875 
   -1576    -1041     -235      708     1627     2522     3462     4412 
    5322     6127     6720     7023     7005     6677     6049     5129 
    4026     2941     2091     1532     1080      641      273       44 
     116      569     1333     2267     3022     3329     3329     3206 
    2964     2681     2422     2049     1527     1022      611      403 
     544      914     1387     2014     2735     3466     4195     4916 
    5656     6448     7385     8526     9688    10646    11238    11330 
   10948    10124     8891     7316     5358     3128      986     -911 
   -2690    -4417    -5975    -7202    -7970    -8240    -8039    -7406 
   -6540    -5638    -4726    -3909    -3257    -2647    -1964    -1140 
    -119     1160     2641     4050     5248     6334     7367     8361 
    9351    10338    11161    11549    11306    10342     8790     6992 
    5364     4248     3660     3340     3025     2679     2412     2221 
    2109     2084     2044     2001     2107     2369     2551     2445 
    2082     1661     1413     1484     1935     2761     3821     4802 
    5510     6193     7107     8104     9108    10201    11190    11849 
   12219    12371    12255    11841    11189    10425     9715     9074 
    8390     7614     6587     5157     3573     2211     1155      386 
      33      163      672     1359     2014     2622     3220     3824 
    4467     5096     5747     6472     7159     7647     7827     7756 
    7496     7029     6387     5530     4432     3286     2295     1432 
     561     -361    -1267    -1912    -2071    -1842    -1435     -928 
    -394      189     1114     2600     4336     5776     6662     7145 
    7642     8406     9241     9726     9629     9160     8615     8072 
    7599     7209     6895     6778     6852     6902     6658     5980 
    5044     4249     3880     3931     4238     4505     4478     4348 
    4586     5377     6510     7672     8625     9210     9443     9419 
    9145     8669     8083     7314     6296     5110     3753     2198 
     709     -344     -900    -1150    -1257    -1319    -1332    -1226 
    -993     -702     -503     -581     -971    -1514    -2019    -2339 
   -2346    -1915    -1003      281     1824     3557     5219     6562 
    7623     8430     8929     9185     9219     8907     8175     7121 
    6032     5275     5013     5095     5288     5446     5523     5627 
    5847     6126     6358     6520     6707     7018     7458     7934 
    8360     8809     9365     9936    10318    10457    10607    11073 
   11951    13006    13801    14033    13715    13196    12905    13022 
   13417    13686    13432    12605    11378     9943     8610     7754 
    7455     7416     7254     6621     5319     3572     1889      634 
    -244    -1126    -2286    -3672    -5050    -6332    -7638    -8900 
   -9805   -10066    -9656    -8953    -8420    -8140    -7691    -6569 
   -4801    -3068    -2234    -2559    -3472    -4238    -4524    -4447 
   -4336    -4372    -4457    -4356    -3963    -3462    -3023    -2538 
   -1861     -961      138     1270     2275     3187     4032     4772 
    5374     5776     5924     5827     5595     5268     4649     3621 
    2287      824     -527    -1625    -2594    -3637    -4788    -5916 
   -6940    -7807    -8421    -8793    -9015    -9141    -9099    -8732 
   -7990    -6961    -5885    -4930    -3992    -2970    -1829     -650 
     394     1217     1772     2185     2662     3284     4059     4938 
    6028     7451     8995    10343    11186    11277    10682     9735 
    8725     7724     6628     5268     3667     2084      860      251 
     122      155       96     -278     -787    -1013     -936     -932 
   -1332    -2152    -3128    -3807    -3971    -3964    -4259    -5054 
   -6139    -6935    -7105    -6912    -6806    -7022    -7427    -7640 
   -7470    -7067    -6627    -6278    -6106    -5975    -5647    -5074 
   -4387    -3874    -3739    -3827    -3801    -3391    -2632    -1911 
   -1542    -1578    -1887    -2153    -2080    -1691    -1280    -1067 
   -1099    -1336    -1670    -1992    -2245    -2370    -2297    -2105 
   -2068    -2448    -3268    -4252    -5079    -5588    -5830    -6071 
   -6494    -7039    -7565    -7866    -7809    -7398    -6583    -5397 
   -4119    -3167    -2816    -2982    -3361    -3632    -3593    -3302 
   -3056    -3062    -3210    -3386    -3551    -3534    -3264    -2905 
   -2625    -2496    -2542    -2778    -3217    -3808    -4418    -4952 
   -5315    -5324    -4961    -4477    -4122    -3971    -3840    -3396 
   -2462    -1148      241     1450     2382     3046     3500     3751 
    3779     3579     3176     2701     2304     2097     2139     2372 
    2698     2953     2954     2817     3032     3987     5533     7246 
    8838    10205    11362    12366    13381    14618    16031    17375 
   18511    19383    19832    19703    19119    18422    17899    17544 
   17112    16486    15682    14758    13864    13110    12614    12462 
   12551    12641    12508    12065    11327    10362     9296     8250 
    7354     6601     5842     5112     4689     4842     5611     6792 
    7986     8891     9492     9806     9952    10262    10926    11923 
   13078    14139    14938    15388    15525    15475    15377    15222 
   14727    13662    12111    10432     8997     7900     7091     6560 
    6348     6506     6943     7499     8052     8539     8946     9179 
    9182     9106     9228     9726    10398    10795    10611     9877 
    8911     8055     7572     7456     7321     6867     6142     5366 
    4694     4179     3833     3634     3739     4405     5635     7069 
    8136     8576     8652     8792     9208     9772    10173    10018 
    9062     7485     5664     3968     2672     1806     1152      409 
    -571    -1782    -3174    -4576    -5698    -6383    -6695    -6695 
   -6399    -5930    -5480    -5179    -4946    -4473    -3489    -2039 
    -430     1108     2421     3378     3999     4298     4342     4505 
    5130     6168     7266     7929     7802     6992     6004     5381 
    5471     6182     7033     7593     7717     7547     7422     7589 
    8025     8488     8731     8726     8579     8464     8539     8721 
    8853     8923     9001     9097     9045     8691     8016     7078 
    6021     5033     4175     3342     2506     1765     1133      637 
     397      331      230       65      -61       27      505     1374 
    2368     3221     3958     4676     5482     6564     7919     9281 
   10252    10617    10546    10323    10128     9980     9794     9481 
    8921     8060     6986     5836     4866     4304     4150     4319 
    4582     4664     4595     4530     4561     4844     5468     6287 
    6983     7243     6913     6167     5444     4991     4669     4233 
    3434     2144      612     -835    -2093    -3068    -3796    -4606 
   -5693    -6959    -8212    -9289   -10131   -10787   -11349   -11905 
  -12412   -12650   -12504   -12045   -11457   -10993   -10777   -10753 
  -10838   -11069   -11573   -12359   -13267   -14050   -14507   -14711 
  -14946   -15209   -15109   -14350   -12992   -11263    -9250    -6962 
   -4486    -1773     1341     4717     7962    10907    13595    15983 
   18071    19924    21423    22351    22574    22023    20807    19203 
   17335    15124    12454     9343     6057     2928      224    -1899 
   -3556    -4912    -5929    -6541    -6727    -6451    -5744    -4773 
   -3766    -2820    -1881     -850      348     1695     3122     4554 
    5820     6724     7356     7905     8230     8190     7839     7175 
    6306     5514     5113     5336     6127     7212     8310     9212 
    9853    10365    11002    11868    12807    13489    13560    12784 
   11147     8902     6394     3836     1306    -1227    -3788    -6253 
   -8341    -9859   -10932   -11765   -12329   -12405   -11748   -10348 
   -8575    -6916    -5698    -4945    -4430    -3967    -3451    -2690 
   -1491      207     2269     4340     5979     7065     7939     8940 
   10124    11274    11885    11618    10750     9952     9793    10401 
   11463    12599    13709    14901    16048    16695    16566    15667 
   14184    12548    11084     9753     8327     6654     4918     3522 
    2680     2278     1994     1529      859      142     -605    -1400 
   -2106    -2609    -2754    -2375    -1592     -754     -204       34 
     392     1210     2299     3309     4081     4611     5018     5516 
    6232     7066     7859     8609     9450    10556    12031    13711 
   15161    15892    15728    14984    14028    12874    11370     9434 
    7052     4331     1618     -630    -2134    -2909    -3041    -2500 
   -1344      229     1973     3582     4833     5657     6128     6435 
    6774     7178     7365     6979     5967     4472     2712     1009 
    -359    -1390    -2285    -3217    -4202    -5051    -5576    -5821 
   -5921    -5995    -6134    -6321    -6458    -6462    -6209    -5579 
   -4759    -4118    -3796    -3733    -3756    -3656    -3525    -3667 
   -4209    -4999    -5733    -6243    -6517    -6469    -5985    -5112 
   -4054    -2965    -1888     -896      -28      895     2166     3840 
    5629     7164     8248     8891     9278     9590     9808     9832 
    9688     9435     9112     8836     8757     8876     8977     8865 
    8557     8233     8119     8223     8336     8325     8055     7385 
    6343     5066     3659     2244     1098      398       45      -95 
    -241     -565     -745     -270      966     2683     4475     6070 
    7487     8828    10133    11480    12986    14688    16449    18046 
   19361    20292    20639    20199    18943    17176    15277    13374 
   11345     8989     6401     3912     1731       19    -1127    -1849 
   -2342    -2661    -2909    -3265    -3687    -3999    -4086    -3883 
   -3391    -2585    -1534     -565      115      609     1073     1578 
    2049     2308     2357     2279     2012     1587     1132      637 
      10     -773    -1623    -2439    -3119    -3667    -4218    -4806 
   -5404    -5953    -6292    -6374    -6310    -6175    -5945    -5565 
   -4862    -3632    -2016     -316     1462     3426     5520     7723 
   10038    12367    14554    16432    17842    18553    18440    17662 
   16403    14845    13157    11305     9143     6742     4484     2660 
    1347      593      324      249      -33     -774    -1886    -3074 
   -4013    -4461    -4406    -4089    -3839    -3813    -3985    -4299 
   -4672    -5049    -5394    -5673    -5890    -5918    -5521    -4567 
   -3121    -1355      779     3478     6619     9807    12793    15497 
   17837    19903    21974    24130    26090    27458    28091    28099 
   27655    26893    25772    24175    22072    19470    16453    13238 
   10071     7083     4285     1759     -294    -1720    -2563    -3011 
   -3248    -3399    -3410    -3085    -2407    -1595     -900     -467 
    -311     -285     -187       45      408      931     1625     2409 
    3124     3745     4338     4817     5056     5102     5130     5186 
    5151     4931     4556     4155     3858     3740     3769     3750 
    3524     3188     2922     2849     3059     3524     4024     4429 
    4982     5934     7302     9138    11279    13187    14471    15110 
   15283    15114    14619    13815    12755    11497    10122     8764 
    7445     6053     4628     3312     2189     1306      648      183 
    -154     -482     -856    -1189    -1295    -1099     -773     -577 
    -644     -954    -1446    -2014    -2390    -2394    -2217    -2065 
   -1821    -1161      141     1907     3665     5128     6276     7143 
    7795     8297     8629     8698     8468     8089     7758     7475 
    7103     6586     6010     5514     5173     4893     4401     3519 
    2307      919     -493    -1825    -2920    -3494    -3399    -2796 
   -1907     -861      178     1078     1845     2587     3422     4206 
    4593     4373     3570     2546     1750     1214      614     -305 
   -1531    -2798    -3716    -4101    -4163    -4165    -4083    -3764 
   -3098    -2112    -1037      -82      638     1041     1221     1368 
    1531     1633     1598     1363     1060      985     1060      965 
     603       51     -452     -712     -733     -464      105      834 
    1705     2907     4412     5764     6620     7048     7313     7697 
    8179     8342     7906     6965     5775     4732     4096     3732 
    3465     3226     2855     2309     1812     1538     1447     1516 
    1868     2605     3708     5036     6401     7817     9484    11405 
   13341    15146    16820    18277    19368    19973    19917    19161 
   17899    16330    14638    12828    10676     8056     5096     2166 
    -395    -2533    -4192    -5245    -5786    -6097    -6381    -6780 
   -7389    -8078    -8784    -9479    -9906    -9997    -9945    -9903 
   -9880    -9659    -8930    -7596    -5823    -3777    -1517      795 
    2916     4743     6301     7573     8589     9478    10344    11208 
   11928    12292    12169    11550    10630     9657     8824     8187 
    7473     6420     5055     3586     2440     1879     1753     1969 
    2494     3126     3727     4228     4514     4578     4564     4513 
    4340     4111     3984     4014     4251     4797     5657     6661 
    7637     8529     9337    10041    10552    10860    11042    11100 
   11061    10928    10528     9777     8751     7518     6237     5103 
    4147     3337     2618     1854     1108      639      488      571 
     871     1388     2081     2865     3676     4374     4788     4977 
    5116     5286     5423     5477     5516     5500     5309     4934 
    4378     3653     3000     2770     3078     3726     4300     4524 
    4503     4449     4457     4524     4545     4435     4165     3647 
    2767     1487     -107    -1829    -3490    -4910    -6050    -7029 
   -7878    -8493    -8781    -8727    -8283    -7316    -5833    -4017 
   -1998      110     2078     3698     4805     5206     4910     4232 
    3528     2846     1898      474    -1360    -3378    -5249    -6720 
   -7657    -7958    -7757    -7221    -6412    -5584    -4914    -4247 
   -3415    -2373    -1144       70      917     1241     1160      856 
     592      634     1014     1502     1795     1752     1464     1170 
    1036      979      770      249     -484    -1107    -1369    -1263 
    -975     -764     -780     -920    -1005     -987     -903     -904 
   -1046    -1148    -1030     -493      493     1667     2968     4498 
    6139     7644     8777     9533    10116    10546    10750    10789 
   10777    10877    11119    11330    11472    11641    11785    11835 
   11893    12007    12048    11938    11784    11892    12587    13778 
   15010    15963    16379    16124    15502    14962    14709    14644 
   14488    14073    13530    13015    12509    12102    11855    11581 
   11149    10543     9837     9275     9046     9206     9867    11136 
   12811    14394    15481    15996    16052    15853    15595    15373 
   15249    15026    14424    13587    12731    11898    11174    10529 
    9808     8883     7641     6085     4402     2737     1048     -640 
   -2086    -3191    -4053    -4692    -5191    -5673    -6033    -6136 
   -5928    -5293    -4300    -3240    -2244    -1389     -818     -413 
     117      790     1316     1362      780     -226    -1348    -2460 
   -3481    -4499    -5765    -7209    -8594    -9776   -10567   -10990 
  -11296   -11407   -11250   -11101   -10981   -10792   -10496    -9867 
   -8889    -7819    -6888    -6217    -5749    -5317    -4761    -4073 
   -3356    -2588    -1825    -1068     -110      975     2065     3317 
    4730     6154     7554     8827     9648     9779     9400     8881 
    8657     9056     9895    10777    11375    11482    11295    11076 
   10847    10633    10290     9541     8341     6785     5000     3216 
    1696      569     -199     -624     -605      -19     1097     2432 
    3527     4214     4684     5106     5494     5698     5607     5335 
    5015     4641     4139     3459     2605     1732      978      159 
    -778    -1621    -2371    -3030    -3510    -3927    -4266    -4161 
   -3430    -2183     -518     1335     3233     5437     7913    10166 
   11980    13300    14044    14438    14598    14237    13320    12002 
   10238     8335     6723     5206     3658     2256      971      -10 
    -364     -170      382     1277     2398     3542     4842     6376 
