Origin Time       2011/03/11 14:46:00
Lat.              38.103
Long.             142.860
Depth. (km)       24
Mag.              9.0
Station Code      NIG020
Station Lat.      37.2348
Station Long.     138.9621
Station Height(m) 93
Record Time       2011/03/11 14:47:30
Sampling Freq(Hz) 100Hz
Duration Time(s)  300
Dir.              E-W
Scale Factor      3920(gal)/6182761
Max. Acc. (gal)   17.916
Last Correction   2011/03/11 14:47:15
Memo.             
[...]
   -9095   -12110   -14724   -16399   -16916   -16411   -15193   -13385 
  -11168    -9230    -8370    -8787   -10290   -12737   -15617   -17907 
  -18852   -18468   -17351   -16346   -16239   -17231   -18759   -20228 
  -21408   -21964   -21721   -21239   -21215   -21675   -22324   -23186 
  -24134   -24576   -24239   -23427   -22488   -21538   -20709   -20347 
  -20343   -20039   -19320   -18743   -18691   -18940   -19022   -18773 
  -18302   -17743   -17269   -17276   -18339   -20717   -23819   -26270 
  -26962   -25899   -23654   -20775   -17924   -15784   -14623   -14407 
  -15104   -16333   -17336   -17738   -17622   -16779   -14887   -12581 
  -11275   -11716   -13350   -14830   -15004   -13645   -11230    -8175 
   -4711    -1473      595     1072       69    -2227    -5399    -8622 
  -11214   -13288   -15308   -17358   -19388   -21511   -23913   -26729 
  -29743   -32310   -33863   -34121   -32826   -29980   -26355   -23181 
  -21287   -20645   -20855   -21823   -23521   -25658   -28015   -30246 
  -31638   -31879   -31295   -30186   -28750   -27235   -25804   -24707 
  -24154   -23833   -23137   -21780   -19844   -17462   -14748   -12183 
  -10798   -11428   -13786   -16793   -19769   -22747   -25681   -28215 
  -30395   -32421   -33587   -32636   -28982   -23078   -16110    -9436 
   -4063     -709      150    -1638    -6090   -12667   -19855   -25951 
  -29854   -31198   -30417   -28326   -25491   -22386   -19638   -17771 
  -16968   -16991   -17486   -18319   -19289   -20121   -21016   -22364 
  -24173   -26350   -28730   -30596   -31113   -30088   -27857   -24916 
  -21902   -19344   -17185   -15161   -13499   -12452   -11754   -11254 
  -11436   -12554   -13844   -14509   -14887   -15814   -17632   -20288 
  -23547   -27087   -30549   -33277   -34543   -34143   -32293   -29294 
  -25683   -22308   -20100   -19742   -21002   -22681   -23949   -24757 
  -24828   -23795   -21902   -19917   -18903   -19296   -20405   -21620 
  -22896   -24000   -24475   -24082   -22888   -21112   -18972   -16879 
  -15692   -16211   -18309   -20919   -22805   -23050   -21416   -18672 
  -15945   -13975   -13121   -13115   -13263   -13173   -12707   -12046 
  -11661   -11565   -11752   -12860   -15207   -18098   -20494   -21627 
  -21071   -18726   -14870   -10345    -6378    -3774    -2566    -2950 
   -5849   -11395   -17901   -23492   -27665   -30856   -33396   -35051 
  -35549   -35365   -35242   -35055   -34176   -32553   -30795   -29446 
  -28420   -27648   -27663   -28761   -30608   -32718   -34571   -35793 
  -36264   -35739   -33953   -31178   -28211   -25833   -24130   -22711 
  -21905   -22343   -23444   -24100   -24159   -24095   -23939   -23250 
  -21979   -20660   -19666   -18889   -18254   -17967   -17967   -17629 
  -16510   -14992   -13715   -12998   -13277   -14927   -17495   -19970 
  -21384   -21213   -19846   -18185   -16475   -14457   -12666   -12198 
  -13291   -15220   -17387   -19839   -22687   -25566   -27740   -28422 
  -27385   -25361   -23334   -21941   -21867   -23696   -26869   -29730 
  -30777   -29543   -26523   -22482   -18183   -14397   -11392    -9094 
   -7981    -8669   -10743   -13059   -15004   -16598   -17697   -17952 
  -17498   -17226   -18061   -20012   -22554   -25603   -28963   -31602 
  -32331   -30725   -27409   -23463   -19620   -16306   -13998   -12932 
  -12504   -11735   -10276    -8452    -6906    -6344    -7177    -9301 
  -12170   -15138   -17687   -19503   -20582   -21223   -21846   -22588 
  -23239   -23689   -23967   -23944   -23514   -22872   -22162   -21325 
  -20604   -20375   -20517   -20891   -22117   -24808   -28462   -31886 
  -34205   -35216   -35113   -34340   -33728   -34052   -35196   -36068 
  -35391   -32576   -27913   -22385   -17238   -13248   -10660    -9725 
  -10734   -13513   -17342   -21428   -25016   -27360   -27933   -26589 
  -23888   -21045   -18988   -17822   -17328   -17402   -17992   -18924 
  -19715   -20047   -20316   -20837   -21307   -21656   -22182   -22679 
  -22300   -20233   -16452   -11978    -7943    -4749    -2585    -1786 
   -2484    -4440    -7213   -10509   -14033   -17203   -19537   -21013 
  -22002   -22792   -23130   -22764   -21793   -20198   -18182   -16605 
  -16040   -16137   -16408   -16777   -17090   -16747   -15404   -13755 
  -12992   -13756   -16050   -19769   -24459   -28813   -31615   -32721 
  -32390   -30742   -28119   -25175   -22536   -20649   -19837   -20228 
  -21718   -24139   -27281   -30679   -33765   -36265   -37943   -38450 
  -37806   -36405   -34566   -32338   -29626   -26535   -23696   -21887 
  -21473   -22613   -25001   -27320   -28162   -27149   -24847   -22276 
  -20413   -19586   -19323   -19060   -18602   -17907   -16704   -14430 
  -10893    -6742    -2907      103     2077     2542      817    -3260 
   -8907   -14892   -20074   -23507   -24830   -24438   -23175   -22124 
  -22159   -23360   -25022   -26429   -27501   -28375   -28801   -28195 
  -25973   -22017   -17066   -12522    -9589    -8717    -9596   -11204 
  -12331   -12370   -11502   -10368    -9763   -10518   -13028   -16609 
  -19924   -22080   -22844   -22130   -19867   -16386   -12729   -10045 
   -8666    -8519    -9785   -12151   -14475   -16066   -17410   -19129 
  -21198   -23396   -25565   -27351   -28263   -28062   -27054   -25670 
  -23952   -22039   -20536   -19796   -19808   -20851   -22812   -24605 
  -25311   -24925   -23989   -23116   -22611   -22413   -22301   -22297 
  -22816   -23960   -25179   -26159   -27032   -27675   -27848   -27357 
  -25972   -23899   -21686   -19922   -19216   -19689   -20893   -22182 
  -22801   -22369   -21304   -20310   -19782   -19794   -20104   -20177 
  -19642   -18820   -18523   -19196   -20327   -20995   -20825   -19885 
  -18263   -16358   -14798   -13979   -13851   -13723   -12943   -11742 
  -10592    -9445    -8242    -7396    -7348    -8079    -9327   -11057 
  -13467   -16556   -19931   -22879   -24745   -25589   -25979   -26075 
  -25401   -23571   -21247   -19920   -20366   -22086   -24297   -26395 
  -27715   -28019   -27948   -28171   -28454   -28153   -27258   -26230 
  -25420   -25367   -26687   -29118   -31579   -33294   -34117   -33980 
  -33034   -31828   -30463   -28540   -26252   -24465   -23808   -24060 
  -24503   -24882   -25362   -25746   -25625   -24869   -23478   -21548 
  -19400   -17189   -14696   -11957    -9550    -7877    -6951    -7071 
   -8519   -10441   -11310   -10570    -8791    -6597    -4236    -1997 
    -467       50      -99     -503    -1145    -2250    -3788    -5146 
   -5584    -4874    -3366    -1964    -1763    -3078    -5487    -8583 
  -11737   -14087   -15224   -15503   -15862   -16910   -18278   -19462 
  -20548   -21531   -21984   -21838   -21453   -20755   -19287   -17273 
  -15619   -14644   -14051   -13895   -14303   -14947   -15481   -15996 
  -17005   -19122   -22509   -26531   -30224   -32953   -34252   -33654 
  -31106   -27416   -24247   -23061   -24012   -26478   -30089   -34505 
  -38790   -41738   -42618   -41440   -38707   -35059   -31227   -28089 
  -26412   -26392   -27515   -28962   -30031   -30281   -29619   -28250 
  -26567   -25064   -24199   -24363   -25797   -28137   -30243   -31051 
  -30287   -28129   -24902   -21241   -18101   -16372   -16339   -17455 
  -18488   -18121   -15935   -12574    -8831    -5314    -2815    -1987 
   -2539    -3491    -4510    -6030    -7811    -8833    -8674    -7843 
   -6911    -6031    -5294    -4961    -5164    -5845    -7076    -9005 
  -11469   -14044   -16347   -18155   -19447   -20174   -20124   -19317 
  -18175   -17199   -16600   -16508   -17183   -18456   -19643   -20190 
  -20025   -19504   -19103   -19028   -19051   -18822   -18471   -18643 
  -19598   -20604   -20783   -20039   -18833   -17681   -16990   -16909 
  -17262   -17974   -19383   -21881   -25627   -30415   -35390   -39175 
  -40656   -39639   -36716   -32746   -28484   -24597   -21603   -19511 
  -18028   -16950   -16167   -15672   -15311   -14835   -14511   -14810 
  -15638   -16634   -17790   -19184   -20640   -21960   -22892   -23066 
  -22214   -20376   -18080   -16197   -15452   -16145   -18317   -21810 
  -26003   -29986   -33127   -35209   -36165   -35877   -34372   -32017 
  -29451   -27244   -25472   -23978   -22806   -21920   -21025   -19866 
  -18426   -16995   -15986   -15436   -14947   -14026   -12369   -10104 
   -7617    -5370    -4038    -4184    -5708    -7952   -10362   -12795 
  -15134   -17073   -18181   -18029   -16439   -13720   -10789    -8730 
   -7915    -7976    -8730   -10242   -12000   -13366   -14505   -15929 
  -17668   -19022   -19233   -18445   -17243   -15744   -13736   -11045 
   -7715    -4273    -1687     -641    -1107    -2661    -4569    -6063 
   -6862    -6806    -5553    -3219     -924     -258    -1931    -5082 
   -8252   -10897   -13269   -15009   -15233   -14031   -12644   -12243 
  -12946   -14148   -15708   -17844   -20225   -22097   -22834   -22471 
  -21756   -21030   -19786   -17895   -16322   -16002   -16715   -17582 
  -18119   -18579   -19290   -19882   -19936   -19958   -20793   -22512 
  -24394   -25872   -27007   -27665   -27169   -25509   -23650   -22289 
  -21374   -20685   -20341   -20626   -21504   -22669   -23642   -23649 
  -22067   -18955   -15070   -11694   -10023   -10351   -12184   -14930 
  -18122   -21200   -23395   -24170   -23680   -22549   -21440   -20972 
  -21786   -23982   -26632   -28683   -29876   -30351   -30219   -29665 
  -28763   -27475   -26185   -25293   -24622   -24074   -23700   -23266 
  -22727   -22436   -22953   -24868   -28021   -31390   -34203   -36098 
  -36513   -34917   -31456   -27243   -23512   -20530   -18236   -16879 
  -16338   -16082   -15808   -15800   -16659   -18177   -19174   -19080 
  -18376   -17582   -17019   -17057   -18116   -20264   -22858   -25154 
  -26885   -28157   -29084   -29477   -29396   -29453   -29971   -30572 
  -30834   -30979   -31494   -32231   -32476   -31831   -30708   -29702 
  -28817   -27778   -26636   -25694   -24710   -22695   -19202   -15062 
  -11402    -8831    -7561    -7504    -8286    -9226    -9511    -8808 
   -7421    -6091    -5814    -6860    -8249    -8883    -8617    -7744 
   -6220    -4368    -3359    -3885    -5455    -7481   -10053   -13373 
  -16838   -19279   -20350   -20769   -21156   -21751   -22783   -24425 
  -26567   -28484   -29150   -28303   -26779   -25668   -25355   -25571 
  -26116   -27005   -28081   -29093   -30061   -30948   -31376   -31129 
  -30342   -29354   -28875   -29650   -31447   -33086   -33624   -32724 
  -30076   -25694   -20814   -17339   -16238   -17459   -20793   -25577 
  -30287   -33108   -32761   -29290   -24271   -19627   -16337   -14617 
  -14341   -15041   -16206   -17326   -18011   -18254   -17778   -16089 
  -13746   -12162   -12014   -12938   -14456   -16163   -17478   -18043 
  -18064   -18288   -19437   -21329   -23047   -23502   -21938   -19014 
  -16350   -14804   -14469   -15367   -17430   -20301   -23074   -24849 
  -25766   -26617   -27566   -28051   -27619   -26319   -24629   -22863 
  -20625   -17614   -14704   -13397   -14115   -15859   -17778   -19674 
  -21187   -21908   -21872   -21363   -20411   -18788   -16724   -14823 
  -13235   -11884   -10929   -10308    -9750    -9352    -9424   -10172 
  -11891   -14672   -17715   -19735   -20198   -19690   -19082   -18613 
  -18088   -17619   -17413   -17495   -17916   -18381   -18284   -17650 
  -16878   -15556   -12995    -9645    -6787    -5509    -6244    -8597 
  -12006   -16124   -20012   -22211   -21895   -19259   -15174   -10543 
   -5872    -1965       15      -82    -1589    -4438    -8833   -14260 
  -19797   -24653   -28129   -29867   -30145   -29337   -27562   -24957 
  -21985   -19489   -18085   -17996   -19484   -22085   -24219   -24940 
  -24678   -23956   -22875   -21588   -20493   -20096   -20500   -21379 
  -22631   -24316   -25935   -26524   -25865   -24954   -24875   -25813 
  -27078   -27676   -27026   -25144   -22475   -19971   -18893   -19888 
  -22585   -26031   -28832   -29680   -28488   -25988   -22569   -18516 
  -14599   -11752   -10393   -10518   -12472   -16632   -22443   -28606 
  -33707   -36649   -37106   -35459   -32425   -28976   -26203   -24660 
  -23916   -23263   -22568   -22125   -22231   -23117   -24763   -26630 
  -27900   -28221   -27861   -26948   -25128   -22179   -18447   -14786 
  -12240   -11347   -11790   -12956   -14679   -17306   -20773   -24012 
  -25900   -26204   -25188   -22980   -19820   -16681   -14936   -15095 
  -16703   -19392   -22721   -25834   -28233   -29789   -30399   -29997 
  -28255   -24960   -20665   -16427   -13365   -12202   -13040   -15693 
  -19554   -23144   -24982   -25184   -25091   -25354   -25726   -26103 
  -26349   -25977   -24792   -23327   -22304   -21993   -22243   -22759 
  -23477   -24719   -26379   -27828   -28937   -30025   -31044   -31378 
  -30626   -29227   -27568   -25410   -22725   -19897   -17179   -14758 
  -12955   -11887   -11270   -10764   -10252    -9890    -9897   -10220 
  -10686   -11262   -11839   -12169   -12287   -12592   -13314   -14184 
  -14472   -13526   -11368    -8379    -5078    -2467    -1646    -2932 
   -5789    -9529   -13681   -17644   -20674   -22620   -24110   -25521 
  -26378   -26288   -25735   -25408   -25328   -24996   -24206   -23346 
  -22454   -20869   -18610   -16888   -16767   -18080   -19814   -21266 
  -22210   -22356   -21738   -21018   -20832   -21520   -23249   -25586 
  -27298   -27261   -25481   -22824   -19995   -17301   -15341   -15319 
  -18222   -23700   -30318   -36826   -42532   -46739   -48572   -47545 
  -43980   -38682   -32557   -26646   -22241   -20537   -21550   -23856 
  -26126   -28371   -30853   -32642   -32791   -31891   -31050   -30553 
  -30298   -30387   -30710   -30491   -28773   -25384   -21155   -17224 
  -14205   -11870    -9928    -8791    -8864    -9902   -11483   -13231 
  -14652   -15287   -14887   -13470   -11573   -10283   -10558   -12609 
  -16031   -20053   -23565   -25526   -25367   -23111   -19693   -16526 
  -14333   -13103   -12596   -12501   -12647   -12877   -12749   -11984 
  -11175   -11248   -12354   -13938   -15679   -17861   -20579   -23118 
  -24734   -25464   -25765   -25854   -25741   -25843   -27090   -29906 
  -33373   -36233   -38081   -39043   -39508   -40149   -41410   -43190 
  -44885   -45750   -45469   -44329   -42975   -42015   -41784   -42329 
  -43236   -43709   -43219   -41917   -40187   -38319   -36639   -35241 
  -33748   -31606   -28602   -25258   -22679   -21841   -23095   -26201 
  -30405   -34387   -36528   -36038   -33610   -30338   -27176   -25318 
  -25386   -26805   -28561   -30032   -31287   -32762   -34523   -35964 
  -36339   -35519   -34137   -32964   -32190   -31660   -31390   -31253 
  -30839   -29870   -28644   -28089   -28810   -30546   -32638   -34238 
  -34591   -33413   -30752   -26949   -22704   -18714   -15289   -12411 
   -9977    -7977    -6586    -6099    -6762    -8672   -11624   -14900 
  -17604   -19057   -18862   -17463   -16027   -15269   -15354   -16244 
  -17379   -18206   -19022   -20390   -22166   -23749   -24999   -26223 
  -27479   -28809   -30710   -33463   -36291   -38157   -39113   -39494 
  -38812   -36950   -34760   -33042   -31958   -31042   -29783   -28244 
  -26625   -24909   -23192   -21852   -21375   -21973   -23076   -23789 
  -24061   -24244   -23901   -22554   -20635   -18756   -16969   -15012 
  -12905   -10996    -9508    -8768    -9340   -11333   -14090   -16416 
  -17286   -16531   -14505   -11813    -9382    -7868    -7183    -6862 
   -6643    -6623    -7118    -8435   -10556   -13297   -16355   -18920 
  -20038   -19438   -17524   -14933   -12479   -10892   -10509   -11507 
  -13857   -17075   -20328   -22760   -23996   -24335   -24503   -25064 
  -25902   -26938   -28625   -30856   -32765   -33905   -34356   -34110 
  -33062   -31064   -27957   -23781   -19158   -15336   -13055   -12220 
  -13115   -16406   -21822   -27748   -32426   -35097   -35286   -32377 
  -26979   -21188   -16616   -13309   -11158   -10625   -11521   -12915 
  -14379   -15928   -17034   -16718   -14503   -10996    -7570    -5317 
   -4382    -4372    -5080    -6422    -7887    -9005    -9950   -11096 
  -12731   -14832   -16742   -17536   -16623   -14050   -10584    -7631 
   -6723    -8716   -13274   -19116   -24819   -29240   -31704   -32232 
  -31093   -28492   -24877   -20921   -17186   -14054   -12073   -12012 
  -13799   -16147   -18179   -20274   -22697   -24798   -25872   -25796 
  -24915   -23631   -22085   -20229   -18195   -16612   -16057   -16292 
  -16886   -18078   -20351   -23600   -26972   -29539   -31215   -32613 
  -33789   -34050   -32926   -30460   -27241   -24333   -22346   -21163 
  -20760   -21386   -22827   -24208   -24996   -25476   -25702   -25040 
  -23108   -20554   -18500   -17260   -16404   -15704   -15035   -14116 
  -12815   -11310   -10057    -9791   -11041   -13489   -16457   -19716 
  -23213   -26631   -29462   -31408   -32569   -32985   -32381   -30770 
  -28919   -27800   -27744   -28306   -28899   -29320   -29517   -29182 
  -27986   -26170   -24606   -24001   -24414   -25719   -27753   -29894 
  -31216   -31208   -29965   -27952   -26141   -25597   -26370   -27640 
  -28780   -29364   -28748   -26716   -24196   -22371   -21301   -20412 
  -19753   -19477   -18888   -17237   -14792   -12560   -11357   -11162 
  -11306   -11186   -10661    -9932    -9096    -8155    -7584    -7967 
   -9210   -10948   -13217   -16514   -21223   -26737   -31933   -36053 
  -38366   -38277   -35955   -32152   -28075   -25180   -24403   -25472 
  -27099   -28186   -28555   -28576   -28756   -29692   -32010   -35828 
  -40202   -43706   -45689   -46326   -45673   -43508   -40056   -36367 
  -33584   -31850   -30576   -29591   -29147   -29196   -29670   -30790 
  -32161   -32536   -31146   -28535   -25888   -24100   -23538   -24095 
  -25149   -25681   -24973   -23219   -21081   -18953   -16826   -14708 
  -12984   -11961   -11468   -11377   -11961   -13472   -15607   -17419 
  -18131   -17942   -17349   -16474   -15680   -15494   -15718   -15521 
  -14342   -12532   -10951   -10166   -10331   -11303   -12800   -14636 
  -16450   -17406   -16781   -14594   -11222    -7034    -2722      712 
    2421     1981     -547    -4652    -9468   -13953   -17190   -18678 
  -18516   -17253   -15576   -14207   -13677   -14167   -15740   -18096 
  -20578   -22828   -24453   -24660   -22975   -19842   -16690   -15095 
  -15525   -17667   -21228   -25150   -27464   -27210   -24937   -21298 
  -17087   -13565   -11363    -9989    -8729    -7608    -7103    -7265 
   -7692    -7915    -7652    -6833    -5621    -4740    -5229    -7605 
  -11419   -15300   -17775   -18439   -17673   -15540   -12285    -9140 
   -7353    -7139    -8136   -10220   -13157   -15757   -16838   -16744 
  -16462   -16273   -16419   -17836   -20976   -24737   -27973   -30921 
  -33658   -34910   -33726   -30747   -27158   -23508   -19978   -17025 
  -15113   -14008   -13007   -11836   -10693    -9750    -9327    -9814 
  -10970   -12217   -13476   -14716   -15007   -13250    -9800    -6157 
   -3166     -676     1267     1960      955    -1390    -4258    -6564 
   -7587    -7617    -7242    -6831    -6677    -6795    -7096    -7680 
   -8637    -9871   -11077   -11895   -12249   -12296   -11980   -11085 
   -9594    -7674    -5642    -4043    -3561    -4766    -7584   -11175 
