Origin Time       2011/03/11 14:46:00
Lat.              38.103
Long.             142.860
Depth. (km)       24
Mag.              9.0
Station Code      NIG023
Station Lat.      37.0134
Station Long.     138.6546
Station Height(m) 245
Record Time       2011/03/11 14:47:43
Sampling Freq(Hz) 100Hz
Duration Time(s)  300
Dir.              U-D
Scale Factor      3920(gal)/6182761
Max. Acc. (gal)   11.681
Last Correction   2011/03/11 14:47:28
Memo.             
[...]
  -12749   -11317   -10436   -10576   -11575   -12993   -14537   -16083 
  -17457   -18544   -19448   -20152   -20416   -20104   -19381   -18724 
  -18650   -19347   -20637   -22130   -23428   -24447   -25359   -26179 
  -26690   -26763   -26655   -26879   -27703   -28936   -30173   -31008 
  -31158   -30577   -29425   -27944   -26427   -25083   -23903   -22782 
  -21738   -20989   -20753   -20967   -21439   -22095   -22786   -23187 
  -23037   -22280   -21090   -19811   -18804   -18305   -18236   -18166 
  -17675   -16741   -15727   -14976   -14450   -13897   -13300   -12980 
  -13269   -14195   -15525   -17008   -18572   -20302   -22149   -23756 
  -24748   -25031   -24739   -24108   -23385   -22661   -21889   -21074 
  -20356   -19933   -19867   -20086   -20470   -20696   -20358   -19423 
  -18303   -17514   -17366   -17797   -18458   -19047   -19431   -19477 
  -19189   -18868   -18673   -18441   -18130   -17854   -17621   -17476 
  -17598   -18152   -19155   -20383   -21468   -22208   -22708   -23137 
  -23542   -23973   -24460   -24924   -25369   -25848   -26140   -25959 
  -25536   -25492   -26098   -26999   -27570   -27444   -26817   -26238 
  -26080   -26301   -26669   -26909   -26742   -26118   -25344   -24868 
  -24974   -25673   -26737   -27733   -28322   -28564   -28637   -28513 
  -28017   -26982   -25570   -24302   -23594   -23503   -23817   -24147 
  -24183   -23903   -23386   -22644   -21840   -21263   -20917   -20541 
  -19955   -19161   -18351   -17846   -17836   -18255   -18900   -19578 
  -20172   -20634   -20978   -21265   -21631   -22197   -22906   -23668 
  -24445   -24965   -24925   -24548   -24316   -24406   -24595   -24508 
  -24116   -23763   -23687   -23959   -24581   -25389   -26164   -26851 
  -27537   -28188   -28571   -28544   -28253   -27877   -27311   -26261 
  -24704   -23001   -21479   -20241   -19271   -18469   -17848   -17642 
  -18004   -18824   -19867   -20890   -21794   -22621   -23237   -23371 
  -23004   -22399   -21865   -21557   -21459   -21505   -21676   -22065 
  -22722   -23471   -24139   -24793   -25520   -26214   -26745   -27123 
  -27470   -27968   -28747   -29764   -30758   -31442   -31763   -31759 
  -31399   -30686   -29602   -28245   -27142   -26744   -26840   -26986 
  -27048   -27066   -27001   -26868   -26975   -27657   -28759   -29802 
  -30575   -31086   -31247   -30965   -30288   -29420   -28674   -28288 
  -28374   -29018   -30185   -31605   -32891   -33766   -34292   -34772 
  -35254   -35502   -35522   -35520   -35436   -35139   -34798   -34704 
  -34889   -35032   -34787   -34143   -33448   -33073   -32983   -32760 
  -32072   -30977   -29842   -29021   -28606   -28419   -28181   -27783 
  -27303   -26834   -26511   -26450   -26542   -26574   -26449   -26165 
  -25806   -25591   -25688   -26006   -26402   -26928   -27683   -28648 
  -29746   -30818   -31641   -32168   -32573   -32933   -33162   -33232 
  -33133   -32755   -32076   -31350   -30901   -30790   -30852   -30899 
  -30814   -30740   -30873   -31018   -30826   -30195   -29280   -28420 
  -27931   -27864   -28045   -28254   -28444   -28771   -29304   -30047 
  -31161   -32639   -34047   -34882   -34950   -34439   -33699   -32943 
  -32303   -32026   -32230   -32623   -32790   -32616   -32270   -32046 
  -32172   -32540   -32741   -32403   -31511   -30474   -29773   -29513 
  -29512   -29557   -29391   -28773   -27649   -26242   -24908   -23823 
  -22999   -22491   -22402   -22778   -23363   -23668   -23418   -22564 
  -21206   -19776   -18677   -17883   -17292   -16986   -16990   -17244 
  -17616   -17801   -17610   -17230   -16874   -16526   -16156   -15924 
  -16014   -16416   -17072   -18018   -19164   -20277   -21191   -21765 
  -21883   -21664   -21436   -21398   -21431   -21314   -20931   -20298 
  -19615   -19086   -18552   -17768   -16951   -16443   -16288   -16474 
  -16977   -17694   -18605   -19601   -20438   -21218   -22289   -23613 
  -24856   -25786   -26276   -26309   -25973   -25394   -24760   -24250 
  -23874   -23576   -23464   -23651   -23920   -23908   -23631   -23460 
  -23563   -23661   -23370   -22692   -22089   -22008   -22478   -23229 
  -23962   -24541   -25108   -25823   -26576   -27201   -27709   -28149 
  -28505   -28802   -29130   -29502   -29807   -29995   -30121   -30112 
  -29783   -29068   -28010   -26709   -25362   -24122   -23056   -22277 
  -21845   -21743   -21939   -22272   -22517   -22475   -21986   -21077 
  -20003   -19029   -18239   -17587   -17136   -17049   -17327   -17778 
  -18212   -18582   -19027   -19674   -20467   -21340   -22336   -23502 
  -24755   -25877   -26678   -27076   -27013   -26458   -25522   -24500 
  -23679   -23121   -22742   -22499   -22420   -22500   -22701   -23110 
  -23793   -24485   -24792   -24592   -24090   -23525   -22871   -21993 
  -20987   -20124   -19592   -19321   -19045   -18619   -18188   -17960 
  -17938   -17847   -17363   -16499   -15661   -15231   -15269   -15651 
  -16300   -17232   -18375   -19453   -20175   -20515   -20886   -21872 
  -23523   -25285   -26695   -27640   -28029   -27777   -27216   -27005 
  -27466   -28302   -28914   -28987   -28783   -28682   -28818   -29207 
  -29713   -29999   -29735   -28811   -27406   -25765   -24050   -22601 
  -21878   -21899   -22124   -22093   -21883   -21778   -21822   -21974 
  -22310   -22806   -23232   -23293   -22914   -22427   -22213   -22315 
  -22537   -22672   -22676   -22800   -23420   -24669   -26266   -27697 
  -28602   -28980   -28960   -28596   -27874   -26690   -25050   -23258 
  -21731   -20575   -19441   -18108   -16956   -16516   -16894   -17727 
  -18439   -18720   -18669   -18487   -18384   -18525   -18691   -18363 
  -17349   -16025   -14930   -14330   -14118   -14098   -14299   -14807 
  -15490   -16172   -16826   -17350   -17571   -17651   -17896   -18324 
  -18835   -19425   -20096   -20827   -21584   -22199   -22387   -22026 
  -21275   -20443   -19832   -19451   -18998   -18407   -18138   -18640 
  -19757   -20956   -21870   -22488   -23024   -23638   -24306   -24934 
  -25327   -25217   -24600   -23918   -23680   -23916   -24234   -24351 
  -24374   -24544   -24866   -25154   -25357   -25701   -26396   -27300 
  -28110   -28713   -29226   -29815   -30519   -31343   -32304   -33137 
  -33431   -33181   -32807   -32684   -32875   -33177   -33371   -33403 
  -33343   -33265   -33211   -33123   -32813   -32164   -31330   -30610 
  -30071   -29451   -28670   -28166   -28372   -29196   -30219   -31076 
  -31667   -32140   -32547   -32645   -32155   -31013   -29350   -27551 
  -26291   -26059   -26704   -27612   -28129   -28050   -27737   -27499 
  -27320   -27158   -27083   -27198   -27543   -28038   -28489   -28698 
  -28611   -28346   -28105   -28076   -28326   -28740   -29132   -29379 
  -29532   -29794   -30235   -30652   -30650   -29814   -28208   -26419 
  -24840   -23398   -21865   -20129   -18205   -16064   -13713   -11447 
   -9698    -8647    -8145    -7920    -7759    -7553    -7329    -7198 
   -7138    -6990    -6687    -6319    -6067    -6064    -6374    -7154 
   -8425    -9781   -10819   -11549   -12171   -12847   -13638   -14385 
  -14863   -15118   -15489   -16254   -17427   -18865   -20389   -21730 
  -22605   -22978   -23041   -22970   -22942   -23065   -23111   -22697 
  -21787   -20726   -19927   -19614   -19671   -19802   -19947   -20276 
  -20724   -20961   -20833   -20508   -20308   -20528   -21173   -21851 
  -22039   -21576   -20800   -20072   -19512   -19163   -19009   -18944 
  -18877   -18796   -18783   -18908   -19076   -19192   -19290   -19319 
  -19155   -18793   -18348   -17980   -17760   -17647   -17677   -17890 
  -18079   -18050   -17981   -18053   -18105   -17856   -17179   -16233 
  -15334   -14730   -14474   -14333   -14020   -13521   -13022   -12626 
  -12227   -11588   -10560    -9248    -7957    -7071    -6925    -7523 
   -8541    -9691   -10788   -11660   -12245   -12610   -12853   -13069 
  -13317   -13603   -13917   -14212   -14376   -14272   -13952   -13719 
  -13863   -14505   -15531   -16573   -17331   -17758   -17948   -18055 
  -18094   -17928   -17553   -17091   -16581   -16109   -15844   -15784 
  -15807   -15846   -15836   -15810   -15918   -16155   -16375   -16546 
  -16746   -17028   -17402   -17830   -18312   -18924   -19653   -20455 
  -21362   -22327   -23233   -24095   -24994   -25937   -26883   -27709 
  -28232   -28460   -28660   -29012   -29380   -29505   -29259   -28761 
  -28371   -28484   -29160   -30055   -30759   -31064   -30953   -30550 
  -30083   -29684   -29297   -28951   -28880   -29188   -29698   -30201 
  -30569   -30707   -30659   -30738   -31246   -32044   -32614   -32609 
  -32164   -31664   -31351   -31158   -30837   -30219   -29290   -28158 
  -27014   -25991   -25083   -24335   -23807   -23331   -22700   -21988 
  -21400   -20956   -20426   -19680   -18931   -18463   -18323   -18301 
  -18108   -17653   -17054   -16526   -16393   -16845   -17689   -18468 
  -18761   -18524   -18152   -18089   -18387   -18761   -19006   -19195 
  -19570   -20356   -21597   -23096   -24456   -25329   -25782   -26236 
  -26881   -27359   -27151   -26234   -25156   -24369   -23842   -23391 
  -23015   -22810   -22698   -22554   -22447   -22382   -22164   -21640 
  -20866   -20053   -19463   -19191   -19073   -19101   -19550   -20501 
  -21722   -22978   -24214   -25434   -26488   -27209   -27676   -28012 
  -28160   -28076   -27805   -27473   -27337   -27584   -28087   -28610 
  -29095   -29605   -30207   -30854   -31241   -30998   -30007   -28489 
  -26821   -25262   -23905   -22754   -21707   -20644   -19747   -19447 
  -19763   -20204   -20477   -20697   -20975   -21266   -21514   -21810 
  -22359   -23213   -24099   -24630   -24712   -24570   -24418   -24352 
  -24404   -24594   -25009   -25644   -26318   -27004   -27803   -28542 
  -28800   -28331   -27327   -26313   -25662   -25244   -24744   -24050 
  -23116   -21864   -20507   -19532   -19165   -19162   -19160   -19028 
  -18845   -18645   -18437   -18352   -18479   -18785   -19233   -19778 
  -20241   -20279   -19691   -18735   -17897   -17408   -17075   -16588 
  -15916   -15303   -14979   -14959   -15025   -14929   -14706   -14731 
  -15337   -16413   -17500   -18190   -18338   -18040   -17510   -16897 
  -16229   -15491   -14695   -14042   -13843   -14113   -14625   -15304 
  -16167   -17126   -18029   -18755   -19267   -19670   -20100   -20599 
  -21145   -21680   -22154   -22639   -23190   -23748   -24387   -25270 
  -26354   -27482   -28640   -29831   -30840   -31368   -31385   -31091 
  -30668   -30243   -29769   -29075   -28156   -27170   -26251   -25512 
  -25149   -25344   -25982   -26626   -26894   -26738   -26386   -26089 
  -25895   -25706   -25459   -25165   -24937   -24994   -25397   -25814 
  -25830   -25469   -25181   -25263   -25531   -25623   -25423   -25173 
  -25155   -25335   -25540   -25735   -25950   -26162   -26311   -26276 
  -25910   -25193   -24239   -23105   -21771   -20361   -19236   -18711 
  -18716   -18866   -18874   -18755   -18578   -18318   -18057   -17966 
  -18060   -18230   -18412   -18734   -19357   -20088   -20521   -20515 
  -20235   -19834   -19304   -18637   -17992   -17629   -17718   -18200 
  -18839   -19498   -20359   -21682   -23405   -25073   -26176   -26591 
  -26647   -26740   -26991   -27279   -27429   -27341   -27000   -26447 
  -25852   -25426   -25127   -24778   -24429   -24249   -24228   -24198 
  -23967   -23514   -23140   -23105   -23345   -23814   -24540   -25353 
  -26103   -26845   -27592   -28322   -29085   -29768   -30123   -30195 
  -30271   -30411   -30498   -30607   -30957   -31524   -31917   -31746 
  -31094   -30449   -30123   -29943   -29595   -29069   -28564   -28118 
  -27646   -27178   -26803   -26554   -26399   -26288   -26257   -26293 
  -26165   -25705   -24952   -23981   -22903   -21922   -21204   -20817 
  -20786   -21073   -21511   -21902   -22188   -22368   -22404   -22324 
  -22322   -22592   -23157   -23865   -24517   -25032   -25380   -25513 
  -25536   -25636   -25861   -26225   -26751   -27384   -28058   -28705 
  -29295   -29826   -30103   -29911   -29273   -28380   -27539   -26928 
  -26447   -26054   -25814   -25653   -25426   -25136   -24909   -24735 
  -24442   -23991   -23504   -22972   -22218   -21210   -20179   -19252 
  -18259   -17081   -15790   -14458   -13256   -12537   -12491   -12847 
  -13175   -13300   -13385   -13756   -14545   -15625   -16828   -18002 
  -18990   -19616   -19764   -19499   -19060   -18789   -18918   -19332 
  -19708   -19906   -20093   -20507   -21248   -22274   -23444   -24597 
  -25615   -26443   -27113   -27667   -28051   -28176   -28053   -27876 
  -27894   -28192   -28698   -29325   -30032   -30779   -31338   -31425 
  -31186   -31118   -31485   -32067   -32329   -31921   -31137   -30596 
  -30597   -31013   -31546   -31835   -31575   -30745   -29686   -28763 
  -27980   -27130   -26136   -25082   -24150   -23466   -22912   -22285 
  -21501   -20592   -19735   -19106   -18621   -18012   -17246   -16594 
  -16284   -16348   -16724   -17261   -17795   -18271   -18690   -19091 
  -19561   -20045   -20332   -20318   -20047   -19633   -19306   -19205 
  -19177   -19061   -18899   -18731   -18520   -18290   -18198   -18460 
  -19140   -20037   -20915   -21715   -22396   -22812   -22870   -22719 
  -22664   -22844   -23100   -23143   -22755   -22000   -21165   -20350 
  -19329   -17863   -15990   -13945   -11954   -10250    -9107    -8657 
   -8720    -8934    -9046    -8959    -8646    -8100    -7383    -6686 
   -6183    -5861    -5628    -5438    -5299    -5300    -5623    -6364 
   -7238    -7740    -7724    -7626    -8010    -8943   -10046   -11020 
  -11798   -12346   -12670   -12941   -13382   -13979   -14606   -15353 
  -16351   -17507   -18641   -19597   -20254   -20550   -20483   -20134 
  -19602   -18882   -17923   -16766   -15608   -14693   -14036   -13406 
  -12658   -11918   -11370   -11068   -10995   -11058   -11086   -11066 
  -11124   -11236   -11326   -11532   -12036   -12813   -13693   -14546 
  -15323   -15991   -16591   -17262   -18074   -18929   -19661   -20217 
  -20730   -21395   -22225   -23009   -23614   -24168   -24789   -25400 
  -25909   -26332   -26698   -26988   -27151   -27236   -27459   -28020 
  -28925   -30017   -31137   -32197   -33146   -34041   -34970   -35826 
  -36483   -36950   -37199   -37184   -36984   -36760   -36643   -36679 
  -36791   -36887   -37024   -37249   -37432   -37498   -37515   -37505 
  -37487   -37517   -37587   -37724   -38007   -38308   -38334   -37924 
  -37052   -35744   -34207   -32782   -31620   -30690   -29921   -29146 
  -28231   -27328   -26754   -26660   -26856   -26968   -26731   -26152 
  -25456   -24913   -24652   -24602   -24621   -24679   -24787   -24872 
  -24867   -24767   -24589   -24361   -24162   -24132   -24384   -25007 
  -26020   -27214   -28299   -29188   -29872   -30242   -30257   -30054 
  -29827   -29716   -29698   -29598   -29333   -29072   -29009   -29108 
  -29243   -29382   -29489   -29479   -29351   -29189   -29108   -29256 
  -29797   -30740   -31838   -32789   -33418   -33693   -33743   -33752 
  -33797   -33884   -34022   -34162   -34288   -34482   -34752   -35029 
  -35281   -35423   -35338   -35019   -34541   -34037   -33679   -33571 
  -33707   -33978   -34217   -34335   -34346   -34344   -34433   -34566 
  -34573   -34356   -33951   -33425   -32788   -32076   -31411   -30866 
  -30327   -29552   -28422   -27076   -25807   -24868   -24337   -24125 
  -24077   -24064   -24042   -24054   -24237   -24736   -25522   -26329 
  -26816   -26858   -26618   -26324   -26121   -26080   -26231   -26530 
  -26793   -26749   -26263   -25434   -24477   -23687   -23354   -23431 
  -23530   -23380   -23047   -22749   -22668   -22912   -23521   -24352 
  -25043   -25358   -25450   -25636   -26097   -26776   -27482   -28082 
  -28530   -28877   -29242   -29590   -29745   -29694   -29590   -29529 
  -29539   -29673   -30007   -30516   -31005   -31314   -31560   -31879 
  -32145   -32206   -32145   -32123   -32154   -32198   -32334   -32685 
  -33250   -33886   -34411   -34781   -35043   -35139   -35051   -34947 
  -34922   -34921   -34888   -34789   -34628   -34400   -33988   -33325 
  -32533   -31749   -30996   -30270   -29593   -29044   -28692   -28487 
  -28377   -28330   -28223   -27938   -27488   -26962   -26447   -25973 
  -25518   -25131   -24897   -24716   -24434   -24135   -23906   -23614 
  -23237   -22959   -22883   -22898   -22881   -22931   -23258   -23898 
  -24570   -24867   -24698   -24366   -24210   -24291   -24380   -24252 
  -23880   -23364   -22841   -22419   -22106   -21852   -21697   -21730 
  -21933   -22174   -22265   -22127   -21817   -21323   -20652   -19888 
  -19032   -18069   -17001   -15838   -14799   -14184   -14084   -14368 
  -14793   -15168   -15527   -16071   -16895   -17842   -18662   -19203 
  -19480   -19743   -20312   -21257   -22404   -23565   -24670   -25715 
  -26636   -27351   -27942   -28559   -29211   -29852   -30453   -30964 
  -31387   -31728   -31952   -32093   -32207   -32252   -32135   -31810 
  -31282   -30613   -29986   -29581   -29411   -29376   -29266   -28912 
  -28386   -27836   -27383   -27105   -26867   -26515   -26195   -26186 
  -26535   -27043   -27472   -27702   -27853   -28191   -28771   -29320 
  -29648   -29953   -30553   -31492   -32485   -33197   -33573   -33734 
  -33710   -33518   -33303   -33252   -33403   -33544   -33424   -32970 
  -32226   -31270   -30258   -29328   -28492   -27794   -27385   -27287 
  -27378   -27564   -27797   -28012   -28136   -28155   -28051   -27796 
  -27542   -27435   -27384   -27315   -27336   -27498   -27743   -27984 
  -28070   -27849   -27351   -26832   -26546   -26496   -26475   -26333 
  -26099   -25857   -25635   -25373   -25000   -24572   -24245   -24145 
  -24221   -24276   -24215   -24149   -24193   -24321   -24435   -24424 
  -24164   -23583   -22770   -21988   -21468   -21180   -20936   -20648 
  -20389   -20261   -20213   -20066   -19774   -19409   -18957   -18394 
  -17880   -17607   -17569   -17594   -17538   -17401   -17291   -17313 
  -17468   -17670   -17842   -17969   -18049   -18053   -18011   -18109 
  -18522   -19176   -19794   -20143   -20219   -20195   -20265   -20532 
  -20935   -21305   -21521   -21553   -21412   -21133   -20803   -20536 
  -20451   -20575   -20725   -20794   -20925   -21224   -21654   -22181 
  -22853   -23708   -24659   -25461   -25819   -25605   -24928   -24005 
  -23060   -22229   -21456   -20571   -19491   -18282   -17112   -16197 
  -15699   -15579   -15642   -15766   -15972   -16320   -16804   -17360 
  -17964   -18646   -19375   -20038   -20577   -21003   -21312   -21589 
  -22012   -22602   -23193   -23670   -24029   -24252   -24294   -24204 
  -24096   -23954   -23639   -23096   -22408   -21693   -21024   -20372 
  -19647   -18851   -18079   -17390   -16797   -16336   -16026   -15854 
  -15814   -15888   -16012   -16155   -16393   -16825   -17398   -17913 
  -18300   -18652   -18993   -19276   -19509   -19782   -20213   -20747 
  -21157   -21288   -21092   -20615   -20055   -19711   -19780   -20216 
  -20844   -21547   -22294   -23097   -23953   -24826   -25641   -26253 
  -26548   -26517   -26216   -25795   -25467   -25292   -25174   -25077 
  -25032   -25005   -24972   -24988   -25074   -25177   -25315   -25561 
  -25875   -26097   -26140   -26104   -26133   -26206   -26159   -25909 
