Origin Time       2011/03/11 14:46:00
Lat.              38.103
Long.             142.860
Depth. (km)       24
Mag.              9.0
Station Code      NIG027
Station Lat.      37.0235
Station Long.     137.8613
Station Height(m) 107
Record Time       2011/03/11 14:48:10
Sampling Freq(Hz) 100Hz
Duration Time(s)  265
Dir.              E-W
Scale Factor      3920(gal)/6182761
Max. Acc. (gal)   6.068
Last Correction   2011/03/11 14:47:55
Memo.             
[...]
  -14026   -13984   -14023   -14064   -14170   -14338   -14431   -14437 
  -14302   -13961   -13617   -13428   -13404   -13591   -13911   -14262 
  -14647   -14962   -15089   -15038   -14791   -14459   -14226   -14030 
  -13805   -13507   -12958   -12149   -11264   -10458    -9894    -9704 
   -9864   -10302   -10931   -11577   -12120   -12592   -12962   -13148 
  -13210   -13186   -12929   -12349   -11566   -10746   -10005    -9493 
   -9306    -9441    -9859   -10436   -11048   -11656   -12210   -12645 
  -12932   -12970   -12665   -12019   -11176   -10488   -10219   -10357 
  -10786   -11320   -11726   -11881   -11863   -11791   -11805   -12065 
  -12546   -13119   -13589   -13695   -13351   -12728   -12085   -11588 
  -11350   -11397   -11641   -11987   -12292   -12432   -12368   -12075 
  -11627   -11184   -10798   -10454   -10174    -9892    -9483    -9000 
   -8624    -8446    -8449    -8567    -8709    -8867    -9087    -9308 
   -9446    -9476    -9381    -9296    -9385    -9631    -9991   -10310 
  -10418   -10352   -10165    -9949    -9841    -9901   -10183   -10682 
  -11288   -11867   -12310   -12596   -12867   -13214   -13601   -13973 
  -14116   -13987   -13838   -13763   -13819   -14087   -14405   -14638 
  -14792   -14827   -14889   -15200   -15704   -16310   -16926   -17351 
  -17533   -17464   -17104   -16615   -16112   -15615   -15245   -15036 
  -14958   -14983   -15025   -15051   -15098   -15257   -15657   -16221 
  -16702   -16989   -17022   -16830   -16485   -15868   -15036   -14210 
  -13421   -12835   -12597   -12517   -12566   -12736   -12774   -12628 
  -12352   -11988   -11747   -11716   -11803   -12090   -12555   -12938 
  -13176   -13256   -13093   -12810   -12544   -12243   -11943   -11676 
  -11325   -10990   -10783   -10637   -10600   -10712   -10955   -11293 
  -11555   -11587   -11406   -11047   -10594   -10274   -10176   -10292 
  -10664   -11244   -11957   -12645   -13152   -13533   -13847   -14149 
  -14568   -14997   -15246   -15345   -15263   -14968   -14636   -14335 
  -14056   -13968   -14065   -14174   -14305   -14439   -14564   -14785 
  -14976   -15011   -14948   -14719   -14409   -14334   -14519   -14916 
  -15536   -16135   -16581   -16953   -17249   -17529   -17848   -18191 
  -18644   -19202   -19694   -20011   -20112   -20045   -19945   -19853 
  -19793   -19752   -19594   -19342   -19109   -18944   -18905   -18838 
  -18671   -18559   -18458   -18414   -18588   -18928   -19453   -20125 
  -20732   -21193   -21441   -21385   -21092   -20668   -20182   -19771 
  -19464   -19108   -18617   -18019   -17429   -16969   -16651   -16449 
  -16334   -16224   -16065   -15898   -15773   -15728   -15772   -15903 
  -16188   -16506   -16643   -16576   -16225   -15652   -15163   -14846 
  -14753   -14864   -14891   -14783   -14655   -14499   -14401   -14425 
  -14493   -14580   -14636   -14576   -14509   -14502   -14530   -14657 
  -14828   -14967   -15157   -15389   -15507   -15388   -14964   -14276 
  -13523   -12880   -12397   -12030   -11716   -11470   -11288   -11179 
  -11185   -11228   -11254   -11246   -11154   -11039   -10898   -10623 
  -10281   -10063   -10022   -10149   -10493   -10973   -11493   -12087 
  -12633   -13002   -13333   -13600   -13697   -13779   -13784   -13605 
  -13382   -13022   -12478   -11988   -11571   -11233   -11142   -11058 
  -10825   -10752   -10745   -10584   -10499   -10542   -10623   -10886 
  -11300   -11751   -12211   -12457   -12444   -12380   -12363   -12515 
  -12831   -13162   -13511   -13814   -13976   -13987   -13780   -13519 
  -13417   -13331   -13171   -12869   -12248   -11431   -10570    -9770 
   -9346    -9371    -9727   -10386   -11186   -11970   -12727   -13379 
  -13865   -14214   -14363   -14296   -14083   -13743   -13310   -12805 
  -12353   -11984   -11569   -11191   -10794   -10206    -9633    -9105 
   -8486    -8054    -7838    -7707    -7991    -8638    -9316    -9989 
  -10408   -10482   -10436   -10226    -9995   -10004   -10054   -10120 
  -10397   -10716   -10978   -11214   -11264   -11223   -11249   -11212 
  -11163   -11132   -10972   -10792   -10661   -10495   -10252    -9773 
   -9087    -8450    -8039    -7992    -8254    -8648    -9188    -9763 
  -10175   -10454   -10637   -10779   -11023   -11379   -11789   -12203 
  -12463   -12426   -12152   -11732   -11319   -11144   -11173   -11409 
  -11917   -12406   -12861   -13386   -13710   -13848   -13832   -13571 
  -13397   -13444   -13634   -14031   -14394   -14600   -14881   -15248 
  -15635   -16112   -16540   -16678   -16560   -16274   -15812   -15219 
  -14556   -13900   -13408   -13113   -12972   -12980   -12912   -12767 
  -12712   -12584   -12501   -12720   -13185   -13795   -14439   -15109 
  -15714   -16009   -16003   -15824   -15519   -15312   -15369   -15614 
  -15983   -16320   -16461   -16425   -16274   -16004   -15549   -15010 
  -14506   -14023   -13635   -13302   -13004   -12944   -13150   -13653 
  -14456   -15210   -15836   -16462   -16905   -17284   -17895   -18607 
  -19345   -19989   -20133   -19813   -19287   -18530   -17810   -17329 
  -16862   -16462   -16182   -15917   -15841   -15960   -16114   -16480 
  -17145   -17850   -18501   -18992   -19070   -18933   -18807   -18502 
  -18026   -17563   -17132   -16839   -16771   -16823   -17010   -17361 
  -17670   -17880   -17993   -17884   -17576   -17152   -16725   -16371 
  -16048   -15619   -14986   -14309   -13710   -13154   -12712   -12511 
  -12492   -12551   -12674   -12682   -12582   -12488   -12192   -11795 
  -11539   -11350   -11285   -11244   -11072   -10971   -10879   -10708 
  -10641   -10525   -10367   -10493   -10740   -10985   -11364   -11564 
  -11470   -11325   -11038   -10699   -10450   -10081    -9778    -9715 
   -9694    -9923   -10375   -10692   -11158   -11710   -12034   -12455 
  -12846   -13169   -13821   -14434   -14839   -15178   -15094   -14848 
  -14792   -14668   -14721   -14971   -14985   -15066   -15316   -15412 
  -15495   -15508   -15276   -14952   -14531   -13965   -13339   -12881 
  -12962   -13553   -14377   -15332   -16070   -16466   -16744   -16706 
  -16487   -16350   -15923   -15458   -15272   -15022   -15042   -15445 
  -15653   -15820   -15953   -15666   -15368   -15132   -14606   -14169 
  -13860   -13368   -13027   -12866   -12641   -12582   -12609   -12551 
  -12701   -12857   -12690   -12564   -12496   -12244   -12044   -11797 
  -11365   -10983   -10547   -10093    -9914    -9950   -10169   -10617 
  -11217   -11915   -12646   -13332   -13804   -13970   -13923   -13598 
  -13022   -12394   -11732   -11193   -10982   -10953   -11194   -11908 
  -12775   -13512   -14078   -14316   -14235   -13981   -13600   -13210 
  -13014   -13008   -13084   -13331   -13579   -13627   -13726   -13846 
  -13907   -14121   -14285   -14264   -14290   -14283   -14222   -14211 
  -14027   -13674   -13395   -13122   -12866   -12823   -13016   -13401 
  -13880   -14228   -14367   -14325   -14047   -13710   -13571   -13530 
  -13514   -13553   -13576   -13688   -13942   -14180   -14397   -14520 
  -14388   -14090   -13688   -13289   -13084   -13003   -12969   -13039 
  -13124   -13056   -12889   -12648   -12354   -12321   -12467   -12630 
  -13094   -13780   -14548   -15441   -16011   -16095   -15965   -15328 
  -14308   -13587   -13062   -12734   -12765   -12748   -12804   -13129 
  -13343   -13607   -14082   -14338   -14377   -14413   -14279   -14036 
  -13827   -13451   -13015   -12703   -12310   -11861   -11429   -10920 
  -10605   -10682   -10872   -11014   -11193   -11266   -11255   -11394 
  -11568   -11749   -12139   -12614   -13002   -13397   -13620   -13435 
  -13183   -13004   -12723   -12627   -12708   -12562   -12321   -12053 
  -11616   -11327   -11218   -11063   -11246   -11798   -12305   -12966 
  -13686   -14076   -14404   -14672   -14615   -14521   -14460   -14164 
  -13808   -13462   -12992   -12767   -12800   -12806   -13149   -13663 
  -13780   -13871   -14081   -14224   -14773   -15622   -16294   -17010 
  -17565   -17612   -17392   -16869   -16141   -15635   -15333   -15349 
  -15841   -16477   -17203   -18054   -18733   -19124   -19159   -18691 
  -17957   -17313   -16781   -16356   -16113   -16166   -16508   -16862 
  -17189   -17641   -18108   -18525   -18969   -19403   -19823   -20137 
  -20040   -19601   -19059   -18362   -17697   -17242   -16883   -16758 
  -16919   -17150   -17482   -17946   -18486   -19156   -19756   -20150 
  -20535   -20844   -20952   -20913   -20758   -20574   -20160   -19481 
  -19030   -18790   -18558   -18526   -18659   -18818   -18900   -18727 
  -18400   -18125   -18069   -18411   -18957   -19424   -19740   -19742 
  -19450   -19049   -18552   -18125   -17992   -18084   -18259   -18413 
  -18445   -18291   -18033   -17913   -17877   -17746   -17620   -17539 
  -17557   -17757   -18002   -18244   -18474   -18490   -18309   -18138 
  -17831   -17404   -17097   -16645   -16039   -15409   -14472   -13607 
  -13180   -12773   -12553   -12634   -12373   -12044   -12097   -12137 
  -12377   -12971   -13335   -13600   -14035   -14094   -13768   -13489 
  -13117   -12859   -12755   -12191   -11407   -10574    -9358    -8453 
   -8292    -8530    -9416   -10851   -12181   -13396   -14461   -14945 
  -14906   -14657   -14212   -13590   -13007   -12601   -12389   -12263 
  -11926   -11441   -10986   -10522   -10376   -10633   -10977   -11514 
  -12214   -12735   -13090   -13339   -13440   -13504   -13560   -13593 
  -13655   -13802   -14126   -14545   -14912   -15190   -15199   -14733 
  -13867   -12780   -11673   -10866   -10488   -10391   -10460   -10522 
  -10411   -10272   -10196   -10059   -10035   -10313   -10658   -11070 
  -11613   -11846   -11716   -11584   -11466   -11546   -12000   -12496 
  -12976   -13489   -13793   -13942   -14029   -14004   -14040   -14113 
  -13975   -13831   -13828   -13696   -13663   -13913   -14082   -14325 
  -14734   -14862   -14930   -15277   -15648   -16076   -16468   -16557 
  -16625   -16675   -16599   -16725   -16847   -16730   -16745   -16856 
  -16998   -17403   -17825   -18136   -18516   -18954   -19338   -19494 
  -19449   -19315   -18963   -18385   -17677   -16900   -16131   -15316 
  -14520   -13936   -13631   -13762   -14295   -14898   -15440   -15798 
  -15871   -15829   -15667   -15445   -15374   -15241   -15007   -14850 
  -14615   -14340   -14061   -13596   -13108   -12717   -12262   -11795 
  -11534   -11563   -11928   -12616   -13481   -14417   -15172   -15598 
  -15956   -16264   -16465   -16710   -16842   -16770   -16642   -16287 
  -15588   -14795   -14022   -13360   -12951   -12702   -12623   -12705 
  -12709   -12656   -12640   -12661   -12911   -13385   -13845   -14251 
  -14418   -14015   -13216   -12262   -11273   -10603   -10249   -10089 
  -10192   -10248   -10330   -10743   -11273   -11981   -12813   -13529 
  -14348   -14908   -14871   -14743   -14463   -14032   -13935   -13833 
  -13674   -13817   -13906   -14033   -14331   -14265   -14050   -13982 
  -13722   -13554   -13824   -14196   -14639   -15161   -15467   -15799 
  -16246   -16429   -16626   -17044   -17393   -17825   -18329   -18598 
  -18822   -19001   -18855   -18627   -18487   -18363   -18557   -19086 
  -19548   -19979   -20366   -20436   -20228   -19660   -18791   -17997 
  -17295   -16859   -16951   -17287   -17722   -18295   -18815   -19199 
  -19400   -19449   -19521   -19617   -19796   -19983   -19955   -19878 
  -19723   -19385   -19125   -18904   -18793   -18981   -19187   -19370 
  -19558   -19513   -19301   -19005   -18519   -17939   -17345   -16667 
  -16024   -15609   -15450   -15515   -15737   -16014   -16146   -15946 
  -15452   -14866   -14361   -13888   -13513   -13553   -13973   -14601 
  -15480   -16350   -16859   -17213   -17421   -17083   -16437   -15778 
  -15007   -14320   -13748   -13214   -12955   -12807   -12623   -12711 
  -12888   -12966   -13228   -13497   -13720   -14173   -14477   -14441 
  -14275   -13834   -13339   -13029   -12734   -12605   -12551   -12309 
  -12143   -12107   -12079   -12272   -12475   -12371   -12300   -12242 
  -11959   -11776   -11738   -11694   -11548   -11125   -10751   -10597 
  -10560   -10951   -11621   -12190   -12777   -13075   -12881   -12639 
  -12237   -11640   -11204   -10720   -10286   -10104    -9853    -9700 
   -9724    -9641    -9778   -10117   -10215   -10352   -10477   -10203 
   -9955    -9952    -9972   -10063    -9961    -9564    -9283    -9024 
   -8784    -8970    -9488   -10184   -10971   -11499   -11757   -11834 
  -11521   -11004   -10707   -10676   -10844   -11144   -11466   -11750 
  -11938   -11992   -11913   -11778   -11820   -12162   -12618   -12882 
  -12706   -12176   -11511   -10805   -10349   -10299   -10545   -11121 
  -11868   -12616   -13511   -14308   -14758   -15107   -15299   -15337 
  -15468   -15511   -15369   -15083   -14523   -13886   -13447   -13245 
  -13427   -13855   -14196   -14495   -14657   -14623   -14633   -14628 
  -14702   -14965   -15089   -15197   -15362   -15126   -14681   -14204 
  -13473   -12848   -12295   -11572   -11132   -10862   -10651   -11039 
  -11857   -12895   -14248   -15397   -15973   -15905   -15106   -13964 
  -12859   -11924   -11408   -11394   -11746   -12314   -12973   -13685 
  -14365   -15046   -15872   -16731   -17544   -18262   -18626   -18543 
  -18056   -17228   -16357   -15718   -15256   -15063   -15297   -15619 
  -15894   -16293   -16650   -17076   -17653   -17851   -17734   -17608 
  -17267   -17085   -17265   -17402   -17618   -17899   -18125   -18584 
  -19256   -20060   -21058   -22019   -22727   -23230   -23512   -23497 
  -23318   -23078   -22853   -22827   -22923   -23045   -23286   -23475 
  -23430   -23194   -22747   -22180   -21677   -21262   -20913   -20617 
  -20421   -20363   -20481   -20924   -21494   -21990   -22473   -22579 
  -22345   -22147   -21753   -21274   -20845   -20211   -19695   -19326 
  -18847   -18696   -18817   -18854   -19067   -19303   -19311   -19431 
  -19618   -19704   -19841   -19793   -19469   -19086   -18631   -18415 
  -18569   -18726   -18866   -18906   -18689   -18361   -17891   -17413 
  -17167   -16955   -16883   -17115   -17341   -17607   -17825   -17652 
  -17404   -17047   -16290   -15591   -15054   -14557   -14332   -14267 
  -14431   -14995   -15584   -16010   -16294   -16308   -16091   -15785 
  -15495   -15367   -15319   -15175   -14987   -14644   -14126   -13769 
  -13611   -13460   -13358   -13331   -13391   -13558   -13676   -13851 
  -14138   -14242   -14275   -14187   -13719   -13189   -12602   -11832 
  -11209   -10678   -10310   -10379   -10603   -10927   -11423   -11792 
  -12082   -12449   -12773   -13216   -13789   -14132   -14425   -14705 
  -14578   -14261   -13997   -13716   -13601   -13680   -13785   -13913 
  -13960   -13927   -13936   -13845   -13664   -13479   -13290   -13344 
  -13558   -13705   -13897   -13993   -13934   -13953   -13968   -13876 
  -13691   -13395   -13115   -12891   -12726   -12731   -12895   -13087 
  -13234   -13396   -13541   -13626   -13793   -13989   -14124   -14385 
  -14674   -14734   -14772   -14863   -14782   -14770   -14994   -15274 
  -15824   -16544   -17035   -17501   -17858   -17827   -17566   -17066 
  -16602   -16575   -16576   -16512   -16776   -17061   -17192   -17360 
  -17381   -17251   -17152   -17182   -17455   -17784   -17988   -18230 
  -18420   -18312   -18008   -17452   -16556   -15605   -14716   -14013 
  -13712   -13556   -13418   -13446   -13496   -13608   -13789   -13843 
  -14029   -14346   -14511   -14777   -15137   -15187   -14994   -14785 
  -14498   -14081   -13501   -12749   -12113   -11657   -11166   -10794 
  -10577   -10294   -10179   -10351   -10577   -11114   -11992   -12739 
  -13394   -13885   -13902   -13658   -13332   -13119   -13314   -13685 
  -14079   -14568   -14797   -14716   -14525   -13939   -13151   -12588 
  -12093   -11814   -11813   -11780   -11868   -12046   -12132   -12341 
  -12562   -12772   -13226   -13528   -13505   -13451   -13118   -12579 
  -12214   -11937   -11945   -12259   -12494   -12761   -12889   -12487 
  -11836   -10992    -9910    -9048    -8486    -8098    -8063    -8226 
   -8324    -8401    -8432    -8442    -8498    -8475    -8348    -8188 
   -8026    -7910    -7799    -7589    -7335    -7215    -7299    -7440 
   -7543    -7667    -7626    -7403    -7360    -7386    -7329    -7404 
   -7460    -7494    -7796    -8231    -8712    -9159    -9372    -9597 
   -9834    -9936   -10216   -10588   -10887   -11307   -11666   -11886 
  -12130   -12281   -12387   -12534   -12684   -12947   -13119   -13049 
  -13107   -13289   -13413   -13647   -13873   -13917   -13916   -13954 
  -14065   -14207   -14197   -14063   -13938   -13758   -13589   -13608 
  -13715   -13843   -14040   -14136   -14060   -13988   -13875   -13605 
  -13301   -12998   -12712   -12569   -12467   -12340   -12346   -12475 
  -12655   -12904   -13072   -13026   -12894   -12682   -12430   -12454 
  -12608   -12514   -12364   -12295   -12203   -12234   -12422   -12652 
  -12914   -13001   -12835   -12650   -12434   -12193   -12096   -12127 
  -12362   -12874   -13416   -13805   -14084   -14232   -14142   -13881 
  -13430   -12584   -11501   -10481    -9548    -8837    -8384    -7969 
   -7711    -7716    -7917    -8468    -9204    -9831   -10456   -10948 
  -11139   -11191   -11007   -10532    -9967    -9280    -8631    -8242 
   -8003    -8026    -8446    -9116    -9867   -10481   -10905   -11239 
  -11382   -11377   -11392   -11404   -11457   -11510   -11462   -11471 
  -11489   -11369   -11318   -11432   -11590   -11755   -11776   -11556 
  -11252   -10931   -10720   -10763   -10786   -10746   -10833   -10813 
  -10656   -10479   -10113    -9757    -9625    -9564    -9719   -10022 
  -10006    -9804    -9585    -9151    -8773    -8645    -8589    -8743 
   -9031    -9090    -9029    -8934    -8680    -8474    -8325    -8090 
   -8010    -8120    -8435    -9047    -9583    -9830    -9857    -9593 
   -9156    -8678    -8045    -7258    -6486    -5770    -5116    -4723 
   -4641    -4787    -5274    -5957    -6536    -7035    -7459    -7827 
   -8169    -8350    -8438    -8494    -8452    -8426    -8221    -7730 
   -7356    -7130    -7027    -7192    -7404    -7665    -8082    -8496 
   -9021    -9669   -10204   -10701   -11116   -11215   -11180   -11143 
  -11016   -10923   -10850   -10672   -10483   -10291   -10123   -10096 
  -10115   -10150   -10281   -10465   -10621   -10637   -10498   -10393 
  -10374   -10355   -10476   -10784   -11098   -11361   -11583   -11778 
  -12007   -12350   -12844   -13389   -13839   -14155   -14333   -14301 
  -14145   -14069   -14111   -14310   -14597   -14716   -14784   -15020 
  -15243   -15414   -15644   -15898   -16221   -16497   -16480   -16307 
  -16213   -16218   -16276   -16259   -16088   -15933   -15973   -16093 
  -16116   -16046   -15927   -15897   -16065   -16262   -16444   -16686 
  -16915   -17121   -17178   -16956   -16615   -16328   -16181   -16052 
  -15771   -15499   -15354   -15277   -15293   -15274   -15154   -15149 
  -15204   -15236   -15329   -15289   -15174   -15225   -15174   -14908 
  -14690   -14500   -14313   -14267   -14268   -14345   -14598   -14723 
  -14715   -14772   -14612   -14328   -14243   -13989   -13415   -12790 
  -12182   -11887   -11964   -11989   -12067   -12329   -12482   -12496 
  -12387   -12212   -12266   -12623   -13130   -13431   -13229   -12761 
