Origin Time       2011/03/11 14:46:00
Lat.              38.103
Long.             142.860
Depth. (km)       24
Mag.              9.0
Station Code      NIG008
Station Lat.      38.0514
Station Long.     139.4086
Station Height(m) 23
Record Time       2011/03/11 14:47:22
Sampling Freq(Hz) 100Hz
Duration Time(s)  300
Dir.              N-S
Scale Factor      3920(gal)/6182761
Max. Acc. (gal)   32.769
Last Correction   2011/03/11 14:47:07
Memo.             
[...]
   15202    15086    15569    16526    17424    17720    17247    16201 
   14981    13928    13019    12081    10954     9207     6747     4298 
    2380      937     -198    -1219    -2263    -3421    -4684    -5633 
   -5655    -4736    -3570    -2542    -1312      412     2567     4796 
    6388     6784     5985     4375     2665     1441      546     -318 
    -956    -1382    -1876    -2175    -1739     -438     1360     2851 
    3495     3716     4082     4675     5552     6376     6304     5135 
    3353     1464       33     -780    -1361    -1644    -1214     -126 
    1386     3163     4912     6467     8089     9904    11309    11732 
   11272    10285     9392     9281     9902    10993    12900    15679 
   18841    22256    25590    27822    28354    27405    25447    22971 
   20588    18861    17981    17751    17633    17059    15813    14103 
   12655    12138    12346    12539    12193    11316    10366     9644 
    8960     8059     6777     5252     4276     4596     6125     8444 
   11257    14102    16421    17936    18608    18697    18842    19449 
   20232    20595    20207    19421    19079    19567    20486    21338 
   21984    22374    22227    21300    19966    19241    20036    22273 
   24802    26331    26242    24616    21973    18896    15751    12729 
   10089     8373     7944     8299     8583     8602     8713     8981 
    8991     8471     7474     5998     4242     2843     2217     2225 
    2565     2964     3246     3500     4010     5041     6323     6998 
    6386     4331     1168    -2257    -5016    -6844    -8204    -9502 
  -10695   -11553   -11725   -10924    -9294    -7274    -5120    -2989 
   -1224      -46      667     1109     1392     1634     1641      769 
   -1116    -3327    -5366    -7078    -8287    -9035    -9543    -9989 
  -10577   -11328   -11989   -12273   -12035   -11589   -11461   -11748 
  -12412   -13437   -14270   -14081   -12642   -10192    -7025    -3680 
    -679     1701     3156     3595     3422     3219     3078     2353 
     418    -2632    -5921    -8231    -8997    -8694    -8130    -7808 
   -7786    -7622    -6606    -4324     -738     3883     8687    12808 
   16026    18097    18528    17384    15357    13214    11248     9117 
    6607     4080     2027      731      356      965     2251     3699 
    5041     6240     7565     9511    12210    15294    18154    20162 
   21085    21151    20689    19950    19043    17909    16546    15163 
   13999    13132    12390    11600    10878    10389    10132    10065 
   10300    10937    11707    12206    12196    11666    11050    10875 
   11239    11839    12006    11183     9666     8270     7517     7531 
    8312     9652    10950    11744    12178    12497    12707    12897 
   13479    14920    17094    19159    20317    20336    19246    17228 
   14772    12312    10126     8297     6532     4764     3559     3481 
    4344     5174     5161     4374     3491     3224     3703     4588 
    5887     7769     9867    11790    13549    14820    14824    13180 
   10356     7486     5801     5907     7213     8332     8257     6885 
    5024     3889     3910     4395     4351     3425     2257     1881 
    2659     3954     5016     5686     6065     6163     5974     5553 
    5069     4869     5317     6425     7755     8792     9177     8771 
    8136     8355     9720    11575    13297    14510    14995    14669 
   13473    11867    10695     9993     9096     7895     6916     6781 
    7772     9537    11473    13031    13827    13854    13335    12516 
   11718    11468    12411    14759    17882    20652    22412    23522 
   24638    26269    28839    31906    34596    36767    38294    38878 
   38822    38487    37774    36613    35215    33947    33009    32191 
   31443    31278    31999    33331    35068    36825    37604    36875 
   35096    32958    30873    28781    26455    23783    20759    17793 
   15521    14289    14221    15341    17373    19673    21410    21998 
   21548    20729    20138    19941    19710    18300    14603     8835 
    2626    -2307    -5313    -6784    -7504    -7980    -8025    -7179 
   -5373    -3000     -570     1534     2833     2969     2443     2358 
    3403     5444     7624     8895     9111     8972     8917     9054 
    9266     9198     8749     8139     7478     6703     5996     5782 
    6300     7799    10447    13545    15906    16936    16691    15757 
   15019    14651    14050    13024    12083    11538    10987     9904 
    8152     5874     3665     2413     2382     3116     4034     4775 
    5603     7266     9901    12843    15505    17194    17088    15631 
   14245    13506    13001    12085    10260     7662     4966     2653 
     641    -1316    -3023    -3954    -3763    -2252      733     4793 
    8682    11120    11787    11210    10207     9398     8734     7978 
    7268     6699     6186     5832     5697     5410     4736     4047 
    3506     2635     1042    -1289    -4041    -6462    -8005    -8825 
   -9027    -8461    -7554    -6922    -6403    -5644    -4817    -4249 
   -4072    -4312    -4950    -5820    -6681    -7164    -6682    -5139 
   -3224    -1582     -324      757     1919     3433     5348     7144 
    8155     8088     6998     5467     4265     3553     3128     3015 
    3436     4415     5428     5737     4979     3224      955     -861 
   -1211       85     1909     2826     2702     2444     2460     2462 
    2412     2924     4536     7026     9727    12062    13702    14628 
   15227    15904    16708    17619    18375    18302    17272    16014 
   14932    13769    12519    11625    11331    11395    11458    11443 
   11377    11332    11685    12552    13320    13471    13141    12761 
   12818    13651    15175    16855    17970    18095    17423    16581 
   15892    14939    13346    11388     9458     7868     7123     7517 
    8650     9759    10258     9913     9138     8776     9021     9443 
    9800     9951     9644     8820     7813     7230     7476     8222 
    8473     7332     4708     1413    -1411    -3130    -3937    -4638 
   -6020    -8080   -10333   -12487   -14183   -15138   -15732   -16461 
  -17106   -17354   -17483   -17700   -17736   -17024   -15054   -12060 
   -8830    -5960    -3827    -2667    -2341    -2309    -2010    -1463 
   -1307    -1822    -2641    -3725    -5295    -6963    -8129    -8481 
   -7860    -6395    -4543    -2632     -803      548     1070     1158 
    1369     1630     1608     1222      608      174      514     1505 
    2506     3515     4763     6414     8850    11991    15029    16954 
   17172    16104    14768    13652    12576    11274     9581     7774 
    6787     7180     8236     8865     8974     9322    10419    12301 
   14695    16784    17689    17151    15406    13156    11412    10606 
   10307     9915     8919     7044     4842     3278     2694     2860 
    3286     3241     2422     1549     1690     3063     4956     6684 
    7712     7700     7139     6622     6323     6457     6966     7508 
    7709     7268     6375     5387     4434     3484     2409     1205 
    -302    -2472    -5146    -7725    -9731   -10978   -11549   -11804 
  -12181   -12313   -11154    -8584    -5617    -3182    -1514     -616 
    -679    -1287    -1592    -1531    -1461    -1485    -1234      -62 
    1915     4088     6197     8135    10006    11660    12147    10999 
    8852     6430     4305     3021     2847     3671     5027     6538 
    8119     9577    10566    11086    11833    13639    16311    18917 
   21147    22824    23193    22218    20768    19302    17858    16563 
   15430    14324    13463    13224    13402    14020    15521    17326 
   18581    19151    18928    18214    17857    17968    17685    16360 
   14039    10918     7682     5521     4834     5064     5508     5772 
    5925     6246     7053     8481    10289    12297    14294    15821 
   16965    18138    19231    19963    19873    18475    16257    14238 
   12908    12339    12416    13036    14350    16449    18866    20526 
   20741    19812    17976    15298    12270     9025     5516     2362 
    -241    -3055    -6224    -8933   -10521   -10475    -8494    -5165 
   -1399     2166     4746     5803     5746     5261     4583     3878 
    3200     1984     -422    -3991    -7961   -11213   -13174   -14253 
  -15064   -15692   -15876   -15284   -13376    -9749    -4784      728 
    6082    10413    12979    13771    13481    12974    12668    12432 
   11919    10895     9304     7374     5806     4997     4527     4028 
    3516     2971     2432     2091     1970     1796     1266      381 
    -417     -585       54     1337     2986     4547     5458     5543 
    5400     5853     6943     8243     9553    10432    10320     9373 
    8141     7036     6602     7521     9927    13395    17409    21166 
   24079    26623    29191    30960    31159    30214    29134    28661 
   28852    29096    28656    26958    23783    19832    16383    13941 
   11965     9976     8401     7915     8184     8288     7724     6558 
    5455     4441     2218    -1518    -5241    -7385    -7191    -4895 
   -1747     1043     2887     3725     4030     4265     4839     6034 
    7202     7529     6847     5062     2310     -574    -2493    -3047 
   -2765    -2161    -1153      657     3394     6519     9343    11915 
   14711    17437    19513    21276    22972    23867    23144    20551 
   16656    12447     8324     4287      634    -1970    -2857    -2213 
    -947       79      126     -690    -1338    -1307    -1005    -1066 
   -1920    -3734    -6264    -8756   -10528   -11289   -11209   -10997 
  -11073   -10950    -9817    -7549    -4950    -2776    -1243     -621 
   -1287    -3176    -5632    -8033   -10108   -11718   -13060   -14541 
  -16326   -18270   -19762   -19898   -18179   -14754   -10218    -5412 
   -1099     2402     5089     6621     6485     5254     4216     3643 
    3083     2306     1061     -584    -1823    -1765      -68     3128 
    7401    12230    17365    22905    28721    33988    37860    40063 
   40318    38657    36077    33640    31578    29811    28627    28019 
   27351    26480    25567    24391    23109    21943    20342    17940 
   15326    13334    12237    12017    12471    12589    11725    10400 
    8758     6617     4348     2450     1512     1982     3659     6103 
    9016    11899    13945    14785    14793    14250    13300    12716 
   12978    13237    12791    11865    10496     8555     6260     3975 
    2134      965      209     -293     -299      276     1076     1400 
     576    -1334    -3590    -5441    -6417    -6369    -5468    -4329 
   -3738    -3727    -3654    -3318    -3095    -3387    -4470    -6088 
   -7362    -7748    -7403    -6657    -5897    -5160    -3657     -517 
    4303    10094    15977    21383    26224    30617    34113    35618 
   34841    32908    30921    29490    29116    29282    28953    28387 
   28140    27838    27333    26534    24789    22229    19658    17404 
   16168    17001    19645    22911    25969    28621    31292    34409 
   37707    40332    41323    40138    36920    32508    28000    23860 
   19897    16191    13474    12730    14103    16264    18114    20198 
   23249    26742    29743    32106    34168    36183    37813    37785 
   35325    31278    26900    22878    19495    16627    13401     9113 
    4637     1220     -691     -675     1169     3592     5178     5086 
    2704    -2387    -9413   -16814   -23579   -28672   -31062   -30982 
  -29282   -26276   -22363   -18405   -14770   -11712   -10074    -9699 
   -9526    -9188    -7963    -4872     -768     2914     6331     9641 
   11921    13026    13444    12683    10511     8422     7656     7459 
    6862     5919     4517     2139    -1287    -5193    -8271    -8887 
   -6671    -2998      572     3581     6239     8922    12584    17592 
   22659    26379    28046    27599    25832    23679    21559    19672 
   18315    17418    16577    15545    13961    12177    11773    13751 
   17436    21060    23092    23252    22458    22268    23907    27402 
   31828    36171    39662    42034    43471    43760    42642    40707 
   38952    38040    37692    36783    34570    31453    28233    25238 
   22596    20735    19953    19792    19504    18892    18214    18000 
   18623    19634    20685    22019    23363    24021    24002    23894 
   23657    22508    20022    16588    13331    11246    10139     9462 
    8811     7168     3777     -854    -5669    -9672   -12392   -14357 
  -16204   -17715   -18596   -19099   -18901   -16895   -12903    -7880 
   -2777     1542     4557     6351     7168     7721     8938    10888 
   12989    14534    14818    13843    12660    12459    13490    14860 
   14911    12043     6208     -764    -6956   -11257   -12940   -12189 
  -10187    -8140    -6667    -5697    -4925    -3972    -2151      823 
    4096     6347     7077     7136     7887     9996    13097    16223 
   18651    20207    20838    20683    20283    20414    21688    24188 
   27717    31893    35876    38722    40212    40599    39553    36584 
   32174    27351    22580    17807    13406    10175     8704     9017 
   10344    11786    12979    13920    14867    15898    16542    16262 
   14755    12200     9555     7829     7225     7294     7321     6635 
    5149     3813     3939     5645     7472     7438     4715      640 
   -2844    -5230    -7356   -10435   -14913   -20015   -24806   -29143 
  -33412   -37583   -41034   -43151   -43467   -41770   -38237   -33337 
  -27983   -23279   -19719   -17192   -15374   -13574   -11232    -8738 
   -6776    -5410    -4456    -4042    -4262    -4819    -5289    -5330 
   -5072    -5314    -6740    -9226   -11468   -11341    -8133    -3579 
     492     3790     6629     8904     9957     9328     7512     5615 
    4313     3154     1348    -1066    -3312    -4631    -4947    -4425 
   -2755      -63     2532     4126     4839     5636     7497    10701 
   15137    20440    25580    29254    31108    32174    33550    35074 
   35882    35417    33633    31138    28724    26416    23909    21539 
   19898    19275    19743    20658    20621    19096    16951    15095 
   13961    13462    12756    11084     8583     6257     5346     6087 
    7587     8724     8942     8840     9204     9726     9732     8965 
    7346     5028     2207    -1116    -4731    -8223   -11344   -14187 
  -17135   -20315   -23207   -25131   -25643   -24448   -21779   -18565 
  -15792   -14030   -13286   -13020   -12652   -11976   -10945    -9430 
   -7425    -5265    -3248    -1388      270     1869     3972     6920 
   10446    13963    16986    19369    21144    22462    23633    24908 
   26330    27521    27748    26714    24870    22851    21237    20526 
   20689    21194    21485    21138    20224    19495    19422    19577 
   19451    19014    18354    17463    16399    15230    13910    12572 
   11587    11265    11973    14060    17184    20569    23892    26910 
   29062    30164    30565    30302    28656    25384    21597    18301 
   15684    14221    14649    16833    19414    21027    21697    22385 
   23650    25174    26344    27009    27234    26959    26289    25133 
   22852    18938    13446     6912      436    -4935    -8991   -11999 
  -14045   -14979   -14837   -13941   -12471   -10653    -8803    -6605 
   -3575     -361     1450      906    -1483    -4377    -6561    -7628 
   -8201    -9199   -11013   -13255   -14946   -15316   -14415   -12722 
  -10795    -9270    -8499    -8544    -9479   -10964   -12201   -12811 
  -12892   -12273   -10644    -8272    -5677    -2831      217     2717 
    3826     3294     2117     1958     3284     5216     6827     7817 
    8309     8370     8374     9104    10682    12645    14784    16650 
   17767    18511    19061    18828    17772    16502    15139    13507 
   11931    10802    10250    10486    11214    11607    11625    11570 
   11197    10782    11034    11701    11902    11327    10197     8803 
    7829     8214    10190    12996    15493    17053    17862    18498 
   19531    21211    23248    25154    26580    27043    26036    23599 
   20551    18183    17258    17595    18750    20146    20787    20083 
   18670    17431    16561    16086    16149    16624    17051    16998 
   16633    16846    18130    19859    21432    22697    23148    22211 
   19835    16497    13208    10966    10267    11234    13350    15273 
   15855    15497    15798    18028    22355    27677    32407    36126 
   39565    42911    45229    45485    43439    39593    34716    29776 
   25844    23356    21946    21097    20130    18207    15040    10992 
    6700     2895     -191    -2905    -5367    -7328    -8578    -9059 
   -9152    -9622   -10581   -11201   -10804    -9600    -8336    -7778 
   -8525   -10297   -11569   -11102    -9047    -6441    -4807    -5476 
   -8504   -12757   -16755   -18957   -18472   -16073   -13153   -10267 
   -7660    -5592    -3792    -2047     -726     -447    -1849    -4670 
   -7021    -6906    -4244     -410     3479     6362     7019     5450 
    2624     -610    -3147    -4165    -4166    -3896    -3464    -3094 
   -2965    -2742    -2444    -2651    -3489    -4467    -5111    -5145 
   -4556    -3655    -2431     -378     2656     6244     9816    13152 
   16461    19669    22306    24119    25261    25985    26253    26029 
   25669    25481    25508    25833    26523    27483    28739    30283 
   31705    32918    34844    38396    43121    47576    50264    49783 
   45474    38247    30025    22330    15495     9382     4431     1095 
    -948    -2304    -3299    -3706    -2838     -620     1898     3676 
    4497     4536     3987     3073     1840        7    -2503    -5044 
   -6668    -6697    -4908    -1640     2310     6186     9751    13194 
   16705    20321    23776    26356    27633    28077    28231    28200 
   28132    27960    27128    25326    22676    19216    15254    11798 
    9605     8236     6877     5467     4454     4137     4270     4206 
    3730     3220     2778     2222     1949     2661     4660     7923 
   12003    16073    19364    21091    20744    18841    16402    14038 
   12195    11193    10611     9529     7605     5360     3289     1535 
     470      879     3495     8243    13835    18691    22498    26257 
   30778    35840    40564    43774    44176    41119    35335    28686 
   23368    20877    21066    22366    23009    22290    20952    20409 
   21802    25252    29717    33809    36491    37372    36969    36244 
   35472    34112    31840    28888    25547    22122    19003    16181 
   13248    10151     7436     5699     5168     5810     7090     7935 
    7881     7351     6591     5748     5398     6065     7867    10463 
   12998    14744    15583    15357    13730    11080     8364     5988 
    3767     1798      365     -596    -1016     -461     1032     2810 
    4317     5535     7032     9354    12103    14172    14825    13990 
   12305    11229    11989    14168    16166    16822    15998    14179 
   12050    10196     8895     8000     7188     6314     5172     3400 
     996    -1643    -4167    -6351    -8155    -9755   -11021   -11305 
  -10192    -7936    -4975    -1829      946     3385     5829     8268 
   10594    12788    14823    16596    17721    17843    16976    15248 
