Origin Time       2011/03/11 14:46:00
Lat.              38.103
Long.             142.860
Depth. (km)       24
Mag.              9.0
Station Code      NIG025
Station Lat.      37.1610
Station Long.     138.2234
Station Height(m) 11
Record Time       2011/03/11 14:47:47
Sampling Freq(Hz) 100Hz
Duration Time(s)  300
Dir.              E-W
Scale Factor      3920(gal)/6182761
Max. Acc. (gal)   27.095
Last Correction   2011/03/11 14:47:32
Memo.             
[...]
  -23316   -22999   -22987   -23393   -24232   -25418   -26834   -28335 
  -29817   -31233   -32565   -33838   -35041   -36134   -37132   -37980 
  -38582   -38965   -39144   -39089   -38863   -38570   -38308   -38173 
  -38238   -38601   -39282   -40208   -41307   -42419   -43334   -43890 
  -44015   -43737   -43093   -42124   -40906   -39484   -37866   -36071 
  -34135   -32138   -30228   -28566   -27257   -26344   -25835   -25718 
  -25952   -26445   -27085   -27777   -28480   -29184   -29884   -30636 
  -31460   -32309   -33204   -34121   -34995   -35871   -36819   -37951 
  -39340   -40925   -42666   -44516   -46391   -48216   -49929   -51487 
  -52789   -53720   -54200   -54171   -53588   -52423   -50725   -48584 
  -46140   -43543   -40900   -38341   -35956   -33757   -31705   -29720 
  -27748   -25777   -23794   -21863   -20091   -18504   -17150   -16052 
  -15195   -14615   -14289   -14183   -14290   -14532   -14905   -15444 
  -16064   -16710   -17401   -18098   -18772   -19485   -20314   -21271 
  -22320   -23450   -24636   -25790   -26880   -27970   -29057   -30103 
  -31130   -32174   -33260   -34375   -35435   -36381   -37232   -38001 
  -38694   -39319   -39825   -40189   -40444   -40548   -40464   -40207 
  -39761   -39116   -38316   -37444   -36584   -35767   -34967   -34173 
  -33405   -32680   -32047   -31522   -31059   -30634   -30200   -29683 
  -29085   -28400   -27615   -26797   -26010   -25292   -24644   -24021 
  -23439   -22944   -22552   -22291   -22194   -22253   -22433   -22725 
  -23107   -23552   -24060   -24601   -25107   -25509   -25717   -25672 
  -25426   -25095   -24836   -24822   -25104   -25625   -26325   -27117 
  -27871   -28504   -28953   -29147   -29105   -28916   -28654   -28387 
  -28173   -28067   -28105   -28295   -28678   -29247   -29901   -30538 
  -31071   -31458   -31732   -31936   -32101   -32277   -32471   -32647 
  -32780   -32802   -32627   -32230   -31640   -30948   -30235   -29531 
  -28867   -28224   -27558   -26858   -26078   -25174   -24123   -22891 
  -21474   -19950   -18455   -17123   -16032   -15222   -14712   -14506 
  -14649   -15187   -16122   -17431   -19031   -20788   -22578   -24315 
  -25931   -27369   -28613   -29672   -30525   -31162   -31589   -31795 
  -31777   -31564   -31200   -30763   -30326   -29924   -29598   -29363 
  -29202   -29110   -29024   -28863   -28612   -28282   -27919   -27620 
  -27442   -27403   -27511   -27746   -28067   -28403   -28681   -28835 
  -28767   -28445   -27867   -26980   -25856   -24642   -23436   -22326 
  -21343   -20516   -19869   -19349   -18936   -18603   -18265   -17895 
  -17486   -17053   -16662   -16381   -16258   -16270   -16372   -16579 
  -16867   -17202   -17588   -18002   -18423   -18836   -19191   -19441 
  -19572   -19595   -19577   -19590   -19636   -19759   -20058   -20545 
  -21218   -22117   -23244   -24544   -25942   -27361   -28702   -29880 
  -30890   -31773   -32589   -33399   -34214   -35002   -35662   -36042 
  -36038   -35573   -34590   -33103   -31211   -29074   -26856   -24719 
  -22823   -21310   -20278   -19714   -19525   -19660   -20078   -20736 
  -21588   -22574   -23619   -24629   -25543   -26387   -27151   -27720 
  -28039   -28148   -28056   -27754   -27255   -26637   -26022   -25448 
  -24903   -24432   -24083   -23853   -23763   -23818   -23970   -24214 
  -24566   -25000   -25441   -25770   -25863   -25638   -25090   -24266 
  -23213   -21989   -20676   -19432   -18423   -17725   -17349   -17264 
  -17409   -17741   -18225   -18818   -19489   -20236   -21069   -21964 
  -22913   -23884   -24769   -25544   -26186   -26600   -26780   -26732 
  -26430   -25893   -25174   -24372   -23564   -22794   -22163   -21707 
  -21355   -21094   -20951   -20870   -20752   -20554   -20299   -19960 
  -19475   -18898   -18273   -17557   -16796   -16007   -15100   -14037 
  -12836   -11547   -10291    -9161    -8213    -7527    -7148    -7074 
   -7291    -7766    -8431    -9172    -9865   -10391   -10673   -10712 
  -10557   -10302   -10010    -9698    -9401    -9147    -8937    -8814 
   -8808    -8877    -9000    -9190    -9436    -9735   -10049   -10334 
  -10598   -10775   -10799   -10761   -10785   -10943   -11336   -12024 
  -12992   -14194   -15531   -16858   -18043   -18996   -19681   -20097 
  -20268   -20299   -20334   -20436   -20633   -20977   -21475   -22047 
  -22565   -22933   -23086   -22986   -22652   -22145   -21506   -20758 
  -19936   -19051   -18091   -17090   -16093   -15111   -14184   -13368 
  -12716   -12310   -12206   -12470   -13192   -14414   -16137   -18298 
  -20739   -23271   -25724   -28002   -30093   -32001   -33731   -35306 
  -36709   -37900   -38917   -39816   -40579   -41160   -41514   -41631 
  -41592   -41491   -41389   -41343   -41399   -41559   -41756   -41900 
  -41975   -41972   -41849   -41635   -41437   -41303   -41167   -40964 
  -40707   -40422   -40122   -39837   -39598   -39392   -39174   -38887 
  -38514   -38077   -37601   -37141   -36733   -36344   -35960   -35599 
  -35274   -34976   -34642   -34241   -33752   -33139   -32436   -31701 
  -30957   -30216   -29513   -28896   -28363   -27883   -27418   -26888 
  -26273   -25638   -25030   -24487   -24053   -23714   -23424   -23170 
  -22969   -22826   -22730   -22657   -22600   -22539   -22431   -22268 
  -22058   -21795   -21533   -21343   -21240   -21281   -21545   -22089 
  -22972   -24207   -25752   -27550   -29545   -31725   -34092   -36637 
  -39342   -42183   -45111   -48056   -50934   -53663   -56167   -58388 
  -60330   -62009   -63374   -64348   -64877   -64897   -64372   -63321 
  -61803   -59899   -57638   -55046   -52213   -49236   -46235   -43345 
  -40599   -37972   -35440   -32952   -30465   -27991   -25542   -23080 
  -20603   -18176   -15839   -13610   -11511    -9558    -7796    -6299 
   -5141    -4379    -3996    -3971    -4346    -5122    -6294    -7910 
   -9936   -12297   -14919   -17700   -20604   -23630   -26716   -29752 
  -32641   -35388   -38015   -40421   -42540   -44372   -45862   -46934 
  -47503   -47531   -47122   -46405   -45477   -44443   -43398   -42422 
  -41535   -40698   -39860   -38974   -38033   -37041   -35981   -34861 
  -33678   -32451   -31272   -30190   -29223   -28409   -27730   -27108 
  -26495   -25895   -25304   -24733   -24270   -23961   -23815   -23901 
  -24244   -24807   -25593   -26591   -27761   -29062   -30441   -31900 
  -33470   -35114   -36800   -38487   -40056   -41381   -42348   -42872 
  -42936   -42528   -41686   -40517   -39093   -37539   -36040   -34729 
  -33743   -33210   -33151   -33540   -34313   -35320   -36426   -37542 
  -38613   -39643   -40649   -41613   -42525   -43412   -44245   -44924 
  -45355   -45422   -45044   -44253   -43108   -41661   -40002   -38239 
  -36414   -34542   -32684   -30887   -29117   -27332   -25531   -23737 
  -22012   -20465   -19211   -18298   -17717   -17425   -17301   -17185 
  -16918   -16370   -15541   -14565   -13633   -12967   -12777   -13173 
  -14244   -16030   -18395   -21103   -23938   -26737   -29344   -31620 
  -33521   -35033   -36189   -37078   -37773   -38365   -38911   -39381 
  -39764   -40053   -40147   -39965   -39497   -38686   -37470   -35890 
  -34047   -32090   -30189   -28404   -26721   -25099   -23463   -21775 
  -20090   -18509   -17084   -15835   -14807   -14051   -13578   -13334 
  -13245   -13229   -13197   -13034   -12630   -11966   -11104   -10165 
   -9277    -8544    -8053    -7844    -7969    -8446    -9166   -10004 
  -10879   -11735   -12576   -13425   -14310   -15226   -16158   -17124 
  -18111   -19075   -19996   -20863   -21663   -22377   -22965   -23382 
  -23635   -23789   -23914   -24108   -24512   -25213   -26248   -27640 
  -29378   -31479   -33928   -36603   -39347   -41946   -44155   -45819 
  -46851   -47225   -47029   -46393   -45455   -44363   -43195   -41983 
  -40716   -39334   -37824   -36223   -34626   -33227   -32170   -31503 
  -31218   -31188   -31245   -31248   -31014   -30442   -29544   -28332 
  -26895   -25372   -23874   -22525   -21423   -20583   -19994   -19641 
  -19480   -19446   -19451   -19437   -19396   -19246   -18970   -18697 
  -18523   -18511   -18728   -19110   -19540   -19970   -20383   -20778 
  -21200   -21699   -22292   -22949   -23617   -24188   -24524   -24524 
  -24082   -23101   -21597   -19724   -17711   -15772   -14097   -12839 
  -12028   -11630   -11632   -11995   -12658   -13543   -14572   -15662 
  -16675   -17518   -18162   -18564   -18724   -18685   -18513   -18261 
  -17950   -17572   -17097   -16516   -15844   -15111   -14350   -13572 
  -12802   -12091   -11537   -11260   -11299   -11681   -12459   -13612 
  -15070   -16733   -18430   -20060   -21563   -22810   -23715   -24234 
  -24361   -24166   -23719   -23130   -22534   -22029   -21710   -21637 
  -21812   -22202   -22744   -23403   -24150   -24939   -25707   -26356 
  -26829   -27136   -27294   -27343   -27323   -27263   -27181   -27069 
  -26956   -26890   -26852   -26856   -26940   -27094   -27346   -27705 
  -28137   -28645   -29193   -29738   -30341   -31044   -31791   -32499 
  -33065   -33385   -33429   -33239   -32917   -32648   -32563   -32717 
  -33164   -33931   -35002   -36331   -37837   -39334   -40585   -41457 
  -41882   -41818   -41311   -40437   -39304   -38088   -36954   -36061 
  -35505   -35247   -35211   -35253   -35191   -34917   -34420   -33794 
  -33189   -32736   -32535   -32659   -33122   -33797   -34464   -34888 
  -34938   -34641   -34043   -33200   -32215   -31140   -30052   -29021 
  -28095   -27401   -27057   -27112   -27581   -28437   -29616   -30990 
  -32333   -33396   -34017   -34130   -33745   -32922   -31705   -30138 
  -28262   -26107   -23768   -21385   -19042   -16862   -15070   -13870 
  -13447   -13906   -15201   -17256   -19904   -22921   -26148   -29424 
  -32609   -35549   -38036   -39970   -41340   -42104   -42260   -41882 
  -41087   -40010   -38788   -37607   -36584   -35648   -34687   -33629 
  -32448   -31220   -30082   -29127   -28386   -27848   -27471   -27199 
  -26961   -26645   -26123   -25344   -24360   -23333   -22481   -21949 
  -21800   -22056   -22721   -23746   -25018   -26416   -27836   -29173 
  -30293   -31103   -31577   -31715   -31549   -31150   -30629   -30112 
  -29647   -29206   -28765   -28316   -27865   -27452   -27069   -26737 
  -26550   -26520   -26635   -26899   -27227   -27529   -27756   -27876 
  -27856   -27688   -27395   -26936   -26248   -25326   -24153   -22754 
  -21173   -19428   -17611   -15875   -14377   -13290   -12733   -12745 
  -13343   -14495   -16073   -17929   -19993   -22223   -24575   -27028 
  -29520   -31976   -34382   -36677   -38770   -40643   -42263   -43640 
  -44852   -45899   -46738   -47342   -47653   -47646   -47367   -46901 
  -46350   -45728   -45011   -44244   -43473   -42756   -42186   -41725 
  -41237   -40675   -39985   -39118   -38097   -36900   -35508   -33974 
  -32427   -31002   -29769   -28791   -28107   -27714   -27665   -27977 
  -28565   -29333   -30123   -30746   -31155   -31337   -31237   -30871 
  -30274   -29471   -28508   -27400   -26129   -24688   -23146   -21639 
  -20280   -19160   -18408   -18122   -18358   -19168   -20544   -22396 
  -24633   -27183   -29898   -32533   -34855   -36659   -37820   -38377 
  -38407   -37968   -37154   -36058   -34868   -33798   -32862   -32035 
  -31386   -30933   -30609   -30284   -29823   -29150   -28238   -27123 
  -25902   -24624   -23325   -22053   -20818   -19639   -18533   -17470 
  -16383   -15180   -13809   -12323   -10814    -9379    -8263    -7774 
   -8083    -9291   -11335   -14017   -17163   -20504   -23756   -26685 
  -29059   -30821   -32028   -32726   -33049   -33156   -33194   -33327 
  -33681   -34296   -35140   -36197   -37436   -38701   -39846   -40784 
  -41415   -41688   -41599   -41081   -40088   -38675   -36881   -34761 
  -32460   -30095   -27695   -25323   -23135   -21245   -19587   -18077 
  -16707   -15476   -14407   -13552   -13004   -12855   -13084   -13624 
  -14392   -15242   -16056   -16822   -17560   -18242   -18882   -19612 
  -20610   -22010   -23849   -26071   -28567   -31234   -34029   -36899 
  -39778   -42640   -45358   -47704   -49614   -51274   -52910   -54492 
  -55819   -56875   -57700   -58118   -57893   -56833   -54822   -51917 
  -48170   -43734   -39124   -34774   -30797   -27285   -24383   -22134 
  -20399   -19060   -18120   -17376   -16565   -15834   -15381   -15107 
  -15074   -15550   -16476   -17659   -19058   -20398   -21403   -22116 
  -22523   -22755   -23113   -23572   -24005   -24470   -24976   -25471 
  -26001   -26487   -26751   -26914   -27112   -27234   -27319   -27493 
  -27683   -27778   -27781   -27739   -27618   -27342   -26946   -26564 
  -26256   -26030   -26033   -26389   -27011   -27833   -28906   -30213 
  -31692   -33316   -34988   -36570   -37984   -39204   -40246   -41174 
  -42077   -43008   -44017   -45159   -46414   -47659   -48722   -49481 
  -49911   -50139   -50366   -50753   -51464   -52600   -54068   -55714 
  -57375   -58877   -60086   -60859   -61146   -60922   -59994   -58334 
  -56071   -53211   -49846   -46102   -42056   -37899   -33755   -29622 
  -25554   -21584   -17725   -14066   -10692    -7668    -5083    -3009 
   -1413     -313      121     -174    -1082    -2485    -4281    -6298 
   -8337   -10302   -12114   -13681   -14972   -16054   -17129   -18319 
  -19671   -21392   -23590   -26147   -29042   -32234   -35500   -38749 
  -42072   -45519   -49043   -52600   -56217   -59810   -63148   -66058 
  -68396   -69909   -70396   -69877   -68426   -66076   -62980   -59395 
  -55499   -51416   -47359   -43520   -39923   -36482   -33161   -30023 
  -27068   -24219   -21461   -18862   -16501   -14412   -12696   -11426 
  -10459    -9663    -9040    -8505    -7950    -7515    -7353    -7375 
   -7580    -8168    -9217   -10712   -12680   -15066   -17693   -20437 
  -23249   -26077   -28896   -31676   -34373   -36985   -39508   -41980 
  -44514   -47087   -49535   -51829   -54103   -56410   -58692   -60863 
  -62740   -64108   -64937   -65270   -65070   -64280   -62959   -61163 
  -58720   -55390   -51077   -45810   -39764   -33196   -26364   -19633 
  -13417    -8091    -3869     -678     1559     2921     3642     3826 
    3448     2519     1091     -732    -2854    -5185    -7635   -10095 
  -12471   -14761   -16931   -19010   -21157   -23351   -25538   -27818 
  -30186   -32593   -35076   -37687   -40498   -43491   -46577   -49749 
  -52908   -55898   -58580   -60729   -62157   -62780   -62623   -61846 
  -60656   -59318   -58045   -56927   -56021   -55329   -54823   -54510 
  -54331   -54145   -53819   -53216   -52279   -51050   -49549   -47845 
  -46017   -43995   -41662   -39000   -36049   -32774   -29139   -25286 
  -21410   -17675   -14377   -11788    -9924    -8722    -8136    -8110 
   -8571    -9411   -10518   -11773   -13097   -14392   -15566   -16639 
  -17655   -18713   -19950   -21449   -23289   -25424   -27655   -29837 
  -31948   -34122   -36465   -38860   -41208   -43422   -45324   -46866 
  -47984   -48549   -48599   -48184   -47264   -45919   -44316   -42636 
  -41150   -40029   -39208   -38655   -38321   -38030   -37639   -36986 
  -35866   -34212   -31984   -29092   -25609   -21790   -17922   -14247 
  -10990    -8399    -6542    -5271    -4438    -3936    -3759    -3874 
   -4156    -4626    -5351    -6330    -7580    -8980   -10272   -11444 
  -12634   -13742   -14765   -15838   -16899   -17995   -19236   -20622 
  -22147   -23784   -25518   -27310   -29146   -31085   -33078   -35115 
  -37179   -39075   -40710   -42101   -43152   -43720   -43728   -43140 
  -41894   -40077   -37852   -35118   -31839   -28168   -24190   -20130 
  -16189   -12356    -8676    -5206    -2037      634     2635     3963 
    4723     4870     4402     3439     2056      449    -1239    -3076 
   -5192    -7701   -10653   -14024   -17703   -21484   -25140   -28522 
  -31613   -34425   -36883   -38941   -40604   -41788   -42374   -42357 
  -41754   -40631   -39132   -37378   -35529   -33779   -32148   -30547 
  -28962   -27454   -26090   -24908   -24013   -23549   -23627   -24202 
  -25114   -26231   -27292   -28014   -28354   -28399   -28263   -28081 
  -28017   -28254   -28915   -29924   -30980   -31770   -32155   -32060 
  -31422   -30357   -29045   -27603   -26171   -24919   -24016   -23479 
  -23175   -23009   -22874   -22679   -22416   -22079   -21760   -21539 
  -21385   -21368   -21477   -21638   -21934   -22436   -23179   -24125 
  -25247   -26679   -28500   -30689   -33202   -35926   -38748   -41517 
  -44073   -46394   -48528   -50459   -52112   -53491   -54586   -55256 
  -55491   -55332   -54710   -53716   -52503   -51093   -49554   -47974 
  -46358   -44751   -43238   -41761   -40163   -38375   -36361   -34067 
  -31464   -28486   -25105   -21349   -17322   -13192    -9052    -5003 
   -1123     2471     5485     7861     9694    10930    11624    11856 
   11631    10966     9777     8023     5699     2759     -708    -4565 
   -8627   -12611   -16381   -19762   -22553   -24847   -26748   -28262 
  -29472   -30451   -31287   -32098   -32913   -33757   -34713   -35772 
  -36910   -38217   -39708   -41298   -42795   -43833   -44154   -43681 
  -42410   -40517   -38141   -35269   -31996   -28448   -24772   -21173 
  -17752   -14612   -11879    -9567    -7668    -6208    -5162    -4460 
   -4103    -4150    -4590    -5351    -6299    -7286    -8223    -9046 
   -9824   -10736   -11878   -13297   -15010   -16898   -18774   -20471 
  -21835   -22756   -23165   -23018   -22320   -21211   -19970   -18836 
  -17950   -17412   -17253   -17476   -18084   -18953   -19886   -20836 
  -21812   -22761   -23653   -24480   -25263   -26043   -26840   -27690 
  -28615   -29625   -30738   -31863   -32782   -33335   -33430   -32991 
  -32055   -30799   -29481   -28338   -27469   -26789   -26123   -25304 
  -24237   -22923   -21409   -19741   -17993   -16195   -14329   -12441 
  -10599    -8788    -7026    -5398    -3919    -2638    -1665    -1059 
    -884    -1121    -1671    -2535    -3722    -5186    -6881    -8709 
  -10584   -12444   -14191   -15738   -17046   -18099   -18901   -19504 
  -20055   -20768   -21813   -23272   -25084   -27034   -28963   -30855 
  -32699   -34470   -36175   -37737   -39026   -39946   -40383   -40219 
  -39391   -37915   -35872   -33400   -30687   -27914   -25221   -22752 
  -20555   -18617   -16960   -15527   -14288   -13262   -12346   -11541 
  -10970   -10651   -10586   -10769   -11131   -11559   -11957   -12269 
  -12477   -12640   -12824   -13062   -13476   -14163   -15131   -16452 
  -18185   -20258   -22628   -25263   -28037   -30902   -33872   -36891 
  -39967   -43109   -46221   -49214   -51912   -54044   -55443   -56004 
  -55667   -54480   -52610   -50301   -47776   -45190   -42678   -40333 
  -38195   -36268   -34506   -32853   -31241   -29604   -27932   -26216 
  -24428   -22635   -20962   -19526   -18428   -17718   -17345   -17111 
  -16858   -16570   -16223   -15840   -15551   -15505   -15853   -16638 
  -17755   -19037   -20313   -21487   -22534   -23425   -24129   -24660 
  -25071   -25389   -25678   -26015   -26380   -26706   -26928   -26964 
  -26701   -26049   -24999   -23658   -22184   -20750   -19569   -18776 
  -18442   -18653   -19400   -20511   -21726   -22849   -23791   -24495 
  -24951   -25187   -25286   -25375   -25472   -25587   -25751   -25894 
