Origin Time       2011/03/11 14:46:00
Lat.              38.103
Long.             142.860
Depth. (km)       24
Mag.              9.0
Station Code      NIG004
Station Lat.      37.8200
Station Long.     138.2788
Station Height(m) 42
Record Time       2011/03/11 14:47:44
Sampling Freq(Hz) 100Hz
Duration Time(s)  278
Dir.              U-D
Scale Factor      3920(gal)/6182761
Max. Acc. (gal)   4.740
Last Correction   2011/03/11 14:47:29
Memo.             
[...]
   -1029    -1281    -1540    -1770    -1943    -2082    -2241    -2448 
   -2701    -2960    -3136    -3163    -3043    -2807    -2543    -2363 
   -2342    -2524    -2878    -3250    -3478    -3570    -3682    -3889 
   -4140    -4420    -4753    -5093    -5343    -5493    -5657    -5967 
   -6461    -7018    -7425    -7538    -7340    -6941    -6588    -6501 
   -6665    -6901    -7085    -7187    -7199    -7157    -7168    -7256 
   -7264    -7067    -6729    -6371    -6048    -5764    -5502    -5254 
   -5012    -4800    -4734    -4908    -5299    -5796    -6261    -6587 
   -6723    -6691    -6620    -6614    -6632    -6598    -6519    -6418 
   -6329    -6321    -6381    -6391    -6267    -6026    -5710    -5363 
   -5118    -5166    -5543    -6089    -6596    -6920    -7041    -7050 
   -7088    -7269    -7608    -8035    -8480    -8886    -9187    -9313 
   -9206    -8877    -8422    -7964    -7616    -7432    -7381    -7373 
   -7327    -7217    -7074    -6955    -6909    -6917    -6869    -6658 
   -6286    -5857    -5549    -5521    -5793    -6247    -6737    -7171 
   -7504    -7747    -7949    -8139    -8268    -8256    -8099    -7941 
   -7939    -8088    -8259    -8355    -8356    -8253    -8027    -7695 
   -7372    -7196    -7161    -7161    -7163    -7211    -7332    -7539 
   -7781    -7959    -8063    -8156    -8278    -8479    -8798    -9124 
   -9284    -9249    -9099    -8899    -8677    -8453    -8211    -7878 
   -7388    -6777    -6194    -5816    -5746    -5977    -6375    -6710 
   -6826    -6771    -6716    -6819    -7145    -7609    -8009    -8176 
   -8117    -7951    -7789    -7712    -7760    -7894    -8020    -8083 
   -8094    -8089    -8129    -8244    -8358    -8376    -8252    -7935 
   -7414    -6808    -6305    -5999    -5835    -5712    -5567    -5358 
   -5071    -4792    -4647    -4658    -4749    -4832    -4820    -4647 
   -4387    -4222    -4246    -4427    -4707    -5019    -5275    -5423 
   -5500    -5600    -5779    -6027    -6304    -6573    -6778    -6849 
   -6766    -6621    -6528    -6485    -6410    -6297    -6184    -6041 
   -5839    -5642    -5551    -5583    -5662    -5729    -5821    -6023 
   -6317    -6570    -6680    -6608    -6318    -5847    -5339    -4931 
   -4654    -4481    -4387    -4315    -4152    -3849    -3507    -3263 
   -3212    -3361    -3585    -3728    -3735    -3604    -3360    -3090 
   -2880    -2718    -2527    -2277    -2044    -1928    -1936    -1977 
   -1975    -2005    -2203    -2570    -3016    -3505    -3981    -4308 
   -4436    -4541    -4776    -5079    -5335    -5499    -5533    -5448 
   -5333    -5259    -5277    -5444    -5678    -5778    -5649    -5359 
   -5071    -4980    -5163    -5484    -5673    -5563    -5191    -4724 
   -4375    -4327    -4638    -5222    -5870    -6352    -6567    -6577 
   -6518    -6511    -6626    -6884    -7260    -7684    -8035    -8210 
   -8218    -8125    -7972    -7786    -7593    -7433    -7291    -7067 
   -6681    -6175    -5714    -5494    -5650    -6223    -7071    -7927 
   -8562    -8850    -8784    -8458    -7986    -7436    -6877    -6423 
   -6141    -5985    -5885    -5815    -5724    -5518    -5182    -4850 
   -4711    -4858    -5197    -5492    -5556    -5396    -5171    -5058 
   -5112    -5230    -5276    -5235    -5142    -4948    -4627    -4314 
   -4167    -4192    -4314    -4507    -4737    -4899    -4944    -4964 
   -5072    -5285    -5506    -5642    -5717    -5851    -6124    -6470 
   -6704    -6699    -6494    -6267    -6161    -6155    -6147    -6089 
   -6040    -6107    -6369    -6781    -7177    -7437    -7608    -7778 
   -7937    -8008    -7939    -7716    -7384    -7040    -6777    -6620 
   -6511    -6381    -6237    -6180    -6312    -6578    -6775    -6744 
   -6496    -6143    -5780    -5456    -5215    -5088    -5070    -5156 
   -5343    -5576    -5759    -5840    -5833    -5794    -5763    -5728 
   -5707    -5758    -5874    -6007    -6158    -6311    -6379    -6301 
   -6112    -5893    -5724    -5663    -5767    -6076    -6529    -6939 
   -7140    -7105    -6890    -6627    -6517    -6667    -6957    -7150 
   -7090    -6762    -6232    -5567    -4832    -4119    -3489    -2952 
   -2520    -2206    -2015    -1966    -2088    -2388    -2870    -3555 
   -4377    -5146    -5671    -5873    -5782    -5530    -5280    -5131 
   -5086    -5057    -4894    -4519    -4026    -3590    -3317    -3193 
   -3130    -3069    -2968    -2802    -2622    -2550    -2697    -3068 
   -3553    -4045    -4531    -5018    -5490    -5860    -5979    -5802 
   -5422    -4924    -4424    -4082    -3960    -3935    -3784    -3410 
   -2997    -2793    -2875    -3196    -3666    -4118    -4376    -4384 
   -4196    -3931    -3699    -3495    -3245    -2969    -2788    -2783 
   -2949    -3264    -3678    -4070    -4328    -4425    -4405    -4354 
   -4338    -4342    -4325    -4283    -4254    -4253    -4303    -4445 
   -4624    -4708    -4656    -4494    -4244    -3945    -3653    -3388 
   -3141    -2945    -2864    -2928    -3121    -3386    -3641    -3793 
   -3790    -3707    -3686    -3787    -3955    -4063    -3965    -3614 
   -3111    -2592    -2174    -1914    -1717    -1434    -1033     -612 
    -301     -225     -457     -936    -1484    -1987    -2424    -2776 
   -3068    -3400    -3802    -4198    -4480    -4582    -4535    -4421 
   -4314    -4283    -4390    -4673    -5069    -5354    -5319    -4983 
   -4526    -4137    -3947    -4030    -4344    -4707    -4910    -4856 
   -4579    -4184    -3809    -3573    -3531    -3627    -3669    -3473 
   -3071    -2740    -2769    -3214    -3864    -4391    -4635    -4719 
   -4764    -4744    -4675    -4643    -4658    -4662    -4640    -4626 
   -4644    -4696    -4803    -4990    -5249    -5564    -5917    -6269 
   -6607    -6957    -7291    -7536    -7676    -7772    -7881    -8027 
   -8161    -8168    -7972    -7621    -7217    -6801    -6320    -5742 
   -5122    -4580    -4253    -4149    -4143    -4193    -4386    -4752 
   -5147    -5324    -5140    -4679    -4177    -3868    -3825    -3948 
   -4077    -4091    -3996    -3952    -4077    -4296    -4489    -4641 
   -4804    -4972    -5099    -5214    -5398    -5637    -5809    -5796 
   -5588    -5316    -5142    -5109    -5133    -5055    -4737    -4206 
   -3638    -3222    -3093    -3306    -3746    -4117    -4177    -3918 
   -3507    -3150    -2946    -2869    -2848    -2797    -2694    -2654 
   -2781    -3031    -3281    -3392    -3262    -2954    -2699    -2683 
   -2884    -3167    -3421    -3581    -3600    -3494    -3325    -3140 
   -2962    -2815    -2712    -2649    -2642    -2712    -2829    -2916 
   -2925    -2851    -2692    -2492    -2408    -2657    -3306    -4189 
   -5024    -5593    -5847    -5856    -5737    -5650    -5674    -5748 
   -5784    -5685    -5357    -4847    -4369    -4128    -4187    -4449 
   -4746    -4975    -5135    -5282    -5503    -5816    -6124    -6321 
   -6406    -6423    -6394    -6345    -6313    -6301    -6340    -6454 
   -6542    -6472    -6229    -5884    -5574    -5481    -5698    -6138 
   -6628    -7057    -7353    -7400    -7196    -6955    -6895    -7091 
   -7474    -7785    -7742    -7349    -6890    -6617    -6583    -6720 
   -6935    -7075    -6969    -6623    -6226    -5934    -5764    -5684 
   -5692    -5790    -5932    -6046    -6109    -6146    -6188    -6256 
   -6349    -6473    -6659    -6882    -7027    -6948    -6529    -5836 
   -5137    -4691    -4606    -4830    -5167    -5430    -5562    -5604 
   -5611    -5648    -5767    -5937    -6024    -5904    -5579    -5169 
   -4811    -4565    -4446    -4463    -4575    -4699    -4773    -4794 
   -4834    -4982    -5220    -5430    -5579    -5715    -5818    -5848 
   -5848    -5866    -5867    -5783    -5602    -5343    -4988    -4550 
   -4179    -4049    -4107    -4156    -4161    -4155    -4050    -3826 
   -3579    -3353    -3140    -2932    -2719    -2521    -2394    -2338 
   -2267    -2132    -2004    -1979    -2063    -2194    -2303    -2363 
   -2376    -2329    -2251    -2234    -2317    -2473    -2663    -2854 
   -3043    -3228    -3355    -3396    -3373    -3296    -3175    -3079 
   -3074    -3163    -3337    -3605    -3958    -4377    -4838    -5291 
   -5661    -5909    -6039    -6090    -6134    -6202    -6207    -6055 
   -5792    -5541    -5369    -5293    -5316    -5376    -5366    -5224 
   -4984    -4717    -4507    -4470    -4634    -4869    -5050    -5138 
   -5116    -4992    -4856    -4795    -4778    -4733    -4666    -4629 
   -4687    -4888    -5185    -5456    -5567    -5479    -5292    -5171 
   -5258    -5586    -5993    -6240    -6177    -5802    -5277    -4854 
   -4716    -4904    -5324    -5820    -6275    -6634    -6895    -7081 
   -7188    -7254    -7366    -7516    -7606    -7636    -7656    -7637 
   -7550    -7423    -7288    -7171    -7077    -6974    -6847    -6761 
   -6816    -7024    -7283    -7443    -7367    -6967    -6267    -5417 
   -4657    -4271    -4390    -4872    -5508    -6178    -6751    -7052 
   -7019    -6819    -6730    -6880    -7185    -7510    -7750    -7818 
   -7711    -7543    -7448    -7496    -7673    -7875    -7963    -7887 
   -7730    -7577    -7431    -7279    -7147    -7100    -7130    -7095 
   -6932    -6772    -6707    -6671    -6573    -6378    -6134    -5929 
   -5785    -5621    -5315    -4873    -4477    -4311    -4477    -4958 
   -5568    -6021    -6109    -5862    -5568    -5514    -5738    -6093 
   -6425    -6566    -6383    -5958    -5557    -5420    -5650    -6136 
   -6570    -6713    -6635    -6611    -6830    -7317    -8010    -8705 
   -9086    -8921    -8193    -7180    -6369    -6119    -6439    -7061 
   -7638    -7923    -7831    -7474    -7132    -7007    -7052    -7085 
   -6985    -6713    -6339    -6011    -5831    -5863    -6244    -7017 
   -7865    -8339    -8344    -8175    -8164    -8439    -8912    -9362 
   -9583    -9532    -9342    -9140    -8835    -8260    -7511    -6911 
   -6673    -6824    -7370    -8272    -9284   -10002   -10168    -9871 
   -9393    -8990    -8892    -9243    -9884   -10397   -10474   -10130 
   -9609    -9222    -9119    -9150    -9098    -8918    -8653    -8345 
   -8068    -7894    -7802    -7670    -7379    -6900    -6337    -5912 
   -5810    -5941    -5968    -5632    -4980    -4309    -3924    -3939 
   -4227    -4541    -4739    -4916    -5266    -5911    -6818    -7767 
   -8465    -8756    -8638    -8198    -7635    -7140    -6738    -6370 
   -5994    -5596    -5212    -4947    -4934    -5185    -5532    -5720 
   -5550    -5052    -4533    -4347    -4621    -5195    -5792    -6212 
   -6385    -6341    -6147    -5902    -5796    -5989    -6397    -6803 
   -7074    -7149    -6951    -6456    -5833    -5400    -5427    -5936 
   -6631    -7058    -6895    -6113    -4940    -3784    -3058    -2944 
   -3335    -3877    -4137    -3899    -3190    -2146    -1040     -352 
    -615    -2072    -4370    -6589    -7680    -7082    -5081    -2692 
   -1078     -964    -2377    -4577    -6239    -6229    -4593    -2634 
   -1756    -2259    -3327    -3880    -3338    -1980     -812     -802 
   -2041    -3778    -5118    -5438    -4588    -3137    -2127    -2353 
   -3848    -5919    -7687    -8509    -8118    -6859    -5717    -5606 
   -6486    -7373    -7261    -5989    -4288    -3121    -3004    -3701 
   -4468    -4777    -4829    -5306    -6587    -8273    -9492    -9658 
   -8958    -8129    -7733    -7773    -7932    -7880    -7461    -6835 
   -6433    -6672    -7622    -8919    -9871    -9708    -8185    -5898 
   -3810    -2720    -3022    -4501    -6353    -7651    -7893    -7274 
   -6432    -5948    -6039    -6400    -6474    -6128    -5741    -5616 
   -5701    -5869    -6059    -6059    -5624    -5040    -5053    -6067 
   -7662    -8928    -9312    -9060    -8795    -8854    -9093    -9261 
   -9229    -8848    -8042    -7011    -6124    -5641    -5548    -5703 
   -5996    -6260    -6294    -6044    -5683    -5551    -5915    -6722 
   -7578    -8025    -7967    -7775    -7860    -8330    -9037    -9727 
  -10107   -10024    -9690    -9440    -9291    -8981    -8353    -7549 
   -6841    -6438    -6447    -6837    -7406    -7903    -8240    -8480 
   -8689    -8855    -8881    -8656    -8215    -7821    -7813    -8298 
   -9062    -9772   -10202   -10276    -9994    -9458    -8975    -8920 
   -9405   -10119   -10514   -10259    -9533    -8802    -8444    -8618 
   -9291   -10205   -10906   -10984   -10389    -9558    -9101    -9253 
   -9797   -10396   -10793   -10893   -10730   -10320    -9730    -9225 
   -8932    -8581    -7992    -7452    -7330    -7613    -8051    -8480 
   -8748    -8704    -8437    -8188    -8043    -8008    -8155    -8494 
   -8862    -9106    -9225    -9252    -9117    -8736    -8118    -7319 
   -6449    -5733    -5380    -5424    -5724    -6054    -6273    -6350 
   -6239    -5930    -5606    -5573    -5918    -6387    -6648    -6511 
   -6041    -5617    -5616    -6016    -6449    -6551    -6274    -5878 
   -5615    -5607    -5905    -6395    -6732    -6643    -6199    -5689 
   -5339    -5265    -5561    -6285    -7370    -8626    -9799   -10616 
  -10830   -10317    -9237    -8129    -7666    -8203    -9532   -11079 
  -12238   -12618   -12205   -11306   -10347    -9713    -9623   -10010 
  -10501   -10700   -10491    -9950    -9217    -8632    -8570    -9001 
   -9516    -9760    -9719    -9698   -10069   -10898   -11912   -12764 
  -13199   -13093   -12525   -11815   -11310   -11047   -10835   -10597 
  -10390   -10234   -10120   -10074   -10103   -10154   -10203   -10292 
  -10413   -10504   -10542   -10492   -10245    -9775    -9313    -9169 
   -9405    -9840   -10265   -10529   -10509   -10151    -9517    -8798 
   -8232    -7963    -7915    -7874    -7793    -7880    -8271    -8826 
   -9276    -9417    -9154    -8485    -7577    -6818    -6564    -6830 
   -7326    -7702    -7732    -7408    -6925    -6516    -6272    -6184 
   -6288    -6608    -7082    -7660    -8296    -8861    -9177    -9115 
   -8702    -8205    -7915    -7797    -7538    -6966    -6338    -6137 
   -6626    -7625    -8662    -9301    -9353    -8848    -7937    -6865 
   -5959    -5498    -5546    -5919    -6329    -6563    -6532    -6323 
   -6213    -6504    -7189    -7824    -7933    -7506    -6941    -6595 
   -6555    -6692    -6759    -6581    -6351    -6502    -7118    -7831 
   -8300    -8456    -8318    -7915    -7404    -7034    -6878    -6851 
   -6987    -7324    -7659    -7730    -7529    -7279    -7201    -7400 
   -7890    -8595    -9381   -10138   -10803   -11310   -11563   -11475 
  -11023   -10297    -9527    -8954    -8595    -8266    -7844    -7461 
   -7346    -7518    -7798    -7962    -7824    -7343    -6682    -6139 
   -5935    -6010    -6163    -6345    -6647    -7096    -7600    -8026 
   -8241    -8206    -8052    -7955    -7989    -8134    -8269    -8174 
   -7778    -7363    -7260    -7434    -7595    -7602    -7491    -7249 
   -6866    -6463    -6168    -5987    -5896    -5846    -5666    -5234 
   -4697    -4331    -4318    -4700    -5283    -5657    -5538    -5015 
   -4430    -4214    -4587    -5221    -5527    -5250    -4474    -3359 
   -2182    -1415    -1433    -2144    -3066    -3742    -4025    -4046 
   -4086    -4383    -4851    -5162    -5215    -5210    -5343    -5641 
   -5955    -6124    -6135    -6052    -5948    -5940    -6127    -6550 
   -7155    -7779    -8222    -8293    -7873    -7053    -6181    -5674 
   -5728    -6218    -6819    -7238    -7361    -7225    -6902    -6477 
   -6089    -5852    -5719    -5564    -5372    -5239    -5234    -5354 
   -5579    -5891    -6252    -6564    -6733    -6787    -6817    -6827 
   -6738    -6522    -6260    -6049    -5951    -5997    -6169    -6445 
   -6816    -7199    -7409    -7359    -7264    -7471    -8100    -8900 
   -9482    -9734    -9830    -9855    -9708    -9285    -8581    -7731 
   -6972    -6452    -6093    -5722    -5259    -4708    -4136    -3689 
   -3503    -3633    -4010    -4460    -4785    -4786    -4379    -3828 
   -3603    -3913    -4520    -4978    -4949    -4375    -3482    -2609 
   -1993    -1734    -1784    -1941    -2004    -1895    -1657    -1455 
   -1493    -1868    -2503    -3167    -3613    -3782    -3871    -4151 
   -4710    -5362    -5794    -5790    -5399    -4870    -4348    -3780 
   -3131    -2526    -2178    -2204    -2557    -3110    -3667    -4064 
   -4348    -4685    -5169    -5749    -6266    -6593    -6722    -6621 
   -6157    -5361    -4582    -4185    -4248    -4562    -4761    -4557 
   -3998    -3469    -3370    -3790    -4491    -5078    -5195    -4783 
   -4129    -3580    -3311    -3264    -3138    -2650    -1885    -1223 
    -967    -1156    -1595    -2007    -2261    -2446    -2734    -3178 
   -3615    -3846    -3877    -3895    -4125    -4699    -5531    -6348 
   -6862    -6952    -6666    -6104    -5447    -4955    -4839    -5157 
   -5686    -6006    -5836    -5228    -4597    -4518    -5169    -6077 
   -6600    -6464    -5684    -4413    -3024    -1915    -1180     -667 
    -265      -21      -18     -254     -647    -1087    -1404    -1432 
   -1202    -1006    -1171    -1722    -2362    -2735    -2623    -2061 
   -1303     -673     -410     -517     -766     -915     -894     -843 
   -1032    -1693    -2770    -3916    -4761    -5029    -4623    -3862 
   -3348    -3410    -3841    -4140    -3917    -3183    -2365    -1999 
   -2297    -2956    -3474    -3574    -3281    -2851    -2572    -2501 
   -2494    -2463    -2499    -2767    -3380    -4332    -5494    -6619 
   -7323    -7253    -6493    -5611    -5131    -5156    -5449    -5608 
   -5286    -4489    -3632    -3192    -3359    -3993    -4745    -5263 
   -5491    -5685    -6062    -6499    -6709    -6637    -6487    -6454 
   -6671    -7217    -7978    -8614    -8779    -8381    -7582    -6620 
   -5764    -5264    -5116    -5032    -4786    -4444    -4235    -4292 
   -4566    -4910    -5173    -5207    -4968    -4627    -4413    -4344 
   -4245    -3987    -3629    -3299    -3024    -2807    -2720    -2768 
   -2819    -2678    -2229    -1682    -1499    -1941    -2870    -3926 
   -4755    -5231    -5450    -5519    -5540    -5670    -5935    -6084 
   -5882    -5428    -4982    -4706    -4622    -4633    -4569    -4298 
   -3857    -3509    -3565    -4126    -5015    -5861    -6332    -6352 
   -6087    -5774    -5557    -5401    -5187    -4844    -4450    -4234 
   -4450    -5252    -6560    -7962    -8872    -8929    -8322    -7613 
   -7231    -7222    -7325    -7176    -6535    -5526    -4613    -4224 
   -4400    -4820    -5118    -5116    -4804    -4290    -3715    -3173 
   -2769    -2632    -2825    -3279    -3835    -4417    -5062    -5718 
   -6228    -6534    -6692    -6766    -6788    -6798    -6855    -6936 
   -6930    -6828    -6747    -6801    -6996    -7224    -7400    -7516 
   -7578    -7639    -7827    -8205    -8600    -8689    -8357    -7785 
   -7125    -6363    -5570    -4903    -4314    -3690    -3218    -3151 
   -3393    -3706    -4056    -4486    -4918    -5294    -5651    -5918 
   -5931    -5693    -5368    -5061    -4805    -4631    -4559    -4525 
   -4360    -3947    -3413    -3015    -2927    -3176    -3651    -4140 
   -4437    -4477    -4395    -4432    -4722    -5200    -5642    -5809 
