Origin Time       2011/03/11 14:46:00
Lat.              38.103
Long.             142.860
Depth. (km)       24
Mag.              9.0
Station Code      NIG014
Station Lat.      37.6412
Station Long.     138.9553
Station Height(m) 9
Record Time       2011/03/11 14:47:33
Sampling Freq(Hz) 100Hz
Duration Time(s)  300
Dir.              N-S
Scale Factor      3920(gal)/6182761
Max. Acc. (gal)   31.881
Last Correction   2011/03/11 14:47:18
Memo.             
[...]
    7043     6710     6291     5686     4743     3472     1913       75 
   -1929    -3989    -5975    -7713    -9097   -10069   -10640   -10962 
  -11191   -11391   -11618   -11940   -12441   -13134   -13939   -14815 
  -15673   -16404   -16992   -17373   -17485   -17443   -17422   -17519 
  -17691   -17787   -17701   -17422   -16984   -16442   -15889   -15523 
  -15540   -15964   -16694   -17586   -18422   -19027   -19383   -19535 
  -19573   -19616   -19794   -20152   -20557   -20915   -21245   -21616 
  -22140   -22790   -23518   -24340   -25156   -25839   -26350   -26678 
  -26757   -26549   -26180   -25743   -25207   -24609   -23988   -23239 
  -22284   -21145   -19880   -18626   -17430   -16251   -15082   -13865 
  -12626   -11437   -10209    -8902    -7590    -6361    -5316    -4463 
   -3739    -3133    -2664    -2276    -1849    -1357     -891     -436 
     135      835     1550     2143     2495     2547     2210     1464 
     474     -638    -1877    -3174    -4404    -5390    -5978    -6265 
   -6408    -6437    -6454    -6591    -6848    -7273    -8044    -9146 
  -10376   -11677   -13073   -14421   -15529   -16437   -17241   -17852 
  -18228   -18462   -18598   -18717   -18891   -19021   -19066   -19081 
  -19063   -19084   -19207   -19396   -19646   -19854   -19848   -19648 
  -19407   -19176   -18909   -18577   -18172   -17794   -17541   -17392 
  -17292   -17170   -17122   -17274   -17440   -17407   -17102   -16556 
  -15945   -15351   -14788   -14352   -14131   -14252   -14771   -15601 
  -16674   -17900   -19173   -20391   -21404   -22127   -22531   -22510 
  -22096   -21544   -21006   -20576   -20436   -20625   -21078   -21687 
  -22280   -22792   -23121   -23102   -22711   -21973   -20926   -19679 
  -18395   -17148   -15868   -14529   -13199   -11914   -10715    -9679 
   -8870    -8343    -8061    -7898    -7786    -7706    -7627    -7526 
   -7379    -7120    -6645    -5945    -5110    -4182    -3250    -2460 
   -1846    -1454    -1380    -1700    -2493    -3691    -5191    -6999 
   -9068   -11366   -13874   -16447   -18889   -21110   -23208   -25236 
  -27212   -29189   -31024   -32602   -34068   -35541   -37003   -38331 
  -39404   -40241   -40857   -41213   -41233   -40777   -39858   -38759 
  -37740   -36832   -35938   -34948   -33805   -32609   -31477   -30392 
  -29284   -28105   -26904   -25751   -24579   -23322   -22040   -20802 
  -19719   -18886   -18163   -17380   -16543   -15702   -14947   -14381 
  -13965   -13535   -12993   -12410   -11808   -11096   -10321    -9587 
   -8934    -8361    -7777    -7078    -6182    -5133    -4171    -3433 
   -2943    -2812    -3135    -3810    -4569    -5288    -6097    -7130 
   -8351    -9590   -10762   -11823   -12633   -13118   -13265   -13047 
  -12484   -11681   -10710    -9515    -8133    -6606    -4815    -2817 
    -781     1179     2895     4275     5356     6145     6504     6376 
    5979     5531     5084     4571     3850     2835     1552       14 
   -1840    -4128    -6854    -9720   -12423   -14900   -17095   -19021 
  -20769   -22239   -23369   -24263   -24980   -25574   -26046   -26331 
  -26533   -26854   -27408   -28109   -28769   -29259   -29453   -29352 
  -29173   -28953   -28584   -28097   -27508   -26812   -26171   -25665 
  -25131   -24448   -23701   -23041   -22525   -22138   -21884   -21701 
  -21479   -21298   -21298   -21395   -21426   -21386   -21325   -21190 
  -21023   -20955   -20942   -20826   -20557   -20140   -19590   -19037 
  -18504   -17790   -16915   -16108   -15402   -14761   -14181   -13591 
  -12986   -12504   -12254   -12239   -12416   -12602   -12581   -12399 
  -12198   -12032   -11903   -11751   -11630   -11774   -12318   -13144 
  -14006   -14595   -14631   -14071   -13025   -11543    -9728    -7807 
   -5969    -4339    -3009    -1989    -1292     -979    -1022    -1323 
   -1829    -2549    -3465    -4539    -5818    -7265    -8653    -9866 
  -10980   -12015   -12879   -13463   -13802   -14185   -14882   -15803 
  -16723   -17484   -17956   -18200   -18312   -18261   -18167   -18193 
  -18358   -18622   -18846   -18901   -18806   -18680   -18669   -18822 
  -19083   -19409   -19805   -20255   -20592   -20528   -19989   -19244 
  -18580   -18172   -18126   -18366   -18718   -19177   -19795   -20479 
  -21096   -21599   -22016   -22367   -22608   -22618   -22221   -21400 
  -20290   -18988   -17687   -16686   -16101   -15876   -15972   -16260 
  -16544   -16753   -16822   -16736   -16653   -16650   -16729   -16833 
  -16760   -16438   -15859   -14949   -13870   -12855   -11894   -10898 
   -9828    -8783    -7893    -7105    -6476    -6251    -6464    -7031 
   -7875    -8768    -9433    -9761    -9810    -9713    -9590    -9630 
  -10101   -11092   -12481   -14201   -16235   -18350   -20258   -21848 
  -23069   -24047   -24988   -25837   -26542   -27174   -27719   -28160 
  -28510   -28790   -29034   -29325   -29842   -30656   -31651   -32749 
  -33891   -34883   -35553   -35843   -35752   -35408   -34936   -34345 
  -33606   -32691   -31683   -30753   -30042   -29598   -29358   -29261 
  -29263   -29355   -29608   -30003   -30340   -30435   -30233   -29737 
  -29018   -28250   -27569   -27069   -26829   -26741   -26574   -26247 
  -25848   -25450   -25097   -24832   -24625   -24428   -24210   -23860 
  -23245   -22369   -21399   -20518   -19810   -19334   -19089   -18973 
  -18894   -18780   -18666   -18693   -18974   -19611   -20618   -21824 
  -23023   -23964   -24375   -24169   -23524   -22827   -22401   -22313 
  -22505   -22924   -23492   -24095   -24723   -25466   -26294   -27181 
  -28177   -29195   -30054   -30558   -30516   -29878   -28741   -27264 
  -25606   -23918   -22392   -21063   -19798   -18592   -17557   -16879 
  -16747   -17111   -17826   -18828   -19919   -20844   -21528   -21978 
  -22214   -22267   -22203   -22101   -21969   -21883   -21870   -21804 
  -21629   -21350   -20906   -20232   -19373   -18407   -17296   -16015 
  -14667   -13395   -12415   -11824   -11525   -11520   -11846   -12397 
  -12954   -13220   -13116   -12753   -12087   -11128    -9986    -8635 
   -7141    -5642    -4052    -2349     -870      140      653      648 
     262     -422    -1472    -2778    -4180    -5715    -7453    -9344 
  -11321   -13361   -15349   -17136   -18736   -20260   -21782   -23306 
  -24782   -26185   -27552   -28933   -30283   -31434   -32238   -32670 
  -32716   -32364   -31754   -30983   -30034   -29080   -28324   -27766 
  -27304   -26805   -26131   -25229   -24202   -23126   -21931   -20584 
  -19045   -17233   -15136   -12790   -10315    -7853    -5510    -3505 
   -2079    -1258     -864     -668     -489     -348     -371     -597 
   -1180    -2154    -3228    -4303    -5436    -6596    -7868    -9316 
  -10837   -12333   -13735   -15014   -16271   -17537   -18674   -19653 
  -20551   -21425   -22346   -23291   -24277   -25425   -26711   -28136 
  -29677   -31057   -32082   -32765   -33105   -33072   -32761   -32319 
  -31736   -31033   -30329   -29681   -29062   -28384   -27666   -27032 
  -26548   -26294   -26221   -26114   -25914   -25674   -25343   -24974 
  -24789   -24899   -25254   -25749   -26341   -27055   -27776   -28409 
  -29042   -29756   -30593   -31503   -32306   -32918   -33267   -33271 
  -33031   -32655   -32137   -31558   -31083   -30707   -30301   -29847 
  -29302   -28471   -27269   -25853   -24334   -22688   -20937   -19054 
  -17028   -14994   -13048   -11234    -9540    -7941    -6576    -5561 
   -4828    -4287    -3945    -3902    -4246    -5008    -6110    -7346 
   -8644   -10025   -11382   -12620   -13657   -14397   -14933   -15365 
  -15645   -15754   -15683   -15293   -14404   -13150   -11805   -10370 
   -8860    -7321    -5653    -3907    -2175     -454     1017     1974 
    2387     2256     1721     1059      487      133      -46     -215 
    -459     -816    -1311    -1929    -2691    -3640    -4848    -6357 
   -8017    -9778   -11798   -13972   -16043   -18026   -20020   -21972 
  -23876   -25864   -28000   -30270   -32588   -34649   -36124   -36901 
  -36961   -36395   -35445   -34270   -33006   -31910   -31098   -30463 
  -29915   -29473   -29081   -28634   -28350   -28521   -29140   -30172 
  -31545   -32951   -34058   -34628   -34603   -34197   -33594   -32802 
  -31812   -30564   -29044   -27405   -25684   -23766   -21703   -19678 
  -17767   -16023   -14520   -13167   -11888   -10818    -9944    -9142 
   -8545    -8256    -8090    -7930    -7827    -7689    -7331    -6688 
   -5829    -4851    -3720    -2353     -751     1037     2905     4795 
    6769     8797    10671    12323    13843    15137    16041    16554 
   16728    16667    16532    16373    16112    15666    15029    14244 
   13392    12673    12307    12266    12414    12666    12870    12954 
   12874    12452    11642    10567     9306     7849     6066     3844 
    1256    -1468    -4088    -6481    -8505    -9974   -10830   -11086 
  -10873   -10455   -10017    -9672    -9455    -9323    -9325    -9533 
   -9962   -10720   -11927   -13486   -15263   -17206   -19239   -21252 
  -23089   -24678   -26041   -27126   -28000   -28750   -29207   -29308 
  -29123   -28501   -27354   -25787   -23869   -21760   -19622   -17488 
  -15393   -13365   -11481    -9790    -8281    -7069    -6183    -5463 
   -4957    -4757    -4651    -4575    -4608    -4558    -4316    -3914 
   -3241    -2211     -939      416     1833     3210     4396     5621 
    7099     8580     9921    11122    11964    12475    12844    12972 
   12788    12422    11903    11072     9990     8885     7768     6773 
    6135     5961     6340     7184     8394     9846    11312    12744 
   13941    14647    14921    14829    14524    14148    13654    13104 
   12479    11680    10756     9626     8180     6566     4914     3281 
    1841      669     -202     -714    -1064    -1494    -2062    -2788 
   -3628    -4616    -5873    -7339    -8945   -10710   -12587   -14617 
  -16820   -19006   -21083   -23038   -24830   -26533   -28137   -29615 
  -31162   -32876   -34568   -36064   -37313   -38137   -38349   -38034 
  -37325   -36291   -35110   -33961   -32894   -31901   -31000   -30163 
  -29265   -28304   -27363   -26367   -25201   -23816   -22149   -20175 
  -17930   -15492   -13134   -11198    -9783    -8920    -8601    -8643 
   -9006    -9595   -10040   -10233   -10242   -10085    -9909    -9787 
   -9786   -10057   -10587   -11369   -12386   -13457   -14436   -15197 
  -15662   -15837   -15695   -15237   -14521   -13611   -12555   -11401 
  -10236    -9144    -8241    -7597    -7296    -7548    -8352    -9568 
  -11163   -13020   -15050   -17291   -19656   -21979   -24151   -26045 
  -27553   -28621   -29141   -28982   -28118   -26818   -25477   -24241 
  -23238   -22651   -22457   -22571   -22897   -23245   -23371   -23107 
  -22530   -21835   -21215   -20796   -20675   -20989   -21757   -22937 
  -24527   -26451   -28570   -30764   -33069   -35540   -37989   -40246 
  -42320   -44219   -45957   -47548   -48980   -50271   -51473   -52658 
  -53862   -55041   -56060   -56880   -57540   -57855   -57734   -57304 
  -56559   -55465   -53964   -52022   -49714   -46993   -43876   -40578 
  -37235   -34007   -31103   -28580   -26447   -24726   -23362   -22226 
  -21168   -20188   -19429   -18912   -18596   -18475   -18525   -18790 
  -19297   -19929   -20581   -21236   -21933   -22668   -23289   -23778 
  -24269   -24688   -25041   -25547   -26151   -26662   -27046   -27272 
  -27387   -27546   -27780   -28094   -28609   -29357   -30177   -30860 
  -31279   -31343   -31023   -30409   -29580   -28580   -27479   -26400 
  -25486   -24686   -23806   -22756   -21560   -20283   -18885   -17406 
  -16073   -14914   -13895   -13181   -12750   -12389   -11985   -11500 
  -10931   -10298    -9619    -8823    -7801    -6638    -5426    -4120 
   -2769    -1437     -153      985     1930     2640     3175     3768 
    4522     5359     6187     6941     7536     7857     7902     7671 
    7163     6601     6256     6194     6405     6891     7532     8265 
    9107     9895    10524    11032    11482    11895    12085    11981 
   11701    11283    10819    10378     9950     9595     9245     8613 
    7506     5787     3362      453    -2766    -6266    -9760   -13033 
  -16026   -18612   -20790   -22637   -24108   -25018   -25215   -24733 
  -23618   -21989   -20117   -18175   -16325   -14815   -13654   -12661 
  -11801   -11029   -10248    -9561    -9121    -8912    -8880    -8962 
   -8974    -8833    -8646    -8461    -8342    -8334    -8318    -8266 
   -8307    -8530    -9016    -9823   -10885   -12100   -13361   -14519 
  -15506   -16210   -16428   -16185   -15643   -14859   -13877   -12707 
  -11311    -9704    -7965    -6221    -4506    -2780    -1220       -4 
    1035     2009     2888     3805     4868     6090     7334     8322 
    8959     9307     9420     9326     9060     8741     8460     8179 
    7883     7690     7630     7509     7140     6406     5254     3708 
    1784     -497    -3100    -5934    -8910   -12009   -15192   -18476 
  -21829   -24999   -27798   -30177   -32097   -33647   -34896   -35807 
  -36441   -36903   -37217   -37350   -37321   -37156   -36889   -36720 
  -36780   -37099   -37658   -38192   -38400   -38033   -36961   -35278 
  -32985   -30199   -27314   -24593   -22100   -19684   -17230   -14860 
  -12497    -9953    -7279    -4523    -1725     1004     3673     6379 
    9254    12364    15641    18991    22186    24991    27380    29344 
   30887    32076    32974    33724    34357    34697    34726    34416 
   33615    32418    30974    29311    27550    25847    24259    22701 
   21121    19788    18864    18056    17233    16518    15637    14338 
   12833    11131     9299     7746     6422     5299     4555     3951 
    3418     2800     1840      915      -62    -1514    -3169    -5004 
   -7132    -9347   -11661   -13863   -15555   -16710   -17416   -17821 
  -18197   -18697   -19424   -20511   -21765   -22879   -23867   -24738 
  -25353   -25692   -25984   -26496   -27092   -27690   -28564   -29645 
  -30733   -31839   -32833   -33607   -34252   -34867   -35551   -36366 
  -37298   -38331   -39402   -40312   -41030   -41752   -42330   -42575 
  -42694   -42565   -41981   -41160   -40109   -38899   -37824   -36885 
  -36213   -35913   -35767   -35743   -35721   -35432   -34846   -33983 
  -33009   -32203   -31612   -31259   -31176   -31281   -31617   -32131 
  -32634   -33157   -33694   -34245   -34973   -35794   -36617   -37441 
  -38041   -38366   -38491   -38241   -37588   -36687   -35603   -34416 
  -33183   -31968   -30889   -30006   -29377   -29029   -28938   -29076 
  -29369   -29766   -30219   -30688   -31152   -31655   -32243   -32893 
  -33641   -34483   -35264   -35765   -35790   -35137   -33757   -31777 
  -29201   -26298   -23398   -20481   -17741   -15302   -13185   -11607 
  -10367    -9309    -8535    -7840    -7217    -6790    -6395    -5991 
   -5634    -5306    -5134    -5231    -5584    -6204    -7068    -8079 
   -9242   -10563   -11767   -12607   -13076   -13217   -13078   -12619 
  -11858   -11087   -10460    -9944    -9598    -9399    -9200    -8895 
   -8534    -8116    -7455    -6544    -5447    -4097    -2647    -1291 
      49     1375     2564     3610     4484     5035     5191     4987 
    4474     3793     3077     2356     1755     1185      304     -874 
   -2151    -3388    -4425    -5185    -5565    -5560    -5188    -4514 
   -3870    -3361    -2965    -2716    -2418    -2072    -1796    -1384 
    -824     -480     -433     -651    -1308    -2238    -3131    -3976 
   -4748    -5447    -6201    -6918    -7448    -7945    -8323    -8318 
   -8052    -7546    -6669    -5597    -4554    -3589    -2790    -2293 
   -2044    -2054    -2534    -3578    -5016    -6602    -8416   -10523 
  -12774   -15176   -17539   -19760   -21990   -24105   -26165   -28241 
  -30212   -32295   -34477   -36524   -38448   -40033   -41170   -41994 
  -42340   -42231   -41938   -41387   -40507   -39383   -37924   -36196 
  -34482   -32817   -31214   -29908   -28996   -28305   -27600   -26855 
  -26065   -25088   -24018   -22939   -21750   -20624   -19601   -18444 
  -17320   -16359   -15372   -14581   -14242   -14126   -14154   -14433 
  -14885   -15303   -15448   -15239   -14710   -13929   -13058   -12156 
  -11317   -10757   -10466   -10331   -10376   -10512   -10587   -10629 
  -10585   -10349    -9965    -9388    -8576    -7678    -6873    -6256 
   -5881    -5833    -6034    -6414    -7013    -7623    -8123    -8482 
   -8592    -8601    -8569    -8588    -8808    -9124    -9691   -10504 
  -11294   -12097   -12811   -13415   -13998   -14391   -14632   -14823 
  -15019   -15431   -16137   -17135   -18494   -20178   -22038   -23972 
  -25878   -27416   -28300   -28514   -28018   -26933   -25529   -23847 
  -21974   -20019   -17961   -15813   -13511   -11036    -8555    -6244 
   -4275    -2749    -1680    -1158    -1216    -1644    -2232    -2945 
   -3749    -4625    -5512    -6252    -6915    -7636    -8333    -8970 
   -9507    -9885   -10172   -10336   -10366   -10424   -10526   -10637 
  -10812   -11059   -11495   -12216   -13128   -14236   -15587   -17269 
  -19347   -21608   -23902   -26136   -28189   -30125   -31894   -33419 
  -34693   -35709   -36638   -37541   -38353   -39134   -39881   -40490 
  -40934   -41426   -42163   -43069   -44104   -45204   -46239   -47173 
  -47781   -47765   -46991   -45303   -42769   -39715   -36401   -33013 
  -29763   -26889   -24344   -21810   -19207   -16637   -14163   -11897 
   -9994    -8543    -7503    -6991    -7187    -7894    -8908   -10185 
  -11618   -13204   -14865   -16511   -18079   -19421   -20656   -21745 
  -22432   -22918   -23318   -23435   -23388   -23366   -23330   -23217 
  -22936   -22462   -21904   -21256   -20455   -19606   -18824   -18148 
  -17578   -17061   -16620   -16264   -15940   -15791   -15913   -16233 
  -16870   -17881   -19143   -20585   -22042   -23249   -23944   -23938 
  -23368   -22515   -21529   -20687   -20191   -19951   -19960   -20067 
  -20082   -20023   -19707   -19098   -18366   -17575   -16913   -16390 
  -15865   -15319   -14660   -13762   -12505   -11034    -9700    -8562 
   -7598    -6773    -5969    -5278    -4720    -4157    -3570    -2938 
   -2286    -1681    -1187     -972     -992    -1055    -1182    -1408 
   -1687    -2019    -2430    -3014    -3915    -5279    -7290    -9990 
  -13182   -16715   -20389   -23916   -27366   -30765   -33866   -36760 
  -39548   -42014   -44077   -45725   -46991   -48032   -48940   -49882 
  -50923   -51892   -52665   -52993   -52712   -51971   -50770   -49169 
  -47430   -45668   -43954   -42217   -40309   -38239   -35845   -32901 
  -29471   -25699   -21633   -17360   -13055    -8894    -5179    -2385 
    -648      283      561      365      -89     -583     -890    -1127 
   -1354    -1498    -1886    -2486    -3026    -3779    -4818    -6028 
   -7483    -9037   -10640   -12362   -14097   -15887   -17704   -19355 
  -20890   -22468   -24141   -25968   -27995   -30100   -32193   -34341 
  -36456   -38396   -40102   -41444   -42255   -42371   -41776   -40532 
  -38605   -36186   -33565   -30841   -28290   -26184   -24501   -23410 
  -23062   -23193   -23592   -24088   -24398   -24460   -24252   -23693 
  -22952   -22255   -21648   -21158   -20683   -20086   -19386   -18493 
