Origin Time       2011/03/11 14:46:00
Lat.              38.103
Long.             142.860
Depth. (km)       24
Mag.              9.0
Station Code      NIG011
Station Lat.      37.8012
Station Long.     139.1457
Station Height(m) 8
Record Time       2011/03/11 14:47:25
Sampling Freq(Hz) 100Hz
Duration Time(s)  300
Dir.              E-W
Scale Factor      3920(gal)/6182761
Max. Acc. (gal)   46.642
Last Correction   2011/03/11 14:47:10
Memo.             
[...]
  -31853   -30893   -29574   -27883   -25897   -23769   -21559   -19272 
  -17030   -15001   -13055   -10802    -8035    -4703     -794     3423 
    7463    10793    12932    13735    13400    12370    11189    10205 
    9643     9621     9971    10319    10217     9379     7762     5290 
    1914    -2128    -6476   -10831   -14862   -18266   -20842   -22501 
  -23399   -23730   -23479   -22648   -21343   -19778   -18370   -17410 
  -16775   -16216   -15604   -14909   -14217   -13647   -13173   -12823 
  -12820   -13191   -13902   -15179   -17142   -19735   -22964   -26759 
  -31096   -36058   -41418   -46811   -52008   -56642   -60340   -62892 
  -64184   -64448   -64063   -63211   -62040   -60608   -58951   -57200 
  -55363   -53441   -51569   -49789   -48035   -46218   -44321   -42503 
  -40922   -39639   -38588   -37487   -36032   -34104   -31779   -29327 
  -27104   -25341   -24059   -23179   -22497   -21664   -20475   -18918 
  -17071   -15267   -14000   -13658   -14455   -16340   -19043   -22245 
  -25501   -28277   -30207   -31188   -31301   -30771   -29834   -28641 
  -27416   -26443   -25839   -25539   -25569   -26233   -27803   -30198 
  -33040   -35891   -38456   -40409   -41388   -41386   -40702   -39608 
  -38180   -36338   -34188   -32083   -30338   -29182   -28719   -28899 
  -29589   -30337   -30402   -29345   -27240   -24317   -20866   -17369 
  -14310   -11915   -10214    -9264    -9162    -9878   -11418   -13869 
  -17164   -21234   -25931   -30669   -34688   -37491   -38985   -39413 
  -39096   -38326   -37232   -35740   -33786   -31269   -28185   -24907 
  -21892   -19331   -17266   -15795   -14960   -14709   -15043   -15840 
  -16895   -18291   -20280   -23030   -26792   -31888   -38257   -45368 
  -52710   -59990   -66931   -73220   -78563   -82733   -85609   -87232 
  -87816   -87570   -86575   -84827   -82252   -78801   -74495   -69430 
  -63878   -58227   -52839   -48016   -43825   -40230   -37162   -34174 
  -30883   -27315   -23437   -19305   -15249   -11513    -8274    -5632 
   -3551    -2131    -1548    -2053    -4054    -7632   -12368   -17706 
  -23043   -27727   -31292   -33601   -34653   -34435   -32987   -30257 
  -26200   -21168   -15835   -10996    -7445    -5671    -5678    -7165 
   -9749   -13019   -16595   -20145   -23377   -26081   -28172   -29562 
  -30052   -29566   -28199   -26072   -23445   -20805   -18696   -17528 
  -17542   -18818   -21076   -23863   -26771   -29374   -31506   -33137 
  -34084   -34390   -34282   -33939   -33670   -33805   -34547   -36010 
  -38245   -41183   -44477   -47622   -50176   -51926   -52923   -53239 
  -52897   -52020   -50683   -48871   -46872   -45050   -43266   -41413 
  -39732   -38324   -37140   -36137   -35237   -34310   -33324   -32518 
  -32132   -32320   -33397   -35585   -38690   -42292   -46036   -49712 
  -53016   -55520   -57130   -57925   -57708   -56320   -54004   -51209 
  -48286   -45631   -43858   -43450   -44426   -46326   -48455   -50198 
  -51236   -51635   -51614   -51454   -51426   -51489   -51458   -51258 
  -50908   -50425   -49754   -48941   -48201   -47742   -47646   -47881 
  -48437   -49359   -50670   -52288   -54043   -55815   -57480   -58963 
  -60410   -62029   -63956   -66060   -67956   -69522   -70815   -71667 
  -71974   -71881   -71503   -70944   -70304   -69599   -68892   -68329 
  -67940   -67577   -67097   -66288   -64686   -61967   -58202   -53587 
  -48382   -42982   -37805   -33249   -29584   -26784   -24644   -22937 
  -21543   -20513   -19991   -20076   -20680   -21634   -22822   -23951 
  -24627   -24781   -24671   -24659   -25117   -26222   -27918   -29909 
  -31612   -32523   -32375   -31172   -29338   -27291   -25260   -23547 
  -22337   -21553   -21011   -20612   -20335   -19900   -18941   -17432 
  -15571   -13629   -11806   -10207    -9110    -8846    -9593   -11405 
  -14096   -17341   -20787   -24008   -26751   -28957   -30631   -32018 
  -33400   -34800   -36122   -37243   -38127   -38909   -39717   -40682 
  -41863   -43073   -44130   -44944   -45399   -45427   -45036   -44284 
  -43383   -42748   -42806   -43707   -45280   -47257   -49426   -51596 
  -53436   -54494   -54437   -53172   -50945   -48089   -44729   -41060 
  -37267   -33354   -29466   -25902   -22883   -20417   -18420   -16935 
  -16102   -15991   -16549   -17669   -19281   -21434   -24134   -27053 
  -29761   -32013   -33747   -34991   -35732   -35936   -35581   -34596 
  -32871   -30318   -26964   -22950   -18533   -14081    -9759    -5576 
   -1731     1641     4652     7390     9796    11711    12948    13400 
   13033    11832     9907     7547     5057     2620      263    -1941 
   -3792    -5324    -6790    -8245    -9470   -10222   -10480   -10383 
  -10015    -9478    -9006    -8813    -8897    -9327   -10392   -12267 
  -15003   -18570   -22668   -26858   -30741   -33894   -35933   -36685 
  -36329   -35336   -34181   -33286   -32966   -33268   -34103   -35366 
  -36872   -38418   -39885   -41224   -42393   -43414   -44245   -44690 
  -44547   -43607   -41752   -39053   -35564   -31446   -27101   -22913 
  -19184   -16105   -13685   -11912   -10843   -10514   -10885   -11886 
  -13454   -15460   -17587   -19320   -20186   -20079   -19312   -18334 
  -17481   -17002   -17069   -17664   -18707   -20159   -21920   -24002 
  -26575   -29712   -33317   -37063   -40482   -43285   -45457   -47137 
  -48423   -49333   -49865   -49867   -49166   -47697   -45394   -42324 
  -38804   -35257   -32109   -29706   -28258   -27797   -28174   -29152 
  -30329   -31213   -31502   -30932   -29111   -25840   -21396   -16392 
  -11278    -6454    -2830    -1289    -2074    -5277   -10855   -18185 
  -26150   -33660   -40142   -45423   -49472   -52510   -54816   -56562 
  -57980   -59162   -60063   -60758   -61286   -61623   -61748   -61619 
  -61210   -60442   -59255   -57761   -56191   -54767   -53458   -52010 
  -50382   -48674   -46875   -44993   -43142   -41601   -40667   -40451 
  -41042   -42493   -44606   -47002   -49322   -51295   -52617   -52998 
  -52375   -50836   -48582   -46043   -43795   -42425   -42342   -43509 
  -45548   -47944   -50062   -51357   -51579   -50693   -48782   -46154 
  -43343   -40799   -38783   -37542   -37342   -38278   -40145   -42497 
  -44766   -46503   -47486   -47589   -46860   -45617   -44338   -43548 
  -43709   -45040   -47393   -50393   -53576   -56368   -58288   -59123 
  -58930   -58057   -56959   -56017   -55529   -55707   -56699   -58577 
  -61207   -64317   -67679   -71108   -74325   -76945   -78698   -79565 
  -79712   -79344   -78614   -77682   -76729   -75821   -74793   -73428 
  -71549   -68961   -65579   -61404   -56442   -50762   -44452   -37609 
  -30381   -22955   -15541    -8467    -2162     2985     6520     7992 
    7289     4584      350    -4500    -9028   -12699   -15195   -16291 
  -16116   -15004   -13197   -10955    -8512    -5948    -3375    -1019 
     869     2094     2485     2007      848     -778    -2699    -4755 
   -6853    -9049   -11465   -14082   -16867   -19956   -23584   -27898 
  -32709   -37454   -41467   -44159   -45092   -44072   -41257   -37185 
  -32624   -28290   -24767   -22614   -22191   -23434   -26028   -29590 
  -33658   -37703   -41309   -44250   -46530   -48458   -50298   -52093 
  -53858   -55421   -56345   -56139   -54473   -51355   -47125   -42342 
  -37706   -33832   -30961   -29050   -27971   -27406   -27052   -26854 
  -26849   -27088   -27591   -28327   -29200   -29905   -30051   -29472 
  -28297   -26818   -25275   -23723   -22005   -19914   -17458   -14876 
  -12447   -10522    -9590   -10048   -12002   -15180   -19109   -23410 
  -27721   -31478   -34068   -35131   -34670   -32981   -30474   -27472 
  -24284   -21312   -18916   -17441   -17258   -18567   -21234   -24806 
  -28892   -33218   -37305   -40718   -43283   -44893   -45500   -45037 
  -43329   -40312   -36126   -31079   -25479   -19557   -13699    -8419 
   -4160    -1223      371      843      534        6     -138      389 
    1399     2432     3157     3360     2811     1389     -949    -4181 
   -8063   -12073   -15621   -18422   -20419   -21366   -20859   -18759 
  -15518   -11992    -8871    -6755    -6428    -8267   -11854   -16401 
  -21011   -24765   -27245   -28688   -29283   -29050   -28181   -26819 
  -25046   -23256   -21969   -21525   -22131   -23687   -25658   -27381 
  -28408   -28567   -27944   -26658   -24634   -21855   -18512   -14992 
  -11901    -9840    -9164    -9822   -11578   -14359   -17919   -21805 
  -25697   -29267   -32187   -34205   -35073   -34851   -33987   -33022 
  -32466   -32402   -32354   -31899   -30861   -29106   -26833   -24636 
  -22920   -21734   -20962   -20235   -19203   -17874   -16364   -14777 
  -13372   -12619   -13079   -15031   -18280   -22598   -27853   -33550 
  -38925   -43334   -46396   -48163   -48853   -48492   -47162   -44945 
  -41723   -37473   -32424   -27024   -21606   -16166   -10825    -5997 
   -2160      265     1075      244    -2246    -6257   -11231   -16312 
  -20616   -23312   -23811   -21929   -17873   -12452    -6928    -2377 
     617     1982     2132     1561      356    -1553    -3806    -5904 
   -7656    -8720    -8541    -6960    -4416    -1666      541     1628 
    1197     -890    -4422    -8887   -13507   -17319   -19524   -19716 
  -18016   -15190   -12098    -9083    -6296    -4086    -2700    -1998 
   -1688    -1583    -1596    -1724    -2000    -2386    -2960    -4004 
   -5873    -8925   -13299   -18765   -24839   -30902   -36362   -40848 
  -44195   -46343   -47387   -47696   -47714   -47541   -46968   -46003 
  -45029   -44273   -43663   -43261   -43115   -42988   -42672   -42068 
  -41049   -39437   -36934   -33327   -28786   -23857   -19356   -15929 
  -13956   -14047   -16638   -21334   -27462   -34414   -41426   -47746 
  -52724   -55834   -56949   -56103   -53359   -49150   -44072   -38709 
  -33666   -29215   -25425   -22368   -20043   -18539   -18041   -18638 
  -20147   -21996   -23479   -24206   -24122   -23342   -22236   -21439 
  -21560   -22985   -25978   -30617   -36573   -43349   -50424   -57048 
  -62582   -66894   -69998   -71594   -71319   -69240   -65747   -61150 
  -55625   -49598   -43878   -39235   -36216   -35237   -36278   -38851 
  -42410   -46610   -51417   -56915   -63036   -69398   -75338   -80271 
  -83760   -85545   -85687   -84484   -82367   -79729   -76832   -73871 
  -71164   -69105   -67720   -66648   -65442   -63615   -60696   -56342 
  -50609   -44018   -37044   -29778   -22221   -14731    -7881    -2026 
    2609     5743     7224     7088     5559     3071       43    -3207 
   -6477    -9931   -13990   -18728   -23703   -28242   -31580   -33082 
  -32431   -29496   -24408   -17823   -10831    -4318     1418     6182 
    9744    12115    13355    13524    12821    11441     9520     7208 
    4773     2680     1225      280     -510    -1563    -3177    -5463 
   -8337   -11473   -14628   -17729   -20627   -23365   -26211   -29201 
  -32088   -34493   -36050   -36533   -35744   -33552   -30226   -26226 
  -21703   -16815   -11918    -7245    -3137     -192     1147      659 
   -1791    -6168   -12111   -18874   -25629   -31721   -36524   -39526 
  -40529   -39678   -37551   -35030   -32947   -31793   -31727   -32740 
  -34638   -37175   -40103   -43170   -46319   -49599   -52926   -56122 
  -59106   -62034   -65135   -68308   -70947   -72193   -71335   -68225 
  -63342   -57290   -50648   -43975   -37419   -31064   -25304   -20376 
  -16416   -13733   -12544   -12814   -14148   -15956   -17853   -19530 
  -20785   -21765   -22643   -23516   -24485   -25398   -26164   -27033 
  -28068   -29040   -29947   -31101   -32735   -34668   -36461   -37775 
  -38404   -38280   -37547   -36377   -34873   -33085   -30980   -28731 
  -26823   -25651   -25480   -26645   -29473   -34079   -40326   -47842 
  -56028   -64281   -71955   -78148   -82117   -83551   -82416   -79003 
  -73785   -67136   -59338   -50835   -42359   -34585   -27926   -22718 
  -19162   -17177   -16477   -16678   -17476   -18646   -19950   -21124 
  -21801   -21620   -20383   -18064   -14903   -11465    -8515    -6730 
   -6443    -7653   -10206   -13765   -17543   -20533   -22190   -22380 
  -21060   -18497   -15263   -11992    -9325    -7791    -7689    -8956 
  -11219   -13962   -16489   -18284   -19401   -20214   -21207   -22999 
  -26098   -30653   -36551   -43464   -50936   -58658   -66221   -72925 
  -78258   -81989   -84031   -84419   -83277   -81023   -78233   -75220 
  -72137   -68959   -65305   -60812   -55489   -49785   -44368   -39688 
  -35858   -32719   -29926   -27196   -24375   -21459   -18697   -16425 
  -14761   -13739   -13585   -14498   -16398   -18755   -20706   -21741 
  -21829   -20887   -18789   -15722   -12041    -8157    -4552    -1613 
     348     1050      310    -1892    -5145    -8724   -12029   -14427 
  -15238   -14198   -11495    -7645    -3403      546     3727     5796 
    6542     5745     3007    -2045    -9460   -18824   -29221   -39494 
  -48691   -56334   -62326   -66747   -69924   -72335   -74239   -75673 
  -76622   -76981   -76632   -75640   -74066   -71759   -68564   -64463 
  -59556   -54296   -49457   -45488   -42473   -40660   -40209   -40794 
  -41960   -43391   -44744   -45719   -46181   -46145   -45961   -46276 
  -47623   -50147   -53543   -57232   -60824   -64232   -67470   -70557 
  -73269   -75109   -75478   -73760   -69683   -63444   -55355   -45841 
  -35540   -24992   -14587    -4789     3892    11159    17252    22627 
   27434    31815    35932    39546    42194    43550    43539    42278 
   39792    35763    29778    21806    12188     1507    -9468   -20097 
  -29953   -38727   -46266   -52435   -57139   -60436   -62201   -62132 
  -60262   -56942   -52471   -47061   -41069   -35048   -29457   -24542 
  -20596   -17871   -16392   -16310   -17783   -20655   -24862   -30354 
  -36791   -43702   -50377   -56091   -60426   -63263   -64806   -65345 
  -65251   -65099   -65129   -65110   -64997   -65028   -65234   -65480 
  -65759   -66041   -66174   -65971   -65045   -63055   -60042   -56202 
  -51940   -47912   -44470   -41633   -39340   -37198   -34641   -31512 
  -28010   -24592   -21938   -20338   -19629   -19606   -19823   -19764 
  -19212   -17985   -15940   -13359   -10857    -9009    -8224    -8918 
  -11485   -15950   -21849   -28114   -33457   -37370   -39824   -40587 
  -39500   -36215   -30283   -21953   -11913    -1026     9256    17376 
   22655    25132    24694    21302    15833     9592     3436    -2088 
   -6740   -10735   -14280   -17444   -20435   -23322   -25808   -27750 
  -29439   -31373   -33953   -37019   -40030   -42692   -45007   -47164 
  -49595   -52874   -57309   -62750   -68733   -74440   -78905   -81402 
  -81401   -78582   -73024   -65127   -55328   -44134   -32488   -21643 
  -12660    -6233    -2595    -1726    -3835    -8957   -16195   -24073 
  -31441   -37454   -41173   -42248   -41143   -38353   -34445   -29894 
  -24906   -19998   -15663   -12275   -10360    -9991   -10867   -12656 
  -14836   -16946   -18768   -20055   -20484   -19791   -17634   -13552 
   -7788    -1763     3027     6162     7800     7843     6344     3670 
     141    -3729    -7436   -10657   -12910   -14011   -14266   -14100 
  -14050   -14617   -16225   -19157   -23262   -28124   -33320   -38433 
  -43002   -46527   -48744   -49674   -49504   -48749   -48020   -47495 
  -47186   -47345   -48096   -49145   -49995   -50020   -48522   -45077 
  -39714   -33021   -25958   -19389   -14263   -11528   -11393   -13398 
  -16904   -21305   -26203   -31150   -35362   -38176   -39470   -39425 
  -38164   -35853   -33055   -30512   -28665   -27614   -27214   -27308 
  -27760   -28163   -28250   -28169   -27971   -27596   -27011   -26027 
  -24303   -21420   -17146   -11796    -6145    -1001     2987     5376 
    5931     4439      767    -4925   -12147   -20070   -27808   -34835 
  -40955   -46090   -50271   -53767   -56927   -59933   -62961   -66147 
  -69351   -72325   -74866   -76741   -77749   -77783   -76909   -75318 
  -73195   -70856   -68596   -66396   -64096   -61419   -57937   -53418 
  -47834   -41065   -33172   -24642   -16050    -7888     -555     5799 
   11063    14790    16444    15747    12711     7806     1730    -5072 
  -12189   -18989   -25148   -30824   -36114   -40987   -45390   -49135 
  -52051   -54106   -55357   -55708   -54958   -53265   -50954   -48196 
  -45239   -42363   -39754   -37467   -35154   -32195   -28104   -22635 
  -16003    -8920    -2193     3483     7500     9449     9269     7094 
    3006    -2892   -10328   -18755   -27290   -34969   -41136   -45418 
  -47471   -47197   -45028   -41702   -38048   -34997   -33307   -33297 
  -34910   -37677   -40836   -43752   -45739   -45908   -43772   -39358 
  -32857   -24762   -15793    -6730     1363     7661    11996    14369 
   14878    13933    12025     9542     6910     4614     2986     2123 
    1814     1599     1031     -250    -2388    -5215    -8448   -11902 
  -15586   -19542   -23668   -27719   -31286   -33898   -35313   -35608 
  -35049   -34081   -33139   -32287   -31396   -30346   -28939   -27085 
  -24863   -22413   -20038   -18072   -16666   -15818   -15571   -16089 
  -17413   -19492   -22266   -25513   -28965   -32265   -34818   -36022 
  -35472   -33129   -29395   -24852   -20065   -15505   -11503    -8282 
   -5932    -4498    -4139    -5002    -7218   -10977   -16140   -21944 
  -27279   -31435   -34617   -37303   -39622   -41787   -44041   -46262 
  -48356   -50323   -52068   -53753   -55649   -57689   -59736   -61793 
  -63832   -65878   -68058   -70398   -72764   -74940   -76722   -77899 
  -78090   -76832   -73751   -68521   -61081   -51959   -42245   -33162 
  -25567   -19951   -16533   -15160   -15461   -17107   -19844   -23387 
  -27298   -30958   -33848   -35833   -36980   -37345   -37091   -36521 
  -35832   -35161   -34688   -34497   -34651   -35207   -36053   -36926 
  -37471   -37382   -36511   -34734   -32058   -28786   -25165   -21177 
  -16927   -12696    -8654    -5056    -2346     -825     -703    -2176 
   -5296   -10113   -16438   -23638   -31020   -37942   -43757   -48023 
  -50678   -51968   -52170   -51495   -50146   -48225   -45688   -42520 
  -38772   -34510   -29958   -25396   -20992   -16843   -13007    -9622 
   -6955    -5388    -5257    -6658    -9496   -13333   -17377   -20857 
  -23139   -23779   -22669   -19944   -15887   -11026    -5892     -815 
    3867     7954    11327    13706    14990    15263    14589    13056 
   10616     7063     2200    -4178   -12224   -21761   -32193   -42608 
  -51895   -59122   -63922   -66406   -66905   -65840   -63712   -60957 
  -57799   -54480   -51224   -48041   -44986   -42198   -39807   -37968 
  -36636   -35519   -34425   -33342   -32230   -31122   -30159   -29344 
  -28509   -27432   -26001   -24312   -22664   -21495   -21248   -22174 
  -24124   -26634   -29069   -30740   -31249   -30555   -28824   -26451 
  -24037   -22141   -20992   -20523   -20580   -21065   -21949   -23186 
  -24848   -26982   -29314   -31481   -33196   -34232   -34609   -34645 
  -34801   -35560   -37255   -39982   -43691   -48162   -52989   -57673 
  -61651   -64507   -66143   -66557   -65745   -63813   -60906   -57185 
  -52928   -48419   -43934   -39851   -36492   -33935   -32082   -30739 
  -29713   -29053   -29009   -29843   -31685   -34294   -37062   -39329 
