Origin Time       2011/03/11 14:46:00
Lat.              38.103
Long.             142.860
Depth. (km)       24
Mag.              9.0
Station Code      NIG022
Station Lat.      37.0366
Station Long.     138.8461
Station Height(m) 182
Record Time       2011/03/11 14:47:36
Sampling Freq(Hz) 100Hz
Duration Time(s)  299
Dir.              U-D
Scale Factor      3920(gal)/6182761
Max. Acc. (gal)   11.145
Last Correction   2011/03/11 14:47:21
Memo.             
[...]
   -1195    -1303    -1001     -359     -373    -1416    -2550    -2931 
   -2380    -1416    -1150    -1983    -2885    -2872    -2158    -1389 
   -1250    -2385    -4587    -6996    -8938    -9904    -9893   -10043 
  -11234   -12855   -13874   -13655   -12127    -9813    -7579    -6460 
   -6341    -5877    -4609    -3435    -3698    -5565    -7150    -6959 
   -5580    -4441    -4368    -5074    -5904    -6225    -5417    -3952 
   -3034    -3199    -4472    -6035    -6439    -5605    -4473    -3474 
   -2972    -3193    -3657    -3582    -2593    -1647    -2251    -4300 
   -6359    -7243    -6590    -4975    -3656    -3719    -5104    -6945 
   -8415    -8752    -7739    -5998    -4811    -5356    -6924    -7452 
   -6065    -3652    -1626     -770    -1012    -1888    -2878    -3393 
   -3120    -2320    -1461    -1138    -1158     -202     1452     1974 
    1421     1188     1451     1445      833      101     -189      -63 
      74     -309    -1406    -2462    -2483    -1825    -1803    -2644 
   -3710    -5117    -6766    -7513    -6918    -5961    -6211    -8400 
  -10990   -11744   -10227    -7754    -5894    -4810    -3626    -2455 
   -1938    -1553     -329     1228     1208     -779    -2529    -2259 
    -390     1609     2790     3235     3492     4151     4995     4915 
    3485     1529      240      -90      -62      180      353     -756 
   -3336    -5710    -6329    -5108    -3314    -2647    -3711    -5670 
   -7496    -8799    -9512    -9371    -8489    -7947    -8462    -9152 
   -8561    -6387    -3594    -1622    -1614    -2641    -2457    -1106 
    -429     -868    -1452    -1640    -1293      122     2584     4764 
    5302     4918     5616     7138     7481     6217     4264     2265 
     471     -895    -1770    -2499    -3423    -4519    -5880    -7697 
   -9010    -8557    -7022    -5719    -4870    -4713    -5462    -6438 
   -6792    -6031    -4341    -2925    -2739    -3407    -3730    -2688 
    -751      493      652      467       71     -803    -1823    -2165 
   -1928    -2418    -3971    -5359    -5475    -4267    -2585    -1166 
    -374     -583    -1289    -1511    -1265    -1030     -928     -693 
       2      698      484     -508    -1071     -521      583     1494 
    2080     2316     1909      933     -200    -1220    -1883    -2063 
   -1708    -1188    -1561    -2893    -3860    -3774    -3054    -2209 
   -1760    -2148    -2891    -2849    -1758     -775    -1160    -3064 
   -5826    -8179    -8877    -8560    -8973   -10413   -11848   -12324 
  -11960   -11290    -9807    -7898    -7861   -10100   -12555   -14007 
  -14411   -13913   -12450    -9970    -8036    -8526   -10722   -12476 
  -12549   -11146    -9101    -6572    -3783    -2111    -2255    -3104 
   -3602    -3331    -1781      110       -1    -2157    -3720    -3337 
   -2177    -1576    -1641    -1799    -1865    -2195    -2873    -3478 
   -3501    -2888    -2072    -1249     -436      161      238     -361 
   -1138    -1607    -2178    -3098    -4114    -5127    -6065    -7215 
   -8730    -9828   -10112   -10184   -10421   -10748   -11203   -11486 
  -11131   -10708   -10688   -10354    -9473    -8735    -8559    -8657 
   -8475    -8260    -8465    -8262    -6825    -5010    -4244    -4651 
   -5125    -4991    -4431    -4016    -4373    -5009    -4980    -4581 
   -4306    -4198    -4276    -4221    -4055    -4342    -5025    -5495 
   -5742    -6311    -6496    -4988    -2953    -2633    -3696    -4506 
   -5077    -6174    -7262    -7206    -6015    -5133    -5588    -6170 
   -5045    -2542    -1027    -2006    -4121    -5330    -5185    -3962 
   -2370    -1638    -1990    -2444    -2511    -2690    -3088    -2837 
   -1657     -586     -421     -769     -588      544     1413      604 
   -1509    -3536    -4973    -6277    -7508    -8375    -9148    -9913 
  -10565   -11647   -13300   -15075   -16656   -17217   -16235   -14617 
  -13273   -11911   -10038    -8337    -7998    -8969   -10163   -10820 
  -10660    -9670    -8164    -6392    -4575    -3031    -1678     -615 
    -656    -1880    -3155    -3951    -4585    -5192    -6008    -7056 
   -7913    -8291    -7945    -7570    -8352    -9559    -9801    -9141 
   -8300    -7653    -6797    -5503    -4621    -4487    -4468    -4299 
   -4046    -3927    -4210    -4442    -4014    -2984    -1454      916 
    4018     6009     5133     2876     2218     3707     5300     5203 
    3453      460    -3360    -6109    -6021    -3947    -2201    -2242 
   -3552    -4232    -3323    -1640     -659    -1319    -2997    -4440 
   -4797    -3212        1     2993     4495     4648     4218     4091 
    5039     6575     6890     5444     3722     2885     2689     2559 
    2270     1610      577     -767    -2607    -4290    -4987    -5326 
   -6015    -6384    -5741    -4862    -4653    -4600    -4064    -3428 
   -3435    -4139    -4768    -4861    -4658    -4316    -3850    -3434 
   -3226    -3056    -2627    -1949    -1005      -27      286      462 
    1442     2276     1958     1038      269     -204     -457     -185 
     695     1476     1567      877     -184     -906    -1565    -3202 
   -5777    -7730    -7555    -5927    -4905    -4926    -5025    -4520 
   -3166    -1636     -796     -685    -1556    -3391    -4966    -5531 
   -5668    -6244    -7516    -8853    -9633    -9885    -9825   -10068 
  -10920   -10959    -8852    -5757    -3833    -2965    -1228     1250 
    2524     2247      996    -1248    -3929    -6178    -7864    -8971 
   -9670   -10617   -11735   -11823    -9941    -6866    -4554    -3731 
   -3291    -2091     -151     1512     1659       80    -2098    -3783 
   -4291    -3418    -2396    -2610    -3832    -4619    -3945    -2563 
   -1690    -1830    -3454    -6132    -8214    -8466    -6902    -4491 
   -2302     -993     -735     -962     -981    -1001    -1683    -3091 
   -5000    -7428    -9781   -10800   -10716   -11200   -12587   -14118 
  -15170   -14811   -13195   -11870   -11358   -10807    -9706    -8646 
   -8174    -8034    -8215    -9037   -10150   -10869   -11221   -11854 
  -12873   -13512   -13238   -12346   -11498   -11106   -10480    -8663 
   -6300    -4492    -3174    -1956     -854     -164     -214     -562 
    -391     -311    -1008    -1429    -1028     -434      125      779 
    1519     1507      -36    -2260    -4243    -5682    -6359    -6984 
   -7695    -7379    -6407    -6004    -5911    -5724    -5944    -6396 
   -6063    -4830    -3719    -3625    -5069    -7847   -10243   -11006 
  -11100   -11690   -12801   -14303   -16034   -17048   -16433   -14559 
  -12204    -9724    -7619    -6342    -5327    -3840    -2576    -1906 
    -771      635      936     -112    -2043    -3968    -4655    -4307 
   -4104    -4308    -4896    -6018    -7175    -7343    -6205    -5410 
   -6763    -9056    -9654    -8178    -6199    -4846    -4169    -3875 
   -3704    -3526    -3454    -3235    -2342    -1590    -2300    -3672 
   -4268    -4548    -5131    -5247    -4373    -3358    -3307    -4290 
   -5432    -5742    -4842    -3133    -1737    -1817    -2704    -2825 
   -2480    -2566    -2978    -3418    -3498    -3227    -3252    -3887 
   -4913    -5919    -6692    -7273    -7674    -8524   -10947   -14474 
  -16926   -17200   -16248   -15348   -14686   -14069   -14260   -15642 
  -16787   -16611   -15822   -15252   -14807   -14261   -14058   -14484 
  -14563   -13542   -11942    -9866    -7212    -4979    -3462    -1833 
    -471     -249     -782    -1738    -3631    -6103    -7312    -6439 
   -5176    -5026    -5209    -4749    -4231    -4541    -5595    -6575 
   -6994    -6902    -6164    -4769    -3169    -2186    -2352    -2504 
   -1442      -28      696      370    -1156    -2970    -3772    -3245 
   -2365    -2541    -3559    -4105    -3919    -3289    -2218     -965 
     -49      482      866     1131     1491     1641      669     -676 
    -917     -434      192     1186     1999     1777      205    -2341 
   -4752    -6828    -9320   -12054   -14170   -14888   -14460   -14762 
  -16269   -16767   -15613   -15227   -16312   -16381   -14870   -14076 
  -14511   -14106   -11731    -9144    -8108    -7640    -6866    -6628 
   -6957    -6986    -6393    -5429    -4895    -5463    -6633    -7648 
   -8536    -9243    -9110    -7605    -5442    -4387    -4718    -4994 
   -4938    -5298    -5814    -5759    -5506    -6025    -6814    -6499 
   -5454    -5115    -5399    -4992    -3831    -3137    -3161    -3228 
   -2789    -1777    -1142    -1577    -2853    -4929    -6784    -6706 
   -5306    -5158    -7488   -10158   -10770   -10640   -11519   -12257 
  -11427    -9419    -7675    -6951    -6666    -6159    -5399    -4609 
   -3820    -2780    -1838    -2139    -3665    -4642    -4034    -2766 
   -2193    -2435    -2639    -2762    -3391    -4259    -4722    -4770 
   -4988    -5685    -6344    -6379    -5891    -5429    -5134    -4563 
   -3510    -2143     -876     -441    -1197    -2564    -3319    -2834 
   -2298    -3326    -5609    -7838    -9682   -10893   -10669    -9084 
   -7054    -5666    -5828    -6786    -6827    -6033    -5632    -5440 
   -4567    -3480    -3192    -3843    -4864    -5496    -5767    -6049 
   -5691    -4531    -3739    -3822    -4067    -3750    -3279    -3623 
   -4468    -4827    -4423    -3207    -1548     -597    -1252    -3302 
   -5360    -6197    -5912    -4986    -4158    -4469    -5606    -6360 
   -5951    -4102    -1510      632     1638     1678     1149     -369 
   -2467    -3397    -3279    -3917    -5595    -7161    -8248    -9725 
  -11549   -11758    -9131    -5203    -2600    -1672     -106     2794 
    4882     4909     3802     2970     2453     1157     -734    -2165 
   -3360    -5119    -7215    -8450    -8276    -7984    -8762    -9534 
   -9080    -8074    -7345    -6870    -6560    -6544    -6662    -6238 
   -5498    -5837    -7356    -8436    -8260    -7621    -7707    -9073 
  -11121   -12778   -13444   -13184   -13003   -13940   -15637   -16501 
  -15146   -12470   -10731   -10470   -10881   -11082   -10227    -8376 
   -6689    -6205    -6961    -8330    -9659   -10542   -10837   -10629 
  -10461   -10637   -10510    -9550    -7729    -5606    -4461    -4157 
   -3419    -2341    -1177      544     2560     3694     3198     2291 
    2588     3156     2141     -440    -3481    -5939    -7168    -7321 
   -6583    -5222    -4651    -5709    -6877    -6570    -5536    -5408 
   -6232    -6762    -6639    -6834    -7593    -7953    -7502    -6576 
   -5899    -6285    -7378    -7666    -5975    -2834      -89      807 
    -529    -3104    -4804    -4386    -2625    -1236    -1475    -3335 
   -5269    -5262    -3104     -348     1598     1806      716      118 
     370      511     -120    -1793    -3480    -3996    -4047    -4569 
   -5224    -5531    -5806    -6563    -7217    -6431    -4272    -2926 
   -4154    -6890    -9123   -10591   -11676   -11597    -9253    -5453 
   -2924    -2723    -3027    -2795    -2720    -2522    -1590     -911 
   -1307    -2211    -2838    -2778    -2607    -3364    -5017    -7003 
   -8460    -8378    -7550    -7312    -7338    -7388    -7752    -8065 
   -8002    -7918    -8478    -9682   -10828   -11635   -11831   -11201 
  -10642   -10436    -9745    -8965    -8708    -8270    -7469    -7429 
   -8806   -10247   -10362   -10141   -10488   -10484    -9686    -8825 
   -8535    -8691    -8759    -8769    -8815    -8367    -7506    -6946 
   -6839    -7189    -7776    -7629    -6746    -6395    -6739    -7217 
   -8086    -9605   -11317   -12011   -10664    -7985    -5561    -4291 
   -4296    -4803    -5110    -5208    -4354    -2781    -2814    -4791 
   -6765    -7706    -7266    -5587    -3721    -2382    -1701    -1815 
   -2312    -2282    -1272      327      990     -621    -3152    -3757 
   -1838     1200     4424     6673     6433     4608     3942     5235 
    7087     7966     6889     3910      296    -2463    -3775    -3906 
   -2999    -1404     -613    -1522    -2680    -2763    -2691    -3318 
   -3843    -3653    -3441    -3679    -4050    -4861    -6329    -7352 
   -7270    -7034    -7259    -7156    -6579    -6245    -5718    -4231 
   -1685     1915     5392     6440     4914     3542     3572     3654 
    3480     3789     4758     5831     5545     3821     2630     2927 
    3838     3692     1588    -1044    -2636    -3722    -4627    -4776 
   -4748    -5696    -7690    -9427    -9827    -9321    -8626    -8466 
   -8996    -9007    -8353    -7661    -6418    -5058    -4887    -5970 
   -7548    -8212    -7096    -5362    -4193    -3812    -4412    -5550 
   -6107    -4826    -1284     2727     4950     4921     3583     2469 
    2539     3575     4527     4010     2043      111    -1160    -1887 
   -1868    -1388    -1391    -2511    -4241    -5407    -5799    -5946 
   -5822    -5680    -6393    -7828    -8934    -9476    -9987   -10529 
  -10903   -11284   -11821   -12552   -13055   -12369   -10567    -8711 
   -7316    -6220    -5055    -4093    -3855    -4024    -4757    -6524 
   -8638   -10129    -9875    -7808    -6147    -5477    -4078    -2179 
   -1334    -1586    -1692     -940     -297     -759    -1943    -3290 
   -4532    -5469    -6034    -5854    -4560    -2820    -2068    -2767 
   -3641    -3532    -2968    -2452    -1475     -622    -1163    -2375 
   -2332     -620     1358     2147     1297     -668    -2488    -2889 
   -1636      258     2001     3621     4983     6216     8216    11116 
   13018    11994     9151     7081     6229     5568     4912     4520 
    4317     4150     3955     3815     3410     2203      595     -607 
   -1085     -740     -221     -871    -2602    -4079    -4782    -4996 
   -5866    -8162   -10425   -11327   -11222   -10479    -8716    -5646 
   -2547     -862      248     1931     3577     4172     3543     2558 
    2264     2121      898     -943    -2046    -2158    -2202    -3264 
   -5204    -6377    -5852    -4656    -3689    -2617    -1462    -1156 
   -2043    -3043    -3091    -2777    -3445    -4874    -5758    -6216 
   -6958    -7288    -5806    -2132     1774     3605     3612     3281 
    3590     4085     3500     2619     2518     2109      886     -220 
    -365      638     1778     1900     1136      345      311     1106 
    1788     1633      725     -711    -2010    -2262    -1546    -1156 
   -2047    -3094    -3044    -2979    -3574    -3371    -1959    -1045 
   -1839    -3408    -3862    -2741    -1102     -118     -845    -2927 
   -3940    -2670     -637      206     -797    -2541    -3476    -3292 
   -2161     -326     1337     2348     3158     4116     5032     5165 
    3983     2214      969      725     1137     1039      -23     -840 
    -292     1235     2816     3990     4194     3157     2061     1791 
    1889     1973     1180     -748    -1930    -1823    -1432     -618 
      62     -609    -2659    -5442    -6973    -5654    -3489    -3271 
   -5074    -7076    -7531    -6272    -4346    -2814    -2680    -4268 
   -6698    -9111   -10939   -11190    -9991    -9267    -9622    -9708 
   -9023    -8342    -8222    -8033    -6977    -5985    -6040    -6099 
   -5289    -4186    -3397    -3569    -5007    -6624    -7452    -7893 
   -8405    -8655    -8408    -8512    -9891   -11385   -11045    -9218 
   -7233    -5285    -4028    -4470    -5734    -6018    -4943    -3775 
   -3729    -4415    -4862    -5335    -6217    -6463    -5605    -4654 
   -4034    -3746    -3664    -2704     -854      -24     -997    -2103 
   -1843    -1119    -1312    -2095    -2912    -3691    -3786    -2756 
   -1356     -746    -1247    -2014    -2338    -2871    -3955    -4253 
   -3144    -2197    -3003    -5106    -6968    -7899    -7989    -7537 
   -7167    -7517    -8448    -9096    -8650    -6841    -4456    -2601 
   -1304     -388     -447    -1592    -2975    -3943    -4054    -2957 
   -1211       17      173       42      889     2682     4102     4264 
    3793     3489     3106     2738     2875     2983     2292      958 
    -234    -1026    -1674    -1611     -541      652     1874     3452 
    4540     4717     4756     5131     6189     7992     8843     7270 
    4563     2848     2587     2696     2236     1315     -314    -2788 
   -4370    -3907    -2726    -2262    -2715    -3290    -3234    -3487 
   -5130    -7085    -7867    -7847    -8371    -9432    -9664    -8779 
   -7676    -6935    -6561    -6067    -5649    -5948    -6150    -5441 
   -4377    -3858    -4715    -6634    -8157    -8650    -8423    -7875 
   -7464    -7409    -7489    -7243    -6471    -5676    -5013    -4126 
   -3794    -4695    -6054    -7158    -7401    -6471    -5081    -4057 
   -3899    -4404    -4933    -5037    -4291    -3077    -2255    -2468 
   -4131    -5849    -5839    -4782    -4055    -3979    -4352    -4526 
   -3905    -2553     -895      359      670      378     -230    -1398 
   -2643    -3146    -3446    -4454    -5401    -5037    -3646    -2453 
   -1821    -1098     -334       25      233      -20    -1115    -2346 
   -3409    -4194    -4066    -3438    -3160    -3257    -3754    -4566 
   -5480    -6571    -7395    -7554    -7517    -7385    -6783    -5776 
   -4582    -3452    -2505    -1697    -1229    -1060     -837     -648 
   -1069    -2187    -3126    -3023    -2062    -1702    -2500    -2553 
   -1270     -943    -2354    -3487    -3289    -3189    -3899    -3950 
   -2555     -648      522      269     -858    -1603    -1586    -1484 
   -1398     -714     -410    -1401    -1521      866     4139     6257 
    6606     5985     5472     5075     4543     3951     3365     2969 
    2468     1560      773      220     -431    -1212    -1704    -1085 
     -25      -61     -969    -1790    -2253    -2387    -2149    -1674 
   -1472    -1848    -2514    -2580    -1614     -642     -665    -1141 
    -897      104      868      901      287     -648     -993     -412 
     305      554     -466    -2727    -3991    -3742    -4065    -5538 
   -7165    -7914    -7190    -5338    -3383    -2772    -4159    -6271 
   -7405    -7336    -6909    -6540    -6228    -6442    -7611    -8873 
   -8791    -7573    -6784    -6855    -6954    -6800    -6676    -6581 
   -6561    -6861    -7339    -7403    -6996    -6798    -7398    -9076 
  -11265   -12665   -12914   -12868   -12991   -12802   -12251   -11642 
  -10354    -8104    -5636    -3139    -1117    -1290    -3515    -5626 
   -6881    -7505    -8075    -9743   -11579   -11791   -10435    -7934 
   -4951    -2048      808     2495     2340     1658     1395     1075 
      -4    -1643    -3074    -4034    -4834    -5755    -6444    -6205 
   -5150    -4028    -3182    -2539    -2354    -3315    -4938    -5204 
   -3481    -1700    -1713    -3009    -3879    -3953    -3671    -3109 
   -2780    -2704    -2224    -1677    -1403    -1394    -2015    -2718 
   -2699    -2425    -2835    -4412    -6435    -7157    -6109    -4821 
   -4313    -4135    -4421    -5644    -6647    -6323    -5496    -5174 
   -5425    -5950    -6399    -6777    -7199    -7631    -8432    -9682 
  -10497   -10245    -9249    -8186    -7517    -6944    -6029    -5030 
   -3992    -2716    -1566    -1091    -1363    -1708    -1534    -1104 
   -1200    -2535    -4529    -5864    -6734    -7824    -8624    -8506 
   -7483    -6319    -5983    -6210    -6302    -6266    -6096    -5885 
