Origin Time       2011/03/11 14:46:00
Lat.              38.103
Long.             142.860
Depth. (km)       24
Mag.              9.0
Station Code      NIG012
Station Lat.      37.6863
Station Long.     139.4771
Station Height(m) 70
Record Time       2011/03/11 14:47:20
Sampling Freq(Hz) 100Hz
Duration Time(s)  300
Dir.              U-D
Scale Factor      3920(gal)/6182761
Max. Acc. (gal)   36.686
Last Correction   2011/03/11 14:47:05
Memo.             
[...]
  -21959   -20630   -19561   -19400   -19268   -18279   -16750   -14561 
  -11763    -9815    -9007    -8554    -9195   -11505   -14623   -18073 
  -21439   -23603   -24694   -26204   -27824   -27992   -27086   -25316 
  -21336   -16136   -12256   -10059    -8998    -8564    -7769    -7049 
   -8100   -10991   -14192   -16449   -17100   -16219   -14766   -13663 
  -13470   -14795   -17258   -18977   -18862   -17636   -15962   -13863 
  -11911   -11245   -11784   -11815   -10488    -8527    -6632    -5567 
   -6019    -7468    -9209   -11594   -15304   -20216   -24671   -26907 
  -27325   -26853   -25328   -23571   -22885   -22482   -20932   -18427 
  -15934   -13801   -12300   -11814   -11138    -9165    -7575    -6698 
   -4521    -2397    -2717    -4256    -5880    -7718    -8896    -9138 
   -8852    -7554    -5223    -3044    -2061    -2264    -2868    -3546 
   -4567    -5764    -7214    -9688   -13089   -16606   -19665   -21176 
  -20278   -18092   -16940   -17617   -18346   -17660   -16492   -15874 
  -15743   -16277   -17111   -16736   -14542   -11485    -8823    -7308 
   -6950    -7626    -9417   -12147   -15483   -18630   -20302   -20305 
  -19896   -20370   -21793   -23001   -23323   -22967   -21377   -18406 
  -16070   -15400   -14663   -12801   -10181    -6970    -4207    -3024 
   -2352     -827     1067     2055     1196    -1498    -4764    -6810 
   -6303    -2939     2225     6785     8905     8761     6629     2830 
    -538    -2254    -3476    -4218    -3506    -2588    -2871    -3457 
   -3774    -4399    -5010    -5127    -5060    -4965    -4972    -5316 
   -5564    -5649    -6594    -8488   -10406   -12272   -14177   -15794 
  -16896   -17007   -16050   -14727   -13612   -13548   -15431   -18474 
  -20647   -21040   -20636   -20430   -19740   -18250   -17797   -19077 
  -20193   -20297   -20089   -19831   -20065   -21271   -22491   -22713 
  -21842   -20350   -19474   -19483   -18734   -16720   -14711   -13411 
  -13151   -14001   -15163   -16204   -17089   -17283   -16121   -13272 
   -9627    -6949    -5766    -5367    -5479    -6846    -9756   -12691 
  -14778   -16908   -18338   -17333   -14631   -12089   -10838   -11870 
  -15226   -19055   -21213   -21350   -20469   -19131   -17593   -16494 
  -15724   -14648   -13876   -14226   -15570   -17909   -20451   -21748 
  -22665   -24587   -26569   -28189   -30073   -31249   -31115   -30584 
  -29358   -26764   -23484   -19968   -16500   -13952   -12342   -10716 
   -8363    -5021    -1149     2107     4104     4951     5067     5301 
    5849     5816     5052     3934     2410      932     -519    -3092 
   -6702   -10185   -13255   -15560   -16422   -16816   -18285   -20841 
  -24627   -30182   -35908   -39311   -40203   -39295   -35382   -27825 
  -19183   -12309    -8502    -7902    -8867    -9862   -11265   -13088 
  -13608   -11431    -7304    -3018     -109      353     -834    -1793 
   -2386    -3421    -5415    -8963   -13902   -19651   -26117   -32739 
  -38403   -41877   -41862   -38692   -34389   -29809   -25069   -21774 
  -21249   -22610   -24146   -25030   -25758   -26842   -27409   -26562 
  -24646   -22141   -19632   -18191   -17974   -18394   -19783   -22473 
  -25489   -27834   -29187   -29294   -28445   -27536   -27313   -28067 
  -29216   -29779   -29421   -28238   -26735   -26175   -27516   -30078 
  -32388   -34360   -36351   -36852   -35107   -33089   -31779   -30437 
  -29396   -29168   -29594   -30981   -32742   -33504   -33815   -34506 
  -34341   -32665   -30480   -27923   -24547   -21023   -18145   -15989 
  -14608   -14396   -15387   -16251   -15796   -14684   -13621   -12748 
  -12994   -14744   -16895   -18270   -18101   -16241   -13711   -11506 
   -8958    -4790      268     3491     3347      955    -2044    -4471 
   -5220    -5056    -5848    -7135    -8235   -10192   -12322   -13150 
  -13752   -14998   -15402   -13881   -11464    -9928    -9753   -10187 
  -11011   -12306   -13453   -13777   -13039   -11928   -11562   -11673 
  -11722   -12393   -13860   -15491   -17143   -18457   -18533   -17573 
  -17009   -17480   -18514   -19734   -20519   -20409   -20370   -21084 
  -21501   -20634   -18643   -16430   -15184   -15130   -15553   -16497 
  -18639   -22473   -27734   -32235   -33924   -33647   -32531   -30124 
  -27409   -26669   -27736   -28755   -29058   -28517   -26690   -23327 
  -18709   -13844    -9387    -5134    -1149     2507     5485     6692 
    6830     7684     8413     7172     3815     -911    -6109   -11061 
  -15286   -18080   -18855   -18046   -17413   -18296   -20033   -21577 
  -22835   -23773   -24117   -23874   -23218   -22278   -21358   -20454 
  -18841   -16377   -13925   -11960   -10911   -11104   -11021    -9619 
   -8558    -8952   -10466   -12463   -13045   -11469    -9890    -9686 
  -10591   -12550   -14916   -16119   -15458   -13936   -12731   -11974 
  -11724   -12070   -12414   -12458   -12524   -12404   -12134   -12781 
  -13659   -12265    -9062    -6921    -6281    -6011    -6434    -7965 
   -9569   -10634   -11745   -12813   -13483   -14710   -16845   -18252 
  -18022   -16768   -14489   -11873   -10623   -10269    -9812    -9937 
  -10688   -11366   -11540   -10968    -9796    -7594    -4413    -1872 
    -349      934     1486      681    -1077    -2923    -4047    -4017 
   -2976    -2113    -2672    -4105    -5431    -6859    -8251    -8823 
   -8544    -7514    -5725    -4249    -4358    -6038    -8386   -10183 
  -11000   -11959   -13071   -12513   -10778   -10438   -11294   -11668 
  -12446   -14587   -16913   -18737   -20096   -20628   -20577   -20726 
  -21439   -22283   -22484   -22167   -22213   -23480   -26004   -27941 
  -28094   -27908   -28042   -27864   -28072   -28959   -29258   -28347 
  -26748   -24852   -22074   -17970   -13646    -9982    -6923    -5072 
   -4334    -3384    -2171    -1554    -1536    -1796    -2574    -4583 
   -8001   -11972   -15439   -17352   -16736   -14220   -12009   -11221 
  -11121   -11038   -10726    -9654    -8294    -8507   -10844   -13680 
  -15798   -17157   -17499   -16570   -14621   -11748    -7909    -3449 
     871     4355     6514     6925     6450     6861     7791     7092 
    3544    -2060    -7026    -9982   -12287   -14009   -14126   -13842 
  -14706   -17049   -21435   -27908   -34688   -39605   -41930   -41876 
  -39332   -34883   -30770   -28674   -28272   -28481   -28356   -27588 
  -26637   -25853   -25140   -23953   -21525   -17870   -13509    -8471 
   -2852     2584     6613     7678     5022      350    -3420    -5134 
   -5174    -3857    -2369    -2641    -4836    -7208    -8398    -8287 
   -7000    -4741    -3159    -4003    -6177    -8170   -10533   -12978 
  -14174   -13549   -10441    -5507     -617     4388     9040    10530 
    8789     6167     3331      322    -2383    -4314    -5432    -7557 
  -11604   -14941   -16177   -17164   -19368   -22740   -25854   -26758 
  -25183   -22523   -20359   -19638   -20617   -23029   -25651   -26930 
  -26352   -24207   -20721   -16045   -10900    -6626    -4049    -3397 
   -4977    -8168   -11348   -13892   -16103   -17830   -19156   -20701 
  -22617   -25145   -28817   -32810   -35468   -36639   -37395   -38379 
  -40061   -43041   -46253   -47092   -44832   -40858   -36251   -32134 
  -29836   -29389   -29070   -26691   -22531   -18876   -16062   -13375 
  -11487   -10575   -10182   -11111   -13772   -16478   -17674   -17653 
  -17109   -16357   -15730   -15113   -14482   -14763   -16512   -19260 
  -22061   -23277   -21255   -15852    -9424    -5740    -6421   -10480 
  -16514   -22542   -26481   -27551   -26262   -23742   -20011   -14761 
   -9021    -3210     1829     3862     3067      352    -4871   -10733 
  -14112   -14742   -14063   -13582   -13954   -14805   -15836   -15855 
  -13117    -8114    -2896      494      550    -1360    -2281    -2162 
   -2681    -4046    -5669    -7103    -8158    -9213   -11154   -14610 
  -18527   -20284   -18602   -15217   -11926    -8978    -7773    -8688 
   -8627    -7471    -7977    -8689    -8066    -7951    -8590   -10123 
  -13754   -17179   -17363   -14562    -9399    -3167      628     1126 
    1668     3826     5410     4930     3469     1890     -771    -5112 
   -9263   -10361    -7180    -1107     4312     5552     2422    -1230 
   -2152    -2005    -3678    -6806   -10549   -15091   -19984   -25608 
  -31929   -35729   -35192   -33126   -32369   -33513   -36982   -42454 
  -46621   -45235   -38024   -29547   -24516   -22810   -20480   -15806 
  -10341    -4737      -83      915        1     1571     3907     3141 
     268    -2993    -6282    -8057    -7476    -5848    -5551    -8242 
  -11502   -11201    -7756    -3889     -324     1961     1670       15 
   -1016     -923      493     2037     -560    -8766   -17560   -23114 
  -26322   -27741   -27331   -25565   -21837   -17106   -13823   -11245 
   -8665    -7909    -8234    -8397    -9158    -7962    -2576     2955 
    6195     9650    12162    10190     5501     1232    -2302    -3663 
   -1743     1249     4260     7413     8277     5331      246    -4805 
   -7619    -6843    -3227     2289     8165    10921     8359     1044 
   -8973   -17982   -23353   -25812   -25485   -21206   -14935    -9819 
   -6222    -5254   -10299   -21356   -33915   -44100   -50853   -54626 
  -56138   -55226   -50965   -44146   -37686   -33094   -30292   -29855 
  -31079   -32252   -32481   -29422   -22360   -15941   -13482   -13695 
  -15471   -18123   -19711   -18841   -15150    -8926    -1918     3529 
    6301     6000     2408    -3197    -9426   -16601   -23445   -26170 
  -24122   -20938   -19214   -19560   -22387   -25991   -27431   -26792 
  -26350   -27201   -28804   -29705   -29026   -27468   -25622   -23250 
  -20657   -18546   -16378   -13252   -10364    -8980    -8560    -9129 
  -10179   -10602   -11675   -13359   -13498   -13232   -14263   -15964 
  -18399   -20715   -21117   -21033   -22629   -25207   -28186   -32162 
  -35952   -37742   -37547   -35832   -33122   -30454   -27490   -23156 
  -19246   -19427   -23380   -26352   -26277   -25546   -25284   -24368 
  -22582   -20726   -19383   -18675   -18722   -19132   -19194   -20191 
  -22947   -25091   -26533   -30203   -35528   -39426   -41381   -42344 
  -41153   -36404   -30085   -24097   -17236    -8521      666     6344 
    5171     -855    -7975   -14225   -16932   -15074   -11568    -8673 
   -6714    -6515    -8301   -10624   -12749   -15525   -18038   -17816 
  -15418   -13012   -11289   -10971   -11974   -12840   -13257   -13079 
  -11534    -9914    -9635    -8354    -4494     -601     2392     4676 
    3759      422    -1003      -85     1975     5596     8787     8670 
    6893     5808     3701     -185    -3511    -5678    -7569    -9142 
  -10248   -10525    -9633    -8387    -8360   -11234   -16313   -18773 
  -15960   -11909   -10492   -10967   -11800   -12371   -12211   -11376 
  -10138    -8754    -7372    -4992    -1220     1833     3463     5242 
    7354     9750    12202    12488     9723     5397      538    -3624 
   -5509    -6392    -8500    -9925    -8709    -7960    -9932   -11888 
  -10834    -7232    -3759    -1181     1165      774    -3941    -9550 
  -14031   -18434   -22493   -25071   -25251   -23142   -21131   -21743 
  -25257   -29391   -31846   -33763   -36404   -37968   -37782   -35889 
  -30792   -23740   -17526   -12654   -10166   -10211    -9627    -7503 
   -6307    -6628    -7265    -8736   -11982   -14899   -15483   -16060 
  -18796   -22106   -24258   -25670   -26955   -26917   -24857   -22600 
  -21185   -20052   -19176   -18591   -18221   -18337   -19799   -23101 
  -26826   -29859   -31843   -31247   -28135   -24918   -22895   -22125 
  -22534   -23406   -23813   -23747   -23591   -23097   -21883   -19965 
  -18490   -19204   -20759   -20398   -19573   -20171   -20570   -20495 
  -21596   -24353   -28230   -30955   -30135   -26140   -20714   -15860 
  -12758   -10922   -10357   -11625   -14530   -17466   -17632   -15218 
  -13234   -12682   -14570   -19548   -23005   -21387   -19473   -22351 
  -26394   -25658   -21459   -18063   -15192   -11325    -8429    -9330 
  -13117   -14956   -11812    -6458    -2232      990     2359      124 
   -3030    -3149    -1511    -1791    -4285    -6442    -6858    -7590 
  -10968   -15035   -16740   -16031   -13495    -9981    -7473    -6057 
   -5198    -7406   -13382   -18730   -22444   -28698   -35999   -38747 
  -38097   -38088   -38430   -37405   -34719   -31707   -29192   -25410 
  -19977   -14540    -8715    -2434     2257     4494     4718     3669 
    1982    -1697    -8612   -15850   -19717   -20563   -19965   -19215 
  -21381   -26977   -31287   -31111   -27914   -23224   -17453   -12742 
  -11268   -11824   -12253   -12558   -13563   -15418   -16695   -15566 
  -13528   -12862   -12312   -11466   -11989   -12747   -13006   -15557 
  -20463   -24040   -25605   -27094   -28151   -28229   -28081   -26519 
  -23254   -21183   -20679   -19545   -18078   -17299   -16620   -16459 
  -18011   -20316   -22109   -24377   -26904   -26804   -23457   -19575 
  -17625   -18320   -20024   -20334   -19046   -16476   -12159    -7720 
   -5514    -5079    -5616    -7287    -8218    -6650    -4216    -2421 
    -831       10     -820    -2402    -3585    -4781    -6517    -7988 
   -8862    -9974   -10881   -10881   -11525   -14857   -21379   -28519 
  -31774   -30994   -29115   -24876   -16467    -7910    -3738    -2414 
    -496     2423     6735    13411    21632    30598    38731    42972 
   43548    42916    40752    36398    30898    24206    17341    13421 
   12452    13502    17125    18869    14240     7601     1932    -6590 
  -17248   -24386   -25914   -23749   -22189   -24498   -28770   -32469 
  -35669   -37363   -36635   -34757   -32716   -31556   -32574   -35359 
  -39214   -43210   -43967   -39020   -30862   -22873   -14609    -5896 
    -218      605    -1253    -4158    -8281   -12956   -15593   -14585 
  -12567   -12914   -14866   -16201   -16507   -15722   -14962   -17277 
  -23078   -28950   -31975   -32492   -33020   -33138   -30284   -27237 
  -27727   -29331   -29722   -28660   -24581   -19090   -15134   -10861 
   -4891     1076     5558     6985     6129     5942     6865     8024 
    8325     6340     3789     3958     6127     7047     6483     6041 
    5126     3554     3081     4273     7018    10528    12351    11857 
   10027     7136     4871     3695      962    -2397    -3229    -2987 
   -3794    -4856    -5872    -7731   -10396   -12314   -13607   -16994 
  -21842   -25103   -27426   -28926   -27685   -25761   -25762   -26799 
  -27944   -28244   -26870   -25473   -25381   -25551   -25934   -27894 
  -29877   -28527   -25308   -23911   -23084   -21312   -21229   -23320 
  -24891   -25351   -25607   -25942   -26031   -24554   -21574   -18395 
  -13525    -6464     -320     5369    13180    20660    24715    25074 
   21164    13692     4989    -3901   -12299   -19869   -27024   -32876 
  -36464   -38132   -37840   -36064   -35251   -36764   -38422   -37564 
  -34259   -30366   -27335   -24737   -22038   -20837   -21204   -20570 
  -18747   -17437   -16355   -13846    -9750    -5900    -3858    -5144 
   -9562   -11899    -9686    -7615    -7716    -7653    -6964    -6399 
   -6358    -6487    -5307    -3347    -3548    -6414    -8856    -8507 
   -5885    -2771     -856     -827    -1860    -2707    -2915    -2462 
    -999      331    -1504    -6582   -11317   -13806   -14810   -15319 
  -16328   -18559   -21426   -23596   -23941   -21380   -16437   -12907 
  -13058   -13607   -12461   -12344   -13873   -14743   -14132   -11621 
   -7575    -4881    -5292    -6954    -7277    -5194    -1945    -1020 
   -3842    -8503   -13922   -18101   -17171   -11670    -6252    -3025 
    -421     2070     1931    -1878    -8072   -16556   -25611   -29757 
  -26850   -21611   -17470   -12777    -8026    -5710    -3937    -1220 
   -1235    -5822   -11973   -17615   -22292   -23648   -20294   -14461 
   -8365    -3737    -2712    -4620    -6434    -6609    -6283    -7143 
   -8642   -10351   -13276   -15702   -15079   -12108    -7806    -1823 
    5470    11617    13554    11615     8162     3888      340    -1293 
   -3745    -7343    -7895    -4676     -801     1890     2716      598 
   -4575   -10385   -14938   -18811   -21853   -22825   -20294   -13762 
   -6942    -3473    -2598    -4519    -9120   -11588    -9794    -6520 
   -2871     -185     -577    -2794    -6263   -11261   -14823   -16334 
  -18273   -19471   -18082   -15267   -11447    -7007    -4651    -5767 
   -8375    -9769    -9436   -10012   -14092   -20613   -27117   -32527 
  -35202   -34074   -32265   -32775   -33243   -30871   -27690   -26255 
  -25862   -26159   -27433   -27459   -24635   -19819   -13380    -6783 
   -3156    -2626    -2959    -3936    -6356    -9620   -12494   -14653 
  -16626   -17349   -14792    -9976    -5515    -3022    -3969    -7426 
  -10172   -11515   -12284   -12403   -12750   -13844   -14627   -15502 
  -16928   -17413   -18062   -21187   -23877   -22708   -19467   -16594 
  -14749   -14329   -14760   -14797   -13474   -10956    -8684    -7625 
   -8590   -11677   -14454   -15792   -17711   -20610   -22856   -24174 
  -24705   -23379   -19295   -12353    -4104     1192     1659      989 
    1548     2096     3255     5548     5855     3431     1309     -487 
   -2965    -3916    -2444       17     2679     4021     2393    -1048 
   -3098    -1618     1751     4077     5780     7881     8842     7939 
    6668     6626     8578    11312    12039    10319     8241     5801 
    1560    -3385    -7432   -10762   -13192   -14189   -14006   -12594 
  -10264    -8518    -7989    -7825    -7070    -4990    -2710    -3303 
   -6449    -8790   -10172   -11170    -9945    -6315    -1819     1867 
    2580      994      241      738     1831     3736     4283     2734 
    2173     2295     1536     1791     2382     1640     2268     5226 
    6594     3940     -407    -4371    -9559   -16582   -23735   -30271 
  -36207   -42343   -48783   -53855   -57901   -62085   -65442   -67625 
  -68521   -66301   -60603   -54451   -50556   -48236   -45679   -42977 
  -41617   -41770   -40925   -37203   -31979   -26750   -22229   -19243 
  -16588   -13838   -12589   -10717    -6141    -2382    -1657    -1729 
   -1423    -2089    -4667    -7793    -9003    -7848    -6211    -5328 
   -4502    -3158    -2877    -5431    -9227   -11482   -13096   -16359 
  -20290   -23829   -28251   -32772   -35751   -37974   -37382   -30265 
  -20363   -14252   -11774   -10913   -13252   -18302   -21743   -21574 
  -19206   -16623   -15282   -14322   -12269   -10948   -12177   -14192 
  -14659   -12400    -8169    -5676    -6351    -6512    -4285    -1872 
       1     2326     5079     7601     8951     9678    11540    12936 
   11396     8323     4603     -517    -5297    -8593   -11242   -12379 
  -12020   -11790   -10391    -6837    -4887    -7372   -11525   -14069 
  -15480   -16863   -18373   -21299   -26280   -31610   -35787   -37775 
  -36338   -32156   -27392   -22929   -19073   -17302   -18114   -18836 
  -17109   -14526   -13219   -12565   -11434    -9694    -7837    -6594 
   -6415    -7406    -8536    -8422    -7503    -7227    -9488   -15618 
  -23290   -29208   -33145   -35087   -33579   -28808   -23843   -21587 
  -21683   -22821   -25140   -27027   -25687   -22803   -21471   -20033 
