Origin Time       2011/03/11 14:46:00
Lat.              38.103
Long.             142.860
Depth. (km)       24
Mag.              9.0
Station Code      NIG028
Station Lat.      37.4257
Station Long.     138.8856
Station Height(m) 86
Record Time       2011/03/11 14:47:33
Sampling Freq(Hz) 100Hz
Duration Time(s)  300
Dir.              U-D
Scale Factor      3920(gal)/6182761
Max. Acc. (gal)   17.652
Last Correction   2011/03/11 14:47:18
Memo.             
[...]
  -22038   -21691   -20813   -19706   -18515   -17407   -16551   -15911 
  -15495   -15434   -15568   -15428   -14683   -13562   -12762   -12635 
  -13000   -13796   -14935   -16049   -17131   -18521   -20040   -21067 
  -21265   -20707   -19660   -18550   -17875   -17950   -18629   -19336 
  -19677   -19975   -20831   -22223   -23393   -23682   -23094   -21956 
  -20538   -19120   -17854   -16523   -14967   -13623   -13144   -13758 
  -15209   -16991   -18631   -19792   -20236   -19901   -18984   -17882 
  -17264   -17936   -20175   -23487   -27162   -30460   -32403   -32261 
  -30165   -26845   -23385   -21093   -20456   -20595   -20520   -19986 
  -18852   -16803   -13886   -10664    -7943    -6409    -6438    -8089 
  -10887   -13996   -16919   -19504   -21520   -22861   -23797   -24689 
  -25639   -26520   -27188   -27570   -27543   -26937   -25835   -24498 
  -22965   -21393   -20457   -20748   -22178   -24308   -26776   -28969 
  -29991   -29611   -28581   -27700   -27391   -28024   -29823   -32615 
  -36043   -39638   -42621   -44209   -44233   -42996   -40763   -37768 
  -34399   -31139   -28566   -27230   -27121   -27481   -27474   -26815 
  -25517   -23684   -21863   -20893   -21102   -22102   -23416   -24757 
  -25813   -26296   -26302   -26326   -26764   -27673   -29018   -30707 
  -32433   -33771   -34475   -34726   -34915   -35025   -34639   -33550 
  -31839   -29487   -26375   -22525   -18286   -14322   -11297    -9449 
   -8407    -7779    -7809    -8780   -10316   -11814   -12957   -13772 
  -14515   -15324   -16046   -16371   -15777   -13755   -10477    -6666 
   -2789      888     3841     5648     6414     6272     4976     2427 
   -1008    -4900    -8784   -11921   -13772   -14445   -14334   -13780 
  -13259   -13407   -14573   -16449   -18221   -19089   -18666   -17084 
  -15003   -13289   -12312   -11644   -10885   -10487   -11083   -12371 
  -13349   -13304   -12218   -10499    -8650    -7145    -6412    -6725 
   -7979    -9745   -11706   -13695   -15316   -16107   -15983   -15123 
  -13749   -12259   -11064   -10232    -9590    -9209    -9434   -10225 
  -11089   -11869   -12884   -14252   -15698   -17052   -18420   -19758 
  -20880   -21976   -23453   -25394   -27658   -29957   -31611   -31899 
  -30852   -29316   -28120   -27641   -28210   -29992   -32452   -34806 
  -36607   -37487   -37104   -35599   -33437   -30877   -28196   -25871 
  -24094   -22818   -22118   -22001   -22353   -23195   -24418   -25539 
  -26236   -26754   -27372   -27998   -28701   -29750   -30926   -31665 
  -31670   -30774   -28670   -25256   -20994   -16612   -12695    -9851 
   -8698    -9245   -10849   -13095   -16084   -19708   -23312   -26322 
  -28737   -30714   -31990   -32242   -31625   -30406   -28445   -25617 
  -22522   -20209   -19277   -19480   -20068   -20695   -21735   -23243 
  -24394   -24295   -22602   -19550   -15933   -12692   -10284    -8648 
   -7612    -7238    -7810    -9383   -11639   -14278   -16857   -18644 
  -19535   -20252   -21020   -21107   -20080   -18481   -16952   -15623 
  -14583   -14148   -14576   -15893   -17805   -19674   -20724   -20438 
  -18968   -16951   -14828   -12628   -10333    -8125    -6300    -5127 
   -4906    -5816    -7440    -8911    -9740    -9956    -9668    -9281 
   -9625   -11069   -13073   -14854   -16022   -16574   -16521   -15847 
  -14724   -13301   -11580    -9704    -7872    -6279    -5449    -5840 
   -7100    -8469    -9711   -11085   -12603   -13980   -15279   -16776 
  -18359   -19844   -21440   -23217   -24587   -24791   -23636   -21500 
  -18857   -15909   -12644    -9417    -6998    -5798    -5748    -6926 
   -9555   -13495   -18105   -22543   -26156   -28637   -30001   -30320 
  -29450   -27282   -24068   -20312   -16624   -13643   -11905   -11642 
  -12529   -13917   -15481   -17355   -19627   -22028   -24085   -25455 
  -26099   -26207   -26235   -26774   -27929   -29146   -29759   -29404 
  -28242   -26884   -25774   -24886   -24207   -23968   -24226   -24635 
  -24858   -24826   -24378   -23220   -21406   -19296   -17069   -14779 
  -12783   -11692   -11895   -13346   -15735   -18556   -21052   -22384 
  -22035   -20189   -17727   -15681   -14603   -14377   -14525   -14629 
  -14370   -13527   -12325   -11355   -10914   -10895   -11244   -11927 
  -12608   -12929   -12879   -12660   -12632   -13081   -13795   -14472 
  -15410   -17140   -19656   -22448   -24924   -26589   -27306   -27496 
  -27644   -27877   -28316   -29070   -29625   -29207   -27837   -26295 
  -25307   -25296   -26373   -28201   -30302   -32312   -33719   -34037 
  -33425   -32486   -31590   -30948   -30810   -31083   -31215   -30766 
  -29808   -28594   -27228   -25733   -24047   -22124   -20095   -18107 
  -16169   -14321   -12832   -11971   -11682   -11746   -11920   -11760 
  -10943    -9700    -8658    -8361    -8853    -9903   -11404   -13102 
  -14431   -14893   -14418   -13308   -11793   -10021    -8521    -7952 
   -8297    -9040    -9879   -10545   -10635   -10265   -10040   -10193 
  -10557   -11022   -11377   -11408   -11313   -11436   -11915   -12943 
  -14738   -17170   -19989   -23036   -25746   -27220   -27182   -25971 
  -23641   -20157   -16189   -12743   -10273    -8721    -7853    -7179 
   -6394    -5880    -6011    -6531    -7047    -7513    -8128    -9043 
  -10127   -11054   -11664   -12126   -12625   -13066   -13398   -14049 
  -15400   -17019   -18296   -19335   -20466   -21539   -22146   -22038 
  -21303   -20207   -18761   -16625   -13596   -10050    -6864    -4854 
   -4320    -5135    -7046    -9774   -13087   -16843   -20771   -24343 
  -27054   -28685   -29235   -28774   -27341   -25083   -22536   -20304 
  -18536   -17196   -16351   -15866   -15405   -14660   -13436   -11987 
  -10902   -10436   -10529   -11277   -12847   -15119   -17583   -19653 
  -21154   -22318   -23380   -24476   -25792   -27379   -28864   -29690 
  -29650   -28922   -27832   -26824   -26472   -27312   -29401   -31926 
  -33660   -34000   -33217   -31792   -29895   -27711   -25879   -24993 
  -24967   -25338   -25768   -25919   -25507   -24756   -24152   -23958 
  -24451   -25756   -27273   -28153   -28129   -27316   -25720   -23530 
  -21483   -20296   -20022   -20413   -21415   -22836   -24066   -24631 
  -24663   -24618   -24901   -25697   -26756   -27551   -27878   -27842 
  -27354   -26366   -25202   -24085   -23028   -22310   -22165   -22216 
  -22048   -22038   -23065   -25488   -28595   -31101   -32119   -31543 
  -29698   -27035   -23942   -20628   -17240   -13996   -11307    -9680 
   -9154    -9218    -9491   -10055   -11195   -13023   -15249   -17373 
  -18961   -19689   -19713   -19688   -19913   -20117   -20251   -20832 
  -22284   -24218   -25678   -26009   -25162   -23395   -21185   -19184 
  -17841   -17170   -17096   -17818   -19428   -21382   -23026   -24210 
  -24904   -24831   -23899   -22658   -21757   -21201   -20726   -20415 
  -20205   -19583   -18449   -17300   -16240   -14828   -12872   -10683 
   -8706    -7346    -6958    -7654    -9183   -11227   -13601   -16068 
  -18497   -21103   -23796   -25751   -26342   -25755   -24507   -23168 
  -22229   -21691   -21348   -21365   -21974   -22946   -23683   -23716 
  -22940   -21371   -19149   -16880   -15337   -14969   -15947   -18202 
  -21222   -23920   -24954   -23718   -21033   -18512   -17184   -16980 
  -17494   -18616   -20250   -22168   -24194   -26021   -27066   -26838 
  -25250   -22676   -19845   -17516   -15916   -14650   -13502   -12825 
  -12898   -13680   -15160   -17216   -19414   -21387   -23082   -24412 
  -25042   -24914   -24412   -23637   -22437   -21362   -21280   -22019 
  -22660   -22921   -23178   -23468   -23256   -22203   -20626   -19019 
  -17690   -16915   -16729   -16623   -15932   -14524   -12993   -12091 
  -12059   -12643   -13599   -14943   -16540   -17758   -18137   -18041 
  -18062   -18322   -18742   -19437   -20636   -22309   -23860   -24447 
  -23665   -21888   -19882   -18094   -16607   -15459   -14572   -13839 
  -13541   -13931   -14349   -13794   -12304   -10916   -10562   -11316 
  -12335   -12570   -11724   -10438    -9444    -8775    -8232    -8124 
   -8925   -10694   -13014   -15038   -15865   -15262   -13688   -11571 
   -9176    -7105    -6002    -5881    -6427    -7544    -9204   -11282 
  -13765   -16699   -19819   -22580   -24546   -25496   -25428   -24884 
  -24657   -24793   -24698   -24223   -23611   -22741   -21493   -20489 
  -20515   -21424   -22494   -23425   -24203   -24561   -24147   -22882 
  -21046   -19163   -17726   -16867   -16332   -15721   -14622   -12624 
   -9520    -5637    -1827     1057     2491     2150       72    -3127 
   -6595    -9663   -12050   -13854   -15120   -15771   -16165   -16857 
  -17815   -18634   -19043   -18751   -17638   -16278   -15294   -14489 
  -13518   -12651   -12146   -11885   -11973   -12622   -13571   -14458 
  -15509   -17198   -19502   -22024   -24517   -26672   -27834   -27783 
  -27461   -28086   -29716   -31448   -32728   -33393   -32874   -30623 
  -27033   -23260   -20424   -19096   -19302   -20759   -23104   -26115 
  -29534   -32613   -34472   -34951   -34418   -33038   -30807   -27861 
  -24561   -21609   -19800   -19387   -19903   -20721   -21635   -22774 
  -23948   -24442   -23869   -22817   -22234   -22462   -23079   -23541 
  -23618   -23236   -22525   -21895   -21511   -21150   -21024   -21902 
  -23934   -26236   -28068   -29480   -30481   -30743   -30245   -29069 
  -26775   -23127   -19048   -15896   -14341   -14568   -16699   -20464 
  -24997   -29044   -31366   -31438   -29704   -27041   -24252   -21859 
  -20126   -19219   -19125   -19580   -20348   -21349   -22585   -24123 
  -25927   -27747   -29315   -30413   -30693   -29701   -27285   -23866 
  -20127   -16619   -13720   -11615   -10216    -9227    -8416    -7879 
   -7780    -7955    -8174    -8450    -8867    -9398    -9921   -10292 
  -10413   -10228    -9694    -8985    -8687    -9327   -10802   -12734 
  -14914   -16957   -18229   -18467   -17990   -17377   -17248   -17944 
  -19254   -20516   -20844   -19624   -17022   -13773   -10741    -8679 
   -7944    -8436    -9924   -12170   -14704   -17067   -19274   -21438 
  -23522   -25690   -27905   -29564   -30265   -30224   -29688   -28553 
  -26784   -24879   -23509   -22871   -22870   -23667   -25416   -27631 
  -29350   -29814   -28619   -25747   -21850   -17905   -14526   -12237 
  -11904   -13979   -17772   -21968   -25254   -26456   -25292   -23155 
  -22016   -22475   -23618   -24379   -24245   -23111   -21165   -18791 
  -16213   -13390   -10608    -8853    -9006   -10826   -13067   -14521 
  -14789   -14316   -14092   -14996   -17018   -19312   -20861   -21072 
  -20065   -18373   -16404   -14417   -12711   -11645   -11611   -12793 
  -14879   -17103   -18368   -17671   -14992   -11470    -8600    -7478 
   -8503   -11504   -15908   -20733   -24745   -26833   -26525   -24480 
  -22279   -21423   -22512   -25106   -28078   -30271   -31102   -30545 
  -28713   -25861   -22437   -18856   -15780   -14127   -14162   -15457 
  -17670   -20336   -22618   -24042   -24787   -24959   -24140   -22014 
  -19140   -16682   -15647   -16492   -18871   -21598   -23497   -24348 
  -24494   -23955   -22663   -20900   -18739   -15940   -12869   -10512 
   -9275    -8737    -8710    -9492   -11113   -13339   -16167   -19487 
  -22561   -24569   -25491   -25851   -25886   -25597   -25069   -24473 
  -24147   -24492   -25477   -26536   -26963   -26270   -24258   -21026 
  -17075   -13295   -10479    -8726    -7685    -7217    -7026    -6152 
   -3889     -839     1404     1525     -634    -4409    -8969   -13440 
  -17118   -19548   -20261   -19240   -17329   -15328   -13487   -12218 
  -12193   -13609   -16061   -19107   -22429   -25594   -28162   -29902 
  -30712   -30743   -30553   -30502   -30147   -28718   -25858   -21779 
  -17198   -13110   -10286    -8931    -8817    -9733   -11713   -14585 
  -17660   -20223   -22087   -23585   -25119   -26905   -29096   -31592 
  -33639   -34148   -32625   -29621   -26266   -23385   -20965   -18746 
  -17235   -17381   -19141   -21006   -21332   -19864   -17513   -15222 
  -13737   -13698   -15143   -17362   -19577   -21506   -23136   -24168 
  -24169   -23295   -22311   -21926   -22439   -23889   -26109   -28495 
  -30061   -30059   -28459   -25869   -23261   -21583   -21406   -22810 
  -25353   -28278   -30935   -32791   -33321   -32436   -30788   -29415 
  -29123   -30086   -31934   -34195   -36432   -37925   -37831   -36024 
  -33225   -30150   -27237   -24986   -23802   -23740   -24563   -25658 
  -26164   -25453   -23517   -21177   -19776   -20150   -21990   -24406 
  -26785   -28944   -30622   -31147   -29829   -26836   -23453   -20951 
  -19535   -18730   -17947   -16550   -14276   -11506    -8868    -6903 
   -6006    -6400    -8089   -10632   -13054   -14351   -13944   -11727 
   -8175    -4099     -164     3021     4863     5272     4513     2465 
   -1131    -5993   -11615   -17557   -22967   -26619   -27745   -26575 
  -23923   -20399   -16316   -12159    -8660    -6434    -5745    -6297 
   -7163    -7555    -7566    -7712    -8203    -8885    -9558   -10383 
  -11964   -14573   -17526   -19878   -21089   -21023   -20243   -19798 
  -20198   -21135   -22080   -22435   -21434   -18947   -16116   -14224 
  -13410   -13087   -12913   -12747   -12159   -10817    -9075    -7593 
   -6661    -6475    -7874   -11755   -17721   -24120   -29230   -32077 
  -32524   -30955   -28074   -24619   -20842   -16698   -12355    -7851 
   -3029     1698     5437     7708     8482     7683     5284     1696 
   -2283    -5947    -8760   -10393   -11264   -12291   -13924   -15810 
  -17035   -16836   -15535   -14457   -14756   -16566   -19203   -21853 
  -23985   -25523   -26843   -28311   -29634   -30036   -29164   -27272 
  -24754   -22167   -20061   -18223   -16097   -14158   -13557   -14459 
  -15990   -17474   -18918   -20845   -23884   -28050   -32375   -35534 
  -37023   -37458   -37612   -37822   -38301   -38988   -39364   -39097 
  -38245   -36745   -34464   -31599   -28541   -25674   -23580   -22864 
  -23312   -23661   -22698   -20340   -17606   -15964   -16381   -18506 
  -21279   -24207   -27254   -29865   -30884   -29552   -26407   -22970 
  -20652   -20022   -20510   -20870   -20565   -20029   -19350   -18071 
  -16281   -14716   -13828   -13655   -14510   -16578   -18862   -19842 
  -19017   -16931   -14474   -12633   -11870   -11630   -11275   -10962 
  -11072   -11494   -11655   -10911    -9282    -7792    -7639    -9130 
  -11480   -13451   -14219   -13806   -12887   -12249   -12266   -12790 
  -13531   -14452   -15726   -17401   -19339   -21242   -22615   -23170 
  -23313   -23764   -24941   -26641   -27803   -27315   -25271   -22626 
  -19983   -17595   -16102   -16386   -18533   -21462   -23988   -25720 
  -26438   -25455   -22327   -17726   -13099    -9569    -7681    -7909 
  -10254   -13691   -17057   -19856   -22110   -24245   -26615   -28617 
  -29065   -27684   -25556   -23880   -22901   -22288   -21649   -20393 
  -18247   -15902   -14121   -12775   -11459   -10197    -9195    -8651 
   -8865   -10048   -11999   -14164   -15876   -16498   -15734   -13810 
  -11214    -8625    -6794    -6107    -6662    -8483   -11303   -14497 
  -17198   -18643   -18749   -18116   -17516   -17359   -17307   -16746 
  -15643   -14438   -13421   -12491   -11392   -10318   -10108   -11405 
  -13968   -17108   -20055   -21838   -21713   -19714   -16465   -12792 
   -9394    -6547    -4511    -3978    -5344    -8013   -11027   -13949 
  -16857   -19835   -22661   -24873   -26034   -25977   -24895   -23199 
  -21301   -19726   -19107   -19576   -20607   -21582   -21945   -21162 
  -19116   -16507   -14572   -13932   -13857   -13485   -13215   -13846 
  -15174   -16508   -17594   -18344   -18628   -18440   -17639   -16026 
  -13802   -11355    -8945    -7117    -6651    -7643    -9482   -11840 
  -14781   -18000   -20881   -23280   -25278   -26118   -24686   -21386 
  -18220   -16680   -16706   -17671   -19136   -20722   -21896   -22034 
  -20906   -19141   -17835   -17576   -18235   -19765   -22296   -25287 
  -27647   -28824   -29088   -28941   -28674   -28209   -27219   -25686 
  -24167   -23275   -23238   -24021   -25502   -27424   -29398   -31248 
  -33221   -35487   -37589   -38729   -38441   -36794   -34078   -30498 
  -26340   -22316   -19303   -17694   -17225   -17256   -17265   -17197 
  -17062   -16338   -14535   -12252   -10664   -10164   -10461   -11357 
  -12558   -13575   -14457   -15863   -18008   -20293   -22160   -23561 
  -24458   -24409   -23131   -21250   -19843   -19330   -19255   -19017 
  -18388   -17390   -16241   -15340   -14704   -14009   -13426   -13282 
  -13279   -13046   -12534   -11711   -10863   -10593   -11071   -11986 
  -13134   -14469   -15708   -16301   -15934   -14868   -13688   -12878 
  -12560   -12556   -12900   -14073   -16275   -18753   -20219   -19955 
  -18375   -16333   -14374   -12933   -12466   -13159   -14936   -17325 
  -19139   -19089   -16935   -13685   -10597    -8231    -6619    -5765 
   -5610    -6055    -7155    -8843   -10639   -12004   -12833   -13319 
  -13353   -12542   -10894    -8937    -7288    -6420    -6396    -6776 
   -7126    -7410    -7890    -8919   -10706   -13184   -15965   -18326 
  -19721   -20247   -20300   -20074   -19448   -18201   -16295   -13923 
  -11649   -10557   -11678   -15020   -19584   -24305   -28710   -32829 
  -36584   -39304   -40222   -39251   -36850   -33530   -30108   -27699 
  -26692   -26608   -27138   -28183   -29212   -29567   -29034   -27861 
  -26597   -25823   -25618   -25378   -24561   -23260   -21737   -20146 
  -18891   -18352   -18462   -19338   -21714   -25814   -30359   -33708 
  -35417   -35950   -35723   -35040   -34225   -33192   -31328   -28329 
  -24678   -21037   -17723   -14644   -11521    -8561    -6600    -6274 
   -7566   -10029   -13057   -16061   -18378   -19371   -19219   -18991 
  -19375   -20189   -21421   -23554   -26696   -30386   -34237   -37888 
  -40459   -41014   -39540   -36835   -33734   -30792   -28257   -26140 
  -24337   -22743   -21438   -20773   -21117   -22408   -24186   -26324 
  -29293   -33270   -37263   -39624   -39535   -37561   -34719   -31353 
  -27099   -22000   -17090   -13359   -10813    -8916    -7218    -5423 
   -3567    -2219    -2015    -2985    -4629    -6288    -7274    -7224 
   -6299    -4665    -2439     -465      -53    -1556    -3995    -6184 
   -7730    -9101   -10899   -13212   -15820   -18418   -20358   -20932 
  -20041   -18323   -16785   -16040   -15732   -15352   -15357   -16520 
  -18694   -21199   -23806   -26506   -28949   -30848   -32368   -33676 
  -34711   -35591   -36587   -37579   -38155   -38085   -37248   -35620 
  -33537   -31437   -29489   -27765   -26480   -25910   -26215   -27121 
  -27690   -26942   -24733   -21490   -17481   -12932    -8363    -4320 
   -1117      788      810     -838    -3211    -5897    -9017   -12100 
  -14240   -15074   -14769   -13505   -11543    -9409    -7674    -6797 
   -7088    -8579   -10967   -13776   -16813   -20263   -23937   -26955 
  -28618   -29138   -29161   -28763   -27425   -24995   -21942   -18709 
  -15655   -13436   -12623   -13158   -14677   -16965   -19846   -22974 
  -25804   -27752   -28620   -28826   -29074   -29640   -30180   -30494 
  -30954   -31821   -32770   -33320   -33237   -32523   -31497   -30677 
