Origin Time       2011/03/11 14:46:00
Lat.              38.103
Long.             142.860
Depth. (km)       24
Mag.              9.0
Station Code      NIG012
Station Lat.      37.6863
Station Long.     139.4771
Station Height(m) 70
Record Time       2011/03/11 14:47:20
Sampling Freq(Hz) 100Hz
Duration Time(s)  300
Dir.              N-S
Scale Factor      3920(gal)/6182761
Max. Acc. (gal)   86.076
Last Correction   2011/03/11 14:47:05
Memo.             
[...]
  -42679   -43642   -44446   -45922   -48024   -49897   -50705   -50438 
  -49576   -48260   -46660   -44992   -42725   -39554   -36106   -32962 
  -30466   -28696   -27034   -24642   -20964   -15358    -7568     1084 
    8616    14331    18484    21107    22456    23018    22616    21253 
   19663    17931    15457    12212     8524     4321     -165    -3760 
   -5401    -4934    -3134    -1390     -548     -639    -1557    -3046 
   -4678    -6045    -6888    -7239    -7466    -8282   -10142   -12641 
  -15023   -17110   -19354   -22131   -25859   -31034   -37041   -42656 
  -47693   -52491   -56954   -60736   -63246   -63573   -61075   -55987 
  -48923   -39979   -29261   -17611    -6050     4586    13450    19849 
   23647    25142    24492    21829    17504    11905     5934      931 
   -2399    -4091    -4678    -5041    -6018    -8368   -11974   -15513 
  -18091   -19557   -19250   -16669   -12285    -6570      -23     6124 
   10803    14320    17733    21377    25126    28837    31964    34352 
   36409    38069    39268    39963    39341    36981    33394    28916 
   24079    19854    16550    13983    11879     9649     6831     3102 
   -1790    -7370   -12759   -17478   -21175   -23414   -24068   -23181 
  -20893   -17759   -14684   -12855   -13220   -15485   -18547   -21576 
  -23781   -24221   -22622   -19264   -14138    -7283      392     7532 
   13776    19509    24491    28786    33318    38317    43562    48842 
   53258    56404    58982    61413    63614    65437    66550    66656 
   66054    65560    65653    65855    65227    63250    59822    54953 
   48832    41572    33343    24881    16875     9384     2200    -4965 
  -11989   -17825   -21598   -23815   -25657   -27943   -30822   -33758 
  -36210   -37970   -38784   -38537   -37035   -33636   -28246   -21686 
  -14871    -8499    -2671     2953     8304    13174    17391    20478 
   22282    23114    22824    20606    15548     7238    -3374   -14004 
  -23130   -30975   -37894   -43854   -48963   -52868   -54708   -54391 
  -52905   -51242   -50155   -50485   -52632   -56345   -61171   -66442 
  -71187   -74364   -75022   -72681   -67277   -58925   -48783   -38644 
  -29045   -19423    -9580      288    10227    20247    30092    39327 
   47017    52306    55298    56414    55792    53739    51134    49006 
   47606    46206    43758    39565    33904    28020    22985    18784 
   14968    11370     7575     3323     -526    -2926    -3494    -2093 
    1084     5367     9972    13807    15609    15203    13406    11053 
    9257     8640     8479     8225     7881     7099     5910     4911 
    4254     3563     2312     -140    -4440   -10741   -18637   -27781 
  -37747   -47614   -56308   -62870   -67111   -69853   -71438   -71552 
  -70569   -69026   -66863   -63967   -60113   -54688   -47505   -39479 
  -32042   -26608   -24217   -24773   -27191   -29850   -30556   -28152 
  -23720   -18469   -12829    -7420    -2386     2257     5905     8705 
   11307    13826    16521    19848    23548    26702    28618    29133 
   28194    25754    22011    17388    12501     8134     4931     3157 
    2538     2323     1820      756    -1066    -3944    -7551   -10602 
  -11881   -11114    -8529    -4528       37     4146     7222     9036 
    9424     8318     5796     2296    -1287    -4422    -7299   -10184 
  -13426   -17491   -22275   -27345   -32483   -37107   -40050   -40277 
  -37100   -30155   -20039    -8576     2015    10302    16390    21313 
   25681    29673    33498    36785    38694    38495    35289    28658 
   19523     9566      610    -6450   -12504   -18686   -24861   -30370 
  -34774   -37824   -39968   -42465   -46139   -50693   -55399   -59480 
  -62276   -63813   -64520   -64369   -62749   -58793   -51942   -42632 
  -32099   -21556   -11435    -1432     8127    16431    23528    29418 
   33898    37754    41698    45230    47123    46337    42811    37214 
   30380    23117    16280    11095     8462     7996     8598     9546 
   10693    12173    14183    16661    19252    21438    22522    22472 
   22051    21395    20175    18636    16897    14377    10524     5384 
    -456    -6284   -11791   -16890   -21518   -26161   -31441   -36775 
  -40539   -41887   -41351   -39139   -34754   -28585   -21585   -14460 
   -8454    -4528    -1864      911     4352     8522    12995    16852 
   19194    19291    16848    12257     6262     -173    -5872   -10018 
  -12233   -11977    -8808    -3183     3558     9987    15375    19904 
   24047    27690    30738    33794    36794    39116    41026    42540 
   42705    40879    36530    29071    19586    10601     3413    -2417 
   -7440   -12229   -18110   -26286   -36603   -47452   -56847   -63741 
  -67669   -67822   -63577   -55599   -45810   -35720   -25451   -15007 
   -4724     5325    14766    23125    30682    37689    44001    49982 
   56119    61938    66564    69871    72174    73305    72796    70627 
   67316    63384    59116    54739    50273    45336    39573    33235 
   27080    21787    17702    15027    13824    13800    14297    14666 
   14621    14024    12702    10631     7858     4328     -163    -5756 
  -12165   -18913   -25765   -32650   -39408   -45594   -50906   -55163 
  -57668   -58093   -57051   -55381   -54116   -53746   -53848   -54419 
  -55617   -56831   -57437   -57158   -55643   -52837   -49502   -46794 
  -45530   -45854   -47382   -49483   -51213   -51373   -49378   -45831 
  -41930   -38614   -36221   -34538   -33038   -31467   -30252   -29802 
  -29933   -30185   -30121   -29592   -28776   -27891   -27319   -27351 
  -27508   -27122   -26135   -24437   -21732   -18369   -14946   -11797 
   -9462    -8230    -7630    -7344    -7586    -8679   -10858   -13820 
  -16731   -19007   -20549   -21499   -21963   -21828   -20853   -18936 
  -16338   -13402   -10307    -7392    -5018    -3151    -1665     -545 
     531     2281     5009     8095    10695    12243    12678    12873 
   13960    16394    19976    24170    28233    31586    34342    36565 
   37598    37315    36306    34780    32897    30973    28964    26707 
   23870    19573    13344     5976    -1334    -7744   -12655   -15748 
  -17233   -17510   -16630   -14488   -11164    -7157    -3352     -455 
    1105     1126       52    -1173    -1809    -1643     -689      896 
    2356     2735     2033     1264     1537     3265     5660     7704 
    9333    10345    10414    10239    10079     9494     8723     7847 
    6848     6471     7039     8326    10306    12483    14063    14599 
   13787    11691     8999     6709     5666     5815     6235     6613 
    7392     8424     9558    11439    14273    17545    20849    23653 
   25125    24810    22759    18980    13622     7497     1355    -4447 
   -9301   -12862   -15403   -16759   -16494   -14955   -12767   -10283 
   -7976    -6186    -4800    -3642    -2581    -1276      502     2474 
    4374     6538     9476    13057    16528    19279    21276    22918 
   24720    27307    31177    36074    41498    47045    51569    53703 
   53038    49649    43395    34697    25269    17194    11394     7326 
    4095     1318    -1248    -4048    -7311   -10755   -13873   -16373 
  -18191   -19577   -21225   -23432   -25876   -28406   -30480   -30962 
  -29581   -27079   -24298   -21951   -20364   -19367   -18756   -18416 
  -17858   -16308   -13631   -10717    -8686    -8154    -9168   -11473 
  -14856   -19027   -23296   -26577   -27909   -26811   -22908   -16466 
   -9213    -2977     1460     3830     4414     3855     2602     1659 
    2292     4415     7093     9581    11017    10711     8747     5598 
    1771    -1944    -4837    -7026    -8937   -10609   -12115   -13637 
  -15055   -16052   -16591   -16989   -17535   -18375   -19442   -20299 
  -20383   -19204   -16610   -12888    -8395    -3617      746     4136 
    6139     6512     5714     4595     3268     1210    -1761    -5641 
  -10599   -16256   -21577   -25806   -28222   -27935   -24745   -18743 
  -10312    -1251     6475    12369    16632    19681    21973    23276 
   23207    21683    18673    14827    11084     7696     5007     3486 
    2718     2069     1226     -478    -3522    -7537   -12115   -17076 
  -22048   -26801   -31386   -35578   -39073   -42198   -45249   -47684 
  -49230   -50127   -49919   -48054   -44387   -38770   -31783   -24718 
  -18442   -12913    -7730    -2864     1956     7039    11647    15240 
   17915    18899    17547    14663    11441     8956     8006     8262 
    8598     8317     7427     5842     3244     -198    -4352    -9507 
  -15138   -20291   -24965   -29329   -33098   -36100   -38153   -39191 
  -39491   -38835   -36940   -34165   -30316   -25035   -18645   -11239 
   -3031     5325    13282    20149    25273    28309    29241    28441 
   26229    23005    19449    15849    12125     8379     4600      396 
   -4285    -8829   -12707   -15647   -17213   -17076   -15350   -12597 
   -9881    -8081    -7185    -7028    -7504    -7889    -7527    -6588 
   -5620    -5424    -7153   -11579   -18359   -26486   -35178   -43699 
  -51109   -56911   -60820   -62373   -61828   -60067   -57575   -54725 
  -52069   -49532   -46542   -43056   -39333   -35397   -31460   -27879 
  -24662   -21829   -19684   -18017   -16388   -15011   -13704   -11838 
   -9700    -7552    -4988    -2013     1103     4493     8486    13169 
   18279    23696    29447    34970    39297    42189    44171    45377 
   45549    44776    43104    40431    37136    34067    32032    31395 
   31762    31988    31205    29608    27688    25917    25007    25317 
   26730    29048    32019    35593    39768    44195    48522    52695 
   56954    61706    67007    72345    77274    81703    85480    88510 
   90753    91590    90057    85792    79011    69773    58202    45270 
   32546    21138    11155     2455    -4713   -10249   -14452   -17620 
  -19736   -20552   -20030   -18723   -17587   -17219   -17828   -19725 
  -22907   -26952   -31404   -35555   -38581   -40066   -40359   -40368 
  -40591   -40988   -41469   -41835   -42020   -41983   -41311   -39729 
  -37005   -32725   -27354   -21985   -16995   -12824   -10564   -10440 
  -11493   -12682   -13374   -13319   -12528   -11526   -11145   -11418 
  -11638   -11113    -9362    -6683    -3992    -1825     -596     -633 
   -1456    -2588    -4370    -7036   -10482   -14853   -20285   -26573 
  -33273   -40126   -47312   -54741   -61577   -66636   -68876   -67857 
  -63719   -57007   -48670   -39614   -30823   -23526   -18102   -14073 
  -11055    -8158    -4221     1048     7874    16271    25297    34510 
   43992    53194    61560    68755    74514    79158    83347    87455 
   91580    95553    98537    99479    98178    95018    90316    84569 
   78470    72357    65844    58243    49283    38931    27142    14501 
    2311    -8388   -17486   -25410   -32545   -39410   -46444   -53232 
  -58740   -61973   -62435   -60638   -57603   -53903   -49729   -44999 
  -39202   -32239   -25299   -20127   -17791   -18271   -20687   -23683 
  -25753   -25647   -22729   -17548   -11699    -6096     -857     3533 
    7106    10415    13318    15772    18268    21091    24277    27183 
   28372    26765    22303    16178    10509     6882     5663     6475 
    8535    10740    11524     9478     4673    -1614    -8051   -13481 
  -17490   -20650   -23406   -26116   -29658   -34349   -39804   -46071 
  -53327   -61233   -69094   -76199   -81926   -85540   -86405   -84159 
  -78600   -70467   -61759   -54509   -49568   -46227   -42896   -38506 
  -33049   -27009   -21004   -15849   -12218   -10297    -9980   -10997 
  -13135   -16346   -19844   -21974   -21566   -18623   -13941    -8368 
   -2721     2079     5796     8723    10554    11062    10762     9756 
    7598     4208      -19    -4308    -7612    -8944    -7446    -2660 
    5041    14843    25842    36826    47170    57252    66791    74978 
   82145    88952    95160   100440   104919   108343   109819   108357 
  103252    94686    84055    73400    64295    56926    50470    44024 
   36979    28904    19351     8183    -4190   -17047   -29368   -40208 
  -49312   -56698   -62304   -66415   -69283   -70634   -70393   -68686 
  -65151   -59829   -53710   -47480   -41081   -34865   -29881   -26792 
  -25394   -24757   -23498   -20704   -16629   -12195    -8177    -5309 
   -4181    -4391    -4888    -4877    -3856    -1811      758     3818 
    7538    11101    14019    17033    20118    22383    23761    24808 
   26136    28370    31763    36114    40818    44885    47584    48490 
   46989    42843    36663    29400    21776    14203     7008      311 
   -6054   -12235   -18246   -23992   -29475   -34760   -39641   -43786 
  -46752   -48061   -47604   -45447   -41843   -37695   -34232   -32093 
  -30873   -29665   -27604   -24342   -20601   -17373   -14890   -13408 
  -13595   -15184   -16744   -16923   -14928   -10435    -3540     5426 
   15607    25310    32693    36688    37069    34068    28435    21365 
   13805     6663     1337    -1301    -1333     1075     5328    10194 
   14743    18668    22254    26109    30232    33951    36803    38477 
   38162    34803    27984    18491     8033    -1740    -9641   -15126 
  -18457   -19231   -15944    -8377     2152    13943    24220    30263 
   31747    29989    26179    21230    15997    10905     5924      648 
   -6141   -15595   -27566   -41295   -56063   -70750   -83845   -93833 
 -100180  -104229  -107893  -112196  -117686  -124456  -131499  -136911 
 -138497  -134128  -122288  -103379   -81039   -60865   -46086   -35734 
  -28409   -24460   -23347   -23330   -23848   -24645   -24652   -23897 
  -23721   -24519   -25387   -25477   -24017   -19971   -13356    -5567 
    2467    10310    17022    21844    24412    24399    21661    16774 
   11614     8228     7114     7817    10123    13489    16952    20570 
   25238    31033    37113    42588    46532    47891    45849    40218 
   31727    21577    10658     -237   -10091   -18386   -25709   -32969 
  -39988   -45543   -48352   -47252   -41482   -31355   -18732    -6926 
    1074     4545     4830     3752     3018     4711    10196    18765 
   28527    37294    42859    43459    38452    29674    20574    13327 
    8652     6643     6585     7813     9887    11640    11756     9469 
    4801     -875    -6125   -10538   -13091   -12160    -7293      875 
   11110    21478    30205    37073    43163    48992    54377    59616 
   65202    71348    78095    85084    91371    95386    95329    89742 
   77707    60038    40476    23333     9471    -3032   -15024   -26156 
  -36409   -45111   -51326   -55523   -58471   -59984   -59464   -56066 
  -49411   -40787   -32505   -26362   -22940   -21833   -22186   -22753 
  -22132   -19704   -15983   -11772    -7470    -3190      949     4932 
    9133    14067    19721    25235    29361    30998    29324    24361 
   17342    10041     4167     1121     1552     5234    11516    19501 
   27959    35584    41383    44991    46458    45881    43242    38070 
   29872    19250     7743    -3371   -13546   -22305   -28606   -31619 
  -31312   -27804   -21759   -14466    -6208     3726    15522    28715 
   42847    57150    70387    81676    90192    94567    93882    88101 
   78270    67556    59687    55802    54527    54161    53333    50784 
   45833    38398    28445    16353     3130   -10071   -22026   -31694 
  -38626   -42898   -45375   -47334   -49417   -51938   -55036   -57844 
  -59118   -58103   -54489   -48723   -41697   -34319   -27805   -23247 
  -21624   -23605   -27821   -31965   -35558   -38697   -40760   -41959 
  -43129   -44448   -46087   -48521   -51322   -53168   -53298   -51604 
  -48266   -44036   -39597   -35129   -30719   -26161   -20626   -13086 
   -3303     7983    19871    31227    40883    48220    51965    50546 
   44512    35943    26532    17598    10198     4662      778    -1292 
   -1304       44     2128     5019     8466    12577    18167    25020 
   32004    38299    42694    43746    41186    35436    27225    18253 
   10319     4192     -110    -2622    -3423    -3323    -3494    -4657 
   -7548   -12742   -19795   -27883   -36703   -45973   -55001   -63162 
  -69772   -74089   -76377   -77824   -79506   -81869   -84341   -85790 
  -85004   -80422   -71357   -59635   -48245   -38620   -30210   -21951 
  -13121    -3373     7187    18021    28734    38670    46059    49390 
   48461    43690    36243    27988    20507    14535    10033     6883 
    5237     4635     3593     1142    -2052    -4650    -5246    -2963 
    1361     5590     8106     8749     7996     6437     4865     3594 
    2684     2379     2485     2364     1207    -1489    -4869    -7071 
   -6823    -3866     1441     7971    14239    19427    23334    25694 
   26267    25402    23870    22181    20547    18778    16132    12403 
    8096     3475     -597    -2749    -2871    -1680      360     3286 
    7560    13181    19461    25570    30592    33405    33010    29197 
   22551    14174     5732    -1352    -6898   -11387   -15207   -18683 
  -22146   -25997   -30284   -34444   -37630   -38923   -37770   -34213 
  -28940   -23024   -17009   -11286    -6567    -2780      654     3679 
    6249     8681    11095    13465    15618    17175    17970    17851 
   16158    11892     4512    -4979   -14513   -23003   -30509   -37355 
  -44017   -50713   -57662   -65086   -72482   -79438   -85805   -90827 
  -94141   -96122   -96451   -94334   -89523   -81741   -71000   -58698 
  -46379   -34603   -23481   -12763    -2202     8044    17955    28004 
   38680    49697    60036    68706    75322    80227    83523    84626 
   83691    81777    79061    75111    70491    66076    62064    58721 
   56717    56497    57710    59187    59540    57660    52818    45019 
   35234    24737    14510     5077    -4052   -14203   -26150   -39603 
  -53643   -67094   -79069   -89165   -96921  -101261  -100846   -95281 
  -85600   -73811   -62261   -52534   -44912   -39200   -35367   -33058 
  -31439   -30107   -28778   -26900   -24958   -23653   -22356   -20532 
  -18285   -15458   -12194    -9183    -6419    -2873     1938     7319 
   12487    16742    19207    19619    18927    18686    20183    24322 
   30893    37903    43228    45955    45807    42955    38768    35528 
   34376    34786    35789    35684    32418    25519    16264     6485 
   -2532   -10299   -16358   -20643   -24145   -27796   -31782   -36360 
  -41835   -47664   -52795   -56512   -58401   -58562   -57930   -57398 
  -57053   -56491   -55069   -52529   -49670   -47374   -45897   -45707 
  -47044   -48913   -50095   -49983   -47971   -43494   -36538   -27837 
  -18950   -11340    -5456     -873     3383     8052    13529    20235 
   28058    36469    44788    51708    55839    56423    53285    46850 
   38300    29603    22886    19457    19638    22909    28059    34142 
   41135    48866    56532    63694    70004    74793    77677    78375 
   76807    73521    69087    63479    55962    45930    34046    21726 
   10131       94    -7907   -13879   -18127   -20996   -22576   -22611 
  -21320   -19781   -18850   -18689   -19263   -20487   -22288   -24750 
  -28000   -31505   -34006   -34722   -33441   -30090   -25744   -22069 
  -19578   -18023   -17020   -15918   -14193   -11673    -8444    -4609 
    -295     4048     8023    11533    14600    17576    20610    23333 
