Origin Time       2011/03/11 14:46:00
Lat.              38.103
Long.             142.860
Depth. (km)       24
Mag.              9.0
Station Code      NIG008
Station Lat.      38.0514
Station Long.     139.4086
Station Height(m) 23
Record Time       2011/03/11 14:47:22
Sampling Freq(Hz) 100Hz
Duration Time(s)  300
Dir.              E-W
Scale Factor      3920(gal)/6182761
Max. Acc. (gal)   30.501
Last Correction   2011/03/11 14:47:07
Memo.             
[...]
  -32364   -33907   -35331   -37036   -38462   -38951   -38317   -36582 
  -33780   -30049   -26338   -23983   -22998   -22067   -20354   -18386 
  -16865   -15741   -14862   -14169   -13540   -12989   -12526   -12351 
  -12887   -14027   -15104   -15391   -14213   -11514    -8337    -5843 
   -4323    -3691    -3870    -4494    -5432    -7016    -8983   -10504 
  -11224   -11273   -10766    -9658    -8382    -8128    -9415   -11120 
  -11601   -10261    -7929    -5872    -4549    -3713    -3491    -4484 
   -6826    -9879   -12906   -15623   -17937   -19626   -20556   -20811 
  -20410   -19389   -18320   -17726   -17212   -16268   -14920   -13248 
  -11398    -9751    -8616    -8043    -7965    -8444    -9415   -10690 
  -12443   -14696   -16787   -18107   -18289   -16890   -13879    -9604 
   -4515      562     4802     7857     9548     9793     8880     7480 
    6165     4827     2989      589    -2028    -4547    -6830    -8885 
  -10806   -12705   -14373   -15099   -14211   -11619    -8159    -5000 
   -2336       11     1637     2331     2050      543    -1838    -4196 
   -5988    -7181    -8188    -9685   -12155   -15515   -19068   -22013 
  -24143   -25758   -27019   -27854   -28096   -27411   -25969   -24553 
  -23282   -21550   -18931   -15326   -11041    -6851    -3841    -2884 
   -3717    -5148    -6274    -7007    -7969    -9750   -11789   -12981 
  -13038   -12269   -11187   -10376    -9921    -9614    -9386    -8989 
   -8181    -7123    -5912    -4298    -2159       54     1686     2565 
    2830     2663     2419     2232     1593       21    -2156    -4402 
   -6515    -8161    -9153   -10052   -11595   -13668   -15397   -16250 
  -16357   -16062   -15381   -13654   -10425    -6101    -1388     2920 
    6074     7996     8907     8601     7134     5228     3789     3533 
    4220     4808     4750     4052     2879     1762     1517     2984 
    6610    11769    17095    21700    25513    28536    30523    31486 
   31517    30530    28904    27230    25501    23388    20858    18156 
   15527    13431    12303    11827    11405    11046    11187    12032 
   13295    14285    14556    14382    13807    12193     9408     6428 
    4298     2749      899    -1192    -3171    -4932    -6071    -6571 
   -6852    -6918    -6916    -7319    -8048    -8734    -9308    -9650 
   -9401    -8593    -7913    -8127    -9485   -11497   -13339   -14539 
  -15163   -15354   -14955   -14001   -12882   -11788   -10760    -9871 
   -9158    -8794    -8904    -9212    -9513   -10021   -11001   -12844 
  -15778   -19093   -21763   -23303   -23685   -23245   -22111   -20056 
  -17317   -14674   -13074   -13231   -15172   -18555   -22791   -26914 
  -30309   -33119   -35668   -38151   -40758   -43367   -45278   -45878 
  -44870   -41857   -37164   -31994   -27130   -22956   -19839   -17539 
  -15496   -13623   -12006   -10768   -10423   -11063   -11980   -12732 
  -13174   -12889   -11857   -10814    -9976    -8591    -6505    -4013 
    -697     3363     7306    10862    14015    16622    18740    20189 
   20516    19477    16987    13073     8300     3829      726     -527 
    -289      477     1195     1932     3043     4701     6436     7641 
    7965     7204     5721     4254     2917     1256     -963    -3508 
   -5610    -6279    -5466    -4088    -2885    -2225    -2081    -2004 
   -1771    -1405     -705      207      366    -1072    -3882    -7141 
   -9877   -11602   -12813   -14367   -16357   -18506   -21084   -24299 
  -27419   -29539   -30262   -29205   -26358   -22393   -18040   -14075 
  -11116    -9109    -7525    -5871    -4319    -3363    -2894    -2488 
   -2137    -2341    -3152    -3864    -4302    -4954    -6212    -8115 
  -10160   -11458   -11306    -9908    -8010    -6268    -5329    -5166 
   -5239    -5433    -5576    -5478    -5383    -5307    -5168    -5312 
   -6127    -7583    -8974    -9709   -10147   -10592   -10783   -10274 
   -8368    -5133    -1879      414     1603     1951     2443     3839 
    5438     6415     6943     7161     6630     5124     2730     -563 
   -4081    -6833    -8947   -10410   -10597    -9908    -9240    -9137 
  -10093   -12083   -14103   -15053   -14527   -12230    -8480    -5334 
   -4763    -6377    -8332    -9378    -9520    -9477    -9583    -9628 
   -9901   -10787   -11555   -11146    -9482    -7265    -5386    -4516 
   -4562    -5155    -6368    -8027    -9666   -11127   -12132   -12627 
  -13156   -13576   -13181   -12303   -11688   -11258   -10677    -9712 
   -8326    -7315    -7359    -7800    -7702    -6832    -5470    -4417 
   -4440    -5451    -6871    -8295    -9693   -11216   -12726   -13735 
  -13563   -11885    -9419    -7236    -5888    -5654    -6380    -7243 
   -7625    -7563    -7063    -6211    -5845    -6731    -8590   -10698 
  -12560   -13726   -13967   -13652   -13342   -13401   -14185   -15933 
  -18237   -20106   -20804   -20098   -17859   -14464   -10977    -8269 
   -6416    -4448    -1359     2364     5666     8051     8950     7891 
    5499     3214     1955     1419      778     -470    -2370    -4539 
   -6470    -8061    -9472   -10686   -11474   -11644   -11326   -10710 
   -9555    -7663    -5213    -2326      713     3571     6199     8041 
    8391     7537     6022     3999     1970      612      -18     -229 
    -323     -392     -171      498     1664     3670     6316     8443 
    9542    10106     9982     8752     6830     4805     3316     2799 
    2651     1728     -816    -5056   -10195   -15061   -18851   -21488 
  -22992   -23441   -23504   -23809   -24248   -24324   -23686   -22058 
  -19320   -16131   -13639   -12468   -12474   -13046   -13601   -14225 
  -15391   -17046   -18670   -20034   -21322   -22511   -23440   -24188 
  -24766   -25401   -26224   -26518   -25752   -24009   -21321   -17744 
  -13172    -7523    -1650     3089     5845     6377     4963     2291 
    -785    -3495    -5684    -7943   -10812   -13693   -15277   -15511 
  -15511   -15670   -15475   -14303   -12095    -9626    -7465    -5905 
   -5764    -7485   -10302   -12857   -14143   -13794   -11783    -8621 
   -5330    -2597     -632      841     2680     5366     8540    11624 
   14130    15514    15324    13651    10831     7314     4044     1951 
    1379     1870     2171     1118    -1617    -5539    -9499   -12346 
  -13730   -14306   -15138   -16367   -16884   -15789   -13044    -9157 
   -5097    -1569     1220     2956     3663     3748     3369     2662 
    1642       28    -2237    -4942    -7691   -10048   -12027   -13809 
  -15189   -15793   -15431   -14208   -12590   -11323   -11006   -11614 
  -12477   -12977   -13336   -14222   -15703   -17464   -19501   -21609 
  -22760   -22165   -20532   -19150   -18720   -19566   -21555   -24004 
  -26225   -27967   -29594   -31554   -33671   -35403   -36642   -37792 
  -39017   -39783   -39113   -36396   -32197   -27702   -23524   -19779 
  -16603   -13969   -11398    -8503    -5746    -4036    -3965    -5811 
   -9440   -14063   -18600   -22282   -25047   -27193   -28449   -27842 
  -24738   -19742   -13883    -7291       66     7254    13006    16569 
   17957    17857    17009    15721    13902    11379     8308     5168 
    2535      731     -555    -1951    -3805    -5918    -7535    -7767 
   -6433    -4231    -2010     -410       32     -757    -2106    -3273 
   -4211    -5217    -6190    -7015    -8046    -9482   -11208   -13438 
  -16325   -19246   -21414   -22586   -22810   -22058   -20188   -17273 
  -13886   -10803    -8581    -7187    -6145    -5304    -4775    -4290 
   -3403    -1949     -140     1313     1558      294    -2044    -4248 
   -5148    -5072    -5133    -5356    -5155    -4608    -4204    -4297 
   -4961    -5836    -6564    -7305    -8242    -9195   -10098   -11091 
  -12162   -13126   -13727   -13910   -14185   -15119   -16519   -17898 
  -19353   -21080   -22451   -22708   -22074   -21307   -20860   -20851 
  -21261   -22001   -22848   -23423   -23574   -23582   -23974   -25362 
  -27592   -29409   -30070   -29795   -28638   -26672   -24229   -21305 
  -17786   -13734    -9083    -3863     1605     6888    11216    13594 
   13394    10575     5934     1195    -2044    -3619    -4800    -6863 
   -9786   -12461   -13782   -13467   -12213   -10885    -9616    -7877 
   -5164    -1771     1114     2427     2043      611     -793    -1264 
    -939     -792    -1592    -3702    -7021   -10398   -12183   -11258 
   -7526    -2422     1817     4129     5044     5536     6367     7828 
    9716    11975    14559    16811    17985    17756    16089    13326 
   10123     7128     4732     2931     1664     1157     1140      671 
    -425    -1431    -1887    -1658     -705      826     2787     4964 
    7003     8568     9264     8718     6788     3597     -153    -3339 
   -5497    -7127    -8814   -10522   -11748   -12480   -13447   -14876 
  -16100   -16766   -17211   -17613   -17664   -16990   -15579   -13917 
  -12540   -11560   -10980   -10949   -11134   -10589    -8817    -6279 
   -3780    -1867     -526      554     1267     1345     1240     1657 
    2297     2194      993    -1024    -3489    -5813    -7304    -7735 
   -7540    -7450    -7854    -8698    -9870   -11163   -12346   -13371 
  -13755   -12658   -10328    -8084    -6759    -6361    -6889    -8570 
  -11190   -13716   -15322   -16309   -17284   -18330   -19510   -21211 
  -23700   -26647   -29094   -30221   -30069   -29300   -28594   -28247 
  -28056   -27477   -25887   -23094   -19668   -16471   -14187   -13080 
  -12819   -13126   -14229   -16008   -17628   -18517   -18811   -18738 
  -18492   -18653   -19839   -22042   -24841   -27805   -30261   -31341 
  -30810   -29374   -27944   -27027   -26636   -26351   -25566   -24265 
  -23365   -23517   -24438   -25899   -27937   -30185   -32071   -33610 
  -35355   -37270   -38699   -39331   -39064   -37876   -36132   -33945 
  -31038   -27624   -24283   -21288   -18616   -16035   -13244   -10407 
   -8104    -6561    -5790    -6291    -8468   -11821   -15538   -19220 
  -22508   -24873   -26155   -26771   -27254   -27555   -27107   -25784 
  -23938   -21644   -19032   -16779   -15455   -15304   -16467   -18493 
  -20607   -22510   -23933   -24252   -23309   -21778   -20469   -19739 
  -19514   -19607   -19820   -19818   -19222   -17844   -15661   -12722 
   -9365    -6188    -3617    -1786     -564      257      317    -1053 
   -3440    -5287    -5495    -4241    -2168      493     3619     6541 
    8423     8836     7682     5284     2572      506     -495     -401 
     520     1697     2611     3098     3570     4841     7121     9691 
   11845    13364    14219    14576    14767    14880    14741    14204 
   13009    10747     7549     4271     1393    -1641    -5363    -9346 
  -12751   -14893   -15184   -13396   -10134    -6505    -3383    -1191 
     -60     -172    -1763    -4560    -7847   -11001   -13467   -14825 
  -14995   -13987   -11844    -8834    -5310    -1616     1734     4264 
    6041     7497     8885    10127    10750    10123     8079     5062 
    1799     -947    -2743    -3736    -4352    -5038    -6000    -6872 
   -7266    -7405    -7571    -7673    -7582    -7191    -6324    -4789 
   -2383      682     3549     5657     7246     8447     8817     8120 
    6694     4935     3076     1515      901     1540     2844     3806 
    3747     2538      651    -1255    -2937    -4387    -5705    -7380 
   -9853   -13038   -16493   -19414   -21016   -21128   -19654   -16467 
  -12337    -8802    -7028    -6949    -7172    -5944    -2392     2954 
    8512    12615    14301    13642    11572     9068     6785     5338 
    4780     4064     2105    -1082    -4853    -8800   -12640   -15778 
  -17383   -16941   -14766   -11824    -9056    -6793    -4516    -1631 
    1557     4528     7284     9554    10915    11849    13134    14693 
   15827    15857    14355    11348     7569     4188     1999      984 
     630      465      321      281      520      911      855      -58 
   -1673    -3715    -5937    -8125   -10323   -12472   -14142   -15029 
  -15116   -14438   -13344   -12615   -12815   -13857   -15142   -15912 
  -15766   -14961   -14244   -14334   -15423   -17400   -20058   -22681 
  -24331   -24569   -23670   -22710   -22697   -23144   -22726   -21183 
  -19345   -17764   -16330   -14811   -13152   -11639   -11021   -11779 
  -13309   -14599   -15396   -16078   -16841   -17532   -18131   -18954 
  -20299   -22147   -24073   -25355   -25411   -24086   -21445   -17648 
  -13184    -8932    -5631    -3448    -2387    -2336    -2413    -1522 
     384     2524     4287     5557     6285     6162     5177     3980 
    2984     1709     -432    -3282    -6332    -9272   -11539   -12174 
  -11028    -9378    -8710    -9559   -11629   -14297   -16966   -19276 
  -20998   -21961   -22207   -21997   -21625   -21411   -21687   -22582 
  -23943   -25310   -26071   -25989   -25107   -23251   -20494   -17688 
  -15675   -14324   -12799   -10537    -7660    -4482    -1090     2309 
    5005     6216     5997     5239     4715     4613     4656     4522 
    4298     4175     4054     3746     3263     2905     2929     3112 
    2869     1708     -459    -3409    -6818   -10217   -13162   -15849 
  -18921   -22384   -25552   -28014   -29872   -31347   -32610   -33791 
  -34899   -35617   -35248   -33083   -29155   -24614   -20872   -18375 
  -16552   -14760   -12884   -11057    -9288    -7423    -5177    -2452 
     446     3348     6455    10028    14314    19374    24919    30363 
   34840    37528    38318    38204    38620    39957    41152    40824 
   38138    32926    26070    19443    14696    12256    11427    10979 
    9874     7852     5281     2690      582     -733     -985      279 
    3050     6621    10469    14310    17487    19373    19803    18821 
   16738    14156    11549     9095     6839     4862     3475     3196 
    4022     4988     5293     5113     4630     3421     1217    -1800 
   -5402    -9336   -13361   -17306   -20707   -23023   -24068   -24025 
  -23458   -22585   -20610   -16928   -12302    -7925    -4421    -2212 
   -1583    -2128    -2960    -3740    -5013    -7237   -10182   -13502 
  -16971   -20187   -22877   -25037   -26613   -27431   -27280   -26221 
  -24564   -22135   -18491   -13868    -8876    -3800      643     3048 
    2754      213    -3698    -7638   -10028   -10249    -9496    -9597 
  -10919   -12310   -12664   -11729    -9950    -7803    -5264    -2087 
    1933     6626    11134    14911    18436    22174    26020    29679 
   32581    34076    33820    31400    26510    19861    12906     6521 
     827    -3932    -7464    -9864   -11078   -10888    -9557    -7426 
   -4511    -1155     1774     3399     3140     1000    -2177    -5082 
   -6967    -8296   -10043   -12403   -14528   -15663   -16018   -16170 
  -16290   -16367   -16584   -16944   -16810   -15598   -13637   -11547 
   -9492    -7559    -5887    -4410    -3118    -2085    -1177     -506 
    -603    -1551    -2845    -4082    -5068    -5695    -5727    -4481 
   -1569     2270     6032     9505    12961    16557    19936    22193 
   22710    21809    20300    18790    17516    16638    16516    17279 
   18492    19763    20933    21597    21389    20489    19123    17084 
   14219    10958     8245     6793     6350     6279     6415     6644 
    6543     5891     4837     3674     2573     1178    -1061    -3778 
   -5782    -6595    -6737    -6680    -6787    -7205    -7301    -6568 
   -5200    -3220     -585     2212     4776     7285     9881    12109 
   13069    12246    10061     7041     3203     -943    -4139    -5697 
   -5777    -4674    -2908    -1052      932     3301     5830     8006 
    9395     9660     8649     6474     3489      242    -2894    -6013 
   -9294   -12631   -15546   -17209   -17116   -15779   -14233   -13208 
  -12758   -12219   -10789    -8360    -5442    -2737    -1377    -2427 
   -5641    -9789   -13506   -15728   -16853   -18188   -19681   -20821 
  -22294   -23972   -24792   -25068   -25701   -26922   -28432   -29183 
  -28075   -25274   -21958   -19297   -17808   -17429   -17935   -18502 
  -18187   -16957   -15057   -12980   -11515   -10336    -8364    -5712 
   -3381    -1994    -2087    -4000    -7351   -11653   -16328   -20535 
  -24191   -27644   -30524   -32470   -33386   -32804   -30989   -29179 
  -27769   -26390   -25190   -24213   -22945   -21114   -18515   -14931 
  -10938    -7382    -4458    -2077     -329      726     1256     1404 
    1143      497     -419    -1315    -1933    -2546    -3384    -4217 
   -4760    -4164    -1571     2445     6652    10093    12151    12889 
   12850    12530    11792    10209     7844     4383     -502    -5602 
   -9479   -11815   -12727   -12862   -13040   -13136   -12824   -12285 
  -11814   -11702   -11572   -10671    -9346    -8264    -7127    -5831 
   -5002    -4701    -4694    -5497    -7331    -9229   -10372   -11436 
  -13447   -15847   -17786   -19738   -21598   -22272   -21626   -20116 
  -18141   -16241   -14474   -12535   -10254    -7684    -5290    -2987 
    -252     1886     1843     -373    -4045    -8245   -11426   -12771 
  -12637   -11374    -9410    -7501    -5991    -4933    -4216    -3360 
   -2471    -1906    -1268     -754    -1023    -1394    -1068     -216 
    1424     4399     8260    12001    15087    17317    18602    19642 
   20865    21094    19646    17551    15499    13603    12722    12811 
   12286    10542     7868     4564     1405    -1464    -4353    -6693 
   -8232    -9593   -10967   -12003   -12217   -11638   -11386   -12223 
  -13788   -15818   -17964   -19354   -19634   -19099   -17970   -16310 
  -14393   -12866   -11952   -11052   -10014    -9236    -8442    -7284 
   -5813    -3635     -530     2461     4329     5577     6779     7852 
    9188    10778    11933    12558    12693    12428    12187    11588 
   10409     9591     9006     7824     6480     5280     3732     2168 
    1387      931     -319    -2633    -5719    -9201   -12234   -14193 
  -15495   -16622   -17591   -18321   -17847   -15059   -10846    -6417 
   -1663     2434     4473     5597     7236     8967    10320    10953 
   10859    11028    11134    10061     8466     6513     3462      773 
      41      770     3146     7376    11119    12548    12579    12251 
   12157    12948    13942    14268    13896    12091     8690     5191 
    2201     -838    -3972    -7343   -11139   -14295   -15895   -16482 
  -16421   -15826   -15599   -16292   -17636   -18838   -18738   -17494 
  -16160   -14301   -11659    -9380    -7605    -6440    -7212    -9231 
  -10516   -11127   -11518   -11333   -10679   -10165   -10023    -9449 
   -7858    -5974    -4042    -1555     1006     3184     5622     8227 
    9942    10786    11460    11587    10220     7178     2937    -2037 
   -7195   -11807   -15520   -18486   -20442   -20335   -18344   -16645 
  -16237   -16343   -16820   -17544   -17459   -16070   -14309   -13200 
  -12629   -12145   -11763   -11975   -13023   -14074   -14917   -16128 
  -17141   -17594   -17870   -17782   -17291   -16585   -15415   -13413 
  -10537    -7029    -3022      629     2397     2761     3373     3839 
    3360     2344      638    -1713    -3787    -5476    -6394    -5251 
   -2831    -2037    -3863    -6588    -9413   -12793   -15680   -17150 
  -18275   -19511   -20163   -20395   -20687   -21004   -21326   -21512 
