Origin Time       2011/03/11 14:46:00
Lat.              38.103
Long.             142.860
Depth. (km)       24
Mag.              9.0
Station Code      NIG016
Station Lat.      37.6458
Station Long.     138.7730
Station Height(m) 32
Record Time       2011/03/11 14:47:36
Sampling Freq(Hz) 100Hz
Duration Time(s)  291
Dir.              N-S
Scale Factor      3920(gal)/6182761
Max. Acc. (gal)   12.464
Last Correction   2011/03/11 14:47:21
Memo.             
[...]
   -2706    -1700     -295     1370     2907     3979     4646     5161 
    5690     6353     7120     7721     7906     7572     6725     5465 
    3935     2317      850     -317    -1085    -1285     -929     -325 
     137      147     -380    -1325    -2534    -3802    -4969    -5975 
   -6758    -7300    -7687    -8089    -8664    -9379   -10080   -10655 
  -10989   -11004   -10672    -9943    -8800    -7237    -5245    -3005 
    -897      717     1671     1965     1655      853     -285    -1645 
   -3104    -4508    -5735    -6658    -7205    -7437    -7396    -7131 
   -6807    -6543    -6380    -6329    -6276    -6056    -5628    -5018 
   -4280    -3550    -2959    -2560    -2400    -2499    -2812    -3242 
   -3661    -3988    -4230    -4420    -4588    -4738    -4810    -4704 
   -4324    -3724    -3066    -2334    -1386     -142     1363     2910 
    4209     5022     5178     4724     3838     2691     1561      632 
    -150     -889    -1802    -3076    -4583    -6115    -7546    -8753 
   -9685   -10356   -10779   -10979   -10971   -10804   -10476    -9827 
   -8694    -7099    -5146    -2927     -562     1804     4024     5957 
    7468     8468     8978     9081     8940     8765     8600     8378 
    8127     7933     7909     8131     8600     9397    10565    11859 
   12988    13833    14286    14214    13606    12593    11416    10363 
    9606     9138     8822     8482     7997     7301     6386     5304 
    4054     2682     1312        3    -1098    -1845    -2294    -2518 
   -2581    -2659    -2959    -3587    -4477    -5458    -6352    -6955 
   -7145    -7007    -6695    -6322    -5878    -5200    -4295    -3481 
   -3045    -3031    -3361    -3969    -4759    -5604    -6412    -7109 
   -7679    -8170    -8571    -8747    -8525    -7844    -6773    -5463 
   -4103    -2845    -1723     -702       98      429      184     -500 
   -1346    -2117    -2758    -3417    -4236    -5093    -5731    -6027 
   -5994    -5738    -5358    -4814    -3949    -2724    -1318       84 
    1349     2352     3055     3427     3439     3165     2719     2305 
    2155     2308     2636     2936     2980     2638     1843      688 
    -526    -1633    -2698    -3767    -4804    -5764    -6621    -7319 
   -7788    -8014    -8115    -8296    -8636    -9107    -9740   -10476 
  -11077   -11366   -11281   -10837   -10245    -9771    -9516    -9491 
   -9630    -9726    -9643    -9389    -8947    -8314    -7608    -6917 
   -6130    -5090    -3732    -2053     -191     1544     2881     3688 
    3893     3504     2626     1406       12    -1479    -3073    -4582 
   -5730    -6480    -6887    -7016    -7072    -7162    -7188    -7075 
   -6770    -6231    -5522    -4714    -3914    -3340    -3060    -3028 
   -3230    -3512    -3731    -3835    -3640    -3076    -2310    -1475 
    -772     -426     -427     -729    -1301    -1980    -2711    -3595 
   -4715    -6098    -7645    -9150   -10405   -11242   -11483   -10966 
   -9754    -8174    -6644    -5485    -4815    -4674    -5064    -5838 
   -6804    -7849    -8766    -9336    -9519    -9246    -8404    -7089 
   -5609    -4378    -3712    -3668    -4093    -4693    -5143    -5281 
   -5214    -5137    -5058    -4910    -4637    -4152    -3528    -2971 
   -2602    -2490    -2594    -2741    -2760    -2544    -2062    -1442 
    -899     -589     -658    -1315    -2683    -4602    -6709    -8678 
  -10209   -10939   -10689    -9614    -7954    -6028    -4278    -2965 
   -2114    -1700    -1574    -1642    -2067    -2850    -3714    -4318 
   -4356    -3893    -3238    -2540    -2035    -1921    -2001    -2075 
   -2142    -2225    -2364    -2502    -2509    -2415    -2317    -2199 
   -2053    -1895    -1700    -1485    -1315    -1240    -1221    -1159 
   -1079    -1160    -1499    -2025    -2678    -3464    -4356    -5323 
   -6273    -7001    -7431    -7669    -7814    -7979    -8276    -8718 
   -9256    -9838   -10455   -11097   -11675   -12070   -12182   -11923 
  -11233   -10107    -8703    -7341    -6170    -5160    -4365    -3799 
   -3431    -3308    -3430    -3703    -4023    -4325    -4540    -4508 
   -4111    -3399    -2499    -1585     -912     -620     -553     -527 
    -604     -889    -1369    -2021    -2782    -3423    -3632    -3265 
   -2441    -1283      106     1489     2708     3780     4720     5421 
    5663     5306     4449     3356     2405     1893     1763     1893 
    2286     2752     3072     3266     3337     3224     2933     2502 
    1997     1558     1357     1441     1734     2190     2782     3451 
    4098     4592     4771     4493     3759     2641     1210     -324 
   -1601    -2343    -2516    -2273    -1927    -1798    -1963    -2380 
   -2986    -3663    -4379    -5091    -5642    -5866    -5700    -5273 
   -4745    -4122    -3333    -2367    -1244       59     1528     3026 
    4394     5487     6092     6136     5748     4976     3821     2414 
     884     -695    -2198    -3504    -4563    -5375    -6050    -6756 
   -7562    -8444    -9324   -10095   -10642   -10881   -10829   -10521 
   -9998    -9386    -8714    -7968    -7248    -6611    -6034    -5461 
   -4834    -4137    -3404    -2696    -1974    -1098      -23     1171 
    2394     3506     4276     4480     3997     2810     1008    -1225 
   -3625    -5929    -7914    -9367   -10207   -10437   -10089    -9398 
   -8673    -8101    -7768    -7646    -7623    -7483    -6945    -5887 
   -4413    -2796    -1270       62     1056     1585     1622     1204 
     424     -628    -1790    -2820    -3551    -3892    -3799    -3295 
   -2497    -1631     -901     -413     -159     -140     -528    -1409 
   -2576    -3791    -4892    -5766    -6383    -6666    -6501    -5997 
   -5319    -4474    -3520    -2574    -1743    -1265    -1377    -2063 
   -3071    -4041    -4605    -4470    -3575    -2143     -441     1370 
    3147     4709     5779     6064     5516     4378     3016     1812 
    1044      753      726      591       31     -959    -2110    -3200 
   -4048    -4511    -4699    -4772    -4715    -4534    -4285    -3961 
   -3571    -3158    -2761    -2456    -2210    -1920    -1720    -1769 
   -1959    -2114    -2098    -1851    -1494    -1163     -945     -922 
    -984     -941     -778     -492      -73      381      780     1065 
    1186     1222     1320     1548     1887     2340     2972     3780 
    4676     5585     6335     6555     6038     4964     3601     2233 
    1207      630      453      618      878     1140     1584     2215 
    2916     3555     3834     3435     2250      480    -1546    -3495 
   -5054    -6270    -7395    -8263    -8605    -8454    -7864    -6965 
   -6022    -5131    -4298    -3566    -2874    -2124    -1247     -260 
     604     1049      866      -17    -1338    -2529    -3074    -2736 
   -1556      234     2296     4173     5485     6198     6484     6567 
    6604     6498     6204     5932     5771     5649     5518     5282 
    4916     4586     4343     4115     4011     4170     4591     5205 
    5807     6190     6362     6340     6083     5696     5258     4691 
    3964     3110     2232     1513     1082     1091     1631     2518 
    3469     4279     4880     5348     5708     5918     6005     6003 
    5996     6129     6416     6836     7356     7798     8046     8028 
    7511     6323     4471     2077     -521    -2894    -4798    -6126 
   -6819    -6915    -6558    -5938    -5165    -4219    -3087    -1929 
   -1146     -992    -1348    -2186    -3523    -5018    -6324    -7364 
   -8136    -8750    -9290    -9636    -9788    -9856    -9735    -9253 
   -8349    -7063    -5650    -4397    -3343    -2369    -1369     -315 
     728     1584     2122     2323     2177     1838     1507     1113 
     486     -428    -1596    -2757    -3417    -3219    -2083     -143 
    2222     4548     6534     8006     8839     8968     8516     7747 
    6823     5893     5280     5096     5049     4837     4286     3375 
    2390     1565      810       12     -856    -1825    -2854    -3790 
   -4403    -4583    -4413    -4023    -3574    -3179    -2856    -2721 
   -2857    -3176    -3672    -4289    -4731    -4747    -4252    -3289 
   -2014     -559      977     2464     3752     4719     5285     5404 
    5089     4414     3529     2620     1837     1310     1036      788 
     309     -578    -1891    -3459    -5167    -6999    -8810   -10356 
  -11425   -11764   -11113    -9408    -6951    -4306    -1809      355 
    1734     2045     1334     -338    -2489    -4340    -5477    -5747 
   -5167    -3992    -2437     -654     1083     2501     3394     3577 
    2996     1777      128    -1688    -3365    -4655    -5404    -5624 
   -5566    -5513    -5582    -5825    -6295    -6998    -7968    -9305 
  -10980   -12811   -14632   -16125   -16750   -16164   -14462   -12012 
   -9296    -6720    -4446    -2429     -620      918     2151     3105 
    3699     3834     3564     3118     2680     2197     1603      928 
     227     -342     -709     -990    -1246    -1504    -1747    -1772 
   -1405     -708      152     1026     1748     2190     2334     2190 
    1721      919     -102    -1163    -2078    -2661    -2822    -2617 
   -2137    -1462     -648      163      668      711      366     -335 
   -1304    -2326    -3310    -4197    -4741    -4716    -4070    -2887 
   -1391      158     1657     3088     4336     5309     6087     6704 
    6986     6759     5964     4708     3313     2034      891      -64 
    -830    -1692    -2905    -4454    -6219    -8003    -9475   -10380 
  -10757   -10795   -10683   -10622   -10696   -10828   -10895   -10775 
  -10411    -9878    -9261    -8626    -8128    -7846    -7626    -7256 
   -6628    -5739    -4705    -3707    -2802    -1896     -922      124 
    1207     2254     3216     4042     4666     5154     5642     6229 
    6983     7846     8696     9442     9952    10167    10171    10045 
    9789     9293     8354     6867     4882     2406     -623    -4053 
   -7529   -10708   -13278   -15006   -15828   -15791   -15025   -13699 
  -12042   -10307    -8678    -7269    -6123    -5248    -4665    -4431 
   -4570    -4945    -5346    -5553    -5298    -4475    -3140    -1382 
     535     2349     4051     5541     6556     7083     7228     6960 
    6322     5415     4236     2883     1583      479     -395    -1027 
   -1408    -1635    -1923    -2323    -2657    -2749    -2517    -2046 
   -1570    -1292    -1390    -2039    -3253    -4914    -6862    -8847 
  -10684   -12328   -13731   -14889   -15798   -16269   -16144   -15460 
  -14309   -12804   -11056    -9109    -7007    -4870    -2860    -1162 
      70      731      754      228     -588    -1382    -1906    -2116 
   -2088    -1897    -1612    -1270     -938     -702     -568     -518 
    -581     -849    -1442    -2372    -3407    -4196    -4586    -4671 
   -4560    -4262    -3729    -2965    -2096    -1327     -876     -849 
   -1068    -1192     -922      -77     1304     2980     4646     6043 
    7032     7560     7511     6750     5338     3556     1758      306 
    -535     -772     -496      342     1693     3285     4756     5765 
    6208     6249     5997     5360     4229     2684      986     -512 
   -1419    -1494     -834      302     1669     2948     3902     4549 
    4870     4765     4371     3809     3050     2283     1722     1285 
     831      196     -816    -2136    -3517    -4736    -5634    -6212 
   -6469    -6363    -5877    -4941    -3597    -2146     -937     -149 
     240      360      341      371      647     1209     1995     2895 
    3756     4522     5144     5487     5542     5412     5209     5128 
    5260     5544     5968     6398     6622     6702     6781     6993 
    7446     7944     8242     8237     7856     7190     6351     5435 
    4624     3858     2914     1820      703     -393    -1405    -2355 
   -3354    -4363    -5149    -5529    -5507    -5158    -4694    -4427 
   -4523    -5040    -5952    -7028    -7961    -8527    -8665    -8570 
   -8441    -8210    -7784    -7121    -6184    -5076    -4070    -3453 
   -3367    -3804    -4622    -5531    -6303    -6861    -7123    -7083 
   -6934    -6861    -6894    -6936    -6782    -6289    -5597    -4867 
   -4078    -3281    -2511    -1664     -738      171      878     1194 
    1181     1043      977     1196     1801     2672     3666     4729 
    5713     6480     7047     7420     7598     7697     7797     7867 
    7933     7951     7803     7612     7542     7587     7827     8281 
    8729     9052     9281     9497     9815    10191    10475    10545 
   10237     9461     8265     6712     4963     3361     2224     1674 
    1701     2070     2274     1963     1179       14    -1567    -3524 
   -5728    -8056   -10261   -12054   -13240   -13554   -12743   -10829 
   -8119    -5085    -2197      312     2515     4556     6460     8085 
    9236     9922    10312    10448    10305     9907     9282     8536 
    7808     7105     6452     5887     5284     4585     3859     3081 
    2346     1905     1852     2235     3118     4325     5579     6700 
    7527     7973     8015     7587     6645     5213     3401     1456 
    -266    -1428    -1846    -1471     -401     1036     2468     3731 
    4757     5453     5784     5716     5177     4221     2944     1368 
    -393    -2133    -3671    -4768    -5277    -5355    -5219    -4871 
   -4368    -4043    -4167    -4916    -6460    -8656   -11204   -13927 
  -16539   -18726   -20341   -21300   -21616   -21369   -20645   -19574 
  -18207   -16584   -14812   -12924   -10999    -9209    -7642    -6321 
   -5232    -4335    -3544    -2677    -1561      -91     1709     3644 
    5458     6938     8006     8703     9081     9217     9236     9161 
    8857     8302     7615     6811     5932     5083     4240     3389 
    2595     1881     1285      779      209     -450    -1133    -1874 
   -2690    -3593    -4599    -5517    -6060    -6149    -5801    -5044 
   -4103    -3171    -2191    -1233     -528     -103      129      106 
    -346    -1322    -2722    -4328    -5823    -6891    -7515    -7739 
   -7397    -6572    -5534    -4370    -3191    -2076    -1060     -343 
     -34     -204     -954    -2074    -3262    -4291    -4861    -5022 
   -5186    -5513    -5976    -6609    -7269    -7732    -7895    -7651 
   -7011    -6243    -5679    -5467    -5575    -6018    -6754    -7591 
   -8504    -9505   -10368   -10946   -11264   -11253   -10840   -10139 
   -9317    -8392    -7289    -6080    -4977    -4118    -3642    -3604 
   -3871    -4397    -5143    -5775    -6013    -5874    -5358    -4516 
   -3650    -2913    -2178    -1382     -537      332      990     1199 
    1005      459     -407    -1401    -2317    -3023    -3406    -3451 
   -3262    -2927    -2554    -2352    -2569    -3285    -4211    -5107 
   -6039    -6893    -7619    -8482    -9434   -10385   -11498   -12708 
  -13861   -14954   -16002   -16871   -17238   -16887   -15826   -14127 
  -11981    -9763    -7705    -5783    -4017    -2490    -1254     -284 
     600     1471     2140     2557     2746     2644     2466     2391 
    2410     2629     2961     3210     3407     3417     2998     2232 
    1305      374     -336     -691     -696     -514     -470     -857 
   -1805    -3335    -5384    -7688    -9769   -11233   -11858   -11469 
  -10098    -8023    -5542    -3015     -864      770     1976     2787 
    3236     3314     2888     1881      410    -1205    -2652    -3778 
   -4435    -4566    -4338    -3956    -3505    -2991    -2565    -2473 
   -2802    -3545    -4639    -5977    -7443    -8796    -9925   -10923 
  -11835   -12761   -13747   -14663   -15474   -16176   -16637   -16686 
  -16103   -14852   -13164   -11199    -9208    -7551    -6275    -5316 
   -4789    -4732    -5088    -5851    -6778    -7538    -8098    -8408 
   -8407    -8185    -7805    -7501    -7514    -7785    -8212    -8574 
   -8523    -8056    -7529    -7297    -7569    -8343    -9420   -10543 
  -11371   -11631   -11415   -11023   -10569   -10007    -9326    -8469 
   -7392    -6296    -5235    -4070    -2975    -2097    -1338     -702 
     -90      485      724      613      304     -153     -671    -1268 
   -1992    -2841    -3839    -4927    -6084    -7276    -8287    -8980 
   -9337    -9272    -8839    -8212    -7488    -6819    -6351    -6144 
   -6251    -6511    -6625    -6324    -5321    -3619    -1457     1004 
    3377     5212     6420     7072     7278     7182     6816     6292 
    5799     5225     4332     3183     2039     1200      876     1027 
    1546     2250     2893     3498     4024     4270     4495     4942 
    5257     5251     5088     4684     4050     3481     3017     2552 
    2057     1450      640     -340    -1340    -2260    -3110    -3910 
   -4675    -5376    -5966    -6429    -6719    -6742    -6444    -5883 
   -5013    -3724    -2237     -823      475     1528     2088     2127 
    1802     1181      412     -280     -942    -1636    -2302    -3078 
   -4009    -4846    -5506    -6089    -6606    -7025    -7259    -7170 
   -6808    -6251    -5497    -4782    -4376    -4278    -4411    -4645 
   -4855    -5058    -5316    -5626    -5902    -6028    -6002    -6004 
   -6151    -6389    -6753    -7197    -7472    -7580    -7673    -7668 
   -7469    -7113    -6552    -5676    -4557    -3421    -2473    -1939 
   -1865    -1973    -2107    -2246    -2113    -1606     -996     -406 
     118      401      505      691     1108     1807     2627     3222 
    3369     2923     1910      529    -1084    -2775    -4366    -5694 
   -6539    -6666    -5934    -4518    -2837    -1203      145     1058 
    1520     1473      936       98     -888    -1813    -2454    -2829 
   -2981    -2894    -2668    -2253    -1505     -558      419     1327 
    1982     2265     2196     1878     1429      943      609      494 
     426      373      463      814     1516     2441     3301     3849 
    3860     3374     2730     2165     1718     1339      904      238 
    -723    -1759    -2563    -3081    -3365    -3388    -3258    -3135 
   -3113    -3417    -4251    -5480    -6719    -7652    -8081    -7861 
   -7042    -5829    -4369    -2839    -1509     -568      -23      132 
     -63     -410     -710     -916    -1002     -923     -698     -369 
     -25      173      266      496      924     1473     2126     2684 
    2907     2939     2997     3087     3249     3404     3277     2881 
    2451     2120     2118     2619     3519     4587     5470     5887 
    5853     5506     4970     4338     3682     3025     2247     1288 
     463      112      256      859     1864     3084     4360     5613 
    6800     7788     8415     8715     8694     8260     7543     6719 
    5855     5194     4974     5141     5584     6251     7012     7566 
    7647     7266     6475     5361     4170     3041     2051     1331 
     900      824     1194     1784     2338     2765     2782     2233 
    1364      348     -679    -1488    -2191    -3060    -4032    -4905 
   -5622    -6153    -6516    -6786    -6845    -6520    -5820    -4888 
   -4153    -4109    -4802    -5927    -7064    -7854    -8304    -8691 
   -9113    -9388    -9427    -9323    -9070    -8779    -8730    -8983 
   -9546   -10329   -10985   -11415   -11637   -11508   -11120   -10659 
