Origin Time       2011/03/11 14:46:00
Lat.              38.103
Long.             142.860
Depth. (km)       24
Mag.              9.0
Station Code      NIG023
Station Lat.      37.0134
Station Long.     138.6546
Station Height(m) 245
Record Time       2011/03/11 14:47:43
Sampling Freq(Hz) 100Hz
Duration Time(s)  300
Dir.              E-W
Scale Factor      3920(gal)/6182761
Max. Acc. (gal)   15.020
Last Correction   2011/03/11 14:47:28
Memo.             
[...]
   -4325    -4500    -4248    -3505    -2560    -1673     -661      762 
    2433     3875     4810     5351     5819     6485     7441     8573 
    9624    10335    10546    10223     9565     8991     8809     8975 
    9324     9754    10129    10428    10814    11287    11535    11224 
   10369     9422     8904     8966     9326     9500     9141     8302 
    7460     7156     7484     7924     7803     6968     5906     5258 
    5328     5954     6583     6570     5743     4577     3680     3311 
    3454     4015     4743     5204     5104     4616     4297     4504 
    5038     5571     6051     6480     6673     6514     6257     6229 
    6402     6553     6602     6625     6673     6711     6712     6748 
    6961     7389     7800     7786     7105     5991     5054     4706 
    4769     4711     4128     3003     1723      758      277      116 
      43      -10       85      477     1116     1678     1810     1545 
    1364     1814     3081     4906     6740     7932     8102     7438 
    6586     6245     6607     7190     7359     6895     6096     5362 
    4749     4042     3091     1889      449    -1103    -2347    -2830 
   -2500    -1691     -804     -157       67     -101     -447     -732 
    -792     -615     -389     -493    -1308    -2868    -4686    -6115 
   -6859    -7040    -6895    -6574    -6077    -5437    -5002    -5152 
   -5743    -6267    -6447    -6366    -6201    -5991    -5650    -5117 
   -4441    -3768    -3353    -3490    -4331    -5625    -6600    -6572 
   -5796    -5316    -5879    -7239    -8583    -9288    -9172    -8387 
   -7298    -6310    -5625    -5131    -4634    -4117    -3667    -3294 
   -2963    -2687    -2390    -1895    -1278     -914    -1047    -1588 
   -2301    -3010    -3564    -3672    -3082    -2046    -1297    -1317 
   -1881    -2385    -2406    -1955    -1325     -762     -320      102 
     701     1607     2676     3450     3407     2335      537    -1265 
   -2325    -2431    -1999    -1585    -1475    -1591    -1702    -1711 
   -1646    -1487    -1097     -328      769     1940     2923     3544 
    3679     3325     2759     2364     2320     2709     3652     5060 
    6403     6971     6454     5062     3141     1019    -1006    -2765 
   -4195    -5222    -5718    -5496    -4441    -2847    -1407     -621 
    -427     -527     -855    -1504    -2296    -2788    -2599    -1505 
     501     3055     5353     6489     6306     5702     5721     6614 
    7883     8971     9811    10620    11470    12356    13226    13859 
   14086    14083    14208    14609    15025    15015    14372    13402 
   12828    13154    14120    14972    15141    14670    14175    14322 
   15127    15852    15766    14912    14070    13993    14675    15371 
   15275    14081    12104    10173     9202     9442    10284    10908 
   10898    10274     9341     8531     8098     7876     7409     6467 
    5297     4241     3432     2924     2649     2334     1713      658 
    -759    -2233    -3433    -4207    -4676    -5192    -6002    -6924 
   -7462    -7281    -6593    -6041    -6187    -7153    -8639   -10255 
  -11794   -13252   -14774   -16412   -17711   -17975   -17059   -15535 
  -14204   -13623   -13852   -14481   -14880   -14723   -14308   -14011 
  -13524   -12096    -9539    -6600    -4160    -2420    -1012      598 
    2907     5980     9129    11227    11513    10272     8620     7615 
    7625     8218     8630     8454     7720     6559     5228     4126 
    3446     3052     2687     2210     1748     1680     2338     3551 
    4595     4784     3959     2456      931       68       94      745 
    1742     2993     4339     5437     6048     6449     7292     8829 
   10483    11390    11197    10254     9205     8473     7944     7117 
    5612     3469     1129     -742    -1598    -1309     -230      958 
    1690     1857     1702     1671     2305     3852     5973     8026 
    9514    10322    10657    10649    10237     9498     8848     8842 
    9561    10318    10168     8617     5977     3128      904     -362 
    -826     -808     -526       27     1005     2304     3333     3397 
    2197       71    -2014    -3130    -3272    -3202    -3544    -4288 
   -4975    -5172    -4781    -4011    -3155    -2437    -1970    -1575 
    -680     1194     3636     5473     5988     5644     5441     5781 
    6231     6366     6391     6815     7745     8599     8538     7216 
    5073     3077     2159     2504     3419     3976     3576     2259 
     752      -98      -21      522      817      609      312      483 
    1154     1804     2156     2531     3213     4060     4802     5353 
    5827     6248     6299     5651     4573     3755     3454     3212 
    2477     1210     -123    -1000    -1326    -1508    -2111    -3384 
   -4980    -6231    -6701    -6411    -5724    -5092    -4717    -4455 
   -4179    -3989    -3971    -3907    -3297    -1866      -45     1330 
    1704     1085      -14     -729     -303     1337     3466     5041 
    5555     5424     5414     6001     7200     8669     9979    10800 
   11130    11451    12066    12567    12435    11691    10756     9999 
    9544     9402     9496     9780    10432    11508    12565    13026 
   12791    12385    12326    12425    12105    11297    10500    10053 
    9793     9377     8628     7594     6476     5412     4404     3598 
    3222     3187     3249     3387     3610     3630     3077     2084 
    1370     1359     1736     2265     3139     4242     4844     4354 
    3011     1521      312     -500     -774     -392      460     1480 
    2730     4416     6216     7242     6773     4989     2827     1242 
     575      414      125     -473     -919     -651      338     1548 
    2397     2567     2180     1526      974      957     1444     1768 
    1406      598      -24     -101      283      869     1550     2301 
    2869     2976     2767     2700     3026     3518     3863     4086 
    4308     4310     3662     2209      309    -1468    -2799    -3612 
   -3871    -3715    -3576    -3798    -4152    -3986    -2921    -1301 
     120      936     1370     1791     2127     1893      838     -612 
   -1792    -2490    -3041    -3906    -5076    -5891    -5719    -4640 
   -3311    -2420    -2276    -2765    -3551    -4209    -4362    -3833 
   -2867    -2206    -2507    -3646    -4798    -5170    -4645    -3791 
   -3302    -3532    -4394    -5427    -5950    -5458    -4187    -3168 
   -3372    -4867    -6926    -8576    -8978    -7901    -5993    -4340 
   -3658    -3825    -4157    -4048    -3264    -2029    -1002     -811 
   -1350    -1796    -1547     -855     -468     -909    -1950    -2695 
   -2342     -873      967     2261     2630     2330     1807     1363 
    1021      646      227      -63      -64      124      125     -458 
   -1735    -3389    -4859    -5696    -5656    -4640    -2909    -1143 
     173     1356     3162     5994     9555    13043    15612    16750 
   16532    15680    15014    14879    15245    15963    16835    17655 
   18287    18673    18634    17811    16082    13877    11849    10216 
    8658     6887     4956     3031     1235     -484    -2411    -4766 
   -7376    -9583   -10518    -9734    -7664    -5316    -3318    -1386 
     995     3640     5735     6565     5918     4137     1959       91 
   -1158    -1905    -2438    -2927    -3187    -2853    -1938     -863 
       8      547      735      649      503      416      103     -781 
   -2056    -3204    -3949    -4402    -4690    -4565    -3651    -1846 
     610     3210     5425     7033     8165     9023     9708    10325 
   10990    11529    11444    10470     8969     7674     7260     7909 
    9038     9707     9332     8136     7012     6852     7939     9681 
   10965    10999     9795     7956     6085     4315     2558     1030 
     122     -110      -42     -131     -553    -1160    -1756    -2193 
   -2385    -2597    -3277    -4488    -5845    -6814    -7061    -6529 
   -5492    -4699    -4702    -5004    -4541    -2884     -663     1114 
    1785     1151     -524    -2623    -4396    -5164    -4706    -3520 
   -2525    -2427    -3126    -3794    -3682    -2660    -1161      -94 
    -381    -1933    -3642    -4602    -4656    -4127    -3736    -4191 
   -5606    -7509    -9019    -9282    -8223    -6527    -4934    -3859 
   -3250    -2685    -1855     -817       74      370       17     -472 
    -462      231     1113     1441      914      -75     -784     -804 
    -397     -256    -1054    -2779    -4502    -5225    -4720    -3476 
   -2312    -1827    -1986    -2271    -2199    -1789    -1527    -1861 
   -2709    -3474    -3666    -3300    -2642    -1889    -1085     -199 
     794     1795     2419     2171     1007     -399    -1311    -1693 
   -1912    -1993    -1708    -1161     -794     -800     -880     -810 
    -850    -1228    -1665    -1751    -1362     -546      504     1277 
    1402     1197     1281     1866     2757     3745     4709     5493 
    5943     6054     5972     5903     6077     6617     7346     7966 
    8324     8293     7701     6676     5773     5404     5371     5186 
    4657     3954     3260     2638     2169     1905     1739     1555 
    1329     1158     1427     2496     4036     5144     5360     5163 
    5115     5166     5241     5631     6464     7265     7407     7016 
    6883     7335     7874     7849     7090     5913     4697     3574 
    2469     1255     -113    -1497    -2645    -3413    -4044    -5088 
   -6745    -8554    -9971   -10888   -11368   -11236   -10373    -9260 
   -8726    -9160   -10299   -11699   -13120   -14465   -15518   -16039 
  -15942   -15099   -13412   -11231    -9185    -7596    -6354    -5128 
   -3598    -1773      -68     1099     1630     1659     1521     1666 
    2204     2745     2864     2629     2554     3078     4198     5508 
    6578     7321     8000     9122    11088    13717    16376    18472 
   19631    19771    19094    17942    16691    15593    14730    14150 
   13990    14369    15070    15628    15873    16145    16818    17825 
   18809    19582    20335    21387    22733    23977    24648    24393 
   22991    20486    17506    14970    13232    12088    11378    11056 
   10969    10803    10316     9643     9036     8356     7266     5812 
    4579     4243     4976     6282     7318     7413     6439     4838 
    3212     1797      522     -561    -1110     -828        7      740 
    1030      918      342     -966    -3021    -5295    -7042    -7748 
   -7422    -6581    -5794    -5297    -5092    -5177    -5431    -5462 
   -4949    -3936    -2569     -856     1143     3033     4312     4807 
    4568     3777     2856     2202     1934     1957     2170     2697 
    3697     4847     5562     5757     5851     6145     6613     7115 
    7480     7457     6903     6101     5529     5324     5280     5195 
    5031     4974     5349     6308     7644     8795     9020     8133 
    7050     6911     7708     8486     8720     8733     8897     9254 
    9780    10386    10682    10122     8599     6719     5282     4576 
    4274     4037     3937     4136     4582     5104     5510     5622 
    5370     4829     4263     4138     4818     6055     6877     6206 
    3791      572    -1950    -2976    -2896    -2364    -1520     -221 
    1489     3157     4161     4171     3197     1587      120     -402 
     108      910     1222     1014      797      837      913      743 
     380      349     1397     3769     6783     9393    11090    12033 
   12392    11966    10561     8396     6012     3871     2158      999 
     450      204     -130     -453     -266      631     1761     2408 
    2278     1526      320    -1281    -3098    -4819    -6206    -7151 
   -7563    -7296    -6227    -4494    -2582     -944      395     1661 
    2951     4242     5595     7023     8063     7981     6579     4393 
    2172      319    -1232    -2637    -3842    -4634    -4711    -3859 
   -2162       29     2241     4110     5578     6721     7523     7838 
    7436     6156     4145     1994      394     -402     -615     -615 
    -601     -576     -592     -701     -665       78     1936     4487 
    6553     7151     6135     4079     1819      -71    -1528    -2860 
   -4406    -6113    -7527    -8212    -7970    -6871    -5340    -3955 
   -2887    -1728      -96     1721     3025     3453     3139     2393 
    1400      210     -929    -1507    -1398    -1244    -1755    -2744 
   -3432    -3550    -3521    -3899    -4944    -6616    -8802   -11104 
  -12620   -12600   -11256    -9653    -8907    -9305   -10143   -10504 
  -10013    -8950    -8020    -7727    -7712    -7195    -5971    -4489 
   -3179    -2057     -912      331     1552     2539     3067     3019 
    2457     1623      813      219     -265     -958    -1897    -2668 
   -2812    -2157     -909      316      894      759      333       34 
     -82     -250     -637    -1200    -1868    -2557    -2954    -2755 
   -2250    -2157    -2729    -3378    -3332    -2345     -686     1145 
    2546     3130     3053     2992     3673     5063     6099     5740 
    4096     2172      830      273      210      156     -326    -1320 
   -2459    -3301    -3603    -3354    -2896    -2815    -3552    -5211 
   -7509    -9944   -12132   -13852   -14984   -15681   -16388   -17435 
  -18493   -18716   -17601   -15558   -13714   -13180   -14231   -16095 
  -17615   -18053   -17433   -16484   -16251   -17334   -19351   -21172 
  -21682   -20517   -18359   -16368   -15211   -14758   -14476   -13970 
  -13234   -12473   -11826   -11247   -10588    -9754    -8794    -7934 
   -7555    -7965    -9025   -10096   -10467    -9857    -8642    -7548 
   -6962    -6611    -5909    -4537    -2746    -1120      -75      458 
     905     1538     2131     2311     2067     1752     1743     2112 
    2534     2520     1914     1233     1289     2323     3708     4699 
    5195     5565     6059     6562     6842     6811     6440     5727 
    4907     4436     4573     5086     5584     6003     6481     6979 
    7259     7122     6597     5855     5015     4203     3652     3494 
    3610     3790     3969     4111     3975     3390     2717     2641 
    3382     4406     5059     5271     5372     5522     5659     5704 
    5569     5305     5249     5636     6125     5955     4709     2909 
    1710     1845     3032     4482     5613     6205     6346     6369 
    6624     7129     7518     7348     6485     5390     4964     5677 
    6984     7896     7906     7296     6823     7099     8069     9077 
    9404     8715     7312     5961     5124     4667     4474     4573 
    4649     4192     3195     2252     1890     2032     2233     2239 
    2176     2209     2193     1958     1663     1532     1645     2197 
    3531     5605     7699     9126    10153    11824    14628    17707 
   19692    19984    18960    17371    15914    15045    14800    14900 
   15126    15341    15325    14966    14416    13910    13568    13411 
   13586    14256    15201    15794    15385    13725    11224     8788 
    7232     6841     7384     8327     9084     9389     9479     9766 
   10398    11148    11597    11490    10668     8871     6278     3865 
    2593     2425     2421     1768      528     -621    -1212    -1448 
   -1995    -3463    -5799    -8015    -8867    -7870    -5570    -3091 
   -1382     -477      401     1840     3739     5662     7216     8165 
    8412     8039     7431     7130     7373     7865     8038     7396 
    5900     4426     4317     5974     8365    10104    10577     9969 
    8931     8335     8666     9525    10085     9973     9610     9698 
   10457    11532    12548    13453    14236    14698    14692    14362 
   14117    14243    14532    14636    14558    14376    14038    13541 
   12881    12164    11600    11126    10393     9095     7374     5881 
    5137     5009     5039     4990     4870     4712     4515     4260 
    3966     3558     2695     1178     -723    -2598    -3990    -4449 
   -3989    -3301    -3397    -4765    -6759    -8287    -8908    -8982 
   -9114    -9482    -9770    -9906   -10125   -10471   -10721   -10462 
   -9422    -7830    -6440    -6195    -7328    -8929    -9901    -9928 
   -9269    -8292    -7269    -6260    -5307    -4558    -4105    -3915 
   -3805    -3539    -3166    -2875    -2558    -1863     -694      519 
    1352     1706     1400      256    -1449    -2869    -3160    -2445 
   -1731    -1780    -2426    -2943    -2928    -2524    -1895     -923 
     514     2242     4112     6195     8343    10014    10686    10383 
    9738     9357     9161     8571     7367     6060     5323     5281 
    5383     5014     4121     2981     1778      677     -149     -594 
    -721     -812    -1012    -1117     -954     -644     -314       64 
     592     1429     2537     3394     3283     1974      163    -1033 
   -1151     -630       33      815     1786     2754     3422     3721 
    3770     3505     2917     2533     2960     4112     5312     6102 
    6606     7054     7212     6489     4792     2868     1531      958 
     756      436     -145     -710     -850     -457      -25     -394 
   -1941    -4065    -5709    -6186    -5460    -3943    -2137     -482 
     862     2223     3953     5883     7493     8529     9116     9280 
    8854     7833     6604     5830     5853     6371     6912     7365 
    7881     8464     8927     9228     9573     9995    10106     9572 
    8626     7867     7572     7372     6603     4845     2213     -749 
   -3292    -4613    -4191    -2236      202     1871     2217     1431 
     -74    -1726    -2700    -2361     -774     1401     3538     5437 
    7106     8486     9464     9847     9276     7473     4703     1636 
   -1049    -2705    -2841    -1474      819     3262     5395     7167 
    8490     9086     8774     7619     5748     3238      386    -2227 
   -4030    -4746    -4659    -4329    -3972    -3635    -3519    -3627 
   -3664    -3475    -3258    -3286    -3495    -3584    -3472    -3382 
   -3571    -4040    -4476    -4597    -4382    -3910    -3269    -2525 
   -1712     -818      275     1582     2826     3771     4653     6088 
    8396    11156    13542    14847    14873    14081    13160    12363 
   11379     9981     8512     7520     7296     7882     9166    10848 
   12385    13166    12871    11625     9813     7778     5612     3282 
    1125     -150     -351     -157     -298     -820    -1202     -921 
      80     1375     2451     3215     4046     5390     7464    10004 
   12153    13010    12488    11524    11101    11258    11466    11426 
   11163    10722    10071     9281     8447     7455     6117     4570 
    3558     3974     5952     8496    10102    10119     9389     9274 
   10460    12445    13886    13872    12771    11671    11327    11610 
   11874    11679    10908     9649     8294     7275     6612     6031 
    5355     4610     3876     3115     2159      875     -591    -1856 
   -2694    -3095    -3037    -2565    -1878    -1138     -399      170 
     261     -266    -1163    -1771    -1455     -313      794      989 
      56    -1558    -3107    -3953    -3891    -3098    -1973     -956 
    -179      379      599      530      378       70     -584    -1439 
   -2067    -2251    -2185    -2075    -1924    -1682    -1274     -606 
