Origin Time       2011/03/11 14:46:00
Lat.              38.103
Long.             142.860
Depth. (km)       24
Mag.              9.0
Station Code      NIG022
Station Lat.      37.0366
Station Long.     138.8461
Station Height(m) 182
Record Time       2011/03/11 14:47:36
Sampling Freq(Hz) 100Hz
Duration Time(s)  299
Dir.              E-W
Scale Factor      3920(gal)/6182761
Max. Acc. (gal)   26.355
Last Correction   2011/03/11 14:47:21
Memo.             
[...]
   -7886    -7636    -8283    -8926    -9789   -11336   -13018   -14368 
  -15011   -14548   -13503   -12943   -13338   -14345   -15100   -15148 
  -14818   -14439   -14611   -15891   -17742   -19724   -21986   -24247 
  -26129   -27484   -28232   -28244   -27531   -26940   -27177   -27398 
  -26291   -23483   -19515   -15679   -13504   -13712   -15992   -19506 
  -23292   -26446   -28266   -28640   -28252   -27759   -26981   -25972 
  -25438   -25099   -24330   -23098   -20501   -16218   -12076    -9239 
   -7310    -6238    -6113    -6406    -6679    -6940    -7298    -7804 
   -8249    -8302    -8071    -7918    -7965    -8302    -8736    -8715 
   -8594    -9176   -10328   -11818   -13418   -14274   -14276   -14116 
  -13700   -12965   -12302   -11317   -10176    -9767    -9549    -9201 
   -9331    -9320    -8611    -7835    -7484    -7742    -8399    -9027 
   -9279    -8551    -7007    -5371    -3403    -1342     -263      134 
     339     -384    -1799    -2891    -3958    -5212    -5972    -6920 
   -9391   -12547   -14845   -16045   -15769   -13625   -10871    -9103 
   -8520    -8873   -10093   -11414   -12055   -12309   -12884   -13815 
  -14730   -16035   -17954   -19515   -20627   -21680   -21614   -20482 
  -19909   -19777   -19638   -20226   -21063   -21671   -23220   -25916 
  -28643   -30736   -31915   -32359   -32650   -33030   -33581   -34130 
  -33905   -32710   -31430   -30644   -30414   -31198   -32990   -34597 
  -35532   -36403   -36615   -35236   -33142   -31211   -29274   -27678 
  -26664   -25360   -23254   -20691   -17945   -15607   -14327   -13879 
  -14164   -14991   -15335   -15101   -14548   -12954   -10573    -8401 
   -6507    -5127    -4718    -4848    -5121    -5744    -6524    -6871 
   -6677    -6437    -6509    -6709    -6840    -6949    -7205    -8031 
   -9776   -12301   -15032   -17187   -18535   -19664   -20959   -22251 
  -23287   -23795   -23482   -22146   -20181   -18575   -17480   -16537 
  -16536   -17738   -18638   -18689   -18414   -17288   -15351   -14221 
  -14612   -15613   -16217   -15719   -13515    -9625    -5241    -1902 
    -194      -11     -943    -2163    -3046    -3508    -3785    -4040 
   -4567    -6375    -9893   -14452   -19473   -23759   -26124   -27402 
  -28657   -29719   -30542   -31415   -32644   -34477   -36723   -38968 
  -40587   -40648   -38862   -35985   -32939   -30906   -31359   -33928 
  -36639   -38816   -40220   -40052   -39099   -38398   -37466   -36660 
  -36747   -37178   -37603   -37738   -36733   -34639   -32191   -30032 
  -28674   -27842   -27061   -26122   -24079   -20495   -16985   -14502 
  -11867    -9144    -7749    -7512    -7939    -9348   -11440   -13322 
  -14107   -13918   -13918   -14184   -14235   -14609   -15170   -15012 
  -14352   -13387   -11631    -9461    -7424    -5504    -3991    -3112 
   -3001    -3906    -5240    -6322    -7461    -8946   -10850   -13621 
  -17226   -20640   -22958   -24010   -23983   -23256   -22311   -21807 
  -22207   -22998   -23788   -24745   -25463   -26061   -27189   -28442 
  -29831   -31742   -33250   -33647   -33134   -31706   -29197   -25940 
  -23173   -21684   -20931   -20405   -19768   -18562   -17132   -16237 
  -15993   -16136   -16525   -16923   -16518   -14424   -11184    -8357 
   -6456    -4964    -3454    -1926     -937    -1012    -2113    -3903 
   -5868    -7491    -8446    -8687    -8679    -9103   -10082   -11316 
  -12852   -14852   -17229   -19914   -22391   -23736   -23873   -23655 
  -24054   -25607   -27806   -29647   -30502   -29702   -27108   -24178 
  -22060   -20455   -19556   -19509   -19314   -18887   -18504   -17073 
  -14601   -12788   -12164   -12622   -14603   -17223   -19006   -19899 
  -19709   -18380   -17430   -17452   -17710   -18079   -18148   -17401 
  -16384   -15496   -14625   -13870   -13466   -13632   -14200   -14802 
  -15481   -16232   -16919   -17679   -18775   -20429   -22237   -23515 
  -24323   -24569   -23899   -22698   -21366   -20018   -19093   -19130 
  -20076   -21399   -23068   -24836   -25566   -25124   -24405   -23566 
  -22765   -22494   -22525   -22417   -21980   -20687   -18110   -15091 
  -12938   -11935   -12359   -14605   -17899   -21626   -25599   -28754 
  -30557   -31309   -30829   -29465   -28320   -27737   -27332   -26405 
  -24576   -22590   -21082   -20130   -20091   -20659   -20976   -20915 
  -20457   -19390   -17772   -15824   -14144   -13210   -12641   -12224 
  -12108   -11769   -10808    -9589    -8702    -8888   -10450   -12868 
  -15381   -17359   -18341   -18021   -16752   -15401   -14310   -13967 
  -15143   -17186   -18699   -19395   -19353   -18402   -17051   -16142 
  -16117   -17102   -18557   -19911   -21175   -21925   -21839   -21353 
  -20912   -21503   -23716   -26604   -29789   -33290   -36100   -38002 
  -39990   -42524   -45217   -47357   -48616   -49076   -48638   -47538 
  -46155   -44035   -41058   -37896   -34692   -31798   -30116   -29277 
  -28261   -27054   -25650   -23554   -20792   -17538   -13733    -9428 
   -4994    -1220     1679     4101     5798     6606     7117     7532 
    7204     5452     2376    -1453    -5677    -9834   -13204   -15486 
  -16991   -18419   -20659   -23922   -27432   -30752   -33657   -35071 
  -34911   -34268   -33108   -31609   -30685   -30049   -29574   -29638 
  -29438   -28578   -27600   -26139   -24063   -22612   -22567   -23519 
  -24563   -24522   -23124   -21361   -19588   -17642   -16072   -15084 
  -14329   -13479   -11771    -9090    -6361    -3786    -1471     -325 
    -209     -559    -2034    -4103    -4918    -4591    -4063    -3494 
   -3553    -4579    -6279    -8521   -10243   -10854   -11341   -11874 
  -12548   -14453   -17168   -19313   -20809   -21937   -22643   -23160 
  -23517   -22898   -20746   -18003   -15472   -12820   -10660    -9673 
   -8852    -7913    -7847    -8635    -9329    -9507    -9677   -10224 
  -10968   -12297   -14614   -17173   -19216   -20840   -22524   -24550 
  -26617   -28595   -30676   -32308   -33276   -34642   -36595   -38410 
  -40117   -41251   -41218   -40938   -40820   -40140   -38754   -36615 
  -33941   -31944   -31251   -31385   -31511   -30862   -29440   -27123 
  -23650   -20203   -17461   -14765   -12651   -11533   -10372    -9278 
   -8853    -8430    -8375    -9869   -12410   -14928   -16454   -15875 
  -13849   -12031   -10627    -9826   -10077    -9988    -8575    -7365 
   -7122    -7263    -8567   -11409   -14344   -16833   -19180   -20753 
  -20961   -19896   -17822   -15401   -13484   -12604   -12802   -13086 
  -12328   -10915    -9844    -9602   -10741   -13438   -16407   -18121 
  -18710   -18717   -17572   -15248   -13071   -11689   -10620   -10246 
  -11144   -12243   -12993   -14405   -16379   -18257   -20925   -24700 
  -27685   -29002   -29546   -29037   -27504   -26216   -24853   -23135 
  -22179   -21893   -21781   -22211   -23025   -24021   -25186   -26044 
  -26982   -28591   -30230   -31601   -32711   -32792   -31507   -29532 
  -27415   -25178   -23671   -23957   -25238   -26711   -28427   -29172 
  -28540   -28055   -28174   -28940   -30583   -31822   -31665   -30233 
  -27348   -23675   -20546   -18453   -17604   -17793   -18047   -17618 
  -16473   -15142   -14457   -15058   -16904   -19563   -22859   -26186 
  -28515   -29919   -30934   -31398   -31694   -32787   -34707   -36685 
  -37813   -37553   -36101   -33606   -30275   -27046   -24301   -21558 
  -19135   -17608   -16439   -15210   -14198   -13205   -12172   -11427 
  -10533    -9500    -9280    -9898   -10744   -11576   -12362   -13150 
  -13691   -14008   -14489   -14976   -15743   -17071   -18156   -19065 
  -19969   -19577   -18046   -16837   -15973   -15462   -16020   -17312 
  -18648   -20252   -22396   -24806   -27172   -29190   -30447   -30571 
  -29451   -27609   -25655   -23188   -19533   -15267   -11345    -7965 
   -5715    -5229    -5603    -5686    -5465    -4945    -3835    -2552 
   -1873    -2147    -3353    -5209    -7425    -9462   -10519   -10769 
  -11322   -12761   -14812   -17268   -20054   -22337   -23430   -24234 
  -25828   -28124   -30941   -34032   -36686   -38902   -40907   -42201 
  -42610   -42374   -41763   -41433   -41281   -40336   -38758   -36960 
  -34581   -31930   -29051   -25740   -23133   -21620   -20353   -19336 
  -18609   -17457   -15564   -13520   -12071   -11236   -10746   -10614 
  -10690   -11114   -12433   -14210   -15749   -17328   -18809   -19608 
  -19822   -19207   -17391   -15110   -12764   -10110    -7905    -6721 
   -6016    -5796    -6538    -8291   -10970   -13629   -14570   -13567 
  -11381    -8167    -4873    -2856    -2178    -2465    -2911    -2689 
   -2340    -2668    -3827    -5385    -6860    -8751   -11236   -13923 
  -17157   -20308   -21744   -21437   -20303   -19204   -19497   -21553 
  -24172   -26465   -28198   -29356   -30066   -29998   -28794   -26614 
  -23595   -19941   -16302   -13246   -10559    -7819    -5401    -3500 
   -1511      524     2257     4011     5639     6464     6154     4583 
    2066     -877    -3881    -6196    -7715    -9337   -10982   -12037 
  -12920   -14238   -16305   -19134   -22113   -24942   -27802   -30334 
  -32144   -33269   -33947   -34760   -35830   -36377   -35587   -32929 
  -28576   -23565   -18438   -13104    -8256    -4565    -1519      883 
    1919     2255     2735     3239     4293     5207     3889      971 
   -2178    -5566    -7449    -6964    -6413    -6840    -8260   -11243 
  -14652   -17516   -20606   -23648   -25781   -26990   -26908   -25492 
  -23979   -23435   -24032   -25505   -27426   -29322   -30438   -30759 
  -31766   -33889   -35891   -37444   -38686   -39340   -39825   -40593 
  -41541   -42556   -42920   -42155   -41021   -39636   -37633   -35681 
  -33657   -30408   -26204   -21907   -17439   -12851    -8722    -5706 
   -4214    -3871    -4335    -5526    -6448    -6625    -6956    -7451 
   -7573    -7770    -8149    -8318    -8445    -8391    -8112    -8581 
  -10075   -12440   -15996   -19560   -21964   -24006   -25351   -24972 
  -24128   -23805   -23011   -21307   -19180   -16718   -14105   -12103 
  -11171   -11078   -11419   -11812   -11925   -11944   -12281   -12839 
  -13792   -15470   -17042   -17835   -18480   -19144   -19161   -18524 
  -17557   -16126   -14429   -13062   -12111   -11260   -10641   -10731 
  -11457   -12585   -14419   -17147   -20443   -23847   -26624   -28139 
  -28811   -28960   -27945   -25868   -23772   -22337   -21972   -22889 
  -24545   -26089   -27317   -28366   -29385   -30719   -31988   -32462 
  -32480   -32237   -31057   -28835   -26203   -23592   -20922   -18375 
  -16777   -16157   -15938   -16612   -18200   -19320   -19751   -19941 
  -19190   -17815   -16979   -16140   -14828   -13682   -12691   -11826 
  -11471   -11867   -13403   -15530   -17138   -18566   -20282   -21963 
  -23532   -24393   -23811   -22205   -20003   -17427   -15350   -14122 
  -12773   -10454    -7608    -5095    -3551    -3540    -4694    -6412 
   -8980   -11947   -14405   -16531   -18582   -20909   -23963   -26726 
  -27965   -27899   -26931   -25339   -23864   -22802   -21704   -20260 
  -18657   -16795   -14217   -11481    -9383    -7850    -7292    -7815 
   -8139    -7497    -6074    -4050    -1875     -601     -927    -2466 
   -4486    -5935    -6246    -6911    -8997   -11515   -13954   -16082 
  -17007   -17065   -17227   -17502   -18217   -19967   -22470   -25380 
  -28287   -30276   -31160   -31235   -30217   -28578   -27589   -27301 
  -27230   -27562   -28439   -29831   -31621   -33519   -34997   -35328 
  -34860   -34555   -34068   -33329   -33302   -33756   -34119   -34443 
  -34207   -33471   -32911   -32174   -31197   -30548   -29987   -29339 
  -28586   -27149   -25109   -22969   -20649   -18434   -17057   -16740 
  -17416   -18892   -20547   -21989   -23285   -24482   -25597   -26288 
  -26664   -27588   -28470   -28252   -27714   -27453   -27020   -26889 
  -27824   -29354   -30938   -32703   -34124   -34565   -34728   -35322 
  -35926   -36160   -36364   -36564   -35977   -34874   -34308   -33512 
  -31801   -30153   -28521   -26537   -24883   -23089   -20144   -16339 
  -12287    -8551    -5653    -3773    -2926    -2728    -2770    -2795 
   -2465    -1486      632     3630     6077     7066     6384     3944 
     551    -2338    -4198    -5403    -6282    -7420    -9021   -10123 
  -10091    -9341    -8276    -7194    -6564    -6220    -5449    -4452 
   -4010    -3966    -4256    -5483    -6842    -7570    -8511    -9250 
   -9255    -9694   -10254   -10127   -10363   -11081   -11119   -10470 
   -9533    -8388    -7769    -8089    -8670    -8827    -7960    -5824 
   -3325    -1552     -747     -811    -1851    -4001    -6956   -10173 
  -13557   -16979   -19876   -22361   -25097   -28003   -30561   -32683 
  -34112   -34374   -34135   -34396   -34884   -34977   -34461   -32968 
  -30652   -29076   -29539   -31383   -33669   -36080   -37203   -36098 
  -34630   -33978   -33071   -31889   -30049   -26033   -21134   -17039 
  -13023    -9365    -6835    -5021    -4075    -4084    -4686    -6081 
   -7811    -8694    -8764    -8875    -9418   -10638   -12165   -12746 
  -12150   -11401   -11318   -12723   -16128   -20723   -25335   -29391 
  -32714   -35177   -36520   -36708   -36158   -35364   -34541   -33698 
  -33012   -32065   -29992   -27475   -25633   -24512   -24656   -25892 
  -26225   -24819   -22296   -19074   -15707   -12345    -8519    -4471 
    -566     3570     7754    11486    15154    18549    20670    21930 
   23047    23338    22733    21870    20320    18057    16081    14678 
   13669    12856    11608     9796     7889     6109     4815     4240 
    3982     3556     2525      831     -949    -2522    -4331    -6902 
  -10311   -14422   -18834   -23027   -27346   -32065   -36265   -39369 
  -41266   -41377   -40052   -38591   -37563   -36964   -36100   -33619 
  -29234   -23922   -18922   -15340   -13696   -13601   -14105   -14798 
  -15783   -16542   -16563   -16185   -16008   -16177   -16228   -16051 
  -15941   -15476   -14315   -12686   -10791    -9444    -9413   -10312 
  -11360   -12030   -12434   -13225   -14691   -16435   -17574   -17621 
  -17028   -16088   -14782   -13684   -13310   -13647   -14994   -17616 
  -20719   -23340   -25318   -26577   -27278   -27888   -28112   -27602 
  -26278   -23468   -19387   -15637   -13137   -11940   -12090   -13115 
  -14173   -15216   -16661   -18058   -18766   -18832   -17999   -16065 
  -13471    -9945    -5364    -1253     1212     1974      923    -1259 
   -3552    -6242    -9593   -13531   -18793   -25114   -30654   -34294 
  -35601   -34261   -31240   -28298   -26549   -26083   -26112   -25464 
  -23387   -20263   -16985   -14206   -12969   -13698   -15533   -18378 
  -22111   -25257   -27567   -29530   -30136   -29350   -28335   -26863 
  -25014   -23867   -23182   -22341   -21675   -21247   -20721   -19984 
  -19010   -17799   -16599   -15741   -14885   -13456   -11862   -10337 
   -8292    -6475    -5954    -5580    -4723    -4687    -5678    -7466 
  -10710   -14603   -17506   -19204   -19533   -18090   -16180   -15460 
  -15398   -14910   -14125   -12901   -10921    -8664    -6446    -4764 
   -4921    -7659   -12259   -17072   -20489   -21814   -21625   -20880 
  -20201   -20454   -22010   -23711   -24258   -23206   -20616   -17241 
  -14194   -11941   -10315    -9277    -8750    -8107    -6919    -5307 
   -3322    -1682    -1976    -4385    -7481   -10583   -13128   -14158 
  -14425   -15073   -16155   -18226   -21099   -23248   -24141   -23683 
  -21799   -19310   -16613   -14021   -12739   -13146   -14559   -16195 
  -16915   -15935   -13694   -11161    -9481    -9455   -10343   -10873 
  -10626    -9424    -7535    -6223    -6511    -8398   -11327   -14276 
  -16370   -17562   -17949   -17694   -17400   -17574   -18197   -19091 
  -20451   -21869   -22247   -21886   -21732   -21835   -22582   -24397 
  -26740   -28926   -30225   -30198   -29248   -27561   -25463   -23892 
  -22828   -22014   -21775   -21704   -21536   -21411   -20903   -20503 
  -21154   -22493   -24167   -26077   -27264   -26953   -25254   -22613 
  -20110   -18704   -17682   -16269   -14960   -13694   -12255   -11827 
  -13211   -15818   -19016   -21915   -23325   -23349   -23004   -23046 
  -24004   -25705   -27092   -27231   -25930   -23365   -20168   -17790 
  -17480   -19430   -22861   -26162   -27760   -26977   -24531   -22491 
  -22193   -23280   -25355   -27566   -28220   -26880   -24134   -20411 
  -16716   -14126   -12695   -12253   -12842   -13901   -14666   -14908 
  -14421   -13445   -13158   -14144   -15743   -17327   -18444   -18324 
  -16959   -15550   -14825   -14579   -14911   -15885   -16791   -17449 
  -18448   -19599   -20656   -22033   -23309   -24215   -25547   -27185 
  -28377   -28931   -28811   -28213   -27472   -27154   -27904   -29430 
  -31077   -32413   -32645   -31075   -27906   -24127   -20484   -17081 
  -14572   -13494   -12585   -10580    -7875    -4947    -1959      482 
    2247     3531     3998     3769     3354     2589     1622     1263 
    1545     1817     1441      -77    -2214    -4086    -6026    -8356 
  -10645   -13241   -16592   -19791   -22084   -23922   -25345   -25486 
  -24522   -23577   -22274   -19919   -17744   -16610   -15950   -15558 
  -15164   -14249   -12891   -11224    -9476    -8343    -8316    -9418 
  -11147   -12252   -11887   -10741    -9847    -9364    -9249    -9769 
  -10892   -12318   -13920   -15458   -16516   -16810   -16538   -16461 
  -17115   -18912   -22218   -26136   -29191   -30951   -31789   -32328 
  -33240   -34632   -35746   -35869   -34997   -33280   -31131   -29408 
  -28350   -27513   -26671   -25804   -24889   -23907   -22884   -21729 
  -20024   -17954   -16752   -17221   -19144   -22066   -25305   -27944 
  -29433   -30014   -30570   -31622   -32781   -33612   -34135   -34221 
  -33697   -33001   -32470   -31753   -30721   -29604   -28554   -27664 
  -26524   -24395   -21148   -17299   -13708   -11103    -9214    -7390 
   -5525    -3212     -245     2320     3807     4307     3356     1013 
   -1666    -4230    -6462    -7538    -7420    -7113    -7438    -8873 
  -11195   -13486   -15418   -16769   -16706   -15477   -14443   -14294 
  -15208   -17306   -20069   -22304   -22936   -21944   -19866   -16956 
  -14073   -12242   -11041    -9612    -7669    -5250    -2864    -1006 
    -116     -836    -3131    -6384   -10016   -13374   -16098   -17829 
  -17741   -15753   -12766    -9387    -6593    -6138    -8497   -12784 
  -18387   -24279   -29109   -32962   -36501   -39638   -42111   -43694 
  -44351   -44343   -43498   -41606   -39026   -36043   -32844   -30078 
  -28519   -28306   -29219   -31118   -33000   -33679   -33646   -33341 
  -31894   -29198   -25661   -21164   -16417   -12229    -8031    -3500 
     633     3483     4298     3276     1368     -986    -3004    -3560 
   -3167    -3300    -4410    -6354    -9146   -12128   -14080   -14793 
  -14851   -14270   -12858   -10986    -9366    -8575    -9027   -10900 
  -13595   -16176   -18184   -19461   -20401   -21485   -22573   -23865 
  -25491   -27076   -28945   -30855   -31500   -31278   -31620   -32468 
  -33863   -36492   -39556   -41902   -43374   -43844   -43512   -42923 
  -42425   -42411   -42558   -41980   -40637   -38691   -35995   -33110 
  -30846   -29247   -27954   -26660   -25317   -24395   -24423   -25039 
