Origin Time       2011/03/11 14:46:00
Lat.              38.103
Long.             142.860
Depth. (km)       24
Mag.              9.0
Station Code      NIG002
Station Lat.      38.0748
Station Long.     138.4407
Station Height(m) 3
Record Time       2011/03/11 14:47:35
Sampling Freq(Hz) 100Hz
Duration Time(s)  300
Dir.              U-D
Scale Factor      3920(gal)/6182761
Max. Acc. (gal)   8.398
Last Correction   2011/03/11 14:47:20
Memo.             
[...]
    2169     1735     1318      896      525      169     -192     -420 
    -520     -605     -613     -620     -706     -656     -493     -462 
    -467     -387     -337     -319     -247      -82      176      406 
     550      735      998     1224     1369     1450     1417     1346 
    1442     1665     1864     2069     2327     2672     3181     3679 
    3982     4278     4675     5007     5094     4955     4842     4828 
    4763     4665     4637     4577     4269     3764     3298     2882 
    2467     2113     1703     1151      623       81     -594    -1333 
   -2190    -3117    -3861    -4477    -5105    -5667    -6212    -6788 
   -7255    -7574    -7732    -7789    -7941    -8074    -7998    -7908 
   -7834    -7555    -7216    -7015    -6833    -6632    -6466    -6292 
   -6077    -5887    -5771    -5720    -5808    -6064    -6371    -6750 
   -7172    -7410    -7432    -7292    -6995    -6753    -6623    -6474 
   -6392    -6413    -6531    -6692    -6680    -6560    -6467    -6301 
   -6120    -6016    -5919    -5840    -5773    -5574    -5230    -4829 
   -4344    -3767    -3187    -2742    -2450    -2183    -2024    -2079 
   -2096    -1998    -1957    -1969    -2044    -2159    -2223    -2366 
   -2639    -2870    -3096    -3502    -4004    -4465    -4813    -4910 
   -4859    -4814    -4642    -4259    -3807    -3423    -3046    -2547 
   -1948    -1303     -647      -82      360      804     1327     1845 
    2328     2748     2979     3130     3405     3728     3959     4100 
    4294     4688     5133     5470     5851     6146     6039     5723 
    5332     4645     3769     2958     2216     1562     1037      499 
    -190     -935    -1575    -2081    -2463    -2744    -2853    -2659 
   -2295    -1914    -1529    -1285    -1193    -1029     -760     -483 
    -142      319      765     1075     1313     1479     1437     1207 
     942      697      478      284       69     -142     -365     -672 
   -1028    -1434    -1932    -2586    -3368    -4003    -4479    -5051 
   -5681    -6309    -7064    -7915    -8696    -9289    -9709   -10040 
  -10248   -10300   -10273   -10196   -10057    -9840    -9449    -8847 
   -8153    -7416    -6601    -5852    -5301    -4815    -4343    -3997 
   -3788    -3725    -3789    -3830    -3877    -4057    -4204    -4280 
   -4416    -4418    -4179    -3861    -3524    -3201    -2883    -2515 
   -2211    -2016    -1741    -1382    -1144    -1009     -921     -886 
    -703     -314       89      478      837     1077     1320     1699 
    1997     2131     2499     3080     3466     3700     3840     3716 
    3347     2953     2481     1800     1320     1119      795      502 
     393      357      459      610      621      605      734      945 
    1150     1369     1625     1945     2305     2582     2675     2637 
    2488     2128     1714     1577     1625     1624     1639     1695 
    1658     1466     1204      987      737      337     -105     -594 
   -1233    -1793    -2172    -2524    -2739    -2605    -2341    -2450 
   -2715    -2675    -2635    -2558    -2095    -1694    -1420     -725 
      -6      276      657     1139     1248     1285     1496     1623 
    1604     1669     1767     1593     1480     1657     1785     1898 
    2084     2304     2596     2920     3240     3503     3781     4239 
    4806     5332     5817     6302     6632     6706     6699     6567 
    6373     6366     6229     5938     5827     5683     5511     5437 
    5213     5036     5084     5025     4800     4487     4075     3592 
    2966     2251     1624     1239     1049      840      684      559 
     270      -81     -343     -563     -801    -1009    -1253    -1520 
   -1615    -1670    -1779    -1779    -1804    -1919    -1927    -1820 
   -1622    -1516    -1653    -1687    -1636    -1778    -1960    -2250 
   -2759    -3252    -3616    -3820    -3870    -3825    -3839    -3940 
   -3842    -3627    -3468    -3099    -2695    -2519    -2226    -1770 
   -1468    -1267     -992     -791     -814     -978    -1326    -1713 
   -1792    -1747    -1727    -1428     -906     -555     -334      -80 
      27      122      425      673      905     1340     1751     2082 
    2380     2408     2301     2356     2323     2148     2114     2206 
    2526     3001     3079     2854     2873     3069     3187     3312 
    3443     3402     3258     3085     2631     1967     1569     1493 
    1480     1456     1553     1812     2029     2151     2365     2586 
    2457     2269     2299     2146     2057     2157     2033     2027 
    2210     2145     2021     2083     2043     1639     1237     1176 
    1028      691      661      804      926     1162     1322     1587 
    2178     2659     2918     3240     3821     4444     4824     5213 
    5422     5237     5235     5460     5647     5876     5980     6004 
    6194     6148     5737     5421     5111     4709     4391     4079 
    3739     3209     2574     2208     1740      939      356      111 
    -100     -364     -564     -487     -371     -654    -1134    -1548 
   -1877    -2239    -2759    -3124    -3395    -3802    -4012    -4107 
   -4331    -4437    -4275    -3961    -3720    -3502    -3130    -2666 
   -2078    -1518    -1143     -705     -199      215      700     1384 
    2069     2647     3180     3369     3147     3030     3014     2912 
    2962     3032     3028     3163     3263     3176     2965     2760 
    2703     2589     2431     2449     2397     2154     2016     2073 
    2162     2228     2283     2384     2589     2640     2539     2664 
    2877     2874     2743     2686     2695     2576     2425     2394 
    2325     2159     1999     1876     1782     1823     1972     2092 
    2293     2443     2407     2501     2688     2754     2828     3032 
    3423     4001     4730     5599     6431     7148     7832     8330 
    8530     8525     8386     8309     8404     8435     8391     8527 
    8740     8815     8871     8890     8691     8534     8540     8220 
    7501     6842     6355     5815     5232     4776     4325     3834 
    3527     3386     3316     3344     3405     3402     3375     3494 
    3825     4185     4485     4899     5345     5555     5610     5691 
    5821     5989     6151     6238     6228     6150     6075     6151 
    6369     6546     6694     6909     7079     7097     7071     7157 
    7286     7223     7009     6893     6891     6865     6788     6753 
    6674     6438     6237     6053     5710     5401     5155     4878 
    4778     4750     4521     4247     4010     3695     3311     2951 
    2686     2450     2238     2121     1997     1747     1551     1516 
    1411     1284     1279     1275     1294     1329     1299     1181 
    1021      935      767      465      275       62     -285     -545 
    -821    -1261    -1684    -2016    -2317    -2576    -2676    -2606 
   -2561    -2559    -2458    -2294    -2157    -2038    -1968    -2028 
   -2105    -2057    -1979    -1818    -1497    -1249    -1050     -657 
    -164      196      465      791     1064     1214     1334     1378 
    1322     1275     1269     1231     1245     1415     1592     1698 
    1801     1912     2119     2398     2618     2868     3245     3666 
    4054     4413     4724     4952     5219     5691     6289     6883 
    7488     7973     8183     8263     8305     8220     8163     8254 
    8267     8137     8008     7819     7445     6975     6521     6091 
    5648     5127     4600     4138     3655     3265     3122     3080 
    2976     2826     2685     2537     2386     2280     2218     2147 
    2065     2085     2163     2124     1980     1788     1604     1592 
    1681     1654     1620     1663     1655     1605     1500     1292 
    1089      901      647      432      290       15     -427     -883 
   -1210    -1255     -996     -564      -72      458     1017     1551 
    2033     2495     3001     3528     4004     4500     5015     5433 
    5867     6357     6681     6860     6939     6724     6343     6053 
    5792     5516     5309     5221     5244     5288     5315     5324 
    5233     4945     4391     3706     3104     2483     1860     1450 
    1180      986      934      987     1143     1345     1491     1678 
    2007     2456     3048     3721     4267     4637     5018     5477 
    5899     6199     6373     6463     6491     6474     6421     6276 
    6010     5687     5401     5169     4955     4834     4883     4993 
    5102     5251     5355     5325     5123     4745     4428     4373 
    4448     4556     4703     4792     4766     4624     4383     4174 
    4058     3970     3938     3947     3896     3718     3339     2764 
    2116     1542     1105      789      642      692      913     1200 
    1400     1548     1749     1984     2241     2514     2780     3076 
    3371     3561     3704     3963     4283     4525     4796     5152 
    5445     5679     5953     6223     6428     6633     6905     7200 
    7555     8030     8517     8927     9193     9153     8796     8286 
    7663     6994     6452     5992     5527     5185     4997     4902 
    4871     4806     4678     4563     4467     4336     4160     3963 
    3786     3602     3324     2943     2430     1746      919      -49 
   -1023    -1794    -2329    -2688    -2947    -3122    -3100    -2907 
   -2761    -2808    -2991    -3200    -3412    -3617    -3738    -3784 
   -3863    -4027    -4281    -4534    -4705    -4909    -5149    -5319 
   -5473    -5581    -5609    -5752    -5984    -6012    -5809    -5599 
   -5433    -5227    -5029    -4808    -4449    -4073    -3738    -3282 
   -2760    -2334    -1982    -1661    -1392    -1225    -1186    -1218 
   -1289    -1395    -1500    -1584    -1638    -1588    -1355     -981 
    -598     -274       -9      202      375      507      670      902 
    1038     1055     1134     1285     1449     1631     1788     1872 
    1916     2015     2204     2475     2871     3345     3740     4035 
    4308     4509     4585     4565     4518     4470     4348     4239 
    4264     4219     3977     3625     3174     2658     2090     1452 
     816      189     -373     -682     -770     -741     -588     -364 
    -125      107      364      670      929     1078     1176     1290 
    1388     1401     1331     1235     1095      850      538      226 
     -46     -262     -425     -514     -479     -253      140      624 
    1148     1618     1933     2025     1930     1748     1624     1686 
    1830     1919     1990     2104     2262     2439     2636     2913 
    3247     3507     3631     3670     3669     3665     3692     3761 
    3820     3784     3710     3667     3594     3491     3369     3159 
    2894     2676     2544     2477     2468     2543     2647     2708 
    2717     2682     2704     2811     2859     2784     2603     2415 
    2297     2186     2071     1966     1816     1647     1496     1264 
     933      686      573      462      307      117     -114     -447 
    -896    -1329    -1624    -1803    -1945    -2146    -2409    -2585 
   -2637    -2634    -2573    -2434    -2191    -1941    -1790    -1707 
   -1721    -1867    -2102    -2456    -2893    -3217    -3335    -3312 
   -3165    -2890    -2603    -2359    -2123    -2034    -2082    -2015 
   -1869    -1806    -1749    -1624    -1482    -1235     -774     -222 
     304      829     1416     2080     2754     3419     4057     4612 
    5138     5653     6125     6637     7164     7622     8185     8885 
    9506    10092    10768    11406    11841    12094    12333    12572 
   12690    12696    12555    12177    11663    11036    10231     9365 
    8485     7546     6648     5826     5013     4202     3422     2671 
    1843      926      124     -486    -1024    -1602    -2274    -2905 
   -3362    -3775    -4215    -4600    -4893    -5101    -5259    -5382 
   -5460    -5500    -5539    -5634    -5770    -5844    -5829    -5826 
   -5967    -6177    -6227    -6155    -6108    -6006    -5808    -5559 
   -5237    -4856    -4405    -3897    -3466    -3140    -2869    -2638 
   -2421    -2279    -2235    -2159    -2000    -1829    -1747    -1797 
   -1982    -2298    -2646    -2969    -3388    -3936    -4456    -4831 
   -5042    -5123    -5123    -5092    -5124    -5191    -5191    -5192 
   -5243    -5268    -5256    -5205    -5095    -4997    -4960    -4900 
   -4780    -4641    -4419    -4030    -3517    -2949    -2335    -1629 
    -848     -163      366      880     1398     1779     2003     2168 
    2292     2360     2392     2425     2441     2383     2297     2242 
    2178     2098     2086     2192     2335     2392     2344     2236 
    2052     1760     1429     1188     1070     1001      966     1008 
    1055      987      831      716      611      389      151       98 
     208      324      385      437      517      517      355      179 
      78      -57     -214     -275     -317     -425     -456     -353 
    -247     -188     -108       41      201      334      521      875 
    1396     1927     2373     2749     3015     3144     3157     3105 
    3074     3076     3050     2964     2798     2526     2161     1824 
    1583     1307      952      636      360       32     -407     -956 
   -1576    -2222    -2848    -3464    -4033    -4482    -4876    -5306 
   -5812    -6460    -7208    -7879    -8379    -8786    -9170    -9507 
   -9742    -9870    -9964   -10048   -10166   -10431   -10788   -11161 
  -11581   -11991   -12341   -12562   -12589   -12554   -12504   -12328 
  -12033   -11692   -11312   -10886   -10461   -10110    -9841    -9618 
   -9366    -9004    -8518    -7924    -7290    -6758    -6326    -5893 
   -5465    -5024    -4506    -3971    -3527    -3232    -3096    -3010 
   -2881    -2796    -2843    -2986    -3127    -3171    -3178    -3242 
   -3294    -3283    -3240    -3125    -2888    -2548    -2169    -1813 
   -1498    -1179     -815     -420      -36      290      555      808 
    1074     1383     1760     2191     2649     3041     3276     3411 
    3517     3599     3681     3783     3914     4080     4217     4286 
    4378     4604     4983     5429     5827     6076     6095     5917 
    5626     5216     4743     4341     4027     3764     3552     3397 
    3316     3242     3075     2912     2938     3124     3310     3471 
    3654     3880     4177     4507     4818     5118     5403     5609 
    5659     5589     5497     5427     5377     5341     5301     5243 
    5157     4975     4638     4238     3874     3467     2950     2422 
    1961     1541     1156      894      831      882      921      888 
     823      764      598      331      107      -85     -291     -475 
    -625     -766     -891    -1005    -1152    -1327    -1475    -1511 
   -1387    -1187    -1010     -830     -637     -548     -678     -946 
   -1178    -1364    -1542    -1672    -1791    -1967    -2187    -2441 
   -2741    -3059    -3333    -3556    -3750    -3913    -4084    -4259 
   -4366    -4460    -4656    -4909    -5114    -5282    -5501    -5731 
   -5785    -5652    -5521    -5492    -5509    -5492    -5400    -5248 
   -5089    -4962    -4914    -4977    -5095    -5249    -5424    -5462 
   -5312    -5107    -4920    -4731    -4555    -4457    -4387    -4225 
   -4028    -3877    -3761    -3700    -3675    -3674    -3733    -3744 
   -3584    -3317    -3083    -2956    -2858    -2670    -2405    -2071 
   -1653    -1226     -815     -403      -91       54      161      344 
     531      650      775      982     1298     1709     2066     2287 
    2461     2560     2582     2668     2752     2765     2864     3062 
    3224     3393     3644     3933     4266     4633     4955     5226 
    5443     5573     5591     5578     5737     6033     6213     6197 
    6110     6017     5804     5427     4995     4581     4184     3756 
    3300     2916     2634     2359     2071     1901     1906     1996 
    2152     2428     2849     3381     3956     4550     5120     5597 
    5981     6283     6457     6420     6226     5993     5728     5443 
    5178     4936     4728     4597     4571     4578     4524     4409 
    4271     4088     3848     3618     3419     3177     2870     2513 
    2123     1737     1314      774      134     -521    -1133    -1669 
   -2060    -2251    -2270    -2196    -2084    -1912    -1737    -1653 
   -1603    -1625    -1786    -1931    -1938    -1820    -1622    -1395 
   -1172     -997     -907     -899     -913     -815     -578     -310 
     -44      238      488      683      837      917      893      817 
     717      499      155     -208     -558     -846    -1007    -1079 
   -1050     -910     -722     -533     -393     -273     -136     -113 
    -240     -417     -595     -720     -767     -791     -845     -975 
   -1157    -1310    -1438    -1625    -1836    -1981    -2036    -1982 
   -1854    -1680    -1463    -1293    -1163     -978     -789     -615 
    -402     -181       44      304      651     1126     1609     1981 
    2199     2292     2397     2499     2482     2383     2288     2216 
    2149     2053     1889     1656     1447     1321     1224     1112 
    1008      880      681      479      351      301      297      311 
     387      599      968     1408     1815     2178     2497     2735 
    2901     3053     3217     3348     3435     3566     3741     3850 
    3902     3947     3973     4026     4120     4204     4265     4267 
    4181     4009     3743     3382     2936     2473     2044     1665 
    1392     1227     1138     1111     1100     1115     1193     1281 
    1350     1430     1551     1765     2064     2321     2432     2450 
    2459     2480     2556     2662     2729     2836     2981     3009 
    2963     2994     3112     3277     3423     3512     3603     3620 
    3452     3201     2973     2812     2797     2876     2937     3006 
    3075     3083     3061     3032     2988     2915     2803     2688 
    2571     2452     2379     2318     2206     2021     1729     1331 
     916      540      170     -161     -367     -454     -439     -327 
    -173      -31       71      131      153      141      156      159 
      36     -135     -209     -237     -385     -636     -786     -790 
    -726     -548     -276      -45      204      636     1086     1380 
    1657     1887     1975     2018     1965     1816     1767     1814 
    1826     1808     1800     1712     1528     1390     1273     1100 
     999      998      974      902      860      853      776      618 
     513      475      407      350      338      236       95      147 
     363      536      697      940     1102     1111     1138     1171 
    1132     1216     1489     1761     2096     2589     3015     3304 
    3638     3954     4193     4453     4599     4592     4632     4748 
    4859     4869     4792     4724     4559     4319     4091     3689 
    3126     2560     2003     1597     1358     1075      853      828 
     785      675      678      790      857      787      675      623 
     537      342      109      -95     -272     -440     -497     -430 
    -416     -406     -308     -283     -400     -604     -879    -1159 
   -1411    -1720    -2088    -2410    -2710    -3081    -3461    -3719 
   -3896    -4087    -4300    -4537    -4761    -4903    -4944    -4892 
