Origin Time       2011/03/11 14:46:00
Lat.              38.103
Long.             142.860
Depth. (km)       24
Mag.              9.0
Station Code      NIG006
Station Lat.      38.4514
Station Long.     139.4963
Station Height(m) 4
Record Time       2011/03/11 14:47:15
Sampling Freq(Hz) 100Hz
Duration Time(s)  283
Dir.              E-W
Scale Factor      3920(gal)/6182761
Max. Acc. (gal)   19.723
Last Correction   2011/03/11 14:47:00
Memo.             
[...]
  -26506   -28194   -28826   -29001   -29371   -30107   -31110   -32029 
  -32445   -32495   -32325   -31289   -28934   -26032   -23691   -22062 
  -20318   -17642   -14000   -10026    -6694    -4748    -4198    -4905 
   -6694    -8917   -11132   -13390   -15553   -17482   -19403   -21422 
  -23412   -25399   -27485   -29661   -31797   -33600   -34893   -35704 
  -35994   -35901   -35574   -34715   -33356   -32117   -31151   -30137 
  -28923   -27402   -25719   -24670   -24863   -25847   -26788   -27318 
  -27327   -26722   -25605   -24610   -24798   -26587   -29320   -32068 
  -34091   -35099   -35357   -34999   -33955   -32417   -30610   -28688 
  -26903   -25292   -23636   -21896   -20137   -18336   -16536   -15048 
  -14446   -15003   -16163   -17022   -17235   -17207   -17549   -18524 
  -19963   -21769   -24056   -26608   -29001   -31134   -33010   -34478 
  -35240   -34761   -32681   -29370   -25806   -22887   -20719   -18809 
  -17022   -15629   -14616   -13712   -12910   -12629   -13395   -15296 
  -17867   -20760   -24077   -27846   -31797   -35596   -38952   -41635 
  -43282   -43487   -42120   -39349   -35742   -32042   -28573   -25451 
  -22896   -20923   -19138   -17232   -15581   -14559   -13960   -13729 
  -13827   -13880   -14040   -14709   -15618   -16634   -18291   -20905 
  -24243   -27951   -31660   -34885   -37090   -37939   -37556   -36557 
  -35581   -34761   -33817   -32408   -30365   -27770   -24874   -22046 
  -19582   -17294   -14773   -11999    -9090    -6159    -3773    -2593 
   -2726    -3945    -5917    -8243   -10799   -13674   -16908   -20590 
  -24630   -28587   -32106   -35027   -37288   -38825   -39418   -38965 
  -37631   -35544   -32787   -29607   -26191   -22499   -18739   -15382 
  -12422    -9504    -6778    -4683    -3331    -2672    -2788    -3753 
   -5434    -7606    -9989   -12185   -14067   -15694   -16808   -17270 
  -17419   -17638   -18135   -18775   -19092   -18950   -18670   -18385 
  -17911   -17105   -15870   -14204   -12514   -11287   -10732   -10983 
  -11878   -12818   -13345   -13502   -13742   -14831   -17365   -21115 
  -25330   -29529   -33424   -36620   -38971   -40712   -42025   -42729 
  -42618   -41849   -40655   -39164   -37576   -35985   -34183   -31841 
  -28773   -25207   -21819   -19131   -17040   -15318   -13926   -12722 
  -11482   -10095    -8690    -7603    -7098    -7272    -8115    -9467 
  -11182   -13161   -15126   -16956   -19007   -21425   -23925   -26284 
  -28261   -29639   -30459   -30663   -29844   -27612   -24233   -20887 
  -18839   -18358   -18815   -19316   -19101   -17832   -15672   -13315 
  -11739   -11568   -12801   -14831   -16656   -17502   -17307   -16643 
  -16172   -16175   -16563   -17134   -17876   -18887   -20022   -21108 
  -22134   -23097   -24186   -25711   -27617   -29594   -31308   -32313 
  -32512   -32177   -31290   -29819   -28140   -26620   -25083   -23080 
  -20692   -18452   -16742   -15722   -15408   -15595   -15969   -16459 
  -17326   -18770   -20454   -21837   -22936   -23970   -24833   -25415 
  -25659   -25556   -25328   -25303   -25653   -26142   -26435   -26755 
  -27448   -28242   -28777   -29045   -29131   -29249   -29438   -29250 
  -28525   -27594   -26426   -24759   -22817   -21077   -19796   -19082 
  -19044   -19792   -21252   -23124   -25072   -26684   -27611   -27965 
  -28094   -28315   -28830   -29472   -29963   -30302   -30597   -30697 
  -30240   -29106   -27504   -25641   -23614   -21527   -19737   -18789 
  -18880   -19675   -20531   -20856   -20482   -19630   -18636   -17694 
  -16865   -16259   -15823   -15188   -14151   -12991   -12312   -12740 
  -14531   -17517   -21197   -24720   -27648   -30278   -32711   -34710 
  -36153   -36852   -36707   -36043   -35214   -34350   -33660   -33192 
  -32406   -30664   -27924   -24619   -21250   -18229   -15723   -13655 
  -11919   -10364    -8929    -7975    -8035    -9300   -11298   -13052 
  -14127   -14944   -15803   -16665   -17631   -18909   -20648   -22914 
  -25685   -28739   -31599   -33709   -34694   -34692   -34150   -33261 
  -32244   -31366   -30235   -28249   -25475   -22351   -19435   -17440 
  -16571   -16305   -16213   -16209   -16135   -15904   -15909   -16604 
  -18048   -20197   -22931   -25710   -27857   -29224   -29919   -29673 
  -28570   -27394   -26712   -26677   -27135   -27594   -27846   -28095 
  -28303   -28067   -27015   -25348   -23967   -23451   -23409   -23309 
  -23041   -22486   -21400   -19773   -17868   -16178   -15340   -15568 
  -16474   -17533   -18557   -19747   -21112   -22305   -23202   -24065 
  -25263   -26816   -28157   -28878   -29236   -29490   -29564   -29372 
  -28899   -28401   -28401   -28793   -28808   -28334   -27981   -28076 
  -28635   -29421   -29785   -29195   -27506   -24932   -22165   -20056 
  -19096   -18987   -18760   -17903   -16859   -16308   -16618   -17588 
  -18567   -19101   -19350   -19858   -20847   -22157   -23913   -26254 
  -28582   -29973   -30068   -29262   -28275   -27665   -27512   -27311 
  -26502   -25157   -23646   -22080   -20578   -19422   -18619   -17822 
  -16760   -15266   -13379   -11667   -10628   -10215   -10397   -11211 
  -12378   -13734   -15575   -18036   -20841   -23809   -26721   -28957 
  -30154   -30751   -31198   -31445   -31537   -31472   -30723   -28966 
  -26578   -24108   -21993   -20550   -19751   -19351   -19339   -19794 
  -20478   -20997   -21264   -21604   -22334   -23407   -24558   -25627 
  -26694   -27654   -28095   -28106   -28370   -29304   -30626   -31565 
  -31578   -30995   -30670   -31019   -31679   -32200   -32638   -33042 
  -33120   -32802   -32395   -32373   -33082   -34197   -34954   -34872 
  -34019   -32807   -31610   -30776   -30762   -31524   -32160   -31890 
  -30771   -29256   -27947   -27445   -27739   -28295   -28619   -28411 
  -27635   -26590   -25837   -25706   -25778   -25246   -23648   -21158 
  -18343   -15700   -13440   -11606   -10248    -9424    -9248    -9798 
  -10718   -11565   -12423   -13466   -14617   -16071   -18167   -20715 
  -23156   -24967   -25834   -25930   -25739   -25515   -25325   -25380 
  -25842   -26629   -27645   -28724   -29463   -29603   -29286   -28807 
  -28454   -28447   -28821   -29465   -30209   -30868   -31226   -30912 
  -29516   -27321   -25448   -24705   -24939   -25679   -26508   -26931 
  -26812   -26633   -26780   -27233   -28246   -30134   -32332   -34172 
  -35892   -37625   -38888   -39532   -39589   -38744   -37116   -35399 
  -33876   -32400   -31118   -30492   -30632   -31062   -31180   -30735 
  -29953   -29288   -28923   -28574   -27949   -27183   -26387   -25440 
  -24551   -24122   -24154   -24302   -24178   -23657   -23021   -22523 
  -22014   -21280   -20345   -19483   -19214   -19833   -21015   -22311 
  -23738   -25534   -27506   -29267   -30927   -32725   -34419   -35488 
  -35568   -34716   -33402   -32068   -30767   -29328   -27698   -25904 
  -23909   -21849   -20127   -19069   -18718   -18873   -19216   -19651 
  -20319   -21100   -21549   -21405   -20968   -20924   -21826   -23825 
  -26564   -29355   -31650   -33050   -33339   -32723   -31630   -30666 
  -30526   -31276   -32383   -33381   -33796   -33045   -30876   -27718 
  -24490   -21997   -20685   -20670   -21565   -22622   -23227   -23167 
  -22563   -21596   -20433   -19512   -19546   -21004   -23823   -27446 
  -31004   -33784   -35406   -35707   -34906   -33408   -31473   -29466 
  -27699   -25973   -24009   -21834   -19562   -17276   -15043   -13033 
  -11525   -10731   -10868   -11870   -13220   -14729   -16500   -17992 
  -18601   -18663   -18880   -19721   -21402   -23564   -25628   -27523 
  -29352   -30955   -32068   -32491   -32102   -30825   -28876   -26668 
  -24286   -21871   -19899   -18557   -17537   -16335   -14587   -12307 
   -9809    -7482    -5549    -4064    -3229    -3447    -4967    -7573 
  -10661   -13670   -16241   -18227   -19790   -21156   -22430   -23816 
  -25577   -27533   -29108   -30035   -30442   -30404   -29955   -29229 
  -28317   -27237   -26147   -25475   -25587   -26395   -27517   -28564 
  -29126   -28940   -28237   -27424   -26594   -25881   -25555   -25344 
  -24625   -23417   -22142   -20906   -19935   -19700   -20311   -21615 
  -23589   -26109   -28478   -29731   -29420   -27560   -24615   -21863 
  -20267   -19391   -18488   -17505   -16600   -15773   -15020   -14267 
  -13418   -12638   -12258   -12384   -13098   -14922   -18326   -22993 
  -27976   -32190   -35039   -36791   -37813   -38051   -37676   -37178 
  -36931   -36973   -36643   -35245   -33252   -31500   -30018   -28666 
  -27443   -26172   -25057   -24497   -24127   -23246   -21799   -20295 
  -19178   -18498   -18179   -18285   -18643   -18700   -18041   -16651 
  -15075   -14374   -15160   -17148   -19985   -23385   -26870   -29998 
  -32233   -33096   -32792   -31905   -30523   -28272   -25237   -22120 
  -19301   -16876   -15394   -15300   -16284   -17782   -19298   -20388 
  -21112   -22054   -23633   -25866   -28627   -31786   -34989   -37544 
  -38728   -38249   -36550   -34456   -32615   -31362   -30715   -30527 
  -30575   -30412   -29614   -28265   -26883   -25958   -25679   -25888 
  -26186   -26172   -25722   -24883   -23587   -21938   -20411   -19242 
  -18341   -17917   -18338   -19652   -21496   -23151   -24145   -24668 
  -25021   -25427   -26190   -27550   -29674   -32387   -34887   -36359 
  -36585   -35913   -34889   -33791   -32617   -31346   -29832   -27786 
  -24986   -21403   -17385   -13617   -10679    -8795    -8089    -8610 
  -10007   -11735   -13426   -14840   -15890   -16687   -17546   -18826 
  -20482   -22229   -23858   -24970   -25286   -25150   -25036   -25004 
  -25045   -25437   -26165   -26684   -26815   -26791   -26647   -26607 
  -27032   -27628   -28015   -28542   -29587   -31103   -32884   -34389 
  -34826   -33943   -32367   -30849   -29605   -28687   -28122   -27502 
  -26331   -24704   -23221   -22464   -22500   -22806   -22929   -22831 
  -22520   -21972   -21328   -20693   -19966   -19214   -18836   -19306 
  -20815   -23039   -25240   -26593   -26828   -26539   -26643   -27872 
  -30498   -34007   -37152   -38642   -37929   -35183   -30890   -25970 
  -21522   -18042   -15566   -14182   -13646   -13299   -12856   -12593 
  -12780   -13151   -13253   -13364   -14210   -15966   -18383   -21304 
  -24482   -27574   -30324   -32284   -32993   -32608   -31812   -31179 
  -30727   -30194   -29587   -29021   -28320   -26909   -24140   -20116 
  -15780   -11982    -9143    -7871    -8850   -11773   -15445   -18808 
  -21135   -22413   -23745   -26093   -29323   -32748   -35692   -37716 
  -38351   -37383   -35559   -33480   -30882   -27911   -25391   -24056 
  -24122   -24875   -25202   -24764   -23896   -22750   -21610   -21352 
  -22587   -25253   -28877   -32413   -34719   -35403   -34659   -32742 
  -30045   -27184   -24808   -23553   -23734   -25010   -26720   -28468 
  -30220   -31760   -32653   -33001   -33281   -33635   -33787   -33373 
  -32448   -31271   -29638   -27435   -25262   -23605   -22113   -20441 
  -18978   -18152   -18251   -19778   -22460   -25199   -27411   -28942 
  -29799   -30325   -30611   -30383   -29471   -27842   -25441   -22409 
  -19199   -16075   -13042   -10140    -7256    -4275    -1622       22 
     477        3    -1056    -2492    -4561    -7644   -11611   -16094 
  -20872   -25821   -30857   -35834   -40611   -45117   -48913   -51398 
  -52428   -52029   -50170   -47218   -43740   -39884   -35832   -32257 
  -29534   -27348   -25319   -23353   -21383   -19231   -17102   -15709 
  -15643   -17279   -20828   -25594   -30187   -33903   -36857   -39037 
  -40155   -40223   -39526   -38183   -36462   -34986   -34139   -34074 
  -35088   -37040   -38920   -39526   -38249   -35503   -32574   -30579 
  -29761   -29885   -30698   -31714   -32325   -32236   -31155   -28851 
  -25825   -22983   -21075   -20599   -21547   -23406   -25529   -27239 
  -27896   -27430   -26497   -25830   -25883   -26762   -27987   -28978 
  -29716   -30110   -29616   -27972   -25439   -22623   -20343   -19039 
  -18547   -18797   -20123   -22674   -26010   -29194   -31267   -32014 
  -31829   -30999   -29939   -29277   -29200   -29505   -29941   -30135 
  -29871   -29424   -29099   -28592   -27323   -25292   -22960   -20673 
  -18614   -16921   -15668   -14670   -13679   -12955   -12916   -13697 
  -15253   -17244   -19268   -21188   -22852   -24148   -25308   -26699 
  -28463   -30341   -31964   -33329   -34623   -35822   -36675   -36620 
  -35060   -32350   -29690   -27761   -26369   -25275   -24705   -24892 
  -25463   -25787   -25420   -24310   -23272   -23327   -24343   -25400 
  -26055   -26324   -26186   -25820   -25647   -26090   -27580   -30302 
  -33797   -37057   -39075   -39334   -37964   -35579   -32954   -30814 
  -29715   -29681   -30095   -30382   -30260   -29567   -28631   -28192 
  -28813   -30627   -33264   -36071   -38556   -40531   -42008   -42880 
  -42970   -42557   -42252   -42490   -43249   -43767   -43108   -41058 
  -37737   -33260   -28344   -24046   -20866   -18547   -16310   -13567 
  -10603    -8221    -7077    -7361    -8758   -10781   -13226   -16193 
  -19451   -22373   -24725   -26713   -28485   -30084   -31492   -32674 
  -33721   -34777   -36028   -37632   -39339   -40684   -41358   -41009 
  -39461   -36926   -33691   -30198   -26931   -23838   -20687   -17590 
  -14551   -11479    -8637    -6483    -5300    -5138    -6339    -9641 
  -15071   -21482   -27558   -32587   -36542   -39929   -43266   -46655 
  -49907   -52843   -55048   -55715   -54397   -51460   -47535   -43142 
  -38513   -33427   -28000   -23145   -19467   -16840   -15097   -14013 
  -13224   -12680   -12560   -13045   -14565   -17577   -21801   -26428 
  -30864   -34674   -37489   -39246   -40147   -40498   -40519   -40172 
  -39372   -38322   -37338   -36688   -36392   -35834   -34407   -32125 
  -29153   -25947   -23338   -21580   -20337   -19234   -17789   -15820 
  -13842   -12398   -11601   -11460   -12141   -13735   -16099   -19130 
  -22817   -26860   -30677   -33791   -35872   -36913   -37561   -38489 
  -39606   -40533   -41196   -41323   -40371   -38315   -35467   -32155 
  -28994   -26355   -24024   -21882   -20139   -18878   -17866   -16890 
  -15947   -15241   -15225   -16043   -17371   -19277   -22130   -25655 
  -29084   -32127   -35104   -38086   -40611   -42328   -43128   -42812 
  -41369   -39214   -36802   -34431   -32353   -30668   -29309   -28213 
  -27190   -25900   -24239   -22468   -20922   -19986   -19993   -20700 
  -21487   -21986   -22149   -22140   -22244   -22576   -22878   -22974 
  -23295   -24134   -25023   -25618   -26143   -27025   -28611   -30777 
  -33009   -34903   -36342   -37212   -37077   -35622   -33350   -31204 
  -29650   -28519   -27467   -26210   -24560   -22556   -20444   -18742 
  -18191   -18977   -20416   -21848   -23083   -23990   -24468   -24705 
  -24941   -25237   -25514   -25645   -25732   -25986   -26305   -26621 
  -26978   -27074   -26758   -26251   -25356   -23610   -21151   -18706 
  -17091   -16854   -17999   -19923   -21762   -22914   -23471   -23895 
  -24147   -23948   -23607   -23682   -24368   -25418   -26404   -27349 
  -28418   -28943   -28217   -26489   -24412   -22739   -22060   -22148 
  -22442   -22744   -22916   -22665   -21833   -20862   -20679   -21648 
  -23199   -24590   -25418   -25534   -25024   -24284   -23864   -24105 
  -24725   -25001   -24609   -23761   -22798   -22013   -21413   -20864 
  -20524   -20584   -20745   -20508   -19823   -19115   -18859   -19398 
  -20821   -22842   -25052   -26949   -28244   -29276   -30195   -30633 
  -30600   -30325   -29914   -29857   -30618   -31976   -33383   -34278 
  -34082   -32538   -30123   -27734   -26014   -25158   -24999   -25077 
  -24941   -24469   -23829   -23353   -23516   -24605   -26253   -27742 
  -28714   -29091   -28736   -27820   -26871   -26104   -25414   -24896 
  -24833   -25305   -26005   -26598   -26987   -27096   -26832   -26335 
  -25817   -25348   -25088   -25130   -25263   -25477   -25870   -26058 
  -25750   -25155   -24453   -23846   -23821   -24758   -26633   -29018 
  -31162   -32489   -33124   -33549   -33983   -34417   -34618   -34095 
  -32576   -30257   -27684   -25532   -24272   -24119   -25000   -26360 
  -27562   -28437   -29007   -29194   -29047   -28643   -28150   -27980 
  -28103   -27952   -27422   -27001   -27055   -27529   -28032   -28294 
  -28675   -29570   -30701   -31752   -32774   -33781   -34858   -36106 
  -37193   -37812   -38096   -38031   -37360   -35999   -34001   -31405 
  -28324   -25061   -21976   -19349   -17526   -16856   -17401   -18891 
  -20910   -23195   -25670   -28074   -29875   -30904   -31644   -32452 
  -33168   -33685   -34010   -33984   -33378   -32041   -30067   -27811 
  -25657   -23850   -22483   -21499   -20749   -20231   -20095   -20309 
  -20590   -20761   -20918   -21086   -21312   -21983   -23280   -24832 
  -26302   -27638   -28707   -29467   -30336   -31653   -33380   -35455 
  -37543   -39001   -39534   -39217   -38207   -36752   -35153   -33585 
  -31882   -29849   -27610   -25316   -23088   -21074   -19416   -18225 
  -17390   -16805   -16659   -17211   -18543   -20523   -22899   -25340 
  -27573   -29523   -31209   -32672   -33800   -34316   -34273   -34240 
  -34718   -35671   -36624   -36885   -35921   -33825   -31266   -29100 
  -27869   -27381   -27211   -27196   -27058   -26534   -25875   -25504 
  -25507   -25729   -26071   -26502   -26924   -27202   -27337   -27354 
  -27071   -26386   -25548   -24880   -24489   -24273   -24088   -23960 
  -24053   -24359   -24661   -24849   -25029   -25276   -25559   -25899 
  -26278   -26457   -26193   -25497   -24531   -23432   -22192   -20634 
  -18629   -16257   -13833   -11826   -10443    -9553    -9031    -8744 
   -8600    -8751    -9476   -11087   -13724   -17123   -20724   -23900 
  -26530   -28984   -31405   -33716   -35862   -37883   -40005   -42142 
  -43696   -44270   -43792   -42030   -38760   -34227   -29056   -23994 
  -19592   -15955   -13071   -11145   -10276   -10105   -10111    -9950 
   -9403    -8644    -8442    -9493   -11965   -15702   -20078   -24031 
  -26801   -28295   -28900   -29106   -29323   -30010   -31524   -33832 
  -36425   -38522   -39534   -39304   -37968   -35650   -32493   -28858 
  -25234   -22142   -19914   -18330   -16834   -15179   -13463   -11835 
  -10706   -10695   -11901   -13953   -16565   -19218   -21143   -22230 
  -23054   -23912   -24596   -24894   -24729   -24198   -23537   -22667 
  -21383   -19823   -18326   -17244   -16547   -15977   -15722   -15923 
  -16472   -17439   -18587   -19525   -20385   -21367   -22515   -24112 
  -26206   -28370   -30304   -31686   -32191   -32098   -31870   -31722 
  -31886   -32196   -31911   -30539   -28141   -25123   -22034   -19134 
  -16566   -14568   -13095   -12004   -11395   -11276   -11463   -12026 
  -13100   -14453   -16003   -18154   -21321   -25394   -29710   -33547 
  -36566   -38801   -40295   -41034   -41148   -40851   -40358   -39669 
  -38428   -36322   -33449   -30071   -26332   -22382   -18386   -14509 
  -11006    -8093    -5783    -3989    -2948    -3076    -4114    -5376 
   -6561    -7727    -9132   -11148   -13982   -17538   -21516   -25592 
  -29394   -32348   -33891   -34062   -33583   -33111   -32799   -32550 
  -32150   -31345   -29931   -27555   -24063   -20068   -16494   -13866 
