Origin Time       2011/03/11 14:46:00
Lat.              38.103
Long.             142.860
Depth. (km)       24
Mag.              9.0
Station Code      NIG007
Station Lat.      38.2306
Station Long.     139.4863
Station Height(m) 10
Record Time       2011/03/11 14:47:12
Sampling Freq(Hz) 100Hz
Duration Time(s)  300
Dir.              N-S
Scale Factor      3920(gal)/6182761
Max. Acc. (gal)   38.681
Last Correction   2011/03/11 14:46:57
Memo.             
[...]
   43244    42750    40570    38035    36253    35394    34914    34249 
   33451    32983    32932    33013    33117    33474    34337    35396 
   36021    36374    37443    39743    42713    45431    47563    49463 
   51179    51861    50726    48248    46091    45752    47187    49114 
   50520    51500    52663    53890    54353    53613    51952    50041 
   48428    46920    45079    43231    42190    42421    43789    45531 
   46678    46782    45900    44178    41710    38473    34469    29911 
   24964    19713    14455     9633     5824     3680     2942     2237 
     736     -783    -1040      192     1976     3604     5640     8830 
   12527    15391    17053    18098    18908    19064    17930    15824 
   13963    12754    11435     9918     9230    10068    12470    16270 
   20955    25725    29705    32154    33170    33728    34659    36091 
   37661    38996    40208    41908    44483    47724    51303    54817 
   57956    60911    63456    64524    63639    61438    58888    56666 
   54824    53169    51863    51248    51206    50655    48167    43346 
   37199    31148    26005    22148    20038    19922    21573    24621 
   28641    32954    36655    38667    38223    35845    32846    29709 
   26149    22220    18432    15322    13203    12064    11791    12322 
   13356    14629    16406    18731    20784    21593    20758    18737 
   16597    14844    13076    10972     8688     6720     5861     6487 
    7931     9278    10483    12225    14860    18104    21635    25201 
   28192    29803    29810    28942    27873    26334    23859    20607 
   17290    14713    13061    11663     9865     7777     5907     4472 
    3417     3018     3972     6303     8554     9140     8219     7214 
    7025     7699     9241    11854    15575    20017    24527    28643 
   32231    35340    38141    40650    42645    44012    44512    43700 
   41789    39663    37841    35992    33364    29748    25931    22905 
   20862    19038    16497    13251    10425     8982     8695     8888 
    9569    11193    13884    17695    22995    29401    35256    39250 
   41475    42579    43003    42995    42760    42790    43542    44437 
   44239    42490    39797    37277    35974    36195    37365    38759 
   40057    41117    41769    42104    42671    43854    45116    45446 
   44218    41513    38265    35619    33782    32222    30713    29500 
   28931    29150    29891    30657    30782    29381    25956    21073 
   16048    12191    10424    10854    12379    13388    13010    11800 
   11321    12819    16432    21060    24587    25485    24130    21830 
   19761    18992    19988    22187    24772    27338    29974    33091 
   36670    39814    41462    41255    39561    36813    33078    28637 
   24729    22957    23855    26364    28756    30107    30778    31331 
   31670    31460    30469    28689    26865    26340    27788    30748 
   34686    39586    45258    50900    55570    58712    60160    60066 
   59025    57863    57164    57228    58192    59875    61596    62562 
   62560    61867    60337    57345    53167    49502    47734    47516 
   47562    47187    46898    47548    49093    50794    52451    54558 
   57145    59412    60644    60806    60337    59781    59417    59182 
   59074    59315    59972    60626    60214    57602    52736    46500 
   39802    33475    27842    22208    15939     9605     4302      409 
   -2553    -5090    -6739    -5887    -1379     5605    12030    15426 
   15652    14202    12316    10772    10573    12118    14637    17269 
   19530    20993    21418    20888    19725    18402    17399    16858 
   16401    15814    15412    14872    13083    10313     8115     6553 
    4735     3134     2734     3910     6734    10554    14419    18353 
   22552    26303    29014    31055    32882    34192    34512    33893 
   32505    30330    27399    23702    19348    14961    11143     8290 
    7009     7233     8182     9702    11823    13935    15496    16592 
   17577    18666    19810    20485    20136    18751    16480    13819 
   11832    11233    12183    14806    18857    23623    28763    33979 
   38165    40442    41363    42403    44781    48651    53047    56572 
   58325    57958    55362    51215    46984    43646    41157    39013 
   36776    34499    32823    32499    33902    36629    39292    40505 
   40500    40523    40478    38869    34814    28870    22316    16204 
   11294     8549     8674    11302    15264    19336    22709    25281 
   27651    30326    32787    33981    33938    34215    36378    40264 
   44165    46671    47898    49006    50740    52427    52686    51034 
   48221    45209    42339    39533    37051    35576    35684    37713 
   41419    45534    48792    50916    51982    52023    51186    49396 
   46457    42346    37148    31351    25989    21979    19402    17618 
   15863    13591    10759     8056     6532     6644     7684     8536 
    9042    10019    11825    13861    15295    15577    14826    13795 
   12943    11965    10389     8006     4820     1222    -1996    -4241 
   -5366    -5327    -4158    -2160       23     1869     3921     7479 
   12843    18576    22967    25555    26736    26887    26591    26746 
   27830    29603    31671    33882    36106    37933    39112    40011 
   40886    41223    40466    39034    38091    38361    39454    40255 
   39634    36901    32432    27815    24597    23087    22732    23326 
   25284    28602    32303    35250    36951    37603    37847    38463 
   39982    42534    45955    49691    52720    54342    54864    55061 
   55433    55971    56381    56434    56042    55494    55448    56009 
   56244    54734    50499    43705    35610    27945    22057    18271 
   16279    15816    16723    18844    22062    26152    30602    34826 
   37995    38784    36630    32832    29302    27015    25944    25411 
   24570    23319    22350    22093    22318    22706    23208    23705 
   23547    21873    18440    13876     9249     5451     2792      943 
    -741    -2535    -4133    -5331    -6185    -6531    -5853    -3228 
    1994     8958    16075    22738    29141    35206    40450    44380 
   46814    48105    49031    50261    51981    53899    55293    55640 
   55541    56136    57672    59372    60299    60170    59510    58779 
   57534    54982    51142    46964    43612    41825    41688    42779 
   44273    45160    44798    43324    41434    39825    38982    38823 
   38451    36978    34460    31976    30798    31192    32451    34008 
   35669    37210    38463    39256    38987    37179    34385    31825 
   30475    30416    30751    30629    30194    29991    29998    29769 
   29314    29302    29926    30052    28558    26020    23966    23111 
   23005    22811    22383    22339    22911    23810    24978    26390 
   27522    27833    27722    28298    29882    31616    32789    33512 
   33936    33726    32638    31206    30098    29015    27362    25427 
   23991    23410    23369    23313    23194    23400    24032    24753 
   25116    25008    24863    25324    26782    29016    31295    32981 
   33557    32280    28781    24011    20036    18524    19289    20595 
   20956    20515    20704    22399    24666    26078    26703    27653 
   29293    30857    31674    32048    32612    33531    34684    36122 
   38171    40881    43560    45190    44979    42591    38572    34315 
   30835    28253    26711    26715    28747    32795    38041    43448 
   48156    51215    51919    50193    46602    42318    38717    36857 
   37099    39135    42548    46814    50642    52352    51054    46996 
   41156    34589    28036    22327    18518    17345    19127    23940 
   31022    38327    43430    45137    44330    42916    41805    40363 
   37452    32681    27052    22212    19118    17928    18503    20574 
   23860    27862    31491    33617    34183    33981    33286    31701 
   29188    26804    26218    28149    31650    34779    35641    33562 
   29365    24301    19057    13780     8671     4240     1035     -455 
     205     2963     7041    11540    16109    20822    25670    30395 
   34384    36903    38015    38593    39225    39789    39978    40053 
   41200    44566    49565    53895    55302    52774    46951    39965 
   34077    30519    29847    32171    36459    40770    43748    45750 
   48037    50813    53278    55080    56482    57848    58784    57739 
   53840    48482    43984    41275    39514    37733    35920    34358 
   32815    30511    26858    22914    21257    23266    27582    31689 
   34271    36060    38268    40870    42839    43014    41081    38573 
   37814    39426    42050    44339    46319    49235    53961    59516 
   64082    66931    68427    68615    66816    62859    57837    53159 
   49341    45779    41301    35035    26953    17801     8952     1919 
   -2680    -5102    -5561    -4288    -2126      -20     1880     4033 
    6815     9899    12086    12233    10083     6203     1710    -2091 
   -4297    -4698    -3554    -1456      687     1992     2055     1098 
    -230    -1445    -2884    -5321    -8748   -12060   -14185   -14988 
  -14715   -13515   -11771    -9876    -7546    -3811     2240    10549 
   19838    28635    36371    42893    47939    51828    55557    59555 
   62619    62500    57794    49152    39058    30461    24890    21952 
   20446    19114    17031    14333    12084    11158    11630    12787 
   13452    12956    11896    11609    12790    14617    15689    15800 
   15762    15781    15326    14158    12745    12009    12619    14492 
   16934    19196    21172    23194    25341    27552    29572    30597 
   29842    27366    24265    22376    23113    26270    30617    35221 
   39500    43064    46062    48812    51121    52512    52880    52711 
   52793    53765    55820    58777    62490    66957    72054    77442 
   82610    87035    90227    91561    90195    85126    76119    65053 
   55107    48065    43336    39817    37740    38232    41728    47198 
   52608    56212    57302    55741    51820    46359    39981    32958 
   25713    18528    11275     3818    -3542    -9795   -13467   -13575 
  -10440    -5471     -146     4838     9666    14671    19334    22500 
   23596    22942    21256    19364    17760    16501    15471    14046 
   11451     7797     3847      392    -1673    -1336     1927     7422 
   13475    18241    20266    19186    16012    12521    10439    10768 
   13641    18456    23639    27131    28055    27375    26802    27631 
   30150    33904    38844    45335    52916    60167    65724    68849 
   69033    65891    60025    53295    47659    43767    40984    38694 
   37117    36968    38401    40214    40916    40592    40606    41731 
   43521    45061    45774    45587    44491    42369    39237    35348 
   31363    27994    25437    23584    22204    21241    21299    23000 
   25969    28967    31018    31933    31663    30145    28087    27034 
   28066    30521    32630    33469    33724    34603    36343    38071 
   39221    40256    41902    44360    46900    48268    47924    46548 
   45106    43528    41098    38238    36342    35860    35932    35717 
   35164    34655    34531    34928    35778    36982    38383    39696 
   40992    42981    46439    51485    56996    60748    61114    58620 
   55087    51419    46962    41012    34358    29107    26963    27691 
   29292    29671    28174    25638    23160    20999    18545    15119 
   10861     6765     3702     1888     1301     1655     2152     2361 
    2704     3535     5099     8053    12696    18546    24941    31148 
   36253    39658    41478    42221    42488    42493    41482    38723 
   34959    31795    29968    28852    27602    26515    26942    29641 
   33778    37954    41342    43522    44134    43200    41275    38895 
   36158    32733    28020    22037    16042    11423     7965     4075 
    -818    -5195    -7296    -6952    -5348    -3714    -2633    -2453 
   -3670    -6136    -8449    -9186    -8301    -6780    -5664    -5519 
   -6034    -5998    -4085      110     5814    11759    16767    19915 
   21025    20954    20808    20938    20691    19073    15857    11868 
    8186     5386     3317     1483     -332    -1667    -1380     1426 
    6127    11182    16145    21881    28883    36236    42312    46341 
   48983    51337    53969    56758    59245    60987    61654    61117 
   59234    55913    52164    49951    50266    52439    55347    58232 
   60461    61577    61604    60952    60196    60156    61882    65903 
   71457    76951    81023    83233    84239    85139    86311    87184 
   87117    86075    84357    82055    79106    75521    71452    67535 
   64610    62672    60841    58218    54443    49935    45422    41224 
   37421    34138    31170    27896    23972    19558    14668     8886 
    1974    -5616   -12836   -18547   -22278   -24387   -25241   -24733 
  -22647   -18825   -13297    -6725     -338     4573     7111     7338 
    6252     4898     3794     2970     2213     1211     -463    -2467 
   -3270    -2254     -419     1722     4414     7459    10493    13431 
   16561    20712    25661    29032    29163    27567    27352    30598 
   36732    43349    48965    53354    56589    59426    62933    67632 
   73225    78743    83474    87148    89326    89434    87085    82794 
   78196    74523    71399    67543    61987    54725    46820    39617 
   33940    30363    29509    31824    36953    43215    48888    54004 
   59794    67071    75491    83529    89289    91553    90096    85629 
   79514    73009    66583    60060    53353    46632    40187    34695 
   31167    30308    31906    34831    37758    39732    40334    39828 
   38782    37389    35584    33500    31353    29297    27341    25211 
   22933    21121    20065    19353    18413    16496    12624     6540 
    -663    -7290   -12003   -14589   -16123   -17687   -19255   -20149 
  -19631   -16789   -10859    -2400     6568    14333    20766    26035 
   29493    30777    30074    27231    22099    15367     8658     3705 
    1081       47     -166      473     2363     5348     8245     9827 
   10306    11217    13788    17721    21829    25341    28061    29745 
   29717    27362    23138    18547    15000    12734    10857     9019 
    8479    10640    14807    18210    18634    16414    13583    11805 
   11451    12516    15551    20885    27682    34223    39032    41992 
   43912    45359    46605    47606    47982    47946    48258    48631 
   47627    44566    40503    37529    37381    40191    44820    50348 
   56444    62456    66969    68530    66789    62643    57110    50690 
   44094    38634    35126    32999    31040    28415    24915    21107 
   18135    16687    16452    16855    17706    18880    19983    20580 
   20327    19080    17372    16300    16553    17703    18443    18005 
   17162    16752    16226    14694    11908     8116     4086      962 
     -80     1653     5674    10674    15532    19396    21734    22926 
   23837    24831    25814    26751    27901    29717    32290    35128 
   37766    40272    43252    47352    52551    58350    64421    70410 
   75744    80032    83142    85070    85909    85849    85573    85970 
   86798    86514    83799    78703    72404    66060    59862    53680 
   47988    43240    39458    36665    34853    34119    34677    36282 
   38489    41006    43240    44470    44490    43634    42336    40606 
   38086    34995    32635    32520    35093    39198    42719    44171 
   43926    43630    44354    45731    46873    47436    47469    46760 
   44991    42121    38302    33951    29780    26321    23362    20008 
   15463     9802     3984     -823    -3821    -4649    -3224      423 
    5723    10899    14129    15585    16773    18241    19551    20654 
   22078    24431    27713    31058    33836    36505    40016    44825 
   50070    53744    54712    54277    54776    56856    59080    60187 
   60174    59153    56703    52546    47661    44178    43062    43059 
   42855    42469    42651    44584    48861    53985    57435    57799 
   55145    50511    45354    41036    38235    36543    35276    34288 
   33872    34518    36081    37487    37992    37711    36699    34478 
   30954    26999    23419    20223    17117    14066    11377     9338 
    7929     7112     6920     7213     8018     9677    12165    14780 
   16649    17374    17123    16293    15470    15460    17059    20396 
   24243    26843    27582    27166    26352    25269    24072    23410 
   23827    25275    27264    29077    30415    32278    35827    40281 
   43565    44499    43281    40957    39017    38494    39129    39820 
   39866    39429    38589    36655    33064    27982    21913    15658 
   10082     5779     3613     4514     8194    13309    18791    24184 
   29332    34340    39275    43824    47318    48805    47506    43632 
   38480    33341    28455    23525    18986    15984    15219    16255 
   18011    19948    22375    25451    28686    31766    34966    37891 
   38934    37393    34589    31718    28829    26004    23217    19921 
   16006    12184     9560     8716     8865     9154    10039    11717 
   13189    13808    13849    14000    15124    17653    21267    24886 
   26982    27049    25980    24656    23471    22452    21243    19885 
   18868    18109    17111    15968    15217    14806    14077    12626 
   10712     9248     9192    10488    12128    13215    13542    13489 
   13474    13582    13983    15120    17057    19493    22122    24281 
   25654    27506    31431    37068    42496    46529    49555    52334 
   55022    57538    60135    63293    67025    70304    71300    68535 
   62602    56537    53265    52834    53187    52969    52025    50090 
   46810    42506    37854    33184    28490    23897    20058    17887 
   17150    16096    13404     9532     6083     4573     5130     6116 
    5605     3193       47    -2580    -4385    -5638    -6419    -6605 
   -6416    -6326    -6148    -4747     -973     5245    12592    19154 
   23766    26642    28857    31278    33644    34630    33610    32181 
   32691    35574    39467    43279    46635    49169    50834    51971 
   52626    52562    51691    50216    48443    46458    44420    42828 
   42178    42948    45184    47739    49396    50232    50981    52174 
   53855    55547    57076    58944    61341    63440    63669    60690 
   54651    47330    40617    35176    30897    27971    26735    26766 
   26692    25075    21859    18715    17452    18666    21850    25757 
   28791    29926    29371    28278    28035    29238    30800    31061 
   29759    27860    26284    25596    26076    27515    29214    30291 
   29893    27586    23904    20363    18513    18551    19302    19709 
   19749    20286    22297    25858    30063    33854    36501    37587 
   37226    36400    36519    38186    40604    42512    43479    43860 
   43777    42815    40574    36947    32101    26781    22179    18708 
   15624    12471     9963     9002     9670    11485    14125    17606 
   21884    26562    30960    34363    36592    38320    40312    42602 
   44932    47379    50040    52565    54406    55610    57037    59592 
   63461    67924    71797    74369    76085    77908    79700    79925 
   77418    72882    68386    65506    64125    63254    62566    62387 
