Origin Time       2011/03/11 14:46:00
Lat.              38.103
Long.             142.860
Depth. (km)       24
Mag.              9.0
Station Code      NIG025
Station Lat.      37.1610
Station Long.     138.2234
Station Height(m) 11
Record Time       2011/03/11 14:47:47
Sampling Freq(Hz) 100Hz
Duration Time(s)  300
Dir.              N-S
Scale Factor      3920(gal)/6182761
Max. Acc. (gal)   32.726
Last Correction   2011/03/11 14:47:32
Memo.             
[...]
   22021    21296    20320    19112    17605    15772    13578    11016 
    8121     4917     1541    -1875    -5266    -8487   -11474   -14194 
  -16536   -18478   -20038   -21224   -22083   -22674   -23089   -23400 
  -23672   -23955   -24193   -24378   -24464   -24310   -23966   -23470 
  -22746   -21816   -20653   -19240   -17625   -15804   -13838   -11775 
   -9620    -7456    -5323    -3247    -1232      768     2705     4543 
    6219     7589     8593     9190     9397     9332     9082     8745 
    8395     8048     7762     7534     7323     7063     6595     5834 
    4787     3421     1790       14    -1860    -3780    -5708    -7613 
   -9423   -11135   -12736   -14162   -15409   -16397   -17055   -17385 
  -17331   -16980   -16429   -15641   -14672   -13508   -12134   -10680 
   -9139    -7507    -5839    -4075    -2244     -412     1408     3157 
    4842     6478     8009     9403    10638    11714    12667    13554 
   14422    15294    16182    17085    18004    18912    19748    20400 
   20731    20673    20226    19415    18362    17195    16007    14911 
   13952    13144    12479    11879    11341    10877    10472    10189 
   10058    10056    10212    10584    11245    12183    13259    14376 
   15400    16158    16600    16703    16475    16045    15527    14994 
   14514    14123    13813    13501    13127    12660    12082    11467 
   10807    10100     9424     8703     7876     6973     5955     4939 
    4123     3572     3301     3230     3290     3528     3913     4356 
    4885     5564     6413     7450     8654     9910    11181    12544 
   14016    15573    17200    18862    20579    22361    24147    25880 
   27461    28763    29718    30287    30447    30190    29511    28414 
   26902    25021    22915    20719    18494    16281    14108    12016 
   10099     8421     6970     5720     4682     3850     3195     2698 
    2298     1915     1536     1170      841      597      455      441 
     594      867     1169     1392     1417     1240      928      544 
     200       -1      -16      215      759     1657     2918     4433 
    6075     7767     9393    10896    12283    13503    14585    15605 
   16582    17546    18454    19276    20055    20776    21441    22050 
   22583    23061    23495    23926    24360    24720    24965    25019 
   24791    24264    23389    22125    20472    18466    16261    13993 
   11763     9662     7623     5626     3764     2018      383    -1111 
   -2471    -3634    -4569    -5280    -5745    -5982    -6011    -5864 
   -5588    -5165    -4623    -4003    -3266    -2402    -1457     -456 
     594     1662     2682     3593     4339     4886     5249     5454 
    5513     5434     5215     4843     4354     3836     3346     2928 
    2546     2119     1660     1195      732      304     -101     -460 
    -799    -1196    -1578    -1906    -2187    -2344    -2375    -2264 
   -1963    -1518     -961     -380       90      418      618      689 
     639      461      141     -341     -973    -1690    -2417    -3077 
   -3630    -4077    -4380    -4540    -4588    -4562    -4551    -4607 
   -4752    -4979    -5215    -5437    -5629    -5743    -5819    -5825 
   -5701    -5464    -5047    -4431    -3659    -2704    -1621     -464 
     763     1952     3081     4221     5353     6471     7521     8431 
    9255     9975    10546    10988    11214    11229    11162    10996 
   10763    10548    10346    10173    10007     9819     9588     9242 
    8736     7986     6949     5727     4373     2952     1541      155 
   -1131    -2262    -3201    -3894    -4390    -4748    -5046    -5360 
   -5661    -5986    -6328    -6588    -6765    -6822    -6736    -6625 
   -6562    -6601    -6812    -7176    -7621    -8049    -8420    -8781 
   -9124    -9421    -9676    -9873   -10023   -10169   -10314   -10409 
  -10395   -10238    -9957    -9599    -9176    -8672    -8042    -7209 
   -6143    -4861    -3416    -1905     -376     1127     2518     3750 
    4742     5441     5908     6174     6331     6542     6851     7272 
    7819     8454     9130     9802    10443    10985    11335    11473 
   11390    11086    10571     9841     8963     7984     6903     5773 
    4625     3473     2357     1313      401     -290     -688     -778 
    -595     -152      491     1236     2069     2963     3869     4810 
    5798     6823     7849     8817     9688    10390    10870    11135 
   11153    10946    10618    10250     9933     9781     9896    10334 
   11028    11840    12648    13373    13983    14486    14954    15474 
   16102    16902    17901    19022    20145    21162    21944    22403 
   22523    22304    21791    21071    20164    19043    17731    16256 
   14626    12867    10981     8952     6804     4596     2410      357 
   -1452    -2960    -4128    -4907    -5302    -5370    -5184    -4860 
   -4546    -4404    -4530    -4898    -5459    -6165    -6920    -7639 
   -8254    -8729    -9072    -9329    -9605   -10009   -10590   -11310 
  -12071   -12768   -13304   -13600   -13634   -13410   -12949   -12314 
  -11558   -10720    -9835    -8901    -7887    -6785    -5614    -4374 
   -3073    -1777     -498      801     2100     3381     4650     5883 
    7045     8100     9005     9744    10344    10860    11294    11632 
   11880    12024    12071    12075    12079    12088    12065    11958 
   11716    11301    10700     9921     8957     7798     6459     4980 
    3393     1726       14    -1741    -3502    -5135    -6536    -7657 
   -8429    -8773    -8607    -7895    -6738    -5295    -3651    -1895 
    -170     1489     3162     4888     6691     8589    10519    12407 
   14213    15894    17420    18768    19937    20937    21787    22539 
   23222    23825    24355    24791    25066    25148    25079    24872 
   24430    23723    22853    21859    20721    19464    18107    16676 
   15259    13966    12832    11835    11011    10389     9913     9532 
    9173     8732     8151     7385     6404     5228     3874     2359 
     742     -915    -2556    -4141    -5642    -7056    -8430    -9788 
  -11104   -12368   -13599   -14841   -16115   -17337   -18352   -19019 
  -19276   -19186   -18843   -18316   -17688   -17019   -16312   -15567 
  -14777   -13898   -12861   -11607   -10155    -8599    -7040    -5530 
   -4053    -2591    -1156      230     1571     2926     4356     5876 
    7481     9084    10558    11871    12991    13808    14241    14290 
   13991    13406    12629    11753    10836     9936     9093     8302 
    7560     6855     6154     5455     4777     4114     3443     2719 
    1889      924     -193    -1437    -2718    -3973    -5177    -6271 
   -7185    -7893    -8398    -8730    -8914    -8930    -8777    -8475 
   -8032    -7486    -6859    -6139    -5337    -4464    -3565    -2728 
   -1978    -1310     -726     -205      225      500      630      680 
     718      832     1071     1444     1924     2478     3110     3810 
    4550     5311     6067     6828     7603     8352     9078     9839 
   10662    11540    12446    13323    14095    14671    14972    14953 
   14607    13972    13110    12092    10989     9859     8745     7655 
    6529     5297     3907     2297      442    -1620    -3783    -5900 
   -7787    -9273   -10244   -10641   -10479    -9842    -8819    -7514 
   -6000    -4313    -2508     -600     1414     3504     5647     7784 
    9828    11770    13591    15264    16805    18215    19469    20506 
   21296    21889    22313    22514    22432    22068    21503    20848 
   20226    19735    19384    19160    19049    18982    18878    18710 
   18474    18193    17928    17719    17587    17521    17392    17063 
   16491    15657    14632    13590    12637    11860    11365    11162 
   11182    11323    11472    11568    11559    11446    11278    11015 
   10577     9948     9102     7995     6653     5169     3597     1949 
     279    -1316    -2739    -3898    -4699    -5125    -5224    -4991 
   -4366    -3335    -1912     -144     1864     4058     6409     8863 
   11377    13883    16334    18713    20961    23039    24934    26592 
   27957    28974    29634    30012    30171    30188    30165    30105 
   29958    29694    29305    28783    28094    27239    26239    25062 
   23695    22183    20543    18759    16777    14583    12237     9791 
    7297     4815     2341     -202    -2847    -5526    -8144   -10617 
  -12843   -14722   -16196   -17233   -17831   -17997   -17767   -17188 
  -16237   -14922   -13317   -11425    -9275    -7000    -4733    -2578 
    -616     1106     2564     3795     4898     5981     7170     8592 
   10312    12295    14479    16764    18926    20789    22321    23492 
   24338    24920    25234    25327    25291    25221    25236    25371 
   25608    25954    26346    26752    27179    27530    27733    27770 
   27584    27174    26544    25626    24424    22962    21242    19351 
   17408    15457    13455    11371     9292     7300     5477     3902 
    2569     1476      592     -163     -843    -1526    -2254    -3011 
   -3759    -4372    -4737    -4808    -4535    -3948    -3055    -1819 
    -273     1555     3560     5587     7565     9372    10898    12105 
   12892    13240    13221    12900    12403    11779    11064    10380 
    9755     9162     8583     7967     7355     6825     6424     6180 
    6064     6040     6105     6283     6566     6905     7275     7625 
    7927     8232     8555     8891     9249     9586     9840     9935 
    9859     9642     9207     8487     7466     6115     4522     2809 
    1056     -623    -2181    -3617    -4856    -5862    -6644    -7230 
   -7702    -8145    -8658    -9347   -10263   -11386   -12634   -13942 
  -15218   -16286   -17028   -17388   -17334   -16909   -16171   -15169 
  -13968   -12603   -11104    -9522    -7920    -6320    -4696    -3080 
   -1532      -82     1241     2498     3773     5084     6463     7895 
    9340    10806    12194    13406    14435    15249    15930    16650 
   17434    18265    19106    19854    20475    20973    21361    21665 
   21869    21959    21935    21801    21611    21405    21194    21015 
   20871    20719    20568    20459    20408    20386    20338    20218 
   20023    19753    19375    18854    18137    17177    15983    14568 
   12985    11339     9683     8032     6434     4945     3595     2380 
    1297      330     -603    -1566    -2554    -3534    -4448    -5253 
   -5962    -6624    -7293    -7981    -8653    -9307    -9956   -10578 
  -11118   -11524   -11758   -11825   -11770   -11592   -11232   -10664 
   -9905    -8975    -7900    -6705    -5375    -3850    -2121     -219 
    1845     3988     6137     8347    10638    12960    15256    17433 
   19365    20915    21992    22595    22759    22590    22245    21842 
   21461    21126    20872    20761    20786    20921    21110    21249 
   21267    21063    20576    19828    18796    17498    16012    14399 
   12770    11185     9629     8094     6543     4943     3264     1526 
    -191    -1920    -3723    -5530    -7270    -8853   -10135   -11116 
  -11915   -12573   -13091   -13554   -14022   -14506   -15102   -15854 
  -16662   -17383   -17834   -17881   -17515   -16748   -15618   -14201 
  -12524   -10583    -8453    -6243    -3974    -1620      814     3269 
    5607     7662     9350    10663    11649    12417    13070    13661 
   14159    14478    14551    14314    13730    12737    11173     8986 
    6300     3262       79    -3064    -6054    -8760   -11131   -13189 
  -14952   -16393   -17381   -17869   -17914   -17499   -16653   -15409 
  -13744   -11774    -9657    -7452    -5204    -2975     -822     1263 
    3297     5305     7397     9618    11935    14301    16615    18854 
   21005    22960    24697    26166    27238    27848    27906    27378 
   26306    24762    22946    20994    18953    16996    15208    13559 
   12017    10495     8959     7386     5781     4203     2569      872 
    -803    -2474    -4048    -5490    -6887    -8209    -9462   -10621 
  -11554   -12242   -12648   -12755   -12655   -12325   -11804   -11223 
  -10598    -9976    -9426    -8991    -8720    -8563    -8391    -8081 
   -7617    -7086    -6460    -5735    -5019    -4416    -4124    -4281 
   -4851    -5805    -7080    -8559   -10155   -11809   -13471   -14956 
  -16076   -16846   -17311   -17500   -17499   -17348   -17004   -16353 
  -15333   -14067   -12735   -11431   -10075    -8593    -7164    -5969 
   -5051    -4383    -3732    -2905    -2029    -1175     -274      472 
     909     1233     1487     1605     1907     2677     3845     5384 
    7319     9506    11604    13400    15046    16522    17527    17963 
   17949    17673    17144    16204    14946    13591    12249    10970 
    9799     8845     8139     7683     7560     7713     8012     8345 
    8520     8452     8081     7228     5861     4063     1899     -473 
   -2885    -5252    -7515    -9633   -11599   -13442   -15170   -16751 
  -18150   -19338   -20336   -21118   -21579   -21699   -21448   -20689 
  -19339   -17300   -14503   -11001    -6820    -2074     2996     8216 
   13409    18382    23038    27322    31271    34977    38420    41620 
   44610    47278    49647    51740    53344    54482    55242    55459 
   55207    54539    53284    51499    49238    46499    43414    39963 
   36120    31928    27427    22795    18057    13183     8241     3079 
   -2369    -8041   -13955   -19883   -25544   -30742   -35195   -38798 
  -41586   -43598   -44977   -45846   -46358   -46640   -46779   -46901 
  -46870   -46502   -45823   -44776   -43379   -41794   -40116   -38388 
  -36517   -34427   -32116   -29445   -26352   -22798   -18678   -14099 
   -9153    -3944     1193     6124    10784    15011    18881    22386 
   25466    28226    30537    32346    33705    34459    34630    34292 
   33449    32402    31359    30284    29207    28102    26877    25543 
   24141    22639    20941    19073    17190    15398    13784    12394 
   11184    10054     8883     7663     6390     5074     3832     2605 
    1268      -99    -1436    -2661    -3637    -4414    -5116    -5841 
   -6604    -7235    -7698    -8057    -8142    -7796    -6985    -5700 
   -4040    -2081      168     2516     4756     6905     9021    11129 
   13343    15710    18092    20381    22629    24846    26854    28450 
   29550    30189    30527    30776    31091    31573    32217    32846 
   33327    33657    33748    33460    32773    31689    30197    28407 
   26476    24541    22822    21540    20757    20349    20109    19823 
   19311    18500    17373    15936    14300    12635    11087     9757 
    8649     7747     7021     6315     5497     4563     3519     2428 
    1321      169     -973    -2103    -3342    -4734    -6308    -8110 
  -10140   -12411   -14878   -17441   -20052   -22648   -25121   -27361 
  -29194   -30498   -31337   -31689   -31379   -30411   -28907   -26900 
  -24443   -21571   -18273   -14608   -10645    -6443    -2085     2390 
    7009    11779    16558    21102    25233    28851    31918    34456 
   36497    38088    39203    39707    39551    38821    37537    35670 
   33241    30333    27079    23664    20300    17117    14181    11584 
    9357     7431     5770     4323     2957     1614      428     -468 
   -1115    -1633    -2157    -2787    -3560    -4538    -5712    -6980 
   -8324    -9698   -10905   -11793   -12228   -12113   -11490   -10355 
   -8702    -6605    -4127    -1362     1611     4696     7721    10615 
   13398    16109    18800    21457    24103    26679    29002    31051 
   32801    34109    34997    35564    35887    36068    36091    35913 
   35557    34966    34119    33050    31720    30068    28057    25736 
   23244    20673    17987    15180    12370     9543     6589     3547 
     525    -2352    -4887    -6940    -8473    -9429    -9831    -9795 
   -9411    -8824    -8220    -7702    -7312    -7037    -6830    -6665 
   -6486    -6288    -6075    -5703    -5107    -4334    -3409    -2421 
   -1460     -617       19      471      709      724      659      575 
     590      949     1684     2660     3748     4800     5669     6287 
    6663     6833     6871     6913     7062     7358     7730     7997 
    8061     7903     7552     7153     6801     6487     6231     6035 
    5897     5759     5456     4884     4028     2937     1643      152 
   -1412    -2937    -4344    -5460    -6255    -6900    -7495    -8115 
   -8846    -9680   -10522   -11226   -11715   -11955   -11842   -11365 
  -10515    -9217    -7553    -5642    -3576    -1526      421     2261 
    3949     5515     7029     8472     9762    10868    11840    12717 
   13447    14005    14380    14460    14254    13868    13260    12442 
   11538    10639     9833     9174     8727     8554     8570     8634 
    8732     8952     9338     9825    10279    10639    10881    10852 
   10466     9872     9186     8354     7362     6286     5178     4105 
    3144     2298     1519      749      -12     -678    -1290    -2048 
   -3047    -4269    -5633    -6992    -8280    -9484   -10519   -11273 
  -11698   -11792   -11531   -10942   -10141    -9109    -7804    -6336 
   -4717    -2966    -1192      650     2554     4470     6479     8504 
   10400    12200    13934    15569    17025    18235    19187    19854 
   20186    20183    19950    19597    19181    18787    18441    18044 
   17500    16767    15906    14996    14045    13112    12194    11228 
   10302     9464     8692     7974     7263     6584     6034     5711 
    5628     5677     5833     6102     6395     6677     6950     7187 
    7320     7224     6936     6605     6261     5883     5479     5105 
    4827     4703     4815     5186     5801     6633     7595     8566 
    9439    10211    10947    11611    12134    12497    12701    12768 
   12629    12212    11579    10771     9846     8928     8115     7526 
    7274     7407     7908     8661     9553    10488    11359    12125 
   12726    13084    13189    13049    12687    12126    11341    10372 
    9293     8128     6894     5620     4404     3397     2647     2142 
    1870     1774     1836     2172     2908     4077     5647     7506 
    9506    11546    13465    15041    16132    16606    16387    15595 
   14376    12873    11296     9827     8604     7720     7205     7064 
    7235     7582     7981     8391     8835     9292     9796    10448 
   11246    12194    13335    14586    15838    17026    18057    18868 
   19380    19509    19321    18898    18257    17504    16741    15961 
   15139    14312    13529    12764    11965    11129    10245     9350 
    8490     7575     6549     5516     4490     3395     2234      980 
    -405    -1846    -3217    -4398    -5265    -5710    -5691    -5280 
   -4640    -3946    -3315    -2797    -2414    -2157    -1919    -1573 
   -1055     -316      568     1395     2010     2272     2138     1672 
     896      -48     -912    -1586    -1996    -2167    -2253    -2312 
   -2461    -2835    -3423    -4206    -5068    -5799    -6276    -6439 
   -6284    -5858    -5262    -4641    -4088    -3701    -3527    -3513 
   -3642    -3904    -4233    -4551    -4793    -4924    -4886    -4648 
   -4268    -3734    -3012    -2117    -1019      249     1630     3123 
    4619     5992     7141     7872     8078     7764     6921     5559 
