Origin Time       2011/03/11 14:46:00
Lat.              38.103
Long.             142.860
Depth. (km)       24
Mag.              9.0
Station Code      OSK009
Station Lat.      34.4364
Station Long.     135.5805
Station Height(m) 207
Record Time       2011/03/11 14:51:03
Sampling Freq(Hz) 100Hz
Duration Time(s)  60
Dir.              E-W
Scale Factor      3920(gal)/6182761
Max. Acc. (gal)   1.556
Last Correction   2011/03/11 14:50:48
Memo.             
[...]
  -22209   -22210   -22216   -22217   -22234   -22266   -22271   -22268 
  -22277   -22263   -22241   -22228   -22203   -22197   -22207   -22187 
  -22157   -22140   -22120   -22093   -22053   -22000   -21954   -21896 
  -21821   -21785   -21765   -21708   -21660   -21639   -21598   -21555 
  -21547   -21538   -21512   -21501   -21508   -21510   -21518   -21537 
  -21538   -21534   -21544   -21536   -21525   -21537   -21540   -21540 
  -21572   -21601   -21610   -21626   -21644   -21652   -21667   -21698 
  -21740   -21791   -21839   -21869   -21890   -21907   -21923   -21938 
  -21937   -21928   -21935   -21948   -21962   -21993   -22021   -22060 
  -22107   -22142   -22203   -22271   -22279   -22268   -22288   -22299 
  -22310   -22351   -22374   -22382   -22408   -22418   -22409   -22408 
  -22403   -22380   -22364   -22365   -22355   -22328   -22305   -22290 
  -22276   -22265   -22267   -22267   -22251   -22243   -22233   -22210 
  -22206   -22218   -22210   -22206   -22220   -22220   -22211   -22199 
  -22174   -22148   -22124   -22100   -22089   -22091   -22075   -22052 
  -22046   -22040   -22021   -22000   -21990   -21992   -21989   -21978 
  -21963   -21941   -21914   -21886   -21867   -21870   -21886   -21889 
  -21885   -21896   -21909   -21890   -21868   -21878   -21876   -21854 
  -21861   -21869   -21862   -21867   -21858   -21822   -21792   -21764 
  -21728   -21694   -21660   -21607   -21539   -21489   -21446   -21378 
  -21314   -21250   -21166   -21103   -21056   -20987   -20933   -20914 
  -20884   -20835   -20791   -20742   -20697   -20668   -20634   -20603 
  -20594   -20588   -20580   -20591   -20620   -20632   -20637   -20671 
  -20701   -20714   -20753   -20792   -20804   -20845   -20926   -20979 
  -20992   -21011   -21031   -21026   -21025   -21041   -21028   -21009 
  -21027   -21025   -21005   -21009   -21003   -20993   -20996   -20978 
  -20958   -20959   -20947   -20929   -20949   -21000   -21046   -21086 
  -21125   -21152   -21177   -21208   -21235   -21255   -21280   -21323 
  -21373   -21434   -21519   -21587   -21619   -21656   -21687   -21695 
  -21738   -21805   -21832   -21841   -21861   -21876   -21894   -21920 
  -21931   -21929   -21940   -21957   -21966   -21981   -21998   -22012 
  -22032   -22050   -22089   -22146   -22172   -22194   -22228   -22251 
  -22271   -22272   -22265   -22283   -22307   -22328   -22370   -22411 
  -22411   -22420   -22448   -22440   -22437   -22471   -22476   -22466 
  -22486   -22508   -22510   -22503   -22485   -22449   -22421   -22421 
  -22412   -22397   -22402   -22384   -22338   -22312   -22296   -22276 
  -22270   -22258   -22223   -22203   -22198   -22165   -22126   -22114 
  -22091   -22054   -22049   -22047   -22002   -21950   -21911   -21863 
  -21828   -21807   -21778   -21768   -21775   -21755   -21724   -21693 
  -21654   -21612   -21564   -21532   -21510   -21457   -21410   -21387 
  -21338   -21294   -21289   -21280   -21263   -21264   -21266   -21263 
  -21269   -21279   -21282   -21292   -21319   -21334   -21343   -21379 
  -21403   -21397   -21403   -21406   -21399   -21404   -21379   -21325 
  -21292   -21263   -21221   -21198   -21180   -21157   -21135   -21086 
  -21024   -20979   -20932   -20874   -20835   -20819   -20798   -20776 
  -20765   -20749   -20744   -20756   -20759   -20771   -20811   -20853 
  -20893   -20940   -20984   -21048   -21147   -21224   -21285   -21372 
  -21431   -21453   -21496   -21529   -21552   -21605   -21654   -21691 
  -21746   -21779   -21780   -21790   -21789   -21761   -21745   -21762 
  -21779   -21777   -21786   -21791   -21766   -21743   -21729   -21714 
  -21709   -21717   -21728   -21742   -21767   -21793   -21810   -21836 
  -21850   -21856   -21885   -21901   -21908   -21949   -21985   -21992 
  -22006   -22014   -22006   -22001   -21997   -22009   -22030   -22035 
  -22045   -22064   -22068   -22077   -22097   -22104   -22112   -22115 
  -22112   -22139   -22166   -22178   -22217   -22259   -22275   -22298 
  -22329   -22356   -22388   -22415   -22432   -22462   -22510   -22555 
  -22594   -22630   -22652   -22665   -22684   -22696   -22701   -22713 
  -22728   -22741   -22744   -22750   -22770   -22782   -22794   -22810 
  -22810   -22798   -22801   -22814   -22816   -22819   -22836   -22848 
  -22860   -22880   -22887   -22882   -22861   -22826   -22786   -22741 
  -22708   -22680   -22639   -22597   -22546   -22479   -22424   -22360 
  -22281   -22235   -22209   -22182   -22174   -22161   -22135   -22125 
  -22115   -22099   -22099   -22099   -22078   -22070   -22082   -22091 
  -22103   -22116   -22115   -22125   -22144   -22153   -22173   -22204 
  -22232   -22266   -22302   -22351   -22412   -22466   -22514   -22552 
  -22584   -22610   -22629   -22649   -22666   -22679   -22682   -22686 
  -22707   -22713   -22706   -22704   -22689   -22669   -22660   -22653 
  -22644   -22643   -22644   -22633   -22630   -22615   -22570   -22544 
  -22529   -22483   -22443   -22424   -22387   -22343   -22306   -22264 
  -22238   -22214   -22172   -22142   -22108   -22046   -21991   -21943 
  -21898   -21863   -21805   -21749   -21723   -21685   -21645   -21613 
  -21572   -21545   -21526   -21492   -21471   -21453   -21412   -21370 
  -21342   -21316   -21297   -21287   -21278   -21260   -21244   -21235 
  -21219   -21196   -21179   -21168   -21157   -21163   -21166   -21157 
  -21176   -21203   -21223   -21276   -21325   -21347   -21391   -21435 
  -21435   -21451   -21500   -21535   -21566   -21613   -21655   -21681 
  -21700   -21717   -21723   -21716   -21709   -21711   -21724   -21732 
  -21722   -21713   -21717   -21713   -21707   -21712   -21702   -21686 
  -21703   -21734   -21738   -21731   -21740   -21751   -21751   -21760 
  -21786   -21810   -21830   -21869   -21921   -21956   -21993   -22049 
  -22102   -22148   -22190   -22229   -22268   -22306   -22343   -22392 
  -22439   -22472   -22507   -22549   -22582   -22600   -22612   -22616 
  -22604   -22601   -22622   -22628   -22621   -22639   -22666   -22669 
  -22656   -22646   -22639   -22633   -22624   -22617   -22620   -22626 
  -22640   -22657   -22657   -22660   -22689   -22715   -22729   -22744 
  -22763   -22773   -22780   -22793   -22812   -22825   -22834   -22846 
  -22859   -22879   -22899   -22914   -22934   -22954   -22963   -22963 
  -22966   -22965   -22963   -22964   -22968   -22996   -23044   -23077 
  -23106   -23146   -23167   -23176   -23192   -23200   -23200   -23216 
  -23243   -23266   -23294   -23321   -23321   -23306   -23297   -23278 
  -23253   -23245   -23248   -23243   -23239   -23248   -23248   -23224 
  -23190   -23156   -23117   -23091   -23080   -23058   -23029   -23013 
  -22996   -22973   -22946   -22913   -22882   -22864   -22847   -22831 
  -22819   -22807   -22805   -22809   -22821   -22845   -22864   -22873 
  -22884   -22897   -22905   -22911   -22917   -22913   -22914   -22931 
  -22941   -22949   -22955   -22953   -22960   -22970   -22966   -22950 
  -22947   -22955   -22952   -22964   -22997   -23018   -23028   -23043 
  -23061   -23080   -23108   -23131   -23130   -23135   -23154   -23147 
  -23129   -23129   -23112   -23085   -23082   -23087   -23087   -23090 
  -23085   -23073   -23062   -23036   -22995   -22956   -22919   -22878 
  -22839   -22799   -22770   -22756   -22732   -22690   -22653   -22630 
  -22599   -22561   -22542   -22514   -22471   -22466   -22466   -22441 
  -22447   -22467   -22465   -22483   -22517   -22519   -22515   -22528 
  -22529   -22530   -22544   -22551   -22574   -22606   -22605   -22609 
  -22647   -22672   -22675   -22692   -22716   -22727   -22734   -22734 
  -22724   -22717   -22705   -22684   -22679   -22685   -22685   -22690 
  -22676   -22637   -22622   -22617   -22591   -22582   -22588   -22575 
  -22548   -22524   -22512   -22493   -22459   -22435   -22423   -22409 
  -22401   -22394   -22377   -22348   -22313   -22305   -22327   -22311 
  -22272   -22279   -22288   -22275   -22290   -22306   -22292   -22291 
  -22319   -22331   -22332   -22342   -22323   -22292   -22306   -22332 
  -22341   -22356   -22381   -22390   -22383   -22396   -22408   -22392 
  -22384   -22386   -22385   -22397   -22405   -22385   -22362   -22359 
  -22353   -22332   -22318   -22315   -22300   -22272   -22253   -22243 
  -22227   -22204   -22184   -22161   -22142   -22129   -22104   -22074 
  -22057   -22037   -22017   -22007   -21988   -21961   -21932   -21894 
  -21855   -21827   -21812   -21805   -21790   -21776   -21764   -21745 
  -21733   -21722   -21719   -21733   -21726   -21717   -21752   -21777 
  -21761   -21762   -21780   -21763   -21730   -21721   -21709   -21679 
  -21667   -21680   -21692   -21702   -21732   -21762   -21760   -21744 
  -21729   -21705   -21694   -21706   -21703   -21681   -21672   -21668 
  -21655   -21643   -21631   -21609   -21591   -21581   -21563   -21545 
  -21538   -21538   -21546   -21553   -21563   -21580   -21585   -21574 
  -21566   -21577   -21597   -21621   -21643   -21671   -21720   -21756 
  -21773   -21804   -21830   -21836   -21843   -21846   -21849   -21868 
  -21888   -21901   -21921   -21951   -21956   -21938   -21940   -21949 
  -21933   -21916   -21917   -21909   -21888   -21873   -21849   -21824 
  -21811   -21781   -21744   -21730   -21721   -21706   -21705   -21720 
  -21710   -21669   -21636   -21612   -21593   -21600   -21608   -21585 
  -21556   -21547   -21532   -21499   -21468   -21429   -21377   -21335 
  -21299   -21268   -21233   -21190   -21161   -21139   -21126   -21128 
  -21111   -21072   -21047   -21025   -21005   -21010   -21019   -21017 
  -21023   -21035   -21042   -21048   -21043   -21016   -20995   -20988 
  -20966   -20951   -20952   -20932   -20908   -20898   -20881   -20861 
  -20852   -20848   -20826   -20792   -20775   -20777   -20772   -20758 
  -20754   -20755   -20753   -20752   -20748   -20741   -20737   -20733 
  -20728   -20737   -20746   -20736   -20723   -20721   -20720   -20709 
  -20702   -20721   -20736   -20731   -20739   -20754   -20751   -20751 
  -20759   -20773   -20798   -20822   -20845   -20859   -20846   -20834 
  -20833   -20825   -20826   -20844   -20853   -20857   -20863   -20844 
  -20816   -20797   -20757   -20707   -20680   -20656   -20617   -20578 
  -20533   -20487   -20464   -20443   -20410   -20378   -20342   -20304 
  -20269   -20237   -20205   -20177   -20154   -20142   -20136   -20135 
  -20145   -20160   -20178   -20210   -20259   -20307   -20342   -20373 
  -20401   -20417   -20445   -20495   -20558   -20629   -20702   -20783 
  -20884   -20974   -21034   -21087   -21134   -21180   -21242   -21306 
  -21366   -21432   -21498   -21564   -21641   -21722   -21798   -21870 
  -21944   -22015   -22078   -22125   -22155   -22190   -22231   -22268 
  -22318   -22374   -22416   -22461   -22504   -22515   -22509   -22506 
  -22489   -22476   -22475   -22459   -22446   -22454   -22452   -22442 
  -22437   -22407   -22359   -22339   -22334   -22310   -22294   -22296 
  -22286   -22275   -22281   -22281   -22260   -22239   -22233   -22228 
  -22220   -22211   -22201   -22204   -22219   -22235   -22260   -22292 
  -22325   -22361   -22406   -22453   -22494   -22528   -22564   -22602 
  -22631   -22661   -22686   -22698   -22720   -22741   -22745   -22771 
  -22818   -22853   -22874   -22885   -22888   -22890   -22887   -22877 
  -22870   -22855   -22845   -22856   -22845   -22822   -22814   -22788 
  -22753   -22739   -22728   -22705   -22681   -22661   -22637   -22619 
  -22612   -22604   -22600   -22589   -22575   -22582   -22581   -22554 
  -22536   -22511   -22473   -22453   -22439   -22412   -22387   -22364 
  -22338   -22325   -22318   -22309   -22299   -22274   -22240   -22218 
  -22208   -22188   -22173   -22171   -22158   -22136   -22120   -22104 
  -22078   -22045   -22014   -21994   -21972   -21944   -21924   -21908 
  -21875   -21835   -21793   -21740   -21696   -21674   -21668   -21685 
  -21709   -21724   -21735   -21723   -21688   -21663   -21639   -21613 
  -21597   -21578   -21559   -21550   -21528   -21508   -21515   -21522 
  -21518   -21512   -21488   -21462   -21460   -21457   -21439   -21433 
  -21442   -21440   -21441   -21453   -21445   -21432   -21440   -21451 
  -21464   -21477   -21485   -21510   -21543   -21557   -21578   -21614 
  -21637   -21661   -21700   -21742   -21777   -21811   -21840   -21864 
  -21899   -21949   -21987   -22021   -22068   -22096   -22112   -22153 
  -22200   -22234   -22272   -22309   -22340   -22384   -22429   -22454 
  -22482   -22509   -22516   -22522   -22538   -22550   -22553   -22552 
  -22554   -22558   -22549   -22535   -22530   -22520   -22503   -22495 
  -22487   -22471   -22464   -22453   -22430   -22396   -22346   -22313 
  -22281   -22209   -22147   -22109   -22071   -22049   -22017   -21966 
  -21919   -21865   -21803   -21745   -21673   -21592   -21527   -21467 
  -21405   -21360   -21315   -21262   -21215   -21169   -21118   -21053 
  -20966   -20885   -20819   -20752   -20688   -20639   -20595   -20533 
  -20470   -20441   -20413   -20350   -20297   -20273   -20220   -20148 
  -20101   -20061   -20025   -20001   -19976   -19961   -19936   -19897 
  -19878   -19858   -19808   -19758   -19740   -19740   -19723   -19689 
  -19671   -19664   -19632   -19600   -19608   -19616   -19600   -19598 
  -19595   -19579   -19576   -19574   -19565   -19557   -19547   -19542 
  -19534   -19511   -19492   -19481   -19469   -19462   -19461   -19472 
  -19484   -19478   -19461   -19450   -19444   -19420   -19387   -19376 
  -19369   -19348   -19326   -19316   -19311   -19313   -19337   -19352 
  -19362   -19386   -19384   -19370   -19383   -19397   -19396   -19421 
  -19477   -19532   -19597   -19676   -19726   -19756   -19795   -19835 
  -19873   -19911   -19949   -19995   -20046   -20075   -20098   -20137 
  -20163   -20174   -20199   -20228   -20241   -20235   -20234   -20242 
  -20235   -20228   -20240   -20268   -20303   -20341   -20376   -20396 
  -20414   -20433   -20440   -20458   -20485   -20504   -20532   -20555 
  -20558   -20566   -20582   -20582   -20568   -20569   -20582   -20582 
  -20586   -20588   -20570   -20555   -20548   -20546   -20552   -20552 
  -20545   -20540   -20534   -20519   -20506   -20509   -20507   -20507 
  -20521   -20531   -20542   -20552   -20554   -20551   -20534   -20532 
  -20559   -20560   -20556   -20581   -20590   -20583   -20592   -20605 
  -20610   -20608   -20607   -20617   -20637   -20655   -20663   -20659 
  -20656   -20678   -20701   -20713   -20731   -20743   -20752   -20771 
  -20776   -20775   -20791   -20802   -20801   -20821   -20856   -20882 
  -20898   -20913   -20919   -20915   -20923   -20947   -20961   -20966 
  -20986   -21012   -21034   -21061   -21074   -21078   -21106   -21135 
  -21151   -21166   -21170   -21173   -21177   -21173   -21182   -21202 
  -21216   -21235   -21232   -21201   -21185   -21170   -21128   -21098 
  -21080   -21050   -21027   -21000   -20966   -20934   -20891   -20852 
  -20820   -20774   -20732   -20685   -20622   -20573   -20529   -20485 
  -20449   -20406   -20369   -20323   -20245   -20182   -20133   -20054 
  -19976   -19917   -19846   -19777   -19717   -19644   -19582   -19544 
  -19512   -19488   -19483   -19480   -19463   -19440   -19418   -19408 
  -19406   -19395   -19389   -19410   -19444   -19459   -19448   -19438 
  -19436   -19438   -19453   -19468   -19474   -19489   -19512   -19530 
  -19547   -19576   -19607   -19626   -19648   -19678   -19715   -19761 
  -19804   -19855   -19913   -19957   -19996   -20030   -20055   -20081 
  -20107   -20122   -20135   -20163   -20195   -20230   -20277   -20325 
  -20374   -20427   -20466   -20510   -20561   -20600   -20633   -20673 
  -20724   -20779   -20833   -20892   -20955   -21022   -21088   -21140 
  -21185   -21235   -21283   -21320   -21346   -21374   -21408   -21434 
  -21452   -21479   -21508   -21526   -21547   -21567   -21570   -21573 
  -21583   -21588   -21598   -21611   -21608   -21595   -21593   -21595 
  -21585   -21578   -21574   -21572   -21596   -21628   -21632   -21628 
  -21630   -21618   -21600   -21593   -21582   -21551   -21519   -21499 
  -21470   -21439   -21429   -21424   -21422   -21443   -21467   -21468 
  -21475   -21487   -21477   -21475   -21486   -21487   -21486   -21490 
  -21488   -21496   -21512   -21512   -21497   -21496   -21509   -21512 
  -21504   -21502   -21506   -21497   -21495   -21520   -21534   -21526 
  -21528   -21532   -21524   -21531   -21535   -21518   -21504   -21504 
  -21511   -21514   -21512   -21509   -21502   -21500   -21501   -21500 
  -21507   -21516   -21512   -21501   -21497   -21501   -21493   -21476 
  -21476   -21496   -21521   -21544   -21568   -21597   -21616   -21623 
  -21625   -21614   -21612   -21632   -21646   -21661   -21689   -21714 
  -21728   -21748   -21771   -21776   -21771   -21777   -21785   -21788 
  -21790   -21793   -21793   -21788   -21791   -21803   -21792   -21767 
  -21754   -21733   -21709   -21685   -21652   -21628   -21602   -21570 
  -21557   -21530   -21478   -21448   -21418   -21363   -21316   -21297 
  -21261   -21192   -21142   -21106   -21053   -21011   -20975   -20923 
  -20879   -20838   -20790   -20763   -20734   -20676   -20638   -20630 
  -20596   -20551   -20532   -20501   -20449   -20426   -20428   -20401 
  -20371   -20377   -20368   -20333   -20325   -20321   -20300   -20305 
  -20324   -20312   -20302   -20327   -20343   -20323   -20311   -20318 
  -20319   -20317   -20329   -20333   -20316   -20304   -20319   -20345 
  -20356   -20362   -20383   -20410   -20425   -20437   -20458   -20483 
  -20496   -20511   -20558   -20608   -20640   -20696   -20756   -20793 
  -20851   -20920   -20968   -21031   -21099   -21145   -21205   -21292 
  -21364   -21419   -21486   -21557   -21611   -21651   -21700   -21745 
  -21759   -21769   -21800   -21822   -21833   -21852   -21870   -21888 
  -21913   -21924   -21924   -21931   -21927   -21912   -21915   -21918 
  -21900   -21882   -21871   -21856   -21835   -21821   -21807   -21793 
  -21800   -21809   -21799   -21804   -21813   -21791   -21776   -21770 
  -21735   -21702   -21695   -21675   -21644   -21623   -21595   -21568 
  -21547   -21520   -21503   -21493   -21473   -21458   -21453   -21448 
  -21435   -21410   -21395   -21390   -21374   -21363   -21378   -21399 
  -21401   -21384   -21361   -21342   -21339   -21346   -21342   -21344 
  -21367   -21376   -21367   -21372   -21368   -21338   -21320   -21332 
  -21348   -21358   -21367   -21367   -21359   -21366   -21362   -21329 
  -21307   -21293   -21266   -21257   -21256   -21230   -21220   -21226 
  -21196   -21172   -21179   -21167   -21141   -21126   -21107   -21099 
  -21110   -21105   -21083   -21074   -21078   -21071   -21056   -21059 
  -21070   -21086   -21118   -21135   -21131   -21128   -21129   -21122 
  -21114   -21115   -21117   -21110   -21102   -21107   -21123   -21135 
  -21141   -21151   -21161   -21167   -21173   -21183   -21193   -21198 
  -21195   -21189   -21200   -21213   -21208   -21214   -21232   -21228 
  -21224   -21227   -21230   -21242   -21249   -21251   -21268   -21283 
  -21288   -21303   -21317   -21329   -21341   -21354   -21379   -21406 
  -21421   -21433   -21445   -21452   -21471   -21489   -21495   -21516 
  -21551   -21582   -21604   -21612   -21617   -21629   -21651   -21689 
  -21733   -21779   -21822   -21854   -21885   -21921   -21943   -21954 
