Origin Time       2011/03/11 14:46:00
Lat.              38.103
Long.             142.860
Depth. (km)       24
Mag.              9.0
Station Code      OSK010
Station Lat.      34.3744
Station Long.     135.2553
Station Height(m) 3
Record Time       2011/03/11 14:50:13
Sampling Freq(Hz) 100Hz
Duration Time(s)  189
Dir.              U-D
Scale Factor      3920(gal)/6182761
Max. Acc. (gal)   2.255
Last Correction   2011/03/11 14:49:58
Memo.             
[...]
  -76529   -76622   -76627   -76622   -76683   -76745   -76773   -76792 
  -76796   -76805   -76832   -76858   -76873   -76870   -76853   -76844 
  -76853   -76889   -76920   -76905   -76877   -76879   -76845   -76754 
  -76699   -76701   -76727   -76775   -76811   -76803   -76743   -76673 
  -76645   -76599   -76527   -76522   -76555   -76544   -76511   -76519 
  -76551   -76558   -76557   -76557   -76548   -76546   -76560   -76596 
  -76632   -76646   -76697   -76800   -76859   -76850   -76843   -76863 
  -76888   -76892   -76890   -76909   -76938   -76980   -77041   -77083 
  -77085   -77088   -77104   -77107   -77113   -77130   -77123   -77103 
  -77117   -77142   -77138   -77098   -77058   -77046   -77025   -76966 
  -76897   -76837   -76798   -76784   -76768   -76721   -76653   -76596 
  -76557   -76541   -76510   -76449   -76400   -76369   -76359   -76357 
  -76329   -76309   -76327   -76345   -76325   -76274   -76229   -76194 
  -76159   -76152   -76145   -76122   -76141   -76175   -76157   -76117 
  -76096   -76097   -76092   -76061   -76042   -76061   -76106   -76115 
  -76059   -76007   -76007   -76032   -76047   -76025   -75994   -75990 
  -75973   -75917   -75872   -75848   -75801   -75753   -75727   -75744 
  -75794   -75806   -75781   -75762   -75754   -75754   -75721   -75693 
  -75730   -75742   -75732   -75781   -75818   -75823   -75864   -75899 
  -75879   -75844   -75839   -75859   -75874   -75865   -75867   -75911 
  -75992   -76071   -76119   -76167   -76228   -76252   -76251   -76253 
  -76265   -76340   -76432   -76483   -76552   -76604   -76593   -76584 
  -76586   -76585   -76587   -76592   -76633   -76690   -76716   -76721 
  -76700   -76667   -76646   -76604   -76553   -76531   -76525   -76538 
  -76569   -76579   -76554   -76516   -76517   -76546   -76517   -76450 
  -76424   -76413   -76377   -76345   -76327   -76336   -76379   -76391 
  -76349   -76320   -76309   -76258   -76195   -76175   -76179   -76194 
  -76211   -76152   -76036   -76004   -76043   -76044   -76031   -76022 
  -75993   -75999   -76029   -76000   -75941   -75927   -75923   -75899 
  -75912   -75972   -76028   -76060   -76097   -76152   -76223   -76286 
  -76269   -76216   -76267   -76395   -76481   -76519   -76557   -76608 
  -76667   -76745   -76807   -76798   -76759   -76776   -76838   -76895 
  -76944   -76979   -77030   -77120   -77176   -77203   -77251   -77287 
  -77298   -77307   -77331   -77390   -77454   -77483   -77524   -77619 
  -77722   -77752   -77702   -77663   -77649   -77635   -77677   -77770 
  -77839   -77831   -77773   -77747   -77787   -77833   -77791   -77750 
  -77825   -77877   -77847   -77853   -77875   -77844   -77797   -77776 
  -77772   -77769   -77784   -77821   -77852   -77874   -77891   -77907 
  -77937   -77932   -77869   -77825   -77841   -77861   -77843   -77834 
  -77846   -77848   -77851   -77817   -77740   -77700   -77723   -77745 
  -77717   -77702   -77736   -77758   -77775   -77808   -77826   -77820 
  -77797   -77780   -77784   -77793   -77797   -77802   -77826   -77868 
  -77890   -77881   -77851   -77823   -77815   -77823   -77837   -77873 
  -77938   -77988   -77980   -77914   -77851   -77854   -77895   -77925 
  -77965   -78018   -78050   -78084   -78158   -78237   -78242   -78201 
  -78204   -78259   -78295   -78295   -78323   -78370   -78381   -78387 
  -78414   -78430   -78428   -78405   -78357   -78314   -78303   -78321 
  -78328   -78314   -78327   -78315   -78245   -78220   -78210   -78130 
  -78061   -78066   -78122   -78169   -78158   -78132   -78101   -78031 
  -77981   -77958   -77902   -77845   -77816   -77786   -77785   -77803 
  -77769   -77709   -77688   -77676   -77646   -77610   -77559   -77528 
  -77539   -77555   -77565   -77540   -77504   -77525   -77542   -77509 
  -77507   -77558   -77597   -77607   -77611   -77598   -77594   -77633 
  -77635   -77599   -77609   -77646   -77686   -77716   -77721   -77740 
  -77772   -77793   -77807   -77789   -77747   -77725   -77709   -77687 
  -77697   -77707   -77694   -77693   -77669   -77589   -77492   -77399 
  -77341   -77329   -77300   -77263   -77276   -77316   -77348   -77338 
  -77271   -77193   -77127   -77069   -77021   -76978   -76965   -76995 
  -77015   -77007   -76999   -76967   -76916   -76859   -76750   -76630 
  -76563   -76522   -76507   -76510   -76476   -76410   -76335   -76264 
  -76221   -76168   -76092   -76050   -76026   -76007   -76025   -76035 
  -76000   -75964   -75938   -75896   -75854   -75835   -75849   -75930 
  -76030   -76053   -76050   -76083   -76107   -76129   -76151   -76143 
  -76157   -76208   -76257   -76299   -76317   -76330   -76383   -76432 
  -76427   -76403   -76404   -76431   -76462   -76490   -76522   -76593 
  -76673   -76696   -76698   -76713   -76729   -76771   -76822   -76876 
  -76953   -77015   -77068   -77143   -77205   -77210   -77160   -77099 
  -77062   -77034   -77013   -77046   -77122   -77198   -77274   -77309 
  -77293   -77287   -77273   -77261   -77303   -77351   -77380   -77425 
  -77479   -77531   -77593   -77659   -77695   -77674   -77647   -77689 
  -77757   -77805   -77845   -77860   -77864   -77887   -77900   -77909 
  -77912   -77887   -77886   -77953   -78009   -77994   -77970   -77995 
  -78017   -77969   -77893   -77852   -77855   -77905   -77956   -77937 
  -77898   -77909   -77897   -77873   -77909   -77911   -77843   -77818 
  -77826   -77809   -77817   -77845   -77814   -77745   -77697   -77693 
  -77682   -77556   -77382   -77299   -77301   -77339   -77319   -77264 
  -77291   -77292   -77201   -77118   -77022   -76914   -76814   -76708 
  -76717   -76830   -76862   -76824   -76753   -76667   -76679   -76702 
  -76661   -76667   -76682   -76701   -76749   -76739   -76739   -76786 
  -76797   -76793   -76763   -76689   -76668   -76702   -76721   -76739 
  -76756   -76738   -76709   -76695   -76687   -76683   -76683   -76710 
  -76791   -76879   -76940   -76984   -77012   -77046   -77100   -77125 
  -77153   -77230   -77284   -77345   -77447   -77482   -77508   -77601 
  -77657   -77679   -77697   -77677   -77665   -77678   -77707   -77749 
  -77760   -77761   -77810   -77863   -77885   -77908   -77909   -77874 
  -77878   -77906   -77900   -77911   -77954   -77983   -78004   -78000 
  -77950   -77885   -77827   -77792   -77750   -77692   -77676   -77676 
  -77647   -77643   -77665   -77664   -77644   -77615   -77596   -77603 
  -77630   -77684   -77728   -77728   -77739   -77771   -77775   -77792 
  -77841   -77859   -77861   -77890   -77902   -77864   -77833   -77848 
  -77868   -77853   -77819   -77789   -77771   -77773   -77759   -77713 
  -77665   -77595   -77491   -77399   -77313   -77219   -77151   -77136 
  -77151   -77137   -77085   -77029   -76972   -76907   -76846   -76779 
  -76694   -76609   -76550   -76502   -76447   -76409   -76396   -76383 
  -76367   -76353   -76315   -76240   -76187   -76175   -76148   -76111 
  -76095   -76074   -76045   -76037   -76040   -76033   -76021   -76013 
  -75991   -75955   -75945   -75972   -75991   -75983   -75961   -75937 
  -75945   -75976   -75963   -75924   -75923   -75942   -75949   -75949 
  -75912   -75848   -75800   -75757   -75686   -75623   -75621   -75640 
  -75607   -75562   -75555   -75537   -75468   -75409   -75393   -75370 
  -75339   -75310   -75253   -75188   -75156   -75150   -75125   -75087 
  -75082   -75099   -75094   -75077   -75070   -75071   -75073   -75070 
  -75071   -75083   -75092   -75099   -75141   -75196   -75206   -75228 
  -75288   -75311   -75296   -75302   -75322   -75310   -75282   -75289 
  -75335   -75402   -75460   -75497   -75544   -75609   -75677   -75732 
  -75767   -75790   -75801   -75804   -75828   -75879   -75935   -75990 
  -76052   -76150   -76275   -76349   -76355   -76374   -76460   -76560 
  -76606   -76643   -76723   -76819   -76908   -76983   -77015   -77021 
  -77056   -77113   -77155   -77186   -77213   -77222   -77226   -77243 
  -77244   -77256   -77309   -77334   -77329   -77371   -77434   -77477 
  -77501   -77509   -77524   -77555   -77585   -77600   -77595   -77604 
  -77634   -77623   -77606   -77663   -77710   -77696   -77701   -77715 
  -77690   -77670   -77683   -77694   -77695   -77700   -77695   -77665 
  -77623   -77623   -77662   -77666   -77646   -77659   -77661   -77627 
  -77638   -77689   -77688   -77662   -77703   -77766   -77753   -77705 
  -77702   -77702   -77685   -77686   -77663   -77622   -77622   -77627 
  -77571   -77491   -77466   -77467   -77426   -77357   -77275   -77193 
  -77174   -77206   -77178   -77096   -77040   -76987   -76916   -76856 
  -76801   -76750   -76706   -76648   -76575   -76522   -76506   -76480 
  -76410   -76327   -76252   -76168   -76104   -76081   -76041   -75946 
  -75843   -75799   -75793   -75758   -75698   -75642   -75603   -75602 
  -75618   -75625   -75638   -75653   -75660   -75673   -75706   -75726 
  -75735   -75762   -75774   -75788   -75842   -75884   -75934   -76030 
  -76100   -76118   -76148   -76205   -76255   -76270   -76273   -76283 
  -76281   -76298   -76327   -76318   -76323   -76358   -76390   -76430 
  -76438   -76404   -76400   -76447   -76500   -76505   -76476   -76477 
  -76510   -76520   -76502   -76509   -76572   -76636   -76659   -76665 
  -76669   -76706   -76788   -76830   -76817   -76813   -76822   -76856 
  -76921   -76962   -76947   -76922   -76941   -76979   -76995   -77019 
  -77056   -77079   -77115   -77177   -77213   -77213   -77234   -77289 
  -77342   -77391   -77440   -77510   -77601   -77647   -77655   -77719 
  -77819   -77869   -77892   -77910   -77887   -77871   -77912   -77940 
  -77929   -77931   -77932   -77919   -77903   -77852   -77791   -77750 
  -77698   -77653   -77615   -77549   -77500   -77502   -77517   -77517 
  -77510   -77503   -77477   -77430   -77403   -77378   -77325   -77298 
  -77313   -77320   -77306   -77273   -77233   -77196   -77155   -77125 
  -77107   -77088   -77084   -77110   -77134   -77136   -77138   -77139 
  -77136   -77121   -77068   -77027   -77030   -77038   -77036   -77041 
  -77060   -77087   -77114   -77131   -77131   -77117   -77103   -77093 
  -77078   -77066   -77049   -77015   -76997   -77014   -77031   -77014 
  -77022   -77085   -77115   -77092   -77078   -77086   -77120   -77157 
  -77176   -77208   -77259   -77291   -77313   -77366   -77437   -77490 
  -77528   -77578   -77649   -77711   -77766   -77833   -77878   -77906 
  -77948   -77998   -78053   -78110   -78153   -78201   -78275   -78344 
  -78376   -78382   -78426   -78490   -78516   -78538   -78583   -78630 
  -78641   -78619   -78616   -78614   -78590   -78580   -78575   -78569 
  -78564   -78545   -78550   -78577   -78548   -78479   -78451   -78444 
  -78414   -78390   -78384   -78367   -78340   -78329   -78320   -78296 
  -78259   -78219   -78217   -78239   -78210   -78147   -78114   -78120 
  -78113   -78077   -78053   -78020   -77947   -77879   -77832   -77768 
  -77695   -77646   -77615   -77606   -77632   -77642   -77609   -77585 
  -77581   -77569   -77538   -77497   -77447   -77387   -77335   -77316 
  -77314   -77287   -77245   -77207   -77169   -77131   -77087   -77032 
  -76979   -76944   -76920   -76884   -76842   -76805   -76770   -76721 
  -76648   -76572   -76503   -76450   -76416   -76361   -76299   -76277 
  -76274   -76254   -76217   -76172   -76125   -76081   -76035   -75994 
  -75975   -75967   -75952   -75948   -75961   -75963   -75968   -76005 
  -76048   -76068   -76057   -76054   -76104   -76163   -76173   -76165 
  -76189   -76228   -76247   -76263   -76306   -76344   -76364   -76388 
  -76413   -76418   -76410   -76419   -76450   -76459   -76433   -76393 
  -76367   -76393   -76431   -76415   -76394   -76429   -76475   -76500 
  -76508   -76487   -76468   -76491   -76509   -76491   -76490   -76507 
  -76483   -76456   -76484   -76516   -76516   -76513   -76513   -76516 
  -76539   -76559   -76544   -76537   -76546   -76508   -76456   -76446 
  -76450   -76442   -76423   -76404   -76383   -76346   -76321   -76310 
  -76276   -76223   -76188   -76158   -76100   -76015   -75925   -75840 
  -75771   -75712   -75647   -75568   -75475   -75386   -75312   -75212 
  -75081   -74967   -74893   -74846   -74799   -74729   -74666   -74646 
  -74616   -74534   -74473   -74456   -74434   -74422   -74418   -74399 
  -74403   -74432   -74437   -74421   -74426   -74452   -74462   -74464 
  -74494   -74515   -74515   -74562   -74647   -74709   -74741   -74788 
  -74874   -74956   -75007   -75061   -75133   -75200   -75247   -75298 
  -75368   -75457   -75558   -75651   -75738   -75839   -75930   -76000 
  -76094   -76219   -76320   -76384   -76463   -76572   -76690   -76814 
  -76918   -76997   -77097   -77214   -77309   -77386   -77467   -77555 
  -77636   -77695   -77725   -77761   -77829   -77897   -77919   -77915 
  -77946   -78011   -78055   -78069   -78076   -78079   -78107   -78144 
  -78116   -78061   -78040   -78013   -77963   -77919   -77908   -77918 
  -77894   -77828   -77770   -77712   -77614   -77509   -77446   -77417 
  -77359   -77247   -77165   -77154   -77136   -77066   -76961   -76848 
  -76775   -76727   -76634   -76522   -76445   -76371   -76273   -76155 
  -76037   -75945   -75864   -75771   -75675   -75582   -75493   -75418 
  -75344   -75249   -75152   -75085   -75032   -74968   -74896   -74831 
  -74761   -74686   -74616   -74554   -74479   -74384   -74319   -74298 
  -74281   -74229   -74154   -74120   -74113   -74076   -74036   -73988 
  -73886   -73790   -73752   -73707   -73623   -73545   -73501   -73478 
  -73459   -73438   -73420   -73413   -73423   -73427   -73403   -73396 
  -73428   -73446   -73468   -73535   -73598   -73632   -73670   -73729 
  -73795   -73842   -73890   -73968   -74035   -74084   -74170   -74296 
  -74394   -74444   -74501   -74593   -74677   -74738   -74817   -74902 
  -74961   -75016   -75088   -75158   -75193   -75207   -75236   -75282 
  -75330   -75366   -75372   -75384   -75422   -75443   -75464   -75511 
  -75537   -75541   -75559   -75588   -75630   -75663   -75664   -75667 
  -75698   -75717   -75712   -75716   -75725   -75739   -75785   -75837 
  -75853   -75860   -75897   -75936   -75924   -75891   -75905   -75944 
  -75947   -75918   -75885   -75855   -75825   -75783   -75747   -75722 
  -75673   -75642   -75654   -75621   -75543   -75525   -75572   -75586 
  -75537   -75500   -75494   -75460   -75419   -75413   -75391   -75335 
  -75301   -75296   -75285   -75261   -75230   -75203   -75192   -75186 
  -75155   -75107   -75063   -75031   -75021   -74998   -74955   -74935 
  -74923   -74899   -74869   -74818   -74771   -74756   -74748   -74727 
  -74687   -74638   -74618   -74624   -74605   -74569   -74556   -74552 
  -74551   -74564   -74567   -74571   -74591   -74603   -74627   -74668 
  -74699   -74733   -74776   -74813   -74849   -74883   -74915   -74966 
  -75031   -75076   -75109   -75181   -75276   -75346   -75410   -75482 
  -75529   -75586   -75678   -75748   -75804   -75884   -75965   -76045 
  -76133   -76198   -76234   -76284   -76366   -76448   -76511   -76575 
  -76654   -76743   -76833   -76910   -76959   -76996   -77063   -77158 
  -77223   -77257   -77322   -77424   -77508   -77563   -77618   -77689 
  -77747   -77785   -77828   -77865   -77894   -77938   -77996   -78055 
  -78107   -78168   -78230   -78254   -78274   -78312   -78327   -78328 
  -78347   -78370   -78404   -78454   -78487   -78498   -78507   -78536 
  -78581   -78605   -78605   -78591   -78575   -78575   -78574   -78569 
  -78573   -78557   -78524   -78516   -78513   -78477   -78427   -78366 
  -78300   -78260   -78229   -78166   -78094   -78032   -77974   -77919 
  -77828   -77710   -77642   -77602   -77502   -77384   -77300   -77215 
  -77130   -77050   -76958   -76882   -76823   -76755   -76677   -76585 
  -76500   -76459   -76443   -76405   -76338   -76262   -76209   -76178 
  -76150   -76146   -76138   -76105   -76108   -76127   -76111   -76088 
  -76048   -75974   -75915   -75899   -75886   -75860   -75860   -75872 
  -75861   -75853   -75858   -75850   -75807   -75732   -75674   -75640 
  -75587   -75521   -75472   -75445   -75396   -75311   -75258   -75241 
  -75200   -75139   -75078   -75029   -74986   -74917   -74826   -74768 
  -74753   -74739   -74708   -74672   -74651   -74622   -74587   -74606 
  -74621   -74588   -74616   -74698   -74719   -74709   -74733   -74777 
  -74825   -74901   -74987   -75051   -75124   -75232   -75345   -75451 
  -75553   -75653   -75768   -75897   -76031   -76149   -76241   -76351 
  -76482   -76606   -76740   -76856   -76929   -77020   -77142   -77240 
  -77313   -77391   -77462   -77515   -77574   -77663   -77759   -77794 
  -77795   -77856   -77926   -77953   -78005   -78086   -78140   -78161 
  -78176   -78225   -78303   -78363   -78394   -78421   -78478   -78554 
  -78609   -78620   -78612   -78629   -78677   -78740   -78778   -78758 
  -78746   -78782   -78813   -78801   -78761   -78713   -78670   -78650 
  -78629   -78569   -78500   -78438   -78385   -78355   -78300   -78204 
  -78122   -78061   -77982   -77875   -77765   -77682   -77606   -77523 
  -77441   -77350   -77287   -77255   -77175   -77064   -76986   -76906 
  -76810   -76743   -76678   -76576   -76483   -76422   -76362   -76303 
  -76233   -76144   -76095   -76080   -76035   -75958   -75902   -75871 
  -75847   -75856   -75872   -75821   -75764   -75770   -75761   -75721 
  -75709   -75701   -75705   -75753   -75801   -75833   -75853   -75871 
  -75913   -75958   -75985   -76013   -76040   -76087   -76156   -76200 
  -76238   -76296   -76343   -76394   -76458   -76501   -76538   -76582 
  -76613   -76634   -76669   -76717   -76755   -76795   -76841   -76869 
  -76911   -76973   -76998   -77006   -77057   -77129   -77174   -77220 
  -77283   -77317   -77343   -77410   -77464   -77479   -77506   -77546 
  -77566   -77598   -77662   -77687   -77670   -77683   -77720   -77736 
  -77738   -77726   -77700   -77702   -77725   -77713   -77688   -77675 
  -77667   -77670   -77664   -77628   -77587   -77579   -77603   -77605 
  -77570   -77541   -77536   -77533   -77498   -77447   -77410   -77367 
  -77337   -77314   -77250   -77168   -77105   -77072   -77070   -77034 
  -76956   -76922   -76914   -76876   -76830   -76778   -76703   -76647 
  -76623   -76584   -76530   -76483   -76442   -76418   -76426   -76423 
  -76392   -76386   -76393   -76379   -76379   -76375   -76328   -76285 
  -76281   -76280   -76269   -76264   -76279   -76303   -76297   -76278 
  -76276   -76271   -76282   -76291   -76224   -76162   -76227   -76307 
  -76282   -76250   -76278   -76305   -76307   -76301   -76307   -76326 
  -76343   -76350   -76364   -76404   -76430   -76429   -76446   -76486 
  -76532   -76570   -76611   -76670   -76726   -76769   -76799   -76835 
  -76902   -76984   -77033   -77052   -77118   -77223   -77272   -77278 
  -77318   -77378   -77401   -77428   -77494   -77553   -77607   -77668 
  -77709   -77750   -77779   -77783   -77804   -77842   -77859   -77841 
  -77826   -77849   -77889   -77912   -77928   -77947   -77951   -77961 
  -77998   -78020   -78028   -78058   -78095   -78117   -78134   -78167 
  -78227   -78286   -78315   -78331   -78376   -78441   -78491   -78527 
  -78542   -78563   -78630   -78692   -78740   -78797   -78828   -78865 
  -78953   -79009   -78998   -78998   -79037   -79081   -79116   -79127 
  -79129   -79158   -79192   -79219   -79247   -79254   -79238   -79232 
