Origin Time       2011/03/11 14:46:00
Lat.              38.103
Long.             142.860
Depth. (km)       24
Mag.              9.0
Station Code      OSK004
Station Lat.      34.7407
Station Long.     135.6396
Station Height(m) 15
Record Time       2011/03/11 14:49:11
Sampling Freq(Hz) 100Hz
Duration Time(s)  273
Dir.              E-W
Scale Factor      3920(gal)/6182761
Max. Acc. (gal)   6.373
Last Correction   2011/03/11 14:48:56
Memo.             
[...]
  -69954   -69963   -69969   -69981   -69978   -69962   -69943   -69934 
  -69919   -69871   -69812   -69755   -69660   -69533   -69397   -69244 
  -69060   -68867   -68693   -68496   -68249   -68022   -67837   -67644 
  -67450   -67287   -67142   -66996   -66846   -66694   -66567   -66470 
  -66389   -66310   -66205   -66113   -66079   -66036   -65967   -65975 
  -66040   -66069   -66096   -66163   -66246   -66362   -66504   -66642 
  -66794   -66977   -67167   -67367   -67599   -67832   -68031   -68210 
  -68397   -68580   -68727   -68857   -68962   -68978   -68950   -68955 
  -68965   -68976   -69025   -69080   -69108   -69131   -69187   -69306 
  -69482   -69685   -69896   -70122   -70402   -70726   -71038   -71312 
  -71586   -71895   -72202   -72458   -72677   -72883   -73086   -73266 
  -73393   -73470   -73542   -73642   -73757   -73851   -73925   -74011 
  -74108   -74214   -74354   -74507   -74634   -74783   -74992   -75215 
  -75450   -75745   -76054   -76309   -76534   -76755   -76943   -77113 
  -77279   -77381   -77419   -77453   -77440   -77326   -77156   -76953 
  -76683   -76342   -75950   -75516   -75033   -74496   -73915   -73302 
  -72656   -71993   -71381   -70836   -70260   -69623   -69018   -68468 
  -67912   -67358   -66845   -66351   -65872   -65470   -65154   -64892 
  -64699   -64592   -64564   -64610   -64710   -64869   -65142   -65505 
  -65849   -66154   -66480   -66820   -67144   -67461   -67757   -68023 
  -68301   -68592   -68832   -69012   -69151   -69252   -69343   -69440 
  -69513   -69565   -69612   -69640   -69655   -69687   -69763   -69889 
  -70009   -70104   -70235   -70397   -70536   -70669   -70809   -70940 
  -71081   -71260   -71460   -71638   -71780   -71892   -71980   -72070 
  -72185   -72309   -72404   -72494   -72634   -72763   -72820   -72851 
  -72886   -72906   -72896   -72847   -72783   -72713   -72596   -72415 
  -72199   -71999   -71831   -71684   -71576   -71476   -71324   -71179 
  -71104   -71023   -70907   -70840   -70813   -70760   -70689   -70592 
  -70443   -70294   -70188   -70050   -69845   -69636   -69443   -69237 
  -68998   -68715   -68411   -68099   -67760   -67415   -67101   -66811 
  -66493   -66126   -65781   -65494   -65221   -64973   -64771   -64579 
  -64397   -64277   -64231   -64236   -64265   -64290   -64349   -64486 
  -64649   -64800   -64966   -65119   -65277   -65494   -65726   -65945 
  -66189   -66443   -66704   -67010   -67338   -67637   -67913   -68220 
  -68560   -68881   -69191   -69532   -69874   -70177   -70476   -70808 
  -71137   -71429   -71682   -71911   -72161   -72425   -72656   -72892 
  -73131   -73297   -73441   -73628   -73806   -73993   -74200   -74331 
  -74386   -74448   -74518   -74602   -74694   -74739   -74762   -74792 
  -74782   -74769   -74795   -74800   -74782   -74784   -74790   -74798 
  -74799   -74764   -74726   -74701   -74627   -74487   -74311   -74093 
  -73847   -73597   -73304   -72973   -72631   -72268   -71901   -71560 
  -71223   -70882   -70571   -70304   -70063   -69855   -69668   -69486 
  -69359   -69277   -69181   -69131   -69156   -69177   -69188   -69218 
  -69263   -69307   -69331   -69341   -69358   -69357   -69327   -69283 
  -69231   -69188   -69118   -68978   -68850   -68740   -68523   -68247 
  -68042   -67851   -67619   -67429   -67293   -67162   -67054   -67004 
  -66994   -66979   -66947   -66926   -66927   -66946   -66964   -66968 
  -66988   -67055   -67152   -67265   -67394   -67534   -67692   -67888 
  -68098   -68310   -68551   -68800   -69002   -69170   -69341   -69523 
  -69690   -69789   -69846   -69921   -69995   -70062   -70134   -70170 
  -70137   -70086   -70074   -70085   -70088   -70056   -69958   -69829 
  -69729   -69649   -69543   -69409   -69282   -69191   -69132   -69067 
  -68985   -68949   -68981   -69024   -69088   -69212   -69343   -69437 
  -69559   -69739   -69928   -70122   -70297   -70422   -70537   -70679 
  -70847   -71013   -71134   -71217   -71292   -71372   -71454   -71501 
  -71520   -71542   -71523   -71439   -71356   -71281   -71147   -70975 
  -70807   -70593   -70341   -70116   -69907   -69681   -69456   -69245 
  -69038   -68850   -68699   -68572   -68479   -68430   -68409   -68428 
  -68481   -68539   -68591   -68659   -68764   -68886   -69007   -69127 
  -69215   -69277   -69347   -69402   -69430   -69474   -69533   -69568 
  -69592   -69623   -69637   -69628   -69630   -69644   -69646   -69628 
  -69601   -69581   -69592   -69606   -69580   -69554   -69545   -69522 
  -69497   -69484   -69458   -69412   -69371   -69337   -69274   -69217 
  -69222   -69254   -69286   -69310   -69309   -69321   -69364   -69375 
  -69364   -69385   -69379   -69300   -69212   -69136   -69053   -68972 
  -68886   -68783   -68685   -68599   -68543   -68525   -68524   -68545 
  -68604   -68685   -68778   -68884   -69006   -69150   -69309   -69485 
  -69677   -69854   -70001   -70159   -70356   -70550   -70730   -70924 
  -71106   -71245   -71381   -71523   -71637   -71728   -71806   -71862 
  -71935   -72008   -71988   -71908   -71843   -71762   -71657   -71537 
  -71373   -71174   -70942   -70644   -70319   -70017   -69689   -69306 
  -68921   -68545   -68129   -67691   -67286   -66896   -66496   -66116 
  -65738   -65331   -64963   -64648   -64307   -63965   -63666   -63383 
  -63137   -62949   -62781   -62633   -62506   -62394   -62335   -62341 
  -62374   -62431   -62541   -62705   -62899   -63133   -63427   -63740 
  -64073   -64484   -64947   -65413   -65878   -66318   -66760   -67230 
  -67658   -68021   -68364   -68687   -68987   -69278   -69530   -69723 
  -69888   -70058   -70226   -70370   -70501   -70645   -70803   -70959 
  -71105   -71232   -71340   -71463   -71604   -71725   -71828   -71928 
  -71978   -71983   -72000   -72001   -71952   -71881   -71791   -71686 
  -71626   -71633   -71656   -71679   -71730   -71799   -71912   -72141 
  -72439   -72726   -73012   -73300   -73577   -73850   -74112   -74355 
  -74554   -74676   -74740   -74767   -74731   -74625   -74470   -74260 
  -74000   -73695   -73339   -72958   -72569   -72158   -71732   -71344 
  -71028   -70742   -70452   -70172   -69914   -69721   -69642   -69635 
  -69625   -69611   -69611   -69615   -69628   -69664   -69706   -69732 
  -69728   -69690   -69635   -69578   -69507   -69409   -69286   -69160 
  -69040   -68921   -68829   -68759   -68656   -68582   -68599   -68653 
  -68750   -68882   -68990   -69108   -69271   -69448   -69642   -69855 
  -70077   -70294   -70449   -70527   -70611   -70735   -70845   -70898 
  -70889   -70858   -70856   -70861   -70831   -70783   -70770   -70803 
  -70829   -70834   -70850   -70893   -70976   -71077   -71158   -71232 
  -71308   -71391   -71495   -71593   -71670   -71731   -71775   -71824 
  -71878   -71906   -71926   -71961   -71949   -71835   -71695   -71600 
  -71532   -71452   -71324   -71156   -70999   -70863   -70694   -70463 
  -70233   -70032   -69836   -69641   -69395   -69075   -68751   -68449 
  -68170   -67939   -67748   -67605   -67491   -67363   -67274   -67270 
  -67339   -67482   -67667   -67843   -68024   -68209   -68392   -68603 
  -68829   -69043   -69283   -69565   -69846   -70094   -70319   -70566 
  -70844   -71116   -71364   -71597   -71807   -71988   -72154   -72308 
  -72437   -72538   -72620   -72681   -72700   -72662   -72590   -72536 
  -72492   -72405   -72288   -72168   -72032   -71870   -71687   -71515 
  -71357   -71179   -70994   -70839   -70687   -70486   -70245   -69989 
  -69718   -69447   -69190   -68932   -68651   -68351   -68044   -67757 
  -67519   -67310   -67112   -66941   -66797   -66677   -66579   -66471 
  -66365   -66324   -66315   -66259   -66163   -66076   -66003   -65931 
  -65873   -65822   -65748   -65651   -65551   -65457   -65374   -65301 
  -65232   -65161   -65093   -65052   -65033   -65000   -64945   -64896 
  -64866   -64844   -64826   -64812   -64772   -64695   -64629   -64596 
  -64581   -64605   -64679   -64762   -64863   -65024   -65234   -65461 
  -65698   -65970   -66323   -66732   -67119   -67473   -67814   -68124 
  -68405   -68671   -68893   -69079   -69242   -69329   -69346   -69345 
  -69289   -69172   -69057   -68943   -68814   -68687   -68534   -68352 
  -68162   -67971   -67796   -67621   -67439   -67278   -67118   -66969 
  -66874   -66817   -66781   -66774   -66803   -66892   -67037   -67203 
  -67405   -67667   -67954   -68230   -68508   -68787   -69040   -69276 
  -69501   -69677   -69820   -69973   -70092   -70164   -70247   -70325 
  -70405   -70536   -70659   -70723   -70748   -70739   -70710   -70672 
  -70618   -70518   -70351   -70141   -69925   -69718   -69519   -69312 
  -69110   -68928   -68722   -68517   -68409   -68397   -68433   -68513 
  -68633   -68799   -69018   -69263   -69512   -69788   -70114   -70452 
  -70789   -71158   -71548   -71952   -72398   -72841   -73251   -73664 
  -74064   -74437   -74798   -75127   -75412   -75672   -75913   -76112 
  -76242   -76306   -76314   -76280   -76241   -76178   -76073   -76004 
  -75952   -75814   -75641   -75487   -75302   -75113   -74962   -74778 
  -74547   -74340   -74140   -73940   -73782   -73626   -73454   -73324 
  -73196   -73027   -72863   -72720   -72570   -72431   -72299   -72111 
  -71899   -71717   -71501   -71236   -70982   -70728   -70475   -70233 
  -69959   -69678   -69479   -69341   -69186   -69026   -68904   -68806 
  -68744   -68742   -68734   -68702   -68734   -68806   -68858   -68957 
  -69104   -69224   -69332   -69433   -69510   -69616   -69749   -69835 
  -69881   -69919   -69938   -69950   -69968   -69973   -69946   -69875 
  -69771   -69666   -69561   -69443   -69328   -69233   -69124   -69009 
  -68939   -68913   -68918   -68933   -68957   -69015   -69072   -69122 
  -69237   -69411   -69605   -69806   -69974   -70118   -70280   -70454 
  -70627   -70795   -70951   -71098   -71245   -71405   -71582   -71757 
  -71909   -72017   -72077   -72147   -72279   -72441   -72559   -72608 
  -72635   -72645   -72632   -72633   -72626   -72594   -72554   -72444 
  -72230   -71991   -71775   -71557   -71306   -70981   -70555   -70076 
  -69598   -69146   -68736   -68315   -67828   -67296   -66763   -66270 
  -65834   -65420   -65018   -64628   -64219   -63799   -63436   -63177 
  -62984   -62788   -62597   -62464   -62377   -62315   -62302   -62325 
  -62388   -62516   -62668   -62825   -63026   -63282   -63607   -64005 
  -64428   -64845   -65280   -65751   -66269   -66840   -67430   -68019 
  -68608   -69175   -69723   -70257   -70777   -71286   -71740   -72109 
  -72433   -72742   -73049   -73363   -73658   -73929   -74179   -74387 
  -74563   -74717   -74838   -74942   -75032   -75072   -75043   -74950 
  -74790   -74568   -74309   -74036   -73744   -73418   -73062   -72692 
  -72329   -71984   -71637   -71311   -71059   -70851   -70624   -70379 
  -70179   -70071   -70001   -69900   -69813   -69805   -69878   -69968 
  -70046   -70122   -70165   -70181   -70218   -70267   -70333   -70429 
  -70508   -70550   -70569   -70547   -70495   -70455   -70425   -70355 
  -70248   -70131   -69971   -69741   -69485   -69226   -68967   -68735 
  -68515   -68262   -67986   -67696   -67396   -67137   -66913   -66687 
  -66479   -66287   -66097   -65937   -65800   -65680   -65609   -65564 
  -65507   -65488   -65535   -65607   -65674   -65771   -65924   -66111 
  -66330   -66580   -66848   -67185   -67591   -67982   -68383   -68823 
  -69249   -69702   -70208   -70687   -71143   -71603   -72063   -72521 
  -72936   -73318   -73702   -74031   -74304   -74542   -74678   -74752 
  -74838   -74862   -74796   -74716   -74623   -74486   -74345   -74222 
  -74094   -73960   -73838   -73700   -73517   -73321   -73128   -72925 
  -72717   -72482   -72233   -72020   -71834   -71652   -71475   -71274 
  -71054   -70877   -70748   -70637   -70543   -70433   -70303   -70222 
  -70192   -70157   -70116   -70080   -70048   -70012   -69944   -69856 
  -69793   -69731   -69621   -69462   -69272   -69115   -69001   -68842 
  -68649   -68478   -68293   -68104   -67962   -67838   -67729   -67646 
  -67557   -67460   -67358   -67261   -67216   -67192   -67123   -67019 
  -66897   -66752   -66600   -66442   -66284   -66126   -65938   -65730 
  -65539   -65376   -65242   -65133   -65060   -65060   -65133   -65247 
  -65397   -65597   -65844   -66111   -66404   -66745   -67106   -67452 
  -67781   -68088   -68371   -68648   -68903   -69111   -69299   -69480 
  -69592   -69623   -69616   -69564   -69467   -69354   -69215   -69061 
  -68910   -68735   -68542   -68350   -68142   -67936   -67750   -67567 
  -67410   -67263   -67075   -66892   -66745   -66594   -66457   -66351 
  -66227   -66099   -65992   -65865   -65717   -65585   -65490   -65444 
  -65407   -65345   -65322   -65351   -65375   -65409   -65469   -65522 
  -65594   -65688   -65757   -65829   -65929   -66034   -66163   -66339 
  -66536   -66737   -66942   -67163   -67421   -67719   -68051   -68418 
  -68795   -69178   -69604   -70081   -70582   -71093   -71617   -72155 
  -72698   -73228   -73736   -74237   -74740   -75218   -75638   -76010 
  -76372   -76700   -76956   -77167   -77355   -77485   -77565   -77633 
  -77656   -77595   -77488   -77376   -77259   -77127   -76962   -76790 
  -76641   -76469   -76263   -76069   -75880   -75681   -75471   -75241 
  -75023   -74838   -74695   -74615   -74582   -74574   -74596   -74653 
  -74764   -74930   -75118   -75329   -75563   -75800   -76049   -76323 
  -76598   -76835   -77046   -77272   -77535   -77802   -78035   -78239 
  -78432   -78622   -78809   -78971   -79109   -79247   -79373   -79436 
  -79420   -79368   -79281   -79133   -78945   -78721   -78454   -78188 
  -77920   -77602   -77248   -76891   -76542   -76209   -75887   -75566 
  -75254   -74951   -74679   -74470   -74297   -74145   -74035   -73958 
  -73914   -73923   -73961   -74017   -74099   -74215   -74379   -74573 
  -74765   -74961   -75186   -75434   -75710   -76008   -76274   -76512 
  -76749   -76940   -77089   -77246   -77377   -77444   -77477   -77487 
  -77459   -77412   -77337   -77197   -77013   -76803   -76554   -76277 
  -75979   -75654   -75309   -74959   -74610   -74251   -73882   -73505 
  -73118   -72730   -72334   -71916   -71486   -71047   -70576   -70072 
  -69566   -69081   -68598   -68103   -67616   -67162   -66733   -66322 
  -65925   -65542   -65165   -64796   -64448   -64117   -63790   -63466 
  -63154   -62847   -62549   -62276   -62034   -61802   -61577   -61369 
  -61172   -61006   -60896   -60832   -60794   -60773   -60781   -60821 
  -60875   -60925   -60979   -61070   -61196   -61302   -61382   -61448 
  -61507   -61567   -61602   -61588   -61545   -61492   -61448   -61427 
  -61410   -61388   -61393   -61422   -61450   -61513   -61635   -61776 
  -61948   -62179   -62428   -62679   -62948   -63202   -63436   -63688 
  -63966   -64262   -64547   -64796   -65047   -65316   -65578   -65811 
  -65999   -66163   -66344   -66548   -66751   -66932   -67100   -67263 
  -67423   -67595   -67741   -67844   -67967   -68136   -68292   -68391 
  -68470   -68560   -68633   -68678   -68722   -68758   -68767   -68771 
  -68784   -68784   -68765   -68731   -68699   -68636   -68470   -68285 
  -68199   -68144   -68024   -67864   -67747   -67733   -67770   -67767 
  -67744   -67778   -67889   -68060   -68264   -68453   -68612   -68807 
  -69077   -69357   -69608   -69867   -70130   -70353   -70530   -70688 
  -70859   -71050   -71203   -71281   -71342   -71432   -71488   -71471 
  -71431   -71407   -71383   -71313   -71195   -71099   -71060   -71031 
  -70928   -70743   -70595   -70549   -70467   -70260   -70061   -69951 
  -69818   -69607   -69384   -69191   -69025   -68853   -68623   -68347 
  -68126   -68000   -67872   -67699   -67599   -67646   -67711   -67667 
  -67602   -67666   -67832   -67937   -67947   -68011   -68200   -68409 
  -68542   -68626   -68724   -68878   -69087   -69288   -69463   -69660 
  -69859   -70041   -70259   -70494   -70711   -70918   -71097   -71266 
  -71485   -71714   -71878   -72035   -72231   -72393   -72497   -72588 
  -72641   -72631   -72589   -72525   -72432   -72308   -72145   -71952 
  -71745   -71525   -71293   -71070   -70840   -70554   -70235   -69941 
  -69679   -69437   -69195   -68931   -68656   -68394   -68148   -67898 
  -67616   -67330   -67095   -66874   -66637   -66448   -66318   -66191 
  -66057   -65966   -65941   -65932   -65933   -65995   -66113   -66246 
  -66396   -66595   -66822   -67022   -67212   -67407   -67571   -67712 
  -67841   -67944   -68036   -68113   -68161   -68201   -68235   -68252 
  -68272   -68297   -68319   -68362   -68395   -68385   -68374   -68366 
  -68331   -68287   -68225   -68125   -68044   -67990   -67900   -67804 
  -67736   -67651   -67579   -67564   -67564   -67553   -67560   -67594 
  -67659   -67750   -67837   -67908   -67976   -68032   -68077   -68115 
  -68112   -68062   -67993   -67903   -67773   -67592   -67385   -67178 
  -66969   -66779   -66621   -66476   -66354   -66283   -66272   -66309 
  -66367   -66459   -66598   -66752   -66916   -67092   -67274   -67476 
  -67680   -67851   -67986   -68086   -68175   -68256   -68307   -68337 
  -68340   -68306   -68284   -68278   -68230   -68152   -68074   -67991 
  -67924   -67876   -67822   -67777   -67730   -67648   -67588   -67568 
  -67530   -67474   -67386   -67261   -67168   -67106   -67030   -66922 
  -66781   -66641   -66521   -66381   -66222   -66089   -65965   -65833 
  -65728   -65638   -65547   -65478   -65436   -65428   -65407   -65383 
  -65446   -65471   -65470   -65622   -65754   -65862   -66097   -66267 
  -66416   -66685   -66918   -67130   -67426   -67723   -67987   -68268 
  -68541   -68766   -68979   -69167   -69311   -69458   -69568   -69603 
  -69594   -69552   -69508   -69429   -69272   -69089   -68867   -68576 
  -68279   -68000   -67691   -67367   -67063   -66764   -66486   -66244 
  -66007   -65791   -65597   -65422   -65337   -65337   -65359   -65420 
  -65520   -65643   -65833   -66072   -66310   -66564   -66838   -67123 
  -67438   -67751   -68026   -68304   -68575   -68804   -69029   -69252 
  -69440   -69591   -69700   -69776   -69813   -69808   -69812   -69830 
  -69841   -69877   -69888   -69833   -69786   -69748   -69687   -69652 
  -69618   -69566   -69539   -69497   -69416   -69369   -69344   -69299 
  -69256   -69212   -69181   -69183   -69137   -69039   -68996   -68997 
  -68979   -68960   -68933   -68895   -68878   -68855   -68839   -68864 
  -68867   -68858   -68909   -68979   -69053   -69168   -69286   -69422 
  -69617   -69815   -70016   -70268   -70539   -70821   -71135   -71451 
  -71772   -72135   -72520   -72880   -73228   -73580   -73911   -74216 
  -74516   -74807   -75071   -75280   -75438   -75585   -75723   -75821 
  -75842   -75821   -75818   -75798   -75722   -75621   -75508   -75378 
  -75251   -75151   -75078   -75021   -74960   -74886   -74833   -74835 
  -74889   -74965   -75033   -75100   -75186   -75290   -75408   -75534 
  -75671   -75826   -75983   -76129   -76290   -76475   -76667   -76842 
  -76996   -77144   -77277   -77376   -77464   -77545   -77589   -77590 
  -77548   -77447   -77280   -77067   -76821   -76540   -76261   -75986 
  -75667   -75317   -74950   -74537   -74102   -73662   -73205   -72743 
  -72259   -71728   -71193   -70664   -70098   -69507   -68946   -68397 
  -67830   -67253   -66673   -66101   -65551   -65024   -64518   -64033 
