Origin Time       2011/03/11 14:46:00
Lat.              38.103
Long.             142.860
Depth. (km)       24
Mag.              9.0
Station Code      OSK007
Station Lat.      34.5575
Station Long.     135.6060
Station Height(m) 31
Record Time       2011/03/11 14:49:46
Sampling Freq(Hz) 100Hz
Duration Time(s)  227
Dir.              N-S
Scale Factor      3920(gal)/6182761
Max. Acc. (gal)   6.883
Last Correction   2011/03/11 14:49:31
Memo.             
[...]
   -3661    -3718    -3752    -3768    -3778    -3784    -3791    -3790 
   -3793    -3814    -3832    -3843    -3858    -3900    -3988    -4113 
   -4247    -4364    -4488    -4649    -4855    -5101    -5357    -5622 
   -5908    -6195    -6491    -6812    -7131    -7442    -7751    -8038 
   -8295    -8549    -8790    -8985    -9133    -9247    -9355    -9480 
   -9566    -9584    -9607    -9648    -9661    -9627    -9575    -9540 
   -9492    -9409    -9318    -9199    -9065    -8939    -8781    -8594 
   -8418    -8255    -8079    -7889    -7723    -7597    -7485    -7371 
   -7247    -7113    -7001    -6941    -6913    -6887    -6869    -6860 
   -6851    -6873    -6934    -7006    -7090    -7177    -7256    -7362 
   -7491    -7600    -7694    -7793    -7892    -7988    -8069    -8115 
   -8148    -8214    -8289    -8334    -8365    -8392    -8409    -8419 
   -8404    -8364    -8326    -8261    -8161    -8053    -7931    -7792 
   -7626    -7449    -7291    -7131    -6968    -6813    -6647    -6506 
   -6404    -6301    -6196    -6091    -5975    -5866    -5755    -5619 
   -5498    -5413    -5331    -5239    -5155    -5110    -5118    -5151 
   -5184    -5234    -5322    -5443    -5571    -5713    -5884    -6060 
   -6241    -6443    -6652    -6854    -7051    -7225    -7365    -7511 
   -7697    -7875    -8031    -8176    -8268    -8344    -8459    -8552 
   -8606    -8655    -8694    -8720    -8734    -8751    -8790    -8821 
   -8809    -8788    -8802    -8816    -8793    -8757    -8735    -8740 
   -8747    -8709    -8649    -8593    -8546    -8519    -8473    -8388 
   -8303    -8235    -8150    -8021    -7894    -7790    -7677    -7548 
   -7415    -7284    -7179    -7103    -7013    -6906    -6802    -6697 
   -6592    -6493    -6399    -6325    -6267    -6207    -6130    -6058 
   -6022    -6005    -5982    -5950    -5927    -5924    -5920    -5929 
   -5986    -6084    -6169    -6207    -6222    -6267    -6361    -6467 
   -6545    -6625    -6723    -6802    -6862    -6938    -7051    -7168 
   -7228    -7265    -7318    -7359    -7405    -7436    -7408    -7387 
   -7406    -7392    -7340    -7298    -7267    -7228    -7177    -7123 
   -7079    -7032    -6957    -6870    -6804    -6760    -6722    -6666 
   -6592    -6535    -6510    -6481    -6432    -6392    -6364    -6346 
   -6351    -6357    -6353    -6350    -6352    -6373    -6407    -6437 
   -6486    -6561    -6636    -6718    -6829    -6977    -7156    -7349 
   -7535    -7714    -7887    -8046    -8213    -8421    -8616    -8767 
   -8949    -9158    -9320    -9465    -9620    -9756    -9901   -10054 
  -10177   -10293   -10387   -10445   -10508   -10564   -10587   -10600 
  -10603   -10583   -10539   -10448   -10330   -10227   -10094    -9933 
   -9811    -9710    -9604    -9512    -9424    -9341    -9285    -9239 
   -9168    -9088    -9022    -8957    -8913    -8882    -8849    -8862 
   -8894    -8901    -8910    -8937    -8977    -9020    -9048    -9055 
   -9075    -9125    -9172    -9208    -9243    -9285    -9349    -9402 
   -9401    -9373    -9355    -9338    -9297    -9227    -9140    -9028 
   -8905    -8781    -8619    -8444    -8286    -8097    -7884    -7682 
   -7457    -7197    -6947    -6705    -6460    -6217    -5959    -5691 
   -5433    -5209    -5021    -4819    -4616    -4450    -4294    -4138 
   -3981    -3836    -3729    -3638    -3545    -3454    -3380    -3322 
   -3262    -3222    -3201    -3190    -3207    -3216    -3217    -3251 
   -3309    -3371    -3408    -3433    -3502    -3585    -3656    -3740 
   -3849    -3978    -4094    -4192    -4324    -4500    -4661    -4814 
   -4982    -5146    -5354    -5584    -5726    -5839    -5982    -6105 
   -6231    -6349    -6414    -6462    -6505    -6519    -6504    -6479 
   -6459    -6430    -6368    -6288    -6241    -6224    -6207    -6197 
   -6188    -6187    -6200    -6194    -6188    -6211    -6251    -6319 
   -6399    -6472    -6571    -6694    -6812    -6936    -7077    -7231 
   -7373    -7480    -7560    -7633    -7707    -7765    -7796    -7818 
   -7834    -7820    -7766    -7693    -7619    -7528    -7398    -7238 
   -7070    -6917    -6781    -6637    -6515    -6433    -6324    -6193 
   -6102    -6022    -5947    -5920    -5915    -5901    -5905    -5946 
   -5988    -6005    -6028    -6054    -6046    -6018    -5964    -5859 
   -5752    -5679    -5574    -5422    -5283    -5135    -4956    -4783 
   -4621    -4458    -4309    -4174    -4018    -3839    -3680    -3539 
   -3397    -3281    -3177    -3073    -2988    -2892    -2792    -2728 
   -2675    -2620    -2592    -2581    -2569    -2591    -2671    -2744 
   -2794    -2894    -3009    -3118    -3262    -3413    -3583    -3762 
   -3900    -4054    -4246    -4441    -4631    -4814    -5019    -5248 
   -5467    -5680    -5911    -6168    -6442    -6702    -6937    -7172 
   -7405    -7615    -7829    -8056    -8261    -8436    -8592    -8736 
   -8875    -9017    -9162    -9285    -9376    -9460    -9536    -9585 
   -9614    -9635    -9661    -9691    -9703    -9696    -9687    -9685 
   -9679    -9651    -9640    -9657    -9639    -9601    -9584    -9554 
   -9524    -9530    -9522    -9500    -9502    -9507    -9505    -9474 
   -9383    -9323    -9329    -9301    -9247    -9228    -9208    -9174 
   -9148    -9141    -9156    -9175    -9185    -9201    -9228    -9266 
   -9316    -9369    -9436    -9530    -9627    -9704    -9772    -9846 
   -9934   -10048   -10164   -10258   -10355   -10476   -10601   -10705 
  -10811   -10932   -11054   -11173   -11271   -11321   -11343   -11360 
  -11362   -11347   -11313   -11286   -11261   -11201   -11137   -11083 
  -11008   -10934   -10852   -10741   -10647   -10562   -10444   -10301 
  -10140    -9984    -9860    -9722    -9572    -9460    -9343    -9216 
   -9116    -8981    -8833    -8741    -8642    -8516    -8416    -8317 
   -8193    -8072    -7977    -7890    -7792    -7708    -7637    -7579 
   -7560    -7556    -7555    -7573    -7611    -7669    -7748    -7828 
   -7901    -7977    -8048    -8109    -8176    -8254    -8335    -8415 
   -8494    -8556    -8577    -8573    -8567    -8538    -8500    -8459 
   -8387    -8297    -8197    -8084    -7968    -7857    -7764    -7672 
   -7596    -7552    -7488    -7418    -7397    -7409    -7412    -7381 
   -7383    -7465    -7518    -7538    -7584    -7584    -7585    -7647 
   -7671    -7684    -7746    -7794    -7836    -7893    -7921    -7940 
   -7974    -7992    -8002    -8041    -8090    -8133    -8184    -8236 
   -8284    -8346    -8419    -8480    -8554    -8670    -8786    -8871 
   -8953    -9057    -9156    -9220    -9284    -9365    -9455    -9541 
   -9602    -9662    -9734    -9792    -9853    -9928   -10008   -10084 
  -10137   -10169   -10177   -10170   -10188   -10230   -10272   -10295 
  -10302   -10328   -10363   -10379   -10368   -10338   -10373   -10470 
  -10480   -10404   -10387   -10411   -10396   -10348   -10301   -10260 
  -10183   -10081   -10004    -9931    -9826    -9680    -9496    -9293 
   -9101    -8909    -8685    -8436    -8191    -7962    -7730    -7478 
   -7223    -6977    -6730    -6478    -6236    -6028    -5848    -5662 
   -5459    -5272    -5129    -5006    -4875    -4739    -4632    -4585 
   -4570    -4534    -4483    -4445    -4421    -4400    -4372    -4333 
   -4274    -4211    -4186    -4182    -4143    -4083    -4036    -3973 
   -3874    -3791    -3733    -3663    -3590    -3504    -3408    -3328 
   -3221    -3099    -3017    -2947    -2861    -2768    -2682    -2624 
   -2580    -2527    -2485    -2468    -2483    -2522    -2556    -2599 
   -2665    -2733    -2812    -2891    -2966    -3054    -3156    -3275 
   -3388    -3513    -3679    -3844    -3991    -4147    -4324    -4528 
   -4746    -4955    -5152    -5358    -5560    -5744    -5937    -6132 
   -6324    -6508    -6667    -6829    -7001    -7149    -7275    -7389 
   -7506    -7633    -7755    -7879    -8001    -8082    -8140    -8246 
   -8349    -8391    -8453    -8524    -8541    -8546    -8554    -8549 
   -8539    -8522    -8487    -8440    -8389    -8318    -8220    -8127 
   -8049    -7958    -7843    -7716    -7592    -7462    -7290    -7081 
   -6881    -6699    -6500    -6291    -6095    -5901    -5725    -5552 
   -5356    -5181    -5039    -4921    -4832    -4745    -4664    -4604 
   -4562    -4576    -4653    -4763    -4899    -5040    -5190    -5383 
   -5617    -5866    -6120    -6366    -6606    -6823    -7007    -7210 
   -7430    -7628    -7824    -8006    -8157    -8289    -8411    -8537 
   -8658    -8769    -8867    -8928    -8984    -9040    -9074    -9122 
   -9174    -9212    -9268    -9321    -9345    -9345    -9334    -9332 
   -9342    -9369    -9377    -9334    -9282    -9234    -9183    -9112 
   -9010    -8892    -8753    -8599    -8447    -8283    -8118    -7945 
   -7751    -7553    -7356    -7167    -6983    -6815    -6652    -6492 
   -6402    -6298    -6132    -6075    -6094    -6065    -6063    -6108 
   -6156    -6224    -6311    -6407    -6539    -6697    -6823    -6921 
   -7012    -7109    -7229    -7335    -7415    -7488    -7557    -7626 
   -7669    -7690    -7735    -7794    -7822    -7823    -7836    -7857 
   -7877    -7931    -7994    -8040    -8128    -8256    -8371    -8493 
   -8647    -8821    -9037    -9288    -9527    -9779   -10060   -10303 
  -10519   -10743   -10940   -11131   -11327   -11483   -11637   -11802 
  -11911   -11994   -12080   -12131   -12162   -12169   -12132   -12099 
  -12071   -12008   -11902   -11760   -11621   -11509   -11385   -11226 
  -11039   -10839   -10632   -10406   -10150    -9878    -9626    -9378 
   -9090    -8785    -8487    -8172    -7840    -7517    -7206    -6905 
   -6616    -6324    -6023    -5768    -5564    -5364    -5160    -4952 
   -4780    -4661    -4513    -4356    -4245    -4135    -4042    -3983 
   -3907    -3832    -3783    -3751    -3755    -3789    -3822    -3837 
   -3836    -3850    -3883    -3914    -3957    -4005    -4036    -4089 
   -4160    -4182    -4172    -4197    -4240    -4252    -4257    -4259 
   -4247    -4263    -4281    -4267    -4255    -4228    -4169    -4116 
   -4079    -4057    -4035    -3992    -3932    -3876    -3856    -3876 
   -3904    -3931    -3957    -3995    -4045    -4096    -4175    -4297 
   -4448    -4608    -4786    -4996    -5211    -5440    -5701    -5978 
   -6278    -6573    -6845    -7114    -7387    -7675    -7954    -8201 
   -8440    -8660    -8857    -9030    -9157    -9263    -9367    -9437 
   -9480    -9511    -9488    -9418    -9349    -9255    -9127    -8999 
   -8848    -8644    -8395    -8123    -7863    -7594    -7287    -6959 
   -6628    -6322    -6019    -5702    -5400    -5115    -4859    -4629 
   -4396    -4180    -4004    -3854    -3723    -3624    -3559    -3517 
   -3488    -3455    -3445    -3468    -3493    -3512    -3515    -3502 
   -3502    -3506    -3485    -3449    -3436    -3425    -3379    -3338 
   -3302    -3264    -3254    -3234    -3172    -3110    -3078    -3045 
   -2999    -3001    -3047    -3103    -3183    -3245    -3298    -3405 
   -3530    -3660    -3820    -3967    -4109    -4269    -4435    -4620 
   -4845    -5093    -5348    -5596    -5843    -6124    -6416    -6703 
   -7023    -7379    -7745    -8103    -8458    -8847    -9280    -9728 
  -10183   -10633   -11071   -11527   -11993   -12433   -12864   -13308 
  -13732   -14116   -14483   -14835   -15154   -15453   -15737   -15982 
  -16205   -16422   -16599   -16725   -16823   -16925   -17022   -17085 
  -17125   -17152   -17150   -17146   -17159   -17149   -17128   -17125 
  -17089   -17027   -17007   -16999   -16982   -16978   -16952   -16907 
  -16868   -16813   -16753   -16716   -16685   -16636   -16570   -16495 
  -16432   -16393   -16363   -16337   -16317   -16298   -16284   -16285 
  -16298   -16324   -16375   -16433   -16484   -16551   -16637   -16733 
  -16829   -16916   -16995   -17078   -17167   -17245   -17318   -17412 
  -17518   -17608   -17658   -17691   -17734   -17758   -17756   -17742 
  -17716   -17694   -17673   -17641   -17596   -17554   -17576   -17615 
  -17554   -17502   -17542   -17545   -17530   -17569   -17593   -17600 
  -17623   -17626   -17603   -17584   -17576   -17567   -17535   -17489 
  -17444   -17378   -17281   -17178   -17086   -16994   -16903   -16803 
  -16682   -16573   -16482   -16391   -16304   -16227   -16174   -16140 
  -16096   -16056   -16029   -16028   -16045   -16050   -16049   -16053 
  -16065   -16091   -16105   -16115   -16156   -16202   -16225   -16239 
  -16246   -16249   -16262   -16267   -16237   -16200   -16154   -16068 
  -15966   -15859   -15740   -15607   -15407   -15156   -14937   -14732 
  -14493   -14225   -13930   -13627   -13350   -13060   -12727   -12394 
  -12085   -11775   -11450   -11124   -10810   -10482   -10134    -9791 
   -9455    -9140    -8855    -8572    -8276    -8006    -7774    -7513 
   -7238    -7018    -6823    -6626    -6443    -6265    -6091    -5923 
   -5770    -5625    -5505    -5424    -5320    -5194    -5103    -5018 
   -4936    -4877    -4814    -4713    -4590    -4522    -4496    -4425 
   -4343    -4283    -4181    -4059    -3952    -3818    -3661    -3495 
   -3284    -3056    -2854    -2651    -2418    -2169    -1926    -1702 
   -1487    -1261    -1027     -789     -574     -407     -237      -47 
     127      294      463      621      771      921     1075     1235 
    1395     1541     1672     1807     1951     2091     2213     2331 
    2476     2610     2693     2767     2849     2923     2973     2972 
    2945     2923     2875     2784     2663     2517     2376     2247 
    2101     1931     1743     1565     1409     1260     1126      984 
     830      695      551      417      316      202       72      -49 
    -153     -244     -336     -436     -537     -620     -677     -728 
    -782     -809     -809     -820     -842     -855     -846     -818 
    -791     -772     -742     -693     -632     -579     -534     -489 
    -460     -447     -452     -481     -508     -541     -609     -710 
    -830     -960    -1103    -1265    -1444    -1629    -1809    -2024 
   -2318    -2627    -2886    -3150    -3432    -3716    -4041    -4361 
   -4669    -5006    -5314    -5606    -5902    -6170    -6451    -6731 
   -6969    -7181    -7377    -7563    -7734    -7877    -8004    -8125 
   -8225    -8295    -8351    -8409    -8469    -8510    -8527    -8542 
   -8561    -8571    -8580    -8583    -8583    -8578    -8536    -8471 
   -8416    -8368    -8334    -8292    -8206    -8099    -8004    -7917 
   -7810    -7693    -7600    -7521    -7450    -7387    -7317    -7256 
   -7194    -7115    -7045    -6965    -6872    -6789    -6678    -6547 
   -6457    -6380    -6275    -6180    -6110    -6050    -5992    -5934 
   -5874    -5841    -5849    -5863    -5890    -5951    -6037    -6136 
   -6249    -6382    -6530    -6683    -6851    -7028    -7205    -7391 
   -7578    -7758    -7946    -8135    -8321    -8525    -8717    -8873 
   -9045    -9237    -9401    -9548    -9693    -9844    -9997   -10113 
  -10227   -10387   -10556   -10709   -10840   -10946   -11073   -11243 
  -11403   -11528   -11672   -11842   -11999   -12143   -12258   -12381 
  -12541   -12671   -12794   -12943   -13077   -13220   -13360   -13465 
  -13589   -13730   -13856   -13965   -14051   -14139   -14230   -14302 
  -14354   -14396   -14447   -14489   -14504   -14527   -14546   -14544 
  -14534   -14498   -14447   -14411   -14362   -14277   -14187   -14093 
  -13963   -13812   -13653   -13494   -13359   -13225   -13052   -12857 
  -12690   -12581   -12502   -12425   -12362   -12321   -12291   -12273 
  -12269   -12268   -12298   -12371   -12437   -12514   -12611   -12686 
  -12776   -12888   -12976   -13077   -13200   -13303   -13402   -13502 
  -13598   -13714   -13832   -13946   -14073   -14184   -14249   -14289 
  -14313   -14308   -14294   -14271   -14219   -14149   -14077   -13996 
  -13892   -13755   -13593   -13436   -13270   -13073   -12865   -12658 
  -12441   -12219   -11992   -11783   -11607   -11412   -11193   -10981 
  -10790   -10621   -10436   -10226   -10032    -9858    -9700    -9534 
   -9346    -9183    -9069    -8965    -8834    -8721    -8666    -8619 
   -8581    -8572    -8558    -8573    -8621    -8656    -8722    -8828 
   -8929    -9025    -9122    -9228    -9358    -9487    -9598    -9708 
   -9844   -10012   -10175   -10294   -10409   -10563   -10717   -10861 
  -11006   -11136   -11256   -11364   -11449   -11543   -11668   -11805 
  -11916   -12006   -12102   -12200   -12291   -12366   -12441   -12530 
  -12610   -12680   -12712   -12728   -12790   -12847   -12872   -12899 
  -12908   -12897   -12881   -12870   -12849   -12799   -12760   -12701 
  -12580   -12488   -12436   -12336   -12191   -12026   -11846   -11676 
  -11501   -11307   -11101   -10896   -10705   -10504   -10282   -10063 
   -9859    -9673    -9473    -9253    -9058    -8867    -8666    -8486 
   -8304    -8114    -7934    -7757    -7573    -7363    -7172    -7019 
   -6843    -6655    -6481    -6325    -6187    -6038    -5898    -5788 
   -5685    -5600    -5519    -5434    -5367    -5312    -5271    -5240 
   -5241    -5291    -5328    -5349    -5398    -5479    -5566    -5641 
   -5729    -5858    -6001    -6117    -6208    -6323    -6449    -6543 
   -6624    -6687    -6734    -6790    -6822    -6811    -6774    -6748 
   -6734    -6685    -6595    -6504    -6426    -6360    -6290    -6215 
   -6140    -6077    -6057    -6040    -6000    -5996    -6005    -5998 
   -6037    -6102    -6160    -6246    -6348    -6468    -6632    -6809 
   -6989    -7168    -7338    -7546    -7767    -7951    -8136    -8321 
   -8499    -8689    -8873    -9050    -9226    -9394    -9532    -9642 
   -9752    -9877    -9986   -10052   -10115   -10189   -10204   -10202 
  -10240   -10249   -10241   -10235   -10193   -10148   -10122   -10105 
  -10083   -10059   -10062   -10070   -10056   -10024    -9989    -9986 
  -10002   -10008   -10016   -10025   -10042   -10064   -10075   -10085 
  -10077   -10054   -10046   -10027    -9975    -9919    -9858    -9765 
   -9654    -9553    -9444    -9307    -9157    -9000    -8847    -8698 
   -8545    -8382    -8201    -8038    -7900    -7747    -7611    -7517 
   -7410    -7312    -7263    -7181    -7077    -7045    -7017    -6960 
   -6944    -6933    -6908    -6893    -6882    -6891    -6911    -6911 
   -6921    -6958    -6998    -7041    -7089    -7138    -7204    -7298 
   -7393    -7463    -7531    -7627    -7726    -7811    -7896    -7985 
   -8081    -8178    -8257    -8322    -8375    -8420    -8455    -8471 
   -8487    -8525    -8569    -8597    -8611    -8620    -8631    -8660 
   -8706    -8737    -8778    -8874    -8980    -9058    -9141    -9257 
   -9388    -9521    -9674    -9831    -9986   -10168   -10350   -10510 
  -10682   -10871   -11056   -11213   -11337   -11465   -11590   -11691 
  -11777   -11858   -11928   -11979   -12006   -12015   -12023   -12046 
  -12060   -12047   -12037   -12025   -11985   -11920   -11830   -11740 
  -11659   -11530   -11355   -11185   -11013   -10839   -10646   -10399 
  -10140    -9902    -9662    -9414    -9163    -8906    -8655    -8415 
   -8171    -7935    -7723    -7514    -7306    -7139    -7001    -6843 
   -6694    -6585    -6477    -6391    -6338    -6274    -6227    -6207 
