Origin Time       2011/03/11 14:46:00
Lat.              38.103
Long.             142.860
Depth. (km)       24
Mag.              9.0
Station Code      OSK001
Station Lat.      34.9707
Station Long.     135.3900
Station Height(m) 224
Record Time       2011/03/11 14:50:50
Sampling Freq(Hz) 100Hz
Duration Time(s)  60
Dir.              U-D
Scale Factor      3920(gal)/6182761
Max. Acc. (gal)   1.603
Last Correction   2011/03/11 14:50:35
Memo.             
[...]
   16757    16533    16394    16347    16394    16537    16714    16838 
   16876    16819    16666    16475    16335    16297    16371    16540 
   16725    16837    16830    16666    16377    16091    15913    15890 
   16054    16352    16663    16879    16919    16746    16398    15978 
   15631    15454    15451    15612    15894    16172    16318    16299 
   16157    15963    15793    15703    15723    15845    16009    16141 
   16186    16131    15994    15836    15742    15737    15798    15915 
   16066    16186    16220    16164    16024    15821    15604    15426 
   15324    15322    15421    15595    15798    15982    16120    16193 
   16206    16201    16197    16174    16122    16052    15991    15964 
   15960    15950    15924    15896    15875    15875    15922    16013 
   16113    16195    16276    16374    16477    16579    16665    16699 
   16692    16683    16682    16700    16761    16859    16946    16955 
   16855    16677    16467    16269    16107    16010    16003    16080 
   16195    16311    16398    16402    16323    16246    16216    16212 
   16245    16321    16384    16383    16319    16228    16175    16201 
   16288    16388    16482    16576    16662    16715    16730    16736 
   16765    16813    16867    16922    16955    16944    16908    16872 
   16839    16820    16811    16784    16762    16754    16714    16632 
   16550    16491    16461    16481    16548    16620    16654    16661 
   16685    16727    16726    16655    16554    16480    16455    16468 
   16492    16499    16472    16423    16372    16326    16293    16286 
   16303    16334    16378    16438    16500    16537    16547    16534 
   16501    16469    16460    16478    16532    16613    16666    16650 
   16587    16521    16474    16436    16410    16407    16431    16486 
   16571    16647    16676    16655    16613    16575    16550    16552 
   16593    16656    16713    16739    16731    16712    16682    16645 
   16627    16633    16636    16637    16671    16752    16862    16965 
   17017    17011    16976    16943    16941    16987    17078    17172 
   17200    17127    17002    16900    16836    16796    16791    16808 
   16803    16773    16736    16682    16617    16555    16458    16328 
   16261    16301    16371    16438    16536    16606    16562    16463 
   16401    16362    16330    16351    16439    16552    16643    16706 
   16778    16846    16842    16786    16746    16720    16686    16649 
   16595    16527    16481    16448    16431    16468    16540    16606 
   16675    16743    16764    16725    16635    16518    16423    16381 
   16378    16376    16363    16357    16361    16370    16401    16461 
   16550    16668    16793    16906    17005    17062    17088    17133 
   17189    17235    17288    17363    17436    17457    17437    17414 
   17385    17347    17315    17309    17356    17457    17589    17722 
   17807    17823    17788    17721    17648    17584    17541    17534 
   17540    17524    17493    17459    17417    17384    17373    17374 
   17377    17394    17444    17524    17616    17686    17703    17688 
   17681    17658    17590    17492    17386    17276    17182    17147 
   17199    17339    17528    17693    17801    17847    17794    17675 
   17566    17472    17375    17291    17278    17349    17422    17472 
   17523    17551    17542    17501    17456    17456    17489    17493 
   17463    17409    17310    17193    17093    17023    17019    17081 
   17132    17131    17135    17155    17139    17127    17158    17172 
   17124    17060    17042    17039    17022    17031    17037    17004 
   16984    16988    16980    16952    16914    16871    16833    16807 
   16793    16781    16754    16688    16602    16533    16475    16420 
   16382    16355    16315    16268    16250    16250    16239    16216 
   16209    16246    16280    16290    16317    16340    16342    16336 
   16333    16340    16347    16338    16328    16334    16347    16368 
   16404    16433    16443    16444    16437    16430    16460    16545 
   16655    16751    16808    16812    16761    16684    16623    16594 
   16605    16655    16722    16790    16850    16873    16846    16809 
   16808    16852    16923    17005    17089    17157    17183    17165 
   17123    17074    17034    17013    17001    16987    16965    16923 
   16871    16840    16841    16871    16937    17048    17174    17261 
   17286    17252    17170    17068    16982    16929    16939    17019 
   17098    17147    17186    17188    17143    17061    16966    16922 
   16920    16907    16922    16964    16948    16903    16884    16860 
   16853    16905    16976    17010    17021    17065    17127    17147 
   17160    17203    17242    17248    17231    17214    17202    17160 
   17106    17089    17079    17053    17035    17037    17052    17059 
   17059    17082    17096    17079    17071    17092    17120    17136 
   17132    17126    17135    17157    17190    17224    17239    17228 
   17181    17109    17064    17050    17024    16978    16947    16959 
   16996    17036    17064    17068    17060    17013    16928    16859 
   16814    16768    16726    16707    16703    16709    16727    16742 
   16757    16778    16803    16832    16842    16851    16867    16840 
   16807    16839    16873    16826    16736    16708    16690    16570 
   16471    16478    16442    16335    16292    16353    16429    16471 
   16508    16558    16609    16636    16630    16638    16670    16666 
   16621    16588    16576    16577    16624    16720    16819    16924 
   17047    17140    17180    17216    17258    17274    17274    17278 
   17282    17283    17283    17299    17314    17301    17300    17310 
   17280    17234    17195    17126    17026    16924    16826    16739 
   16663    16570    16456    16342    16224    16099    16006    15948 
   15894    15859    15868    15900    15930    15957    15973    15956 
   15916    15874    15841    15829    15848    15898    15978    16073 
   16146    16193    16235    16275    16309    16338    16369    16407 
   16448    16491    16512    16504    16483    16441    16355    16257 
   16193    16152    16116    16109    16127    16134    16127    16113 
   16083    16043    16001    15948    15904    15898    15925    15953 
   15961    15960    15949    15910    15853    15798    15766    15760 
   15766    15791    15856    15945    16010    16034    16038    16041 
   16050    16073    16116    16168    16216    16258    16291    16314 
   16316    16293    16256    16223    16211    16212    16220    16243 
   16265    16263    16241    16226    16220    16198    16161    16145 
   16158    16173    16162    16123    16090    16067    16034    16017 
   16029    16064    16128    16197    16223    16216    16218    16220 
   16212    16211    16235    16288    16347    16384    16401    16425 
   16461    16486    16512    16544    16560    16560    16554    16539 
   16500    16442    16383    16330    16280    16230    16183    16150 
   16118    16073    16026    15998    15981    15963    15955    15969 
   15988    15992    15987    15978    15980    16011    16051    16085 
   16141    16217    16264    16278    16294    16312    16327    16339 
   16351    16380    16428    16473    16498    16515    16523    16515 
   16502    16477    16436    16386    16335    16290    16245    16193 
   16148    16108    16056    16000    15956    15918    15886    15859 
   15832    15817    15833    15874    15911    15956    16035    16125 
   16192    16236    16281    16334    16366    16381    16395    16411 
   16424    16419    16400    16398    16413    16420    16420    16423 
   16422    16419    16412    16400    16385    16386    16415    16450 
   16479    16518    16565    16584    16576    16587    16600    16586 
   16573    16573    16542    16463    16395    16377    16377    16382 
   16410    16453    16489    16510    16516    16524    16548    16570 
   16589    16637    16705    16756    16798    16847    16864    16863 
   16903    16964    16998    17027    17103    17198    17242    17248 
   17250    17238    17197    17154    17140    17149    17145    17117 
   17097    17080    17029    16955    16887    16834    16790    16757 
   16729    16692    16645    16588    16520    16452    16393    16340 
   16279    16204    16117    16027    15928    15818    15716    15634 
   15582    15573    15600    15649    15718    15802    15874    15928 
   15982    16037    16084    16113    16114    16098    16079    16057 
   16022    15986    15963    15958    15968    15991    16028    16081 
   16161    16253    16325    16382    16427    16459    16479    16482 
   16478    16478    16478    16468    16450    16432    16412    16370 
   16303    16226    16149    16083    16024    15969    15929    15903 
   15881    15864    15852    15856    15867    15896    15956    16029 
   16094    16141    16164    16164    16152    16149    16159    16168 
   16176    16179    16145    16085    16057    16049    16014    15959 
   15936    15959    15979    15987    16009    16042    16071    16080 
   16084    16115    16162    16196    16218    16253    16288    16294 
   16276    16260    16243    16208    16163    16120    16080    16048 
   16021    16000    15984    15969    15947    15913    15880    15864 
   15854    15823    15784    15738    15675    15617    15562    15506 
   15475    15472    15485    15510    15541    15567    15595    15630 
   15663    15696    15737    15808    15909    16011    16107    16189 
   16240    16262    16258    16225    16180    16164    16181    16201 
   16218    16251    16280    16267    16245    16253    16284    16310 
   16321    16338    16374    16406    16418    16438    16473    16495 
   16494    16492    16499    16493    16469    16434    16394    16362 
   16333    16308    16312    16358    16429    16492    16535    16567 
   16595    16616    16628    16666    16741    16802    16837    16891 
   16947    16967    16981    17022    17082    17141    17202    17290 
   17397    17505    17592    17649    17692    17717    17715    17700 
   17695    17696    17693    17698    17708    17700    17673    17637 
   17602    17558    17522    17523    17512    17458    17431    17462 
   17486    17465    17459    17503    17542    17568    17623    17704 
   17773    17823    17860    17873    17864    17833    17780    17729 
   17705    17708    17743    17808    17880    17944    17995    18031 
   18062    18095    18112    18116    18153    18191    18158    18129 
   18147    18127    18053    17961    17879    17804    17717    17634 
   17555    17489    17438    17383    17331    17300    17280    17249 
   17207    17169    17141    17128    17128    17138    17135    17113 
   17086    17038    16953    16866    16795    16709    16621    16569 
   16563    16577    16578    16573    16576    16581    16579    16564 
   16547    16543    16539    16508    16462    16457    16468    16445 
   16447    16499    16512    16470    16442    16461    16496    16521 
   16548    16562    16546    16521    16492    16474    16478    16483 
   16487    16503    16524    16542    16561    16571    16555    16515 
   16467    16430    16412    16411    16423    16438    16464    16494 
   16514    16532    16560    16604    16663    16729    16801    16873 
   16934    16974    16993    16995    16993    17002    17012    17014 
   17003    16981    16953    16918    16883    16861    16865    16894 
   16934    16979    17018    17043    17050    17034    17001    16961 
   16931    16913    16901    16893    16896    16908    16911    16918 
   16950    16991    17027    17064    17094    17102    17100    17081 
   17032    16972    16920    16871    16811    16742    16686    16638 
   16586    16530    16479    16451    16452    16449    16421    16393 
   16364    16324    16272    16214    16173    16144    16111    16101 
   16106    16100    16091    16087    16083    16093    16121    16157 
   16198    16226    16238    16236    16223    16206    16185    16169 
   16167    16168    16163    16148    16127    16095    16053    16006 
   15958    15917    15875    15825    15768    15711    15665    15615 
   15540    15449    15365    15297    15241    15193    15155    15133 
   15122    15115    15124    15147    15159    15172    15202    15201 
   15148    15109    15078    15018    14984    15007    15032    15039 
   15076    15140    15183    15215    15263    15325    15384    15430 
   15472    15520    15554    15565    15580    15603    15611    15611 
   15629    15660    15689    15719    15763    15811    15866    15938 
   16022    16114    16215    16312    16390    16455    16516    16564 
   16586    16584    16573    16559    16555    16561    16571    16593 
   16612    16611    16596    16581    16571    16541    16470    16402 
   16367    16318    16259    16227    16203    16169    16119    16059 
   16040    16057    16070    16086    16123    16188    16267    16333 
   16388    16440    16482    16513    16541    16576    16631    16699 
   16766    16833    16909    16993    17065    17128    17194    17262 
   17332    17406    17491    17585    17667    17730    17787    17841 
   17883    17920    17963    18013    18063    18104    18145    18197 
   18251    18295    18326    18360    18409    18466    18519    18559 
   18601    18647    18680    18694    18705    18732    18766    18794 
   18826    18866    18890    18899    18910    18907    18887    18864 
   18829    18773    18711    18667    18628    18588    18555    18523 
   18491    18459    18435    18436    18453    18466    18471    18470 
   18454    18424    18379    18319    18253    18175    18088    18015 
   17959    17919    17892    17869    17836    17793    17760    17741 
   17726    17706    17673    17622    17563    17506    17445    17382 
   17321    17253    17173    17096    17040    16989    16939    16889 
   16824    16760    16721    16700    16683    16687    16723    16764 
   16801    16838    16867    16875    16868    16857    16852    16861 
   16866    16858    16860    16859    16831    16787    16743    16698 
   16659    16643    16646    16646    16636    16618    16601    16585 
   16561    16533    16519    16521    16510    16471    16410    16339 
   16268    16197    16129    16071    16032    16027    16042    16058 
   16081    16109    16110    16092    16083    16088    16107    16127 
   16141    16169    16204    16214    16195    16166    16127    16066 
   15998    15941    15900    15862    15817    15761    15694    15621 
   15560    15517    15483    15466    15471    15478    15476    15461 
   15430    15393    15365    15337    15315    15316    15328    15341 
   15369    15392    15404    15428    15483    15570    15688    15825 
   15969    16106    16225    16339    16461    16569    16641    16699 
   16769    16840    16904    16968    17027    17094    17163    17217 
   17269    17315    17349    17386    17423    17462    17498    17516 
   17517    17518    17511    17498    17482    17451    17408    17378 
   17363    17349    17343    17343    17326    17301    17285    17280 
   17288    17299    17312    17342    17392    17450    17518    17597 
   17658    17683    17695    17712    17730    17738    17728    17704 
   17673    17630    17572    17512    17462    17432    17413    17392 
   17384    17393    17392    17369    17352    17347    17329    17294 
   17251    17215    17182    17134    17070    17002    16945    16894 
   16848    16819    16815    16811    16788    16760    16745    16745 
   16773    16834    16918    17013    17113    17196    17255    17302 
   17317    17289    17263    17255    17230    17204    17208    17199 
   17145    17090    17059    17017    16955    16909    16877    16837 
   16805    16770    16724    16676    16617    16544    16463    16388 
   16326    16271    16223    16171    16105    16046    16016    16003 
   15999    16020    16059    16090    16090    16063    16035    16014 
   15996    15980    15980    16003    16027    16025    16007    15999 
   15993    15977    15968    15972    15985    15996    15990    15973 
   15967    15962    15939    15912    15895    15890    15888    15881 
   15883    15895    15904    15919    15952    15985    15997    15989 
   15964    15920    15866    15835    15845    15877    15910    15938 
   15954    15976    16020    16072    16126    16183    16239    16283 
   16323    16374    16426    16462    16500    16530    16522    16519 
   16560    16593    16606    16646    16700    16721    16725    16736 
   16740    16741    16745    16744    16746    16760    16769    16771 
   16786    16805    16807    16796    16784    16779    16773    16772 
   16791    16813    16827    16837    16841    16821    16782    16742 
   16699    16638    16569    16511    16455    16393    16342    16307 
   16284    16265    16252    16235    16200    16167    16142    16101 
   16038    15972    15908    15847    15794    15739    15683    15640 
   15595    15546    15525    15528    15532    15538    15547    15564 
   15602    15636    15637    15634    15648    15658    15649    15647 
   15677    15714    15726    15715    15712    15726    15741    15762 
   15806    15876    15951    16014    16055    16077    16098    16131 
   16172    16207    16225    16227    16227    16227    16212    16200 
   16210    16228    16249    16272    16285    16292    16302    16312 
   16326    16355    16406    16474    16539    16582    16617    16647 
   16657    16652    16650    16652    16650    16638    16618    16603 
   16600    16591    16561    16520    16480    16442    16406    16381 
   16390    16438    16494    16527    16549    16565    16544    16504 
   16490    16474    16427    16386    16355    16314    16287    16281 
   16274    16259    16251    16253    16248    16246    16260    16273 
   16260    16236    16219    16193    16149    16116    16107    16105 
   16091    16072    16060    16056    16055    16070    16096    16111 
   16120    16128    16135    16144    16154    16149    16124    16109 
   16124    16157    16190    16211    16223    16225    16204    16161 
   16117    16087    16068    16063    16081    16113    16142    16150 
   16153    16162    16159    16145    16146    16159    16167    16182 
   16210    16230    16233    16227    16225    16224    16219    16207 
   16191    16178    16176    16187    16202    16221    16253    16295 
   16331    16361    16394    16425    16448    16465    16471    16480 
   16495    16498    16509    16545    16577    16596    16609    16615 
   16625    16636    16636    16632    16632    16641    16658    16669 
   16681    16706    16741    16773    16790    16797    16802    16801 
   16794    16798    16816    16836    16853    16867    16870    16857 
   16821    16772    16725    16691    16673    16674    16696    16731 
   16775    16830    16886    16921    16944    16973    16998    17000 
   16983    16953    16913    16873    16839    16809    16804    16836 
   16877    16908    16936    16954    16955    16945    16925    16906 
   16910    16937    16966    16993    17025    17054    17058    17034 
   17007    16994    16985    16986    17013    17060    17118    17178 
