Origin Time       2011/03/11 14:46:00
Lat.              38.103
Long.             142.860
Depth. (km)       24
Mag.              9.0
Station Code      OSK003
Station Lat.      34.7668
Station Long.     135.4684
Station Height(m) 4
Record Time       2011/03/11 14:50:04
Sampling Freq(Hz) 100Hz
Duration Time(s)  206
Dir.              N-S
Scale Factor      3920(gal)/6182761
Max. Acc. (gal)   8.173
Last Correction   2011/03/11 14:49:49
Memo.             
[...]
  -55419   -55573   -55708   -55814   -55931   -56078   -56175   -56280 
  -56450   -56570   -56698   -56869   -57005   -57182   -57372   -57530 
  -57722   -57905   -58071   -58241   -58430   -58630   -58781   -58963 
  -59187   -59338   -59449   -59602   -59796   -59938   -60038   -60196 
  -60324   -60405   -60509   -60605   -60718   -60812   -60892   -61066 
  -61254   -61380   -61528   -61735   -61924   -62071   -62242   -62424 
  -62604   -62779   -62910   -63063   -63247   -63374   -63464   -63585 
  -63711   -63769   -63817   -63928   -64024   -64055   -64071   -64118 
  -64186   -64271   -64403   -64527   -64638   -64798   -64959   -65107 
  -65286   -65493   -65696   -65883   -66054   -66183   -66302   -66462 
  -66612   -66736   -66880   -67034   -67180   -67326   -67451   -67547 
  -67642   -67709   -67733   -67771   -67821   -67864   -67898   -67897 
  -67871   -67796   -67664   -67553   -67416   -67199   -67035   -66917 
  -66687   -66396   -66141   -65839   -65474   -65111   -64744   -64354 
  -63941   -63539   -63154   -62716   -62253   -61823   -61414   -61042 
  -60718   -60411   -60102   -59799   -59533   -59268   -58957   -58650 
  -58386   -58146   -57882   -57583   -57331   -57103   -56833   -56600 
  -56400   -56162   -55932   -55733   -55557   -55389   -55206   -55062 
  -54956   -54779   -54561   -54433   -54343   -54202   -54099   -54054 
  -53963   -53865   -53809   -53741   -53660   -53589   -53545   -53541 
  -53545   -53553   -53603   -53686   -53766   -53860   -53990   -54131 
  -54296   -54513   -54758   -54991   -55202   -55415   -55639   -55859 
  -56064   -56269   -56503   -56744   -56960   -57192   -57441   -57670 
  -57886   -58105   -58316   -58508   -58718   -58942   -59139   -59336 
  -59548   -59775   -59992   -60156   -60321   -60509   -60682   -60829 
  -60957   -61082   -61189   -61265   -61334   -61375   -61387   -61385 
  -61380   -61391   -61392   -61373   -61341   -61311   -61261   -61172 
  -61099   -61032   -60941   -60857   -60758   -60625   -60490   -60380 
  -60270   -60119   -59927   -59710   -59504   -59294   -59058   -58841 
  -58647   -58438   -58196   -57974   -57796   -57596   -57423   -57314 
  -57169   -56990   -56851   -56756   -56644   -56511   -56413   -56310 
  -56197   -56116   -56024   -55894   -55762   -55664   -55573   -55461 
  -55358   -55290   -55274   -55271   -55268   -55290   -55303   -55342 
  -55423   -55511   -55634   -55784   -55955   -56143   -56346   -56561 
  -56778   -57039   -57314   -57555   -57775   -57973   -58196   -58401 
  -58563   -58752   -58898   -59001   -59101   -59150   -59161   -59151 
  -59148   -59141   -59097   -59038   -58968   -58910   -58841   -58750 
  -58689   -58615   -58544   -58485   -58404   -58348   -58323   -58326 
  -58355   -58361   -58348   -58330   -58347   -58381   -58367   -58367 
  -58403   -58425   -58473   -58564   -58620   -58631   -58668   -58700 
  -58725   -58776   -58818   -58900   -59006   -59068   -59132   -59186 
  -59240   -59313   -59384   -59476   -59570   -59655   -59751   -59846 
  -59922   -59961   -60006   -60057   -60055   -60040   -60062   -60096 
  -60084   -60031   -59974   -59876   -59741   -59600   -59465   -59343 
  -59203   -59046   -58890   -58728   -58547   -58320   -58102   -57950 
  -57802   -57634   -57498   -57377   -57223   -57056   -56878   -56679 
  -56505   -56350   -56206   -56096   -55969   -55839   -55731   -55607 
  -55500   -55453   -55448   -55465   -55505   -55563   -55616   -55672 
  -55740   -55821   -55913   -55975   -56018   -56067   -56112   -56148 
  -56186   -56229   -56286   -56376   -56465   -56536   -56655   -56785 
  -56896   -57045   -57207   -57373   -57555   -57695   -57814   -57953 
  -58090   -58214   -58342   -58466   -58573   -58703   -58890   -59093 
  -59265   -59404   -59558   -59728   -59879   -60011   -60148   -60300 
  -60406   -60464   -60526   -60582   -60630   -60687   -60735   -60767 
  -60800   -60861   -60922   -60971   -61034   -61089   -61149   -61213 
  -61232   -61231   -61256   -61278   -61244   -61180   -61151   -61127 
  -61073   -61030   -61001   -60947   -60879   -60853   -60869   -60856 
  -60800   -60782   -60797   -60771   -60736   -60717   -60687   -60652 
  -60618   -60580   -60539   -60515   -60489   -60431   -60414   -60412 
  -60378   -60378   -60389   -60380   -60373   -60375   -60429   -60514 
  -60598   -60690   -60791   -60916   -61046   -61212   -61409   -61577 
  -61778   -62027   -62263   -62472   -62629   -62774   -62939   -63068 
  -63119   -63131   -63177   -63194   -63150   -63131   -63113   -63079 
  -63049   -62988   -62908   -62835   -62761   -62669   -62602   -62549 
  -62441   -62363   -62316   -62213   -62112   -62034   -61967   -61907 
  -61845   -61801   -61767   -61769   -61760   -61702   -61678   -61638 
  -61557   -61497   -61431   -61331   -61211   -61096   -60953   -60816 
  -60730   -60616   -60534   -60495   -60379   -60270   -60210   -60152 
  -60075   -59953   -59850   -59766   -59667   -59586   -59521   -59454 
  -59352   -59256   -59220   -59128   -58998   -58942   -58895   -58810 
  -58733   -58667   -58613   -58586   -58534   -58456   -58432   -58427 
  -58408   -58417   -58424   -58441   -58488   -58517   -58513   -58489 
  -58476   -58479   -58485   -58482   -58436   -58403   -58375   -58263 
  -58141   -58032   -57868   -57702   -57563   -57386   -57173   -56979 
  -56787   -56582   -56390   -56143   -55861   -55621   -55340   -55022 
  -54750   -54503   -54228   -53912   -53598   -53287   -52951   -52623 
  -52332   -52090   -51856   -51603   -51394   -51215   -51041   -50900 
  -50799   -50713   -50626   -50574   -50559   -50561   -50606   -50671 
  -50763   -50883   -50983   -51105   -51276   -51468   -51683   -51897 
  -52129   -52387   -52634   -52875   -53099   -53314   -53550   -53795 
  -54040   -54282   -54510   -54725   -54962   -55200   -55383   -55576 
  -55787   -55975   -56180   -56368   -56532   -56693   -56823   -56954 
  -57060   -57131   -57224   -57302   -57340   -57359   -57370   -57381 
  -57371   -57313   -57204   -57055   -56876   -56679   -56464   -56236 
  -56027   -55784   -55512   -55304   -55080   -54833   -54659   -54514 
  -54373   -54241   -54135   -54072   -53995   -53944   -53919   -53852 
  -53779   -53716   -53666   -53610   -53519   -53454   -53431   -53401 
  -53361   -53359   -53404   -53445   -53490   -53566   -53653   -53767 
  -53926   -54115   -54315   -54512   -54717   -54948   -55178   -55378 
  -55597   -55852   -56082   -56260   -56408   -56569   -56740   -56877 
  -56994   -57095   -57135   -57128   -57135   -57143   -57080   -56985 
  -56946   -56930   -56912   -56909   -56920   -56942   -56978   -57063 
  -57175   -57270   -57377   -57502   -57648   -57803   -57975   -58185 
  -58371   -58520   -58697   -58880   -59044   -59219   -59414   -59623 
  -59861   -60090   -60283   -60501   -60709   -60869   -61041   -61226 
  -61389   -61527   -61685   -61871   -62019   -62154   -62311   -62457 
  -62595   -62736   -62913   -63090   -63220   -63367   -63550   -63726 
  -63858   -63966   -64101   -64226   -64311   -64374   -64450   -64563 
  -64672   -64767   -64877   -64997   -65115   -65235   -65378   -65524 
  -65660   -65800   -65973   -66200   -66407   -66581   -66781   -66989 
  -67177   -67338   -67526   -67754   -67961   -68161   -68352   -68545 
  -68760   -68950   -69162   -69408   -69618   -69799   -69999   -70234 
  -70443   -70602   -70765   -70940   -71109   -71222   -71301   -71425 
  -71548   -71619   -71657   -71704   -71771   -71809   -71834   -71856 
  -71839   -71786   -71713   -71642   -71555   -71420   -71276   -71135 
  -70961   -70733   -70462   -70167   -69868   -69563   -69211   -68844 
  -68495   -68144   -67802   -67462   -67122   -66770   -66417   -66085 
  -65694   -65275   -64902   -64525   -64138   -63731   -63313   -62911 
  -62484   -62046   -61610   -61200   -60814   -60433   -60119   -59817 
  -59493   -59224   -58974   -58740   -58524   -58319   -58140   -57948 
  -57779   -57618   -57462   -57337   -57165   -56990   -56836   -56654 
  -56486   -56314   -56170   -56055   -55918   -55803   -55717   -55627 
  -55483   -55350   -55311   -55209   -55074   -54999   -54894   -54790 
  -54711   -54646   -54576   -54471   -54372   -54265   -54179   -54079 
  -53901   -53779   -53679   -53493   -53326   -53220   -53072   -52875 
  -52755   -52635   -52432   -52302   -52231   -52151   -52062   -51943 
  -51857   -51763   -51612   -51495   -51426   -51337   -51226   -51150 
  -51065   -50953   -50878   -50821   -50791   -50779   -50788   -50863 
  -50942   -51050   -51219   -51394   -51576   -51777   -52027   -52272 
  -52483   -52745   -53027   -53290   -53565   -53859   -54158   -54426 
  -54701   -55015   -55343   -55669   -55986   -56347   -56751   -57142 
  -57574   -58087   -58595   -59071   -59602   -60194   -60776   -61383 
  -62030   -62668   -63307   -63954   -64599   -65257   -65896   -66489 
  -67071   -67651   -68190   -68685   -69175   -69640   -70044   -70409 
  -70744   -71030   -71248   -71407   -71538   -71624   -71639   -71604 
  -71550   -71441   -71227   -70948   -70633   -70264   -69844   -69391 
  -68919   -68430   -67915   -67377   -66850   -66332   -65810   -65311 
  -64854   -64447   -64073   -63696   -63378   -63131   -62851   -62589 
  -62410   -62221   -62034   -61906   -61797   -61712   -61651   -61583 
  -61528   -61501   -61495   -61520   -61558   -61562   -61554   -61593 
  -61626   -61603   -61570   -61543   -61501   -61423   -61322   -61208 
  -61066   -60903   -60716   -60517   -60301   -60025   -59758   -59535 
  -59282   -59003   -58725   -58440   -58133   -57818   -57520   -57229 
  -56957   -56687   -56412   -56163   -55900   -55633   -55397   -55157 
  -54908   -54664   -54467   -54301   -54108   -53938   -53823   -53743 
  -53678   -53639   -53672   -53698   -53693   -53751   -53833   -53901 
  -53983   -54076   -54155   -54186   -54196   -54178   -54146   -54150 
  -54086   -53962   -53897   -53817   -53695   -53631   -53590   -53499 
  -53432   -53429   -53404   -53356   -53344   -53360   -53391   -53415 
  -53435   -53466   -53498   -53568   -53691   -53828   -53975   -54150 
  -54356   -54576   -54797   -55026   -55270   -55535   -55833   -56156 
  -56477   -56792   -57142   -57502   -57836   -58162   -58490   -58848 
  -59202   -59514   -59839   -60152   -60442   -60740   -61028   -61302 
  -61548   -61776   -61999   -62195   -62361   -62508   -62652   -62761 
  -62862   -63003   -63107   -63169   -63233   -63285   -63295   -63297 
  -63368   -63447   -63493   -63569   -63649   -63705   -63758   -63826 
  -63906   -63962   -64010   -64071   -64122   -64158   -64200   -64271 
  -64353   -64423   -64482   -64541   -64632   -64753   -64825   -64864 
  -64962   -65078   -65155   -65234   -65303   -65322   -65327   -65358 
  -65381   -65362   -65334   -65308   -65265   -65194   -65105   -65050 
  -65004   -64907   -64819   -64756   -64682   -64596   -64489   -64368 
  -64259   -64151   -64040   -63924   -63792   -63669   -63572   -63481 
  -63390   -63297   -63217   -63165   -63102   -63025   -62968   -62932 
  -62911   -62900   -62909   -62942   -62957   -62982   -63058   -63123 
  -63154   -63198   -63265   -63325   -63395   -63529   -63667   -63770 
  -63895   -64025   -64121   -64185   -64248   -64347   -64442   -64493 
  -64552   -64626   -64651   -64630   -64620   -64599   -64562   -64541 
  -64485   -64369   -64229   -64087   -63939   -63757   -63536   -63301 
  -63065   -62797   -62476   -62160   -61886   -61597   -61261   -60912 
  -60590   -60293   -59980   -59648   -59319   -59000   -58694   -58416 
  -58164   -57903   -57655   -57463   -57295   -57122   -56969   -56860 
  -56763   -56686   -56658   -56654   -56665   -56665   -56656   -56679 
  -56693   -56701   -56735   -56756   -56761   -56775   -56790   -56775 
  -56742   -56714   -56649   -56572   -56514   -56426   -56330   -56242 
  -56113   -55958   -55824   -55687   -55493   -55274   -55051   -54795 
  -54512   -54219   -53914   -53600   -53264   -52889   -52491   -52068 
  -51621   -51196   -50765   -50288   -49841   -49445   -49056   -48673 
  -48306   -47973   -47677   -47426   -47218   -47051   -46942   -46850 
  -46770   -46739   -46741   -46783   -46890   -47028   -47172   -47362 
  -47624   -47890   -48167   -48502   -48863   -49256   -49665   -50065 
  -50482   -50907   -51330   -51754   -52185   -52612   -53020   -53422 
  -53805   -54172   -54525   -54844   -55145   -55451   -55750   -56019 
  -56269   -56506   -56714   -56927   -57145   -57339   -57523   -57686 
  -57849   -58017   -58163   -58297   -58415   -58514   -58589   -58664 
  -58768   -58850   -58907   -58959   -59002   -59046   -59082   -59121 
  -59169   -59214   -59228   -59215   -59235   -59266   -59281   -59316 
  -59339   -59351   -59388   -59441   -59498   -59557   -59628   -59704 
  -59780   -59876   -59986   -60103   -60199   -60278   -60380   -60475 
  -60550   -60636   -60723   -60805   -60889   -60960   -61016   -61097 
  -61169   -61199   -61244   -61313   -61385   -61455   -61519   -61595 
  -61678   -61777   -61877   -61969   -62107   -62263   -62421   -62614 
  -62806   -63002   -63222   -63444   -63679   -63937   -64197   -64449 
  -64721   -65005   -65275   -65569   -65889   -66222   -66569   -66913 
  -67256   -67600   -67939   -68245   -68533   -68848   -69141   -69418 
  -69725   -70004   -70248   -70487   -70722   -70942   -71126   -71292 
  -71447   -71603   -71756   -71874   -71964   -72029   -72069   -72098 
  -72120   -72139   -72139   -72103   -72028   -71943   -71850   -71714 
  -71554   -71365   -71143   -70931   -70695   -70430   -70181   -69934 
  -69659   -69367   -69099   -68846   -68578   -68286   -67977   -67696 
  -67423   -67124   -66846   -66582   -66286   -65969   -65681   -65412 
  -65127   -64857   -64604   -64359   -64123   -63871   -63648   -63479 
  -63325   -63173   -63017   -62866   -62736   -62620   -62496   -62355 
  -62248   -62169   -62048   -61905   -61782   -61657   -61531   -61412 
  -61278   -61165   -61087   -60987   -60900   -60847   -60777   -60698 
  -60631   -60590   -60574   -60556   -60521   -60497   -60516   -60514 
  -60466   -60463   -60504   -60524   -60537   -60576   -60620   -60647 
  -60668   -60660   -60652   -60674   -60661   -60649   -60671   -60650 
  -60592   -60535   -60480   -60421   -60350   -60286   -60256   -60255 
  -60228   -60163   -60119   -60074   -59992   -59913   -59850   -59775 
  -59669   -59530   -59369   -59217   -59064   -58886   -58711   -58553 
  -58380   -58183   -57984   -57786   -57578   -57393   -57229   -57045 
  -56850   -56645   -56443   -56256   -56079   -55914   -55754   -55593 
  -55420   -55262   -55155   -55045   -54916   -54815   -54741   -54683 
  -54608   -54531   -54507   -54491   -54441   -54395   -54368   -54331 
  -54291   -54278   -54258   -54220   -54206   -54210   -54199   -54173 
  -54160   -54160   -54152   -54135   -54130   -54135   -54132   -54140 
  -54184   -54230   -54273   -54350   -54459   -54564   -54666   -54785 
  -54909   -55045   -55186   -55322   -55464   -55590   -55713   -55855 
  -55984   -56094   -56211   -56359   -56504   -56609   -56709   -56825 
  -56956   -57106   -57276   -57474   -57696   -57901   -58084   -58283 
  -58463   -58594   -58726   -58863   -58998   -59126   -59232   -59350 
  -59470   -59549   -59612   -59695   -59783   -59840   -59896   -59978 
  -60059   -60167   -60294   -60396   -60475   -60559   -60663   -60739 
  -60768   -60788   -60826   -60880   -60919   -60962   -61009   -61032 
  -61061   -61104   -61155   -61188   -61201   -61246   -61279   -61290 
  -61314   -61329   -61366   -61398   -61391   -61380   -61368   -61375 
  -61397   -61418   -61450   -61488   -61521   -61539   -61559   -61583 
  -61599   -61618   -61607   -61587   -61579   -61568   -61579   -61569 
  -61544   -61535   -61509   -61502   -61479   -61416   -61370   -61320 
  -61255   -61164   -61048   -60929   -60803   -60682   -60531   -60360 
  -60205   -60044   -59872   -59668   -59467   -59281   -59073   -58882 
  -58717   -58561   -58410   -58276   -58171   -58031   -57887   -57777 
  -57656   -57558   -57460   -57339   -57237   -57120   -56992   -56874 
  -56768   -56671   -56555   -56447   -56351   -56232   -56115   -56028 
  -55959   -55854   -55724   -55627   -55546   -55453   -55335   -55211 
  -55101   -54976   -54855   -54734   -54598   -54471   -54342   -54209 
  -54081   -53959   -53829   -53680   -53544   -53418   -53280   -53146 
  -53007   -52872   -52750   -52632   -52542   -52458   -52351   -52268 
  -52217   -52159   -52102   -52065   -52040   -52024   -52040   -52087 
  -52138   -52192   -52256   -52317   -52367   -52411   -52461   -52514 
  -52554   -52580   -52605   -52636   -52659   -52683   -52717   -52743 
  -52781   -52823   -52831   -52850   -52877   -52886   -52923   -52994 
  -53069   -53143   -53235   -53342   -53452   -53591   -53735   -53871 
  -54036   -54212   -54411   -54627   -54844   -55112   -55405   -55700 
  -56023   -56359   -56714   -57085   -57480   -57907   -58329   -58757 
  -59193   -59644   -60101   -60514   -60913   -61308   -61689   -62054 
  -62387   -62721   -63046   -63351   -63654   -63905   -64113   -64306 
  -64485   -64652   -64785   -64893   -64995   -65112   -65220   -65266 
  -65303   -65361   -65403   -65433   -65460   -65502   -65550   -65591 
  -65640   -65685   -65724   -65770   -65825   -65911   -66012   -66085 
  -66177   -66296   -66372   -66441   -66539   -66643   -66747   -66814 
  -66882   -66961   -66998   -67033   -67069   -67077   -67055   -67003 
  -66974   -66938   -66836   -66719   -66593   -66448   -66292   -66105 
  -65912   -65706   -65478   -65267   -65065   -64848   -64614   -64386 
  -64168   -63906   -63608   -63340   -63103   -62845   -62569   -62320 
  -62093   -61859   -61624   -61434   -61280   -61114   -60971   -60879 
  -60786   -60692   -60632   -60609   -60612   -60618   -60633   -60688 
  -60783   -60869   -60947   -61061   -61183   -61301   -61422   -61554 
  -61706   -61813   -61894   -62026   -62142   -62202   -62270   -62348 
  -62372   -62359   -62380   -62401   -62370   -62337   -62320   -62286 
  -62216   -62126   -62054   -61978   -61848   -61701   -61597   -61486 
  -61315   -61125   -60934   -60728   -60487   -60211   -59927   -59636 
  -59335   -59029   -58727   -58422   -58103   -57806   -57523   -57203 
  -56861   -56564   -56320   -56076   -55814   -55572   -55377   -55212 
  -55036   -54883   -54798   -54733   -54652   -54584   -54554   -54538 
  -54508   -54492   -54486   -54463   -54421   -54384   -54385   -54377 
  -54328   -54302   -54320   -54335   -54318   -54309   -54328   -54363 
  -54417   -54464   -54516   -54567   -54577   -54625   -54710   -54738 
  -54748   -54803   -54868   -54895   -54910   -54965   -55044   -55092 
  -55112   -55161   -55249   -55339   -55430   -55531   -55641   -55754 
  -55890   -56063   -56241   -56410   -56570   -56731   -56908   -57056 
  -57185   -57357   -57557   -57738   -57898   -58075   -58259   -58421 
  -58576   -58733   -58915   -59095   -59242   -59410   -59589   -59722 
  -59820   -59941   -60094   -60205   -60319   -60487   -60656   -60822 
  -60971   -61138   -61347   -61524   -61713   -61937   -62139   -62347 
  -62596   -62877   -63147   -63406   -63688   -63965   -64216   -64433 
  -64659   -64932   -65184   -65382   -65570   -65755   -65887   -65980 
