Origin Time       2011/03/11 14:46:00
Lat.              38.103
Long.             142.860
Depth. (km)       24
Mag.              9.0
Station Code      OSK005
Station Lat.      34.7256
Station Long.     135.5101
Station Height(m) 4
Record Time       2011/03/11 14:50:23
Sampling Freq(Hz) 100Hz
Duration Time(s)  159
Dir.              N-S
Scale Factor      3920(gal)/6182761
Max. Acc. (gal)   7.262
Last Correction   2011/03/11 14:50:08
Memo.             
[...]
  -24523   -23600   -23729   -25764   -26959   -25901   -24332   -23465 
  -23170   -24053   -25832   -25993   -24586   -24068   -23661   -22527 
  -23380   -26027   -26559   -24840   -23517   -23378   -24056   -24431 
  -24251   -24383   -23923   -23440   -24633   -25478   -24679   -23681 
  -23100   -23153   -23713   -23715   -23508   -23733   -23082   -21940 
  -22173   -23596   -24190   -23595   -22868   -21393   -21168   -23472 
  -24567   -23515   -22194   -20824   -20139   -21706   -23823   -23905 
  -22866   -21993   -21835   -22192   -22172   -22207   -21969   -21029 
  -21025   -21849   -21718   -21634   -22559   -22448   -21313   -20999 
  -21029   -20980   -21073   -20705   -20306   -20633   -21229   -21558 
  -21428   -21291   -20821   -19860   -20879   -23256   -23376   -22218 
  -21750   -21176   -20792   -21308   -21815   -21607   -21439   -21896 
  -22590   -23144   -22439   -20694   -20573   -22948   -25430   -24832 
  -22194   -21248   -21725   -22486   -23680   -24171   -23821   -23580 
  -23736   -24089   -24322   -24704   -24604   -23607   -23696   -24414 
  -23816   -24013   -25242   -24871   -24001   -24322   -25297   -25288 
  -24268   -24744   -25234   -24272   -24906   -25879   -24748   -24459 
  -25081   -24510   -24776   -25466   -25147   -25086   -25470   -25950 
  -25067   -23967   -24928   -25200   -24530   -25690   -26633   -25592 
  -25013   -24881   -24144   -24691   -26066   -25879   -24645   -24874 
  -26298   -25662   -23988   -23851   -24025   -24460   -25228   -24604 
  -23161   -23005   -24248   -25283   -25067   -23747   -22391   -22475 
  -23570   -23568   -23007   -23279   -23688   -23950   -24194   -23963 
  -22956   -22725   -24041   -24415   -24046   -24598   -24415   -23782 
  -24504   -25017   -24588   -24991   -25975   -26118   -25761   -25635 
  -25420   -25135   -25620   -26418   -26309   -26019   -26327   -26297 
  -26020   -26092   -26216   -26583   -26969   -26834   -26250   -25780 
  -26033   -25986   -25842   -26707   -26252   -24670   -24896   -25216 
  -24419   -24050   -24213   -24833   -24598   -23426   -23060   -22345 
  -21872   -22837   -22923   -22166   -21873   -20978   -20319   -20922 
  -20474   -19317   -19258   -19579   -19863   -19602   -18931   -18365 
  -17908   -18461   -19633   -19831   -19329   -18681   -17961   -18390 
  -19239   -19279   -19601   -20069   -20284   -20373   -20256   -20264 
  -20005   -20039   -20826   -20850   -20410   -20893   -21559   -21649 
  -21473   -21290   -21225   -21341   -21783   -21937   -21453   -21854 
  -23070   -23427   -23393   -23406   -23017   -22894   -23324   -23748 
  -23865   -23726   -23967   -24635   -24985   -25228   -25380   -25076 
  -25010   -25078   -24824   -24982   -25405   -25451   -25642   -26105 
  -26192   -26282   -26720   -26561   -26082   -26177   -26153   -26039 
  -26307   -26524   -26890   -27144   -26941   -26860   -26605   -26437 
  -26878   -26830   -26213   -25851   -25645   -25426   -25377   -25633 
  -25568   -25237   -25319   -24971   -24587   -25007   -24824   -24416 
  -24608   -24325   -23956   -23950   -24106   -24700   -24599   -23803 
  -23907   -24071   -23905   -24334   -24425   -24152   -24432   -24727 
  -24840   -24777   -24380   -24059   -23769   -24006   -24847   -24818 
  -24634   -25076   -24809   -24396   -24556   -24531   -24103   -23337 
  -22980   -23423   -23930   -24539   -24782   -23728   -22736   -22742 
  -23031   -23509   -23529   -22798   -22081   -21790   -22519   -23301 
  -22786   -22101   -21763   -21786   -22770   -23271   -22335   -21429 
  -21365   -21871   -22497   -22991   -23236   -22768   -22371   -22874 
  -23185   -23392   -24133   -24179   -23446   -23085   -23221   -23747 
  -24273   -24460   -24422   -23833   -23493   -24197   -24508   -24189 
  -24133   -23965   -23926   -24273   -24553   -24626   -24295   -24071 
  -24315   -24673   -25178   -25210   -24852   -25093   -25259   -24971 
  -24890   -25226   -25828   -25761   -25149   -25240   -25411   -25157 
  -25428   -25829   -25404   -25009   -25372   -25400   -25300   -25865 
  -25763   -25148   -25119   -25041   -25121   -25631   -25867   -25863 
  -25817   -25737   -25566   -25080   -24751   -25149   -25690   -25793 
  -25963   -26129   -25509   -24956   -25369   -25600   -25557   -25972 
  -25955   -25844   -26293   -26034   -25473   -25675   -26071   -26624 
  -27099   -26930   -26567   -26294   -26184   -26384   -26363   -26087 
  -26494   -27181   -27006   -26451   -26111   -25946   -26156   -26423 
  -26362   -26272   -26295   -26161   -25784   -25382   -25108   -25044 
  -25349   -25761   -25460   -24647   -24300   -24156   -24079   -24149 
  -23543   -22845   -22845   -22944   -22940   -22523   -21800   -21405 
  -21288   -21498   -21472   -20778   -20227   -20081   -19945   -19676 
  -19608   -19672   -19141   -18627   -19005   -19292   -18933   -18814 
  -18847   -18647   -18678   -18631   -18304   -18241   -18378   -18614 
  -18824   -18675   -18417   -18356   -18452   -18639   -18842   -18779 
  -18349   -18132   -18408   -18664   -18780   -18864   -18659   -18511 
  -18936   -19216   -18802   -18477   -18740   -19143   -19317   -19376 
  -19488   -19634   -19961   -20299   -20154   -20044   -20452   -20696 
  -20739   -21107   -21362   -21078   -20780   -20938   -21304   -21563 
  -21826   -22110   -22027   -21661   -21612   -21738   -21663   -21877 
  -22431   -22558   -22359   -22459   -22687   -22601   -22365   -22305 
  -22294   -22369   -22590   -22571   -22370   -22313   -22253   -22030 
  -21813   -21806   -21930   -21980   -22050   -22243   -22250   -22098 
  -22070   -21882   -21670   -21954   -22471   -22766   -22784   -22756 
  -22798   -22851   -23074   -23407   -23541   -23578   -23712   -23830 
  -23880   -23969   -24021   -23978   -24226   -24900   -25285   -25089 
  -24985   -25242   -25510   -25749   -26169   -26652   -26946   -27064 
  -27082   -27041   -27048   -27204   -27511   -27790   -27913   -27942 
  -27945   -27984   -27927   -27607   -27326   -27396   -27621   -27747 
  -27764   -27586   -27160   -26843   -26832   -26795   -26631   -26639 
  -26786   -26795   -26753   -26698   -26559   -26568   -26727   -26732 
  -26600   -26691   -27047   -27237   -27144   -26906   -26726   -26876 
  -27108   -27148   -27183   -27374   -27635   -27592   -27243   -27158 
  -27379   -27523   -27550   -27576   -27711   -27845   -27760   -27641 
  -27642   -27567   -27353   -27287   -27671   -28073   -27946   -27678 
  -27484   -27116   -26951   -27262   -27531   -27455   -27385   -27494 
  -27544   -27486   -27426   -27355   -27215   -27041   -26981   -27012 
  -27121   -27305   -27259   -26875   -26292   -25702   -25520   -25670 
  -25595   -25298   -25117   -25068   -25002   -24835   -24542   -24255 
  -24193   -24294   -24264   -24004   -23617   -23219   -22986   -23041 
  -23170   -23111   -23083   -23375   -23675   -23666   -23522   -23186 
  -22683   -22658   -23102   -23303   -23216   -23053   -22802   -22744 
  -22931   -22928   -22766   -22760   -22881   -23052   -23205   -23297 
  -23320   -23112   -22893   -23072   -23412   -23557   -23584   -23617 
  -23611   -23553   -23578   -23692   -23762   -23840   -24049   -24237 
  -24155   -23863   -23631   -23443   -23189   -23181   -23379   -23229 
  -22826   -22558   -22476   -22520   -22353   -21846   -21465   -21384 
  -21350   -21318   -21290   -21182   -21101   -21113   -21008   -20795 
  -20670   -20489   -20287   -20454   -20790   -20779   -20549   -20375 
  -20227   -20153   -20130   -20130   -20261   -20408   -20492   -20637 
  -20808   -20775   -20560   -20521   -20616   -20587   -20651   -20879 
  -21015   -21037   -21044   -21158   -21372   -21465   -21505   -21606 
  -21580   -21442   -21374   -21391   -21459   -21512   -21491   -21477 
  -21532   -21534   -21409   -21394   -21516   -21392   -21070   -20989 
  -21280   -21722   -22021   -22203   -22412   -22394   -22145   -22198 
  -22586   -22779   -22703   -22661   -22678   -22697   -22828   -23141 
  -23573   -23795   -23613   -23506   -23699   -23728   -23597   -23662 
  -23828   -24074   -24375   -24323   -23945   -23650   -23609   -23986 
  -24654   -25171   -25285   -24868   -24272   -24127   -24341   -24639 
  -24970   -25073   -24925   -24762   -24650   -24635   -24572   -24274 
  -24063   -24191   -24366   -24319   -24158   -24052   -23840   -23484 
  -23478   -23927   -24223   -24119   -23945   -23863   -23753   -23623 
  -23746   -24066   -24033   -23706   -23692   -24002   -24317   -24519 
  -24559   -24446   -24183   -23956   -24109   -24500   -24691   -24630 
  -24435   -24189   -24186   -24604   -25000   -24847   -24416   -24307 
  -24387   -24287   -24221   -24256   -24121   -23996   -24098   -24154 
  -24042   -23969   -23920   -23767   -23719   -23966   -24213   -24242 
  -24309   -24551   -24765   -24817   -24830   -25061   -25562   -26012 
  -26097   -25863   -25674   -25826   -26197   -26536   -26771   -26813 
  -26685   -26654   -26816   -26972   -26938   -26776   -26680   -26720 
  -26924   -27208   -27333   -27331   -27365   -27410   -27418   -27377 
  -27424   -27693   -27936   -27854   -27614   -27579   -27714   -27828 
  -28005   -28244   -28355   -28228   -27945   -27872   -28194   -28524 
  -28482   -28240   -28100   -27997   -27873   -27903   -27972   -27861 
  -27747   -27686   -27492   -27342   -27441   -27522   -27329   -27074 
  -27079   -27242   -27304   -27204   -26940   -26683   -26637   -26624 
  -26554   -26646   -26768   -26619   -26385   -26335   -26416   -26443 
  -26321   -26212   -26230   -26194   -26121   -26237   -26452   -26565 
  -26583   -26603   -26649   -26620   -26549   -26575   -26594   -26582 
  -26648   -26617   -26488   -26450   -26458   -26442   -26210   -25722 
  -25424   -25421   -25338   -25011   -24618   -24318   -23915   -23447 
  -23318   -23338   -23134   -22756   -22276   -21826   -21389   -20878 
  -20563   -20487   -20457   -20329   -19914   -19469   -19286   -19170 
  -19104   -19078   -18915   -18758   -18735   -18709   -18634   -18579 
  -18562   -18519   -18428   -18354   -18366   -18451   -18566   -18703 
  -18793   -18751   -18659   -18643   -18679   -18692   -18639   -18527 
  -18447   -18532   -18804   -19056   -19146   -19175   -19197   -19176 
  -19145   -19242   -19441   -19443   -19286   -19308   -19410   -19455 
  -19594   -19749   -19809   -19922   -20096   -20268   -20470   -20506 
  -20355   -20425   -20714   -20918   -21035   -21049   -20966   -21034 
  -21288   -21533   -21676   -21646   -21511   -21565   -21872   -22194 
  -22389   -22496   -22491   -22424   -22508   -22652   -22719   -22938 
  -23188   -23147   -23113   -23385   -23736   -23972   -24120   -24187 
  -24147   -24099   -24164   -24263   -24426   -24747   -24914   -24797 
  -24749   -24828   -24908   -25026   -25079   -25001   -24993   -25090 
  -25088   -24959   -24916   -24992   -24946   -24764   -24716   -24789 
  -24717   -24548   -24479   -24415   -24310   -24320   -24328   -24146 
  -23951   -23904   -23910   -23952   -24055   -24067   -23936   -23837 
  -23889   -24064   -24174   -23994   -23733   -23795   -23973   -23890 
  -23772   -23854   -23963   -23984   -23958   -23896   -23777   -23632 
  -23506   -23418   -23350   -23190   -22944   -22811   -22741   -22575 
  -22401   -22257   -22108   -21926   -21645   -21441   -21469   -21562 
  -21638   -21679   -21550   -21275   -20960   -20667   -20664   -21061 
  -21437   -21434   -21140   -20792   -20595   -20680   -20992   -21377 
  -21784   -22059   -21890   -21390   -21056   -21059   -21335   -21861 
  -22419   -22719   -22753   -22635   -22452   -22468   -22841   -23232 
  -23356   -23438   -23623   -23693   -23632   -23646   -23725   -23855 
  -24036   -24043   -23881   -23820   -23875   -23991   -24116   -24136 
  -24009   -23688   -23459   -23757   -24153   -23901   -23092   -22501 
  -22731   -23331   -23332   -22705   -22117   -21889   -21801   -21709 
  -22017   -22683   -22967   -22722   -22238   -21691   -21421   -21510 
  -21741   -22111   -22442   -22345   -21921   -21768   -22147   -22547 
  -22580   -22552   -22693   -22870   -22934   -22962   -23294   -23806 
  -23911   -23695   -23659   -23833   -24046   -24209   -24378   -24708 
  -25066   -25203   -25204   -25315   -25583   -25810   -25879   -25946 
  -26170   -26499   -26749   -26815   -26815   -26915   -27102   -27304 
  -27514   -27702   -27838   -27936   -28053   -28222   -28350   -28381 
  -28431   -28588   -28803   -28975   -29019   -28940   -28883   -28888 
  -28880   -28920   -29007   -29010   -28950   -28922   -28956   -29131 
  -29472   -29780   -29850   -29789   -29809   -29903   -30004   -30106 
  -30213   -30367   -30552   -30644   -30594   -30554   -30681   -30843 
  -30869   -30875   -30978   -31070   -31032   -30953   -30974   -30972 
  -30897   -31018   -31216   -31110   -30795   -30485   -30229   -30147 
  -30219   -30261   -30262   -30227   -30041   -29743   -29562   -29635 
  -29777   -29694   -29511   -29513   -29533   -29363   -29188   -29084 
  -28904   -28623   -28265   -27940   -27800   -27717   -27500   -27232 
  -27098   -27063   -26948   -26693   -26263   -25665   -25128   -24850 
  -24745   -24573   -24269   -23993   -23744   -23385   -22984   -22663 
  -22389   -22134   -21918   -21710   -21430   -21069   -20680   -20285 
  -19963   -19816   -19687   -19344   -18917   -18620   -18377   -18059 
  -17735   -17465   -17086   -16541   -16055   -15758   -15575   -15315 
  -14924   -14642   -14514   -14309   -13983   -13628   -13349   -13225 
  -13194   -13186   -13181   -13175   -13173   -13119   -13016   -12988 
  -13060   -13174   -13298   -13450   -13702   -13974   -14063   -13990 
  -13975   -14159   -14511   -14857   -15017   -15075   -15268   -15534 
  -15709   -15928   -16225   -16422   -16556   -16675   -16722   -16842 
  -17112   -17362   -17524   -17688   -17902   -18155   -18400   -18583 
  -18706   -18829   -19009   -19266   -19617   -19952   -20102   -20201 
  -20513   -20996   -21475   -21868   -22130   -22371   -22739   -23068 
  -23235   -23509   -24016   -24522   -24923   -25318   -25692   -25985 
  -26286   -26679   -27147   -27633   -28000   -28219   -28507   -28930 
  -29374   -29867   -30378   -30757   -31019   -31242   -31482   -31815 
  -32190   -32481   -32700   -32952   -33200   -33360   -33546   -33844 
  -34043   -33951   -33707   -33632   -33869   -34218   -34470   -34604 
  -34564   -34359   -34198   -34188   -34247   -34324   -34408   -34466 
  -34451   -34379   -34334   -34340   -34363   -34420   -34508   -34565 
  -34489   -34276   -34147   -34232   -34388   -34480   -34515   -34495 
  -34366   -34240   -34341   -34499   -34435   -34276   -34092   -33855 
  -33733   -33670   -33473   -33238   -33050   -32861   -32708   -32563 
  -32352   -32085   -31704   -31244   -30886   -30655   -30509   -30412 
  -30225   -29909   -29620   -29506   -29476   -29349   -29196   -29098 
  -28942   -28741   -28710   -28893   -29068   -29093   -29008   -28891 
  -28802   -28730   -28630   -28585   -28679   -28803   -28796   -28640 
  -28424   -28245   -28150   -28099   -28037   -27931   -27752   -27563 
  -27464   -27416   -27295   -27050   -26777   -26643   -26635   -26576 
  -26420   -26292   -26204   -25993   -25632   -25293   -25076   -24909 
  -24658   -24350   -24104   -23838   -23527   -23348   -23173   -22714 
  -22146   -21799   -21637   -21479   -21253   -20925   -20570   -20318 
  -20110   -19884   -19726   -19587   -19382   -19176   -18956   -18733 
  -18657   -18709   -18712   -18620   -18519   -18428   -18309   -18278 
  -18418   -18627   -18842   -18999   -19029   -19055   -19185   -19373 
  -19577   -19787   -19992   -20158   -20289   -20547   -20958   -21245 
  -21320   -21444   -21747   -22049   -22228   -22411   -22688   -22966 
  -23185   -23322   -23393   -23510   -23680   -23844   -24019   -24128 
  -24129   -24152   -24277   -24462   -24576   -24583   -24601   -24686 
  -24864   -25098   -25202   -25175   -25167   -25172   -25136   -25103 
  -25127   -25188   -25218   -25161   -25100   -25199   -25329   -25214 
  -24987   -24975   -25121   -25168   -25097   -25037   -25050   -25108 
  -25152   -25177   -25217   -25275   -25328   -25339   -25321   -25364 
  -25506   -25665   -25757   -25809   -25851   -25832   -25793   -25820 
  -25853   -25782   -25659   -25684   -25887   -26015   -25920   -25792 
  -25822   -25959   -26069   -26082   -26053   -26068   -26072   -26024 
  -25985   -25938   -25901   -25947   -26020   -26027   -25985   -25959 
  -25903   -25757   -25689   -25763   -25758   -25611   -25423   -25251 
  -25175   -25183   -25155   -25153   -25259   -25284   -25134   -25044 
  -25089   -25091   -25094   -25165   -25159   -25160   -25340   -25532 
  -25534   -25388   -25278   -25366   -25622   -25878   -26074   -26128 
  -25882   -25599   -25756   -26129   -26154   -25902   -25807   -25973 
  -26152   -26085   -25895   -25913   -26037   -26010   -25964   -25936 
  -25816   -25846   -26010   -25897   -25670   -25737   -25830   -25604 
  -25352   -25382   -25448   -25314   -25172   -25175   -25201   -25122 
  -24959   -24869   -24858   -24702   -24450   -24357   -24349   -24250 
  -24109   -23998   -23896   -23801   -23817   -23921   -23922   -23846 
  -23850   -23870   -23884   -23980   -24056   -24047   -24060   -24107 
  -24137   -24102   -24041   -24110   -24266   -24430   -24612   -24674 
  -24618   -24595   -24588   -24649   -24844   -25045   -25219   -25429 
  -25621   -25735   -25810   -25916   -26055   -26152   -26253   -26454 
  -26642   -26713   -26661   -26520   -26492   -26629   -26687   -26632 
  -26581   -26547   -26530   -26487   -26411   -26296   -26120   -25979 
  -25886   -25812   -25843   -25883   -25746   -25523   -25431   -25483 
  -25488   -25424   -25466   -25526   -25444   -25325   -25245   -25214 
  -25273   -25386   -25421   -25291   -25128   -25050   -24977   -24891 
  -24907   -25073   -25155   -24943   -24753   -24910   -25113   -24988 
  -24667   -24475   -24523   -24765   -24970   -24798   -24393   -24270 
  -24473   -24650   -24597   -24356   -24130   -24036   -23998   -23905 
  -23763   -23690   -23708   -23637   -23395   -23144   -23017   -22998 
  -22992   -22860   -22590   -22367   -22345   -22401   -22334   -22200 
  -22029   -21762   -21613   -21641   -21576   -21484   -21570   -21682 
  -21651   -21503   -21359   -21401   -21665   -21893   -21893   -21829 
  -21845   -21876   -21909   -21919   -21866   -21879   -22001   -22092 
  -22149   -22165   -22058   -21971   -22037   -22158   -22200   -22096 
  -21973   -22000   -22120   -22232   -22327   -22425   -22487   -22450 
  -22398   -22404   -22486   -22680   -22819   -22809   -22864   -23017 
  -23118   -23183   -23225   -23147   -22963   -22888   -23077   -23353 
  -23452   -23337   -23132   -23048   -23170   -23299   -23352   -23475 
  -23608   -23596   -23569   -23689   -23880   -23985   -24052   -24262 
  -24538   -24727   -24935   -25147   -25202   -25152   -25149   -25300 
  -25547   -25716   -25790   -25805   -25818   -25924   -25994   -25977 
  -26057   -26174   -26163   -26076   -26028   -26108   -26246   -26317 
  -26367   -26347   -26231   -26241   -26378   -26497   -26654   -26784 
  -26765   -26689   -26683   -26827   -27103   -27397   -27646   -27805 
  -27864   -27912   -28027   -28263   -28523   -28651   -28742   -28882 
  -29002   -29132   -29269   -29364   -29442   -29497   -29597   -29743 
