Origin Time       2011/03/11 14:46:00
Lat.              38.103
Long.             142.860
Depth. (km)       24
Mag.              9.0
Station Code      OSK006
Station Lat.      34.5894
Station Long.     135.4710
Station Height(m) 1
Record Time       2011/03/11 14:50:57
Sampling Freq(Hz) 100Hz
Duration Time(s)  85
Dir.              E-W
Scale Factor      3920(gal)/6182761
Max. Acc. (gal)   8.313
Last Correction   2011/03/11 14:50:42
Memo.             
[...]
   26145    27262    27936    27838    27738    27936    28140    28501 
   29175    29691    29629    29173    29009    29583    30269    30239 
   29707    29365    29475    29685    29393    28755    28399    28254 
   28238    28577    28725    28267    27874    27964    28190    28279 
   28276    28236    28276    28668    29068    28829    28341    28377 
   29023    29816    29968    29239    28573    28952    29948    30230 
   29431    28454    28221    28835    29623    29884    29383    28624 
   28582    28989    28872    28605    28515    28358    28533    28850 
   28685    28392    28331    28296    28135    27953    27945    28115 
   28374    28553    28451    28186    28039    28128    28365    28431 
   28177    27924    27824    27657    27294    26791    26473    26469 
   26424    26395    26319    25674    25079    25273    25755    26193 
   26428    26276    26176    26321    26574    26890    27111    27293 
   27332    27124    27334    28016    28323    28189    28141    28379 
   28696    28886    29039    29244    29486    29682    29826    29998 
   30147    30298    30394    30392    30591    30894    31061    31392 
   31826    32015    32097    32180    32298    32674    33067    33163 
   33355    33663    33668    33709    33902    33833    33738    33742 
   33578    33546    33847    34069    34048    34064    34153    34127 
   34166    34440    34697    34778    34803    34922    35134    35247 
   35196    35112    35105    35166    35129    34987    35025    35234 
   35269    35080    34852    34779    34916    34941    34683    34447 
   34362    34192    33906    33713    33604    33482    33315    33121 
   33011    32893    32667    32479    32212    31814    31650    31647 
   31496    31326    31156    30975    31010    31090    30982    30800 
   30583    30447    30525    30683    30814    30851    30900    31129 
   31292    31280    31270    31129    30851    30693    30630    30508 
   30352    30268    30262    30274    30179    29924    29750    29796 
   29942    30062    30003    29832    29820    30042    30394    30711 
   30845    30749    30624    30764    31000    31079    31112    31092 
   31045    31043    30868    30577    30516    30600    30461    30030 
   29599    29419    29401    29305    29101    28973    29062    29243 
   29238    29035    28879    28886    29033    29175    29193    29248 
   29355    29308    29073    28804    28808    29008    28924    28616 
   28447    28545    28776    28856    28910    29199    29535    29745 
   29987    30368    30790    31174    31587    32090    32596    33003 
   33336    33657    34002    34383    34725    34971    35105    35149 
   35269    35393    35337    35234    35155    35059    35024    34974 
   34783    34692    34842    34924    34876    35011    35373    35755 
   36172    36687    37197    37675    38098    38459    38804    39070 
   39277    39492    39616    39591    39494    39375    39228    39026 
   38690    38248    37863    37535    37190    36879    36633    36433 
   36201    35830    35479    35393    35437    35412    35334    35162 
   34952    34902    35028    35153    35076    34850    34698    34644 
   34666    34722    34630    34352    34031    33767    33577    33386 
   33128    32823    32484    32135    31831    31620    31445    31113 
   30653    30343    30189    30034    29861    29623    29346    29190 
   29221    29298    29177    28773    28279    28018    28152    28383 
   28293    27947    27676    27636    27811    27954    27835    27627 
   27557    27675    27974    28174    28054    27868    27871    27976 
   28027    27996    27891    27737    27651    27672    27663    27541 
   27398    27367    27462    27597    27681    27703    27707    27717 
   27824    28081    28347    28455    28427    28535    28869    29173 
   29350    29425    29450    29630    29925    30138    30247    30225 
   30103    30030    30103    30264    30270    30062    29880    29913 
   30184    30505    30663    30654    30566    30575    30863    31364 
   31765    31836    31729    31737    32035    32607    33067    33100 
   32886    32695    32716    33087    33505    33454    33053    32815 
   32845    32963    33020    32943    32795    32647    32526    32459 
   32368    32162    31888    31624    31422    31327    31275    31110 
   30781    30487    30390    30318    30171    30020    29821    29602 
   29467    29456    29532    29549    29448    29304    29188    29177 
   29343    29608    29728    29649    29570    29590    29705    29880 
   30019    30110    30232    30436    30687    30908    31130    31420 
   31707    31921    32108    32305    32484    32583    32614    32725 
   32902    32980    33003    33083    33176    33196    33186    33216 
   33166    33031    32980    32977    32926    32865    32763    32537 
   32304    32176    32005    31759    31610    31467    31205    30967 
   30777    30531    30241    29959    29714    29517    29354    29172 
   28961    28761    28612    28578    28652    28743    28788    28792 
   28781    28763    28816    28962    29049    29085    29191    29323 
   29443    29505    29506    29588    29706    29748    29762    29816 
   29982    30150    30143    30066    30047    30095    30209    30317 
   30423    30526    30549    30515    30492    30548    30677    30784 
   30795    30770    30843    30943    31005    31094    31130    31149 
   31316    31568    31769    31871    31911    31971    32098    32300 
   32473    32553    32635    32677    32614    32524    32427    32329 
   32257    32170    32045    31846    31537    31237    31063    30921 
   30708    30481    30308    30146    29955    29804    29777    29814 
   29803    29739    29677    29687    29786    29848    29849    29935 
   30090    30157    30120    30053    30012    30038    30099    30053 
   29843    29692    29673    29601    29549    29541    29412    29363 
   29528    29555    29392    29406    29612    29700    29689    29813 
   29923    29840    29845    30028    30155    30247    30306    30230 
   30096    29954    29861    29883    29856    29644    29358    29083 
   28752    28487    28490    28541    28497    28564    28618    28491 
   28437    28634    29036    29494    29793    30002    30281    30524 
   30789    31306    31841    32048    32188    32449    32572    32660 
   32878    33035    33123    33225    33282    33233    33078    33037 
   33259    33450    33362    33140    33007    32954    32887    32920 
   33018    32968    32972    33124    33062    32847    32812    32861 
   32841    32814    32739    32560    32394    32320    32285    32187 
   31935    31608    31381    31297    31284    31254    31174    31038 
   30862    30774    30852    30971    30990    30909    30828    30894 
   31189    31553    31748    31794    31859    31954    32059    32214 
   32406    32602    32737    32754    32697    32596    32488    32419 
   32366    32322    32275    32212    32187    32218    32244    32220 
   32192    32239    32385    32517    32524    32504    32582    32692 
   32765    32814    32841    32838    32784    32737    32763    32774 
   32722    32633    32511    32406    32393    32510    32634    32597 
   32467    32363    32299    32277    32236    32157    32100    32060 
   32024    32010    32005    31989    31935    31829    31722    31732 
   31904    32036    31986    31904    31877    31853    31830    31829 
   31802    31666    31518    31476    31410    31261    31168    31164 
   31185    31198    31230    31309    31404    31498    31603    31735 
   31955    32271    32582    32800    32956    33118    33302    33537 
   33824    34073    34248    34420    34603    34756    34844    34904 
   35029    35190    35327    35405    35395    35377    35426    35533 
   35623    35648    35647    35614    35565    35573    35628    35686 
   35787    35939    36048    36129    36260    36390    36494    36612 
   36761    36925    37039    37093    37140    37193    37247    37285 
   37269    37166    37008    36881    36757    36549    36308    36112 
   35940    35691    35310    34921    34625    34343    34018    33669 
   33282    32886    32529    32157    31798    31530    31279    31005 
   30799    30654    30448    30198    30015    29900    29822    29738 
   29586    29448    29408    29407    29425    29479    29545    29604 
   29645    29665    29696    29785    29941    30145    30295    30281 
   30213    30241    30383    30558    30669    30738    30809    30884 
   31023    31254    31481    31593    31625    31662    31712    31807 
   31928    32038    32183    32289    32342    32419    32470    32512 
   32586    32617    32612    32602    32562    32507    32486    32540 
   32621    32701    32867    33037    33069    33019    32970    32963 
   33063    33217    33266    33184    33096    33088    33157    33243 
   33265    33235    33228    33245    33228    33173    33148    33172 
   33196    33215    33183    33015    32761    32559    32435    32268 
   32009    31753    31524    31276    31001    30697    30393    30119 
   29907    29847    29929    29949    29843    29799    29883    30018 
   30167    30306    30455    30615    30707    30766    30870    30983 
   31080    31174    31283    31437    31564    31591    31573    31563 
   31583    31676    31788    31828    31891    32114    32364    32496 
   32659    32918    33213    33578    33916    34128    34328    34589 
   34882    35153    35333    35380    35315    35229    35140    35013 
   34826    34583    34356    34080    33696    33367    33092    32753 
   32381    32054    31868    31749    31507    31232    31037    30862 
   30726    30710    30719    30585    30409    30316    30198    30063 
   29993    29994    30104    30297    30499    30616    30626    30728 
   30962    31159    31322    31513    31711    31834    31807    31685 
   31525    31328    31122    30922    30721    30477    30137    29722 
   29289    28899    28623    28450    28289    28080    27844    27640 
   27454    27250    27070    26937    26786    26612    26506    26444 
   26322    26125    25859    25562    25375    25361    25385    25300 
   25125    24914    24684    24486    24313    24169    24149    24202 
   24216    24201    24200    24296    24492    24679    24789    24824 
   24923    25202    25556    25924    26295    26585    26797    26951 
   27064    27201    27367    27535    27717    27899    28010    28003 
   28008    28154    28372    28580    28780    28932    28988    29003 
   29106    29319    29570    29820    29980    30049    30183    30377 
   30560    30729    30884    31068    31228    31290    31276    31247 
   31306    31439    31561    31660    31645    31514    31464    31542 
   31603    31583    31508    31414    31287    31105    30932    30816 
   30761    30753    30698    30589    30512    30424    30316    30230 
   30138    30117    30266    30473    30596    30601    30491    30331 
   30265    30348    30459    30503    30550    30664    30778    30819 
   30851    30925    31017    31195    31475    31665    31690    31743 
   31932    32118    32225    32353    32517    32652    32809    33032 
   33172    33131    33049    33072    33204    33416    33669    33817 
   33756    33627    33654    33812    33894    33918    34051    34251 
   34378    34351    34178    33990    33971    34186    34383    34236 
   33839    33453    33183    33092    33134    33196    33183    33076 
   32995    32962    32876    32757    32718    32808    33003    33224 
   33423    33612    33839    34118    34314    34339    34287    34255 
   34294    34427    34588    34606    34326    33865    33576    33559 
   33494    33210    32954    32884    32851    32635    32174    31664 
   31398    31412    31429    31267    31039    30888    30855    30889 
   30847    30672    30401    30160    30203    30553    30925    31117 
   31146    31124    31096    31047    31045    31171    31381    31569 
   31667    31653    31569    31545    31581    31569    31622    31751 
   31770    31815    31981    31991    31765    31554    31562    31747 
   31936    32035    32119    32288    32520    32786    33116    33336 
   33306    33398    33784    34067    34189    34363    34596    34862 
   35080    35179    35273    35494    35855    36181    36281    36320 
   36564    36935    37248    37420    37388    37324    37540    37982 
   38316    38407    38370    38329    38392    38578    38657    38573 
   38704    39150    39497    39541    39485    39613    39977    40235 
   40241    40284    40527    40782    40819    40697    40607    40682 
   40994    41333    41322    40997    40696    40496    40306    40152 
   40024    39833    39609    39403    39216    39130    39093    38918 
   38609    38200    37693    37315    37210    37187    37035    36716 
   36346    35985    35582    35131    34634    34069    33503    33070 
   32837    32666    32285    31717    31220    30823    30433    30005 
   29562    29262    29130    28912    28493    28172    28148    28156 
   27999    27756    27383    26780    26144    25813    25812    25873 
   25814    25585    25181    24732    24381    24124    23974    23890 
   23660    23325    23204    23357    23415    23064    22521    22187 
   22122    22174    22086    21615    20955    20577    20577    20648 
   20521    20158    19761    19455    19091    18793    18979    19486 
   19661    19335    18887    18578    18462    18607    18918    19120 
   19047    18781    18621    18729    18994    19243    19318    19252 
   19172    19116    19253    19673    20143    20510    20762    20831 
   20808    20945    21465    22322    22935    22892    22549    22361 
   22435    22804    23466    24138    24369    23992    23297    22809 
   22881    23438    24135    24597    24596    24180    23698    23573 
   23765    24101    24729    25337    25397    25106    24908    24888 
   24978    25264    25723    25965    25733    25220    24967    25429 
   26222    26579    26437    26078    25662    25535    25860    26255 
   26335    26161    26122    26284    26348    26443    26820    27179 
   27287    27290    27245    27211    27503    28296    29154    29452 
   29158    28866    28996    29374    29783    30234    30564    30616 
   30677    31037    31387    31190    30717    31031    32215    32974 
   32712    32080    31631    31575    32029    32843    33727    34372 
   34556    34346    33651    32568    32206    33299    35101    36481 
   36803    36132    35173    34673    34897    35658    36540    37222 
   37624    37585    37282    37417    37979    38311    38431    38631 
   38877    39201    39466    39327    38804    38366    38402    38687 
   38904    39147    39435    39403    38634    37594    37214    37452 
   37972    38664    38975    38547    37725    37050    36954    37535 
   38408    38924    38618    37672    36827    36832    37936    39312 
   39659    38882    37672    36503    36353    37654    38897    38911 
   38241    37178    35652    34763    35453    36756    37241    36556 
   35131    33716    32946    33109    34096    35167    35323    34304 
   32947    32248    32437    33184    34212    35414    36072    35139 
   33409    32715    33091    33704    34406    35155    35678    35484 
   34527    33700    33652    34040    34478    35234    36001    35525 
   33701    32059    32047    33744    35813    36720    36031    34518 
   32972    31740    31549    32871    34944    36354    35920    33817 
   31609    30765    31693    33534    35277    36249    35238    32553 
   31104    32258    34354    35729    35956    35257    34581    34571 
   34221    33866    35755    38301    37891    35597    34659    35498 
   36188    35825    35738    36370    36493    35691    34312    33002 
   32948    34170    34789    34047    33397    32912    31513    30160 
   29980    30899    32398    33219    33112    32731    31720    29998 
   28662    29342    32194    34510    34373    32706    30781    29591 
   30089    32211    34082    33597    31807    31363    32011    31702 
   30245    29396    30588    33176    34925    34220    31636    29097 
   27739    28079    30035    31993    32660    31921    30482    29572 
   28921    27937    27807    29266    30947    31326    30674    29425 
   27589    26951    28518    30418    31537    32014    31285    29109 
   26819    26524    28503    30465    30863    30361    29713    28829 
   27788    27379    27741    28058    27953    27586    27631    28260 
   28260    27100    25828    25727    26618    27147    27342    27747 
   27924    27800    27306    26556    26844    28436    29969    30489 
   29640    28011    27069    27829    30206    32046    31511    29949 
   28851    28858    30399    31639    31286    30683    30352    30288 
   30780    31163    31509    32206    32373    32102    32197    32004 
   31171    30959    32276    34322    35069    33233    30679    30636 
   33001    35075    35441    34045    32339    32600    34099    34775 
   34890    34921    34615    34414    34766    35266    35582    35688 
   35297    34992    35446    35912    36140    36373    36026    35392 
   35632    36177    35479    34338    34796    36221    36640    36227 
   35838    35406    35417    36258    36724    35728    34082    33717 
   35570    37737    37493    35524    34448    34820    35835    36623 
   36505    36206    36415    36369    36030    36224    36726    37011 
   37071    36741    36374    36877    37967    38477    37754    36362 
   36017    37135    38056    37902    37214    36344    35512    35258 
   35567    35671    35507    35518    35312    34918    34990    34937 
   34125    33478    33591    33863    34188    34542    34248    33499 
   32930    32553    32479    32618    32530    32424    32448    31913 
   30803    30218    30617    31002    30419    29523    29168    29137 
   29126    28955    28537    28094    27907    28095    28230    27849 
   27175    26636    26549    26964    27270    26981    26506    26122 
   25741    25746    26223    26544    26480    26257    25946    25653 
   25548    25620    25753    25903    26001    25822    25524    25533 
   25602    25474    25534    25809    25964    25964    25783    25400 
   25101    25188    25568    26016    26321    26196    25873    25775 
   25614    25376    25520    25741    25717    25681    25568    25367 
   25240    25108    25046    25107    25243    25477    25317    24490 
   24023    24459    24922    25154    25482    25500    24977    24340 
   24192    24871    25542    25339    24948    24866    24685    24668 
   24889    24674    24304    24439    24651    24533    24371    23964 
   23245    23281    24336    25112    24956    24457    23896    23268 
   23394    24472    25041    24593    24328    24591    24590    24256 
   24230    24476    24513    24673    25318    25918    25990    25452 
   24794    24996    25922    26477    26575    26916    27537    27789 
   27352    26861    27227    28335    29177    29257    28953    28717 
   28698    28847    28965    29064    29266    29308    29295    29760 
   30365    30421    30054    29774    29769    29868    30113    30669 
   31092    31058    30794    30521    30665    31066    31108    31291 
