Origin Time       2011/03/11 14:46:00
Lat.              38.103
Long.             142.860
Depth. (km)       24
Mag.              9.0
Station Code      OSK009
Station Lat.      34.4364
Station Long.     135.5805
Station Height(m) 207
Record Time       2011/03/11 14:51:03
Sampling Freq(Hz) 100Hz
Duration Time(s)  60
Dir.              N-S
Scale Factor      3920(gal)/6182761
Max. Acc. (gal)   2.127
Last Correction   2011/03/11 14:50:48
Memo.             
  -24796   -24799   -24793   -24803   -24824   -24818   -24811   -24808 
  -24780   -24758   -24752   -24733   -24714   -24714   -24719   -24719 
  -24733   -24741   -24730   -24740   -24743   -24718   -24717   -24724 
  -24706   -24683   -24665   -24637   -24595   -24562   -24538   -24503 
  -24470   -24446   -24404   -24354   -24319   -24278   -24224   -24186 
  -24149   -24097   -24064   -24050   -24020   -23984   -23958   -23915 
  -23851   -23789   -23728   -23659   -23608   -23588   -23575   -23572 
  -23591   -23612   -23634   -23655   -23653   -23649   -23655   -23637 
  -23609   -23604   -23608   -23614   -23647   -23704   -23753   -23795 
  -23841   -23873   -23886   -23897   -23907   -23913   -23912   -23923 
  -23948   -23966   -23996   -24038   -24072   -24101   -24127   -24145 
  -24165   -24186   -24201   -24216   -24227   -24231   -24242   -24251 
  -24259   -24287   -24322   -24350   -24366   -24383   -24428   -24473 
  -24515   -24578   -24621   -24640   -24684   -24728   -24755   -24798 
  -24856   -24911   -24975   -25046   -25109   -25172   -25240   -25301 
  -25358   -25428   -25502   -25569   -25639   -25704   -25743   -25769 
  -25790   -25795   -25786   -25768   -25759   -25759   -25770   -25805 
  -25845   -25881   -25919   -25935   -25934   -25930   -25915   -25889 
  -25849   -25814   -25797   -25774   -25747   -25735   -25720   -25684 
  -25637   -25605   -25588   -25563   -25534   -25516   -25500   -25479 
  -25444   -25399   -25358   -25308   -25260   -25233   -25210   -25190 
  -25182   -25170   -25163   -25168   -25154   -25126   -25109   -25080 
  -25042   -25025   -25017   -25004   -24988   -24972   -24959   -24939 
  -24912   -24891   -24878   -24849   -24811   -24775   -24733   -24694 
  -24655   -24601   -24541   -24474   -24401   -24340   -24284   -24210 
  -24146   -24109   -24044   -23952   -23891   -23843   -23782   -23728 
  -23683   -23638   -23597   -23578   -23579   -23584   -23576   -23551 
  -23518   -23484   -23445   -23418   -23402   -23389   -23391   -23424 
  -23471   -23515   -23550   -23574   -23589   -23590   -23589   -23602 
  -23612   -23627   -23656   -23695   -23758   -23838   -23921   -24005 
  -24075   -24111   -24142   -24192   -24226   -24247   -24300   -24363 
  -24429   -24512   -24581   -24636   -24688   -24719   -24741   -24765 
  -24773   -24758   -24742   -24739   -24715   -24681   -24684   -24692 
  -24679   -24681   -24679   -24654   -24650   -24633   -24572   -24549 
  -24556   -24526   -24502   -24521   -24545   -24545   -24541   -24558 
  -24581   -24569   -24545   -24544   -24512   -24462   -24457   -24426 
  -24364   -24352   -24330   -24289   -24299   -24284   -24217   -24178 
  -24131   -24053   -23997   -23954   -23901   -23852   -23817   -23787 
  -23761   -23746   -23718   -23674   -23647   -23615   -23566   -23527 
  -23484   -23429   -23403   -23424   -23444   -23445   -23468   -23485 
  -23474   -23484   -23513   -23504   -23473   -23457   -23439   -23429 
  -23440   -23444   -23444   -23472   -23504   -23495   -23495   -23521 
  -23511   -23495   -23501   -23486   -23480   -23481   -23453   -23427 
  -23413   -23378   -23331   -23313   -23304   -23252   -23210   -23207 
  -23169   -23102   -23064   -23033   -22970   -22899   -22860   -22824 
  -22778   -22771   -22767   -22738   -22739   -22743   -22725   -22725 
  -22722   -22697   -22697   -22733   -22760   -22774   -22805   -22833 
  -22835   -22864   -22916   -22946   -22997   -23081   -23149   -23187 
  -23222   -23262   -23267   -23273   -23308   -23324   -23353   -23408 
  -23440   -23484   -23546   -23583   -23610   -23649   -23681   -23676 
  -23675   -23718   -23740   -23741   -23786   -23822   -23831   -23879 
  -23937   -23994   -24071   -24116   -24140   -24192   -24232   -24243 
  -24265   -24293   -24293   -24297   -24321   -24323   -24323   -24367 
  -24415   -24450   -24502   -24562   -24617   -24669   -24723   -24756 
  -24751   -24753   -24769   -24765   -24774   -24812   -24843   -24854 
  -24862   -24879   -24894   -24909   -24920   -24907   -24890   -24891 
  -24888   -24891   -24910   -24909   -24884   -24884   -24892   -24876 
  -24873   -24868   -24834   -24830   -24829   -24787   -24770   -24773 
  -24737   -24701   -24686   -24664   -24612   -24553   -24537   -24502 
  -24414   -24373   -24349   -24258   -24179   -24131   -24044   -23953 
  -23886   -23792   -23695   -23625   -23542   -23459   -23395   -23328 
  -23258   -23197   -23142   -23081   -23029   -23003   -22974   -22933 
  -22918   -22915   -22903   -22914   -22942   -22945   -22961   -23018 
  -23060   -23078   -23109   -23110   -23088   -23093   -23108   -23124 
  -23164   -23213   -23252   -23299   -23369   -23432   -23449   -23460 
  -23487   -23480   -23457   -23449   -23431   -23418   -23423   -23427 
  -23446   -23486   -23520   -23536   -23553   -23576   -23579   -23570 
  -23573   -23575   -23580   -23617   -23663   -23703   -23754   -23804 
  -23835   -23852   -23878   -23902   -23907   -23926   -23952   -23976 
  -24032   -24090   -24114   -24138   -24164   -24170   -24176   -24203 
  -24232   -24267   -24310   -24338   -24379   -24449   -24507   -24540 
  -24577   -24618   -24623   -24602   -24595   -24590   -24567   -24558 
  -24576   -24590   -24601   -24619   -24622   -24609   -24612   -24617 
  -24608   -24601   -24598   -24593   -24608   -24652   -24690   -24720 
  -24768   -24804   -24831   -24880   -24921   -24947   -24984   -25030 
  -25086   -25153   -25219   -25287   -25349   -25425   -25524   -25594 
  -25637   -25694   -25735   -25758   -25804   -25843   -25863   -25907 
  -25941   -25946   -25968   -25973   -25926   -25878   -25828   -25758 
  -25707   -25665   -25603   -25563   -25558   -25533   -25497   -25469 
  -25410   -25327   -25259   -25189   -25109   -25050   -25025   -24991 
  -24935   -24910   -24893   -24846   -24800   -24755   -24696   -24653 
  -24627   -24595   -24568   -24546   -24496   -24442   -24419   -24381 
  -24320   -24272   -24233   -24181   -24122   -24080   -24038   -23985 
  -23954   -23915   -23851   -23805   -23762   -23710   -23678   -23661 
  -23643   -23617   -23584   -23548   -23520   -23498   -23463   -23440 
  -23438   -23430   -23423   -23427   -23439   -23455   -23469   -23501 
  -23542   -23575   -23619   -23664   -23688   -23725   -23775   -23812 
  -23852   -23896   -23915   -23929   -23959   -23986   -24016   -24060 
  -24095   -24117   -24142   -24163   -24163   -24156   -24150   -24124 
  -24095   -24083   -24076   -24078   -24101   -24130   -24161   -24205 
  -24250   -24279   -24291   -24300   -24305   -24299   -24307   -24351 
  -24379   -24379   -24415   -24472   -24497   -24508   -24526   -24531 
  -24517   -24495   -24465   -24434   -24422   -24414   -24395   -24390 
  -24391   -24380   -24372   -24367   -24349   -24325   -24293   -24242 
  -24203   -24186   -24146   -24097   -24071   -24038   -23992   -23965 
  -23950   -23932   -23913   -23893   -23888   -23889   -23864   -23843 
  -23831   -23805   -23785   -23785   -23782   -23782   -23794   -23824 
  -23874   -23920   -23975   -24060   -24137   -24213   -24294   -24355 
  -24418   -24490   -24551   -24618   -24704   -24796   -24881   -24969 
  -25058   -25140   -25200   -25237   -25280   -25314   -25323   -25338 
  -25358   -25368   -25378   -25380   -25373   -25351   -25314   -25273 
  -25218   -25163   -25129   -25092   -25061   -25060   -25060   -25046 
  -25053   -25064   -25065   -25076   -25081   -25074   -25082   -25096 
  -25104   -25128   -25167   -25191   -25216   -25262   -25297   -25322 
  -25359   -25382   -25388   -25384   -25364   -25352   -25355   -25354 
  -25337   -25312   -25296   -25289   -25267   -25243   -25233   -25206 
  -25162   -25142   -25122   -25072   -25026   -24987   -24928   -24870 
  -24812   -24752   -24705   -24663   -24622   -24596   -24572   -24534 
  -24495   -24472   -24440   -24399   -24379   -24353   -24319   -24317 
  -24322   -24310   -24324   -24362   -24369   -24360   -24371   -24364 
  -24328   -24313   -24310   -24288   -24275   -24281   -24271   -24251 
  -24244   -24232   -24208   -24203   -24207   -24192   -24196   -24234 
  -24263   -24279   -24292   -24308   -24326   -24338   -24366   -24392 
  -24402   -24433   -24472   -24500   -24533   -24562   -24571   -24570 
  -24573   -24569   -24545   -24519   -24511   -24507   -24503   -24507 
  -24520   -24528   -24528   -24526   -24522   -24515   -24513   -24511 
  -24503   -24506   -24524   -24538   -24553   -24583   -24617   -24646 
  -24672   -24698   -24731   -24766   -24789   -24809   -24841   -24867 
  -24892   -24939   -24965   -24975   -25017   -25047   -25047   -25048 
  -25032   -25002   -24969   -24932   -24909   -24888   -24855   -24830 
  -24813   -24793   -24769   -24745   -24720   -24692   -24670   -24644 
  -24609   -24585   -24562   -24537   -24543   -24562   -24569   -24611 
  -24684   -24725   -24754   -24812   -24854   -24867   -24894   -24920 
  -24920   -24930   -24964   -24985   -24987   -25010   -25035   -25008 
  -24978   -24972   -24939   -24905   -24902   -24889   -24855   -24829 
  -24811   -24771   -24725   -24712   -24693   -24650   -24619   -24592 
  -24567   -24550   -24518   -24484   -24462   -24431   -24385   -24340 
  -24290   -24230   -24174   -24122   -24077   -24047   -24015   -23975 
  -23947   -23930   -23904   -23883   -23876   -23855   -23827   -23816 
  -23812   -23798   -23761   -23731   -23733   -23738   -23744   -23757 
  -23753   -23748   -23766   -23778   -23775   -23792   -23808   -23800 
  -23807   -23830   -23851   -23881   -23931   -23984   -24019   -24056 
  -24104   -24142   -24165   -24176   -24195   -24227   -24239   -24238 
  -24261   -24289   -24289   -24302   -24336   -24345   -24349   -24360 
  -24357   -24361   -24385   -24406   -24423   -24441   -24462   -24474 
  -24484   -24507   -24521   -24509   -24507   -24519   -24517   -24535 
  -24576   -24580   -24578   -24598   -24584   -24557   -24547   -24504 
  -24442   -24428   -24424   -24392   -24378   -24371   -24343   -24327 
  -24333   -24332   -24307   -24271   -24227   -24172   -24124   -24091 
  -24058   -24033   -24020   -23998   -23978   -23977   -23980   -23983 
  -23989   -23993   -24008   -24042   -24076   -24107   -24144   -24171 
  -24191   -24206   -24209   -24220   -24226   -24210   -24212   -24223 
  -24221   -24245   -24262   -24248   -24244   -24218   -24174   -24157 
  -24140   -24118   -24113   -24123   -24133   -24141   -24165   -24185 
  -24182   -24172   -24168   -24169   -24171   -24183   -24213   -24238 
  -24258   -24277   -24286   -24309   -24343   -24361   -24395   -24449 
  -24475   -24505   -24552   -24582   -24607   -24631   -24628   -24605 
  -24588   -24583   -24585   -24594   -24610   -24624   -24629   -24633 
  -24645   -24656   -24653   -24634   -24603   -24577   -24562   -24528 
  -24489   -24481   -24482   -24478   -24477   -24469   -24449   -24419 
  -24375   -24317   -24276   -24264   -24252   -24230   -24206   -24204 
  -24235   -24255   -24261   -24279   -24284   -24281   -24306   -24343 
  -24366   -24384   -24399   -24425   -24473   -24517   -24549   -24589 
  -24639   -24698   -24758   -24814   -24876   -24925   -24945   -24964 
  -25001   -25029   -25029   -25024   -25031   -25038   -25050   -25070 
  -25084   -25090   -25094   -25101   -25106   -25115   -25151   -25188 
  -25199   -25196   -25197   -25224   -25262   -25289   -25308   -25324 
  -25343   -25356   -25366   -25381   -25379   -25382   -25410   -25435 
  -25465   -25502   -25526   -25553   -25590   -25629   -25676   -25720 
  -25764   -25822   -25887   -25944   -25997   -26053   -26108   -26164 
  -26225   -26275   -26301   -26323   -26366   -26408   -26452   -26507 
  -26547   -26586   -26638   -26677   -26700   -26715   -26735   -26756 
  -26763   -26769   -26777   -26784   -26795   -26808   -26833   -26863 
  -26871   -26878   -26913   -26948   -26968   -27002   -27042   -27076 
  -27124   -27167   -27197   -27238   -27268   -27292   -27334   -27361 
  -27380   -27413   -27440   -27461   -27481   -27497   -27510   -27514 
  -27517   -27540   -27584   -27636   -27676   -27718   -27783   -27832 
  -27847   -27870   -27899   -27911   -27922   -27940   -27958   -27980 
  -28003   -28029   -28058   -28069   -28069   -28081   -28095   -28102 
  -28111   -28122   -28140   -28155   -28149   -28139   -28130   -28107 
  -28071   -28026   -27972   -27923   -27875   -27813   -27765   -27734 
  -27691   -27646   -27605   -27555   -27484   -27406   -27339   -27266 
  -27181   -27113   -27052   -26994   -26962   -26945   -26921   -26892 
  -26862   -26826   -26778   -26722   -26674   -26630   -26584   -26572 
  -26579   -26568   -26568   -26572   -26551   -26530   -26503   -26453 
  -26395   -26341   -26288   -26233   -26187   -26152   -26097   -26023 
  -25966   -25892   -25783   -25695   -25611   -25487   -25371   -25278 
  -25181   -25099   -25026   -24936   -24863   -24814   -24743   -24650 
  -24563   -24461   -24351   -24268   -24190   -24109   -24050   -23994 
  -23932   -23889   -23857   -23800   -23721   -23661   -23611   -23541 
  -23474   -23422   -23363   -23313   -23292   -23274   -23249   -23237 
  -23222   -23185   -23160   -23154   -23140   -23120   -23112   -23113 
  -23123   -23151   -23189   -23212   -23240   -23284   -23316   -23342 
  -23378   -23404   -23418   -23447   -23494   -23538   -23587   -23642 
  -23694   -23747   -23799   -23858   -23912   -23938   -23965   -23993 
  -24014   -24059   -24101   -24129   -24181   -24227   -24248   -24282 
  -24306   -24307   -24320   -24322   -24318   -24346   -24380   -24432 
  -24510   -24563   -24612   -24674   -24711   -24735   -24765   -24792 
  -24824   -24870   -24934   -25009   -25090   -25174   -25252   -25318 
  -25391   -25486   -25571   -25637   -25721   -25799   -25851   -25916 
  -25992   -26053   -26115   -26188   -26266   -26345   -26435   -26527 
  -26598   -26656   -26716   -26771   -26822   -26873   -26916   -26960 
  -27017   -27069   -27128   -27199   -27243   -27283   -27340   -27390 
  -27429   -27463   -27500   -27532   -27549   -27573   -27609   -27634 
  -27660   -27690   -27707   -27731   -27768   -27785   -27796   -27807 
  -27783   -27747   -27722   -27679   -27624   -27567   -27502   -27440 
  -27389   -27351   -27311   -27265   -27221   -27173   -27116   -27058 
  -27004   -26935   -26856   -26785   -26700   -26607   -26530   -26438 
  -26343   -26286   -26227   -26150   -26074   -25973   -25854   -25745 
  -25627   -25506   -25408   -25317   -25209   -25106   -25037   -24964 
  -24864   -24776   -24686   -24575   -24474   -24387   -24295   -24193 
  -24113   -24060   -24014   -23986   -23956   -23907   -23860   -23817 
  -23781   -23760   -23741   -23713   -23678   -23660   -23654   -23638 
  -23616   -23584   -23542   -23513   -23482   -23453   -23424   -23355 
  -23297   -23288   -23262   -23235   -23237   -23209   -23169   -23160 
  -23144   -23124   -23130   -23128   -23107   -23096   -23101   -23108 
  -23104   -23114   -23133   -23129   -23125   -23125   -23131   -23157 
  -23171   -23184   -23224   -23264   -23309   -23365   -23417   -23468 
  -23515   -23545   -23572   -23599   -23621   -23648   -23679   -23708 
  -23749   -23783   -23802   -23845   -23898   -23928   -23965   -24010 
  -24045   -24076   -24101   -24124   -24146   -24157   -24163   -24172 
  -24199   -24237   -24259   -24300   -24360   -24395   -24436   -24489 
  -24509   -24522   -24559   -24581   -24589   -24619   -24649   -24665 
  -24697   -24727   -24728   -24746   -24787   -24793   -24779   -24776 
  -24755   -24727   -24705   -24666   -24634   -24612   -24579   -24540 
  -24512   -24501   -24477   -24440   -24431   -24422   -24387   -24367 
  -24340   -24291   -24274   -24266   -24240   -24254   -24300   -24324 
  -24350   -24410   -24468   -24504   -24550   -24616   -24679   -24751 
  -24842   -24935   -25029   -25139   -25249   -25347   -25465   -25584 
  -25659   -25728   -25802   -25845   -25887   -25959   -26022   -26074 
  -26148   -26223   -26271   -26322   -26381   -26423   -26449   -26469 
  -26487   -26504   -26511   -26514   -26529   -26545   -26544   -26542 
  -26557   -26567   -26555   -26537   -26522   -26499   -26464   -26426 
  -26378   -26330   -26296   -26276   -26274   -26266   -26237   -26204 
  -26172   -26141   -26118   -26096   -26061   -26017   -25978   -25958 
  -25953   -25940   -25931   -25931   -25935   -25955   -25966   -25952 
  -25948   -25955   -25937   -25911   -25896   -25866   -25821   -25795 
  -25778   -25752   -25723   -25684   -25645   -25613   -25576   -25540 
  -25474   -25395   -25345   -25274   -25194   -25142   -25069   -25000 
  -24959   -24898   -24838   -24796   -24748   -24699   -24648   -24609 
  -24577   -24528   -24490   -24469   -24431   -24403   -24402   -24391 
  -24381   -24403   -24418   -24422   -24443   -24456   -24473   -24503 
  -24516   -24549   -24606   -24647   -24710   -24785   -24843   -24913 
  -24964   -24995   -25060   -25116   -25161   -25241   -25306   -25355 
  -25420   -25462   -25488   -25530   -25565   -25592   -25634   -25665 
  -25686   -25729   -25769   -25800   -25842   -25866   -25858   -25854 
  -25854   -25847   -25831   -25817   -25810   -25797   -25781   -25780 
  -25790   -25779   -25744   -25721   -25700   -25665   -25636   -25629 
  -25635   -25639   -25650   -25666   -25673   -25692   -25716   -25721 
  -25730   -25748   -25750   -25745   -25754   -25777   -25811   -25855 
  -25883   -25898   -25930   -25971   -25994   -26005   -26028   -26053 
  -26081   -26128   -26188   -26243   -26300   -26354   -26386   -26415 
  -26450   -26472   -26484   -26491   -26492   -26505   -26523   -26523 
  -26526   -26545   -26549   -26540   -26544   -26557   -26549   -26522 
  -26503   -26473   -26416   -26370   -26339   -26295   -26262   -26249 
  -26216   -26173   -26139   -26090   -26032   -25987   -25936   -25873 
  -25817   -25770   -25731   -25711   -25709   -25708   -25711   -25732 
  -25736   -25728   -25742   -25751   -25741   -25748   -25773   -25803 
  -25852   -25925   -25994   -26052   -26108   -26163   -26217   -26253 
  -26275   -26316   -26355   -26382   -26425   -26474   -26522   -26577 
  -26630   -26678   -26729   -26765   -26789   -26820   -26842   -26854 
  -26875   -26882   -26891   -26917   -26936   -26950   -26956   -26951 
  -26939   -26910   -26883   -26856   -26815   -26780   -26755   -26726 
  -26700   -26669   -26629   -26603   -26581   -26543   -26502   -26457 
  -26404   -26356   -26307   -26261   -26223   -26185   -26146   -26100 
  -26051   -26001   -25939   -25870   -25811   -25756   -25711   -25670 
  -25616   -25563   -25522   -25473   -25414   -25360   -25304   -25222 
  -25148   -25098   -25041   -25000   -24976   -24945   -24919   -24893 
  -24867   -24844   -24804   -24770   -24744   -24702   -24684   -24692 
  -24693   -24711   -24729   -24724   -24736   -24763   -24778   -24792 
  -24815   -24825   -24828   -24854   -24881   -24890   -24914   -24942 
  -24952   -24978   -25012   -25027   -25031   -25022   -24994   -24968 
  -24956   -24938   -24916   -24909   -24899   -24883   -24882   -24884 
  -24867   -24837   -24810   -24783   -24747   -24733   -24729   -24701 
  -24675   -24663   -24639   -24617   -24619   -24615   -24592   -24593 
  -24598   -24581   -24601   -24633   -24615   -24605   -24628   -24626 
  -24620   -24647   -24656   -24635   -24652   -24693   -24700   -24699 
