Origin Time       2011/03/11 14:46:00
Lat.              38.103
Long.             142.860
Depth. (km)       24
Mag.              9.0
Station Code      OSK010
Station Lat.      34.3744
Station Long.     135.2553
Station Height(m) 3
Record Time       2011/03/11 14:50:13
Sampling Freq(Hz) 100Hz
Duration Time(s)  189
Dir.              N-S
Scale Factor      3920(gal)/6182761
Max. Acc. (gal)   3.543
Last Correction   2011/03/11 14:49:58
Memo.             
[...]
  -36193   -36118   -36017   -35912   -35874   -35936   -36053   -36175 
  -36277   -36323   -36284   -36225   -36213   -36214   -36200   -36206 
  -36232   -36238   -36223   -36202   -36159   -36092   -36004   -35880 
  -35746   -35602   -35418   -35238   -35128   -35093   -35078   -35027 
  -34957   -34873   -34795   -34784   -34800   -34768   -34770   -34868 
  -34981   -35060   -35127   -35177   -35212   -35253   -35292   -35318 
  -35378   -35489   -35599   -35707   -35810   -35842   -35788   -35713 
  -35667   -35629   -35561   -35481   -35406   -35325   -35274   -35262 
  -35203   -35074   -34950   -34831   -34697   -34610   -34587   -34606 
  -34653   -34696   -34691   -34649   -34640   -34710   -34794   -34801 
  -34759   -34733   -34694   -34617   -34574   -34611   -34658   -34659 
  -34611   -34497   -34349   -34251   -34208   -34167   -34128   -34109 
  -34103   -34101   -34050   -33931   -33812   -33730   -33682   -33679 
  -33744   -33881   -34039   -34170   -34271   -34340   -34392   -34416 
  -34386   -34391   -34539   -34727   -34824   -34861   -34924   -35019 
  -35078   -35091   -35123   -35163   -35180   -35189   -35197   -35240 
  -35315   -35344   -35301   -35258   -35317   -35431   -35396   -35185 
  -35084   -35280   -35535   -35564   -35462   -35442   -35507   -35538 
  -35485   -35388   -35294   -35243   -35222   -35173   -35113   -35078 
  -35019   -34919   -34865   -34907   -34988   -34990   -34926   -34947 
  -35048   -35114   -35175   -35269   -35355   -35416   -35444   -35454 
  -35489   -35562   -35648   -35711   -35734   -35702   -35637   -35591 
  -35578   -35569   -35554   -35527   -35482   -35449   -35422   -35360 
  -35256   -35134   -35028   -34956   -34906   -34846   -34737   -34587 
  -34437   -34354   -34386   -34431   -34400   -34354   -34301   -34239 
  -34185   -34113   -34076   -34125   -34219   -34335   -34453   -34544 
  -34643   -34780   -34874   -34865   -34843   -34894   -34994   -35115 
  -35240   -35361   -35499   -35636   -35744   -35827   -35918   -36028 
  -36083   -36071   -36086   -36170   -36312   -36468   -36578   -36613 
  -36593   -36591   -36659   -36796   -36953   -37064   -37158   -37277 
  -37388   -37498   -37643   -37775   -37860   -37937   -38025   -38122 
  -38251   -38426   -38592   -38721   -38834   -38926   -38994   -39069 
  -39169   -39239   -39250   -39266   -39325   -39436   -39611   -39766 
  -39828   -39847   -39879   -39909   -39918   -39953   -40037   -40106 
  -40143   -40201   -40266   -40282   -40264   -40273   -40286   -40264 
  -40230   -40218   -40241   -40303   -40366   -40387   -40359   -40288 
  -40193   -40117   -40083   -40064   -40040   -40007   -39963   -39912 
  -39866   -39822   -39771   -39713   -39675   -39676   -39688   -39682 
  -39669   -39689   -39766   -39887   -40001   -40057   -40052   -40042 
  -40083   -40158   -40236   -40320   -40400   -40461   -40504   -40520 
  -40497   -40439   -40352   -40232   -40081   -39934   -39835   -39763 
  -39655   -39495   -39329   -39169   -38986   -38791   -38652   -38589 
  -38520   -38389   -38210   -38016   -37833   -37674   -37525   -37391 
  -37266   -37074   -36813   -36558   -36331   -36122   -35930   -35745 
  -35572   -35428   -35314   -35188   -35044   -34923   -34814   -34683 
  -34552   -34464   -34443   -34467   -34500   -34531   -34559   -34573 
  -34570   -34576   -34591   -34604   -34646   -34731   -34819   -34871 
  -34874   -34840   -34820   -34853   -34859   -34769   -34671   -34648 
  -34642   -34604   -34529   -34388   -34210   -34094   -34038   -33951 
  -33832   -33718   -33606   -33532   -33501   -33418   -33261   -33105 
  -32991   -32906   -32824   -32737   -32655   -32579   -32508   -32431 
  -32347   -32258   -32142   -32019   -31952   -31923   -31884   -31842 
  -31817   -31826   -31865   -31900   -31916   -31924   -31941   -31973 
  -32021   -32094   -32185   -32287   -32416   -32548   -32645   -32748 
  -32876   -32970   -33029   -33112   -33217   -33322   -33432   -33514 
  -33559   -33619   -33694   -33757   -33831   -33873   -33804   -33689 
  -33637   -33647   -33664   -33656   -33628   -33597   -33566   -33534 
  -33508   -33482   -33427   -33348   -33295   -33287   -33301   -33321 
  -33333   -33303   -33224   -33125   -33040   -32999   -32987   -32969 
  -32952   -32973   -33017   -33036   -33049   -33082   -33118   -33168 
  -33224   -33263   -33315   -33389   -33457   -33519   -33590   -33690 
  -33812   -33921   -34041   -34180   -34299   -34429   -34615   -34808 
  -34974   -35145   -35338   -35512   -35636   -35750   -35886   -36016 
  -36124   -36243   -36387   -36550   -36718   -36841   -36912   -36988 
  -37073   -37126   -37142   -37138   -37136   -37176   -37256   -37326 
  -37383   -37455   -37528   -37583   -37630   -37679   -37722   -37763 
  -37836   -37945   -38059   -38173   -38270   -38331   -38397   -38521 
  -38669   -38751   -38774   -38815   -38897   -38996   -39106   -39220 
  -39299   -39322   -39320   -39341   -39374   -39398   -39426   -39439 
  -39454   -39512   -39561   -39563   -39546   -39508   -39427   -39308 
  -39185   -39108   -39080   -39036   -38962   -38909   -38856   -38753 
  -38649   -38565   -38459   -38364   -38311   -38253   -38188   -38135 
  -38066   -37968   -37852   -37739   -37666   -37639   -37599   -37525 
  -37454   -37383   -37303   -37266   -37281   -37280   -37243   -37229 
  -37257   -37283   -37282   -37278   -37289   -37300   -37309   -37346 
  -37397   -37427   -37429   -37402   -37348   -37296   -37264   -37216 
  -37137   -37065   -37012   -36963   -36904   -36833   -36771   -36722 
  -36685   -36673   -36677   -36665   -36640   -36620   -36601   -36599 
  -36603   -36595   -36605   -36624   -36627   -36669   -36764   -36821 
  -36808   -36794   -36804   -36825   -36880   -36970   -37037   -37047 
  -37034   -37024   -37015   -37033   -37099   -37172   -37205   -37218 
  -37244   -37265   -37285   -37333   -37390   -37469   -37589   -37706 
  -37811   -37924   -38015   -38059   -38063   -38035   -37992   -37987 
  -38057   -38125   -38114   -38082   -38084   -38077   -38017   -37931 
  -37865   -37822   -37775   -37699   -37596   -37498   -37416   -37337 
  -37257   -37183   -37100   -36991   -36873   -36771   -36692   -36635 
  -36579   -36505   -36447   -36444   -36477   -36501   -36491   -36473 
  -36443   -36395   -36377   -36406   -36455   -36516   -36587   -36682 
  -36794   -36880   -36904   -36883   -36874   -36872   -36862   -36887 
  -36933   -36920   -36852   -36798   -36781   -36752   -36687   -36624 
  -36570   -36500   -36445   -36423   -36387   -36350   -36341   -36347 
  -36384   -36459   -36528   -36599   -36708   -36815   -36874   -36937 
  -37038   -37162   -37306   -37459   -37609   -37747   -37871   -38006 
  -38147   -38276   -38402   -38531   -38657   -38778   -38887   -38982 
  -39096   -39233   -39317   -39321   -39304   -39318   -39363   -39392 
  -39374   -39321   -39257   -39218   -39224   -39247   -39272   -39326 
  -39396   -39459   -39547   -39643   -39703   -39767   -39888   -40056 
  -40225   -40365   -40475   -40567   -40647   -40713   -40767   -40834 
  -40889   -40885   -40841   -40806   -40786   -40763   -40717   -40651 
  -40583   -40516   -40444   -40357   -40250   -40141   -40053   -39990 
  -39936   -39870   -39794   -39736   -39718   -39737   -39784   -39823 
  -39834   -39838   -39849   -39889   -39954   -40019   -40078   -40113 
  -40138   -40199   -40271   -40298   -40263   -40192   -40111   -40014 
  -39916   -39854   -39788   -39665   -39488   -39292   -39099   -38921 
  -38742   -38504   -38218   -37950   -37709   -37461   -37211   -36969 
  -36716   -36457   -36244   -36088   -35942   -35778   -35613   -35468 
  -35349   -35267   -35193   -35091   -34990   -34933   -34895   -34859 
  -34852   -34855   -34834   -34839   -34901   -34957   -34949   -34888 
  -34822   -34784   -34761   -34744   -34750   -34767   -34753   -34688 
  -34611   -34570   -34550   -34503   -34412   -34326   -34290   -34270 
  -34221   -34158   -34086   -33970   -33814   -33682   -33604   -33549 
  -33473   -33347   -33181   -33033   -32949   -32882   -32783   -32688 
  -32613   -32541   -32505   -32487   -32452   -32442   -32468   -32506 
  -32570   -32639   -32691   -32737   -32799   -32898   -33004   -33072 
  -33132   -33230   -33345   -33430   -33493   -33594   -33723   -33814 
  -33895   -34020   -34145   -34226   -34293   -34371   -34438   -34485 
  -34543   -34637   -34739   -34793   -34789   -34769   -34791   -34872 
  -34960   -35005   -35014   -35021   -35052   -35111   -35197   -35291 
  -35362   -35407   -35462   -35558   -35685   -35792   -35853   -35902 
  -35965   -36039   -36119   -36214   -36315   -36376   -36400   -36439 
  -36509   -36569   -36582   -36608   -36702   -36799   -36862   -36931 
  -37002   -37060   -37123   -37208   -37322   -37435   -37515   -37598 
  -37723   -37862   -38003   -38169   -38350   -38520   -38665   -38783 
  -38922   -39135   -39366   -39524   -39629   -39745   -39887   -40050 
  -40225   -40362   -40430   -40487   -40602   -40736   -40828   -40908 
  -40978   -41015   -41053   -41083   -41063   -41028   -41020   -41040 
  -41071   -41083   -41049   -40995   -40983   -41023   -41055   -41049 
  -41045   -41063   -41078   -41083   -41085   -41067   -41021   -40979 
  -40967   -40972   -40978   -40996   -41014   -41007   -40997   -41034 
  -41109   -41146   -41133   -41141   -41168   -41164   -41158   -41192 
  -41224   -41219   -41194   -41177   -41196   -41235   -41226   -41170 
  -41131   -41120   -41098   -41038   -40953   -40895   -40879   -40862 
  -40802   -40725   -40690   -40695   -40695   -40699   -40726   -40730 
  -40686   -40637   -40610   -40599   -40577   -40527   -40466   -40389 
  -40298   -40231   -40184   -40131   -40084   -40039   -39980   -39917 
  -39856   -39796   -39741   -39691   -39653   -39637   -39631   -39598 
  -39531   -39463   -39433   -39424   -39375   -39287   -39212   -39148 
  -39056   -38934   -38816   -38711   -38604   -38485   -38341   -38173 
  -38012   -37890   -37797   -37677   -37505   -37351   -37256   -37151 
  -37000   -36846   -36704   -36548   -36392   -36259   -36130   -35992 
  -35865   -35762   -35675   -35593   -35492   -35355   -35204   -35049 
  -34875   -34714   -34588   -34457   -34296   -34113   -33930   -33773 
  -33641   -33488   -33284   -33074   -32902   -32760   -32656   -32566 
  -32456   -32369   -32339   -32332   -32319   -32269   -32173   -32105 
  -32118   -32182   -32243   -32257   -32243   -32252   -32267   -32257 
  -32228   -32207   -32209   -32207   -32167   -32135   -32150   -32163 
  -32122   -32044   -31973   -31935   -31925   -31902   -31843   -31798 
  -31806   -31844   -31901   -31977   -32053   -32124   -32193   -32267 
  -32341   -32395   -32456   -32566   -32717   -32878   -33011   -33118 
  -33261   -33456   -33645   -33797   -33940   -34113   -34329   -34547 
  -34725   -34901   -35092   -35271   -35448   -35631   -35792   -35945 
  -36100   -36252   -36404   -36528   -36602   -36660   -36733   -36801 
  -36823   -36797   -36776   -36789   -36801   -36789   -36793   -36803 
  -36788   -36768   -36755   -36727   -36687   -36661   -36671   -36696 
  -36684   -36637   -36602   -36601   -36632   -36680   -36720   -36731 
  -36729   -36754   -36812   -36888   -36967   -37037   -37099   -37199 
  -37370   -37556   -37704   -37828   -37940   -38054   -38202   -38365 
  -38498   -38616   -38730   -38820   -38923   -39069   -39227   -39361 
  -39454   -39529   -39618   -39714   -39817   -39920   -39995   -40066 
  -40163   -40236   -40262   -40281   -40296   -40282   -40259   -40246 
  -40224   -40190   -40172   -40187   -40207   -40187   -40104   -39971 
  -39825   -39711   -39645   -39618   -39597   -39533   -39416   -39273 
  -39117   -38969   -38848   -38751   -38657   -38566   -38484   -38391 
  -38295   -38225   -38166   -38084   -37994   -37939   -37923   -37918 
  -37926   -37947   -37965   -37981   -38006   -38032   -38046   -38057 
  -38072   -38081   -38096   -38121   -38130   -38120   -38105   -38088 
  -38069   -38029   -37960   -37865   -37760   -37669   -37583   -37479 
  -37357   -37229   -37098   -36965   -36827   -36672   -36499   -36331 
  -36206   -36132   -36062   -35968   -35858   -35749   -35665   -35615 
  -35583   -35581   -35594   -35569   -35540   -35563   -35594   -35594 
  -35574   -35540   -35518   -35526   -35533   -35516   -35494   -35460 
  -35392   -35325   -35303   -35297   -35233   -35126   -35062   -35036 
  -34991   -34920   -34825   -34727   -34664   -34609   -34535   -34447 
  -34331   -34218   -34149   -34088   -33988   -33879   -33803   -33739 
  -33661   -33580   -33512   -33460   -33415   -33372   -33340   -33348 
  -33378   -33387   -33383   -33396   -33403   -33396   -33409   -33450 
  -33499   -33555   -33607   -33659   -33743   -33843   -33927   -34019 
  -34130   -34243   -34383   -34550   -34681   -34788   -34947   -35146 
  -35325   -35485   -35654   -35840   -36039   -36242   -36422   -36584 
  -36778   -36984   -37151   -37311   -37480   -37622   -37759   -37927 
  -38084   -38199   -38307   -38421   -38527   -38618   -38698   -38780 
  -38867   -38934   -38963   -38981   -39020   -39077   -39126   -39157 
  -39184   -39238   -39328   -39411   -39472   -39540   -39605   -39674 
  -39786   -39916   -40013   -40103   -40231   -40373   -40504   -40622 
  -40731   -40847   -40964   -41069   -41164   -41262   -41366   -41463 
  -41563   -41670   -41751   -41801   -41866   -41960   -42029   -42046 
  -42043   -42052   -42062   -42055   -42029   -41978   -41916   -41881 
  -41834   -41705   -41523   -41348   -41188   -41054   -40939   -40789 
  -40585   -40388   -40241   -40098   -39930   -39754   -39577   -39398 
  -39245   -39122   -38993   -38831   -38645   -38488   -38387   -38305 
  -38193   -38065   -37968   -37918   -37886   -37857   -37841   -37824 
  -37799   -37819   -37895   -37974   -38029   -38051   -38052   -38078 
  -38159   -38256   -38332   -38386   -38437   -38492   -38558   -38631 
  -38664   -38645   -38642   -38673   -38698   -38699   -38695   -38696 
  -38686   -38677   -38661   -38589   -38483   -38402   -38316   -38197 
  -38066   -37957   -37889   -37822   -37688   -37506   -37340   -37216 
  -37111   -36961   -36770   -36631   -36565   -36522   -36463   -36374 
  -36270   -36162   -36056   -35967   -35911   -35892   -35893   -35891 
  -35888   -35888   -35880   -35876   -35883   -35890   -35890   -35884 
  -35887   -35892   -35888   -35891   -35910   -35926   -35918   -35884 
  -35842   -35791   -35725   -35669   -35624   -35554   -35452   -35359 
  -35300   -35243   -35149   -35042   -34974   -34949   -34916   -34857 
  -34815   -34799   -34767   -34723   -34705   -34698   -34666   -34638 
  -34663   -34708   -34737   -34773   -34796   -34785   -34791   -34811 
  -34798   -34791   -34821   -34843   -34826   -34804   -34804   -34820 
  -34837   -34833   -34817   -34822   -34823   -34790   -34757   -34727 
  -34664   -34605   -34604   -34603   -34566   -34557   -34572   -34553 
  -34518   -34500   -34465   -34424   -34403   -34371   -34323   -34316 
  -34367   -34443   -34510   -34540   -34525   -34516   -34549   -34587 
  -34589   -34567   -34561   -34604   -34689   -34774   -34848   -34930 
  -35009   -35077   -35152   -35240   -35342   -35467   -35604   -35750 
  -35908   -36054   -36170   -36276   -36392   -36488   -36561   -36652 
  -36724   -36733   -36766   -36871   -36957   -36997   -37018   -36974 
  -36872   -36817   -36846   -36892   -36904   -36877   -36822   -36799 
  -36843   -36891   -36887   -36866   -36857   -36849   -36847   -36870 
  -36917   -36941   -36948   -36992   -37051   -37096   -37143   -37191 
  -37249   -37311   -37355   -37412   -37481   -37512   -37536   -37614 
  -37718   -37793   -37828   -37847   -37882   -37936   -37990   -38036 
  -38052   -38035   -38025   -38039   -38063   -38083   -38076   -38051 
  -38045   -38058   -38077   -38105   -38106   -38053   -37998   -37983 
  -37976   -37949   -37885   -37791   -37716   -37670   -37600   -37501 
  -37401   -37284   -37125   -36964   -36841   -36712   -36513   -36279 
  -36085   -35945   -35813   -35623   -35383   -35174   -35003   -34834 
  -34687   -34543   -34356   -34154   -33996   -33888   -33798   -33697 
  -33566   -33438   -33343   -33235   -33106   -32991   -32897   -32818 
  -32744   -32676   -32615   -32559   -32512   -32480   -32468   -32479 
  -32501   -32521   -32563   -32639   -32682   -32683   -32717   -32790 
  -32866   -32924   -32954   -32979   -33038   -33123   -33204   -33286 
  -33363   -33420   -33499   -33611   -33692   -33743   -33849   -33987 
  -34086   -34176   -34277   -34370   -34481   -34595   -34669   -34749 
  -34883   -35019   -35138   -35258   -35354   -35434   -35545   -35675 
  -35784   -35906   -36049   -36155   -36235   -36348   -36481   -36598 
  -36710   -36792   -36838   -36913   -37021   -37107   -37179   -37267 
  -37340   -37399   -37483   -37564   -37601   -37607   -37609   -37607 
  -37617   -37654   -37685   -37696   -37688   -37665   -37661   -37680 
  -37673   -37616   -37555   -37523   -37499   -37473   -37455   -37453 
  -37444   -37417   -37412   -37440   -37476   -37499   -37506   -37508 
  -37494   -37474   -37489   -37525   -37533   -37525   -37545   -37582 
  -37621   -37665   -37697   -37709   -37722   -37744   -37752   -37747 
  -37772   -37830   -37884   -37928   -37980   -38023   -38067   -38136 
  -38199   -38219   -38206   -38202   -38239   -38318   -38388   -38405 
  -38409   -38447   -38500   -38529   -38520   -38516   -38536   -38542 
  -38543   -38584   -38622   -38609   -38616   -38683   -38738   -38750 
  -38766   -38800   -38832   -38879   -38943   -38988   -39021   -39064 
  -39104   -39136   -39168   -39184   -39169   -39163   -39197   -39226 
  -39204   -39157   -39139   -39161   -39192   -39195   -39156   -39102 
  -39061   -39038   -39011   -38953   -38877   -38808   -38753   -38708 
  -38650   -38578   -38510   -38445   -38362   -38255   -38153   -38079 
  -38010   -37925   -37849   -37785   -37712   -37649   -37597   -37521 
  -37439   -37383   -37352   -37328   -37290   -37237   -37209   -37227 
  -37235   -37182   -37096   -37048   -37023   -36984   -36969   -36955 
  -36879   -36787   -36727   -36675   -36603   -36513   -36411   -36318 
  -36248   -36177   -36096   -36026   -35958   -35860   -35732   -35621 
  -35543   -35472   -35391   -35306   -35221   -35157   -35110   -35050 
  -34987   -34928   -34863   -34817   -34799   -34774   -34742   -34737 
  -34751   -34762   -34789   -34829   -34850   -34835   -34808   -34827 
  -34905   -34977   -35000   -35010   -35025   -35039   -35056   -35042 
  -34967   -34877   -34817   -34795   -34773   -34713   -34634   -34553 
  -34485   -34443   -34382   -34284   -34188   -34099   -34018   -33972 
  -33933   -33880   -33831   -33771   -33716   -33713   -33721   -33676 
  -33610   -33564   -33546   -33554   -33546   -33500   -33476   -33513 
  -33552   -33554   -33570   -33629   -33672   -33688   -33717   -33734 
  -33735   -33766   -33821   -33864   -33901   -33945   -34018   -34136 
  -34253   -34326   -34397   -34501   -34604   -34707   -34846   -35000 
  -35153   -35325   -35509   -35694   -35882   -36060   -36206   -36339 
  -36494   -36654   -36786   -36913   -37060   -37213   -37363   -37503 
  -37608   -37694   -37803   -37926   -38034   -38128   -38204   -38271 
