Origin Time       2011/03/11 14:46:00
Lat.              38.103
Long.             142.860
Depth. (km)       24
Mag.              9.0
Station Code      OSK001
Station Lat.      34.9707
Station Long.     135.3900
Station Height(m) 224
Record Time       2011/03/11 14:50:50
Sampling Freq(Hz) 100Hz
Duration Time(s)  60
Dir.              N-S
Scale Factor      3920(gal)/6182761
Max. Acc. (gal)   1.816
Last Correction   2011/03/11 14:50:35
Memo.             
[...]
  -67462   -67500   -67552   -67616   -67716   -67842   -67952   -68029 
  -68044   -67964   -67861   -67828   -67869   -67943   -67985   -67939 
  -67785   -67560   -67342   -67195   -67177   -67308   -67478   -67540 
  -67486   -67360   -67175   -66998   -66920   -66983   -67168   -67388 
  -67567   -67686   -67790   -67879   -67881   -67808   -67720   -67649 
  -67645   -67750   -67899   -67986   -67998   -67945   -67812   -67636 
  -67506   -67477   -67549   -67706   -67882   -67974   -67938   -67800 
  -67583   -67303   -67051   -66904   -66841   -66841   -66842   -66762 
  -66631   -66489   -66320   -66208   -66230   -66301   -66356   -66433 
  -66574   -66756   -66874   -66904   -66901   -66895   -66891   -66891 
  -66916   -66984   -67074   -67145   -67149   -67074   -66958   -66837 
  -66731   -66674   -66674   -66700   -66776   -66930   -67138   -67364 
  -67564   -67711   -67811   -67898   -67984   -68031   -68027   -67988 
  -67906   -67787   -67688   -67588   -67400   -67164   -66962   -66834 
  -66816   -66890   -66963   -66967   -66925   -66880   -66855   -66879 
  -66960   -67064   -67140   -67184   -67174   -67086   -67002   -66961 
  -66940   -66957   -66976   -66910   -66808   -66757   -66687   -66579 
  -66531   -66560   -66637   -66731   -66804   -66844   -66824   -66726 
  -66589   -66472   -66408   -66380   -66301   -66102   -65829   -65525 
  -65219   -64997   -64908   -64912   -64976   -65091   -65168   -65148 
  -65110   -65134   -65220   -65360   -65547   -65728   -65864   -65940 
  -65908   -65803   -65741   -65787   -65927   -66120   -66356   -66589 
  -66739   -66797   -66807   -66822   -66902   -67057   -67216   -67334 
  -67421   -67468   -67469   -67470   -67489   -67502   -67508   -67529 
  -67519   -67421   -67228   -66977   -66733   -66558   -66451   -66353 
  -66252   -66212   -66258   -66335   -66391   -66443   -66487   -66524 
  -66582   -66603   -66546   -66440   -66313   -66230   -66231   -66289 
  -66373   -66438   -66454   -66461   -66487   -66509   -66504   -66468 
  -66451   -66480   -66514   -66534   -66521   -66443   -66329   -66271 
  -66298   -66333   -66334   -66330   -66314   -66248   -66113   -65922 
  -65714   -65586   -65567   -65587   -65624   -65669   -65719   -65814 
  -65940   -66055   -66154   -66217   -66235   -66260   -66334   -66479 
  -66687   -66884   -67023   -67097   -67119   -67156   -67233   -67323 
  -67411   -67467   -67475   -67466   -67430   -67338   -67207   -67026 
  -66831   -66673   -66492   -66327   -66277   -66304   -66340   -66395 
  -66482   -66596   -66731   -66851   -66931   -67018   -67165   -67296 
  -67329   -67364   -67435   -67446   -67398   -67359   -67362   -67392 
  -67438   -67505   -67536   -67521   -67500   -67444   -67386   -67382 
  -67397   -67479   -67680   -67859   -67932   -67963   -67970   -67946 
  -67876   -67750   -67601   -67421   -67196   -66924   -66631   -66419 
  -66323   -66271   -66248   -66300   -66412   -66522   -66570   -66577 
  -66628   -66707   -66799   -66939   -67081   -67198   -67329   -67472 
  -67602   -67675   -67666   -67660   -67727   -67768   -67726   -67678 
  -67686   -67729   -67767   -67820   -67878   -67880   -67859   -67872 
  -67932   -68030   -68108   -68094   -68005   -67905   -67807   -67716 
  -67634   -67548   -67465   -67387   -67283   -67106   -66879   -66692 
  -66530   -66337   -66132   -65988   -65951   -65980   -65969   -65903 
  -65864   -65858   -65883   -65919   -65914   -66004   -66168   -66188 
  -66186   -66288   -66382   -66467   -66578   -66672   -66772   -66873 
  -66898   -66900   -66921   -66895   -66831   -66769   -66718   -66667 
  -66596   -66578   -66644   -66639   -66479   -66282   -66087   -65897 
  -65811   -65762   -65659   -65610   -65553   -65412   -65394   -65458 
  -65416   -65364   -65335   -65279   -65208   -65126   -65097   -65138 
  -65214   -65318   -65397   -65481   -65634   -65776   -65838   -65925 
  -66117   -66309   -66417   -66470   -66522   -66599   -66655   -66657 
  -66617   -66600   -66633   -66617   -66601   -66669   -66708   -66685 
  -66668   -66665   -66647   -66611   -66609   -66660   -66692   -66703 
  -66744   -66781   -66796   -66817   -66851   -66892   -66914   -66896 
  -66856   -66845   -66874   -66892   -66876   -66853   -66853   -66876 
  -66937   -67062   -67234   -67426   -67607   -67729   -67786   -67826 
  -67878   -67905   -67915   -67950   -67996   -68040   -68082   -68082 
  -68013   -67923   -67839   -67768   -67733   -67716   -67697   -67669 
  -67616   -67531   -67415   -67306   -67227   -67166   -67137   -67151 
  -67181   -67191   -67150   -67047   -66943   -66907   -66901   -66868 
  -66821   -66849   -66962   -67000   -66973   -67021   -67090   -67135 
  -67250   -67414   -67540   -67626   -67663   -67701   -67761   -67740 
  -67670   -67643   -67629   -67626   -67613   -67519   -67416   -67349 
  -67235   -67137   -67092   -67029   -67013   -67028   -66978   -66892 
  -66823   -66796   -66787   -66762   -66762   -66789   -66812   -66810 
  -66750   -66675   -66654   -66663   -66684   -66716   -66710   -66671 
  -66628   -66548   -66428   -66352   -66329   -66279   -66240   -66257 
  -66262   -66261   -66263   -66242   -66246   -66323   -66427   -66509 
  -66592   -66659   -66753   -66889   -66989   -67105   -67229   -67294 
  -67354   -67402   -67403   -67402   -67386   -67308   -67227   -67201 
  -67191   -67145   -67035   -66893   -66769   -66695   -66648   -66531 
  -66404   -66413   -66436   -66383   -66437   -66595   -66656   -66620 
  -66580   -66613   -66729   -66809   -66821   -66842   -66925   -66993 
  -66996   -67071   -67194   -67249   -67286   -67299   -67311   -67339 
  -67290   -67210   -67143   -67018   -66831   -66642   -66475   -66313 
  -66152   -66004   -65840   -65644   -65443   -65244   -65094   -65041 
  -64990   -64908   -64898   -64957   -65023   -65116   -65232   -65367 
  -65525   -65648   -65750   -65914   -66108   -66297   -66489   -66663 
  -66826   -66991   -67155   -67287   -67378   -67460   -67517   -67518 
  -67470   -67399   -67312   -67211   -67104   -66992   -66865   -66695 
  -66519   -66365   -66196   -66030   -65879   -65713   -65553   -65429 
  -65323   -65195   -65067   -64972   -64894   -64848   -64840   -64851 
  -64877   -64924   -64966   -65003   -65070   -65144   -65215   -65302 
  -65395   -65509   -65634   -65732   -65831   -65947   -66038   -66147 
  -66309   -66434   -66532   -66650   -66749   -66831   -66900   -66939 
  -66962   -66995   -67018   -66989   -66948   -66930   -66907   -66861 
  -66814   -66770   -66689   -66579   -66450   -66293   -66148   -66015 
  -65863   -65705   -65588   -65515   -65471   -65474   -65495   -65519 
  -65588   -65702   -65848   -66018   -66192   -66347   -66496   -66684 
  -66901   -67113   -67312   -67516   -67717   -67900   -68068   -68217 
  -68333   -68406   -68469   -68529   -68541   -68508   -68454   -68406 
  -68351   -68260   -68201   -68178   -68132   -68083   -68016   -67910 
  -67818   -67746   -67655   -67560   -67471   -67392   -67334   -67245 
  -67102   -66968   -66894   -66849   -66801   -66789   -66809   -66813 
  -66806   -66807   -66815   -66851   -66929   -67009   -67110   -67267 
  -67433   -67572   -67690   -67798   -67890   -67972   -68066   -68138 
  -68181   -68226   -68265   -68261   -68203   -68125   -68025   -67907 
  -67828   -67767   -67686   -67601   -67505   -67374   -67248   -67163 
  -67113   -67077   -67038   -67021   -67039   -67056   -67073   -67100 
  -67146   -67208   -67270   -67323   -67366   -67432   -67516   -67589 
  -67659   -67732   -67817   -67921   -68018   -68077   -68128   -68211 
  -68269   -68289   -68319   -68358   -68364   -68326   -68276   -68204 
  -68114   -68022   -67898   -67749   -67605   -67464   -67335   -67229 
  -67138   -67062   -66999   -66935   -66892   -66867   -66844   -66859 
  -66900   -66932   -66949   -66956   -66964   -66970   -66984   -66993 
  -67000   -67025   -67021   -66983   -67000   -67110   -67206   -67215 
  -67222   -67274   -67327   -67336   -67285   -67233   -67215   -67192 
  -67174   -67212   -67271   -67306   -67315   -67283   -67243   -67206 
  -67165   -67141   -67097   -67040   -67022   -66995   -66881   -66730 
  -66617   -66516   -66443   -66399   -66344   -66329   -66342   -66328 
  -66345   -66416   -66478   -66562   -66714   -66871   -67029   -67198 
  -67341   -67451   -67508   -67554   -67610   -67642   -67672   -67711 
  -67759   -67820   -67884   -67929   -67960   -67993   -68017   -68048 
  -68098   -68187   -68308   -68392   -68429   -68458   -68470   -68442 
  -68392   -68341   -68271   -68184   -68068   -67895   -67686   -67465 
  -67235   -67000   -66807   -66668   -66530   -66392   -66278   -66197 
  -66154   -66146   -66137   -66107   -66099   -66102   -66084   -66053 
  -66017   -65986   -65947   -65910   -65881   -65846   -65825   -65816 
  -65796   -65796   -65834   -65878   -65932   -66010   -66073   -66134 
  -66223   -66324   -66404   -66460   -66529   -66599   -66643   -66663 
  -66643   -66608   -66568   -66499   -66416   -66342   -66283   -66225 
  -66147   -66047   -65968   -65919   -65872   -65846   -65824   -65804 
  -65855   -65971   -66046   -66045   -66053   -66067   -66049   -66053 
  -66074   -66101   -66154   -66189   -66198   -66235   -66283   -66302 
  -66344   -66423   -66489   -66541   -66590   -66645   -66687   -66715 
  -66766   -66829   -66893   -66968   -67061   -67159   -67242   -67329 
  -67436   -67546   -67634   -67707   -67773   -67828   -67887   -67912 
  -67892   -67892   -67919   -67934   -67927   -67930   -67948   -67977 
  -68017   -68052   -68090   -68120   -68139   -68141   -68125   -68133 
  -68147   -68136   -68128   -68143   -68160   -68157   -68146   -68105 
  -68027   -67946   -67845   -67705   -67566   -67455   -67338   -67224 
  -67154   -67114   -67103   -67100   -67061   -67031   -67062   -67123 
  -67187   -67287   -67401   -67479   -67510   -67508   -67496   -67478 
  -67481   -67502   -67507   -67501   -67470   -67414   -67353   -67269 
  -67157   -67035   -66933   -66830   -66700   -66577   -66489   -66435 
  -66385   -66334   -66298   -66289   -66284   -66237   -66177   -66151 
  -66158   -66151   -66095   -66026   -66004   -66033   -66046   -66060 
  -66123   -66150   -66146   -66163   -66154   -66134   -66142   -66166 
  -66201   -66243   -66273   -66290   -66321   -66356   -66376   -66400 
  -66454   -66506   -66549   -66651   -66790   -66883   -66938   -66985 
  -67024   -67060   -67069   -67044   -67046   -67040   -66993   -66976 
  -66937   -66845   -66798   -66747   -66626   -66489   -66355   -66234 
  -66114   -65943   -65742   -65566   -65406   -65234   -65050   -64914 
  -64863   -64794   -64648   -64541   -64588   -64710   -64756   -64754 
  -64804   -64913   -65070   -65215   -65335   -65553   -65809   -65970 
  -66152   -66376   -66542   -66740   -66949   -67047   -67152   -67300 
  -67385   -67449   -67510   -67510   -67471   -67446   -67429   -67402 
  -67400   -67426   -67422   -67400   -67422   -67458   -67469   -67471 
  -67435   -67361   -67299   -67262   -67210   -67147   -67105   -67054 
  -66994   -66951   -66903   -66849   -66854   -66959   -67048   -67042 
  -67039   -67094   -67147   -67173   -67176   -67149   -67146   -67132 
  -67067   -67073   -67109   -67096   -67113   -67120   -67104   -67151 
  -67232   -67321   -67443   -67547   -67619   -67710   -67781   -67831 
  -67896   -67943   -67967   -68006   -68056   -68093   -68128   -68160 
  -68170   -68179   -68187   -68179   -68167   -68179   -68227   -68276 
  -68330   -68410   -68486   -68532   -68553   -68574   -68581   -68570 
  -68571   -68567   -68530   -68458   -68360   -68248   -68160   -68116 
  -68073   -68038   -68029   -68021   -68025   -68038   -68038   -68027 
  -68033   -68060   -68069   -68041   -68012   -68006   -67968   -67884 
  -67806   -67735   -67681   -67652   -67632   -67614   -67588   -67570 
  -67557   -67518   -67479   -67476   -67491   -67514   -67550   -67564 
  -67577   -67621   -67650   -67676   -67753   -67855   -67940   -68037 
  -68147   -68207   -68261   -68376   -68500   -68577   -68640   -68729 
  -68823   -68889   -68928   -68980   -69023   -68974   -68902   -68875 
  -68823   -68747   -68671   -68552   -68407   -68288   -68162   -68010 
  -67869   -67731   -67588   -67443   -67300   -67167   -67039   -66923 
  -66820   -66740   -66700   -66672   -66661   -66679   -66693   -66713 
  -66772   -66845   -66897   -66944   -66979   -66985   -66970   -66938 
  -66904   -66886   -66897   -66876   -66813   -66844   -66960   -67016 
  -67019   -67069   -67153   -67218   -67274   -67287   -67288   -67376 
  -67488   -67559   -67642   -67717   -67757   -67789   -67783   -67755 
  -67770   -67799   -67810   -67799   -67793   -67826   -67851   -67873 
  -67924   -67994   -68076   -68146   -68193   -68233   -68264   -68253 
  -68198   -68144   -68083   -68021   -67989   -67957   -67898   -67831 
  -67777   -67710   -67654   -67642   -67639   -67665   -67721   -67750 
  -67794   -67881   -67946   -68005   -68096   -68170   -68265   -68445 
  -68611   -68680   -68747   -68904   -69047   -69115   -69206   -69307 
  -69377   -69445   -69483   -69472   -69448   -69411   -69316   -69194 
  -69089   -68986   -68889   -68801   -68722   -68660   -68613   -68585 
  -68560   -68561   -68601   -68629   -68644   -68692   -68784   -68867 
  -68907   -68912   -68908   -68915   -68934   -68979   -69041   -69088 
  -69144   -69236   -69327   -69407   -69518   -69613   -69683   -69788 
  -69886   -69956   -70039   -70107   -70131   -70149   -70186   -70193 
  -70146   -70086   -70030   -69953   -69849   -69735   -69609   -69494 
  -69363   -69193   -69053   -68940   -68838   -68765   -68694   -68628 
  -68597   -68593   -68594   -68591   -68582   -68570   -68562   -68540 
  -68508   -68486   -68459   -68423   -68383   -68336   -68294   -68283 
  -68277   -68242   -68218   -68196   -68171   -68167   -68177   -68203 
  -68247   -68307   -68369   -68425   -68461   -68479   -68507   -68517 
  -68526   -68575   -68594   -68592   -68626   -68653   -68645   -68632 
  -68624   -68609   -68606   -68618   -68607   -68578   -68569   -68560 
  -68514   -68468   -68427   -68362   -68307   -68268   -68210   -68121 
  -68043   -67973   -67864   -67750   -67646   -67523   -67404   -67286 
  -67151   -67039   -66963   -66864   -66746   -66672   -66656   -66658 
  -66627   -66602   -66625   -66668   -66706   -66732   -66759   -66808 
  -66881   -66952   -67030   -67157   -67309   -67459   -67601   -67708 
  -67774   -67808   -67832   -67866   -67909   -67942   -67942   -67922 
  -67905   -67897   -67870   -67809   -67748   -67691   -67629   -67585 
  -67573   -67544   -67474   -67408   -67348   -67286   -67250   -67229 
  -67211   -67216   -67237   -67222   -67198   -67212   -67227   -67238 
  -67284   -67372   -67473   -67558   -67645   -67727   -67795   -67870 
  -67932   -67960   -67999   -68078   -68147   -68208   -68284   -68351 
  -68414   -68465   -68489   -68481   -68436   -68375   -68289   -68170 
  -68053   -67955   -67858   -67749   -67645   -67540   -67440   -67372 
  -67327   -67282   -67240   -67228   -67223   -67190   -67140   -67088 
  -67049   -67025   -67013   -67010   -67017   -67055   -67102   -67176 
  -67321   -67492   -67633   -67772   -67944   -68125   -68301   -68459 
  -68565   -68638   -68718   -68789   -68806   -68770   -68710   -68619 
  -68494   -68333   -68157   -67998   -67834   -67636   -67418   -67216 
  -67025   -66827   -66648   -66507   -66410   -66353   -66328   -66328 
  -66352   -66405   -66462   -66508   -66551   -66605   -66681   -66761 
  -66861   -66996   -67134   -67290   -67502   -67741   -67958   -68193 
  -68456   -68686   -68878   -69061   -69234   -69372   -69486   -69593 
  -69660   -69704   -69741   -69734   -69684   -69626   -69544   -69407 
  -69246   -69092   -68946   -68807   -68669   -68522   -68366   -68204 
  -68019   -67844   -67769   -67740   -67633   -67512   -67488   -67485 
  -67453   -67452   -67436   -67401   -67397   -67381   -67396   -67471 
  -67554   -67664   -67796   -67925   -68068   -68234   -68408   -68561 
  -68682   -68782   -68852   -68887   -68885   -68839   -68776   -68720 
  -68655   -68598   -68547   -68472   -68404   -68371   -68334   -68274 
  -68246   -68248   -68239   -68259   -68307   -68333   -68342   -68353 
  -68343   -68313   -68318   -68339   -68335   -68346   -68388   -68432 
  -68458   -68470   -68483   -68532   -68638   -68752   -68838   -68943 
  -69090   -69225   -69325   -69427   -69514   -69580   -69643   -69688 
  -69714   -69719   -69703   -69661   -69587   -69499   -69400   -69298 
  -69181   -69039   -68887   -68732   -68588   -68459   -68335   -68226 
  -68171   -68128   -67993   -67835   -67744   -67628   -67480   -67403 
  -67331   -67234   -67200   -67157   -67104   -67140   -67176   -67205 
  -67279   -67344   -67424   -67562   -67703   -67801   -67899   -68030 
  -68116   -68128   -68156   -68203   -68204   -68204   -68225   -68223 
  -68209   -68202   -68208   -68217   -68231   -68246   -68222   -68175 
  -68140   -68102   -68051   -68017   -67987   -67935   -67890   -67844 
  -67778   -67734   -67715   -67720   -67760   -67822   -67898   -67983 
  -68070   -68156   -68254   -68372   -68508   -68655   -68800   -68936 
  -69045   -69128   -69201   -69253   -69301   -69341   -69353   -69361 
  -69346   -69289   -69251   -69227   -69153   -69087   -69053   -68994 
  -68953   -68951   -68922   -68877   -68860   -68842   -68796   -68756 
  -68731   -68699   -68676   -68681   -68697   -68695   -68661   -68607 
  -68574   -68596   -68637   -68668   -68698   -68730   -68754   -68767 
  -68787   -68809   -68833   -68873   -68895   -68874   -68843   -68818 
  -68778   -68723   -68671   -68619   -68586   -68556   -68516   -68489 
  -68468   -68459   -68482   -68525   -68575   -68651   -68755   -68848 
  -68921   -68979   -69024   -69078   -69148   -69195   -69207   -69241 
  -69289   -69275   -69208   -69168   -69206   -69271   -69290   -69282 
  -69282   -69296   -69309   -69303   -69302   -69315   -69285   -69185 
  -69083   -68979   -68859   -68774   -68678   -68539   -68443   -68387 
  -68296   -68212   -68179   -68137   -68080   -68054   -68046   -68043 
  -68069   -68119   -68142   -68130   -68113   -68098   -68078   -68046 
  -68010   -67974   -67927   -67872   -67809   -67749   -67713   -67701 
  -67671   -67613   -67584   -67591   -67588   -67570   -67568   -67584 
  -67592   -67611   -67628   -67632   -67660   -67682   -67665   -67655 
  -67665   -67655   -67622   -67604   -67622   -67681   -67756   -67819 
  -67877   -67950   -68015   -68035   -68058   -68115   -68157   -68194 
  -68250   -68281   -68283   -68288   -68281   -68250   -68239   -68265 
  -68302   -68338   -68388   -68451   -68504   -68549   -68585   -68621 
  -68687   -68772   -68853   -68927   -68996   -69056   -69102   -69131 
  -69150   -69167   -69169   -69160   -69153   -69131   -69098   -69079 
  -69072   -69038   -68980   -68955   -68931   -68880   -68849   -68822 
  -68765   -68717   -68673   -68602   -68551   -68525   -68472   -68402 
  -68339   -68274   -68199   -68137   -68084   -68017   -67956   -67894 
  -67797   -67679   -67572   -67480   -67392   -67309   -67226   -67139 
  -67078   -67040   -66990   -66935   -66900   -66860   -66805   -66765 
  -66724   -66687   -66704   -66752   -66783   -66817   -66873   -66914 
