Origin Time       2011/03/11 14:46:00
Lat.              38.103
Long.             142.860
Depth. (km)       24
Mag.              9.0
Station Code      OSK003
Station Lat.      34.7668
Station Long.     135.4684
Station Height(m) 4
Record Time       2011/03/11 14:50:04
Sampling Freq(Hz) 100Hz
Duration Time(s)  206
Dir.              E-W
Scale Factor      3920(gal)/6182761
Max. Acc. (gal)   5.851
Last Correction   2011/03/11 14:49:49
Memo.             
[...]
  -36059   -36065   -36057   -36028   -36000   -35963   -35866   -35754 
  -35650   -35530   -35388   -35249   -35151   -35050   -34911   -34757 
  -34601   -34427   -34250   -34090   -33907   -33745   -33628   -33526 
  -33429   -33285   -33172   -33131   -33053   -32981   -32914   -32849 
  -32851   -32806   -32744   -32745   -32712   -32698   -32737   -32763 
  -32778   -32789   -32846   -32947   -33015   -33057   -33143   -33282 
  -33437   -33609   -33761   -33890   -34037   -34172   -34309   -34471 
  -34608   -34758   -34943   -35093   -35218   -35377   -35549   -35698 
  -35806   -35867   -35918   -35994   -36083   -36153   -36212   -36294 
  -36353   -36377   -36393   -36365   -36338   -36352   -36354   -36356 
  -36354   -36314   -36301   -36321   -36293   -36259   -36283   -36304 
  -36299   -36295   -36294   -36325   -36364   -36387   -36422   -36443 
  -36435   -36461   -36550   -36634   -36673   -36725   -36807   -36869 
  -36918   -36964   -37023   -37119   -37207   -37279   -37358   -37421 
  -37460   -37476   -37466   -37456   -37440   -37362   -37244   -37119 
  -36947   -36744   -36548   -36350   -36156   -35957   -35746   -35537 
  -35327   -35122   -34929   -34746   -34574   -34408   -34270   -34149 
  -34005   -33849   -33710   -33588   -33468   -33348   -33237   -33136 
  -33038   -32939   -32855   -32792   -32738   -32672   -32606   -32586 
  -32592   -32589   -32612   -32653   -32700   -32785   -32881   -32986 
  -33123   -33237   -33366   -33555   -33693   -33797   -33966   -34190 
  -34408   -34593   -34810   -35025   -35186   -35360   -35518   -35641 
  -35763   -35856   -35946   -36030   -36054   -36064   -36115   -36173 
  -36189   -36208   -36275   -36324   -36364   -36414   -36454   -36494 
  -36507   -36542   -36623   -36661   -36675   -36740   -36855   -36962 
  -37041   -37125   -37185   -37247   -37330   -37368   -37390   -37402 
  -37373   -37324   -37266   -37206   -37105   -36994   -36908   -36784 
  -36675   -36612   -36533   -36434   -36308   -36194   -36091   -35957 
  -35814   -35667   -35537   -35389   -35200   -35032   -34819   -34576 
  -34338   -34063   -33820   -33595   -33372   -33178   -32994   -32843 
  -32675   -32528   -32432   -32302   -32190   -32077   -31979   -31960 
  -31902   -31821   -31761   -31733   -31775   -31786   -31788   -31830 
  -31851   -31887   -31956   -32016   -32033   -32044   -32113   -32179 
  -32201   -32195   -32202   -32241   -32244   -32266   -32323   -32345 
  -32389   -32419   -32424   -32451   -32477   -32562   -32659   -32719 
  -32788   -32838   -32900   -32935   -32926   -32938   -32943   -32986 
  -33028   -33023   -33035   -33022   -33042   -33082   -33076   -33105 
  -33152   -33272   -33444   -33589   -33827   -34086   -34316   -34596 
  -34848   -35101   -35372   -35624   -35896   -36189   -36480   -36711 
  -36954   -37240   -37472   -37695   -37901   -38096   -38318   -38487 
  -38647   -38803   -38932   -39088   -39211   -39314   -39407   -39488 
  -39611   -39708   -39780   -39856   -39906   -39972   -40033   -40061 
  -40106   -40182   -40267   -40346   -40455   -40540   -40562   -40580 
  -40580   -40559   -40496   -40391   -40299   -40169   -40029   -39877 
  -39667   -39480   -39244   -38955   -38712   -38438   -38171   -37948 
  -37699   -37467   -37251   -37031   -36832   -36618   -36373   -36140 
  -35956   -35803   -35688   -35614   -35565   -35565   -35593   -35661 
  -35764   -35830   -35940   -36103   -36268   -36467   -36655   -36863 
  -37083   -37211   -37310   -37431   -37539   -37639   -37729   -37808 
  -37849   -37862   -37890   -37892   -37850   -37806   -37780   -37758 
  -37704   -37639   -37600   -37579   -37547   -37495   -37438   -37356 
  -37266   -37228   -37219   -37216   -37233   -37262   -37294   -37299 
  -37268   -37235   -37230   -37202   -37126   -37085   -37063   -36992 
  -36922   -36869   -36792   -36695   -36590   -36499   -36420   -36319 
  -36219   -36171   -36144   -36080   -36004   -35943   -35873   -35808 
  -35739   -35640   -35536   -35455   -35387   -35298   -35182   -35071 
  -34984   -34896   -34770   -34634   -34531   -34456   -34395   -34333 
  -34273   -34223   -34178   -34134   -34077   -34035   -34007   -33968 
  -33954   -33945   -33917   -33902   -33894   -33874   -33850   -33825 
  -33803   -33809   -33838   -33849   -33860   -33895   -33941   -33999 
  -34066   -34140   -34234   -34350   -34448   -34520   -34588   -34653 
  -34705   -34730   -34734   -34701   -34630   -34543   -34406   -34252 
  -34093   -33883   -33684   -33502   -33306   -33116   -32940   -32802 
  -32651   -32471   -32305   -32120   -31935   -31741   -31524   -31333 
  -31129   -30899   -30675   -30413   -30110   -29803   -29499   -29185 
  -28864   -28544   -28250   -28016   -27763   -27457   -27198   -26978 
  -26785   -26613   -26428   -26285   -26185   -26096   -26051   -26041 
  -26052   -26066   -26078   -26149   -26242   -26303   -26390   -26491 
  -26580   -26669   -26711   -26780   -26879   -26909   -26958   -27030 
  -27087   -27182   -27246   -27326   -27450   -27544   -27669   -27780 
  -27874   -28006   -28107   -28233   -28393   -28526   -28674   -28842 
  -29026   -29185   -29347   -29559   -29734   -29923   -30133   -30315 
  -30539   -30758   -30956   -31141   -31292   -31476   -31659   -31854 
  -32051   -32211   -32410   -32573   -32715   -32885   -33000   -33127 
  -33247   -33326   -33416   -33500   -33589   -33636   -33664   -33688 
  -33649   -33630   -33605   -33555   -33514   -33444   -33427   -33419 
  -33380   -33371   -33336   -33293   -33255   -33239   -33265   -33270 
  -33301   -33313   -33324   -33388   -33370   -33366   -33413   -33424 
  -33446   -33465   -33515   -33539   -33538   -33613   -33622   -33625 
  -33719   -33783   -33858   -33955   -34049   -34191   -34353   -34495 
  -34663   -34897   -35121   -35359   -35695   -36029   -36343   -36683 
  -37021   -37368   -37730   -38075   -38387   -38692   -38982   -39245 
  -39518   -39776   -40001   -40237   -40472   -40677   -40872   -41055 
  -41200   -41325   -41452   -41575   -41692   -41794   -41872   -41950 
  -42017   -42025   -42014   -41995   -41942   -41914   -41906   -41860 
  -41789   -41736   -41702   -41657   -41612   -41560   -41485   -41409 
  -41335   -41282   -41238   -41164   -41095   -41053   -40980   -40877 
  -40788   -40704   -40608   -40501   -40388   -40260   -40093   -39901 
  -39706   -39494   -39251   -38982   -38701   -38405   -38063   -37693 
  -37349   -37009   -36624   -36231   -35855   -35465   -35084   -34736 
  -34379   -34031   -33705   -33364   -33050   -32747   -32417   -32134 
  -31884   -31642   -31430   -31222   -31047   -30900   -30754   -30634 
  -30539   -30476   -30435   -30430   -30467   -30489   -30535   -30618 
  -30724   -30863   -30977   -31100   -31243   -31391   -31590   -31772 
  -31930   -32081   -32225   -32415   -32600   -32777   -32962   -33144 
  -33355   -33524   -33680   -33858   -33989   -34137   -34273   -34382 
  -34504   -34629   -34821   -35009   -35132   -35262   -35397   -35547 
  -35677   -35802   -35967   -36120   -36275   -36393   -36480   -36597 
  -36679   -36767   -36870   -36946   -37015   -37040   -37087   -37129 
  -37115   -37147   -37182   -37193   -37197   -37202   -37232   -37207 
  -37185   -37207   -37207   -37231   -37242   -37234   -37240   -37222 
  -37198   -37163   -37137   -37100   -37006   -36957   -36930   -36856 
  -36801   -36746   -36682   -36631   -36577   -36532   -36466   -36385 
  -36326   -36247   -36143   -36017   -35869   -35745   -35611   -35447 
  -35276   -35104   -34940   -34774   -34605   -34412   -34186   -33954 
  -33719   -33496   -33260   -33009   -32788   -32555   -32304   -32070 
  -31853   -31658   -31463   -31267   -31091   -30934   -30778   -30628 
  -30507   -30395   -30311   -30256   -30181   -30118   -30065   -29998 
  -29936   -29892   -29889   -29884   -29867   -29863   -29851   -29828 
  -29815   -29820   -29830   -29856   -29897   -29943   -30016   -30102 
  -30202   -30309   -30405   -30518   -30651   -30803   -30974   -31180 
  -31434   -31687   -31944   -32230   -32502   -32764   -33028   -33274 
  -33512   -33733   -33944   -34186   -34423   -34622   -34799   -34950 
  -35107   -35262   -35373   -35478   -35586   -35693   -35817   -35936 
  -36057   -36156   -36214   -36277   -36341   -36370   -36387   -36417 
  -36434   -36437   -36460   -36460   -36409   -36355   -36301   -36234 
  -36148   -36058   -35995   -35943   -35869   -35770   -35676   -35585 
  -35472   -35383   -35325   -35258   -35170   -35082   -35032   -34982 
  -34905   -34833   -34742   -34640   -34559   -34475   -34392   -34297 
  -34200   -34120   -34036   -33952   -33854   -33763   -33701   -33612 
  -33515   -33436   -33349   -33279   -33221   -33138   -33031   -32936 
  -32873   -32807   -32706   -32570   -32443   -32352   -32247   -32114 
  -31966   -31794   -31614   -31446   -31301   -31149   -30980   -30836 
  -30693   -30523   -30361   -30219   -30073   -29922   -29771   -29612 
  -29473   -29352   -29212   -29099   -29012   -28918   -28862   -28836 
  -28824   -28838   -28856   -28905   -28996   -29093   -29206   -29343 
  -29471   -29577   -29699   -29838   -29966   -30087   -30195   -30298 
  -30401   -30486   -30555   -30600   -30626   -30628   -30615   -30627 
  -30640   -30630   -30621   -30620   -30608   -30573   -30532   -30482 
  -30425   -30391   -30364   -30338   -30315   -30291   -30284   -30283 
  -30282   -30296   -30320   -30360   -30412   -30470   -30550   -30649 
  -30773   -30923   -31072   -31233   -31425   -31648   -31909   -32195 
  -32485   -32793   -33114   -33419   -33706   -33995   -34300   -34606 
  -34898   -35181   -35443   -35691   -35937   -36165   -36373   -36543 
  -36697   -36872   -37028   -37169   -37319   -37469   -37604   -37706 
  -37792   -37863   -37930   -37984   -37983   -37960   -37917   -37857 
  -37804   -37720   -37616   -37510   -37404   -37301   -37179   -37036 
  -36891   -36789   -36718   -36625   -36523   -36411   -36307   -36215 
  -36102   -35980   -35854   -35753   -35677   -35594   -35528   -35454 
  -35389   -35344   -35252   -35143   -35054   -34974   -34875   -34734 
  -34590   -34453   -34299   -34112   -33902   -33688   -33456   -33215 
  -32968   -32700   -32433   -32174   -31927   -31692   -31467   -31241 
  -31015   -30823   -30652   -30485   -30350   -30234   -30162   -30146 
  -30122   -30109   -30136   -30171   -30214   -30266   -30336   -30461 
  -30637   -30830   -31015   -31191   -31385   -31613   -31858   -32101 
  -32328   -32577   -32872   -33140   -33374   -33621   -33848   -34059 
  -34269   -34460   -34637   -34799   -34958   -35092   -35195   -35275 
  -35311   -35339   -35353   -35304   -35236   -35175   -35084   -34967 
  -34845   -34703   -34537   -34368   -34190   -33996   -33805   -33611 
  -33411   -33222   -33033   -32833   -32650   -32492   -32324   -32160 
  -32009   -31884   -31789   -31670   -31529   -31397   -31277   -31179 
  -31092   -31006   -30931   -30871   -30827   -30782   -30737   -30697 
  -30666   -30651   -30646   -30668   -30725   -30806   -30921   -31056 
  -31196   -31328   -31472   -31655   -31830   -31963   -32089   -32232 
  -32385   -32541   -32702   -32865   -33035   -33179   -33302   -33459 
  -33610   -33747   -33905   -34064   -34217   -34350   -34472   -34600 
  -34707   -34805   -34872   -34920   -35000   -35071   -35122   -35151 
  -35155   -35181   -35179   -35132   -35089   -35040   -34976   -34905 
  -34829   -34764   -34713   -34664   -34596   -34517   -34468   -34432 
  -34378   -34347   -34358   -34366   -34377   -34418   -34457   -34485 
  -34507   -34519   -34552   -34588   -34571   -34550   -34576   -34611 
  -34625   -34610   -34591   -34597   -34596   -34586   -34607   -34645 
  -34671   -34697   -34752   -34806   -34829   -34861   -34904   -34925 
  -34910   -34880   -34883   -34904   -34901   -34883   -34872   -34864 
  -34836   -34799   -34759   -34721   -34695   -34644   -34592   -34536 
  -34409   -34256   -34112   -33939   -33739   -33532   -33362   -33217 
  -33053   -32905   -32779   -32667   -32577   -32482   -32390   -32320 
  -32265   -32242   -32251   -32254   -32256   -32287   -32323   -32347 
  -32368   -32386   -32421   -32473   -32541   -32633   -32732   -32827 
  -32935   -33062   -33198   -33336   -33494   -33672   -33834   -33981 
  -34151   -34352   -34545   -34719   -34909   -35126   -35342   -35557 
  -35780   -35985   -36174   -36373   -36584   -36792   -36981   -37159 
  -37335   -37498   -37649   -37787   -37909   -38025   -38117   -38198 
  -38284   -38349   -38401   -38468   -38536   -38573   -38595   -38623 
  -38652   -38678   -38677   -38657   -38645   -38610   -38535   -38450 
  -38344   -38205   -38072   -37922   -37750   -37577   -37381   -37196 
  -37022   -36849   -36697   -36550   -36449   -36360   -36257   -36213 
  -36170   -36116   -36074   -36002   -35944   -35900   -35861   -35853 
  -35846   -35850   -35857   -35855   -35869   -35868   -35855   -35851 
  -35863   -35868   -35825   -35777   -35735   -35701   -35667   -35561 
  -35410   -35237   -35042   -34848   -34636   -34435   -34230   -34019 
  -33812   -33552   -33285   -33014   -32705   -32399   -32077   -31766 
  -31478   -31185   -30897   -30594   -30314   -30067   -29811   -29560 
  -29312   -29084   -28851   -28607   -28390   -28165   -27965   -27784 
  -27572   -27396   -27210   -26995   -26825   -26644   -26433   -26219 
  -26019   -25862   -25720   -25599   -25508   -25426   -25372   -25324 
  -25269   -25215   -25161   -25147   -25182   -25204   -25197   -25220 
  -25262   -25282   -25308   -25337   -25383   -25443   -25485   -25534 
  -25585   -25638   -25712   -25791   -25886   -25971   -26027   -26069 
  -26111   -26155   -26148   -26115   -26115   -26122   -26135   -26122 
  -26096   -26105   -26092   -26082   -26103   -26104   -26125   -26164 
  -26215   -26320   -26452   -26600   -26789   -27013   -27237   -27457 
  -27718   -28016   -28315   -28601   -28876   -29187   -29510   -29814 
  -30135   -30443   -30741   -31032   -31293   -31569   -31835   -32077 
  -32327   -32561   -32793   -33011   -33221   -33458   -33664   -33844 
  -34037   -34258   -34497   -34693   -34893   -35134   -35373   -35624 
  -35873   -36133   -36402   -36638   -36881   -37123   -37327   -37509 
  -37675   -37848   -38010   -38139   -38259   -38382   -38503   -38589 
  -38656   -38714   -38735   -38748   -38754   -38751   -38759   -38740 
  -38714   -38715   -38701   -38658   -38644   -38691   -38714   -38689 
  -38700   -38744   -38795   -38841   -38904   -39036   -39173   -39276 
  -39411   -39580   -39767   -39977   -40182   -40400   -40620   -40802 
  -41002   -41214   -41397   -41573   -41737   -41909   -42066   -42182 
  -42311   -42429   -42548   -42671   -42755   -42861   -42965   -43040 
  -43127   -43172   -43181   -43171   -43119   -43061   -42963   -42808 
  -42661   -42509   -42313   -42095   -41867   -41641   -41413   -41156 
  -40895   -40660   -40414   -40139   -39878   -39623   -39336   -39056 
  -38793   -38521   -38244   -37959   -37658   -37355   -37062   -36761 
  -36476   -36225   -35953   -35686   -35460   -35218   -34966   -34735 
  -34499   -34259   -34050   -33869   -33692   -33507   -33313   -33123 
  -32932   -32730   -32541   -32347   -32146   -31962   -31779   -31607 
  -31444   -31283   -31146   -31028   -30927   -30826   -30713   -30637 
  -30588   -30527   -30489   -30491   -30490   -30475   -30485   -30507 
  -30525   -30546   -30561   -30579   -30590   -30583   -30594   -30642 
  -30709   -30776   -30848   -30949   -31059   -31170   -31305   -31462 
  -31623   -31786   -31982   -32214   -32424   -32626   -32864   -33101 
  -33316   -33537   -33760   -33967   -34147   -34313   -34516   -34716 
  -34859   -34992   -35134   -35257   -35361   -35468   -35595   -35698 
  -35773   -35870   -35960   -36025   -36079   -36135   -36214   -36280 
  -36308   -36338   -36379   -36394   -36389   -36388   -36397   -36412 
  -36403   -36369   -36332   -36277   -36201   -36136   -36076   -35980 
  -35865   -35776   -35697   -35608   -35508   -35411   -35358   -35323 
  -35269   -35225   -35202   -35168   -35102   -35063   -35055   -35012 
  -34967   -34951   -34926   -34889   -34867   -34864   -34869   -34884 
  -34897   -34910   -34931   -34933   -34926   -34944   -34956   -34942 
  -34922   -34930   -34960   -34974   -34996   -35031   -35072   -35118 
  -35155   -35234   -35341   -35431   -35515   -35580   -35677   -35783 
  -35854   -35962   -36076   -36177   -36276   -36358   -36470   -36585 
  -36692   -36817   -36948   -37089   -37237   -37413   -37602   -37773 
  -37950   -38128   -38328   -38542   -38728   -38927   -39127   -39295 
  -39463   -39641   -39807   -39942   -40069   -40191   -40287   -40372 
  -40455   -40542   -40604   -40625   -40655   -40685   -40688   -40675 
  -40625   -40548   -40450   -40313   -40166   -40003   -39793   -39564 
  -39346   -39130   -38889   -38628   -38388   -38175   -37958   -37724 
  -37478   -37240   -37002   -36753   -36508   -36245   -35973   -35725 
  -35475   -35207   -34914   -34618   -34354   -34099   -33823   -33530 
  -33238   -32960   -32685   -32411   -32126   -31832   -31539   -31235 
  -30931   -30638   -30351   -30070   -29797   -29512   -29217   -28958 
  -28724   -28489   -28281   -28081   -27897   -27762   -27656   -27556 
  -27472   -27428   -27410   -27408   -27426   -27456   -27510   -27583 
  -27654   -27721   -27796   -27895   -28002   -28112   -28226   -28325 
  -28427   -28548   -28668   -28781   -28883   -28981   -29089   -29189 
  -29277   -29399   -29535   -29633   -29723   -29816   -29909   -30019 
  -30128   -30234   -30332   -30409   -30481   -30576   -30679   -30742 
  -30795   -30874   -30954   -31018   -31059   -31105   -31159   -31203 
  -31251   -31278   -31307   -31348   -31364   -31399   -31436   -31460 
  -31497   -31513   -31513   -31489   -31449   -31442   -31432   -31405 
  -31351   -31294   -31267   -31229   -31196   -31162   -31139   -31151 
  -31145   -31172   -31216   -31247   -31328   -31395   -31456   -31540 
  -31646   -31807   -31966   -32129   -32282   -32418   -32620   -32815 
  -32985   -33170   -33333   -33503   -33660   -33774   -33892   -33996 
  -34072   -34137   -34181   -34202   -34214   -34220   -34210   -34177 
  -34115   -34056   -34019   -33967   -33884   -33793   -33703   -33600 
  -33494   -33367   -33220   -33094   -32943   -32791   -32664   -32486 
  -32314   -32158   -31971   -31785   -31573   -31385   -31233   -31056 
  -30880   -30697   -30537   -30406   -30267   -30155   -30037   -29932 
  -29884   -29841   -29803   -29763   -29745   -29754   -29758   -29778 
  -29814   -29892   -29988   -30057   -30146   -30231   -30302   -30380 
  -30452   -30541   -30626   -30735   -30883   -31037   -31210   -31368 
  -31560   -31789   -31972   -32176   -32393   -32602   -32849   -33106 
  -33378   -33636   -33885   -34152   -34387   -34617   -34837   -35063 
  -35311   -35500   -35676   -35867   -36030   -36188   -36331   -36462 
  -36582   -36678   -36771   -36847   -36892   -36932   -36994   -37062 
  -37097   -37086   -37076   -37093   -37096   -37074   -37053   -37018 
  -36968   -36940   -36909   -36819   -36705   -36591   -36464   -36351 
  -36222   -36087   -35994   -35884   -35753   -35643   -35521   -35367 
  -35196   -35030   -34853   -34656   -34485   -34340   -34179   -33997 
