Origin Time       2011/03/11 14:46:00
Lat.              38.103
Long.             142.860
Depth. (km)       24
Mag.              9.0
Station Code      OSK002
Station Lat.      34.8572
Station Long.     135.5958
Station Height(m) 34
Record Time       2011/03/11 14:49:37
Sampling Freq(Hz) 100Hz
Duration Time(s)  193
Dir.              N-S
Scale Factor      3920(gal)/6182761
Max. Acc. (gal)   4.295
Last Correction   2011/03/11 14:49:22
Memo.             
[...]
  -43809   -43652   -43771   -44120   -44392   -44421   -44386   -44455 
  -44601   -44853   -45111   -45121   -45038   -45185   -45319   -45200 
  -45152   -45192   -45201   -45269   -45169   -44951   -44910   -44875 
  -44674   -44447   -44321   -44152   -43986   -43963   -43850   -43780 
  -43811   -43802   -43964   -43919   -43572   -43519   -43623   -43758 
  -44042   -44156   -44038   -43870   -43841   -44091   -44284   -44275 
  -44363   -44475   -44446   -44467   -44580   -44615   -44610   -44531 
  -44329   -44305   -44484   -44553   -44501   -44423   -44304   -44214 
  -44274   -44379   -44337   -44180   -44100   -44170   -44259   -44379 
  -44515   -44462   -44404   -44565   -44646   -44547   -44593   -44741 
  -44839   -44982   -44966   -44774   -44831   -45054   -45176   -45238 
  -45181   -45150   -45349   -45449   -45403   -45568   -45741   -45710 
  -45760   -45894   -45874   -45748   -45787   -46012   -46070   -45917 
  -45896   -45985   -45874   -45623   -45562   -45625   -45508   -45296 
  -45147   -44954   -44784   -44763   -44607   -44277   -44137   -44133 
  -44139   -44099   -43891   -43881   -44170   -44364   -44393   -44284 
  -44279   -44510   -44503   -44348   -44478   -44666   -44786   -44942 
  -44995   -44947   -44958   -45069   -45219   -45252   -45194   -45235 
  -45284   -45261   -45310   -45399   -45426   -45434   -45404   -45322 
  -45271   -45184   -45119   -45308   -45523   -45506   -45473   -45551 
  -45623   -45630   -45672   -45749   -45728   -45708   -45720   -45647 
  -45625   -45763   -45872   -45729   -45527   -45604   -45738   -45595 
  -45310   -45079   -44986   -45030   -45007   -44829   -44700   -44611 
  -44336   -44006   -43900   -43915   -43863   -43743   -43510   -43203 
  -43019   -42923   -42811   -42740   -42582   -42249   -42008   -41961 
  -41977   -41977   -41785   -41379   -41130   -41207   -41312   -41259 
  -41209   -41213   -41171   -41156   -41202   -41241   -41319   -41398 
  -41425   -41474   -41522   -41591   -41831   -42090   -42144   -42160 
  -42285   -42420   -42482   -42532   -42729   -43049   -43303   -43505 
  -43776   -44081   -44375   -44654   -44966   -45406   -45799   -45992 
  -46234   -46617   -46912   -47053   -47203   -47492   -47859   -48157 
  -48324   -48368   -48392   -48485   -48570   -48611   -48654   -48691 
  -48676   -48633   -48620   -48541   -48424   -48479   -48566   -48373 
  -48040   -47927   -48028   -48036   -47793   -47427   -47106   -46935 
  -46926   -46836   -46566   -46375   -46274   -46116   -45978   -45880 
  -45703   -45443   -45360   -45534   -45529   -45212   -44971   -44945 
  -44987   -44901   -44616   -44423   -44481   -44541   -44452   -44270 
  -44145   -44232   -44404   -44455   -44445   -44471   -44540   -44687 
  -44954   -45243   -45376   -45425   -45531   -45586   -45593   -45678 
  -45746   -45736   -45723   -45724   -45681   -45462   -45175   -45155 
  -45300   -45233   -44974   -44846   -44854   -44711   -44530   -44602 
  -44768   -44743   -44506   -44401   -44640   -44774   -44711   -44800 
  -44832   -44755   -44776   -44889   -45164   -45388   -45336   -45118 
  -44959   -45189   -45557   -45540   -45337   -45357   -45621   -45686 
  -45414   -45459   -45883   -45991   -45684   -45507   -45658   -45693 
  -45525   -45463   -45321   -45106   -45139   -45115   -44862   -44760 
  -44859   -44907   -44812   -44777   -44936   -44900   -44468   -44258 
  -44709   -45278   -45358   -45010   -44653   -44724   -45257   -45780 
  -45938   -45768   -45477   -45373   -45569   -45843   -46082   -46189 
  -45956   -45510   -45231   -45346   -45768   -46142   -46174   -45880 
  -45509   -45349   -45588   -46032   -46232   -46075   -45723   -45371 
  -45399   -45935   -46429   -46325   -45768   -45347   -45415   -45825 
  -46106   -45910   -45525   -45376   -45236   -44910   -44704   -44703 
  -44648   -44314   -43745   -43316   -43248   -43391   -43403   -43059 
  -42672   -42611   -42761   -42901   -42789   -42317   -41877   -41850 
  -42089   -42331   -42404   -42176   -41949   -42180   -42684   -42911 
  -42740   -42584   -42774   -43151   -43386   -43270   -42992   -43011 
  -43262   -43292   -43022   -42688   -42513   -42494   -42417   -42187 
  -41920   -41686   -41433   -41171   -41006   -40989   -41035   -41024 
  -40916   -40715   -40486   -40427   -40656   -40879   -40867   -40808 
  -40755   -40731   -40829   -40826   -40732   -40851   -41048   -41026 
  -40880   -40943   -41171   -41161   -40971   -41055   -41487   -41857 
  -41867   -41776   -41973   -42442   -42870   -43043   -43108   -43276 
  -43512   -43756   -43978   -44205   -44517   -44847   -45046   -44979 
  -44899   -45322   -45961   -46261   -46290   -46185   -46129   -46293 
  -46557   -46866   -47158   -47256   -47149   -47031   -47072   -47208 
  -47383   -47570   -47554   -47342   -47261   -47457   -47679   -47670 
  -47617   -47716   -47710   -47443   -47189   -47134   -47202   -47269 
  -47131   -46759   -46377   -46138   -46101   -46137   -45924   -45449 
  -45064   -44955   -44935   -44761   -44476   -44302   -44203   -44071 
  -44035   -43987   -43736   -43575   -43685   -43763   -43669   -43616 
  -43683   -43709   -43631   -43550   -43569   -43692   -43900   -44125 
  -44144   -43990   -43960   -44085   -44241   -44338   -44362   -44413 
  -44459   -44403   -44349   -44366   -44310   -44182   -44210   -44349 
  -44280   -44058   -43989   -44025   -43955   -43882   -44014   -44116 
  -43950   -43806   -43669   -43366   -43259   -43355   -43338   -43178 
  -42888   -42761   -42800   -42481   -42076   -42210   -42573   -42560 
  -42293   -42220   -42358   -42495   -42453   -42261   -42321   -42656 
  -42855   -42870   -42801   -42698   -42680   -42748   -42978   -43288 
  -43307   -43148   -43188   -43439   -43826   -44193   -44206   -44001 
  -44053   -44346   -44698   -45037   -45220   -45262   -45311   -45514 
  -45855   -46153   -46387   -46581   -46692   -46678   -46580   -46644 
  -46929   -47158   -47196   -47121   -47022   -47002   -47089   -47146 
  -47083   -46984   -46893   -46759   -46652   -46715   -46828   -46700 
  -46341   -45974   -45745   -45751   -45835   -45759   -45560   -45270 
  -44920   -44730   -44728   -44739   -44787   -44847   -44697   -44480 
  -44538   -44805   -44991   -44970   -44923   -44976   -45036   -45177 
  -45360   -45382   -45349   -45397   -45492   -45569   -45610   -45792 
  -46022   -45970   -45858   -45942   -45989   -46018   -46207   -46407 
  -46461   -46319   -46084   -45990   -45989   -45916   -45822   -45766 
  -45637   -45383   -45162   -45004   -44890   -44807   -44483   -44060 
  -43991   -44016   -43865   -43712   -43509   -43313   -43249   -43190 
  -43267   -43442   -43351   -43161   -43065   -42890   -42823   -43005 
  -43093   -42959   -42733   -42545   -42640   -42879   -42886   -42766 
  -42601   -42398   -42454   -42607   -42534   -42483   -42592   -42665 
  -42641   -42592   -42554   -42579   -42728   -42826   -42744   -42697 
  -42840   -43100   -43295   -43288   -43251   -43333   -43446   -43616 
  -43872   -44118   -44309   -44394   -44400   -44528   -44881   -45250 
  -45413   -45490   -45616   -45745   -45888   -46036   -46132   -46187 
  -46191   -46139   -46089   -46090   -46085   -45916   -45648   -45599 
  -45709   -45533   -45210   -45183   -45177   -45019   -45000   -44940 
  -44788   -44798   -44704   -44492   -44538   -44648   -44584   -44510 
  -44462   -44430   -44474   -44497   -44529   -44780   -45010   -44894 
  -44809   -45041   -45288   -45434   -45567   -45667   -45747   -45780 
  -45789   -45939   -46197   -46311   -46229   -46134   -46116   -46185 
  -46340   -46366   -46238   -46281   -46378   -46276   -46199   -46204 
  -46094   -45940   -45840   -45761   -45658   -45467   -45249   -45115 
  -44971   -44798   -44780   -44835   -44754   -44643   -44644   -44715 
  -44702   -44505   -44283   -44184   -44236   -44456   -44558   -44351 
  -44148   -44147   -44231   -44275   -44165   -43994   -43994   -44089 
  -44093   -43964   -43791   -43807   -43936   -43852   -43558   -43306 
  -43310   -43418   -43359   -43285   -43245   -43043   -42840   -42845 
  -42911   -42836   -42598   -42400   -42416   -42489   -42491   -42531 
  -42584   -42536   -42472   -42527   -42668   -42793   -42780   -42646 
  -42639   -42690   -42521   -42330   -42398   -42571   -42535   -42221 
  -41936   -41935   -42023   -41983   -41896   -41771   -41661   -41759 
  -41911   -41961   -42054   -42133   -42106   -42107   -42197   -42327 
  -42457   -42570   -42685   -42796   -42798   -42705   -42707   -42801 
  -42873   -42942   -42950   -42844   -42811   -42913   -43000   -43129 
  -43304   -43305   -43174   -43123   -43165   -43194   -43118   -43062 
  -43188   -43240   -43127   -43080   -42885   -42619   -42758   -42976 
  -42908   -42752   -42613   -42574   -42582   -42514   -42555   -42737 
  -42846   -42803   -42718   -42843   -43200   -43444   -43501   -43567 
  -43608   -43676   -43912   -44138   -44256   -44382   -44422   -44390 
  -44546   -44810   -44951   -45071   -45119   -44912   -44758   -44925 
  -45122   -45104   -45059   -45081   -44990   -44919   -45035   -45095 
  -45048   -45017   -44945   -44896   -44938   -44855   -44629   -44621 
  -44805   -44834   -44800   -44845   -44843   -44835   -44944   -45147 
  -45272   -45236   -45283   -45432   -45476   -45540   -45723   -45940 
  -46041   -45901   -45771   -45874   -45944   -45747   -45498   -45493 
  -45574   -45540   -45540   -45407   -45120   -45120   -45195   -45141 
  -45306   -45422   -45206   -45081   -45155   -45133   -45049   -45064 
  -45027   -44886   -44913   -45067   -45081   -45101   -45211   -45089 
  -44819   -44765   -44810   -44757   -44675   -44599   -44485   -44350 
  -44267   -44265   -44315   -44269   -44011   -43784   -43800   -43884 
  -43834   -43707   -43680   -43674   -43541   -43457   -43438   -43292 
  -43192   -43240   -43230   -43222   -43251   -43090   -42849   -42771 
  -42728   -42611   -42511   -42477   -42480   -42461   -42419   -42377 
  -42263   -42136   -42183   -42349   -42441   -42454   -42415   -42323 
  -42377   -42643   -42800   -42763   -42748   -42850   -43051   -43170 
  -43178   -43353   -43607   -43792   -44072   -44231   -44167   -44267 
  -44447   -44514   -44615   -44639   -44530   -44498   -44478   -44385 
  -44291   -44156   -44034   -43989   -43875   -43692   -43556   -43415 
  -43292   -43250   -43178   -43076   -43118   -43264   -43266   -43122 
  -43053   -43109   -43186   -43225   -43206   -43179   -43160   -43080 
  -43057   -43167   -43189   -43091   -43081   -43166   -43289   -43466 
  -43566   -43561   -43690   -43899   -43942   -43984   -44152   -44176 
  -44044   -44041   -44227   -44413   -44437   -44417   -44508   -44501 
  -44347   -44403   -44651   -44749   -44668   -44641   -44743   -44830 
  -44884   -44888   -44740   -44588   -44668   -44954   -45141   -44942 
  -44516   -44230   -44237   -44536   -44731   -44404   -43963   -43821 
  -43687   -43533   -43761   -44089   -43834   -43358   -43368   -43403 
  -42986   -42664   -42668   -42577   -42340   -42227   -42201   -41995 
  -41660   -41403   -41245   -41252   -41364   -41365   -41404   -41522 
  -41377   -41287   -41699   -41994   -41809   -41724   -41856   -41975 
  -42164   -42429   -42760   -42879   -42610   -42716   -43352   -43659 
  -43531   -43363   -43351   -43672   -44038   -44119   -44056   -43850 
  -43715   -44095   -44556   -44440   -44281   -44584   -44668   -44423 
  -44565   -44828   -44708   -44574   -44652   -44674   -44523   -44371 
  -44323   -44282   -44305   -44460   -44508   -44395   -44300   -44289 
  -44410   -44475   -44313   -44323   -44590   -44731   -44822   -44938 
  -44869   -44737   -44765   -44900   -45088   -45293   -45466   -45589 
  -45595   -45532   -45336   -45030   -45145   -45601   -45603   -45166 
  -44957   -45100   -45175   -44917   -44632   -44750   -45017   -45015 
  -44967   -45050   -44970   -44703   -44581   -44739   -44956   -44932 
  -44847   -45030   -45066   -44781   -44829   -45050   -45053   -45295 
  -45501   -45159   -44982   -45465   -45863   -45581   -45235   -45550 
  -46137   -46276   -46066   -46048   -46247   -46227   -46086   -46276 
  -46457   -46275   -46236   -46446   -46566   -46691   -46651   -46413 
  -46415   -46386   -46284   -46605   -46864   -46615   -46248   -46080 
  -46260   -46359   -45771   -45195   -45440   -45660   -44998   -44249 
  -44324   -44558   -44011   -43284   -43378   -43739   -43190   -42170 
  -41878   -42099   -42009   -41718   -41462   -40936   -40357   -40415 
  -40883   -40754   -39870   -39262   -39689   -40490   -40467   -39563 
  -38777   -38897   -39657   -40015   -39691   -39366   -39287   -39274 
  -39301   -39394   -39660   -39827   -39589   -39519   -39757   -39948 
  -40399   -40591   -40045   -40002   -40676   -41191   -41648   -41722 
  -41182   -41244   -42149   -42695   -42647   -42426   -42156   -42392 
  -43237   -43763   -43451   -42565   -42283   -43523   -44701   -44241 
  -43414   -43493   -43999   -44215   -43867   -43658   -44334   -44896 
  -44302   -43616   -43962   -44369   -44201   -44361   -44605   -44394 
  -44559   -45006   -44852   -44502   -44663   -45012   -44855   -44512 
  -44800   -45183   -45144   -45237   -45211   -44964   -45249   -45580 
  -45540   -45819   -46107   -46059   -46403   -46920   -46912   -46942 
  -47552   -48156   -48140   -47914   -48393   -49365   -49676   -49415 
  -49575   -50119   -50474   -50579   -50734   -51034   -51003   -50607 
  -50655   -51210   -51474   -51296   -50977   -50647   -50606   -50670 
  -50310   -49747   -49316   -49090   -48938   -48547   -48092   -47667 
  -47208   -47100   -47210   -46670   -45415   -44783   -45322   -45367 
  -44193   -43510   -43730   -43430   -42710   -42594   -42885   -42866 
  -42320   -41651   -41481   -41846   -42051   -41745   -41556   -42004 
  -42546   -42058   -40595   -40264   -42191   -43702   -42126   -40076 
  -41089   -42820   -42538   -42124   -42554   -42623   -42375   -42613 
  -43177   -43287   -43241   -43598   -43769   -43710   -43953   -43950 
  -43428   -43411   -44096   -44251   -43696   -43518   -43660   -43476 
  -43395   -43455   -43078   -42667   -42553   -42481   -42621   -42832 
  -42671   -42298   -42040   -42016   -41957   -41584   -41386   -41723 
  -42097   -42073   -41683   -41342   -41616   -42168   -42064   -41615 
  -41822   -42389   -42440   -42284   -42409   -42385   -42284   -42576 
  -42868   -42839   -42684   -42474   -42377   -42531   -42782   -42927 
  -42865   -42837   -43055   -43194   -43077   -43016   -43231   -43471 
  -43411   -43403   -43782   -43958   -43697   -43685   -44012   -44183 
  -44059   -43756   -43661   -44003   -44289   -44101   -43665   -43542 
  -43944   -44286   -44223   -44147   -44202   -44226   -44080   -43811 
  -43822   -44098   -44053   -43618   -43443   -43808   -43975   -43338 
  -42604   -42611   -43075   -43333   -42906   -42002   -41803   -42282 
  -42178   -41684   -41439   -41317   -41228   -41023   -40820   -40692 
  -40448   -40266   -40080   -39935   -40221   -40440   -40100   -39773 
  -39902   -40222   -40330   -40115   -40016   -40409   -40867   -40984 
  -41034   -41155   -41190   -41320   -41687   -41987   -42065   -42111 
  -42260   -42531   -42933   -43325   -43471   -43527   -43796   -44085 
  -44296   -44638   -44887   -44903   -44989   -45107   -45138   -45293 
  -45609   -45833   -45784   -45688   -45782   -45833   -45870   -46044 
  -45987   -45688   -45485   -45460   -45598   -45503   -44986   -44600 
  -44494   -44310   -44031   -43846   -43783   -43672   -43437   -43096 
  -42650   -42403   -42445   -42377   -42206   -42181   -42216   -42228 
  -42245   -42236   -42277   -42444   -42470   -42379   -42648   -43055 
  -43150   -43250   -43491   -43605   -43740   -44039   -44281   -44427 
  -44665   -44998   -45286   -45507   -45697   -45946   -46266   -46460 
  -46586   -46819   -47014   -47150   -47326   -47447   -47551   -47705 
  -47824   -47960   -48128   -48197   -48226   -48330   -48420   -48458 
  -48529   -48619   -48696   -48778   -48824   -48840   -48863   -48847 
  -48724   -48580   -48496   -48262   -47901   -47631   -47354   -47083 
  -46905   -46688   -46386   -46029   -45720   -45510   -45265   -44953 
  -44707   -44590   -44388   -44032   -43802   -43648   -43479   -43440 
  -43286   -43034   -42990   -42981   -43021   -43138   -43095   -43104 
  -43278   -43476   -43761   -43969   -44074   -44209   -44305   -44627 
  -45091   -45138   -45026   -45243   -45564   -45719   -45870   -46085 
  -46188   -46262   -46410   -46498   -46513   -46592   -46744   -46791 
  -46824   -47041   -47114   -47041   -47164   -47120   -46965   -47097 
  -47019   -46714   -46707   -46800   -46668   -46447   -46374   -46363 
  -46213   -46019   -45872   -45696   -45520   -45399   -45294   -45150 
  -44932   -44721   -44631   -44531   -44275   -44016   -43909   -43784 
  -43479   -43215   -43083   -42847   -42667   -42709   -42577   -42173 
  -41863   -41761   -41762   -41763   -41569   -41179   -40996   -40951 
  -40579   -40170   -40060   -39961   -39761   -39544   -39269   -38951 
  -38730   -38689   -38662   -38614   -38749   -38882   -38764   -38663 
  -38765   -38859   -38952   -39248   -39527   -39573   -39685   -40018 
  -40304   -40350   -40401   -40811   -41269   -41343   -41378   -41647 
  -41819   -41799   -41893   -42119   -42216   -42260   -42424   -42571 
  -42625   -42586   -42488   -42506   -42787   -43185   -43138   -42677 
  -42577   -42823   -42951   -42929   -42838   -42850   -42901   -42877 
  -42974   -43080   -43021   -42989   -43193   -43506   -43612   -43596 
  -43665   -43707   -43732   -43937   -44283   -44521   -44635   -44626 
  -44447   -44634   -45215   -45200   -44970   -45466   -45876   -45716 
  -45595   -45702   -45947   -46099   -46072   -46065   -46066   -46039 
  -46063   -46118   -46034   -45787   -45679   -45772   -45754   -45573 
  -45378   -45331   -45406   -45249   -45021   -45081   -45185   -45236 
  -45270   -45185   -45083   -45083   -45227   -45377   -45264   -44999 
  -44868   -44886   -44954   -45019   -45000   -44874   -44793   -44812 
  -44738   -44623   -44651   -44597   -44344   -44379   -44897   -45177 
  -44909   -44622   -44563   -44824   -45265   -45396   -45277   -45347 
  -45589   -45607   -45534   -45740   -45859   -45785   -45877   -45930 
  -45805   -45800   -45898   -45790   -45533   -45474   -45637   -45742 
  -45610   -45402   -45355   -45322   -45152   -44999   -44955   -44918 
  -44739   -44508   -44484   -44494   -44282   -44054   -43914   -43834 
  -43915   -44031   -44000   -43793   -43483   -43361   -43524   -43652 
  -43591   -43442   -43202   -42954   -42906   -43028   -43117   -43050 
  -42852   -42630   -42484   -42417   -42337   -42282   -42316   -42289 
  -42156   -42092   -42066   -41982   -42040   -42318   -42466   -42302 
  -42107   -42110   -42248   -42414   -42587   -42724   -42792   -42866 
  -42961   -43001   -43052   -43268   -43490   -43486   -43500   -43673 
  -43697   -43605   -43682   -43819   -43858   -43822   -43741   -43703 
  -43656   -43528   -43481   -43552   -43583   -43552   -43524   -43480 
  -43445   -43530   -43661   -43737   -43766   -43690   -43581   -43599 
  -43718   -43855   -43970   -44008   -43969   -43941   -43951   -43950 
  -44016   -44194   -44327   -44315   -44214   -44189   -44294   -44443 
