Origin Time       2011/03/11 14:46:00
Lat.              38.103
Long.             142.860
Depth. (km)       24
Mag.              9.0
Station Code      OSK007
Station Lat.      34.5575
Station Long.     135.6060
Station Height(m) 31
Record Time       2011/03/11 14:49:46
Sampling Freq(Hz) 100Hz
Duration Time(s)  227
Dir.              U-D
Scale Factor      3920(gal)/6182761
Max. Acc. (gal)   4.676
Last Correction   2011/03/11 14:49:31
Memo.             
[...]
  -66460   -66524   -66629   -66758   -66894   -67034   -67165   -67284 
  -67402   -67519   -67643   -67782   -67926   -68046   -68126   -68187 
  -68246   -68302   -68335   -68324   -68298   -68279   -68235   -68166 
  -68103   -68039   -67966   -67877   -67766   -67646   -67531   -67444 
  -67382   -67301   -67215   -67160   -67099   -67030   -66979   -66934 
  -66899   -66880   -66851   -66806   -66765   -66718   -66664   -66610 
  -66563   -66539   -66525   -66506   -66493   -66492   -66490   -66489 
  -66508   -66541   -66584   -66634   -66652   -66632   -66630   -66647 
  -66635   -66599   -66564   -66540   -66529   -66513   -66492   -66499 
  -66542   -66575   -66587   -66615   -66666   -66725   -66800   -66876 
  -66950   -67043   -67143   -67218   -67275   -67346   -67415   -67447 
  -67475   -67530   -67595   -67651   -67669   -67667   -67706   -67778 
  -67841   -67889   -67929   -67970   -68015   -68034   -68024   -68011 
  -68003   -68001   -68023   -68059   -68080   -68097   -68124   -68162 
  -68222   -68272   -68293   -68315   -68337   -68356   -68380   -68377 
  -68350   -68333   -68323   -68290   -68233   -68164   -68097   -68035 
  -67964   -67874   -67777   -67673   -67559   -67450   -67336   -67210 
  -67091   -66978   -66853   -66719   -66591   -66477   -66356   -66220 
  -66104   -66030   -65974   -65911   -65862   -65851   -65860   -65858 
  -65848   -65868   -65923   -65966   -65980   -65982   -65978   -65984 
  -66001   -66015   -66025   -66043   -66074   -66103   -66120   -66137 
  -66167   -66203   -66218   -66209   -66211   -66218   -66207   -66170 
  -66113   -66049   -65978   -65884   -65762   -65639   -65534   -65433 
  -65316   -65188   -65061   -64951   -64865   -64780   -64692   -64621 
  -64558   -64480   -64385   -64295   -64244   -64222   -64196   -64164 
  -64159   -64184   -64207   -64241   -64312   -64413   -64522   -64625 
  -64735   -64859   -64994   -65133   -65259   -65374   -65491   -65629 
  -65784   -65913   -66009   -66106   -66195   -66262   -66322   -66371 
  -66405   -66405   -66367   -66336   -66351   -66380   -66385   -66391 
  -66411   -66433   -66467   -66501   -66529   -66585   -66640   -66648 
  -66635   -66638   -66670   -66731   -66800   -66864   -66905   -66911 
  -66901   -66875   -66826   -66783   -66755   -66714   -66654   -66583 
  -66526   -66502   -66479   -66449   -66449   -66468   -66460   -66442 
  -66440   -66437   -66438   -66447   -66454   -66475   -66522   -66584 
  -66654   -66718   -66783   -66855   -66932   -67035   -67142   -67224 
  -67303   -67371   -67429   -67507   -67588   -67671   -67751   -67790 
  -67808   -67826   -67797   -67729   -67683   -67658   -67620   -67571 
  -67520   -67469   -67419   -67356   -67281   -67209   -67145   -67086 
  -67019   -66935   -66854   -66792   -66733   -66668   -66598   -66510 
  -66424   -66364   -66322   -66301   -66301   -66302   -66288   -66263 
  -66240   -66223   -66202   -66167   -66130   -66112   -66100   -66082 
  -66064   -66050   -66046   -66027   -65984   -65947   -65920   -65890 
  -65859   -65832   -65832   -65866   -65906   -65926   -65918   -65911 
  -65930   -65962   -66003   -66061   -66136   -66212   -66271   -66311 
  -66323   -66315   -66313   -66311   -66307   -66324   -66363   -66414 
  -66460   -66487   -66499   -66477   -66429   -66405   -66406   -66404 
  -66370   -66276   -66151   -66019   -65873   -65734   -65607   -65480 
  -65368   -65256   -65111   -64955   -64811   -64661   -64509   -64360 
  -64201   -64038   -63886   -63731   -63576   -63442   -63333   -63227 
  -63105   -62976   -62856   -62759   -62692   -62620   -62539   -62503 
  -62510   -62534   -62576   -62624   -62671   -62711   -62743   -62804 
  -62908   -63017   -63108   -63188   -63275   -63372   -63466   -63551 
  -63625   -63710   -63816   -63913   -64005   -64122   -64252   -64383 
  -64530   -64684   -64832   -64975   -65080   -65130   -65167   -65235 
  -65335   -65430   -65494   -65544   -65590   -65622   -65651   -65709 
  -65803   -65891   -65923   -65914   -65917   -65928   -65942   -65988 
  -66036   -66047   -66039   -66021   -65999   -65991   -65978   -65947 
  -65905   -65867   -65851   -65859   -65885   -65920   -65934   -65925 
  -65913   -65903   -65915   -65974   -66064   -66132   -66138   -66106 
  -66074   -66060   -66087   -66160   -66251   -66313   -66299   -66211 
  -66105   -66044   -66048   -66107   -66183   -66228   -66236   -66239 
  -66267   -66332   -66411   -66479   -66537   -66566   -66569   -66573 
  -66566   -66544   -66517   -66474   -66434   -66404   -66351   -66277 
  -66187   -66086   -65987   -65895   -65838   -65837   -65868   -65893 
  -65890   -65869   -65854   -65851   -65856   -65852   -65833   -65810 
  -65772   -65722   -65708   -65740   -65785   -65803   -65771   -65718 
  -65664   -65611   -65578   -65545   -65499   -65447   -65397   -65364 
  -65333   -65300   -65265   -65190   -65090   -65026   -65001   -64994 
  -65010   -65038   -65054   -65055   -65036   -64987   -64929   -64886 
  -64845   -64790   -64726   -64675   -64661   -64660   -64646   -64630 
  -64631   -64661   -64719   -64778   -64836   -64910   -64989   -65063 
  -65150   -65265   -65395   -65529   -65652   -65745   -65841   -65966 
  -66084   -66190   -66308   -66429   -66531   -66599   -66670   -66780 
  -66889   -66966   -67034   -67079   -67103   -67132   -67178   -67243 
  -67311   -67361   -67385   -67385   -67367   -67328   -67275   -67234 
  -67191   -67125   -67057   -67009   -66960   -66884   -66782   -66682 
  -66596   -66528   -66472   -66386   -66265   -66149   -66045   -65962 
  -65916   -65861   -65744   -65589   -65437   -65289   -65168   -65100 
  -65075   -65080   -65083   -65045   -64959   -64845   -64714   -64588 
  -64491   -64425   -64375   -64333   -64277   -64187   -64083   -64007 
  -63953   -63888   -63844   -63834   -63808   -63766   -63729   -63710 
  -63733   -63749   -63733   -63747   -63801   -63870   -63944   -63988 
  -64012   -64062   -64128   -64177   -64221   -64289   -64378   -64467 
  -64550   -64634   -64721   -64812   -64893   -64945   -64969   -64993 
  -65032   -65085   -65148   -65224   -65325   -65441   -65516   -65517 
  -65479   -65454   -65468   -65527   -65622   -65732   -65830   -65892 
  -65907   -65915   -65966   -66055   -66137   -66193   -66235   -66269 
  -66311   -66394   -66528   -66706   -66883   -66993   -67054   -67115 
  -67166   -67237   -67358   -67483   -67607   -67735   -67818   -67877 
  -67943   -67981   -67988   -67963   -67904   -67857   -67823   -67761 
  -67693   -67638   -67592   -67575   -67576   -67561   -67534   -67502 
  -67430   -67329   -67259   -67217   -67179   -67148   -67101   -67027 
  -66965   -66942   -66939   -66941   -66928   -66856   -66726   -66571 
  -66419   -66326   -66311   -66329   -66352   -66373   -66395   -66435 
  -66483   -66508   -66497   -66443   -66352   -66264   -66193   -66129 
  -66103   -66134   -66161   -66149   -66127   -66077   -66014   -66000 
  -66023   -66076   -66164   -66251   -66332   -66395   -66422   -66452 
  -66511   -66580   -66643   -66677   -66651   -66582   -66516   -66478 
  -66495   -66571   -66652   -66694   -66685   -66630   -66567   -66514 
  -66468   -66440   -66410   -66366   -66328   -66287   -66233   -66202 
  -66207   -66210   -66178   -66109   -66021   -65937   -65851   -65739 
  -65609   -65474   -65341   -65231   -65140   -65063   -65026   -65014 
  -64989   -64977   -65008   -65071   -65153   -65245   -65334   -65412 
  -65488   -65579   -65661   -65713   -65763   -65819   -65861   -65911 
  -65978   -66029   -66063   -66105   -66158   -66221   -66311   -66416 
  -66494   -66542   -66567   -66553   -66551   -66614   -66724   -66857 
  -66982   -67071   -67124   -67136   -67094   -67034   -67000   -66992 
  -66983   -66955   -66907   -66847   -66786   -66749   -66757   -66781 
  -66806   -66843   -66846   -66801   -66754   -66724   -66731   -66786 
  -66858   -66936   -67028   -67099   -67137   -67181   -67238   -67301 
  -67375   -67432   -67478   -67562   -67653   -67707   -67776   -67860 
  -67914   -67963   -68023   -68060   -68082   -68083   -68026   -67938 
  -67881   -67856   -67833   -67808   -67784   -67749   -67689   -67597 
  -67477   -67360   -67266   -67199   -67152   -67106   -67078   -67080 
  -67069   -67030   -66991   -66962   -66940   -66918   -66892   -66889 
  -66934   -66991   -67019   -67023   -67022   -67033   -67057   -67086 
  -67133   -67186   -67220   -67247   -67297   -67370   -67456   -67529 
  -67568   -67587   -67612   -67642   -67672   -67711   -67750   -67772 
  -67766   -67739   -67714   -67710   -67720   -67709   -67663   -67610 
  -67577   -67557   -67536   -67503   -67461   -67408   -67355   -67310 
  -67251   -67198   -67180   -67152   -67107   -67076   -67042   -66992 
  -66946   -66907   -66877   -66871   -66892   -66913   -66925   -66947 
  -66966   -66949   -66909   -66881   -66864   -66841   -66806   -66766 
  -66724   -66703   -66702   -66689   -66666   -66679   -66717   -66695 
  -66620   -66597   -66631   -66670   -66703   -66721   -66745   -66777 
  -66781   -66788   -66819   -66864   -66926   -66991   -67057   -67131 
  -67203   -67261   -67310   -67366   -67435   -67509   -67573   -67630 
  -67693   -67769   -67850   -67925   -67991   -68058   -68131   -68200 
  -68266   -68341   -68409   -68445   -68453   -68445   -68452   -68498 
  -68565   -68643   -68742   -68845   -68950   -69069   -69188   -69307 
  -69426   -69515   -69585   -69664   -69747   -69855   -69979   -70081 
  -70177   -70281   -70375   -70464   -70549   -70625   -70714   -70811 
  -70866   -70890   -70947   -71009   -71027   -71026   -71008   -70959 
  -70892   -70817   -70749   -70709   -70687   -70652   -70600   -70552 
  -70508   -70453   -70395   -70352   -70316   -70256   -70174   -70079 
  -69969   -69860   -69751   -69608   -69431   -69266   -69130   -68998 
  -68850   -68686   -68514   -68348   -68189   -68024   -67849   -67674 
  -67504   -67328   -67153   -67004   -66867   -66725   -66580   -66422 
  -66269   -66147   -66037   -65926   -65819   -65715   -65619   -65512 
  -65387   -65279   -65207   -65138   -65038   -64935   -64857   -64803 
  -64771   -64725   -64653   -64607   -64564   -64487   -64404   -64315 
  -64211   -64115   -64020   -63904   -63779   -63661   -63540   -63426 
  -63329   -63229   -63113   -62977   -62830   -62703   -62584   -62457 
  -62348   -62254   -62147   -62032   -61917   -61807   -61714   -61631 
  -61572   -61549   -61532   -61508   -61474   -61431   -61403   -61404 
  -61437   -61498   -61566   -61645   -61759   -61915   -62093   -62279 
  -62506   -62773   -63044   -63331   -63628   -63906   -64157   -64373 
  -64596   -64873   -65169   -65447   -65716   -65939   -66123   -66333 
  -66547   -66728   -66915   -67113   -67309   -67487   -67632   -67762 
  -67879   -67952   -68002   -68054   -68108   -68157   -68185   -68182 
  -68164   -68150   -68135   -68087   -68025   -67985   -67953   -67917 
  -67866   -67796   -67744   -67709   -67658   -67619   -67605   -67578 
  -67540   -67503   -67467   -67446   -67424   -67378   -67323   -67263 
  -67218   -67199   -67160   -67092   -67017   -66937   -66876   -66846 
  -66813   -66781   -66763   -66736   -66676   -66588   -66526   -66530 
  -66538   -66500   -66458   -66419   -66359   -66302   -66248   -66184 
  -66103   -66009   -65922   -65840   -65752   -65651   -65530   -65421 
  -65335   -65260   -65192   -65107   -65000   -64918   -64873   -64831 
  -64792   -64761   -64722   -64674   -64624   -64592   -64602   -64615 
  -64611   -64621   -64648   -64698   -64768   -64798   -64795   -64840 
  -64910   -64955   -65012   -65099   -65210   -65338   -65449   -65541 
  -65639   -65738   -65854   -65984   -66093   -66198   -66351   -66512 
  -66611   -66679   -66762   -66834   -66908   -67014   -67118   -67201 
  -67266   -67313   -67357   -67409   -67474   -67566   -67668   -67764 
  -67864   -67961   -68057   -68168   -68294   -68432   -68571   -68706 
  -68827   -68952   -69115   -69269   -69382   -69499   -69631   -69767 
  -69895   -70006   -70113   -70198   -70250   -70299   -70359   -70437 
  -70537   -70621   -70668   -70708   -70752   -70767   -70754   -70751 
  -70753   -70717   -70630   -70521   -70410   -70290   -70160   -70011 
  -69847   -69677   -69499   -69316   -69123   -68890   -68619   -68360 
  -68117   -67848   -67588   -67373   -67171   -66970   -66787   -66617 
  -66458   -66310   -66176   -66055   -65929   -65805   -65693   -65578 
  -65489   -65462   -65463   -65447   -65432   -65433   -65437   -65444 
  -65465   -65486   -65498   -65497   -65473   -65452   -65469   -65488 
  -65477   -65455   -65430   -65418   -65427   -65407   -65354   -65300 
  -65236   -65154   -65073   -65009   -64974   -64956   -64927   -64890 
  -64857   -64826   -64790   -64736   -64685   -64653   -64616   -64581 
  -64552   -64520   -64505   -64503   -64502   -64517   -64532   -64547 
  -64582   -64634   -64707   -64794   -64871   -64932   -65001   -65090 
  -65191   -65306   -65420   -65496   -65543   -65584   -65614   -65643 
  -65680   -65709   -65710   -65700   -65695   -65682   -65664   -65638 
  -65588   -65535   -65508   -65488   -65441   -65380   -65330   -65275 
  -65204   -65127   -65038   -64928   -64805   -64674   -64526   -64370 
  -64233   -64074   -63848   -63613   -63410   -63199   -62987   -62788 
  -62568   -62350   -62145   -61912   -61681   -61485   -61300   -61120 
  -60935   -60725   -60509   -60310   -60111   -59925   -59776   -59647 
  -59511   -59366   -59238   -59148   -59078   -59011   -58965   -58958 
  -58984   -59026   -59070   -59130   -59230   -59353   -59486   -59648 
  -59832   -60040   -60296   -60562   -60805   -61068   -61374   -61693 
  -62009   -62317   -62616   -62921   -63240   -63561   -63859   -64116 
  -64343   -64567   -64787   -65004   -65233   -65447   -65606   -65750 
  -65901   -66026   -66135   -66232   -66287   -66339   -66415   -66462 
  -66499   -66579   -66683   -66787   -66879   -66952   -67047   -67182 
  -67306   -67410   -67532   -67655   -67756   -67847   -67951   -68104 
  -68313   -68525   -68723   -68929   -69148   -69376   -69595   -69789 
  -69994   -70209   -70389   -70542   -70700   -70855   -70994   -71118 
  -71222   -71309   -71402   -71490   -71543   -71581   -71621   -71656 
  -71664   -71637   -71599   -71566   -71531   -71501   -71459   -71397 
  -71334   -71230   -71067   -70907   -70766   -70623   -70458   -70261 
  -70064   -69911   -69786   -69654   -69514   -69386   -69259   -69124 
  -68989   -68869   -68776   -68706   -68623   -68528   -68456   -68429 
  -68424   -68408   -68392   -68390   -68361   -68281   -68183   -68094 
  -68016   -67950   -67876   -67774   -67676   -67610   -67550   -67485 
  -67430   -67366   -67281   -67188   -67090   -66978   -66861   -66742 
  -66611   -66480   -66357   -66220   -66069   -65920   -65782   -65649 
  -65516   -65381   -65227   -65054   -64911   -64792   -64668   -64562 
  -64475   -64377   -64275   -64186   -64101   -64026   -63975   -63924 
  -63884   -63886   -63920   -63979   -64033   -64057   -64093   -64159 
  -64234   -64320   -64427   -64555   -64695   -64812   -64905   -64994 
  -65069   -65130   -65201   -65269   -65322   -65369   -65405   -65432 
  -65457   -65479   -65478   -65447   -65416   -65396   -65378   -65355 
  -65303   -65234   -65189   -65149   -65090   -65030   -64969   -64883 
  -64771   -64657   -64584   -64553   -64524   -64485   -64439   -64384 
  -64302   -64198   -64122   -64090   -64065   -64035   -64003   -63969 
  -63948   -63955   -63977   -63985   -63988   -64008   -64030   -64038 
  -64040   -64046   -64072   -64123   -64160   -64163   -64168   -64194 
  -64224   -64246   -64253   -64247   -64241   -64240   -64246   -64267 
  -64296   -64325   -64373   -64423   -64448   -64480   -64514   -64529 
  -64564   -64633   -64704   -64754   -64763   -64764   -64804   -64866 
  -64924   -64980   -65024   -65084   -65180   -65272   -65357   -65466 
  -65559   -65620   -65690   -65747   -65799   -65889   -65966   -66012 
  -66065   -66105   -66124   -66137   -66156   -66198   -66235   -66244 
  -66241   -66228   -66212   -66206   -66197   -66187   -66194   -66214 
  -66234   -66261   -66318   -66391   -66441   -66473   -66500   -66528 
  -66573   -66637   -66700   -66758   -66828   -66912   -66992   -67060 
  -67133   -67233   -67350   -67442   -67498   -67555   -67627   -67703 
  -67775   -67843   -67915   -67967   -67978   -67996   -68073   -68177 
  -68243   -68278   -68312   -68320   -68300   -68282   -68250   -68206 
  -68173   -68118   -68020   -67914   -67815   -67715   -67637   -67592 
  -67548   -67505   -67469   -67405   -67327   -67281   -67240   -67169 
  -67089   -67023   -66968   -66903   -66828   -66758   -66684   -66605 
  -66518   -66413   -66311   -66228   -66142   -66037   -65910   -65763 
  -65618   -65476   -65322   -65170   -65037   -64937   -64856   -64750 
  -64608   -64444   -64271   -64107   -63960   -63847   -63773   -63725 
  -63663   -63552   -63451   -63402   -63348   -63282   -63254   -63252 
  -63243   -63210   -63147   -63088   -63097   -63158   -63219   -63286 
  -63369   -63458   -63551   -63643   -63746   -63872   -64014   -64154 
  -64282   -64416   -64565   -64704   -64841   -64997   -65167   -65318 
  -65428   -65526   -65631   -65748   -65879   -65994   -66084   -66175 
  -66263   -66343   -66426   -66517   -66608   -66677   -66700   -66694 
  -66698   -66724   -66755   -66783   -66800   -66801   -66811   -66839 
  -66875   -66929   -67005   -67090   -67169   -67228   -67273   -67331 
  -67389   -67414   -67429   -67477   -67536   -67574   -67628   -67701 
  -67765   -67820   -67847   -67846   -67866   -67893   -67888   -67870 
  -67857   -67851   -67825   -67754   -67650   -67550   -67470   -67378 
  -67246   -67108   -66973   -66815   -66639   -66466   -66305   -66133 
  -65925   -65683   -65424   -65178   -64944   -64694   -64444   -64211 
  -63979   -63735   -63470   -63197   -62950   -62740   -62541   -62327 
  -62099   -61898   -61740   -61583   -61426   -61289   -61140   -60983 
  -60849   -60722   -60613   -60539   -60473   -60409   -60348   -60293 
  -60263   -60262   -60279   -60328   -60405   -60459   -60482   -60523 
  -60590   -60674   -60771   -60869   -60985   -61136   -61293   -61434 
  -61581   -61755   -61959   -62175   -62359   -62500   -62641   -62798 
  -62944   -63090   -63261   -63439   -63596   -63727   -63836   -63945 
  -64060   -64173   -64304   -64449   -64583   -64712   -64820   -64884 
  -64952   -65058   -65146   -65206   -65279   -65354   -65444   -65548 
  -65632   -65727   -65851   -65960   -66066   -66193   -66328   -66466 
  -66622   -66767   -66893   -67029   -67160   -67271   -67376   -67471 
  -67567   -67673   -67763   -67850   -67971   -68102   -68220   -68316 
  -68381   -68448   -68522   -68574   -68641   -68737   -68826   -68902 
  -68953   -68999   -69091   -69194   -69259   -69308   -69346   -69355 
  -69357   -69375   -69395   -69420   -69454   -69469   -69454   -69427 
  -69382   -69331   -69287   -69224   -69159   -69115   -69033   -68916 
  -68825   -68745   -68656   -68578   -68497   -68409   -68330   -68236 
  -68114   -68008   -67935   -67848   -67719   -67567   -67422   -67307 
  -67220   -67139   -67056   -66969   -66888   -66828   -66774   -66714 
  -66667   -66633   -66588   -66521   -66439   -66352   -66260   -66169 
