Origin Time       2011/03/11 14:46:00
Lat.              38.103
Long.             142.860
Depth. (km)       24
Mag.              9.0
Station Code      OSK006
Station Lat.      34.5894
Station Long.     135.4710
Station Height(m) 1
Record Time       2011/03/11 14:50:57
Sampling Freq(Hz) 100Hz
Duration Time(s)  85
Dir.              N-S
Scale Factor      3920(gal)/6182761
Max. Acc. (gal)   9.775
Last Correction   2011/03/11 14:50:42
Memo.             
[...]
  -11845   -12002   -11941   -11568   -11331   -11539   -12041   -12533 
  -12726   -12508   -12053   -11785   -11911   -12132   -12182   -12119 
  -12088   -12173   -12240   -12143   -11882   -11501   -11287   -11580 
  -12142   -12288   -11835   -11408   -11458   -11754   -12060   -12262 
  -12158   -11888   -11871   -12117   -12275   -12294   -12511   -13035 
  -13543   -13708   -13528   -13362   -13477   -13736   -14135   -14834 
  -15563   -15910   -15930   -15930   -15976   -15928   -16029   -16829 
  -18046   -18711   -18760   -18795   -18907   -19018   -19207   -19572 
  -20087   -20522   -20965   -21526   -21739   -21659   -21809   -22005 
  -22155   -22626   -23312   -23739   -23758   -23673   -23669   -23675 
  -23904   -24468   -24953   -25119   -25239   -25456   -25536   -25370 
  -25216   -25377   -25821   -26299   -26586   -26546   -26335   -26195 
  -26128   -26149   -26288   -26409   -26497   -26588   -26617   -26600 
  -26556   -26450   -26202   -25867   -25767   -25890   -25967   -25986 
  -25880   -25591   -25273   -24966   -24635   -24335   -24124   -23947 
  -23637   -23232   -22903   -22497   -21866   -21254   -20862   -20521 
  -20003   -19483   -19137   -18663   -17986   -17476   -17142   -16748 
  -16363   -16052   -15652   -15162   -14904   -14940   -14837   -14342 
  -13710   -13197   -12735   -12332   -12176   -12142   -11952   -11614 
  -11264   -10944   -10524    -9960    -9485    -9209    -9022    -8887 
   -8855    -8857    -8706    -8368    -7997    -7642    -7340    -7322 
   -7593    -7795    -7757    -7667    -7609    -7421    -7220    -7326 
   -7567    -7624    -7612    -7666    -7727    -7777    -7853    -8050 
   -8362    -8564    -8615    -8666    -8742    -8859    -9036    -9264 
   -9587    -9969   -10314   -10593   -10764   -10818   -10927   -11238 
  -11694   -12241   -12743   -13066   -13339   -13586   -13751   -13967 
  -14307   -14753   -15227   -15646   -16043   -16304   -16321   -16305 
  -16368   -16484   -16761   -17127   -17331   -17428   -17606   -17792 
  -17885   -18007   -18196   -18392   -18650   -18949   -19239   -19510 
  -19681   -19793   -19978   -20220   -20421   -20529   -20578   -20664 
  -20864   -21154   -21377   -21479   -21616   -21771   -21781   -21756 
  -21840   -21974   -22075   -22132   -22225   -22375   -22452   -22360 
  -22225   -22163   -22078   -22016   -22055   -22049   -21982   -21924 
  -21842   -21734   -21576   -21298   -20992   -20862   -20900   -20903 
  -20752   -20474   -20220   -20078   -19956   -19754   -19482   -19301 
  -19280   -19192   -18929   -18652   -18439   -18279   -18189   -18139 
  -18048   -17885   -17735   -17711   -17666   -17411   -17124   -17030 
  -17070   -17084   -16971   -16813   -16760   -16758   -16696   -16603 
  -16544   -16523   -16503   -16439   -16348   -16386   -16649   -16913 
  -16893   -16642   -16450   -16482   -16655   -16839   -16950   -16921 
  -16874   -16974   -17077   -16979   -16747   -16646   -16845   -17194 
  -17471   -17554   -17417   -17229   -17141   -17084   -17066   -17283 
  -17665   -17881   -17864   -17718   -17517   -17432   -17550   -17791 
  -17913   -17722   -17485   -17433   -17410   -17381   -17403   -17486 
  -17610   -17620   -17487   -17368   -17271   -17094   -16928   -16972 
  -17146   -17301   -17406   -17326   -17064   -16824   -16667   -16680 
  -16877   -16962   -16821   -16660   -16676   -16788   -16616   -16221 
  -16156   -16414   -16509   -16343   -16167   -15988   -15657   -15449 
  -15654   -15843   -15569   -15292   -15516   -15701   -15347   -14981 
  -14960   -14934   -14870   -15073   -15362   -15207   -14632   -14323 
  -14484   -14551   -14401   -14493   -14743   -14690   -14428   -14259 
  -14034   -13655   -13495   -13727   -14014   -14090   -14002   -13890 
  -13864   -13828   -13612   -13456   -13662   -13933   -14002   -14130 
  -14264   -14086   -13773   -13595   -13522   -13504   -13462   -13393 
  -13460   -13517   -13343   -13164   -13128   -13059   -12964   -12927 
  -12846   -12731   -12772   -12982   -13124   -13072   -12941   -12847 
  -12820   -12932   -13186   -13406   -13569   -13783   -13996   -14146 
  -14267   -14349   -14384   -14390   -14445   -14662   -15010   -15328 
  -15517   -15619   -15760   -15977   -16208   -16391   -16500   -16602 
  -16777   -16996   -17177   -17303   -17413   -17522   -17654   -17794 
  -17914   -18000   -17986   -17900   -17842   -17813   -17790   -17774 
  -17690   -17500   -17359   -17343   -17321   -17216   -17017   -16732 
  -16468   -16300   -16193   -16055   -15811   -15572   -15414   -15262 
  -15108   -14904   -14631   -14379   -14191   -14088   -14009   -13857 
  -13587   -13197   -12820   -12582   -12466   -12420   -12317   -12078 
  -11822   -11646   -11522   -11416   -11309   -11144   -10890   -10654 
  -10546   -10475   -10377   -10308   -10240   -10177   -10210   -10278 
  -10254   -10154   -10061   -10038   -10117   -10194   -10155   -10081 
  -10062   -10053   -10074   -10153   -10174   -10089    -9963    -9819 
   -9692    -9590    -9487    -9400    -9270    -9059    -8854    -8683 
   -8501    -8307    -8115    -7912    -7725    -7574    -7429    -7289 
   -7149    -7030    -6991    -6954    -6788    -6563    -6367    -6166 
   -5997    -5935    -5930    -5937    -5965    -5956    -5879    -5858 
   -5947    -6049    -6114    -6116    -6115    -6242    -6487    -6707 
   -6809    -6857    -6866    -6811    -6815    -6892    -6966    -7071 
   -7176    -7251    -7319    -7330    -7341    -7428    -7532    -7625 
   -7696    -7686    -7577    -7455    -7429    -7487    -7582    -7650 
   -7629    -7590    -7568    -7534    -7541    -7543    -7481    -7433 
   -7478    -7613    -7726    -7779    -7858    -7950    -8031    -8138 
   -8245    -8309    -8312    -8297    -8324    -8341    -8325    -8386 
   -8487    -8515    -8508    -8481    -8499    -8632    -8751    -8787 
   -8775    -8709    -8646    -8657    -8737    -8766    -8695    -8661 
   -8680    -8704    -8795    -8935    -9056    -9158    -9262    -9404 
   -9579    -9704    -9748    -9814    -9970   -10151   -10311   -10479 
  -10689   -10967   -11285   -11558   -11792   -12059   -12386   -12728 
  -12999   -13185   -13320   -13444   -13647   -13958   -14295   -14571 
  -14743   -14876   -15039   -15163   -15253   -15423   -15674   -15947 
  -16176   -16329   -16463   -16585   -16696   -16853   -17032   -17220 
  -17459   -17689   -17888   -18156   -18453   -18693   -18928   -19095 
  -19177   -19290   -19389   -19434   -19469   -19508   -19545   -19573 
  -19656   -19743   -19735   -19678   -19641   -19703   -19779   -19745 
  -19755   -19870   -19943   -19944   -19914   -19909   -19921   -19877 
  -19804   -19735   -19662   -19565   -19416   -19300   -19285   -19281 
  -19083   -18650   -18323   -18342   -18475   -18473   -18310   -18089 
  -17972   -17957   -17909   -17780   -17683   -17787   -17970   -17988 
  -17865   -17785   -17855   -17958   -17912   -17812   -17852   -17950 
  -17919   -17736   -17537   -17415   -17358   -17340   -17311   -17297 
  -17343   -17347   -17249   -17135   -17126   -17221   -17290   -17306 
  -17335   -17400   -17475   -17519   -17615   -17791   -17882   -17884 
  -17974   -18140   -18250   -18281   -18296   -18449   -18748   -18903 
  -18837   -18834   -18995   -19173   -19313   -19455   -19607   -19740 
  -19751   -19687   -19768   -19925   -19978   -19972   -19960   -19948 
  -19927   -19861   -19809   -19803   -19778   -19696   -19551   -19386 
  -19300   -19290   -19231   -19105   -19020   -18941   -18789   -18679 
  -18639   -18576   -18491   -18313   -18088   -18044   -18043   -17801 
  -17435   -17202   -17080   -16917   -16688   -16373   -16053   -15864 
  -15646   -15281   -15006   -14900   -14749   -14488   -14181   -13838 
  -13561   -13408   -13293   -13210   -13148   -13023   -12909   -12887 
  -12819   -12661   -12514   -12405   -12345   -12282   -12170   -12078 
  -12056   -12084   -12073   -11966   -11925   -11994   -11939   -11732 
  -11562   -11525   -11645   -11856   -12017   -12125   -12233   -12299 
  -12356   -12460   -12593   -12752   -12888   -12996   -13191   -13439 
  -13590   -13672   -13787   -13907   -14027   -14192   -14305   -14280 
  -14247   -14287   -14318   -14347   -14467   -14572   -14519   -14423 
  -14439   -14544   -14652   -14720   -14827   -15030   -15237   -15419 
  -15632   -15890   -16240   -16621   -16898   -17158   -17474   -17765 
  -18048   -18354   -18642   -18892   -19135   -19397   -19617   -19761 
  -19959   -20237   -20463   -20669   -20910   -21055   -21135   -21335 
  -21551   -21602   -21652   -21860   -22074   -22222   -22366   -22446 
  -22474   -22532   -22591   -22668   -22784   -22825   -22721   -22629 
  -22665   -22690   -22624   -22539   -22465   -22378   -22244   -22107 
  -21977   -21803   -21668   -21563   -21381   -21156   -20941   -20754 
  -20554   -20300   -20057   -19848   -19678   -19570   -19430   -19243 
  -19116   -18993   -18833   -18765   -18766   -18692   -18555   -18427 
  -18309   -18280   -18466   -18709   -18720   -18556   -18459   -18484 
  -18552   -18611   -18664   -18745   -18827   -18791   -18654   -18637 
  -18837   -19021   -18948   -18765   -18754   -18830   -18768   -18571 
  -18341   -18204   -18127   -17934   -17731   -17682   -17592   -17356 
  -17127   -16955   -16867   -16933   -17020   -16950   -16753   -16574 
  -16527   -16581   -16539   -16355   -16252   -16264   -16214   -16084 
  -15916   -15775   -15818   -15999   -16144   -16178   -16072   -15928 
  -15876   -15835   -15724   -15678   -15758   -15759   -15606   -15490 
  -15492   -15518   -15446   -15317   -15314   -15349   -15291   -15333 
  -15486   -15586   -15604   -15546   -15556   -15709   -15794   -15756 
  -15688   -15554   -15409   -15381   -15408   -15399   -15397   -15389 
  -15320   -15198   -14998   -14764   -14596   -14508   -14465   -14417 
  -14351   -14306   -14279   -14214   -14114   -14044   -14021   -14013 
  -13996   -13978   -13954   -13902   -13788   -13619   -13510   -13472 
  -13346   -13164   -13086   -13019   -12837   -12603   -12366   -12176 
  -12070   -11984   -11891   -11791   -11628   -11482   -11440   -11374 
  -11272   -11248   -11209   -11103   -10977   -10813   -10644   -10544 
  -10498   -10412   -10232    -9987    -9733    -9526    -9405    -9337 
   -9214    -9027    -8852    -8717    -8617    -8517    -8354    -8109 
   -7865    -7688    -7540    -7418    -7327    -7189    -6967    -6698 
   -6509    -6436    -6340    -6168    -5970    -5809    -5696    -5595 
   -5514    -5491    -5501    -5471    -5404    -5390    -5451    -5552 
   -5699    -5859    -5967    -6048    -6141    -6243    -6455    -6784 
   -7021    -7128    -7208    -7239    -7283    -7427    -7545    -7680 
   -7948    -8160    -8255    -8391    -8578    -8776    -9011    -9335 
   -9710    -9990   -10199   -10438   -10720   -11054   -11329   -11477 
  -11637   -11873   -12130   -12361   -12571   -12778   -12925   -13032 
  -13178   -13327   -13448   -13566   -13677   -13741   -13746   -13773 
  -13833   -13892   -13967   -13998   -13958   -13916   -13878   -13882 
  -13907   -13863   -13811   -13788   -13727   -13603   -13421   -13244 
  -13155   -13148   -13115   -13022   -12938   -12833   -12686   -12570 
  -12483   -12364   -12217   -12100   -12035   -11974   -11822   -11598 
  -11412   -11277   -11169   -11069   -10968   -10869   -10707   -10497 
  -10265    -9986    -9762    -9604    -9394    -9162    -9003    -8869 
   -8680    -8470    -8235    -7968    -7768    -7532    -7166    -6927 
   -6853    -6716    -6518    -6350    -6182    -5946    -5681    -5440 
   -5187    -4975    -4826    -4679    -4534    -4398    -4306    -4261 
   -4271    -4369    -4432    -4387    -4300    -4198    -4146    -4141 
   -4152    -4253    -4425    -4573    -4652    -4652    -4674    -4793 
   -4916    -5018    -5115    -5157    -5223    -5371    -5507    -5644 
   -5836    -6014    -6191    -6441    -6729    -7011    -7285    -7547 
   -7783    -8058    -8410    -8716    -8981    -9312    -9650    -9886 
  -10056   -10315   -10641   -10927   -11227   -11518   -11748   -11946 
  -12076   -12232   -12549   -12874   -13024   -13063   -13115   -13217 
  -13342   -13441   -13514   -13611   -13729   -13780   -13757   -13728 
  -13686   -13678   -13763   -13887   -13979   -14030   -14074   -14109 
  -14126   -14164   -14283   -14471   -14626   -14744   -14812   -14782 
  -14850   -15064   -15204   -15267   -15322   -15330   -15387   -15538 
  -15666   -15772   -15870   -15909   -15897   -15867   -15885   -15941 
  -15967   -16022   -16111   -16160   -16245   -16387   -16435   -16407 
  -16427   -16457   -16472   -16534   -16629   -16714   -16843   -17030 
  -17133   -17179   -17307   -17384   -17368   -17455   -17606   -17740 
  -17967   -18184   -18230   -18251   -18347   -18426   -18488   -18613 
  -18782   -18950   -19173   -19416   -19554   -19590   -19587   -19584 
  -19648   -19821   -20020   -20161   -20273   -20376   -20493   -20623 
  -20753   -20892   -20963   -20970   -21015   -21106   -21234   -21387 
  -21527   -21665   -21855   -22099   -22313   -22510   -22717   -22884 
  -23089   -23342   -23588   -23916   -24288   -24561   -24758   -24971 
  -25253   -25629   -26073   -26461   -26697   -26890   -27124   -27329 
  -27571   -27872   -28093   -28263   -28394   -28484   -28673   -28904 
  -29021   -29091   -29188   -29215   -29186   -29244   -29369   -29487 
  -29627   -29796   -29950   -30052   -30082   -30040   -29995   -30019 
  -30079   -30143   -30205   -30242   -30253   -30238   -30196   -30137 
  -30066   -30032   -30004   -29883   -29735   -29645   -29552   -29431 
  -29299   -29167   -29053   -28926   -28741   -28516   -28294   -28116 
  -27949   -27732   -27490   -27297   -27150   -26954   -26704   -26407 
  -26055   -25741   -25459   -25170   -24939   -24730   -24416   -24024 
  -23641   -23236   -22807   -22446   -22136   -21782   -21398   -21007 
  -20572   -20138   -19740   -19307   -18888   -18559   -18222   -17856 
  -17540   -17273   -17003   -16744   -16539   -16346   -16172   -16048 
  -15911   -15739   -15566   -15402   -15204   -14988   -14827   -14651 
  -14435   -14277   -14124   -13923   -13718   -13529   -13412   -13349 
  -13222   -12995   -12758   -12562   -12390   -12293   -12300   -12288 
  -12203   -12058   -11882   -11779   -11687   -11504   -11348   -11255 
  -11158   -10999   -10748   -10564   -10519   -10502   -10449   -10336 
  -10257   -10260   -10243   -10189   -10121   -10049   -10014   -10066 
  -10132   -10050    -9878    -9769    -9719    -9765    -9845    -9865 
   -9975   -10133   -10138   -10099   -10075   -10060   -10116   -10191 
  -10251   -10241   -10214   -10275   -10237   -10138   -10166   -10180 
  -10152   -10152   -10163   -10217   -10245   -10204   -10048    -9821 
   -9736    -9731    -9705    -9649    -9546    -9579    -9670    -9579 
   -9359    -9117    -8969    -8879    -8747    -8631    -8478    -8302 
   -8218    -8113    -7966    -7839    -7683    -7555    -7411    -7196 
   -7075    -7063    -7089    -7125    -7046    -6883    -6807    -6837 
   -6841    -6778    -6758    -6731    -6580    -6402    -6291    -6217 
   -6169    -6171    -6196    -6158    -6044    -5925    -5805    -5697 
   -5673    -5705    -5732    -5811    -5967    -6119    -6208    -6280 
   -6378    -6497    -6646    -6806    -6962    -7152    -7408    -7741 
   -8057    -8276    -8482    -8726    -8965    -9220    -9555    -9937 
  -10290   -10671   -11091   -11409   -11679   -12087   -12572   -13015 
  -13428   -13785   -14111   -14558   -15060   -15356   -15556   -15967 
  -16448   -16825   -17244   -17695   -18163   -18741   -19230   -19484 
  -19584   -19569   -19728   -20281   -20888   -21353   -21837   -22269 
  -22515   -22537   -22326   -22135   -22112   -22287   -22745   -23240 
  -23587   -23837   -23893   -23774   -23565   -23329   -23311   -23568 
  -23919   -24165   -24139   -23934   -23729   -23607   -23602   -23659 
  -23895   -24184   -24060   -23668   -23294   -23030   -23095   -23346 
  -23614   -23801   -23744   -23557   -23232   -22877   -22655   -22493 
  -22599   -22894   -23034   -22813   -22108   -21373   -20947   -20821 
  -21071   -21352   -21284   -20825   -20230   -19866   -19714   -19631 
  -19501   -19322   -19219   -18993   -18676   -18729   -19004   -18977 
  -18661   -18296   -18130   -18238   -18288   -18224   -18227   -18198 
  -18037   -17841   -17735   -17666   -17535   -17412   -17354   -17289 
  -17192   -17115   -17089   -17092   -17058   -17025   -17095   -17237 
  -17258   -17032   -16790   -16771   -16858   -16917   -16953   -16979 
  -16970   -16791   -16525   -16426   -16406   -16300   -16179   -16084 
  -15952   -15779   -15598   -15417   -15204   -14947   -14727   -14575 
  -14398   -14155   -13875   -13553   -13279   -13141   -13025   -12849 
  -12691   -12581   -12431   -12203   -11969   -11761   -11591   -11496 
  -11426   -11409   -11483   -11459   -11305   -11130   -10890   -10709 
  -10717   -10849   -11055   -11192   -11191   -11133   -10965   -10760 
  -10689   -10724   -10868   -11048   -11062   -10933   -10808   -10739 
  -10688   -10579   -10439   -10381   -10413   -10444   -10412   -10343 
  -10302   -10298   -10300   -10261   -10158   -10123   -10241   -10363 
  -10390   -10363   -10276   -10155   -10022    -9832    -9708    -9747 
   -9803    -9798    -9727    -9554    -9364    -9228    -9142    -9099 
   -9016    -8945    -8982    -8990    -8986    -9084    -9038    -8745 
   -8424    -8138    -8040    -8363    -8871    -9375    -9760    -9527 
   -8812    -8357    -8290    -8477    -8854    -9301    -9819   -10236 
  -10247    -9931    -9601    -9457    -9577    -9884   -10155   -10207 
  -10104   -10058   -10259   -10754   -11157   -11132   -10849   -10440 
   -9977    -9837   -10577   -12001   -12840   -12519   -11710   -11056 
  -10953   -11288   -11585   -11929   -12419   -12705   -12751   -12743 
  -12587   -12309   -12182   -12317   -12651   -12966   -13042   -12953 
  -12864   -12949   -13390   -13921   -14023   -13716   -13364   -13033 
  -12893   -13363   -14147   -14534   -14474   -14190   -13794   -13566 
  -13445   -13171   -13154   -13619   -14019   -14138   -14131   -13907 
  -13543   -13353   -13380   -13546   -13870   -14165   -14129   -13889 
  -13892   -14115   -14186   -14163   -14165   -14077   -14084   -14199 
  -14101   -13994   -14123   -14240   -14206   -14096   -14012   -14026 
  -14133   -14216   -14131   -13940   -13798   -13824   -14053   -14237 
  -14128   -13775   -13441   -13362   -13461   -13654   -13879   -13935 
  -13920   -13741   -13047   -12378   -12496   -13185   -13785   -13872 
  -13554   -13088   -12541   -12340   -12687   -13056   -13122   -12892 
  -12669   -12760   -12770   -12499   -12236   -12055   -12075   -12200 
  -12242   -12386   -12436   -12166   -11725   -11132   -10874   -11389 
  -12112   -12507   -12399   -11869   -11283   -10836   -10944   -11608 
  -12050   -12206   -12217   -11971   -11772   -11679   -11699   -11967 
  -12216   -12305   -12286   -12346   -12558   -12519   -12190   -11870 
  -11774   -12081   -12507   -12891   -13170   -12905   -12349   -12115 
  -12243   -12371   -12314   -12612   -13371   -13853   -13741   -13134 
  -12474   -12395   -13062   -14140   -14842   -14636   -13977   -13584 
  -13766   -14391   -15063   -15462   -15350   -14770   -14501   -14987 
