Origin Time       2011/03/11 14:46:00
Lat.              38.103
Long.             142.860
Depth. (km)       24
Mag.              9.0
Station Code      SIG001
Station Lat.      35.5399
Station Long.     136.2066
Station Height(m) 141
Record Time       2011/03/11 14:49:07
Sampling Freq(Hz) 100Hz
Duration Time(s)  169
Dir.              U-D
Scale Factor      3920(gal)/6182761
Max. Acc. (gal)   2.331
Last Correction   2011/03/11 14:48:52
Memo.             
[...]
  -22524   -22559   -22563   -22541   -22511   -22460   -22385   -22309 
  -22231   -22170   -22140   -22105   -22034   -21914   -21757   -21622 
  -21548   -21525   -21520   -21489   -21431   -21375   -21327   -21309 
  -21312   -21287   -21243   -21194   -21130   -21081   -21076   -21116 
  -21194   -21288   -21392   -21502   -21602   -21694   -21763   -21812 
  -21852   -21845   -21788   -21713   -21622   -21538   -21483   -21448 
  -21440   -21449   -21452   -21450   -21440   -21425   -21420   -21420 
  -21440   -21483   -21546   -21637   -21734   -21809   -21853   -21852 
  -21816   -21793   -21800   -21831   -21890   -21942   -21956   -21945 
  -21896   -21819   -21743   -21651   -21539   -21429   -21312   -21182 
  -21050   -20922   -20807   -20717   -20665   -20643   -20654   -20718 
  -20817   -20909   -20970   -20971   -20899   -20782   -20646   -20495 
  -20338   -20178   -20016   -19856   -19718   -19617   -19534   -19485 
  -19493   -19529   -19601   -19729   -19871   -20015   -20165   -20287 
  -20387   -20470   -20513   -20531   -20528   -20502   -20485   -20466 
  -20441   -20439   -20457   -20503   -20574   -20629   -20660   -20675 
  -20670   -20654   -20631   -20589   -20530   -20465   -20422   -20431 
  -20483   -20561   -20667   -20791   -20932   -21109   -21318   -21538 
  -21754   -21961   -22154   -22309   -22393   -22399   -22346   -22248 
  -22143   -22063   -21992   -21936   -21902   -21863   -21801   -21723 
  -21661   -21631   -21623   -21654   -21688   -21676   -21639   -21579 
  -21490   -21417   -21351   -21260   -21151   -21019   -20891   -20796 
  -20711   -20634   -20578   -20519   -20469   -20456   -20446   -20423 
  -20398   -20350   -20273   -20177   -20064   -19955   -19890   -19872 
  -19900   -19977   -20078   -20198   -20342   -20497   -20645   -20769 
  -20847   -20883   -20900   -20910   -20924   -20953   -20986   -21024 
  -21052   -21034   -20971   -20898   -20827   -20770   -20748   -20761 
  -20779   -20787   -20802   -20845   -20924   -21021   -21107   -21153 
  -21165   -21177   -21179   -21171   -21187   -21211   -21247   -21321 
  -21407   -21486   -21540   -21528   -21474   -21413   -21349   -21301 
  -21252   -21165   -21048   -20908   -20770   -20669   -20593   -20511 
  -20404   -20265   -20113   -19973   -19864   -19800   -19771   -19742 
  -19693   -19620   -19531   -19445   -19408   -19451   -19556   -19694 
  -19843   -19965   -20054   -20152   -20274   -20404   -20530   -20607 
  -20605   -20540   -20448   -20385   -20386   -20443   -20516   -20575 
  -20609   -20611   -20615   -20664   -20752   -20868   -20998   -21124 
  -21251   -21365   -21467   -21575   -21680   -21788   -21901   -21990 
  -22068   -22139   -22173   -22193   -22220   -22230   -22221   -22186 
  -22112   -22021   -21926   -21842   -21782   -21720   -21652   -21587 
  -21517   -21459   -21425   -21388   -21330   -21250   -21139   -21009 
  -20878   -20749   -20635   -20539   -20440   -20343   -20262   -20203 
  -20183   -20201   -20244   -20306   -20383   -20476   -20575   -20656 
  -20714   -20756   -20774   -20778   -20773   -20727   -20636   -20532 
  -20427   -20335   -20265   -20189   -20080   -19933   -19772   -19619 
  -19475   -19340   -19213   -19086   -18956   -18847   -18793   -18807 
  -18896   -19052   -19240   -19443   -19665   -19894   -20131   -20379 
  -20604   -20779   -20896   -20940   -20928   -20892   -20854   -20851 
  -20896   -20964   -21034   -21086   -21116   -21134   -21147   -21173 
  -21219   -21280   -21346   -21414   -21498   -21599   -21718   -21815 
  -21832   -21793   -21730   -21645   -21572   -21515   -21436   -21336 
  -21225   -21111   -21019   -20934   -20822   -20678   -20503   -20312 
  -20142   -20010   -19923   -19882   -19899   -19984   -20122   -20291 
  -20482   -20687   -20895   -21102   -21314   -21523   -21721   -21907 
  -22062   -22170   -22229   -22243   -22221   -22165   -22077   -21971 
  -21848   -21708   -21563   -21411   -21260   -21136   -21054   -21012 
  -20998   -21006   -21036   -21083   -21132   -21173   -21207   -21246 
  -21288   -21317   -21332   -21346   -21369   -21392   -21406   -21402 
  -21374   -21334   -21306   -21309   -21347   -21397   -21444   -21480 
  -21508   -21543   -21580   -21622   -21683   -21749   -21811   -21865 
  -21895   -21903   -21892   -21875   -21880   -21897   -21895   -21866 
  -21811   -21748   -21701   -21673   -21671   -21698   -21740   -21798 
  -21876   -21973   -22093   -22216   -22313   -22390   -22450   -22480 
  -22468   -22411   -22316   -22182   -21997   -21773   -21545   -21336 
  -21156   -21009   -20876   -20749   -20638   -20543   -20493   -20516 
  -20590   -20694   -20827   -20979   -21133   -21296   -21473   -21647 
  -21818   -21968   -22060   -22106   -22099   -22015   -21871   -21691 
  -21497   -21340   -21230   -21150   -21101   -21071   -21063   -21092 
  -21155   -21262   -21408   -21549   -21675   -21792   -21897   -22016 
  -22162   -22311   -22431   -22503   -22523   -22490   -22416   -22306 
  -22162   -21994   -21808   -21621   -21434   -21244   -21076   -20936 
  -20817   -20757   -20765   -20808   -20874   -20948   -21013   -21079 
  -21149   -21218   -21280   -21326   -21365   -21425   -21525   -21651 
  -21778   -21882   -21940   -21956   -21964   -21971   -21970   -21945 
  -21874   -21770   -21659   -21549   -21452   -21359   -21260   -21168 
  -21080   -21010   -20965   -20911   -20850   -20786   -20710   -20654 
  -20636   -20627   -20602   -20553   -20466   -20335   -20185   -20034 
  -19878   -19750   -19672   -19621   -19588   -19564   -19555   -19578 
  -19628   -19711   -19811   -19877   -19913   -19949   -19999   -20090 
  -20206   -20312   -20417   -20508   -20576   -20648   -20733   -20815 
  -20882   -20925   -20936   -20936   -20972   -21058   -21164   -21273 
  -21377   -21472   -21564   -21662   -21757   -21832   -21872   -21870 
  -21828   -21768   -21711   -21651   -21583   -21517   -21437   -21337 
  -21224   -21102   -20986   -20893   -20834   -20808   -20791   -20774 
  -20750   -20707   -20673   -20663   -20667   -20707   -20765   -20829 
  -20923   -21039   -21177   -21325   -21436   -21511   -21550   -21562 
  -21589   -21615   -21616   -21611   -21595   -21579   -21593   -21628 
  -21654   -21648   -21596   -21513   -21417   -21320   -21240   -21190 
  -21168   -21173   -21211   -21268   -21306   -21332   -21341   -21297 
  -21235   -21171   -21103   -21074   -21082   -21115   -21191   -21290 
  -21396   -21496   -21546   -21545   -21514   -21457   -21388   -21315 
  -21241   -21185   -21165   -21175   -21205   -21241   -21262   -21275 
  -21280   -21259   -21240   -21247   -21263   -21297   -21344   -21373 
  -21397   -21429   -21450   -21445   -21417   -21359   -21275   -21216 
  -21214   -21257   -21337   -21434   -21517   -21600   -21687   -21758 
  -21808   -21817   -21784   -21734   -21656   -21548   -21424   -21271 
  -21109   -20958   -20812   -20687   -20592   -20519   -20492   -20524 
  -20593   -20686   -20796   -20895   -20972   -21044   -21089   -21098 
  -21095   -21078   -21053   -21034   -21035   -21061   -21101   -21155 
  -21208   -21215   -21179   -21121   -21048   -20985   -20944   -20914 
  -20893   -20868   -20822   -20781   -20771   -20774   -20778   -20785 
  -20796   -20812   -20850   -20912   -20978   -21036   -21093   -21152 
  -21215   -21267   -21296   -21311   -21321   -21345   -21395   -21445 
  -21467   -21472   -21484   -21524   -21586   -21651   -21693   -21709 
  -21724   -21761   -21820   -21862   -21839   -21752   -21630   -21499 
  -21380   -21284   -21206   -21144   -21104   -21098   -21132   -21192 
  -21248   -21290   -21301   -21268   -21224   -21178   -21130   -21113 
  -21101   -21059   -20995   -20904   -20788   -20670   -20561   -20462 
  -20373   -20301   -20245   -20207   -20195   -20184   -20155   -20128 
  -20124   -20165   -20253   -20368   -20502   -20651   -20820   -20987 
  -21132   -21257   -21336   -21363   -21368   -21345   -21284   -21198 
  -21084   -20949   -20828   -20733   -20655   -20586   -20500   -20378 
  -20236   -20089   -19959   -19861   -19794   -19770   -19793   -19858 
  -19967   -20092   -20213   -20339   -20468   -20590   -20718   -20860 
  -21010   -21168   -21322   -21440   -21509   -21534   -21521   -21485 
  -21444   -21391   -21333   -21274   -21205   -21141   -21083   -21002 
  -20897   -20790   -20694   -20643   -20650   -20698   -20775   -20870 
  -20991   -21152   -21321   -21475   -21604   -21679   -21717   -21747 
  -21765   -21765   -21734   -21666   -21591   -21519   -21456   -21412 
  -21361   -21277   -21169   -21076   -21022   -21014   -21052   -21117 
  -21172   -21205   -21213   -21187   -21120   -21020   -20906   -20794 
  -20708   -20670   -20658   -20644   -20636   -20634   -20620   -20605 
  -20594   -20569   -20543   -20546   -20585   -20661   -20790   -20955 
  -21133   -21313   -21458   -21543   -21571   -21555   -21514   -21464 
  -21412   -21358   -21287   -21196   -21091   -20965   -20829   -20703 
  -20575   -20449   -20344   -20258   -20194   -20152   -20142   -20196 
  -20329   -20533   -20771   -20999   -21186   -21325   -21445   -21557 
  -21657   -21740   -21783   -21792   -21784   -21783   -21813   -21853 
  -21881   -21909   -21918   -21908   -21899   -21878   -21841   -21783 
  -21681   -21539   -21375   -21203   -21052   -20933   -20840   -20791 
  -20780   -20787   -20808   -20836   -20880   -20944   -21007   -21061 
  -21096   -21085   -21036   -20964   -20876   -20778   -20647   -20485 
  -20323   -20166   -20016   -19877   -19752   -19661   -19602   -19566 
  -19564   -19580   -19598   -19612   -19621   -19652   -19712   -19787 
  -19883   -20009   -20157   -20312   -20442   -20523   -20561   -20576 
  -20568   -20552   -20559   -20591   -20651   -20747   -20873   -21015 
  -21158   -21285   -21383   -21438   -21454   -21452   -21436   -21412 
  -21392   -21363   -21327   -21307   -21312   -21338   -21374   -21400 
  -21396   -21359   -21301   -21238   -21168   -21084   -20992   -20878 
  -20738   -20596   -20470   -20351   -20238   -20131   -20003   -19834 
  -19640   -19445   -19275   -19155   -19064   -18973   -18874   -18757 
  -18633   -18527   -18442   -18386   -18378   -18401   -18432   -18483 
  -18556   -18648   -18761   -18871   -18959   -19006   -19009   -19003 
  -19002   -18985   -18973   -18976   -18991   -19032   -19099   -19183 
  -19281   -19359   -19413   -19478   -19565   -19689   -19851   -20032 
  -20219   -20408   -20596   -20788   -20993   -21204   -21394   -21547 
  -21648   -21708   -21749   -21769   -21774   -21774   -21766   -21767 
  -21781   -21807   -21861   -21931   -21992   -22034   -22053   -22050 
  -22032   -22015   -21989   -21927   -21818   -21652   -21424   -21174 
  -20941   -20727   -20535   -20366   -20217   -20100   -20032   -20013 
  -20047   -20120   -20200   -20281   -20358   -20407   -20428   -20434 
  -20435   -20460   -20517   -20612   -20761   -20942   -21134   -21322 
  -21486   -21629   -21750   -21835   -21880   -21880   -21845   -21782 
  -21696   -21623   -21565   -21512   -21476   -21453   -21438   -21440 
  -21468   -21518   -21570   -21629   -21722   -21837   -21968   -22115 
  -22251   -22355   -22408   -22398   -22344   -22272   -22198   -22132 
  -22071   -22004   -21939   -21892   -21867   -21858   -21853   -21834 
  -21786   -21719   -21656   -21603   -21553   -21505   -21464   -21430 
  -21390   -21324   -21232   -21115   -20987   -20873   -20772   -20694 
  -20660   -20651   -20650   -20656   -20654   -20634   -20597   -20539 
  -20487   -20452   -20419   -20410   -20419   -20424   -20448   -20485 
  -20515   -20569   -20632   -20684   -20730   -20735   -20697   -20665 
  -20640   -20608   -20580   -20526   -20420   -20294   -20171   -20066 
  -20008   -19984   -19959   -19932   -19914   -19916   -19959   -20053 
  -20172   -20292   -20397   -20489   -20578   -20669   -20773   -20880 
  -20971   -21044   -21105   -21153   -21200   -21253   -21307   -21366 
  -21429   -21480   -21521   -21552   -21569   -21589   -21611   -21606 
  -21566   -21504   -21444   -21400   -21361   -21313   -21251   -21158 
  -21025   -20869   -20708   -20555   -20414   -20280   -20152   -20041 
  -19952   -19880   -19823   -19762   -19702   -19656   -19604   -19549 
  -19522   -19511   -19522   -19572   -19642   -19717   -19780   -19831 
  -19887   -19928   -19950   -19968   -19969   -19976   -20014   -20075 
  -20173   -20306   -20441   -20590   -20762   -20925   -21069   -21176 
  -21236   -21285   -21328   -21354   -21362   -21330   -21266   -21179 
  -21055   -20916   -20775   -20631   -20501   -20376   -20256   -20179 
  -20139   -20122   -20137   -20175   -20223   -20277   -20328   -20373 
  -20410   -20436   -20447   -20457   -20482   -20522   -20564   -20595 
  -20607   -20598   -20563   -20492   -20367   -20197   -20024   -19860 
  -19709   -19589   -19492   -19408   -19329   -19243   -19167   -19094 
  -19006   -18932   -18871   -18810   -18777   -18757   -18740   -18747 
  -18768   -18816   -18905   -19013   -19141   -19266   -19366   -19465 
  -19554   -19631   -19721   -19803   -19882   -19983   -20081   -20165 
  -20232   -20264   -20280   -20294   -20315   -20337   -20346   -20339 
  -20310   -20258   -20194   -20120   -20052   -19996   -19937   -19881 
  -19825   -19766   -19685   -19567   -19461   -19383   -19315   -19271 
  -19231   -19171   -19092   -18974   -18827   -18685   -18533   -18370 
  -18194   -17993   -17798   -17635   -17499   -17404   -17343   -17295 
  -17274   -17290   -17352   -17481   -17653   -17832   -18026   -18244 
  -18496   -18784   -19084   -19378   -19659   -19921   -20165   -20383 
  -20549   -20660   -20740   -20803   -20862   -20907   -20928   -20943 
  -20947   -20938   -20925   -20900   -20866   -20822   -20761   -20700 
  -20653   -20605   -20575   -20581   -20610   -20663   -20741   -20819 
  -20901   -20991   -21067   -21140   -21208   -21241   -21243   -21231 
  -21207   -21191   -21186   -21177   -21180   -21209   -21258   -21333 
  -21428   -21522   -21614   -21709   -21799   -21900   -22020   -22142 
  -22267   -22388   -22488   -22568   -22622   -22641   -22643   -22634 
  -22610   -22573   -22524   -22474   -22434   -22387   -22334   -22282 
  -22223   -22176   -22157   -22138   -22106   -22058   -21983   -21907 
  -21876   -21884   -21914   -21959   -21996   -22017   -22052   -22107 
  -22170   -22225   -22257   -22264   -22257   -22247   -22227   -22201 
  -22175   -22128   -22051   -21972   -21897   -21799   -21681   -21551 
  -21391   -21216   -21066   -20941   -20842   -20772   -20725   -20705 
  -20713   -20734   -20774   -20825   -20877   -20948   -21026   -21083 
  -21132   -21169   -21170   -21150   -21111   -21051   -20980   -20897 
  -20826   -20787   -20781   -20819   -20892   -20991   -21107   -21206 
  -21293   -21392   -21494   -21596   -21710   -21821   -21941   -22090 
  -22250   -22393   -22518   -22629   -22731   -22835   -22926   -22991 
  -23044   -23093   -23129   -23137   -23102   -23025   -22922   -22822 
  -22758   -22718   -22688   -22673   -22655   -22633   -22636   -22657 
  -22669   -22666   -22619   -22528   -22422   -22303   -22178   -22052 
  -21908   -21749   -21591   -21443   -21330   -21241   -21149   -21053 
  -20952   -20870   -20844   -20869   -20924   -20989   -21049   -21113 
  -21197   -21289   -21360   -21398   -21409   -21404   -21400   -21385 
  -21342   -21294   -21247   -21194   -21168   -21172   -21182   -21206 
  -21239   -21283   -21340   -21379   -21398   -21415   -21441   -21495 
  -21565   -21627   -21669   -21680   -21654   -21590   -21491   -21384 
  -21281   -21165   -21039   -20914   -20784   -20656   -20533   -20406 
  -20279   -20160   -20064   -20015   -20005   -20016   -20044   -20060 
  -20035   -19989   -19943   -19891   -19836   -19787   -19750   -19740 
  -19744   -19739   -19755   -19804   -19868   -19970   -20105   -20241 
  -20385   -20536   -20675   -20803   -20915   -21006   -21081   -21142 
  -21194   -21216   -21186   -21126   -21071   -21031   -20987   -20933 
  -20881   -20844   -20819   -20793   -20759   -20716   -20656   -20593 
  -20565   -20576   -20602   -20640   -20694   -20763   -20858   -20980 
  -21121   -21274   -21423   -21562   -21678   -21746   -21758   -21717 
  -21632   -21521   -21395   -21259   -21105   -20928   -20747   -20573 
  -20419   -20310   -20249   -20223   -20201   -20169   -20155   -20180 
  -20240   -20333   -20425   -20461   -20452   -20449   -20462   -20449 
  -20403   -20375   -20374   -20358   -20329   -20305   -20273   -20277 
  -20354   -20440   -20467   -20454   -20447   -20484   -20577   -20681 
  -20731   -20754   -20804   -20855   -20908   -20975   -20997   -20986 
  -21010   -21067   -21128   -21184   -21251   -21343   -21448   -21545 
  -21597   -21589   -21561   -21523   -21464   -21409   -21338   -21199 
  -21024   -20897   -20825   -20762   -20695   -20608   -20480   -20378 
  -20357   -20371   -20389   -20388   -20356   -20372   -20459   -20543 
  -20592   -20618   -20656   -20728   -20813   -20912   -21031   -21164 
  -21307   -21452   -21596   -21737   -21852   -21926   -21966   -22005 
  -22071   -22159   -22241   -22286   -22302   -22343   -22398   -22409 
  -22379   -22349   -22332   -22305   -22234   -22163   -22121   -22055 
  -21960   -21873   -21784   -21684   -21594   -21517   -21457   -21429 
  -21446   -21492   -21533   -21580   -21666   -21778   -21875   -21941 
  -22004   -22075   -22126   -22165   -22218   -22264   -22309   -22381 
  -22461   -22519   -22552   -22529   -22439   -22349   -22317   -22322 
  -22335   -22361   -22408   -22487   -22607   -22745   -22852   -22933 
  -23029   -23136   -23239   -23337   -23422   -23511   -23621   -23709 
  -23726   -23708   -23710   -23703   -23638   -23563   -23517   -23476 
  -23447   -23448   -23463   -23503   -23556   -23567   -23557   -23559 
  -23523   -23458   -23413   -23358   -23286   -23240   -23214   -23176 
  -23114   -23048   -23001   -22941   -22867   -22845   -22884   -22948 
  -23006   -23042   -23101   -23203   -23288   -23335   -23358   -23355 
  -23353   -23383   -23410   -23404   -23366   -23297   -23207   -23101 
  -22956   -22766   -22573   -22403   -22263   -22174   -22108   -22020 
  -21959   -21981   -22053   -22115   -22113   -22046   -22005   -22056 
  -22181   -22324   -22415   -22470   -22577   -22740   -22906   -23030 
  -23074   -23041   -22991   -22972   -22958   -22883   -22734   -22575 
  -22476   -22390   -22215   -22023   -21903   -21771   -21638   -21615 
  -21647   -21643   -21632   -21632   -21628   -21649   -21688   -21722 
  -21728   -21650   -21566   -21612   -21665   -21564   -21406   -21317 
  -21280   -21255   -21214   -21161   -21122   -21047   -20946   -20945 
  -21046   -21125   -21123   -21082   -21085   -21161   -21283   -21430 
  -21496   -21431   -21464   -21666   -21770   -21725   -21677   -21629 
  -21554   -21529   -21617   -21684   -21562   -21410   -21404   -21443 
  -21507   -21605   -21585   -21512   -21590   -21760   -21860   -21871 
  -21844   -21826   -21876   -21953   -21931   -21858   -21889   -21956 
  -21944   -21971   -22051   -22003   -21900   -21925   -21978   -21959 
  -21914   -21764   -21525   -21450   -21576   -21663   -21605   -21511 
  -21487   -21538   -21620   -21691   -21734   -21745   -21702   -21680 
  -21839   -22073   -22114   -22022   -22037   -22177   -22300   -22297 
