Origin Time       2011/03/11 14:46:00
Lat.              38.103
Long.             142.860
Depth. (km)       24
Mag.              9.0
Station Code      SIG012
Station Lat.      34.9018
Station Long.     136.2324
Station Height(m) 225
Record Time       2011/03/11 14:49:12
Sampling Freq(Hz) 100Hz
Duration Time(s)  206
Dir.              U-D
Scale Factor      3920(gal)/6182761
Max. Acc. (gal)   2.630
Last Correction   2011/03/11 14:48:57
Memo.             
[...]
  -26708   -26761   -26779   -26781   -26815   -26849   -26858   -26908 
  -26968   -27001   -27058   -27105   -27135   -27188   -27222   -27231 
  -27246   -27247   -27243   -27237   -27207   -27197   -27219   -27219 
  -27227   -27258   -27255   -27260   -27288   -27281   -27263   -27252 
  -27228   -27201   -27180   -27183   -27191   -27173   -27157   -27130 
  -27067   -27006   -26949   -26874   -26804   -26755   -26694   -26613 
  -26557   -26509   -26423   -26340   -26270   -26163   -26053   -25980 
  -25887   -25767   -25698   -25679   -25659   -25633   -25611   -25616 
  -25641   -25653   -25669   -25692   -25694   -25726   -25809   -25868 
  -25928   -26033   -26112   -26174   -26266   -26347   -26402   -26438 
  -26452   -26468   -26486   -26479   -26465   -26461   -26446   -26418 
  -26383   -26331   -26256   -26178   -26098   -26001   -25922   -25847 
  -25734   -25653   -25608   -25513   -25442   -25423   -25373   -25356 
  -25382   -25368   -25375   -25392   -25370   -25389   -25406   -25369 
  -25379   -25416   -25405   -25418   -25488   -25546   -25623   -25752 
  -25868   -25998   -26150   -26276   -26442   -26612   -26716   -26832 
  -26917   -26938   -27000   -27031   -26993   -26999   -26984   -26915 
  -26899   -26843   -26677   -26541   -26444   -26289   -26151   -26069 
  -25949   -25831   -25756   -25649   -25540   -25464   -25365   -25289 
  -25241   -25150   -25085   -25040   -24939   -24851   -24746   -24578 
  -24438   -24283   -24079   -23934   -23829   -23692   -23592   -23553 
  -23486   -23430   -23446   -23481   -23540   -23635   -23740   -23890 
  -24077   -24276   -24507   -24767   -25051   -25371   -25721   -26062 
  -26372   -26667   -26945   -27196   -27417   -27605   -27761   -27885 
  -27971   -28019   -28040   -28057   -28038   -27956   -27888   -27852 
  -27731   -27536   -27385   -27251   -27078   -26897   -26719   -26534 
  -26360   -26197   -26038   -25886   -25764   -25693   -25626   -25558 
  -25569   -25592   -25573   -25609   -25672   -25700   -25771   -25871 
  -25955   -26077   -26233   -26368   -26494   -26646   -26799   -26908 
  -27003   -27092   -27120   -27134   -27178   -27179   -27134   -27110 
  -27102   -27080   -27038   -27002   -26997   -27010   -27017   -27008 
  -26992   -27005   -27009   -26942   -26875   -26881   -26838   -26691 
  -26593   -26553   -26468   -26365   -26258   -26173   -26114   -26020 
  -25931   -25852   -25751   -25678   -25594   -25476   -25418   -25379 
  -25278   -25217   -25238   -25232   -25229   -25285   -25340   -25412 
  -25517   -25609   -25715   -25815   -25861   -25916   -25983   -25986 
  -25978   -26006   -26000   -25997   -26035   -26019   -26006   -26057 
  -26063   -26034   -26038   -25998   -25916   -25856   -25743   -25557 
  -25410   -25309   -25207   -25117   -25007   -24915   -24909   -24871 
  -24786   -24774   -24754   -24704   -24704   -24672   -24615   -24610 
  -24592   -24578   -24640   -24674   -24659   -24740   -24861   -24892 
  -24916   -24976   -25024   -25072   -25106   -25126   -25160   -25181 
  -25190   -25206   -25224   -25261   -25304   -25354   -25424   -25448 
  -25398   -25377   -25396   -25355   -25282   -25243   -25191   -25092 
  -24983   -24886   -24781   -24668   -24568   -24470   -24377   -24299 
  -24206   -24114   -24063   -24037   -24013   -23986   -23986   -24001 
  -23987   -23994   -24051   -24103   -24161   -24288   -24439   -24565 
  -24727   -24924   -25095   -25266   -25447   -25604   -25762   -25923 
  -26060   -26208   -26363   -26472   -26565   -26680   -26744   -26768 
  -26833   -26846   -26808   -26839   -26842   -26771   -26754   -26747 
  -26694   -26660   -26637   -26584   -26527   -26465   -26370   -26277 
  -26185   -26048   -25917   -25820   -25695   -25543   -25451   -25417 
  -25359   -25288   -25269   -25282   -25295   -25318   -25346   -25374 
  -25430   -25512   -25570   -25631   -25718   -25794   -25886   -25999 
  -26092   -26197   -26346   -26495   -26602   -26700   -26828   -26946 
  -27031   -27142   -27260   -27307   -27339   -27431   -27521   -27573 
  -27664   -27776   -27853   -27932   -27996   -28029   -28071   -28096 
  -28095   -28096   -28071   -27998   -27915   -27838   -27735   -27624 
  -27531   -27429   -27327   -27251   -27174   -27097   -27054   -26990 
  -26878   -26786   -26714   -26626   -26523   -26431   -26361   -26254 
  -26121   -26066   -26068   -26029   -25972   -25945   -25909   -25861 
  -25827   -25780   -25777   -25833   -25825   -25773   -25763   -25777 
  -25849   -25947   -25989   -26087   -26226   -26243   -26236   -26302 
  -26344   -26334   -26307   -26284   -26265   -26209   -26149   -26126 
  -26062   -25974   -25934   -25876   -25815   -25826   -25843   -25843 
  -25870   -25931   -26027   -26129   -26227   -26367   -26543   -26709 
  -26859   -27003   -27151   -27268   -27344   -27464   -27602   -27631 
  -27642   -27746   -27800   -27788   -27863   -27965   -28032   -28158 
  -28320   -28427   -28548   -28735   -28869   -28944   -29061   -29141 
  -29160   -29213   -29217   -29122   -29052   -29001   -28891   -28771 
  -28661   -28508   -28326   -28127   -27916   -27712   -27493   -27267 
  -27051   -26805   -26556   -26363   -26197   -26027   -25901   -25835 
  -25768   -25697   -25681   -25696   -25717   -25774   -25837   -25902 
  -26011   -26123   -26218   -26331   -26458   -26588   -26709   -26816 
  -26917   -27028   -27187   -27367   -27464   -27538   -27774   -28065 
  -28183   -28299   -28581   -28801   -28829   -28860   -29044   -29231 
  -29241   -29175   -29154   -29125   -29008   -28802   -28583   -28362 
  -28108   -27861   -27606   -27294   -26976   -26703   -26435   -26147 
  -25882   -25669   -25473   -25233   -25006   -24884   -24791   -24659 
  -24547   -24482   -24433   -24394   -24401   -24424   -24429   -24499 
  -24617   -24696   -24794   -24928   -25049   -25194   -25376   -25532 
  -25640   -25751   -25904   -26043   -26122   -26209   -26317   -26369 
  -26365   -26365   -26352   -26314   -26294   -26256   -26186   -26194 
  -26266   -26283   -26309   -26409   -26501   -26578   -26679   -26751 
  -26789   -26856   -26952   -27036   -27096   -27126   -27135   -27176 
  -27229   -27199   -27130   -27076   -26990   -26909   -26843   -26729 
  -26603   -26480   -26339   -26224   -26143   -26044   -25918   -25834 
  -25794   -25683   -25516   -25426   -25365   -25234   -25133   -25105 
  -25024   -24930   -24892   -24813   -24716   -24637   -24526   -24451 
  -24392   -24265   -24143   -24056   -23964   -23884   -23798   -23716 
  -23682   -23635   -23566   -23569   -23605   -23605   -23622   -23686 
  -23769   -23838   -23919   -24052   -24184   -24300   -24435   -24560 
  -24674   -24810   -24947   -25069   -25191   -25341   -25501   -25605 
  -25656   -25719   -25791   -25837   -25872   -25912   -25936   -25946 
  -25981   -26037   -26075   -26109   -26188   -26265   -26287   -26306 
  -26365   -26424   -26450   -26481   -26522   -26529   -26518   -26513 
  -26480   -26441   -26445   -26434   -26361   -26295   -26263   -26209 
  -26123   -26035   -25951   -25862   -25789   -25730   -25647   -25562 
  -25525   -25492   -25415   -25373   -25394   -25374   -25348   -25391 
  -25417   -25426   -25484   -25542   -25577   -25622   -25674   -25729 
  -25780   -25831   -25902   -25986   -26065   -26150   -26248   -26340 
  -26414   -26511   -26634   -26723   -26816   -26955   -27068   -27161 
  -27274   -27366   -27456   -27566   -27665   -27742   -27820   -27939 
  -28076   -28176   -28264   -28381   -28489   -28544   -28572   -28592 
  -28569   -28515   -28486   -28470   -28404   -28332   -28313   -28259 
  -28154   -28111   -28103   -28055   -28011   -27985   -27950   -27924 
  -27901   -27843   -27766   -27697   -27628   -27541   -27435   -27319 
  -27209   -27115   -27030   -26936   -26839   -26764   -26711   -26664 
  -26626   -26610   -26600   -26569   -26537   -26556   -26563   -26509 
  -26496   -26515   -26457   -26389   -26342   -26240   -26145   -26093 
  -26025   -25968   -25922   -25867   -25851   -25850   -25837   -25856 
  -25895   -25918   -25961   -26039   -26092   -26115   -26170   -26235 
  -26261   -26305   -26371   -26387   -26394   -26403   -26347   -26282 
  -26235   -26163   -26108   -26054   -25965   -25918   -25876   -25803 
  -25806   -25827   -25762   -25727   -25756   -25747   -25720   -25732 
  -25733   -25709   -25713   -25729   -25739   -25758   -25768   -25773 
  -25814   -25897   -25978   -26049   -26152   -26264   -26363   -26493 
  -26619   -26728   -26875   -27000   -27096   -27256   -27417   -27507 
  -27602   -27741   -27864   -27973   -28087   -28168   -28250   -28357 
  -28406   -28394   -28393   -28402   -28380   -28350   -28347   -28326 
  -28283   -28255   -28202   -28124   -28079   -28056   -28003   -27934 
  -27930   -27957   -27929   -27919   -27965   -27986   -27986   -27998 
  -27999   -27978   -27939   -27917   -27916   -27862   -27768   -27708 
  -27639   -27534   -27451   -27353   -27196   -27073   -27010   -26877 
  -26706   -26630   -26544   -26401   -26347   -26327   -26248   -26241 
  -26315   -26368   -26441   -26567   -26710   -26835   -26939   -27087 
  -27254   -27343   -27429   -27572   -27650   -27654   -27694   -27727 
  -27710   -27738   -27800   -27805   -27760   -27713   -27675   -27644 
  -27655   -27700   -27747   -27806   -27862   -27909   -27962   -27969 
  -27932   -27935   -27959   -27957   -27969   -27995   -27976   -27898 
  -27804   -27730   -27646   -27576   -27585   -27621   -27604   -27553 
  -27474   -27317   -27163   -27110   -27029   -26872   -26743   -26583 
  -26407   -26356   -26375   -26377   -26366   -26313   -26210   -26102 
  -25990   -25891   -25851   -25843   -25780   -25678   -25606   -25561 
  -25527   -25504   -25490   -25525   -25594   -25641   -25707   -25816 
  -25916   -26010   -26125   -26226   -26321   -26460   -26614   -26738 
  -26858   -26973   -27016   -26985   -26942   -26895   -26859   -26847 
  -26795   -26691   -26638   -26665   -26671   -26622   -26572   -26537 
  -26492   -26389   -26290   -26286   -26328   -26413   -26527   -26578 
  -26633   -26726   -26724   -26610   -26508   -26500   -26550   -26598 
  -26604   -26575   -26593   -26661   -26696   -26689   -26741   -26972 
  -27252   -27300   -27230   -27321   -27499   -27614   -27707   -27889 
  -28157   -28315   -28296   -28255   -28271   -28392   -28599   -28667 
  -28507   -28377   -28421   -28498   -28490   -28452   -28476   -28534 
  -28536   -28471   -28460   -28551   -28563   -28397   -28220   -28156 
  -28141   -28120   -28125   -28095   -27936   -27783   -27690   -27462 
  -27217   -27261   -27382   -27238   -27006   -26889   -26775   -26720 
  -26786   -26679   -26361   -26195   -26236   -26274   -26251   -26198 
  -26111   -25981   -25905   -25944   -25948   -25879   -25846   -25787 
  -25622   -25462   -25425   -25449   -25470   -25586   -25765   -25884 
  -25979   -26036   -26044   -26146   -26317   -26450   -26595   -26727 
  -26752   -26744   -26836   -26964   -26999   -27034   -27133   -27124 
  -26969   -26853   -26790   -26659   -26544   -26496   -26390   -26257 
  -26198   -26190   -26176   -26074   -25906   -25816   -25800   -25760 
  -25747   -25836   -25884   -25777   -25634   -25526   -25464   -25461 
  -25459   -25465   -25498   -25471   -25395   -25358   -25357   -25340 
  -25339   -25320   -25210   -25172   -25254   -25260   -25222   -25194 
  -25093   -24990   -24942   -24890   -24891   -24972   -24994   -24955 
  -24934   -24910   -24947   -25055   -25149   -25281   -25439   -25521 
  -25558   -25575   -25527   -25428   -25378   -25442   -25535   -25558 
  -25530   -25500   -25484   -25505   -25550   -25540   -25493   -25487 
  -25499   -25452   -25341   -25286   -25392   -25540   -25590   -25611 
  -25656   -25719   -25820   -25924   -25999   -26023   -26000   -25993 
  -25974   -25912   -25897   -25933   -25950   -25904   -25778   -25680 
  -25672   -25659   -25647   -25682   -25689   -25672   -25700   -25725 
  -25740   -25850   -26051   -26244   -26422   -26580   -26693   -26818 
  -26994   -27185   -27391   -27594   -27731   -27805   -27926   -28170 
  -28450   -28689   -28953   -29216   -29387   -29502   -29552   -29515 
  -29529   -29610   -29684   -29794   -29916   -29982   -29974   -29909 
  -29843   -29720   -29509   -29320   -29130   -28873   -28623   -28363 
  -28017   -27692   -27482   -27267   -26956   -26606   -26271   -25919 
  -25556   -25283   -25084   -24856   -24653   -24518   -24351   -24154 
  -24007   -23928   -23930   -23982   -24039   -24082   -24092   -24108 
  -24200   -24346   -24459   -24534   -24631   -24714   -24745   -24782 
  -24857   -24953   -25030   -25031   -24975   -24946   -24996   -25075 
  -25100   -25110   -25171   -25223   -25217   -25187   -25154   -25115 
  -25099   -25112   -25072   -24934   -24763   -24599   -24434   -24235 
  -24024   -23894   -23800   -23697   -23658   -23592   -23440   -23354 
  -23293   -23123   -22911   -22693   -22483   -22380   -22345   -22324 
  -22384   -22507   -22583   -22560   -22502   -22446   -22359   -22277 
  -22216   -22149   -22155   -22259   -22426   -22637   -22782   -22807 
  -22794   -22786   -22797   -22846   -22866   -22774   -22697   -22760 
  -22805   -22772   -22827   -22930   -22910   -22826   -22818   -22855 
  -22890   -22940   -22990   -23099   -23306   -23487   -23583   -23649 
  -23658   -23606   -23579   -23533   -23394   -23288   -23303   -23342 
  -23349   -23336   -23306   -23210   -23008   -22790   -22614   -22460 
  -22402   -22420   -22386   -22313   -22234   -22132   -22071   -22108 
  -22174   -22178   -22177   -22215   -22227   -22241   -22306   -22385 
  -22479   -22584   -22682   -22779   -22901   -23096   -23278   -23370 
  -23460   -23623   -23887   -24192   -24430   -24633   -24815   -24963 
  -25160   -25413   -25624   -25722   -25768   -25855   -25923   -25971 
  -26142   -26372   -26478   -26508   -26531   -26470   -26352   -26260 
  -26186   -26149   -26152   -26094   -25953   -25813   -25678   -25540 
  -25452   -25361   -25218   -25048   -24871   -24752   -24657   -24507 
  -24394   -24332   -24236   -24123   -24005   -23886   -23819   -23827 
  -23879   -23916   -23933   -23957   -23970   -23962   -23976   -24024 
  -24048   -24065   -24161   -24312   -24482   -24704   -24923   -25088 
  -25288   -25530   -25668   -25793   -26067   -26298   -26391   -26501 
  -26594   -26582   -26544   -26531   -26494   -26428   -26410   -26407 
  -26320   -26192   -26016   -25744   -25534   -25417   -25264   -25101 
  -24889   -24592   -24373   -24240   -24134   -24116   -24085   -23991 
  -23986   -24031   -24068   -24220   -24447   -24629   -24822   -25065 
  -25317   -25559   -25813   -26065   -26245   -26406   -26630   -26861 
  -27056   -27240   -27374   -27355   -27212   -27044   -26852   -26692 
  -26625   -26563   -26450   -26320   -26163   -26041   -26023   -25924 
  -25705   -25604   -25572   -25478   -25439   -25410   -25277   -25160 
  -25119   -25081   -25040   -24992   -24879   -24698   -24480   -24227 
  -24001   -23870   -23799   -23743   -23666   -23574   -23522   -23427 
  -23223   -23050   -22915   -22751   -22682   -22695   -22659   -22626 
  -22675   -22797   -22972   -23150   -23323   -23556   -23801   -23973 
  -24162   -24418   -24655   -24897   -25232   -25627   -25993   -26280 
  -26498   -26698   -26918   -27143   -27352   -27526   -27646   -27756 
  -27882   -27945   -27920   -27880   -27869   -27884   -27875   -27827 
  -27795   -27801   -27800   -27762   -27710   -27637   -27478   -27260 
  -27110   -27035   -26928   -26778   -26645   -26526   -26389   -26245 
  -26129   -26006   -25839   -25694   -25583   -25441   -25302   -25210 
  -25115   -24993   -24870   -24747   -24602   -24436   -24286   -24212 
  -24192   -24162   -24179   -24281   -24364   -24414   -24520   -24659 
  -24773   -24907   -25051   -25126   -25188   -25316   -25466   -25598 
  -25703   -25789   -25921   -26101   -26244   -26364   -26513   -26620 
  -26659   -26729   -26847   -26974   -27107   -27262   -27418   -27503 
  -27543   -27626   -27696   -27712   -27733   -27747   -27744   -27760 
  -27756   -27734   -27769   -27841   -27887   -27915   -27931   -27889 
  -27792   -27689   -27605   -27543   -27511   -27495   -27458   -27395 
  -27324   -27214   -27086   -27017   -26955   -26853   -26794   -26737 
  -26598   -26447   -26347   -26247   -26110   -25974   -25833   -25676 
  -25559   -25466   -25348   -25189   -24961   -24744   -24605   -24470 
  -24349   -24301   -24266   -24223   -24223   -24239   -24213   -24185 
  -24184   -24147   -24098   -24092   -24043   -23955   -23909   -23876 
  -23857   -23896   -23985   -24097   -24201   -24329   -24498   -24637 
  -24750   -24908   -25110   -25317   -25492   -25632   -25796   -25985 
  -26160   -26344   -26553   -26774   -26989   -27147   -27240   -27309 
  -27377   -27404   -27371   -27366   -27388   -27360   -27334   -27377 
  -27435   -27427   -27377   -27321   -27212   -27095   -27062   -27025 
  -26912   -26846   -26836   -26754   -26656   -26646   -26688   -26750 
  -26815   -26855   -26859   -26807   -26734   -26691   -26639   -26584 
  -26565   -26544   -26503   -26458   -26389   -26326   -26305   -26270 
  -26256   -26292   -26248   -26169   -26164   -26146   -26131   -26179 
  -26202   -26204   -26260   -26339   -26408   -26484   -26550   -26618 
  -26718   -26786   -26800   -26820   -26799   -26723   -26695   -26700 
  -26661   -26616   -26592   -26539   -26428   -26298   -26193   -26071 
  -25879   -25664   -25506   -25353   -25152   -24994   -24905   -24791 
  -24699   -24714   -24744   -24712   -24646   -24581   -24531   -24496 
  -24515   -24571   -24615   -24726   -24878   -24965   -25039   -25119 
  -25197   -25310   -25396   -25433   -25510   -25585   -25593   -25623 
  -25702   -25760   -25807   -25860   -25891   -25929   -26001   -26072 
  -26107   -26099   -26090   -26123   -26169   -26212   -26260   -26281 
  -26286   -26286   -26261   -26242   -26230   -26197   -26161   -26128 
  -26105   -26113   -26128   -26127   -26132   -26127   -26086   -26053 
  -26019   -25950   -25897   -25865   -25793   -25700   -25612   -25507 
  -25407   -25332   -25261   -25188   -25100   -25008   -24968   -24941 
  -24855   -24749   -24653   -24521   -24363   -24240   -24125   -24007 
  -23916   -23814   -23705   -23646   -23618   -23557   -23447   -23332 
  -23195   -23022   -22890   -22818   -22773   -22772   -22818   -22859 
  -22883   -22944   -23036   -23096   -23189   -23387   -23594   -23791 
  -24028   -24257   -24476   -24717   -24954   -25191   -25457   -25744 
  -26024   -26278   -26511   -26734   -26952   -27159   -27334   -27463 
  -27555   -27603   -27616   -27599   -27543   -27493   -27458   -27397 
  -27322   -27248   -27173   -27118   -27056   -26924   -26754   -26638 
  -26566   -26484   -26404   -26320   -26243   -26210   -26187   -26153 
  -26087   -26004   -25982   -25955   -25860   -25802   -25749   -25618 
  -25529   -25494   -25421   -25369   -25355   -25324   -25319   -25370 
  -25409   -25411   -25446   -25552   -25677   -25780   -25904   -26080 
  -26242   -26401   -26620   -26811   -26942   -27111   -27277   -27373 
  -27486   -27624   -27689   -27724   -27778   -27774   -27737   -27733 
  -27722   -27712   -27709   -27651   -27570   -27485   -27365   -27269 
  -27195   -27080   -26974   -26908   -26825   -26752   -26709   -26635 
