Origin Time       2011/03/11 14:46:00
Lat.              38.103
Long.             142.860
Depth. (km)       24
Mag.              9.0
Station Code      SIG009
Station Lat.      35.0052
Station Long.     136.0841
Station Height(m) 134
Record Time       2011/03/11 14:49:14
Sampling Freq(Hz) 100Hz
Duration Time(s)  194
Dir.              U-D
Scale Factor      3920(gal)/6182761
Max. Acc. (gal)   2.526
Last Correction   2011/03/11 14:48:59
Memo.             
[...]
  -19708   -19666   -19610   -19578   -19552   -19487   -19388   -19334 
  -19368   -19438   -19489   -19506   -19519   -19553   -19588   -19623 
  -19690   -19775   -19837   -19879   -19908   -19906   -19882   -19879 
  -19895   -19898   -19903   -19936   -19970   -19985   -19993   -20008 
  -20045   -20077   -20053   -19997   -19983   -19998   -19967   -19854 
  -19700   -19602   -19591   -19584   -19508   -19390   -19270   -19172 
  -19127   -19101   -19025   -18928   -18860   -18794   -18742   -18736 
  -18726   -18682   -18647   -18652   -18693   -18731   -18731   -18707 
  -18719   -18805   -18921   -19010   -19080   -19157   -19248   -19359 
  -19478   -19575   -19629   -19654   -19673   -19682   -19678   -19680 
  -19658   -19593   -19533   -19499   -19466   -19429   -19390   -19358 
  -19366   -19415   -19441   -19377   -19241   -19113   -19016   -18937 
  -18887   -18847   -18758   -18651   -18591   -18553   -18542   -18603 
  -18686   -18743   -18827   -18949   -19072   -19201   -19336   -19470 
  -19612   -19757   -19892   -19992   -20032   -20032   -20026   -20012 
  -19965   -19857   -19717   -19634   -19600   -19531   -19420   -19303 
  -19171   -19022   -18883   -18767   -18666   -18580   -18531   -18522 
  -18513   -18515   -18564   -18641   -18714   -18784   -18857   -18930 
  -19010   -19085   -19149   -19264   -19462   -19641   -19743   -19813 
  -19864   -19914   -19986   -20046   -20064   -20048   -20011   -19967 
  -19902   -19801   -19682   -19559   -19453   -19372   -19281   -19179 
  -19094   -19015   -18944   -18891   -18868   -18875   -18878   -18867 
  -18838   -18784   -18738   -18684   -18611   -18579   -18617   -18680 
  -18739   -18834   -18980   -19087   -19093   -19079   -19126   -19195 
  -19227   -19253   -19308   -19317   -19251   -19216   -19237   -19273 
  -19328   -19376   -19393   -19400   -19396   -19372   -19378   -19424 
  -19413   -19321   -19253   -19248   -19270   -19304   -19338   -19385 
  -19461   -19521   -19544   -19598   -19680   -19710   -19714   -19756 
  -19798   -19807   -19812   -19814   -19803   -19772   -19708   -19655 
  -19627   -19582   -19559   -19608   -19622   -19528   -19485   -19598 
  -19725   -19774   -19781   -19712   -19609   -19628   -19730   -19733 
  -19619   -19520   -19505   -19490   -19367   -19167   -19007   -18925 
  -18883   -18869   -18839   -18743   -18643   -18615   -18631   -18639 
  -18624   -18579   -18562   -18646   -18789   -18898   -18947   -18960 
  -18978   -19078   -19273   -19452   -19586   -19746   -19868   -19877 
  -19869   -19899   -19926   -19942   -19964   -20024   -20126   -20182 
  -20163   -20143   -20151   -20151   -20130   -20126   -20149   -20154 
  -20140   -20119   -20073   -20003   -19921   -19855   -19810   -19733 
  -19611   -19492   -19383   -19265   -19151   -19048   -18927   -18817 
  -18765   -18737   -18698   -18657   -18631   -18632   -18635   -18614 
  -18619   -18679   -18763   -18850   -18940   -19054   -19216   -19392 
  -19525   -19615   -19719   -19889   -20111   -20317   -20465   -20621 
  -20848   -21040   -21109   -21169   -21312   -21443   -21502   -21540 
  -21579   -21574   -21517   -21453   -21413   -21405   -21416   -21392 
  -21322   -21256   -21201   -21132   -21066   -21025   -21007   -20988 
  -20944   -20872   -20792   -20722   -20628   -20447   -20225   -20043 
  -19891   -19718   -19525   -19339   -19143   -18916   -18689   -18503 
  -18352   -18183   -17995   -17826   -17663   -17513   -17403   -17334 
  -17302   -17263   -17211   -17188   -17195   -17225   -17278   -17326 
  -17378   -17459   -17542   -17603   -17675   -17790   -17938   -18112 
  -18299   -18461   -18582   -18676   -18745   -18820   -18958   -19132 
  -19267   -19382   -19521   -19653   -19763   -19880   -19994   -20091 
  -20194   -20297   -20386   -20461   -20518   -20556   -20571   -20564 
  -20576   -20624   -20666   -20689   -20701   -20673   -20610   -20561 
  -20528   -20495   -20472   -20455   -20440   -20423   -20383   -20330 
  -20297   -20296   -20301   -20298   -20330   -20388   -20419   -20459 
  -20545   -20637   -20716   -20796   -20871   -20949   -21047   -21140 
  -21191   -21221   -21269   -21322   -21348   -21376   -21436   -21467 
  -21443   -21404   -21352   -21311   -21327   -21358   -21354   -21349 
  -21351   -21303   -21228   -21220   -21252   -21239   -21187   -21128 
  -21065   -20977   -20864   -20780   -20760   -20762   -20730   -20651 
  -20556   -20505   -20509   -20531   -20554   -20559   -20535   -20505 
  -20500   -20564   -20669   -20715   -20700   -20693   -20707   -20724 
  -20727   -20730   -20753   -20768   -20731   -20678   -20664   -20674 
  -20651   -20594   -20550   -20529   -20509   -20530   -20630   -20743 
  -20820   -20903   -21019   -21143   -21246   -21332   -21419   -21508 
  -21593   -21654   -21671   -21674   -21687   -21678   -21635   -21606 
  -21579   -21484   -21361   -21281   -21203   -21069   -20904   -20740 
  -20581   -20420   -20245   -20060   -19883   -19728   -19570   -19384 
  -19206   -19065   -18915   -18732   -18558   -18422   -18292   -18130 
  -17971   -17864   -17793   -17726   -17648   -17566   -17516   -17500 
  -17488   -17500   -17559   -17652   -17768   -17891   -18008   -18112 
  -18204   -18289   -18346   -18387   -18464   -18577   -18700   -18825 
  -18939   -19026   -19092   -19138   -19162   -19187   -19238   -19309 
  -19366   -19399   -19409   -19397   -19382   -19384   -19388   -19408 
  -19445   -19447   -19416   -19414   -19453   -19493   -19502   -19490 
  -19470   -19417   -19344   -19291   -19241   -19176   -19103   -19002 
  -18872   -18730   -18602   -18511   -18434   -18359   -18307   -18257 
  -18166   -18038   -17919   -17832   -17758   -17681   -17607   -17547 
  -17474   -17369   -17272   -17216   -17189   -17172   -17185   -17236 
  -17288   -17307   -17308   -17343   -17438   -17562   -17695   -17854 
  -18021   -18187   -18356   -18512   -18681   -18885   -19076   -19233 
  -19388   -19561   -19725   -19856   -19987   -20155   -20343   -20528 
  -20709   -20874   -21016   -21136   -21209   -21236   -21256   -21300 
  -21385   -21486   -21555   -21603   -21659   -21698   -21683   -21632 
  -21594   -21582   -21557   -21490   -21391   -21278   -21149   -21014 
  -20903   -20808   -20668   -20474   -20288   -20114   -19909   -19713 
  -19571   -19438   -19300   -19201   -19129   -19037   -18931   -18844 
  -18814   -18826   -18826   -18833   -18882   -18931   -18946   -18945 
  -18972   -19043   -19117   -19166   -19229   -19327   -19404   -19413 
  -19390   -19383   -19404   -19430   -19420   -19371   -19340   -19325 
  -19262   -19167   -19110   -19066   -18985   -18911   -18869   -18804 
  -18712   -18609   -18495   -18397   -18347   -18310   -18246   -18194 
  -18184   -18169   -18157   -18195   -18248   -18283   -18346   -18447 
  -18528   -18572   -18613   -18664   -18721   -18788   -18853   -18887 
  -18890   -18889   -18881   -18844   -18801   -18778   -18763   -18754 
  -18743   -18683   -18561   -18439   -18354   -18312   -18330   -18386 
  -18434   -18476   -18525   -18562   -18559   -18512   -18470   -18479 
  -18532   -18569   -18571   -18589   -18655   -18729   -18757   -18747 
  -18764   -18795   -18774   -18723   -18704   -18737   -18813   -18921 
  -19051   -19180   -19270   -19314   -19347   -19409   -19486   -19575 
  -19711   -19868   -19988   -20067   -20105   -20095   -20065   -20038 
  -20014   -19997   -19975   -19911   -19784   -19601   -19385   -19163 
  -18943   -18706   -18450   -18208   -17985   -17776   -17570   -17341 
  -17083   -16820   -16597   -16439   -16306   -16182   -16116   -16114 
  -16130   -16156   -16214   -16312   -16432   -16552   -16690   -16887 
  -17154   -17441   -17688   -17895   -18105   -18329   -18555   -18781 
  -19007   -19235   -19507   -19829   -20135   -20392   -20624   -20850 
  -21066   -21281   -21500   -21686   -21830   -21973   -22104   -22204 
  -22307   -22421   -22507   -22545   -22554   -22529   -22463   -22401 
  -22351   -22269   -22160   -22070   -21987   -21873   -21735   -21620 
  -21553   -21493   -21405   -21315   -21236   -21154   -21070   -21001 
  -20983   -21004   -21021   -21029   -21024   -20987   -20924   -20841 
  -20750   -20659   -20554   -20436   -20311   -20169   -20027   -19911 
  -19791   -19646   -19519   -19440   -19372   -19273   -19149   -19058 
  -19025   -18986   -18888   -18804   -18827   -18896   -18907   -18904 
  -18968   -19057   -19092   -19097   -19132   -19176   -19204   -19237 
  -19278   -19317   -19375   -19445   -19481   -19487   -19506   -19527 
  -19541   -19586   -19666   -19753   -19845   -19956   -20093   -20231 
  -20342   -20434   -20520   -20612   -20695   -20755   -20829   -20908 
  -20939   -20929   -20927   -20951   -20981   -20971   -20906   -20824 
  -20774   -20738   -20682   -20641   -20643   -20664   -20655   -20592 
  -20504   -20426   -20364   -20312   -20260   -20224   -20203   -20159 
  -20087   -20011   -19942   -19865   -19722   -19540   -19443   -19455 
  -19478   -19467   -19438   -19410   -19370   -19295   -19232   -19216 
  -19226   -19270   -19349   -19417   -19476   -19553   -19613   -19644 
  -19678   -19706   -19706   -19705   -19761   -19886   -19998   -20039 
  -20037   -20021   -20029   -20081   -20133   -20205   -20369   -20571 
  -20721   -20821   -20892   -20915   -20906   -20931   -20991   -21015 
  -21011   -21049   -21110   -21104   -20971   -20780   -20705   -20803 
  -20941   -20992   -20960   -20933   -20941   -20947   -20951   -20983 
  -21030   -21075   -21102   -21075   -20972   -20806   -20638   -20546 
  -20529   -20547   -20556   -20483   -20317   -20095   -19849   -19675 
  -19662   -19754   -19839   -19877   -19860   -19753   -19605   -19588 
  -19774   -20012   -20130   -20169   -20266   -20368   -20360   -20342 
  -20451   -20607   -20656   -20582   -20507   -20537   -20701   -20960 
  -21196   -21291   -21212   -21053   -20964   -21046   -21328   -21666 
  -21807   -21735   -21665   -21715   -21818   -21879   -21928   -22032 
  -22134   -22085   -21854   -21623   -21570   -21624   -21590   -21414 
  -21200   -21000   -20701   -20242   -19870   -19829   -20004   -20102 
  -19954   -19593   -19179   -18840   -18595   -18436   -18396   -18441 
  -18380   -18157   -18016   -18135   -18375   -18517   -18570   -18684 
  -18846   -18889   -18816   -18857   -19094   -19321   -19347   -19236 
  -19172   -19200   -19255   -19357   -19550   -19735   -19786   -19736 
  -19671   -19598   -19526   -19527   -19613   -19716   -19769   -19790 
  -19873   -20029   -20165   -20239   -20238   -20107   -19882   -19701 
  -19629   -19671   -19831   -20031   -20124   -20066   -19934   -19868 
  -19950   -20105   -20216   -20281   -20337   -20369   -20321   -20198 
  -20107   -20080   -20008   -19882   -19823   -19846   -19848   -19759 
  -19620   -19538   -19552   -19612   -19667   -19672   -19636   -19633 
  -19644   -19597   -19551   -19587   -19620   -19523   -19343   -19227 
  -19171   -19080   -18988   -18976   -18997   -18943   -18819   -18741 
  -18808   -18990   -19128   -19117   -19039   -19026   -19107   -19245 
  -19420   -19573   -19638   -19664   -19756   -19893   -19985   -20032 
  -20075   -20085   -20037   -19989   -19998   -20072   -20194   -20331 
  -20468   -20596   -20710   -20838   -20992   -21164   -21381   -21642 
  -21866   -21975   -21992   -22030   -22148   -22274   -22322   -22299 
  -22319   -22468   -22684   -22831   -22858   -22798   -22675   -22488 
  -22258   -22030   -21828   -21631   -21465   -21397   -21406   -21413 
  -21360   -21241   -21122   -21031   -20934   -20825   -20747   -20719 
  -20705   -20621   -20429   -20238   -20186   -20248   -20262   -20142 
  -19970   -19862   -19787   -19667   -19535   -19477   -19518   -19603 
  -19622   -19550   -19490   -19479   -19422   -19279   -19165   -19188 
  -19279   -19317   -19305   -19329   -19401   -19430   -19382   -19336 
  -19353   -19385   -19351   -19299   -19368   -19527   -19609   -19595 
  -19600   -19639   -19642   -19600   -19560   -19551   -19599   -19736 
  -19947   -20196   -20456   -20631   -20597   -20399   -20185   -20037 
  -19985   -20003   -19994   -19951   -19933   -19858   -19686   -19560 
  -19516   -19461   -19402   -19396   -19383   -19267   -19073   -18968 
  -19079   -19283   -19398   -19483   -19649   -19812   -19843   -19777 
  -19790   -19981   -20246   -20450   -20578   -20637   -20611   -20536 
  -20506   -20596   -20754   -20837   -20810   -20797   -20871   -20903 
  -20810   -20732   -20750   -20778   -20770   -20735   -20674   -20586 
  -20454   -20275   -20073   -19861   -19644   -19407   -19166   -18984 
  -18845   -18682   -18532   -18468   -18457   -18397   -18270   -18175 
  -18146   -18091   -18008   -18016   -18135   -18246   -18261   -18242 
  -18295   -18391   -18404   -18346   -18358   -18471   -18572   -18597 
  -18588   -18614   -18689   -18785   -18910   -19086   -19299   -19511 
  -19691   -19818   -19899   -19986   -20118   -20243   -20298   -20318 
  -20381   -20477   -20483   -20348   -20244   -20276   -20265   -20080 
  -19850   -19733   -19702   -19622   -19474   -19354   -19281   -19174 
  -18992   -18802   -18716   -18721   -18668   -18506   -18350   -18275 
  -18230   -18166   -18106   -18067   -18020   -17936   -17817   -17687 
  -17597   -17559   -17506   -17429   -17425   -17499   -17519   -17450 
  -17372   -17284   -17179   -17117   -17074   -16954   -16739   -16476 
  -16226   -16039   -15927   -15865   -15808   -15744   -15706   -15694 
  -15676   -15657   -15647   -15637   -15636   -15661   -15733   -15873 
  -16083   -16328   -16548   -16713   -16832   -16934   -17069   -17227 
  -17362   -17500   -17690   -17913   -18123   -18290   -18407   -18478 
  -18527   -18603   -18745   -18922   -19050   -19090   -19062   -19015 
  -19023   -19100   -19181   -19200   -19134   -18989   -18797   -18628 
  -18536   -18507   -18493   -18439   -18323   -18180   -18064   -17963 
  -17814   -17633   -17487   -17368   -17227   -17057   -16898   -16771 
  -16650   -16532   -16440   -16402   -16424   -16414   -16268   -16071 
  -15990   -16041   -16121   -16180   -16255   -16372   -16500   -16604 
  -16707   -16829   -16904   -16877   -16796   -16765   -16809   -16847 
  -16834   -16801   -16738   -16630   -16526   -16437   -16348   -16285 
  -16258   -16243   -16235   -16240   -16240   -16236   -16242   -16247 
  -16268   -16347   -16462   -16583   -16748   -16970   -17197   -17381 
  -17519   -17624   -17712   -17783   -17840   -17919   -18029   -18124 
  -18189   -18246   -18291   -18303   -18274   -18209   -18123   -18056 
  -18022   -17983   -17906   -17785   -17655   -17554   -17498   -17495 
  -17532   -17588   -17663   -17739   -17795   -17858   -17928   -17987 
  -18069   -18216   -18451   -18718   -18954   -19193   -19446   -19653 
  -19842   -20068   -20300   -20540   -20820   -21081   -21277   -21443 
  -21578   -21662   -21720   -21759   -21769   -21771   -21803   -21864 
  -21881   -21824   -21751   -21692   -21639   -21582   -21490   -21363 
  -21276   -21274   -21292   -21264   -21229   -21246   -21297   -21332 
  -21350   -21415   -21541   -21641   -21663   -21638   -21587   -21502 
  -21391   -21277   -21176   -21078   -20983   -20912   -20847   -20746 
  -20613   -20477   -20341   -20186   -19989   -19762   -19561   -19414 
  -19297   -19165   -19024   -18921   -18848   -18792   -18746   -18662 
  -18564   -18540   -18567   -18571   -18572   -18630   -18724   -18814 
  -18908   -19025   -19153   -19266   -19360   -19433   -19491   -19562 
  -19635   -19679   -19715   -19748   -19742   -19670   -19565   -19477 
  -19394   -19300   -19231   -19207   -19180   -19098   -18989   -18918 
  -18891   -18855   -18753   -18610   -18521   -18512   -18507   -18449 
  -18383   -18370   -18386   -18355   -18273   -18194   -18137   -18079 
  -18005   -17937   -17909   -17918   -17952   -18010   -18092   -18201 
  -18299   -18357   -18400   -18466   -18593   -18796   -19025   -19211 
  -19339   -19460   -19613   -19749   -19824   -19903   -20031   -20147 
  -20189   -20167   -20133   -20147   -20217   -20285   -20314   -20351 
  -20415   -20437   -20373   -20269   -20179   -20084   -19941   -19755 
  -19558   -19392   -19254   -19089   -18895   -18707   -18516   -18300 
  -18062   -17821   -17622   -17482   -17352   -17193   -17019   -16871 
  -16788   -16748   -16683   -16587   -16524   -16531   -16582   -16629 
  -16664   -16720   -16811   -16895   -16914   -16883   -16877   -16930 
  -17026   -17157   -17330   -17527   -17693   -17783   -17816   -17876 
  -17986   -18061   -18083   -18137   -18229   -18307   -18373   -18451 
  -18539   -18622   -18697   -18745   -18750   -18741   -18754   -18783 
  -18807   -18835   -18884   -18912   -18899   -18901   -18947   -19025 
  -19124   -19194   -19188   -19147   -19144   -19168   -19173   -19176 
  -19199   -19226   -19242   -19240   -19219   -19209   -19255   -19310 
  -19287   -19236   -19250   -19291   -19277   -19200   -19118   -19080 
  -19057   -19007   -18964   -18984   -19028   -19023   -18968   -18921 
  -18927   -18963   -18996   -19023   -19055   -19146   -19322   -19497 
  -19627   -19748   -19863   -19985   -20135   -20265   -20330   -20367 
  -20429   -20492   -20489   -20445   -20437   -20446   -20395   -20294 
  -20226   -20217   -20200   -20108   -19953   -19810   -19747   -19753 
  -19770   -19804   -19870   -19911   -19885   -19836   -19810   -19835 
  -19913   -20000   -20055   -20090   -20112   -20121   -20134   -20136 
  -20114   -20105   -20120   -20127   -20114   -20073   -20015   -20005 
  -20042   -20046   -19999   -19957   -19937   -19893   -19809   -19748 
  -19724   -19695   -19657   -19626   -19624   -19649   -19668   -19671 
  -19684   -19737   -19795   -19823   -19867   -19937   -19985   -20008 
  -19991   -19919   -19798   -19627   -19435   -19261   -19118   -18995 
  -18858   -18681   -18461   -18197   -17934   -17712   -17495   -17272 
  -17106   -17024   -16994   -16963   -16890   -16776   -16671   -16611 
  -16571   -16554   -16606   -16736   -16895   -17008   -17058   -17121 
  -17235   -17371   -17502   -17621   -17738   -17888   -18072   -18250 
  -18418   -18655   -18975   -19268   -19506   -19731   -19953   -20185 
  -20396   -20567   -20788   -21083   -21326   -21466   -21609   -21809 
  -21977   -22053   -22099   -22168   -22238   -22286   -22302   -22278 
  -22224   -22143   -22041   -21946   -21886   -21851   -21795   -21715 
  -21625   -21486   -21279   -21060   -20865   -20662   -20445   -20238 
  -20030   -19808   -19597   -19376   -19112   -18833   -18577   -18343 
  -18129   -17925   -17715   -17490   -17251   -17027   -16844   -16686 
  -16526   -16358   -16231   -16160   -16093   -16028   -15992   -15983 
  -15998   -16017   -16022   -16043   -16113   -16213   -16298   -16369 
  -16446   -16515   -16587   -16693   -16825   -16960   -17084   -17189 
  -17277   -17380   -17511   -17650   -17791   -17928   -18055   -18174 
  -18269   -18336   -18431   -18580   -18738   -18864   -18973   -19089 
  -19199   -19299   -19411   -19541   -19674   -19795   -19897   -19987 
  -20085   -20199   -20324   -20453   -20585   -20711   -20819   -20932 
  -21050   -21130   -21169   -21187   -21184   -21174   -21168   -21163 
  -21134   -21019   -20847   -20720   -20609   -20417   -20168   -19952 
  -19797   -19651   -19467   -19256   -19048   -18851   -18639   -18395 
