Origin Time       2011/03/11 14:46:00
Lat.              38.103
Long.             142.860
Depth. (km)       24
Mag.              9.0
Station Code      SIG005
Station Lat.      35.2499
Station Long.     136.2414
Station Height(m) 92
Record Time       2011/03/11 14:48:36
Sampling Freq(Hz) 100Hz
Duration Time(s)  264
Dir.              E-W
Scale Factor      3920(gal)/6182761
Max. Acc. (gal)   7.937
Last Correction   2011/03/11 14:48:21
Memo.             
[...]
  -35978   -36037   -36054   -36039   -36007   -35944   -35876   -35818 
  -35733   -35624   -35515   -35385   -35203   -34977   -34740   -34504 
  -34240   -33947   -33665   -33379   -33061   -32751   -32477   -32234 
  -32012   -31817   -31683   -31594   -31519   -31482   -31490   -31521 
  -31572   -31655   -31765   -31868   -31943   -32013   -32087   -32164 
  -32256   -32342   -32422   -32498   -32537   -32568   -32606   -32600 
  -32530   -32414   -32257   -32055   -31831   -31608   -31367   -31108 
  -30868   -30653   -30453   -30258   -30068   -29892   -29736   -29600 
  -29489   -29390   -29309   -29271   -29265   -29263   -29279   -29328 
  -29412   -29553   -29748   -29991   -30267   -30548   -30833   -31131 
  -31421   -31679   -31916   -32146   -32355   -32545   -32726   -32885 
  -33035   -33173   -33275   -33344   -33385   -33396   -33382   -33348 
  -33288   -33204   -33105   -33013   -32930   -32856   -32806   -32789 
  -32799   -32851   -32949   -33072   -33223   -33401   -33589   -33788 
  -33992   -34178   -34333   -34451   -34538   -34602   -34655   -34693 
  -34706   -34706   -34698   -34655   -34572   -34465   -34331   -34172 
  -34002   -33820   -33629   -33444   -33279   -33151   -33063   -32994 
  -32941   -32913   -32903   -32904   -32909   -32914   -32926   -32934 
  -32936   -32961   -33007   -33041   -33075   -33129   -33184   -33225 
  -33260   -33295   -33308   -33292   -33268   -33253   -33253   -33282 
  -33366   -33499   -33650   -33813   -33989   -34168   -34328   -34459 
  -34579   -34687   -34779   -34876   -34979   -35070   -35155   -35236 
  -35300   -35344   -35374   -35395   -35380   -35296   -35165   -35015 
  -34831   -34598   -34330   -34039   -33731   -33404   -33034   -32636 
  -32252   -31870   -31473   -31093   -30733   -30378   -30042   -29747 
  -29500   -29289   -29100   -28924   -28757   -28616   -28509   -28411 
  -28319   -28241   -28162   -28082   -27996   -27896   -27801   -27726 
  -27668   -27626   -27604   -27598   -27605   -27615   -27630   -27654 
  -27673   -27686   -27717   -27755   -27793   -27847   -27922   -28041 
  -28201   -28389   -28622   -28889   -29157   -29435   -29740   -30054 
  -30358   -30648   -30933   -31220   -31514   -31814   -32108   -32389 
  -32668   -32942   -33194   -33429   -33650   -33849   -34012   -34134 
  -34231   -34309   -34364   -34408   -34455   -34493   -34513   -34523 
  -34501   -34422   -34306   -34172   -34021   -33873   -33759   -33682 
  -33632   -33602   -33586   -33571   -33566   -33586   -33631   -33690 
  -33748   -33794   -33835   -33884   -33938   -33996   -34073   -34164 
  -34255   -34359   -34486   -34627   -34779   -34935   -35078   -35211 
  -35340   -35459   -35563   -35653   -35730   -35795   -35855   -35916 
  -35960   -35988   -36015   -36024   -36001   -35933   -35813   -35651 
  -35447   -35201   -34926   -34615   -34266   -33901   -33548   -33215 
  -32886   -32555   -32231   -31905   -31592   -31299   -31014   -30754 
  -30529   -30323   -30129   -29948   -29805   -29712   -29642   -29592 
  -29564   -29543   -29534   -29542   -29545   -29541   -29524   -29484 
  -29434   -29364   -29273   -29207   -29184   -29199   -29263   -29361 
  -29481   -29618   -29765   -29919   -30078   -30239   -30407   -30574 
  -30748   -30947   -31177   -31428   -31710   -32024   -32321   -32583 
  -32812   -33001   -33154   -33284   -33404   -33529   -33638   -33727 
  -33809   -33881   -33948   -34006   -34039   -34061   -34081   -34077 
  -34041   -33989   -33940   -33914   -33920   -33952   -34003   -34065 
  -34127   -34184   -34223   -34236   -34230   -34227   -34234   -34228 
  -34210   -34216   -34229   -34222   -34231   -34260   -34273   -34287 
  -34307   -34295   -34252   -34214   -34187   -34157   -34115   -34069 
  -34044   -34059   -34087   -34119   -34169   -34231   -34300   -34374 
  -34452   -34533   -34606   -34685   -34787   -34892   -34999   -35128 
  -35271   -35392   -35478   -35550   -35599   -35585   -35509   -35374 
  -35166   -34896   -34585   -34224   -33807   -33358   -32888   -32395 
  -31881   -31337   -30787   -30253   -29711   -29151   -28596   -28052 
  -27515   -26990   -26486   -26016   -25570   -25158   -24794   -24479 
  -24218   -24011   -23848   -23723   -23618   -23551   -23539   -23552 
  -23594   -23698   -23851   -24024   -24222   -24460   -24723   -24986 
  -25256   -25538   -25819   -26101   -26400   -26716   -27033   -27360 
  -27717   -28108   -28536   -29007   -29515   -30059   -30633   -31230 
  -31838   -32447   -33059   -33665   -34256   -34841   -35403   -35922 
  -36390   -36799   -37160   -37487   -37788   -38073   -38333   -38554 
  -38733   -38860   -38930   -38951   -38922   -38850   -38756   -38653 
  -38544   -38443   -38353   -38263   -38155   -38022   -37876   -37711 
  -37520   -37317   -37113   -36908   -36703   -36499   -36299   -36102 
  -35919   -35742   -35536   -35285   -34991   -34641   -34222   -33729 
  -33177   -32594   -31998   -31397   -30808   -30242   -29708   -29207 
  -28721   -28251   -27818   -27421   -27048   -26715   -26418   -26132 
  -25876   -25676   -25524   -25412   -25344   -25300   -25256   -25210 
  -25160   -25108   -25059   -25010   -24953   -24897   -24835   -24756 
  -24683   -24628   -24595   -24594   -24603   -24600   -24590   -24564 
  -24522   -24495   -24493   -24514   -24572   -24679   -24832   -25037 
  -25319   -25669   -26060   -26490   -26947   -27407   -27870   -28332 
  -28782   -29203   -29588   -29943   -30258   -30527   -30777   -31002 
  -31184   -31338   -31457   -31532   -31575   -31588   -31564   -31519 
  -31460   -31388   -31331   -31302   -31296   -31329   -31399   -31500 
  -31623   -31779   -31980   -32203   -32436   -32699   -32979   -33245 
  -33503   -33780   -34064   -34337   -34608   -34888   -35161   -35395 
  -35595   -35783   -35948   -36087   -36206   -36304   -36398   -36479 
  -36545   -36618   -36681   -36739   -36827   -36933   -37027   -37113 
  -37185   -37241   -37302   -37353   -37387   -37420   -37434   -37422 
  -37382   -37308   -37219   -37135   -37065   -36982   -36877   -36757 
  -36615   -36467   -36320   -36181   -36060   -35943   -35826   -35721 
  -35633   -35552   -35468   -35370   -35262   -35161   -35055   -34945 
  -34844   -34726   -34594   -34477   -34354   -34213   -34044   -33846 
  -33646   -33451   -33247   -33053   -32883   -32717   -32529   -32311 
  -32080   -31852   -31641   -31449   -31267   -31097   -30944   -30807 
  -30692   -30620   -30607   -30647   -30737   -30847   -30941   -31013 
  -31053   -31064   -31069   -31050   -31006   -30958   -30902   -30831 
  -30735   -30615   -30478   -30321   -30122   -29887   -29637   -29350 
  -29020   -28674   -28321   -27976   -27650   -27336   -27044   -26772 
  -26515   -26265   -26015   -25776   -25550   -25341   -25169   -25034 
  -24947   -24928   -24959   -25031   -25163   -25334   -25505   -25676 
  -25844   -26005   -26158   -26294   -26424   -26539   -26611   -26661 
  -26688   -26669   -26628   -26575   -26492   -26386   -26257   -26117 
  -25976   -25830   -25693   -25583   -25514   -25502   -25539   -25606 
  -25694   -25810   -25955   -26123   -26315   -26527   -26755   -27001 
  -27268   -27561   -27855   -28140   -28442   -28766   -29109   -29484 
  -29871   -30251   -30638   -31028   -31415   -31808   -32174   -32510 
  -32838   -33135   -33402   -33651   -33862   -34043   -34218   -34379 
  -34519   -34652   -34785   -34913   -35045   -35186   -35325   -35466 
  -35638   -35842   -36059   -36301   -36573   -36847   -37121   -37390 
  -37645   -37896   -38134   -38347   -38539   -38694   -38805   -38889 
  -38952   -38991   -39007   -38991   -38950   -38896   -38805   -38662 
  -38483   -38282   -38072   -37845   -37575   -37282   -36987   -36678 
  -36370   -36079   -35793   -35526   -35276   -35028   -34800   -34591 
  -34391   -34210   -34048   -33892   -33726   -33546   -33350   -33143 
  -32931   -32704   -32454   -32181   -31876   -31546   -31199   -30824 
  -30434   -30035   -29614   -29165   -28691   -28213   -27757   -27316 
  -26898   -26518   -26159   -25823   -25533   -25310   -25168   -25089 
  -25051   -25062   -25124   -25235   -25387   -25575   -25809   -26086 
  -26394   -26732   -27096   -27486   -27902   -28331   -28761   -29191 
  -29619   -30033   -30440   -30838   -31205   -31558   -31907   -32222 
  -32512   -32800   -33071   -33332   -33595   -33839   -34047   -34222 
  -34362   -34456   -34517   -34576   -34636   -34692   -34766   -34876 
  -35010   -35176   -35377   -35588   -35803   -36023   -36236   -36445 
  -36639   -36811   -36984   -37160   -37328   -37489   -37625   -37734 
  -37846   -37939   -37993   -38020   -37993   -37910   -37787   -37614 
  -37403   -37174   -36930   -36684   -36451   -36234   -36029   -35835 
  -35661   -35508   -35361   -35202   -35030   -34852   -34668   -34497 
  -34365   -34280   -34245   -34249   -34275   -34338   -34429   -34526 
  -34640   -34765   -34878   -34977   -35062   -35151   -35250   -35341 
  -35420   -35481   -35504   -35497   -35462   -35373   -35233   -35055 
  -34841   -34606   -34347   -34046   -33702   -33306   -32858   -32362 
  -31816   -31238   -30646   -30035   -29404   -28765   -28143   -27555 
  -26989   -26456   -25973   -25533   -25137   -24771   -24417   -24082 
  -23769   -23482   -23231   -23013   -22836   -22716   -22647   -22629 
  -22672   -22790   -22978   -23215   -23501   -23827   -24169   -24548 
  -24971   -25398   -25826   -26271   -26692   -27066   -27420   -27764 
  -28088   -28353   -28536   -28670   -28772   -28820   -28818   -28795 
  -28769   -28738   -28706   -28675   -28642   -28610   -28586   -28586 
  -28618   -28663   -28726   -28810   -28906   -29021   -29155   -29314 
  -29496   -29686   -29900   -30142   -30375   -30596   -30818   -31023 
  -31206   -31374   -31527   -31660   -31774   -31861   -31922   -31955 
  -31967   -31954   -31925   -31897   -31862   -31817   -31777   -31755 
  -31776   -31852   -31968   -32108   -32276   -32469   -32676   -32892 
  -33118   -33358   -33622   -33905   -34213   -34562   -34960   -35399 
  -35874   -36397   -36968   -37558   -38139   -38699   -39222   -39695 
  -40147   -40565   -40921   -41256   -41552   -41762   -41920   -42022 
  -42042   -41997   -41883   -41696   -41454   -41166   -40843   -40493 
  -40128   -39747   -39339   -38914   -38493   -38086   -37686   -37284 
  -36885   -36495   -36103   -35713   -35358   -35049   -34774   -34530 
  -34309   -34085   -33866   -33652   -33429   -33209   -32997   -32796 
  -32637   -32530   -32459   -32404   -32361   -32331   -32300   -32249 
  -32176   -32088   -31990   -31886   -31771   -31642   -31502   -31340 
  -31161   -30982   -30825   -30729   -30698   -30693   -30694   -30713 
  -30743   -30779   -30848   -30959   -31065   -31150   -31227   -31300 
  -31381   -31489   -31636   -31812   -32013   -32235   -32469   -32728 
  -32988   -33226   -33453   -33640   -33774   -33875   -33936   -33960 
  -33968   -33963   -33955   -33946   -33915   -33868   -33809   -33725 
  -33626   -33507   -33353   -33171   -32941   -32641   -32293   -31926 
  -31540   -31123   -30680   -30216   -29731   -29218   -28663   -28090 
  -27555   -27076   -26640   -26234   -25828   -25438   -25097   -24769 
  -24448   -24180   -23935   -23679   -23472   -23367   -23316   -23284 
  -23286   -23299   -23297   -23299   -23301   -23306   -23311   -23291 
  -23262   -23241   -23212   -23199   -23204   -23194   -23190   -23208 
  -23217   -23226   -23268   -23327   -23376   -23424   -23505   -23656 
  -23833   -24008   -24246   -24517   -24772   -25069   -25435   -25831 
  -26235   -26664   -27150   -27682   -28234   -28808   -29412   -30049 
  -30713   -31383   -32065   -32776   -33497   -34213   -34932   -35652 
  -36348   -37010   -37655   -38278   -38857   -39387   -39846   -40217 
  -40523   -40784   -41007   -41198   -41364   -41518   -41646   -41732 
  -41804   -41857   -41880   -41886   -41865   -41819   -41743   -41645 
  -41539   -41388   -41197   -40988   -40754   -40516   -40277   -40025 
  -39786   -39582   -39399   -39229   -39079   -38945   -38845   -38792 
  -38779   -38805   -38872   -38960   -39032   -39097   -39156   -39192 
  -39215   -39227   -39232   -39239   -39234   -39215   -39208   -39212 
  -39197   -39144   -39053   -38921   -38748   -38534   -38277   -37984 
  -37652   -37284   -36897   -36478   -36016   -35511   -34947   -34323 
  -33653   -32968   -32299   -31638   -30981   -30345   -29724   -29128 
  -28569   -28030   -27505   -26978   -26435   -25886   -25347   -24820 
  -24312   -23834   -23380   -22945   -22549   -22201   -21889   -21610 
  -21364   -21154   -20990   -20877   -20797   -20734   -20695   -20685 
  -20695   -20717   -20756   -20824   -20919   -21046   -21206   -21381 
  -21587   -21847   -22137   -22445   -22792   -23188   -23630   -24113 
  -24607   -25108   -25637   -26186   -26738   -27299   -27876   -28481 
  -29107   -29738   -30339   -30894   -31419   -31922   -32387   -32830 
  -33270   -33683   -34053   -34387   -34690   -34969   -35227   -35471 
  -35715   -35938   -36128   -36295   -36448   -36578   -36686   -36782 
  -36862   -36914   -36938   -36939   -36919   -36887   -36843   -36793 
  -36751   -36718   -36679   -36621   -36548   -36450   -36325   -36210 
  -36120   -36051   -36009   -36006   -36045   -36128   -36264   -36477 
  -36767   -37124   -37522   -37936   -38369   -38827   -39300   -39784 
  -40280   -40774   -41246   -41695   -42130   -42550   -42946   -43309 
  -43622   -43873   -44079   -44246   -44356   -44390   -44348   -44246 
  -44103   -43931   -43746   -43554   -43343   -43100   -42802   -42432 
  -42022   -41618   -41220   -40828   -40461   -40109   -39762   -39422 
  -39094   -38793   -38517   -38246   -37965   -37655   -37303   -36943 
  -36610   -36295   -35969   -35618   -35206   -34703   -34135   -33543 
  -32940   -32328   -31704   -31056   -30404   -29787   -29214   -28687 
  -28212   -27778   -27390   -27046   -26745   -26492   -26302   -26180 
  -26102   -26057   -26054   -26082   -26128   -26196   -26272   -26358 
  -26487   -26670   -26879   -27077   -27225   -27281   -27235   -27111 
  -26964   -26848   -26788   -26761   -26709   -26595   -26428   -26223 
  -26023   -25866   -25739   -25591   -25375   -25121   -24903   -24754 
  -24660   -24585   -24474   -24315   -24133   -23988   -23945   -24020 
  -24201   -24449   -24697   -24912   -25121   -25374   -25712   -26146 
  -26664   -27208   -27701   -28135   -28567   -29045   -29585   -30153 
  -30687   -31162   -31576   -31931   -32274   -32663   -33082   -33474 
  -33815   -34091   -34312   -34511   -34719   -34979   -35271   -35512 
  -35675   -35806   -35960   -36169   -36442   -36750   -37039   -37265 
  -37417   -37520   -37645   -37826   -38033   -38236   -38409   -38529 
  -38598   -38664   -38780   -38923   -39008   -38986   -38862   -38644 
  -38352   -38058   -37825   -37668   -37561   -37444   -37251   -36975 
  -36676   -36426   -36278   -36228   -36188   -36089   -35939   -35760 
  -35608   -35536   -35506   -35461   -35374   -35242   -35102   -34994 
  -34932   -34914   -34948   -35025   -35109   -35168   -35199   -35249 
  -35368   -35559   -35779   -35986   -36157   -36291   -36402   -36503 
  -36584   -36633   -36644   -36593   -36463   -36275   -36084   -35953 
  -35897   -35862   -35788   -35652   -35449   -35199   -34950   -34760 
  -34653   -34581   -34476   -34311   -34105   -33875   -33631   -33389 
  -33137   -32851   -32504   -32092   -31681   -31333   -31036   -30755 
  -30473   -30164   -29790   -29349   -28916   -28546   -28209   -27871 
  -27532   -27198   -26861   -26512   -26184   -25909   -25682   -25469 
  -25274   -25144   -25068   -25021   -25028   -25058   -25062   -25067 
  -25091   -25136   -25231   -25381   -25586   -25867   -26216   -26630 
  -27112   -27618   -28108   -28565   -28975   -29344   -29694   -30049 
  -30412   -30743   -31029   -31305   -31591   -31873   -32092   -32223 
  -32318   -32404   -32472   -32514   -32523   -32540   -32599   -32665 
  -32721   -32800   -32888   -32929   -32900   -32805   -32660   -32478 
  -32254   -32006   -31765   -31542   -31328   -31092   -30814   -30535 
  -30337   -30262   -30276   -30319   -30354   -30379   -30394   -30388 
  -30411   -30517   -30669   -30804   -30900   -30971   -31062   -31209 
  -31386   -31548   -31702   -31852   -31984   -32117   -32270   -32427 
  -32603   -32789   -32948   -33096   -33228   -33337   -33473   -33623 
  -33747   -33870   -33983   -34045   -34039   -33987   -33930   -33878 
  -33824   -33769   -33743   -33758   -33783   -33783   -33743   -33665 
  -33566   -33469   -33360   -33208   -33029   -32859   -32707   -32561 
  -32405   -32226   -32025   -31804   -31582   -31394   -31235   -31079 
  -30924   -30764   -30613   -30510   -30473   -30496   -30558   -30629 
  -30694   -30758   -30821   -30876   -30918   -30972   -31081   -31254 
  -31455   -31650   -31840   -32053   -32311   -32621   -32989   -33366 
  -33683   -33902   -34010   -34030   -34033   -34082   -34170   -34248 
  -34263   -34224   -34186   -34183   -34195   -34195   -34172   -34138 
  -34114   -34132   -34215   -34325   -34426   -34535   -34667   -34805 
  -34908   -34950   -34921   -34845   -34760   -34686   -34650   -34659 
  -34664   -34631   -34586   -34557   -34536   -34500   -34466   -34446 
  -34391   -34260   -34092   -33956   -33880   -33859   -33900   -33988 
  -34057   -34056   -33998   -33915   -33826   -33722   -33579   -33397 
  -33202   -33026   -32891   -32773   -32643   -32518   -32403   -32266 
  -32113   -31976   -31855   -31730   -31596   -31477   -31407   -31388 
  -31414   -31500   -31621   -31720   -31776   -31786   -31754   -31701 
  -31652   -31605   -31528   -31413   -31288   -31166   -31047   -30955 
  -30896   -30841   -30782   -30709   -30589   -30413   -30189   -29931 
  -29700   -29531   -29410   -29319   -29222   -29093   -28980   -28919 
  -28911   -28951   -29027   -29108   -29175   -29239   -29301   -29361 
  -29428   -29529   -29707   -29968   -30266   -30543   -30795   -31019 
  -31173   -31252   -31312   -31400   -31522   -31656   -31780   -31884 
  -31986   -32102   -32203   -32261   -32302   -32353   -32412   -32453 
  -32461   -32458   -32431   -32335   -32181   -32035   -31926   -31833 
  -31728   -31595   -31462   -31372   -31335   -31359   -31439   -31522 
  -31559   -31565   -31577   -31613   -31695   -31826   -31975   -32127 
  -32285   -32459   -32640   -32817   -33000   -33170   -33297   -33417 
  -33557   -33706   -33872   -34048   -34206   -34349   -34501   -34671 
  -34861   -35072   -35309   -35570   -35838   -36091   -36309   -36499 
  -36674   -36852   -37070   -37319   -37551   -37722   -37799   -37796 
  -37767   -37754   -37770   -37785   -37753   -37647   -37454   -37170 
  -36832   -36480   -36097   -35667   -35208   -34733   -34269   -33836 
  -33430   -33021   -32551   -32017   -31481   -30986   -30544   -30165 
  -29839   -29518   -29192   -28892   -28614   -28372   -28187   -28042 
  -27936   -27882   -27872   -27866   -27838   -27800   -27758   -27717 
  -27681   -27653   -27663   -27717   -27798   -27901   -28021   -28167 
  -28328   -28481   -28642   -28825   -29013   -29195   -29372   -29537 
  -29691   -29851   -30001   -30141   -30302   -30483   -30685   -30906 
  -31120   -31307   -31452   -31570   -31690   -31829   -31997   -32177 
