Origin Time       2011/03/11 14:46:00
Lat.              38.103
Long.             142.860
Depth. (km)       24
Mag.              9.0
Station Code      SIG002
Station Lat.      35.4214
Station Long.     136.0243
Station Height(m) 95
Record Time       2011/03/11 14:49:06
Sampling Freq(Hz) 100Hz
Duration Time(s)  214
Dir.              N-S
Scale Factor      3920(gal)/6182761
Max. Acc. (gal)   5.573
Last Correction   2011/03/11 14:48:51
Memo.             
[...]
  -19839   -19676   -19544   -19443   -19368   -19373   -19451   -19531 
  -19609   -19691   -19753   -19776   -19766   -19763   -19756   -19693 
  -19609   -19538   -19441   -19310   -19182   -19066   -18942   -18792 
  -18672   -18657   -18679   -18662   -18670   -18727   -18799   -18896 
  -19039   -19240   -19441   -19607   -19804   -20004   -20134   -20245 
  -20377   -20486   -20555   -20632   -20747   -20862   -20948   -21015 
  -21082   -21144   -21179   -21206   -21222   -21235   -21262   -21280 
  -21315   -21392   -21481   -21577   -21660   -21715   -21787   -21838 
  -21827   -21800   -21748   -21658   -21553   -21422   -21298   -21226 
  -21167   -21080   -20959   -20807   -20639   -20447   -20214   -19951 
  -19679   -19441   -19259   -19104   -18949   -18793   -18671   -18594 
  -18528   -18522   -18602   -18678   -18737   -18854   -19007   -19123 
  -19238   -19369   -19440   -19476   -19537   -19576   -19601   -19664 
  -19727   -19755   -19765   -19781   -19828   -19907   -19966   -20009 
  -20070   -20118   -20152   -20209   -20236   -20225   -20249   -20277 
  -20253   -20224   -20226   -20227   -20190   -20184   -20255   -20331 
  -20430   -20558   -20641   -20693   -20736   -20748   -20703   -20629 
  -20580   -20520   -20462   -20486   -20554   -20645   -20817   -21053 
  -21344   -21711   -22106   -22455   -22759   -23052   -23295   -23465 
  -23629   -23767   -23834   -23903   -23992   -24065   -24134   -24184 
  -24176   -24090   -23927   -23724   -23514   -23282   -23042   -22853 
  -22693   -22542   -22443   -22359   -22234   -22132   -22045   -21882 
  -21731   -21658   -21570   -21473   -21407   -21354   -21316   -21300 
  -21287   -21247   -21222   -21214   -21120   -20994   -20902   -20742 
  -20559   -20445   -20317   -20161   -20021   -19885   -19778   -19716 
  -19664   -19650   -19677   -19687   -19728   -19853   -20006   -20188 
  -20428   -20669   -20881   -21075   -21268   -21473   -21653   -21810 
  -21958   -22099   -22279   -22469   -22629   -22811   -22975   -23083 
  -23201   -23353   -23528   -23688   -23785   -23886   -24023   -24123 
  -24195   -24292   -24405   -24489   -24515   -24557   -24650   -24679 
  -24595   -24510   -24447   -24330   -24211   -24138   -24030   -23871 
  -23754   -23654   -23508   -23395   -23321   -23220   -23150   -23100 
  -22984   -22866   -22772   -22606   -22390   -22196   -21976   -21734 
  -21554   -21405   -21266   -21221   -21240   -21253   -21275   -21327 
  -21421   -21543   -21633   -21649   -21625   -21616   -21597   -21531 
  -21461   -21415   -21362   -21298   -21257   -21226   -21180   -21119 
  -21050   -20998   -20983   -20987   -21017   -21084   -21135   -21152 
  -21133   -21049   -20928   -20769   -20564   -20360   -20159   -19955 
  -19795   -19707   -19628   -19499   -19374   -19257   -19077   -18857 
  -18630   -18421   -18246   -18101   -18050   -18100   -18161   -18272 
  -18473   -18654   -18780   -18887   -18976   -19050   -19122   -19192 
  -19246   -19310   -19416   -19522   -19606   -19712   -19806   -19852 
  -19917   -19987   -20015   -20045   -20067   -20080   -20098   -20102 
  -20104   -20100   -20060   -19985   -19900   -19840   -19805   -19792 
  -19831   -19898   -19965   -20066   -20195   -20294   -20360   -20394 
  -20407   -20415   -20348   -20215   -20120   -20049   -19983   -19973 
  -19994   -20016   -20069   -20142   -20200   -20261   -20330   -20382 
  -20446   -20532   -20596   -20642   -20696   -20747   -20775   -20800 
  -20832   -20807   -20732   -20694   -20669   -20603   -20524   -20474 
  -20475   -20496   -20538   -20624   -20686   -20717   -20770   -20814 
  -20852   -20926   -21001   -21025   -21022   -21036   -21069   -21109 
  -21170   -21260   -21337   -21388   -21462   -21533   -21555   -21551 
  -21532   -21464   -21345   -21238   -21172   -21082   -20990   -20952 
  -20897   -20825   -20783   -20727   -20662   -20646   -20659   -20666 
  -20669   -20655   -20629   -20601   -20529   -20404   -20265   -20145 
  -20036   -19904   -19773   -19657   -19521   -19398   -19321   -19243 
  -19150   -19072   -19001   -18931   -18857   -18751   -18628   -18556 
  -18559   -18601   -18650   -18755   -18960   -19209   -19489   -19817 
  -20159   -20507   -20840   -21130   -21398   -21650   -21842   -21972 
  -22082   -22158   -22135   -22049   -21954   -21793   -21578   -21380 
  -21144   -20874   -20651   -20433   -20177   -19956   -19766   -19581 
  -19452   -19386   -19377   -19426   -19505   -19616   -19765   -19928 
  -20117   -20356   -20604   -20821   -21040   -21302   -21593   -21908 
  -22233   -22523   -22815   -23137   -23407   -23639   -23881   -24066 
  -24202   -24343   -24460   -24533   -24541   -24477   -24379   -24228 
  -24025   -23796   -23516   -23185   -22825   -22460   -22118   -21800 
  -21522   -21305   -21113   -20924   -20766   -20622   -20473   -20330 
  -20167   -20002   -19874   -19726   -19564   -19451   -19333   -19165 
  -19006   -18859   -18656   -18412   -18185   -17948   -17677   -17411 
  -17141   -16877   -16672   -16500   -16353   -16269   -16221   -16216 
  -16285   -16388   -16537   -16740   -16954   -17204   -17506   -17839 
  -18180   -18490   -18776   -19050   -19304   -19531   -19716   -19891 
  -20071   -20211   -20313   -20403   -20458   -20518   -20611   -20673 
  -20709   -20733   -20702   -20627   -20537   -20434   -20335   -20234 
  -20113   -19980   -19840   -19698   -19560   -19426   -19278   -19107 
  -18946   -18813   -18704   -18627   -18569   -18534   -18535   -18558 
  -18571   -18559   -18542   -18552   -18563   -18568   -18596   -18602 
  -18579   -18598   -18628   -18646   -18703   -18775   -18844   -18900 
  -18902   -18882   -18860   -18795   -18699   -18598   -18488   -18383 
  -18308   -18280   -18314   -18423   -18574   -18708   -18833   -18952 
  -19027   -19069   -19081   -19059   -19052   -19070   -19098   -19155 
  -19228   -19242   -19171   -19091   -19017   -18932   -18862   -18790 
  -18708   -18645   -18600   -18571   -18561   -18525   -18434   -18339 
  -18247   -18163   -18120   -18074   -18007   -17954   -17931   -17945 
  -17986   -18058   -18129   -18143   -18158   -18198   -18218   -18245 
  -18270   -18252   -18199   -18129   -18072   -18092   -18186   -18282 
  -18365   -18451   -18539   -18659   -18825   -18996   -19150   -19298 
  -19444   -19622   -19826   -19985   -20129   -20306   -20475   -20656 
  -20886   -21113   -21325   -21564   -21803   -22024   -22222   -22366 
  -22450   -22479   -22427   -22318   -22214   -22123   -22019   -21903 
  -21792   -21696   -21644   -21629   -21581   -21517   -21498   -21477 
  -21430   -21389   -21341   -21271   -21188   -21081   -20981   -20899 
  -20802   -20698   -20620   -20588   -20604   -20665   -20748   -20849 
  -20977   -21128   -21290   -21404   -21477   -21557   -21628   -21695 
  -21749   -21769   -21773   -21749   -21714   -21693   -21646   -21555 
  -21448   -21320   -21176   -21027   -20848   -20646   -20443   -20250 
  -20082   -19899   -19670   -19449   -19277   -19145   -19027   -18898 
  -18758   -18600   -18466   -18405   -18364   -18299   -18233   -18199 
  -18203   -18218   -18252   -18283   -18282   -18265   -18265   -18315 
  -18406   -18492   -18559   -18638   -18743   -18850   -18946   -19047 
  -19131   -19169   -19194   -19248   -19328   -19391   -19413   -19420 
  -19427   -19412   -19375   -19329   -19251   -19148   -19062   -18983 
  -18880   -18776   -18698   -18626   -18542   -18464   -18413   -18367 
  -18309   -18267   -18245   -18239   -18288   -18390   -18483   -18545 
  -18617   -18724   -18833   -18923   -18998   -19042   -19074   -19105 
  -19120   -19129   -19133   -19136   -19136   -19107   -19077   -19071 
  -19054   -19012   -18979   -18947   -18880   -18805   -18734   -18630 
  -18519   -18416   -18305   -18215   -18167   -18147   -18132   -18121 
  -18134   -18177   -18269   -18423   -18571   -18691   -18817   -18934 
  -19040   -19123   -19183   -19260   -19354   -19458   -19568   -19662 
  -19758   -19860   -19943   -20006   -20052   -20086   -20126   -20153 
  -20151   -20144   -20174   -20249   -20336   -20410   -20463   -20488 
  -20502   -20544   -20588   -20592   -20584   -20588   -20609   -20663 
  -20743   -20808   -20822   -20799   -20767   -20735   -20710   -20666 
  -20604   -20577   -20582   -20586   -20588   -20587   -20602   -20662 
  -20768   -20921   -21133   -21359   -21553   -21765   -22021   -22275 
  -22507   -22681   -22775   -22858   -22958   -23016   -23018   -22996 
  -22948   -22889   -22847   -22794   -22705   -22599   -22467   -22300 
  -22134   -21942   -21687   -21406   -21111   -20809   -20547   -20345 
  -20171   -20024   -19936   -19873   -19825   -19849   -19938   -20050 
  -20171   -20290   -20431   -20584   -20695   -20793   -20863   -20848 
  -20837   -20840   -20768   -20662   -20569   -20494   -20443   -20426 
  -20417   -20378   -20339   -20289   -20180   -20030   -19854   -19648 
  -19439   -19249   -19086   -18940   -18783   -18640   -18575   -18545 
  -18499   -18485   -18507   -18524   -18562   -18655   -18759   -18830 
  -18897   -18990   -19071   -19106   -19094   -19036   -18987   -18992 
  -18997   -18939   -18884   -18868   -18791   -18652   -18566   -18554 
  -18540   -18482   -18457   -18504   -18539   -18547   -18596   -18653 
  -18675   -18720   -18786   -18851   -18964   -19107   -19213   -19275 
  -19338   -19423   -19518   -19646   -19775   -19828   -19893   -20049 
  -20220   -20395   -20591   -20738   -20804   -20838   -20872   -20888 
  -20875   -20851   -20831   -20789   -20715   -20698   -20752   -20746 
  -20683   -20663   -20618   -20510   -20430   -20423   -20440   -20426 
  -20423   -20487   -20575   -20651   -20723   -20794   -20860   -20877 
  -20812   -20758   -20719   -20634   -20590   -20544   -20427   -20317 
  -20199   -20108   -20110   -20083   -19989   -19936   -19898   -19881 
  -20006   -20206   -20365   -20532   -20706   -20829   -20989   -21228 
  -21465   -21712   -21955   -22176   -22456   -22717   -22863   -22992 
  -23135   -23255   -23293   -23252   -23303   -23470   -23661   -23859 
  -23994   -24049   -24108   -24192   -24276   -24370   -24473   -24548 
  -24521   -24388   -24300   -24372   -24558   -24648   -24533   -24432 
  -24395   -24282   -24153   -24019   -23830   -23645   -23459   -23199 
  -22881   -22629   -22495   -22362   -22155   -22001   -21957   -21947 
  -21978   -22022   -21988   -21907   -21819   -21732   -21733   -21792 
  -21784   -21693   -21510   -21237   -21044   -21057   -21105   -21019 
  -20851   -20606   -20259   -19887   -19575   -19359   -19175   -18988 
  -18874   -18815   -18739   -18687   -18724   -18772   -18610   -18269 
  -18034   -17912   -17864   -18003   -18135   -18034   -17759   -17411 
  -17169   -17244   -17591   -17927   -18131   -18329   -18533   -18708 
  -18880   -19014   -19077   -19027   -18904   -18912   -19207   -19629 
  -19823   -19701   -19458   -19257   -19154   -19109   -19022   -18807 
  -18550   -18444   -18485   -18486   -18436   -18441   -18359   -18130 
  -18032   -18129   -18199   -18224   -18253   -18141   -17898   -17641 
  -17323   -17039   -16895   -16766   -16598   -16419   -16240   -16210 
  -16368   -16466   -16399   -16282   -16192   -16215   -16387   -16558 
  -16567   -16437   -16292   -16185   -16118   -16130   -16177   -16149 
  -16079   -16023   -16020   -16116   -16131   -15892   -15552   -15283 
  -15150   -15271   -15538   -15675   -15748   -15949   -16255   -16676 
  -17204   -17669   -17975   -18110   -18176   -18350   -18647   -19005 
  -19255   -19215   -18979   -18714   -18531   -18508   -18579   -18594 
  -18468   -18279   -18151   -18190   -18446   -18681   -18664   -18534 
  -18437   -18405   -18507   -18736   -18959   -19016   -18926   -18853 
  -18835   -18859   -18928   -18908   -18731   -18556   -18575   -18825 
  -19170   -19509   -19845   -20150   -20390   -20616   -20897   -21206 
  -21515   -21827   -22124   -22444   -22898   -23504   -24077   -24491 
  -24806   -25065   -25297   -25516   -25678   -25836   -26025   -26147 
  -26226   -26343   -26476   -26572   -26527   -26353   -26210   -26176 
  -26244   -26263   -26069   -25791   -25565   -25350   -25235   -25197 
  -25095   -25032   -25041   -25020   -25035   -25124   -25247   -25469 
  -25762   -25900   -25845   -25736   -25610   -25527   -25529   -25563 
  -25644   -25774   -25862   -25924   -26068   -26291   -26519   -26693 
  -26796   -26940   -27177   -27368   -27423   -27409   -27368   -27235 
  -26979   -26695   -26480   -26247   -25957   -25668   -25272   -24749 
  -24200   -23643   -23121   -22654   -22283   -22065   -21902   -21735 
  -21561   -21409   -21396   -21528   -21685   -21742   -21641   -21445 
  -21286   -21215   -21119   -20977   -20886   -20773   -20577   -20416 
  -20291   -20089   -19851   -19648   -19492   -19382   -19353   -19427 
  -19504   -19458   -19239   -18974   -18786   -18614   -18561   -18723 
  -18897   -19028   -19235   -19456   -19642   -19788   -19828   -19815 
  -19874   -20051   -20307   -20536   -20743   -20980   -21216   -21448 
  -21708   -22041   -22421   -22723   -22934   -23062   -23078   -23027 
  -22990   -23011   -23050   -23069   -23051   -22966   -22869   -22841 
  -22887   -22904   -22799   -22597   -22356   -22108   -21826   -21502 
  -21189   -20826   -20370   -19984   -19704   -19383   -19060   -18795 
  -18465   -18042   -17583   -17073   -16561   -16209   -16044   -15912 
  -15721   -15474   -15140   -14744   -14458   -14301   -14113   -13857 
  -13538   -13211   -12978   -12734   -12441   -12267   -12180   -12099 
  -12178   -12403   -12599   -12781   -12943   -13017   -13070   -13123 
  -13119   -13067   -12994   -12960   -13047   -13148   -13172   -13247 
  -13384   -13472   -13496   -13451   -13317   -13157   -13046   -12996 
  -12982   -12951   -12928   -12931   -12831   -12615   -12464   -12471 
  -12532   -12556   -12610   -12715   -12799   -12916   -13122   -13305 
  -13480   -13792   -14171   -14554   -14946   -15272   -15603   -15979 
  -16307   -16633   -17040   -17486   -17865   -18163   -18397   -18542 
  -18675   -18807   -18855   -18907   -19040   -19147   -19201   -19332 
  -19549   -19724   -19824   -19829   -19740   -19673   -19598   -19512 
  -19550   -19659   -19841   -20195   -20587   -20875   -21121   -21381 
  -21607   -21772   -21914   -22079   -22266   -22474   -22740   -23028 
  -23233   -23373   -23548   -23711   -23812   -23956   -24124   -24255 
  -24425   -24599   -24688   -24708   -24690   -24641   -24543   -24446 
  -24424   -24412   -24393   -24424   -24481   -24518   -24504   -24454 
  -24393   -24279   -24134   -24026   -23968   -23961   -23966   -23989 
  -24058   -24100   -24063   -23962   -23876   -23887   -23917   -23903 
  -23872   -23815   -23764   -23755   -23686   -23590   -23710   -24013 
  -24314   -24644   -25010   -25311   -25495   -25582   -25655   -25745 
  -25816   -25907   -26079   -26308   -26567   -26813   -26985   -27057 
  -27085   -27158   -27230   -27266   -27353   -27500   -27640   -27777 
  -27961   -28150   -28275   -28366   -28438   -28498   -28547   -28543 
  -28466   -28297   -28083   -27872   -27621   -27348   -27082   -26815 
  -26587   -26385   -26143   -25880   -25641   -25354   -25026   -24825 
  -24723   -24576   -24420   -24251   -24025   -23771   -23513   -23309 
  -23153   -22988   -22832   -22666   -22479   -22324   -22207   -22052 
  -21785   -21487   -21250   -21049   -20876   -20719   -20617   -20596 
  -20509   -20349   -20240   -20131   -19965   -19811   -19712   -19603 
  -19456   -19368   -19348   -19298   -19238   -19255   -19344   -19440 
  -19523   -19633   -19685   -19598   -19474   -19341   -19174   -19022 
  -18839   -18579   -18321   -18092   -17823   -17563   -17281   -16850 
  -16385   -15950   -15498   -15141   -14898   -14678   -14477   -14342 
  -14293   -14295   -14370   -14500   -14576   -14615   -14665   -14729 
  -14869   -15060   -15221   -15377   -15555   -15752   -15974   -16242 
  -16581   -16936   -17267   -17642   -18072   -18457   -18760   -19004 
  -19225   -19426   -19546   -19592   -19593   -19540   -19470   -19372 
  -19248   -19159   -19053   -18877   -18710   -18540   -18317   -18109 
  -17901   -17662   -17487   -17335   -17116   -16934   -16816   -16651 
  -16488   -16364   -16194   -16037   -15931   -15815   -15739   -15708 
  -15704   -15756   -15824   -15950   -16147   -16339   -16554   -16776 
  -16975   -17190   -17412   -17667   -17928   -18089   -18232   -18434 
  -18628   -18803   -18959   -19097   -19237   -19357   -19431   -19470 
  -19517   -19578   -19631   -19702   -19805   -19895   -19927   -19882 
  -19819   -19810   -19844   -19895   -19962   -20064   -20214   -20403 
  -20598   -20769   -20962   -21158   -21250   -21258   -21280   -21352 
  -21460   -21527   -21535   -21596   -21717   -21824   -21892   -21909 
  -21899   -21872   -21844   -21827   -21750   -21639   -21527   -21356 
  -21170   -21023   -20870   -20692   -20489   -20314   -20210   -20126 
  -20083   -20112   -20141   -20165   -20192   -20223   -20277   -20280 
  -20210   -20164   -20154   -20145   -20158   -20222   -20350   -20533 
  -20747   -20972   -21220   -21498   -21790   -22101   -22408   -22668 
  -22872   -23058   -23285   -23544   -23815   -24122   -24450   -24730 
  -24941   -25073   -25148   -25210   -25197   -25136   -25117   -25095 
  -24993   -24807   -24623   -24474   -24320   -24164   -23996   -23869 
  -23799   -23701   -23646   -23678   -23680   -23681   -23716   -23697 
  -23646   -23607   -23528   -23396   -23248   -23112   -23018   -22957 
  -22892   -22862   -22891   -22924   -22921   -22873   -22803   -22730 
  -22618   -22466   -22330   -22215   -22084   -21932   -21776   -21618 
  -21470   -21335   -21190   -21065   -20961   -20833   -20728   -20674 
  -20660   -20739   -20922   -21150   -21352   -21464   -21536   -21602 
  -21646   -21737   -21892   -22082   -22320   -22559   -22789   -23028 
  -23224   -23375   -23505   -23614   -23725   -23811   -23899   -24025 
  -24069   -23989   -23855   -23660   -23420   -23177   -22918   -22637 
  -22395   -22219   -22039   -21838   -21660   -21480   -21236   -20975 
  -20785   -20640   -20489   -20330   -20161   -20015   -19936   -19920 
  -19956   -20027   -20117   -20232   -20364   -20510   -20644   -20749 
  -20891   -21051   -21164   -21290   -21502   -21784   -22104   -22454 
  -22814   -23147   -23499   -23875   -24195   -24504   -24890   -25344 
  -25847   -26339   -26788   -27227   -27604   -27903   -28183   -28431 
  -28640   -28823   -28973   -29106   -29199   -29235   -29252   -29233 
  -29165   -29072   -28940   -28775   -28568   -28306   -28047   -27765 
  -27401   -27026   -26688   -26329   -25955   -25602   -25228   -24833 
  -24481   -24200   -23957   -23735   -23550   -23407   -23305   -23187 
  -23028   -22930   -22875   -22781   -22707   -22693   -22719   -22830 
  -23054   -23312   -23514   -23700   -23907   -24128   -24400   -24653 
  -24806   -24961   -25122   -25186   -25223   -25303   -25370   -25392 
  -25344   -25255   -25169   -25038   -24847   -24640   -24427   -24206 
  -23966   -23714   -23456   -23196   -22952   -22731   -22566   -22473 
  -22394   -22318   -22233   -22111   -22035   -22040   -22046   -22056 
  -22113   -22189   -22255   -22307   -22378   -22485   -22591   -22657 
  -22676   -22651   -22597   -22533   -22448   -22316   -22137   -21952 
