Origin Time       2011/03/11 14:46:00
Lat.              38.103
Long.             142.860
Depth. (km)       24
Mag.              9.0
Station Code      SIG003
Station Lat.      35.3773
Station Long.     136.2642
Station Height(m) 86
Record Time       2011/03/11 14:49:42
Sampling Freq(Hz) 100Hz
Duration Time(s)  145
Dir.              N-S
Scale Factor      3920(gal)/6182761
Max. Acc. (gal)   12.998
Last Correction   2011/03/11 14:49:27
Memo.             
[...]
  -33327   -33855   -34341   -34764   -35109   -35388   -35598   -35719 
  -35766   -35760   -35722   -35667   -35603   -35563   -35583   -35668 
  -35805   -36006   -36281   -36612   -36974   -37373   -37799   -38220 
  -38629   -39039   -39430   -39795   -40144   -40460   -40728   -40961 
  -41138   -41242   -41285   -41250   -41122   -40909   -40609   -40233 
  -39792   -39288   -38759   -38225   -37664   -37112   -36619   -36165 
  -35742   -35376   -35059   -34772   -34527   -34316   -34124   -33974 
  -33866   -33791   -33771   -33794   -33856   -33983   -34160   -34358 
  -34574   -34793   -34979   -35107   -35166   -35145   -35044   -34879 
  -34637   -34332   -34006   -33641   -33225   -32795   -32360   -31902 
  -31416   -30914   -30408   -29873   -29313   -28764   -28217   -27694 
  -27230   -26806   -26451   -26208   -26060   -25979   -25966   -26026 
  -26148   -26309   -26513   -26769   -27054   -27350   -27665   -28007 
  -28373   -28752   -29139   -29530   -29915   -30273   -30591   -30899 
  -31227   -31562   -31889   -32208   -32521   -32843   -33159   -33453 
  -33736   -33983   -34130   -34178   -34175   -34118   -34008   -33876 
  -33694   -33430   -33117   -32781   -32438   -32137   -31920   -31787 
  -31677   -31531   -31376   -31268   -31215   -31228   -31297   -31356 
  -31366   -31345   -31304   -31260   -31229   -31180   -31077   -30929 
  -30727   -30471   -30240   -30103   -30016   -29889   -29694   -29474 
  -29264   -29067   -28870   -28680   -28524   -28368   -28157   -27942 
  -27803   -27727   -27680   -27671   -27730   -27868   -28083   -28401 
  -28826   -29317   -29850   -30437   -31066   -31680   -32266   -32849 
  -33397   -33866   -34210   -34407   -34504   -34493   -34330   -34091 
  -33851   -33591   -33310   -33034   -32759   -32491   -32272   -32112 
  -32036   -32056   -32127   -32212   -32277   -32283   -32248   -32209 
  -32175   -32118   -32030   -31945   -31892   -31854   -31807   -31771 
  -31794   -31869   -31951   -32047   -32205   -32463   -32833   -33302 
  -33851   -34434   -34966   -35392   -35744   -36058   -36326   -36587 
  -36845   -37019   -37092   -37113   -37093   -37033   -36939   -36834 
  -36744   -36634   -36520   -36524   -36639   -36755   -36900   -37067 
  -37174   -37252   -37341   -37405   -37463   -37538   -37592   -37627 
  -37663   -37680   -37711   -37783   -37840   -37862   -37847   -37753 
  -37629   -37536   -37448   -37362   -37277   -37159   -36996   -36790 
  -36562   -36340   -36098   -35768   -35348   -34926   -34547   -34202 
  -33908   -33624   -33310   -32987   -32685   -32462   -32341   -32275 
  -32266   -32306   -32369   -32466   -32608   -32811   -33061   -33319 
  -33549   -33734   -33916   -34123   -34339   -34564   -34754   -34883 
  -35003   -35115   -35218   -35343   -35474   -35578   -35636   -35658 
  -35692   -35751   -35810   -35836   -35808   -35732   -35609   -35444 
  -35257   -35028   -34702   -34275   -33784   -33257   -32718   -32160 
  -31573   -30970   -30356   -29713   -29038   -28349   -27631   -26858 
  -26054   -25260   -24467   -23665   -22883   -22151   -21479   -20887 
  -20410   -20069   -19823   -19655   -19590   -19604   -19657   -19744 
  -19860   -19999   -20120   -20173   -20169   -20141   -20091   -20013 
  -19934   -19854   -19751   -19632   -19506   -19362   -19221   -19099 
  -19005   -18974   -19037   -19199   -19428   -19683   -19949   -20226 
  -20507   -20759   -20987   -21258   -21586   -21945   -22328   -22696 
  -23040   -23405   -23790   -24173   -24571   -25023   -25542   -26115 
  -26724   -27369   -28069   -28807   -29550   -30305   -31073   -31846 
  -32647   -33478   -34305   -35091   -35829   -36533   -37212   -37860 
  -38462   -38977   -39391   -39701   -39891   -39983   -40027   -40059 
  -40091   -40107   -40113   -40132   -40183   -40274   -40392   -40548 
  -40794   -41114   -41458   -41828   -42225   -42618   -42972   -43271 
  -43531   -43785   -44022   -44212   -44345   -44427   -44460   -44434 
  -44353   -44221   -44056   -43878   -43675   -43435   -43180   -42937 
  -42699   -42457   -42220   -41989   -41756   -41523   -41278   -40996 
  -40678   -40361   -40054   -39724   -39363   -38985   -38576   -38118 
  -37603   -37046   -36491   -35962   -35441   -34927   -34475   -34102 
  -33792   -33553   -33393   -33300   -33259   -33254   -33281   -33339 
  -33408   -33450   -33437   -33374   -33270   -33122   -32925   -32687 
  -32422   -32113   -31743   -31344   -30940   -30523   -30091   -29637 
  -29159   -28679   -28203   -27723   -27257   -26833   -26452   -26097 
  -25758   -25449   -25180   -24927   -24660   -24361   -24037   -23717 
  -23418   -23146   -22926   -22775   -22693   -22670   -22682   -22740 
  -22882   -23126   -23481   -23929   -24435   -24978   -25523   -26045 
  -26546   -27008   -27433   -27816   -28135   -28413   -28656   -28854 
  -29035   -29194   -29329   -29492   -29686   -29894   -30128   -30396 
  -30694   -31024   -31364   -31702   -32052   -32415   -32770   -33129 
  -33508   -33897   -34251   -34510   -34671   -34765   -34776   -34696 
  -34551   -34353   -34094   -33757   -33365   -32947   -32491   -31987 
  -31438   -30839   -30205   -29553   -28868   -28152   -27428   -26701 
  -25972   -25278   -24655   -24116   -23681   -23367   -23149   -23004 
  -22930   -22918   -22981   -23173   -23527   -23993   -24537   -25193 
  -25929   -26694   -27519   -28401   -29291   -30163   -31041   -31943 
  -32834   -33708   -34556   -35329   -36044   -36727   -37363   -37982 
  -38584   -39129   -39619   -40052   -40431   -40801   -41195   -41624 
  -42049   -42424   -42760   -43061   -43314   -43525   -43713   -43913 
  -44127   -44345   -44592   -44874   -45173   -45491   -45823   -46168 
  -46510   -46826   -47150   -47490   -47770   -47962   -48062   -48039 
  -47906   -47708   -47462   -47164   -46831   -46478   -46096   -45679 
  -45190   -44610   -43997   -43352   -42627   -41843   -41026   -40203 
  -39392   -38549   -37691   -36883   -36113   -35369   -34679   -34067 
  -33550   -33132   -32798   -32543   -32372   -32266   -32195   -32153 
  -32102   -32013   -31880   -31685   -31428   -31128   -30776   -30357 
  -29858   -29273   -28630   -27981   -27331   -26673   -26052   -25491 
  -24975   -24510   -24115   -23813   -23603   -23428   -23257   -23126 
  -23052   -23021   -23033   -23079   -23144   -23212   -23276   -23339 
  -23411   -23489   -23558   -23623   -23691   -23766   -23886   -24094 
  -24384   -24735   -25132   -25565   -26043   -26568   -27091   -27595 
  -28099   -28582   -29019   -29414   -29777   -30117   -30426   -30682 
  -30897   -31071   -31219   -31383   -31564   -31756   -31994   -32279 
  -32594   -32932   -33283   -33620   -33890   -34087   -34229   -34310 
  -34335   -34315   -34276   -34230   -34146   -34035   -33906   -33756 
  -33608   -33454   -33286   -33116   -32947   -32808   -32704   -32614 
  -32548   -32511   -32511   -32540   -32570   -32626   -32716   -32808 
  -32893   -32963   -33052   -33171   -33288   -33453   -33717   -34040 
  -34396   -34775   -35155   -35523   -35866   -36173   -36446   -36710 
  -36965   -37176   -37369   -37595   -37847   -38114   -38377   -38632 
  -38878   -39067   -39201   -39336   -39472   -39616   -39787   -39954 
  -40107   -40256   -40387   -40501   -40602   -40674   -40724   -40767 
  -40777   -40744   -40708   -40669   -40599   -40509   -40392   -40224 
  -40018   -39766   -39468   -39150   -38809   -38448   -38097   -37756 
  -37413   -37082   -36783   -36502   -36223   -35935   -35630   -35340 
  -35060   -34760   -34480   -34233   -33961   -33677   -33404   -33120 
  -32851   -32617   -32378   -32134   -31929   -31751   -31592   -31489 
  -31433   -31378   -31328   -31279   -31213   -31157   -31120   -31082 
  -31040   -30987   -30922   -30835   -30730   -30632   -30537   -30439 
  -30340   -30211   -30037   -29832   -29595   -29323   -29013   -28679 
  -28323   -27913   -27469   -27003   -26499   -25982   -25448   -24886 
  -24333   -23797   -23290   -22848   -22474   -22150   -21866   -21634 
  -21463   -21365   -21358   -21428   -21575   -21812   -22122   -22487 
  -22888   -23317   -23775   -24252   -24756   -25276   -25773   -26254 
  -26742   -27212   -27638   -28025   -28388   -28729   -29038   -29357 
  -29712   -30092   -30520   -31002   -31529   -32146   -32826   -33523 
  -34257   -35031   -35818   -36626   -37459   -38289   -39115   -39939 
  -40732   -41493   -42250   -42984   -43671   -44331   -44971   -45581 
  -46150   -46661   -47135   -47560   -47890   -48142   -48324   -48418 
  -48438   -48405   -48315   -48153   -47921   -47638   -47317   -46973 
  -46591   -46191   -45817   -45460   -45114   -44809   -44530   -44252 
  -43986   -43745   -43522   -43335   -43193   -43049   -42880   -42705 
  -42509   -42288   -42043   -41755   -41415   -41036   -40628   -40200 
  -39773   -39369   -38975   -38577   -38185   -37798   -37410   -37048 
  -36716   -36387   -36073   -35802   -35565   -35353   -35183   -35058 
  -34986   -34990   -35053   -35154   -35302   -35490   -35696   -35908 
  -36124   -36359   -36612   -36843   -37042   -37228   -37387   -37510 
  -37623   -37713   -37764   -37803   -37816   -37766   -37655   -37483 
  -37256   -36994   -36693   -36362   -36022   -35682   -35326   -34954 
  -34595   -34219   -33811   -33405   -32993   -32571   -32159   -31762 
  -31394   -31071   -30792   -30548   -30332   -30163   -30052   -29961 
  -29886   -29854   -29845   -29830   -29827   -29840   -29846   -29842 
  -29829   -29808   -29778   -29720   -29619   -29469   -29283   -29080 
  -28856   -28626   -28410   -28174   -27939   -27714   -27468   -27227 
  -26982   -26694   -26371   -26018   -25651   -25301   -24973   -24667 
  -24382   -24115   -23874   -23654   -23446   -23258   -23086   -22912 
  -22753   -22629   -22526   -22432   -22349   -22274   -22205   -22133 
  -22049   -21960   -21890   -21832   -21771   -21731   -21696   -21633 
  -21563   -21491   -21400   -21314   -21247   -21181   -21140   -21169 
  -21244   -21366   -21587   -21871   -22187   -22575   -22980   -23368 
  -23802   -24247   -24668   -25111   -25579   -26065   -26563   -27056 
  -27556   -28080   -28612   -29115   -29604   -30112   -30630   -31156 
  -31675   -32176   -32682   -33160   -33616   -34091   -34554   -35037 
  -35572   -36076   -36559   -37078   -37587   -38054   -38496   -38917 
  -39308   -39680   -40047   -40400   -40768   -41130   -41421   -41689 
  -41923   -42082   -42243   -42392   -42499   -42637   -42783   -42901 
  -43025   -43128   -43170   -43176   -43158   -43076   -42936   -42770 
  -42549   -42287   -42008   -41707   -41410   -41114   -40804   -40521 
  -40269   -40047   -39880   -39743   -39617   -39522   -39444   -39350 
  -39260   -39209   -39166   -39106   -39081   -39089   -39065   -39027 
  -38985   -38890   -38751   -38588   -38382   -38155   -37930   -37701 
  -37474   -37225   -36947   -36680   -36400   -36088   -35775   -35452 
  -35101   -34764   -34466   -34208   -33985   -33785   -33626   -33518 
  -33428   -33367   -33354   -33383   -33451   -33529   -33647   -33808 
  -33934   -34083   -34286   -34459   -34639   -34873   -35094   -35318 
  -35579   -35795   -35927   -36040   -36118   -36093   -36026   -35937 
  -35755   -35531   -35267   -34914   -34547   -34163   -33730   -33301 
  -32863   -32420   -31967   -31472   -30968   -30443   -29890   -29334 
  -28733   -28104   -27474   -26822   -26181   -25540   -24907   -24304 
  -23698   -23111   -22530   -21955   -21438   -20912   -20403   -19982 
  -19583   -19222   -18921   -18662   -18455   -18271   -18133   -18032 
  -17941   -17910   -17924   -17986   -18115   -18257   -18464   -18761 
  -19086   -19466   -19899   -20376   -20913   -21476   -22074   -22702 
  -23348   -24020   -24665   -25295   -25945   -26556   -27138   -27711 
  -28243   -28741   -29194   -29630   -30075   -30480   -30847   -31206 
  -31549   -31891   -32233   -32569   -32932   -33339   -33793   -34268 
  -34730   -35186   -35617   -36000   -36366   -36728   -37061   -37368 
  -37645   -37871   -38050   -38184   -38263   -38295   -38294   -38269 
  -38235   -38190   -38133   -38071   -37988   -37879   -37760   -37625 
  -37474   -37308   -37135   -36961   -36758   -36529   -36300   -36059 
  -35813   -35577   -35369   -35219   -35118   -35064   -35077   -35136 
  -35226   -35354   -35498   -35648   -35821   -36012   -36199   -36398 
  -36636   -36893   -37157   -37409   -37628   -37829   -38010   -38155 
  -38255   -38313   -38369   -38411   -38399   -38349   -38270   -38166 
  -38052   -37931   -37822   -37710   -37594   -37501   -37402   -37308 
  -37242   -37168   -37106   -37082   -37064   -37045   -37054   -37079 
  -37104   -37176   -37296   -37408   -37556   -37746   -37917   -38117 
  -38352   -38557   -38773   -39021   -39259   -39493   -39723   -39940 
  -40147   -40319   -40458   -40592   -40694   -40752   -40812   -40848 
  -40862   -40912   -40962   -40981   -41017   -41041   -41049   -41112 
  -41181   -41195   -41186   -41145   -41077   -41025   -41001   -41000 
  -41009   -41008   -40980   -40929   -40878   -40802   -40675   -40494 
  -40259   -39987   -39657   -39267   -38848   -38377   -37836   -37235 
  -36560   -35835   -35090   -34308   -33464   -32565   -31628   -30662 
  -29693   -28732   -27733   -26696   -25634   -24500   -23342   -22246 
  -21198   -20196   -19275   -18411   -17566   -16771   -16039   -15357 
  -14751   -14208   -13703   -13272   -12916   -12613   -12397   -12277 
  -12246   -12315   -12454   -12647   -12909   -13218   -13578   -13982 
  -14412   -14896   -15410   -15908   -16402   -16900   -17412   -17941 
  -18509   -19132   -19774   -20452   -21176   -21897   -22636   -23411 
  -24195   -25000   -25830   -26658   -27479   -28303   -29107   -29860 
  -30593   -31317   -31990   -32643   -33299   -33922   -34520   -35084 
  -35580   -36030   -36466   -36874   -37244   -37619   -38008   -38396 
  -38796   -39185   -39558   -39947   -40329   -40713   -41122   -41510 
  -41852   -42163   -42458   -42741   -43027   -43331   -43638   -43934 
  -44210   -44439   -44646   -44852   -45029   -45190   -45339   -45448 
  -45525   -45577   -45574   -45495   -45374   -45268   -45197   -45170 
  -45183   -45189   -45155   -45069   -44953   -44848   -44737   -44608 
  -44471   -44303   -44095   -43852   -43572   -43255   -42907   -42528 
  -42124   -41732   -41349   -40937   -40495   -40012   -39499   -39002 
  -38507   -38000   -37509   -37033   -36558   -36111   -35706   -35325 
  -34964   -34627   -34295   -33985   -33738   -33541   -33377   -33232 
  -33091   -32982   -32927   -32893   -32856   -32806   -32757   -32754 
  -32812   -32910   -33038   -33174   -33295   -33424   -33616   -33886 
  -34224   -34600   -34949   -35253   -35533   -35789   -36009   -36204 
  -36377   -36499   -36562   -36580   -36537   -36452   -36376   -36304 
  -36238   -36154   -35985   -35720   -35394   -35046   -34727   -34452 
  -34179   -33876   -33535   -33164   -32788   -32419   -32036   -31589 
  -31073   -30550   -30061   -29587   -29112   -28607   -28037   -27417 
  -26786   -26187   -25643   -25141   -24660   -24182   -23694   -23196 
  -22728   -22330   -22010   -21762   -21553   -21333   -21099   -20889 
  -20734   -20640   -20639   -20732   -20854   -20979   -21113   -21253 
  -21424   -21668   -21999   -22410   -22845   -23252   -23674   -24169 
  -24725   -25313   -25894   -26407   -26852   -27297   -27771   -28259 
  -28743   -29158   -29464   -29716   -29993   -30319   -30697   -31112 
  -31506   -31848   -32149   -32395   -32583   -32736   -32901   -33141 
  -33442   -33741   -33971   -34086   -34149   -34253   -34434   -34678 
  -34893   -35032   -35162   -35308   -35445   -35571   -35716   -35910 
  -36134   -36347   -36513   -36636   -36774   -36948   -37151   -37346 
  -37483   -37597   -37714   -37833   -37985   -38135   -38251   -38361 
  -38475   -38571   -38641   -38702   -38743   -38761   -38806   -38873 
  -38932   -38976   -38954   -38866   -38789   -38751   -38720   -38670 
  -38591   -38446   -38238   -38025   -37821   -37625   -37445   -37249 
  -37024   -36809   -36608   -36397   -36192   -36004   -35818   -35655 
  -35540   -35437   -35323   -35215   -35119   -35059   -35054   -35098 
  -35171   -35252   -35367   -35502   -35613   -35749   -35946   -36202 
  -36528   -36872   -37179   -37459   -37718   -37975   -38247   -38529 
  -38833   -39168   -39513   -39789   -39951   -40058   -40147   -40276 
  -40490   -40680   -40761   -40741   -40603   -40392   -40210   -40059 
  -39914   -39752   -39511   -39159   -38728   -38261   -37798   -37357 
  -36907   -36406   -35847   -35239   -34603   -33946   -33297   -32717 
  -32217   -31769   -31316   -30786   -30173   -29527   -28939   -28443 
  -27990   -27594   -27221   -26748   -26219   -25740   -25318   -24977 
  -24691   -24384   -24040   -23655   -23279   -22983   -22744   -22514 
  -22266   -21977   -21670   -21386   -21156   -20972   -20790   -20600 
  -20411   -20219   -20040   -19911   -19839   -19770   -19657   -19558 
  -19512   -19484   -19455   -19416   -19390   -19420   -19490   -19572 
  -19675   -19798   -19935   -20070   -20174   -20276   -20408   -20555 
  -20722   -20924   -21142   -21364   -21606   -21868   -22148   -22500 
  -22973   -23567   -24250   -24951   -25612   -26252   -26902   -27533 
  -28123   -28664   -29161   -29659   -30180   -30655   -31029   -31317 
  -31572   -31881   -32285   -32722   -33132   -33505   -33834   -34145 
  -34488   -34874   -35308   -35794   -36321   -36892   -37540   -38260 
  -38994   -39733   -40468   -41165   -41854   -42560   -43237   -43850 
  -44390   -44829   -45141   -45352   -45537   -45729   -45892   -45988 
  -45996   -45932   -45890   -45973   -46198   -46490   -46781   -47031 
  -47204   -47320   -47377   -47335   -47246   -47154   -47055   -46984 
  -46936   -46858   -46751   -46595   -46333   -45925   -45371   -44723 
  -44048   -43406   -42814   -42253   -41746   -41277   -40825   -40441 
  -40095   -39705   -39270   -38815   -38378   -38018   -37774   -37637 
  -37552   -37489   -37494   -37583   -37662   -37650   -37554   -37408 
  -37258   -37143   -37060   -36980   -36843   -36587   -36234   -35871 
  -35564   -35328   -35176   -35068   -34923   -34760   -34665   -34663 
  -34730   -34775   -34692   -34493   -34228   -33920   -33647   -33460 
  -33305   -33116   -32883   -32599   -32290   -32021   -31811   -31643 
  -31458   -31144   -30685   -30170   -29693   -29318   -29016   -28698 
  -28326   -27889   -27454   -27135   -26910   -26671   -26379   -26079 
  -25804   -25504   -25139   -24777   -24491   -24301   -24204   -24158 
  -24132   -24147   -24205   -24280   -24387   -24524   -24636   -24670 
  -24596   -24450   -24344   -24337   -24362   -24296   -24086   -23824 
  -23661   -23652   -23744   -23870   -24023   -24245   -24533   -24808 
  -25025   -25221   -25416   -25588   -25723   -25834   -25937   -26007 
  -26011   -25978   -25940   -25876   -25784   -25724   -25754   -25840 
  -25896   -25898   -25874   -25856   -25844   -25750   -25550   -25415 
  -25500   -25819   -26310   -26859   -27417   -28028   -28660   -29248 
  -29812   -30317   -30714   -31058   -31436   -31941   -32602   -33322 
  -33989   -34540   -34986   -35396   -35806   -36191   -36504   -36725 
  -36904   -37105   -37335   -37611   -38025   -38571   -39079   -39426 
