Origin Time       2011/03/11 14:46:00
Lat.              38.103
Long.             142.860
Depth. (km)       24
Mag.              9.0
Station Code      SIG012
Station Lat.      34.9018
Station Long.     136.2324
Station Height(m) 225
Record Time       2011/03/11 14:49:12
Sampling Freq(Hz) 100Hz
Duration Time(s)  206
Dir.              N-S
Scale Factor      3920(gal)/6182761
Max. Acc. (gal)   6.214
Last Correction   2011/03/11 14:48:57
Memo.             
[...]
  -49947   -50062   -50223   -50354   -50509   -50705   -50884   -51063 
  -51286   -51525   -51729   -51874   -51962   -52042   -52145   -52206 
  -52128   -51935   -51741   -51537   -51284   -51047   -50858   -50685 
  -50570   -50548   -50561   -50570   -50601   -50632   -50622   -50608 
  -50612   -50600   -50569   -50550   -50554   -50574   -50597   -50596 
  -50526   -50410   -50323   -50222   -50045   -49860   -49702   -49526 
  -49370   -49277   -49168   -49015   -48915   -48877   -48820   -48750 
  -48676   -48549   -48436   -48404   -48352   -48229   -48107   -48021 
  -47969   -47912   -47773   -47565   -47362   -47202   -47075   -46896 
  -46664   -46473   -46285   -46070   -45905   -45774   -45613   -45460 
  -45416   -45473   -45507   -45481   -45463   -45478   -45528   -45635 
  -45759   -45866   -46016   -46219   -46434   -46681   -46950   -47166 
  -47329   -47543   -47845   -48116   -48246   -48290   -48335   -48368 
  -48369   -48373   -48396   -48407   -48411   -48405   -48379   -48399 
  -48477   -48500   -48430   -48378   -48434   -48520   -48536   -48501 
  -48448   -48431   -48490   -48547   -48549   -48520   -48461   -48385 
  -48298   -48175   -47988   -47777   -47619   -47468   -47262   -47023 
  -46708   -46281   -45812   -45391   -45073   -44805   -44472   -44120 
  -43910   -43863   -43890   -43923   -43902   -43895   -44025   -44203 
  -44341   -44517   -44797   -45154   -45498   -45849   -46278   -46723 
  -47167   -47655   -48177   -48741   -49309   -49791   -50193   -50576 
  -50973   -51394   -51769   -52027   -52261   -52540   -52763   -52850 
  -52846   -52883   -52994   -52977   -52737   -52493   -52409   -52428 
  -52431   -52367   -52357   -52516   -52721   -52851   -52903   -52876 
  -52830   -52811   -52653   -52311   -52026   -51821   -51531   -51208 
  -50961   -50803   -50659   -50303   -49755   -49385   -49330   -49335 
  -49097   -48683   -48458   -48497   -48553   -48460   -48317   -48332 
  -48415   -48331   -48148   -48056   -48082   -48068   -47906   -47727 
  -47670   -47606   -47261   -46687   -46287   -46127   -45919   -45577 
  -45237   -45000   -44888   -44813   -44603   -44275   -44067   -44011 
  -43935   -43844   -43815   -43840   -43905   -43936   -43903   -43927 
  -44066   -44203   -44189   -44070   -44082   -44290   -44524   -44772 
  -45102   -45345   -45439   -45629   -45959   -46251   -46473   -46651 
  -46790   -46995   -47356   -47770   -48115   -48402   -48580   -48654 
  -48814   -49080   -49260   -49328   -49420   -49569   -49709   -49867 
  -50045   -50165   -50263   -50337   -50350   -50452   -50696   -50887 
  -50989   -51056   -50999   -50856   -50717   -50552   -50420   -50277 
  -49935   -49496   -49213   -49115   -49062   -48984   -48933   -48932 
  -48990   -49097   -49180   -49263   -49408   -49607   -49869   -50220 
  -50619   -50972   -51221   -51378   -51513   -51703   -51897   -51978 
  -51982   -52058   -52237   -52367   -52287   -52075   -51997   -52116 
  -52255   -52308   -52316   -52374   -52503   -52615   -52723   -52892 
  -53056   -53113   -53029   -52956   -53033   -53080   -52894   -52515 
  -52118   -51868   -51776   -51653   -51329   -50850   -50382   -50035 
  -49741   -49356   -48938   -48600   -48344   -48188   -48025   -47773 
  -47575   -47437   -47298   -47234   -47224   -47214   -47316   -47572 
  -47829   -48009   -48189   -48331   -48344   -48308   -48246   -48086 
  -47905   -47731   -47459   -47178   -47072   -47100   -47081   -46892 
  -46574   -46310   -46192   -46187   -46206   -46174   -46178   -46309 
  -46510   -46711   -46857   -46918   -46937   -46951   -47048   -47332 
  -47672   -47824   -47819   -47856   -47967   -48050   -48008   -47834 
  -47670   -47636   -47661   -47673   -47679   -47614   -47486   -47389 
  -47338   -47308   -47232   -47105   -47054   -47087   -47078   -47051 
  -47123   -47278   -47470   -47731   -47945   -47908   -47705   -47608 
  -47660   -47728   -47806   -47923   -48031   -48128   -48236   -48333 
  -48450   -48576   -48608   -48586   -48634   -48784   -48970   -49051 
  -49012   -49012   -49113   -49292   -49530   -49710   -49778   -49847 
  -49965   -50115   -50282   -50382   -50412   -50458   -50534   -50639 
  -50736   -50744   -50665   -50587   -50589   -50616   -50574   -50513 
  -50530   -50562   -50450   -50210   -49956   -49663   -49329   -49037 
  -48814   -48643   -48479   -48297   -48087   -47885   -47799   -47818 
  -47846   -47841   -47798   -47772   -47771   -47779   -47836   -47876 
  -47865   -47925   -48057   -48126   -48071   -47954   -47918   -48018 
  -48110   -48070   -47977   -47918   -47823   -47669   -47542   -47484 
  -47445   -47338   -47175   -47050   -46949   -46771   -46515   -46313 
  -46252   -46221   -46114   -46010   -45937   -45807   -45595   -45354 
  -45167   -45078   -44982   -44805   -44721   -44876   -45134   -45251 
  -45191   -45192   -45354   -45455   -45348   -45160   -45042   -45023 
  -45084   -45165   -45211   -45294   -45465   -45619   -45721   -45835 
  -45906   -45856   -45744   -45641   -45568   -45522   -45448   -45298 
  -45121   -45000   -44892   -44702   -44442   -44190   -43998   -43899 
  -43863   -43787   -43659   -43539   -43373   -43159   -43038   -42991 
  -42920   -42896   -42963   -43079   -43197   -43253   -43300   -43413 
  -43558   -43706   -43827   -43941   -44151   -44474   -44925   -45490 
  -46006   -46403   -46752   -47100   -47489   -47906   -48180   -48204 
  -48134   -48133   -48217   -48411   -48740   -49086   -49312   -49457 
  -49604   -49750   -49906   -50058   -50115   -50085   -50065   -50017 
  -49939   -49918   -49873   -49774   -49746   -49733   -49635   -49519 
  -49391   -49209   -49047   -48881   -48581   -48207   -47853   -47461 
  -47080   -46844   -46705   -46565   -46472   -46505   -46649   -46820 
  -46931   -46995   -47111   -47310   -47541   -47757   -47954   -48119 
  -48241   -48400   -48662   -48968   -49258   -49478   -49628   -49837 
  -50124   -50363   -50580   -50893   -51245   -51548   -51825   -52125 
  -52459   -52815   -53182   -53544   -53890   -54225   -54493   -54660 
  -54822   -55039   -55239   -55348   -55398   -55461   -55521   -55539 
  -55521   -55465   -55346   -55165   -54949   -54702   -54408   -54036 
  -53577   -53092   -52641   -52249   -51945   -51730   -51550   -51358 
  -51151   -50915   -50653   -50402   -50178   -49976   -49819   -49738 
  -49666   -49533   -49432   -49414   -49416   -49451   -49506   -49505 
  -49505   -49556   -49608   -49633   -49586   -49413   -49134   -48789 
  -48409   -47997   -47543   -47073   -46656   -46316   -46014   -45785 
  -45702   -45657   -45465   -45114   -44736   -44470   -44305   -44158 
  -44071   -44075   -44101   -44099   -44069   -44073   -44199   -44457 
  -44764   -45055   -45377   -45811   -46333   -46842   -47311   -47753 
  -48113   -48406   -48735   -49105   -49445   -49735   -49989   -50244 
  -50498   -50662   -50721   -50764   -50788   -50738   -50604   -50422 
  -50310   -50312   -50325   -50299   -50297   -50346   -50417   -50489 
  -50561   -50640   -50750   -50881   -50991   -51125   -51298   -51356 
  -51239   -51096   -51021   -50975   -50903   -50823   -50794   -50817 
  -50836   -50819   -50806   -50899   -51086   -51191   -51145   -51047 
  -50945   -50799   -50623   -50504   -50435   -50335   -50165   -49937 
  -49722   -49550   -49345   -49060   -48723   -48397   -48122   -47828 
  -47448   -47080   -46832   -46632   -46367   -46040   -45699   -45381 
  -45139   -44997   -44864   -44668   -44474   -44290   -44065   -43869 
  -43773   -43675   -43479   -43258   -43115   -43067   -43078   -43065 
  -43014   -42995   -42988   -42905   -42781   -42712   -42653   -42528 
  -42433   -42488   -42669   -42846   -42919   -42931   -42974   -43037 
  -43083   -43136   -43193   -43232   -43330   -43544   -43841   -44205 
  -44615   -44993   -45321   -45648   -45966   -46227   -46479   -46804 
  -47185   -47581   -47975   -48336   -48706   -49154   -49649   -50117 
  -50514   -50865   -51241   -51635   -51965   -52212   -52454   -52731 
  -53002   -53257   -53520   -53789   -54033   -54198   -54297   -54402 
  -54484   -54467   -54402   -54396   -54434   -54425   -54353   -54247 
  -54141   -54058   -53956   -53814   -53669   -53509   -53340   -53188 
  -53043   -52916   -52858   -52861   -52863   -52838   -52820   -52886 
  -53073   -53319   -53543   -53719   -53917   -54197   -54493   -54722 
  -54867   -54946   -54960   -54888   -54753   -54586   -54393   -54181 
  -53958   -53736   -53517   -53262   -52963   -52651   -52367   -52148 
  -51957   -51699   -51400   -51166   -50999   -50848   -50687   -50538 
  -50457   -50423   -50369   -50325   -50328   -50337   -50315   -50269 
  -50225   -50196   -50163   -50072   -49944   -49889   -49931   -50005 
  -50064   -50077   -50039   -49967   -49848   -49670   -49510   -49440 
  -49444   -49473   -49500   -49506   -49522   -49601   -49716   -49816 
  -49936   -50104   -50275   -50419   -50534   -50631   -50746   -50889 
  -51021   -51114   -51219   -51401   -51622   -51833   -52085   -52428 
  -52835   -53253   -53650   -54027   -54451   -54941   -55405   -55804 
  -56156   -56461   -56714   -56871   -56975   -57117   -57242   -57308 
  -57328   -57315   -57289   -57156   -56898   -56656   -56447   -56206 
  -55908   -55569   -55270   -55029   -54794   -54502   -54126   -53730 
  -53338   -52900   -52461   -52106   -51798   -51449   -51054   -50679 
  -50349   -50059   -49791   -49530   -49306   -49096   -48830   -48524 
  -48227   -47966   -47752   -47513   -47201   -46871   -46549   -46231 
  -45929   -45655   -45431   -45225   -44982   -44720   -44474   -44260 
  -44057   -43801   -43496   -43202   -42942   -42695   -42442   -42251 
  -42162   -42085   -41990   -41921   -41855   -41773   -41723   -41704 
  -41684   -41699   -41772   -41870   -41968   -42060   -42153   -42263 
  -42404   -42600   -42837   -43114   -43453   -43846   -44271   -44715 
  -45165   -45604   -46002   -46384   -46819   -47289   -47766   -48253 
  -48723   -49185   -49676   -50162   -50598   -50955   -51241   -51511 
  -51752   -51925   -52063   -52233   -52484   -52800   -53118   -53418 
  -53727   -54059   -54382   -54670   -54957   -55272   -55572   -55815 
  -56051   -56371   -56774   -57156   -57461   -57737   -57996   -58195 
  -58340   -58457   -58530   -58522   -58436   -58324   -58219   -58081 
  -57897   -57669   -57395   -57128   -56869   -56542   -56192   -55909 
  -55649   -55358   -55036   -54684   -54353   -54064   -53738   -53338 
  -52927   -52578   -52266   -51957   -51697   -51495   -51299   -51070 
  -50809   -50555   -50338   -50135   -49919   -49717   -49584   -49502 
  -49434   -49379   -49291   -49118   -48898   -48691   -48502   -48318 
  -48135   -47924   -47709   -47515   -47296   -47067   -46889   -46723 
  -46523   -46324   -46172   -46084   -46056   -46036   -45996   -45991 
  -46036   -46081   -46131   -46204   -46268   -46306   -46313   -46322 
  -46393   -46511   -46640   -46770   -46900   -47041   -47178   -47264 
  -47316   -47423   -47600   -47744   -47848   -47998   -48174   -48302 
  -48389   -48486   -48611   -48748   -48874   -48999   -49145   -49271 
  -49359   -49434   -49483   -49537   -49647   -49771   -49888   -49994 
  -50060   -50125   -50221   -50308   -50357   -50358   -50352   -50386 
  -50431   -50455   -50440   -50352   -50204   -50030   -49826   -49623 
  -49429   -49189   -48897   -48593   -48294   -48011   -47725   -47434 
  -47176   -46966   -46796   -46628   -46421   -46209   -46032   -45836 
  -45601   -45395   -45212   -44999   -44779   -44628   -44591   -44607 
  -44581   -44520   -44497   -44558   -44682   -44830   -45005   -45217 
  -45461   -45726   -45993   -46276   -46608   -46978   -47339   -47674 
  -47998   -48340   -48721   -49135   -49562   -49981   -50369   -50728 
  -51095   -51475   -51813   -52104   -52383   -52619   -52777   -52896 
  -53009   -53107   -53181   -53204   -53159   -53093   -53067   -53094 
  -53123   -53095   -53028   -52960   -52879   -52827   -52825   -52776 
  -52675   -52628   -52645   -52668   -52667   -52649   -52630   -52604 
  -52531   -52366   -52136   -51927   -51763   -51635   -51545   -51447 
  -51295   -51100   -50895   -50672   -50373   -49985   -49541   -49097 
  -48702   -48326   -47914   -47474   -47020   -46516   -45976   -45476 
  -45019   -44544   -44050   -43552   -43067   -42638   -42241   -41823 
  -41431   -41130   -40891   -40695   -40580   -40530   -40492   -40501 
  -40598   -40781   -41049   -41355   -41649   -41943   -42272   -42642 
  -43015   -43378   -43775   -44206   -44616   -45001   -45392   -45770 
  -46113   -46441   -46749   -47031   -47298   -47560   -47837   -48157 
  -48529   -48901   -49243   -49592   -49960   -50326   -50700   -51086 
  -51432   -51736   -52093   -52533   -52964   -53321   -53631   -53925 
  -54175   -54390   -54645   -54968   -55326   -55650   -55914   -56161 
  -56407   -56615   -56776   -56909   -57019   -57116   -57206   -57286 
  -57354   -57385   -57378   -57383   -57418   -57421   -57356   -57278 
  -57237   -57200   -57143   -57078   -57017   -56972   -56926   -56850 
  -56747   -56616   -56454   -56280   -56119   -55964   -55753   -55468 
  -55143   -54746   -54261   -53760   -53287   -52806   -52275   -51677 
  -51031   -50383   -49748   -49078   -48327   -47556   -46864   -46224 
  -45569   -44919   -44306   -43721   -43160   -42620   -42103   -41644 
  -41248   -40849   -40425   -40051   -39762   -39539   -39384   -39260 
  -39144   -39090   -39093   -39078   -39088   -39213   -39414   -39622 
  -39870   -40179   -40490   -40769   -41052   -41375   -41715   -42041 
  -42383   -42792   -43248   -43704   -44179   -44681   -45158   -45636 
  -46180   -46764   -47327   -47870   -48400   -48872   -49266   -49615 
  -49954   -50301   -50623   -50893   -51144   -51376   -51557   -51727 
  -51943   -52174   -52361   -52501   -52595   -52645   -52715   -52859 
  -53032   -53144   -53197   -53265   -53366   -53463   -53512   -53494 
  -53429   -53342   -53266   -53218   -53182   -53169   -53161   -53150 
  -53138   -53093   -53049   -53032   -52992   -52919   -52814   -52663 
  -52474   -52252   -52014   -51769   -51520   -51247   -50903   -50522 
  -50196   -49914   -49607   -49269   -48930   -48593   -48274   -48011 
  -47793   -47574   -47382   -47235   -47072   -46924   -46832   -46722 
  -46581   -46479   -46433   -46421   -46444   -46507   -46603   -46717 
  -46810   -46873   -46955   -47049   -47129   -47210   -47288   -47345 
  -47389   -47450   -47540   -47611   -47631   -47665   -47781   -47920 
  -47994   -48028   -48079   -48157   -48260   -48369   -48489   -48647 
  -48778   -48847   -48948   -49119   -49308   -49478   -49602   -49700 
  -49799   -49891   -49999   -50152   -50343   -50538   -50704   -50825 
  -50876   -50877   -50880   -50923   -51023   -51098   -51100   -51136 
  -51249   -51370   -51463   -51509   -51535   -51582   -51662   -51772 
  -51881   -51963   -52012   -52019   -51988   -51955   -51977   -52022 
  -52010   -52005   -52060   -52091   -52048   -51986   -51958   -51938 
  -51906   -51889   -51899   -51931   -51921   -51851   -51793   -51749 
  -51698   -51674   -51663   -51668   -51696   -51659   -51565   -51494 
  -51420   -51332   -51246   -51144   -51047   -50977   -50921   -50860 
  -50791   -50717   -50624   -50500   -50383   -50292   -50203   -50083 
  -49925   -49762   -49608   -49461   -49324   -49172   -48977   -48759 
  -48544   -48322   -48125   -48004   -47916   -47808   -47681   -47547 
  -47450   -47414   -47414   -47409   -47393   -47417   -47447   -47388 
  -47300   -47287   -47346   -47401   -47398   -47354   -47290   -47249 
  -47240   -47193   -47167   -47246   -47345   -47407   -47447   -47503 
  -47634   -47766   -47777   -47761   -47858   -47976   -47961   -47904 
  -47975   -48073   -48041   -47897   -47737   -47739   -47844   -47780 
  -47590   -47426   -47328   -47271   -47123   -46957   -46912   -46869 
  -46775   -46670   -46580   -46576   -46598   -46511   -46340   -46192 
  -46122   -46068   -45929   -45722   -45559   -45473   -45406   -45365 
  -45359   -45300   -45161   -45057   -45037   -45060   -45093   -45122 
  -45177   -45290   -45446   -45685   -46035   -46394   -46660   -46869 
  -47118   -47388   -47612   -47821   -48017   -48174   -48336   -48513 
  -48691   -48894   -49095   -49235   -49314   -49362   -49395   -49417 
  -49423   -49424   -49456   -49490   -49474   -49443   -49442   -49445 
  -49468   -49569   -49701   -49811   -49933   -50083   -50254   -50477 
  -50764   -51071   -51365   -51678   -52027   -52372   -52701   -53009 
  -53289   -53573   -53872   -54154   -54404   -54644   -54872   -55078 
  -55302   -55539   -55714   -55832   -55964   -56104   -56193   -56200 
  -56141   -56030   -55871   -55685   -55485   -55264   -55026   -54787 
  -54562   -54360   -54179   -54000   -53786   -53526   -53270   -53054 
  -52842   -52587   -52302   -52035   -51810   -51612   -51406   -51174 
  -50934   -50715   -50529   -50362   -50201   -50051   -49889   -49705 
  -49552   -49438   -49312   -49182   -49073   -48961   -48832   -48712 
  -48600   -48494   -48424   -48387   -48325   -48190   -47999   -47806 
  -47647   -47501   -47343   -47183   -47014   -46825   -46660   -46524 
  -46362   -46184   -46022   -45882   -45764   -45656   -45538   -45404 
  -45288   -45203   -45126   -45064   -45038   -45047   -45080   -45119 
  -45169   -45273   -45442   -45628   -45801   -45981   -46193   -46421 
  -46660   -46938   -47247   -47551   -47866   -48220   -48599   -48963 
  -49309   -49645   -49981   -50331   -50680   -51018   -51335   -51612 
  -51848   -52066   -52287   -52479   -52617   -52718   -52751   -52711 
  -52639   -52520   -52353   -52184   -52005   -51775   -51479   -51151 
  -50847   -50566   -50264   -49937   -49623   -49351   -49095   -48852 
  -48662   -48523   -48386   -48220   -48046   -47903   -47787   -47666 
  -47544   -47437   -47322   -47204   -47125   -47094   -47103   -47124 
  -47147   -47214   -47332   -47441   -47504   -47559   -47665   -47809 
  -47912   -47944   -47979   -48051   -48144   -48258   -48372   -48467 
  -48545   -48611   -48692   -48803   -48906   -48982   -49029   -49018 
  -48949   -48850   -48710   -48534   -48360   -48171   -47941   -47693 
  -47478   -47325   -47195   -47043   -46897   -46826   -46864   -46953 
  -47017   -47074   -47181   -47354   -47571   -47775   -47937   -48106 
  -48310   -48511   -48669   -48815   -48977   -49129   -49286   -49477 
  -49655   -49785   -49900   -50045   -50210   -50371   -50551   -50750 
  -50955   -51185   -51435   -51668   -51852   -52010   -52183   -52364 
  -52528   -52664   -52796   -52950   -53096   -53202   -53299   -53402 
  -53489   -53573   -53671   -53776   -53886   -53975   -54024   -54059 
  -54092   -54101   -54076   -54018   -53925   -53803   -53681   -53598 
  -53548   -53490   -53399   -53289   -53196   -53129   -53054   -52948 
  -52823   -52669   -52454   -52199   -51941   -51649   -51281   -50846 
  -50412   -50023   -49652   -49274   -48900   -48548   -48220   -47881 
  -47508   -47156   -46864   -46591   -46308   -46037   -45792   -45555 
  -45294   -45009   -44742   -44486   -44195   -43894   -43640   -43435 
  -43262   -43092   -42901   -42689   -42472   -42268   -42101   -41987 
  -41908   -41837   -41783   -41782   -41835   -41886   -41887   -41864 
