Origin Time       2011/03/11 14:46:00
Lat.              38.103
Long.             142.860
Depth. (km)       24
Mag.              9.0
Station Code      SIG005
Station Lat.      35.2499
Station Long.     136.2414
Station Height(m) 92
Record Time       2011/03/11 14:48:36
Sampling Freq(Hz) 100Hz
Duration Time(s)  264
Dir.              N-S
Scale Factor      3920(gal)/6182761
Max. Acc. (gal)   9.208
Last Correction   2011/03/11 14:48:21
Memo.             
[...]
  -20575   -20266   -19966   -19662   -19300   -18878   -18465   -18119 
  -17873   -17707   -17546   -17337   -17099   -16864   -16645   -16461 
  -16306   -16141   -15954   -15742   -15507   -15304   -15186   -15142 
  -15141   -15160   -15165   -15137   -15094   -15077   -15110   -15172 
  -15217   -15224   -15193   -15145   -15143   -15219   -15327   -15420 
  -15455   -15406   -15304   -15197   -15118   -15105   -15150   -15205 
  -15267   -15367   -15531   -15783   -16116   -16496   -16906   -17310 
  -17673   -18005   -18347   -18718   -19119   -19532   -19930   -20290 
  -20599   -20872   -21154   -21455   -21731   -21939   -22085   -22185 
  -22270   -22385   -22544   -22715   -22849   -22927   -22940   -22887 
  -22788   -22678   -22594   -22540   -22479   -22376   -22232   -22068 
  -21911   -21775   -21625   -21418   -21155   -20871   -20622   -20448 
  -20329   -20219   -20086   -19934   -19772   -19598   -19443   -19338 
  -19274   -19227   -19156   -19032   -18873   -18713   -18591   -18545 
  -18566   -18616   -18664   -18702   -18726   -18745   -18803   -18944 
  -19186   -19505   -19840   -20137   -20376   -20566   -20752   -20982 
  -21243   -21520   -21792   -22001   -22118   -22170   -22165   -22108 
  -22012   -21901   -21795   -21686   -21554   -21393   -21230   -21111 
  -21036   -20974   -20930   -20912   -20900   -20898   -20924   -20988 
  -21065   -21132   -21207   -21288   -21357   -21420   -21482   -21564 
  -21705   -21914   -22165   -22433   -22717   -23012   -23305   -23593 
  -23876   -24160   -24469   -24791   -25097   -25383   -25633   -25866 
  -26110   -26356   -26612   -26859   -27039   -27131   -27154   -27148 
  -27144   -27151   -27158   -27117   -26981   -26752   -26461   -26151 
  -25873   -25665   -25528   -25425   -25290   -25093   -24838   -24560 
  -24328   -24171   -24061   -23977   -23895   -23786   -23649   -23504 
  -23359   -23196   -23027   -22882   -22775   -22722   -22701   -22651 
  -22549   -22379   -22110   -21767   -21406   -21024   -20616   -20205 
  -19785   -19331   -18878   -18486   -18141   -17817   -17551   -17370 
  -17243   -17148   -17073   -16998   -16907   -16829   -16820   -16873 
  -16920   -16928   -16902   -16869   -16865   -16895   -16944   -17000 
  -17041   -17058   -17077   -17100   -17120   -17180   -17299   -17443 
  -17607   -17821   -18082   -18366   -18653   -18933   -19202   -19446 
  -19628   -19731   -19778   -19804   -19858   -19991   -20226   -20547 
  -20918   -21309   -21716   -22133   -22540   -22927   -23286   -23596 
  -23850   -24060   -24244   -24406   -24559   -24721   -24885   -25026 
  -25121   -25158   -25133   -25028   -24843   -24634   -24470   -24377 
  -24351   -24378   -24431   -24495   -24565   -24638   -24726   -24829 
  -24921   -24993   -25053   -25090   -25080   -25052   -25059   -25109 
  -25184   -25247   -25254   -25183   -25046   -24860   -24663   -24482 
  -24293   -24082   -23873   -23679   -23502   -23342   -23181   -23004 
  -22812   -22595   -22368   -22172   -22005   -21833   -21687   -21578 
  -21480   -21410   -21389   -21404   -21442   -21490   -21535   -21591 
  -21672   -21800   -21978   -22172   -22361   -22565   -22814   -23114 
  -23449   -23792   -24112   -24383   -24585   -24713   -24801   -24888 
  -24955   -24938   -24795   -24552   -24256   -23935   -23613   -23306 
  -23004   -22661   -22262   -21856   -21479   -21136   -20842   -20574 
  -20291   -19980   -19654   -19355   -19116   -18905   -18697   -18502 
  -18307   -18094   -17884   -17695   -17506   -17316   -17118   -16910 
  -16746   -16626   -16492   -16345   -16203   -16071   -15980   -15925 
  -15853   -15752   -15631   -15469   -15275   -15103   -14987   -14948 
  -14986   -15047   -15098   -15153   -15217   -15307   -15465   -15675 
  -15906   -16183   -16490   -16797   -17139   -17524   -17917   -18298 
  -18641   -18923   -19180   -19443   -19665   -19834   -19985   -20099 
  -20172   -20239   -20321   -20447   -20637   -20854   -21061   -21250 
  -21403   -21532   -21675   -21840   -22028   -22269   -22541   -22783 
  -22980   -23145   -23265   -23360   -23478   -23630   -23813   -24002 
  -24131   -24176   -24162   -24131   -24126   -24134   -24121   -24111 
  -24097   -24028   -23880   -23693   -23523   -23393   -23293   -23210 
  -23124   -23044   -22992   -22968   -22992   -23075   -23209   -23384 
  -23571   -23752   -23964   -24219   -24482   -24725   -24935   -25105 
  -25243   -25367   -25494   -25613   -25714   -25793   -25855   -25909 
  -25950   -25972   -25976   -25933   -25831   -25684   -25516   -25348 
  -25177   -24993   -24778   -24532   -24266   -23994   -23737   -23500 
  -23269   -23047   -22835   -22625   -22429   -22248   -22064   -21871 
  -21683   -21511   -21352   -21178   -20970   -20735   -20494   -20274 
  -20091   -19937   -19785   -19619   -19440   -19251   -19076   -18949 
  -18876   -18858   -18887   -18916   -18929   -18959   -19020   -19101 
  -19209   -19348   -19490   -19640   -19820   -20015   -20220   -20437 
  -20649   -20857   -21085   -21322   -21554   -21794   -22042   -22304 
  -22589   -22880   -23164   -23434   -23680   -23916   -24149   -24358 
  -24521   -24627   -24664   -24638   -24594   -24563   -24544   -24542 
  -24549   -24564   -24587   -24581   -24532   -24481   -24457   -24448 
  -24458   -24481   -24501   -24534   -24586   -24651   -24726   -24770 
  -24750   -24704   -24648   -24551   -24415   -24250   -24044   -23827 
  -23642   -23472   -23295   -23107   -22903   -22677   -22427   -22163 
  -21908   -21682   -21489   -21325   -21216   -21184   -21211   -21288 
  -21407   -21542   -21693   -21852   -21996   -22141   -22318   -22534 
  -22763   -22996   -23249   -23525   -23824   -24141   -24443   -24713 
  -24948   -25161   -25364   -25559   -25751   -25919   -26052   -26167 
  -26262   -26338   -26405   -26455   -26489   -26542   -26637   -26765 
  -26916   -27077   -27225   -27344   -27434   -27498   -27526   -27519 
  -27508   -27508   -27507   -27495   -27476   -27461   -27455   -27464 
  -27485   -27486   -27439   -27338   -27181   -26986   -26782   -26574 
  -26362   -26155   -25953   -25747   -25519   -25280   -25061   -24856 
  -24639   -24404   -24164   -23926   -23686   -23436   -23184   -22947 
  -22734   -22538   -22359   -22193   -22018   -21826   -21626   -21412 
  -21173   -20918   -20655   -20407   -20193   -19998   -19801   -19602 
  -19392   -19155   -18918   -18721   -18556   -18415   -18298   -18189 
  -18102   -18045   -17977   -17907   -17880   -17894   -17933   -18009 
  -18109   -18194   -18257   -18310   -18357   -18405   -18469   -18574 
  -18702   -18798   -18850   -18874   -18872   -18869   -18887   -18901 
  -18887   -18825   -18679   -18457   -18195   -17923   -17698   -17561 
  -17480   -17419   -17373   -17332   -17294   -17284   -17327   -17446 
  -17637   -17869   -18136   -18446   -18777   -19131   -19530   -19957 
  -20375   -20786   -21199   -21608   -22013   -22413   -22796   -23152 
  -23471   -23729   -23944   -24172   -24423   -24675   -24926   -25147 
  -25306   -25411   -25499   -25599   -25704   -25797   -25878   -25942 
  -25969   -25953   -25910   -25843   -25735   -25577   -25384   -25208 
  -25070   -24959   -24868   -24764   -24627   -24493   -24378   -24261 
  -24152   -24064   -23972   -23883   -23802   -23711   -23653   -23669 
  -23732   -23843   -24012   -24204   -24413   -24667   -24934   -25189 
  -25461   -25764   -26092   -26440   -26781   -27104   -27431   -27766 
  -28080   -28347   -28542   -28672   -28778   -28870   -28946   -29009 
  -29022   -28955   -28825   -28662   -28478   -28294   -28121   -27932 
  -27690   -27387   -27030   -26639   -26236   -25855   -25519   -25215 
  -24902   -24564   -24219   -23891   -23607   -23369   -23149   -22952 
  -22815   -22723   -22666   -22658   -22664   -22665   -22674   -22676 
  -22674   -22679   -22671   -22663   -22655   -22617   -22556   -22487 
  -22395   -22292   -22196   -22086   -21952   -21818   -21680   -21530 
  -21384   -21228   -21047   -20856   -20658   -20464   -20291   -20138 
  -19993   -19870   -19754   -19615   -19475   -19378   -19349   -19385 
  -19460   -19531   -19566   -19570   -19551   -19499   -19422   -19348 
  -19298   -19263   -19228   -19198   -19185   -19198   -19244   -19349 
  -19516   -19704   -19902   -20091   -20246   -20391   -20540   -20666 
  -20753   -20809   -20857   -20900   -20936   -20992   -21075   -21160 
  -21223   -21246   -21230   -21200   -21182   -21178   -21161   -21096 
  -20966   -20780   -20551   -20283   -20007   -19758   -19540   -19341 
  -19144   -18954   -18779   -18624   -18505   -18422   -18369   -18344 
  -18350   -18391   -18467   -18574   -18720   -18926   -19184   -19464 
  -19758   -20069   -20394   -20727   -21070   -21429   -21789   -22125 
  -22434   -22760   -23136   -23516   -23845   -24128   -24368   -24536 
  -24638   -24728   -24835   -24936   -25021   -25082   -25095   -25088 
  -25104   -25155   -25234   -25310   -25359   -25389   -25405   -25407 
  -25406   -25407   -25408   -25429   -25475   -25525   -25581   -25632 
  -25637   -25591   -25506   -25371   -25205   -25047   -24900   -24749 
  -24592   -24415   -24211   -24004   -23808   -23631   -23478   -23313 
  -23113   -22884   -22628   -22363   -22103   -21832   -21547   -21268 
  -20997   -20720   -20456   -20205   -19939   -19663   -19386   -19108 
  -18864   -18678   -18538   -18427   -18312   -18176   -18047   -17944 
  -17847   -17743   -17633   -17522   -17414   -17322   -17256   -17213 
  -17200   -17216   -17242   -17275   -17320   -17371   -17431   -17495 
  -17552   -17608   -17659   -17701   -17747   -17808   -17910   -18053 
  -18200   -18343   -18483   -18626   -18810   -19033   -19272   -19511 
  -19709   -19870   -20037   -20210   -20390   -20583   -20762   -20909 
  -21033   -21139   -21222   -21314   -21434   -21566   -21712   -21874 
  -22063   -22300   -22569   -22869   -23208   -23548   -23880   -24237 
  -24606   -24965   -25326   -25687   -26055   -26456   -26882   -27308 
  -27737   -28151   -28502   -28797   -29069   -29314   -29533   -29709 
  -29815   -29859   -29844   -29748   -29610   -29471   -29314   -29135 
  -28920   -28625   -28257   -27844   -27363   -26830   -26290   -25730 
  -25154   -24599   -24047   -23498   -22998   -22519   -22036   -21573 
  -21124   -20672   -20218   -19775   -19363   -18989   -18663   -18381 
  -18134   -17931   -17773   -17667   -17612   -17586   -17594   -17635 
  -17700   -17820   -17999   -18215   -18469   -18754   -19070   -19408 
  -19750   -20096   -20447   -20791   -21127   -21463   -21811   -22180 
  -22553   -22912   -23278   -23656   -24019   -24366   -24705   -25025 
  -25327   -25626   -25920   -26199   -26451   -26668   -26876   -27077 
  -27241   -27357   -27426   -27438   -27377   -27257   -27102   -26915 
  -26704   -26481   -26238   -25960   -25647   -25313   -24974   -24617 
  -24238   -23847   -23435   -23003   -22560   -22108   -21641   -21146 
  -20644   -20146   -19640   -19125   -18594   -18056   -17538   -17020 
  -16471   -15902   -15347   -14828   -14348   -13908   -13504   -13126 
  -12773   -12460   -12206   -12018   -11893   -11824   -11790   -11786 
  -11839   -11956   -12108   -12294   -12513   -12740   -12980   -13239 
  -13515   -13827   -14172   -14525   -14863   -15186   -15516   -15860 
  -16224   -16610   -17014   -17419   -17814   -18212   -18596   -18951 
  -19286   -19588   -19872   -20154   -20408   -20639   -20875   -21107 
  -21344   -21602   -21847   -22049   -22208   -22325   -22406   -22459 
  -22509   -22584   -22670   -22738   -22778   -22802   -22811   -22794 
  -22766   -22745   -22733   -22723   -22700   -22667   -22651   -22648 
  -22643   -22659   -22701   -22752   -22834   -22943   -23062   -23204 
  -23360   -23496   -23617   -23749   -23887   -24016   -24144   -24276 
  -24410   -24554   -24710   -24869   -25020   -25179   -25373   -25569 
  -25732   -25884   -26028   -26144   -26273   -26441   -26606   -26755 
  -26904   -27041   -27156   -27257   -27335   -27401   -27485   -27566 
  -27624   -27684   -27764   -27860   -27966   -28087   -28217   -28327 
  -28398   -28451   -28492   -28494   -28457   -28395   -28289   -28135 
  -27955   -27723   -27407   -27039   -26651   -26231   -25774   -25299 
  -24812   -24293   -23747   -23194   -22649   -22130   -21655   -21210 
  -20774   -20357   -19957   -19544   -19133   -18758   -18404   -18069 
  -17779   -17521   -17285   -17089   -16945   -16847   -16771   -16695 
  -16638   -16604   -16574   -16554   -16543   -16488   -16412   -16361 
  -16307   -16264   -16272   -16291   -16303   -16327   -16337   -16313 
  -16298   -16318   -16367   -16460   -16598   -16757   -16937   -17143 
  -17343   -17516   -17665   -17790   -17898   -17975   -18018   -18063 
  -18115   -18169   -18243   -18327   -18403   -18470   -18530   -18588 
  -18665   -18770   -18886   -19011   -19138   -19244   -19323   -19403 
  -19485   -19548   -19599   -19658   -19725   -19792   -19847   -19883 
  -19910   -19950   -20020   -20112   -20203   -20281   -20343   -20414 
  -20552   -20757   -20943   -21096   -21302   -21552   -21757   -21924 
  -22116   -22340   -22576   -22812   -23044   -23264   -23493   -23767 
  -24082   -24436   -24836   -25256   -25676   -26113   -26586   -27083 
  -27581   -28078   -28584   -29090   -29583   -30056   -30513   -30972 
  -31457   -31968   -32482   -32980   -33453   -33894   -34318   -34734 
  -35107   -35415   -35676   -35895   -36054   -36162   -36242   -36282 
  -36293   -36300   -36277   -36219   -36153   -36069   -35950   -35790 
  -35596   -35382   -35142   -34876   -34601   -34333   -34061   -33770 
  -33455   -33101   -32703   -32277   -31832   -31368   -30878   -30352 
  -29802   -29245   -28703   -28179   -27647   -27118   -26608   -26119 
  -25671   -25253   -24836   -24434   -24044   -23648   -23253   -22877 
  -22538   -22258   -22021   -21789   -21565   -21352   -21142   -20963 
  -20819   -20690   -20583   -20478   -20383   -20342   -20328   -20305 
  -20286   -20263   -20225   -20183   -20146   -20115   -20082   -20042 
  -19978   -19865   -19718   -19564   -19406   -19243   -19078   -18915 
  -18755   -18603   -18466   -18345   -18227   -18095   -17962   -17850 
  -17739   -17582   -17379   -17156   -16903   -16616   -16309   -15992 
  -15679   -15379   -15083   -14775   -14449   -14090   -13732   -13410 
  -13070   -12723   -12423   -12129   -11822   -11520   -11236   -10979 
  -10722   -10502   -10373   -10292   -10234   -10216   -10229   -10254 
  -10292   -10367   -10502   -10704   -10962   -11246   -11563   -11931 
  -12324   -12736   -13180   -13640   -14108   -14590   -15066   -15514 
  -15957   -16431   -16934   -17458   -18005   -18549   -19072   -19580 
  -20057   -20506   -20956   -21411   -21851   -22276   -22698   -23110 
  -23498   -23874   -24236   -24570   -24868   -25131   -25343   -25485 
  -25589   -25678   -25733   -25778   -25841   -25891   -25925   -25947 
  -25929   -25875   -25809   -25719   -25588   -25435   -25286   -25122 
  -24943   -24773   -24604   -24430   -24284   -24180   -24096   -24030 
  -23990   -23961   -23921   -23893   -23886   -23881   -23878   -23887 
  -23907   -23941   -24007   -24111   -24243   -24414   -24614   -24801 
  -24988   -25185   -25367   -25538   -25732   -25954   -26202   -26480 
  -26786   -27100   -27414   -27742   -28058   -28338   -28619   -28897 
  -29120   -29300   -29462   -29588   -29663   -29708   -29733   -29709 
  -29639   -29547   -29418   -29242   -29025   -28761   -28458   -28171 
  -27904   -27609   -27302   -26987   -26629   -26236   -25842   -25470 
  -25116   -24789   -24498   -24212   -23908   -23608   -23317   -23032 
  -22776   -22523   -22230   -21921   -21620   -21316   -21031   -20784 
  -20545   -20289   -20030   -19758   -19461   -19173   -18910   -18655 
  -18426   -18237   -18070   -17919   -17786   -17669   -17569   -17507 
  -17478   -17446   -17405   -17365   -17304   -17220   -17145   -17108 
  -17100   -17093   -17098   -17107   -17101   -17095   -17085   -17059 
  -17041   -17022   -16978   -16928   -16890   -16852   -16845   -16910 
  -17017   -17139   -17260   -17353   -17419   -17494   -17613   -17782 
  -18001   -18279   -18580   -18861   -19119   -19359   -19593   -19856 
  -20173   -20527   -20898   -21271   -21637   -21969   -22239   -22469 
  -22678   -22857   -23026   -23200   -23371   -23534   -23674   -23787 
  -23883   -23967   -24044   -24140   -24282   -24457   -24634   -24799 
  -24945   -25059   -25152   -25252   -25354   -25448   -25549   -25648 
  -25717   -25762   -25781   -25755   -25689   -25605   -25512   -25420 
  -25331   -25244   -25164   -25096   -25023   -24920   -24769   -24576 
  -24363   -24144   -23909   -23660   -23404   -23135   -22850   -22576 
  -22337   -22127   -21924   -21709   -21466   -21174   -20819   -20440 
  -20100   -19820   -19600   -19418   -19220   -18998   -18768   -18540 
  -18340   -18173   -18009   -17839   -17668   -17511   -17396   -17337 
  -17321   -17327   -17326   -17309   -17300   -17302   -17316   -17364 
  -17440   -17527   -17644   -17805   -18001   -18227   -18466   -18669 
  -18815   -18933   -19055   -19220   -19459   -19741   -20029   -20321 
  -20606   -20848   -21037   -21206   -21374   -21526   -21662   -21798 
  -21925   -22021   -22074   -22085   -22069   -22053   -22046   -22036 
  -22032   -22027   -21976   -21872   -21747   -21616   -21506   -21452 
  -21434   -21400   -21322   -21192   -21029   -20868   -20738   -20675 
  -20675   -20700   -20735   -20760   -20746   -20725   -20723   -20725 
  -20738   -20787   -20854   -20910   -20963   -21024   -21076   -21115 
  -21153   -21165   -21144   -21123   -21105   -21111   -21173   -21259 
  -21349   -21471   -21602   -21704   -21783   -21853   -21931   -22043 
  -22186   -22354   -22553   -22769   -22970   -23139   -23295   -23452 
  -23613   -23795   -24006   -24227   -24439   -24635   -24806   -24945 
  -25053   -25137   -25194   -25216   -25224   -25255   -25289   -25290 
  -25277   -25266   -25248   -25248   -25260   -25220   -25126   -25023 
  -24922   -24853   -24855   -24894   -24915   -24887   -24789   -24609 
  -24382   -24173   -24019   -23939   -23935   -23978   -24032   -24078 
  -24079   -24024   -23942   -23836   -23715   -23621   -23554   -23471 
  -23347   -23195   -23043   -22922   -22836   -22779   -22747   -22715 
  -22651   -22556   -22436   -22297   -22181   -22138   -22178   -22241 
  -22273   -22289   -22301   -22290   -22278   -22290   -22316   -22331 
  -22306   -22245   -22172   -22094   -22021   -21972   -21923   -21833 
  -21694   -21529   -21336   -21114   -20894   -20705   -20538   -20386 
  -20268   -20195   -20155   -20143   -20151   -20145   -20100   -20026 
  -19970   -19977   -20027   -20105   -20221   -20334   -20410   -20481 
  -20555   -20645   -20793   -20972   -21123   -21236   -21303   -21312 
  -21329   -21407   -21507   -21635   -21822   -22005   -22141   -22256 
  -22342   -22421   -22542   -22681   -22820   -22987   -23165   -23335 
  -23516   -23693   -23856   -24025   -24178   -24274   -24332   -24370 
  -24393   -24442   -24514   -24556   -24585   -24593   -24541   -24475 
  -24417   -24331   -24234   -24141   -24032   -23934   -23877   -23851 
  -23833   -23816   -23782   -23722   -23661   -23617   -23601   -23627 
  -23668   -23698   -23725   -23731   -23696   -23656   -23630   -23601 
