Origin Time       2011/03/11 14:46:00
Lat.              38.103
Long.             142.860
Depth. (km)       24
Mag.              9.0
Station Code      SIG011
Station Lat.      34.8781
Station Long.     136.0591
Station Height(m) 283
Record Time       2011/03/11 14:48:49
Sampling Freq(Hz) 100Hz
Duration Time(s)  215
Dir.              U-D
Scale Factor      3920(gal)/6182761
Max. Acc. (gal)   2.545
Last Correction   2011/03/11 14:48:34
Memo.             
[...]
  -33556   -33518   -33444   -33332   -33252   -33149   -32984   -32822 
  -32665   -32466   -32251   -32064   -31894   -31732   -31586   -31434 
  -31271   -31150   -31100   -31099   -31129   -31174   -31241   -31337 
  -31427   -31511   -31619   -31748   -31904   -32084   -32251   -32400 
  -32556   -32708   -32875   -33110   -33362   -33546   -33689   -33844 
  -33985   -34077   -34144   -34212   -34266   -34290   -34285   -34254 
  -34192   -34125   -34081   -34021   -33878   -33682   -33503   -33338 
  -33173   -33035   -32917   -32788   -32673   -32613   -32634   -32723 
  -32806   -32859   -32941   -33090   -33276   -33463   -33669   -33889 
  -34083   -34267   -34463   -34662   -34839   -34942   -35003   -35069 
  -35082   -35050   -35056   -35079   -35075   -35054   -34996   -34894 
  -34824   -34815   -34777   -34659   -34518   -34395   -34279   -34169 
  -34088   -34035   -33977   -33894   -33817   -33750   -33670   -33591 
  -33501   -33407   -33362   -33352   -33329   -33310   -33322   -33339 
  -33348   -33405   -33507   -33594   -33679   -33788   -33902   -34012 
  -34094   -34117   -34117   -34143   -34209   -34280   -34261   -34160 
  -34118   -34150   -34125   -34017   -33891   -33777   -33674   -33544 
  -33397   -33269   -33099   -32879   -32711   -32600   -32464   -32310 
  -32188   -32084   -31992   -31951   -31974   -32054   -32187   -32320 
  -32401   -32464   -32562   -32703   -32876   -33041   -33152   -33233 
  -33319   -33415   -33544   -33690   -33807   -33928   -34048   -34101 
  -34133   -34186   -34213   -34203   -34183   -34132   -34060   -33993 
  -33894   -33750   -33592   -33414   -33221   -33024   -32809   -32583 
  -32361   -32153   -32015   -31947   -31877   -31785   -31743   -31797 
  -31874   -31946   -32089   -32258   -32361   -32455   -32617   -32799 
  -32933   -33028   -33143   -33294   -33440   -33567   -33675   -33749 
  -33811   -33881   -33943   -34005   -34077   -34135   -34157   -34156 
  -34144   -34117   -34127   -34197   -34254   -34290   -34351   -34409 
  -34447   -34493   -34544   -34589   -34632   -34662   -34674   -34663 
  -34622   -34571   -34536   -34472   -34354   -34250   -34158   -34007 
  -33846   -33721   -33586   -33466   -33381   -33277   -33187   -33159 
  -33156   -33168   -33208   -33275   -33369   -33481   -33625   -33819 
  -33988   -34095   -34248   -34455   -34579   -34657   -34807   -34969 
  -35091   -35214   -35318   -35389   -35489   -35617   -35667   -35600 
  -35509   -35448   -35360   -35240   -35144   -35041   -34886   -34732 
  -34630   -34519   -34359   -34214   -34096   -33966   -33860   -33787 
  -33681   -33554   -33469   -33428   -33429   -33472   -33511   -33527 
  -33566   -33646   -33732   -33794   -33833   -33866   -33887   -33907 
  -33955   -34008   -34024   -34009   -33992   -33981   -33970   -33965 
  -33972   -33978   -33965   -33928   -33873   -33805   -33748   -33720 
  -33675   -33598   -33518   -33453   -33420   -33394   -33338   -33285 
  -33246   -33167   -33072   -33027   -33015   -32981   -32942   -32957 
  -33018   -33083   -33149   -33223   -33283   -33308   -33339   -33397 
  -33433   -33438   -33441   -33424   -33386   -33379   -33383   -33359 
  -33343   -33325   -33286   -33279   -33314   -33340   -33351   -33379 
  -33408   -33416   -33428   -33452   -33492   -33519   -33507   -33516 
  -33547   -33542   -33513   -33480   -33427   -33358   -33289   -33211 
  -33116   -33021   -32936   -32858   -32817   -32827   -32848   -32859 
  -32882   -32938   -33010   -33077   -33150   -33228   -33273   -33290 
  -33333   -33389   -33409   -33425   -33464   -33491   -33519   -33575 
  -33624   -33632   -33629   -33612   -33569   -33542   -33547   -33556 
  -33533   -33494   -33484   -33480   -33453   -33440   -33450   -33427 
  -33382   -33372   -33348   -33290   -33275   -33303   -33338   -33388 
  -33449   -33494   -33527   -33572   -33642   -33723   -33784   -33838 
  -33910   -33952   -33960   -33999   -34027   -33988   -33954   -33931 
  -33851   -33778   -33764   -33733   -33681   -33681   -33707   -33706 
  -33719   -33765   -33801   -33843   -33892   -33898   -33905   -33952 
  -34003   -34049   -34091   -34163   -34276   -34387   -34512   -34662 
  -34767   -34846   -34962   -35083   -35165   -35233   -35305   -35338 
  -35310   -35272   -35228   -35127   -34980   -34801   -34586   -34351 
  -34131   -33947   -33771   -33595   -33439   -33284   -33138   -33028 
  -32958   -32940   -32940   -32951   -33005   -33075   -33152   -33281 
  -33453   -33621   -33779   -33946   -34115   -34263   -34412   -34558 
  -34645   -34711   -34821   -34930   -34994   -35035   -35055   -35054 
  -35046   -35027   -35001   -34954   -34882   -34805   -34720   -34624 
  -34531   -34413   -34277   -34161   -34042   -33916   -33836   -33802 
  -33766   -33736   -33720   -33689   -33669   -33709   -33780   -33833 
  -33900   -33982   -34038   -34079   -34116   -34145   -34169   -34167 
  -34139   -34100   -34027   -33919   -33835   -33790   -33763   -33780 
  -33806   -33796   -33804   -33824   -33830   -33880   -33927   -33897 
  -33856   -33839   -33828   -33853   -33887   -33898   -33931   -33956 
  -33939   -33934   -33967   -34005   -34006   -33959   -33892   -33834 
  -33775   -33694   -33606   -33532   -33445   -33340   -33247   -33151 
  -33053   -33021   -33041   -33015   -32958   -32939   -32945   -32947 
  -32952   -32981   -33026   -33045   -33036   -33050   -33104   -33173 
  -33258   -33340   -33389   -33462   -33558   -33615   -33670   -33743 
  -33793   -33821   -33863   -33919   -33943   -33965   -34050   -34137 
  -34183   -34211   -34232   -34246   -34256   -34297   -34352   -34366 
  -34369   -34402   -34416   -34378   -34360   -34376   -34342   -34261 
  -34205   -34173   -34108   -34025   -33952   -33853   -33769   -33742 
  -33704   -33601   -33479   -33429   -33445   -33452   -33485   -33564 
  -33632   -33705   -33839   -34006   -34157   -34344   -34561   -34703 
  -34812   -34975   -35113   -35180   -35229   -35243   -35181   -35107 
  -35053   -34974   -34863   -34741   -34588   -34396   -34217   -34063 
  -33916   -33772   -33613   -33438   -33263   -33099   -32991   -32952 
  -32920   -32878   -32880   -32928   -32977   -33033   -33068   -33074 
  -33130   -33207   -33247   -33310   -33373   -33377   -33384   -33436 
  -33492   -33527   -33538   -33538   -33536   -33496   -33408   -33349 
  -33330   -33303   -33283   -33254   -33195   -33180   -33208   -33201 
  -33181   -33176   -33179   -33224   -33293   -33330   -33387   -33508 
  -33597   -33606   -33612   -33622   -33620   -33649   -33667   -33625 
  -33571   -33515   -33460   -33436   -33397   -33336   -33319   -33313 
  -33270   -33246   -33230   -33182   -33165   -33155   -33086   -33036 
  -33043   -33051   -33051   -33055   -33072   -33086   -33064   -33051 
  -33074   -33053   -32994   -32967   -32921   -32846   -32821   -32824 
  -32782   -32715   -32660   -32589   -32518   -32520   -32524   -32468 
  -32452   -32478   -32480   -32491   -32535   -32612   -32723   -32828 
  -32922   -33033   -33144   -33242   -33342   -33412   -33433   -33463 
  -33510   -33488   -33420   -33387   -33363   -33317   -33274   -33228 
  -33141   -33032   -32959   -32881   -32759   -32660   -32608   -32550 
  -32496   -32489   -32508   -32513   -32551   -32636   -32692   -32728 
  -32818   -32942   -33001   -33004   -33060   -33120   -33125   -33180 
  -33277   -33317   -33344   -33408   -33463   -33499   -33529   -33559 
  -33606   -33622   -33606   -33634   -33670   -33700   -33769   -33819 
  -33823   -33847   -33886   -33876   -33843   -33833   -33803   -33764 
  -33759   -33762   -33753   -33743   -33748   -33746   -33730   -33733 
  -33738   -33735   -33761   -33790   -33790   -33802   -33831   -33827 
  -33770   -33694   -33651   -33621   -33550   -33451   -33353   -33238 
  -33136   -33060   -32949   -32839   -32786   -32732   -32684   -32693 
  -32704   -32726   -32830   -32980   -33123   -33265   -33400   -33519 
  -33640   -33754   -33851   -33950   -34030   -34057   -34067   -34080 
  -34101   -34161   -34181   -34126   -34113   -34120   -34045   -33964 
  -33908   -33809   -33723   -33706   -33682   -33642   -33655   -33708 
  -33792   -33929   -34087   -34248   -34441   -34638   -34824   -35005 
  -35154   -35281   -35394   -35434   -35438   -35490   -35546   -35539 
  -35481   -35410   -35345   -35275   -35179   -35075   -34988   -34903 
  -34829   -34783   -34738   -34675   -34622   -34624   -34696   -34808 
  -34916   -35008   -35117   -35254   -35393   -35550   -35748   -35927 
  -36043   -36161   -36280   -36344   -36389   -36434   -36428   -36354 
  -36244   -36152   -36090   -36023   -35925   -35776   -35612   -35519 
  -35499   -35463   -35352   -35196   -35078   -34994   -34903   -34830 
  -34753   -34633   -34541   -34542   -34559   -34551   -34569   -34582 
  -34581   -34678   -34882   -35046   -35055   -34947   -34848   -34773 
  -34649   -34508   -34404   -34330   -34340   -34471   -34613   -34681 
  -34764   -34952   -35180   -35392   -35573   -35649   -35659   -35743 
  -35917   -36101   -36187   -36108   -35903   -35662   -35444   -35257 
  -35029   -34657   -34155   -33678   -33379   -33312   -33357   -33320 
  -33167   -32965   -32728   -32532   -32500   -32696   -33117   -33566 
  -33808   -33928   -34143   -34383   -34359   -34044   -33840   -34100 
  -34692   -35233   -35545   -35670   -35660   -35574   -35545   -35641 
  -35770   -35837   -35853   -35869   -35897   -35820   -35485   -34967 
  -34583   -34518   -34642   -34710   -34566   -34290   -34175   -34384 
  -34752   -35013   -35038   -34860   -34616   -34482   -34536   -34665 
  -34703   -34644   -34568   -34479   -34378   -34292   -34172   -33974 
  -33758   -33592   -33541   -33695   -33965   -34144   -34241   -34362 
  -34445   -34414   -34362   -34364   -34330   -34195   -34114   -34238 
  -34422   -34392   -34086   -33645   -33236   -33027   -33138   -33504 
  -33886   -34065   -34020   -33959   -34114   -34470   -34761   -34828 
  -34812   -34832   -34817   -34704   -34475   -34186   -34005   -33978 
  -33937   -33706   -33290   -32873   -32603   -32433   -32247   -32042 
  -31867   -31759   -31816   -32021   -32175   -32224   -32250   -32308 
  -32511   -32848   -33115   -33252   -33375   -33543   -33730   -33913 
  -34094   -34244   -34358   -34505   -34716   -34929   -35047   -35053 
  -35008   -34928   -34833   -34794   -34811   -34825   -34832   -34834 
  -34756   -34530   -34177   -33822   -33616   -33559   -33551   -33557 
  -33536   -33420   -33237   -33052   -32890   -32801   -32826   -32877 
  -32842   -32722   -32602   -32584   -32684   -32803   -32856   -32847 
  -32832   -32853   -32948   -33115   -33283   -33361   -33366   -33406 
  -33497   -33575   -33634   -33718   -33846   -33984   -34069   -34106 
  -34183   -34359   -34589   -34746   -34764   -34719   -34688   -34658 
  -34613   -34558   -34455   -34283   -34126   -34062   -34019   -33887 
  -33672   -33435   -33257   -33224   -33330   -33466   -33543   -33544 
  -33519   -33580   -33790   -34106   -34431   -34718   -34980   -35210 
  -35412   -35666   -36003   -36308   -36479   -36524   -36492   -36457 
  -36446   -36409   -36328   -36252   -36201   -36152   -36097   -36030 
  -35910   -35726   -35554   -35477   -35491   -35506   -35434   -35290 
  -35131   -34995   -34924   -34900   -34885   -34892   -34898   -34853 
  -34787   -34754   -34748   -34711   -34619   -34509   -34437   -34439 
  -34505   -34616   -34780   -35000   -35253   -35509   -35755   -36015 
  -36296   -36527   -36670   -36724   -36674   -36541   -36388   -36270 
  -36201   -36139   -36033   -35861   -35625   -35362   -35140   -35010 
  -34926   -34816   -34663   -34452   -34189   -33957   -33864   -33962 
  -34204   -34454   -34616   -34671   -34662   -34687   -34813   -34943 
  -34943   -34862   -34822   -34829   -34874   -34950   -35004   -35039 
  -35091   -35162   -35269   -35398   -35451   -35358   -35180   -35047 
  -35020   -35050   -35060   -35002   -34872   -34735   -34704   -34834 
  -35048   -35233   -35368   -35478   -35546   -35609   -35721   -35801 
  -35817   -35895   -36035   -36096   -36005   -35775   -35495   -35269 
  -35130   -35073   -35085   -35132   -35132   -34959   -34626   -34320 
  -34167   -34133   -34152   -34154   -34092   -34054   -34157   -34346 
  -34452   -34401   -34249   -34091   -34020   -34060   -34137   -34204 
  -34256   -34260   -34206   -34188   -34269   -34386   -34485   -34570 
  -34620   -34628   -34614   -34598   -34596   -34574   -34492   -34373 
  -34258   -34173   -34133   -34120   -34082   -34001   -33959   -34070 
  -34350   -34653   -34762   -34643   -34512   -34541   -34723   -35018 
  -35370   -35671   -35861   -35938   -35903   -35813   -35736   -35679 
  -35617   -35517   -35374   -35235   -35129   -35063   -35062   -35096 
  -35095   -35042   -34941   -34821   -34753   -34730   -34691   -34650 
  -34649   -34646   -34606   -34555   -34471   -34337   -34239   -34202 
  -34154   -34063   -33938   -33795   -33655   -33521   -33415   -33343 
  -33297   -33302   -33356   -33384   -33312   -33177   -33077   -33026 
  -33003   -33008   -33008   -33026   -33147   -33375   -33628   -33847 
  -34016   -34138   -34235   -34341   -34467   -34560   -34587   -34616 
  -34691   -34768   -34840   -34898   -34849   -34655   -34419   -34241 
  -34103   -33923   -33645   -33293   -32941   -32654   -32481   -32389 
  -32251   -31984   -31635   -31304   -31066   -30961   -30923   -30778 
  -30490   -30192   -29968   -29889   -30002   -30196   -30328   -30393 
  -30448   -30506   -30615   -30818   -31015   -31134   -31254   -31444 
  -31664   -31845   -31976   -32071   -32131   -32187   -32254   -32260 
  -32155   -32019   -31941   -31898   -31866   -31859   -31828   -31746 
  -31673   -31628   -31587   -31579   -31611   -31602   -31518   -31410 
  -31339   -31334   -31373   -31421   -31466   -31488   -31469   -31422 
  -31362   -31301   -31259   -31222   -31134   -30989   -30812   -30606 
  -30422   -30376   -30495   -30689   -30895   -31097   -31265   -31421 
  -31622   -31846   -32036   -32211   -32416   -32632   -32774   -32833 
  -32906   -33009   -33093   -33144   -33116   -33012   -32946   -32952 
  -32973   -32986   -32972   -32905   -32846   -32882   -32985   -33080 
  -33150   -33191   -33182   -33117   -33002   -32886   -32784   -32632 
  -32467   -32362   -32253   -32112   -31984   -31827   -31602   -31407 
  -31326   -31324   -31333   -31294   -31202   -31121   -31104   -31154 
  -31221   -31216   -31151   -31119   -31130   -31146   -31185   -31228 
  -31232   -31257   -31371   -31525   -31677   -31836   -31935   -31916 
  -31847   -31787   -31739   -31706   -31671   -31601   -31487   -31343 
  -31200   -31092   -31041   -31056   -31087   -31090   -31078   -31065 
  -31061   -31075   -31121   -31232   -31387   -31531   -31664   -31804 
  -31947   -32117   -32337   -32546   -32666   -32723   -32784   -32866 
  -32947   -33009   -33047   -33056   -33045   -33059   -33101   -33108 
  -33043   -32925   -32760   -32566   -32409   -32305   -32155   -31899 
  -31616   -31400   -31265   -31175   -31102   -31029   -30956   -30957 
  -31075   -31214   -31289   -31337   -31402   -31482   -31586   -31716 
  -31827   -31897   -31979   -32117   -32290   -32429   -32481   -32499 
  -32535   -32569   -32633   -32751   -32875   -32980   -33053   -33084 
  -33113   -33182   -33282   -33360   -33370   -33335   -33295   -33297 
  -33367   -33444   -33481   -33483   -33442   -33385   -33362   -33388 
  -33413   -33386   -33316   -33236   -33126   -33007   -32964   -32924 
  -32760   -32588   -32524   -32462   -32361   -32293   -32248   -32189 
  -32126   -32050   -31957   -31871   -31847   -31910   -32001   -32072 
  -32151   -32249   -32340   -32426   -32520   -32603   -32674   -32757 
  -32831   -32887   -32977   -33134   -33320   -33492   -33619   -33677 
  -33699   -33754   -33847   -33924   -33965   -33982   -33975   -33957 
  -33964   -34000   -34025   -34026   -34045   -34066   -34028   -33968 
  -33921   -33843   -33735   -33661   -33628   -33575   -33479   -33348 
  -33192   -33056   -32960   -32874   -32786   -32703   -32609   -32509 
  -32425   -32366   -32323   -32299   -32308   -32343   -32387   -32433 
  -32476   -32531   -32614   -32709   -32784   -32829   -32843   -32847 
  -32869   -32886   -32873   -32855   -32813   -32722   -32633   -32576 
  -32532   -32492   -32455   -32411   -32347   -32251   -32173   -32144 
  -32112   -32072   -32080   -32124   -32134   -32071   -31989   -31998 
  -32108   -32215   -32259   -32261   -32233   -32176   -32142   -32158 
  -32200   -32260   -32328   -32394   -32468   -32548   -32622   -32690 
  -32765   -32852   -32950   -33033   -33065   -33087   -33148   -33251 
  -33405   -33570   -33675   -33739   -33819   -33932   -34084   -34237 
  -34354   -34463   -34573   -34666   -34736   -34773   -34785   -34772 
  -34738   -34708   -34651   -34546   -34437   -34331   -34202   -34083 
  -34015   -33996   -33990   -33953   -33888   -33827   -33796   -33839 
  -33979   -34170   -34355   -34520   -34679   -34858   -35073   -35303 
  -35506   -35666   -35818   -35987   -36155   -36301   -36429   -36537 
  -36614   -36667   -36705   -36723   -36715   -36667   -36586   -36507 
  -36453   -36385   -36240   -36047   -35880   -35751   -35659   -35636 
  -35662   -35658   -35608   -35562   -35560   -35617   -35731   -35860 
  -35947   -35994   -36061   -36197   -36351   -36438   -36491   -36560 
  -36587   -36535   -36446   -36341   -36218   -36094   -35930   -35692 
  -35455   -35252   -35003   -34691   -34364   -34071   -33903   -33862 
  -33788   -33621   -33463   -33384   -33369   -33416   -33536   -33685 
  -33814   -33936   -34112   -34371   -34647   -34884   -35092   -35261 
  -35426   -35655   -35894   -36043   -36093   -36089   -36067   -36059 
  -36061   -36016   -35903   -35756   -35604   -35455   -35305   -35133 
  -34928   -34718   -34547   -34414   -34268   -34090   -33905   -33699 
  -33440   -33168   -32953   -32765   -32552   -32350   -32174   -31991 
  -31813   -31665   -31512   -31348   -31248   -31240   -31248   -31247 
  -31282   -31339   -31366   -31400   -31494   -31611   -31680   -31705 
  -31752   -31805   -31819   -31843   -31908   -31984   -32072   -32193 
  -32299   -32351   -32412   -32495   -32542   -32579   -32657   -32752 
  -32832   -32904   -32961   -32965   -32929   -32909   -32895   -32857 
  -32799   -32691   -32513   -32334   -32192   -32059   -31901   -31697 
  -31435   -31159   -30931   -30761   -30617   -30480   -30341   -30210 
  -30114   -30053   -30031   -30080   -30187   -30314   -30449   -30614 
  -30827   -31069   -31322   -31593   -31918   -32287   -32622   -32911 
  -33168   -33351   -33500   -33705   -33929   -34087   -34181   -34228 
  -34233   -34252   -34299   -34333   -34387   -34460   -34461   -34426 
  -34435   -34451   -34460   -34458   -34424   -34395   -34376   -34355 
  -34364   -34359   -34301   -34244   -34183   -34093   -34018   -33951 
  -33847   -33735   -33623   -33484   -33361   -33299   -33252   -33168 
  -33053   -32956   -32927   -32934   -32916   -32919   -32969   -33002 
  -33056   -33195   -33343   -33460   -33624   -33840   -34020   -34176 
  -34381   -34594   -34781   -34982   -35189   -35367   -35518   -35625 
  -35660   -35681   -35769   -35905   -36003   -36018   -35958   -35839 
