Origin Time       2011/03/11 14:46:00
Lat.              38.103
Long.             142.860
Depth. (km)       24
Mag.              9.0
Station Code      SIG010
Station Lat.      34.9719
Station Long.     135.8965
Station Height(m) 111
Record Time       2011/03/11 14:49:23
Sampling Freq(Hz) 100Hz
Duration Time(s)  203
Dir.              N-S
Scale Factor      3920(gal)/6182761
Max. Acc. (gal)   6.369
Last Correction   2011/03/11 14:49:08
Memo.             
[...]
    4686     4688     4627     4579     4576     4501     4411     4405 
    4340     4227     4205     4158     4042     3976     3946     3882 
    3797     3720     3636     3574     3527     3447     3380     3322 
    3231     3161     3067     2929     2836     2692     2461     2298 
    2128     1841     1575     1380     1155      917      733      539 
     330      193       35     -178     -321     -452     -659     -843 
    -959    -1117    -1296    -1379    -1468    -1618    -1711    -1755 
   -1812    -1875    -1899    -1899    -1937    -1972    -1962    -1940 
   -1961    -1985    -1950    -1978    -2026    -1994    -2019    -2027 
   -1962    -1962    -1934    -1822    -1711    -1628    -1545    -1401 
   -1277    -1192    -1027     -878     -764     -549     -331     -169 
      40      274      516      819     1148     1441     1702     2022 
    2422     2783     3097     3459     3835     4165     4492     4831 
    5142     5425     5658     5861     6056     6200     6365     6551 
    6665     6790     6913     6950     7040     7191     7193     7157 
    7274     7287     7145     7119     7063     6930     6889     6809 
    6704     6668     6622     6594     6604     6631     6657     6658 
    6696     6748     6740     6739     6766     6752     6704     6644 
    6569     6494     6401     6282     6147     5984     5830     5650 
    5432     5244     4985     4697     4446     4122     3762     3397 
    3047     2714     2309     1913     1565     1189      834      516 
     196     -105     -397     -696     -938    -1137    -1390    -1630 
   -1766    -1888    -2023    -2117    -2177    -2204    -2182    -2098 
   -1972    -1849    -1744    -1619    -1479    -1337    -1128     -926 
    -819     -686     -505     -294      -26      166      304      526 
     702      852     1116     1293     1368     1524     1641     1731 
    1892     1947     1918     1957     1962     1930     1944     1892 
    1811     1798     1741     1667     1624     1544     1537     1574 
    1529     1553     1649     1680     1741     1896     2063     2161 
    2240     2413     2582     2716     2925     3081     3145     3261 
    3363     3434     3506     3509     3513     3518     3459     3425 
    3393     3302     3229     3168     3067     2963     2863     2734 
    2614     2533     2431     2319     2260     2226     2246     2323 
    2389     2521     2697     2846     3065     3307     3527     3815 
    4108     4380     4694     4974     5224     5493     5738     5965 
    6146     6264     6362     6436     6506     6554     6542     6557 
    6556     6474     6427     6350     6216     6144     6024     5834 
    5684     5571     5391     5124     4956     4761     4421     4187 
    3918     3558     3303     3010     2681     2365     2045     1782 
    1472     1140      877      591      321      119     -104     -295 
    -411     -515     -596     -664     -709     -672     -592     -508 
    -398     -253      -90       93      314      498      680      997 
    1281     1454     1732     1987     2203     2553     2781     2926 
    3232     3436     3511     3730     3917     3884     3956     4080 
    3958     3886     3912     3782     3653     3584     3416     3242 
    3164     3022     2835     2763     2652     2427     2306     2239 
    2054     1930     1914     1788     1651     1650     1599     1497 
    1627     1799     1754     1843     2051     2190     2433     2570 
    2738     3086     3201     3394     3741     3852     4032     4314 
    4491     4630     4760     4922     5002     5014     5103     5129 
    5045     5033     5015     4845     4739     4720     4557     4398 
    4333     4112     3774     3524     3304     3049     2661     2259 
    2135     1795     1212     1077      847      280      142      101 
    -344     -623     -576     -777    -1143    -1144    -1133    -1517 
   -1663    -1530    -1821    -2085    -1857    -1887    -2159    -1973 
   -1839    -2082    -1941    -1614    -1718    -1672    -1270    -1191 
   -1288    -1091     -874     -729     -552     -465     -307      -85 
      69      283      412      401      546      791      725      559 
     743      781      594      765      846      631      808     1064 
     879      844     1059      975      880     1083     1122     1012 
    1246     1459     1318     1437     1781     1774     1695     2042 
    2398     2012     1907     2696     2502     2037     2916     3163 
    2639     3039     3562     3423     3376     3901     4142     3807 
    4073     4461     3907     3701     4216     3845     3160     3554 
    3629     2833     2924     3259     2554     2321     2768     2349 
    1779     1826     1613     1397     1384     1015      941      985 
     545      635      868      317      113      474      282     -177 
      14      258      -72       -6      354       20      -29      549 
     492      361      990     1215     1011     1482     1797     1477 
    1768     2370     2271     2325     2799     2783     3014     3539 
    3108     3084     3766     3287     3035     3695     3331     2942 
    3641     3708     3189     3654     4071     3513     3548     4071 
    3809     3710     4271     4333     3983     4239     4598     4360 
    4333     4702     4764     4829     5237     5375     5243     5673 
    6157     5788     5761     6450     6300     5997     6585     6624 
    6120     6487     6933     6524     6226     6534     6594     6105 
    5978     6263     5905     5485     5794     5569     4848     5038 
    5187     4568     4517     4754     4386     4349     4686     4340 
    4066     4580     4470     3899     4333     4420     3793     4323 
    4669     3873     4101     4749     4163     3663     3830     3521 
    2973     2904     2739     2245     2081     2125     1737     1327 
    1414     1400     1113     1125     1255     1074      953     1199 
    1203      819      892     1201      970      831     1190     1310 
    1183     1285     1412     1338     1295     1503     1679     1608 
    1651     1888     2004     2071     2274     2443     2630     2943 
    2980     2995     3371     3437     3365     3823     4050     3890 
    4260     4651     4450     4477     4796     4802     4808     5057 
    5148     5114     5275     5219     4865     4842     4851     4471 
    4171     4058     3782     3437     3273     3073     2640     2357 
    2301     1983     1566     1442     1275      931      673      434 
      97     -198     -415     -702    -1014    -1198    -1323    -1416 
   -1415    -1399    -1441    -1443    -1346    -1344    -1414    -1360 
   -1363    -1312     -990     -750     -548     -157      236      581 
     842     1102     1453     1564     1587     1984     2227     2075 
    2210     2392     2303     2466     2590     2436     2564     2737 
    2661     2743     2896     2827     2834     3044     3114     3083 
    3175     3253     3234     3235     3306     3336     3311     3380 
    3483     3518     3530     3531     3552     3594     3636     3738 
    3816     3775     3808     3944     3957     3924     3930     3876 
    3773     3662     3588     3505     3333     3197     3123     3027 
    2995     3015     3007     3035     3043     3014     3108     3241 
    3235     3250     3396     3463     3409     3432     3484     3447 
    3454     3508     3562     3667     3694     3686     3798     3840 
    3819     3954     4086     4121     4276     4431     4439     4503 
    4590     4617     4708     4743     4592     4488     4485     4358 
    4260     4301     4186     4038     4094     4005     3726     3654 
    3581     3259     3001     2800     2476     2162     1859     1487 
    1069      592      131     -240     -681    -1225    -1660    -2011 
   -2428    -2801    -3069    -3368    -3599    -3743    -3995    -4112 
   -4074    -4215    -4201    -4005    -3997    -3828    -3495    -3362 
   -3215    -2973    -2719    -2400    -2166    -1900    -1431    -1122 
    -979     -699     -469     -338     -120       85      238      424 
     561      662      901     1119     1199     1421     1661     1748 
    1942     2187     2353     2582     2847     3018     3136     3259 
    3365     3444     3454     3486     3599     3569     3426     3494 
    3604     3416     3271     3410     3381     3135     3111     3122 
    2935     2871     2752     2606     2703     2537     2336     2484 
    2435     2277     2330     2304     2157     2167     2233     2169 
    2149     2183     2175     2238     2350     2364     2428     2645 
    2713     2699     2933     3143     3213     3462     3774     3955 
    4207     4533     4766     4969     5154     5383     5733     5995 
    6163     6453     6752     6935     7169     7393     7476     7660 
    7882     7914     7988     8107     8128     8193     8235     8225 
    8313     8362     8272     8226     8196     8042     7860     7736 
    7548     7240     6987     6755     6327     5935     5666     5220 
    4784     4443     3973     3567     3236     2799     2396     2066 
    1731     1379     1072      851      595      338      191       47 
    -139     -294     -379     -382     -369     -388     -349     -238 
    -151      -16      117      204      456      701      825     1005 
    1180     1424     1576     1569     1799     1938     1889     2016 
    2059     2067     2135     2085     2080     2079     1955     1855 
    1784     1631     1430     1296     1187     1023      841      659 
     442      227      119      -29     -361     -473     -345     -502 
    -598     -419     -521     -670     -513     -402     -504     -480 
    -245     -233     -243      -10      112      187      398      597 
     754      924     1112     1271     1391     1492     1571     1660 
    1759     1835     1779     1708     1895     1921     1730     1830 
    1833     1679     1735     1712     1629     1626     1557     1494 
    1506     1486     1381     1374     1422     1289     1186     1212 
    1131     1052     1016      869      857      834      516      451 
     473      132      -30     -137     -401     -439     -549     -720 
    -717     -794     -844     -808     -818     -835     -814     -686 
    -607     -600     -465     -275      -84       79      277      564 
     768     1033     1400     1674     1957     2254     2547     2910 
    3213     3430     3698     3998     4223     4461     4722     4939 
    5149     5334     5526     5634     5692     5830     5733     5576 
    5641     5505     5274     5149     4870     4669     4576     4300 
    4068     3959     3831     3711     3577     3474     3416     3322 
    3271     3294     3290     3274     3340     3473     3527     3459 
    3526     3790     3798     3627     3832     4060     4011     4084 
    4219     4328     4457     4592     4792     4892     5034     5285 
    5424     5584     5781     5995     6231     6396     6583     6810 
    7036     7245     7382     7534     7782     7992     8079     8229 
    8408     8478     8631     8799     8775     8740     8780     8716 
    8559     8454     8289     7998     7748     7436     6983     6571 
    6183     5700     5174     4647     4077     3507     2959     2354 
    1749     1199      653      126     -386     -912    -1371    -1781 
   -2228    -2648    -3001    -3296    -3607    -3958    -4172    -4364 
   -4608    -4736    -4932    -5071    -5089    -5300    -5423    -5458 
   -5634    -5719    -5795    -5941    -6010    -6025    -6031    -6055 
   -6033    -5940    -5864    -5752    -5562    -5371    -5146    -4864 
   -4569    -4272    -3997    -3722    -3416    -3127    -2856    -2590 
   -2315    -2031    -1812    -1596    -1332    -1125     -919     -677 
    -497     -342     -159       -9       92      264      415      478 
     666      807      854     1004     1083     1170     1335     1391 
    1468     1668     1818     1893     2114     2369     2482     2692 
    2873     2970     3269     3428     3424     3678     3823     3820 
    3997     4052     4078     4215     4221     4232     4299     4312 
    4258     4174     4163     4098     3928     3818     3682     3515 
    3399     3197     2936     2731     2555     2324     2029     1866 
    1659     1264     1120      967      564      453      315      -34 
    -146     -333     -609     -690     -840    -1012    -1082    -1183 
   -1245    -1256    -1252    -1201    -1115    -1022    -1022     -939 
    -688     -674     -673     -357     -244     -236        9      116 
     176      354      424      507      678      783      869      981 
    1099     1242     1335     1406     1565     1664     1605     1744 
    1977     1872     1934     2234     2301     2437     2601     2742 
    3023     3201     3464     3814     3976     4269     4696     4966 
    5256     5637     5927     6127     6371     6665     6860     6981 
    7118     7243     7329     7333     7320     7313     7250     7192 
    7154     7066     6919     6814     6726     6513     6275     6067 
    5827     5544     5166     4818     4507     4102     3734     3334 
    2841     2452     2088     1612     1121      712      284     -187 
    -614    -1068    -1508    -1958    -2515    -3010    -3438    -3899 
   -4367    -4824    -5234    -5660    -6104    -6455    -6774    -7108 
   -7351    -7550    -7763    -7908    -8042    -8149    -8139    -8154 
   -8229    -8205    -7988    -7842    -7943    -7716    -7325    -7345 
   -7117    -6749    -6695    -6405    -6159    -6055    -5684    -5468 
   -5306    -4928    -4717    -4475    -4066    -3848    -3603    -3287 
   -3113    -2801    -2423    -2159    -1816    -1460    -1171     -908 
    -700     -455     -186       -8      153      351      496      561 
     701      895      954     1013     1147     1236     1323     1451 
    1579     1617     1591     1673     1779     1816     1924     2047 
    2098     2175     2296     2459     2606     2707     2938     3175 
    3264     3506     3783     3922     4263     4582     4718     5012 
    5290     5498     5825     6057     6217     6538     6807     6936 
    7171     7358     7435     7631     7758     7802     7966     7997 
    7912     7939     7890     7755     7602     7357     7105     6812 
    6436     6055     5639     5185     4713     4199     3673     3125 
    2539     2022     1542      957      410      -73     -674    -1239 
   -1698    -2190    -2665    -3094    -3490    -3856    -4170    -4440 
   -4727    -4929    -5071    -5228    -5295    -5349    -5404    -5342 
   -5247    -5143    -4987    -4858    -4675    -4375    -4120    -3860 
   -3505    -3214    -2960    -2656    -2375    -2087    -1772    -1471 
   -1170     -887     -591     -309      -92      212      560      777 
    1041     1347     1522     1745     1984     2082     2262     2502 
    2577     2629     2786     2885     2918     2975     2950     2905 
    2887     2750     2605     2488     2272     2056     1837     1527 
    1248      988      670      420      211      -44     -272     -451 
    -622     -758     -806     -869     -975     -950     -841     -798 
    -759     -612     -437     -275      -59       86      233      470 
     559      713     1007     1096     1223     1426     1490     1632 
    1812     1936     2047     2119     2220     2351     2440     2465 
    2600     2823     2832     2847     2999     3047     3123     3209 
    3268     3427     3435     3441     3621     3578     3508     3620 
    3600     3536     3610     3618     3390     3275     3408     3302 
    3109     3131     3042     2892     2862     2796     2724     2649 
    2591     2596     2478     2416     2447     2338     2320     2315 
    2188     2162     2197     2207     2128     2090     2211     2137 
    2001     2168     2213     2062     2131     2197     2088     2032 
    2050     1979     1834     1867     1836     1514     1412     1485 
    1253      961      907      810      439      138       43     -221 
    -597     -819    -1052    -1359    -1632    -1911    -2187    -2439 
   -2688    -2960    -3241    -3404    -3547    -3779    -3927    -3994 
   -4069    -4130    -4186    -4166    -4079    -4028    -3931    -3740 
   -3515    -3268    -3065    -2743    -2250    -1996    -1753    -1207 
    -776     -441      -17      364      773     1171     1474     1849 
    2267     2498     2683     3044     3335     3425     3569     3789 
    3940     4022     4044     4078     4070     4008     4117     4123 
    3857     3812     3905     3767     3624     3630     3610     3432 
    3311     3417     3331     3122     3238     3193     2975     3104 
    3063     2810     2913     2994     2847     2817     2887     2890 
    2749     2727     2975     2937     2644     2756     2943     2781 
    2755     2820     2633     2693     2909     2706     2627     2873 
    2861     2765     2818     2885     2991     2994     2920     2907 
    2904     2968     2920     2755     2878     2976     2754     2771 
    2874     2608     2537     2767     2717     2502     2371     2299 
    2333     2246     1988     1939     1985     1842     1665     1529 
    1504     1641     1561     1334     1454     1475     1126     1194 
    1503     1310     1103     1241     1222     1067     1109     1080 
     946      949      802      613      710      704      480      406 
     423      327      252      197       17      -43       28     -123 
    -270     -265     -346     -352     -342     -477     -414     -296 
    -431     -429     -205     -125     -139      -53      190      429 
     493      718     1118     1304     1483     1745     1986     2328 
    2525     2632     2971     3178     3209     3439     3654     3727 
    3845     3944     4088     4237     4263     4408     4530     4482 
    4592     4685     4608     4616     4610     4584     4593     4448 
    4310     4383     4403     4203     4095     4206     4203     4024 
    3978     4103     4073     3896     3953     3969     3734     3708 
    3715     3563     3523     3401     3218     3149     3059     2973 
    2801     2550     2380     2136     1881     1655     1356     1146 
     887      568      366      117     -142     -333     -528     -706 
    -878    -1009    -1063    -1107    -1192    -1189    -1060    -1033 
   -1000     -826     -757     -699     -493     -325     -198        1 
     221      362      493      737      962     1096     1265     1496 
    1714     1847     1977     2153     2265     2394     2562     2611 
    2687     2791     2751     2806     2937     2887     2816     2831 
    2782     2605     2483     2462     2298     2060     1907     1724 
    1472     1213     1001      792      531      278      -26     -426 
    -716     -846    -1144    -1627    -1916    -2153    -2553    -2829 
   -3033    -3339    -3591    -3828    -4060    -4275    -4533    -4740 
   -4960    -5135    -5190    -5362    -5501    -5477    -5558    -5598 
   -5515    -5488    -5381    -5199    -5048    -4873    -4671    -4435 
   -4152    -3863    -3618    -3353    -2972    -2630    -2386    -2042 
   -1684    -1424    -1108     -754     -389      -22      272      590 
     955     1275     1535     1839     2210     2521     2808     3167 
