Origin Time       2011/03/11 14:46:00
Lat.              38.103
Long.             142.860
Depth. (km)       24
Mag.              9.0
Station Code      SIG006
Station Lat.      35.2002
Station Long.     135.9210
Station Height(m) 105
Record Time       2011/03/11 14:49:48
Sampling Freq(Hz) 100Hz
Duration Time(s)  165
Dir.              E-W
Scale Factor      3920(gal)/6182761
Max. Acc. (gal)   3.216
Last Correction   2011/03/11 14:49:33
Memo.             
[...]
  -32651   -32655   -32626   -32592   -32606   -32615   -32602   -32598 
  -32606   -32630   -32650   -32654   -32677   -32703   -32716   -32744 
  -32776   -32789   -32799   -32809   -32809   -32813   -32813   -32807 
  -32821   -32821   -32809   -32825   -32836   -32822   -32798   -32769 
  -32763   -32760   -32736   -32737   -32773   -32797   -32785   -32780 
  -32805   -32826   -32832   -32830   -32837   -32855   -32858   -32895 
  -32969   -33012   -33052   -33099   -33121   -33136   -33136   -33137 
  -33160   -33167   -33154   -33138   -33129   -33126   -33094   -33060 
  -33050   -33010   -32940   -32879   -32805   -32714   -32612   -32499 
  -32401   -32307   -32206   -32117   -32035   -31963   -31912   -31882 
  -31849   -31817   -31820   -31833   -31842   -31871   -31902   -31935 
  -32003   -32080   -32133   -32177   -32219   -32245   -32268   -32280 
  -32261   -32243   -32237   -32215   -32179   -32141   -32121   -32115 
  -32082   -32031   -31983   -31941   -31914   -31882   -31831   -31810 
  -31836   -31851   -31852   -31884   -31919   -31934   -31928   -31912 
  -31917   -31889   -31821   -31785   -31740   -31646   -31535   -31447 
  -31386   -31305   -31208   -31131   -31074   -31008   -30945   -30927 
  -30918   -30881   -30853   -30872   -30896   -30893   -30904   -30935 
  -30958   -30975   -31018   -31099   -31168   -31220   -31294   -31382 
  -31458   -31510   -31552   -31610   -31680   -31764   -31856   -31970 
  -32122   -32267   -32402   -32559   -32722   -32886   -33049   -33204 
  -33369   -33524   -33662   -33814   -33974   -34129   -34270   -34385 
  -34503   -34623   -34708   -34789   -34871   -34917   -34963   -35034 
  -35088   -35106   -35110   -35110   -35101   -35079   -35037   -34964 
  -34857   -34717   -34567   -34437   -34316   -34184   -34065   -33980 
  -33901   -33806   -33720   -33648   -33574   -33492   -33434   -33412 
  -33401   -33398   -33422   -33457   -33498   -33562   -33643   -33720 
  -33782   -33821   -33857   -33882   -33872   -33854   -33842   -33826 
  -33816   -33795   -33759   -33733   -33701   -33657   -33621   -33598 
  -33578   -33542   -33509   -33507   -33509   -33515   -33540   -33563 
  -33580   -33608   -33626   -33633   -33656   -33678   -33688   -33701 
  -33709   -33714   -33727   -33727   -33709   -33703   -33714   -33720 
  -33728   -33757   -33799   -33850   -33910   -33954   -34005   -34072 
  -34108   -34118   -34156   -34217   -34255   -34259   -34269   -34277 
  -34252   -34235   -34239   -34222   -34173   -34126   -34106   -34082 
  -34050   -34035   -34023   -34008   -33982   -33943   -33903   -33849 
  -33794   -33731   -33654   -33588   -33527   -33473   -33432   -33388 
  -33352   -33318   -33293   -33287   -33270   -33237   -33202   -33171 
  -33137   -33092   -33059   -33027   -32987   -32973   -32965   -32961 
  -32964   -32955   -32957   -32961   -32935   -32915   -32910   -32887 
  -32846   -32808   -32770   -32699   -32597   -32490   -32381   -32266 
  -32131   -32003   -31904   -31786   -31698   -31672   -31632   -31599 
  -31616   -31652   -31691   -31719   -31767   -31856   -31953   -32060 
  -32164   -32251   -32345   -32449   -32554   -32658   -32748   -32843 
  -32942   -33036   -33142   -33239   -33317   -33411   -33512   -33595 
  -33660   -33707   -33747   -33767   -33763   -33770   -33764   -33734 
  -33719   -33699   -33656   -33592   -33513   -33446   -33384   -33294 
  -33200   -33146   -33130   -33102   -33047   -33026   -33044   -33038 
  -33025   -33047   -33083   -33103   -33108   -33139   -33209   -33271 
  -33326   -33416   -33509   -33560   -33616   -33726   -33816   -33843 
  -33879   -33941   -33969   -33974   -33988   -33997   -33987   -33954 
  -33910   -33878   -33841   -33780   -33713   -33660   -33620   -33567 
  -33496   -33427   -33346   -33237   -33128   -33025   -32900   -32759 
  -32632   -32534   -32450   -32364   -32305   -32275   -32245   -32215 
  -32189   -32187   -32202   -32212   -32247   -32307   -32364   -32426 
  -32492   -32559   -32611   -32635   -32659   -32676   -32673   -32654 
  -32631   -32615   -32597   -32569   -32546   -32527   -32499   -32457 
  -32421   -32402   -32378   -32331   -32276   -32240   -32210   -32166 
  -32135   -32122   -32085   -32039   -32042   -32071   -32079   -32082 
  -32111   -32185   -32269   -32333   -32440   -32606   -32760   -32886 
  -33029   -33199   -33373   -33528   -33651   -33768   -33888   -33974 
  -34060   -34182   -34257   -34278   -34320   -34361   -34379   -34404 
  -34451   -34492   -34496   -34502   -34514   -34506   -34488   -34448 
  -34406   -34390   -34364   -34321   -34313   -34336   -34337   -34330 
  -34343   -34318   -34268   -34262   -34264   -34238   -34195   -34140 
  -34082   -34031   -33975   -33903   -33841   -33798   -33766   -33744 
  -33733   -33744   -33769   -33792   -33831   -33881   -33919   -33954 
  -34007   -34071   -34116   -34152   -34198   -34249   -34309   -34371 
  -34431   -34484   -34508   -34520   -34526   -34509   -34509   -34522 
  -34495   -34481   -34491   -34456   -34418   -34414   -34403   -34378 
  -34344   -34317   -34282   -34227   -34197   -34170   -34113   -34074 
  -34044   -34005   -34004   -34024   -34040   -34074   -34130   -34192 
  -34244   -34287   -34355   -34445   -34514   -34579   -34655   -34723 
  -34789   -34868   -34959   -35014   -35040   -35085   -35113   -35105 
  -35100   -35100   -35090   -35090   -35111   -35129   -35147   -35176 
  -35185   -35154   -35133   -35125   -35077   -35005   -34960   -34947 
  -34920   -34863   -34829   -34815   -34779   -34739   -34708   -34673 
  -34640   -34588   -34518   -34508   -34555   -34573   -34562   -34561 
  -34565   -34548   -34515   -34491   -34484   -34475   -34460   -34440 
  -34403   -34383   -34400   -34438   -34484   -34507   -34481   -34440 
  -34442   -34474   -34500   -34513   -34485   -34418   -34374   -34380 
  -34415   -34462   -34489   -34451   -34364   -34279   -34218   -34184 
  -34159   -34129   -34099   -34054   -34007   -33994   -34017   -34046 
  -34007   -33894   -33808   -33761   -33702   -33660   -33661   -33676 
  -33664   -33615   -33579   -33572   -33566   -33548   -33534   -33529 
  -33528   -33519   -33492   -33446   -33401   -33358   -33310   -33306 
  -33354   -33368   -33348   -33312   -33227   -33117   -33037   -32995 
  -32968   -32911   -32779   -32593   -32435   -32364   -32359   -32362 
  -32345   -32277   -32132   -31975   -31853   -31766   -31713   -31640 
  -31547   -31480   -31441   -31401   -31324   -31231   -31188   -31207 
  -31241   -31252   -31263   -31283   -31292   -31319   -31384   -31471 
  -31568   -31649   -31679   -31676   -31728   -31905   -32129   -32293 
  -32399   -32469   -32503   -32516   -32508   -32515   -32570   -32626 
  -32619   -32589   -32633   -32745   -32842   -32896   -32914   -32893 
  -32879   -32971   -33171   -33379   -33513   -33562   -33565   -33560 
  -33566   -33585   -33641   -33757   -33877   -33932   -33942   -33960 
  -33989   -34025   -34068   -34069   -34041   -34046   -34091   -34181 
  -34288   -34401   -34555   -34708   -34783   -34796   -34827   -34889 
  -34949   -35034   -35101   -35115   -35197   -35375   -35514   -35559 
  -35562   -35564   -35569   -35563   -35591   -35695   -35843   -35955 
  -36000   -36017   -35967   -35845   -35776   -35791   -35819   -35832 
  -35850   -35827   -35703   -35579   -35515   -35448   -35331   -35162 
  -35012   -34924   -34872   -34848   -34837   -34835   -34819   -34744 
  -34634   -34515   -34415   -34404   -34426   -34408   -34370   -34317 
  -34250   -34139   -33988   -33844   -33704   -33593   -33476   -33306 
  -33180   -33136   -33096   -33023   -32915   -32750   -32550   -32339 
  -32120   -31966   -31899   -31854   -31809   -31735   -31635   -31533 
  -31444   -31395   -31341   -31230   -31082   -30949   -30875   -30865 
  -30891   -30924   -30900   -30835   -30864   -30989   -31097   -31163 
  -31198   -31232   -31268   -31287   -31323   -31356   -31343   -31332 
  -31384   -31473   -31516   -31483   -31433   -31398   -31373   -31386 
  -31404   -31403   -31395   -31391   -31455   -31562   -31625   -31683 
  -31761   -31774   -31735   -31731   -31766   -31853   -31983   -32112 
  -32224   -32283   -32314   -32356   -32394   -32393   -32308   -32171 
  -32055   -31996   -31991   -32041   -32142   -32209   -32198   -32169 
  -32189   -32226   -32201   -32110   -31970   -31815   -31716   -31703 
  -31731   -31747   -31768   -31767   -31727   -31680   -31626   -31625 
  -31705   -31795   -31845   -31825   -31732   -31626   -31566   -31569 
  -31664   -31828   -31966   -32060   -32147   -32242   -32286   -32270 
  -32287   -32320   -32299   -32284   -32323   -32394   -32532   -32726 
  -32857   -32882   -32889   -32934   -32980   -33035   -33155   -33307 
  -33445   -33574   -33685   -33764   -33824   -33850   -33842   -33853 
  -33893   -33940   -34016   -34134   -34223   -34239   -34287   -34382 
  -34432   -34482   -34575   -34669   -34746   -34782   -34792   -34804 
  -34776   -34720   -34730   -34819   -34896   -34895   -34878   -34917 
  -34950   -34920   -34873   -34877   -34924   -34949   -34954   -34999 
  -35063   -35051   -34975   -34945   -35001   -35114   -35252   -35383 
  -35451   -35433   -35416   -35459   -35506   -35554   -35643   -35689 
  -35614   -35507   -35525   -35642   -35662   -35544   -35407   -35342 
  -35322   -35269   -35191   -35119   -35039   -34962   -34882   -34808 
  -34807   -34863   -34876   -34779   -34606   -34482   -34421   -34295 
  -34099   -33939   -33846   -33821   -33812   -33745   -33673   -33627 
  -33520   -33382   -33327   -33350   -33413   -33481   -33518   -33576 
  -33717   -33912   -34074   -34135   -34166   -34243   -34327   -34422 
  -34567   -34706   -34802   -34900   -34979   -34990   -35003   -35086 
  -35183   -35208   -35165   -35120   -35086   -35040   -35011   -34988 
  -34899   -34785   -34737   -34768   -34799   -34726   -34643   -34672 
  -34707   -34661   -34618   -34622   -34598   -34536   -34551   -34661 
  -34749   -34795   -34874   -34951   -34969   -34959   -34953   -34947 
  -34932   -34908   -34917   -34960   -34986   -34982   -34996   -35044 
  -35064   -35059   -35091   -35125   -35135   -35107   -35021   -34997 
  -35087   -35176   -35202   -35204   -35212   -35180   -35090   -34999 
  -34925   -34855   -34770   -34647   -34538   -34490   -34458   -34423 
  -34394   -34334   -34239   -34127   -34006   -33909   -33831   -33743 
  -33672   -33665   -33700   -33689   -33640   -33622   -33599   -33553 
  -33506   -33430   -33345   -33287   -33212   -33128   -33084   -33049 
  -32987   -32927   -32878   -32799   -32728   -32750   -32796   -32760 
  -32704   -32676   -32614   -32573   -32597   -32623   -32626   -32590 
  -32540   -32526   -32542   -32578   -32609   -32640   -32687   -32709 
  -32701   -32713   -32760   -32801   -32814   -32845   -32922   -33000 
  -33060   -33112   -33145   -33164   -33161   -33141   -33131   -33126 
  -33117   -33092   -33077   -33095   -33108   -33098   -33092   -33110 
  -33144   -33181   -33239   -33330   -33435   -33553   -33688   -33829 
  -33966   -34099   -34232   -34374   -34513   -34625   -34702   -34773 
  -34853   -34925   -34987   -35024   -35011   -34957   -34906   -34878 
  -34846   -34782   -34704   -34661   -34632   -34545   -34427   -34347 
  -34303   -34278   -34269   -34276   -34298   -34315   -34305   -34261 
  -34212   -34191   -34168   -34144   -34159   -34188   -34215   -34241 
  -34240   -34240   -34247   -34233   -34209   -34183   -34148   -34119 
  -34100   -34062   -33974   -33869   -33772   -33667   -33582   -33526 
  -33513   -33551   -33568   -33537   -33506   -33493   -33470   -33399 
  -33310   -33240   -33159   -33073   -33016   -32970   -32917   -32869 
  -32878   -32914   -32898   -32886   -32940   -33033   -33127   -33196 
  -33272   -33358   -33439   -33532   -33646   -33795   -33963   -34103 
  -34234   -34383   -34495   -34553   -34644   -34797   -34945   -35085 
  -35267   -35469   -35652   -35788   -35867   -35903   -35923   -35939 
  -35942   -35946   -35947   -35940   -35965   -35991   -35972   -35959 
  -35963   -35938   -35874   -35772   -35632   -35491   -35375   -35259 
  -35148   -35058   -34946   -34818   -34707   -34594   -34495   -34430 
  -34366   -34284   -34192   -34114   -34075   -34040   -33991   -33946 
  -33898   -33846   -33811   -33794   -33802   -33854   -33939   -34017 
  -34087   -34168   -34219   -34244   -34288   -34337   -34360   -34367 
  -34388   -34417   -34414   -34379   -34367   -34380   -34373   -34342 
  -34301   -34257   -34239   -34232   -34217   -34224   -34243   -34235 
  -34193   -34157   -34163   -34169   -34143   -34107   -34050   -33989 
  -33966   -33960   -33953   -33963   -33979   -33997   -34012   -34007 
  -34004   -34024   -34054   -34084   -34102   -34114   -34148   -34209 
  -34274   -34298   -34271   -34253   -34268   -34279   -34259   -34213 
  -34175   -34135   -34057   -34003   -34012   -34000   -33935   -33851 
  -33741   -33600   -33473   -33384   -33281   -33153   -33061   -33001 
  -32899   -32729   -32554   -32428   -32314   -32170   -32028   -31919 
  -31827   -31724   -31601   -31483   -31377   -31265   -31178   -31147 
  -31111   -31024   -30937   -30870   -30786   -30676   -30594   -30585 
  -30588   -30530   -30447   -30387   -30325   -30234   -30144   -30061 
  -29922   -29757   -29649   -29531   -29328   -29137   -29021   -28913 
  -28767   -28611   -28485   -28411   -28344   -28233   -28139   -28110 
  -28081   -28031   -28003   -28005   -28032   -28069   -28100   -28157 
  -28259   -28368   -28478   -28592   -28692   -28799   -28921   -29031 
  -29153   -29306   -29479   -29664   -29837   -30002   -30187   -30379 
  -30567   -30742   -30902   -31075   -31253   -31414   -31578   -31754 
  -31915   -32067   -32236   -32419   -32610   -32786   -32947   -33112 
  -33273   -33424   -33577   -33742   -33926   -34117   -34307   -34498 
  -34694   -34898   -35107   -35304   -35476   -35636   -35792   -35931 
  -36051   -36158   -36263   -36353   -36406   -36434   -36459   -36486 
  -36491   -36470   -36434   -36356   -36241   -36150   -36075   -35972 
  -35846   -35736   -35638   -35508   -35348   -35216   -35131   -35034 
  -34900   -34783   -34713   -34672   -34615   -34525   -34439   -34365 
  -34265   -34155   -34060   -33960   -33829   -33701   -33604   -33493 
  -33334   -33172   -33028   -32870   -32711   -32586   -32494   -32407 
  -32287   -32147   -32009   -31852   -31676   -31493   -31311   -31150 
  -30990   -30822   -30682   -30557   -30440   -30344   -30237   -30126 
  -30034   -29940   -29846   -29767   -29697   -29638   -29595   -29550 
  -29500   -29470   -29453   -29405   -29327   -29277   -29268   -29269 
  -29283   -29324   -29367   -29393   -29418   -29461   -29525   -29587 
  -29638   -29680   -29711   -29762   -29828   -29907   -30021   -30130 
  -30227   -30354   -30491   -30622   -30752   -30896   -31053   -31190 
  -31311   -31448   -31604   -31774   -31946   -32134   -32313   -32435 
  -32534   -32643   -32743   -32829   -32891   -32942   -32996   -33029 
  -33051   -33107   -33158   -33165   -33178   -33195   -33152   -33087 
  -33058   -33045   -33047   -33080   -33110   -33117   -33106   -33069 
  -33033   -33012   -32967   -32910   -32871   -32832   -32805   -32803 
  -32810   -32837   -32880   -32885   -32874   -32903   -32924   -32927 
  -32950   -32990   -33038   -33092   -33162   -33241   -33306   -33360 
  -33408   -33457   -33478   -33456   -33427   -33403   -33373   -33351 
  -33345   -33340   -33333   -33319   -33320   -33382   -33463   -33508 
  -33557   -33632   -33690   -33717   -33733   -33764   -33807   -33809 
  -33795   -33834   -33899   -33945   -33985   -34027   -34061   -34076 
  -34096   -34137   -34145   -34127   -34150   -34199   -34237   -34274 
  -34324   -34381   -34436   -34482   -34535   -34601   -34654   -34671 
  -34669   -34664   -34646   -34643   -34670   -34688   -34691   -34709 
  -34741   -34741   -34685   -34627   -34589   -34537   -34512   -34523 
  -34522   -34527   -34548   -34553   -34526   -34470   -34399   -34307 
  -34188   -34063   -33958   -33869   -33773   -33660   -33525   -33370 
  -33210   -33048   -32873   -32688   -32522   -32393   -32262   -32129 
  -32044   -31942   -31755   -31561   -31429   -31313   -31196   -31135 
  -31090   -30999   -30887   -30785   -30698   -30622   -30544   -30460 
  -30392   -30374   -30384   -30368   -30339   -30331   -30308   -30256 
  -30215   -30180   -30141   -30126   -30143   -30186   -30243   -30305 
  -30373   -30420   -30429   -30444   -30475   -30470   -30434   -30413 
  -30411   -30407   -30424   -30470   -30509   -30544   -30593   -30617 
  -30615   -30632   -30663   -30688   -30707   -30727   -30770   -30852 
  -30941   -31012   -31114   -31265   -31412   -31519   -31615   -31760 
  -31939   -32093   -32246   -32432   -32627   -32807   -32966   -33116 
  -33288   -33483   -33677   -33857   -34032   -34206   -34351   -34464 
  -34588   -34710   -34799   -34875   -34953   -35029   -35100   -35153 
  -35171   -35138   -35104   -35140   -35190   -35181   -35149   -35162 
  -35199   -35186   -35138   -35135   -35173   -35162   -35085   -35007 
  -34973   -34949   -34888   -34819   -34778   -34732   -34690   -34662 
  -34603   -34547   -34544   -34547   -34532   -34522   -34538   -34556 
  -34534   -34508   -34509   -34529   -34554   -34549   -34552   -34590 
  -34593   -34573   -34574   -34580   -34589   -34596   -34614   -34635 
  -34628   -34625   -34611   -34580   -34582   -34599   -34603   -34606 
  -34592   -34555   -34516   -34500   -34500   -34481   -34474   -34493 
  -34494   -34485   -34495   -34541   -34612   -34678   -34753   -34832 
  -34888   -34925   -34971   -35046   -35111   -35140   -35180   -35235 
  -35270   -35278   -35297   -35336   -35339   -35322   -35315   -35303 
  -35293   -35256   -35202   -35159   -35069   -34951   -34837   -34714 
  -34594   -34465   -34326   -34182   -34028   -33868   -33690   -33509 
  -33322   -33134   -32999   -32877   -32719   -32559   -32407   -32279 
  -32167   -32054   -31974   -31914   -31841   -31776   -31729   -31680 
  -31611   -31518   -31404   -31281   -31165   -31049   -30935   -30825 
  -30692   -30559   -30431   -30289   -30134   -29970   -29815   -29667 
  -29507   -29353   -29219   -29110   -29010   -28909   -28834   -28781 
  -28731   -28681   -28641   -28642   -28660   -28656   -28659   -28682 
  -28708   -28736   -28779   -28829   -28860   -28897   -28950   -28976 
  -28969   -28968   -28991   -29025   -29062   -29108   -29150   -29185 
  -29221   -29254   -29285   -29293   -29273   -29246   -29227   -29240 
  -29257   -29241   -29242   -29267   -29270   -29272   -29323   -29408 
  -29484   -29563   -29649   -29708   -29756   -29825   -29913   -30019 
  -30144   -30269   -30381   -30475   -30565   -30661   -30752   -30838 
  -30922   -30980   -31013   -31030   -31012   -30990   -30985   -30960 
  -30922   -30902   -30899   -30896   -30891   -30925   -30999   -31046 
  -31069   -31103   -31133   -31155   -31189   -31228   -31256   -31280 
  -31313   -31348   -31389   -31445   -31499   -31546   -31604   -31671 
  -31727   -31769   -31816   -31885   -31956   -32018   -32091   -32153 
  -32197   -32266   -32336   -32373   -32386   -32373   -32347   -32327 
  -32306   -32284   -32267   -32244   -32212   -32176   -32135   -32101 
