Origin Time       2011/03/11 14:46:00
Lat.              38.103
Long.             142.860
Depth. (km)       24
Mag.              9.0
Station Code      SIG009
Station Lat.      35.0052
Station Long.     136.0841
Station Height(m) 134
Record Time       2011/03/11 14:49:14
Sampling Freq(Hz) 100Hz
Duration Time(s)  194
Dir.              N-S
Scale Factor      3920(gal)/6182761
Max. Acc. (gal)   6.903
Last Correction   2011/03/11 14:48:59
Memo.             
[...]
  -24487   -24484   -24496   -24531   -24553   -24551   -24591   -24696 
  -24802   -24865   -24857   -24789   -24749   -24732   -24656   -24511 
  -24324   -24134   -23960   -23778   -23582   -23357   -23105   -22872 
  -22671   -22474   -22241   -21951   -21633   -21386   -21239   -21106 
  -20969   -20848   -20748   -20715   -20781   -20926   -21118   -21323 
  -21510   -21680   -21880   -22140   -22465   -22842   -23197   -23503 
  -23813   -24126   -24400   -24613   -24796   -25019   -25294   -25570 
  -25784   -25905   -26015   -26191   -26367   -26488   -26602   -26745 
  -26900   -27035   -27125   -27169   -27189   -27188   -27167   -27131 
  -27085   -27066   -27048   -26990   -26978   -27060   -27154   -27234 
  -27339   -27474   -27602   -27680   -27706   -27701   -27643   -27532 
  -27435   -27379   -27355   -27340   -27314   -27312   -27316   -27270 
  -27234   -27245   -27281   -27360   -27454   -27491   -27461   -27399 
  -27343   -27309   -27285   -27277   -27292   -27323   -27347   -27344 
  -27309   -27246   -27160   -27063   -26962   -26847   -26710   -26564 
  -26406   -26190   -25907   -25583   -25232   -24888   -24574   -24266 
  -23942   -23595   -23245   -22916   -22574   -22222   -21916   -21652 
  -21402   -21189   -21034   -20945   -20921   -20935   -20965   -21009 
  -21084   -21199   -21316   -21405   -21492   -21629   -21814   -22012 
  -22210   -22393   -22566   -22765   -22968   -23143   -23325   -23529 
  -23714   -23869   -24012   -24157   -24323   -24502   -24659   -24790 
  -24903   -25022   -25158   -25280   -25384   -25499   -25630   -25770 
  -25925   -26074   -26190   -26299   -26417   -26518   -26600   -26656 
  -26702   -26752   -26784   -26829   -26919   -27027   -27162   -27338 
  -27540   -27768   -28012   -28272   -28540   -28800   -29038   -29244 
  -29431   -29586   -29669   -29712   -29764   -29793   -29764   -29727 
  -29710   -29673   -29617   -29545   -29421   -29259   -29095   -28936 
  -28762   -28541   -28273   -27992   -27726   -27457   -27152   -26829 
  -26508   -26150   -25743   -25331   -24951   -24585   -24200   -23820 
  -23478   -23140   -22803   -22535   -22328   -22141   -22018   -21984 
  -22013   -22106   -22217   -22297   -22430   -22667   -22931   -23196 
  -23467   -23704   -23922   -24160   -24407   -24661   -24951   -25279 
  -25608   -25926   -26248   -26531   -26751   -26962   -27164   -27288 
  -27316   -27293   -27261   -27225   -27193   -27153   -27074   -27018 
  -27015   -27001   -26973   -26963   -26935   -26878   -26852   -26867 
  -26869   -26875   -26913   -26935   -26936   -26954   -26997   -27070 
  -27195   -27323   -27387   -27432   -27510   -27563   -27581   -27621 
  -27639   -27579   -27484   -27379   -27214   -26947   -26617   -26270 
  -25906   -25534   -25173   -24815   -24431   -24016   -23599   -23231 
  -22941   -22719   -22509   -22269   -22048   -21834   -21595   -21389 
  -21207   -21006   -20820   -20667   -20574   -20548   -20555   -20575 
  -20542   -20458   -20391   -20290   -20156   -20053   -19921   -19783 
  -19707   -19621   -19499   -19391   -19280   -19161   -19083   -19077 
  -19151   -19270   -19419   -19618   -19831   -20053   -20318   -20586 
  -20834   -21095   -21362   -21609   -21866   -22134   -22344   -22472 
  -22577   -22687   -22795   -22913   -23018   -23032   -22955   -22849 
  -22740   -22668   -22646   -22585   -22467   -22377   -22343   -22347 
  -22412   -22561   -22747   -22955   -23255   -23644   -24058   -24466 
  -24848   -25240   -25664   -26086   -26497   -26884   -27237   -27574 
  -27872   -28149   -28431   -28689   -28949   -29262   -29580   -29834 
  -30050   -30227   -30292   -30274   -30234   -30146   -30043   -29995 
  -29963   -29899   -29791   -29632   -29449   -29291   -29197   -29158 
  -29106   -28995   -28827   -28643   -28469   -28283   -28068   -27841 
  -27600   -27322   -27040   -26808   -26614   -26410   -26197   -25996 
  -25796   -25599   -25434   -25295   -25132   -24939   -24759   -24592 
  -24433   -24298   -24175   -24079   -24049   -24044   -24045   -24112 
  -24241   -24352   -24431   -24523   -24623   -24694   -24745   -24794 
  -24822   -24802   -24751   -24693   -24623   -24566   -24528   -24475 
  -24425   -24365   -24260   -24118   -23934   -23743   -23591   -23433 
  -23243   -23082   -22968   -22865   -22763   -22687   -22622   -22560 
  -22537   -22551   -22592   -22680   -22805   -22974   -23197   -23438 
  -23694   -23987   -24310   -24667   -25033   -25349   -25624   -25919 
  -26236   -26523   -26813   -27145   -27488   -27820   -28114   -28394 
  -28691   -28931   -29099   -29246   -29342   -29376   -29367   -29334 
  -29277   -29174   -29032   -28843   -28581   -28301   -28074   -27886 
  -27691   -27474   -27246   -26974   -26632   -26241   -25777   -25283 
  -24868   -24502   -24126   -23753   -23411   -23141   -22903   -22653 
  -22451   -22286   -22139   -22110   -22200   -22302   -22348   -22308 
  -22217   -22173   -22247   -22414   -22636   -22941   -23282   -23518 
  -23607   -23616   -23592   -23584   -23684   -23871   -24033   -24180 
  -24347   -24462   -24515   -24557   -24589   -24675   -24880   -25106 
  -25243   -25286   -25285   -25259   -25189   -25118   -25093   -25110 
  -25168   -25215   -25181   -25101   -25060   -25098   -25211   -25358 
  -25489   -25628   -25770   -25831   -25812   -25791   -25847   -26034 
  -26302   -26610   -26964   -27242   -27371   -27460   -27583   -27717 
  -27853   -28043   -28297   -28508   -28553   -28422   -28232   -28095 
  -28045   -28060   -28118   -28170   -28159   -28129   -28100   -27995 
  -27822   -27629   -27388   -27086   -26772   -26481   -26190   -25870 
  -25567   -25353   -25233   -25161   -25118   -25102   -25126   -25226 
  -25393   -25564   -25718   -25881   -26085   -26331   -26577   -26826 
  -27118   -27425   -27707   -27989   -28293   -28616   -28936   -29203 
  -29356   -29377   -29342   -29354   -29417   -29490   -29551   -29558 
  -29442   -29163   -28791   -28443   -28133   -27863   -27664   -27489 
  -27289   -27039   -26716   -26383   -26129   -25932   -25730   -25553 
  -25447   -25365   -25258   -25103   -24868   -24609   -24396   -24207 
  -24017   -23841   -23681   -23528   -23438   -23482   -23579   -23660 
  -23784   -23923   -24017   -24109   -24249   -24443   -24646   -24843 
  -25050   -25230   -25366   -25446   -25460   -25437   -25357   -25213 
  -25064   -24961   -24896   -24813   -24676   -24474   -24208   -23927 
  -23687   -23546   -23507   -23448   -23277   -23033   -22749   -22436 
  -22164   -21995   -21921   -21906   -21921   -21980   -22089   -22240 
  -22432   -22636   -22883   -23234   -23637   -24010   -24374   -24757 
  -25127   -25459   -25766   -26080   -26390   -26670   -26925   -27111 
  -27175   -27131   -27003   -26793   -26538   -26291   -26050   -25812 
  -25582   -25334   -25091   -24887   -24692   -24500   -24307   -24095 
  -23825   -23459   -23091   -22817   -22575   -22330   -22081   -21807 
  -21564   -21348   -21117   -20983   -21021   -21135   -21261   -21391 
  -21528   -21702   -21891   -22052   -22169   -22268   -22377   -22520 
  -22738   -22993   -23206   -23361   -23477   -23584   -23680   -23737 
  -23745   -23738   -23744   -23772   -23890   -24080   -24227   -24335 
  -24440   -24513   -24571   -24628   -24668   -24715   -24763   -24702 
  -24483   -24201   -23910   -23603   -23282   -22913   -22498   -22119 
  -21820   -21646   -21560   -21478   -21517   -21713   -21933   -22143 
  -22305   -22428   -22644   -22944   -23229   -23530   -23861   -24171 
  -24508   -24893   -25286   -25715   -26172   -26585   -26918   -27227 
  -27591   -27978   -28320   -28632   -28931   -29207   -29448   -29615 
  -29727   -29810   -29830   -29842   -29911   -29983   -30014   -29991 
  -29919   -29833   -29722   -29594   -29501   -29469   -29505   -29570 
  -29580   -29519   -29445   -29390   -29324   -29227   -29066   -28813 
  -28525   -28276   -28090   -27947   -27832   -27733   -27579   -27398 
  -27262   -27087   -26869   -26702   -26588   -26546   -26541   -26537 
  -26577   -26613   -26622   -26593   -26531   -26597   -26809   -27030 
  -27268   -27486   -27623   -27748   -27831   -27854   -27888   -27881 
  -27813   -27736   -27648   -27589   -27578   -27577   -27568   -27511 
  -27389   -27291   -27263   -27242   -27236   -27266   -27284   -27307 
  -27423   -27640   -27894   -28218   -28590   -28880   -29154   -29502 
  -29838   -30161   -30484   -30715   -30841   -30871   -30808   -30730 
  -30661   -30557   -30416   -30249   -30053   -29802   -29520   -29248 
  -29006   -28817   -28663   -28547   -28466   -28391   -28325   -28263 
  -28210   -28183   -28182   -28196   -28193   -28149   -28077   -28034 
  -28068   -28134   -28120   -28012   -27885   -27758   -27646   -27537 
  -27404   -27270   -27085   -26807   -26510   -26225   -25948   -25697 
  -25421   -25122   -24890   -24674   -24385   -24063   -23793   -23589 
  -23397   -23210   -23030   -22857   -22719   -22592   -22460   -22378 
  -22370   -22413   -22446   -22459   -22506   -22580   -22673   -22819 
  -22979   -23125   -23299   -23454   -23560   -23682   -23824   -23955 
  -24096   -24233   -24358   -24502   -24677   -24843   -24959   -25032 
  -25067   -25072   -25101   -25175   -25260   -25341   -25440   -25563 
  -25710   -25874   -26037   -26169   -26318   -26538   -26749   -26893 
  -27022   -27164   -27325   -27494   -27617   -27672   -27710   -27751 
  -27803   -27893   -27994   -28085   -28186   -28305   -28412   -28450 
  -28428   -28408   -28377   -28319   -28266   -28177   -28038   -27910 
  -27799   -27691   -27601   -27536   -27474   -27415   -27400   -27378 
  -27282   -27182   -27133   -27076   -26983   -26911   -26856   -26762 
  -26622   -26444   -26235   -26029   -25809   -25507   -25153   -24814 
  -24494   -24155   -23775   -23415   -23086   -22726   -22335   -21900 
  -21451   -21058   -20679   -20289   -19942   -19620   -19307   -19020 
  -18715   -18392   -18124   -17928   -17781   -17698   -17708   -17800 
  -17938   -18147   -18433   -18722   -19019   -19369   -19742   -20121 
  -20515   -20903   -21274   -21624   -21978   -22358   -22723   -23056 
  -23371   -23667   -23985   -24357   -24739   -25136   -25597   -26032 
  -26338   -26549   -26735   -26910   -27072   -27272   -27511   -27700 
  -27807   -27787   -27608   -27378   -27193   -27017   -26827   -26660 
  -26494   -26259   -25991   -25745   -25512   -25316   -25185   -25064 
  -24898   -24704   -24517   -24365   -24278   -24222   -24144   -24041 
  -23929   -23825   -23760   -23761   -23796   -23807   -23792   -23792 
  -23804   -23823   -23893   -23996   -24099   -24236   -24361   -24378 
  -24323   -24280   -24222   -24146   -24090   -24019   -23923   -23852 
  -23778   -23650   -23479   -23333   -23262   -23194   -23074   -22943 
  -22815   -22695   -22588   -22456   -22290   -22127   -21998   -21917 
  -21890   -21900   -21930   -21972   -22049   -22162   -22274   -22421 
  -22631   -22864   -23119   -23374   -23579   -23752   -23923   -24105 
  -24289   -24477   -24673   -24796   -24825   -24866   -24921   -24969 
  -25094   -25288   -25435   -25511   -25561   -25628   -25783   -26029 
  -26284   -26541   -26828   -27112   -27347   -27575   -27862   -28158 
  -28412   -28640   -28841   -29028   -29188   -29291   -29371   -29447 
  -29529   -29618   -29644   -29545   -29353   -29146   -28968   -28822 
  -28728   -28679   -28626   -28559   -28501   -28468   -28451   -28459 
  -28512   -28599   -28647   -28606   -28543   -28516   -28535   -28630 
  -28804   -29001   -29161   -29294   -29418   -29529   -29655   -29746 
  -29761   -29812   -29929   -30033   -30092   -30120   -30121   -30077 
  -30023   -29982   -29906   -29802   -29708   -29600   -29474   -29344 
  -29185   -29017   -28895   -28809   -28685   -28474   -28252   -28058 
  -27835   -27628   -27465   -27298   -27131   -26948   -26721   -26455 
  -26175   -25920   -25670   -25413   -25156   -24873   -24579   -24305 
  -24044   -23800   -23619   -23511   -23398   -23258   -23113   -22935 
  -22701   -22440   -22170   -21891   -21671   -21543   -21405   -21240 
  -21094   -20941   -20784   -20684   -20640   -20634   -20702   -20829 
  -20933   -21017   -21155   -21313   -21427   -21551   -21739   -21997 
  -22318   -22657   -22992   -23330   -23667   -24000   -24321   -24641 
  -24970   -25291   -25591   -25869   -26122   -26368   -26644   -26954 
  -27275   -27613   -27989   -28382   -28755   -29113   -29471   -29793 
  -30105   -30456   -30782   -31080   -31379   -31602   -31721   -31827 
  -31955   -32035   -32061   -32078   -32035   -31908   -31736   -31511 
  -31281   -31106   -30948   -30764   -30502   -30165   -29798   -29373 
  -28897   -28430   -28015   -27670   -27330   -26940   -26537   -26158 
  -25775   -25344   -24890   -24463   -24065   -23693   -23329   -22943 
  -22545   -22160   -21773   -21374   -20996   -20631   -20240   -19833 
  -19388   -18851   -18232   -17619   -17079   -16600   -16182   -15879 
  -15699   -15596   -15517   -15419   -15319   -15283   -15321   -15377 
  -15448   -15569   -15734   -15936   -16208   -16562   -16991   -17518 
  -18130   -18793   -19519   -20303   -21082   -21808   -22501   -23166 
  -23787   -24395   -25016   -25640   -26254   -26879   -27533   -28171 
  -28784   -29366   -29890   -30420   -30970   -31478   -31968   -32465 
  -32949   -33387   -33705   -33924   -34129   -34343   -34592   -34850 
  -35078   -35322   -35531   -35637   -35705   -35809   -35979   -36169 
  -36346   -36529   -36647   -36671   -36660   -36643   -36664   -36689 
  -36668   -36643   -36568   -36415   -36291   -36211   -36107   -35973 
  -35816   -35607   -35360   -35140   -34914   -34634   -34336   -34017 
  -33681   -33372   -33060   -32709   -32317   -31824   -31245   -30675 
  -30096   -29500   -28918   -28323   -27719   -27102   -26443   -25805 
  -25249   -24758   -24353   -24058   -23818   -23578   -23352   -23137 
  -22947   -22867   -22916   -23035   -23179   -23319   -23459   -23616 
  -23762   -23902   -24094   -24350   -24634   -24906   -25107   -25217 
  -25273   -25306   -25323   -25330   -25335   -25310   -25222   -25106 
  -24991   -24860   -24749   -24684   -24612   -24507   -24384   -24246 
  -24104   -23937   -23730   -23541   -23427   -23389   -23397   -23411 
  -23434   -23480   -23532   -23598   -23685   -23756   -23803   -23843 
  -23860   -23858   -23844   -23792   -23731   -23733   -23788   -23844 
  -23907   -24007   -24147   -24316   -24482   -24628   -24782   -24951 
  -25104   -25240   -25385   -25527   -25649   -25785   -25956   -26145 
  -26334   -26482   -26586   -26704   -26843   -26980   -27130   -27264 
  -27361   -27478   -27630   -27798   -27987   -28181   -28357   -28527 
  -28682   -28806   -28911   -28988   -29053   -29107   -29118   -29122 
  -29168   -29238   -29302   -29384   -29525   -29664   -29801   -30011 
  -30222   -30396   -30588   -30788   -31000   -31218   -31389   -31530 
  -31666   -31765   -31809   -31799   -31752   -31670   -31527   -31329 
  -31103   -30853   -30554   -30202   -29813   -29373   -28882   -28361 
  -27823   -27308   -26799   -26249   -25723   -25258   -24777   -24239 
  -23678   -23104   -22530   -22013   -21551   -21103   -20684   -20273 
  -19837   -19433   -19103   -18847   -18648   -18460   -18282   -18145 
  -18024   -17922   -17860   -17822   -17828   -17899   -17989   -18078 
  -18226   -18474   -18814   -19210   -19608   -20017   -20481   -20978 
  -21475   -21968   -22435   -22909   -23434   -24009   -24623   -25234 
  -25805   -26326   -26815   -27301   -27779   -28250   -28722   -29156 
  -29572   -29972   -30299   -30584   -30881   -31175   -31461   -31760 
  -32070   -32327   -32498   -32617   -32687   -32727   -32773   -32824 
  -32884   -32948   -32979   -32976   -32975   -33010   -33061   -33078 
  -33048   -32982   -32860   -32683   -32496   -32328   -32195   -32085 
  -31965   -31836   -31674   -31424   -31094   -30738   -30390   -30026 
  -29625   -29208   -28766   -28304   -27854   -27403   -26939   -26497 
  -26088   -25706   -25342   -24969   -24589   -24190   -23768   -23364 
  -22977   -22614   -22338   -22115   -21851   -21558   -21294   -21076 
  -20886   -20700   -20517   -20352   -20192   -20022   -19875   -19764 
  -19673   -19636   -19648   -19641   -19637   -19696   -19792   -19896 
  -20022   -20161   -20290   -20417   -20550   -20676   -20808   -20956 
  -21109   -21298   -21558   -21864   -22150   -22395   -22624   -22846 
  -23064   -23317   -23641   -23978   -24242   -24410   -24485   -24524 
  -24555   -24536   -24511   -24517   -24497   -24440   -24358   -24228 
  -24096   -24053   -24089   -24110   -24099   -24106   -24135   -24200 
  -24305   -24434   -24625   -24873   -25114   -25346   -25607   -25907 
  -26225   -26541   -26839   -27103   -27345   -27590   -27851   -28114 
  -28348   -28602   -28938   -29315   -29694   -30041   -30314   -30563 
  -30782   -30909   -30988   -31078   -31183   -31272   -31281   -31220 
  -31132   -31028   -30965   -30958   -30968   -31019   -31106   -31135 
  -31017   -30775   -30532   -30352   -30231   -30135   -30003   -29825 
  -29613   -29378   -29188   -29077   -28961   -28806   -28704   -28689 
  -28701   -28683   -28635   -28609   -28608   -28607   -28623   -28647 
  -28637   -28589   -28510   -28394   -28249   -28092   -27936   -27791 
  -27634   -27431   -27196   -26935   -26612   -26249   -25915   -25628 
  -25369   -25105   -24790   -24413   -24022   -23665   -23347   -23069 
  -22840   -22606   -22302   -21958   -21648   -21386   -21182   -21056 
  -20946   -20807   -20692   -20587   -20434   -20275   -20163   -20093 
  -20035   -19935   -19784   -19626   -19505   -19423   -19360   -19324 
  -19314   -19297   -19290   -19354   -19495   -19684   -19945   -20270 
  -20580   -20870   -21194   -21554   -21945   -22365   -22780   -23166 
  -23532   -23905   -24285   -24629   -24970   -25350   -25715   -26049 
  -26379   -26685   -26959   -27233   -27534   -27859   -28193   -28536 
  -28878   -29227   -29572   -29859   -30118   -30401   -30661   -30883 
  -31102   -31315   -31511   -31654   -31777   -31934   -32102   -32292 
  -32487   -32645   -32803   -32933   -32994   -33032   -33086   -33123 
  -33077   -32961   -32830   -32697   -32568   -32420   -32279   -32197 
  -32097   -31951   -31819   -31684   -31521   -31339   -31133   -30895 
  -30610   -30320   -30068   -29823   -29578   -29330   -29025   -28693 
  -28386   -28057   -27667   -27238   -26788   -26329   -25863   -25389 
  -24921   -24449   -23948   -23424   -22893   -22378   -21888   -21428 
  -20998   -20544   -20049   -19544   -19027   -18539   -18121   -17750 
  -17434   -17186   -16970   -16777   -16642   -16556   -16495   -16489 
  -16541   -16627   -16732   -16825   -16916   -17056   -17259   -17492 
  -17731   -18011   -18334   -18658   -19011   -19411   -19825   -20257 
  -20712   -21187   -21677   -22160   -22625   -23053   -23430   -23769 
  -24073   -24383   -24715   -25024   -25319   -25640   -25964   -26241 
  -26470   -26675   -26873   -27086   -27319   -27555   -27777   -27963 
  -28086   -28155   -28231   -28332   -28453   -28604   -28760   -28882 
  -28958   -29029   -29130   -29215   -29293   -29431   -29613   -29797 
  -29946   -30059   -30218   -30425   -30615   -30811   -31019   -31185 
  -31335   -31490   -31629   -31783   -31925   -32047   -32208   -32331 
