Origin Time       2011/03/11 14:46:00
Lat.              38.103
Long.             142.860
Depth. (km)       24
Mag.              9.0
Station Code      SIG006
Station Lat.      35.2002
Station Long.     135.9210
Station Height(m) 105
Record Time       2011/03/11 14:49:48
Sampling Freq(Hz) 100Hz
Duration Time(s)  165
Dir.              N-S
Scale Factor      3920(gal)/6182761
Max. Acc. (gal)   3.977
Last Correction   2011/03/11 14:49:33
Memo.             
[...]
  -60903   -60931   -60949   -60930   -60880   -60835   -60778   -60704 
  -60624   -60524   -60423   -60345   -60276   -60214   -60170   -60141 
  -60122   -60121   -60120   -60107   -60097   -60085   -60061   -60023 
  -59968   -59916   -59870   -59830   -59785   -59723   -59663   -59600 
  -59545   -59520   -59470   -59386   -59316   -59260   -59196   -59126 
  -59065   -59017   -58961   -58901   -58866   -58855   -58861   -58880 
  -58908   -58945   -58983   -58999   -59010   -59048   -59096   -59149 
  -59216   -59291   -59349   -59371   -59412   -59485   -59525   -59549 
  -59586   -59625   -59673   -59730   -59822   -59946   -60044   -60123 
  -60216   -60294   -60359   -60436   -60491   -60501   -60510   -60551 
  -60592   -60610   -60623   -60645   -60671   -60692   -60714   -60743 
  -60777   -60829   -60890   -60944   -61017   -61101   -61172   -61261 
  -61370   -61475   -61574   -61676   -61792   -61886   -61958   -62033 
  -62109   -62201   -62273   -62320   -62403   -62487   -62546   -62621 
  -62678   -62693   -62697   -62696   -62700   -62720   -62729   -62729 
  -62739   -62741   -62734   -62729   -62736   -62748   -62702   -62632 
  -62627   -62643   -62617   -62587   -62595   -62603   -62573   -62556 
  -62568   -62570   -62556   -62535   -62527   -62537   -62541   -62534 
  -62506   -62460   -62403   -62328   -62267   -62220   -62158   -62109 
  -62086   -62059   -62030   -62032   -62040   -62023   -62015   -62035 
  -62046   -62038   -62039   -62048   -62045   -62046   -62054   -62076 
  -62136   -62185   -62202   -62256   -62344   -62405   -62444   -62511 
  -62599   -62647   -62682   -62742   -62782   -62806   -62834   -62847 
  -62883   -62920   -62895   -62868   -62852   -62827   -62785   -62654 
  -62522   -62445   -62308   -62191   -62129   -62014   -61904   -61794 
  -61673   -61590   -61460   -61303   -61198   -61075   -60924   -60777 
  -60647   -60560   -60448   -60330   -60289   -60237   -60168   -60146 
  -60107   -60083   -60075   -59995   -59950   -59946   -59870   -59818 
  -59802   -59732   -59679   -59673   -59667   -59649   -59627   -59638 
  -59672   -59681   -59651   -59620   -59624   -59636   -59636   -59664 
  -59701   -59710   -59722   -59743   -59719   -59696   -59721   -59731 
  -59717   -59711   -59700   -59693   -59704   -59726   -59748   -59774 
  -59824   -59875   -59901   -59937   -60003   -60097   -60207   -60309 
  -60388   -60432   -60454   -60484   -60507   -60520   -60541   -60550 
  -60522   -60479   -60450   -60442   -60447   -60464   -60487   -60526 
  -60575   -60606   -60663   -60776   -60870   -60932   -60996   -61048 
  -61102   -61183   -61266   -61323   -61360   -61392   -61396   -61368 
  -61348   -61334   -61311   -61296   -61287   -61271   -61272   -61312 
  -61369   -61431   -61506   -61578   -61640   -61747   -61893   -62023 
  -62155   -62299   -62397   -62446   -62488   -62551   -62636   -62701 
  -62710   -62680   -62667   -62691   -62701   -62678   -62653   -62638 
  -62637   -62672   -62737   -62820   -62900   -62941   -62937   -62916 
  -62913   -62955   -63032   -63101   -63119   -63114   -63155   -63214 
  -63221   -63183   -63131   -63105   -63150   -63241   -63335   -63439 
  -63533   -63598   -63677   -63777   -63874   -63950   -63979   -63963 
  -63938   -63957   -64050   -64171   -64266   -64328   -64357   -64330 
  -64234   -64116   -64005   -63868   -63735   -63672   -63646   -63576 
  -63450   -63281   -63055   -62810   -62622   -62516   -62471   -62431 
  -62346   -62274   -62287   -62336   -62374   -62393   -62356   -62283 
  -62237   -62224   -62260   -62377   -62526   -62629   -62638   -62544 
  -62439   -62423   -62464   -62492   -62478   -62404   -62326   -62316 
  -62366   -62458   -62549   -62550   -62489   -62439   -62411   -62418 
  -62405   -62292   -62138   -62039   -62003   -62033   -62062   -61943 
  -61698   -61488   -61375   -61343   -61334   -61320   -61311   -61263 
  -61200   -61192   -61192   -61142   -61075   -61008   -60922   -60876 
  -60943   -61063   -61110   -61068   -61008   -60963   -60905   -60830 
  -60778   -60734   -60655   -60557   -60475   -60428   -60361   -60219 
  -60083   -60004   -59978   -60026   -60098   -60126   -60105   -60051 
  -59997   -59946   -59892   -59830   -59768   -59743   -59778   -59874 
  -60024   -60200   -60342   -60428   -60518   -60591   -60571   -60492 
  -60438   -60487   -60685   -60969   -61242   -61429   -61513   -61564 
  -61619   -61693   -61776   -61845   -61978   -62168   -62321   -62477 
  -62682   -62836   -62866   -62835   -62828   -62838   -62840   -62865 
  -62948   -63030   -63058   -63078   -63095   -63106   -63166   -63222 
  -63165   -63047   -62923   -62768   -62616   -62509   -62418   -62315 
  -62254   -62271   -62261   -62149   -62024   -61921   -61759   -61552 
  -61365   -61184   -61045   -61005   -60974   -60879   -60784   -60694 
  -60603   -60564   -60565   -60591   -60646   -60667   -60616   -60548 
  -60516   -60533   -60598   -60665   -60706   -60751   -60754   -60656 
  -60521   -60408   -60326   -60321   -60394   -60480   -60557   -60637 
  -60739   -60835   -60890   -60957   -61037   -61090   -61144   -61196 
  -61285   -61464   -61684   -61888   -62039   -62102   -62134   -62194 
  -62246   -62281   -62319   -62380   -62452   -62472   -62468   -62494 
  -62532   -62582   -62654   -62751   -62865   -62960   -63027   -63074 
  -63053   -62933   -62766   -62633   -62566   -62553   -62593   -62643 
  -62608   -62471   -62259   -62025   -61858   -61758   -61666   -61557 
  -61418   -61249   -61078   -60903   -60750   -60672   -60613   -60503 
  -60403   -60352   -60294   -60217   -60165   -60131   -60101   -60100 
  -60100   -60057   -60047   -60126   -60200   -60203   -60183   -60198 
  -60233   -60277   -60357   -60445   -60518   -60597   -60695   -60836 
  -61012   -61185   -61352   -61509   -61647   -61765   -61847   -61916 
  -62009   -62105   -62210   -62335   -62446   -62555   -62665   -62738 
  -62786   -62809   -62787   -62770   -62779   -62782   -62766   -62760 
  -62822   -62888   -62871   -62839   -62792   -62674   -62536   -62441 
  -62380   -62281   -62111   -61963   -61890   -61856   -61842   -61819 
  -61765   -61707   -61687   -61755   -61886   -61983   -62010   -62012 
  -62008   -61968   -61933   -62002   -62128   -62179   -62190   -62275 
  -62403   -62466   -62411   -62293   -62174   -62015   -61834   -61714 
  -61633   -61545   -61486   -61441   -61310   -61074   -60853   -60653 
  -60328   -59940   -59671   -59498   -59299   -59066   -58910   -58832 
  -58695   -58504   -58334   -58130   -57921   -57812   -57770   -57706 
  -57582   -57432   -57325   -57270   -57250   -57259   -57259   -57254 
  -57264   -57273   -57322   -57421   -57503   -57594   -57705   -57772 
  -57816   -57892   -57971   -58004   -58017   -58065   -58145   -58221 
  -58239   -58219   -58272   -58391   -58485   -58540   -58581   -58616 
  -58627   -58626   -58659   -58702   -58692   -58669   -58677   -58679 
  -58688   -58733   -58750   -58725   -58736   -58813   -58930   -59039 
  -59070   -59060   -59132   -59244   -59277   -59262   -59252   -59212 
  -59175   -59221   -59317   -59405   -59481   -59539   -59572   -59592 
  -59624   -59667   -59696   -59742   -59828   -59935   -60066   -60195 
  -60280   -60343   -60393   -60439   -60521   -60649   -60800   -60939 
  -61052   -61155   -61239   -61296   -61319   -61329   -61366   -61409 
  -61426   -61446   -61498   -61573   -61624   -61642   -61668   -61670 
  -61594   -61496   -61457   -61457   -61454   -61496   -61587   -61670 
  -61761   -61870   -61988   -62125   -62279   -62449   -62638   -62847 
  -63087   -63352   -63640   -63932   -64184   -64422   -64672   -64884 
  -65051   -65236   -65456   -65640   -65773   -65929   -66094   -66217 
  -66323   -66435   -66566   -66711   -66821   -66893   -66956   -66991 
  -66979   -66935   -66866   -66780   -66697   -66627   -66570   -66490 
  -66369   -66233   -66080   -65905   -65716   -65506   -65318   -65186 
  -65076   -65007   -64996   -64986   -64969   -64980   -65004   -65016 
  -65021   -65031   -65042   -65054   -65065   -65071   -65088   -65103 
  -65083   -65070   -65100   -65117   -65116   -65130   -65134   -65112 
  -65072   -65026   -64997   -64975   -64925   -64866   -64832   -64787 
  -64713   -64637   -64549   -64449   -64367   -64288   -64202   -64122 
  -64082   -64093   -64094   -64060   -64037   -64029   -64001   -63949 
  -63902   -63855   -63780   -63686   -63611   -63545   -63454   -63354 
  -63285   -63227   -63152   -63087   -63064   -63040   -62989   -62972 
  -62998   -63003   -62997   -63022   -63067   -63092   -63082   -63059 
  -63045   -63033   -62992   -62949   -62930   -62870   -62776   -62741 
  -62721   -62664   -62606   -62533   -62448   -62411   -62380   -62284 
  -62139   -61979   -61847   -61779   -61745   -61725   -61723   -61700 
  -61623   -61506   -61381   -61277   -61195   -61121   -61047   -60973 
  -60909   -60860   -60837   -60840   -60834   -60836   -60872   -60911 
  -60940   -60964   -60987   -61024   -61072   -61124   -61180   -61237 
  -61274   -61294   -61329   -61382   -61434   -61488   -61552   -61610 
  -61650   -61673   -61690   -61705   -61689   -61641   -61590   -61528 
  -61452   -61380   -61289   -61166   -61029   -60899   -60793   -60701 
  -60619   -60553   -60498   -60472   -60486   -60513   -60533   -60521 
  -60472   -60415   -60359   -60311   -60280   -60232   -60171   -60132 
  -60093   -60027   -59960   -59907   -59854   -59780   -59685   -59614 
  -59586   -59563   -59521   -59477   -59454   -59456   -59472   -59505 
  -59569   -59658   -59736   -59764   -59741   -59703   -59665   -59638 
  -59628   -59613   -59615   -59667   -59719   -59758   -59829   -59914 
  -59988   -60042   -60052   -60050   -60092   -60161   -60245   -60345 
  -60415   -60452   -60518   -60620   -60714   -60760   -60741   -60697 
  -60683   -60708   -60727   -60705   -60683   -60675   -60648   -60619 
  -60608   -60592   -60563   -60528   -60511   -60525   -60531   -60502 
  -60459   -60414   -60380   -60376   -60361   -60296   -60215   -60145 
  -60066   -59974   -59858   -59719   -59601   -59534   -59502   -59474 
  -59430   -59384   -59375   -59408   -59440   -59467   -59538   -59651 
  -59763   -59864   -59984   -60136   -60291   -60446   -60616   -60773 
  -60910   -61058   -61248   -61461   -61642   -61791   -61942   -62081 
  -62201   -62334   -62472   -62583   -62689   -62810   -62929   -63031 
  -63104   -63141   -63161   -63173   -63167   -63155   -63170   -63201 
  -63201   -63181   -63173   -63165   -63158   -63169   -63178   -63179 
  -63178   -63160   -63140   -63162   -63206   -63233   -63251   -63268 
  -63270   -63260   -63249   -63241   -63232   -63215   -63198   -63197 
  -63184   -63145   -63101   -63046   -62990   -62947   -62908   -62877 
  -62836   -62772   -62727   -62692   -62642   -62612   -62604   -62585 
  -62562   -62543   -62520   -62509   -62504   -62474   -62422   -62363 
  -62291   -62220   -62172   -62110   -62002   -61885   -61789   -61720 
  -61676   -61658   -61681   -61727   -61762   -61811   -61886   -61955 
  -62014   -62063   -62101   -62145   -62209   -62286   -62358   -62418 
  -62459   -62484   -62501   -62503   -62487   -62481   -62477   -62438 
  -62398   -62385   -62397   -62440   -62481   -62514   -62567   -62603 
  -62614   -62652   -62710   -62754   -62797   -62863   -62944   -63008 
  -63063   -63140   -63222   -63279   -63321   -63365   -63427   -63504 
  -63575   -63650   -63749   -63841   -63927   -64052   -64172   -64220 
  -64248   -64302   -64325   -64293   -64254   -64222   -64173   -64118 
  -64089   -64084   -64072   -64056   -64055   -64068   -64089   -64105 
  -64107   -64085   -64039   -63995   -63971   -63949   -63923   -63907 
  -63896   -63897   -63897   -63882   -63881   -63893   -63874   -63831 
  -63790   -63729   -63642   -63566   -63529   -63509   -63467   -63401 
  -63351   -63317   -63268   -63215   -63159   -63083   -63014   -62972 
  -62936   -62911   -62892   -62813   -62693   -62598   -62500   -62394 
  -62322   -62268   -62202   -62117   -62046   -62017   -61972   -61868 
  -61755   -61640   -61498   -61371   -61281   -61215   -61157   -61089 
  -61024   -60956   -60862   -60767   -60682   -60592   -60511   -60447 
  -60394   -60363   -60333   -60283   -60251   -60251   -60244   -60225 
  -60205   -60185   -60181   -60181   -60177   -60201   -60232   -60249 
  -60292   -60347   -60389   -60454   -60517   -60537   -60565   -60620 
  -60680   -60759   -60824   -60853   -60896   -60964   -61037   -61132 
  -61242   -61340   -61437   -61546   -61664   -61782   -61875   -61933 
  -61982   -62038   -62092   -62117   -62110   -62106   -62113   -62115 
  -62113   -62074   -61988   -61905   -61835   -61750   -61676   -61639 
  -61609   -61585   -61591   -61609   -61636   -61666   -61665   -61645 
  -61631   -61605   -61579   -61568   -61570   -61560   -61516   -61476 
  -61444   -61411   -61409   -61410   -61401   -61434   -61495   -61567 
  -61673   -61788   -61873   -61942   -62012   -62072   -62147   -62242 
  -62319   -62388   -62483   -62602   -62717   -62810   -62885   -62965 
  -63055   -63125   -63184   -63285   -63426   -63554   -63643   -63729 
  -63838   -63955   -64088   -64241   -64395   -64553   -64724   -64915 
  -65134   -65356   -65562   -65770   -65992   -66228   -66457   -66643 
  -66792   -66937   -67072   -67179   -67275   -67372   -67471   -67572 
  -67667   -67732   -67764   -67790   -67816   -67848   -67903   -67960 
  -68003   -68060   -68133   -68175   -68205   -68263   -68298   -68295 
  -68287   -68247   -68171   -68124   -68105   -68045   -67957   -67902 
  -67870   -67817   -67734   -67648   -67563   -67460   -67361   -67286 
  -67217   -67139   -67059   -66991   -66895   -66743   -66603   -66509 
  -66392   -66233   -66080   -65982   -65948   -65946   -65943   -65924 
  -65893   -65886   -65896   -65889   -65876   -65867   -65874   -65875 
  -65840   -65849   -65919   -65948   -65923   -65893   -65878   -65862 
  -65810   -65752   -65710   -65645   -65550   -65435   -65313   -65206 
  -65077   -64911   -64749   -64596   -64429   -64255   -64092   -63955 
  -63842   -63731   -63618   -63519   -63432   -63336   -63242   -63160 
  -63077   -62997   -62940   -62890   -62827   -62766   -62710   -62664 
  -62649   -62645   -62619   -62580   -62538   -62505   -62499   -62504 
  -62496   -62470   -62449   -62432   -62405   -62382   -62355   -62310 
  -62267   -62231   -62203   -62190   -62159   -62086   -62006   -61939 
  -61857   -61754   -61681   -61640   -61582   -61513   -61468   -61431 
  -61367   -61292   -61253   -61233   -61199   -61168   -61164   -61196 
  -61230   -61246   -61272   -61331   -61409   -61477   -61547   -61648 
  -61745   -61833   -61965   -62115   -62227   -62322   -62434   -62528 
  -62579   -62626   -62663   -62670   -62653   -62610   -62578   -62553 
  -62490   -62404   -62315   -62233   -62158   -62059   -61940   -61818 
  -61673   -61522   -61391   -61271   -61139   -61012   -60911   -60808 
  -60705   -60611   -60530   -60478   -60431   -60373   -60327   -60301 
  -60294   -60292   -60308   -60334   -60339   -60358   -60420   -60506 
  -60596   -60658   -60724   -60817   -60903   -60993   -61101   -61209 
  -61302   -61377   -61452   -61521   -61586   -61646   -61687   -61714 
  -61732   -61754   -61777   -61771   -61751   -61711   -61655   -61634 
  -61647   -61667   -61673   -61675   -61669   -61631   -61598   -61576 
  -61542   -61519   -61487   -61449   -61420   -61386   -61386   -61417 
  -61440   -61479   -61532   -61573   -61596   -61609   -61624   -61639 
  -61665   -61718   -61789   -61851   -61914   -61991   -62045   -62106 
  -62198   -62259   -62292   -62336   -62391   -62452   -62515   -62574 
  -62607   -62619   -62616   -62586   -62565   -62557   -62544   -62528 
  -62492   -62438   -62392   -62345   -62281   -62222   -62189   -62162 
  -62147   -62150   -62146   -62131   -62111   -62076   -62023   -61959 
  -61907   -61876   -61849   -61811   -61770   -61723   -61668   -61618 
  -61559   -61506   -61483   -61464   -61439   -61436   -61466   -61491 
  -61517   -61577   -61609   -61611   -61643   -61688   -61725   -61753 
  -61785   -61834   -61882   -61920   -61956   -61991   -62026   -62048 
  -62078   -62136   -62209   -62283   -62359   -62457   -62580   -62696 
  -62805   -62927   -63044   -63148   -63271   -63401   -63490   -63534 
  -63563   -63589   -63598   -63586   -63590   -63616   -63626   -63613 
  -63584   -63537   -63471   -63396   -63334   -63291   -63252   -63189 
  -63114   -63065   -63018   -62942   -62884   -62859   -62822   -62755 
  -62695   -62676   -62674   -62647   -62606   -62580   -62558   -62523 
  -62507   -62520   -62514   -62490   -62473   -62435   -62378   -62337 
  -62307   -62274   -62228   -62176   -62143   -62129   -62127   -62102 
  -62040   -61990   -61951   -61875   -61770   -61679   -61603   -61518 
  -61435   -61362   -61259   -61148   -61059   -60938   -60766   -60604 
  -60472   -60336   -60187   -60050   -59935   -59826   -59706   -59584 
  -59487   -59408   -59333   -59253   -59147   -59044   -58974   -58894 
  -58810   -58770   -58743   -58682   -58615   -58580   -58572   -58553 
  -58512   -58478   -58484   -58499   -58502   -58532   -58588   -58632 
  -58685   -58740   -58781   -58844   -58917   -58962   -58998   -59040 
  -59085   -59150   -59219   -59269   -59329   -59403   -59461   -59513 
  -59581   -59664   -59742   -59808   -59870   -59929   -59989   -60053 
  -60111   -60179   -60253   -60305   -60340   -60380   -60427   -60474 
  -60520   -60572   -60627   -60666   -60693   -60731   -60771   -60785 
  -60783   -60773   -60745   -60730   -60743   -60735   -60694   -60673 
  -60694   -60737   -60773   -60814   -60875   -60908   -60902   -60905 
  -60907   -60896   -60881   -60870   -60877   -60876   -60855   -60858 
  -60872   -60878   -60895   -60912   -60929   -60948   -60929   -60876 
  -60832   -60796   -60768   -60770   -60793   -60812   -60824   -60853 
  -60903   -60930   -60898   -60853   -60829   -60793   -60767   -60805 
  -60881   -60960   -61055   -61157   -61258   -61353   -61419   -61490 
  -61602   -61722   -61837   -61964   -62099   -62228   -62334   -62436 
  -62577   -62722   -62840   -62959   -63098   -63256   -63409   -63553 
  -63713   -63834   -63887   -63940   -63997   -64053   -64150   -64254 
  -64329   -64396   -64454   -64497   -64546   -64617   -64687   -64733 
  -64763   -64803   -64840   -64867   -64902   -64947   -64992   -65023 
  -65028   -65007   -64968   -64940   -64932   -64918   -64903   -64903 
  -64897   -64867   -64832   -64816   -64818   -64813   -64791   -64755 
  -64705   -64656   -64618   -64574   -64519   -64463   -64401   -64333 
  -64265   -64197   -64132   -64082   -64044   -63980   -63884   -63794 
  -63721   -63661   -63623   -63598   -63577   -63562   -63547   -63541 
  -63558   -63586   -63610   -63648   -63712   -63792   -63892   -63993 
  -64065   -64140   -64239   -64343   -64454   -64570   -64679   -64786 
  -64890   -64990   -65111   -65237   -65332   -65396   -65444   -65491 
  -65543   -65585   -65632   -65692   -65740   -65790   -65863   -65932 
  -65979   -66018   -66045   -66050   -66045   -66034   -65993   -65950 
  -65938   -65927   -65908   -65894   -65854   -65788   -65724   -65654 
  -65568   -65475   -65381   -65283   -65194   -65139   -65119   -65100 
