Origin Time       2011/03/11 14:46:00
Lat.              38.103
Long.             142.860
Depth. (km)       24
Mag.              9.0
Station Code      SIG008
Station Lat.      35.0704
Station Long.     136.2946
Station Height(m) 220
Record Time       2011/03/11 14:48:48
Sampling Freq(Hz) 100Hz
Duration Time(s)  266
Dir.              N-S
Scale Factor      3920(gal)/6182761
Max. Acc. (gal)   9.638
Last Correction   2011/03/11 14:48:33
Memo.             
[...]
  -72467   -72583   -72675   -72739   -72798   -72860   -72922   -72990 
  -73052   -73104   -73140   -73138   -73108   -73059   -72977   -72862 
  -72706   -72514   -72330   -72180   -72059   -71962   -71902   -71896 
  -71935   -72015   -72145   -72321   -72547   -72802   -73042   -73252 
  -73428   -73569   -73704   -73828   -73930   -74030   -74129   -74204 
  -74254   -74284   -74270   -74175   -74020   -73853   -73666   -73422 
  -73133   -72841   -72526   -72178   -71853   -71556   -71257   -70987 
  -70753   -70542   -70336   -70108   -69867   -69623   -69353   -69049 
  -68728   -68402   -68057   -67699   -67384   -67117   -66845   -66571 
  -66327   -66085   -65835   -65602   -65382   -65172   -64980   -64788 
  -64607   -64486   -64410   -64328   -64262   -64230   -64199   -64151 
  -64110   -64075   -64005   -63885   -63732   -63524   -63268   -63011 
  -62744   -62449   -62182   -61968   -61781   -61653   -61609   -61610 
  -61658   -61757   -61884   -62029   -62184   -62358   -62554   -62731 
  -62886   -63064   -63264   -63463   -63702   -64020   -64368   -64725 
  -65136   -65578   -65995   -66382   -66747   -67079   -67370   -67625 
  -67844   -68022   -68149   -68231   -68305   -68361   -68356   -68315 
  -68250   -68133   -67973   -67791   -67593   -67387   -67200   -67053 
  -66928   -66836   -66796   -66780   -66782   -66817   -66872   -66941 
  -67022   -67112   -67215   -67299   -67349   -67398   -67419   -67372 
  -67265   -67103   -66908   -66694   -66464   -66247   -66057   -65878 
  -65707   -65545   -65397   -65275   -65172   -65059   -64937   -64822 
  -64701   -64571   -64456   -64375   -64319   -64273   -64254   -64258 
  -64249   -64214   -64161   -64102   -64034   -63970   -63946   -64001 
  -64153   -64376   -64676   -65042   -65391   -65703   -66006   -66272 
  -66501   -66723   -66926   -67093   -67247   -67410   -67574   -67711 
  -67810   -67872   -67897   -67892   -67879   -67861   -67852   -67879 
  -67934   -68006   -68122   -68308   -68544   -68806   -69099   -69410 
  -69699   -69992   -70309   -70608   -70882   -71146   -71384   -71571 
  -71700   -71787   -71845   -71872   -71864   -71827   -71752   -71635 
  -71502   -71377   -71250   -71129   -71052   -71034   -71050   -71093 
  -71188   -71309   -71424   -71540   -71645   -71736   -71829   -71913 
  -71984   -72055   -72125   -72197   -72263   -72310   -72360   -72430 
  -72494   -72551   -72609   -72631   -72598   -72543   -72472   -72370 
  -72253   -72136   -71998   -71802   -71552   -71285   -71003   -70704 
  -70394   -70053   -69682   -69305   -68938   -68586   -68226   -67864 
  -67553   -67300   -67089   -66940   -66837   -66761   -66703   -66630 
  -66539   -66451   -66371   -66313   -66280   -66250   -66217   -66210 
  -66269   -66389   -66541   -66720   -66887   -66992   -67070   -67154 
  -67220   -67270   -67340   -67414   -67466   -67502   -67520   -67504 
  -67445   -67349   -67231   -67098   -66951   -66788   -66612   -66410 
  -66185   -65980   -65787   -65575   -65406   -65315   -65272   -65267 
  -65297   -65354   -65426   -65516   -65641   -65800   -65969   -66156 
  -66385   -66602   -66766   -66930   -67104   -67253   -67381   -67478 
  -67541   -67584   -67624   -67676   -67746   -67833   -67929   -68039 
  -68155   -68231   -68251   -68242   -68227   -68196   -68127   -68006 
  -67837   -67636   -67424   -67214   -67010   -66812   -66625   -66454 
  -66298   -66124   -65923   -65733   -65550   -65334   -65093   -64824 
  -64525   -64228   -63912   -63583   -63297   -63042   -62816   -62656 
  -62542   -62475   -62475   -62520   -62597   -62698   -62841   -63062 
  -63326   -63601   -63899   -64191   -64440   -64638   -64794   -64940 
  -65072   -65156   -65214   -65268   -65314   -65357   -65397   -65463 
  -65582   -65760   -66011   -66308   -66624   -66977   -67350   -67735 
  -68158   -68586   -68962   -69272   -69509   -69660   -69747   -69778 
  -69749   -69677   -69564   -69402   -69195   -68946   -68690   -68438 
  -68167   -67898   -67626   -67342   -67078   -66820   -66581   -66438 
  -66367   -66296   -66228   -66197   -66199   -66199   -66232   -66330 
  -66470   -66671   -66919   -67150   -67363   -67549   -67687   -67796 
  -67885   -67951   -68009   -68045   -68023   -67982   -67978   -67977 
  -67965   -67974   -67978   -67940   -67876   -67821   -67788   -67761 
  -67709   -67649   -67628   -67653   -67723   -67876   -68111   -68345 
  -68540   -68734   -68915   -69055   -69167   -69268   -69353   -69397 
  -69427   -69456   -69436   -69376   -69316   -69275   -69281   -69312 
  -69353   -69399   -69423   -69410   -69362   -69320   -69313   -69317 
  -69330   -69342   -69324   -69305   -69320   -69375   -69459   -69573 
  -69727   -69913   -70103   -70260   -70368   -70452   -70539   -70634 
  -70753   -70921   -71141   -71383   -71603   -71811   -72047   -72257 
  -72384   -72478   -72555   -72579   -72591   -72635   -72694   -72750 
  -72824   -72939   -73054   -73089   -73079   -73109   -73139   -73131 
  -73134   -73136   -73084   -73000   -72926   -72835   -72700   -72553 
  -72403   -72213   -71979   -71723   -71468   -71223   -70968   -70710 
  -70487   -70299   -70151   -70097   -70117   -70133   -70148   -70171 
  -70160   -70110   -70046   -69958   -69832   -69677   -69524   -69385 
  -69211   -68995   -68793   -68596   -68386   -68183   -67989   -67799 
  -67613   -67425   -67226   -67028   -66857   -66714   -66581   -66449 
  -66325   -66213   -66077   -65875   -65606   -65285   -64889   -64444 
  -64020   -63589   -63081   -62566   -62147   -61774   -61368   -60962 
  -60593   -60241   -59884   -59535   -59214   -58905   -58607   -58388 
  -58242   -58104   -57994   -57954   -57941   -57921   -57926   -57965 
  -58000   -58037   -58129   -58305   -58514   -58727   -58976   -59235 
  -59492   -59784   -60084   -60340   -60552   -60762   -61015   -61297 
  -61563   -61817   -62099   -62399   -62684   -62961   -63215   -63419 
  -63594   -63714   -63719   -63634   -63533   -63436   -63335   -63236 
  -63155   -63112   -63110   -63132   -63176   -63229   -63268   -63322 
  -63432   -63585   -63765   -64013   -64329   -64639   -64939   -65279 
  -65620   -65906   -66155   -66355   -66464   -66491   -66508   -66556 
  -66596   -66597   -66609   -66652   -66678   -66702   -66773   -66865 
  -66922   -66927   -66910   -66906   -66898   -66867   -66834   -66825 
  -66869   -66991   -67168   -67336   -67454   -67545   -67644   -67743 
  -67849   -67984   -68123   -68225   -68283   -68314   -68344   -68358 
  -68347   -68333   -68310   -68272   -68217   -68163   -68164   -68227 
  -68323   -68438   -68573   -68734   -68890   -68995   -69067   -69134 
  -69176   -69164   -69105   -69035   -68929   -68766   -68612   -68468 
  -68271   -68057   -67887   -67757   -67660   -67616   -67611   -67585 
  -67574   -67684   -67878   -68050   -68216   -68429   -68703   -69018 
  -69333   -69623   -69863   -70009   -70088   -70174   -70277   -70382 
  -70522   -70704   -70871   -70987   -71096   -71256   -71458   -71669 
  -71888   -72074   -72166   -72221   -72286   -72305   -72290   -72279 
  -72250   -72205   -72142   -72042   -71941   -71846   -71741   -71654 
  -71574   -71446   -71296   -71140   -70944   -70756   -70656   -70631 
  -70634   -70676   -70775   -70894   -70993   -71081   -71167   -71224 
  -71220   -71166   -71100   -70996   -70831   -70661   -70494   -70276 
  -70023   -69782   -69535   -69256   -68975   -68711   -68440   -68177 
  -67973   -67813   -67636   -67453   -67301   -67173   -67056   -66944 
  -66842   -66774   -66714   -66644   -66601   -66591   -66605   -66644 
  -66705   -66787   -66882   -67019   -67191   -67310   -67373   -67418 
  -67411   -67353   -67287   -67193   -67043   -66847   -66621   -66370 
  -66076   -65735   -65384   -65035   -64697   -64406   -64151   -63901 
  -63697   -63584   -63535   -63519   -63530   -63593   -63718   -63844 
  -63943   -64032   -64042   -63949   -63842   -63744   -63617   -63512 
  -63440   -63312   -63122   -62954   -62836   -62753   -62740   -62836 
  -63014   -63248   -63538   -63847   -64155   -64477   -64790   -65084 
  -65358   -65594   -65809   -66044   -66270   -66431   -66558   -66708 
  -66873   -67031   -67210   -67428   -67674   -67916   -68117   -68286 
  -68428   -68515   -68564   -68605   -68636   -68676   -68722   -68756 
  -68799   -68851   -68911   -68989   -69035   -69050   -69102   -69168 
  -69214   -69286   -69372   -69427   -69457   -69459   -69431   -69380 
  -69311   -69228   -69108   -68939   -68796   -68733   -68706   -68698 
  -68751   -68858   -68953   -69004   -69053   -69110   -69136   -69156 
  -69199   -69244   -69292   -69359   -69454   -69578   -69712   -69853 
  -70005   -70142   -70243   -70317   -70368   -70391   -70394   -70369 
  -70290   -70155   -69987   -69792   -69580   -69387   -69205   -68982 
  -68726   -68497   -68283   -68056   -67850   -67686   -67572   -67527 
  -67511   -67503   -67530   -67538   -67484   -67421   -67353   -67259 
  -67164   -67074   -67003   -66973   -66985   -67024   -67068   -67135 
  -67231   -67323   -67440   -67625   -67856   -68100   -68320   -68472 
  -68565   -68622   -68632   -68620   -68614   -68583   -68531   -68480 
  -68380   -68217   -68007   -67738   -67417   -67033   -66588   -66137 
  -65708   -65302   -64945   -64636   -64348   -64082   -63833   -63570 
  -63279   -62966   -62629   -62259   -61886   -61560   -61309   -61129 
  -61003   -60930   -60883   -60809   -60737   -60710   -60682   -60652 
  -60676   -60744   -60837   -60975   -61146   -61320   -61506   -61725 
  -61990   -62327   -62743   -63210   -63708   -64223   -64726   -65221 
  -65754   -66302   -66795   -67258   -67718   -68129   -68464   -68729 
  -68913   -68989   -68968   -68869   -68663   -68350   -67975   -67562 
  -67145   -66762   -66418   -66119   -65866   -65664   -65526   -65460 
  -65459   -65511   -65611   -65720   -65835   -66016   -66248   -66484 
  -66729   -66975   -67193   -67372   -67513   -67647   -67766   -67836 
  -67912   -68018   -68121   -68221   -68316   -68367   -68365   -68334 
  -68286   -68191   -68060   -67981   -67965   -67940   -67924   -67970 
  -68041   -68102   -68157   -68201   -68223   -68220   -68208   -68214 
  -68243   -68297   -68380   -68489   -68593   -68644   -68657   -68705 
  -68767   -68796   -68822   -68842   -68828   -68828   -68861   -68886 
  -68903   -68935   -68992   -69076   -69163   -69233   -69275   -69277 
  -69243   -69179   -69074   -68943   -68830   -68770   -68770   -68806 
  -68879   -69007   -69190   -69418   -69680   -69979   -70332   -70745 
  -71216   -71709   -72166   -72570   -72915   -73186   -73403   -73598 
  -73767   -73892   -73979   -74032   -74041   -74020   -74003   -73981 
  -73912   -73786   -73624   -73437   -73195   -72890   -72567   -72227 
  -71835   -71403   -70955   -70469   -69922   -69324   -68704   -68062 
  -67398   -66773   -66227   -65721   -65242   -64810   -64430   -64118 
  -63879   -63676   -63480   -63306   -63152   -62993   -62848   -62750 
  -62714   -62746   -62840   -62977   -63140   -63332   -63538   -63720 
  -63890   -64041   -64120   -64129   -64129   -64143   -64145   -64127 
  -64118   -64125   -64145   -64213   -64320   -64422   -64542   -64688 
  -64820   -64956   -65110   -65231   -65306   -65370   -65419   -65434 
  -65420   -65381   -65330   -65270   -65177   -65064   -64951   -64808 
  -64625   -64435   -64256   -64075   -63896   -63740   -63628   -63560 
  -63513   -63506   -63546   -63550   -63525   -63530   -63484   -63337 
  -63177   -63027   -62847   -62665   -62517   -62372   -62195   -61996 
  -61847   -61800   -61803   -61805   -61838   -61901   -61953   -62004 
  -62066   -62116   -62144   -62173   -62212   -62230   -62220   -62222 
  -62239   -62260   -62315   -62416   -62520   -62618   -62755   -62909 
  -63043   -63201   -63393   -63579   -63765   -63958   -64144   -64329 
  -64499   -64648   -64800   -64920   -64955   -64947   -64946   -64930 
  -64874   -64817   -64778   -64693   -64552   -64431   -64359   -64299 
  -64263   -64325   -64460   -64600   -64798   -65100   -65433   -65767 
  -66144   -66535   -66873   -67186   -67515   -67842   -68173   -68539 
  -68936   -69321   -69667   -70003   -70355   -70669   -70936   -71230 
  -71574   -71927   -72286   -72668   -73049   -73393   -73712   -73987 
  -74163   -74253   -74308   -74307   -74264   -74239   -74243   -74271 
  -74342   -74467   -74629   -74811   -75032   -75288   -75526   -75707 
  -75865   -76052   -76257   -76434   -76582   -76721   -76824   -76857 
  -76837   -76799   -76736   -76649   -76585   -76550   -76519   -76521 
  -76576   -76661   -76761   -76885   -77014   -77117   -77192   -77256 
  -77333   -77427   -77515   -77594   -77691   -77809   -77920   -78004 
  -78048   -78032   -77930   -77771   -77615   -77451   -77250   -77044 
  -76847   -76671   -76569   -76534   -76509   -76511   -76558   -76607 
  -76616   -76594   -76601   -76661   -76707   -76699   -76658   -76607 
  -76563   -76514   -76412   -76256   -76106   -75999   -75911   -75798 
  -75656   -75501   -75288   -74971   -74580   -74169   -73743   -73277 
  -72774   -72250   -71708   -71186   -70706   -70181   -69554   -68911 
  -68317   -67715   -67054   -66355   -65682   -65070   -64484   -63923 
  -63441   -63033   -62640   -62200   -61697   -61167   -60607   -59967 
  -59278   -58593   -57883   -57120   -56298   -55448   -54708   -54199 
  -53860   -53541   -53220   -53010   -52943   -52925   -52861   -52765 
  -52742   -52819   -52901   -52920   -52956   -53145   -53439   -53653 
  -53720   -53746   -53864   -54081   -54298   -54493   -54733   -55035 
  -55357   -55678   -56020   -56423   -56885   -57332   -57731   -58190 
  -58803   -59467   -60045   -60585   -61187   -61773   -62221   -62533 
  -62757   -62924   -63072   -63256   -63512   -63851   -64275   -64734 
  -65137   -65433   -65652   -65857   -66069   -66262   -66455   -66710 
  -66976   -67186   -67434   -67743   -67939   -67973   -67953   -67921 
  -67815   -67583   -67260   -66977   -66823   -66722   -66594   -66500 
  -66474   -66407   -66207   -65940   -65741   -65624   -65504   -65358 
  -65223   -65106   -64979   -64842   -64741   -64702   -64694   -64667 
  -64593   -64478   -64368   -64319   -64341   -64357   -64315   -64286 
  -64342   -64485   -64742   -65149   -65654   -66143   -66518   -66755 
  -66906   -67049   -67229   -67466   -67744   -68033   -68325   -68624 
  -68895   -69132   -69399   -69699   -69984   -70283   -70629   -70995 
  -71377   -71779   -72167   -72519   -72841   -73123   -73360   -73583 
  -73808   -73996   -74092   -74126   -74198   -74312   -74396   -74435 
  -74480   -74549   -74581   -74545   -74486   -74423   -74333   -74212 
  -74036   -73789   -73562   -73450   -73410   -73356   -73298   -73263 
  -73163   -72899   -72569   -72339   -72215   -72107   -71980   -71830 
  -71640   -71396   -71113   -70803   -70484   -70177   -69851   -69460 
  -69054   -68747   -68574   -68458   -68343   -68240   -68126   -67981 
  -67888   -67917   -68045   -68201   -68304   -68335   -68378   -68525 
  -68795   -69122   -69438   -69723   -69937   -70027   -70014   -70005 
  -70100   -70282   -70421   -70423   -70350   -70304   -70319   -70424 
  -70625   -70883   -71194   -71582   -72006   -72417   -72781   -73032 
  -73139   -73188   -73276   -73412   -73537   -73611   -73635   -73607 
  -73561   -73548   -73536   -73494   -73453   -73410   -73313   -73144 
  -72915   -72636   -72353   -72110   -71875   -71595   -71265   -70884 
  -70462   -70071   -69767   -69513   -69255   -68985   -68746   -68581 
  -68461   -68354   -68282   -68217   -68097   -67947   -67806   -67640 
  -67437   -67240   -67039   -66789   -66523   -66283   -66032   -65720 
  -65366   -65024   -64711   -64408   -64097   -63831   -63694   -63698 
  -63756   -63783   -63780   -63791   -63821   -63865   -63937   -64036 
  -64132   -64175   -64115   -63951   -63735   -63541   -63447   -63443 
  -63434   -63396   -63378   -63377   -63338   -63275   -63302   -63466 
  -63686   -63907   -64113   -64251   -64324   -64429   -64621   -64859 
  -65059   -65180   -65258   -65315   -65291   -65142   -64906   -64616 
  -64269   -63909   -63611   -63428   -63361   -63348   -63368   -63459 
  -63586   -63669   -63705   -63747   -63787   -63773   -63720   -63677 
  -63628   -63559   -63508   -63466   -63386   -63280   -63178   -63111 
  -63098   -63109   -63114   -63090   -62975   -62749   -62474   -62226 
  -62006   -61753   -61441   -61087   -60724   -60411   -60171   -59990 
  -59853   -59688   -59406   -59030   -58647   -58316   -58081   -57955 
  -57912   -57938   -58018   -58133   -58275   -58427   -58610   -58885 
  -59272   -59773   -60390   -61103   -61860   -62568   -63170   -63691 
  -64175   -64647   -65097   -65466   -65735   -65941   -66134   -66386 
  -66745   -67222   -67774   -68267   -68616   -68858   -69047   -69234 
  -69466   -69733   -69999   -70251   -70472   -70608   -70626   -70571 
  -70512   -70470   -70410   -70334   -70282   -70231   -70137   -70025 
  -69912   -69797   -69693   -69584   -69443   -69282   -69127   -69003 
  -68899   -68795   -68675   -68522   -68380   -68291   -68226   -68179 
  -68186   -68226   -68240   -68241   -68299   -68474   -68775   -69146 
  -69472   -69685   -69832   -69982   -70144   -70350   -70625   -70894 
  -71086   -71206   -71288   -71409   -71610   -71847   -72099   -72346 
  -72505   -72539   -72500   -72471   -72473   -72432   -72351   -72334 
  -72409   -72518   -72615   -72718   -72869   -73005   -73020   -72960 
  -72937   -72978   -73058   -73150   -73230   -73265   -73223   -73086 
  -72879   -72667   -72472   -72254   -72009   -71741   -71454   -71223 
  -71089   -70987   -70876   -70764   -70636   -70490   -70343   -70208 
  -70119   -70079   -70053   -70012   -69900   -69701   -69493   -69322 
  -69163   -69010   -68869   -68737   -68579   -68320   -67960   -67594 
  -67278   -66998   -66706   -66395   -66138   -65961   -65827   -65724 
  -65653   -65617   -65608   -65557   -65433   -65306   -65239   -65256 
  -65350   -65474   -65593   -65708   -65779   -65733   -65568   -65354 
  -65150   -64991   -64928   -65035   -65322   -65697   -66074   -66410 
  -66707   -67012   -67333   -67649   -67958   -68255   -68559   -68903 
  -69285   -69709   -70166   -70598   -71013   -71443   -71843   -72147 
  -72355   -72527   -72707   -72875   -73018   -73159   -73290   -73346 
  -73277   -73129   -73014   -73003   -73128   -73340   -73481   -73477 
  -73386   -73273   -73167   -73052   -72913   -72805   -72752   -72699 
  -72633   -72626   -72724   -72880   -73015   -73099   -73170   -73314 
  -73574   -73857   -74053   -74172   -74259   -74292   -74239   -74158 
  -74129   -74160   -74209   -74221   -74177   -74104   -73996   -73826 
  -73612   -73368   -73078   -72742   -72385   -72028   -71645   -71207 
  -70743   -70292   -69864   -69481   -69170   -68916   -68670   -68382 
  -68042   -67672   -67274   -66842   -66427   -66097   -65860   -65673 
  -65481   -65261   -65050   -64893   -64779   -64661   -64522   -64357 
  -64137   -63891   -63701   -63567   -63442   -63333   -63210   -63012 
  -62781   -62617   -62564   -62611   -62703   -62782   -62876   -63034 
  -63229   -63398   -63556   -63778   -64057   -64332   -64585   -64760 
  -64822   -64832   -64805   -64766   -64841   -65068   -65369   -65687 
