Origin Time       2011/03/11 14:46:00
Lat.              38.103
Long.             142.860
Depth. (km)       24
Mag.              9.0
Station Code      SIG010
Station Lat.      34.9719
Station Long.     135.8965
Station Height(m) 111
Record Time       2011/03/11 14:49:23
Sampling Freq(Hz) 100Hz
Duration Time(s)  203
Dir.              E-W
Scale Factor      3920(gal)/6182761
Max. Acc. (gal)   4.626
Last Correction   2011/03/11 14:49:08
Memo.             
[...]
   -2960    -2953    -2931    -2942    -2978    -2980    -2956    -3038 
   -3173    -3174    -3141    -3180    -3169    -3110    -3048    -2929 
   -2811    -2744    -2616    -2447    -2378    -2340    -2257    -2216 
   -2148    -2060    -2088    -2064    -1958    -1929    -1868    -1741 
   -1624    -1521    -1427    -1336    -1261    -1184    -1159    -1162 
   -1081    -1025    -1046    -1041    -1019     -990     -944     -948 
    -978     -940     -901     -931     -961     -987    -1016    -1038 
   -1069    -1050    -1029    -1080    -1106    -1131    -1218    -1247 
   -1242    -1345    -1430    -1439    -1591    -1732    -1714    -1840 
   -2006    -2029    -2133    -2278    -2311    -2347    -2452    -2514 
   -2537    -2620    -2689    -2725    -2799    -2831    -2822    -2885 
   -2959    -2955    -2962    -3041    -3091    -3081    -3106    -3172 
   -3241    -3302    -3364    -3416    -3437    -3479    -3510    -3493 
   -3473    -3420    -3359    -3291    -3187    -3145    -3096    -2973 
   -2938    -2923    -2805    -2740    -2748    -2675    -2584    -2531 
   -2438    -2358    -2326    -2274    -2200    -2140    -2123    -2127 
   -2096    -2063    -2126    -2186    -2178    -2250    -2311    -2332 
   -2430    -2476    -2514    -2592    -2579    -2570    -2584    -2525 
   -2483    -2433    -2288    -2140    -2002    -1814    -1623    -1452 
   -1282    -1128     -975     -855     -774     -675     -651     -668 
    -630     -657     -684     -654     -705     -793     -843     -849 
    -874     -977    -1029    -1081    -1215    -1277    -1329    -1453 
   -1539    -1605    -1704    -1801    -1869    -1942    -2046    -2116 
   -2138    -2249    -2411    -2431    -2463    -2607    -2688    -2772 
   -2887    -2954    -3053    -3122    -3125    -3179    -3241    -3240 
   -3204    -3166    -3179    -3199    -3170    -3218    -3337    -3401 
   -3487    -3641    -3788    -3937    -4103    -4249    -4380    -4532 
   -4722    -4887    -4972    -5085    -5251    -5334    -5398    -5568 
   -5703    -5730    -5803    -5901    -5927    -5978    -6034    -6043 
   -6094    -6135    -6105    -6078    -6066    -6039    -5949    -5830 
   -5786    -5701    -5512    -5373    -5227    -5022    -4861    -4663 
   -4385    -4157    -3955    -3692    -3438    -3237    -3018    -2798 
   -2582    -2355    -2183    -2016    -1800    -1619    -1451    -1260 
   -1123    -1010     -883     -808     -779     -774     -812     -891 
    -999    -1103    -1218    -1346    -1461    -1589    -1715    -1816 
   -1896    -1953    -2042    -2121    -2093    -2074    -2108    -2047 
   -1963    -1926    -1810    -1690    -1625    -1490    -1390    -1377 
   -1263    -1156    -1231    -1231    -1122    -1187    -1259    -1176 
   -1171    -1218    -1192    -1155    -1090    -1030    -1011     -952 
    -884     -863     -859     -887     -952    -1016    -1112    -1222 
   -1335    -1505    -1687    -1839    -1995    -2214    -2480    -2637 
   -2768    -3018    -3177    -3294    -3473    -3534    -3581    -3635 
   -3583    -3517    -3409    -3271    -3141    -2955    -2779    -2597 
   -2365    -2177    -2011    -1839    -1691    -1536    -1420    -1323 
   -1173    -1098    -1099    -1061    -1041    -1074    -1106    -1166 
   -1261    -1344    -1478    -1639    -1730    -1850    -2026    -2152 
   -2256    -2365    -2473    -2620    -2781    -2922    -3005    -3036 
   -3213    -3428    -3421    -3468    -3647    -3658    -3660    -3780 
   -3855    -3899    -3968    -4032    -4067    -4100    -4135    -4144 
   -4135    -4097    -4054    -4014    -3962    -3890    -3767    -3692 
   -3658    -3543    -3453    -3474    -3458    -3345    -3320    -3362 
   -3309    -3300    -3344    -3292    -3200    -3169    -3145    -3039 
   -2976    -2935    -2809    -2704    -2619    -2536    -2426    -2254 
   -2167    -2113    -1971    -1842    -1728    -1586    -1454    -1307 
   -1172    -1070     -940     -758     -573     -463     -361     -217 
     -75       68      162      274      454      560      635      762 
     889      966      957      924      894      843      768      628 
     449      264       66     -169     -445     -693     -930    -1190 
   -1463    -1748    -1947    -2122    -2384    -2538    -2627    -2803 
   -2908    -2990    -3140    -3255    -3381    -3525    -3602    -3658 
   -3776    -3869    -3835    -3838    -3888    -3830    -3794    -3778 
   -3721    -3710    -3683    -3670    -3619    -3504    -3613    -3653 
   -3467    -3603    -3680    -3504    -3648    -3695    -3588    -3749 
   -3798    -3761    -3858    -3903    -3942    -4015    -4037    -4027 
   -3997    -3988    -4018    -3960    -3801    -3694    -3616    -3434 
   -3209    -3039    -2852    -2640    -2417    -2146    -1889    -1626 
   -1361    -1136     -906     -697     -496     -294     -136       -8 
     106      210      251      260      294      277      234      208 
      93      -61     -112     -201     -406     -536     -657     -859 
   -1018    -1149    -1254    -1398    -1595    -1669    -1710    -1800 
   -1905    -2021    -2051    -2100    -2154    -2097    -2098    -2072 
   -2000    -1983    -1900    -1813    -1759    -1671    -1575    -1499 
   -1428    -1311    -1226    -1186    -1139    -1123    -1092    -1076 
   -1104    -1093    -1103    -1172    -1220    -1242    -1298    -1368 
   -1421    -1496    -1577    -1698    -1852    -1871    -1855    -2054 
   -2253    -2222    -2333    -2594    -2636    -2726    -2912    -2963 
   -3033    -3082    -3112    -3174    -3159    -3157    -3165    -3131 
   -3122    -3098    -3064    -3028    -2959    -2919    -2882    -2831 
   -2798    -2729    -2676    -2692    -2705    -2694    -2708    -2768 
   -2827    -2902    -3034    -3165    -3240    -3329    -3558    -3766 
   -3842    -4023    -4182    -4217    -4359    -4432    -4425    -4522 
   -4501    -4426    -4427    -4344    -4253    -4170    -4044    -3929 
   -3709    -3495    -3360    -3092    -2822    -2600    -2299    -2015 
   -1735    -1463    -1210     -928     -691     -483     -272      -88 
      79      218      336      464      626      769      827      875 
    1010     1125     1090     1120     1257     1211     1172     1249 
    1195     1162     1162     1079     1033      942      800      733 
     673      543      400      333      263      150       62      -61 
    -199     -263     -324     -412     -477     -543     -625     -661 
    -666     -695     -705     -723     -785     -796     -786     -850 
    -950    -1035    -1091    -1178    -1330    -1453    -1576    -1774 
   -1930    -2015    -2139    -2325    -2489    -2585    -2708    -2852 
   -2949    -3090    -3230    -3320    -3470    -3549    -3576    -3704 
   -3744    -3742    -3826    -3828    -3812    -3875    -3914    -3924 
   -3954    -4028    -4085    -4088    -4121    -4192    -4255    -4294 
   -4317    -4355    -4392    -4412    -4443    -4485    -4509    -4496 
   -4470    -4413    -4288    -4200    -4163    -4031    -3869    -3803 
   -3708    -3554    -3502    -3446    -3311    -3284    -3272    -3222 
   -3292    -3341    -3352    -3491    -3649    -3711    -3828    -4089 
   -4253    -4366    -4630    -4802    -4940    -5220    -5390    -5517 
   -5724    -5854    -5968    -6097    -6132    -6094    -6033    -5950 
   -5781    -5540    -5304    -5015    -4665    -4330    -4010    -3663 
   -3297    -2982    -2655    -2287    -1992    -1678    -1325    -1050 
    -744     -409     -129      164      441      663      870     1087 
    1258     1358     1482     1580     1590     1575     1513     1432 
    1344     1200     1064      903      692      537      356      109 
     -59     -235     -489     -604     -675     -920    -1068    -1118 
   -1291    -1360    -1346    -1438    -1482    -1426    -1395    -1393 
   -1327    -1213    -1095     -916     -729     -569     -349     -102 
     129      371      634      906     1160     1398     1641     1909 
    2140     2312     2488     2587     2603     2620     2581     2446 
    2259     2031     1700     1286      888      445      -73     -560 
   -1050    -1576    -2091    -2570    -2989    -3456    -3931    -4285 
   -4640    -4949    -5145    -5382    -5587    -5702    -5803    -5862 
   -5879    -5838    -5780    -5791    -5783    -5754    -5769    -5801 
   -5867    -5883    -5852    -5965    -6045    -5943    -5955    -6003 
   -5909    -5916    -5944    -5917    -5996    -6009    -5999    -6113 
   -6161    -6206    -6342    -6425    -6520    -6665    -6767    -6882 
   -6977    -6995    -7052    -7106    -7050    -6975    -6873    -6659 
   -6425    -6202    -5897    -5536    -5178    -4766    -4316    -3878 
   -3415    -2952    -2489    -1990    -1525    -1112     -673     -221 
     141      451      813     1138     1383     1650     1904     2070 
    2214     2368     2489     2567     2613     2643     2675     2645 
    2555     2532     2472     2252     2077     1928     1608     1316 
    1105      741      331        8     -321     -697    -1086    -1398 
   -1695    -2048    -2353    -2619    -2894    -3130    -3331    -3512 
   -3674    -3816    -3947    -4100    -4195    -4269    -4399    -4437 
   -4478    -4585    -4586    -4647    -4739    -4701    -4718    -4751 
   -4733    -4733    -4687    -4663    -4698    -4675    -4620    -4609 
   -4624    -4622    -4597    -4586    -4589    -4575    -4531    -4453 
   -4369    -4301    -4244    -4159    -4038    -3958    -3922    -3864 
   -3786    -3702    -3655    -3667    -3601    -3488    -3475    -3415 
   -3260    -3145    -2993    -2751    -2523    -2351    -2111    -1785 
   -1540    -1252     -913     -698     -394      -80      116      419 
     705      876     1060     1192     1210     1313     1529     1527 
    1467     1526     1422     1299     1255     1120      979      863 
     678      470      327      228      126       41       43       85 
      47       81      245      346      488      698      773      818 
     920      938     1033     1165     1060     1084     1183     1060 
    1181     1259     1121     1359     1482     1398     1562     1545 
    1445     1444     1316     1224     1077      805      558      242 
    -168     -551     -887    -1304    -1784    -2224    -2695    -3166 
   -3552    -3902    -4222    -4559    -4884    -5103    -5504    -5906 
   -5917    -6153    -6504    -6337    -6381    -6750    -6577    -6331 
   -6522    -6355    -5941    -5953    -5882    -5504    -5282    -5082 
   -4649    -4260    -4030    -3737    -3367    -3087    -2850    -2494 
   -2184    -2048    -1787    -1475    -1464    -1384    -1004     -858 
    -956     -932     -972    -1106    -1243    -1443    -1589    -1842 
   -2070    -2156    -2581    -2905    -2850    -3072    -3356    -3413 
   -3566    -3802    -3893    -3822    -3877    -4056    -4006    -3993 
   -4188    -4141    -3970    -3984    -4001    -3940    -3892    -3817 
   -3569    -3299    -3196    -3019    -2736    -2626    -2666    -2368 
   -1882    -2074    -2062    -1367    -1652    -1969    -1107     -963 
   -1313     -705     -304     -655     -580     -195     -391     -678 
    -501     -543     -977    -1052     -961    -1371    -1803    -1774 
   -1937    -2482    -2769    -2878    -3313    -3739    -3767    -3951 
   -4383    -4545    -4627    -4795    -4915    -4976    -4920    -5001 
   -5102    -4896    -4917    -5121    -4890    -4624    -4662    -4529 
   -4219    -4182    -4200    -3956    -3847    -3924    -3746    -3465 
   -3437    -3448    -3208    -2967    -2921    -2730    -2421    -2335 
   -2189    -1843    -1702    -1642    -1464    -1437    -1299    -1123 
   -1417    -1426    -1113    -1403    -1573    -1386    -1696    -1982 
   -1854    -2041    -2448    -2390    -2361    -2819    -2931    -2731 
   -2870    -2836    -2493    -2424    -2442    -2072    -1725    -1794 
   -1739    -1505    -1545    -1490    -1111    -1070    -1298     -934 
    -621    -1108    -1090     -517     -795     -952     -291     -333 
    -689     -139      131     -301     -150      258       35     -160 
       3     -175     -522     -480     -545     -963    -1136     -986 
    -946    -1205    -1365    -1179    -1271    -1460    -1211    -1229 
   -1314     -823     -675     -943     -624     -396     -719     -452 
    -155     -681     -639     -133     -539     -883     -515     -703 
   -1213    -1056    -1028    -1465    -1433    -1200    -1526    -1853 
   -1814    -1962    -2248    -2229    -2199    -2416    -2475    -2458 
   -2710    -2942    -2986    -2985    -3153    -3481    -3580    -3660 
   -3973    -4137    -4243    -4491    -4576    -4518    -4616    -4772 
   -4758    -4700    -4719    -4638    -4461    -4334    -4111    -3821 
   -3685    -3422    -2998    -2796    -2560    -2236    -2247    -2217 
   -1913    -1977    -2269    -2103    -1999    -2321    -2357    -2278 
   -2554    -2755    -2815    -3127    -3588    -3776    -3915    -4336 
   -4565    -4585    -4798    -4890    -4744    -4685    -4632    -4376 
   -4107    -4054    -4030    -3855    -3761    -3817    -3706    -3500 
   -3473    -3359    -3095    -3065    -3098    -2904    -2789    -2812 
   -2726    -2663    -2624    -2542    -2596    -2623    -2613    -2736 
   -2793    -2985    -3302    -3439    -3730    -4082    -4296    -4650 
   -4939    -5090    -5498    -5902    -6067    -6510    -6999    -7232 
   -7657    -8071    -8349    -8641    -8890    -9196    -9308    -9291 
   -9436    -9469    -9404    -9347    -9175    -8952    -8706    -8440 
   -8129    -7671    -7126    -6583    -5999    -5346    -4673    -4044 
   -3428    -2804    -2212    -1650    -1127     -641     -197      173 
     548      925     1235     1538     1781     1932     2074     2166 
    2200     2203     2167     2137     2068     1949     1879     1842 
    1748     1662     1597     1415     1258     1146      871      640 
     500      231      -86     -353     -607     -906    -1196    -1410 
   -1644    -1889    -2094    -2283    -2436    -2565    -2687    -2808 
   -2965    -3109    -3200    -3312    -3411    -3404    -3437    -3567 
   -3635    -3729    -3858    -3942    -4172    -4387    -4455    -4750 
   -5038    -5130    -5483    -5797    -5937    -6376    -6773    -7031 
   -7411    -7657    -7886    -8236    -8429    -8535    -8733    -8860 
   -8889    -8993    -9033    -8971    -8943    -8805    -8619    -8423 
   -8070    -7793    -7572    -7181    -6873    -6606    -6229    -6021 
   -5776    -5446    -5307    -5020    -4652    -4408    -4075    -3800 
   -3532    -3150    -2843    -2583    -2277    -1940    -1646    -1363 
   -1028     -760     -565     -350     -164      -19      154      325 
     420      495      588      609      597      674      722      632 
     561      524      376      260      253      126      -37      -53 
    -169     -413     -544     -675     -899    -1125    -1265    -1305 
   -1518    -1812    -1848    -1978    -2293    -2411    -2490    -2706 
   -2896    -3065    -3315    -3574    -3797    -4011    -4230    -4500 
   -4714    -4886    -5130    -5295    -5443    -5631    -5729    -5882 
   -6060    -6113    -6238    -6444    -6578    -6683    -6797    -6936 
   -7025    -7040    -7191    -7341    -7318    -7394    -7485    -7423 
   -7386    -7289    -7174    -7119    -6968    -6891    -6786    -6504 
   -6442    -6409    -6058    -5805    -5747    -5562    -5300    -5110 
   -4951    -4775    -4589    -4397    -4215    -4042    -3900    -3778 
   -3573    -3345    -3193    -3026    -2828    -2646    -2478    -2357 
   -2212    -2035    -1938    -1819    -1696    -1645    -1514    -1446 
   -1489    -1404    -1349    -1414    -1391    -1339    -1355    -1311 
   -1179    -1106    -1024     -839     -762     -732     -497     -306 
    -219       30      231      397      740      936     1063     1373 
    1548     1631     1783     1820     1945     2039     1834     1860 
    1843     1493     1458     1312      952      860      611      324 
     133     -155     -342     -625     -927    -1077    -1384    -1722 
   -2004    -2380    -2742    -3113    -3529    -3888    -4216    -4614 
   -5002    -5242    -5562    -5944    -6098    -6349    -6635    -6578 
   -6638    -6847    -6869    -6853    -6863    -6892    -6787    -6676 
   -6670    -6468    -6303    -6168    -5934    -5796    -5527    -5240 
   -5076    -4842    -4629    -4466    -4382    -4363    -4299    -4183 
   -4083    -4147    -4134    -3992    -4043    -3984    -3861    -3919 
   -3795    -3691    -3676    -3500    -3435    -3274    -3003    -2991 
   -2822    -2484    -2358    -2160    -1832    -1571    -1370    -1235 
   -1054     -893     -656     -364     -464     -333       46     -151 
      -2      385      137      203      380      178      261      298 
     144      172      153       70       22      -65     -155     -271 
    -437     -594     -730     -890    -1085    -1307    -1562    -1785 
   -2040    -2351    -2571    -2872    -3220    -3388    -3653    -3997 
   -4181    -4357    -4561    -4731    -4902    -5078    -5236    -5349 
   -5417    -5517    -5644    -5492    -5282    -5453    -5345    -4939 
   -4998    -4937    -4559    -4387    -4215    -4084    -3885    -3565 
   -3507    -3332    -2997    -2907    -2769    -2534    -2418    -2305 
   -2178    -2131    -2075    -1937    -1837    -1770    -1622    -1489 
   -1357    -1117    -1009     -980     -761     -632     -499     -233 
    -183      -57      246      421      527      673      905      976 
     992     1218     1247     1185     1291     1262     1183     1134 
    1042     1008      907      765      723      660      586      534 
     456      411      425      457      460      497      621      705 
     782      940     1065     1163     1312     1423     1494     1620 
    1706     1725     1800     1867     1886     1923     1907     1829 
    1771     1691     1571     1450     1320     1224     1100      868 
     698      574      343       80     -147     -379     -659     -935 
   -1199    -1465    -1704    -1986    -2200    -2399    -2688    -2838 
   -3031    -3319    -3419    -3561    -3814    -3972    -4103    -4271 
   -4438    -4569    -4667    -4784    -4933    -5074    -5213    -5379 
   -5516    -5651    -5797    -5883    -5933    -5983    -6036    -6012 
   -5957    -5958    -5820    -5620    -5526    -5351    -5120    -4977 
   -4781    -4447    -4177    -3969    -3619    -3289    -3032    -2686 
   -2361    -2064    -1747    -1428    -1105     -833     -553     -291 
     -53      270      486      630      957     1193     1260     1460 
    1700     1893     2001     2067     2302     2407     2446     2640 
    2668     2709     2775     2679     2642     2609     2511     2404 
    2263     2100     1944     1756     1535     1376     1181      931 
     734      416      103       37     -264     -784     -909    -1152 
   -1658    -1829    -2132    -2490    -2646    -3021    -3253    -3415 
   -3717    -3835    -4009    -4182    -4260    -4447    -4523    -4583 
   -4738    -4688    -4611    -4688    -4668    -4568    -4370    -4192 
   -4316    -4166    -3797    -3905    -3865    -3579    -3608    -3619 
   -3546    -3560    -3570    -3606    -3667    -3715    -3776    -3850 
   -3885    -3903    -3965    -4069    -4131    -4091    -4135    -4232 
