Origin Time       2011/03/11 14:46:00
Lat.              38.103
Long.             142.860
Depth. (km)       24
Mag.              9.0
Station Code      SIT008
Station Lat.      35.9745
Station Long.     139.7526
Station Height(m) 5
Record Time       2011/03/11 14:47:39
Sampling Freq(Hz) 100Hz
Duration Time(s)  300
Dir.              U-D
Scale Factor      3920(gal)/6182761
Max. Acc. (gal)   100.526
Last Correction   2011/03/11 14:47:24
Memo.             
[...]
  -51355   -58233   -51658   -26779     3907    15792     3457   -10576 
   -9229    -1244    -1977    -8121    -9853   -10641   -12023    -7828 
     600     3853    -1909    -7710    -9251   -14586   -24879   -35964 
  -44811   -43394   -32134   -22189   -15746   -11250   -13283   -17554 
  -11782     2246    10989     8537     1221      641    10229    17352 
   15686    21413    37375    39941    22771     2522    -7624   -10618 
  -25423   -48301   -50731   -33928   -25334   -38928   -56583   -51902 
  -40040   -42616   -40976   -28782   -27267   -34411   -33459   -26743 
  -23194   -26616   -35496   -38850   -36879   -41674   -50107   -56369 
  -63945   -65963   -53795   -42415   -45074   -44250   -30819   -20770 
  -15343    -7364      287     5923     4601      798     7849    16031 
   17184    20029    20727    20325    26811    22710    -1824   -18001 
   -8363    -1328   -22175   -42248   -28936    -8922    -9975   -12853 
   -8843   -13634   -27199   -36434   -32692   -18777    -6554    -5389 
  -17439   -30858   -29789   -23307   -26993   -28443   -18000   -12262 
  -16173   -20452   -28281   -38235   -43601   -47979   -45963   -34217 
  -30978   -40678   -47466   -44481   -29550    -4801    14800    21579 
   21014    10192   -10705   -21743   -14918    -1629     9357     6089 
  -10037   -15321    -7776    -7645   -13381    -7784     5734     9188 
      24   -11147   -16273   -13577   -12117   -16665   -15871   -10544 
   -9205    -3054     4098    -4797   -17486   -11853     4349     8851 
    -635    -7267   -10896   -30367   -55080   -49887   -24271   -20469 
  -36565   -42688   -35476   -28165   -30098   -32405   -13165    18982 
   26434     6063     -399    20867    29939     4676   -18863    -4312 
   30738    48511    40651    19808    -1148   -15321   -26833   -31771 
  -17932    -9783   -31851   -44336   -18251    10588    13807    -2273 
  -19302   -15098     4747    11468     8608    16843    20736     2099 
  -15231   -14056   -18606   -38031   -46358   -36595   -27401   -29427 
  -46519   -67647   -59700   -24898    -5910    -8352   -15996   -30181 
  -37280   -30395   -18310     8277    33026    23838     3321     5235 
   17568    12495   -11423   -30574   -39801   -48617   -45082   -33784 
  -37296   -35979   -18023   -19539   -41474   -50889   -47894   -42989 
  -36982   -35476   -37118   -31193   -16826    -9122   -18110   -27557 
  -17146      155    -3504   -21033   -21007    -2349     6286    -6045 
  -18821   -10975     7265     9277   -10915   -36217   -44333   -29713 
  -14356   -20782   -39097   -37482    -6475    22739    22178    11242 
   19433    33881    24648      942      194    13234     1588   -21518 
  -33536   -43553   -44553   -29844   -20635   -23693   -21665   -16885 
  -24897   -32412   -29921   -27517   -14590     2977    -6389   -31340 
  -39584   -33432   -32363   -44002   -56752   -57862   -53186   -46292 
  -31093   -12571     5450    21921    21106     1815    -8556     4285 
   21901    15962   -14179   -35351   -32621   -23407   -17520   -17791 
  -23585   -21777   -11228    -4612    -2998     2222     9720     2857 
  -18263   -26159   -16054    -8967    -9976   -15858   -21168   -11971 
    2436    -4862   -25767   -32397   -27355   -25420   -22135   -14795 
   -9401      249    11124      546   -24961   -31209   -17142   -10072 
  -11455    -2417    13252    13788    -6014   -28138   -36235   -38675 
  -47335   -48042   -32870   -21881   -21168   -20866   -24325   -27353 
  -16161     3279    16428    18873    14280     7098    -3242    -8421 
    1980    14092    14309     6513    -6772   -13818   -10182   -19112 
  -38688   -50042   -63454   -70280   -50334   -27011   -17797   -17945 
  -34121   -47512   -34242   -21305   -26846   -32021   -33066   -30752 
  -18729   -11750   -17493    -9423    18436    29549    12236    -3937 
   -7654    -9179    -7659      311    14116    21625       79   -31543 
  -29583   -11992   -18111   -31351   -27550   -14795    -1620    11067 
   15065     1372   -14313   -12131   -11352   -21776   -12973     7897 
    1721   -16576   -13790    -5866   -12886   -26102   -35135   -29230 
   -8891    -4185   -26535   -41753   -36314   -35019   -41564   -43915 
  -38470   -20851    -2965     4849    18389    30736    17160    -2759 
    1747    22533    41426    45289    23680    -6567    -8712    22820 
   44272    23404   -10652   -25829   -36926   -53584   -57346   -45661 
  -36761   -38525   -42749   -43172   -38693   -27872   -22013   -32524 
  -40504   -22447     7532    14646    -8191   -31719   -33643   -25814 
  -20482   -15001   -20814   -34746   -24027    -4512   -16558   -25796 
   -2012     4857   -14498    -8302    11741     2266   -22041   -33783 
  -28433    -7988     5171    -3878    -8918    -1520    -3789    -4976 
    7372     5323   -19753   -44549   -55279   -41075    -9347    -1276 
  -23658   -32934   -23246   -25844   -29478   -13285    -2766   -12693 
  -24444   -36683   -49105   -40931   -19775   -19759   -39295   -49289 
  -51313   -63817   -79003   -78289   -55149   -30268   -34621   -49218 
  -40105   -26650   -27935   -27938   -22263   -15706    -6901    -8117 
  -25156   -31357   -14193    -5217   -10220     7515    32298    17225 
  -10872    -8456     4068     2146    -4794    -8978   -11421    -9474 
   -6138    -5703    -1981      404    -6105    -4689    10976    15570 
    -384   -10386    -1284     8536    13784    22812    27661    18031 
   -3468   -23872   -28302   -21287   -17641   -12368    -5052   -15274 
  -34691   -38194   -36029   -42911   -43296   -23890    -7931   -27212 
  -51884   -36790   -23903   -52146   -75686   -72988   -63530   -47843 
  -39853   -41851   -27251   -17506   -35678   -41560   -25868   -22065 
  -24185   -14449     9600    41306    45429    18026     9175    21787 
   18981     9997    11664      999   -29422   -44438   -23401     5031 
   10588     7796    14164    16122     7637    -5733   -22158   -31452 
  -34605   -43363   -47728   -40519   -35771   -31964   -22334   -18758 
  -14390     3366    12657     2173    -9215   -15479   -20836   -22311 
  -28117   -47696   -63200   -63930   -69503   -75976   -59665   -37162 
  -30474   -27501   -26549   -27378   -10391    11814    16705    14819 
    8259    -2330    -6103   -11789   -17600   -18541   -35788   -58736 
  -53308   -31473   -19110   -17197   -23222   -28301   -23369   -19134 
  -21832   -28681   -38392   -38813   -30310   -30145   -31859   -23719 
  -16217   -11617    -5678   -10926   -31927   -48497   -41428   -18922 
   -8540   -16469   -21839   -20655   -23841   -27555   -26569   -26345 
  -36076   -50715   -49819   -33508   -17123    -7190    -7552    -3700 
   17907    31596    22375    12608     8034    -5186   -18598   -18023 
  -18238   -26700   -19185     5032    16825    13857    19511    38357 
   44646    23320    -2037   -10328   -10757    -7389     8597    24735 
   23246    11258    -2415   -15540   -18900   -16295   -26439   -46962 
  -51651   -29319    -5908    -3295    -2883     1702   -12405   -33264 
  -30070   -10909     -316    -9763   -35030   -45296   -27975   -19204 
  -19021     5255    29200    26825    16443     1810   -15587   -21584 
  -24183   -26716   -19725   -24098   -52562   -69345   -56241   -44311 
  -48169   -38418    -7417     3661   -13674   -19411    -5670    11144 
   26447    29392    22353    21013    20109    14322     8409     5392 
    8288     2753   -18047   -31086   -37694   -52987   -60051   -50937 
  -41227   -36183   -30095   -14758     3137     3653    -2988     7170 
   19184     8900    -8171   -10814   -14831   -27046   -22084    -4276 
    -542    -3968      122    -1598   -19060   -33192   -24822    -5355 
   -6440   -30512   -39364   -27597   -24867   -23935   -10474      508 
    5174     6257    -5439   -18162   -15182   -14890   -27258   -29922 
  -14652     1429     4397    -1443    -7928   -10475    -6619   -13366 
  -35571   -37770   -18061   -17293   -26238   -13039     3477     7148 
   12409    23825    35700    35515    23055    18398    17233      291 
  -26925   -40784   -31335   -21762   -32221   -56898   -81599   -86759 
  -77427   -85000   -99125   -83068   -53947   -48161   -48693   -32291 
  -11297     9975    29171    33985    37398    41117    15053   -22194 
  -21945    -5554   -17147   -42101   -52612   -49804   -45445   -41742 
  -23954     6737    17831     3602    -4617     3937    20344    39587 
   49604    43956    34601    27848    24045    30946    44113    46807 
   34336    15923     5759     5438      614    -7107    -3844    -2824 
  -27022   -62203   -72843   -55555   -39686   -41643   -49070   -44155 
  -31918   -34996   -55498   -73806   -74391   -59720   -58028   -79366 
  -87564   -73265   -66899   -63808   -50637   -46062   -50410   -55484 
  -66126   -58771   -23446    -6031   -22388   -32276   -25433   -21784 
  -16019    -6167    -9380   -20381   -25005   -26777   -21981    -8620 
   -6848   -19831   -28011   -23758   -10002    -5202   -27778   -51657 
  -46640   -29492   -22698   -29053   -48650   -71315   -72184   -39237 
   -3596    -1859   -16656   -23141   -27056   -24383   -14436    -9062 
   -8920   -22250   -42398   -35309   -11333   -10012   -30105   -50079 
  -46578   -14788      890   -12885   -10660     3265    -5595   -19584 
  -19493   -13137    -5957    -2833     2934    18100    23834    13245 
    7880    15100    17887     6265   -10602   -18250    -9453     4888 
    5358   -12049   -33588   -38811   -27205   -22518   -35825   -58202 
  -71872   -63458   -44440   -29640   -18636   -11408    -5032     6483 
   14894     9956     5840    14940    14924    -5509   -17377    -8494 
   -3972   -21710   -47644   -45318    -9828    16552    19176     7974 
  -19339   -38716   -34314   -32151   -33123   -21125   -12070   -15338 
  -15946   -14971   -22316   -25435   -16715   -14561   -25034   -32136 
  -27185   -13684    -4605   -13047   -25393   -16920     2874     9344 
    1907   -10158   -18801   -20291   -21731   -18163    -4286    -2543 
  -19912   -32988   -33566   -28185   -21072   -16772   -16625   -22722 
  -33247   -36701   -34178   -41226   -57086   -65197   -60189   -48151 
  -43423   -57078   -70618   -71440   -74384   -76908   -68446   -55953 
  -48682   -46648   -36044   -16146   -10160   -22900   -33661   -25116 
   -3325     5158   -11422   -33165   -31543    -7835     1155   -17393 
  -31484   -22391    -6727    -3331    -9016    -7339     3900    13299 
   20793    31202    31555    13253      619     4272     -220   -11017 
  -12825   -15836   -20169   -19142   -11965     7524    22792    18714 
   12704     2581   -15127   -13254    -3124   -10919   -15271   -12096 
  -19455   -20734    -8837    -4853    -8976    -6559     2774     7423 
   -4021   -31413   -58162   -66121   -57275   -48232   -51743   -60901 
  -55655   -40616   -27964    -8893     3654    -8932   -14989    10251 
   39362    51708    47460    36320    46553    71436    78085    80642 
   88622    69650    23689   -13652   -29844   -38682   -50456   -59089 
  -61238   -65282   -67834   -55442   -33961   -30126   -45394   -43059 
  -23049   -18617   -17104    -1042    15829    23863     6891   -24236 
  -33507   -42436   -62196   -49272   -25727   -39235   -45961   -12325 
    8609    -6298   -24554   -35478   -39901   -39654   -40408   -34078 
  -33751   -57224   -70566   -48453   -19411    -5317     1547     9416 
    6132   -17393   -29955   -13554     1612    -5464   -30833   -52365 
  -44027   -22655   -23154   -35569   -29013   -12470   -18041   -36173 
  -31558   -15533   -23151   -39406   -30514    -7862     3639     4629 
    1725     2118     8768    10647     6583    -2613   -16700    -9123 
   19592    21695    -9699   -32811   -36505   -36600   -24637    -4200 
   -5079   -21047   -26904   -16532    10113    31219    17320    -1334 
   23269    50101    23054   -18716   -26414   -12231     1170     7242 
    6149    -4409   -18852   -17924    -4319    -1112   -10501   -18421 
  -13367     2598     8284      951     5823    22487    24056     5122 
  -14422    -7975    24433    30510    -5899   -18678     2923     1755 
  -16102   -21804   -30602   -43206   -43691   -43805   -61202   -85320 
  -86297   -55054   -25049   -21861   -31688   -48581   -59022   -35124 
  -10041   -16271   -10912    27731    67733    81125    59020    25632 
   11937     9767     1829   -10814   -25246   -41430   -57106   -63693 
  -51606   -25219   -10102   -26856   -43349   -23713   -12676   -40493 
  -48936   -27579   -19451    -9844    -3593   -30672   -52409   -50208 
  -53477   -61046   -69461   -79416   -85143   -98327  -113248  -102433 
  -67829   -34093    -9819     4881     1722    -9588    -8914    -5179 
   -3663    14484    40542    48317    43434    36661    20417     -520 
   -9479    -4785     4877    11655     2435   -29010   -60855   -69488 
  -58443   -40891   -31082   -30615   -14769     8254     1427      186 
   48034    86031    66532    23765   -14506   -29576    -9936     5267 
   -7568   -21754   -32857   -53365   -67977   -67096   -72661   -89279 
  -84161   -49754   -17587    -7767   -14608   -12385    14881    38399 
   28889    10434    17478    35778    34667    13649    -9346   -10747 
   13623    30955    28373    29035    37487    43401    40322    23029 
    2356   -14476   -32078   -35990   -15223    15318    38971    39788 
   16638     2080    11759    23682    38282    72825    99561    89234 
   74193    73513    58268    36752    25224   -14978   -84211  -121276 
 -120964  -125506  -130250  -118636  -121006  -153610  -173739  -144841 
  -85045   -30376     5067    11513   -13711   -28062    -4260    17558 
   22262    35663    43132    22268    -4047    -1754    22568    17190 
  -25318   -44565   -31799   -32316   -54281   -74623   -74101   -71641 
  -92105   -96810   -65377   -36079   -10908    24343    52485    64696 
   70167    75769    73623    63810    70896    84303    60762    11792 
  -15191   -18601   -32953   -69232  -101014  -107941  -107426  -120793 
 -138520  -137920  -120548  -114186  -109667   -70588   -30163   -31700 
  -30206    10483    48292    59074    72697    91759    87929    69027 
   61570    65200    66646    65833    69550    59277    12556   -40965 
  -63034   -61596   -52112   -39677   -29060   -15141     7673    32417 
   42165    34336    36718    57491    60343    40408    40995    58715 
   47818    14346    -5642    -5767      507   -10379   -36661   -45339 
  -47712   -65522   -59507   -16645     6984   -18813   -59185   -69699 
  -49682   -15148    31852    61389    47613    27690    22458     8214 
    -829    14618    28482    21544     -887   -14699    -4816     7920 
   18371    23383    -2228   -49599   -93668  -120085  -112517   -78978 
  -52574   -44893   -34549   -24187   -41971   -68845   -64567   -36164 
  -16124   -13914    -9945     6655    18677     4110   -44292   -95915 
 -102798   -78467   -71838   -72236   -52580   -41387   -55616   -63182 
  -59442   -57878   -34744    10358    40219    46508    36981    25388 
   32491    40109    24128    -2240   -28986   -40657   -17978     8832 
   11294     3221   -13679   -38289   -48541   -43730   -38520   -32493 
  -34589   -50739   -55711   -53990   -69724   -81018   -71181   -45958 
   -8390    21481    33910    35140    24909    14024    11497    12163 
    7551   -18750   -66649   -99187   -88303   -54066   -33943   -39535 
  -57093   -68010   -64988   -56957   -56850   -61083   -46734   -10312 
   21786    40383    52941    54220    40953    21261     2763   -20726 
  -57892   -76845   -45138    -4908    -4788   -27460   -35815   -12170 
   31850    56370    40854    16068     4395    -8603   -10832     9321 
    8208   -28000   -44995   -21233     3549     8624    10479    16882 
   21710    13940   -11459   -26883    -8873    14343    18352    22729 
   30799    20294     2067   -12018   -33705   -34444    -7754   -26305 
  -92519  -121421   -94012   -39877    24770    58234    37926    18466 
   39835    63750    52263    14306   -22761   -34965   -37655   -65094 
  -88358   -68689   -42844   -46273   -71171  -105012  -116685   -98965 
  -95114  -104396   -91694   -75999   -82235   -89202   -75677   -37746 
    7606    21062    -5962   -34157   -31081   -10984    -4346   -10311 
  -10715    -2558      569   -10213   -17804   -13861   -21872   -35315 
  -32088   -36655   -49020   -29219     4234    13098    13351    14066 
   -1472   -19671   -18669    -4643     8583     5281   -18580   -32011 
  -20646   -16863   -23817    -7137    14788    -5428   -40711   -32904 
    4842    28679    31159    17852    -6447   -21834   -15015    -9832 
  -25689   -32425   -13589     3389     9182    12673    16792    11537 
  -20561   -49399   -37974   -16268    -6887     1286     1223     1099 
   23791    50648    42329     3668   -11359    11864    20960     6387 
    9161    17626      134   -24567   -38410   -46218   -36487    -6964 
   16526    22409    10106   -25847   -58539   -50851   -20604    -4092 
    2542    15404    29648    33036    26410    23544    28841    33166 
   38441    43641    23757   -15922   -28170   -20238   -38803   -55416 
  -29881     -738      107   -21115   -51296   -54508   -24599     1647 
    9102   -10527   -47858   -66883   -75013   -77096   -52259   -40832 
  -61460   -60414   -38183   -29013   -29650   -36824   -43215   -36477 
  -27430   -23155    -8863    18403    35210    28197     5252   -24270 
  -39212   -30003   -24893   -37229   -56347   -80853   -92483   -68186 
  -34822   -27623   -33023   -35404   -37467   -27184    -5730     9931 
   20481    14789    -7048    -1494    17712    -7494   -46424   -51472 
  -47711   -44853   -27687   -12371     -953    30089    61227    55063 
   35605    43574    66467    67628    36193     7321     9993     9755 
  -17253   -32513   -19630   -15086   -32935   -43749   -30730    -8122 
    4036       38    -3950     3323     4315    -9966    -7629    21912 
   34373    19367     9370     3441    -4728      585    13454    19224 
   21562    19952    14734    14874    19696    29588    42699    47865 
   47045    39441    23499    11332    -9340   -35625   -29796   -14950 
  -27996   -37348   -25571    -6528    14864    16743    -7614   -35836 
  -65884   -77557   -33317    18613     3168   -40441   -51164   -53279 
  -55163   -34483   -12784   -12720   -21289   -22148   -23988   -31997 
  -28344   -19862   -13397     1437     2037   -10262    -2931     4980 
     173      904    -3574     -175    20217     4193   -35463   -42033 
  -31159   -22856   -22181   -21923     2338    23442    23136    32653 
   39328    24472     5406   -21146   -34693    -8282      728   -31676 
  -46093   -54268   -92883  -121579  -126170  -131582  -126302   -93422 
  -38592    15415    42642    31569    -3548   -13287    19234    53972 
   77221    87255    76691    73526    80131    66307    37273    14886 
   14989    17642   -15454   -45052   -19874    16894    15314    -4616 
  -18516   -34823   -51275   -63449   -69181   -48435   -28414   -49461 
  -71636   -58010   -27033     4883    24440    24585    25834    36885 
   39175    29031    15818     4109     3005    12812     9826   -23053 
  -61028   -72669   -62753   -41508   -15610    -9714   -26917   -36288 
  -32757   -34898   -32249    -9336     3272   -19112   -32841   -10441 
    6857     5025    12577    34075    46961    33517    11654     1645 
