Origin Time       2011/03/11 14:46:00
Lat.              38.103
Long.             142.860
Depth. (km)       24
Mag.              9.0
Station Code      SIT013
Station Lat.      35.7966
Station Long.     139.4659
Station Height(m) 76
Record Time       2011/03/11 14:47:36
Sampling Freq(Hz) 100Hz
Duration Time(s)  300
Dir.              U-D
Scale Factor      3920(gal)/6182761
Max. Acc. (gal)   71.769
Last Correction   2011/03/11 14:47:21
Memo.             
[...]
   42601    47283    48522    44361    38523    36124    38079    41192 
   42386    40586    35686    28798    22624    19105    17474    16575 
   17438    20805    24783    26448    23718    17497    11728     9124 
    8950     8673     6276     2625      846     2338     5934    10270 
   14229    16501    15875    11517     4291    -1778    -1261     7818 
   20760    29331    30001    28000    30094    35405    37749    33717 
   24792    15586    10992    11106    10560     5607    -1420    -5707 
   -3999     4249    16428    28363    38076    47390    58217    68275 
   72788    68899    57539    43393    32123    25230    19150    10488 
     838    -3951     1142    15811    34245    49119    56353    57406 
   57302    59000    60759    59776    55776    50910    47019    43133 
   36895    28815    23749    25957    33237    39142    40082    37729 
   36533    39373    43648    44680    42999    42498    44042    46038 
   47439    48066    47766    44931    38431    31072    27065    27378 
   28257    24339    15870    10078    12496    20274    27048    31823 
   38452    48130    57321    61913    60479    55039    49492    45290 
   39650    29662    17390    10185    13228    23272    33060    38069 
   39492    43447    53230    63173    64712    57049    48261    45419 
   46867    46232    40662    33065    28381    29121    33793    38677 
   41370    41952    40608    37254    34065    34166    37761    43064 
   48267    50783    49291    46257    44414    42622    38388    32392 
   27638    25763    26431    29165    34161    41735    51598    62134 
   70676    75312    76249    74019    66355    50905    31715    17729 
   14007    17779    22984    26407    29420    34974    43798    53923 
   62324    66346    65511    62016    58081    52918    43164    27675 
   11413     1690      527     3164     3971     2193     1850     7245 
   19021    33325    44256    48336    46528    41636    36277    32376 
   29303    24924    19200    14285    11899    11798    13029    14637 
   14522    12441    13510    22919    38717    53662    61849    62231 
   58529    55328    52567    45790    32154    14185    -2257   -12813 
  -17072   -16507   -12298    -5523     3350    14442    26406    36576 
   42869    44402    41988    38176    35125    32248    27489    20093 
   11060     3608     2150     7471    14741    18820    19601    20102 
   22717    28752    37784    46955    52969    55268    56036    56589 
   55898    52494    45877    37380    29387    23105    19451    19211 
   20546    20475    18495    17455    20892    28159    33689    33298 
   30270    31403    37208    41546    40558    36743    34758    36485 
   39880    41959    42316    42139    41781    40748    38447    35118 
   31932    29580    27909    27392    29924    37245    48487    59459 
   64614    61656    54376    49355    49948    52490    49352    37708 
   23387    15221    16417    22099    25269    23494    19919    18620 
   19982    22092    24554    28634    34823    41323    45024    43768 
   37733    29363    21624    16239    13934    15094    19654    26655 
   34085    39958    43606    45655    47296    49642    52798    55428 
   56036    53962    48859    40824    31103    21593    13614     6666 
    -320    -5115    -2426    10714    30421    47223    54051    52227 
   48393    47501    48369    45789    37321    25613    15320    10102 
   10693    14866    19347    22025    23380    25130    27587    29587 
   30830    33013    37217    41159    41510    38383    34965    33310 
   32469    29739    23871    17424    13460    11661    11315    14177 
   20816    28725    35829    41240    43521    42326    39406    35859 
   31755    28601    27606    26739    23839    20142    17923    17564 
   18555    21160    25184    28626    30301    31590    33197    33454 
   30765    25384    19413    15602    15557    18823    22861    25321 
   26709    27827    26814    22574    17823    15814    16188    15835 
   13320    10806    11422    16293    23666    30249    34071    35217 
   34020    31189    29095    29393    29923    27166    21051    15400 
   14888    21842    33699    44296    49371    49297    47547    47540 
   48024    43751    32311    17393     6877     7172    17002    28519 
   34899    36281    38378    45570    56603    65875    66960    57630 
   43448    32920    29545    31375    33944    32217    25116    18322 
   18873    27569    38989    46937    47743    41869    34613    31275 
   31025    30041    28761    30400    34596    37014    34177    27636 
   24397    31103    44845    53591    49925    39759    34621    39329 
   47550    48331    37783    23231    16604    24531    41573    53760 
   52902    44499    38404    37161    36325    32142    26155    21769 
   19837    20859    26716    37401    48522    53887    52059    47843 
   46213    47506    46658    37882    22872    10718     9134    17996 
   29969    37841    42151    48703    59335    69482    73614    70143 
   61994    52928    43630    32423    19258     7940     2927     3791 
    5410     4042     1456     2617     9893    20246    28420    32394 
   33887    33825    32049    30740    32010    34291    35037    33781 
   32121    32724    36137    39259    39556    37696    36114    37960 
   44036    51013    55388    56015    53857    51694    50920    49455 
   44756    36712    28126    23063    22266    21358    15591     4715 
   -5468    -5497     9534    33457    52613    56776    48142    38882 
   39003    47392    53951    49594    35017    20265    14144    15114 
   15447    11382     5930     4110     8140    15725    21434    22534 
   22771    26382    31250    31321    23879    14034    10703    16784 
   26925    34887    38638    39549    40535    44181    50719    57247 
   59769    56886    50213    42712    36690    30066    18094     1766 
  -11389   -16110   -14007    -9742    -5004     3259    17693    34888 
   47035    49332    44820    40412    39152    38302    33205    22060 
    8069    -3007    -6600    -1800     7938    17778    24949    29623 
   33749    37022    36790    33671    31335    31474    33044    33742 
   31287    25468    19239    16565    17626    17282    11681     6265 
   11542    29108    47891    55977    52366    45998    44528    46419 
   44362    34176    19188     7112     4472    11402    20445    24342 
   23665    23649    26612    30380    32482    32065    29226    26439 
   27871    34495    41413    42346    36627    28230    20434    15340 
   13688    14224    16742    22116    28780    34517    39970    46213 
   51902    55318    56434    55524    50941    39905    22915     6302 
   -1902     1927    14474    27399    34417    36421    37625    39656 
   40154    35669    25946    15825    13564    23255    38683    50418 
   55412    56012    55168    54440    52353    44279    28485    11111 
     730     -310     3711     8688    14047    20752    29796    40836 
   50827    54380    48382    36877    26463    19635    15985    13897 
    9406    -1284   -16153   -26777   -25791   -13405     4936    24172 
   42715    60641    73569    74222    62155    46135    36196    34550 
   34763    29587    18495     8493     7256    15388    26158    32339 
   32250    28662    25227    23651    21603    17523    14876    16591 
   21818    27996    31340    30478    28921    30136    33709    36307 
   35567    33737    34996    39669    43231    41469    35673    30750 
   29842    32961    38011    40216    34236    21555    11368     8915 
    9327     7237     4001     3216     6103    10802    13819    14610 
   18143    29245    45503    59386    64784    60216    48842    36244 
   28292    26937    26957    22952    17544    18352    28758    43241 
   51858    47769    32425    16209     9582    12057    13221     3780 
  -14594   -28422   -24757    -5870    13029    19111    13269     9729 
   20957    43416    63385    70949    66352    57316    50155    44924 
   37085    21992     2156   -12907   -16524    -9951      865    11133 
   21000    32841    45547    55135    60674    64063    63574    54579 
   37616    20118    10171    11061    19743    29095    34144    37702 
   46292    60236    72634    76659    71140    60828    52706    50577 
   51528    50108    44354    35363    25830    18401    14006    13123 
   16094    23894    37564    53877    66029    69288    64878    58607 
   54056    49168    40386    26715    10467    -1970    -2429    10582 
   28163    39546    42158    42877    51316    70249    92116   106534 
  109182   102344    90818    79621    70834    60851    46456    32273 
   26917    32535    42059    48321    50745    53691    62457    75919 
   84064    77508    57437    36124    26236    28475    33034    31098 
   22351    13455    11009    17442    30420    43484    50850    51216 
   48103    48887    57210    66573    67357    56576    39915    27912 
   27567    36494    45551    46449    38802    29923    26604    27795 
   26574    20040    13793    14458    22859    34424    41858    42069 
   41369    46206    51102    44625    25300     3345   -11331   -16446 
  -15820   -14376   -13511   -10432    -2245    10330    26177    46488 
   68965    85612    90691    87716    83721    77685    64504    46146 
   28284    13156      145   -10689   -16259   -12362     2862    26598 
   51791    71927    84719    91886    96191    97850    94663    84010 
   64579    39785    17382     2770    -4317    -6744    -7245    -7858 
   -7788    -1818    14136    36458    57208    70765    75237    73819 
   73252    74659    71531    59448    41575    26695    22527    27116 
   32094    33823    34298    34789    34885    36238    40593    44905 
   45230    42068    37771    32522    25938    20802    19703    22149 
   29844    44527    61098    71640    71433    61630    49020    38519 
   29293    19507     8258    -5027   -18094   -24741   -18374     2945 
   32663    58046    70854    73891    73935    72489    66650    54328 
   36633    19639    10551     8413     6246     2406     1448     7681 
   21761    38211    49412    53730    54212    55883    64047    76003 
   82223    77229    62444    44970    33320    28241    23627    16565 
    9344     5407     6749    13161    24224    38116    48544    50552 
   47333    44617    42702    40377    39976    42182    43134    39633 
   31988    21598     7621   -11567   -32875   -47743   -47955   -31915 
   -5678    21934    45496    64142    77124    82948    82280    75675 
   62887    47031    32783    22824    18110    18154    20679    21038 
   16414     9817     5141     3036     2927     4511     5772     3143 
   -3149    -8077    -8561    -8379   -13087   -19903   -18579    -4328 
   15375    28303    29944    26630    25820    28354    31732    34931 
   38253    40926    40227    34857    29127    29153    34498    38880 
   37355    28464    14024     -611   -11030   -17721   -22692   -24780 
  -20091    -7927     6813    19895    30712    40254    51026    64964 
   79997    89595    87586    76468    65013    56072    46612    36459 
   27016    18329    12140    11201    16399    26026    35833    42596 
   46965    50290    51738    48388    37251    20840     7111      428 
   -1341    -2516    -6379   -11136    -9383     3883    22642    34068 
   35460    38603    51927    68532    75351    68204    54706    43899 
   38624    36526    32151    21067     5697    -6855   -13390   -16454 
  -19134   -22111   -23795   -21954   -17552   -13958    -9204     3976 
   26756    49233    59052    52101    35288    21143    17620    20624 
   20030    11689     -657    -8998    -6776     4288    17951    31261 
   43995    55565    63697    65059    59044    50210    43763    38371 
   27877     9505   -12206   -27343   -27612   -14427     2105    13158 
   16795    17942    25715    43533    62654    71829    70468    66386 
   65783    69477    71614    64135    47791    31507    20719    14717 
   11839    10346     8283     6830    11646    27001    47815    63810 
   72508    78805    83158    80754    69881    53361    36659    27259 
   28190    34017    36847    33659    29400    31487    41211    54415 
   65683    70388    67425    59271    49134    39009    28629    18235 
   12115    13056    18857    28965    42468    51983    50645    39608 
   27171    21996    24215    27533    27769    24735    21156    20515 
   23095    26124    30021    39790    56238    72681    83073    87173 
   87505    85068    78133    64566    45000    22421      840   -14668 
  -22217   -25235   -26112   -22575   -11187     7234    28254    49395 
   67393    77481    81980    87162    92306    91171    81138    65962 
   50477    37267    28329    23675    19634    15956    18734    31340 
   50970    72662    92447   108281   116790   113566    97940    74356 
   50264    29100     7463   -15601   -35229   -47011   -47687   -35110 
  -11871    15434    40245    58506    69774    77612    85357    89544 
   83706    68722    52811    42845    38184    32577    23212    12526 
    2317    -4524    -3915     3292    13659    24027    30779    35879 
   46189    62664    77382    80313    70677    58245    48709    40035 
   33026    30218    29806    31285    38040    49332    58695    63352 
   66898    71874    77550    78850    68590    49839    35610    33999 
   40234    41819    29603     4198   -22573   -34347   -25513    -6784 
    7096    13536    22259    40660    67924    99563   128452   145345 
  146036   136688   123880   105513    79290    49819    21901    -5274 
  -31794   -51189   -55032   -40772   -15986     8252    28397    47173 
   64290    74549    75396    70028    62391    54671    45877    32384 
   13321    -8340   -26272   -31069   -21037    -7043     3311    11723 
   20328    32948    51595    66888    68288    58110    48209    48558 
   59594    74089    82355    74665    48687    16329    -7756   -19200 
  -20897   -20579   -24662   -27303   -19842    -2276    23392    50515 
   64975    64113    60018    59730    62486    66805    66477    54235 
   33211    13084     1106      293     7501    16718    25185    32249 
   38529    46980    59191    71766    78821    77205    67482    52325 
   37317    27640    21788    15290     8544     6674    14539    31005 
   48633    60390    64068    62928    60908    56933    50004    42827 
   36767    31224    25719    21223    21241    26800    33408    36250 
   34577    31628    29887    28085    25832    25923    30300    36509 
   38373    32123    21837    16185    20308    30517    36699    32636 
   22689    16303    19881    33072    47165    51739    45572    35403 
   27360    22862    19392    13502     3513    -7460   -12137    -6738 
    3411     9075     8414     8549    13620    19592    23465    26422 
   27919    25786    18276     5624    -7328   -15973   -20714   -22497 
  -19310    -8093    10836    30893    44919    51032    50357    46380 
   43711    40982    33592    24480    21338    26480    34393    36675 
   32661    31158    39321    56604    74513    81152    72679    57741 
   49005    51643    57403    50679    27316     2197    -9895    -9303 
   -3522     1504     2185     1440     8014    24681    45379    62559 
   69639    64668    55120    51790    56033    59495    56167    46371 
   35593    30456    29526    26522    18931     9093     4572    12427 
   29951    47181    57161    60509    61748    62680    61699    58196 
   50984    37753    21570     9151     3543     5651    15569    28345 
   36382    36631    31299    25320    23678    26696    29709    26240 
   13197    -1642    -7145    -2814     4809     9709    10242    13471 
   27074    46936    61610    65151    61395    57298    54415    50820 
   44991    33257    13884    -6770   -17461   -10678     9403    30438 
   43575    48862    53302    62721    73483    75361    61486    34260 
    4843   -14287   -20459   -21709   -24940   -28201   -23154    -2860 
   27281    50091    54674    47357    42147    46398    56621    64829 
   66456    63227    60391    61011    62929    61210    52946    40744 
   31444    29274    33771    44393    58699    70844    78123    82727 
   87897    93710    95350    87153    66720    38887    15778     5816 
    5714     6920     5122     1589     1018     8674    23651    37827 
   45571    49399    54006    60012    64008    62015    52927    37321 
   16442    -4283   -16802   -17792   -11407    -4484     1390    11809 
   32368    62527    94789   118307   127576   125408   116574   103305 
   84445    57530    24917    -4143   -20451   -22127   -14927    -6818 
     215    11510    31110    55355    75302    85184    86364    83196 
   79429    74590    64440    48844    33347    23660    21660    24222 
   26782    27534    26996    26790    28463    30706    30963    30892 
   34880    43322    52094    57461    58669    57199    54669    50623 
   43322    33862    26754    24421    25049    27289    32135    39539 
   47723    55058    59256    58479    54603    51706    52489    56476 
   60508    61060    57037    51239    46192    40482    32573    23629 
   16216    14198    19892    28826    34570    38448    45692    55368 
   61698    60728    52037    39155    27566    18475     8885    -1924 
  -11046   -14076    -6762    11512    36072    58508    69532    66399 
   56830    49567    45623    40815    30511    14264       59    -3281 
    2604    11397    19393    24216    28337    35804    45246    54740 
   63025    66013    61897    54101    46398    41053    38540    36254 
   31455    23369    12987     4012       85     2060     9508    19744 
   28000    32926    37918    45785    56037    65669    68677    61069 
   47417    35257    28632    28553    32550    35609    32938    24230 
   16341    16107    22389    27886    26354    18703    12072    12627 
   20190    28896    32204    27623    17645     8292     4890     5436 
    2841    -4526   -10134    -6430     7257    23984    37271    47008 
   55453    62710    67877    69100    64484    55969    46743    36348 
   24002    12151     3996     1688     6635    19667    40243    65542 
   90911   109760   117474   116323   110067   100444    88167    70854 
   49566    30343    16011     8539     9473    16283    24444    29550 
   32298    37508    44249    46626    42777    36631    33310    35118 
   41634    49981    53963    49636    41209    35027    31465    28140 
   25605    25640    29303    37442    48972    60728    69875    74422 
   73376    67885    61318    56240    51754    45286    34180    19238 
    8154     6483     9751    11734    12066    11871    11525    15032 
   25612    40028    54857    68411    77550    81683    83338    82265 
   75768    64012    51122    41443    36231    33719    30249    23476 
   16879    17437    26962    37837    40159    32348    23127    25142 
   40866    54620    53127    43076    33904    28074    28152    30232 
   27448    22013    17644    14597    14442    17460    20989    22800 
   20916    15442    10312     7431     6290     8597    15095    23480 
   32447    42561    53713    64014    70298    70081    64213    57204 
   54285    58368    68948    80887    84993    75245    55173    34247 
   20668    16803    17919    17498    13703    10074    12318    21794 
   31756    33869    27082    17532    12157    14430    22859    31267 
