Origin Time       2011/03/11 14:46:00
Lat.              38.103
Long.             142.860
Depth. (km)       24
Mag.              9.0
Station Code      SIT014
Station Lat.      35.9954
Station Long.     138.8010
Station Height(m) 746
Record Time       2011/03/11 14:47:34
Sampling Freq(Hz) 100Hz
Duration Time(s)  250
Dir.              N-S
Scale Factor      3920(gal)/6182761
Max. Acc. (gal)   64.750
Last Correction   2011/03/11 14:47:19
Memo.             
[...]
   -7009    -5852   -12878   -20123   -16873    -4503     6043     8721 
    5818     -173    -7145   -11236   -13069   -15606   -18693   -20255 
  -16654    -9475    -4944    -2083     2716     8163     9880     1733 
  -14116   -25224   -25509   -19631   -13370    -8364    -2772     2573 
    2589     -354     2159     5828     1727    -6931   -16355   -25678 
  -28429   -20946    -9201     -497     3603     4950     6750    11414 
   14775    13453     9698     1850    -9632   -18304   -22251   -21936 
  -17397   -12493   -10980   -10144    -6031     -204     3748     2343 
   -6316   -18592   -26212   -23198   -12820    -3681    -1733    -5285 
   -6132    -1170     5741    10326     8161      460    -6069    -9971 
  -12807   -14002   -14417   -14643   -12940    -8417    -1551     3863 
    3354    -1798    -9675   -18710   -24401   -25194   -22290   -15767 
   -7807    -4350    -6574    -8013    -6657    -4691    -1381      426 
   -4099   -12025   -18393   -23203   -24916   -22092   -18917   -16367 
  -12304    -8718    -4915     2745    11857    16250    12186    -1006 
  -18541   -30492   -34305   -35984   -34434   -24284    -8858     3496 
    8243     7273     5805     5850     3817    -3705   -15441   -28169 
  -36455   -33035   -19417    -6796    -2707    -5973    -9586    -7486 
   -2368    -1466    -7358   -15868   -20154   -17563   -12254    -8948 
   -6547    -2440     2526     5237     1395    -7807   -14107   -14461 
  -13141   -13667   -16293   -17683   -15088   -10689    -6207     -968 
    3212     4985     5879     5866     4183     1568    -1190    -3277 
   -4877    -8372   -14526   -19395   -18998   -15477   -13964   -13458 
   -9148    -2710      604     -554    -3388    -3495    -1420    -1533 
   -3105    -3015    -3705    -9763   -18571   -22745   -22147   -24602 
  -32609   -37932   -32223   -15407     3604    12967    11293     7166 
    6130     8500    10027     3008   -11661   -21985   -22210   -18372 
  -14857   -12737   -13539   -13143    -7710    -3974    -7766   -12555 
  -11462    -8300    -9406   -14380   -17034   -12014       82    12151 
   15866     9535    -2640   -14065   -18854   -18225   -18016   -19985 
  -19558   -12097     -820     5487     3434    -1050    -3897    -8907 
  -17436   -25388   -29748   -28910   -22534   -14156    -6402     3003 
   13961    21811    22833    15761     3368    -7103   -12068   -16367 
  -21153   -20065   -12568    -4387     -768    -1795      607     8007 
    8539    -2145   -12165   -12329    -6617    -1862    -1121    -3905 
   -4517      629     5813     5705     1122    -6864   -16513   -25009 
  -32473   -39022   -40992   -34941   -23175   -12499    -6680    -3493 
    -405     1233     -995    -7531   -17107   -26289   -31417   -32525 
  -30700   -24818   -15205    -5043     3345     7821     6033      255 
   -4287    -6549    -9899   -15813   -20305   -18524    -9486     3961 
   15800    21042    18978    11365     2221    -4125    -7549   -11997 
  -18853   -22379   -17757    -9575    -6427    -8566    -6225     3957 
   12895    13043     3447    -9951   -16202   -14609   -14882   -19369 
  -23012   -23779   -20211   -10815    -2021    -1641    -6164    -7732 
   -5806    -4811    -8839   -18501   -26882   -27040   -22510   -17881 
  -11432    -3870      947     3063     4494     3002    -1956    -5719 
   -9530   -14734   -14666    -9254    -4981    -3276    -3037    -3220 
   -3917    -7391   -12616   -14525   -13194   -13502   -14624   -13859 
  -13095   -12311    -9466    -4161     3784    11595    13406     7153 
   -2578   -10057   -14662   -18717   -22391   -24604   -23677   -16564 
   -4241     5953     8106     3396    -2602    -6853   -11219   -17087 
  -23736   -28548   -27055   -20303   -14335   -10644    -6763    -3832 
   -6850   -14999   -21236   -22492   -19580   -15229   -12401    -8558 
   -2309     1778     1630     -756    -2629    -4226   -10592   -22584 
  -32015   -31032   -21954   -12523    -5276      871     6246     9922 
    8430      107    -9104   -13356   -15120   -16347   -15568   -14761 
  -14214    -9648     -851     4706     2078    -4269   -10709   -14156 
   -8989     -355     2867     1781     -368    -1468     -864    -3780 
  -14659   -28130   -35234   -35029   -31055   -24557   -16226    -5503 
    5856    11246     9526     5506      514    -6009   -13255   -18804 
  -18403   -11780    -3569     2924     8050    13544    18048    18664 
   13530     1538   -13272   -24084   -29353   -32705   -36304   -35711 
  -25485    -8063     8058    16865    17487    11353     3157    -3052 
  -11074   -23308   -32484   -33369   -28759   -23834   -21701   -18654 
  -11109    -2885     1940      495    -7839   -17256   -23609   -29245 
  -33987   -33765   -29260   -24230   -19983   -14767    -4230    10775 
   21013    18903     5961    -6489    -7880    -3340    -5002   -13479 
  -20665   -19772    -8804     5350    11707     9431     6622     6067 
    3952    -1468    -7335   -10243   -11257   -13803   -17327   -18547 
  -15146    -7247      271     2360      459    -2122    -5438    -9746 
  -12713   -12246    -9129    -4518      361     2090    -2108    -9414 
  -12442    -8682    -4463    -6591   -13767   -17610   -12891    -1233 
   10832    12428     1847    -8867   -12838   -14128   -16612   -19176 
  -19145   -16393   -12180    -5805     2619     7423     2630    -7760 
  -13875   -14199   -13449   -10650    -3056     6079    12067    13240 
   11402     9347     5099    -3400   -12426   -18933   -22582   -21850 
  -17064   -12997   -12312   -12623   -10877    -5848    -1724    -4524 
  -11843   -15902   -13628   -10868   -15429   -23246   -24190   -18334 
  -12363   -10339   -12535   -16938   -21572   -24746   -26266   -25837 
  -21134   -13823    -8013    -3118     2948     8434     8371      860 
   -9069   -16907   -23393   -27854   -28107   -25390   -20901   -14948 
   -8760    -3719     -864     1949     5069     3807    -2633   -12492 
  -24623   -34131   -36640   -31310   -20233   -10711    -7523    -6390 
   -3671    -2411    -5533   -11513   -16684   -19676   -23529   -28544 
  -28786   -22420   -15113   -10683    -8312    -8182   -10556   -11456 
   -8763    -7325    -9992   -12991   -13617   -13127   -13092   -12164 
   -7684    -2646    -3978   -11948   -20214   -24486   -24442   -22416 
  -20962   -18222   -12535    -8007    -7531    -7062     -352    10158 
   12945     5289    -3708    -8653    -8388    -4610    -6883   -19355 
  -30961   -31634   -23794   -16139   -15509   -19710   -18629    -9587 
   -1642       26    -1889    -4932    -5911    -4445    -6142   -10495 
  -10916    -5414     4150    12799    13361     3699    -9301   -16901 
  -19095   -21412   -24404   -22537   -12453      449     8479    12531 
   16800    17860    11255     -827   -14270   -26750   -37715   -44820 
  -42582   -29028   -10291     4824    15531    26439    34446    31704 
   16076    -7669   -29984   -44918   -53059   -53726   -47411   -35576 
  -15325    10235    29537    35199    27268    14336     8185     5665 
   -5356   -23125   -35120   -33723   -21336    -6911     3174     9481 
   13027     9947    -1281   -15482   -29018   -37622   -34710   -23726 
  -13432    -5760     2559    15145    28532    34422    30390    19251 
    7125     1433     2549     5039     5017     1562    -2345    -3763 
   -4607    -7256   -11962   -15729   -13258    -5888      -68     3907 
   10077    16992    18492    12039      731    -9679   -16608   -24266 
  -32400   -30864   -16552    -1437     2398    -4104   -12898   -19288 
  -19834   -12463    -4612    -8886   -25079   -36226   -30773   -16337 
   -6733    -7444   -11103    -6391     5860    13994    11256     2181 
   -3794     -289    10391    18702    18910    12413     1971    -8706 
  -16865   -24800   -33407   -34935   -24789   -13409   -10874   -13111 
  -12886    -9449    -6237    -6943   -11377   -13437    -8976    -3133 
     336     4950     8780     5770     -604    -3860    -7950   -19146 
  -33605   -42024   -38700   -24273    -4768    11249    19056    21412 
   22313    21451    14385    -2522   -25005   -42746   -47567   -40741 
  -32278   -27816   -22212   -10875     1103     6430     3814    -3506 
  -10610   -16229   -23479   -32260   -39230   -42318   -40544   -33121 
  -21702   -13436   -14523   -20338   -23200   -24527   -26903   -27916 
  -26940   -22887   -12919      254    10466    14789    13394     7589 
     981     -752     4370    11314    13318     8239     -615    -7492 
   -7714     -778     7774     8970    -1765   -16999   -22395   -14060 
   -1546     8050    14319    17349    19735    21181    15186     2915 
   -8993   -19072   -25507   -26537   -24343   -20869   -17585   -15439 
  -13104    -8674    -1391     7275    14540    17624    14546     6595 
   -2600   -10392   -18055   -29377   -42153   -50335   -51814   -43080 
  -20912     7341    28901    37513    34714    25219    14346     3112 
  -12113   -28935   -38302   -37811   -33436   -27377   -18436   -12031 
  -10722    -7160    -3595   -10979   -24598   -31680   -29663   -21490 
  -11559    -3971     3593    16405    30679    33707    21388     3606 
  -10177   -18399   -22770   -23714   -20864   -14226    -4535     8082 
   23652    34238    30362    15337    -3313   -20553   -29574   -30793 
  -34866   -44056   -46861   -36468   -17199     2154    10781     5269 
   -3568    -5791    -6128   -13351   -26241   -35496   -33596   -22103 
   -9873    -6444   -13766   -20770   -17140    -7303     -187      585 
   -4895   -11848   -14343   -14021   -15089   -13553    -6292     1357 
    5716     5773     3147     6877    22267    40798    49021    41202 
   21430    -1314   -18822   -28658   -32582   -32482   -31843   -31725 
  -24489    -4867    18974    35960    40844    30606     6946   -18763 
  -33678   -37751   -40813   -47862   -54323   -50303   -30703    -1952 
   25520    45830    58396    64935    62688    44740    10147   -30615 
  -59166   -65968   -59239   -45960   -25891    -1949    24099    47351 
   54317    39527    13375    -9127   -21689   -27873   -32485   -38280 
  -39760   -25930     -154    19968    22591     7978   -15592   -33683 
  -38285   -36583   -34399   -29221   -21761   -15134    -9641    -6823 
   -9293   -13657   -12760    -6006      241     1652      617     3248 
   14165    29757    36498    28221    15477     4767    -6853   -16255 
  -19219   -19210   -21103   -24274   -22090   -10964     4808    20075 
   29410    25676    10666     -589      926     4626    -1852   -14448 
  -20064   -13369      704    15065    23910    24519    13470   -11131 
  -38081   -56392   -67826   -69535   -53522   -26243    -1280    19018 
   34428    39899    37210    26966     2430   -31440   -61333   -82497 
  -92624   -86975   -64456   -30282     4566    29890    46361    56999 
   51855    26458    -4473   -31307   -51587   -54518   -36587   -15412 
   -8139    -6336     6945    27818    42792    43801    26059    -1085 
  -16981   -16508   -13651   -19775   -32721   -42631   -37608   -12767 
   17677    35202    38558    33597    23052     7566   -15432   -40981 
  -54851   -51654   -40155   -31226   -26817   -22595   -18579   -15647 
   -9618    -3067    -7424   -26327   -47367   -51082   -33109   -11813 
   -4233    -9094   -16016   -17784   -13941    -8225    -5624    -7441 
   -8932    -7424    -3248     4338    12664    17239    16074     8081 
   -8302   -27853   -31149    -8841    18616    30080    26286    17448 
    8258    -2059   -10362   -14086   -16900   -19791   -19635   -13967 
   -4340     5306    15465    27718    38367    37879    20690    -3280 
  -18931   -20233   -12779    -8285   -11571   -19325   -27892   -32675 
  -25737    -3147    20938    26592    15206    -1470   -15696   -20054 
  -18532   -21211   -27048   -33006   -38894   -41039   -36952   -25957 
   -7376    12670    25258    25962    11610   -13335   -34743   -44678 
  -43338   -31547   -15530    -3595     6015    17915    25973    20639 
    3227   -15120   -26104   -29299   -27177   -23326   -19999   -17437 
  -17647   -18465   -14041    -7875    -6928    -7065      385    14187 
   23427    20921    13240    13440    21943    23074     7005   -18054 
  -39309   -48531   -40987   -21119    -1384    12732    22759    26789 
   24080    18648    12502     4940    -4967   -18711   -30756   -28126 
  -12363    -1039      774     1799     3267     2160     -497    -6795 
  -18732   -30650   -38679   -44708   -45819   -39013   -30052   -20777 
   -3607    20543    34634    26089     2309   -18194   -20442    -8965 
   -5396   -20099   -42716   -57022   -52947   -32824    -9710     5428 
   15946    28358    35137    28207    12274    -7913   -30121   -46742 
  -52704   -50412   -40728   -22166     3235    32534    59402    69352 
   56067    29597      290   -24201   -37527   -43652   -49919   -54738 
  -50687   -31240     1992    35560    54540    52885    34262    10186 
  -10640   -29638   -47451   -61171   -68533   -61828   -39285   -17997 
  -11638   -13048    -9550    -2164    -2329   -13189   -27080   -36443 
  -37205   -32659   -33706   -40607   -37096   -16656     7250    23351 
   32982    37552    34876    29405    27095    23352    10260   -10837 
  -30229   -39331   -38016   -36214   -41148   -42194   -25260     3883 
   27814    40406    45087    38351    16261   -12511   -36847   -52936 
  -59853   -55862   -40905   -20723    -2669    11546    26374    44416 
   55197    43806     9401   -34641   -70746   -88606   -89131   -76185 
  -50743   -12132    34194    73725    94148    91160    65751    26943 
  -10337   -34086   -42664   -47956   -56449   -55890   -38051   -11134 
   12264    25390    28514    21698     5589   -14565   -30490   -32571 
  -21245    -9947    -5971    -2900     4841    14379    22543    26894 
   19982     -433   -22157   -33678   -34947   -28858   -18619   -11913 
  -13586   -15760    -8207     7292    21058    23984    15866     7392 
    3463    -4250   -19860   -32757   -33732   -30131   -31571   -35315 
  -33986   -23321    -5369    11556    19356    14839      111   -20271 
  -39099   -46206   -41249   -37645   -40808   -39170   -24115    -2088 
   17257    33146    45407    46575    35873    21147     2624   -20589 
  -39806   -48855   -49481   -42215   -27355    -9681     9341    30804 
   46625    48798    42466    34001    20745     -763   -23550   -31937 
  -21772    -9265    -8071    -8999     3442    22677    33548    36142 
   30995    16540     -738   -21382   -46745   -64375   -67733   -62216 
  -49553   -27787     -442    23522    40324    49079    44328    27904 
    7840   -17004   -46988   -66612   -62047   -41505   -19843    -3300 
    6710    13354    17721    14610     2556   -12299   -21268   -20897 
  -14320    -3404    10877    22627    25465    19084     7032    -7765 
  -23261   -37658   -48276   -52167   -49874   -42461   -30838   -20877 
  -13952    -3849     6665     8437     2394    -4047    -9215   -17648 
  -28954   -32417   -21640    -4801     7415    12105    12968    14944 
   18739    23181    25085    18453     7151     2065      728    -4708 
   -8318    -3207     5833    15403    25779    31609    29643    25621 
   22680    17514     9837     1470    -6393    -9975    -7212    -1587 
    4558    12994    22850    30248    32536    27902    18907    11453 
    5845     1978     3807     7711     7116     7079    13474    18638 
   14804     7365     2377     -611    -1569    -3201    -9780   -14584 
   -7661     5562    12040     7603    -6208   -24164   -33603   -29666 
  -23996   -24782   -27419   -26311   -21832   -18258   -17202   -15180 
  -12175   -13761   -21936   -31877   -33381   -20947    -5040     3061 
    4667      912    -8993   -17326   -16763   -12965   -15190   -22572 
  -29160   -31423   -25732   -12599     1012    10211    10292    -3877 
  -24639   -35772   -34140   -33377   -42555   -53926   -58619   -51886 
  -29315      577    23656    35559    34758    23998    13504     8339 
    2717    -8572   -20016   -25010   -25819   -24696   -17546    -2244 
   13361    17014     5541   -11916   -25280   -32566   -34609   -31045 
  -26368   -25942   -24816   -15132      964    16623    26385    26287 
   21188    17992    10296    -6298   -21440   -28839   -30836   -28675 
  -25832   -23546   -14521     3205    19484    26590    23242     7063 
  -16302   -31074   -32656   -30546   -29565   -25567   -16908    -7358 
      98     2994     2825     5819     9915     7897     1374      187 
   10441    22220    21166     7370   -10826   -25370   -31807   -32848 
  -31496   -29025   -25742   -16714    -1534    10795    14558    12224 
    9744    10411    10156      969   -15168   -24316   -23521   -23375 
  -25157   -21605   -11282      254     7409     8701     2429   -12186 
  -30874   -48853   -62613   -68716   -64125   -50167   -34775   -21174 
   -6987     4238     8589     8068     3790    -6576   -21703   -34906 
  -44175   -50674   -49821   -38711   -21588    -3395    10130    13573 
   12885    19157    27436    23950     8948    -7284   -17218   -18458 
  -17928   -22837   -24997   -15578    -1270     9673    16130    17041 
   11764     3815    -4942   -17418   -30258   -33073   -24998   -14723 
   -6096     3433    17183    34535    46726    43568    27188    10124 
    -104    -5117    -7994    -8508    -3536     9090    25987    39270 
   43074    37125    26433    15673     1640   -18073   -32629   -27920 
   -5516    16119    22005    16601    13046    15956    21037    21483 
   13958     4216     -315    -2912   -11207   -24343   -34898   -36861 
  -30775   -22732   -16528   -11147    -7289    -8802   -13822   -14183 
   -8281    -4972   -11053   -21670   -27329   -25401   -21328   -21680 
  -27073   -31548   -29716   -22969   -16514   -14477   -17574   -20732 
  -20649   -22526   -29619   -36996   -39542   -39443   -42717   -48693 
  -50820   -44765   -29672   -10386     3463     6956     1497    -9003 
  -17230   -18372   -16105   -14855   -14837   -15941   -17763   -18501 
  -16072   -10130    -3552      320     -731    -5340    -7375    -6046 
   -5788    -5665    -5230    -5980    -3737     3192     9723    11855 
    9146     5202     4038     2399    -4498   -14389   -23567   -28440 
  -24134   -13106    -3778      535      843    -1317    -3650    -8788 
  -21444   -35162   -37582   -27368   -16220   -14101   -17015   -15222 
   -5617     6882    13515    10032      155    -6514    -2760     3876 
    1746    -8326   -18883   -22587   -18875   -16121   -15750   -10712 
   -1300     3102    -2600    -8309    -2328     8584    10431     2910 
   -4040    -5723    -5547    -6851    -9026    -9639    -7919    -6062 
   -5490    -5015    -2978     1843     8138    12156    12746    12767 
   13087     9786     3003    -2320    -6090    -7894    -3623     4402 
    9690    10050     7555     5522     3682    -1379    -8350   -10349 
   -5256      620     2054     -401    -3493    -5204    -8033   -13256 
  -16600   -15980   -13069    -8835    -5368    -3397     1770    11722 
   19400    18404     8546    -7455   -23267   -29843   -25717   -19867 
  -19001   -19202   -12728      666    12504    14615     5698    -6949 
  -13801   -13782   -12417   -13872   -15726   -10341     1758     8846 
    4393    -3938    -6031    -4623   -10341   -24317   -35718   -34460 
  -20870    -4672     4665     7775     9233     6023    -3949   -15112 
