Origin Time       2011/03/11 14:46:00
Lat.              38.103
Long.             142.860
Depth. (km)       24
Mag.              9.0
Station Code      SIT013
Station Lat.      35.7966
Station Long.     139.4659
Station Height(m) 76
Record Time       2011/03/11 14:47:36
Sampling Freq(Hz) 100Hz
Duration Time(s)  300
Dir.              N-S
Scale Factor      3920(gal)/6182761
Max. Acc. (gal)   157.744
Last Correction   2011/03/11 14:47:21
Memo.             
[...]
  -32575   -40779   -45276   -42865   -34803   -25623   -18273   -12378 
   -7202    -3529    -1707      216     4611    12044    20465    25522 
   25297    22261    17798    11203     4086     -169     -357     1801 
    2687    -1527   -10406   -18254   -21444   -22621   -25603   -31238 
  -37810   -42297   -42619   -39035   -33768   -29581   -27331   -25625 
  -23401   -21534   -21524   -23085   -24143   -23285   -20459   -15448 
   -7644     2122    10534    14426    13736    10612     7141     3806 
    -427    -5868   -11257   -15645   -19070   -21595   -23096   -24050 
  -26113   -30335   -35575   -40271   -43916   -46885   -49341   -49637 
  -45969   -39073   -31318   -24641   -19555   -15373   -11784    -9744 
   -9199    -7086     -888     7690    15368    21599    28641    37581 
   45504    47952    43211    33511    22732    12442     1249   -10990 
  -21144   -26004   -25511   -22550   -20919   -23236   -28562   -33026 
  -33811   -30288   -23464   -16043   -10143    -5813    -2529     -506 
    -881    -3980    -7515    -8557    -6284    -1088     6423    14154 
   19945    24281    27904    28178    21486     7803    -9856   -27995 
  -43536   -55299   -64038   -69528   -70231   -66085   -58565   -49204 
  -39610   -30794   -22829   -15517    -8210     -782     5387     9923 
   14906    21671    28189    30828    28523    24270    21224    19128 
   15440     8168    -1703   -10661   -17018   -21235   -22547   -21176 
  -20485   -23559   -30518   -38663   -44824   -48301   -50465   -52085 
  -52069   -48398   -40995   -33306   -28909   -27823   -27632   -26386 
  -24888   -25384   -25967   -21743   -12734    -3931      215    -1824 
   -7638   -13180   -17593   -22356   -26885   -29191   -29482   -28876 
  -27042   -24652   -23798   -24235   -23274   -19146   -12880    -8054 
   -7760   -10971   -13631   -13508   -12950   -15634   -21423   -27837 
  -34032   -39698   -43520   -44621   -43580   -41178   -37246   -31949 
  -26226   -20791   -16542   -14408   -14173   -14676   -15259   -16385 
  -18367   -20730   -23199   -26113   -30092   -35175   -39657   -41092 
  -38954   -35180   -32758   -34074   -38494   -42597   -44413   -44941 
  -45014   -43704   -40267   -35147   -28882   -21625   -13360    -3605 
    8178    21541    35604    49219    59479    63227    60812    55179 
   47913    38795    27358    13653     -774   -13479   -23738   -32859 
  -41708   -49251   -53612   -54305   -53165   -52294   -52068   -52113 
  -51690   -49150   -43485   -35075   -25192   -16350   -10706    -7117 
   -1735     7688    19504    30844    39947    46034    49950    52973 
   53729    49998    42573    33925    25489    17341     8471    -2365 
  -15744   -30588   -44015   -53404   -57614   -56780   -52192   -45580 
  -37592   -27614   -16032    -4544     5175    11338    13971    15545 
   17455    19690    22237    24820    27307    28768    27434    23480 
   18356    11733     1916   -11220   -25730   -39820   -52258   -62225 
  -69745   -74222   -74145   -69303   -61003   -50240   -38704   -29452 
  -22867   -15649    -5558     6167    16757    24778    31253    37030 
   39675    35740    25803    14802     6860     1751    -2153    -4201 
   -3272      -19     4212     7778     9788    11474    13386    13961 
   12235     8653     4370     1031    -1201    -3767    -7532   -13150 
  -19531   -23368   -24781   -26701   -28779   -29391   -28757   -26335 
  -21589   -16711   -14064   -13458   -13136   -11031    -6147     -853 
    1498     2132     4408     7724     9482     9147     6780     1655 
   -6221   -16342   -28258   -40276   -50052   -56336   -59189   -59175 
  -56473   -51329   -44501   -36277   -27022   -18360   -12080    -8933 
   -8195    -8277    -8746   -10390   -13328   -17436   -23415   -30706 
  -36835   -40895   -44431   -48702   -53454   -56753   -56052   -51300 
  -45478   -41411   -39924   -40126   -39366   -34956   -27466   -19857 
  -14652   -13259   -14715   -16557   -17811   -18392   -17767   -14911 
   -9079    -1006     8314    17608    24602    28665    30288    28023 
   20506     8736    -5807   -21352   -34926   -44770   -50999   -53702 
  -53414   -51146   -47512   -43008   -37817   -32742   -29054   -25924 
  -22146   -18603   -15312   -10860    -5253     1294     8473    13229 
   12385     6315    -2543   -13169   -26026   -39122   -49062   -55820 
  -60786   -64020   -65716   -65805   -63258   -57656   -49792   -40896 
  -31998   -24105   -18224   -14406   -12182   -11512   -11258    -9352 
   -5741    -2810    -3334    -8092   -14968   -21496   -27289   -32655 
  -36632   -38144   -38118   -39622   -44817   -51962   -57455   -59269 
  -58235   -57139   -56618   -54028   -47004   -35084   -20291    -7024 
     781     1576    -3502   -11266   -19248   -27438   -35921   -42480 
  -44937   -43463   -38649   -31563   -25625   -23239   -21758   -17008 
   -9609    -3254      993     3693     5252     7831    13607    21947 
   31027    39234    44809    47990    51660    56228    58458    56942 
   53120    47841    40729    31335    19153     4699    -8647   -17644 
  -23609   -30001   -36905   -40166   -35478   -23434   -10323    -3077 
   -3404    -6404    -6005    -1429     4170     8232    10145    11766 
   16329    24919    35014    43353    48290    48821    44549    36621 
   26785    16141     4456    -9178   -24146   -38313   -49922   -58447 
  -65295   -72127   -77785   -79728   -77361   -72825   -68915   -65887 
  -61589   -55015   -47129   -38687   -30520   -23434   -16617    -9650 
   -3632      909     4061     5757     5444     1697    -5469   -13125 
  -18672   -21877   -24141   -27472   -32820   -40147   -48694   -55908 
  -59064   -57420   -51941   -45066   -39622   -36194   -32896   -28165 
  -23032   -20306   -20932   -22162   -21199   -18663   -15986   -12503 
   -7699    -2960      408     2277     3009     2368    -1224    -8903 
  -19366   -30145   -38902   -44173   -47035   -49996   -53459   -54926 
  -52329   -46775   -41503   -38824   -37144   -32648   -24313   -15140 
   -9532    -9116   -11006   -10654    -5350     3746    13417    21749 
   27911    32634    38274    44762    49672    52052    52170    49093 
   40448    25368     6551   -11790   -26663   -37862   -47771   -58767 
  -70428   -79890   -84474   -82729   -75608   -66828   -59150   -52010 
  -42990   -30172   -14193      841     9964    12754    13201    13548 
   12365     7947     1844    -1666     -564     2534     2843    -1760 
   -7659   -10352   -10346   -10569   -11835   -13460   -15251   -17445 
  -19841   -21311   -20469   -17040   -11753    -4824     3930    13542 
   21981    28097    33071    39391    47679    55147    58267    55524 
   47479    35743    20701      967   -23276   -47449   -65057   -74545 
  -80522   -86554   -91204   -90849   -83442   -71180   -58906   -48845 
  -39764   -30640   -21927   -13834    -5783     3059    13644    26002 
   38209    46763    48872    44127    33102    17832     2588    -9732 
  -19206   -26659   -32621   -38019   -43874   -49755   -54813   -59224 
  -62240   -62043   -58436   -52481   -44427   -34542   -24782   -17807 
  -14700   -14027   -13333   -12272   -12332   -13379   -13539   -11591 
   -8183    -5015    -2310     1385     6055     9011     7240       33 
  -10956   -22889   -32479   -38545   -43218   -48399   -53709   -57839 
  -59694   -59522   -59547   -61967   -65578   -66172   -61212   -52624 
  -43654   -34526   -24116   -12877    -2825     2808     2506    -1635 
   -7336   -13562   -17624   -15780    -7747     3250    13594    19345 
   17255     7647    -6719   -22920   -38301   -50357   -54624   -46289 
  -27438    -7151     6926    12752    11567     5122    -6036   -21188 
  -35500   -42259   -40189   -33707   -27141   -22084   -18326   -15494 
  -12924   -10071    -8643    -9694   -11070   -10523    -7319    -2555 
    1736     5420    10146    16425    21533    21329    14742     5375 
   -1072    -1625     1327     3650     3774     2811     3048     4987 
    4838    -2410   -17321   -34900   -48892   -56903   -60846   -62367 
  -60443   -53361   -40386   -23487    -8657    -1653    -1764    -3812 
   -5418    -7094    -7218    -3809     1510     7057    13085    17444 
   15590     5836    -8578   -21836   -29482   -32681   -36358   -42097 
  -47683   -50312   -47724   -41245   -36093   -36456   -41778   -46558 
  -44728   -36391   -26797   -18107    -7945     5405    19986    30034 
   30172    21274    10015     3318     4639    12905    22600    28280 
   29487    28295    25149    19098     9591    -2554   -14901   -24724 
  -32216   -39858   -47241   -51610   -52895   -53043   -53054   -52572 
  -50451   -46163   -41091   -37816   -36101   -31656   -21789    -7676 
    8529    23426    33206    38052    41145    43628    44038    41805 
   38846    35919    30559    20896     7663    -6822   -20746   -34667 
  -48431   -59497   -66403   -69436   -68556   -62870   -52431   -40116 
  -29974   -24219   -21680   -18619   -13060    -7264    -4553    -5922 
   -9987   -13566   -12165    -3811     7268    14845    17270    16382 
   13358     8558     2503    -4542   -12374   -19498   -23967   -25361 
  -24683   -24486   -27732   -33483   -37656   -40846   -48912   -63317 
  -77885   -85159   -82004   -70452   -52814   -30087    -6497    13836 
   30143    39897    40937    36026    28322    19186    11918     9814 
   11773    14305    12840     2711   -14893   -33712   -49974   -63819 
  -76467   -87169   -92677   -91466   -85192   -76884   -69597   -63743 
  -58231   -54475   -54128   -56158   -58601   -58936   -53464   -40298 
  -22727    -6490     5515    14754    23614    30183    30643    25497 
   19057    15548    14556    11178     3955    -4020   -12643   -25068 
  -40721   -54352   -63281   -69944   -75649   -78072   -74060   -61700 
  -43441   -26018   -13817    -6039    -1168      827     1013     3101 
   11740    28724    50660    71678    87439    94934    93017    82965 
   64405    37555     7336   -23423   -55601   -86562  -111632  -127385 
 -129318  -116036   -94764   -74960   -60025   -49116   -42221   -39573 
  -39809   -40602   -39092   -32663   -19049     3785    34331    65155 
   87416    97237    96642    88613    74476    57728    40964    22425 
    3194   -14028   -28138   -36767   -40403   -41614   -39518   -32314 
  -21667   -12009    -4635     2832    10326    15832    19053    20826 
   22348    25135    28590    29261    25693    20271    15554    11359 
    6105     2456     6067    16045    25598    30705    30662    26767 
   20513     8892   -10496   -34326   -57281   -74314   -83801   -87043 
  -83858   -75271   -63995   -52080   -43020   -39879   -42203   -46534 
  -47943   -43041   -29525    -6887    18546    37205    44399    42374 
   37211    31184    23763    19545    21421    25400    28725    29184 
   23737    15109     7450    -1134   -12731   -24796   -34980   -43345 
  -49727   -53625   -54910   -54173   -54688   -60067   -71103   -87245 
 -103822  -110804  -103938   -88718   -68885   -44973   -19580     4438 
   23008    34222    41910    47250    46957    40300    31175    24209 
   19894    16688    14457    13258    12390    11086    10565    12352 
   14736    14268     8124    -3547   -17640   -33009   -50149   -67265 
  -81966   -91610   -91357   -78597   -56711   -30694    -2857    24914 
   47305    58843    60046    56168    52474    51425    50296    44060 
   33054    21988    13886     9014     4806    -1356    -9819   -20577 
  -31665   -38969   -40128   -35716   -30085   -28853   -31765   -33839 
  -33017   -30846   -29136   -28744   -28834   -28223   -27291   -25774 
  -20526    -7617    11464    27530    33758    31407    22443     8242 
   -5984   -14700   -16262   -10163     3559    21038    35384    40166 
   34033    22311     9620    -3701   -18416   -36325   -55904   -69641 
  -72872   -66864   -54319   -39431   -26229   -14711    -2896    10045 
   24171    39547    56136    71355    80482    82588    79793    72733 
   61898    47442    27650     1471   -26987   -48855   -61037   -69739 
  -79004   -87751   -94921   -98254   -95975   -90212   -83446   -77594 
  -75164   -75183   -73082   -65872   -55213   -45094   -36129   -26752 
  -18381   -14919   -19587   -31116   -43675   -53960   -63454   -72265 
  -77625   -77824   -72392   -60889   -45597   -30965   -15986     4613 
   30573    56607    75828    79812    65848    42474    20840     4325 
   -9262   -22803   -37594   -49972   -56088   -57851   -57588   -54719 
  -49577   -43016   -34461   -24975   -17847   -12990    -6089     4494 
   16852    29974    40939    44923    41967    35679    27215    13899 
   -6289   -30117   -53042   -73081   -89154  -101151  -108795  -110391 
 -105228   -93771   -77550   -59072   -38834   -17125     2938    19015 
   32249    45088    57922    67225    68935    63498    53847    41965 
   29010    15502     3598    -3673    -6916    -9200   -12629   -18673 
  -28087   -39717   -53984   -72945   -93256  -107786  -112666  -106669 
  -90348   -68387   -46766   -29556   -19745   -17505   -19431   -21717 
  -20675   -11430     8659    36554    67367    96146   114051   111188 
   88880    62161    38575    10208   -22185   -49055   -70883   -87223 
  -95432  -103370  -115671  -128020  -138521  -147700  -154995  -157817 
 -152653  -136269  -105641   -62699   -14673    34185    83435   128835 
  159663   168234   163357   159342   151887   134102   115879    97351 
   69897    41009    13977   -17372   -51866   -91454  -137679  -181723 
 -217850  -246499  -263194  -260743  -239597  -205575  -163796  -118285 
  -70042   -18640    30501    67593    90204   103671   113424   122339 
  127981   129349   130692   126608   107553    80309    51375    15189 
  -23897   -56298   -83897  -109903  -131000  -144172  -150547  -151794 
 -147712  -136421  -118520   -96827   -68656   -32743     4429    38770 
   67799    86929    96012    95853    84718    67662    52795    37543 
   18435     3412    -1407    -1230    -3281    -8754   -15164   -20324 
  -23122   -25499   -30662   -39655   -52456   -66574   -76929   -80087 
  -74118   -57214   -31453    -3107    24387    52043    80493   107881 
  129485   138955   133914   120815   107480    92495    73147    52462 
   31385     8686   -14742   -37953   -61871   -86197  -106020  -115505 
 -112628  -102023   -91008   -80038   -66600   -51838   -36872   -21838 
   -5214    16281    42658    70612    94899   109679   114391   111374 
  101858    90184    80069    70349    60777    49924    30791     1182 
  -32027   -62598   -86881  -102627  -109763  -108268   -99096   -83563 
  -62649   -40284   -20828    -6974    -2644    -8435   -17169   -22332 
  -23446   -21375   -18282   -17690   -21483   -30282   -40710   -47664 
  -52065   -56635   -61673   -67544   -72829   -75219   -72780   -62561 
  -45700   -25533    -1397    23764    42143    50822    50688    41235 
   23561     2871   -15189   -27269   -33416   -36488   -39600   -45417 
  -53037   -56851   -54025   -47620   -40120   -32838   -29526   -32808 
  -41539   -51087   -56331   -59098   -65434   -75566   -85219   -90567 
  -87425   -74083   -53403   -27933     1968    35612    70145   100087 
  120412   130604   131559   123878   112520   101577    89598    75967 
   60216    41114    20633    -1083   -25587   -48564   -66498   -81197 
  -91641   -97015   -99899   -99772   -96279   -92562   -89179   -81788 
  -66111   -43180   -17220     9149    33271    52415    67478    79394 
   87969    95392   101395   102760    98053    85573    65543    43178 
   23540     8063    -5888   -23230   -44604   -63703   -73580   -73946 
  -70912   -70089   -71753   -72461   -68531   -57829   -42089   -28638 
  -23262   -20518   -11849     1371    14206    26027    37994    49933 
   56834    54522    46146    33828    15823    -7284   -31110   -50125 
  -63900   -76726   -90622  -105193  -117603  -123023  -120499  -112272 
 -100488   -87008   -73849   -64445   -60216   -60902   -66084   -70756 
  -70168   -64868   -56099   -43064   -24060    -1985    13932    18787 
   16751    11683     3076   -10462   -27159   -40826   -49298   -56414 
  -61748   -61827   -58712   -57645   -61313   -67837   -71020   -66097 
  -54025   -37302   -17520     2143    19161    32817    39644    37499 
   29231    16472     1115   -12113   -20639   -25877   -31831   -39860 
  -46814   -50983   -52688   -53794   -57751   -63570   -66624   -65473 
  -62003   -59416   -61436   -68690   -77187   -82461   -82863   -79762 
  -73960   -61923   -40593   -14323     9858    29629    40788    36954 
   24373    14511     3672   -15570   -36489   -51835   -63317   -69111 
  -64692   -52021   -35627   -18106    -2305     9325    17074    21784 
   23505    21875    17207    12643    11875    15382    20803    25287 
   27161    26396    23497    19266    14619     7614    -4828   -21044 
  -35796   -45860   -50614   -49919   -45152   -38862   -31600   -21748 
   -8094     9024    28149    45522    56876    62839    67233    70697 
   70334    64984    57224    49067    40758    33015    25043    15185 
    3997    -8011   -21182   -34461   -46503   -57687   -67457   -72729 
  -72165   -66818   -57567   -45233   -29695   -10585     9798    28643 
   46022    62503    77427    90353   100661   107105   108348   103316 
   92037    77340    62709    47335    29311    10524    -6263   -19150 
  -26616   -30203   -33197   -36703   -40777   -45439   -51483   -58786 
  -62300   -57893   -48034   -35756   -20013      211    22020    40086 
   50006    51078    44867    32514    17016     2875    -8763   -19787 
  -32839   -48637   -62246   -69688   -75282   -83348   -90602   -92010 
  -86256   -75239   -61990   -47549   -32155   -17613    -5491     3871 
   11595    19344    27643    35919    41781    42550    37907    28285 
   16016     7271     5373     6008     4635     1452    -3829   -10364 
  -14975   -20343   -30351   -43291   -56770   -67325   -71748   -71658 
  -69784   -68392   -68256   -66204   -60114   -49218   -31133    -7151 
   17903    40827    58514    67776    67848    58189    36857     4565 
  -31593   -63755   -89908  -109463  -121157  -125310  -123680  -121488 
 -122215  -123467  -123853  -123442  -120820  -115148  -106024   -91770 
  -70302   -41938   -11731    11767    23630    27700    29970    31513 
   32254    34324    38478    42432    43872    42698    40562    36929 
   26710     8129   -12017   -26215   -32544   -33610   -31787   -27561 
  -22636   -16770    -9450    -6761   -12590   -21717   -28875   -33966 
  -36272   -31939   -19784    -2760    15327    28460    29585    19322 
    4740   -12358   -32469   -49981   -61256   -68442   -70741   -65323 
  -53062   -36194   -15737     5977    25209    42075    58756    72611 
   79187    78802    75419    71626    67470    64352    65288    67717 
   64220    52228    32436     5714   -20319   -36994   -44801   -47590 
  -46974   -42897   -35884   -29660   -26448   -26056   -30379   -40423 
  -52852   -61619   -62214   -54220   -39783   -23463    -9862      575 
    8955    14424    15158    10999     2778    -9165   -20695   -25341 
  -22960   -17560   -10277    -2538      684    -4755   -17540   -31860 
  -43838   -53717   -61172   -63308   -56693   -40590   -19881    -1252 
   14216    28272    39358    46564    50970    50338    42563    31818 
   23129    14213     2997    -4403    -8146   -14662   -19216   -21065 
