Origin Time       2011/03/11 14:46:00
Lat.              38.103
Long.             142.860
Depth. (km)       24
Mag.              9.0
Station Code      SIT005
Station Lat.      36.0563
Station Long.     139.2626
Station Height(m) 90
Record Time       2011/03/11 14:47:34
Sampling Freq(Hz) 100Hz
Duration Time(s)  300
Dir.              N-S
Scale Factor      3920(gal)/6182761
Max. Acc. (gal)   90.877
Last Correction   2011/03/11 14:47:19
Memo.             
[...]
   10632     1058    -5859   -10398   -15347   -25056   -31626   -25311 
  -13253    -4169     1091    -1775   -12316   -19446   -20134   -20987 
  -22440   -20646   -18139   -22347   -35521   -54110   -68965   -70005 
  -60548   -47589   -35474   -30467   -31184   -33568   -33363   -26000 
  -11532     8902    21973    16406     4259    -2073      188     6190 
   10614    13990     7195    -9569   -22483   -30958   -32815   -25378 
  -12929     -432      404    -7923   -13245   -12338      787    20497 
   29171    22420     6981   -12277   -34187   -52057   -56341   -50543 
  -43571   -32721   -21564   -24139   -31484   -29714   -23649    -9007 
   15512    34538    40915    33463    13949    -4472    -9212    -7524 
  -13196   -19774   -22942   -29248   -33482   -30831   -22694   -13518 
   -8249    -6349   -11314   -19608   -23518   -26832   -26687   -20799 
  -20125   -26767   -28243   -22607   -25266   -36363   -41850   -43493 
  -41885   -25657     -226    14533    15044    11042     5750      -63 
   -2651    -2219    -5316   -13106   -14717    -7438     1071    11396 
   19088    12290    -3983   -15120   -15215    -6392     2910     1331 
  -12747   -28746   -42419   -50736   -40916   -18807    -3799     3563 
    7007      245   -16136   -30295   -34611   -28254   -13660    -1456 
     329    -3108    -3908      547     6347     7133     3648    -1398 
   -6902    -5112     7245    22168    35563    45277    45598    36824 
   23472     6929    -8752   -16219   -18622   -22741   -25289   -27975 
  -34851   -38079   -35110   -33151   -34253   -37085   -39764   -39034 
  -36312   -35017   -32151   -24295   -19746   -22630   -19807   -11631 
   -8895    -6407    -2987    -1458     1750     2321     -738    -1751 
   -4418   -13376   -23876   -26691   -21578   -16404    -8375     2806 
    5308     2571     3542     2150      634     6102     7688      322 
   -3660    -3022    -5322    -8825   -13031   -17788   -18541   -18825 
  -22787   -27611   -31264   -34504   -37574   -36126   -30842   -26210 
  -18307    -8293     -934     9095    22933    33554    37240    32686 
   18804     -263   -13751   -16470   -14412   -10956    -7206    -7330 
   -8717   -10248   -15686   -19539   -18611   -18632   -18908   -14742 
   -8709    -9705   -19676   -30680   -42753   -56665   -63456   -62115 
  -55115   -42917   -34055   -33358   -33349   -26599   -15681    -6314 
    2673    12328    18245    17720    11018     1157    -6856   -11641 
  -13327   -15212   -24878   -39622   -49224   -51047   -42347   -18494 
   10374    24522    18933     7400     2442     5602    12256    10947 
   -2933   -18952   -31244   -36450   -30321   -21969   -18982   -17368 
  -13367    -2349    13215    18868    10222    -2477   -11925   -17828 
  -20311   -17438   -10121    -4497    -4097    -7206   -12141   -15265 
   -7638     9307    17615    14516     9890    -4339   -28471   -43709 
  -46282   -40795   -26468   -12805    -9835   -10939   -10437   -11487 
   -9197    -2347    -2001    -4833    -2746    -3639    -8029    -4070 
    9116    20184    21548    10535   -15694   -45199   -56783   -51550 
  -41736   -28169   -16783   -17670   -26660   -36574   -42676   -39245 
  -29234   -18553   -11702   -11586   -13047   -14217   -16844   -17681 
  -12266      458    12009    15142    11384     3753    -4181   -12299 
  -19564   -21784   -21098   -22498   -24799   -21171   -12913   -11142 
  -14889   -12632    -3993     4135    10868    16725    19204    19264 
   20010    19373    13447     3285    -5316    -9486   -12066   -12571 
  -10481   -10431    -7219     3176     6751     3359     6647    10904 
   12253    19591    28068    28049    22119    12976     1874    -3642 
   -2106    -3584   -14264   -28665   -39250   -43225   -38632   -27343 
  -14797    -4976    -2208    -5302    -7374    -7848   -12997   -21613 
  -24213   -18416    -3387    17175    26430    22567    13443    -6004 
  -26537   -26514    -6827    15650    31434    39572    38627    25987 
    3769   -16545   -23857   -23540   -25374   -26478   -23582   -23344 
  -30740   -38864   -38058   -26516    -9252     2811     1544    -8378 
  -17304   -20704   -18378   -12709    -8537    -6275    -1289     3164 
     735    -3143    -5439   -12650   -18329   -10703      409     3157 
    4441     2604   -10259   -22486   -29252   -40352   -50784   -51159 
  -46025   -39274   -26603   -13549   -11550   -17605   -24012   -25366 
  -16637     -588    15064    21138    14730     4308    -4402   -10244 
  -11773    -8206    -1041       -5    -9664   -21058   -29551   -35492 
  -34635   -26036   -17367   -10776    -1269     6889     9207     8314 
    -610   -19680   -33061   -25712    -4976    10842    13903     2152 
  -21667   -41270   -47091   -44629   -36296   -23289   -12354    -8151 
   -6184    -3744    -6919   -13811   -22083   -34925   -39227   -27158 
  -14285    -9795   -10294   -12275   -17171   -27079   -34628   -36750 
  -38308   -35374   -27708   -26176   -34526   -45906   -51750   -47765 
  -32465    -9703     7121    11714    11206     9879     7014     6030 
    9511     9902     2125    -8040   -15940   -18620   -12437      460 
   11247    12135     7293     7595     9437      642   -13083   -19212 
  -19642   -18631   -16082   -14181   -15695   -20237   -24774   -27476 
  -26091   -19009   -10520    -4954    -6237   -16906   -27473   -28508 
  -25639   -26069   -26902   -25469   -26765   -32544   -34140   -22007 
    -655    16942    26928    26288    11682    -5598   -12642    -8631 
     868     9189    12742    12363    12191    12639     9866     9423 
   13522     9518     -573    -2988    -1008    -1630    -4518   -10264 
  -20309   -33790   -43323   -46223   -46496   -39832   -28944   -23673 
  -20551   -17164   -16177   -15602   -15216   -14114    -8862     2166 
   17175    28913    31514    24294    10022    -5014   -16130   -21993 
  -26517   -33556   -38249   -41722   -50029   -52354   -38895   -22014 
  -12630   -10305   -17029   -32295   -48436   -56151   -51124   -36471 
  -16549     1720    10756    12367    12225    10343     9049    16364 
   26285    25247    20714    22964    24629    19760    10794     1128 
   -6792    -9776    -4508     3289      793   -16141   -35549   -44290 
  -44921   -41000   -29974   -18043    -9300     -913     1074    -5879 
  -11929   -12790    -9226     -816     5435    -2352   -26118   -49956 
  -58011   -52794   -40145   -22828   -10958   -12122   -18810   -20907 
  -18685    -9739     8070    22576    27067    25437    15019    -7053 
  -32674   -48010   -46588   -32974   -15436    -3418    -2703    -5948 
   -5603   -10081   -22119   -28609   -22960    -8370     5003     3891 
  -13422   -34742   -45075   -44295   -39981   -30478   -18323    -9812 
   -2052     8967    18027    17894    15169    15623    13796    11578 
    8059    -4378   -20300   -32036   -37520   -32548   -21586   -18513 
  -27304   -37446   -37203   -27773   -17920    -6287     6209     7376 
   -1688   -11036   -18823   -24439   -27447   -23129    -8048     7526 
   14820    11459     -962   -12171   -14610    -7484     4647    16689 
   28340    31681    23295    15039    10510     6177    -1662   -19649 
  -41486   -55116   -60829   -59586   -50495   -39394   -32949   -32112 
  -32990   -32541   -29125   -24626   -27801   -38379   -46648   -51542 
  -50315   -39257   -31633   -34657   -39188   -45531   -55982   -60681 
  -52058   -36276   -23497    -9742    11616    32623    46771    52351 
   44504    29439    18544    11064     6929    12314    26101    39951 
   50603    59763    63199    56968    42410    19309    -7112   -28996 
  -44144   -50270   -47803   -40095   -33261   -32526   -33407   -36993 
  -45762   -49371   -45113   -40182   -35929   -30901   -27655   -24817 
  -11479    15531    45880    66756    67731    49613    21576    -8503 
  -28284   -29403   -18876    -3360    16275    29640    21460    -5488 
  -33792   -56213   -69530   -62976   -36661    -5842    11253     8926 
   -3666   -25586   -48611   -49615   -31856   -11613     7717    19818 
   22222    23351    29756    38139    38090    25633     3344   -23707 
  -45071   -51745   -39631   -14261     7209    17902    23726    19939 
    3521   -11598   -20668   -28974   -27597    -8467    16273    27246 
   16399   -11030   -44935   -65526   -59928   -45896   -37016   -33066 
  -39567   -43123   -27799    -9355    -2601    -1847    -3531    -8955 
  -13018   -11398   -10115   -18239   -36480   -58598   -73602   -68348 
  -46723   -18900    18258    47935    46797    31045    15461    -3852 
   -9215    14661    47991    60407    37263   -12848   -63141   -88511 
  -80147   -49791   -23637   -13384   -12510   -17794   -20033   -15006 
  -18721   -32145   -40185   -36917   -21248    -2599     5120     5751 
   11502    21643    19390    -6005   -41363   -67791   -75130   -57406 
  -17605    20526    24948    -5366   -45716   -77158   -84391   -70211 
  -53801   -35351   -11346     6499    14415    21089    31577    46065 
   61317    68662    66146    55449    34644    15086     5157    -3068 
   -6908     2242    19041    28530    25201    19169    15036    13154 
   19632    28630    24175     1668   -25554   -33480   -12292    24005 
   56782    68060    51486    21044   -11333   -38522   -51704   -51259 
  -45174   -36722   -20929     2127    23701    37081    33668    10778 
  -17434   -34100   -30224   -14882    -7839   -13256   -26651   -45005 
  -59891   -64265   -63317   -63088   -53853   -35283   -25349   -23459 
  -17752    -9814     -903    10578    15115     7991    -1294   -14583 
  -36539   -55364   -63579   -63453   -51194   -18747    23686    46285 
   38842    13392   -21673   -48804   -50582   -36079   -14269    20847 
   64691   101921   122944   124766   107987    75769    39340    17818 
   14558    12590     -435   -26678   -58075   -77568   -77829   -57692 
  -19738    12441    14271   -15218   -62507  -109312  -140801  -146467 
 -119267   -65121     -489    49263    64573    51565    15625   -36683 
  -73810   -77241   -52987   -10124    28740    38974    15799   -26269 
  -63383   -84384   -88075   -71572   -46675   -33565   -36556   -44769 
  -46871   -42452   -30703    -9470     4761     -398   -11552   -18330 
  -20010    -8831    16247    41889    56287    55625    39546     6515 
  -32811   -51867   -39146    -3976    41480    79103    87696    58698 
    2926   -51326   -79114   -72752   -32149    21079    52466    62304 
   69894    80668    94104   102468    93987    62954     9991   -56371 
 -116550  -145769  -132370   -80011    -9434    45116    70780    69446 
   39840     5694    -3953     9218    33018    51399    52504    42410 
   19203   -14813   -37774   -50744   -68080   -87527  -105791  -115040 
 -110712  -100188   -80638   -58453   -53909   -60854   -61795   -56432 
  -44489   -22601       67     9286    10194    20564    29301    14938 
  -11936   -45358   -88777  -114826   -99203   -52625     4203    53935 
   79101    72727    44361     9843   -14934   -29790   -44891   -55520 
  -62098   -73067   -76287   -62156   -46624   -37506   -21529     1552 
   22916    50462    78394    85443    80291    73411    58016    44115 
   39620    42034    53566    63336    51970    16048   -30112   -75148 
 -110696  -114594   -81568   -36095     3615    25101    19880      928 
  -15964   -28934   -39647   -48879   -57851   -67966   -79456   -91076 
  -97210   -85027   -49516    -5210    20961     9094   -24684   -47574 
  -52735   -42683   -21796    -9215   -17191   -39421   -55226   -49508 
  -27583     4542    34435    42843    35211    34976    53588    78244 
   91877    99984   102824    78505    33734    -1265   -22322   -28135 
  -11324    10997    15911    -1184   -31237   -55947   -58345   -37032 
    -910    36866    56289    44691     6497   -34941   -52048   -43388 
  -18305    10231    21471    17411      731   -33549   -62992   -69678 
  -55882   -20657    26219    55444    49950    28713     9744    -6540 
  -11424    -6860    -6037    -5538    -3072     2119    19998    40383 
   51804    64424    65174    36871    -1376   -37675   -75188   -99189 
 -102250   -97220   -81433   -50303   -20791     3066    26760    34025 
   11904   -26064   -61507   -92815  -113876  -102229   -67057   -43158 
  -33887   -25950   -20858   -30095   -58118   -91001  -111370  -112621 
  -92070   -49675    -4802    19595    25468    15824    -1204    -1195 
    8729     8392     2143   -16301   -52883   -85321   -92030   -75358 
  -53547   -39349   -39674   -55223   -66846   -57421   -28055    11036 
   36883    35042    24996    21697    10937    -3329     6083    38527 
   67343    78001    74621    56612    23017    -1339     2196    16018 
   20439    11980    -1191    -6120    -1175    11600    23888    17328 
   -1542   -11874    -9390     9628    41674    67396    79358    79531 
   61680    28018    -6235   -38040   -70607   -89521   -81630   -57622 
  -39388   -41770   -62139   -86733  -100280   -82648   -34118     6634 
   17201    18290    24123    26345    20427     3804   -32427   -76722 
  -98129   -93207   -79442   -61183   -40501   -20123     6078    40739 
   73747    86005    68887    36674     9454     4400    23037    42922 
   51108    49150    34376    11732    -8287   -24442   -38700   -41631 
  -26597    -9664     1652     5188   -20158   -63014   -91195  -107576 
 -110800   -89633   -57846   -33386   -29787   -45136   -58248   -67074 
  -70209   -58463   -45345   -32315   -16539   -15926   -26130   -37052 
  -46354   -29175    17331    57771    82412   111322   133009   113625 
   73862    57061    56343    61703    87930   119679   116130    80747 
   47964    16602   -15582   -25969   -18551   -10907    -2953     5994 
    5815   -18394   -55562   -76432   -80256   -74023   -53127   -29838 
  -20407   -21220   -19445   -13764   -18191   -29192   -30695   -33490 
  -43058   -39100   -20595    -4033     6300     9037     2589    -1520 
    8061    25211    38902    47430    53064    46272    16756   -13255 
  -15374     4494    29583    47879    46841    28783    15437    16212 
    9667   -25468   -82127  -128035  -139952  -124822   -92762   -54661 
  -31111   -36022   -67137  -102553  -117761  -103165   -63609   -17802 
   13414    14652   -14651   -47547   -52076   -22090    15875    28564 
   18067     5843    -5928   -12029      544    15672    13542     3730 
   -4991   -14620   -24261   -31788   -35019   -32652   -20269     2587 
   23492    34774    36226    22703    -2189   -24175   -39306   -47449 
  -44605   -36101   -24856    -9836     1100    14175    33599    36689 
   17808    -2341    -8961    -4635     1907    16566    29504    12785 
  -19555   -43709   -66961   -84699   -88050   -86688   -86245   -86508 
  -78320   -50445   -16646     8178    25235    29123    15239    -7134 
  -22067   -24499   -22007   -11950     7048    20265    20677    14827 
    5947    -5226   -10954    -9842   -11930    -9233    14042    41655 
   54146    57115    51995    37658    24261     9306   -20203   -49773 
  -51767   -32179   -10611    13103    36276    46638    49552    59988 
   73372    77028    75835    76002    64480    36939    14278     7841 
   10594    18931    28366    27194     7521   -24046   -47358   -45722 
  -19404    20522    60113    81428    74285    48688    21211     3190 
   -5739   -13535   -17613   -13534    -1597    11210     4941   -21306 
  -47446   -65220   -67075   -48355   -25778   -16489   -28640   -61897 
  -98217  -118923  -117702   -96476   -66242   -46059   -46100   -53269 
  -57283   -57113   -44428   -22742      311    27369    48278    44925 
   15992   -15000   -22805    -6390    31921    82697   111410   105782 
   84863    55235    26266    19205    26982    29007    19994    -5812 
  -32689   -25584    11277    43677    51836    37956    12069   -13017 
  -18797    -9198     -306    14786    31393    33560    24209      786 
  -32827   -56235   -66887   -67420   -54775   -38229   -29346   -26494 
  -17499     1667    21067    31753    27242     2340   -39154   -80237 
 -100136   -98288   -91973   -83660   -65184   -43156   -23998    -3043 
   13475    11350    -5697   -22305   -30562   -23336     3436    34890 
   52361    51614    36664    19755    15378    21939    28579    30416 
   21201    -5640   -35647   -46367   -44627   -48197   -52474   -54447 
  -68176   -88278   -88314   -68715   -44690   -13759    13676    17131 
    1224   -19338   -37385   -46861   -38742   -16958    -1808     2848 
   -2598   -30183   -60762   -63361   -47764   -29033      500    33318 
   46785    42477    30548     8589   -13464   -22400   -27177   -38396 
  -49254   -51801   -50200   -45312   -34061   -31612   -50505   -71950 
  -83561   -94419   -93709   -72409   -52290   -45468   -47178   -50724 
  -47661   -39835   -23180     7649    30716    28048     8461   -10141 
  -14231    -1192    23436    44474    53114    60944    70540    71446 
   65256    56124    38518    16634    10002    23773    38947    39576 
   29480    18547     9579     6092    10338    16376    18449    11520 
   -2551   -12833   -18976   -26503   -33142   -36946   -37852   -34833 
  -28804   -23311   -22683   -23746   -21194   -20368   -22421   -24391 
  -30034   -32964   -26180   -21084   -24184   -24015   -20882   -26604 
  -27111   -10665    -2066   -13203   -28933   -45415   -58735   -57203 
  -46800   -41257   -42090   -44745   -48425   -55854   -58860   -46411 
  -28171   -12919     2996    13894    17492    21753    24185    16588 
     -96   -16051   -19602    -7363    13940    36324    49443    41605 
   18139     -504     1367    26712    58964    76507    78465    70714 
   53074    34341    24728    21314    18396    13392     7238     2619 
   -3435    -8106    -6471    -4256     3096    15841    12283    -5900 
  -15920   -15349   -11979   -12338   -22493   -42179   -63692   -73770 
  -70327   -61511   -46827   -31378   -28664   -37835   -52706   -73851 
  -98273  -118114  -129911  -137240  -134539  -110153   -74724   -47475 
  -32318   -26015   -26247   -32173   -38103   -39297   -39927   -40712 
  -38036   -28841   -13793    -2902    -2328    -6171    -7909    -8604 
   -9146    -2478    11457    26967    45111    57833    54197    37193 
   11351   -13033   -17954    -3286    14574    27350    30664    14687 
  -16958   -46090   -57434   -42071    -9475    16909    24749    11985 
  -13140   -33240   -41095   -37645   -23443    -4902     5282     4454 
    2436     3020    13951    35405    43367    39165    38268    29979 
   15624     6923    -1650   -12818   -21469   -28640   -40385   -55396 
  -65772   -71147   -71472   -60523   -42298   -27924   -21174   -22807 
  -30817   -38087   -37316   -23329    -2677     8829     7502      595 
   -6493   -10339    -6349     8119    23224    26373    20021    11245 
    5605    11251    25843    39195    48832    52093    46322    35334 
   18009    -3701   -17634   -22033   -19942    -4586    20392    38663 
   45181    42077    26771     1535   -20425   -29655   -33898   -35488 
  -23443    -6765     1093     7798    11823     5166    -3322    -4198 
    5393    21859    35174    41930    38454    23753    12230     8514 
    4514     2477     6247    12238    12998     5872    -3927   -18046 
  -37331   -52114   -59662   -63636   -62534   -53176   -37204   -24726 
  -25129   -30121   -26420   -20241   -18948   -18088   -20467   -26000 
