Origin Time       2011/03/11 14:46:00
Lat.              38.103
Long.             142.860
Depth. (km)       24
Mag.              9.0
Station Code      SIT012
Station Lat.      35.8403
Station Long.     139.3216
Station Height(m) 87
Record Time       2011/03/11 14:47:43
Sampling Freq(Hz) 100Hz
Duration Time(s)  266
Dir.              E-W
Scale Factor      3920(gal)/6182761
Max. Acc. (gal)   52.516
Last Correction   2011/03/11 14:47:28
Memo.             
[...]
   18293    16743    16669    17477    17444    17236    18287    20628 
   23790    26543    27068    25623    23082    19161    15267    14092 
   16282    20586    27068    35864    40639    35928    29166    26349 
   22837    19205    17651    14410    12141    14342    18082    23445 
   27834    24373    14962     6112     1322     3401    11012    18438 
   22280    21220    16066    12127    12241    12548    11625    14128 
   21153    26662    27433    27837    30323    31596    30925    30188 
   29043    27888    27152    25568    23626    20334    13789     8939 
    9510    11318    13040    15201    15014    13780    12250     6521 
    -272    -2598    -2233      650     7330    12662    12182     8741 
    6957     7627     9633    12944    16834    18603    18027    18644 
   18876    13753     7544     5861     5393     5112     8314    13966 
   20370    27121    33381    41016    49607    54166    52923    46310 
   35643    26650    23604    24262    24739    25300    29348    33646 
   29195    17823     9323     5624     4882     5821     4455      601 
   -1734    -2352    -2565    -1806       49     3213     7946    13974 
   21637    29841    36241    39392    37078    28743    19272    14220 
   14873    20653    29270    34044    31764    28483    28898    31544 
   33680    30695    22123    16284    14702     9874     3570     1515 
    1049      978     2235     2477     5268    13646    17793    13985 
   14432    22935    30596    34635    36203    33852    29042    23411 
   17235    13453    12977    13725    15085    17218    20726    25705 
   29989    30294    25519    19575    15476    11772    10207    11593 
   11125    11844    19188    25232    24557    22601    18942    11561 
    6463     6709    10989    20825    33513    39999    37388    30002 
   21178    14348    11888    11865    13519    18289    24915    31744 
   39192    44678    44675    41565    36278    25751    15322    13588 
   17001    17016    13487    11122    11246    12120    13484    16452 
   19881    21689    22450    22735    19599    12906     9499    11646 
   12817    10685     8612     6351     2821     1247     3592     7415 
   10507    12187    14065    19437    26540    31315    31596    25468 
   18808    18280    17871    16276    22436    33558    38651    36408 
   32588    30682    29113    25945    21736    16359    12332    12479 
   13257    12734    12237    11899    13563    16296    18139    21548 
   24423    23980    25126    27519    24985    19773    16955    16625 
   18306    19875    19789    21266    24468    25243    22326    17842 
   15735    17625    19393    17403    14253    14799    17708    16178 
    9510     4003     3617     9568    19405    25405    25133    23392 
   22217    20846    17016     9300     5078    11505    24669    38012 
   45246    42475    36893    35395    33141    26945    21853    20314 
   19345    17799    17328    18002    20073    24567    28043    27233 
   25698    25018    21943    18629    18537    18468    16815    16917 
   20954    28203    35019    38169    36720    29772    21266    18369 
   19936    20500    19356    17000    14995    17029    21137    20563 
   14339     8746     8257     9865    10656    13049    16529    17935 
   18662    19262    17918    16907    18913    23698    30679    36851 
   38738    37437    34042    27064    18595    13587    12591    13119 
   15067    17345    15401    10468    10160    13944    15207    14860 
   16393    18646    21525    27095    33215    34978    32021    27969 
   26268    27338    26905    24067    24718    29233    30881    27858 
   23302    17703    12030    11109    16111    21968    25327    28017 
   30718    29095    22608    18769    20243    21267    20835    22177 
   22644    20328    19281    20400    21467    21038    17637    15160 
   17923    20873    20524    20316    19386    15025    10464     8991 
    9772    11515    14374    19369    24898    25346    19926    16958 
   22330    32426    39599    38796    32892    28800    27242    24609 
   20787    19326    21894    26063    29634    30816    28172    25700 
   26807    26737    22080    17251    16367    18113    19081    17766 
   14602     9970     5991     5241     3432    -3781    -9257    -7233 
   -3414     -486     5170    12159    15204    12652     8271     7133 
    9573    13354    18057    21752    22237    21498    21507    22092 
   21477    16205     8618     5082     3600      516     1561     9805 
   17398    20182    22811    25769    25659    22754    17156    10089 
    7142    10110    14499    16205    14178    10580    10001    14704 
   20728    21727    16367     8962     4639     5468     8634    10960 
   14137    18884    22799    26712    30236    30268    29801    32274 
   34195    32896    30175    28094    26640    24428    21540    19224 
   17541    16532    16428    15464    11859     8478     8032     5206 
   -2906    -8344    -7107    -3478     1330     7808    15008    22151 
   25923    25034    24013    23829    22623    23605    27108    27610 
   24051    19239    15710    16850    22551    28889    33427    33990 
   30083    27717    31740    36650    35648    31048    27099    24095 
   22791    23493    24937    26444    26043    23452    20879    16648 
   10521     7748     9206    11503    14452    19075    24651    28403 
   28471    28366    30094    29916    28760    33053    42932    50160 
   49058    42971    36043    26741    14252     3909      822     3085 
    8349    16859    22973    20221    12411     6885     5885     9728 
   17623    23706    24503    25538    27092    22591    15281    10561 
    6883     6027     9296    13273    17878    23017    26642    27928 
   22491    10132     2433     5083    12654    21898    28355    26367 
   20920    20841    26267    32220    36667    40326    40711    35519 
   29605    26636    23549    19245    15082    11212    10329    14973 
   21483    23946    21678    18524    15987    14209    15312    18074 
   19443    19885    19184    16581    14465    15479    18258    18970 
   19651    24247    27859    25641    19632    13217    11351    15322 
   19500    21717    24026    27934    34540    40265    40292    35315 
   27759    21063    18507    20445    27396    35043    35454    30977 
   28206    26736    25799    25867    24938    22620    20760    19945 
   18981    15273     9487     6974     7372     4036    -2424    -4795 
   -1491     4371    13016    23690    28491    23471    17512    19337 
   25822    29097    27320    23261    19271    18983    23971    29409 
   32024    33599    35103    35896    35643    35671    38157    42383 
   46624    51115    54231    53222    50331    48005    42885    33780 
   23552    12718     3432    -1072    -3466    -6223    -7196    -5240 
    -265     6312    11332    17339    27340    34446    32725    25822 
   18768    15547    18771    24201    25290    21230    14360     7140 
    2544      611    -1455    -2803      149     6871    13432    17988 
   20698    19899    15507    13418    16391    18366    15745    14066 
   18866    26614    31703    35199    37551    36004    31901    27349 
   21010    13171     7240     5070     4533     3012     2245     5323 
   10034    12454    13617    16374    21682    28095    31054    29465 
   28070    26937    24348    25498    30736    33421    34517    38210 
   43277    47608    48462    42392    29040    12911     1811    -3418 
  -10493   -19471   -20352    -9337     5702    17284    25206    27305 
   20352    10821     3684    -4187    -7788      594    16712    34347 
   49491    55614    52031    45689    39079    28603    16849    12113 
   14466    19815    29050    39028    42120    36336    25418    17801 
   19076    22918    24255    26267    29826    35672    43857    46872 
   39274    23786     6943    -2092     -687     1408    -2381    -6357 
   -5317    -1581     2449     7349    12524    16312    19775    23631 
   23387    16642     9172     5108     1712    -1491    -1243     1462 
    5027    13900    29313    44127    52848    54901    50364    39643 
   25996    17261    18694    25784    32891    38522    38502    30548 
   22480    21350    22241    19412    16403    14292     8445     2348 
    2022     3513     2429     -179    -3872    -8280   -12388   -14951 
  -12184    -2643     7068    10700    11148    13291    17254    22084 
   25111    20977    10363      939    -3923    -6748    -9092    -9653 
   -4174     8433    19495    22306    20426    17972    17577    20400 
   22475    25176    34323    46166    57646    70826    78806    75303 
   64266    48821    32028    19058     9868     4634     7070    14493 
   19180    17710    12442     8204     6915     6334     4528     2844 
    5148    13026    22678    27629    24664    18916    17554    18484 
   14642     6302      654     1867     7484    12801    14454    12394 
   10163     9581     9688    12712    20053    26817    29648    30567 
   33014    38321    41430    37458    29272    20118    12779    12167 
   17874    26319    35393    39855    35759    26122    14690     3611 
   -2897    -1861     4117    12404    24104    37845    49021    55631 
   55707    45157    27296    12392     2926    -3981    -6200    -4363 
   -4208    -6872   -10568   -14448   -17830   -20665   -19029    -9250 
    -108     -889    -3962      895    10265    19870    33815    51314 
   64833    71117    69463    61052    48835    30436     8009    -7515 
  -14419   -17109   -15544   -12858   -12188   -10145    -3960     3235 
    6798     8186     9652     9374    12218    23836    36054    39597 
   37032    35369    39145    47963    56566    59276    53329    39485 
   20095     -469   -14306   -17352   -13183    -6098      400     3470 
    5110     8146    10728    10328     5885    -3319   -15665   -26719 
  -30662   -24654   -13081    -1494    10015    20808    24116    17638 
   10730     8224     5614     6849    17087    26184    27249    27346 
   27344    22811    19391    21983    25898    28839    33056    36974 
   35201    24721    10840     4084     7173    12299    12998    10044 
    6253     4251     7482    13133    12545     7840    11176    26053 
   44050    56786    64041    66467    60474    49865    43049    38248 
   31926    28437    27914    23267    14288     9421    15055    27640 
   32817    21715     2930   -15844   -35191   -47855   -47476   -41220 
  -31473   -12180    12423    32198    43756    45020    35657    24432 
   19538    19345    20459    22285    22128    18396    18588    29026 
   40409    39815    27887    16070    12924    15300    16922    16885 
   13931     8731     5700     2731    -1985     -992     9367    25233 
   41931    52984    55188    52130    45570    35637    26532    20547 
   16239    13324    11238    10293    13041    18103    19845    17190 
   12938     4682    -6878   -11612    -8658    -6545    -4685      -80 
    4968    12314    24243    33761    34721    31808    29766    27456 
   26380    27674    25454    17800    12121    11582    12005    11283 
    9321     5906     1586    -3062    -6052    -5154      276     8508 
   13989    14983    15036    13231    10126    11644    15939    17380 
   19520    26059    31556    31092    27026    21284    12564     4822 
    5396    13138    21171    28287    36773    43975    44387    38501 
   32293    27725    23300    21263    23877    26454    21875    10416 
   -1633   -10330   -14510   -15365   -16642   -18426   -18706   -19291 
  -20203   -18884   -15261    -6519    10628    29289    40504    43937 
   41334    35533    32967    33973    33607    32093    29311    21857 
   13402     9516     6898     3864     4357     4010    -3514   -10297 
   -6058     6524    20169    33183    46942    59160    65111    65928 
   65917    65432    64539    60620    48765    36576    33680    33236 
   31210    33095    32387    23217    16103    11352    -1682   -14406 
  -15685   -14056   -15003   -13787    -8020     1877     8256     5933 
    6199    13639    15381    10802    13888    24934    32621    33367 
   29810    24264    17699    10822     7902     9998    10266     7989 
   10072    15330    16177     9799    -1463   -11930   -18396   -22895 
  -20793    -7236     6617    13034    19242    25042    24160    22383 
   28018    35877    35921    30856    30258    34735    42127    54359 
   67605    73803    72016    64959    54854    46995    42228    33419 
   18730     3915    -7200   -12161    -5726    12197    28425    31338 
   26184    21401    16938    12385     7993     1763    -6884   -16617 
  -22848   -21223   -16882   -17936   -22133   -20115   -12053    -8435 
   -8539    -2681     7803    18900    30456    35772    30487    23200 
   21659    21985    20929    23899    30675    31640    26238    25238 
   31099    35278    36763    43205    55080    66676    75335    78320 
   69763    48644    23015     -134   -20591   -35874   -39012   -29711 
  -14487     4555    24985    35006    27313    10449    -5297   -17529 
  -22874   -17823    -9717    -5720     1927    16488    22740    12430 
   -3834   -17224   -24712   -20293    -3500    17694    38029    57165 
   72350    75007    61669    41802    26364    21277    27608    37482 
   41795    39796    33445    22774     9009    -3702    -8910    -2311 
   12278    25468    30144    25598    18325    17089    24334    34730 
   41781    43532    41329    36547    28167     9913   -20248   -48937 
  -63108   -64453   -57115   -42927   -28280   -18194   -11231    -5623 
     502     9558    16722    17468    18336    22454    26051    30803 
   35030    32717    27848    26147    25825    24650    22790    24210 
   33723    45531    44782    26248     3259   -10432   -16022   -16635 
  -11824    -5876     3110    20626    34487    33412    25748    14143 
   -4258   -16677   -14535    -5655     7254    26641    45992    55300 
   52330    43604    35753    31778    33592    37465    37840    37842 
   41039    44413    45757    44573    41462    39660    40951    45578 
   50432    46393    31296    13658    -1650   -13539   -19045   -17327 
   -7992    11289    35496    50657    50449    40593    25986     9949 
   -2721   -10249    -9175     4353    21181    32243    44364    56081 
   51317    31088    11314    -1695    -6065     -240     8138    13251 
   21279    35107    47051    50369    43052    27994    15697    16544 
   29965    45494    53863    54619    54061    57845    61627    56527 
   46415    39214    30767    18939     9565     1862    -5535    -6815 
   -1852     1827    -1829   -14057   -27768   -32159   -24927   -11816 
    1544    11174    16469    20938    23458    19780    15504    16965 
   18339    15850    14399    14354    11721     7520     5174     4217 
    5036    12210    23824    28961    23197    14889    10633     8356 
    9392    17165    26364    31905    37042    46210    57821    63386 
   57892    44884    27627    11462     5307     9475    17207    23009 
   22928    18254    13887     9647     4820     5926    15620    22421 
   16052     2417    -6822    -7795    -3459     3445    12900    22551 
   28003    29435    29535    29307    27971    23704    18515    17219 
   19946    25198    32754    37497    34282    24973    10759    -6578 
  -18475   -21507   -21661   -21432   -18204   -12597    -8886    -9527 
  -10132    -2177    11879    19380    22192    32987    48421    57522 
   59580    57038    53653    54208    55669    54367    52026    45627 
   29719     9480    -3407    -7598   -10403   -12220   -10679    -9478 
  -11263   -17872   -31684   -45555   -50046   -45429   -32888   -13448 
    4416    12840    13475    11514     7162     2116     6324    22159 
   37604    44789    45154    42274    39501    33534    21860    15985 
   24131    36659    41777    34883    15784    -8162   -26344   -37144 
  -43170   -39496   -21474     5956    32923    47444    40429    15642 
  -12342   -29448   -31009   -21545    -7114     6567    16214    24429 
   31070    31060    25224    19889    19150    23953    32545    40468 
   45267    48196    45369    29798     8237    -5044    -6768     3163 
   23054    36102    31983    23310    16337     4454    -8645   -14327 
  -11870    -1333    17714    38902    54412    64610    70812    66250 
   49964    36783    36451    41023    43392    44284    42320    38213 
   35566    31159    18846    -2287   -25847   -37663   -29088   -12068 
   -2039     4053    13079    20069    20638    18185    15990    16071 
   21577    32078    41078    43037    39369    34441    28289    17027 
     803   -14596   -24094   -23310    -9206    11715    27195    30923 
   22509     5458   -13120   -28012   -37162   -39430   -37105   -34964 
  -32600   -24310   -10463      498     6410    15302    29481    39364 
   39530    37939    42390    49509    52437    51320    50996    51147 
   49807    51893    56752    54071    44134    34533    21525     2086 
  -13150   -16950   -14740   -10487    -1643    10919    20371    23340 
   23626    22720    18944    17438    22616    28597    31190    32951 
   36047    41620    45814    40954    29642    21112    16590    15622 
   22652    37253    52387    60470    54798    36073    14519    -1671 
   -8236    -1761    11088    19269    24396    31447    36452    34186 
   21716     -672   -25128   -41424   -44373   -36009   -22265    -6256 
    7465    10765     6210     5055     8310     8918     4547    -1681 
   -4039      922     9406    15582    18114    18514    18749    20674 
   24387    28097    30034    28960    23486    14496     8520    11129 
   18325    22492    20326    12885     3888    -4666   -12811   -18746 
  -20986   -20428   -18115   -13875    -7462     -949     2569     3228 
    3973     4639     1291    -4785    -6328    -1692     4454     9894 
   14857    20203    28092    37193    42719    44861    47040    49013 
   51235    54900    55780    51950    47098    39818    27710    15197 
    5632     1138     5832    17560    30491    42379    49636    49574 
   45333    39964    36696    39666    44244    43095    41282    44608 
   48372    52237    58695    58257    44668    27683    13796    -2030 
  -20483   -34805   -40905   -37597   -26808   -15277    -6960    -1958 
     175     2335     3941     1182    -2023     -298     4805    12341 
   21160    24927    21835    18956    21801    31048    46029    62279 
   72335    72180    63525    51640    42344    39837    43807    48800 
   49920    46969    43242    40416    34154    22647    12482     5598 
   -1867    -7649   -10778   -16358   -24089   -30300   -33826   -32803 
  -28209   -24541   -24030   -26997   -29808   -27122   -21749   -17943 
  -13331    -7445    -1081     8317    18104    21693    20361    19440 
   18923    18360    20357    23981    26218    27980    31438    36239 
   39680    39475    36780    34729    34791    35387    33805    30626 
   29556    31968    35866    37874    35710    31918    30596    30841 
   29590    27831    27974    28861    28220    26950    28821    36478 
   48063    56769    54685    42290    30145    26194    29040    34453 
   39006    38396    30375    17601     4371    -6504   -15764   -25692 
  -32512   -29662   -17533     -143    17784    28107    27639    23377 
   20099    15791    13745    20854    33771    43148    45946    44137 
