Origin Time       2011/03/11 14:46:00
Lat.              38.103
Long.             142.860
Depth. (km)       24
Mag.              9.0
Station Code      SIT008
Station Lat.      35.9745
Station Long.     139.7526
Station Height(m) 5
Record Time       2011/03/11 14:47:39
Sampling Freq(Hz) 100Hz
Duration Time(s)  300
Dir.              E-W
Scale Factor      3920(gal)/6182761
Max. Acc. (gal)   201.189
Last Correction   2011/03/11 14:47:24
Memo.             
[...]
  -59085   -48694   -30268   -14885   -12619    -9795     1278     6014 
    1819     1098     4868     7231    11699    22669    35753    48410 
   59808    66732    72784    80698    84133    81274    78238    76167 
   70431    66227    75218    93757   110079   123477   136975   148491 
  155481   158217   156956   145031   116774    81526    51777    29391 
   11409      -10      562     6128     7058    14245    33384    44133 
   39880    39481    44658    41194    33816    35111    43673    49452 
   46150    42972    47887    47708    34950    21875    14400     4344 
  -15151   -39281   -55226   -61548   -69739   -77001   -70360   -53516 
  -39117   -31591   -26862   -20017   -15625   -16797   -11067     5144 
   16720    20231    23619    27268    28033    22297    11445     1771 
   -7984   -20684   -32186   -38228   -39590   -37191   -30972   -22670 
  -11659      853    13089    29530    49410    66980    80369    87799 
   91162    95331    99430   100678    95732    81230    61570    41497 
   20368     1392    -9034    -6138     9060    28793    49699    72575 
   96823   121365   140464   151420   156052   149566   130146   102053 
   69267    40345    20397     4862    -9534   -18530   -16530    -5692 
    7767    21092    34256    45879    50858    46694    38064    27254 
   10369   -10211   -27615   -42247   -55167   -62356   -62226   -60388 
  -61397   -58386   -45133   -28531   -15240    -8575   -11534   -14752 
  -10244    -4757      -13     6950    13444    18725    23598    29395 
   39491    49409    48903    39799    31227    23937    17985    16983 
   21524    31931    49212    71803    94263   109308   114741   115108 
  111931    98626    70989    35992     4098   -21048   -39869   -49518 
  -46564   -36839   -28502   -16777     4222    28116    49080    68020 
   83724    95100   102748    99368    82132    65982    55818    37221 
   10119   -11841   -30876   -57378   -83126   -91670   -85754   -72426 
  -49599   -26060    -6468    18233    40387    53005    68565    85373 
   91208    87421    76171    57069    35670    16609      150   -14135 
  -25486   -30993   -30183   -27000   -23216   -15609      217    20172 
   31992    34496    39546    49713    54365    49104    39972    32539 
   26962    17883     5700    -1780    -4428    -5661    -4423     1128 
   10348    17051    17667    17565    20194    22299    19852    12462 
    4086    -2165    -2348     7433    17577    20835    25867    31989 
   31490    26004    16881     5153    -4989   -12607   -17705   -15865 
   -7971    -4037    -4026     1142    10481    16043    15091    14930 
   22618    30914    31862    34944    49019    65022    75708    89622 
  114045   135208   139200   143871   163838   182027   187463   187456 
  187707   184616   167712   135791    99611    62575    23463    -8800 
  -30659   -49657   -66489   -78220   -80531   -70948   -58104   -48786 
  -42756   -31570    -5460    23769    39149    39901    34672    32393 
   27241     9676   -11510   -21778   -21880   -25216   -32907   -34931 
  -29434   -17057    -4238      814     4954    14077    22376    24749 
   27464    40546    55207    55784    48472    50098    60532    66358 
   63923    61718    66244    72314    69724    60976    58710    63244 
   58569    39471    23067    20560    24690    28048    32018    39846 
   46220    42288    29634    16306     6272    -3111   -14437   -23752 
  -28942   -31598   -29143   -21509   -15577   -15667   -16928   -11261 
     434    10844    15163    11288     5444     5644     6504     4506 
    7249    16063    27368    39493    47341    50335    54028    56486 
   53397    47959    43947    38663    25715     5119   -13070   -23265 
  -33063   -46232   -55312   -57491   -55584   -49595   -39756   -26697 
   -8808    16695    48838    81229   110582   135807   153423   163815 
  169656   170857   166071   153525   134425   114413    99522    93168 
   90686    84000    75113    69866    67854    63626    51470    33405 
   15023    -1205   -12449   -15703    -9821      916     8292    11940 
   17389    22539    18568     3697   -12098   -22213   -34160   -54930 
  -74165   -74185   -56388   -40321   -31515   -19298    -6185    -1788 
   -1430     1578     5911     8004     1848    -9538   -10637    -2273 
   -1269    -7088    -3831    11021    22065    20622    15011    15128 
   21165    26574    31722    41361    50268    53005    53054    51861 
   44412    29899    18527    16514    15499    10622    10517    20838 
   35816    47452    53615    61065    71182    71234    60451    51414 
   47033    46413    49162    52682    58330    68049    78354    85814 
   92487    98407    99864    99984   102160   101762    97158    91729 
   87024    81227    71943    61026    51076    42541    34116    20791 
     609   -19911   -35410   -49739   -67589   -85076   -95727   -99667 
 -101354  -101202   -94666   -83249   -76616   -75945   -73000   -67662 
  -66397   -69950   -73182   -72512   -69585   -65737   -58675   -47385 
  -36940   -30995   -25242   -20127   -20502   -24410   -28319   -28668 
  -23986   -18802   -13416    -2257    14025    28633    41505    57770 
   75056    87633    93257    94764   102806   119408   132843   140731 
  149255   159136   165629   162606   152294   142500   133749   122850 
  107931    89135    69986    51381    35603    26233    18723    14595 
   17435    15477     6423     3386     6871     9612     9347     5005 
   -3672   -17519   -33886   -49144   -65403   -77180   -76591   -69511 
  -63577   -59959   -54857   -40873   -16173    13208    40479    64571 
   87617   108079   125335   139902   147274   145412   137259   125636 
  111941    91704    64549    37874     9599   -18630   -33394   -34844 
  -28510   -16358   -11327   -16766   -19747   -19240   -19005   -17327 
  -18528   -25087   -34752   -46058   -50958   -46267   -42761   -43710 
  -42268   -38399   -37503   -39705   -36933   -27681   -19762    -8718 
   13607    41843    68028    87372   102430   116333   121354   121612 
  129728   139386   145975   151363   148107   142671   148083   157188 
  164240   172921   177373   173100   166081   156127   141269   123794 
   99768    70689    43792    15672   -15763   -45751   -73626   -97485 
 -114858  -126980  -128000  -113008   -90333   -72214   -68143   -76183 
  -85413   -95649  -113308  -135053  -150618  -157309  -163020  -169411 
 -167912  -155173  -132776  -107244   -91921   -79991   -54836   -31066 
  -20018    -4769    12888    20452    28342    45211    71541   104263 
  124915   126080   120622   117198   116758   115239   112328   106805 
   93703    81843    78545    77737    74855    68240    55421    34886 
   11891    -4997   -17749   -34727   -48861   -44476   -29971   -26384 
  -29971   -24220   -11967    -6969   -10064   -14072   -21302   -36275 
  -51574   -59674   -64725   -71284   -72354   -62363   -53510   -56427 
  -62911   -59387   -38896   -10139    11314    28534    51088    69066 
   70216    63373    61319    61953    61021    60155    60242    64688 
   78321    95036   102648   100608    92481    71414    43075    26524 
   18713     8275     1202     8153    28231    44499    45770    44600 
   49445    46680    28022     3848   -15922   -33120   -54886   -80711 
  -99393  -105539  -109976  -121083  -129029  -122590  -106987   -92666 
  -77409   -57455   -36420   -11709    14830    37749    62635    85954 
  101259   109355   106403    98650    93283    86605    79151    68737 
   56228    52816    59878    66715    66779    68709    80382    90903 
   91702    88367    86468    85847    84534    86307    96397   112447 
  129586   145053   158769   172525   181830   179164   165722   144720 
  117277    85776    50349    14612   -14193   -35146   -53685   -73186 
  -89849   -98226   -96997   -93124   -88087   -67411   -30491     5013 
   30051    45473    58407    74175    85131    85008    75999    59842 
   42438    26309     5268   -14637   -25424   -33909   -41941   -47686 
  -56263   -66311   -67189   -53589   -30910    -6228    17814    47170 
   87201   127882   157507   172670   180742   198254   220326   229678 
  229030   221509   204250   180728   150674   113234    72641    27893 
  -22518   -73130  -120326  -155004  -167896  -174050  -181832  -172749 
 -139876   -88027   -29762    14095    55569   102523   122602   115988 
  106295    87461    54740    12549   -38043   -81547   -95832   -80185 
  -52875   -26387       45    16451    12617    18797    54377    88199 
  109993   133202   153556   172847   195133   217033   239175   252161 
  247896   237239   224855   201943   163828   116495    75686    41817 
    8175   -11132   -30218   -72898  -109731  -131135  -159170  -180885 
 -188657  -189572  -176822  -157629  -141944  -116273   -72306   -30661 
   -8963     1599     9920    15837    13042    -6807   -33754   -52832 
  -72105   -99985  -117871  -118648  -116307  -104566   -84412   -78027 
  -77242   -62470   -53396   -64833   -70031   -56166   -34545    -7939 
   18672    43204    69250    93931   119486   137167   128535   109580 
  101986    96318    85876    72388    61281    62806    66003    61313 
   57465    48673    38572    45504    57809    66798    82388    91803 
   90829    95454   100561   103361   111550   111707    92494    63206 
   34318    19050    19257    15138     7722     5792     2437     2422 
    3630      513    -6053   -38929   -92076  -113640  -109562  -121936 
 -136038  -132875  -113398   -73561   -38468   -15743    16811    40311 
   40120    32530    17332    -4700   -20661   -33306   -49731   -56869 
  -46901   -29924   -10146     7468    18451    25034    24629    22402 
   22069    15992    10484    12401    18265    28366    36249    39832 
   47354    55655    60294    60587    49504    32682    30267    33409 
    9146   -29785   -38751   -22645   -12593   -12197   -23426   -42193 
  -48195   -46356   -51611   -58565   -57862   -39753    -8595    12103 
   21905    39984    67527    97373   123989   135771   123408    88541 
   40121    -9938   -49989   -77784   -94361   -93661   -76658   -54809 
  -35657   -13499    17779    49687    78778   100702   100989    89561 
   82535    70708    50409    34555    30286    35038    41629    40447 
   27938     8529   -12404   -27120   -31544   -32130   -29502   -14676 
   13100    42379    63751    82138   101282   110933   109163   103186 
   87366    55858    18009   -13130   -33317   -44259   -41163   -16620 
   32968    88972   107934    96662   103317   120571   123750   122681 
  114280    96909    95656   107729   106374    90329    71903    57238 
   41051    15460    -9615   -22464   -17616    10261    45344    70317 
   97438   132776   158440   165548   154077   118113    64941     7682 
  -57459  -128574  -187094  -220637  -233669  -234494  -218784  -174421 
 -104059   -40351    -5889    23235    63512   101833   131560   147925 
  155117   161877   154134   131640   108340    73080    25414   -15167 
  -44398   -61374   -59648   -42212   -18581     4298    24461    47276 
   75471   100361   118046   138328   162772   173500   160747   135999 
  105718    69247    35550     6309   -25254   -58073   -88140   -98948 
  -84530   -74350   -78115   -72417   -52873   -34580   -14751    15046 
   43307    69798   101169   120786   120056   103789    72573    34254 
   -3475   -38595   -70211  -100551  -125127  -136270  -134842  -122623 
  -98944   -69957   -46605   -33490   -31536   -37126   -39975   -41863 
  -46359   -37065    -7226    28257    56424    72316    80702    78789 
   56367    26222      531   -20833   -29894   -33039   -34900   -11333 
   42730   102651   148485   172225   189364   219881   251037   263521 
  262928   260276   255771   248210   234004   209691   186481   174889 
  170253   166712   163195   157148   141894   116675    87943    57753 
   28642     5521    -9097   -14417   -14748   -17001   -30669   -57624 
  -77767   -79377   -78943   -89155  -101461  -110239  -128119  -156792 
 -178248  -184616  -181341  -178287  -177513  -168313  -154597  -150862 
 -156558  -167003  -173472  -166077  -159246  -157898  -140267  -109905 
  -77473   -34415    11392    50549    87396   111184   112791   110127 
  119482   136153   151774   163832   172800   174696   168562   168401 
  177887   182486   179934   179177   175240   158695   140298   130919 
  115988    81463    41128    18422    20888    37931    46745    44558 
   57441    70882    57231    59536    83742    67737    34534    24212 
   -1653   -43120   -71225   -95554  -117596  -131984  -140775  -142282 
 -144628  -152158  -148451  -135971  -148712  -182849  -192898  -178666 
 -169438  -159119  -141050  -119182   -88474   -60366   -43315   -26561 
  -11496    -3835    -2239    -2639     3124    11513    18117    29737 
   42004    50034    59459    69614    79964    96901   117813   130282 
  134048   138488   145731   158061   176458   192986   199680   196025 
  191388   189314   183384   173658   150510   102932    51185    16355 
   -3676   -17356   -30027   -35425   -27724   -12648     5438    16535 
   12629    23658    76966   102616    28458   -40824   -19136   -13530 
  -48805   -46740   -42903   -82706  -131601  -144804  -125509  -108660 
  -95886   -90520   -92405   -69529   -31501    -3339    18128    36315 
   69776   102066   100897   108459   115463    76839    49555    42857 
   21758     9630    -9167   -32199   -20735    -2609     -481     6436 
   28612    68131   115095   153091   204376   267418   281134   286303 
  335423   339766   312974   330479   330411   298189   275336   252871 
  212168   134548    48090   -15538   -76268  -128918  -163278  -199028 
 -234190  -260488  -276085  -268410  -248807  -235194  -224325  -210071 
 -180211  -150594  -139052  -111841   -65929   -30358       23    26236 
   33983    30122    32656    27570     3892   -20148   -53862   -93699 
 -111740  -112769   -95166   -57175   -17939    25869    75790   105110 
  105063    95033    86641    82082    81463    87949   102713   100173 
   77321    69240    74180    80464    95020   105660   110685   121431 
  134986   155826   184409   204528   207918   201883   196798   184320 
  153234   115787    81715    43947    -6282   -60761   -98093  -119383 
 -131725  -122570   -95278   -70997   -50821   -18395    26525    63644 
   76320    59785    25557    -3365   -20885   -40983   -70469  -101441 
 -128243  -148789  -159681  -166745  -172367  -163720  -139836  -109831 
  -75724   -47342   -27852    -2990    28930    58605    80366    97094 
  118309   134620   135493   134982   130884   111032    91841    84436 
   81908    81029    75766    62900    51557    55292    77823   109612 
  142734   167758   180030   192221   196684   170840   123319    70000 
   21329   -12991   -45086   -78624   -95942   -90136   -56993    -3253 
   38029    57341    78638   104728   125719   143489   150572   136125 
  106575    77595    53300    30330    13310     -511   -19942   -44246 
  -69235   -85307   -86724   -83386   -83873   -86069   -83680   -73172 
  -56312   -39773   -32619   -31241   -26250   -21643   -21292   -23520 
  -23454   -14165    -5093   -11836   -28748   -39041   -39893   -43414 
  -60792   -89769  -116999  -130988  -127875  -115958  -109151  -104993 
  -93575   -76231   -52525   -25422    -6911     7299    24787    37914 
   41645    36243    25654    20191    31023    54548    64777    52293 
   39820    36701    27698     6873   -13957   -31937   -51081   -58765 
  -53680   -55482   -66016   -75367   -75738   -53680   -12010    27383 
   54254    69620    76757    82215    83735    76759    65391    49381 
   33022    25294    16332     1469    -9134   -11343     1469    23159 
   41751    60970    70831    65981    61522    57546    49308    43801 
   48547    61671    72478    79715    91112   102033   104673   108202 
  118012   119641   108210    95339    85610    81833    88111    98663 
  106643   110261   111547   113603   114537   113335   109668   101267 
   93053    89294    83041    64979    32426     -115   -10124    -6613 
  -22617   -53860   -59429   -44059   -53622   -71899   -62841   -53138 
  -47413   -19480    11330    24376    32430    48283    63974    64164 
   56197    48057    32500    18667    12107     -778   -13911   -16622 
  -16419   -13332   -12612   -19349   -13549     4426    17609    33613 
   65706   117679   155749   135778    97881   100194   114503   116489 
  127092   131422   116368   106815   105712   100976    88802    66869 
   45703    36267    35014    32270    18363    -2819   -21698   -43541 
  -66698   -83157  -101553  -119814  -125270  -133067  -159083  -180430 
 -177543  -168081  -162793  -148761  -126392  -110892  -100653   -87083 
  -78612   -73106   -64978   -67902   -73771   -69827   -69594   -71654 
  -62665   -36304    13513    61988    83138   109883   141007   128305 
  116094   148812   174130   188432   213537   214080   202966   213126 
  219038   216216   215951   203864   191040   187842   179229   172435 
  171451   163726   158910   167060   175821   175084   173684   175017 
  163101   139984   125468   122526   115627    93964    75110    64277 
   45107    32255    25557     3031   -17525   -25062   -37773   -61110 
  -85877  -105851  -122964  -123744  -107754  -102734  -102981  -102477 
 -113671  -114280   -93664   -95469  -141821  -172613  -159712  -157903 
 -165086  -147945  -122393   -98277   -78118   -60433   -42511   -40253 
  -47061   -47613   -47337   -44379   -44889   -62247   -81282   -84623 
  -76416   -58745   -34545   -18844   -14209   -10358    -9062    -7999 
    5865    25894    40762    56402    71277    85476   114239   152358 
  182987   212062   242609   259946   263424   262630   259938   264419 
  268971   248414   218609   208147   208971   209390   198288   168555 
  135170    94426    25092   -57481  -102363   -83818   -72257  -143141 
 -222677  -240514  -249701  -253850  -235376  -229412  -229667  -237197 
 -246585  -200849  -145290  -168226  -189293  -148278  -152923  -185459 
 -152285  -127015  -135807  -117941  -102772  -112320  -112277   -95772 
  -76627   -49480    -4710    37480    51951    51130    71620   130157 
  193268   211580   193560   185381   188364   183515   180425   179350 
  175421   174469   170728   168844   176144   184104   189935   191092 
  191146   200593   207152   196528   182880   184516   189267   170133 
  143112   139546   140758   122742    93023    70406    69642    82023 
   89782    88867    86460    91813    95252    78667    55873    46446 
   34460    16771     9357    -4565   -29338   -42618   -54300   -69354 
  -73184   -81874   -97343   -96590   -93004  -100872  -110513  -122740 
 -135755  -139669  -135762  -130740  -122260  -112862  -109945  -101213 
  -89030   -93848  -102133   -92947   -73662   -63987   -71023   -78102 
  -75100   -70720   -66406   -61384   -65915   -75605   -71105   -53587 
  -32557    -6349    27631    66492    96943   115929   137736   161272 
  173143   175986   183400   194776   202482   211299   217857   211010 
  199941   195283   193142   193987   200060   207681   214545   216168 
  207638   194211   181664   168648   159668   160585   160807   145547 
  115886    87105    71874    62996    51886    44265    39725    35512 
   33690    34723    39129    40729    39695    42519    45856    51535 
   58255    65839    87813   114597   126430   123884   111975   104088 
