Origin Time       2011/03/11 14:46:00
Lat.              38.103
Long.             142.860
Depth. (km)       24
Mag.              9.0
Station Code      SIT014
Station Lat.      35.9954
Station Long.     138.8010
Station Height(m) 746
Record Time       2011/03/11 14:47:34
Sampling Freq(Hz) 100Hz
Duration Time(s)  250
Dir.              U-D
Scale Factor      3920(gal)/6182761
Max. Acc. (gal)   23.367
Last Correction   2011/03/11 14:47:19
Memo.             
[...]
   -9896   -12147   -10313    -4655     -187      494    -1815    -6597 
  -10648   -10270    -5466     -825    -1573    -9466   -22072   -30535 
  -29799   -24318   -16645   -10958   -11116    -9698    -4976    -3255 
   -1052     1984      285    -2992    -5745    -6533     -122     6551 
    1763    -9191   -13953   -12256    -8663    -3437       98    -2023 
   -6812   -10744   -13563   -15996   -17390   -15006   -13788   -18146 
  -19383   -16179   -13146    -7251    -1713     -825    -2873    -8478 
  -16160   -22153   -22445   -14811    -5220      399     1915      177 
   -2688    -5012    -7662   -11193   -14544   -16121   -16513   -17574 
  -15210    -6826    -2526    -7350   -13908   -19734   -22501   -15847 
   -4563     2341     3518    -1910   -10568   -14738   -13553    -7911 
    -279     1767    -4627   -14619   -21977   -23870   -20619   -15015 
  -11004   -10391   -12940   -15518   -13755    -8048    -2801     -399 
   -2013    -7736   -12251   -13181   -13698   -12539    -9446   -10320 
  -16591   -20425   -14971    -3668     5617     8998     4260    -7265 
  -15900   -16305   -12448    -7280    -5542    -9814   -14941   -17988 
  -17531   -13301    -9041    -5388    -1844    -1117    -4012    -7605 
   -9882   -12605   -17016   -19088   -15823   -14414   -19221   -20324 
  -16862   -18659   -19409   -11922    -4093     1002     3860      215 
   -5863    -4492     1639     1442    -5354   -10698   -10042    -3826 
     796    -2049    -9805   -18877   -24733   -25344   -23967   -19301 
  -11795    -7484    -7038    -8794   -11590   -10589    -2717     5405 
    4221    -3286    -7974   -10539   -13080   -12759    -9944    -6468 
   -3853    -3628    -6286   -10487   -10095    -5505    -4155    -3952 
   -2682    -4138    -6183    -6981    -7520    -5116    -1455    -2566 
   -7288    -9090    -6996    -5437    -5516    -6856   -10596   -15717 
  -19441   -18198    -9861     1427     7156     3849    -4097   -10015 
   -9681    -5896    -3990    -5232    -9534   -14876   -18947   -20370 
  -16289    -8510    -4174    -6834   -13031   -17101   -16301   -12073 
   -7550    -2880     -280    -5883   -17663   -26925   -29239   -25109 
  -19320   -17327   -17528   -15505   -12761   -11189    -7246      -51 
    5173     4368    -2104    -8903   -10815    -8928    -4997    -2730 
   -8765   -18096   -18339    -9581     -522     4943     5625     1354 
   -5323   -11911   -14159    -8164     1294     3615    -3429   -10423 
  -10233    -3608     2868      298   -10487   -20737   -26006   -24900 
  -17040    -6992     -232     1396    -2191    -7552   -11029   -13363 
  -15612   -18716   -21319   -19116   -14755   -14441   -15500   -13761 
  -11873   -11168   -10529    -9819    -6999    -3227    -3267    -5968 
   -7042    -5145    -3682    -6246    -7559    -3859      823     5426 
    8082     5350     -758    -6655    -8125    -3998    -1014    -3526 
   -7536    -8236    -6835    -7681   -10060   -10381    -8427    -5662 
   -4981    -9768   -16615   -19215   -18980   -19933   -21653   -21905 
  -19530   -16868   -18537   -22942   -23011   -20031   -19104   -18097 
  -15711   -11952    -7274    -6432    -9075   -10086    -8083    -4626 
   -2223    -2118    -4066    -5933    -5467    -4233    -3265    -3018 
   -5206    -6027    -1239     4834     7867     7256     1337    -7281 
  -10878    -6083      589     2014        2    -3218    -6648    -7019 
   -4476     -930     2231     2897    -1005    -7659   -10309    -7921 
   -5986    -6066    -6407    -6644    -9152   -14495   -17871   -17224 
  -15525   -16046   -19988   -23115   -21694   -18193   -16464   -17197 
  -17897   -16499   -11441    -5138    -3754    -5247    -6083   -10019 
  -14589   -12815    -8459    -6950    -5388    -4048    -4415    -1231 
    5300     7806     4166     -489    -1762    -2011    -2710    -2854 
   -4848    -7319    -8000    -9224    -9983    -9918   -11660   -14172 
  -16502   -17284   -12210    -4049    -1413    -5275   -10153   -11710 
   -9783    -7749    -6093    -4569    -4553    -2430     2091     1597 
   -4740   -10649   -11971   -10034    -9193    -8411    -4711     -335 
    2394     1062    -5357   -11507   -14361   -16817   -19361   -20361 
  -20019   -17133   -12419   -12468   -17298   -19692   -18604   -15725 
  -11578    -9853   -11189    -9818    -5856    -6051   -10577   -16579 
  -21278   -19281   -14004   -10660    -6416    -4684    -9215   -13999 
  -14426    -9797    -2077     2986     1703    -5197   -12479   -11513 
   -3983    -2240    -8883   -17250   -21474   -17298    -7952     -459 
    2703     1383    -2577    -7112   -10035    -6682     -570    -1327 
   -7206   -12923   -18267   -18511   -11113    -3439    -1776    -5379 
  -10102   -11839    -9419    -5357    -2518     -982      585      578 
   -5368   -14319   -17422   -14965   -12530   -12060   -13412   -13010 
   -8290    -2370     -255    -3228    -6397    -6470    -5184    -3483 
   -1668     -459     -286    -2877    -9956   -17858   -19758   -14834 
   -5362     5697     9022      788    -9353   -14924   -15865    -9537 
     889     5664     3012    -4393   -14320   -18947   -14641    -7376 
   -2098    -1609    -6906   -14434   -20262   -22326   -20542   -17134 
  -13774   -11767   -13022   -15872   -15486   -12313   -11290   -11683 
  -10979   -11437   -12461   -11136    -7297    -1923      207    -2975 
   -6499    -9968   -12861   -10079    -6151    -7683   -11361   -16025 
  -20836   -20402   -16753   -12365    -4749     1849     3893     3654 
     261    -4501    -6103    -7888   -11957   -13522   -13236   -14139 
  -14383   -13805   -13647   -11936    -8816   -11159   -20915   -27342 
  -23774   -15693    -8797    -6034    -9282   -14593   -15931   -13520 
  -10776   -11348   -16269   -20064   -20409   -20587   -19818   -16125 
  -11846   -11102   -14660   -17231   -13153    -3806     2476     1139 
   -3130    -7505   -11464   -10739    -6159    -3258    -3196    -6236 
  -10815   -10259    -2758     6621    11669     7267    -4211   -14145 
  -15737    -9841    -4501    -3084    -2604    -3065    -5687    -7480 
   -5895    -3593    -4091    -8161   -12620   -12950   -10661   -10178 
  -11489   -13873   -17894   -20901   -21382   -21440   -19050   -11900 
   -4946    -3280    -5436    -6891    -4396      233    -1362    -9457 
  -10970    -3037     3548     1735    -8343   -18654   -21334   -19644 
  -17799   -13166    -5941    -1908    -4346   -11460   -17198   -15467 
   -7631     -919    -1371    -9141   -18562   -23619   -23049   -19420 
  -14093    -7274     -764     2092    -1605    -9494   -15372   -16405 
  -15064   -15317   -16533   -15900   -13530   -10023    -7138    -5934 
   -5361    -8386   -14541   -16236   -15181   -16430   -15211   -11711 
  -11684   -13938   -14869   -12820    -9581    -8307    -9220   -12322 
  -15776   -15903   -13868   -12367    -9523    -4951    -4292   -10213 
  -18827   -25758   -25962   -18861   -12409   -10809   -12838   -16420 
  -15964   -12081   -12470   -17214   -22214   -26535   -28213   -25885 
  -20870   -14661   -10838   -12986   -17891   -20062   -18951   -15375 
  -10190    -6605    -6161    -6167    -3750     -251     1474     1620 
    -976    -8497   -15009   -12452    -4988    -1748    -2053    -2463 
   -3239    -2773    -2607    -5642    -6255    -2002    -1139    -5340 
   -7199    -5526    -2364      553    -3314   -14239   -21866   -19782 
  -12608    -8625    -9046   -10042   -10762   -10539    -8174    -5954 
   -4655    -2626     -750     1152     3609     3301     -777    -4551 
   -5283    -4175    -2383        3      958      243      441    -1321 
   -8054   -13644   -13129    -9125    -5726    -5055    -5815    -6147 
   -4529     -293     2335     2289     2386     -238    -5942   -11858 
  -19293   -24193   -21250   -15077   -11556   -13668   -19562   -21894 
  -18868   -13934    -9789    -7610    -6954    -8617   -11067   -10701 
   -9627   -10580   -12762   -16602   -20579   -21493   -18059   -11534 
   -9827   -14704   -16291   -11872    -3615     5388     7634     2873 
   -4520   -11405   -14224   -14418   -13836   -12915   -13717   -14405 
  -13656   -13864   -14368   -12610    -8879    -6892    -7796    -7119 
   -5466    -7917   -12773   -19370   -28881   -33578   -28482   -18838 
  -10072    -4569    -5116   -12827   -19904   -19986   -16171    -8705 
     338     1939    -5186   -12151   -12891    -9894    -6574    -5064 
   -8146   -13585   -16362   -14698    -9797    -4772    -1338     -813 
   -3004    -1871     2169     2660     2788     5057     7532    10891 
    9810      842    -8532   -12568   -12284   -10828   -12025   -15918 
  -16277   -11995    -9824   -12275   -15708   -16092   -14448   -14224 
  -14200   -12828   -11841   -13408   -19136   -27179   -31126   -27737 
  -21529   -17533   -15671   -13796   -12578   -14747   -19546   -22069 
  -18327   -10046    -2790     -690    -5576   -13002   -14677   -11565 
   -8103    -2153     3661     2635    -2277    -5238    -6153    -6108 
   -5938    -6512    -8459   -10382    -8331    -5561    -8454   -12735 
  -15392   -19425   -21571   -19252   -15166   -12595   -14747   -18879 
  -19359   -15944   -10980    -7620    -8931   -12847   -14527   -13119 
  -11095   -13712   -21491   -23770   -18239   -13768   -10698    -5791 
   -3194    -9276   -19163   -20469   -14104    -7832    -5403   -11514 
  -21197   -23824   -20888   -15732    -9688    -8466   -10312    -9909 
  -11139   -14857   -15990   -14706   -12840   -11058    -8739    -4315 
   -2277    -6490   -12216   -13826    -7810     4045    13152    15880 
   13096     4922    -3952    -9687   -13486   -16376   -16302    -9533 
    -747      716    -3484    -6022    -5346    -3436    -1826     -881 
    1438     4242     2288    -3444    -9415   -16583   -21998   -20326 
  -15043   -14077   -16023   -16471   -18857   -21425   -17941   -13544 
  -13015   -11389    -8268    -9058   -12923   -12448    -4651     3217 
    3346    -4601   -16748   -26649   -29136   -25182   -17218    -6992 
    1732     4286     -280    -5091    -5564    -5015    -2716     1961 
    2963    -1350    -7871   -14308   -16972   -16226   -16552   -15326 
  -11441   -12309   -16628   -16500   -12850    -9503    -7621    -8098 
   -9291    -7954    -5457    -7100   -12622   -15949   -14780   -12165 
  -11382   -12231   -13921   -17458   -18752   -14380   -10229    -6496 
    1430     7360     4967    -4449   -17239   -27403   -30359   -25694 
  -16614    -8028    -1966     1481      223    -6874   -14410   -16619 
  -12870    -8144   -11749   -19262   -19125   -16173   -15208   -13176 
  -11080    -8859    -6514    -6820    -9267   -13741   -20522   -24748 
  -26008   -27132   -23729   -16185    -9691    -4531    -3599    -7610 
  -11565   -14717   -17354   -17085   -13237   -10719   -15210   -21616 
  -23119   -21856   -19658   -16903   -13527    -9440    -8484    -9844 
   -9388    -9257   -10479   -10747   -12466   -17528   -21464   -21436 
  -17458   -10543    -6990   -12023   -22787   -32073   -34474   -29661 
  -20805   -12431    -7616    -8859   -16269   -21046   -18361   -13956 
  -10367    -8187    -7490    -6664    -7265    -6863    -2550      929 
     994    -1511    -5490    -9409   -12956   -11517    -5736    -6686 
  -12990   -14992   -14442   -15046   -14916   -13546   -11971    -8680 
   -5214    -7199   -12689   -15418   -13798    -7749     -852      564 
   -4582   -11795   -14125    -9212    -2295      933    -2112    -8993 
  -14312   -16484   -14366    -8134    -4564    -7488   -15429   -24547 
  -25847   -18108   -10011    -4649    -3832    -8142    -9936    -6433 
    -509     6818     9784     5738      438    -3330    -4199    -1362 
    1618     1933    -1434    -8025   -14650   -17823   -15590   -10069 
   -7289    -9636   -11963    -9669    -5002    -2442    -4594    -9206 
   -9846    -5551    -3058    -7356   -14165   -16765   -17243   -18654 
  -16995   -11186    -6151    -5147    -8944   -14415   -15626   -13497 
  -10950    -8424    -8620    -8373    -4176    -2040    -3457    -4440 
   -5605    -7710   -10210   -10759    -4209     5721     8604     2991 
   -6085   -13167   -16605   -19561   -20840   -20468   -20039   -14108 
   -5269    -2022    -2353    -5685   -13983   -19765   -20008   -20408 
  -19976   -19194   -22281   -25853   -29883   -33323   -26103   -10825 
   -1219    -1931   -10186   -21047   -26587   -23027   -18141   -18451 
  -18302   -12978    -5405     -672    -3562   -12216   -18498   -19147 
  -17649   -16521   -15362   -15444   -18797   -22087   -20521   -15769 
  -10298    -6171    -8912   -15465   -16737   -13918   -11179    -7177 
    -941     4049     1632    -6540   -10417    -7198    -2725    -3571 
  -12516   -22941   -27127   -24263   -17113   -12645   -13429   -15804 
  -19993   -22834   -19930   -15717   -12416    -8494    -7534   -10324 
  -12785   -13531   -12174   -11666   -14449   -16390   -17760   -19388 
  -17439   -13093    -7678    -2547     -704     2503     8058     7158 
     304    -4202    -6107    -7786    -6697    -3176    -2266    -5014 
   -9849   -14843   -15453   -11334    -3913     5065     6828     -126 
   -8279   -13710   -11390    -4839    -8745   -20539   -23164   -17445 
  -14129   -10579    -4945    -2381    -1586    -2085    -8044   -16196 
  -19468   -17713   -14091    -9986    -5015    -1131    -5209   -16645 
  -25855   -27631   -20066    -6826     2358     5479     4671      216 
   -3129    -2992    -2603    -1647       52     -713    -2046      805 
    8007    17505    25426    27448    22578    10707    -2576    -7761 
   -6618    -6078    -6962    -5809     2824    15991    24666    26854 
   21479     9169    -2394    -9994   -13735   -12019    -8670    -6687 
   -6021    -8320   -10440   -11573   -14098   -13059   -10992   -15829 
  -21138   -23029   -27089   -30153   -29769   -31559   -35613   -36366 
  -30766   -21746   -15300   -13541   -13900   -13978   -12609    -8163 
   -3148    -2821    -6868   -12707   -17359   -14395    -3681     4602 
    4224    -2119   -10184   -14582   -10931    -2121     6975    13692 
   14499     8784     -761    -9614   -12675   -12186   -11107    -7222 
   -2864     -350     1236     -292    -1945      562     -447    -8898 
  -15632   -16519   -14539    -9353    -1568     4297     5634     2285 
   -5962   -16446   -21800   -18274   -11465    -9114   -11241   -10244 
   -4551     -114     1331      650     -819    -2457    -3192      975 
    3474    -3033   -10292   -14426   -17785   -18448   -16169   -10630 
   -5600    -8344   -18599   -30640   -35762   -31707   -27150   -24338 
  -23247   -28392   -32696   -28932   -21803   -13102    -5679    -5227 
  -10742   -19792   -27574   -28805   -26950   -25695   -24167   -22597 
  -17329    -3475    10812    12644     5985     2541     1516     1316 
    6185    12202    16494    21377    21916    19705    21595    19465 
    9660     3479     5842    12755    16814    13979     6584    -5759 
  -19207   -25570   -26694   -25913   -20740   -11740    -2052     5178 
    3690    -7969   -20198   -25497   -25818   -26196   -27718   -26730 
  -24359   -23862   -23162   -24934   -33165   -40898   -41170   -34600 
  -24150   -15627   -11017    -6305    -4757   -10226   -15356   -13244 
   -5056     2249     3489     3236     4257     3056     3114     8570 
   14677    17210    13357     -185   -15821   -20709   -14889    -6568 
   -3708   -12629   -25857   -27637   -18378    -8583     -769     3366 
    1344    -3188    -9083   -16781   -20222   -13904    -2397      143 
  -11404   -26368   -36148   -36306   -27392   -17939   -11142    -8722 
  -12216   -14504   -15887   -20336   -23285   -24943   -25804   -23732 
  -21390   -20286   -20296   -15283     -534     8300      786    -8826 
  -13188   -15316   -11370    -5236    -3528     -320     3505       68 
   -6325   -10301   -12521   -10549    -5173     -573     3534     5002 
     -93    -9430   -16981   -16712    -8236     1762     8470     9707 
    2951    -9258   -20236   -26622   -27713   -23509   -15572    -6863 
   -3295    -6726   -13197   -23337   -33038   -31449   -19171    -4011 
    7349     8532      903    -6630    -7565    -3518     -543    -1395 
   -6190   -13308   -19475   -23659   -24249   -18735   -10891    -9695 
  -16799   -23583   -26127   -28433   -31760   -32828   -29422   -23742 
  -18202   -14256   -12947   -10727    -5708    -1789    -3389   -13287 
  -24725   -25736   -17501    -8123    -1113    -1082    -8442   -15341 
  -17741   -14956    -7314       99     4455     3989    -2713    -8213 
   -7139    -4137    -2256    -2195    -5657   -10308   -11897    -8040 
    1236    11084    16969    17364    10810     1651    -2674    -1459 
    2344     4147    -1503   -10260   -11255    -3763     4659     6786 
    -840   -13497   -23935   -28869   -27573   -20835   -13485   -13894 
  -20284   -23522   -24661   -24898   -21262   -18808   -22691   -31412 
  -38236   -34732   -22551    -9842    -1865    -3093   -12479   -22006 
  -25139   -20234   -12442    -9199   -12274   -19884   -26281   -24194 
  -15866    -7924    -3222    -4514   -10052   -13496   -12902    -9755 
   -6063    -2409     1967     5752     8555     9473     5131    -4395 
  -16609   -25997   -26105   -20000   -12380    -3213     3518     4674 
    1266    -6517   -14859   -18144   -17306   -15845   -14791   -15196 
  -15443   -11278    -3797     2144     5481     9325    13650    11409 
   -1927   -19860   -29649   -25182   -13572    -5549    -5317    -9240 
  -10280    -7626    -5247    -3316    -2009    -2912    -6466   -14019 
  -20888   -19173   -10852     -666     7358     6864     -649    -8665 
  -16893   -24708   -25390   -19620   -16571   -16038   -13091    -7308 
    1067     5086    -1969   -12760   -18348   -17567   -12258    -6361 
   -1253     3323     2279    -6193   -15486   -20244   -17960   -10770 
   -6061    -3000     1255     -787    -8840   -12913   -12002    -7144 
     584      319    -9541   -15007   -11431    -5326    -2298    -6201 
  -15614   -22777   -23048   -19457   -16196   -15503   -17650   -20513 
  -22752   -23930   -23709   -22492   -18558   -10078    -1968      329 
    -540    -1909    -3294    -2921    -3675    -7379    -9533    -9396 
   -9435    -9567    -9645    -9096    -7350    -5046    -1640     1372 
     -24    -5149    -8070    -4785      999     3393     2164    -1691 
   -6251    -5806      -41     4608     4265    -1382    -9419   -14637 
  -15813   -14703   -11223    -6233    -4806    -9585   -15059   -16791 
  -16034   -12269    -4154     4518     6608       68    -9333   -16057 
  -18612   -17739   -15771   -13678   -10154    -6172    -4701    -4564 
   -3749    -3760    -4580    -6251    -9704   -12428   -12258    -9132 
   -4054       19     1048    -1204    -5567    -9669   -13780   -19075 
  -24346   -29002   -30815   -27410   -22690   -20185   -21417   -27742 
  -33618   -34098   -30629   -23905   -14934    -4607     4333     4230 
   -4020   -10926   -12900   -10344    -4216     2511     7377     9504 
    7102    -2329   -14951   -22584   -22115   -15549    -8180    -6515 
  -11797   -16734   -14435    -8467    -5653    -6512    -8660   -12052 
  -18332   -25890   -28632   -23638   -15192   -10301   -13157   -20846 
  -26165   -23690   -13692    -3645      342      200    -2638    -9835 
  -16556   -18070   -18099   -17209   -13570   -10462    -9676   -10306 
