Origin Time       2011/03/11 14:46:00
Lat.              38.103
Long.             142.860
Depth. (km)       24
Mag.              9.0
Station Code      SIT001
Station Lat.      36.2431
Station Long.     139.1938
Station Height(m) 48
Record Time       2011/03/11 14:47:31
Sampling Freq(Hz) 100Hz
Duration Time(s)  300
Dir.              U-D
Scale Factor      3920(gal)/6182761
Max. Acc. (gal)   46.802
Last Correction   2011/03/11 14:47:16
Memo.             
[...]
  -24134   -14737     1562    17247    20472    15164    12935    12712 
    9660     8313    11432    14982    15529     7078   -13547   -32516 
  -33200   -19161   -10977   -24642   -46597   -48361   -35140   -30227 
  -25080    -7610     3318    -2989   -10611   -11003    -8541    -2049 
    7433     9135     2054     -331     6402    14196    21627    30804 
   31495    15209    -1990       37    11929    13919    10508    11382 
    9273     4759     7758     9257    -3091   -20162   -24892   -13884 
   -6165   -14039   -14345     4192    11626    -1517    -7025     2304 
    7360     4767     7174    15152    13253    -3004   -14075    -5999 
    8399    11555     2251   -12323   -23977   -22314   -10336    -7167 
  -12701    -6783     7823    12427     9792    11485    14349    13494 
   13007    14338    13063    11686    17482    23923    18312     8549 
   11451    19471    13540    -1316    -6872    -5118    -8459    -9982 
    -163     5145    -5490   -13122    -5600     3376     6572     8885 
    6484    -3517   -12281   -16257   -19950   -22096   -21666   -24891 
  -30110   -26394   -13307     -686     3070    -5836   -16913   -13374 
   -2175    -2087   -10002   -12607    -7431      -20     1232    -5086 
   -9178    -6207    -2623    -1493     1341     5525     6232     4270 
    3135     2970     3743     2932    -2821    -8054    -8164    -7899 
   -5895     1450     3147    -4787    -6981    -1342    -1319    -8488 
  -17473   -23271   -20397   -17324   -23813   -28709   -24839   -21245 
  -18973   -16131   -19216   -24196   -16546     1351    10807     6529 
       2    -2542     -385     8288    15538    11149     1961    -2755 
   -7864   -15530   -18973   -17693   -15286   -11802    -7770    -3381 
   -2090   -11368   -22214   -16260      406    11817    18128    17194 
    6454      945     6724    11827    13899    13664     8139     5600 
    6639    -1466    -9663     -535    16538    25055    18709    -1956 
  -20467   -21556   -13716    -9410   -10089   -12158   -10633    -7325 
   -5993     -885     9268    13921     8351     1940     5540    13396 
   14052    17830    33060    37718    20715     3436    -2242    -6104 
  -13776   -21195   -26516   -31099   -33034   -33298   -35881   -35429 
  -29488   -28436   -30808   -23956   -15850   -25013   -44404   -49292 
  -33184   -12435    -4569   -13477   -25098   -25677   -24266   -29636 
  -28594   -15826    -5515    -3962    -5205    -5799    -6239    -6903 
   -9740   -16503   -20037   -15393   -16265   -27957   -31406   -22831 
  -18065   -16988   -12384    -5728     2115     5821       48    -1398 
   16229    37178    35067    16134     7454    11839    12668     6441 
     616     -194     4289     7536      937   -12158   -16562    -5586 
    7273     8858     5583     5710     3726    -3339    -6208      542 
    5866     -510    -6629    -1079     2675     -961     3064     8384 
   -2762   -18416   -24714   -27988   -25806   -14399    -7686    -9548 
   -7247     -886      711    -1892    -7362   -15038   -17488   -12835 
   -8462    -3705     6859    16477    16301    11859    13262    19553 
   22101    17630    10499     5410     5331     8206     3921    -7808 
  -10011      499     6091     3430     5232    11252    11954     5677 
   -3493    -7012     1368    10692     5507   -12135   -26993   -27224 
  -17531   -10546    -7111    -4178    -3842    -3636    -1231     -428 
   -1728    -2650    -2706    -1642    -2762    -8770   -13437   -14957 
  -19262   -22529   -20534   -21158   -25805   -23995   -13361    -3924 
     319     5200     9984     9900     6486    -1769   -15953   -22786 
  -12564     1951     5510     1429     1202     6573    11425    12790 
   10465     5958     5056     9641    12401     8721     5058     6802 
    6120    -3700   -10862    -4186     2080    -9693   -26875   -24903 
   -7825     1028     -655     1481     7739    11729    14913    16039 
   12738     8964     6495     3965      517    -5583   -11742   -12502 
   -7444     1285     9090     9259     3611     -916    -4647    -5450 
    5496    21003    21884    12743    16336    30839    32520    18359 
    3191   -12991   -31989   -39055   -28341   -16393   -18583   -29823 
  -33001   -24691   -19492   -22886   -24066   -19222   -15127   -14087 
  -14214   -12950    -6956      -72     -693    -9316   -19911   -27207 
  -29680   -26566   -16137    -5713    -5395    -6895     1228    10363 
   10825     4634    -6083   -13752    -7923     4085     7807     4652 
    1753    -1132    -4518    -7637    -9309    -5547     2191     6975 
    7525     6119     3451     2061     7666    19781    23747    10789 
   -4749   -13527   -23631   -30357   -23629   -15115   -16485   -22180 
  -26633   -27369   -21707   -14286   -11934   -13484   -13022    -5545 
    5768     7372    -1534    -1644    10572    18162    17714    13504 
    2527    -7241    -4312     2380     -370    -9274   -12908    -7401 
    -780      532     2025     6848     6426    -2483    -9196    -6477 
    -442      422    -4617   -10455   -12879   -10330    -5535    -5383 
   -8887   -10663   -14885   -17912    -7858     2224    -7415   -21635 
  -15473     3442    11821     7154     1830      903     4077     9839 
   14446    17885    17566     8534     1243     7239    18284    26179 
   33956    41393    43534    39264    34724    36640    40269    35654 
   26390    24555    27346    21114     8880     5054     6433     -450 
  -15169   -29071   -35908   -31027   -18421   -11657   -15485   -17756 
  -10156    -2359    -3914   -10275   -12804    -8382    -1043     1827 
   -2935   -10476   -11819    -4371     5973    11435     4021   -13662 
  -23478   -18264   -11358   -10894   -12702   -14244   -17131   -19633 
  -15035    -4590     1944     8657    23899    33714    27716    21818 
   23305    20086    12398     8358     3421    -4920    -9255    -8123 
   -7256   -11664   -21383   -25381   -16200    -8666   -12500   -10245 
    5889    15887     9546     2349     5834     8750    -1506   -14453 
  -16667   -17389   -23653   -22423   -10682    -4707   -11639   -20754 
  -20536   -11895    -6194    -9918   -15365   -13195    -6971    -4990 
   -6038    -7293   -13071   -21528   -25048   -27303   -31493   -27966 
  -16356    -9277    -9036    -9755   -10823   -10356    -1367    15226 
   26113    24695    22044    24785    23212    14223     6903     4231 
    4635     7400     7442     1692    -6303   -12197   -13306   -12706 
  -15564   -18576   -19146   -20934   -20063   -13573   -10033    -7632 
    2100     6976    -3672   -15874   -19505   -16957    -7507     1809 
     641    -4173    -4796    -3869      676     9611    16531    21581 
   24618    19108    11062    11523     9671    -7942   -26886   -32538 
  -37480   -47504   -47006   -37298   -35867   -39939   -35490   -23613 
  -11733    -3548    -4776   -12924   -11587     1556     5949    -6823 
  -19532   -17721    -7914    -4222   -10497   -20034   -25629   -26349 
  -25474   -22105   -14346    -8798    -9344    -9329    -7498    -6723 
   -2632      516    -8214   -16332    -6323     4860    -4548   -19937 
  -20118    -9376      995     5113     1060    -2411     1471     5592 
    8046    14787    19269    12842     4330     2446     1995     -705 
   -5167   -10561    -9937    -1902     4820     8536     8860      358 
   -9601    -9593    -5116    -3210    -2526    -6362   -14799   -17771 
  -13283   -10207   -14649   -25181   -30827   -22005   -11229   -18423 
  -35758   -39060   -25374   -10775    -6453   -12414   -20676   -21998 
  -14291    -3874     -381    -4864    -8298   -11507   -20701   -26323 
  -22606   -19684   -20555   -21446   -18471    -7638     -742    -8985 
  -16427   -11693    -8035   -13870   -24933   -34142   -34785   -30248 
  -24222    -9343     9369    15068    11307    14508    24765    28775 
   22341    15858    15849    14197     3493    -8021    -9474    -5568 
   -3318     1280     7675     8192     4065     2984     5737     3978 
   -6612   -13017    -3066    10544    13090    12435    17607    23289 
   24199    23560    25261    26349    24722    25565    27667    22543 
   15891    18079    20355    16204    15229    15870     9307     2235 
    1593     1647    -3349   -10839   -10579     1269    10133     4758 
   -4428    -3322     7725    16235    15561    16459    22692    18559 
    2926    -7085   -10499   -15195   -17572   -19497   -28307   -35048 
  -29719   -20998   -19496   -24226   -27348   -22561   -14737   -13380 
  -19062   -28264   -38003   -43242   -39992   -28057   -15748   -15993 
  -25708   -30620   -30952   -31982   -28541   -21366   -19077   -21748 
  -23676   -18529    -4000     7941     8397     9043    17192    21316 
   14823     6989     7459    14235    16531     9107      293    -1523 
    1605     3734      986    -3186    -1948      194    -3120    -5923 
   -5869    -6809    -5067    -2062    -8115   -20392   -24141   -15215 
   -6403    -7357    -5992     6851    13258     3075    -6444    -7997 
  -11650   -16192   -14230    -9719    -8248    -8471   -10507   -16837 
  -23045   -22527   -19274   -20204   -22378   -21899   -21252   -21409 
  -20600   -17077    -7272     7278    15056     9360    -2419    -9418 
   -8672    -9371   -18152   -23475   -19756   -21207   -30125   -31944 
  -22376    -9644    -3007    -2741     3155    14293    11842      620 
    7790    30321    40976    32902    20013    14022    13692    13245 
   14341    14253     2755   -14079   -17953    -9522    -4728    -6008 
   -5665    -7483   -18089   -28275   -26821   -19636   -17375   -20108 
  -23579   -26556   -26841   -20450   -11023    -7839    -9694    -7379 
   -4042   -10545   -20048   -18325    -9460    -2180     -433   -12044 
  -30452   -38266   -42248   -52105   -51438   -38199   -34507   -37167 
  -27445   -13935    -9908    -5066     6455    10742     3124    -1183 
    8161    24013    34666    34375    25049    16020    12506     8844 
    4332     5172     6971     2911      135     4624     7747     2005 
   -5323    -1398    10158     8252    -9404   -17516    -7453     2667 
    4193     2995     2131     3131     6806     9117     4011   -10648 
  -23154   -18242    -6949   -10576   -18925   -11459     2061     3874 
   -2622    -8545   -10731   -10629   -18219   -32923   -34119   -18120 
   -6092    -2535     5491    14114    11830     4192     -278    -3809 
   -7491   -10480   -13611   -11309    -2531     1055    -1404      391 
    4806     7278     9896     8902     2010    -1361     4387    12350 
   14037    10335     9993    15905    21669    22470    17368     8861 
    4721     7373     9724     8214     4365    -2360    -9571   -10011 
   -3234      553    -4450    -8206      312    11408     9174     2651 
    8715    19046    18621     7035   -11976   -28599   -29366   -19262 
  -13076   -12345   -15998   -27974   -40965   -40425   -26134   -12225 
   -6745    -2043     6530     8070    -1245    -8264    -7804    -6713 
   -5190     -749     3267     6636    11621    14211    11991    12343 
   23661    45044    63830    65640    53156    42743    40621    40576 
   40756    41549    33046     9403   -12290   -15513   -10971   -13248 
  -16083    -9239     3044     8861     5033     -299    -1929    -1828 
    -147     2792     2157     1075     9226    18261    14148     7345 
    6648     -955   -13585   -14042    -5935    -1807    -3352    -9773 
  -14027    -6670     4707     8165     8807    14486    19656    17489 
   11971    11262    19506    34117    45024    43712    32428    18208 
    6319      429     1637     8034    13420    10020    -2339   -14945 
  -17380    -7273     4006     4591     -704      319     5452     1999 
   -9870   -17627   -19573   -23925   -27413   -21229   -11311   -10192 
  -18383   -25028   -22379   -15563   -10667    -2873     6148     3784 
   -4137     -535     6583     4045     3071     9904    13292    13039 
   13808     8791      490      756     5158     5775     9314    15704 
   12073     2102     6530    27521    44772    47075    40791    36455 
   39890    42674    33891    25403    28435    26381    12271     4209 
    4107      864    -1513    -1898    -6562   -11389   -16407   -27588 
  -38242   -42175   -41774   -35119   -24175   -18532   -18075   -16789 
  -17053   -20714   -21735   -16689    -9357    -4662    -4218    -6988 
  -10614    -8839     1247     5900    -7825   -25891   -29833   -27570 
  -29718   -28605   -24951   -27255   -22462     -953    15005     9173 
   -3910    -8371    -3345     4975     7196     1156    -3468    -4523 
  -10790   -19516   -18551   -10453   -11618   -28549   -48293   -57612 
  -59370   -56602   -41716   -18528    -5784    -7561   -10515   -10322 
  -12345   -11315     3424    22575    22868     3623   -12318   -14570 
  -12351   -14751   -18729   -12751     -444    -1542   -14266   -18242 
  -16654   -26442   -38113   -31645   -16500   -12863   -14024    -6868 
    -340    -5012   -15059   -20186   -19556   -25251   -40467   -44037 
  -29995   -26302   -41749   -50307   -39720   -22376    -8802    -2838 
   -5163   -10766   -12578    -8462    -2764     3070    13235    19876 
   10607     3130    18424    29833    11835    -4941     7995    32585 
   43977    36192    23031    25533    31680    17341     5755    17557 
   20493     3266    -6895   -11389   -21396   -23235   -15956   -18131 
  -35702   -55654   -57979   -41108   -27775   -26217   -22527   -14162 
   -7086    -2108    -2735    -5327    -1813    -1071    -5161     3767 
   21817    28776    32566    49528    68263    70659    60648    51630 
   42951    26811     6966    -4979    -3476     3554     -511   -17456 
  -26967   -20315   -14297   -20223   -32489   -42706   -42212   -29945 
  -17334    -9053     1080    14103    23969    22281     5732   -12346 
  -12935     1673    12341    12162     4850    -8632   -17433    -9297 
    4318     9792    15187    25697    27786    12195    -7451   -10903 
    -852     3783      100    -1205    -1222    -9334   -24520   -37213 
  -36478   -14800    13238    18879     3799    -3762      867      149 
   -5567    -3858     -795    -7288   -15157   -18491   -27787   -42848 
  -48860   -41461   -30446   -28835   -39186   -45882   -35260   -14090 
    5125    21924    40069    53016    53741    48921    43489    32196 
   16396     1457   -11816   -16727    -6197     8597     8641    -2299 
   -3096     6372     8726     3874     4798    12668    16464    11251 
    5168     3048    -1287    -8700   -13009   -16807   -24486   -27299 
  -16390     -652     3506    -4455    -7401     5520    22416    24416 
   10024    -6217   -14924   -22074   -33029   -41839   -44895   -43488 
  -38510   -33964   -26892   -12889    -7659   -15383    -7207    19839 
   31750    25251    25313    31944    29809    17090     3253    -2821 
   -5416    -8048     1988    21244    27590    20816    10841      536 
   -1200      853    -8722   -18817   -14852    -7190    -5129    -7494 
  -12916   -15846   -15347   -23299   -43692   -60521   -58837   -44838 
  -35493   -34699   -32746   -25237   -15135    -3432     6122     7458 
    5591     8387     8826     2694     5260    21353    29772    18285 
    1792    -2477     5024    11192     6416    -3793    -9524   -15530 
  -31105   -48964   -55103   -46997   -31829   -21749   -23405   -25375 
  -14860     2685    14932    17913    17330    17177     8564    -7538 
   -3492    26018    40296    21260     1741      205    -1360    -8952 
  -10181    -9786   -19000   -24324    -9744    10721    16216     9598 
    2121    -3842    -6878    -7390   -12743   -24430   -33434   -34579 
  -29236   -18144    -5861    -1985    -8583   -15891   -15029    -8429 
   -5458    -9936   -12624    -3546     8721     8628      535     -566 
    5079    10580    19677    32964    37603    28391    17360    11190 
    4290    -2424    -3360    -3032    -6549    -9682   -10987   -15987 
  -23631   -20582      -50    19456    19579    11149     6869     1667 
   -2510      574     1339    -7828   -19426   -26234   -27037   -26475 
  -32434   -40139   -38201   -28913   -19977   -15385   -15356   -11343 
    -846     4897     3711     2783      205    -4544    -2746     3858 
    6397     8698    13605    11791     1955    -2988     3649    10207 
    3418    -7992    -5590     6302     8460      208    -2511     4914 
    8303    -1073    -7361     5766    27958    40889    41210    33125 
   23641    24532    34398    33378    17227     2976    -5817   -12110 
   -7319     4288     7582     4120     3473     9399    20737    29660 
   31516    30982    28027    20812    16188    14469     9355     7338 
   12961    11324    -7024   -28408   -35732   -26699   -13278    -7567 
   -4491     4285     7888      682     -843     7534    12948    16303 
   20489    15603     5874     6248    12288    13929    13615    11205 
     561   -16806   -26056   -10191    22040    40571    39586    36302 
   29265    10904    -2575    -1398    -4708   -20132   -27842   -22989 
  -22383   -26979   -26998   -26750   -31728   -39051   -44756   -44364 
  -41804   -46807   -53040   -49901   -44901   -46431   -48904   -45811 
  -38612   -30046   -18258    -4491     4252     9198    18035    26475 
   24924    16418     9067     4317     3500    12124    25075    24980 
   11728     4060     7327    13840    17739     9503   -11175   -20339 
   -3809    17129    19689     8877     2807     7742    13587    12095 
    5544    -2473    -7501    -8178   -11267   -13348    -3798     7480 
    7020     2882    -1241   -15683   -33735   -38613   -36822   -42890 
  -50523   -48804   -42066   -37800   -34491   -26679   -15001    -8564 
   -9840    -6344     6561    17105    24319    36118    41152    29888 
   20374    22448    21643    15611    17324    28043    38887    45173 
   48262    51342    52922    47117    35726    30446    34354    37466 
   35986    32909    28161    23520    18927     8692    -4860   -11444 
  -12001   -17126   -23782   -18023    -1639     8809     4860    -7770 
  -17511   -18140   -14430   -12835   -13454   -14363   -15467   -16704 
  -15298    -8772      248     7186     8663     5227     3088     2826 
   -1778    -8506   -10276    -5545     3147     7321     2162     -348 
    5152     3357    -6253    -4464     7129    10245     2456    -7094 
  -11405    -7981    -1919     -805    -6681   -15134   -19676   -20486 
  -22727   -22819   -13305     -145     6984     9667    10422    10501 
   15119    19073    12706     6763    12036    13405      938   -10027 
  -10799    -6371     4809    16164    11524      572     6689    24768 
   31693    22004    11600    10900     7399    -8879   -20245   -11937 
    -415    -3230   -15916   -26745   -22289     -192    13493     2207 
  -11947   -10672    -1237     7594    12257    14101    17262    15308 
    3244    -5423     1123    18376    35407    40024    30130    20255 
   19328    21096    20891    20293    19739    14225     -106   -12455 
  -10349     -607     7218    13582    14069     7419     7828    18428 
   20876     9300    -2328   -10693   -22915   -31707   -23172    -2773 
    6620    -6285   -23510   -22750   -11704   -10885   -17921   -20710 
  -22023   -28269   -36218   -39565   -37714   -32420   -21625    -8425 
   -4004   -10046   -13538    -5277     6026     6659    -1305    -9535 
  -19965   -31221   -34311   -30940   -26474   -19470   -15482   -17818 
