Origin Time       2011/03/11 14:46:00
Lat.              38.103
Long.             142.860
Depth. (km)       24
Mag.              9.0
Station Code      SIT004
Station Lat.      36.1178
Station Long.     139.1044
Station Height(m) 144
Record Time       2011/03/11 14:47:27
Sampling Freq(Hz) 100Hz
Duration Time(s)  300
Dir.              U-D
Scale Factor      3920(gal)/6182761
Max. Acc. (gal)   62.571
Last Correction   2011/03/11 14:47:12
Memo.             
[...]
   -8129    -4456    -6532   -16619   -20096   -15365    -4273    18764 
   28641     9169    -9493   -20407   -29815   -18000     1321     2345 
   -6205   -23447   -39023   -25923    -2074     -854   -18438   -35632 
  -36211   -16515     2169    -6999   -35286   -44243   -27063    -8821 
     452     1782     3909    13549     7497   -21308   -36463   -23720 
      83    20758    13631   -22484   -39921   -22480      996    14550 
    6644   -17336   -23594    -8847    -1876   -14044   -31534   -34807 
  -22286    -7026     -265    -9092   -19340   -10747     -458    -3267 
   -1645    -1217   -10832    -8355       93    -2947    -3586    -6587 
  -17723   -11969     6681    16719    18562     9079    -2951    -5593 
  -17863   -31982   -18258     1091     3397     2538    -6750   -22332 
  -16743     1012     8720    11344     5878   -11848   -24952   -25282 
  -20808   -15675    -9812    -3160     4876     8652    -1808   -19323 
  -24692   -16693    -3724     8712     5501   -14139   -21333    -9009 
    1841    10559    17124     5806   -14813   -25749   -28273   -24873 
  -10809     4317    -3406   -26426   -31525   -20760    -7718    10000 
   15663      544   -11412   -12859   -16912   -15350     4107    21479 
   15718    -5782   -30399   -42635   -27703    -4209     -342   -10959 
  -20203   -22515   -17353   -16413   -24269   -22693   -10284    -4432 
   -3908    -4524    -7502    -4882    -2518    -9235   -12676   -15534 
  -25379   -22055    -5512     -852    -6376    -8927    -8004    -1298 
    8516     4843   -14038   -24377   -17635    -6690     -410    -9777 
  -29025   -30165   -14337    -2151     4821     5419    -4486   -16203 
  -20276   -16349    -7615     3479    12232    10169      216    -6059 
  -16325   -33678   -37964   -32069   -26411   -15289   -15025   -26054 
  -24059   -20975   -17874     -667     5394    -1098     -660    -5332 
  -10246    -5901     -938     8625     9431    -7243   -12677    -6509 
   -4415     -449    -1869    -8772    -8865    -8768    -8220    -4418 
   -7574   -12269   -11898   -17050   -21599    -8435     4699    -8110 
  -23974   -11504    13059    24635    21316     6658    -3923     2471 
    3721   -13388   -24396   -16163     3946    19111     9421    -6220 
   -2710     1211    -1942    -5415   -14023    -6493    15422     9882 
  -10906   -20449   -30003   -27206    -9332    -4198     -845    10180 
    2731   -17252   -25080   -23619   -17649    -5635     5366     7017 
     -64    -8693   -18715   -28484   -21910      -21    11275     5392 
   -1600    -2898    -4688   -11965   -15450    -6056     4529     3065 
  -15268   -39077   -36450    -9830     4576     -540   -13134   -22417 
  -20079   -16452   -20221   -18459    -3358     8595     1562   -10868 
  -11642    -8279    -8647   -12866   -22050   -23304    -9818    -2818 
   -5772    -3543    -6445   -17132   -18162   -13714    -9099     3540 
   12359     4570    -5961   -11178   -19095   -24862   -21655   -10106 
   12148    20688    -8402   -37437   -34934   -14393    17366    34664 
   16682      -46    -4227   -14779   -17873   -12040    -4261    13326 
   19617     2380   -10307   -11887   -10173     5658    19567     3466 
  -20524   -30020   -30883   -13640     3762    -4952    -5356     7589 
    4006     3561     3868   -15632   -21113    -5075     -664    -3034 
   -3240   -14187   -20102    -3005     9390      312   -11804   -17460 
   -9139     1634   -14417   -33535   -28726   -18402     -735    18381 
    8957   -12932   -17542    -6825     5658     1164   -19082   -30508 
  -24913   -11766    -5739   -12946   -18158   -15092   -14194   -17691 
  -25130   -29341   -17770    -6281   -14233   -25764   -24220    -6120 
   19990    23326     3397    -8193   -11492   -15208   -14457   -10790 
     343    16154    15738    -1307   -10326    -4751    -2980    -7281 
   -9580   -13885   -15535   -17284   -25823   -20728    -5769    -6406 
  -13318   -20259   -27443   -13498    15554    30016    26859    10270 
  -21401   -47790   -43562   -19864    -3886     -277    -7585   -23483 
  -27286   -15531   -12967   -16664    -9522    -9229   -23249   -26456 
  -16829    -8301    -2158    -4567   -10728    -8214   -12019   -25515 
  -27141   -19968   -11295     1440      169   -14914   -12970     3932 
   11998     9433      788    -6528    -5408    -3986    -5602   -10468 
  -20762   -19032     -219    11908     8630    -6901   -26263   -27432 
  -16239   -17515   -24813   -24885   -19638    -9495    -2550   -10180 
  -19164    -9185     9926    17191     7818   -17814   -39793   -25654 
    8561    22034    10453   -15890   -40193   -34581    -4254    19578 
   25331    15241    -3004   -15991   -20588   -16397    -2452     9685 
   10167    -5222   -30756   -38065   -19353     -894     6180     2049 
  -18577   -44764   -51783   -30890    -2533    14446    21158     7537 
  -24585   -34574   -15666     2541    19938    27605     7174   -16645 
  -28165   -30918   -12933     5413    -5254   -25678   -35655   -27547 
    3286    20079    -2119   -23273   -24584   -20095     3918    29710 
   22895    12982     7548   -14881   -20674    -3279     4165     3147 
  -10556   -37975   -52282   -41018    -7730    20954    21680    10494 
  -11807   -39961   -33394    -2516    13846    18428     8493   -11685 
   -7730     7311    -2538   -12424      690     9990     8823     6615 
  -12618   -34173   -23846    -6952    -8388    -6853    -4984    -9977 
   -1824     8533      117    -8829    -4308     4939    15036    17013 
   -2142   -30350   -46801   -47416   -32479   -10792    -1566    -9120 
  -24027   -34428   -27299    -2173    21679    21122    -3037   -26014 
  -33859   -29474   -17325   -10354   -18298   -26760   -25693   -22995 
  -16461   -13931   -31344   -44006   -39852   -41908   -33233    -6151 
    5279     3341    -7000   -31276   -32356    -7061     1855    -2528 
  -13743   -43612   -59455   -39100   -10578     9576    10544   -15812 
  -36188   -23913     3576    23886    28322    21776     9597    -8265 
  -19764   -20461   -13275    11491    30529     5272   -39824   -60387 
  -49463   -11483    28078    27406    -5261   -31030   -39753   -22042 
   24477    50215    21471   -23751   -47481   -49331   -32054    -4924 
    5457   -12012   -35469   -44815   -46540   -44456   -27626    -4332 
     184   -15658   -30872   -35065   -29625   -18531   -12011   -12362 
   -8889     -243     3745      706    -8319   -25140   -34257   -19936 
   -2044     3874     4223   -12353   -38873   -34690    -1629    21557 
   23289     8383   -17689   -32037   -19541     5231    26536    31433 
    9871   -17743   -25422   -12786    10486    23866    16067     3527 
   -9603   -19131    -6160    13218    16167    12021     4402    -5455 
   -6929    -2676     4101    14254    12248    -8791   -23595   -14948 
    4004    13381    -1357   -28824   -41123   -41476   -34971   -11621 
    7319    11684    13173   -15448   -66299   -77141   -49347   -16348 
   15390    22586    -1849   -22102   -24988   -27811   -25249   -10781 
  -13141   -27732   -24958   -31445   -45007   -21892     2805    -1939 
     789     2823   -11630    -1934    27542    32224    19751     7439 
  -12230   -25008   -13205     7074    19433    20392     2480   -17485 
  -10657     7052     3436   -22388   -48904   -50430   -21457    23110 
   59240    56048    22844      683    -8051   -12358    -4590     2662 
    2511     8397     1165   -35039   -59773   -51786   -29593     1799 
   20492    10450     6788    16523    10356    -8503   -26351   -32868 
  -15290     9371    20536    18244    -6713   -41411   -53252   -45553 
  -19592    18903    19908   -23340   -57292   -54834   -21768    15777 
   19462   -13118   -44769   -50741   -38095   -20837    -7171      224 
    6729     6766    -8524   -15710    -1965     3563    -3499    -5751 
  -11748   -17623   -15326   -24210   -30348    -8101    10117     9689 
   18692    22875     6908    -2357    -6466   -19426   -20970    -6990 
    -590    -1622     7544    25170    35121    27878     4334   -25980 
  -42835   -22767    25606    50008    22239   -17384   -30117   -23852 
   -4793    18635    19511    10193    21109    26367    -1715   -30301 
  -26644     4792    41870    49960    18671   -21805   -40945   -26021 
    8232    27892    22422     7022    -9175   -22492   -20781    -1109 
   22896    35596    24069      262   -14038   -24356   -25585   -10995 
   -8893   -21636   -30344   -39565   -36968   -15399      430     7787 
   10357     -613    -7138     6197    18971    13874    -3179   -19950 
  -23048      512    36485    42859     6863   -39624   -60677   -42705 
   -1671    28565    21803    -8328   -22766   -18804    -9802     9638 
   23711    16962     6340    -2399   -12429   -13369     -477    12639 
     396   -34409   -53443   -41936   -15711     8366    10498   -14975 
  -43567   -47477   -19666    22460    51833    53216    24019   -14665 
  -26482    -8475    20538    39934    21177   -18902   -32864   -18101 
   14010    49018    40803   -16349   -65538   -73400   -46634    -4109 
   27031    28195    -2727   -42840   -51854   -22294    19297    38967 
    9493   -40466   -59490   -55230   -43427   -16570     5780    12093 
   16811     2496   -40002   -59770   -26972    27579    62769    46084 
   -9328   -44116   -39195   -10021    35644    64107    48681     6500 
  -42371   -63645   -33710     3014    15127    17848     1802   -30725 
  -42630   -31531   -14326     9312    27302    25767    16422    18491 
   27256    22725    17260    23595    14785    -1496     8493    23993 
   21518     2008   -42510   -79211   -67752   -37178   -16653    -5717 
  -16996   -44146   -46560    -8730    28067    29516    16854     7811 
   -4350   -11503   -10113    -7279     7107    37933    58089    36349 
   -9312   -22674     5592    26246    11879   -19682   -39646   -27821 
    4221    18910     3078   -18922   -20841    -7477    -2217    -7404 
  -14142   -20666   -20456   -17435   -19421   -14867    -9108   -22015 
  -34113   -14014    23287    37925    22060    -1303   -21412   -33045 
  -24799   -11962   -12921   -15107   -15623   -29462   -57462   -77240 
  -58433   -13964    10578     7484    -6907   -19668   -17222    -1634 
   20799    34842    19695    -3534   -16165   -30320   -25913     5068 
   22490    19073     5898   -23087   -39947   -18436    12566    25288 
   23853    13104    -8783   -34881   -45959   -29182     6683    36884 
   35319     3994   -25140   -38629   -41970   -31716   -19382   -14647 
     911    11561   -15655   -38730   -13132    22359    36464    35479 
    8908   -26420   -29403   -13387   -13053   -22517   -24748   -24872 
  -33219   -45725   -54896   -61799   -57041   -26213     7793    14759 
    7841    -6336   -33386   -32088    10887    35722    28406    13519 
  -24675   -58108   -37490   -10134    -6535     7907    10087   -13420 
  -18832    -7344     -300    -4095   -24099   -29547    -2338    21514 
   19726    -4971   -34998   -34512   -12987   -14558   -28934   -24165 
  -13370   -13772   -19479   -32024   -48054   -40442    -7522     4524 
  -19692   -37780   -29723   -11886     9082    28921    30236     4998 
  -20795   -24583   -27598   -29692    -2085    20817     2296   -17932 
  -24681   -40685   -38788    -5582     8131   -14081   -34653   -45893 
  -60605   -53917   -12298    16063      868   -24042   -40956   -59678 
  -48929     7269    47576    40424    24526    15188     9569    17535 
   24235    14485     4911    10328    24246    23407     -331   -14242 
   -1570    11150     1504   -35072   -66035   -44684     -393    14434 
    9924    -9589   -45743   -48998    -9876    14067    17591    25280 
   17498      384    -4207   -21246   -33539     2035    32913    13950 
   -9166   -14603    -3462    31734    43294     6096   -28410   -47656 
  -61775   -47566   -18969     2105    19331     1280   -49893   -64729 
  -33801    -2133    14929      913   -46508   -72275   -52187   -29645 
  -21946   -16781   -18524   -17952   -15579   -39373   -62658   -39705 
    -957    11202     4668    -4169    -9754   -10926   -14660   -21329 
  -16210    11189    46499    54475    28989     3440   -14861   -25155 
    2561    42890    36556    -5986   -50040   -68096   -33427    17752 
   32748    18562    -7877   -28600   -22328   -16009   -33713   -41893 
  -17217    17115    30117    12895   -18145   -30319    -5037    21673 
   15004     2866        8    -5026     -828     2139    -5362     2770 
    9999   -11243   -26805   -19219    -9009     8700    27282    18055 
  -10159   -34394   -43758   -26689     4923    32049    50498    36377 
  -12391   -40571   -33781   -25130    -6055    24893    35241    29702 
   14089   -28079   -71407   -73038   -27837    29406    46682    12407 
  -22557   -16538     -220    -7789   -15382   -16897   -23647   -18674 
  -20078   -44280   -52169   -43809   -38270   -14494     7837    -2488 
  -14688    -6803    11330    33286    37330    15114     4403    22121 
   42594    46880    28672     3237    -6240   -10341   -15908    -9084 
    3341    10802    12076    -2387   -26006   -31235   -10114    18016 
   31526    20420   -11080   -37181   -30849    -6794     4491    -1397 
  -23739   -49443   -50292   -31219    -8657    16116    21568    -3164 
  -33769   -56109   -59481   -36328   -13083    -8138   -11529   -20597 
  -24326   -12032    -9084   -26752   -35899   -22478    -1847    11180 
   13575     8253    -2937   -15486   -24232   -29667   -17191    20211 
   34294    -1933   -38734   -40388    -5184    58129    91135    53924 
   -5726   -41793   -48141   -18674    27145    43566    20557   -15667 
  -45770   -50264   -17584    22184    38518    32160    10150   -13242 
  -25863   -21533     7701    38580    38208    14576    -8705   -16783 
   -5635    16827    34045    19806   -12553   -16821    -4419     2954 
   18286    16017   -16236   -34736   -35337   -35595   -17815     9879 
   21985    26664    18194   -11428   -28556   -25461   -23256   -12350 
    2320    -7075   -32650   -43771   -25939    -2115    -5949   -30353 
  -53318   -57067   -23859    15755    13745   -15313   -34812   -38291 
  -24314     1490    12017      813   -10737   -21798   -29839   -13553 
    7044     4928     -760    -8291   -24964   -24094    -7201     1704 
    9917    15174      497   -19146   -16004    13533    44135    48693 
   32448    12843    -4245    -7872     2253     2695     -956    17213 
   29980    10622    -4328    -4275   -14372   -13404     7914     9761 
   -4684    -5549    -7153   -16464   -13537    -7936   -18969   -36503 
  -46619   -47403   -39183   -26415   -14764    -9069   -12943   -17531 
  -20120   -34006   -41454   -13764    23055    35513    20502   -21661 
  -56124   -45179   -17453     1748    19686    19805      937    -7947 
   -7969    -9006    -4004    -3037   -14655   -19525   -11044   -12031 
  -29355   -36688   -15370    19233    35107    22993     8366     7174 
   15254    27466    24316     1802   -10107    -5691    -3550    -2625 
     448     2279     8552     9666    -9760   -23759    -9247     4857 
    1934     2113     -237   -21140   -35053   -17563    15112    40695 
   41965    12579   -10413      697    12829     9658     7452    -6596 
  -26337   -17828    -2114    -1626    12101    24829     5201    -7667 
    2103    -4916   -16912    -7894    -3423   -12755   -15217   -12943 
  -19404   -29407   -32582   -33129   -29535   -13820    -4974   -12635 
  -12411    -3424      154     3979      208   -22959   -43821   -39628 
  -19149     -376    10004     8964    -5439   -22865   -25572    -8760 
   13168    20390      711   -38297   -65089   -61778   -40175   -12219 
    2959    -4590    -6509     4799     9193    15042    22227    11208 
   -5222    -9139    -1859    16246    34745    41481    41902    36297 
   16384    -5361    -9483     -352    11106    12064   -13301   -41490 
  -37618   -16901      684    13942     8329    -6712     -566    13347 
    8980    -5350   -19920   -33215   -35764   -24289    -9724    -1910 
    2930     2692   -14191   -31467   -31609   -24059     -821    28125 
   15021   -26115   -48422   -50943   -29585     5266    12518    -2307 
  -14905   -25916   -28251   -18329    -7888    -5707   -10925   -15691 
  -18443   -17138    -8259    -1009     1189    -4471   -25305   -42721 
  -40269   -26545    -3260    20861    20607    -4456   -31107   -41182 
  -23231    11557    22735    -4814   -34670   -35543   -15342     7035 
   20273    13802   -10418   -20436     1667    22184    18428     6465 
   -7581   -13516     4995    24385    26467    30019    29342     8114 
  -13965   -20700   -14028     9627    34032    28630    -1155   -27255 
  -32502   -11946    16285    25594    15079    -3477   -20081   -20469 
   -7822    -2572    -5467    -7934   -10587   -10921   -15266   -23453 
   -8814    18383    13616   -10522   -14266     -193    15420    17196 
   -5389   -32365   -40509   -29800   -11765    -2338    -8497   -26809 
  -50914   -62200   -51889   -38940   -28432   -12351    -7778   -24898 
  -39971   -34985   -21597   -16223   -16358   -13013    -7506    -6856 
  -13795   -21221   -19244   -10381    -7590    -8142     5674    24854 
   23979     7745    -6406    -6881    16555    42150    38873    22321 
   16187    14315    13871    18997    15924     -599    -6396     2881 
    8769    18238    28877    18034     4407     6111     -654   -11113 
   -3430     6184     4115    -4783   -19058   -27010   -16139      805 
    -965   -19881   -26050   -13858    -2552     5939     4781   -13950 
  -25741   -22580   -21420   -16282    -7622    -8789    -9605    -5408 
   -9643   -15600    -8012     4497     7486    -4556   -28735   -42581 
  -30982   -11256     2341     9054      431   -19818   -36582   -48355 
  -44595   -16313    10265    18441    15747    -4661   -31269   -28914 
   -9250     -699     8192     9557   -17056   -33434   -12154     9479 
   13273    11732     1331    -6986     1943     7845     3269     2684 
     887     1984    12624    10844     4354    14522    14058    -3102 
   -5152     6128    16274    21505    12161   -12239   -33218   -26124 
    3167    15032      668   -15158   -22485   -15418     4761     9279 
   -9524   -19947   -12830    -3830     7159    10794    -5518   -14374 
    -116    11787    12271     5874    -8654   -16791    -8315     2943 
    6704     7873    10916    12069     6358    -4289   -12954   -12569 
   -1795     4971   -10304   -37649   -47323   -29499     -532    20255 
   23082     7283   -13359   -19310   -13163    -7581     3475    19876 
   20709     3095   -13498   -20480   -19022    -6980    11097    17768 
    6295    -4341    -1681     4805     9718    12784     8975     3048 
    2277    -2799   -11102    -5618     4799     5628     5111      736 
   -9355    -8613    -6431   -22084   -39161   -38269   -21036     2812 
   16944     9630   -10960   -22788   -20393   -16235    -3411    17637 
   18163     1007   -14568   -32630   -34909    -4618    22727    16927 
  -11023   -33917   -32660   -18674    -7820      -76     2515     3558 
    -576   -19285   -31770   -22003    -5134     7630     9197    -5756 
  -24326   -28088   -11896     6618     7920     -948   -11836   -23398 
  -23876   -13557    -1691    10845    15865     6558   -10538   -26558 
  -30539   -20324    -6113     5326     3749   -14899   -31110   -30570 
