Origin Time       2011/03/11 14:46:00
Lat.              38.103
Long.             142.860
Depth. (km)       24
Mag.              9.0
Station Code      SIT001
Station Lat.      36.2431
Station Long.     139.1938
Station Height(m) 48
Record Time       2011/03/11 14:47:31
Sampling Freq(Hz) 100Hz
Duration Time(s)  300
Dir.              N-S
Scale Factor      3920(gal)/6182761
Max. Acc. (gal)   102.926
Last Correction   2011/03/11 14:47:16
Memo.             
[...]
  -17147   -10304    -2916     2806     4427     3148     2280     1386 
    -294    -1228    -1070      786     3896     3739     -880    -5544 
   -7642    -5321     3334    13577    19766    23565    25910    26461 
   29322    33628    34619    35649    38820    39023    37620    38877 
   40572    43372    47788    47492    42981    40205    38401    36558 
   35242    31341    23905    16026    10008     7329     7542     7536 
    6187     5457     7161    10947    13950    15519    17845    19173 
   16962    12442     7506     5525     7979    10063     8254     4471 
      85    -6199   -12981   -15670   -14700   -14576   -14165   -10049 
   -4499    -1485    -2859    -9250   -17384   -21950   -24074   -28957 
  -36311   -42985   -48597   -52030   -51588   -49204   -46776   -43916 
  -41928   -40817   -36789   -29509   -23444   -21165   -20732   -19053 
  -16701   -15054   -13418   -14253   -19269   -24940   -29749   -32254 
  -28931   -23721   -23706   -26819   -27544   -25825   -23173   -19384 
  -14488    -7917     1432    11029    16162    17514    19227    20666 
   20208    20477    21786    20809    17608    14487    11028     6187 
    1238    -2989    -7536   -10970   -10804   -10476   -13830   -16929 
  -15532    -9912    -1127     8508    18795    30550    39058    43563 
   49446    54357    54072    52793    51823    47099    41645    40059 
   38811    35016    29955    22791    13646     6615     3413     1167 
   -1924    -4947    -6993    -7272    -5344    -1741     3076     8108 
   11463    11934     9975     8960    12410    17810    20576    21561 
   22087    19562    13066     4398    -4913   -12597   -18245   -23716 
  -27170   -28411   -32048   -36137   -35321   -30854   -25770   -22643 
  -23634   -26598   -28918   -29805   -26792   -20481   -15877   -13710 
  -12185   -11284    -8677    -3600      875     4184     6123     5897 
    5112     3676      496    -3150    -6816   -11606   -16987   -20159 
  -19431   -16738   -14741   -14059   -14500   -14843   -12670    -8397 
   -5421    -4675    -3869    -1452     2270     6245     9494    12559 
   16708    21534    25729    28662    30843    33409    36768    41175 
   46944    52647    55379    53294    46936    38320    29546    21122 
   12670     5846      894    -5533   -13310   -19500   -25334   -31723 
  -34860   -31741   -22858   -11477    -3190    -1305    -3419    -5415 
   -6627    -8961   -12311   -14385   -15721   -18542   -21098   -21622 
  -21955   -23004   -24292   -25172   -25348   -25978   -26876   -27586 
  -29278   -29666   -26318   -24321   -27669   -31547   -31412   -27625 
  -21491   -15787   -12391    -9319    -6307    -4301    -1853      584 
    2730     6263     9318     9739     8713     7151     4968     1002 
   -5875   -12882   -16034   -13795    -4698     9530    22347    31217 
   38010    42874    46858    50868    50329    42448    31679    21518 
   12878     7451     4987     4110     4037     3932     4052     5077 
    7674    12400    17715    21147    22191    21594    20337    20403 
   21804    21569    18505    12642     4679    -1219    -3442    -5510 
   -6950    -4934    -3123    -4731    -6259    -6390    -7531   -10480 
  -15940   -21801   -22843   -20723   -21242   -24110   -27705   -32191 
  -35067   -35968   -37932   -39844   -39188   -37590   -36227   -34377 
  -34067   -38182   -45928   -53132   -55004   -51130   -45416   -39900 
  -34982   -31651   -30645   -32076   -32530   -28228   -21241   -14584 
   -8907    -4725    -1304     1907     3715     5539    12145    23535 
   32780    36505    38027    38930    39112    41260    45057    45464 
   42108    38498    34304    29414    26554    25536    24084    21163 
   16661    13495    16137    24038    32742    39278    41906    40658 
   39295    41172    45280    48651    48693    43666    35408    28830 
   25060    20638    14342     6897    -2685   -12775   -19028   -21585 
  -22267   -20279   -17224   -16190   -17801   -21233   -24373   -26300 
  -27585   -27064   -24805   -23634   -24864   -26603   -26019   -23001 
  -21091   -23053   -27268   -30758   -31648   -28311   -21598   -14856 
  -11556   -14699   -21532   -24573   -23072   -21264   -19701   -19003 
  -20974   -24390   -28025   -30721   -29075   -24079   -22349   -24161 
  -23219   -19538   -15902   -10257    -3589      743     4338     8038 
   10271    12593    16195    19740    22504    22639    18352    11291 
    3510    -3348    -8085   -12063   -13719    -8099     2780    12201 
   19230    26321    33154    38620    43617    48883    53375    56431 
   57823    56599    53736    50578    45024    36861    29324    22129 
   14039     7991     6136     8026    13276    18858    20213    17072 
   13136    12531    15182    16916    17534    18578    17404    13376 
    7798     -251    -8523   -13114   -14693   -14430   -12493   -10793 
   -8826    -5530    -4481    -6178    -6355    -4500     -870     5178 
    9568    11074    14157    17000    16251    15003    12310     5566 
     202    -1502    -3349    -3777    -2017    -2663    -4964    -6105 
   -8230   -10873   -11661   -13547   -17784   -19722   -19233   -21501 
  -26519   -31268   -36430   -40638   -38528   -30155   -20575   -10992 
   -1282     6042    11224    16738    21222    22069    21014    21651 
   23863    24817    23312    19370    13218     7563     5725     7028 
    8802    10724    13772    18255    23969    28907    31385    33895 
   37399    38354    36160    32518    26789    20640    17017    13408 
    8452     6210     6150     4018      900    -1126    -4714   -11902 
  -20343   -27614   -31825   -30257   -24452   -17465    -7789     2828 
    9649    15693    24364    31624    35275    36428    34763    32185 
   30131    25360    17372     7718    -5597   -21040   -33733   -43444 
  -50425   -52255   -48853   -42570   -35488   -29418   -24149   -16396 
   -4827     7246    16436    21729    23590    24475    25889    25895 
   23310    18026    11023     5964     1715    -5930   -14773   -22835 
  -31273   -37407   -40193   -42476   -43208   -41410   -38850   -34565 
  -29228   -24481   -16662    -5220     6406    19347    32644    42016 
   47083    47990    46736    48367    52271    53765    51882    47557 
   40361    30322    18810     7939      104    -5462   -11878   -18508 
  -22905   -25499   -26919   -26404   -24855   -23482   -20046   -12781 
   -3567     6112    15645    23386    27081    25200    20013    15628 
   11689     5225    -3728   -12665   -19058   -23559   -29592   -35194 
  -36500   -36750   -38040   -38457   -38915   -37634   -30782   -21293 
  -12819    -4921     1978     7950    13049    14575    13082    11763 
   10581    10089    10362     7852     3528     1373    -1079    -5874 
   -9802   -12921   -16380   -18651   -22165   -28759   -34309   -38058 
  -42430   -44891   -42925   -38140   -31475   -23527   -16898   -14396 
  -16109   -17050   -12546    -5441      431     5930    10772    14845 
   20867    27591    32133    34914    34852    32293    30568    27903 
   22002    15497     8604     -197    -8983   -16951   -25050   -31304 
  -35588   -40874   -45119   -44911   -41236   -34678   -25473   -14817 
   -3001     7676    14308    18542    23406    29081    33663    34667 
   32351    29426    24936    16761     7636      -57    -6833   -11659 
  -14193   -15917   -17037   -18259   -19250   -16441    -9668    -2220 
    4892    10151    11551    10697     9892     9611    10117    11335 
   11677     9672     7820    10028    14909    19152    23140    26588 
   26871    24454    21021    16060    11436     9570     8863     8478 
    8665     8661     9736    12205    14922    20842    30454    37064 
   38867    40125    41429    43881    48481    49858    46295    40013 
   28113    11854    -1817   -10898   -15721   -16528   -16401   -18037 
  -20308   -20053   -15087    -5122     8743    24497    38946    49320 
   55388    58364    59490    57577    49105    34826    20109     7352 
   -4055   -13352   -21338   -30620   -40329   -47036   -48020   -44066 
  -39766   -36594   -32929   -30075   -27796   -22510   -14996    -7290 
    3055    14254    20559    23206    24366    21693    16923    13422 
    9477     4082    -1809   -10295   -22252   -34267   -44241   -52401 
  -58478   -62136   -64167   -65608   -65143   -60364   -52162   -43398 
  -35413   -29132   -24408   -18742   -12177    -7378    -4070    -1258 
     566     1637     1212    -1099    -2930    -5006   -10301   -16481 
  -20938   -24078   -24000   -21699   -21985   -23851   -24413   -24649 
  -24458   -23555   -23421   -22268   -17277   -10369    -3203     5207 
   13821    22786    34398    46422    54878    60435    64265    63567 
   56879    47770    39280    31352    23610    14620     3133    -8488 
  -18083   -25891   -30643   -31622   -30702   -27580   -21861   -17523 
  -16451   -16209   -17324   -21585   -27169   -32565   -37264   -39656 
  -39791   -38616   -36475   -34897   -34573   -34085   -31029   -22823 
  -10748        7     6400     8375     6641     3880     2418      643 
   -2269    -4181    -5638    -9559   -16996   -26395   -33996   -37796 
  -40265   -42730   -42772   -40028   -36252   -31215   -26743   -25997 
  -26346   -24121   -19138   -10163     2918    16427    28010    38640 
   50382    63485    74891    82548    87483    89480    87749    84336 
   80480    75596    71903    70264    65695    56328    47638    44069 
   45167    47329    46621    43879    43172    44443    44439    42047 
   37816    32614    27767    23278    16988     7894    -1509    -8825 
  -14230   -17774   -18560   -17327   -16100   -14786   -12362    -8384 
   -1148     8923    19187    28790    34205    32114    27707    26290 
   28033    33875    40242    39466    33384    27800    20323     8917 
   -2011    -9882   -16492   -23675   -32071   -41024   -48514   -52987 
  -53785   -50306   -43719   -36993   -31242   -25774   -20351   -14836 
   -9509    -4853     -933     2482     7498    15657    24266    29622 
   30685    28776    25525    22266    20595    19529    14670     4165 
   -8571   -20098   -28514   -31130   -29310   -28915   -31084   -33252 
  -34908   -33500   -26463   -17748    -9458     2382    16876    29632 
   40704    49916    57010    64829    72698    77618    80561    80902 
   74897    64361    54547    46823    42445    43628    47710    49949 
   49223    45470    36771    23658    11574     3119    -4693   -11829 
  -16287   -21863   -32118   -43902   -54016   -60007   -57138   -46322 
  -32752   -17499    -3093     6833    14246    19958    22796    26734 
   34078    40787    43678    40372    28772    12569    -2559   -12560 
  -12211    -1892     9870    18602    25828    31196    34303    37482 
   41880    46340    49105    49017    48179    49746    50855    45445 
   32745    15721    -2715   -17408   -23745   -23912   -22033   -18693 
  -16007   -16370   -17460   -18068   -19710   -20696   -17816   -10571 
    -598     9762    18419    24226    27235    28543    28470    25436 
   19065    11239     2143    -8353   -16856   -20915   -21996   -22275 
  -24393   -30659   -40010   -47939   -49427   -44239   -35984   -26289 
  -17615   -14613   -17510   -21740   -23003   -19174   -10570      259 
   12316    27266    41882    49192    50556    52335    54052    53424 
   53584    55250    53536    48649    46490    48267    51914    56035 
   58153    59866    64763    67410    60837    46769    27327     2821 
  -21773   -40349   -50390   -53755   -55830   -58039   -56396   -50578 
  -43041   -34023   -25377   -18394   -10523    -4742    -8103   -16477 
  -23190   -31636   -39467   -41083   -43835   -50368   -55363   -63164 
  -72765   -74756   -71882   -67149   -56942   -47735   -44817   -40230 
  -29390   -14700     2388    16919    24200    27010    27241    25127 
   22307    13412    -5763   -28502   -51066   -73190   -88835   -95677 
  -97464   -94655   -86959   -77080   -64769   -47647   -28824   -13136 
     759    17113    33924    43137    42366    35858    25851    15326 
    7549     1531    -2587    -5472   -10047   -13445   -12429    -8215 
    -868     7360    12320    14786    17056    18204    17029    15399 
   14104    11292     8561     8075    10569    19065    30862    37596 
   38579    38875    39763    39851    37496    30269    18593     7059 
   -1971   -10127   -17180   -21136   -21989   -19757   -14277    -7052 
     186     5086     5679     4679     6395     9715    11266    12608 
   15865    17386    14887    10793     5150     -697     -953     5192 
   13009    19843    24995    27553    28584    30381    32543    33260 
   31662    27236    20442    13491     8402     3690    -3353   -11124 
  -15193   -14047   -10528    -6489    -1067     5216    11190    15347 
   16643    17520    19650    20994    19295    14123     5699    -5914 
  -19258   -31216   -38204   -39015   -36998   -34826   -30891   -25728 
  -23212   -23372   -23589   -21954   -17071   -11687    -9637    -9991 
   -9462    -5848    -1375      616     1793     4449    10429    21530 
   33512    42357    50540    58285    64437    72364    81544    87885 
   94576   102787   104512    99253    94033    89596    85373    81272 
   74756    67302    59925    49620    38651    29814    21046    14423 
   12199    11523    14748    24922    36730    49509    66662    81366 
   88111    91204    92897    93740    94940    93062    85124    71724 
   53160    29966     2791   -26446   -53945   -79285  -104811  -129642 
 -149811  -161121  -161111  -152381  -141846  -133687  -124474  -107390 
  -81564   -52948   -27252    -9235    -1589      841     4765    11004 
   18174    23398    24955    25126    23976    19811    15081    14032 
   16238    17453    15794    11956     9877    14319    22341    27774 
   28147    22519    14516    10427     8800     4910     -927    -9148 
  -21746   -35980   -46126   -48877   -44941   -36545   -24658    -9172 
    9134    28580    46641    59335    66411    71768    75814    77347 
   76479    70279    55392    32318     3306   -26577   -50007   -64721 
  -73529   -79815   -86692   -93712   -97846   -98938   -98938   -97979 
  -93335   -84732   -75827   -67787   -59501   -50909   -44033   -40258 
  -34866   -23234    -8129     5617    15704    21567    23387    20983 
   15239    10165     8106     8131    10906    15149    16865    17139 
   18836    20913    23744    30279    40564    51931    60481    61178 
   54517    48026    45761    46534    48812    50642    51833    52145 
   47748    39396    34327    33208    29970    23603    16400     8191 
   -1441   -12123   -22938   -32686   -42062   -52722   -63785   -72646 
  -78603   -83421   -89032   -94808   -97362   -95116   -91245   -89430 
  -88911   -86037   -79282   -70549   -62542   -55089   -46641   -39141 
  -33169   -27206   -25139   -28211   -30819   -32487   -36262   -41706 
  -49992   -62254   -72605   -76019   -74272   -68824   -61801   -55867 
  -47294   -33975   -21077   -10993    -2600     2819     4465     3545 
    1184     -915    -3215    -8832   -17011   -24730   -30191   -30157 
  -24249   -17613   -12840    -7104      242     6208    11259    16603 
   20429    24083    28927    31517    32232    35497    39805    42584 
   48514    59634    69358    72396    67419    56051    45727    42200 
   44133    48905    52434    48496    37220    25749    17292    10582 
    7772     9787    13185    19261    30916    44848    58097    69084 
   73802    72094    69198    69317    73441    80162    85845    86196 
   78524    62787    43816    29160    21277    18207    18833    20880 
   20229    15456     8417     1798    -2178    -3942    -4133      380 
   11116    23264    30862    32975    32196    30564    29530    28169 
   23932    18346    13719     9104     4667      370    -6264   -16482 
  -30390   -45524   -57094   -66341   -76985   -85961   -90248   -91384 
  -89271   -83978   -77899   -70743   -63317   -60837   -63176   -63082 
  -56984   -48262   -40324   -33785   -30062   -29301   -27744   -23733 
  -18405   -12319    -8715    -9403    -9976    -8903    -8774    -9448 
  -10487   -11738   -12053   -13180   -16594   -18566   -16573   -14279 
  -14259   -11563    -1442    13060    27003    38399    47276    54042 
   57266    56357    54963    57033    61158    62921    60864    55279 
   46355    36092    26229    16863     9028     3141    -2201    -6023 
   -6137    -3880    -2083    -1488     -750      759     1696     1419 
     301     -818     -486     1063     2192     2797     4591     8176 
   11908    15168    18751    22771    26218    26240    22171    17867 
   15266    14426    16384    18890    19608    20456    22142    24478 
   29433    36391    41981    45641    48762    52078    56087    59438 
   61140    63136    63844    59170    50555    40714    30477    22903 
   19526    18451    19415    20745    16697     7633     1311    -1482 
   -5511    -8789    -8680    -7069    -3011     3933     9831    15174 
   23366    31423    36004    39047    40888    38762    29641    14196 
    1359    -3774    -7114    -8861    -5298    -2587    -2986      510 
    7514    14305    22717    28057    21637     8355    -1037    -3762 
   -1117     1972     -414    -6610   -13144   -19283   -21767   -17417 
   -7238     3255     6054      316    -6590   -10630   -11507    -9217 
   -7555    -8857   -10645   -13067   -16459   -17397   -17005   -20463 
  -27263   -32942   -34742   -31643   -24858   -17232   -10153    -2325 
    7513    18754    31123    43390    52690    58466    61711    63813 
   67151    72177    77320    81862    85448    86917    86265    84896 
   82846    79277    73700    65645    55762    45656    36311    28624 
   24254    22947    21480    18325    15459    14424    14401    15272 
   16166    11991     2218    -6858   -13599   -19272   -22687   -24689 
  -26625   -26973   -24774   -20289   -12935    -4524      512     1743 
    1146    -1412    -4687    -6710    -8007   -10007   -13926   -19268 
  -23526   -24216   -19378    -9337     1808     9942    14589    16149 
   14839    13710    15481    19784    25346    29864    32074    33505 
   34666    34627    34931    37872    41801    44255    44605    40934 
   33287    26194    23055    23914    27524    32296    36029    36599 
   33289    26418    19910    20930    30246    41422    49991    54460 
   54930    54485    54885    54866    55323    57750    59599    58252 
   54580    48685    38760    25272     9881    -6184   -21037   -33954 
  -43380   -47019   -48313   -51201   -53480   -54565   -57234   -61744 
  -66784   -70691   -73510   -78171   -84266   -88590   -91346   -93688 
  -95888   -98991  -101850  -102445  -102624  -103229  -100876   -94510 
  -86333   -76918   -66010   -54620   -42900   -30382   -17647    -3385 
   13763    30370    43651    54296    61710    66470    71502    77091 
   82907    90840   100630   108543   112771   114587   113947   111286 
  109746   110217   111166   112167   112085   108815   101991    91853 
   78228    63498    51366    41814    33059    24402    14953     6401 
    2358     1967     2078     2710     5134     9047    12238    12292 
   10506     9986     9965     6869    -1520   -14287   -28907   -44124 
  -59318   -72843   -83266   -91897  -101753  -112511  -120942  -125989 
 -128109  -128195  -128019  -127115  -123448  -116117  -105268   -91877 
