Origin Time       2011/03/11 14:46:00
Lat.              38.103
Long.             142.860
Depth. (km)       24
Mag.              9.0
Station Code      SIT010
Station Lat.      35.9071
Station Long.     139.6478
Station Height(m) 6
Record Time       2011/03/11 14:47:30
Sampling Freq(Hz) 100Hz
Duration Time(s)  300
Dir.              N-S
Scale Factor      3920(gal)/6182761
Max. Acc. (gal)   170.169
Last Correction   2011/03/11 14:47:15
Memo.             
[...]
   14945    13728    16892    11576     4313     -133    -6182   -14094 
  -20785   -24078   -25934   -28832   -27236   -18458   -12657   -12876 
  -10732    -6613    -4915    -3307     -361     2075     5976    15108 
   25659    31463    33135    34417    36749    37720    36171    35032 
   35571    35790    33442    30102    29731    30935    28809    21554 
   11045     2887     2209     5886     6147     1463    -3855    -7391 
   -7316    -1957     3815     5160     5509     9105    14283    15932 
   13269    10126     6745     2630     -183    -2547    -6506    -9947 
   -9606    -7590    -6644    -4727    -2820    -4244    -6802    -8166 
  -10126   -13577   -16073   -14430   -10081    -8230   -10414   -12937 
  -12283   -10148   -10320   -13901   -19770   -24518   -26713   -29820 
  -35151   -40013   -43858   -47901   -50039   -47784   -44067   -41990 
  -37694   -28603   -20554   -16288   -11030    -3220     4142    10124 
   16481    23031    28234    33369    38803    41899    42539    44507 
   50425    57828    63533    68557    73967    78107    80424    82400 
   84096    82692    77245    71288    65629    58785    54252    54309 
   55508    55409    54856    55172    56297    56497    53217    46440 
   40549    38862    40024    41672    42084    39260    32408    23053 
   14494     9684     7518     2756    -9522   -28322   -46156   -59317 
  -71077   -81337   -86595   -86586   -84210   -82010   -77870   -68692 
  -56121   -42656   -30619   -25019   -26369   -28605   -30787   -34988 
  -39130   -44625   -53299   -59923   -61948   -63134   -65868   -69054 
  -69442   -64748   -55290   -42863   -31457   -23768   -18832   -15080 
  -11103    -6427    -1645     1920     3429     6188    13817    24954 
   35706    41827    42311    41855    44278    49023    53932    56021 
   55313    55725    58384    63165    71188    78664    79885    76753 
   76290    79561    81166    78390    71049    60269    51335    48070 
   47550    43262    32848    22397    17709    16065    13279     9742 
    7003     5409     3087    -1915    -7913   -13096   -16735   -16045 
  -13333   -18214   -32300   -45567   -52044   -54979   -55976   -54442 
  -55772   -62789   -68301   -67455   -63411   -59334   -55413   -51613 
  -49137   -48899   -48977   -45939   -38170   -26311   -13311    -3964 
     -94     2574     8587    17213    26579    35576    40849    41553 
   40991    41493    44354    47705    48413    47770    46715    45882 
   48860    54811    56774    52231    47979    48333    49168    49631 
   51580    51250    46930    43999    46865    52424    52879    46602 
   39889    33674    24693    17567    14605     7839    -5201   -16925 
  -24002   -29935   -33610   -31356   -27936   -29304   -31319   -27801 
  -21540   -17453   -14692   -12973   -13943   -17252   -22183   -27414 
  -32427   -37993   -42269   -43189   -41174   -38971   -42338   -52464 
  -61186   -62984   -61929   -62873   -67203   -74795   -81749   -82867 
  -78714   -75145   -76274   -80048   -81945   -78778   -71548   -66810 
  -66568   -65196   -58820   -47050   -33309   -24295   -21227   -18451 
  -13119    -7547    -3737    -1829     -465      947     1604     2679 
    4383     5935     8970    13492    17769    19157    16972    18457 
   27582    36685    39430    38530    39763    45204    51335    54498 
   57703    64492    71115    74447    75880    75795    76003    80909 
   89352    93368    90937    88493    86210    78816    67714    55960 
   42362    28036    16726     8045     -979   -10851   -19419   -24911 
  -28388   -29577   -25978   -18908   -11287    -3601     4426    13241 
   21280    25908    28688    31933    34561    35880    35423    30666 
   22777    18414    17834    15372    13287    13536    10466     6700 
   11073    20274    21858    11979      675    -2241     2335     6958 
    2826   -10454   -21199   -23308   -23230   -26679   -35218   -48088 
  -58220   -59581   -57360   -60508   -70184   -78465   -79301   -77673 
  -78558   -79279   -79563   -81960   -82884   -78033   -71745   -68988 
  -67649   -65921   -65454   -65748   -63881   -59523   -54283   -46498 
  -33264   -16518    -1209    11228    21955    30902    38965    47787 
   57174    66047    72695    76613    79334    80712    80026    78002 
   72240    60387    49647    47312    46271    37571    27011    22935 
   21825    21286    25570    29528    25985    21458    23029    27033 
   27994    25743    19458     6889    -5360   -10736   -18259   -35863 
  -52949   -56727   -50662   -46827   -48244   -48675   -42953   -27850 
   -6250     9156    11598     9449    11491    16657    21823    28656 
   37424    43282    44107    42705    41948    42774    42224    37490 
   33362    35265    40433    44117    43689    37352    28331    21641 
   17209    14274    11465     3697    -8056   -14035   -11687   -10772 
  -17056   -24980   -28965   -28191   -22287   -12797    -2178     9132 
   19437    26522    30617    34090    39512    44366    42763    36780 
   35941    41560    43757    37971    31475    29634    29515    28566 
   26924    22944    15418     7600     3244     3243     7542    11983 
   10960     7662     7096     6586     4276     3966     6658     7479 
    5678     8668    18725    26842    28607    29486    29943    25615 
   19837    19698    21614    14312    -3496   -21222   -32355   -42686 
  -57056   -69194   -75385   -80197   -83484   -84288   -89185   -95027 
  -87880   -70666   -57558   -50466   -46748   -43772   -38364   -35637 
  -36921   -35269   -29127   -19591    -7155     5540    16896    28510 
   40233    49615    59272    71333    80480    85831    93930   103412 
  105586    98637    90131    89465    95929    97780    88126    73034 
   62898    59150    52613    37482    19108     7146     5524     3428 
  -12899   -33596   -38769   -31636   -29109   -37651   -51431   -59756 
  -57051   -48492   -44005   -49433   -57025   -52065   -38323   -32888 
  -37631   -39733   -32023   -20699   -11952    -3373     5148    12243 
   23968    43517    61361    67587    68710    77743    90477    94434 
   92629    96106   104896   110108   107885   101827    94700    84988 
   70509    54992    44371    36514    27831    18336     5467   -10059 
  -21543   -25109   -25440   -32913   -46455   -54020   -55751   -59649 
  -66939   -76153   -84100   -87655   -88067   -86564   -82485   -76531 
  -72135   -70644   -66496   -55205   -40691   -28989   -21049   -14079 
   -5753     6481    23347    38697    46531    48940    51148    57005 
   67803    78229    81073    78721    78061    77130    70795    62988 
   59224    52991    36628    20957    19687    24649    24413    21976 
   18428    11512     3899    -3259   -10848   -18758   -26490   -31605 
  -32592   -33112   -32687   -24623   -14132    -7567     4899    23903 
   37203    40297    36877    38006    45675    49662    50163    47746 
   39344    32438    33719    39383    39328    29824    22642    26280 
   32825    37030    44756    55630    61024    58637    53199    48693 
   44859    39270    31029    17084    -7691   -39972   -70224   -93893 
 -109977  -121480  -135675  -152408  -164287  -166682  -158988  -142520 
 -121646  -105873   -97910   -83730   -54924   -25224    -7687     3997 
   19404    34842    44669    52050    61499    71796    75463    70750 
   68417    70779    67069    57520    52388    50143    40081    20538 
   -1496   -18936   -27617   -32391   -39535   -44940   -43557   -37877 
  -32921   -28269   -21270   -14056    -8163    -4646    -4692    -5157 
   -4928    -4783    -2338      503    -1777    -9076   -19256   -30970 
  -39259   -39615   -35445   -36104   -45555   -55242   -54415   -44290 
  -33227   -25535   -22370   -19007    -5023    17064    33406    40977 
   45189    51335    62693    74667    82418    86016    83602    73944 
   59992    46538    35656    25657    16665    10177     4633    -1692 
   -3725     -487    -3401   -10321    -6467     7845    21456    23827 
   13602     -726   -11360   -15589   -19452   -27294   -34016   -34155 
  -23210    -4189    12118    22431    29444    36941    48861    55966 
   45404    30184    29732    36765    38564    32179    14780    -4022 
   -9193    -5603    -4326    -6543   -10740   -14336   -16589   -19355 
  -21492   -22413   -22605   -19266    -7286    12181    25965    26788 
   23880    24617    26966    29594    31880    29223    24112    24640 
   27427    28479    28384    19788     1112   -13327   -13457   -10084 
  -17241   -29389   -35932   -37472   -39161   -42897   -45528   -46290 
  -45766   -35827   -11619    15257    29769    29107    25922    34301 
   48175    52973    50103    44123    30323    10036    -6825   -17434 
  -29449   -42323   -42321   -29106   -19188   -18070   -18031   -16999 
  -14460    -2296    18198    32772    38324    46441    60970    71231 
   74541    80573    89000    93371    93721    90178    83971    78536 
   74412    70102    61033    46544    35145    30067    27343    23407 
   16386    13227    20649    32443    40915    46098    52212    59139 
   62105    59627    51291    39745    30622    19557     -960   -26704 
  -47546   -57828   -60687   -63559   -67008   -63420   -47045   -23582 
   -3484    12315    26915    39670    49836    56048    58083    59224 
   59530    55219    48622    45091    41240    32743    25596    26701 
   31376    29527    19514     8154     4071     9742    13448     4587 
   -8312   -16274   -26265   -40973   -51040   -55929   -61758   -65969 
  -67290   -73446   -88672  -104199  -109599  -107282  -104515  -104088 
 -106565  -106999   -93034   -63373   -37167   -23078    -9366    10012 
   33588    56427    71186    78717    78895    66339    49728    48245 
   63151    73552    66539    54665    55057    66158    73679    69877 
   58342    44566    32038    25605    25386    22948    15351    10583 
   13761    17883    15183    13565    23394    36075    38290    32311 
   28627    31207    34368    30318    17605     5849     7730    19993 
   27995    23381     7353    -9324   -17241   -18549   -17791   -21589 
  -36743   -53853   -58382   -49275   -30886   -10575     2176    10385 
   24774    42826    53014    53863    52305    52332    52696    50912 
   50002    54556    61822    68548    75360    80217    81296    83604 
   94069   109882   119484   119498   119059   121195   116806   102133 
   83764    67222    52854    40851    29891    13105   -10330   -29803 
  -38734   -45111   -59888   -76994   -81509   -73892   -66940   -66414 
  -70053   -79176   -92265   -97961   -92507   -89420   -98195  -106186 
 -103034   -99008  -100234  -104764  -110467  -110334  -107717  -110415 
 -112746  -111267  -109299  -107336  -104228   -99152   -93043   -81851 
  -59958   -36334   -19275    -4089     9686    24911    49835    80099 
  109227   138076   164519   182691   188451   183290   173048   162660 
  150764   133029   113613    97732    79787    58713    45810    42476 
   36581    26167    18458    13701    10645    11029    12015     7666 
   -2358   -12143   -17058   -15128    -5087     9394    21691    28033 
   26606    16009    -2781   -21816   -35090   -47959   -62554   -74344 
  -79642   -73995   -63625   -61914   -66450   -66294   -57456   -45053 
  -44311   -56778   -61229   -53864   -48820   -47173   -47174   -50444 
  -53119   -49953   -40695   -30556   -21274   -11037     -329    10951 
   20099    21494    17291    18492    32451    50511    54494    39449 
   21116    14915    14044     3742   -11829   -19128   -14246    -4928 
   -3979   -10796   -13482   -11433   -11747   -16912   -26011   -34578 
  -35785   -31207   -34070   -49952   -68576   -80082   -82866   -81249 
  -77842   -69593   -55961   -38032   -16100     5585    23510    38154 
   48458    53882    57569    62405    70493    79098    80242    75069 
   72382    73754    76471    79423    81960    83951    82197    75560 
   68674    58442    39301    17083    -2250   -18823   -32855   -46034 
  -58442   -64848   -67079   -74331   -83192   -87166   -90699   -93965 
  -97716  -107184  -118427  -128633  -140753  -153023  -163102  -171059 
 -175702  -177989  -179707  -179005  -176576  -175456  -173988  -167897 
 -155130  -137089  -117118   -99196   -86194   -76582   -64790   -46865 
  -25613    -7543     5017    15190    26000    37829    51413    65921 
   76306    83896    97382   116041   134163   153571   172316   183541 
  187944   190855   196310   201733   201092   197994   199105   202528 
  201528   193194   182465   174642   171483   172269   171503   165823 
  159160   153658   144374   130774   121008   115025   104445    88414 
   72115    60484    53294    42272    22345      -57   -16921   -30552 
  -47704   -69757   -93804  -113017  -124723  -137520  -158433  -186401 
 -210397  -213605  -203883  -209687  -231916  -245439  -242923  -233660 
 -216421  -195444  -183412  -171905  -156038  -145422  -132240  -114003 
 -104278  -100429   -92100   -79114   -65116   -53537   -40679   -17957 
    9278    29162    45168    64058    81263    94053   106878   120153 
  127946   127798   125247   127018   134465   143324   149769   156290 
  166614   176773   181002   181741   184609   190765   198266   206315 
  211761   211597   214157   223345   228236   225918   220405   211920 
  205413   202151   194615   179812   161645   146760   135589   121723 
  106677    92768    73933    49595    23682    -2712   -26801   -48442 
  -71431   -95337  -118545  -144974  -175806  -200164  -211442  -222220 
 -243959  -263501  -262272  -255020  -255761  -244516  -224257  -206585 
 -181727  -160935  -140364  -102806   -69539   -50967   -34082   -16308 
    4116    24321    35280    39501    45769    51155    46363    36236 
   30954    27284    23243    25152    33770    45890    57663    66567 
   77849    94756   113226   130552   142389   146908   151475   157555 
  159808   159898   160749   158939   150322   135655   119730   107291 
  100447    96864    88943    72646    55742    41449    20570    -3783 
  -16462   -17568   -19155   -23542   -26366   -29818   -34694   -36375 
  -33524   -25295   -14250    -6175      594     3347    -4369   -14863 
  -21388   -27132   -31613   -33687   -36591   -42105   -48164   -53001 
  -56984   -59801   -62136   -64916   -62928   -52809   -43006   -40182 
  -41523   -46504   -53810   -56005   -53396   -54378   -61769   -71121 
  -75299   -74770   -78054   -85492   -90182   -88354   -81160   -73988 
  -69346   -66755   -66586   -63872   -54716   -46580   -45812   -49052 
  -52088   -53726   -55724   -61827   -72558   -85495   -97431  -105863 
 -111215  -113168  -109994  -100186   -82854   -62871   -44887   -25823 
   -6994     4707    10151    14631    21052    29443    37283    44520 
   52526    60340    66712    70304    69942    67160    64435    60261 
   53049    44870    35059    24818    21002    23195    26373    31523 
   39740    49932    60573    68243    74330    84538    95725   101029 
  103491   105600    99616    82246    63876    52432    43862    37460 
   35511    32229    24669    17321    14753    17452    21409    25386 
   30725    36678    43176    52089    62925    69154    68996    72391 
   83414    92001    90833    85730    83599    82283    79465    75958 
   68380    55546    45889    44481    43894    39422    37914    42939 
   47491    46584    44675    44186    38353    26687    19608    17260 
    8368    -7426   -21091   -32435   -47140   -63329   -73890   -76918 
  -76201   -74260   -70507   -63150   -49711   -29972    -8525    10654 
   29132    49016    68424    82444    88026    87462    84155    83355 
   89549    97079    96335    84297    65754    47126    31247    21205 
   18343    17869    14547     8300     4519     7591    15461    22760 
   26533    31127    40871    51080    56865    57278    50146    34894 
   14630    -5491   -21267   -34387   -47133   -56537   -63249   -71746 
  -78445   -78197   -75574   -74540   -72406   -68393   -63914   -60841 
  -61941   -63375   -55026   -39001   -30721   -29236   -22260   -19691 
  -26697   -22072    -9167   -10443   -13563    -2513     8518    10931 
   12134    13824    17251    26411    35300    38863    41011    41679 
   39640    38254    39162    37905    28942    17181    14678    24894 
   38847    45793    44678    44526    53008    68052    84032    95836 
   99239    99024   102598   104421    95949    81897    72764    70956 
   66414    51033    34945    21682    -1681   -29705   -49556   -64070 
  -72674   -79264   -95000  -108720  -107755  -103272  -103070  -103646 
 -102703   -97547   -86715   -70935   -52954   -36739   -22565   -11070 
   -3318     5264    16831    28458    40373    51337    56088    53908 
   48595    42997    38337    33826    26970    17906     8324    -2554 
  -11527   -11972    -6505    -4543   -10703   -21480   -26194   -17711 
   -3972     3184     3217     3421     8737    17798    25028    24035 
   17461    14955    13792     7376    -1845   -14692   -31162   -45407 
  -55348   -59394   -54766   -42363   -26014   -11161    -1222     6895 
   18863    32965    43801    53866    66371    76786    80926    82177 
   85590    87246    83374    81943    87194    89970    80815    65780 
   62208    71016    80743    89237    87924    71279    55885    45215 
   30902    23273    25228    20012     3002   -10209   -11569   -14610 
  -26804   -40681   -51144   -56238   -61686   -70057   -71852   -68644 
  -65299   -56373   -44088   -35965   -32602   -28037   -16364    -4693 
   -2739    -3550     4428    19125    29905    33020    31064    26287 
   23346    24416    27229    30424    30832    28052    26902    26484 
   21624    12145     5419    12796    34134    54305    63416    62821 
   55176    45388    41846    45079    49010    53582    56960    56481 
   59746    69216    76446    76542    72803    69430    65662    63393 
   66493    67920    59664    50678    46744    36143    17825     1673 
  -11039   -23217   -37724   -50788   -59187   -70235   -85258   -98876 
 -106826  -105697  -106599  -122601  -137410  -134710  -130376  -130136 
 -119400  -105680  -101499   -97272   -86622   -74298   -62030   -54531 
  -54583   -53347   -49046   -46616   -45519   -48788   -56079   -59679 
  -57504   -53355   -51169   -48659   -38933   -21985    -4557    10475 
   24870    38679    51310    62262    71068    79169    86672    92668 
   98432   105803   114816   123384   129519   133226   135153   133297 
  127111   122038   117682   107893    97091    92579    90575    83962 
   73710    67160    65343    60568    50128    37924    24788    11778 
    1311    -8211   -18291   -28532   -37804   -44929   -52367   -60179 
  -62196   -60156   -61620   -62391   -56990   -49271   -41397   -33709 
  -26664   -18155    -8813     -754     7118    14176    17105    14905 
    8539      828    -3330    -3117    -3263    -6526   -11804   -18734 
  -26730   -32633   -36389   -43706   -56814   -67951   -69242   -64812 
  -61530   -54590   -36753   -14138      883     8622    17780    29583 
   42957    56981    65958    69819    73669    76651    76920    75094 
   71615    69249    69838    71463    74909    83456    95201   103928 
  107722   111249   118401   126913   130737   127772   121887   113639 
  102719    93869    85850    74666    63771    56258    51527    46375 
   38678    33960    36228    41687    46149    47485    44851    39467 
