Origin Time       2011/03/11 14:46:00
Lat.              38.103
Long.             142.860
Depth. (km)       24
Mag.              9.0
Station Code      SIT003
Station Lat.      36.0721
Station Long.     139.6969
Station Height(m) 8
Record Time       2011/03/11 14:47:23
Sampling Freq(Hz) 100Hz
Duration Time(s)  300
Dir.              U-D
Scale Factor      3920(gal)/6182761
Max. Acc. (gal)   119.542
Last Correction   2011/03/11 14:47:08
Memo.             
[...]
  -11514    -8844   -18282   -32712   -40531   -34811   -23659   -12117 
    6615    28748    38752    31487    14497     3326     9705    21250 
   24198    25955    26979    19490    12004    11117    10708    10583 
   10696    11464    17168    14721    -7656   -32833   -45809   -56814 
  -71376   -70102   -40271      939    28135    30582    19223    14311 
   16669     7532   -17034   -36418   -35816   -22108    -3722    20348 
   38311    28220      212   -15909   -20172   -29552   -46380   -54768 
  -38555   -13159      767    13127    23632    19428    15101    21649 
   22540     9384    -6836   -17875   -25412   -26987   -11298    18833 
   40401    50366    70281    88745    68006    16407   -22254   -35607 
  -44254   -61247   -71126   -54268   -22890     2534    21829    33958 
   32635    20667     3660   -12215   -17216   -11672    -9538   -10943 
    5034    35246    41655    17057    -3881   -13539   -26083   -32833 
  -28820   -21406   -12346   -11609   -21270   -21412    -4839    14223 
   23141    21564    19819    23504    26735    28162    30540    27675 
    9592   -20264   -38520   -32155   -22282   -27035   -30653   -19718 
  -10697    -3594    34824    90904   102654    71664    46430    26401 
   -7293   -46311   -68475   -52831   -13934     8885    10957    14648 
   22758    17701    -7823   -40606   -64357   -74983   -79750   -76733 
  -52338   -14084    17843    41513    53711    52605    58773    70701 
   59232    30207    13007    14862    27423    38392    41846    41231 
   31946     8674   -17502   -29090   -17887     6519    25014    35612 
   49678    61933    63138    57247    39404     7351   -15903   -17738 
  -16934   -27076   -33932   -20581     7659    33112    40513    29131 
   20432    27746    34927    28029     6776   -30384   -63716   -63518 
  -50246   -58298   -70577   -68495   -63272   -52186   -25047     8023 
   26799    22995    15359    25148    37318    22091   -10736   -23305 
  -15780   -22178   -44829   -50661   -25895     1112     3992    -1908 
    3410     6445    -5188   -20693   -31678   -30595    -8377    24090 
   51298    76908   103575   115828   106773    92281    76294    45307 
    4367   -27503   -45600   -62057   -83000   -87804   -64406   -40016 
  -30449   -14172    23369    64720    73944    40448     5883     1210 
    2982      -92    12633    29540    24659    17549    39192    73059 
   77563    55008    38234    20639   -12996   -37551   -35449   -28560 
  -28825    -7433    40767    68366    58129    42156    33851    19466 
   -7452   -38498   -59533   -63409   -55027   -40868   -22545    -4349 
    7848    13909    12730     2931    -6630    -6298    -4775   -19502 
  -42506   -46079   -30589   -18373    -3920    21628    26508     -504 
  -16515   -13377   -25504   -42636   -31754    -1874    21408    31466 
   27615    10394    -1932     2592      883   -14469    -8463    19767 
   27922    24460    49454    81567    81079    60228    41389    20397 
   -3617    -7085    17488    28020     3511   -14797   -11533   -16362 
  -30217   -37164   -40758   -40441   -31064   -21531   -16361    -2473 
   25180    46215    43015    28109    18451     6900   -14436   -35129 
  -47214   -49817   -41030   -28575   -22973   -24232   -28053   -23454 
    1484    31556    35777    16138     4214    12732    19609     3118 
  -17728   -12844     1072    -6406   -22364   -23970   -20463   -30727 
  -53318   -68441   -64328   -56612   -65388   -74677   -48980     2395 
   32659    31316    24442    20776    11803     -491    -5462    -3953 
   -9396   -21897   -27880   -25141   -15617     -742    11780    24404 
   37091    32619    12745     -548    -8381   -27248   -56373   -81232 
  -82525   -53782   -14123    25500    67853    96011    91184    59195 
   16414   -14666   -19530   -15637   -19071   -18518    -6282    13181 
   32966    43412    48388    59942    65624    46746    13772   -17029 
  -40422   -52440   -61345   -71689   -64531   -36273    -8241    18801 
   60348   105346   123931   107334    65479     4605   -53818   -74077 
  -62650   -66757   -93683   -90602   -29551    38134    47856     7388 
  -27092   -39934   -59671   -88803  -104686  -104382   -93199   -66543 
  -25528     8548    12199    -6143   -23420   -34409   -36758   -27664 
  -19385   -19498    -9600    25429    63871    75820    65541    55943 
   51161    38669    20424     9510    -1929   -21195   -22621     9383 
   40765    30583   -13217   -44590   -38693   -20524   -21042   -34771 
  -40251   -24557     7499    23396      -73   -32711   -33184   -10638 
   -5698   -32068   -62281   -67105   -44613    -8026    23394    26362 
    2238   -12933     2727    27017    28677     5676   -13288    -5277 
   14903    21318    13354     8790    14304    13653     1852     2312 
   21892    36506    32014    18675     9960     3799    -8940   -18648 
   -7930    12745    19573    19704    33921    48054    37417    13849 
     784      963     9630    21056    22678     7469   -17370   -41931 
  -59476   -69974   -80086   -87815   -85952   -74028   -47317     1574 
   59172    96325   108851   118208   120571    93199    47733    15944 
    2675   -13678   -44880   -68828   -60937   -37094   -26154   -20280 
    4423    35791    34891     -396   -26011   -21028    -9379    -9937 
  -13013    -1269    20608    28959    19755    14402    20303    18416 
     946   -10132     1529    25285    43194    46579    41426    39733 
   45561    58271    71140    71640    59713    44862    30363    19660 
   14874     8476    -3293   -15667   -24140   -26002   -28971   -44369 
  -56923   -40517    -2337    31816    53593    66757    72698    69410 
   55728    36122    14092   -15379   -51930   -73885   -59175   -27034 
  -23178   -47512   -55427   -40409   -35780   -43620   -40544   -30009 
  -23806   -10154    14283    34978    54027    79856    98177    89950 
   67223    59924    59762    29749   -17663   -32428   -23053   -41245 
  -76550   -76320   -43768   -13551     9806    23009    19505    18379 
   25587    19670     1472   -13526   -31373   -56884   -78786   -94392 
 -105241  -104817   -90132   -60143   -20622    12694    36718    53717 
   61202    70177    84278    84202    69424    60157    53098    29036 
   -1308    -2164    24652    28980    -9006   -46290   -48492   -30842 
  -13284      406      223   -21333   -49421   -61781   -53581   -45251 
  -58106   -72039   -51615   -12056     6091    -3011   -14034    -2686 
   20723    24976    18549    28816    34005     7206   -20253   -17136 
    -796     4838    -8337   -42664   -77891   -69587   -11626    38937 
   46047    42124    59464    82267    80392    46172     4960    -5861 
   13825    26424     8436   -24989   -36104    -6607    41552    82630 
  111948   129065   129730   114519    89540    61415    35203     3027 
  -44768   -81989   -79459   -61463   -59603   -59157   -40562   -18870 
  -10835   -12836   -21767   -28698   -24690   -32850   -64730   -90731 
  -96767   -85675   -54273   -15613    18934    59331   101823   116448 
   92556    63013    46183    19364   -11225   -17451   -23797   -55750 
  -76410   -51676     -683    38833    52979    56561    63993    77155 
   92217    92598    68350    44607    48315    62968    57160    30988 
   -1117   -27629   -29033    -1110    25308    22533      941    -9103 
   11503    50813    73524    67897    58924    64271    64175    23373 
  -46730   -89825   -96608  -110773  -147283  -180704  -182026  -140696 
  -70740    -1330    42221    55551    44868    21318     7236     7807 
    9921    15403    31432    56601    86627   111091   122351   120224 
   94913    39964   -21701   -55525   -52933   -35048   -10208    34714 
   83683    95140    58918    -1424   -58258   -88713   -93750   -93851 
  -85098   -51601    -1367    49915    86523    93311    72992    31274 
  -30005   -85707  -104917   -86946   -45064     8091    53882    87538 
  110630    97687    41550   -14456   -45362   -71793  -109612  -139834 
 -125745   -64056    -5929    10650    16171    43718    69263    70418 
   59029    32311   -20133   -71634   -83598   -55785   -19276    16223 
   69395   130446   162855   159341   137353   106188    63973    13240 
  -29564   -55585   -76476   -98054  -102669   -66465     -909    45355 
   58191    59417    35896   -21393   -69526   -79246   -59817   -24187 
   10026    29850    44016    61451    79737    91098    87024    73383 
   55642    13534   -59020  -122520  -142134  -128237  -114127  -111532 
  -98820   -59325    -3970    39090    45752    25587     9917     9263 
    9768     2395    -3491     1790     6434    -6152   -23350   -22179 
   -7235     2506    -2262   -13985    -5085    31937    51718    28993 
    4603     5018     3914   -22301   -57608   -67762   -51282   -36821 
  -28717   -13026     9219    27999    21632   -17269   -47657   -43868 
  -39575   -59062   -78276   -72336   -43725    -9923     3273    -7429 
  -11520     5518    32395    62459    88481    95800    88077    87022 
   92665    86012    71538    72065    88199   101622   103311    97450 
   86248    56504    10813   -19054   -34236   -53712   -47995    -1830 
   43928    73382   101771   116570   102348    68895    17923   -48024 
  -98729  -118096  -120236  -105021   -60413    -2208    35293    46427 
   61797    95978   118219   101029    55698     7281   -23512   -31171 
  -38572   -74387  -125276  -146345  -136898  -129712  -118117   -91284 
  -74668   -64506   -19996    46431    74113    54646    35238    41659 
   62633    77242    70798    46876    14471   -23207   -43080   -26490 
   -7853   -18958   -32726   -24778   -14051    -8751      639    -4918 
  -37923   -60414   -42577   -10448    -1169    -8307     5554    45928 
   79283    88352    77084    51993    21276   -25026   -89637  -133269 
 -134526  -124852  -127671  -121771   -78047    -5209    65144   116022 
  135566   117328    79156    38514    -1401   -37033   -66009   -72924 
  -32967    33579    74419    79224    67936    42856     7242   -19287 
  -29386   -33737   -36419   -30733   -11880    21972    62451    77339 
   48795    17487    20621    23959    -9110   -44914   -44087   -26027 
  -29170   -57005   -74774   -55004    -7621    41220    67941    61241 
   38110    32394    45699    49263    36443    15384    -6753   -15045 
   -7779     2301    15201    44731    89724   120765   109926    60906 
    6143   -15764     -819     6863   -12590   -23281   -10814    -6300 
  -32070   -75383  -114634  -140077  -137577  -109479   -89601   -80728 
  -46382    17970    77195   109959   113785    75567    -2842   -71787 
  -91891   -92297  -107096  -104306   -48157    22133    54895    61209 
   63322    59817    43434    -4897   -72268  -105909  -102902   -94278 
  -74683   -42308   -20479   -18920   -28815   -28442    -4276    14648 
    6227     7094    36264    55608    41223    13737     7910    15432 
  -15658   -82542  -117204   -90875   -40205    -4719    11333    35381 
   92824   156936   178905   168124   155624   134573   101443    66491 
   28526    -5318   -20679   -25618   -32346   -24200     9126    42102 
   65621    99378   132574   131666    95050    50108    20691     6510 
  -13383   -41994   -47724    -9827    54151   113430   137712   108340 
   45293     2944    10202    24891    -1504   -46286   -58498   -29889 
    7404    19759     5197    -3420    11904    26064    15463   -15011 
  -48287   -72452   -86799   -83140   -41836    31767    97849   125228 
  121321   106851    80550    33722   -20373   -59444   -83191  -100878 
  -87720   -23425    40449    51732    41844    58408    82964    68861 
   12462   -53422   -98039  -104488   -90824   -93531   -87487   -19750 
   68541   103190   109282   137787   153766   103655    16838   -34187 
  -45682   -73596  -119981  -132680   -99934   -58901   -35405   -20336 
   -8055   -15527   -30940   -24056   -19167   -50787   -89871   -91755 
  -59347   -33930   -35236   -35334   -17688     6480    40443    77717 
   94241   104880   137852   171480   164281   107369    23678   -48342 
  -79011   -79655   -73871   -51370     3221    75033   131813   149343 
  128129    84950    27740   -32116   -68415   -80862   -88351   -79773 
  -33099    38195    90439    96937    79127    60936    19393   -52011 
 -112116  -148080  -167040  -152232  -107277   -62762   -29788    -3940 
   15828    32024    42294    33159      412   -34245   -48757   -51421 
  -55044   -46268   -12184    33960    64081    60229    38474    25643 
   18716     7895     2819    11159    19269    15548    19577    41831 
   59421    65629    69901    64011    45695    35252    38964    35936 
   10754   -26342   -46174   -37160   -25093   -19942      333    32396 
   45801    31329    10762     4129    11126    17755     1443   -33027 
  -43762   -22386    -8094   -20931   -43720   -54732   -44548   -13478 
   24165    43112    42662    49192    65851    67886    41261    -5673 
  -53767   -86282   -93263   -72904   -39286   -14127    -1805     8544 
   21012    28415    10320   -42980   -89564   -89471   -63791   -36810 
   -8905    16364    43502    70193    69633    39566    22787    42116 
   65953    63148    40610    23532    27235    35418    16062   -30281 
  -63688   -53482   -13909    11290    -5561   -38749   -39781   -10244 
    9647    13177    18429    20933    16661    13627    -6237   -56491 
 -102739  -115396  -105108   -94463   -96588   -94194   -55723     2975 
   28074     6063   -29840   -53422   -52237   -24610     4395    10086 
   10725    37878    80306   116027   154817   190282   184013   136343 
   89855    50065    -3204   -46411   -57053   -60783   -60475   -29414 
   18515    51235    72006   103111   131188   113985    56650     1610 
  -41592   -80084  -104857  -100093   -55162    10169    57968    83917 
  101268    96724    63199    34002    24845     5218   -34684   -64259 
  -67429   -59217   -52128   -45806   -37362   -24807   -11421     -941 
    9403    27932    51692    62134    56252    42470    28284    28748 
   29103     1597   -19546     9230    51877    49972    14067    -6928 
   -6061   -13883   -40893   -61015   -47901   -20340   -15792   -24090 
  -16343    -5223   -14351   -30188   -27167   -16002   -19132   -25852 
  -19693    -6229     6356    19637    36710    45969    32374    14431 
   22542    47894    60242    52667    39911    34078    39495    49686 
   49913    35359     9184   -21164   -48741   -73966   -81940   -57433 
  -23006    -5820     7157    41186    83083    99239    91780    92263 
  107450   111022    92153    69688    44494    -1912   -53200   -74896 
  -69837   -57845   -34588     9701    61274    94036    96273    89250 
   98286   100744    59260   -16857   -82042   -99400   -83741   -78864 
  -77604   -38102    26619    61903    54424    31528    10622    -6049 
  -21287   -37987   -47561   -42947   -34625   -23327     6246    38364 
   33516     -487   -12382     9407    19860   -11595   -55885   -66564 
  -49989   -45194   -45474   -21317     6132     3553    -5653    15133 
   45284    40242    10338     1931    12193     5119   -10211    -4419 
   15140    32399    45223    47726    46241    50777    37269    -5161 
  -35434   -31936   -19730   -10809     2548    18095    29803    31506 
   19868     4620   -12727   -40105   -66987   -80850   -85740   -88494 
  -81517   -43712    21431    78765   106220   112341   114647   115379 
  105025    75919    30562   -10419   -34794   -56998   -82943   -94830 
  -79286   -44346   -10750    10996    30443    48081    46271    28099 
   13754     -279   -27697   -60044   -74247   -55557   -19337     4114 
   20198    55572    99135   114668    88442    34572   -15893   -35807 
  -30547   -23251   -21201   -16728    -4075    14767    33835    44233 
   40155    29897    23514    10994   -20117   -53925   -69164   -72522 
  -78425   -83009   -75956   -56588   -32161   -12665    -1940     5828 
   15175    26738    40217    46857    40887    41683    64251    84763 
   78631    59354    44919    25144    -7908   -36785   -44892   -39273 
  -40377   -53133   -52276   -15593    36536    61895    42197     5119 
  -11115   -17899   -41172   -69940   -90091   -97000   -83668   -60764 
  -48861   -54896   -71148   -70248   -38297    -2986    24329    57314 
   76483    64943    56624    73239    85425    66679    28796    10821 
   35894    72790    81728    62976    32136     4001   -14657   -28148 
  -30322   -19388   -13610   -19104   -21825   -17521   -14880   -19824 
  -37343   -60959   -71196   -63568   -44299   -21445   -11095    -3962 
   27268    64581    77148    79399    87868    91233    81667    68051 
   60455    57185    47259    28456    14749     9383    -2309   -18720 
  -20688   -11407   -13399   -23342   -16494    12329    40649    47125 
   44508    56378    66596    39346   -20590   -63512   -60765   -43043 
  -44847   -56182   -51933   -29604    -5499     8847    20241    42041 
   69212    82384    74578    56503    41909    35690    31418    22469 
   13334     8201     5052     6394    14271    22241    20560     6209 
  -10997   -17946   -17066   -26487   -49948   -62428   -49661   -35149 
  -39901   -49089   -41196   -28292   -39678   -65949   -65841   -34041 
   -6971    -2391    -5247    -5710    -5446    -4623    -6140    -5692 
   11103    43393    73407    86275    77475    58387    46359    38604 
   20097    -7953   -28714   -27605   -10708    -3950   -15169   -22610 
  -10816    17369    49602    68429    66328    48853    24676     1205 
  -23813   -54807   -78848   -78860   -52748    -5789    47249    82113 
   89746    78568    61119    49525    37883    10186   -25417   -49761 
  -57939   -53505   -44086   -26310    10086    45743    58824    66010 
   79052    79327    58597    30639     7136    -5103     -793    12089 
   23465    40026    63532    73547    58836    41513    36823    17973 
  -31316   -78369   -98845  -106598  -113367  -116325  -110666   -92702 
  -68561   -47387   -31021   -27808   -43432   -55980   -44701   -26933 
  -19988    -9375     7602    14535    16809    26360    33163    27533 
   17323    11133     7180     2712      430     2882    13255    28905 
   36613    38745    43810    31638   -11366   -57296   -77545   -75537 
  -69129   -70770   -79417   -78008   -52936   -16095    14499    35411 
   46884    54354    65063    68300    48753    10257   -29651   -52778 
  -55943   -57348   -64447   -59622   -33434     2533    31716    45579 
   47058    43043    37348    27273     7164   -17212   -30353   -31775 
  -32651   -28870   -15624    -3161     2873      -63   -15785   -33112 
  -36391   -26285   -11211     2464     7243    -2541   -19952   -25875 
  -16760   -13328   -25985   -45266   -57798   -49276   -21610      900 
    5018     4323    13998    27669    28327    13974     2305     7998 
   23371    31012    24126    14040    15962    22604    19561    10801 
    1191    -9551   -12457     -646    11281      781   -23195   -33108 
  -36103   -49296   -55174   -35352    -1707    20369    20665    18135 
   28706    31725     5816   -29839   -46456   -44558   -36774   -26572 
  -16467    -6066    12306    39671    64826    67897    40473     9011 
   -1356    -3947   -13655   -21487   -19127    -8986     2015     4275 
   -2215    -3105    12218    32607    29060    -1393   -18694    -4597 
    7554    -4508   -19033   -19827   -19970   -26215   -29415   -24200 
