Origin Time       2011/03/11 14:46:00
Lat.              38.103
Long.             142.860
Depth. (km)       24
Mag.              9.0
Station Code      SIT003
Station Lat.      36.0721
Station Long.     139.6969
Station Height(m) 8
Record Time       2011/03/11 14:47:23
Sampling Freq(Hz) 100Hz
Duration Time(s)  300
Dir.              N-S
Scale Factor      3920(gal)/6182761
Max. Acc. (gal)   162.803
Last Correction   2011/03/11 14:47:08
Memo.             
[...]
  -42238   -45470   -45518   -43962   -39698   -32228   -23655   -16130 
  -12107   -12006   -13298   -14912   -16355   -16672   -18058   -22655 
  -27194   -27956   -26608   -26380   -28348   -32989   -39428   -44809 
  -47920   -49845   -50356   -49034   -47940   -47193   -44501   -40167 
  -34855   -27941   -18818    -7244     3860    12299    20559    29648 
   37005    40782    41346    40291    40215    41650    40879    36585 
   32529    30075    26045    19096    11051     2705    -5427   -12138 
  -17689   -22001   -23926   -24336   -24987   -25500   -24075   -19820 
  -13338    -4876     4978    13507    19978    27005    34958    40259 
   40053    37858    40226    46798    51213    49311    41796    32868 
   26840    24829    24784    24121    22111    20142    20779    25775 
   34078    44102    56743    70829    81456    88989    98208   106692 
  108632   106639   104969    99525    88099    77732    71933    65561 
   57477    52981    52273    50362    46392    42809    40953    41805 
   44606    45371    42156    38246    36346    36185    37346    37797 
   34862    30623    28975    28706    28671    31742    35923    35879 
   33962    34011    30911    21083    11554     6624     1275    -5794 
  -10262   -13244   -17797   -21770   -24588   -28067   -30538   -32234 
  -37387   -44772   -47035   -41688   -34394   -30035   -29609   -35621 
  -47783   -58218   -63556   -70132   -80773   -91295  -100535  -112338 
 -126741  -137817  -142846  -144667  -146343  -150004  -155187  -157865 
 -156352  -153950  -153129  -152462  -150594  -148232  -145940  -143325 
 -139562  -132191  -117313   -96112   -76835   -64961   -57349   -48092 
  -35504   -23432   -16914   -15019   -11983    -5873     1226     8590 
   17769    30621    45436    57774    68411    81754    96984   110480 
  121949   131831   138392   140876   140966   139175   133920   126120 
  119185   113670   108067   101217    91932    81436    72801    66612 
   61674    57840    55259    51914    45268    37356    32557    31811 
   33909    37183    39135    39345    40933    45213    48466    47745 
   43226    35770    28239    23951    24631    31175    39681    41932 
   35582    26868    22190    22030    22383    20378    16341    11382 
    6831     3985     4240    10132    22762    39792    58011    74784 
   87977    97320   103669   106039   103187    96049    84155    66885 
   49596    39523    36132    30742    17080    -2610   -22055   -35307 
  -41672   -47898   -60300   -75727   -83590   -82382   -81234   -80978 
  -77545   -71249   -63057   -57884   -57686   -56788   -55110   -55791 
  -56516   -56454   -58324   -61284   -62917   -65323   -70120   -73863 
  -75913   -80260   -86510   -90007   -89242   -86687   -83128   -76536 
  -67906   -59634   -50525   -42070   -39914   -43053   -44680   -41966 
  -37297   -35546   -37618   -35947   -25745   -14554    -9588    -7386 
   -2724     4080     8379     7394     5106     6286     9951    13292 
   15814    14392     6220    -2916    -7440    -7042     -393    11476 
   25024    40528    58379    75765    92037   108942   125917   140683 
  150718   155525   158871   163460   166519   162646   149360   130692 
  113446   100335    89145    76154    59058    39264    21069     7544 
   -1706    -8199   -12609   -15765   -15749    -8794     1864     9769 
   14024    15378    13919    11884    12009    12716     9326     1791 
   -4674    -5827    -2553      490     1660     3150     5905     9693 
   13030    13425    11545     8416      174   -15249   -31033   -40788 
  -47394   -55605   -65631   -75535   -83693   -90965  -100098  -110138 
 -116499  -117307  -115134  -114370  -116190  -115913  -109971  -100629 
  -90183   -78095   -64511   -51969   -42111   -31367   -16059      712 
   13987    23236    31699    42364    53820    61468    63111    60136 
   53530    43941    34119    25610    17657     9777      179   -13293 
  -29244   -43854   -55138   -64116   -71535   -76061   -77128   -77372 
  -79431   -80830   -77211   -68846   -57536   -42600   -24561    -6216 
   11459    29701    48611    65580    77345    83984    89364    96341 
  102141   101955    96565    88353    74845    55257    34992    18246 
    3272   -11008   -20491   -21964   -16245    -5609     5921    13806 
   18061    22001    24829    22653    16757    12645    10744     5792 
   -4036   -14245   -21166   -26505   -31883   -35680   -38496   -41621 
  -41849   -35798   -23631    -7330    11017    28485    41259    49354 
   55966    62583    69930    78205    86813    95860   105123   113552 
  119521   120874   117139   110691   105396   103618   102921    99687 
   95377    94127    99317   111410   122190   123021   117872   113260 
  109918   108990   109423   104260    88534    66636    46631    30692 
   16379     2122   -10303   -17500   -20477   -24528   -32988   -44472 
  -55169   -63672   -70915   -75247   -74822   -75639   -83711   -90755 
  -87157   -76852   -64321   -49962   -42345   -48977   -59267   -60316 
  -54355   -42674   -19953     7093    24564    31509    34839    37107 
   39264    40977    39821    36149    31554    27265    25744    27652 
   29297    24995    12679    -2785   -14719   -22339   -27483   -28535 
  -25875   -23423   -20958   -17347   -16728   -19375   -19772   -17879 
  -16333   -14586   -12854   -10913    -5207     5491    15354    19773 
   20433    19035    18774    23890    31421    36972    43449    53694 
   64724    74544    84732    95266   104348   111227   112481   102826 
   85869    72272    67357    69411    73519    75595    76828    80876 
   89499   101015   108428   106781   101297    99719   103334   106393 
  101806    91719    84732    83802    86626    88988    85969    77519 
   66998    55105    42344    30827    22935    20843    22234    22592 
   20440    16340    14395    16599    16115     5994   -13870   -37237 
  -55204   -64692   -67849   -64869   -57027   -50719   -51244   -57053 
  -63050   -67354   -72537   -81429   -93762  -104733  -109889  -109352 
 -102432   -90557   -81528   -78623   -79363   -82567   -83726   -77316 
  -66381   -57296   -51812   -49610   -50394   -53498   -60500   -74088 
  -92418  -111089  -128267  -143158  -154609  -161200  -159959  -150009 
 -136063  -122703  -112071  -106074  -102887   -99136   -95221   -92978 
  -92442   -89687   -79218   -61449   -41487   -19147     8776    37961 
   63046    86978   111291   128849   136391   140771   146157   151110 
  154505   153693   148414   141746   131088   113873    95264    78285 
   61909    47993    37779    30196    25274    23497    26101    34441 
   45097    51546    51313    45302    33428    17508     3212    -7108 
  -15143   -20194   -23266   -29934   -43134   -58833   -68581   -69614 
  -66457   -59185   -48254   -42858   -47601   -54864   -54994   -48193 
  -43700   -45662   -51975   -61828   -70286   -70394   -64710   -59758 
  -55253   -49379   -43358   -36921   -29261   -19507    -4743    16471 
   42220    69621    98572   131053   163384   185489   191175   184340 
  174208   165571   155637   143411   133161   124963   115558   103300 
   84491    58065    29623     3585   -21155   -47661   -72880   -88957 
  -93395   -87739   -74550   -58108   -41299   -26798   -15963    -5770 
    3812     5747    -3923   -17184   -23807   -23781   -20353   -13147 
   -2873     8189    17801    22891    22735    19920    15709     9637 
    1961    -6598   -13710   -14218    -4955     9635    22315    34265 
   51695    73653    95350   114367   128191   135014   134837   127631 
  113113    91326    65312    42172    25040     9749    -4860   -14934 
  -21200   -28365   -34838   -33326   -21617    -4508    13554    32970 
   56491    86647   121598   151971   173558   193490   214541   229205 
  233454   230730   219582   196073   164590   130951    95349    59228 
   28444     2872   -23444   -48653   -66395   -77136   -86114   -94570 
  -98919   -99691  -100297   -98512   -94185   -95571  -103355  -106738 
 -103456  -100901  -102511  -107287  -111116  -109633  -104137  -100137 
 -103291  -112481  -118507  -118841  -121786  -129885  -136627  -139654 
 -140622  -137946  -127836  -106987   -77985   -50867   -32377   -16405 
    8055    37623    57169    61455    56173    46819    38128    32963 
   28471    19663     5785   -10289   -27576   -48318   -74318  -104486 
 -132772  -150111  -155332  -156117  -155896  -153363  -150005  -145406 
 -135624  -120021  -100230   -77556   -54424   -32470   -10235    14261 
   38623    58891    76318    93226   108041   121012   137381   159420 
  179232   186590   181324   170840   161993   156589   148313   130918 
  107087    84537    69247    58301    42286    19266    -2401   -16612 
  -27142   -39892   -53923   -61740   -59486   -53221   -48360   -46245 
  -49455   -57304   -66077   -75768   -88326  -100092  -103964  -101542 
 -101265  -103223   -99754   -88873   -71791   -46398   -18216      155 
    7173    11852    19395    29240    39375    44950    41178    31319 
   21587    12416     3017    -4312    -5289     2776    15746    27072 
   36273    45779    52200    49925    40997    31495    22495    14136 
   12088    18588    28614    40809    56620    72286    83069    90595 
  100294   114398   129006   136986   137279   138073   146686   159525 
  165204   159621   149868   140816   131570   122572   114480   106415 
  101200   103175   110538   119151   128965   140597   149606   149629 
  141149   129227   115993   101556    84660    63176    39755    20898 
    7697    -5359   -22298   -40691   -55717   -68576   -84437  -104272 
 -126319  -151157  -178141  -198123  -202975  -197936  -185865  -155670 
 -103707   -45967      648    34646    64935    93685   113622   124116 
  130391   131451   122823   104427    83422    65157    45052    18364 
  -13990   -48975   -82838  -116285  -150048  -176149  -188673  -190067 
 -184926  -176032  -159531  -133235  -103521   -73466   -44408   -22253 
   -6878     8130    22780    30057    28298    27054    33481    42316 
   48374    53768    60125    66544    72369    76557    76345    71458 
   66497    64105    65520    73165    83553    91225    97473   103937 
  107849   108159   104523    92994    74172    55476    41434    31913 
   26136    24393    27153    34416    45099    54428    56620    50843 
   40686    28023    12566    -1414    -7718    -9225   -14598   -24185 
  -31987   -35636   -34178   -27363   -19291   -13708   -10978   -10983 
  -13887   -20962   -31190   -39799   -46193   -53219   -60908   -68053 
  -73734   -77175   -79998   -85288   -92908  -101069  -108032  -110175 
 -105518   -95621   -82471   -65154   -40345    -9430    18016    33132 
   39008    43014    43713    39978    36739    34773    30204    20004 
    4039   -14166   -29938   -41388   -50225   -57989   -66356   -78775 
  -94526  -107616  -113332  -110671   -97378   -70739   -38053   -10116 
   13731    39639    69429    99262   122091   133657   135097   131942 
  128628   122615   108569    84847    54096    21142    -9754   -37155 
  -61942   -84449  -102667  -111824  -108000   -94038   -75641   -54652 
  -33491   -18113    -9698    -1716     9737    21366    30651    39680 
   51837    69179    89689   108085   122127   134707   148304   160409 
  169260   176825   180866   178248   169422   152974   130157   106947 
   87216    70500    54725    41809    32559    21458     6515   -10356 
  -28243   -44277   -56398   -64690   -67329   -62277   -52840   -43457 
  -29535    -6691    16229    28755    29240    20487     7630    -4959 
  -18218   -35588   -55964   -71514   -75953   -73392   -73523   -81057 
  -93755  -105391  -110102  -108926  -108515  -111651  -113256  -106383 
  -92841   -80855   -72781   -66203   -58894   -50285   -45149   -50384 
  -64538   -76784   -81859   -86368   -96278  -108669  -114893  -108768 
  -95233   -86400   -86336   -86870   -79746   -64798   -44727   -22753 
   -1427    22912    51194    75597    92588   105021   114146   119564 
  119883   115814   111720   106528    96278    85267    77765    71853 
   68450    70300    74280    75667    76672    81431    87006    87620 
   80916    68250    53398    39142    28292    24450    26205    28715 
   27631    18646     1800   -16151   -25929   -22207    -7292    13034 
   33925    51891    65619    74679    77403    73307    63304    47083 
   27624    11974     3145      107     3781    14737    26732    34094 
   40951    49176    52737    52029    52523    51987    48771    49861 
   56136    59204    56443    51527    46845    42925    37394    27938 
   17080     6955    -1876    -6055    -5150    -3231    -2675    -4646 
   -9522   -15737   -20935   -22334   -18903   -12834    -7691    -5101 
   -2625     2489     9342    13964    13377     8822     2539    -4016 
   -9895   -15361   -19607   -20527   -17084   -11227    -4625     6336 
   24727    48724    74657    97864   115803   127963   132702   129904 
  120570   105307    86599    65594    38935     3608   -37151   -76332 
 -111626  -143508  -168317  -182646  -189163  -192739  -190933  -175288 
 -145909  -113044   -83662   -58227   -35487   -11473    14708    33845 
   42558    53243    73780    96698   112882   120004   119798   116656 
  116116   118998   119723   115989   112673   113140   117468   123994 
  127404   125668   122953   119712   113321   105893   100211    94326 
   84853    72468    59250    43247    24412     4850   -20157   -53575 
  -88677  -120355  -149064  -173625  -191983  -206362  -219162  -229875 
 -239264  -246692  -249734  -250170  -249857  -246348  -239102  -231592 
 -225315  -217005  -200926  -172626  -131976   -86865   -52144   -30891 
   -8115    23043    52925    72106    78627    76149    67928    55690 
   41137    24274     8584     -963    -5037    -4272     3009    15265 
   29757    47372    70150    96787   122769   144153   160052   170910 
  176839   177429   172945   165967   158493   149408   138756   130551 
  126909   124305   120345   118783   121917   123971   119447   111211 
  106168   108408   116229   123203   124044   119795   113279   105022 
   96302    86648    74047    60749    49365    37985    24272    10483 
    2020     1088     5843    14367    24045    32182    40179    50677 
   61812    69423    71093    66836    59222    50164    38686    24324 
    9609    -2772   -14176   -27806   -44125   -60725   -74594   -83217 
  -83469   -74579   -60723   -46364   -34603   -27757   -23088   -17969 
  -19340   -34242   -58727   -80673   -90459   -93924  -101253  -108566 
 -109141  -102901   -91886   -79174   -63446   -42166   -19947     1194 
   24121    45173    58942    66257    69912    72214    74549    74940 
   69834    58020    40276    18194    -5163   -28070   -50877   -71832 
  -88632  -100622  -108568  -114476  -117696  -117980  -119546  -124417 
 -129137  -129285  -124410  -116177  -103790   -85549   -60846   -33122 
   -8020    16189    44012    73121    99728   122477   140815   155282 
  167308   177861   183679   179670   164733   141030   114518    91536 
   71133    49229    27377    10042    -3533   -16975   -29533   -38672 
  -45899   -54250   -62937   -69547   -74311   -78729   -82273   -81398 
  -75113   -67817   -59967   -47490   -34086   -27027   -21526    -8896 
    5996    14665    19066    23790    27600    26026    17966     8149 
    1379    -1648    -2757    -4293    -7546   -12304   -17800   -23546 
  -29608   -35903   -42054   -48330   -54774   -60937   -67181   -73909 
  -81249   -89067   -96689  -104289  -111106  -112433  -102830   -81201 
  -50162   -14217    21009    53688    84486   110079   127498   138372 
  145216   149002   150327   151103   151738   148926   139689   123994 
  103359    80363    58029    36763    15134    -4960   -19173   -25864 
  -26090   -22203   -17666   -13749    -7823     1353     8142     6775 
    2569     4421    11590    19167    26218    32410    36043    36474 
   32310    20641     1102   -23430   -47677   -64336   -70060   -68606 
  -63207   -54266   -46187   -44071   -45497   -44948   -41812   -38427 
  -33131   -21686    -6260     5119     9632    11751    13924    14283 
   11730     5953    -3685   -15944   -27179   -34382   -36450   -32358 
  -23225   -13840    -7795    -5363    -6271    -9521   -12546   -14844 
  -17751   -19378   -15503    -4636    10984    28431    45862    63403 
   81869    99102   113016   124967   135921   144682   149383   149458 
  147201   145002   143077   141032   138166   134417   131090   129191 
  128948   128262   124365   118532   113435   109641   105869   101244 
   98633   100979   107779   116852   122989   120604   110427    97086 
   82900    68867    56573    43920    27663    10990    -3412   -18603 
  -34984   -50346   -65250   -79601   -91699  -101760  -109699  -113796 
 -113800  -110212  -102475   -89459   -68756   -39813    -9191    15169 
   32640    47374    61881    73346    76782    73016    65480    54197 
   39669    24220    10170     -824    -9661   -18636   -29145   -42241 
  -56974   -68686   -73869   -74398   -73076   -68584   -59496   -47953 
  -36379   -27597   -23817   -21339   -16615   -12340    -9613    -6034 
    -558     7014    15439    21378    21886    17354    11408     5078 
   -3712   -14665   -26272   -37489   -46207   -52039   -57862   -65000 
  -70370   -71213   -68819   -64272   -56110   -43427   -26694    -7908 
    9683    24910    38789    50936    58879    60931    59204    58067 
   58870    58696    54872    49078    44993    43271    41635    38042 
   32742    27930    25255    24618    25773    29139    34474    41774 
   51314    61204    69823    78076    87678    98925   107730   108071 
   98478    83252    67023    50986    35313    20272     6762    -3503 
   -9195   -10260    -9521    -8085    -4010     1280     6711    15058 
   25739    35049    42923    51557    61709    72559    81239    84467 
   82900    80805    80694    81844    83354    85491    88472    91177 
   92998    94997    95595    91002    80999    67961    54540    43805 
   37230    33386    29809    26802    26950    30748    35665    38694 
   37933    33543    29680    29873    31696    31808    30791    30443 
   28635    21317     9703    -1007    -8214   -13649   -19321   -24093 
  -25664   -23217   -17394   -10016    -3886     1726    11900    26715 
   39922    47330    48548    44601    37165    27920    17988     7372 
   -3859   -14154   -22205   -27366   -29833   -31995   -35927   -41088 
  -45361   -47993   -50427   -52962   -54500   -54037   -51961   -51370 
  -53478   -55495   -55843   -56738   -61091   -67762   -72957   -74998 
  -73858   -70126   -64946   -58265   -49132   -37647   -25330   -14153 
   -5268      417     2716     4142     5756     5231     3459     3673 
    4578     3306     1507     1370      307    -3921    -9017   -11982 
  -11661    -9282    -8059   -10036   -15242   -22782   -30269   -36985 
  -45293   -54892   -63610   -71412   -78543   -85527   -92646   -98389 
 -102107  -103987  -103875  -102727  -101109   -98468   -94816   -90496 
  -85904   -81917   -79421   -77745   -75102   -71418   -68033   -64974 
  -60432   -52144   -39637   -25348   -12344    -1042    10515    23222 
   36406    49094    60361    71340    84344    98664   111238   121038 
  129595   137365   142229   142292   137680   130174   122662   116452 
  109895   101644    94055    92052    96928   103278   105286   103642 
