Origin Time       2011/03/11 14:46:00
Lat.              38.103
Long.             142.860
Depth. (km)       24
Mag.              9.0
Station Code      SIT010
Station Lat.      35.9071
Station Long.     139.6478
Station Height(m) 6
Record Time       2011/03/11 14:47:30
Sampling Freq(Hz) 100Hz
Duration Time(s)  300
Dir.              U-D
Scale Factor      3920(gal)/6182761
Max. Acc. (gal)   60.221
Last Correction   2011/03/11 14:47:15
Memo.             
[...]
   -9655   -10172    -6602     2433     4459    -9792   -31635   -43436 
  -37082   -20812   -11641   -15837   -22172   -22906   -17247        8 
   20442    22742     6369   -12041   -21219   -17098    -6428    -4958 
  -20011   -40838   -49661   -41069   -24961   -13263   -10469   -14604 
  -22101   -25987   -18066    -3229     2698    -6828   -21665   -26323 
  -18195    -9135    -8383   -16592   -28266   -33276   -27368   -17527 
  -13895   -18825   -23711   -22818   -21017   -24364   -36904   -56154 
  -66864   -55727   -29801   -10571    -9952   -19388   -23487   -14861 
    1859    17107    26498    27703    20370    14274    18947    28602 
   27698     9436   -12479   -21052   -19078   -17842   -18602   -17316 
  -15245   -19401   -31934   -43136   -43284   -35952   -30700   -28832 
  -25171   -19321   -17601   -22053   -21671    -7056    12229    22832 
   24329    20562    13908     7208     2480     1691     4139     2021 
   -9099   -18069   -13289     -747     7524     6633    -4009   -21390 
  -37285   -42790   -37464   -32325   -36768   -46494   -51527   -48751 
  -41367   -30975   -17082    -3886     3072     4920     4993     3540 
    1160     1184     4888     5636    -3918   -19509   -30476   -33788 
  -35613   -39707   -40117   -32692   -26295   -31097   -42665   -47957 
  -43439   -37092   -34884   -36057   -37107   -32133   -16313     6147 
   21121    16843      614    -6972     2936    21440    32511    23782 
    1872   -11987    -9683    -2907    -4222   -13853   -23253   -24651 
  -17445   -11889   -17916   -27483   -24559    -8094     6908     7598 
   -1277    -5697    -2441    -1317   -11149   -26777   -33293   -25344 
  -12495    -6340    -9573   -14745   -14863   -11862   -10211   -12149 
  -18354   -26035   -29531   -24918   -18610   -24310   -41301   -52984 
  -48241   -26943      760    15084     7095   -11105   -25709   -30046 
  -20475    -3444     6250     1336   -13261   -25853   -27793   -22709 
  -18246   -16814   -20435   -27923   -30059   -17778     6562    22412 
    9978   -17604   -30052   -21414    -7219     1528     1948    -6806 
  -20341   -28672   -29428   -32098   -40207   -44299   -39134   -31160 
  -27208   -29728   -37106   -41109   -36545   -30278   -29826   -32480 
  -29318   -15694     1389     9147     4392    -3719    -8838   -10258 
   -3392     8962    10318    -4748   -18038   -10661     6594     3273 
  -21920   -39897   -38512   -27096   -15335   -13126   -24230   -38872 
  -43983   -33910   -17914   -15629   -31469   -45406   -41348   -27039 
  -17396   -17092   -21876   -23773   -19980   -17737   -20699   -20983 
  -15410   -14437   -25526   -39480   -41150   -29256   -18260   -18821 
  -26633   -33888   -36245   -30052   -17119    -5658    -1753    -1603 
    7350    27204    38784    27268     5235    -6717    -6501    -2398 
    1484      625    -6730   -11304    -6392    -1799    -9894   -26040 
  -34138   -26092    -9693     1858     5272     3536    -3504   -11733 
  -14396   -13400   -11749    -8616    -8344   -15619   -25576   -30002 
  -25795   -15883    -8034    -8990   -17790   -28488   -35351   -34914 
  -30173   -28034   -30608   -37471   -47560   -51430   -38524   -15348 
   -2100   -10327   -27442   -27882    -4363    22805    31964    21747 
    5015    -4909    -1637     8432    12949    12260    15375    21147 
   20972    11518    -1429    -8335    -8591   -12602   -25367   -38311 
  -44672   -47096   -44874   -36187   -30292   -36251   -47781   -51109 
  -42152   -30283   -26091   -31346   -39787   -42873   -37466   -28139 
  -21708   -20707   -20560   -15661    -7486    -2958    -6769   -13682 
  -11825     -123     8670     6224    -2199    -3975     8799    26438 
   27948     9209    -7159    -2480    12156    15132     2963   -11979 
  -20318   -23210   -22809   -18037   -14179   -18772   -28903   -36367 
  -37084   -32960   -30292   -33070   -39024   -43095   -44126   -46307 
  -46891   -35692   -17525    -9020   -10268    -8652    -3665    -3382 
   -3813     3163     9870     9773    12026    19509    21357    11133 
    -344     2453    13739    15736     5393    -9728   -20146   -16111 
    -456    12355    14833     8200    -4419   -15368   -16244    -6492 
    5659     7154    -7877   -26072   -28491   -15482     -847     6322 
    2352    -6890    -6190     8230    21774    19441     1723   -16142 
  -20625   -14185    -9997   -15488   -24117   -25760   -22319   -23220 
  -29956   -36699   -38911   -36507   -34818   -41233   -58038   -74129 
  -72181   -56316   -48794   -55188   -61593   -55096   -35516   -18450 
  -19637   -35207   -45560   -35825    -9721    13937    18165     5998 
   -4542    -3492     6373    16333    16094     3582   -13732   -25686 
  -25324   -17988   -16763   -24543   -30211   -23989   -12152    -7786 
  -12185   -18429   -22889   -24266   -20701   -14285   -12773   -17808 
  -19494   -10473     4410    13650    12409     9015    11009    15674 
   18038    13972     2768    -9316   -17059   -21109   -23260   -23682 
  -22301   -21092   -21852   -23427   -24596   -24582   -21084   -13660 
   -6224    -1629     1487     2631      486     -951     -306    -2431 
   -9687   -20357   -27627   -22230    -6070     6220     1823   -17090 
  -34292   -35969   -24127   -15300   -24978   -47413   -60654   -55441 
  -42662   -33932   -31553   -31662   -29561   -27581   -33058   -45276 
  -52644   -46610   -34153   -28787   -32182   -37604   -40415   -31299 
   -7622     9454     6462    -3848   -11585   -15496   -15629   -17820 
  -26900   -42134   -54140   -46332   -15917    19351    38920    34715 
   16326     1659    -1250     1419     2303     1124      663     4015 
   11185    15545    10390    -5226   -25433   -38188   -36913   -29955 
  -31101   -44886   -62230   -68312   -57287   -42038   -42511   -59642 
  -75314   -77134   -64772   -44864   -31646   -33699   -40852   -37426 
  -22016    -7313    -1656     -250     1631      435    -6675   -12779 
   -7420     6379    13135     6029    -7335   -17964   -21998   -17441 
   -5700     2861    -1227   -10728   -12279    -5319     4240    13518 
   18722    17463    13599    11536    11072     9876     8210     8381 
    6846    -3131   -16714   -21567   -14286    -2084     2886    -5891 
  -21883   -37110   -49702   -57738   -59485   -57636   -59826   -71297 
  -81746   -74933   -54054   -36449   -32864   -44936   -64852   -77413 
  -72812   -54871   -39112   -36672   -39909   -35792   -22224    -4582 
    8688     7820    -7878   -22444   -19422    -2787    13153    19867 
   10800   -12964   -34251   -35290   -16527     -105    -8605   -32474 
  -42628   -30984    -8280    12538    14672    -4960   -23476   -21878 
   -4279    15992    27012    25170    19244    17973    20862    23036 
   18658     5436    -9027   -12063     1649    21779    28100    11344 
  -15481   -31925   -31018   -23338   -23570   -33859   -42114   -36857 
  -20972    -9882   -15916   -37417   -60769   -67960   -53397   -34341 
  -31031   -42884   -52566   -47479   -32213   -19868   -15900   -15084 
  -14242   -18758   -29495   -36800   -37190   -39531   -47569   -54470 
  -54487   -45639   -28521    -9504    -1018   -11490   -28030   -26611 
   -6920     8174     5903    -3796    -6593    -3978    -5503    -8387 
   -2277    12237    22167    17077     2389    -6358    -2266     8089 
   13270     4739   -12097   -20832   -19921   -23565   -33906   -40756 
  -40875   -37971   -35765   -36961   -39043   -35349   -27776   -26169 
  -32753   -41896   -48165   -48781   -47395   -48670   -50293   -48876 
  -43147   -32560   -20751   -11082    -1335     8536    13186     9190 
     382    -3854     -988       38    -5367   -13964   -26402   -38696 
  -33087    -4921    17245     5857   -28322   -49474   -34996    -1163 
   12476    -6603   -29321   -28341    -9746     4210     1634   -13438 
  -25204   -20197    -6038    -1132    -7555   -13337   -13792   -12477 
   -8162     1110     5400    -4691   -17799   -15898     1304    19974 
   28281    26526    23169    21340    19683    17328    10498     1201 
    -569     2728    -1928   -15141   -26593   -27698   -16600    -1370 
    7074     2357   -16885   -41989   -57193   -52938   -34356   -19825 
  -22905   -36137   -42008   -32953   -19044   -16008   -22422   -25661 
  -24451   -20410   -10066    -1768    -9657   -26504   -28689    -9671 
   11009    11073   -15000   -46104   -47986   -18164     6401     -846 
  -23310   -24258     3354    26976    21272    -6197   -35180   -48702 
  -39325   -14615     6772     5729   -20439   -49034   -52079   -26197 
    3035     9199    -5098   -17103   -16483   -12386   -14846   -22578 
  -25702   -16401     1233    14526    14838     2508   -11866    -7756 
   22874    54132    52926    18709   -18983   -29009    -8921     9628 
    2630   -19005   -37383   -48758   -53160   -50310   -44108   -39246 
  -38961   -45799   -54749   -54659   -41547   -19798      680     8719 
    6898     4608    -1228   -11956   -19801   -28366   -42748   -50381 
  -39810   -18095    -3698    -8502   -22665   -28083   -21936   -12945 
   -8185    -9125   -12098   -14585   -13130     2131    25258    28017 
    4352   -17346   -15718     6602    33953    48111    38776     5788 
  -34056   -49903   -37407   -26100   -29322   -34101   -34655   -37177 
  -44156   -46852   -36382   -24747   -25195   -23829   -10191     5041 
   17309    25076    20098     4174    -8992    -5085    15329    30684 
   29913    28435    36760    44881    38965    19086     2038     -689 
     -45   -11387   -32517   -47832   -46334   -31637   -16564   -13503 
  -26813   -43025   -39793   -17908     -283     3145     2562    11254 
   26875    24585    -8506   -46836   -60070   -46616   -26930   -25492 
  -46168   -58247   -35631     2943    25526    23519     2206   -19159 
  -15772     5836    16842     6904    -9272    -7742    15535    31033 
   19444     1013    -4155     -352     4024     4155     -365    -4479 
   -7669   -10434    -9834    -7632    -6417    -8669   -20448   -34505 
  -28973    -3584     8339   -14775   -49125   -59756   -45113   -28379 
  -22271   -17669    -2486    18493    25174     3051   -38491   -73810 
  -83025   -65839   -40960   -24650   -12697     3992    21088    27772 
   20373     5209   -10173   -21418   -23397   -13352     5080    20641 
   17250    -4531   -20757   -15649     1611    12704     4609   -22392 
  -51620   -61632   -44682   -14826     1457   -11960   -44728   -69964 
  -68224   -41746   -13450    -7928   -26888   -48651   -48211   -20129 
    8909     6543   -21303   -36982   -21986     1830     6579    -7849 
  -25711   -36344   -32241   -13287     5346    10672     4578    -5715 
  -10180    -1475    13227    20873    16064     3882      230    17720 
   42323    45178    21748    -6353   -14846     6576    32128    24770 
   -8053   -33756   -40085   -35589   -38464   -51637   -52141   -34427 
  -24787   -33721   -39739   -26562    -6121     -154   -15187   -38532 
  -48315   -28888    13874    48341    44290    13080    -4252    13671 
   50499    70556    51033     3351   -36149   -42578   -28955   -21204 
  -28291   -49267   -73169   -78692   -62533   -47936   -50800   -61607 
  -66757   -64157   -53741   -32737    -5530    15036    18868     7780 
   -8872   -25815   -39368   -40768   -28489   -18331   -19773   -16763 
    1579    20201    23722     7302   -22539   -40779   -36113   -27342 
  -21038    -9203     1498     8483    20208    29160    20049    -7128 
  -41153   -62827   -52598   -22197    -9489   -26878   -51747   -60628 
  -48016   -28295   -24259   -43768   -68061   -67763   -37044    -3010 
    7279    -6071   -24085   -27717   -11145    11899    23474    25481 
   29278    30841    25216    23463    28679    28782    20750    10782 
    6663    17333    35626    40384    26064     3549   -18370   -32200 
  -35095   -39011   -50289   -56815   -55061   -51725   -45411   -36922 
  -27574   -13679     1486    17675    35672    39548    20307     -505 
    5017    33174    47481    21958   -23732   -47524   -38522   -25235 
  -31479   -45385   -38444   -10461     3414   -14625   -38011   -38478 
  -17014     5366     2584   -29250   -61556   -68748   -49174   -15958 
    1147   -23303   -72542  -107117  -106930   -79486   -52723   -47587 
  -48192   -26492    12641    40053    37868    11329   -15547   -24179 
  -20962   -16115   -16134   -30797   -48619   -45056   -26005   -17319 
  -28562   -49640   -60639   -47666   -16371    18012    36685    21151 
  -17739   -39079   -19828    19586    37280    13726   -22331   -27968 
    1650    34130    35270     -141   -40885   -50975   -24160    14229 
   28563    11191    -8848   -17085   -30715   -51115   -58920   -50488 
  -33692   -12999     1978     1532   -10167   -21236   -27393   -32662 
  -34103   -19665    11189    39197    46032    34052    19350    11993 
    7442    -6172   -31166   -52541   -53269   -32496    -7342     2354 
   -5558   -18113   -23109   -15894    -2357    13644    33360    42919 
   32562    22058    28216    40899    38623     8997   -33048   -56942 
  -55095   -48634   -55692   -73396   -87430   -86436   -73507   -63368 
  -61215   -59059   -53155   -46716   -42003   -37064   -25248    -5555 
   10516    16205    18857    20796    13395    -1619    -7448     3852 
   18105    17097     -989   -23944   -39368   -47088   -55650   -61929 
  -57030   -52244   -59956   -64682   -50907   -28460   -10835     1120 
    7944     1963   -20522   -43737   -45089   -22267     1042    -3492 
  -41840   -89654  -109271   -83665   -39586   -20667   -37849   -65315 
  -73289   -51633   -21526   -21840   -60279   -95377   -86940   -43750 
  -10783   -20813   -60353   -85459   -72417   -37226    -5382    13821 
   22906    23487    17465    16330    27822    42911    50828    42208 
   10177   -29331   -48170   -37833   -13774    -4651   -27754   -58121 
  -55319   -23645    -2024   -12454   -45384   -65916   -46461    -5844 
   20272    19017    -9391   -47280   -58918   -32211     7219    28846 
   22469     2457    -6995     1972    14271     7810   -23866   -56611 
  -55854   -17967    26330    51508    56551    47889    33492    26641 
   34266    50045    60489    54217    35001    19341    14350    13033 
    6855    -8208   -24568   -25767   -12092    -6334   -17757   -23527 
   -1536    36586    57209    43073     6924   -27241   -36854   -14494 
   14553    17994    -3933   -29273   -40202   -29392    -7960     3133 
    -239    -9982   -20801   -23006   -14186   -13495   -31553   -48505 
  -40506    -9882    11508    -2813   -29707   -31961   -21532   -26448 
  -42747   -53372   -48439   -29635   -12937   -14342   -29383   -39234 
  -34705   -13609    24270    58099    60164    32241      621    -7356 
   14369    40749    46282    28229      413   -11060     5725    24677 
   19497    -4891   -35241   -58017   -55374   -27088     5152    20579 
   13430    -4044   -11273    -2484     7221     5598    -2204    -4152 
    8873    31941    44202    35339    16067    -2519   -13422    -7265 
   12240    24936    21419     8259    -8645   -25888   -41479   -54176 
  -59799   -59345   -61590   -64643   -54065   -27829    -5675   -10002 
  -38591   -59438   -48540   -21604    -5376     -877     7147    25028 
   42684    49520    46525    37221    28409    29100    32513    25253 
    9563    -3900    -7749     -550     5185   -11000   -46699   -67965 
  -53340   -25159   -16847   -31670   -44154   -38167   -30053   -33208 
  -33349   -20308    -1019    17259    25645    19721    13454    17645 
   25139    32612    40731    40427    28193    13602     4626     5749 
   17614    26532    16262    -7883   -26367   -27967   -15851    -3617 
   -3270   -12447   -19666   -19434   -16158   -14542   -14435   -15169 
  -17959   -27482   -45653   -58043   -45267   -11019    22134    37433 
   30059     7519   -12803   -19269   -14573   -12066   -21051   -31833 
  -30313   -17210     -784     7558     -366    -8949     1480    21647 
   35996    41314    34180    16693    -3121   -24190   -44415   -54675 
  -50332   -34586   -16411    -8109   -11149   -14726   -14049   -10384 
   -1986     9251    15786    10647    -9474   -38691   -61701   -66181 
  -53504   -35721   -22486   -13239    -1818    15090    29833    27652 
    7934   -12010   -17768    -6680    13324    24759    16997      690 
   -6041    -2496    -6484   -23818   -35808   -28951    -9589     8440 
   10709    -4058   -16524   -15541   -12923   -15501   -18852   -22291 
  -24350   -26954   -36845   -46452   -41828   -26426   -15107   -14303 
  -18936   -27360   -43559   -59745   -60239   -39736    -6106    20593 
   21935     5768    -2153     8882    26810    32417    14032   -16313 
  -27858    -7494    25952    42256    22813   -21511   -58687   -69992 
  -62858   -52472   -41720   -30869   -34414   -47808   -42675   -23212 
  -10450    -3301       30    -2162   -11117   -24072   -26148   -19318 
  -22506   -35457   -47545   -55161   -57749   -59746   -65157   -69464 
  -65019   -50541   -34243   -24709   -25169   -35454   -46878   -46118 
  -32531   -16720    -3994     5004     6194    -3774   -22509   -40508 
  -43260   -24952     1597    17588    15138      -53   -11912    -8986 
    -596     2496     2665    -4272   -21539   -36608   -42480   -39672 
  -24360    -4484     1390    -7084   -12717    -7478     1989     7682 
    4668    -7953   -21954   -28168   -24814   -13073     -599     1044 
   -9894   -24651   -32992   -33500   -32400   -28072    -9781    13065 
    8825   -16213   -25021   -19667   -11736     -925    -5850   -20983 
  -22979   -21151   -20763   -16324   -19095   -30788   -37996   -37079 
  -32005   -25749   -20251   -12345      312     4470   -13258   -38010 
  -46021   -36087   -20592   -10158    -8965   -13795   -20103   -20864 
   -6086    22281    43417    36133     5474   -18531   -17471    -2947 
    7779     8323    -1622   -14844   -23292   -30344   -38495   -41130 
  -39542   -44488   -56357   -61269   -50410   -35343   -34794   -46839 
  -48845   -27680     8235    42608    57577    44599    17995     -315 
     153    15321    31111    35658    25918    11743    10238    22659 
   34506    36556    30344    25202    29783    39532    40239    23490 
   -4419   -27280   -32407   -22355   -14603   -26996   -59762   -87624 
  -87239   -71516   -66013   -75016   -90038  -100139   -96889   -83063 
  -68489   -60512   -58882   -54335   -38650   -19841   -13942   -20607 
  -25638   -21690    -9598     7259    20465    23200    18624    11284 
    1264    -7841   -10587   -11842   -21513   -36543   -43383   -35124 
  -18428    -9569   -19223   -34490   -30601    -5801    17115    21190 
    6826   -15575   -32549   -34860   -22920    -4284    12778    21169 
   19034    12621     6613     1654     1791     9128    18662    26636 
   33797    37760    34083    26921    21547    14450     7495     9350 
   21146    35803    40021    27028     8124    -7110   -18777   -22295 
  -16975   -14357   -18877   -19435    -9826     1060     5223     3441 
   -2256   -10165   -16375   -18720   -21810   -29383   -35704   -35015 
  -32697   -39315   -53126   -58035   -49102   -39957   -38403   -42353 
  -51202   -58881   -56159   -47723   -43713   -40892   -32135   -21694 
  -17303   -16918   -13511    -7014    -1233     5724    17945    30235 
   32198    26682    25592    28460    29279    33616    45277    53435 
