Origin Time       2011/03/11 14:46:00
Lat.              38.103
Long.             142.860
Depth. (km)       24
Mag.              9.0
Station Code      SIT001
Station Lat.      36.2431
Station Long.     139.1938
Station Height(m) 48
Record Time       2011/03/11 14:47:31
Sampling Freq(Hz) 100Hz
Duration Time(s)  300
Dir.              E-W
Scale Factor      3920(gal)/6182761
Max. Acc. (gal)   86.866
Last Correction   2011/03/11 14:47:16
Memo.             
[...]
  -33242   -26937   -19900    -9987      510     7945    11564    13486 
   15835    17609    16517    12903    10114     8923     4728    -3236 
   -9648   -14401   -20203   -22171   -17406   -13270   -13508   -13182 
   -9365    -3063     4308    10751    14015    14456    15638    19078 
   21360    19492    16367    15462    13100     6181     -848    -5870 
  -11485   -16513   -18932   -21293   -25341   -28843   -30112   -30298 
  -29888   -26374   -19428   -14225   -13824   -13679    -9014    -2798 
   -1247    -5245   -10452   -13118   -13856   -14817   -15215   -13247 
   -8877    -5099    -5288    -5315     -289     3787     2239     2402 
    9050    14157    11313     7318     8519    10805    10551     9357 
    8947    10239    11481    10461    10799    15004    18307    17404 
   13493     7923     1357    -6069   -12894   -18012   -23922   -31487 
  -36694   -36629   -34111   -33060   -31358   -25820   -20209   -19158 
  -21082   -22349   -21565   -19269   -17671   -18164   -18824   -18075 
  -18630   -23335   -29456   -33039   -35652   -40648   -46473   -48379 
  -45636   -41253   -36120   -30539   -25363   -20567   -17461   -14601 
   -6957     4465    14548    22579    29675    34638    36291    37014 
   40487    44636    43752    38742    33342    25564    16868    13650 
   12542     6985     2449     4850     8956    10737    14472    22006 
   28647    31307    31631    31871    31302    27036    21303    20219 
   20801    14527     3286    -2810     -637     2031      188     -627 
    1203    -1137    -5815    -4510      160      -97    -5175    -9287 
  -10362   -10959   -12375   -12668    -9915    -4228     1573     5292 
   10259    18549    24716    25866    25638    25605    25685    26019 
   23456    17362    12875    11096     7250       57    -5989    -9038 
  -13528   -20225   -23385   -22938   -23854   -24556   -21859   -19360 
  -20425   -23130   -24773   -24406   -22280   -19086   -16713   -17977 
  -22847   -29481   -37447   -44485   -46825   -46200   -47172   -48302 
  -47439   -47942   -49392   -46400   -39463   -32381   -25316   -18687 
  -13260    -7639    -2760     -827     -843    -1724    -3787    -7261 
  -12860   -19172   -21529   -18744   -16161   -16575   -14513    -8013 
   -4197    -3430     1699     8901    11162    11110    13005    13431 
    8846      982    -7739   -14476   -15625   -14281   -16832   -19401 
  -12902      812    11428    16216    21402    28047    30767    28558 
   24938    22763    21055    14237     1475    -9455   -14797   -18362 
  -21908   -24111   -22478   -12337     4182    15914    20920    29094 
   41456    48999    50583    51560    51558    47288    38141    26604 
   18431    16116    14066     8351     3922     4412     5439     2980 
   -1754    -4435    -2240     1198     2199     2645     2818     1657 
    2470     7763    14844    20167    22145    20971    19841    21713 
   24265    23772    19907    14828    10617     5807    -3327   -15886 
  -25000   -26633   -25162   -25223   -25342   -23039   -19007   -15178 
  -10751    -3135     5955    11769    12517     9469     7181    10147 
   13799    11331     5476     1020    -1977    -5525   -11370   -16418 
  -16396   -14742   -16512   -19976   -21741   -20903   -18045   -15598 
  -12424    -4411     3524     4376     4025    10397    19314    22283 
   19542    17873    18990    19381    18736    20823    26854    31616 
   31127    28026    24416    19646    13254     4960    -4257   -13866 
  -24501   -34134   -40348   -44581   -47082   -44956   -39562   -35029 
  -30872   -23408   -10937     3296    14932    22224    22456    15429 
    7180     -120   -10162   -21407   -30177   -39784   -51436   -58655 
  -59422   -58874   -58502   -53778   -43128   -33093   -29432   -27615 
  -21158   -12077    -5530    -2701     -296     4427     6333       10 
   -8097    -9798    -8116    -9852   -16104   -24697   -33727   -41107 
  -46406   -51062   -54020   -53303   -50703   -49644   -50284   -49467 
  -46362   -43044   -38308   -29771   -18851    -8522    -2331    -1346 
    -828     1476     1863      572     2165     6528    10225    12628 
   15158    19011    23045    23255    20310    20401    23287    22691 
   18660    17904    22492    25787    22716    17127    14190    12195 
    6976    -1081    -8332   -11946   -14368   -20912   -27674   -25678 
  -16929    -9139    -3080     3776    11495    19712    28987    38703 
   46191    50233    52922    53411    48015    41133    40629    43501 
   42569    38751    35625    32271    27666    24635    25569    29486 
   34981    39774    38793    31252    23948    20017    15340     9351 
    5951     4743     1891    -3820   -10786   -16677   -19946   -20736 
  -20110   -19679   -18466   -12339    -3569      755     1638     4136 
    7269     6426       -7    -7156    -9302    -9610   -14353   -19393 
  -17949   -14819   -15889   -17051   -13627    -8520    -9221   -17439 
  -26646   -35119   -46113   -57105   -63875   -67202   -69503   -70177 
  -68446   -66865   -65243   -58701   -46778   -35038   -26250   -18368 
   -9960    -1514     6266    12063    12860     6904    -3047   -14197 
  -27264   -40678   -47657   -46341   -43243   -40903   -38290   -37568 
  -35798   -27252   -15221    -3401    11397    26070    32813    36075 
   44260    54636    63030    71079    77144    75937    68571    60855 
   53523    44250    33741    22974    11859     2539    -2936    -5570 
   -6020    -4846    -5329    -8656   -10452    -7038     -591     4980 
    8793    11116     9450      659   -11083   -17874   -21409   -28644 
  -38634   -46442   -51880   -57498   -64161   -69974   -72658   -73539 
  -75167   -78293   -83858   -88925   -86035   -75301   -65365   -59605 
  -53914   -46392   -38048   -28780   -19210    -8901     3863    14861 
   18020    16429    16415    16076    11613     6376     3490      275 
   -5092   -11656   -17821   -21155   -23594   -29851   -37130   -40884 
  -43491   -47137   -50397   -51527   -48677   -42327   -36165   -32660 
  -31537   -31381   -31306   -31943   -33393   -34916   -37786   -43366 
  -49926   -55578   -59807   -61321   -59946   -58261   -56965   -52924 
  -45357   -37341   -28879   -16932    -2507     8686    14128    19378 
   27563    32480    32169    32434    35021    37939    38809    33943 
   23861    14157     6672    -1506    -9567   -13538   -14960   -19824 
  -29206   -37252   -41084   -44493   -46085   -38876   -24751   -11347 
     312    11892    22190    29930    34128    34213    31924    29703 
   28058    25546    20491    14236    11800    14886    18852    21159 
   24753    30612    34687    35507    38141    43978    45939    42073 
   39443    39974    37797    28932    14762    -1409   -18295   -35322 
  -50169   -60519   -66028   -67510   -66176   -65405   -66131   -62775 
  -54801   -47987   -38934   -20833      774    16382    25512    32889 
   41132    50260    59244    66299    70270    70864    66799    58187 
   49350    43951    39692    31426    17566     1592   -12948   -26693 
  -40823   -53518   -62738   -68312   -72361   -77072   -79979   -76716 
  -67441   -56208   -45565   -33604   -17972     -543    13957    22534 
   27161    30720    30998    25731    19802    18157    16666     8989 
   -3925   -16675   -26346   -33916   -38927   -38613   -35932   -37809 
  -43710   -48276   -50856   -51036   -45928   -37632   -30063   -21787 
  -12003    -4146     3282    16323    32334    43937    51448    56473 
   56430    53063    51698    49634    39507    22707     6078    -7167 
  -16573   -23109   -26238   -23190   -17517   -16173   -15717    -8499 
    2960    12610    19618    23802    26208    29604    31838    30894 
   30620    32437    33063    29892    22818    15828    13825    16409 
   20655    26843    35086    39955    35516    23165     9123    -3649 
  -16155   -27237   -35003   -42174   -50370   -55823   -57133   -57143 
  -54351   -43788   -26836    -7902    13061    33280    45187    48081 
   47621    43831    31413    10215   -12504   -29751   -42287   -56012 
  -70723   -80383   -84586   -88681   -95427  -100325   -94884   -79087 
  -63295   -52301   -41260   -29703   -22911   -19604   -14167    -7170 
   -2272      676     3772     5993     4925     3942     8714    18385 
   28680    37321    44772    52704    58245    57530    56047    60230 
   63773    58185    48515    43377    39831    33855    31725    37291 
   44416    48795    53023    59891    67851    72152    71629    70527 
   68701    61200    49669    39722    30854    19562     5822    -8759 
  -23606   -36542   -43878   -46238   -47877   -50141   -53491   -62536 
  -78142   -90563   -95114  -101185  -109149  -104525   -86166   -68363 
  -56885   -45965   -29421    -7849     9719    19504    31463    45505 
   45724    32908    21106     9723    -6898   -27167   -47852   -65422 
  -78808   -88760   -95242  -102105  -111571  -117418  -116092  -111319 
 -102310   -84649   -61229   -37583   -16920    -2586     7826    18414 
   24528    23354    20540    18684    13558     1847   -11830   -20540 
  -25759   -31008   -33513   -30536   -23073   -13708    -4651     6830 
   24871    43274    51249    50074    48236    48829    50849    51181 
   47469    41729    34184    22238     7896    -2654    -4478     2052 
   11056    16676    18330    19199    18888    15301    12648    13191 
   11424     6107     1293    -3670   -11391   -17205   -12693      694 
   11882    15034    13063     8594      805    -9944   -19487   -24472 
  -26647   -30077   -38861   -52959   -63747   -66282   -67506   -70306 
  -67709   -58425   -50085   -44127   -31415    -9816     9229    19516 
   25054    27429    25984    22100    17756    14742    12947     9759 
    2751    -7239   -17653   -27812   -34879   -32987   -23445   -14167 
   -8249    -3291     4632    17996    32921    42100    42302    37116 
   30992    21541     9878     7628    18744    31905    37923    41656 
   50251    59663    65004    70114    76625    79333    75405    66255 
   52221    32933    10679   -10097   -26980   -41961   -58080   -75047 
  -88816   -95111   -94206   -90765   -86096   -76803   -63992   -52595 
  -44989   -41328   -38286   -34191   -33757   -34527   -26521   -12597 
   -3572     1999    10605    20311    28129    36374    48179    61689 
   68900    68222    66763    62251    49768    34936    18366    -2485 
  -22138   -40346   -59782   -76727   -91093  -104720  -114614  -116237 
 -105242   -83492   -59144   -34324    -4717    28952    58910    78216 
   86750    91382    97684   101450    96693    85011    69664    52379 
   35141    15992    -8633   -33693   -49983   -59507   -70458   -80475 
  -81667   -74346   -64730   -56116   -46996   -34972   -21326   -10779 
   -4260     4172    18301    33996    45072    48265    45137    40112 
   32935    20919     6469    -6269   -16795   -28913   -44793   -55264 
  -48824   -32803   -24476   -23542   -19042   -14760   -21080   -32898 
  -38350   -38750   -42274   -48079   -51043   -52925   -57512   -64093 
  -72646   -83963   -94438  -101572  -107362  -110371  -104938   -90059 
  -70436   -49904   -30560   -15033    -3167     9703    25445    38681 
   42983    36744    23471     7358   -11660   -32799   -50733   -64799 
  -79095   -91095   -95011   -93035   -91333   -90036   -85343   -77363 
  -68866   -60079   -50603   -41923   -34857   -28950   -25420   -26348 
  -29966   -31070   -29379   -31463   -38292   -43028   -45187   -49075 
  -52465   -52365   -50797   -47820   -40434   -28079   -11678     7996 
   28976    49639    69122    86038    98713   105218   107286   110681 
  115066   116483   117603   119990   119825   117134   114713   111392 
  105128    96738    84960    67903    50482    37856    27404    14209 
   -1224   -13880   -23487   -35937   -51894   -63947   -67220   -64626 
  -62459   -63736   -64769   -63856   -66782   -73853   -77576   -76494 
  -75313   -76812   -81615   -87956   -89961   -85067   -78480   -70944 
  -57377   -40598   -27344   -18207   -10297    -1250     6289     6187 
   -1624   -13294   -27311   -39676   -45010   -44844   -43129   -38907 
  -31787   -25235   -19678   -10686     2649    13092    14497    11699 
   12837    14938     9434    -1255    -9402   -16955   -28714   -41860 
  -51791   -56814   -53414   -40023   -23203    -7032    11162    29332 
   42217    51409    63538    79990    93427   100304   106981   114115 
  113827   107251   102921    99636    88434    68877    50109    35671 
   22701    13430     8731     1873    -9554   -22097   -33734   -43194 
  -50706   -55502   -53462   -45611   -36308   -23519    -3962    20173 
   43629    62771    77012    84576    84375    80219    73493    60543 
   41275    18903    -6177   -32653   -54414   -66527   -71337   -74229 
  -73690   -65433   -53223   -42266   -32294   -23468   -16294    -8193 
     540     4781     4044     4197     7800    10255     6902      238 
   -6441   -15132   -23919   -26671   -21701    -9940     3376     9624 
    9661    11687    16643    19538    21461    26803    31766    31183 
   28836    28119    25865    20962    17501    18836    22848    24123 
   22095    21357    21674    20197    21681    28926    33771    33570 
   36089    41183    43064    45031    50404    53018    48117    38908 
   28863    16367    -1053   -21730   -40491   -53121   -61370   -69280 
  -74801   -74141   -66194   -50003   -30244   -14944    -4263     4846 
    9464     5463    -4400   -15422   -29633   -49381   -70514   -88587 
 -102678  -113712  -123555  -132573  -139110  -142100  -141611  -137119 
 -126670  -110559   -92749   -75766   -59776   -43793   -26088    -7475 
   10604    29016    48143    67257    83851    93452    96389    98337 
   99648    96223    91442    90292    88024    81239    75684    75702 
   80493    86555    89655    89726    88732    87098    85077    80757 
   72465    63851    57448    49276    37665    28201    24518    24197 
   23862    21384    18295    18858    21301    19408    14836    15337 
   21693    28619    34003    36195    32654    26164    19079     7392 
  -10537   -28528   -40120   -48515   -60569   -71709   -71676   -61180 
  -48975   -37496   -22553    -3771    13698    22915    18432     4618 
   -7303   -15508   -25477   -37273   -47876   -55787   -60929   -64128 
  -61556   -47343   -26194    -8732     1619     6207     7542     8436 
    7977     5861     5342     6562     5881      945    -5064    -4721 
    2630     9082    11172    11572    10209     6354     2779      -19 
   -5149   -11531   -15201   -18172   -23188   -25748   -23833   -24268 
  -31038   -37681   -36179   -28379   -23682   -25503   -27670   -27586 
  -30460   -37001   -41541   -41613   -39749   -39263   -41438   -45861 
  -51020   -54110   -53700   -50900   -47494   -43292   -35303   -24421 
  -15967    -8936     1534    13494    23312    30617    32664    29176 
   27214    29576    31644    32459    35178    39976    46034    52990 
   58945    64631    69377    66304    55115    43086    31700    18311 
    4068    -7179   -16053   -25642   -32021   -30351   -23043   -12255 
    3275    20321    31126    32874    27912    17704     4254    -8967 
  -21021   -34334   -48240   -56278   -56468   -55245   -56735   -56937 
  -50977   -40652   -29169   -15688    -1515     8830    15838    23500 
   29940    31254    28908    23919    15671     6599    -1285    -7793 
  -12483   -15252   -17552   -22476   -29929   -35190   -36108   -35604 
  -36074   -35541   -32671   -32102   -37231   -43933   -48631   -54054 
  -61624   -66610   -66372   -65563   -67627   -68404   -63238   -54407 
  -46849   -40588   -32318   -23366   -20222   -25346   -32194   -33300 
  -30574   -30412   -32866   -33465   -29194   -21262   -15065   -12215 
   -7484      233     4636     3182     -171    -2907    -4972    -6650 
   -9575   -13123   -13315   -10804   -11969   -18773   -25858   -30304 
  -35570   -43452   -50867   -54982   -55910   -55199   -53954   -53678 
  -55399   -55281   -50155   -45365   -44320   -40480   -29486   -15262 
   -1574    11381    23536    34912    45940    54497    58672    60530 
   62029    63394    63295    58831    51391    45682    40600    30659 
   16545     6160     1942    -3861   -15149   -24551   -26029   -23859 
  -24154   -25243   -20896    -9264     5095    17075    27074    39052 
   52340    62362    69684    78056    86003    89515    87591    80388 
   69582    59702    50656    36520    16879    -3826   -25415   -48241 
  -68578   -83098   -91812   -95515   -93737   -88446   -83664   -78209 
  -67743   -52099   -35132   -21468   -13238    -8670    -6514    -8443 
  -12645   -13962   -13846   -18118   -28162   -41231   -52528   -58912 
  -62011   -64256   -64687   -60700   -54246   -49842   -45194   -34953 
  -21495   -11848    -6415      -59     6564     7761     3644     -255 
   -2381    -5506   -11490   -20743   -30670   -37156   -40849   -44620 
  -46859   -44527   -40283   -38109   -35168   -27884   -17597    -5784 
    5344    11908    13505    12016     7725      847    -7256   -15176 
  -22208   -28232   -33663   -39032   -43988   -47072   -46911   -44962 
  -43231   -39592   -33699   -29988   -28056   -24210   -20291   -18241 
  -16580   -16058   -19487   -26492   -31294   -30652   -29421   -28025 
  -18415    -1231    12004    17051    19986    23762    26336    27655 
   27138    22795    17801    16854    17463    13994     8676     8246 
    9810     6515      841    -2871    -5655    -9589   -14307   -17328 
  -18447   -18856   -19064   -21978   -27642   -30970   -30359   -27593 
  -23779   -20001   -16232   -13217   -14395   -19837   -24396   -26373 
  -29458   -34741   -40381   -45856   -50787   -55116   -59585   -63412 
  -64740   -63489   -61621   -59460   -53638   -41261   -23626    -4162 
   14581    31556    46371    59195    70824    80457    86919    91353 
   93830    92769    88800    85095    85453    90072    95268    99768 
  103332   103518   101995   102787   102787    97607    90786    85545 
   77389    63456    48353    35490    21956     4959   -12210   -25542 
  -37127   -48566   -55933   -57167   -54330   -49116   -42421   -35206 
  -27384   -17519    -5868     4236    11540    18648    25179    27002 
   23750    19565    18064    18560    16775    12012     7596     4425 
    1711    -1133    -3499    -3087    -1232    -1856    -4408    -5246 
   -2464     2702     8340    15610    25677    35102    40592    45260 
   53732    63047    67078    66659    65823    64140    57994    46254 
   33655    24939    19235    16472    19606    26351    30802    32744 
   36111    41987    47999    52547    56642    60557    61767    58501 
   53046    48580    44536    38390    29457    18802     7293    -5392 
  -19032   -32329   -44735   -56018   -66544   -76644   -84267   -87693 
  -87897   -86247   -82524   -75786   -67119   -59589   -55184   -53925 
  -55866   -60799   -66221   -70314   -74428   -79917   -84640   -83223 
  -74437   -64769   -58016   -50612   -41652   -34717   -28834   -19870 
   -7951     3898    13498    20090    24999    30495    35353    37040 
   39189    45049    50169    51516    50200    46355    40884    35224 
   29172    22141    14670     9605     9411    11892    14929    21209 
   31388    41039    47148    51454    57928    66812    73924    77594 
   78699    75969    69252    62073    55139    45471    34684    26262 
