Origin Time       2011/03/11 14:46:00
Lat.              38.103
Long.             142.860
Depth. (km)       24
Mag.              9.0
Station Code      SIT006
Station Lat.      35.9959
Station Long.     139.0713
Station Height(m) 211
Record Time       2011/03/11 14:47:32
Sampling Freq(Hz) 100Hz
Duration Time(s)  300
Dir.              E-W
Scale Factor      3920(gal)/6182761
Max. Acc. (gal)   175.426
Last Correction   2011/03/11 14:47:17
Memo.             
[...]
   14831    21893    25898    25755    20593    14730     9100     1286 
   -6245   -14106   -26797   -38929   -40836   -32682   -20464    -7655 
    4161    12416    14737    13122    12929    15921    19045    19399 
   14768     3246   -11817   -24275   -33413   -39703   -38699   -29235 
  -20900   -21449   -24724   -24574   -22901   -19660   -16254   -16680 
  -17663   -14419    -7758     1076     9767    11463     2246   -10806 
  -17621   -19409   -24455   -31361   -32722   -31762   -35050   -40606 
  -48129   -60606   -72985   -78171   -78033   -74887   -61994   -37535 
  -15803    -7119    -2398     7550    15684    12615     1819    -6242 
   -6678    -1498     7312    19651    35146    51946    64251    65507 
   54041    31581     4729   -14546   -20110   -15292    -2208    17223 
   33350    39599    39449    33804    21051     7605      443    -1609 
   -1488     -209     1407     3178     5333     6670     2420   -12237 
  -34787   -57017   -71407   -71964   -57126   -35693   -19935   -12282 
   -9174   -11196   -20110   -32964   -43524   -50767   -59772   -68413 
  -68046   -57871   -43343   -28458   -17109   -11387    -9752   -12246 
  -19297   -25620   -23065   -10231     4396    14516    22932    28220 
   22260     6409   -10782   -27695   -44014   -54034   -54879   -49652 
  -41687   -32440   -24804   -22336   -23659   -24592   -23416   -18572 
   -7587     8513    23622    28914    18313    -3842   -25804   -39724 
  -42133   -31591   -13116     4187    14978    18862    16578     9944 
    4586     4777     8128    11821    14703    12515     4090    -4088 
  -10430   -22305   -40390   -55277   -62776   -67985   -72288   -67594 
  -50285   -30036   -14349      126    11851    10132    -5932   -23379 
  -34471   -41964   -44991   -38120   -24448   -12080     -260    13420 
   22616    24891    26892    26992    15548     -311      469    18707 
   34959    40859    37325    19731    -7187   -28866   -45044   -61980 
  -71963   -68077   -57801   -45741   -28692   -11079      739     9135 
   14789    14556    11518    10491     9262     7275    10734    16899 
   15960    10767     6779     1124    -1890     3911    11391    14005 
   14871    14894     9970    -2938   -22686   -42217   -54161   -58147 
  -57087   -52531   -46646   -43606   -46691   -53034   -55398   -49701 
  -34694   -11984     8214    16280    16866    17629    15614     5461 
  -11610   -31379   -53796   -81865  -111095  -127158  -120342   -93612 
  -52173    -2441    40585    65326    73048    69205    58275    41631 
   20537     1454   -13470   -27487   -38339   -45395   -54794   -65410 
  -67532   -58758   -45346   -31636   -20314   -14217   -12506   -14226 
  -19489   -23577   -23125   -20504   -15791    -9671    -8475   -14783 
  -21439   -22603   -24926   -33461   -38385   -33173   -22037    -6496 
   11261    25389    33436    34313    25485     5698   -17578   -28216 
  -19996    -1783    18242    34277    39121    31100    14468    -2767 
  -11091    -9560    -2808    10205    27022    36829    39380    44298 
   49267    46506    38242    26188     7982   -11818   -27755   -38901 
  -41185   -32788   -20804   -12524    -7946    -2567     3189     4032 
     444    -2506    -4368    -8752   -15255   -19900   -25093   -36013 
  -49850   -61875   -70403   -69792   -55645   -34866   -15704      140 
    8629     6789       26    -9946   -26965   -45736   -56026   -57266 
  -53762   -45103   -30873   -13369     4808    16382    14370     4347 
   -6177   -20137   -36456   -47374   -56212   -69934   -82566   -85141 
  -76909   -61680   -44286   -29443   -19485   -15016   -18793   -29652 
  -38078   -42204   -47988   -51227   -46045   -35830   -23751   -11322 
   -2382      542    -1583    -6397   -11386   -12866    -9353    -5863 
   -5317    -2386     2668      496    -8830   -15109   -14624    -9743 
   -2294     2950     1063    -5812   -13783   -20386   -18992    -7718 
    3137     7586     7950     2012    -7559    -7603     1236     1340 
  -11129   -21981   -25482   -25218   -18266    -2252    17228    34505 
   47169    54242    54163    44669    27346     9001    -4047   -14799 
  -32829   -56195   -69433   -63901   -47405   -30903   -16117    -5450 
   -5541   -10387    -8292    -1531     5220    15294    25428    26414 
   20358    16515    17389    20526    22680    20473    14117     5875 
   -5033   -18506   -27190   -23282    -9080     6552    15053    10590 
   -4568   -21305   -32123   -34021   -31057   -34090   -47992   -64915 
  -75633   -78436   -76095   -69927   -58890   -44805   -32117   -22110 
  -14313   -11657   -18053   -30070   -39313   -43826   -45547   -42356 
  -34331   -27855   -26229   -24304   -16191    -3883     8414    22759 
   38496    47783    50594    53581    51401    33408     5778   -14340 
  -22398   -26963   -31357   -32362   -30573   -28049   -24931   -21674 
  -16111    -2962    15995    29112    31012    29759    30727    27357 
   14665      933    -6336   -14911   -31799   -51421   -67222   -72485 
  -61943   -45193   -35178   -30777   -26483   -18116     -249    22547 
   37608    43847    46142    37997    11943   -24870   -56272   -72875 
  -77120   -73843   -66776   -56792   -39739   -19998    -8345    -3403 
   -1936    -9702   -25423   -37483   -37532   -22993     4759    37534 
   63618    75003    66446    37045     -321   -29678   -50476   -64631 
  -61838   -35932     -114    27448    44529    55927    55357    38855 
   18843     6497     1895     5589    16820    25280    22502    12244 
    1114    -7990   -16499   -28772   -41203   -47491   -52394   -59354 
  -62315   -58129   -49769   -40863   -32608   -26983   -34239   -61717 
  -95389  -115390  -122040  -125430  -125583  -117166   -97174   -67730 
  -40110   -23123   -10835     2508    10389     9082     5369     3747 
    2835     4589    13869    30371    49747    65494    67053    47880 
   15335   -12991   -23740   -17452    -2099    14180    23127    22531 
   16066     4433    -8096   -12580   -10057    -7184    -5424    -6409 
  -13087   -23576   -31536   -32952   -33286   -40334   -48394   -41606 
   -9851    39955    85902   108425    94639    37486   -48162  -130447 
 -188619  -217567  -216443  -187594  -137225   -78099   -30964    -3526 
   16562    29429    24547    10298    -1923   -10795   -10622     2764 
   24117    39523    33796    10454   -12085   -20944   -14869    -2805 
   10060    29335    53601    70321    68903    44354     -359   -51193 
  -89522  -103933   -93458   -61163   -16707    18592    28233    16335 
   -2581   -14536   -13568   -13510   -25930   -37517   -42380   -52743 
  -69029   -83726   -96778  -108408  -110007   -90606   -53623   -11584 
   31225    76794   121667   150292   148967   120979    77504    35828 
   13382     5888     -273   -10173   -29907   -58820   -86313  -112447 
 -141009  -166294  -183901  -186463  -155942   -83012    12972    92132 
  130210   126142    73324   -21167  -115772  -177138  -202013  -196285 
 -155823   -71300    40378   133272   179445   193629   186878   144157 
   74866    15549   -14729   -22001   -12996    19617    63759    93133 
  111484   120967   101114    40529   -43717  -109190  -134251  -131894 
 -106321   -56795    -7647    10040    -2389   -22365   -42170   -56114 
  -54044   -44243   -40506   -49488   -75379  -106875  -124947  -125181 
 -108375   -71732   -22180    23379    54062    72719    86760    96296 
   97922    85735    52687     2063   -58224  -120441  -168840  -189477 
 -189576  -181582  -155160  -105128   -49769     1935    47538    75787 
   80577    68071    51604    34833     9302   -21171   -44414   -64639 
  -88818  -108122  -114080  -104436   -79476   -49028   -25151   -16984 
  -31656   -64569   -99005  -118711  -116547   -92898   -56253   -18146 
   17647    44754    54551    45308    11689   -37583   -70029   -69745 
  -43557     -485    38407    54832    64793    87942   115395   135303 
  142765   129315    88705    23867   -42680   -82490   -84176   -44158 
   24166    90229   141308   172149   162426   100754    11200   -64130 
 -107835  -128222  -134422  -133500  -127642  -117328  -110273  -102511 
  -78878   -47435   -29525   -31873   -49701   -67118   -68508   -58137 
  -40734    -6024    42630    79523    85203    61580    26381    -5423 
  -38336   -79467  -114271  -122667  -102734   -64034   -14820    39576 
   93426   137596   158605   145242    95333    13140   -78334  -137470 
 -149717  -130709   -84805   -13393    67614   127863   133828    88111 
   20204   -49586  -108878  -155689  -181334  -164833  -111080   -37956 
   47045   124902   178933   209506   209477   170156    94993     1562 
  -78149  -137193  -191367  -226759  -227737  -199333  -138276   -60101 
   -1255    26991    31012    13077   -10597    -8614    15927    24132 
    3057   -28035   -55731   -77693   -88439   -87167   -77615   -54322 
  -25491    -9949     -737    15988    33650    33794     8316   -19806 
  -15853    24803    75430   113210   126558   100864    40909   -18722 
  -50288   -50975   -31548    -6251    13137    20505    16786     8208 
    2658     3151     5302     3837    -6598   -27572   -51205   -72811 
  -95345  -113360  -111764   -88184   -61774   -50669   -54019   -57136 
  -49482   -36899   -25760   -13763    -7239   -17487   -35764   -39281 
  -27359   -16892    -6077    12224    25779    21025    -1231   -30255 
  -51784   -56842   -50993   -46874   -46041   -43096   -39623   -38523 
  -32746   -14678     4854    10423     4706    -5387   -17221   -20644 
  -11137    -6538   -26456   -64775   -91618   -85381   -61664   -46128 
  -29970     4948    39730    41074     7088   -38730   -74802   -88045 
  -73638   -30742    32094    79753    80540    50471    30696    45436 
   89288   137777   175850   196417   173705    90746   -15473   -90590 
 -121800  -116237   -68758     3838    55709    66892    50444    19707 
  -15401   -44436   -57160   -50712   -33558   -20966   -29864   -49621 
  -45876   -18966     1582     5652    -3862   -31449   -81948  -146258 
 -201971  -231955  -236251  -217010  -164602   -85094    -9501    50513 
  102773   135311   135372   117152    92953    63854    38966    21158 
    2865   -19709   -48442   -79891  -102625  -102494   -69826    -9284 
   50385    70193    50028    23752     7622     6141    22618    48634 
   69809    66521    32526   -15608   -66610  -108381  -118289  -101343 
  -88531   -90141  -103842  -127137  -130583   -91936   -34508    16880 
   52055    56236    27605   -24004   -91420  -152701  -178978  -160997 
 -106770   -38930    11633    27695    13821   -14732   -41825   -42488 
   -2482    51607    92742   113817    93345    22111   -56822   -86750 
  -57264     3291    70873   111858    96027    61392    49415    34828 
   10156     3430    18079    45586    80571   114421   133869   125519 
   90390    34941   -32070   -89363  -125906  -145499  -143827  -120481 
  -91817   -72373   -67258   -72077   -69020   -46770   -11701    24603 
   45283    32480   -11390   -54073   -65332   -51350   -27947     4923 
   40961    70369    97373   125437   152304   167885   152235   107794 
   57931    11024   -32723   -61434   -57072   -24666      347    -5348 
  -38963   -86570  -121021  -127581  -125855  -131717  -137124  -138507 
 -138722  -137794  -139688  -133136   -92930   -29453    16202    34197 
   43866    41779    13332   -21721   -28567    -4210    27399    48797 
   61708    70163    66613    48816    32670    37405    62333    87432 
  102578   113148   118210   103180    56342    -4887   -53720   -95311 
 -134585  -148107  -132757  -114879  -104163   -95100   -93129  -105140 
 -119425  -113428   -82060   -40961    -2806    28558    50578    65103 
   71246    58274    30316     8832     4839    19820    49363    83221 
  111476   121143   110602    91620    68158    41818    16118    -5465 
  -13623    -4355    15400    36701    50193    48129    30568     6090 
  -14746   -30840   -51200   -72854   -76529   -59910   -40317   -22595 
   -8492   -10661   -32640   -73971  -132562  -187955  -220658  -223241 
 -187028  -116527   -37498    27028    73317   102596   101212    70063 
   44487    39840    37952    33017    32007    34301    29949     7939 
  -24135   -45379   -53444   -62127   -72301   -74723   -73710   -81977 
 -101101  -119695  -121206  -104474   -91974   -95455   -98489   -88133 
  -71164   -54938   -40002   -28548   -25241   -25041    -9714    20843 
   41973    47197    52335    62592    70106    73867    85283   108536 
  126293   118699    86290    44766     6521   -26589   -53466   -66156 
  -61505   -47393   -36474   -42902   -65314   -83803   -92260  -102728 
 -123971  -157204  -198454  -242740  -277869  -281156  -244908  -185246 
 -123977   -78170   -43780    -2051    39944    65796    86280   107381 
  116225   108689    89558    68082    55320    50389    43224    27540 
    7373    -3161     3212    12649     7500   -11935   -33359   -46477 
  -42721   -17619    17826    40409    34353     7735   -14125   -15093 
   -2904     5810    14944    40301    73724    98884   115697   120748 
  106803    79345    50737    31408    23407    19100    12532       58 
  -23312   -51684   -72136   -79189   -68300   -37024      821    19101 
    2791   -37817   -83904  -124142  -151064  -164791  -170856  -166999 
 -154801  -142470  -118540   -67201    -1153    56712    95583   112410 
  110315   101901   101460   111100   122940   132812   143265   150765 
  140851   107097    63526    27167    -2855   -35074   -70291  -113087 
 -168080  -222083  -260335  -282319  -290945  -282951  -248387  -185440 
 -115775   -66484   -41877   -29043   -12384    21445    60549    76443 
   69841    57521    43019    29870    19482     5720    -7859    -8672 
    6171    25822    37253    34868    25078    22798    34245    49986 
   61760    69445    70863    58073    20804   -37354   -92785  -129551 
 -149102  -155646  -150788  -131437   -99400   -66391   -43506   -36773 
  -46201   -69686   -97256  -107962   -94202   -63404   -22282    14882 
   30161    24158    15174    18110    29966    34370    24204    10068 
    2888     4113     8486    16070    36660    63382    69016    40559 
   -9957   -56100   -75365   -74405   -72107   -66622   -55444   -52990 
  -68872   -95609  -111105  -101744   -76264   -38664     5670    34235 
   40030    32584    19497    15576    25810    36013    39125    33494 
   11064   -26985   -58376   -60352   -40551   -26476   -28595   -36811 
  -45719   -63618   -91006  -108822  -104317   -82126   -43268    11218 
   63459    94334   103357   102190    99496    93234    78142    58741 
   41602    24336     2531   -22940   -41874   -36865     -537    49069 
   81586    89317    86728    71312    35066     5265     9862    35984 
   61677    77790    77767    60027    27957    -9979   -40070   -60567 
  -79698   -95869  -105312  -111668  -116558  -116648  -108415   -89304 
  -57450   -20080     4792     7530    -7024   -30927   -56340   -76676 
  -87539   -87787   -83106   -82142   -88780  -100325  -113079  -121367 
 -111084   -75622   -30517     7099    35418    53352    48486    15020 
  -29425   -62510   -74995   -62220   -24859    18780    43001    43666 
   35728    23800    10544     7716    15870    30915    49454    56793 
   48022    34572    20003     1853   -17616   -34614   -46516   -54442 
  -59609   -55367   -35309    -7933    11093    22695    42088    69646 
   90432    96091    80352    41265     1241   -14390    -8651     3448 
   14974    17205     -468   -31446   -58718   -71805   -61715   -28187 
    9851    29024    18884   -11624   -39892   -45029   -28282   -10599 
     804    11562    18177    19750    19680    12037   -11411   -48762 
  -85674  -109796  -123455  -128595  -115715   -84073   -54213   -42188 
  -40544   -38740   -35813   -32399   -30100   -28048   -21321    -6604 
   16688    41843    57999    59556    40619    -1832   -51746   -83822 
  -87689   -66235   -31309    -8155    -7775   -11787    -7334     2283 
   12894    18148    13360      398   -12350    -9462    14493    44551 
   67869    88862   109596   119396   114733   101876    81991    55820 
   29760     8205    -9739   -25834   -39146   -46753   -47817   -44080 
  -35780   -25460   -23932   -38021   -57177   -70445   -83785  -101719 
 -114952  -116136  -106888   -89560   -59960   -14373    34485    66574 
   74946    61767    32402    -4305   -42606   -77942  -103128  -111777 
 -100459   -74654   -48237   -29352   -19243   -24816   -51171   -88426 
 -122217  -142510  -142323  -123022   -95318   -68662   -42453   -12550 
   16876    36038    41442    38009    30370    19196     6085    -5827 
  -17677   -29533   -33281   -28877   -28486   -33864   -35619   -25329 
      81    28356    43343    44795    33479     7035   -22256   -39934 
  -43345   -30724     -650    40686    82558   118139   145873   160751 
  156828   135333   100457    60442    29213    10946    -1101    -5256 
    -898    -1649   -11169   -18410   -19548   -17586   -17471   -27579 
  -49022   -73867   -97211  -112571  -111382  -100453   -93510   -92458 
  -96984  -108976  -118847  -111039   -85169   -57683   -42849   -36418 
  -23829    -4272    11434    21439    32888    49301    63406    62176 
   39947     3982   -29035   -45676   -46109   -36719   -26018   -22294 
  -21328   -15114    -5333     6123    19087    30524    37125    36093 
   30395    28298    31590    31267    14344   -18307   -47486   -63778 
  -76521   -86965   -82524   -57705   -23736      877     8613     5522 
   -5098   -20870   -31678   -31590   -24815   -18865   -15733    -6366 
   14358    36052    49256    53174    43008    14331   -21642   -48374 
  -62287   -66857   -62807   -53376   -45755   -44408   -48633   -53710 
  -54810   -51779   -47354   -40340   -28451   -19308   -23248   -38054 
  -55770   -71956   -81580   -82470   -78695   -69956   -52210   -29082 
   -8320     5210     9814     6685    -2149   -12774   -18489   -15083 
   -3307    13442    28253    31922    25682    22611    25612    22684 
    8357   -10110   -26359   -39031   -45472   -43969   -37126   -25425 
   -6757    15178    32382    41697    43687    38819    30535    22021 
   11221    -2330   -12364   -15824   -21309   -36642   -53305   -55021 
  -36875    -7012    24240    48797    59364    51281    27907     1565 
  -15302   -17086    -3467    20696    46631    65726    72670    69932 
   63774    55996    46509    36957    27718    16143     1617   -10330 
  -11747     3156    30381    51679    51670    33681     8892   -14869 
  -32049   -41632   -44773   -40877   -34912   -33382   -31328   -21765 
   -7180     9752    28907    44798    48459    33667     2240   -35433 
  -69041   -92813  -104050  -101836   -84757   -55868   -26916    -9158 
   -6726   -16338   -28998   -36391   -35219   -29694   -26333   -25193 
  -23932   -22420   -21138   -18233    -9875     2608    11818    10066 
   -4211   -22670   -31240   -19377     5835    22071    17331    -3624 
  -33518   -64464   -85917   -93258   -87667   -70187   -48702   -34633 
  -30600   -32672   -36906   -43226   -53335   -64343   -70213   -67506 
  -56547   -40065   -22864   -10827    -8441   -14823   -24662   -34901 
  -43673   -46990   -42565   -31802   -19036    -6878     7015    20664 
   28752    35704    47047    56216    52813    31412    -3935   -36003 
  -49777   -47691   -38925   -33938   -43096   -56522   -51560   -25568 
