Origin Time       2011/03/11 14:46:00
Lat.              38.103
Long.             142.860
Depth. (km)       24
Mag.              9.0
Station Code      SIT007
Station Lat.      36.0542
Station Long.     139.3933
Station Height(m) 26
Record Time       2011/03/11 14:47:29
Sampling Freq(Hz) 100Hz
Duration Time(s)  300
Dir.              U-D
Scale Factor      3920(gal)/6182761
Max. Acc. (gal)   57.071
Last Correction   2011/03/11 14:47:14
Memo.             
[...]
  -13021   -24413   -16346    -5616   -10178   -21088   -23655   -19994 
  -20389   -21776   -18545   -18875   -25612   -24286   -10674    -3768 
  -10277   -12414    -5692    -3990    -6512    -5120    -7095    -9811 
    5088    24712    15993    -9612   -16158    -9864   -13668   -17199 
   -8448    -2810    -6837    -6807    -4344    -9669   -14174    -8565 
   -1312    -2784    -4466     4656     8530    -3385    -7403     4148 
    6339    -4420    -8325    -7467   -16660   -28233   -25763   -16075 
  -18777   -32049   -33544   -19308   -10380    -7792     1876     3571 
   -9492   -12729    -8233   -16830   -26067   -24066   -25748   -28101 
  -18415   -13727   -22108   -20149    -6700    -3830    -3930     8080 
   16490    15169    17532    16844     9208    13070    25825    26180 
   13769    -2379   -18756   -29658   -36136   -40642   -37737   -30870 
  -24580   -17500   -20268   -32748   -33366   -23916   -19839    -8792 
   12401    16795     4912     1938     1821   -11176   -24577   -23005 
  -10578     -613      549     3555    14763    18496    12869    14078 
   10440   -11694   -24748   -14791   -10815   -19461   -18160   -10640 
  -12053   -12934    -5120     -707    -1535     6544    14757     5995 
     467    11936    12683     -487     2064    14520    13044     7602 
    8488     2243    -4822     8089    26177    22555     7127     -612 
   -3941    -4808    -5651   -22028   -41286   -37682   -30499   -37045 
  -38826   -31078   -16444     3566     8324    -2169     1439    22216 
   31683    14580    -7200    -2708    17521    17083    -2146   -11123 
   -6029     -672     -870    -2495     -898    -1382    -7881   -11079 
   -7185    -6619   -10613   -12246   -16491   -19714   -10721    -9502 
  -30012   -41601   -31244   -20885   -15754   -16349   -30358   -39823 
  -29945   -23620   -28005   -17224     -773   -11274   -24092    -6098 
    7608    -6685   -14707    -6545    -4629    -9555   -10189    -4879 
    2609     4442    -1137     -761     8943    10070     3399     8106 
   14420     4805    -4123     -323    -1924   -10496    -9212    -8235 
  -18722   -18287    -1727      500   -15524   -19480    -4695     4744 
    -222    -4298      -44     6146     9790     6025    -3472    -3519 
    2516    -6747   -19436   -12028    -4367   -10060    -4348     8062 
    1430   -13714   -23189   -30331   -30595   -23711   -19708   -19405 
  -20474   -21436   -16690    -9554    -3884     5648     8788    -3640 
  -10313    -2807    -1255    -6469    -3767     6067    13624     8797 
   -7886   -17769   -14683   -11273    -6486     4086     8037     3212 
    3330     8809     6449   -12082   -34785   -35809   -20671   -23448 
  -41812   -43741   -26437   -10813    -6581    -5895      153     3565 
   -1903    -1829     7727    11695    11317    12561     3256    -7945 
    3287    17946    11952     4720     6573     8264     8575    -3768 
  -29008   -42428   -43148   -44732   -37914   -21199   -12316   -12497 
  -10127    -3066     3773     1107   -13151   -21927   -16234   -14099 
  -26318   -36553   -30154   -11162     8559    16879    10615     3151 
    5305     6794      168    -1410     7685    18726    28457    33334 
   31743    32347    29648     7075   -20664   -26332   -19046   -20692 
  -29029   -29173   -15325     -778    -2714   -13830   -13579    -6406 
  -11970   -25049   -22068     1386    16436     3792    -4289    10257 
    8008   -16805   -25929   -23648   -24324   -10507     7625     4518 
   -1314     6772     2976   -21805   -39448   -40316   -39644   -40427 
  -36715   -31895   -31791   -33994   -31540   -25980   -27389   -31134 
  -23626   -14414   -17273   -22649   -19986   -11154    -2079     3402 
   10468    17015    11805     6282    11047    10049     6724    18154 
   25736    13051     3301     8203     5775   -12696   -30562   -36921 
  -33206   -24115   -15663    -6932     6466    14786     5189   -11248 
  -12954    -3315     1345     2390     6155    10833    12253     4656 
   -5208    -2197     4163    -2785    -9868    -6017    -5506    -9495 
   -5539     2901     9381    13691    13232     7811      398    -5660 
   -9627   -15132   -19433   -18057   -16641   -15183    -5230     5391 
    2068    -5230    -3082    -5551   -20953   -29987   -25990   -23304 
  -23373   -20886   -20270   -21076   -18391   -14989   -14298   -13603 
  -10521    -9846   -11823    -6800      619     -575     1081    11970 
   14660     6795     3581     1843   -12919   -37569   -50117   -37180 
  -16486   -11222   -15840   -15184    -9819    -4047      727     2280 
     234    -8480   -22176   -27169   -21403   -20022   -24674   -22489 
  -18049   -24482   -31502   -25541   -15124    -8413    -2164     3929 
    6726     4304    -2527    -7509    -2701    10487    18169    14017 
   11902    16345    10936     1935    12219    28007    30962    33121 
   32754    23702    20112    18379     9815     5836     5431    -1540 
  -13566   -27722   -35051   -25294   -12714   -14907   -17610   -10230 
  -12760   -24203   -21169   -13866   -17942   -16764    -5271    -3949 
  -16716   -23517   -15639    -7830    -5867     -817     2418     -946 
   -3032   -11731   -35224   -51697   -48051   -43593   -45297   -39847 
  -29029   -20427   -13921   -13151   -14906   -12445   -11246   -11245 
   -8865   -14369   -25976   -23532   -10856   -11705   -23908   -24121 
   -4148    19077    24172    13043     2497    -2588    -5522    -9685 
  -17081   -18734    -8114     4459    11582    13579     7291    -3073 
   -9668   -14603   -15331   -10078   -14773   -30412   -26892     3285 
   20242     1024   -21738   -20070   -11253   -17395   -32207   -36614 
  -27204   -14990   -11086   -24013   -37130   -20229     6246     1285 
  -17810   -18959    -8723     1818     3474    -7909    -9266     2905 
    -702   -20210   -31393   -30110   -29959   -36188   -37287   -26269 
   -8086     9754    17969    16767    12119      -77   -15710   -18087 
   -8009    -2664    -8224   -15079   -14145    -5071     8028    14852 
    6195   -11120   -24976   -28996   -21658   -13245   -14640   -16187 
    -239    26402    38152    31474    23512    20025    15762     9739 
    9384    13634     6457    -8640   -12106   -10208   -13298   -12350 
  -17598   -42986   -59361   -45780   -32770   -42078   -51286   -44353 
  -38168   -36168   -24281   -20141   -38432   -45174   -24411    -9979 
  -13084   -13997   -15740   -22783   -17353    -2283    -1932   -20214 
  -39872   -45122   -37645   -36933   -48693   -48992   -32699   -24846 
  -18513     5782    23127    14463     3765    10381    25498    30073 
   16673      838       56     5422    -1233   -12991   -11998    -1269 
    4491     2132      816     7624    14797     8395    -2930     7687 
   32527    29452    -1405   -14176     1872    12328    -8792   -45922 
  -53941   -31515   -27109   -39677   -31481   -15290   -15785   -21316 
  -23750   -24525   -20977   -25864   -39203   -26475    16024    46467 
   46322    28673     7741    -2045    -7378   -25868   -32284    -8275 
    5344    -3861     3021    22313    17107    -3988   -15105   -21661 
  -24163   -16165   -13200   -20483   -26212   -24464   -12941    -7325 
  -19768   -26759   -21707   -21974   -15933      870     5510      317 
   -1327    -3493    -7698   -17883   -34571   -36767   -22550   -20641 
  -27845   -18559    -7009    -7457    -5254   -11591   -27965   -15613 
    9510      -80   -16260    -8369   -10277   -24740   -15857     2591 
    1699    -1580     5787     5067    -3813    -5802   -12625   -30790 
  -35729   -19695    -7154   -12467   -22854   -21681    -6530    10810 
   12953    -3863   -21515   -18253     2278    11291     1120    -5891 
   -5132    -7839    -6009     3840     1117   -16013   -24868   -21313 
  -16705   -15485   -18837   -21340   -13529    -1612     7099    19776 
   25859     9537    -4508      191    -1280    -5760     7274    18831 
   19762    25700    30502    21474    -3945   -36244   -47137   -31523 
  -22033   -29175   -30027   -19955   -13552    -8852     3102    12379 
    4312   -10996   -14791   -11334    -4250    10817    14923     4412 
    9999    25032    19824     7497     7420    15648    26475    25490 
    3741   -14423   -10076    -6013   -19695   -29589   -22525   -12471 
   -8408   -11330   -14604    -9219    -8303   -22242   -34009   -37890 
  -43328   -43670   -34964   -24383   -14136   -10381    -9039     2663 
   10147     6080    12464    21989    12082     1877    11641    20228 
    6598   -10694    -3080    12338    -1458   -30371   -40257   -38252 
  -35525   -21109    -3448     4043    15226    27180    16419    -1707 
    3734    17169    10628      734    11156    24055    23315    24318 
   27944    24736    25550    25831     9779    -5420    -4257    -1349 
     181     7075     5400    -6606    -3989    13815    21068    11257 
   -5680   -19877   -19655    -8056    -5459   -15810   -22675   -25145 
  -34991   -42837   -34660   -22587   -22456   -29861   -32676   -27208 
  -22296   -24020   -22377    -8173    15219    36381    39743    21530 
   -6579   -29269   -30473   -16081   -12019   -12290     1282    11004 
    6724    -1095   -21148   -48402   -53619   -45731   -52550   -56389 
  -34299    -8822    -1361    -5373   -18369   -35616   -39132   -23874 
   -1436    13063    12043    12109    25244    26439     6248    -6964 
  -11048   -24819   -34600   -27003   -20896   -19713    -6125     6030 
   -4105   -14297    -3991    10612    21189    29501    24079    11302 
    9456     5574   -14588   -24128     1459    35055    40210    24474 
   11448     8569    19127    34358    34214    22217     9123   -11550 
  -30902   -33689   -29786   -22543    -6302     5365     8849    15911 
   16712    -2689   -26453   -29270   -12858     1799    11520    28981 
   49225    52642    35198    12743    -4127   -20760   -29823   -13932 
    6741     3663    -2411     6301     3102   -19006   -29753   -21680 
  -13470    -7788     4820    18449    15974    -5115   -27208   -33937 
  -21319     3880    22230    18338     2731    -4501    -5908   -16018 
  -22096    -5015    13172     9831     4729     8626     3370   -10888 
  -21962   -27205   -14769    12651    27436    31301    34722    17235 
  -15497   -34470   -48592   -65362   -57824   -18731    20736    37827 
   41008    36820    22288    11418    11261     3754    -9535    -5691 
    6558     2723    -7508    -9181   -11013   -16987   -24739   -30945 
  -24178   -13834   -23814   -41193   -36596   -16921    -3318     4603 
    6640    -1597    -1828    11485     8151   -13596   -23857   -26610 
  -35074   -30987   -12885    -6649   -11225   -12974   -22568   -34597 
  -28545   -30910   -59990   -65062   -27831     4095    11157      548 
  -19655   -20979       96     8650       90     1133    15146    18684 
    -437   -21579   -21920    -8732     4999    10747    -4192   -18637 
   -1112    12617   -16118   -38311    -7330    37232    50973    37236 
    1652   -43487   -66130   -61368   -47003   -18881    22681    49046 
   50925    44883    28859     -662   -20829   -21720   -24016   -39756 
  -60614   -71800   -57873   -25074    -4288   -10426   -23692   -21824 
  -14901   -22596   -41821   -64854   -78603   -61194   -21158    13243 
   33491    39434    35733    41568    57196    48985     8884   -19797 
  -13206     1485      666   -15062   -38252   -57258   -65618   -58279 
  -29096    -4237   -17607   -41331   -26537    11935    31469    31524 
   27947    14962    -4430    -7661    -3996   -23804   -51797   -60854 
  -60943   -50062   -15859    17357    30257    35983    43528    51854 
   49564    24250      111     2094     5332    -5553    -3062    14632 
   21437    22178    29520    36979    40117    27555    -2672   -17561 
   -3914    10204     7806    -6125   -18677   -16654   -15730   -36662 
  -50747   -36986   -23375    -9388    20171    35339    26641    27523 
   44816    55621    44356    14508    -6050     9249    39117    38278 
    9911    -8907   -20774   -41038   -43292   -21747   -13746   -21703 
  -26181   -34863   -44689   -37605   -21929   -15966   -23182   -41849 
  -61676   -59829   -37269   -33424   -57040   -59982   -25043     4017 
   -2737   -26502   -40831   -48043   -56472   -51525   -25840    -5135 
   -5014      118    22004    27292     5256   -11977   -11676    -8170 
  -15864   -30976   -19930    20540    36106    10178    -8912    -4006 
   -7688   -18700   -12120   -12043   -34075   -38814   -27254   -39185 
  -57712   -50136   -28125   -10307      667     9724    20877    30879 
   35387    34307    29991    18623    -3765   -18409    -7288     9860 
   10134      846    -7082   -10358    -3793     7566     7541    -5823 
  -12991      998    28710    47935    40977    18978     4598    -9158 
  -31213   -40443   -28213   -12439     1607    17767    23455    13331 
   13850    36204    44655    21456    -5350   -16981    -9875    14681 
   26408     7863    -5829     1277    -2697   -26541   -46788   -57988 
  -73403   -85785   -67288   -21643     9913     8863    -6117   -23623 
  -43134   -51530   -47026   -40006   -19032    18568    45967    52437 
   45496    25253     3203     1084     8662    -5654   -32144   -28703 
    5689    29374    23895    10909     7351     7940     9791     9365 
   -4399   -22488   -23947   -13858   -12739   -24327   -34297   -36645 
  -45686   -60198   -55921   -35620   -23578   -22285   -25961   -31361 
  -23957    -1154    18761    26044    25925    27517    24610     4355 
  -13248   -11196    -4886     8525    32171    47818    64100    83209 
   76277    58822    65999    73966    57294    37541    23860     1416 
  -26503   -49945   -68932   -69875   -41640   -14828   -11672    -1845 
   18694     8443   -26108   -40854   -31163   -11594    19126    44877 
   33128     -681   -11420    -6932   -18977   -36218   -38519   -36200 
  -39980   -36547   -16816     1081     1497   -10371   -22592   -17635 
    6017    16145     1813    -5824      181     -739    -6867   -12298 
  -22151   -33016   -42338   -44701   -31268   -20009   -27598   -32622 
  -20083    -3353    15353    37761    45492    37402    33121    31110 
   25897    22699    12205   -10498   -27454   -29279   -24727   -22295 
  -23510   -19105    -6098    -7288   -28053   -38455   -34415   -30396 
  -16243      675    -5740   -17294    -4806     8209    -1727   -12430 
  -15930   -27693   -38018   -34649   -24409   -12768    -6036    -5729 
    1125    16496    20440     6127    -1340     6734     1767   -22756 
  -43548   -51469   -46828   -28730    -7227     2798     5990    21423 
   47682    65711    68527    57720    31381      296   -13048    -9466 
   -7576    -5198     9813    21719     5661   -21490   -27269   -21198 
  -19463    -9825     3383    -1290   -21972   -47136   -70391   -79333 
  -63843   -33219    -7483     8182    18195    18538    10155     1497 
   -8155   -20443   -27450   -22904   -12376    -9146   -17287   -24399 
  -21653   -15407   -12242   -12099   -13318   -10443     -892     4691 
    3600     9042    16765     8698    -8230    -3805    24280    30225 
   -2153   -27486   -28807   -26281   -13579     7521     6877   -12564 
  -22425   -23201   -29166   -38268   -47703   -60661   -66158   -53404 
  -33014   -13686      461     1028     -314    12994    27953    27869 
   21685    21554    18584     6492    -2901    -7642    -7427     5907 
   16286    12383    11165     9983     -591    -8014   -15158   -32986 
  -44098   -35114   -21249   -14383   -13912   -21426   -33251   -39584 
  -43616   -52415   -55437   -48496   -43011   -28833     6831    37941 
   39684    22113      290   -13279    -5832     8252     5583     -589 
    8951    24730    35220    38587    39430    39449    23120   -12150 
  -39720   -41571   -27699   -16383   -10968    -4378      592    -5281 
  -20004   -35847   -51024   -53866   -26919    12129    25975    20536 
   26423    37203    34997    32811    41949    47914    39039    25920 
   22801    26275    25630    19482    14710    14572     6810   -16228 
  -31711   -19349      301     3089     -838     -721    -1102     2023 
    9751     9180    -2489   -10993    -7922    -5849   -18134   -27624 
  -12222     5246    -2446   -13088   -10375   -16049   -32538   -34663 
  -11441    22847    42652    39614    27835    10600   -17934   -42920 
  -48595   -46922   -47086   -36852   -20756   -13822    -4828     8459 
    3988   -13881   -22860   -25514   -32787   -33450   -10564    15579 
    3919   -32800   -39934   -14401    -1628   -13287   -22513   -15255 
   -1463     4494     1228     5345    27783    47728    42515    26414 
   14509    -1383   -13083   -10194    -8208    -5274    14681    31019 
   18282    -2317     1091    23221    41011    41176    23573     5881 
   -1087   -12142   -23798   -14764     -814     -568     5666    18006 
   11410    -4012    -4416     1301    -3415   -12786   -16885   -20767 
  -29907   -35610   -29866   -18733   -12077   -12533   -15429   -18153 
  -24455   -31209   -32028   -30250   -21000      786     8048   -15357 
  -34985   -28146   -14379    -8002    -6346    -3226     6236    12507 
    3354   -10430   -11415    -3490     2665     7092     6866    -5744 
  -24342   -33522   -36874   -49129   -63424   -64711   -53320   -33298 
  -14200   -13659   -30425   -42646   -38222   -23381    -7008     7143 
   14434    11963     8380    11502    13078     9399    15274    31508 
   38862    39322    47313    52169    42613    31284    26300    24961 
   30887    40934    42261    32390    20634    16554    15956     7194 
    -558     6852    17463    20023    21186    17309     2017    -8002 
   -3548    -2993    -9509    -5298     6889    14283    18918    23226 
   30179    38766    29728     4436    -7078    -4758   -10206   -23139 
  -37246   -50242   -56895   -59090   -58891   -50215   -34392   -24193 
  -25541   -30062   -34004   -44402   -56367   -52943   -26733     9038 
   22377     4263   -10518    -6537    -1591     6939    25666    42431 
   54675    62010    56226    44529    35228    16626    -8120   -12526 
     647     6203     9040    14933     2586   -21055   -27003   -24349 
  -26732   -21268   -10927    -6650     1423    15609    18801     3112 
  -16513   -20206    -8567    -1747    -8494   -12652    -8324   -14754 
  -32681   -39364   -35110   -37617   -40602   -24853      167     6894 
   -4798   -16766   -28902   -43910   -48684   -36778   -20852   -17476 
  -27774   -35410   -31152   -20507    -5577     8112     9620     9022 
   22601    37775    36004    26103    23222    21754    12337      822 
   -7518   -17996   -29624   -33717   -29959   -25125   -24232   -21516 
   -5780    11143    10214     4660    10032    12325     -124   -19764 
  -37336   -46835   -43167   -26159    -7333    -1091    -2324     3766 
   12353    11341     8635    13187    15313    11156    10112    13744 
   17145    18592    13607      922    -1480    17301    32135    24580 
   10362      819    -5927   -10047   -11790    -6420     1529    -3904 
  -13154    -8544    -3150    -8996   -13667   -12518   -16948   -27292 
  -30191   -21537   -13142   -13016   -14962   -15840   -19581   -24386 
  -28758   -37079   -46425   -44048   -28418   -14847   -12476   -16468 
  -16519    -6252     5596     9387     8626     4172    -2194      771 
    8549     5748    -2485    -8708   -15466   -13703    -4162    -6604 
