Origin Time       2011/03/11 14:46:00
Lat.              38.103
Long.             142.860
Depth. (km)       24
Mag.              9.0
Station Code      SIT009
Station Lat.      35.9033
Station Long.     139.4826
Station Height(m) 23
Record Time       2011/03/11 14:47:31
Sampling Freq(Hz) 100Hz
Duration Time(s)  300
Dir.              N-S
Scale Factor      3920(gal)/6182761
Max. Acc. (gal)   202.976
Last Correction   2011/03/11 14:47:16
Memo.             
[...]
   52424    32858     7208   -16277   -32413   -36207   -25972    -8011 
    9681    20764    22652    18980    13978     9804     6989     2967 
   -3870   -12206   -22657   -35201   -43472   -40766   -28439   -12258 
    5449    23066    38007    50053    55707    49682    34987    20610 
   12566     9254     6788     5411     5100     6710    14425    25817 
   35165    41854    40631    26000     5299   -13450   -29576   -40994 
  -45387   -44174   -37827   -23367    -1095    19785    30909    32574 
   27012    17626    10988     9969    13550    22742    36845    51392 
   62777    67178    63860    58813    55607    52639    48770    41336 
   26248     4298   -20036   -41706   -54764   -57919   -55039   -46564 
  -28991    -1179    31838    61794    81987    88857    86519    83075 
   80332    75843    66765    51471    31998    11784    -7528   -29827 
  -57626   -80151   -86291   -78256   -61240   -37101    -6361    28287 
   57727    75876    85502    86395    73631    47846    14270   -21254 
  -49248   -61852   -60500   -51590   -39043   -21066     4781    33479 
   55080    63217    60311    55388    53312    52479    52639    52220 
   48286    45102    46810    49756    50324    48449    45537    39774 
   24760      445   -24476   -42405   -51636   -54822   -53885   -48353 
  -38718   -27587   -16696    -6234     2800    13203    31768    55976 
   75309    85739    87897    81113    64946    41071    15448    -5333 
  -17587   -20815   -19334   -16910   -12571    -5425     2914    12302 
   24604    37850    47343    48915    38337    17711    -2634   -12833 
   -9552     2711    13986    16073    12025    11782    16760    23333 
   32145    40279    41345    34850    22810     8883     1209     2655 
    7928    14135    23015    36277    52730    66248    69205    58690 
   38292    14573    -8596   -29353   -43812   -48509   -44797   -36924 
  -24992    -4787    23734    54405    78263    85953    75543    56371 
   38486    25582    18534    15233    11637     8391     9192    15818 
   27507    39379    46201    46670    39365    24275     6889    -7776 
  -18596   -25173   -27557   -26724   -24745   -24296   -24821   -23204 
  -18439   -10597    -1010     6063     9176    12098    18677    27968 
   34097    33538    28836    22316    12931        9   -16660   -32794 
  -37403   -28672   -14216     4338    24352    37496    41400    39697 
   34781    28238    22174    18103    17508    21098    25047    23476 
   18701    20269    32774    53581    76015    90865    91852    79036 
   58313    36684    14718    -7864   -25690   -35050   -34996   -26299 
  -13712       18    13806    24736    32885    37328    33339    22501 
    9998    -4900   -20282   -27517   -26152   -22820   -16782    -7938 
   -2042      417     -221    -6418   -14327   -17615   -15347    -9499 
   -1880     6299    13551    21075    35878    60284    85351   101622 
  105987    99789    86153    68214    49078    30130    11448    -4267 
  -13208   -15264   -13256   -10399    -9041    -8322    -6321    -4079 
   -2087     2489    10481    19188    27922    37017    43326    45907 
   48544    50237    45866    34744    17424    -5769   -27243   -37883 
  -39405   -36737   -29156   -17736    -6431     3252    10720    15171 
   16734    16022    13500    12232    18728    34194    49998    58608 
   58639    47284    25436     2674   -16619   -35155   -50829   -60320 
  -63729   -58248   -42812   -21598     4508    31482    48370    53430 
   52333    45308    33423    20013     3980   -13033   -23146   -21925 
  -12427     1784    18513    31696    37416    36496    26388     7690 
  -11776   -26644   -33647   -30693   -21545   -12649    -8362    -7701 
   -5722    -1559     3504    11530    21873    29592    33282    34312 
   30748    21315     7773    -9130   -24765   -30542   -26452   -20247 
  -15859   -13588   -14713   -19249   -23922   -25302   -21133    -9570 
    7544    24865    37941    42505    33995    14782    -4085   -14882 
  -18098   -15952    -9993     -738    11822    26039    39958    51979 
   61007    69411    79747    89813    95258    91274    73500    43825 
   10452   -21091   -48677   -69526   -82808   -88292   -84727   -72794 
  -53076   -24423    10744    44201    69807    86567    91922    84945 
   70256    51745    34655    24568    19502    14585     6699    -4421 
  -14588   -20601   -21576   -16360    -5615     9634    29140    50266 
   68333    77981    76838    71935    71671    72504    66392    50908 
   29259    11118     5122    10122    16980    16028     6016    -9194 
  -25750   -36148   -36297   -29830   -18410    -3245    10393    20231 
   26877    29612    30529    32567    35070    38725    42388    41571 
   39470    39609    38240    36249    34662    28457    19542    13923 
    8680    -1034   -11873   -19336   -24843   -27195   -22330   -13741 
   -6151       -6     5389    15897    36016    58843    73879    76467 
   67146    47978    25129     7965    -2807   -12128   -20360   -28782 
  -39936   -52986   -65005   -69900   -63553   -49029   -31084   -13627 
    -278     8304    16134    29228    49305    70282    81840    78959 
   65930    47902    26703     4985   -13639   -25221   -26792   -20044 
   -8809     3353    13017    21848    35950    56345    75315    83437 
   77544    61535    44128    32884    26139    20815    22229    31241 
   40101    45922    49911    52943    54524    50114    39558    28579 
   18131     9037     6925    11953    16172    12928     4989     -962 
   -4998    -8404    -8362    -3439     6109    17709    25135    26042 
   23116    17346    10651     8251    14421    29402    47191    58072 
   56466    46556    36582    28441    19572    10175     3963     2708 
     958    -7720   -21674   -33534   -36035   -26204    -8249    10349 
   24924    32665    30676    19731     4690    -9839   -21763   -32250 
  -42980   -53231   -62868   -70948   -71526   -63893   -56585   -51504 
  -44503   -36629   -29010   -18231      709    28784    60023    86270 
  101994   109372   115128   117267   108597    89834    65352    37121 
    9108   -14265   -33062   -48080   -56447   -56012   -48479   -35398 
  -21445   -15201   -15756   -14655   -10367    -4660     3737    13909 
   23604    33735    43088    46702    42686    30406    10201   -10371 
  -25397   -37095   -46714   -54373   -61305   -64875   -60913   -50620 
  -38793   -28602   -21321   -14987    -6509     3035    11259    17080 
   20718    23788    26387    28556    31603    34264    33592    29081 
   23384    20945    24351    30797    36884    43001    48232    51005 
   53652    56528    54183    45000    35535    29238    23745    17730 
    9533     -688    -8335   -11551   -11648    -6424     7893    29351 
   52231    72545    84239    82059    70340    54486    34095    11508 
   -8237   -24032   -35845   -42669   -46210   -46950   -42874   -38245 
  -38478   -38466   -30359   -16642    -5515    -1198    -5716   -18286 
  -31037   -36540   -35427   -32632   -31138   -27970   -17958    -3367 
    8130    14065    16964    17834    18212    22216    30633    41160 
   52126    61834    72123    84770    93352    90314    75860    57041 
   40353    25620     8962   -11640   -34524   -56980   -74572   -79638 
  -70575   -55509   -42306   -30864   -14952     6904    28662    46405 
   57326    55315    39002    16273    -3913   -18343   -28243   -34958 
  -36183   -30275   -22735   -19554   -21120   -25612   -28045   -24179 
  -16953    -8363      391     1818    -6050   -10399     4386    38487 
   75496   102984   121884   133854   135097   121384    92283    53492 
   14597   -15763   -31680   -32426   -24161   -15675   -12372   -11971 
   -6416     6820    20180    25891    24101    23352    31990    46157 
   56175    59569    55126    42120    30069    25442    22212    16025 
    6366    -4520    -8967    -5584    -1636      387     1945      290 
   -3948    -3505     2630    10403    21752    40225    64780    88984 
  100769    92132    71492    52302    31681     4777   -18662   -35242 
  -51674   -68608   -85597  -103904  -120150  -127925  -123836  -109471 
  -82764   -39687    13985    69306   116951   140881   132970   104910 
   71251    35632     1018   -26897   -48522   -63461   -65283   -53582 
  -33569    -5129    33172    73454   101493   112548   112471   104577 
   90928    74453    55596    37214    24315    17475    11751     3701 
   -4282    -9614   -10491    -7783    -9095   -15828   -19708   -18148 
  -12106    -1179    10388    20354    32252    44394    50674    54360 
   65028    81036    92719    98642   100550    90422    58841     8153 
  -50848  -106140  -146824  -162714  -150644  -119557   -73182    -8334 
   62846   120645   151699   150815   131285   109447    84397    50796 
   10608   -28302   -59884   -81455   -90357   -87581   -71336   -39614 
   -2293    30793    57208    73228    79589    84120    85517    75536 
   55496    32158    10888    -1672    -1544     6361    13385    16251 
   19135    26071    30731    23742     4136   -20754   -35654   -28350 
   -4875    18536    34247    42805    45628    49256    58458    67341 
   70157    67226    61496    52361    34426    10507    -6952    -7637 
    6716    17734     8497   -16445   -41425   -54803   -52457   -38397 
  -15034    17868    51401    73716    82162    80026    69549    54082 
   37008    17273      390    -4440    -5036   -16060   -39355   -65324 
  -78361   -68984   -43738   -18486    -5635    -4858    -6807    -4558 
    2501    10755    16985    23665    31718    35086    34911    39833 
   51065    60546    57686    38190     4807   -34986   -71167   -98657 
 -114141  -114764  -102424   -82541   -64382   -49887   -31307    -8464 
   12215    29402    46326    60388    63439    54948    39257    22531 
   14513    15610    18785    20626    20785    21478    20895    15430 
    7695     -886   -10249   -15756   -13409    -6375    -1362     1362 
    5264     7441     3675    -3533    -8527    -7476    -2112     2746 
    6746    13177    25295    43084    61954    75878    78324    66955 
   46376    24430    12388    16593    31050    46621    54688    52977 
   54608    69261    84151    81501    62355    40123    22903    15541 
   20781    31823    41734    48935    45538    23788   -10562   -48610 
  -87462  -123350  -147256  -147766  -117765   -64642   -10874    23497 
   34307    30340    21600    15485    28591    68918   109772   122979 
  108857    79331    46378    23619    20323    32859    51640    68938 
   73121    58902    36979    15048    -3985   -11041    -8410    -8195 
   -7425    -1893    -3272   -17984   -36861   -48119   -41614   -14861 
   19579    45129    50932    34319     5435   -18255   -24843   -16271 
   -1698    14422    30500    45229    55340    55724    49255    41766 
   36131    40803    59219    81782   105118   129711   144270   140720 
  122235    92598    60851    38551    24909    16446    17708    24134 
   26197    32314    47451    57434    57225    53511    46079    33271 
   20989    15330    16544    31450    68351   109573   131546   130998 
  104343    54594      897   -47812   -88226  -108558  -104027   -86016 
  -63928   -30146    18275    67946   111289   147127   168946   174448 
  168186   147778   109621    63876    17947   -35465   -96673  -148082 
 -171028  -163777  -136402   -98916   -62032   -30489      533    32340 
   59647    78505    86320    79552    62881    50533    49210    56557 
   68859    75025    62342    32862      174   -24010   -35662   -40536 
  -47609   -58133   -67575   -72851   -73774   -68882   -51851   -20319 
   16608    48050    63807    53265    22657    -8340   -32947   -55394 
  -72137   -78690   -82182   -84019   -78864   -72268   -65009   -49734 
  -27528    -2257    23243    47115    70611    92211   110865   128679 
  140391   135266   109040    64800     9134   -49332  -102862  -141310 
 -153368  -142264  -114317   -63165     5728    72767   129127   168126 
  177518   161074   133731    97118    52074     7541   -37538   -84631 
 -118325  -120581   -91501   -49986    -9910    29603    63796    81908 
   81276    64289    33348   -12038   -62816   -93954   -95929   -77364 
  -43132     1651    52385    94373   111427   118223   122467   112953 
  104716   102594    84017    54615    34611    24196    20994    26473 
   39630    63108    94670   122480   140912   141952   116718    73698 
   19592   -37194   -75120   -87145   -78492   -53954   -23737     1790 
   14515    10939    -6184   -29597   -44458   -41268   -22288     7964 
   34062    40260    32122    21297    13699     5101   -12966   -31533 
  -43465   -57208   -72563   -86388   -97744   -92753   -62905   -15508 
   37735    73893    85464    93588    95642    68386    10120   -66041 
 -141416  -190912  -194922  -155204   -97251   -45190     -223    48500 
  101961   144066   159533   154471   146821   140050   124181    96377 
   59941    22502   -10452   -48319   -90735  -122640  -135662  -120218 
  -78432   -31607    12990    57027    91942   112675   116247    95176 
   49369   -10206   -67596  -110360  -132312  -128113   -98890   -55674 
   -9140    30011    48175    40713    18918    -3411   -22579   -37026 
  -43801   -42539   -31706   -14522     2260    20800    43929    66192 
   76922    64311    29715   -11104   -46161   -69081   -79884   -88011 
  -96590   -98545   -89083   -69191   -39029     5477    65835   140264 
  218348   275952   299491   293195   258065   193154   103816    -1147 
 -110900  -211885  -283506  -306783  -285479  -241139  -184685  -111561 
  -28052    47567   110387   156525   173178   164350   142523   107526 
   57534     4222   -30368   -38551   -32963   -29987   -37467   -46908 
  -50522   -51559   -50084   -46288   -41613   -28445     2348    52088 
  112805   165410   185809   157593    90224    15880   -38958   -59066 
  -42447    -8247    19001    30851    41833    66261    95198   111097 
  105576    82504    50958    17294    -8521    -9629    19870    60235 
   91788   111574   117336   105274    71384    24793   -20361   -65112 
  -98483  -107768   -99218   -80018   -54585   -15160    38213    77337 
   83148    61766    30084     3458   -14164   -28364   -44142   -55906 
  -55637   -46030   -34500   -25011   -14556     3894    28217    51909 
   75032    96933   117787   135853   139991   120831    72456     -157 
  -68868  -107581  -107998   -68858    -9564    35385    60017    73263 
   70241    56901    35297    -2737   -42143   -70444   -80600   -58381 
  -16971    19440    42798    45928    32659    25769    25463     9117 
  -20250   -55593   -98513  -127691  -127963  -105417   -72140   -43864 
  -17667    12802    33504    39270    40612    42772    45041    51025 
   57636    49116    26461     4894    -9827   -19794   -35116   -60942 
  -86236   -96467   -82064   -47087    -4792    39121    82703   121107 
  147930   163793   174175   169516   141820   100368    50734     1708 
  -29459   -42121   -45814   -37922   -17207     7472    37198    76301 
  112730   134699   147932   159114   160069   146469   127733   104000 
   69973    33116     2442   -18347   -25410   -19243   -10313    -5471 
     349     1518   -11815   -22391   -15339    -6097    -1999     3805 
    3745    -6988   -15687   -16181   -18649   -28704   -39263   -47309 
  -53395   -53937   -49534   -40208   -21137      993    11438    15790 
   30831    53985    78925   104355   117557   111660    96670    80801 
   64309    46018    26411     8493    -1870    -1645     6245    20424 
   38162    51296    58918    62428    55134    35344     9277   -13940 
  -20961    -8475     5488     5693    -1226    -5638    -3734     9471 
   33677    59385    73576    67805    43306     4953   -46434  -104583 
 -151819  -175895  -177025  -156119  -109940   -42839    27288    85407 
  126707   145267   137713   115036    92872    74016    52031    26950 
    1391   -25038   -42431   -39338   -23695    -6911     9359    17301 
   11800     3799    -2832   -17053   -39838   -63103   -79758   -82832 
  -62532   -15633    43028    93825   126052   131286   112366    86520 
   65612    51201    38235    19421    -6775   -33665   -50810   -53268 
  -43970   -25149     1484    26688    41779    44369    35318    21110 
    7866     1390     2957     3341     4390    12665    21306    28386 
   33533    29567    21057    16771    12282     3255    -7066   -19003 
  -33130   -39250   -24508     7730    43761    78061   105500   120536 
  128492   129794   118067   100826    87403    76831    71131    68363 
   60472    49628    39172    26500    12355    -3148   -17676   -22181 
  -12351    11377    44408    73820    89162    88843    76579    58144 
   39350    23317     8486    -4422   -11097   -10766    -7663    -8308 
  -16080   -31128   -52945   -79840  -109612  -134106  -139321  -119384 
  -80060   -29006    26415    74392   103497   110511    95020    55926 
    3918   -38268   -57391   -55741   -40493   -20080    -3390     3230 
    1506    -3249   -11098   -18269   -14240     2946    25384    48137 
   66039    68972    56793    39135    19501     2592     -298     8174 
   13411    11593     5494    -4001   -12926   -15051    -8314     2205 
   11184    13753      224   -29809   -60065   -76499   -77225   -65153 
  -45920   -26887    -7951    15086    38825    55700    61124    56123 
   45403    35303    31046    26626    14761      802   -10689   -19068 
  -20052   -11330     4569    22759    41389    60224    70626    69309 
   67923    69797    69976    73436    84288    93551    89130    68266 
   38961    12331    -6420   -19753   -32317   -45575   -52977   -43446 
  -15045    20025    47267    68116    93177   118456   133123   132676 
  113648    77154    29185   -19287   -53317   -67530   -62162   -40744 
  -12295    22063    60291    92251   115275   129686   128165   106715 
   73647    36008    -5183   -41242   -62491   -68364   -55880   -21949 
   18912    46735    59622    63048    57644    44309    22600    -7368 
  -40042   -69200   -89762   -92917   -72875   -35928    11861    68721 
  121772   156698   171998   164586   133793    89941    38651   -11416 
  -43160   -51769   -44561   -27614    -5791    14895    32470    43746 
   42037    32440    22999    13225     4611    -4626   -16453   -24260 
  -29916   -38104   -41887   -38524   -30707   -16341     3837    22942 
   38413    52132    59360    56433    47662    33879    17327     3045 
  -10812   -20201   -18075    -5624    18633    49989    75276    91830 
  102577   108528   108754    97405    73044    41776     6018   -34204 
  -73594  -105308  -125766  -131121  -119684   -95507   -59611   -15717 
   26118    64128    95676   112535   116881   112565    97983    78012 
   55821    24507   -16683   -59181   -96352  -123199  -136550  -140606 
 -144008  -147236  -143971  -134845  -122542  -107268   -90907   -71047 
  -44528   -13888    19122    54375    89085   116772   131843   133970 
  122710    94675    51028     3227   -38054   -73361  -104384  -128428 
 -143073  -147324  -140718  -125313  -108276   -91503   -70329   -45044 
  -13408    31709    91349   155114   201809   217401   204894   171462 
  124969    74032    25257   -16477   -50462   -71888   -72568   -53618 
  -18389    24520    57716    73028    68799    47076    20192    -4023 
  -21466   -21258     1196    39905    83811   121380   150012   171151 
