Origin Time       2011/03/11 14:46:00
Lat.              38.103
Long.             142.860
Depth. (km)       24
Mag.              9.0
Station Code      SIT012
Station Lat.      35.8403
Station Long.     139.3216
Station Height(m) 87
Record Time       2011/03/11 14:47:43
Sampling Freq(Hz) 100Hz
Duration Time(s)  266
Dir.              U-D
Scale Factor      3920(gal)/6182761
Max. Acc. (gal)   25.988
Last Correction   2011/03/11 14:47:28
Memo.             
[...]
   -7653   -11121   -13800   -11119    -6085    -3475    -2030     2175 
    4049     -772    -2008     4990     6423    -1951    -4695     -961 
   -6670   -16450   -17807   -20328   -26894   -24755   -13973    -3804 
    2495     6853    11092    12116     9182     5696    -1189    -9887 
  -10515    -8067   -11832   -11840    -3995    -1666    -6622    -8479 
   -3517     1300    -3121   -10016    -8443    -5837    -8204   -10421 
  -11877   -10473    -4859    -1890      461     6962    10392     9220 
    7410     2092    -4894    -7528    -6286    -5529    -7291    -7982 
   -8358   -13218   -14953   -10865   -13449   -17573   -10776    -4197 
   -3699      741     4589     2943     7020    14205    10784     5156 
    9318    13369    10105     6304     5760     7990     8926     5118 
    2028      399    -5946   -13817   -17718   -20592   -24590   -26055 
  -24376   -22454   -17380    -8254    -4942   -10219   -11912    -4577 
     752    -3478    -6127      775     3752    -2849    -4996    -1063 
   -1538    -4681    -2342     4095     5104     1128     1720     1255 
   -7202   -11857    -9696   -12203   -17259   -14794   -10277   -14064 
  -16262    -6383     -847    -7941    -7891     3285     8081     4820 
    3734     4595     3242     1695      101    -4343    -5296     2017 
    4885    -3135    -8274    -5792    -5655    -9248   -12305   -14502 
  -12721    -7262    -6999   -11054   -10411    -8945   -11650   -12217 
   -9665    -6907    -2625     -762    -3260    -3212     -497     -856 
   -2437    -1900    -1383    -1562      657     3223     -947    -6283 
   -2544     -866    -8235    -9755    -6635    -8977    -8473    -3538 
    -417     4454     7629     3113      -53     3838     7127     6343 
    5554     6102     5181      322    -5209    -6888    -9884   -17032 
  -17401    -9572    -8279   -14129   -12279    -3337    -1455    -5909 
   -6379    -5990    -9632   -10974    -9291    -8579    -5737    -3573 
   -6954    -8906    -7852    -8622    -7905    -7175    -9845    -9213 
   -6630    -8018    -7369    -4325    -5609    -7343    -6890   -10487 
  -15443   -14582   -14303   -17841   -15647    -9279    -8547   -11395 
   -9821    -5006    -5575    -8036    -3150     -873    -7433    -7138 
    -433    -3322    -7807     -848     7310     5747    -1063    -5438 
   -7247   -11453   -17679   -19879   -15608    -8109    -2124     2038 
    5369     1644    -8075   -11203   -10152   -13796   -14680    -9117 
   -4679    -2113     -247    -1036    -2045    -2297    -5183    -9465 
  -10621    -8396    -5399    -2536       25     1088       53    -2865 
   -6795    -8509    -4371     2840     3816    -2610    -4188     1945 
    2082    -4252    -3973     -216      938     4694     6780     4645 
    8083    10507     1815    -3900     -987    -1578    -2477    -1336 
   -8830   -15585    -9943    -9453   -18880   -16646    -5839    -4206 
   -4296     1555     4418     1785    -1437    -4142    -6756    -8440 
   -9517   -11418   -12438    -9815    -4509      640     3094     5432 
   11152    11126     3459     5004    12863    10750     8206    13098 
   11333     3943     3660     2640    -4292    -3948    -2088   -13012 
  -20642   -14421   -12541   -17257   -15253   -10512    -9025    -8009 
  -10195   -14023   -11424    -7784    -9201    -7193    -1659     -338 
    2586     7697     3403    -4046    -1634     1050    -6404   -13475 
  -12157   -11122   -14859   -15437    -9224    -3329    -3130    -2363 
    4128     9734    12448    16504    15920     5461    -3430    -1619 
    -626    -7762   -11957   -10985   -11151   -11270   -12755   -17509 
  -21605   -20687   -14266   -12280   -16697   -11247      227    -2987 
  -12821    -9888    -1617    -3733   -10288    -7044      853     4198 
    7006     6479     1454     3364     6873      427    -7396   -10213 
  -12269   -14625   -17757   -20157   -20078   -21626   -22068   -15133 
   -8906    -9094    -7945    -4667    -2432      800      921    -4460 
   -6162     -886     1232    -4749   -11357   -14571   -14679   -11183 
  -12262   -19584   -17150    -4426     1534      350     -319    -1458 
   -1205     -417    -3815    -6430    -7463   -12169   -16203   -18048 
  -19698   -17952   -17668   -21432   -19111   -13613   -16257   -16597 
   -3847     4137    -3166    -7126    -2257    -1371     -992     5606 
    9927     9741    11836    13060    11463    13979    15467     7921 
     -52    -2581    -5598   -11795   -16878   -17452   -17372   -18531 
  -17168   -17923   -22645   -18327    -6921    -5124    -6124     2785 
    9426     5808     4061     7325     4142    -5721    -9280    -6885 
   -9599   -12808    -9270    -7674   -11066   -12812   -15418   -19392 
  -16846   -11249   -10804   -10202    -5417    -3061    -2170     2831 
    5212     2230     4209     8169     4391     3519     9364     3606 
  -10269   -11105    -7894   -16616   -22733   -18531   -20235   -25502 
  -19223    -8514    -4647    -4926    -5720    -5654    -5701   -10299 
  -15650   -10728     1426     6419     4961     7055     9524     6111 
     729    -3423    -9611   -15887   -14036    -7403    -7644    -8812 
    1718     9957      282    -7645     -791     -196   -10900   -15005 
  -10481    -5172    -3228    -5837    -5207      564     -744    -7503 
   -5748    -1081    -5226    -9227    -4660     -991    -5785   -11585 
   -7948    -1010    -3319    -8729    -8736    -8712    -9929    -7464 
   -1500     3692     6186     7764     6971     2684    -1052    -4540 
   -8436    -9484   -11649   -16820   -16218   -10528    -9977   -11781 
   -8289    -5271    -8404    -9959    -3690     1624    -1396     -915 
    8244     7295    -5387    -6635     1157    -4668   -18607   -20317 
  -13500   -12487   -15063   -12288    -7644    -7868    -9350    -9862 
  -12691   -15500   -15911   -14868   -11938   -10856   -13393   -11018 
   -1760     1208    -4417    -2117     5340     -659    -8222     -958 
    4021    -2488    -6049    -6067   -11131   -16853   -18979   -19797 
  -16084    -6768    -1854    -4322    -5207    -4404    -7628   -12282 
  -15925   -16724   -11670    -6410    -4902    -3561    -4005    -6338 
   -6393    -7831   -12064   -10021      485     8449     7479     3841 
    1771     -541     -549     3080     5719     5266     2789      110 
   -3668   -10116   -11985    -7534    -8201   -12329    -8264      -40 
    3824     3029    -3031    -9467    -8172    -5528    -6402    -1428 
    5551     2250    -3468    -2614    -2138    -4700    -6086    -8314 
  -13777   -17106   -13031    -5350    -2870    -7124    -9066    -5865 
   -7667   -14523   -14894   -10371    -9261   -10335    -8647    -2449 
    2255     -992    -4964    -2846    -1861    -3442      924     7947 
    7039     1047     -621    -1760   -10381   -18368   -14571    -5117 
   -1931    -3945    -2143     1217    -3599   -13355   -18592   -19923 
  -21907   -21569   -12796    -2200     -294      588     7528     8812 
     986    -1905     1833      996      -38     3637    -1787   -13197 
  -13308   -12114   -19266   -20164   -13008    -8491    -4394     1727 
    4304      -66    -7148    -7990    -4879    -6521    -6901    -2077 
   -3601   -11132   -10144    -3092    -4600   -10570    -7326    -1328 
   -4573    -7943    -4250    -3523    -5097    -2685    -4365   -11503 
  -14176   -12477   -12661   -13556   -11087   -11118   -18716   -21771 
  -15927   -13740   -14922   -14120   -15993   -18937   -17166   -12918 
  -12267   -13356    -8126    -3325    -8580   -13137   -12082   -12952 
  -13679   -14836   -18551   -17128   -10739    -7244    -9303   -11999 
   -7058    -1360    -6267   -13197   -14089   -11652    -8673   -11901 
  -16991   -12131    -8098   -13364   -12383    -3166     -625    -2412 
    1956     9266    12702    11268     6906     1554    -4897    -9756 
   -7659    -3088    -5058    -6412     1214     3272    -6377    -8183 
     149     -130   -10733   -17668   -15928   -14114   -17343   -21621 
  -26671   -30328   -25615   -18007   -16486   -14134    -3338     8016 
   10592     6833     4577     5531     2579    -5522    -9121    -7822 
   -8384    -8572    -8042    -9504    -8926    -8038   -12081   -13584 
   -6700      496     1633    -1524    -4998    -6013    -8587   -16360 
  -20517   -15164    -8638    -4098     1873     4747     3786     4370 
    1618    -8428   -17957   -23350   -26508   -25217   -20007   -16195 
  -12423    -3835     1238    -5409    -9668    -4471    -6287   -15122 
  -13652    -4625    -4143   -11770   -13836   -12348   -19726   -27214 
  -21896   -14621   -13992   -10618    -3390    -2109    -5226    -3498 
    1481     -124    -8371   -12463    -9668    -7301    -7404    -8864 
  -11971   -10297    -3429    -4943   -12701   -13844   -15537   -21772 
  -21668   -17415   -15862   -13068    -8569    -7177    -4772     6256 
   14922     5195    -8986    -6227     2479    -3075   -15721   -15686 
   -8447   -13489   -20615   -14202    -9863   -11767    -4693     1915 
   -2457    -4498     -819     -830    -2102      254     -159    -3706 
    1462     9637     3606    -5390    -2788    -2490    -9878   -14300 
  -15781   -16780   -18991   -23841   -24370   -21363   -21316   -18766 
  -12755   -10498   -11130   -11631   -11864   -12420   -16553   -23394 
  -25798   -22540   -19067   -16304   -11595    -5592      231     8058 
   15560    12904     4804     7285    12848     4621    -8508   -12877 
  -13893   -15846   -11273     -883     3943     3751     8344    14542 
   12332     3618    -2030    -3159    -7036   -14468   -18397   -19712 
  -21657   -17173    -6986    -5296   -11337    -7807     4306     4709 
   -4002     -843     5571    -4683   -19024   -22240   -25634   -35321 
  -37970   -26874   -11158    -2947    -5192    -8712    -9984   -18473 
  -30983   -33226   -29856   -30419   -27130   -18056   -13248   -11595 
   -6879    -1619      115    -2623    -5852    -2917     2132     2345 
    2918     3358    -1507    -3766    -4432   -11352   -14621   -11577 
  -12237   -10898    -3423    -2042    -9132   -16386   -21296   -21087 
  -14628   -10435   -12343   -11261    -2947     3349     2223      820 
    4759    10047     9951     3366    -4084    -9192   -13809   -16288 
  -15220   -14128   -11381    -2855     5315     5802     4920     7596 
    3154    -9071   -13835   -11728   -11521   -10410    -9789   -12703 
  -13648   -13418   -16676   -21294   -23490   -19424    -9983     -996 
    6228     9781     7297     5137     6420     4659     -721    -3584 
   -2838    -1802    -2978    -6422    -7914    -3978    -2451   -13014 
  -26533   -27862   -21986   -17642    -8411     3313     6537     8081 
   11494     3340   -11232   -12308    -5840   -11784   -24720   -23050 
   -7354      511    -5505    -6533     7019    14252      471   -10144 
   -2948     -496    -4896     -316     1640    -5470   -10192   -11883 
  -11406   -11996   -17894   -18267   -11652    -9216    -6419     2621 
    7827     2238    -3320    -1040    -2901    -8563    -2618     3415 
   -4084    -7533    -1337    -1425    -3387     3289     6602     1407 
    1485     4880    -1001    -7122    -3058    -1371    -8777   -13010 
   -9951    -6986    -7978   -12530   -15177    -9947     -398     5704 
    5673     4646     7863     8261      160    -5613    -2233      106 
   -6639   -15246   -17889   -18543   -15987    -4060     2437    -7746 
  -12661    -5389   -10701   -23121   -18185   -11183   -19003   -21663 
  -11667    -9070   -16872   -18313   -11342    -9432   -14060   -13520 
   -4395     3956     1225    -7002    -6002       10     2160     8130 
   18109    21713    21179    22329    18312     4267    -6218     -764 
    6435     -387    -5954     3600     9560      954    -3177     5853 
   13496     9199    -2073    -7653    -6936   -13450   -23585   -20519 
  -12006   -12237    -9239     2772     5612    -3381    -8907    -9976 
  -10559    -3818     8383    13817    15488    19629    16343     8768 
   11893    14891     3707    -7981    -7231    -5110   -14574   -25874 
  -25718   -22786   -24593   -22699   -19413   -21657   -18572    -9229 
   -9925   -15965   -12996    -7220    -4405     -391     4138     9020 
   14147    15802    13155     7645     3249      -25    -6956   -13184 
  -11823    -4422     -151    -4735    -4967     2968    -1912   -15245 
  -13092    -5624   -10145   -13617    -7915    -7679   -15318   -17045 
  -14737   -16773   -13890    -5074    -2969     1000    14008    17456 
    6328    -3364    -4698    -3858    -7493   -12572   -13867   -11964 
   -7191    -4770    -7679    -4288     5659     7829     3737      608 
   -2480    -1260     4302     1599    -9202   -11844    -8396   -15372 
  -23757   -15958    -5834   -10613   -15809    -4730    11390    15683 
   12854    15599    18285     9560    -3177    -9252   -11221   -15251 
  -21993   -25026   -21520   -17797   -18168   -22240   -26427   -24581 
  -17036    -6997     8284    23277    24897    18804    18076    18790 
   16605    14003     8993     4240     5178     7213     6262     4532 
    -379   -11271   -20559   -22900   -22004   -14922    -5199   -10061 
  -19516   -12572    -7208   -16013   -15694    -1714     7984     9034 
    4707    -2020    -7958   -12411   -15642   -21634   -28230   -25149 
  -20370   -25123   -22495    -4676     7701    13096    22111    20935 
   11980    19874    29476    17744     9474    18608    15536    -7761 
  -22373   -14562    -2101    -8241   -25242   -23133   -13700   -29110 
  -46560   -36041   -19314   -18258   -21464   -14295    -2834     -978 
   -1969     3251     -273   -13894   -14104    -2793     -903    -6497 
   -9532    -6718     1959     1743    -9349    -6262     4577    -5697 
  -18780    -6300     4903   -13771   -30255   -13751     2411    -8487 
  -13452     1328     4760    -3658    -3255    -1501     -274    10153 
   14107     1326    -5756     2647     4941    -4879    -4307     5379 
   -1179   -16461   -20455   -23486   -30667   -29438   -23657   -23309 
  -20890    -7048     6575     1816   -13124   -15828    -4565     1872 
   -7411   -11738     5809    15840    -2376   -19692   -19773   -23324 
  -32766   -29755   -23649   -28357   -22027     -970      240   -13077 
   -3148    16482    10419    -3141     7137    22262    14766     -491 
   -3868    -7233   -19653   -26318   -21853   -19178   -19888   -13524 
   -4838    -8119   -15302    -8484     3114     3291     2361     9624 
   11804     3510    -4937   -13509   -26197   -31351   -25389   -28920 
  -44382   -44322   -28294   -24192   -27443   -14318     6411    14127 
   13830    18195    19976    13021    13051    22774    23416    16655 
   16475    18160    13054     2180    -9775   -20011   -29847   -36768 
  -36090   -30816   -23028   -12635    -7341    -9900   -11404    -9654 
  -11012   -15479   -17924   -19411   -22772   -22048   -15462   -12190 
   -9773    -1040     4354     4159    10285    17356    14129    10104 
   13730    17968    19580    18508    14166    13771    16160     9950 
     711    -1088    -3866   -12261   -16387   -16215   -20681   -27586 
  -28057   -21696   -12216     -848     7392     9089     7036    -2594 
  -18793   -23721   -17676   -18008   -19758   -20373   -28654   -28877 
  -18551   -22289   -28426   -14368     1006     3873     9716    19242 
   15189     3945     6653    11878     -735   -13794   -13719   -17782 
  -24019   -17512    -9704    -6842      563     5034      150    -3110 
   -1844    -3673   -10073   -12535    -5872    -1949    -8865   -14950 
  -13713    -9218     -269     9162     7166    -2369    -2725     2423 
   -2504    -9092    -5889    -2253    -1608    -2074    -7090    -5690 
    7851    11819     2169     3227    10338     2062    -5921     1000 
    4852     3605     8852     8786    -2133    -5866    -1444    -4365 
   -8123    -2952    -4502   -18618   -25056   -17855   -12330   -14415 
  -15951    -9340      748      382    -8614   -10719   -11084   -21861 
  -29327   -22503   -16902   -20884   -21551   -14636   -10556   -11187 
  -12920   -14941    -9869     2658    10650    10816     6303     5043 
   16263    26923    24699    24855    31940    26332     5564    -7863 
   -6982    -8882   -14138   -10730    -8854   -16520   -19089   -12286 
  -10107   -14593   -13988   -10565   -16167   -26238   -28888   -23478 
  -15176    -6090     3267     6831     1714    -1000     1519      329 
     801     7048     5526    -7428   -20128   -28297   -31650   -23834 
  -11586   -11080   -13096    -2333     7649     4628     1602     8629 
   14970    10866     7068    11876    13575     6725     -675    -5264 
   -7109   -10542   -19229   -22092   -16746   -18733   -24010   -18997 
  -14837   -18863   -19425   -17883   -20099   -17132    -9295    -7469 
   -6444     4374    19056    25423    19539     9721     8789     9166 
   -4506   -16873   -13458   -13089   -22272   -26001   -25373   -25778 
  -23127   -21262   -24314   -22877   -14029   -10093    -9884    -2523 
     511    -8313   -12667   -11426   -11934    -4790     6608     7898 
    5553     7151     5579     2589     4501     2889    -6294    -8349 
    1132     4424    -2255    -2705     3020     3415     -422    -4843 
   -7259    -3731      157     -404     -999    -3899   -12045   -16095 
  -14114   -18646   -27744   -25326   -14339    -6686      -58     4630 
    1926    -2659    -4969    -7815    -8783    -3549     1231    -4043 
  -12000   -10449    -8104   -15623   -19627    -9996     -991     -349 
    3651    14799    24736    30537    30334    24699    23742    21877 
    7677      538     8373     5237    -6071    -5726    -9972   -24186 
  -21184    -7128    -8446   -11791    -2834     -936    -7837    -4576 
   -1377   -12264   -15203      923     6589    -6884    -9294     1144 
    -623    -8502    -6266    -1012      837     1140     -498    -2933 
   -8035   -16873   -16543    -3820    -1134   -14485   -20503   -14127 
  -12463   -13896    -8597    -7622   -15931   -17383    -9559    -3329 
    2376    10236    15386    14742    12177    13911    17000    15601 
   14193    17176    18847    12187      155    -8566   -11845   -12425 
  -14201   -17553   -13759    -5557   -10898   -26404   -29504   -20162 
  -20153   -29979   -25662    -8716    -4642   -10404    -6536     3142 
    5514     3499    10736    22877    20867    12562    14569    10268 
   -9396   -16105    -1972     3209    -4958     -657    13734    13785 
    1728    -1281     6332    10637    11488    14812    14340     8019 
    3011     -600    -3917    -3673    -3172    -6065    -7062    -6559 
  -11197   -15019   -11405    -8831   -10009    -7249    -3668    -4918 
   -5025     -229     5913    10093    10058     9251    10094     4484 
   -6181    -8856    -5044    -3528    -3028      377     5891     8925 
    8885     7782     1123    -9234   -12615   -11419   -14586   -17774 
  -13851    -6344    -3209    -7944   -14112   -12135    -4792      877 
    6922    13872    17061    15769    14004    13936    10851     5386 
    5984     7603     2194    -3315    -4966    -7470   -12972   -18931 
  -21888   -23254   -23709   -20150   -13844    -7634    -2872     -934 
    1163     5799     7050     -210    -9158    -8434    -1037     -244 
   -3759       49     7005     8142     4222    -2177    -5599    -1776 
    1260     -436     3681    13651    15612     9042     1825    -5039 
