Origin Time       2011/03/11 14:46:00
Lat.              38.103
Long.             142.860
Depth. (km)       24
Mag.              9.0
Station Code      SIT007
Station Lat.      36.0542
Station Long.     139.3933
Station Height(m) 26
Record Time       2011/03/11 14:47:29
Sampling Freq(Hz) 100Hz
Duration Time(s)  300
Dir.              N-S
Scale Factor      3920(gal)/6182761
Max. Acc. (gal)   119.773
Last Correction   2011/03/11 14:47:14
Memo.             
[...]
   19541     1703   -13555   -22808   -23768   -13732     1305    13630 
   24372    33185    34484    28398    24642    30945    38810    37715 
   32629    23232     -835   -32451   -54910   -64716   -63190   -49533 
  -27674    -5811    11704    27764    40664    38774    22619    10246 
    5766    -1603    -6091     2695    16543    24270    23329    19653 
   22130    26667    22898    12650     5195     7220    18233    28916 
   33588    33085    24869    14833    18747    37007    53233    57160 
   55721    57706    55412    39165    18409     9574    12587    13774 
    9375     9169    14831    16446    11991     9520    13740    20785 
   22268    16262     8374      142    -9666   -18869   -26181   -30407 
  -25345    -4621    26657    48816    50558    46380    46415    38305 
   19778     5303    -1537    -6794    -9722    -6701    -2165    -1888 
    2614    20836    37396    31307     7416   -20249   -45090   -53579 
  -38390   -19605   -13455    -6535    14147    37901    49346    44416 
   25208     -975   -21112   -26618   -20010    -5919    17311    45957 
   61702    50797    22506    -6525   -30399   -45551   -46243   -33247 
  -14285     2945    14072    15865     4937   -15754   -31254   -30184 
  -19820    -8332     9445    33302    50290    57558    64226    66340 
   52042    29299    17798    18482    18700    19143    25506    29191 
   26114    26772    28329    16413    -2671   -14593   -25599   -40085 
  -40050   -15646    17405    43696    61269    67087    53521    23207 
   -7722   -26887   -37051   -45639   -48830   -36951   -13301     7468 
   14529     8948     2433     1426     1583     2822     6534     7560 
    5650     2896    -5973   -20404   -29876   -30083   -24524   -12266 
    9674    31776    40406    41631    47947    53295    49853    43590 
   38803    30191    15267     2038    -4178    -9655   -19566   -28146 
  -30262   -32121   -33762   -24624    -8207     3801    12415    20030 
   21667    19251    20778    25778    25560    12241   -10429   -29614 
  -39176   -38949   -29672   -15551     -940    11266    17814    19973 
   28066    46154    58550    57574    58489    64223    62118    55471 
   52261    48531    45423    45668    40145    26290    15700    11385 
    5577    -1062    -3416    -4103    -5862    -8074   -12769   -16601 
  -11789    -3510      993     5584    10505    10414     1883   -10878 
  -13927    -3276    11975    30053    47994    51897    42501    36788 
   36899    29359     6545   -21718   -39751   -47830   -50768   -44260 
  -30378   -15548     3992    27163    37536    31919    27224    26641 
   19486     5778    -8275   -20035   -27798   -30590   -30366   -30875 
  -31761   -28414   -19415    -7679     2512     7968    10109    11589 
   11413    11008    18499    39824    69812    94239   102595    99768 
   93292    77212    49300    19649    -8312   -32318   -40397   -30464 
  -16424    -6442     3912    16523    25906    28084    22354    12034 
    5001     3999     4977     5092     3588     3880    10861    18470 
   19094    15726     6607    -9093   -17841   -17355   -19890   -22790 
  -15913    -5282    -2067    -4029    -3263    -1314    -5057   -12456 
  -17279   -21730   -28194   -30124   -23390   -15456   -15462   -22274 
  -24059    -9655    15851    37409    51703    61405    57895    38004 
   18127     9073     5952     6043     8433     8911     6300     1069 
   -4810    -4278     5650    19052    32125    44399    51267    48073 
   35649    18924     2016   -13776   -23305   -18616    -1787    14068 
   21639    28007    39232    50231    55027    51740    40641    25644 
   14326    13133    18569    21594    22752    26103    25067    12622 
   -6599   -27158   -44981   -49144   -36711   -18035      629    18059 
   32042    40693    43390    39482    24538    -2838   -32668   -54422 
  -64423   -58082   -35556    -9504    11380    26328    29006    16725 
   -1133   -17092   -29496   -30254   -13292     8113    24267    41592 
   52077    43753    29659    22134    16020    11476    17695    32738 
   42664    44226    45220    46362    46124    46279    46831    49505 
   52137    45062    26764     2888   -22878   -41428   -45719   -43493 
  -42853   -37123   -16784     9054    21579    22443    28720    41846 
   47661    42493    37163    38442    41876    39194    30434    22897 
   13716    -3982   -23097   -33072   -33165   -27041   -16414    -2816 
    7546     5073    -8775   -16497    -8775     4065    11832    15713 
   22165    33498    45083    51570    50802    45977    42312    36266 
   20658    -3179   -29533   -49116   -51178   -37020   -14830    11285 
   41075    73037    91087    77702    41271     5026   -13029    -6085 
   17222    41139    55855    57914    45848    20487   -11443   -37325 
  -46694   -38972   -20457     -281     9292     3504    -9918   -23728 
  -32158   -31559   -27003   -19921    -8031     1449     3252     2490 
    4572    12330    23972    30621    29601    27913    25050    17287 
   13910    22586    33852    38934    43334    50754    51574    35966 
    9990    -7978    -9851    -4982      449     5995     2304   -15144 
  -32455   -40977   -49836   -59829   -58167   -44677   -28668   -10545 
    8507    17105     9121    -3430    -6592    -3258    -1550    -1797 
   -1791     4177    21773    43655    60667    74849    85331    82163 
   61731    36848    21038     8728    -5141    -5552    10816    21799 
   16965     7164     1489      163    -3214   -11457   -18536   -23700 
  -26785   -19803    -4723     7819    14603    13880     3823    -9978 
  -21150   -27467   -26481   -14994     3196    13669     8574    -5345 
  -19348   -22848    -7954    16758    34788    40036    39667    37312 
   24307     3455    -5119     1015     3104    -4477    -9530    -5912 
   -4677   -13252   -15849    -4851    -3802   -23716   -41807   -44905 
  -43732   -42011   -33729   -20110    -4299    15055    32402    35161 
   23374    11616    12136    24824    36045    35351    29474    26309 
   25315    24812    22465    19631    20846    23678    26285    31043 
   32022    23003     7709    -9261   -23194   -26160   -12976    13180 
   38968    51388    49323    31881    -3385   -38121   -47675   -36688 
  -21335     -619    24853    43742    53701    58164    55789    45646 
   30874    18381    11248     4849      709     7282    20471    23907 
    8314   -17535   -33884   -32522   -22120   -10017      375     2494 
   -7053   -22037   -31834   -35271   -40853   -46600   -42742   -35071 
  -34065   -33751   -26301   -15685    -5348     7118    21197    34619 
   49874    67153    77192    74773    67759    62358    59140    58785 
   56447    45700    28225    11866     2677      735     5717    16662 
   25632    26466    21729    15957    14232    19017    24924    26781 
   25844    24843    23048    17271     7352    -3565   -14441   -22084 
  -17509    -1402    14247    26585    37093    36341    19312    -2986 
  -22757   -41524   -52455   -44468   -20764     5515    22718    22842 
    5807   -24122   -60420   -84494   -84591   -75891   -68664   -52146 
  -29471   -18342   -13607    -1972     6907     9646    24169    51849 
   68319    56926    29614     5727   -11811   -19584    -7608    16832 
   34143    36095    27208    16121     8475     3432     3645    19170 
   50294    77871    82129    63355    34059     8979     1873     5437 
   -1153   -16883   -25869   -20781    -4208    15985    34227    45817 
   46307    39614    30513    19043     9420     6317     4426     -608 
    -119    12217    25764    24094     5822   -16395   -37226   -57140 
  -67590   -61452   -42789   -17407     8760    26032    26460    10925 
   -4273       15    16487    23978    21796    16348     4800    -8437 
  -14557   -15969   -19048   -20099    -7872    17111    41138    57137 
   63596    57381    41260    24121    12936     5575    -3729    -9488 
   -1052    18412    35520    43708    42460    34381    29963    31628 
   24603      851   -25109   -30439   -12985     7393    22117    34728 
   36345    22418    10588    14233    29890    50453    69058    81328 
   78427    51854    15335   -12557   -25652   -17805     4317    16284 
    7624    -7324   -12487    -5802     7170    21084    35749    53792 
   61591    37325    -8880   -42882   -53513   -53368   -48128   -33003 
  -10475     9845    29302    52820    72480    79696    77211    72083 
   61919    39714    15556     6058     6147     -251    -9703    -7671 
   -1223    -4798    -7609     3579    19103    30647    43391    52313 
   42901    21983    12065    13949     9721    -1641    -4148     -229 
  -11583   -38168   -52287   -38629   -10903    14734    35730    46716 
   35591     4707   -26194   -43358   -45254   -31578    -9205     6675 
   10637    10508    13594    17546    16174    16781    35043    66140 
   87954    89520    77592    64010    48399    22681    -9199   -41775 
  -73628   -86123   -62079   -21113    10816    38387    67790    85736 
   82046    59921    29523    -2630   -38800   -67883   -61321   -19297 
   17492    21899     3507   -26641   -68479  -107513  -121823  -114662 
 -101100   -77483   -38512      594    20815    19619     8655    -2894 
  -13358   -15354    -1813    17311    32230    49925    72951    88325 
   90659    93792   103261    95725    55743    12873     6823    35987 
   65942    71762    56220    33021     6473   -26545   -65998   -97894 
  -97137   -63722   -30972   -18430   -13654       23    23841    45817 
   54453    46675    25401     2741    -4462     2939     9817     9089 
   -1839   -17099   -18598    -8992    -7012    -5266    10656    31323 
   49513    72701   100608   117873   107847    74792    44586    22961 
  -17474   -74561   -94973   -57612   -12236     -447     -994    25380 
   74914   109066   110773    86791    38335   -16097   -40353   -32662 
  -22029   -11337    22693    72367    96561    78269    37603    -3328 
  -32089   -37556   -15033    22591    50268    62430    75455    78216 
   40650   -27209   -88221  -117171  -103646   -52898    14237    62994 
   67797    48018    33102    10281   -37303   -85587   -99643   -77246 
  -46119   -19515    11371    36497    36115    19471    12145    17526 
   18686    20340    45392    85549   109002   111000   113158   120243 
  116931   103310    90233    70626    34978    -1442   -16314    -8281 
    6752    12711    12365    23184    41456    40615     9144   -39319 
  -82429  -100248   -87380   -54920   -15142    21310    40932    40993 
   33301    20210    -4003   -25304   -21523     1025    12549     3900 
   -9816   -25553   -37625   -18748    35120    86125   104194   101081 
   99491    91303    57496    12775   -13356   -13517    12886    58618 
   85349    61354     5292   -44559   -75660   -96111  -110522  -112735 
  -93304   -61697   -48710   -64332   -81762   -79914   -65486   -47772 
  -23339     8852    30117    23195    11846    31682    73244   105276 
  118085   116683   104160    76406    31724   -17112   -55294   -79751 
  -90720   -81633   -45624     7686    46947    46692    16841   -12434 
  -24831   -33936   -59456   -83534   -73658   -34209    12052    48769 
   64035    68584    81878    92129    74618    33997     3205     5012 
   25811    37586    34057    26489    12273   -19185   -54990   -71845 
  -66720   -54750   -49695   -45857   -32795   -18891    -8932     4736 
   22852    46392    75287    99429   113324   117356   103222    62815 
   11577   -24914   -46580   -67778   -87463   -98986  -101435   -89570 
  -58053   -11446    40991    87626   115859   124401   118454    88782 
   28052   -36426   -65199   -48718    -5706    35402    60141    86458 
  125013   145685   126284    87525    58033    38666    12946   -15239 
  -33127   -60784  -110875  -144085  -127805   -79070   -25298    19936 
   47259    58348    64251    61321    41503    20023    14390    19015 
   25348    28322    20038     9225     8527    13022    19442    27902 
   32137    27959    21817    17098     -620   -24068   -22225    -8426 
  -19087   -39971   -33432     2053    44436    73959    78318    61202 
   27445   -24851   -78979  -105925   -99643   -77451   -45864     5866 
   73218   134842   176405   190174   178733   150641   101968    37883 
  -20912   -68001   -97827   -96705   -70491   -36701   -12575   -14924 
  -30327   -28339   -11654    -5284   -17661   -31333   -30703   -30354 
  -43638   -51880   -43646   -36283   -42607   -60446   -75497   -60528 
  -13234    31870    58934    80524    93055    82611    61570    57759 
   68851    61482    28604     3523    -3056   -18926   -46701   -52784 
  -28016    -8073   -19361   -35367   -20984    11935    31871    34459 
   33210    24371    -2461   -29891   -36610   -26188    -7021    13826 
   26912    29987    23835     8810    -8099   -14062     1892    32946 
   48668    33356     9681    -6991   -31245   -69630  -106920  -120784 
  -94763   -33238    42894   106136   131154   117922    84535    39661 
  -11700   -59214   -92999  -100892   -73510   -15156    58501   113882 
  114335    72388    34375    11974    -6523   -12792     4015    36244 
   68273    84923    77199    42372   -14750   -66573   -85479   -79474 
  -62965   -35430    -3427    21147    31743    28066    14611    -4292 
  -18274   -15475    -1567    10738    25371    47663    58923    42714 
   19872    20061    41226    63917    76146    73615    61669    47529 
   24181    -8913   -26884   -15190     8078    30719    73531   145514 
  198409   184381   122991    53248   -18678   -93791  -150156  -152184 
 -101453   -43448     8473    66634   103661    97734    70893    45549 
   27385     6615   -28344   -65163   -86313   -94041   -97941   -94364 
  -65724   -11146    37201    53896    50646    42718    29073    27552 
   60506   104555   124796   119762    92129    35193   -36334   -86180 
  -92965   -65346   -21966    18282    39472    49270    61169    63217 
   50039    45410    59440    62843    33746    -2727   -16034   -10684 
   -2329     6609    17354    24242    21158    10202    -1060    -8255 
  -11894   -16430   -25710   -33052   -32890   -34442   -39819   -30781 
    3574    44940    67949    77267    90519    86741    34781   -35250 
  -68477   -67746   -65130   -58316   -29484    13263    36533    26073 
   13447    18651    15837    -4288   -17585   -19813   -17838     5776 
   62432   123790   142101    99166    31043   -20512   -50547   -66660 
  -77560   -78532   -43744    14420    47511    48434    47523    52526 
   37732    -3672   -27443    -3618    33427    43968    37148    44826 
   73174    98493   106249   100764    79434    45676    20363     5540 
  -12291   -27994   -31747   -26078   -11278    16583    48340    61505 
   49338    30334    12167   -14021   -35326   -28755    -2992    25442 
   66000   113182   130143   107977    71294    33047     2578    -9242 
  -21717   -57066   -95252  -110202  -100576   -73385   -47158   -38833 
  -37759   -30281   -29803   -56349   -96880  -119982  -120693   -99430 
  -42141    32251    83825   118296   155962   170493   131276    55348 
  -16513   -59151   -81820   -97481   -86059   -43676    -6399    16088 
   43279    64906    61673    55903    66336    61043    19411   -22930 
  -32128   -23220   -20045   -14720     5425    35547    64720    83038 
   85675    69387    34831    -1111   -12717    10294    42563    54460 
   58277    69905    70927    43477    -4175   -41569   -44514   -21717 
    7931    31711    41195    53087    90375   135540   160516   168872 
  164924   140667    95957    30121   -47526  -104405  -113445   -73189 
  -16159    19610    41361    54976    32259   -10017   -25014   -15857 
   -2863    12879    32399    44223    27585    -9547   -33578   -32237 
  -17909    -5409     2076     8756    15495    22588    30896    36229 
   32304    26767    30893    28559     1024   -32229   -44853   -38880 
  -17809    24748    74979   103370   103810    93792    77097    46249 
   14345    -2942   -17995   -46712   -78152   -89395   -75925   -48473 
   -3751    64626   133190   169237   168741   151632   128454    85573 
   15275   -58659  -105536  -121673  -118204   -94249   -52354    -9586 
   23558    44947    50719    34415    -3136   -42170   -65942   -77917 
  -82456   -73679   -47412   -18104    -1797     3139    -6413   -30139 
  -45348   -42596   -38316   -34440   -16025     6975     9265    -6534 
  -18471   -17666   -11162    -1839    20590    55238    76348    68343 
   49351    40076    41096    50386    66444    78816    81573    76839 
   66334    57805    53484    35892    -1154   -37394   -59579   -66056 
  -48744    -9654    31014    59753    75257    72055    45432    12869 
     904     -620   -22877   -51561   -50856   -32424   -24139   -21206 
  -16623   -20025   -29769   -31132   -26113   -32468   -44509   -35040 
   -6469     9764     6392     4962    11602     8316   -11991   -36800 
  -60540   -82730   -83611   -38272    41813   109967   141742   157742 
  169428   153649   101822    43364     9942     6144    13603    15626 
   13472     8103   -13166   -53830   -97337  -123910  -126660  -116285 
 -101985   -72874   -20514    42264    96812   118607    84369     8377 
  -63931  -103073  -112695  -106375   -87363   -58157   -31045   -14625 
   -5685      999    10928    26305    37290    35111    23669     9958 
    3707    22236    67328   105199   106938    89868    79762    72497 
   60488    54346    66100    85585    85217    60992    37062    22273 
   11060     8440    13973    10661   -10263   -35631   -52588   -65486 
  -75977   -65670   -19850    43271    88525   101787    92797    73183 
   52172    37571    28607    21606    16184     9146    -1026    -6916 
   -3283     6475    21482    41533    56126    54110    39410    27278 
   22630    13745    -4788   -22964   -30824   -27250   -15975      474 
   19033    34356    41078    32886    10722   -14721   -38164   -53750 
  -49183   -30900   -19479   -14659     -852    22306    40722    45332 
   36283    18175    -5841   -37306   -70668   -85863   -69703   -34598 
   -2912    14297    19167    18675    19758    28487    40018    42327 
   42172    54091    67247    66505    61893    63816    64375    57372 
   49470    46182    46230    56608    83353   106503   105855    90334 
   70666    45678    21382     5579    -4714   -13553   -20087   -27600 
  -41977   -62334   -83529   -94996   -86622   -70747   -67789   -72923 
  -73347   -76179   -88227   -93505   -73213   -30741    12250    32785 
   25611    12050    13955    23781    23259    20243    35036    55844 
   52624    30373    13281     2264    -5779    -8782   -17241   -34935 
  -47774   -43216   -19773    11546    35815    49692    56637    52224 
   34028    18134    20978    37774    55975    71334    81976    84885 
   85348    86322    73541    40422     1232   -30427   -43236   -28805 
    1733    28444    44519    51253    45534    23939    -4747   -22125 
  -23124   -23113   -32174   -44444   -55091   -60443   -53990   -35938 
   -8697    24933    54590    73338    82654    78756    49247    -9533 
  -72734  -103358   -95601   -74307   -52433   -25341      576     6062 
  -15296   -42534   -51728   -44882   -33031   -15582     6040    19509 
   19520    19530    29888    42237    47813    46574    37632    20441 
     711   -13578   -18438   -13479     1189    20921    33282    28166 
