Origin Time       2011/03/11 14:46:00
Lat.              38.103
Long.             142.860
Depth. (km)       24
Mag.              9.0
Station Code      SIT002
Station Lat.      36.1478
Station Long.     139.3888
Station Height(m) 28
Record Time       2011/03/11 14:47:34
Sampling Freq(Hz) 100Hz
Duration Time(s)  300
Dir.              E-W
Scale Factor      3920(gal)/6182761
Max. Acc. (gal)   97.115
Last Correction   2011/03/11 14:47:19
Memo.             
[...]
   39173    37849    34446    27548    17106    10319     9191     7331 
    2492    -3064    -8266   -11533   -13033   -14719   -13077    -6817 
   -4668    -7797    -8116    -7444    -8178    -6214    -6281   -10990 
  -12075   -11310   -14686   -16259   -13844   -11886    -9059    -4705 
    -564     2673     2301    -1065    -4871    -9383   -11660   -10007 
   -6885    -1083     6618    10329    10862    11885     9572     5022 
    4685     2893    -3468    -4147     -515    -1934    -4173    -2802 
   -1873     -496     3812     6457     5033     3929     4282     1234 
   -5694   -12823   -22041   -31568   -33371   -31792   -33476   -31438 
  -23798   -15707    -5200     5078     7609     4394    -2579   -14269 
  -23516   -26334   -29349   -34134   -35871   -33424   -27321   -19102 
  -11709    -5471      314     7578    18455    28548    33404    34534 
   31303    23558    17434    15023     9676     -961    -8910    -9123 
   -6767    -6123    -6061    -8104   -13179   -16788   -18907   -22843 
  -25167   -22557   -18294   -15400   -13050    -9417    -4652     -319 
    4875    11530    14990    15290    17407    17848    13154     9873 
    9571     7466     5489     5629     5874     8040    10164     5827 
    -177    -1690    -5423   -13895   -20241   -25147   -31283   -34368 
  -36187   -42107   -47720   -47219   -41795   -36747   -36573   -37193 
  -33437   -31717   -36610   -41304   -41348   -37565   -30962   -24098 
  -18774   -17265   -21373   -26221   -29556   -35007   -39041   -38025 
  -36963   -34487   -26028   -20135   -22772   -24716   -20538   -14901 
   -9846    -4981    -2273     -424     4429     9747    10422     7917 
    6442     6681     8535    12225    13000     4426   -11250   -24861 
  -31997   -35415   -37465   -39856   -44235   -45272   -39481   -34764 
  -31968   -21347    -5454     4611     7373     7107     8274    13849 
   17953    12866     2946    -2878    -3798    -3673    -5430    -9912 
  -13541   -14105   -15812   -19868   -21875   -19342   -12460    -4405 
    1418     8261    19122    29877    35862    34432    28103    24646 
   22272    13315     1292    -8718   -17642   -24337   -30165   -36908 
  -37985   -29978   -17870    -4833     7566    17959    26525    29972 
   26541    23132    22466    17845     8982     2452     -677    -2334 
   -3184    -5107    -9152   -13313   -15290   -15695   -18204   -22985 
  -23862   -18830   -12558    -7272    -3248    -1473     -289     2131 
    2402    -3529   -11639   -15391   -18063   -25136   -31303   -30963 
  -28754   -28307   -26739   -24401   -22715   -16196    -2732     9361 
   14485    16009    15499     9740     1758    -1874    -6944   -22874 
  -41828   -51130   -53812   -55226   -50501   -39779   -31662   -26447 
  -17844    -5819     7196    19578    28182    33852    39356    42317 
   39484    29291    11759    -7268   -22624   -37009   -49765   -55095 
  -55512   -56450   -54934   -46445   -31599   -13668     3042    14445 
   20286    24796    29213    28919    23633    18388    12743     2927 
   -9758   -21492   -30722   -38628   -45937   -49232   -46543   -41641 
  -34232   -19915    -6015    -1253     4267    16320    23091    23462 
   26246    26283    16491     4643    -3912   -13862   -22264   -25265 
  -28516   -30919   -27860   -22505   -16443   -11484    -8526      173 
   13222    22038    31871    42186    41545    35280    31968    26803 
   20282    16381    11121     4589     2818     5828     8993    10079 
   10855    13008    14321    14177    15891    19580    21889    22126 
   21952    22299    22487    19600    12643     5140    -2136   -11774 
  -23154   -33930   -41886   -47130   -54030   -62366   -65130   -59829 
  -50306   -39099   -27106   -16265    -8310    -4439    -4498    -6787 
  -10427   -14275   -17481   -21244   -24533   -25873   -27651   -29738 
  -28447   -23432   -17459   -12540    -8520    -4251      744     6956 
   13712    17160    14822    10260     7852     6906     4498     -539 
   -6455   -10769   -15865   -25612   -36797   -43850   -45987   -43122 
  -34223   -21816   -10818    -3510     1363     5898    10457    13282 
   12550     9389     7248     5753     1446    -2789    -1931      304 
    -921    -3576    -6035    -8522    -9193    -8458    -8712    -8065 
   -2456     8311    19121    25397    30053    36690    41825    43658 
   43305    35486    18579     2112    -9592   -21318   -32861   -38916 
  -39475   -37950   -35042   -30592   -24007   -16070   -11253   -11138 
  -13703   -20324   -31668   -40414   -40917   -39480   -42757   -48691 
  -54383   -57265   -51999   -38731   -26738   -21164   -16209    -7657 
    1049     8447    15460    18322    16739    17712    22504    27734 
   32790    33950    27450    17878    11748    10092     9444     5593 
     169    -1565    -3152   -10972   -21201   -30525   -40832   -47999 
  -46585   -39130   -31953   -28153   -25884   -20935   -12570    -6125 
   -4524    -4069    -1624     2188     3952     2166      392     -233 
   -1791    -2882    -3131    -5811    -9811   -11907   -14488   -19568 
  -23732   -24502   -23661   -23005   -21451   -18710   -17637   -18723 
  -19059   -18888   -20029   -20462   -18267   -13938    -7086      173 
    2329     -195     -516     4397     9658     9249     5736     5583 
    7098     6025     5512     8513     9740     7060     7241     9443 
    7182     5108     7246     7311     3552      -30    -5247   -14752 
  -22724   -24438   -24633   -26383   -25909   -21056   -12282      773 
   16180    28606    33734    32203    30518    34239    40695    45566 
   48687    49066    46358    43769    44433    49667    54862    52090 
   41267    25413     4923   -13796   -25515   -37858   -55737   -70281 
  -74411   -71508   -65469   -56630   -47278   -40124   -33134   -24657 
  -19033   -19252   -22182   -26305   -32706   -38595   -41854   -44167 
  -42691   -35402   -31154   -33091   -31273   -24931   -21612   -21212 
  -24044   -31857   -37791   -37651   -38167   -42305   -46290   -49866 
  -51240   -46487   -40704   -39677   -39093   -35041   -29659   -24778 
  -19995   -13471    -4320     5019    11321    15622    23653    33793 
   36487    32839    29209    23598    17365    14726     7816   -10178 
  -27739   -34938   -37868   -38315   -30678   -17358    -1498    18200 
   35336    42707    46365    51528    52454    47043    39906    33949 
   30542    28169    22634    14454     8242     4547      611    -3397 
   -5887    -5066      209     2872    -4447   -13868   -14685   -10155 
   -8305   -10881   -16027   -19480   -15553    -6786    -4587   -14169 
  -27894   -38597   -48943   -58595   -61022   -59237   -59655   -57471 
  -48900   -40642   -35402   -28702   -23137   -22907   -22286   -18898 
  -18898   -22333   -24585   -26024   -26937   -24029   -16747    -8196 
     556    12078    26821    39936    48389    53891    57028    57152 
   54886    49842    42066    34875    29923    25896    21903    15661 
    6764    -1293    -9300   -19438   -26695   -28329   -30975   -36193 
  -35588   -26238   -14954    -8711    -8475    -9508    -7098    -1092 
    4459     5248     2314      -55    -3128   -12072   -24162   -31276 
  -33617   -36677   -40707   -41915   -38075   -30764   -22056   -14043 
  -11042   -11883    -9781    -7227   -13092   -24610   -31822   -33526 
  -32297   -26218   -15775    -6601    -3128    -4364    -4574     -369 
    4174     3023    -4955   -15166   -21324   -21593   -19893   -20181 
  -21607   -21720   -21606   -23495   -25557   -24455   -22341   -23324 
  -25901   -27434   -26879   -21110   -10361      284    10389    21329 
   30008    36964    43361    40985    27743    15313     6550    -5417 
  -18484   -28806   -38155   -44490   -46894   -50201   -52416   -47906 
  -41737   -40064   -38930   -33500   -23294   -11683    -5082    -4215 
   -4333    -5706   -12080   -22827   -34279   -44458   -52529   -58521 
  -63749   -66433   -63330   -56459   -48409   -38373   -30641   -29638 
  -26313   -15124    -8278   -11003   -13356   -12536   -14049   -16999 
  -18050   -20076   -23416   -22667   -16377    -4715    12585    29624 
   40475    45958    47859    48680    51515    52333    46847    40813 
   40375    45169    52721    57428    54220    47510    43120    39030 
   34360    30998    27792    24878    23039    20490    15998     9388 
    3585     3091     5698     7153     8428     7520     1431    -3454 
   -5096   -11431   -19231   -20361   -19945   -19512   -12759    -5709 
   -6057    -9266   -13551   -19166   -19088   -11579    -3352     2280 
    6357     8972     8188     2829    -4897   -12359   -19346   -23821 
  -22153   -17312   -15086   -12794    -5809     1521     4741     8349 
   15552    20774    19844    16030    12162     7294     1620    -2659 
   -5960   -10907   -14326   -10510    -3394       93     -676    -6702 
  -16945   -24342   -26316   -24122   -17326   -10484    -7490    -4271 
      39     2952     6393    10643    13038    13273    12045    10655 
   10493     9932     7530     4136     -327    -5323    -9404   -13947 
  -20362   -26280   -28318   -24997   -17534    -9394     -817    11662 
   26590    41033    55152    63524    61989    57490    53487    44637 
   29933    13024    -4264   -21299   -38474   -55211   -66936   -70559 
  -68675   -64108   -56385   -44976   -33025   -24594   -19360   -15642 
  -12282    -6943    -2827    -5503   -10556   -14157   -21518   -30907 
  -35994   -41332   -50170   -54181   -49301   -41433   -35549   -32601 
  -31786   -31793   -30722   -26343   -20204   -16309   -16077   -16666 
  -13061    -6330     -829     4518     8047     5854     3241     4699 
    4475    -2856   -16606   -30869   -37387   -36316   -34858   -34194 
  -30315   -20775    -8046      143      855      242      851     -804 
   -3870    -6345    -8442    -8132    -6262    -5483    -2822     3646 
   10267    14441    17281    20150    22033    20202    13669     5917 
     372    -5516   -14475   -22932   -27614   -28266   -24110   -19727 
  -20534   -20979   -17326   -15951   -18709   -21531   -21864   -17741 
  -10904    -6491    -5117    -3778    -1122     2639     6851    10630 
   12796    11429     4356    -6533   -14251   -15952   -15442   -14778 
  -13182   -10791    -6740      673     7574     7511     1654    -4201 
   -7154    -6738    -3529     1101     5968    10843    13938    11363 
    4732      405     -752    -1372    -2030    -1798     2730    11781 
   18276    19181    18926    18585    17311    18505    21445    21165 
   19618    19773    19611    20277    23621    26798    29536    34482 
   38493    37537    37922    46123    54031    52579    46111    40267 
   33920    26165    15763     -625   -18831   -28333   -28031   -24448 
  -19387   -13271    -7929    -2110     5074    11032    14027    14035 
   10616     5480     1412     -924     -959    -1578    -5853    -7728 
   -5752    -9549   -18758   -25097   -30874   -39553   -47450   -54324 
  -61020   -64354   -64477   -63524   -60261   -53672   -45703   -40124 
  -39075   -40097   -38727   -33398   -25818   -18835   -15739   -17089 
  -20361   -24896   -30033   -33767   -37584   -41612   -41096   -36752 
  -33965   -31232   -26094   -23405   -24814   -25423   -25666   -29971 
  -37079   -43812   -50101   -54100   -53571   -52485   -53403   -50654 
  -41419   -29995   -18919    -9714    -5507    -5670    -8724   -16531 
  -27076   -35535   -42231   -46902   -46385   -42288   -37148   -29754 
  -20664   -10824     1320    13050    20346    27409    38199    48025 
   53175    56665    59278    55255    41883    24338     8645    -3445 
  -12607   -18650   -21229   -22159   -24841   -29392   -30988   -28341 
  -26989   -30056   -31784   -26904   -21884   -22478   -22667   -19280 
  -18090   -22402   -32620   -50041   -69178   -80413   -84189   -87554 
  -90729   -86751   -71750   -48698   -22798    -3289     2999     4898 
   11760    19315    26006    36535    46329    44458    28938     6276 
  -17874   -37453   -48807   -57982   -67593   -71897   -70355   -62463 
  -45925   -29185   -20985   -15141    -2968    12337    23736    30755 
   35768    38285    36912    32193    23858    11664      366    -6522 
  -11236   -12922    -8683    -2921    -3132   -11123   -21859   -26526 
  -22552   -18146   -17315   -14722    -8256     1510    15059    26636 
   28395    21820    10637    -6823   -26654   -39110   -42710   -44080 
  -48164   -53803   -56933   -57232   -57340   -55629   -47587   -35553 
  -25982   -19810   -16534   -16331   -17390   -20980   -27441   -32602 
  -37618   -44781   -50076   -52461   -52621   -47880   -39956   -30460 
  -17298    -4910     3613    15062    30068    39438    41290    42197 
   45107    47001    44907    41423    37757    25926     2355   -22407 
  -36570   -40718   -46751   -59746   -69345   -70345   -71888   -78145 
  -81928   -81548   -83636   -89254   -95785  -100695   -97149   -85604 
  -75264   -63336   -38872    -4480    28079    54490    76157    93003 
  104354   108848   106440   100803    92923    80041    62680    44157 
   26288    11605     4392     3601     4121     8091    22088    45090 
   68427    83920    90445    92698    93902    95796    99324   101472 
  101231    98857    89171    72034    52198    26228    -6238   -35522 
  -60460   -87231  -111951  -127809  -136172  -139948  -138984  -130089 
 -108760   -78344   -50870   -34244   -27229   -25184   -24587   -25650 
  -33291   -51639   -75576   -95807  -110290  -120163  -126051  -132531 
 -143275  -155741  -161790  -148368  -108904   -57284   -16393     6049 
   19018    31949    45603    54692    55294    48955    38645    25276 
   12643     8088    11751    14716    14304    18863    32476    47727 
   56670    59902    60998    60263    57915    54460    51338    53060 
   59846    68947    83090    99028   104925   100532    90473    68820 
   35687     1262   -28045   -47816   -56472   -60356   -66157   -70701 
  -66830   -55906   -40038   -17078     6391    20553    26621    29797 
   30998    30813    28448    17140    -6267   -32361   -52685   -69312 
  -82507   -89373   -94332  -101449  -106214  -102823   -90479   -76365 
  -69257   -68331   -67843   -64136   -53597   -33593    -8017    11846 
   20674    27434    38958    49549    54106    55314    55476    52531 
   44885    33787    20754     6892    -6879   -20095   -31387   -40241 
  -46262   -44267   -29108    -3891    20824    36713    45627    53607 
   61946    66508    64006    57815    53374    50210    44555    37444 
   30494    19187     2072   -14151   -26920   -42793   -64576   -86979 
 -105265  -113259  -106513   -94292   -84896   -73084   -58569   -50060 
  -51319   -60572   -73939   -86215   -94264  -100594  -111751  -127212 
 -135200  -127413  -106846   -78515   -46992   -20930    -5774     4905 
   18018    29425    35781    41802    47857    49115    47953    49253 
   49761    45476    37094    25569    15053    12571    17947    22472 
   19560    10160    -2887   -16045   -24006   -25860   -24106   -17213 
     -16    27490    54726    72115    82195    90867    96921    94484 
   79917    51034     5844   -46914   -91036  -120323  -132571  -126014 
 -113498  -105214   -87436   -48654      546    41286    59870    61633 
   62073    59262    44502    19572   -11512   -43226   -68390   -84798 
  -96405  -110086  -127131  -140953  -146101  -143527  -134438  -114958 
  -86292   -57614   -35243   -22294   -13525     5904    35307    58818 
   77052    96462   107749   112312   121267   126418   122536   120263 
  123738   129019   128151   115334    96022    78908    62465    40458 
   21227    13336    10652    12642    18643    19879    14507     4451 
   -7186   -14871   -15567   -11865   -15066   -29024   -41104   -46169 
  -52342   -63455   -72053   -64764   -40657   -17132    -4447     8135 
   27441    39887    38799    35705    30413     9999   -25168   -58968 
  -77445   -84589   -90526   -95708  -100260  -104488  -106952  -112170 
 -120630  -123206  -115929  -106870  -102125   -96514   -87490   -75666 
  -56553   -32230   -10495     6527    22122    39300    54248    64777 
   76045    86919    90731    85659    69390    38971     1617   -32102 
  -60030   -80484   -89784   -92171   -94485   -92411   -75373   -43637 
   -8124    23107    46133    58521    64958    71071    70249    55418 
   30218    -2490   -39490   -73360  -101520  -124014  -139496  -145557 
 -136501  -110420   -75936   -46877   -30210   -17975    -2520    10019 
   16230    21631    27033    28477    23805    11044   -11160   -38094 
  -62803   -83253  -101160  -116797  -123898  -117888  -106105   -96536 
  -86674   -70259   -47484   -24820    -4264    19773    46835    68259 
   81635    84107    63759    21717   -20980   -48645   -63151   -72192 
  -77506   -77372   -72473   -64698   -56739   -49432   -39124   -25458 
  -11855     5384    31996    61568    82982    95201   102893   104488 
   94716    78016    62746    46394    25047     5151    -3690    -1818 
    2440     9799    25873    44045    53603    55410    57985    60623 
   51027    24076   -11258   -43411   -68647   -91928  -113623  -126285 
 -130185  -131464  -132888  -136287  -138880  -136276  -129623  -120848 
 -112830  -106844   -99178   -89558   -78678   -67107   -62867   -66870 
  -64791   -47803   -22475     -929     9707     9934     3700    -4305 
  -11080   -16293   -18025   -13231    -2221    11397    21733    24945 
   24038    23928    26742    33517    42404    48950    53663    60517 
   68783    75060    77057    70687    50652    19127   -11267   -30837 
  -41427   -45204   -41472   -36016   -32101   -24085   -12340        3 
   15399    29913    37046    39359    41572    44887    47028    44556 
   39167    35105    31954    28833    29339    35272    44251    53949 
   60378    61402    64259    74805    86894    94004    96503    96051 
   94755    90727    76359    52884    28916     3790   -23911   -46720 
  -58907   -58259   -45172   -25382    -2332    22546    42682    53433 
   57191    56952    53874    46780    30351     3191   -25683   -48712 
  -67999   -86000  -102950  -120400  -135776  -144122  -145956  -142032 
 -127474  -100018   -68426   -47202   -44101   -50962   -49958   -36896 
  -23953   -17359   -16592   -22328   -30871   -36984   -36138   -24854 
  -10206    -2435      714     5664    12830    22625    33251    36502 
   30472    22450    17919    19451    28266    43336    58767    62729 
   48316    19982   -14944   -50416   -79798  -101450  -121318  -142038 
 -157257  -159235  -145900  -123124  -100125   -82276   -73015   -74046 
  -79770   -81739   -75801   -61084   -40707   -21904    -6955     7104 
   17130    17351    10213     4549     7388    18921    35231    52063 
   65671    74204    78010    79361    78744    75433    71941    68074 
   60087    46420    24693    -5595   -32635   -39925   -29363   -16042 
   -5060     4216    12035    21118    30183    37732    47222    58700 
   67456    71847    73391    72197    69644    66676    61078    54813 
   51147    47708    40837    29221    15097     1126   -13200   -26053 
  -32391   -32355   -31656   -31492   -24168    -2673    28984    58933 
   79252    91540    98511    98443    90241    73084    47662    21008 
    1218    -8541   -10140    -8264    -5825    -3854    -5110   -10579 
  -15932   -16279   -10759    -4690    -2359     3379    18397    36320 
