Origin Time       2011/03/11 14:46:00
Lat.              38.103
Long.             142.860
Depth. (km)       24
Mag.              9.0
Station Code      SMN005
Station Lat.      35.3608
Station Long.     132.7449
Station Height(m) 8
Record Time       2011/03/11 14:52:15
Sampling Freq(Hz) 100Hz
Duration Time(s)  60
Dir.              U-D
Scale Factor      3920(gal)/6182761
Max. Acc. (gal)   0.860
Last Correction   2011/03/11 14:52:00
Memo.             
[...]
  -23576   -23570   -23519   -23518   -23552   -23573   -23548   -23507 
  -23505   -23526   -23505   -23424   -23388   -23414   -23418   -23428 
  -23460   -23450   -23394   -23341   -23286   -23284   -23373   -23411 
  -23351   -23282   -23245   -23279   -23340   -23344   -23317   -23286 
  -23227   -23194   -23240   -23267   -23244   -23276   -23336   -23353 
  -23360   -23345   -23302   -23286   -23310   -23311   -23243   -23190 
  -23267   -23398   -23418   -23326   -23280   -23308   -23287   -23235 
  -23225   -23228   -23214   -23198   -23193   -23212   -23274   -23312 
  -23257   -23169   -23112   -23109   -23109   -23069   -23082   -23147 
  -23163   -23119   -23046   -23020   -23048   -23046   -23016   -22975 
  -22931   -22894   -22883   -22950   -23006   -22935   -22827   -22773 
  -22784   -22851   -22910   -22923   -22910   -22885   -22888   -22888 
  -22826   -22779   -22823   -22902   -22911   -22862   -22854   -22858 
  -22865   -22960   -23067   -23062   -23006   -23001   -23005   -22957 
  -22923   -22963   -23041   -23096   -23108   -23097   -23103   -23136 
  -23137   -23110   -23107   -23090   -23088   -23178   -23259   -23227 
  -23120   -23058   -23106   -23185   -23226   -23170   -23051   -23028 
  -23076   -23086   -23062   -23030   -23007   -22976   -22946   -22931 
  -22927   -22960   -22985   -22959   -22922   -22882   -22842   -22828 
  -22838   -22858   -22868   -22891   -22930   -22926   -22894   -22850 
  -22803   -22833   -22910   -22961   -23010   -23033   -23001   -22969 
  -22994   -23048   -23082   -23134   -23171   -23155   -23174   -23183 
  -23151   -23183   -23273   -23358   -23370   -23339   -23394   -23459 
  -23438   -23413   -23432   -23486   -23564   -23628   -23656   -23653 
  -23633   -23624   -23638   -23677   -23727   -23744   -23719   -23721 
  -23749   -23734   -23731   -23778   -23785   -23724   -23667   -23668 
  -23717   -23740   -23700   -23674   -23675   -23623   -23560   -23530 
  -23518   -23532   -23505   -23415   -23398   -23449   -23410   -23314 
  -23282   -23265   -23244   -23236   -23191   -23111   -23043   -23030 
  -23038   -23013   -23006   -22997   -22896   -22743   -22657   -22701 
  -22774   -22765   -22706   -22625   -22519   -22421   -22372   -22408 
  -22494   -22489   -22337   -22201   -22194   -22205   -22170   -22140 
  -22134   -22159   -22164   -22093   -21998   -21965   -21988   -21974 
  -21922   -21906   -21918   -21917   -21887   -21849   -21858   -21878 
  -21844   -21789   -21767   -21790   -21848   -21899   -21882   -21831 
  -21826   -21829   -21802   -21803   -21871   -21955   -21976   -21956 
  -21954   -22007   -22101   -22123   -22085   -22097   -22120   -22114 
  -22137   -22196   -22253   -22286   -22319   -22370   -22455   -22592 
  -22635   -22510   -22403   -22423   -22523   -22608   -22641   -22689 
  -22710   -22683   -22696   -22723   -22725   -22767   -22888   -22991 
  -22958   -22895   -22941   -22985   -22962   -22996   -23090   -23142 
  -23166   -23171   -23110   -23081   -23157   -23240   -23298   -23302 
  -23230   -23223   -23277   -23249   -23223   -23297   -23359   -23342 
  -23292   -23244   -23213   -23229   -23277   -23279   -23229   -23209 
  -23273   -23315   -23228   -23136   -23128   -23129   -23140   -23199 
  -23240   -23194   -23162   -23205   -23191   -23159   -23196   -23181 
  -23123   -23127   -23129   -23072   -22994   -22962   -22993   -23029 
  -23024   -22984   -22966   -22956   -22893   -22858   -22874   -22855 
  -22808   -22735   -22673   -22709   -22780   -22752   -22664   -22642 
  -22645   -22603   -22591   -22618   -22611   -22538   -22471   -22460 
  -22443   -22415   -22388   -22347   -22352   -22395   -22396   -22338 
  -22304   -22368   -22430   -22417   -22377   -22293   -22245   -22291 
  -22275   -22198   -22203   -22240   -22238   -22285   -22404   -22435 
  -22345   -22280   -22233   -22230   -22359   -22443   -22416   -22418 
  -22431   -22392   -22348   -22372   -22418   -22455   -22484   -22403 
  -22327   -22376   -22391   -22385   -22434   -22476   -22466   -22358 
  -22266   -22330   -22417   -22423   -22396   -22368   -22327   -22302 
  -22321   -22325   -22308   -22315   -22350   -22394   -22374   -22287 
  -22254   -22266   -22238   -22209   -22198   -22178   -22167   -22133 
  -22136   -22267   -22347   -22277   -22187   -22118   -22100   -22131 
  -22140   -22152   -22194   -22175   -22097   -22113   -22179   -22188 
  -22233   -22270   -22227   -22236   -22289   -22297   -22319   -22363 
  -22352   -22311   -22334   -22403   -22441   -22445   -22430   -22432 
  -22486   -22555   -22599   -22602   -22588   -22597   -22608   -22616 
  -22649   -22675   -22686   -22727   -22771   -22743   -22679   -22702 
  -22774   -22772   -22746   -22765   -22798   -22822   -22800   -22757 
  -22765   -22787   -22749   -22692   -22665   -22632   -22611   -22640 
  -22665   -22665   -22632   -22536   -22474   -22501   -22520   -22462 
  -22388   -22382   -22398   -22396   -22383   -22324   -22279   -22305 
  -22291   -22190   -22148   -22231   -22234   -22083   -21986   -22023 
  -22106   -22164   -22190   -22192   -22148   -22103   -22116   -22162 
  -22204   -22170   -22043   -22038   -22223   -22332   -22323   -22340 
  -22317   -22260   -22249   -22222   -22214   -22280   -22338   -22358 
  -22371   -22415   -22471   -22464   -22431   -22440   -22467   -22485 
  -22458   -22405   -22400   -22468   -22574   -22628   -22634   -22700 
  -22736   -22617   -22522   -22616   -22738   -22693   -22541   -22447 
  -22458   -22557   -22674   -22668   -22599   -22597   -22560   -22468 
  -22461   -22505   -22530   -22553   -22529   -22442   -22401   -22431 
  -22372   -22250   -22277   -22397   -22446   -22412   -22338   -22248 
  -22169   -22152   -22176   -22226   -22255   -22109   -21922   -21974 
  -22141   -22197   -22168   -22148   -22152   -22185   -22222   -22165 
  -22030   -21990   -22058   -22081   -22037   -22013   -22015   -21982 
  -21956   -22062   -22230   -22302   -22238   -22108   -22051   -22057 
  -22015   -22016   -22099   -22114   -22073   -22088   -22142   -22155 
  -22122   -22100   -22097   -22081   -22048   -22036   -22074   -22118 
  -22134   -22102   -22024   -22035   -22143   -22178   -22171   -22232 
  -22266   -22233   -22198   -22202   -22285   -22398   -22425   -22322 
  -22188   -22159   -22209   -22243   -22258   -22292   -22379   -22501 
  -22530   -22418   -22311   -22270   -22273   -22362   -22474   -22511 
  -22498   -22449   -22402   -22431   -22494   -22564   -22648   -22619 
  -22463   -22363   -22417   -22548   -22600   -22546   -22530   -22578 
  -22570   -22486   -22419   -22417   -22420   -22410   -22438   -22475 
  -22496   -22512   -22499   -22448   -22390   -22377   -22362   -22328 
  -22358   -22354   -22229   -22139   -22180   -22261   -22284   -22258 
  -22234   -22210   -22170   -22137   -22149   -22192   -22220   -22187 
  -22095   -22045   -22128   -22224   -22217   -22193   -22186   -22199 
  -22193   -22129   -22137   -22225   -22283   -22273   -22208   -22186 
  -22230   -22313   -22396   -22362   -22247   -22200   -22270   -22401 
  -22495   -22507   -22469   -22440   -22452   -22519   -22600   -22602 
  -22599   -22677   -22732   -22685   -22589   -22577   -22683   -22769 
  -22762   -22742   -22771   -22794   -22785   -22815   -22877   -22919 
  -22942   -22942   -22904   -22859   -22853   -22847   -22862   -22948 
  -22980   -22914   -22833   -22761   -22762   -22807   -22817   -22798 
  -22749   -22749   -22792   -22782   -22797   -22823   -22769   -22706 
  -22661   -22632   -22655   -22688   -22687   -22674   -22668   -22670 
  -22668   -22670   -22662   -22643   -22642   -22601   -22515   -22521 
  -22635   -22712   -22721   -22683   -22587   -22541   -22615   -22688 
  -22712   -22720   -22670   -22577   -22539   -22593   -22664   -22697 
  -22735   -22739   -22700   -22695   -22669   -22619   -22655   -22726 
  -22745   -22750   -22765   -22784   -22833   -22886   -22891   -22871 
  -22839   -22782   -22743   -22741   -22738   -22737   -22752   -22776 
  -22800   -22809   -22803   -22790   -22789   -22741   -22669   -22699 
  -22727   -22661   -22626   -22625   -22591   -22589   -22612   -22564 
  -22473   -22437   -22471   -22512   -22492   -22405   -22332   -22320 
  -22291   -22283   -22360   -22395   -22342   -22283   -22205   -22117 
  -22082   -22069   -22015   -21968   -21973   -21985   -22019   -22056 
  -22013   -21957   -21955   -21932   -21862   -21815   -21832   -21852 
  -21820   -21795   -21814   -21857   -21957   -22085   -22075   -21903 
  -21797   -21841   -21915   -21945   -21908   -21871   -21935   -22027 
  -22040   -22029   -22036   -22041   -22062   -22061   -21981   -21948 
  -22049   -22162   -22182   -22119   -22087   -22147   -22204   -22239 
  -22302   -22351   -22308   -22194   -22188   -22333   -22422   -22383 
  -22322   -22314   -22373   -22412   -22392   -22384   -22403   -22429 
  -22473   -22526   -22547   -22538   -22558   -22600   -22589   -22539 
  -22545   -22598   -22597   -22556   -22581   -22658   -22692   -22688 
  -22727   -22814   -22871   -22867   -22841   -22809   -22762   -22726 
  -22743   -22819   -22905   -22931   -22917   -22951   -22986   -22955 
  -22928   -22929   -22903   -22874   -22852   -22846   -22922   -23058 
  -23134   -23101   -23044   -23010   -22962   -22960   -23036   -23075 
  -23019   -22949   -22979   -23085   -23130   -23082   -23026   -23029 
  -23026   -22960   -22907   -22939   -23044   -23133   -23137   -23102 
  -23107   -23134   -23091   -22978   -22903   -22946   -23027   -22999 
  -22911   -22833   -22786   -22863   -22936   -22878   -22806   -22773 
  -22773   -22753   -22671   -22625   -22626   -22633   -22627   -22610 
  -22685   -22784   -22690   -22452   -22316   -22381   -22468   -22456 
  -22466   -22543   -22606   -22554   -22400   -22366   -22410   -22306 
  -22210   -22275   -22327   -22311   -22332   -22350   -22307   -22299 
  -22361   -22369   -22320   -22308   -22306   -22287   -22261   -22237 
  -22240   -22267   -22325   -22435   -22489   -22448   -22454   -22504 
  -22544   -22594   -22572   -22485   -22465   -22507   -22531   -22561 
  -22661   -22794   -22852   -22859   -22874   -22850   -22834   -22881 
  -22902   -22906   -22929   -22907   -22844   -22819   -22844   -22915 
  -22975   -22917   -22865   -22956   -23039   -23046   -23011   -22912 
  -22807   -22784   -22812   -22809   -22834   -22941   -23051   -23158 
  -23179   -22971   -22721   -22683   -22820   -22937   -22938   -22912 
  -22884   -22793   -22725   -22794   -22919   -22944   -22891   -22842 
  -22781   -22761   -22822   -22859   -22781   -22655   -22663   -22791 
  -22827   -22780   -22829   -22967   -23016   -22932   -22839   -22825 
  -22891   -22949   -22929   -22881   -22884   -22960   -23066   -23152 
  -23185   -23139   -23087   -23086   -23121   -23245   -23414   -23473 
  -23401   -23317   -23305   -23306   -23287   -23272   -23256   -23272 
  -23308   -23343   -23406   -23419   -23350   -23301   -23288   -23256 
  -23219   -23252   -23307   -23275   -23214   -23198   -23239   -23274 
  -23214   -23139   -23094   -23034   -23034   -23139   -23286   -23369 
  -23326   -23225   -23130   -23091   -23110   -23105   -23108   -23166 
  -23201   -23185   -23191   -23242   -23244   -23178   -23170   -23260 
  -23309   -23222   -23111   -23095   -23142   -23231   -23341   -23398 
  -23368   -23280   -23210   -23193   -23227   -23313   -23366   -23376 
  -23443   -23527   -23531   -23464   -23430   -23491   -23537   -23516 
  -23466   -23373   -23302   -23329   -23421   -23542   -23661   -23685 
  -23582   -23492   -23501   -23526   -23546   -23624   -23704   -23668 
  -23593   -23587   -23611   -23638   -23610   -23495   -23432   -23549 
  -23743   -23809   -23726   -23593   -23516   -23593   -23702   -23690 
  -23648   -23636   -23631   -23644   -23681   -23722   -23748   -23794 
  -23829   -23745   -23649   -23661   -23726   -23806   -23835   -23801 
  -23797   -23799   -23762   -23757   -23787   -23772   -23718   -23716 
  -23759   -23732   -23652   -23642   -23717   -23801   -23829   -23764 
  -23613   -23536   -23663   -23833   -23862   -23769   -23643   -23569 
  -23601   -23706   -23747   -23710   -23710   -23739   -23741   -23706 
  -23629   -23608   -23726   -23832   -23780   -23647   -23557   -23564 
  -23641   -23671   -23628   -23629   -23666   -23622   -23530   -23472 
  -23497   -23598   -23633   -23521   -23437   -23519   -23576   -23536 
  -23567   -23600   -23528   -23459   -23459   -23528   -23618   -23628 
  -23503   -23367   -23385   -23459   -23466   -23457   -23445   -23437 
  -23498   -23588   -23522   -23356   -23353   -23455   -23462   -23397 
  -23361   -23393   -23435   -23418   -23407   -23494   -23548   -23430 
  -23295   -23271   -23316   -23431   -23546   -23558   -23510   -23489 
  -23526   -23574   -23608   -23611   -23568   -23560   -23597   -23662 
  -23714   -23644   -23558   -23624   -23780   -23838   -23731   -23605 
  -23610   -23724   -23857   -23981   -23980   -23781   -23606   -23615 
  -23776   -23948   -23948   -23881   -23883   -23840   -23793   -23848 
  -23924   -23948   -23943   -23931   -23957   -24032   -24065   -24091 
  -24141   -24053   -23925   -23956   -24011   -23996   -24031   -24106 
  -24101   -24104   -24147   -24087   -24064   -24184   -24197   -24087 
  -24064   -24106   -24126   -24151   -24129   -24036   -24041   -24128 
  -24132   -24105   -24095   -24058   -24028   -24042   -24131   -24269 
  -24324   -24237   -24084   -23975   -23984   -24065   -24110   -24095 
  -24061   -24035   -23999   -23975   -23994   -24014   -24017   -24018 
  -24004   -23918   -23780   -23767   -23886   -23949   -23915   -23853 
  -23806   -23752   -23677   -23639   -23639   -23644   -23649   -23602 
  -23510   -23495   -23599   -23674   -23600   -23497   -23501   -23548 
  -23508   -23381   -23282   -23284   -23375   -23431   -23353   -23258 
  -23260   -23341   -23381   -23300   -23252   -23309   -23309   -23188 
  -23091   -23124   -23164   -23192   -23281   -23289   -23244   -23192 
  -23007   -22919   -23111   -23233   -23121   -23076   -23174   -23197 
  -23141   -23123   -23120   -23122   -23132   -23107   -23084   -23107 
  -23118   -23087   -23057   -23053   -23042   -23021   -23038   -23049 
  -22992   -22893   -22846   -22934   -23033   -23010   -22973   -22940 
  -22892   -22915   -22913   -22835   -22826   -22869   -22890   -22965 
  -23087   -23091   -22957   -22867   -22927   -23063   -23169   -23137 
  -22943   -22808   -22883   -22981   -22997   -23072   -23152   -23098 
  -23092   -23238   -23259   -23072   -22960   -23019   -23133   -23263 
  -23329   -23264   -23228   -23344   -23401   -23323   -23356   -23458 
  -23449   -23457   -23511   -23485   -23395   -23373   -23464   -23574 
  -23692   -23770   -23627   -23406   -23416   -23571   -23651   -23699 
  -23742   -23684   -23606   -23603   -23615   -23627   -23672   -23723 
  -23696   -23592   -23561   -23677   -23814   -23807   -23691   -23634 
  -23660   -23695   -23735   -23813   -23864   -23741   -23509   -23447 
  -23646   -23856   -23815   -23634   -23535   -23541   -23566   -23556 
  -23581   -23680   -23753   -23708   -23584   -23511   -23519   -23529 
  -23535   -23529   -23487   -23490   -23551   -23592   -23654   -23714 
  -23630   -23480   -23458   -23500   -23496   -23545   -23660   -23663 
  -23522   -23428   -23463   -23518   -23558   -23551   -23460   -23439 
  -23525   -23592   -23620   -23541   -23374   -23338   -23452   -23520 
  -23497   -23508   -23564   -23564   -23498   -23421   -23400   -23442 
  -23483   -23468   -23449   -23517   -23617   -23643   -23521   -23318 
  -23294   -23456   -23523   -23430   -23350   -23391   -23466   -23508 
  -23497   -23385   -23276   -23262   -23284   -23349   -23438   -23449 
  -23358   -23242   -23177   -23198   -23299   -23376   -23333   -23235 
  -23205   -23267   -23267   -23149   -23103   -23146   -23128   -23102 
  -23118   -23131   -23143   -23178   -23252   -23259   -23151   -23096 
  -23133   -23181   -23165   -23098   -23070   -23069   -23132   -23265 
  -23290   -23230   -23205   -23218   -23281   -23318   -23284   -23263 
  -23271   -23285   -23251   -23191   -23209   -23277   -23323   -23328 
  -23308   -23282   -23220   -23218   -23322   -23384   -23381   -23333 
  -23239   -23166   -23150   -23204   -23284   -23315   -23308   -23280 
  -23258   -23307   -23351   -23278   -23217   -23302   -23356   -23239 
  -23180   -23314   -23407   -23349   -23268   -23260   -23324   -23361 
  -23331   -23319   -23308   -23249   -23260   -23395   -23515   -23509 
  -23388   -23248   -23171   -23210   -23341   -23421   -23443   -23404 
  -23277   -23214   -23250   -23317   -23383   -23337   -23208   -23153 
  -23216   -23297   -23255   -23138   -23116   -23196   -23227   -23185 
  -23185   -23193   -23162   -23127   -23033   -22975   -23072   -23111 
  -22987   -22846   -22754   -22795   -22996   -23109   -22950   -22718 
  -22709   -22867   -22948   -22872   -22705   -22586   -22609   -22797 
  -23020   -22967   -22662   -22430   -22438   -22715   -22923   -22724 
  -22452   -22429   -22563   -22776   -22896   -22736   -22494   -22521 
  -22779   -22923   -22823   -22616   -22503   -22592   -22748   -22899 
  -23060   -23023   -22665   -22357   -22579   -23038   -22994   -22646 
  -22686   -23009   -23185   -23184   -23070   -22900   -22848   -22916 
  -23030   -23256   -23385   -23162   -22961   -23165   -23418   -23314 
  -23115   -23181   -23427   -23591   -23531   -23390   -23391   -23486 
  -23615   -23712   -23631   -23506   -23509   -23656   -23853   -23811 
  -23577   -23522   -23726   -24004   -24093   -23905   -23721   -23736 
  -23821   -23878   -23909   -23932   -23951   -23879   -23768   -23815 
  -24011   -24148   -24087   -23917   -23805   -23823   -23915   -23932 
  -23872   -23826   -23782   -23842   -24087   -24230   -24034   -23642 
  -23385   -23514   -23891   -24134   -23986   -23571   -23339   -23485 
  -23783   -23939   -23787   -23387   -23151   -23400   -23725   -23689 
  -23442   -23163   -22996   -23123   -23445   -23633   -23485   -23124 
  -22862   -22895   -23072   -23188   -23284   -23279   -23046   -22772 
  -22747   -23045   -23317   -23120   -22660   -22557   -22839   -23097 
  -23247   -23174   -22698   -22318   -22617   -23250   -23430   -22938 
  -22342   -22349   -22958   -23375   -23136   -22800   -22825   -22838 
  -22663   -22725   -23062   -23189   -22968   -22777   -22913   -23148 
  -23098   -22864   -22790   -22917   -23037   -23060   -23093   -23108 
  -23030   -23008   -23127   -23231   -23203   -23038   -22840   -22849 
  -23084   -23260   -23210   -23047   -23002   -23095   -23101   -23013 
  -23033   -23151   -23230   -23182   -22975   -22789   -22852   -23093 
  -23294   -23341   -23179   -22906   -22772   -22895   -23146   -23308 
  -23275   -23092   -22922   -22914   -22978   -22952   -22881   -22961 
  -23199   -23267   -23096   -22908   -22728   -22707   -22963   -23180 
  -23200   -23112   -22924   -22736   -22701   -22804   -22995   -23216 
  -23218   -22966   -22837   -22994   -23144   -23002   -22856   -23051 
  -23216   -23097   -22954   -22894   -22903   -22949   -23028   -23220 
  -23291   -22996   -22691   -22819   -23250   -23483   -23272   -22924 
  -22903   -23182   -23300   -23136   -23007   -23023   -23092   -23181 
