Origin Time       2011/03/11 14:46:00
Lat.              38.103
Long.             142.860
Depth. (km)       24
Mag.              9.0
Station Code      SZO024
Station Lat.      34.7104
Station Long.     137.7199
Station Height(m) 29
Record Time       2011/03/11 14:48:50
Sampling Freq(Hz) 100Hz
Duration Time(s)  300
Dir.              U-D
Scale Factor      3920(gal)/6182761
Max. Acc. (gal)   5.660
Last Correction   2011/03/11 14:48:35
Memo.             
[...]
   -9616    -9953   -10495   -11233   -12089   -12945   -13665   -14098 
  -14103   -13710   -13128   -12603   -12305   -12229   -12235   -12223 
  -12152   -12009   -11828   -11636   -11407   -11135   -10880   -10692 
  -10552   -10385   -10095    -9592    -8802    -7720    -6502    -5406 
   -4626    -4217    -4125    -4242    -4437    -4625    -4792    -4953 
   -5120    -5254    -5290    -5202    -5023    -4844    -4779    -4863 
   -5060    -5361    -5775    -6292    -6857    -7377    -7806    -8157 
   -8468    -8786    -9137    -9557   -10072   -10647   -11191   -11597 
  -11806   -11842   -11781   -11698   -11642   -11667   -11818   -12085 
  -12412   -12706   -12868   -12841   -12641   -12322   -11918   -11451 
  -10971   -10533   -10206   -10044   -10054   -10220   -10519   -10912 
  -11347   -11750   -12014   -12072   -11949   -11728   -11496   -11318 
  -11247   -11314   -11508   -11780   -12044   -12201   -12175   -11969 
  -11689   -11466   -11338   -11256   -11181   -11093   -10947   -10691 
  -10297    -9790    -9222    -8658    -8171    -7767    -7397    -7057 
   -6753    -6472    -6187    -5844    -5419    -4968    -4568    -4257 
   -4053    -3951    -3917    -3937    -4032    -4184    -4349    -4524 
   -4713    -4863    -4926    -4927    -4921    -4956    -5071    -5272 
   -5519    -5741    -5882    -5938    -5925    -5870    -5766    -5577 
   -5328    -5120    -5074    -5248    -5623    -6124    -6645    -7153 
   -7653    -8056    -8289    -8387    -8393    -8320    -8197    -8083 
   -8028    -8019    -8025    -8062    -8157    -8301    -8496    -8782 
   -9146    -9483    -9723    -9920   -10087   -10150   -10133   -10094 
  -10013    -9870    -9688    -9512    -9292    -8969    -8684    -8554 
   -8539    -8610    -8729    -8861    -9007    -9193    -9485    -9867 
  -10241   -10570   -10833   -10971   -10954   -10819   -10617   -10323 
   -9883    -9337    -8828    -8436    -8136    -7940    -7874    -7887 
   -7912    -7926    -7939    -7943    -7937    -7938    -7911    -7810 
   -7669    -7545    -7466    -7438    -7431    -7407    -7332    -7214 
   -7069    -6878    -6653    -6476    -6407    -6451    -6587    -6757 
   -6869    -6850    -6694    -6467    -6282    -6236    -6351    -6605 
   -6958    -7327    -7641    -7904    -8133    -8298    -8365    -8329 
   -8203    -8034    -7907    -7878    -7947    -8094    -8309    -8565 
   -8829    -9089    -9328    -9546    -9791   -10077   -10388   -10706 
  -10983   -11169   -11254   -11240   -11083   -10759   -10349    -9922 
   -9501    -9155    -8913    -8731    -8592    -8509    -8459    -8368 
   -8207    -8003    -7745    -7432    -7091    -6739    -6408    -6119 
   -5899    -5794    -5825    -5963    -6151    -6331    -6452    -6505 
   -6512    -6452    -6339    -6282    -6334    -6455    -6612    -6791 
   -6961    -7055    -7068    -7074    -7136    -7287    -7466    -7564 
   -7553    -7419    -7159    -6870    -6651    -6547    -6593    -6762 
   -7003    -7336    -7727    -8049    -8229    -8297    -8334    -8380 
   -8415    -8484    -8642    -8835    -8971    -8989    -8894    -8783 
   -8736    -8742    -8788    -8932    -9198    -9496    -9728    -9885 
  -10020   -10223   -10543   -10934   -11314   -11670   -12009   -12237 
  -12239   -12030   -11712   -11358   -11035   -10818   -10756   -10860 
  -11138   -11577   -12126   -12708   -13211   -13532   -13665   -13673 
  -13590   -13424   -13166   -12776   -12256   -11696   -11206   -10881 
  -10746   -10753   -10802   -10741   -10511   -10191    -9894    -9694 
   -9609    -9649    -9758    -9781    -9655    -9420    -9117    -8816 
   -8578    -8433    -8454    -8713    -9215    -9817   -10297   -10558 
  -10604   -10426   -10085    -9694    -9317    -9012    -8847    -8815 
   -8824    -8785    -8701    -8615    -8460    -8150    -7734    -7311 
   -6954    -6694    -6491    -6290    -6095    -5923    -5758    -5580 
   -5420    -5381    -5556    -5918    -6339    -6743    -7143    -7561 
   -7999    -8442    -8838    -9152    -9392    -9559    -9629    -9600 
   -9518    -9414    -9302    -9229    -9260    -9426    -9722   -10177 
  -10789   -11426   -11943   -12234   -12226   -11968   -11599   -11208 
  -10828   -10475   -10180    -9974    -9858    -9842    -9990   -10336 
  -10777   -11210   -11646   -12052   -12332   -12467   -12481   -12407 
  -12268   -12022   -11633   -11139   -10647   -10289   -10104   -10028 
  -10019   -10090   -10201   -10244   -10176   -10069   -10013   -10028 
  -10070   -10091   -10095   -10104   -10143   -10249   -10402   -10521 
  -10574   -10556   -10467   -10366   -10332   -10419   -10646   -11015 
  -11499   -11998   -12405   -12651   -12695   -12567   -12314   -11953 
  -11565   -11275   -11105   -11006   -10959   -10942   -10917   -10887 
  -10865   -10806   -10655   -10390   -10039    -9675    -9385    -9223 
   -9189    -9271    -9461    -9720   -10018   -10364   -10749   -11143 
  -11490   -11751   -11904   -11900   -11726   -11417   -10953   -10355 
   -9756    -9213    -8705    -8272    -7924    -7612    -7319    -7027 
   -6775    -6636    -6556    -6459    -6382    -6338    -6262    -6115 
   -5903    -5606    -5242    -4949    -4864    -4987    -5257    -5630 
   -6043    -6395    -6596    -6612    -6529    -6438    -6346    -6261 
   -6153    -5937    -5599    -5209    -4882    -4694    -4633    -4702 
   -4874    -5014    -4997    -4809    -4475    -4009    -3474    -2991 
   -2641    -2438    -2340    -2267    -2163    -2030    -1920    -1917 
   -2094    -2395    -2728    -3115    -3538    -3903    -4186    -4396 
   -4599    -4918    -5356    -5838    -6354    -6901    -7392    -7735 
   -7918    -7976    -8002    -8138    -8428    -8793    -9162    -9477 
   -9654    -9698    -9716    -9755    -9806    -9886   -10008   -10144 
  -10228   -10203   -10092   -10015   -10097   -10351   -10674   -10971 
  -11230   -11399   -11397   -11267   -11087   -10886   -10746   -10692 
  -10639   -10561   -10449   -10299   -10178   -10124   -10109   -10122 
  -10167   -10253   -10377   -10473   -10450   -10277   -10014    -9755 
   -9580    -9505    -9497    -9523    -9531    -9458    -9319    -9171 
   -9030    -8932    -8898    -8871    -8803    -8670    -8439    -8119 
   -7743    -7354    -7021    -6788    -6684    -6708    -6744    -6678 
   -6507    -6285    -6070    -5869    -5651    -5445    -5306    -5231 
   -5203    -5226    -5299    -5390    -5463    -5490    -5468    -5431 
   -5411    -5406    -5415    -5443    -5498    -5604    -5783    -6054 
   -6397    -6743    -7033    -7230    -7323    -7346    -7384    -7526 
   -7806    -8176    -8555    -8900    -9190    -9413    -9581    -9699 
   -9783    -9855    -9875    -9796    -9666    -9579    -9572    -9641 
   -9777    -9949   -10124   -10300   -10491   -10718   -10968   -11204 
  -11402   -11557   -11681   -11788   -11857   -11842   -11716   -11554 
  -11462   -11442   -11469   -11557   -11699   -11839   -11951   -12077 
  -12206   -12273   -12240   -12103   -11873   -11562   -11201   -10819 
  -10444   -10125    -9837    -9530    -9246    -8998    -8784    -8671 
   -8646    -8631    -8568    -8411    -8156    -7800    -7380    -6985 
   -6623    -6260    -5924    -5675    -5562    -5572    -5690    -5946 
   -6295    -6647    -6947    -7182    -7377    -7555    -7739    -7917 
   -8049    -8127    -8110    -7983    -7817    -7671    -7522    -7303 
   -7048    -6842    -6674    -6551    -6560    -6725    -7042    -7456 
   -7833    -8120    -8320    -8404    -8369    -8274    -8183    -8115 
   -8070    -8085    -8204    -8414    -8631    -8809    -8947    -9001 
   -8941    -8792    -8579    -8319    -8049    -7797    -7583    -7403 
   -7241    -7128    -7122    -7219    -7348    -7428    -7407    -7302 
   -7179    -7093    -7039    -6973    -6874    -6752    -6623    -6512 
   -6458    -6466    -6518    -6619    -6766    -6948    -7168    -7375 
   -7521    -7643    -7776    -7928    -8104    -8260    -8361    -8414 
   -8412    -8389    -8409    -8504    -8705    -9003    -9309    -9608 
   -9966   -10374   -10726   -10916   -10918   -10786   -10531   -10142 
   -9664    -9183    -8784    -8503    -8295    -8102    -7909    -7710 
   -7516    -7381    -7336    -7345    -7358    -7339    -7265    -7164 
   -7118    -7190    -7381    -7657    -8004    -8399    -8784    -9150 
   -9508    -9786    -9900    -9811    -9520    -9165    -8909    -8772 
   -8732    -8742    -8718    -8650    -8538    -8348    -8116    -7842 
   -7470    -7036    -6642    -6313    -6023    -5802    -5693    -5693 
   -5760    -5786    -5703    -5531    -5263    -4885    -4462    -4067 
   -3731    -3473    -3296    -3209    -3237    -3346    -3468    -3557 
   -3566    -3491    -3396    -3313    -3230    -3221    -3359    -3577 
   -3816    -4064    -4267    -4413    -4532    -4591    -4596    -4627 
   -4698    -4747    -4780    -4839    -4891    -4876    -4809    -4724 
   -4599    -4431    -4282    -4184    -4108    -4051    -4050    -4101 
   -4217    -4403    -4534    -4557    -4561    -4538    -4450    -4352 
   -4254    -4126    -3938    -3678    -3423    -3263    -3219    -3266 
   -3334    -3376    -3388    -3345    -3277    -3259    -3294    -3357 
   -3457    -3605    -3790    -3944    -4006    -3989    -3908    -3759 
   -3591    -3453    -3350    -3292    -3280    -3313    -3373    -3400 
   -3376    -3348    -3301    -3210    -3161    -3252    -3495    -3866 
   -4320    -4768    -5139    -5392    -5523    -5576    -5579    -5529 
   -5413    -5246    -5099    -5018    -4981    -4983    -5035    -5091 
   -5082    -4937    -4640    -4294    -4001    -3790    -3692    -3710 
   -3806    -3914    -3935    -3892    -3891    -3931    -4024    -4215 
   -4436    -4623    -4776    -4882    -4940    -4953    -4940    -4927 
   -4933    -4982    -5104    -5301    -5568    -5908    -6284    -6640 
   -6946    -7224    -7514    -7795    -8005    -8140    -8251    -8378 
   -8550    -8751    -8922    -9022    -9056    -9042    -9027    -9057 
   -9133    -9241    -9383    -9550    -9718    -9861   -10004   -10190 
  -10371   -10522   -10696   -10904   -11126   -11359   -11598   -11845 
  -12061   -12190   -12213   -12129   -11980   -11820   -11621   -11325 
  -10962   -10596   -10233    -9892    -9632    -9486    -9439    -9423 
   -9351    -9185    -8930    -8621    -8320    -8064    -7818    -7530 
   -7212    -6901    -6635    -6435    -6278    -6156    -6073    -6016 
   -5961    -5883    -5768    -5610    -5455    -5374    -5367    -5392 
   -5410    -5378    -5265    -5090    -4905    -4745    -4660    -4683 
   -4749    -4762    -4707    -4616    -4541    -4518    -4552    -4621 
   -4687    -4750    -4829    -4960    -5203    -5558    -5913    -6192 
   -6450    -6711    -6934    -7137    -7324    -7450    -7540    -7643 
   -7755    -7875    -8016    -8190    -8426    -8732    -9059    -9346 
   -9553    -9649    -9680    -9751    -9904   -10120   -10368   -10583 
  -10715   -10793   -10847   -10890   -10956   -11050   -11144   -11202 
  -11209   -11252   -11401   -11624   -11890   -12163   -12363   -12441 
  -12382   -12213   -11998   -11784   -11616   -11521   -11479   -11496 
  -11591   -11688   -11716   -11700   -11681   -11674   -11682   -11756 
  -11965   -12245   -12487   -12668   -12792   -12835   -12739   -12497 
  -12166   -11804   -11485   -11232   -10997   -10794   -10639   -10468 
  -10210    -9844    -9417    -9024    -8717    -8485    -8304    -8182 
   -8135    -8147    -8229    -8424    -8713    -9001    -9102    -8968 
   -8783    -8575    -8331    -8288    -8471    -8657    -8860    -9086 
   -9153    -9043    -8860    -8617    -8341    -8087    -7883    -7783 
   -7793    -7886    -8053    -8228    -8328    -8332    -8241    -8081 
   -7917    -7831    -7867    -8002    -8195    -8397    -8551    -8628 
   -8615    -8490    -8269    -7997    -7694    -7383    -7129    -6968 
   -6884    -6841    -6784    -6676    -6519    -6326    -6135    -5970 
   -5814    -5674    -5593    -5602    -5670    -5733    -5755    -5725 
   -5648    -5547    -5461    -5405    -5294    -5108    -5015    -5049 
   -5038    -4941    -4877    -4925    -5072    -5262    -5530    -5953 
   -6432    -6878    -7372    -7891    -8310    -8646    -8896    -8986 
   -8987    -8961    -8877    -8776    -8717    -8796    -9025    -9246 
   -9443    -9667    -9846    -9961   -10005    -9919    -9736    -9512 
   -9259    -9034    -8901    -8896    -8969    -8974    -8863    -8733 
   -8598    -8410    -8248    -8243    -8418    -8679    -8924    -9132 
   -9325    -9522    -9663    -9675    -9594    -9446    -9242    -9043 
   -8881    -8749    -8630    -8505    -8362    -8257    -8278    -8420 
   -8611    -8774    -8860    -8825    -8604    -8248    -7875    -7506 
   -7122    -6721    -6289    -5847    -5410    -4982    -4609    -4322 
   -4078    -3792    -3481    -3302    -3228    -3083    -2882    -2767 
   -2711    -2591    -2512    -2638    -2867    -3187    -3710    -4252 
   -4419    -4074    -3772    -4085    -4543    -4625    -4687    -4752 
   -4393    -3990    -4218    -4852    -5165    -5175    -5447    -5782 
   -5703    -5535    -5561    -5654    -5922    -6413    -6910    -7321 
   -7669    -7970    -8145    -8199    -8408    -8753    -8872    -8936 
   -9302    -9762   -10221   -10634   -10628   -10421   -10446   -10547 
  -10565   -10580   -10702   -10885   -10918   -10854   -10864   -10978 
  -11253   -11648   -12093   -12683   -13386   -14025   -14589   -15218 
  -15959   -16588   -16927   -17042   -16932   -16687   -16476   -16175 
  -15746   -15538   -15690   -15830   -15664   -15390   -15233   -15105 
  -14925   -14670   -14426   -14358   -14380   -14381   -14381   -14391 
  -14437   -14368   -14068   -13753   -13637   -13666   -13598   -13361 
  -13171   -13121   -13059   -12808   -12430   -12159   -11991   -11860 
  -11804   -11780   -11780   -11848   -11953   -12043   -12004   -11777 
  -11484   -11237   -11064   -10916   -10779   -10734   -10717   -10612 
  -10434   -10273   -10183   -10061    -9839    -9571    -9333    -9190 
   -8962    -8540    -8168    -7974    -7910    -7947    -8003    -8019 
   -7977    -7847    -7643    -7455    -7437    -7610    -7816    -7973 
   -8065    -8133    -8269    -8402    -8473    -8599    -8792    -8915 
   -8926    -8837    -8603    -8315    -8127    -7890    -7488    -7207 
   -7181    -7189    -7182    -7284    -7482    -7686    -7903    -8193 
   -8529    -8894    -9268    -9534    -9680    -9818   -10021   -10257 
  -10462   -10708   -11083   -11482   -11754   -11875   -11894   -11786 
  -11547   -11393   -11385   -11352   -11370   -11516   -11619   -11590 
  -11480   -11299   -10984   -10637   -10446   -10364   -10234   -10070 
   -9984    -9945    -9865    -9738    -9534    -9277    -9016    -8723 
   -8410    -8128    -7913    -7780    -7717    -7755    -7959    -8319 
   -8707    -9011    -9191    -9220    -9227    -9366    -9520    -9617 
   -9788   -10072   -10405   -10681   -10878   -11051   -11128   -11104 
  -11113   -11239   -11414   -11439   -11347   -11296   -11228   -11109 
  -11012   -10928   -10823   -10711   -10620   -10540   -10435   -10309 
  -10147    -9984    -9913    -9943   -10088   -10321   -10466   -10457 
  -10438   -10463   -10443   -10375   -10356   -10415   -10442   -10375 
  -10333   -10307   -10159    -9912    -9684    -9560    -9550    -9505 
   -9238    -8883    -8659    -8459    -8134    -7774    -7541    -7419 
   -7349    -7315    -7223    -7128    -7168    -7258    -7295    -7358 
   -7559    -7758    -7764    -7698    -7684    -7635    -7442    -7219 
   -7250    -7444    -7486    -7427    -7483    -7658    -7732    -7659 
   -7647    -7759    -7893    -7952    -8005    -8168    -8282    -8267 
   -8341    -8483    -8516    -8544    -8652    -8709    -8696    -8698 
   -8653    -8468    -8190    -7954    -7838    -7737    -7561    -7407 
   -7355    -7388    -7476    -7575    -7676    -7810    -7958    -8027 
   -7978    -7832    -7537    -7150    -6917    -6879    -6906    -6988 
   -7018    -6904    -6812    -6835    -6876    -6827    -6683    -6542 
   -6463    -6426    -6443    -6458    -6309    -6029    -5808    -5663 
   -5498    -5286    -5135    -5158    -5258    -5302    -5289    -5306 
   -5408    -5425    -5218    -4950    -4748    -4576    -4479    -4567 
   -4848    -5192    -5446    -5636    -5897    -6174    -6385    -6541 
   -6556    -6504    -6665    -7026    -7332    -7507    -7676    -7964 
   -8357    -8733    -9081    -9491    -9949   -10350   -10651   -10882 
  -11050   -11177   -11296   -11392   -11456   -11475   -11384   -11100 
  -10690   -10415   -10394   -10470   -10404   -10153    -9897    -9754 
   -9724    -9740    -9726    -9746    -9806    -9839    -9866    -9900 
   -9919    -9855    -9689    -9497    -9262    -9002    -8841    -8765 
   -8720    -8799    -9048    -9328    -9432    -9313    -9132    -8935 
   -8680    -8398    -8142    -7994    -7927    -7868    -7889    -8020 
   -8224    -8494    -8709    -8746    -8712    -8695    -8648    -8558 
   -8405    -8286    -8257    -8116    -7879    -7707    -7558    -7394 
   -7242    -7093    -6920    -6729    -6596    -6579    -6613    -6645 
   -6744    -6869    -6929    -7044    -7216    -7273    -7243    -7272 
   -7328    -7294    -7223    -7249    -7360    -7415    -7344    -7250 
   -7204    -7117    -6994    -7017    -7188    -7365    -7553    -7757 
   -8003    -8309    -8487    -8463    -8366    -8236    -8071    -7906 
   -7806    -7775    -7696    -7536    -7347    -7123    -6902    -6720 
   -6525    -6312    -6125    -5993    -5887    -5799    -5765    -5787 
   -5871    -6002    -6094    -6085    -5926    -5659    -5358    -4962 
   -4483    -4013    -3586    -3310    -3256    -3280    -3244    -3209 
   -3252    -3318    -3374    -3392    -3405    -3519    -3690    -3838 
   -3928    -4026    -4202    -4275    -4248    -4344    -4576    -4856 
   -5084    -5207    -5280    -5407    -5583    -5643    -5541    -5413 
   -5350    -5341    -5352    -5341    -5316    -5381    -5544    -5634 
   -5615    -5663    -5791    -5813    -5750    -5776    -5840    -5781 
   -5611    -5457    -5408    -5480    -5586    -5620    -5603    -5658 
   -5856    -6132    -6378    -6611    -6894    -7207    -7602    -8145 
   -8644    -8896    -9020    -9175    -9287    -9278    -9182    -9121 
   -9220    -9458    -9718    -9937   -10128   -10230   -10198   -10137 
  -10046    -9900    -9793    -9698    -9595    -9525    -9467    -9365 
   -9170    -8988    -8908    -8894    -8912    -8943    -9038    -9148 
   -9154    -9117    -9086    -9004    -8855    -8689    -8563    -8526 
   -8627    -8759    -8814    -8838    -8803    -8778    -8899    -9007 
   -8989    -8990    -9052    -9088    -9057    -8996    -9049    -9225 
   -9346    -9355    -9301    -9207    -9051    -8858    -8811    -8945 
   -9066    -9157    -9291    -9383    -9394    -9295    -9009    -8614 
   -8285    -8089    -7940    -7815    -7831    -7890    -7846    -7866 
   -8012    -8084    -7987    -7749    -7466    -7291    -7229    -7182 
   -7150    -7164    -7253    -7425    -7574    -7592    -7422    -7123 
   -6938    -6973    -7047    -7023    -6926    -6783    -6561    -6295 
   -6142    -6092    -5985    -5900    -5988    -6132    -6158    -6124 
   -6200    -6389    -6577    -6762    -6964    -7106    -7177    -7242 
