Origin Time       2011/03/11 14:46:00
Lat.              38.103
Long.             142.860
Depth. (km)       24
Mag.              9.0
Station Code      SZO026
Station Lat.      34.9812
Station Long.     137.8964
Station Height(m) 133
Record Time       2011/03/11 14:48:47
Sampling Freq(Hz) 100Hz
Duration Time(s)  177
Dir.              U-D
Scale Factor      3920(gal)/6182761
Max. Acc. (gal)   4.780
Last Correction   2011/03/11 14:48:32
Memo.             
[...]
  -50356   -50445   -50480   -50497   -50544   -50640   -50670   -50555 
  -50439   -50405   -50363   -50316   -50283   -50173   -49971   -49734 
  -49485   -49246   -49029   -48808   -48562   -48311   -48110   -47992 
  -47944   -47954   -48013   -48099   -48159   -48138   -48040   -47883 
  -47678   -47488   -47340   -47165   -46937   -46729   -46618   -46608 
  -46644   -46676   -46698   -46732   -46804   -46885   -46916   -46937 
  -47030   -47142   -47185   -47172   -47105   -46983   -46894   -46889 
  -46858   -46718   -46576   -46493   -46369   -46203   -46083   -45984 
  -45857   -45719   -45589   -45508   -45487   -45442   -45376   -45391 
  -45436   -45393   -45299   -45229   -45170   -45075   -44920   -44759 
  -44651   -44546   -44449   -44470   -44560   -44585   -44597   -44685 
  -44793   -44903   -45093   -45348   -45544   -45668   -45780   -45885 
  -45994   -46114   -46240   -46420   -46653   -46844   -47003   -47251 
  -47600   -47978   -48342   -48659   -48909   -49114   -49334   -49600 
  -49847   -50044   -50277   -50553   -50783   -50984   -51208   -51410 
  -51559   -51673   -51773   -51902   -52062   -52210   -52397   -52660 
  -52858   -52915   -52952   -53037   -53146   -53216   -53090   -52743 
  -52410   -52203   -52005   -51781   -51570   -51314   -50969   -50597 
  -50257   -50027   -49991   -50002   -49838   -49554   -49285   -49009 
  -48744   -48535   -48285   -47908   -47513   -47221   -46973   -46731 
  -46552   -46391   -46169   -45964   -45847   -45698   -45443   -45211 
  -45071   -44932   -44718   -44417   -44090   -43793   -43482   -43161 
  -42912   -42736   -42619   -42617   -42709   -42808   -42896   -42978 
  -43074   -43257   -43506   -43719   -43930   -44193   -44412   -44535 
  -44672   -44906   -45177   -45410   -45653   -45955   -46232   -46445 
  -46706   -47006   -47236   -47480   -47822   -48116   -48262   -48334 
  -48359   -48360   -48455   -48677   -48941   -49195   -49416   -49539 
  -49568   -49637   -49841   -50100   -50288   -50381   -50439   -50459 
  -50390   -50299   -50262   -50186   -50026   -49884   -49746   -49561 
  -49446   -49408   -49335   -49287   -49347   -49386   -49302   -49214 
  -49253   -49347   -49384   -49414   -49486   -49512   -49475   -49482 
  -49513   -49451   -49331   -49270   -49228   -49128   -49034   -49005 
  -48960   -48849   -48760   -48724   -48640   -48506   -48402   -48277 
  -48095   -47949   -47834   -47598   -47265   -47055   -46962   -46795 
  -46635   -46578   -46415   -46109   -45910   -45823   -45688   -45550 
  -45472   -45377   -45239   -45083   -44941   -44918   -44993   -44967 
  -44819   -44706   -44673   -44674   -44674   -44646   -44592   -44547 
  -44544   -44594   -44657   -44670   -44626   -44575   -44565   -44553 
  -44436   -44208   -43987   -43840   -43729   -43615   -43476   -43306 
  -43182   -43162   -43177   -43184   -43222   -43298   -43440   -43667 
  -43890   -44054   -44202   -44364   -44627   -45068   -45574   -46007 
  -46362   -46686   -47065   -47533   -47952   -48240   -48475   -48637 
  -48703   -48799   -48975   -49181   -49400   -49591   -49750   -49939 
  -50132   -50302   -50527   -50837   -51136   -51348   -51524   -51700 
  -51799   -51893   -52133   -52427   -52677   -52955   -53194   -53295 
  -53372   -53529   -53709   -53858   -53982   -54066   -54049   -53915 
  -53772   -53714   -53739   -53788   -53774   -53681   -53580   -53490 
  -53392   -53309   -53222   -53041   -52745   -52415   -52090   -51714 
  -51277   -50852   -50490   -50218   -50067   -49986   -49822   -49496 
  -49076   -48644   -48274   -48071   -48066   -48152   -48168   -48014 
  -47747   -47585   -47651   -47816   -47855   -47719   -47582   -47520 
  -47429   -47398   -47615   -47901   -47911   -47611   -47249   -47041 
  -46970   -46891   -46758   -46579   -46301   -45928   -45613   -45475 
  -45496   -45610   -45703   -45655   -45578   -45710   -46041   -46369 
  -46594   -46680   -46658   -46678   -46797   -46931   -47044   -47104 
  -47089   -47131   -47326   -47522   -47599   -47651   -47719   -47741 
  -47757   -47817   -47863   -47859   -47856   -47886   -47917   -47943 
  -47988   -48063   -48165   -48267   -48359   -48412   -48371   -48268 
  -48196   -48204   -48285   -48333   -48239   -48070   -47959   -47953 
  -48102   -48441   -48848   -49161   -49381   -49633   -49988   -50422 
  -50893   -51313   -51608   -51854   -52157   -52492   -52789   -53034 
  -53253   -53453   -53618   -53754   -53878   -53981   -54036   -54053 
  -54047   -54019   -53995   -54027   -54125   -54263   -54395   -54475 
  -54517   -54616   -54799   -54982   -55143   -55350   -55566   -55705 
  -55803   -55896   -55956   -56019   -56079   -56035   -55945   -55964 
  -56054   -56104   -56126   -56128   -56089   -56098   -56248   -56473 
  -56639   -56670   -56584   -56453   -56338   -56273   -56227   -56111 
  -55911   -55720   -55583   -55473   -55404   -55373   -55294   -55166 
  -55114   -55150   -55142   -55052   -54903   -54630   -54246   -53912 
  -53720   -53614   -53502   -53330   -53119   -52950   -52865   -52805 
  -52700   -52537   -52330   -52088   -51816   -51561   -51388   -51288 
  -51213   -51117   -50972   -50854   -50829   -50820   -50759   -50671 
  -50575   -50429   -50189   -49930   -49717   -49479   -49171   -48877 
  -48617   -48307   -47935   -47597   -47383   -47263   -47118   -46883 
  -46597   -46344   -46203   -46160   -46110   -45989   -45852   -45759 
  -45675   -45599   -45583   -45603   -45624   -45692   -45809   -45917 
  -46037   -46160   -46247   -46375   -46601   -46828   -47000   -47127 
  -47164   -47148   -47247   -47489   -47717   -47831   -47872   -47902 
  -47964   -48118   -48368   -48624   -48796   -48879   -48935   -49012 
  -49105   -49205   -49304   -49362   -49365   -49368   -49394   -49406 
  -49382   -49297   -49141   -49011   -48949   -48897   -48874   -48921 
  -48980   -48994   -49021   -49130   -49288   -49430   -49556   -49647 
  -49687   -49751   -49875   -49971   -50011   -50054   -50115   -50190 
  -50264   -50237   -50076   -49909   -49767   -49556   -49311   -49145 
  -49052   -48977   -48921   -48855   -48771   -48716   -48708   -48747 
  -48802   -48802   -48736   -48660   -48588   -48498   -48390   -48266 
  -48119   -47963   -47781   -47566   -47412   -47393   -47399   -47296 
  -47097   -46883   -46723   -46648   -46651   -46703   -46768   -46856 
  -47002   -47191   -47402   -47631   -47852   -48071   -48321   -48553 
  -48763   -49044   -49344   -49526   -49655   -49839   -49972   -49998 
  -50069   -50208   -50281   -50276   -50235   -50170   -50113   -50066 
  -50035   -50051   -50084   -50091   -50095   -50099   -50104   -50141 
  -50199   -50249   -50311   -50355   -50307   -50220   -50172   -50108 
  -49995   -49892   -49814   -49735   -49664   -49595   -49518   -49463 
  -49461   -49514   -49611   -49710   -49755   -49727   -49648   -49553 
  -49483   -49441   -49400   -49356   -49303   -49234   -49156   -49060 
  -48928   -48776   -48610   -48392   -48097   -47750   -47444   -47234 
  -47042   -46843   -46744   -46728   -46699   -46676   -46693   -46727 
  -46780   -46853   -46908   -46898   -46835   -46782   -46749   -46699 
  -46649   -46619   -46578   -46547   -46580   -46643   -46697   -46781 
  -46898   -47009   -47116   -47230   -47360   -47503   -47628   -47745 
  -47887   -48015   -48128   -48305   -48524   -48687   -48804   -48938 
  -49085   -49253   -49451   -49625   -49719   -49771   -49856   -49978 
  -50122   -50296   -50421   -50463   -50549   -50713   -50843   -50934 
  -51046   -51138   -51225   -51407   -51631   -51776   -51906   -52137 
  -52409   -52629   -52817   -53005   -53171   -53297   -53414   -53523 
  -53571   -53555   -53543   -53567   -53607   -53635   -53634   -53602 
  -53543   -53446   -53338   -53252   -53151   -52982   -52794   -52652 
  -52545   -52458   -52399   -52341   -52254   -52161   -52105   -52073 
  -51988   -51834   -51663   -51501   -51351   -51205   -51022   -50832 
  -50699   -50579   -50415   -50252   -50109   -49953   -49780   -49612 
  -49468   -49347   -49259   -49216   -49151   -48991   -48797   -48687 
  -48649   -48611   -48610   -48678   -48747   -48783   -48810   -48825 
  -48823   -48808   -48764   -48680   -48562   -48425   -48288   -48164 
  -48060   -47949   -47812   -47695   -47627   -47566   -47489   -47448 
  -47465   -47481   -47494   -47570   -47684   -47753   -47806   -47890 
  -47983   -48074   -48195   -48336   -48421   -48432   -48462   -48534 
  -48541   -48470   -48405   -48359   -48334   -48357   -48402   -48446 
  -48514   -48624   -48753   -48888   -49023   -49158   -49289   -49409 
  -49543   -49724   -49917   -50094   -50270   -50439   -50592   -50762 
  -50951   -51104   -51184   -51202   -51195   -51203   -51237   -51311 
  -51430   -51523   -51534   -51508   -51501   -51513   -51551   -51628 
  -51694   -51714   -51741   -51818   -51902   -51924   -51876   -51801 
  -51726   -51673   -51665   -51679   -51647   -51552   -51453   -51364 
  -51262   -51181   -51143   -51109   -51074   -51074   -51071   -50999 
  -50900   -50843   -50781   -50647   -50502   -50460   -50506   -50534 
  -50515   -50480   -50450   -50478   -50620   -50821   -50974   -51073 
  -51187   -51319   -51431   -51518   -51600   -51680   -51729   -51786 
  -51903   -52024   -52095   -52168   -52260   -52326   -52361   -52383 
  -52378   -52344   -52318   -52306   -52284   -52250   -52209   -52179 
  -52188   -52204   -52169   -52097   -52032   -51992   -51979   -51980 
  -51964   -51931   -51913   -51911   -51909   -51894   -51800   -51639 
  -51540   -51490   -51372   -51212   -51071   -50928   -50815   -50792 
  -50790   -50706   -50575   -50460   -50348   -50254   -50210   -50178 
  -50105   -50003   -49920   -49853   -49758   -49655   -49569   -49439 
  -49237   -49035   -48882   -48754   -48636   -48519   -48367   -48194 
  -48061   -47988   -47938   -47864   -47755   -47668   -47652   -47692 
  -47751   -47831   -47946   -48079   -48192   -48262   -48304   -48344 
  -48386   -48447   -48530   -48586   -48583   -48569   -48577   -48567 
  -48513   -48469   -48471   -48475   -48458   -48444   -48415   -48351 
  -48291   -48265   -48242   -48220   -48245   -48315   -48393   -48455 
  -48473   -48458   -48452   -48494   -48613   -48779   -48914   -49008 
  -49137   -49328   -49536   -49737   -49947   -50168   -50392   -50625 
  -50867   -51099   -51307   -51491   -51646   -51767   -51889   -52014 
  -52112   -52226   -52391   -52531   -52595   -52645   -52730   -52819 
  -52897   -52968   -52999   -52965   -52919   -52925   -52961   -52929 
  -52839   -52791   -52753   -52663   -52580   -52490   -52359   -52316 
  -52386   -52423   -52377   -52275   -52156   -52048   -51921   -51780 
  -51686   -51630   -51563   -51484   -51412   -51390   -51431   -51472 
  -51494   -51504   -51487   -51501   -51590   -51677   -51694   -51671 
  -51617   -51522   -51494   -51572   -51608   -51550   -51496   -51461 
  -51408   -51376   -51361   -51293   -51191   -51126   -51093   -51044 
  -50960   -50918   -50978   -51088   -51189   -51264   -51297   -51348 
  -51472   -51590   -51646   -51700   -51785   -51850   -51884   -51911 
  -51919   -51892   -51840   -51803   -51810   -51809   -51753   -51677 
  -51610   -51548   -51513   -51508   -51498   -51497   -51512   -51506 
  -51509   -51550   -51556   -51506   -51484   -51494   -51481   -51446 
  -51374   -51224   -51039   -50890   -50776   -50641   -50473   -50365 
  -50361   -50322   -50182   -50047   -49995   -50019   -50069   -50109 
  -50143   -50170   -50230   -50349   -50426   -50449   -50525   -50620 
  -50633   -50613   -50634   -50686   -50735   -50744   -50719   -50701 
  -50743   -50885   -50990   -50916   -50823   -50823   -50847   -50914 
  -50967   -50916   -50858   -50858   -50921   -51060   -51154   -51157 
  -51184   -51237   -51329   -51492   -51568   -51544   -51610   -51684 
  -51684   -51732   -51722   -51637   -51719   -51882   -51924   -51925 
  -51948   -51992   -52051   -52073   -52073   -52040   -51945   -51901 
  -51914   -51840   -51736   -51702   -51653   -51605   -51640   -51657 
  -51631   -51662   -51671   -51616   -51633   -51686   -51659   -51596 
  -51548   -51514   -51453   -51333   -51241   -51161   -50996   -50814 
  -50610   -50384   -50302   -50258   -50082   -50030   -50184   -50213 
  -50115   -50177   -50330   -50313   -50195   -50211   -50333   -50423 
  -50513   -50577   -50570   -50682   -50939   -51048   -51025   -51153 
  -51334   -51371   -51473   -51687   -51772   -51811   -51915   -51933 
  -51972   -52157   -52227   -52123   -52082   -52140   -52273   -52411 
  -52356   -52247   -52306   -52362   -52370   -52403   -52366   -52388 
  -52525   -52537   -52469   -52539   -52602   -52564   -52635   -52723 
  -52704   -52697   -52643   -52661   -52861   -52862   -52685   -52759 
  -52886   -52758   -52613   -52632   -52623   -52451   -52315   -52367 
  -52381   -52164   -51904   -51818   -51854   -51857   -51697   -51448 
  -51453   -51668   -51631   -51380   -51265   -51314   -51272   -50914 
  -50561   -50541   -50496   -50295   -50179   -50111   -50137   -50217 
  -50126   -50089   -50207   -50284   -50421   -50672   -50906   -51097 
  -51353   -51618   -51699   -51826   -52154   -52404   -52610   -52806 
  -52788   -52783   -53124   -53673   -53962   -53852   -53976   -54486 
  -54623   -54495   -54906   -55386   -55285   -55397   -55831   -55836 
  -55935   -56429   -56601   -56447   -56414   -56500   -56476   -56317 
  -56612   -56992   -56131   -55465   -56338   -56596   -56010   -56107 
  -56041   -55561   -55730   -56062   -55927   -55845   -55995   -56035 
  -55687   -55319   -55590   -55869   -55301   -54955   -55382   -55058 
  -54536   -55018   -54947   -54458   -54609   -54332   -53924   -54093 
  -54038   -53780   -53638   -53433   -53274   -53119   -52955   -53052 
  -53202   -52988   -52554   -52296   -52271   -52402   -52468   -52097 
  -51595   -51413   -51327   -51201   -51026   -50729   -50541   -50546 
  -50407   -50093   -49952   -49929   -49779   -49607   -49494   -49345 
  -49242   -49220   -49104   -48906   -48761   -48649   -48491   -48331 
  -48303   -48312   -48202   -48164   -48290   -48252   -48014   -47946 
  -48063   -48100   -48018   -47937   -47935   -47936   -47853   -47763 
  -47734   -47729   -47723   -47674   -47539   -47440   -47523   -47638 
  -47635   -47611   -47628   -47665   -47719   -47801   -47907   -47934 
  -47843   -47801   -47845   -47848   -47854   -47913   -47933   -47945 
  -48030   -48070   -47989   -47963   -48046   -48079   -48117   -48294 
  -48466   -48495   -48529   -48674   -48766   -48764   -48858   -48991 
  -48947   -48859   -48962   -49166   -49258   -49240   -49247   -49274 
  -49249   -49246   -49314   -49316   -49221   -49190   -49219   -49180 
  -49145   -49190   -49206   -49172   -49204   -49245   -49164   -49043 
  -49035   -49137   -49226   -49210   -49094   -48945   -48844   -48823 
  -48823   -48774   -48700   -48642   -48602   -48552   -48457   -48362 
  -48323   -48285   -48234   -48226   -48172   -48027   -47955   -47974 
  -47955   -47873   -47757   -47638   -47506   -47382   -47307   -47163 
  -46914   -46772   -46765   -46699   -46521   -46371   -46294   -46146 
  -45952   -45813   -45659   -45552   -45525   -45460   -45375   -45330 
  -45320   -45342   -45383   -45416   -45409   -45392   -45408   -45418 
  -45448   -45561   -45680   -45757   -45854   -45943   -45965   -45988 
  -46107   -46250   -46327   -46413   -46523   -46575   -46585   -46596 
  -46633   -46712   -46797   -46851   -46884   -46955   -47115   -47276 
  -47328   -47344   -47418   -47493   -47497   -47468   -47465   -47482 
  -47477   -47411   -47307   -47244   -47248   -47286   -47315   -47307 
  -47294   -47324   -47399   -47472   -47483   -47451   -47435   -47429 
  -47430   -47452   -47473   -47483   -47495   -47519   -47506   -47410 
  -47308   -47272   -47238   -47170   -47095   -46995   -46887   -46820 
  -46789   -46775   -46764   -46733   -46735   -46819   -46897   -46872 
  -46796   -46758   -46740   -46685   -46623   -46603   -46604   -46587 
  -46564   -46523   -46429   -46337   -46292   -46217   -46102   -46014 
  -45925   -45807   -45725   -45682   -45627   -45594   -45630   -45666 
  -45666   -45724   -45864   -45978   -46040   -46148   -46340   -46516 
  -46626   -46736   -46883   -47062   -47275   -47457   -47551   -47635 
  -47772   -47908   -48027   -48142   -48226   -48321   -48454   -48559 
  -48648   -48805   -48998   -49130   -49219   -49335   -49472   -49621 
  -49797   -49953   -50030   -50056   -50119   -50257   -50395   -50464 
  -50535   -50674   -50810   -50896   -50968   -51030   -51090   -51172 
  -51258   -51331   -51355   -51317   -51295   -51319   -51311   -51256 
  -51181   -51099   -51050   -51015   -50956   -50933   -50915   -50826 
  -50749   -50749   -50755   -50708   -50610   -50505   -50415   -50319 
  -50210   -50077   -49900   -49716   -49573   -49476   -49398   -49301 
  -49178   -49053   -48947   -48868   -48833   -48847   -48857   -48821 
  -48783   -48806   -48873   -48917   -48920   -48905   -48888   -48868 
  -48827   -48756   -48697   -48680   -48673   -48647   -48593   -48522 
  -48429   -48301   -48203   -48181   -48160   -48136   -48165   -48210 
  -48220   -48214   -48251   -48358   -48456   -48487   -48520   -48594 
  -48666   -48697   -48663   -48586   -48519   -48471   -48460   -48470 
  -48413   -48297   -48201   -48106   -47993   -47925   -47874   -47753 
  -47580   -47420   -47285   -47179   -47140   -47144   -47091   -47000 
  -46963   -46952   -46934   -46932   -46944   -46931   -46878   -46854 
  -46899   -46931   -46922   -46927   -46956   -46971   -46970   -46969 
  -46955   -46928   -46919   -46933   -46931   -46915   -46925   -46943 
  -46950   -46956   -46973   -47059   -47212   -47286   -47264   -47298 
  -47414   -47531   -47622   -47694   -47760   -47814   -47862   -47938 
  -47992   -47980   -47968   -48005   -48059   -48098   -48118   -48140 
  -48182   -48230   -48273   -48335   -48408   -48432   -48416   -48470 
  -48609   -48748   -48828   -48852   -48891   -49000   -49121   -49174 
  -49180   -49187   -49188   -49183   -49167   -49094   -48966   -48844 
  -48751   -48689   -48678   -48684   -48654   -48635   -48685   -48756 
  -48784   -48796   -48806   -48798   -48778   -48720   -48628   -48592 
  -48638   -48693   -48685   -48621   -48613   -48682   -48699   -48653 
  -48618   -48557   -48463   -48395   -48375   -48399   -48405   -48362 
  -48340   -48364   -48427   -48505   -48504   -48401   -48292   -48262 
  -48316   -48364   -48311   -48194   -48127   -48162   -48253   -48307 
  -48302   -48287   -48286   -48290   -48267   -48209   -48166   -48128 
  -48056   -48012   -48012   -47990   -47941   -47882   -47812   -47768 
  -47748   -47720   -47722   -47760   -47768   -47774   -47820   -47851 
  -47850   -47824   -47794   -47826   -47916   -48021   -48109   -48116 
  -48061   -48081   -48228   -48381   -48436   -48445   -48478   -48516 
  -48553   -48608   -48672   -48722   -48760   -48819   -48903   -48976 
  -49041   -49116   -49173   -49200   -49224   -49245   -49245   -49247 
  -49271   -49287   -49258   -49173   -49059   -48937   -48764   -48546 
  -48405   -48317   -48180   -48058   -47962   -47820   -47695   -47632 
  -47583   -47519   -47435   -47334   -47224   -47138   -47067   -46987 
