Origin Time       2011/03/11 14:46:00
Lat.              38.103
Long.             142.860
Depth. (km)       24
Mag.              9.0
Station Code      SZO015
Station Lat.      35.2433
Station Long.     138.3410
Station Height(m) 451
Record Time       2011/03/11 14:47:53
Sampling Freq(Hz) 100Hz
Duration Time(s)  231
Dir.              U-D
Scale Factor      3920(gal)/6182761
Max. Acc. (gal)   7.699
Last Correction   2011/03/11 14:47:38
Memo.             
[...]
   10577    10270     9625     8963     8287     7550     7017     7026 
    7630     8555     9132     8775     7873     7315     7186     6909 
    6313     5721     5285     4888     4553     4592     5338     6769 
    8561    10446    12184    13344    13559    13081    12644    12518 
   12364    11943    11225    10308     9485     9031     9053     9586 
   10537    11464    11672    10908     9826     9298     9597    10596 
   11874    12651    12613    12210    11970    12224    12734    12721 
   12272    12419    13265    13921    14004    13597    12827    12157 
   11861    11540    10856     9925     8994     8204     7441     6547 
    5805     5707     6218     6815     7132     7228     7415     7888 
    8428     8704     8761     8926     9442    10242    10873    10943 
   10572    10102     9774     9684     9650     9353     8768     8339 
    8408     8561     8156     7309     6795     7101     7894     8592 
    9053     9284     9152     8751     8356     7999     7582     7128 
    6648     6080     5528     5354     5861     6905     8016     8876 
    9435     9686     9637     9404     9141     8940     8681     8109 
    7314     6744     6794     7654     9162    10720    11649    11764 
   11443    11115    11076    11650    12700    13417    13238    12332 
   11200    10383    10089    10042     9959     9812     9634     9355 
    8909     8486     8395     8652     9111     9736    10352    10565 
   10166     9449     9127     9606    10386    10745    10643    10510 
   10573    10685    10648    10488    10361    10358    10303     9948 
    9441     9054     8716     8185     7323     6281     5527     5451 
    5983     6592     6715     6394     6133     6100     6013     5604 
    4870     4097     3610     3418     3346     3397     3755     4584 
    5738     6606     6709     6343     6188     6538     7139     7600 
    7727     7480     7011     6636     6464     6390     6486     6934 
    7656     8123     7688     6463     5456     5529     6764     8604 
   10110    10734    10848    10949    11066    11167    11189    10942 
   10584    10490    10695    11017    11241    11158    10807    10267 
    9406     8395     7858     8171     9111    10057    10395    10074 
    9755    10248    11739    13518    14613    14664    14116    13632 
   13310    12680    11506    10110     8909     8091     7769     7928 
    8202     8159     7782     7384     7256     7546     8075     8229 
    7595     6572     5956     6288     7618     9328    10415    10365 
    9469     8326     7351     6651     6148     5772     5404     4888 
    4327     4048     4159     4558     5149     5592     5382     4512 
    3389     2202     1073      416      638     1718     3184     4551 
    5700     6650     7311     7584     7342     6490     5281     4228 
    3572     3222     3246     3807     4763     5754     6479     6910 
    7338     7880     8209     8111     7807     7487     7178     7060 
    7298     7795     8448     9236     9898     9941     9199     8211 
    7750     8015     8459     8446     7976     7624     7786     8293 
    8703     8668     8112     7292     6560     6009     5485     4899 
    4420     4292     4487     4865     5486     6411     7474     8408 
    8919     8879     8597     8505     8610     8624     8414     8122 
    7989     8069     8135     8012     7925     8082     8226     8100 
    7679     6909     5981     5269     4879     4872     5360     6149 
    6890     7346     7347     6886     6227     5690     5366     5186 
    5119     5064     4740     4072     3453     3398     4038     4979 
    5733     6257     6661     6788     6507     5901     5101     4296 
    3809     3850     4200     4461     4531     4557     4639     4741 
    4768     4686     4570     4518     4512     4452     4382     4417 
    4616     4985     5218     4874     4111     3559     3545     3886 
    4162     4231     4396     4831     5241     5182     4494     3529 
    2915     2900     3209     3543     3908     4399     4876     5205 
    5553     6088     6800     7601     8300     8740     8926     8948 
    9032     9393     9906    10261    10339    10175     9852     9558 
    9408     9159     8500     7589     6889     6618     6583     6372 
    5769     5010     4572     4594     4579     4110     3512     3232 
    3276     3648     4343     4997     5300     5329     5238     5164 
    5262     5570     6081     6769     7380     7671     7704     7611 
    7487     7522     7922     8713     9615    10187    10303    10230 
   10107     9834     9402     8826     8146     7620     7411     7408 
    7661     8452     9730    10930    11500    11322    10746    10462 
   10870    11525    11759    11473    10895    10352    10325    10799 
   10996    10419     9387     8382     7690     7419     7319     6948 
    6239     5638     5634     6183     6706     6707     6147     5354 
    4724     4404     4328     4383     4521     4856     5425     5975 
    6260     6354     6400     6270     5860     5469     5417     5659 
    6026     6361     6475     6379     6220     5892     5187     4189 
    3245     2654     2390     2100     1505      783      385      525 
     980     1320     1364     1373     1621     1978     2238     2513 
    2989     3648     4374     5055     5564     5884     6162     6443 
    6613     6666     6665     6647     6724     6935     7084     7055 
    7081     7424     7964     8370     8436     8284     8396     9031 
    9667     9692     9153     8436     7805     7211     6362     5237 
    4376     4394     5270     6337     6959     7005     6704     6312 
    5959     5606     5146     4577     4163     4226     4719     5401 
    6190     6875     7092     6837     6489     6466     7061     8149 
    9042     9104     8361     7217     6004     4953     4217     3835 
    3709     3692     3804     4139     4680     5403     6231     6959 
    7470     7839     8072     8025     7663     7260     7240     7811 
    8756     9739    10682    11630    12515    13079    12989    12209 
   11228    10674    10678    10829    10775    10558    10365    10201 
    9873     9226     8408     7873     7953     8387     8509     8075 
    7593     7695     8518     9735    10866    11556    11793    11876 
   12009    12040    11700    11042    10407     9881     9228     8431 
    7820     7762     8435     9615    10736    11265    10877     9617 
    8008     6596     5595     5063     5031     5386     5762     5766 
    5549     5768     6794     8292     9522     9877     9358     8525 
    7921     7725     7807     7940     7930     7751     7622     7711 
    7948     8285     8785     9306     9491     9142     8439     7742 
    7196     6606     5814     4969     4333     4108     4417     5166 
    5970     6450     6628     6871     7459     8424     9609    10649 
   11269    11564    11771    12140    12923    14099    15252    15917 
   16095    16242    16603    17053    17389    17291    16606    15733 
   15120    14669    13904    12562    11036    10124    10193    10939 
   11841    12492    12732    12634    12368    12181    12260    12520 
   12597    12137    11263    10426     9740     8970     8026     7074 
    6324     5892     5785     5879     6079     6444     7014     7693 
    8283     8666     9020     9623    10366    10745    10429     9624 
    8860     8537     8632     8958     9466    10172    11005    11678 
   11907    11765    11409    10890    10449    10433    10806    11060 
   10787    10111     9454     9086     8930     8834     8832     8854 
    8665     8308     8018     7737     7285     6667     5923     5183 
    4877     5390     6603     7947     8902     9427     9759     9974 
   10036     9897     9402     8494     7585     7197     7237     7234 
    7179     7397     7947     8695     9447     9931     9997     9575 
    8534     6999     5409     4181     3622     3867     4696     5613 
    6265     6726     7195     7793     8649     9717    10789    11704 
   12295    12527    12634    12848    13106    13232    13265    13162 
   12655    11889    11337    11113    11149    11436    11649    11370 
   10711    10063     9558     9165     8764     8118     7323     6813 
    6682     6710     6735     6591     6325     6271     6535     6944 
    7338     7618     7827     7990     7887     7288     6202     4918 
    3903     3637     4351     5662     6778     7319     7452     7403 
    7257     6992     6616     6213     5807     5328     4737     4137 
    3850     4324     5639     7197     8300     8815     9050     9232 
    9315     9263     9130     8865     8451     8035     7745     7631 
    7680     7683     7412     6951     6538     6252     6131     6270 
    6599     6877     7037     7151     7202     7180     7092     6849 
    6389     5910     5774     6149     6892     7700     8340     8832 
    9319     9843    10275    10337     9923     9334     8921     8609 
    8096     7372     6718     6294     6003     5770     5723     5969 
    6417     6899     7264     7421     7322     6963     6469     6069 
    5946     6068     6103     5746     5065     4410     4151     4421 
    5076     5948     6851     7474     7526     6972     6153     5570 
    5456     5697     6194     7010     8095     9205    10168    10993 
   11705    12132    11942    11022     9661     8281     7230     6730 
    6702     6750     6598     6353     6253     6480     7146     8157 
    9175     9758     9557     8620     7339     6134     5321     4935 
    4658     4342     4249     4553     5043     5503     5973     6447 
    6789     6915     6631     5770     4649     3887     3859     4437 
    5113     5501     5684     5951     6404     6954     7422     7659 
    7790     8064     8482     8993     9696    10667    11836    12830 
   13073    12474    11600    10942    10646    10757    11194    11920 
   13123    14839    16710    18187    18796    18374    17128    15464 
   13616    11599     9737     8597     8288     8403     8401     8069 
    7774     7790     7836     7621     7171     6583     5891     5098 
    4116     2806     1377      479      473     1065     1837     2607 
    3305     3894     4471     5135     5807     6411     6865     6885 
    6259     5030     3465     2138     1671     2171     3138     4016 
    4667     5344     6314     7376     8074     8274     8008     7314 
    6495     5869     5516     5443     5630     6098     6943     8120 
    9388    10551    11543    12268    12609    12527    12006    11105 
    9944     8545     6981     5606     4751     4442     4555     4955 
    5504     6177     7020     7954     8869     9687    10184    10108 
    9376     8047     6414     4999     4265     4408     5284     6521 
    7895     9395    10900    12266    13410    14091    14206    13972 
   13453    12453    10820     8609     6261     4400     3330     3020 
    3357     4204     5372     6555     7392     7729     7638     7295 
    6979     6858     6865     6955     7044     6843     6193     5302 
    4467     3672     2652     1412      246     -595     -819     -211 
    1001     2383     3713     4954     6076     7066     7899     8405 
    8337     7619     6445     5145     4066     3538     3695     4129 
    4155     3629     2943     2425     2205     2265     2478     2764 
    3117     3483     3774     4052     4409     4773     5124     5511 
    5822     6005     6186     6367     6418     6309     6127     5994 
    5991     6197     6708     7463     8210     8785     9244     9653 
    9932     9937     9540     8718     7656     6659     5979     5806 
    6207     6956     7702     8231     8437     8415     8510     8953 
    9576     9940     9749     9144     8412     7686     7067     6575 
    6103     5702     5620     5988     6734     7729     8742     9471 
    9758     9598     9074     8350     7488     6489     5540     4873 
    4526     4561     5114     6142     7494     8926    10122    10965 
   11462    11618    11542    11286    10770     9985     9112     8396 
    7999     8026     8407     8814     9005     9005     8959     9003 
    9097     9156     9308     9599     9752     9617     9362     9144 
    9018     8982     8857     8572     8399     8469     8555     8491 
    8302     8042     7778     7557     7334     6953     6222     5049 
    3560     2160     1318     1146     1459     2145     3050     3806 
    4104     3899     3340     2717     2274     2073     2208     2736 
    3421     4038     4699     5550     6527     7548     8547     9311 
    9615     9468     9090     8725     8405     8022     7693     7713 
    8303     9518    11148    12855    14284    15077    15129    14649 
   13914    13239    12957    13120    13507    13990    14483    14901 
   15344    15842    16264    16565    16630    16269    15566    14804 
   14131    13480    12819    12206    11580    10902    10273     9827 
    9710     9900    10140    10225    10115     9791     9204     8412 
    7648     7114     6834     6788     6995     7367     7691     7973 
    8411     8983     9441     9544     9243     8614     7753     6936 
    6384     5984     5647     5478     5545     5879     6431     6889 
    6939     6667     6301     5864     5413     5147     5227     5766 
    6744     7927     9099    10174    11093    11856    12516    13052 
   13402    13600    13709    13753    13943    14505    15397    16532 
   17763    18789    19491    19933    20108    20026    19790    19411 
   18795    18024    17306    16692    16160    15761    15473    15093 
   14409    13441    12430    11622    11093    10705    10267     9632 
    8636     7207     5574     4133     3103     2596     2800     3525 
    4137     4380     4429     4415     4548     4985     5518     5924 
    6218     6465     6749     7220     7935     8836     9867    10794 
   11264    11208    10838    10375     9976     9661     9367     9135 
    9094     9445    10344    11587    12701    13329    13425    13234 
   12959    12564    11926    10964     9868     9116     8958     9212 
    9528     9723     9944    10269    10427    10141     9400     8444 
    7563     6929     6746     7134     7824     8281     8083     7257 
    6265     5695     5855     6453     7001     7413     7859     8474 
    9273    10150    11033    11916    12871    13912    14796    15236 
   15099    14439    13615    13095    13125    13661    14383    14863 
   14832    14308    13545    12806    12252    11989    11948    11889 
   11622    11063    10263     9479     8997     8926     9213     9722 
   10226    10456    10324     9977     9537     9023     8359     7327 
    5852     4284     3180     2874     3272     3992     4675     5203 
    5801     6773     8088     9438    10510    11061    11112    10975 
   10768    10300     9462     8345     7217     6444     6195     6446 
    7154     8247     9578    10797    11528    11794    11887    11843 
   11415    10491     9360     8447     7867     7517     7347     7338 
    7498     7820     8201     8559     8830     8902     8657     8033 
    7211     6528     6053     5609     5043     4366     3826     3595 
    3573     3745     4229     4953     5671     6075     5998     5621 
    5154     4627     4119     3722     3365     2988     2762     2864 
    3170     3503     3910     4443     5014     5460     5607     5506 
    5527     5975     6762     7511     7972     8240     8557     9083 
    9783    10340    10435    10077     9487     8964     8809     9114 
    9739    10434    10855    10793    10505    10500    10940    11606 
   12191    12411    12223    11938    11904    12182    12468    12397 
   11891    11076    10163     9370     8838     8707     8984     9434 
    9946    10613    11396    12120    12631    12817    12676    12257 
   11623    10949    10411     9996     9606     9231     8854     8358 
    7804     7516     7607     7815     7923     7960     8081     8427 
    8889     9101     8775     7867     6489     4898     3436     2372 
    1847     1899     2501     3579     4918     6249     7462     8534 
    9420    10117    10613    10814    10608    10038     9363     8902 
    8875     9342    10148    11078    12068    13065    13856    14315 
   14554    14764    15064    15359    15373    14984    14401    13937 
   13772    13941    14392    14957    15407    15621    15654    15664 
   15820    16131    16284    15853    14730    13185    11591    10330 
    9738     9797    10105    10244    10104     9866     9645     9427 
    9313     9366     9405     9295     9042     8635     8247     8158 
    8363     8588     8534     8139     7682     7388     7279     7411 
    7733     8034     8249     8372     8266     7909     7482     7126 
    6876     6752     6754     6796     6725     6549     6511     6765 
    7216     7672     7937     7931     7839     8014     8691     9732 
   10647    11032    10852    10326     9765     9358     9069     8851 
    8746     8751     8779     8739     8616     8445     8262     7983 
    7467     6765     6077     5546     5213     4995     4786     4566 
    4371     4287     4427     4793     5322     6026     6903     7764 
    8344     8560     8547     8554     8726     8922     8968     8874 
    8672     8400     8250     8333     8437     8343     8186     8166 
    8185     8122     8030     7836     7378     6749     6193     5831 
    5595     5273     4685     3915     3297     3113     3438     4225 
    5338     6583     7811     8857     9473     9553     9320     9074 
    8902     8758     8632     8577     8642     8827     9125     9535 
    9881     9884     9546     9143     8875     8761     8690     8512 
    8195     7800     7374     6987     6712     6551     6534     6753 
    7155     7503     7580     7305     6836     6521     6497     6580 
    6605     6563     6454     6321     6383     6745     7153     7333 
    7294     7225     7279     7461     7744     8097     8345     8332 
    8157     7971     7769     7578     7522     7603     7685     7654 
    7531     7500     7733     8182     8588     8724     8586     8251 
    7738     7188     6826     6762     7020     7476     7844     8020 
    8185     8515     9021     9499     9565     9005     8043     7144 
    6580     6276     6099     6056     6173     6444     6797     7077 
    7269     7473     7543     7211     6564     5942     5681     6048 
    6979     8060     8944     9521     9812     9902     9798     9488 
    9103     8735     8364     8039     7815     7702     7856     8513 
    9610    10754    11710    12516    13064    13221    13078    12673 
   12065    11556    11225    10801    10178     9510     9057     9107 
    9646    10277    10674    10798    10780    10703    10471     9984 
    9363     8876     8659     8599     8666     9065     9792    10550 
   11083    11165    10673     9837     8962     8054     7001     5927 
    5146     4874     5087     5540     5984     6457     7139     7922 
    8343     8037     7209     6440     6126     6205     6371     6506 
    6687     6883     7046     7247     7539     7936     8386     8690 
    8588     8006     7213     6524     5954     5402     4954     4821 
    5083     5556     5874     5789     5383     4921     4606     4483 
