Origin Time       2011/03/11 14:46:00
Lat.              38.103
Long.             142.860
Depth. (km)       24
Mag.              9.0
Station Code      SZO012
Station Lat.      35.1257
Station Long.     138.6222
Station Height(m) 9
Record Time       2011/03/11 14:47:58
Sampling Freq(Hz) 100Hz
Duration Time(s)  300
Dir.              N-S
Scale Factor      3920(gal)/6182761
Max. Acc. (gal)   22.657
Last Correction   2011/03/11 14:47:43
Memo.             
[...]
 -121256  -119844  -117984  -116283  -115201  -114446  -113411  -111956 
 -110284  -108449  -106544  -104875  -103397  -101612   -99471   -97500 
  -95991   -94852   -94094   -93908   -94285   -94953   -95851   -97269 
  -99330  -101686  -103831  -105257  -105669  -105591  -106041  -107478 
 -109563  -111624  -113038  -113457  -112864  -111331  -109106  -106868 
 -105172  -103920  -102955  -102461  -102331  -102013  -101212  -100359 
 -100193  -100787  -101711  -102755  -103685  -104447  -105520  -107182 
 -109360  -111880  -114183  -115743  -116710  -117529  -118272  -118695 
 -118668  -118314  -117998  -117979  -118084  -118055  -117762  -117019 
 -115820  -114511  -113480  -112890  -112649  -112394  -111712  -110664 
 -109588  -108414  -106997  -105667  -104823  -104442  -104246  -104154 
 -104225  -104223  -103912  -103467  -103015  -102517  -102088  -101802 
 -101717  -102155  -103335  -105036  -107051  -109450  -112241  -115299 
 -118442  -121317  -123485  -124730  -125195  -125080  -124278  -122565 
 -119948  -116673  -113200  -110019  -107414  -105625  -104851  -104839 
 -105029  -105121  -105204  -105347  -105383  -105364  -105637  -106312 
 -107096  -107581  -107532  -107051  -106502  -106195  -106365  -107394 
 -109500  -112430  -115793  -119425  -123308  -127324  -131024  -133849 
 -135522  -135883  -134923  -133153  -131323  -129896  -128763  -127590 
 -126483  -125685  -125119  -124462  -123198  -120989  -117977  -114598 
 -111304  -108615  -107094  -106659  -106508  -106240  -106202  -106790 
 -107980  -109338  -110555  -111641  -112485  -112904  -112938  -112886 
 -113132  -113663  -114311  -115232  -116473  -117687  -118455  -118568 
 -118074  -117258  -116468  -115798  -115107  -114467  -114341  -114739 
 -114897  -114360  -113445  -112657  -112338  -112854  -114537  -117091 
 -119666  -121704  -123349  -124866  -126037  -126567  -126726  -127188 
 -128171  -128925  -128668  -127610  -126375  -125157  -124059  -123528 
 -123959  -125207  -126729  -128187  -129688  -131321  -132532  -132584 
 -131452  -129487  -126951  -124158  -121342  -118668  -116373  -114439 
 -112417  -110037  -107524  -104943  -102177   -99492   -97364   -96167 
  -96205   -97718  -100373  -103053  -104705  -104927  -103849  -101803 
  -99198   -96657   -94794   -93954   -94147   -95072   -96455   -98210 
 -100318  -102639  -104755  -106377  -107564  -108250  -108212  -107561 
 -106787  -106339  -106413  -107220  -108959  -111407  -113976  -116126 
 -117549  -118097  -117737  -116573  -114778  -112631  -110475  -108543 
 -107108  -106457  -106507  -106869  -107134  -107054  -106809  -106898 
 -107667  -109261  -111759  -114966  -118582  -122687  -127419  -132434 
 -136956  -140030  -140954  -139773  -137276  -134341  -131488  -129174 
 -127724  -127035  -126759  -126586  -126446  -126277  -125810  -125078 
 -124278  -123248  -121891  -120389  -118889  -117363  -115627  -113634 
 -111776  -110518  -109744  -109145  -108889  -109126  -109624  -110230 
 -111052  -112299  -113985  -115853  -117730  -119701  -121892  -124261 
 -126582  -128372  -129186  -129027  -127850  -125653  -123111  -120894 
 -119103  -117671  -116610  -116002  -115901  -116370  -117434  -118722 
 -119731  -120245  -120116  -119212  -117553  -115339  -112898  -110463 
 -108206  -106266  -104523  -102742  -100964   -99546   -98733   -98513 
  -98885   -99691  -100584  -101248  -101472  -101332  -101142  -101351 
 -102183  -103227  -104215  -105222  -105953  -106288  -106739  -107891 
 -110157  -113721  -118372  -123395  -128030  -132116  -135717  -138735 
 -141278  -143571  -145587  -147211  -148361  -148972  -149158  -149038 
 -148633  -147818  -146256  -144063  -141732  -139392  -137041  -134601 
 -131803  -128665  -125442  -122214  -118941  -115765  -112962  -110334 
 -107353  -104091  -101015   -98302   -96153   -95165   -95725   -97379 
  -99466  -101704  -103898  -106090  -108299  -110217  -111731  -112681 
 -112627  -111493  -109794  -108334  -107735  -108000  -108616  -109088 
 -109338  -109470  -109337  -108659  -107452  -106048  -104817  -103885 
 -103236  -102947  -102889  -102743  -102625  -103017  -104119  -105720 
 -107650  -109994  -112559  -114644  -115883  -116333  -115856  -114365 
 -112042  -109335  -106937  -105259  -104352  -104261  -105012  -106611 
 -108785  -110873  -112615  -114288  -116153  -118490  -121335  -124113 
 -125938  -126141  -124846  -122941  -121301  -120283  -119869  -119834 
 -119926  -120065  -120264  -120548  -120726  -120224  -118606  -116095 
 -113369  -111007  -109185  -107758  -106536  -105646  -105340  -105518 
 -105990  -106675  -107230  -107160  -106171  -104286  -101956   -99902 
  -98646   -98326   -99027  -100936  -103979  -107794  -112007  -116301 
 -120550  -124758  -128760  -132017  -133775  -133581  -131556  -128475 
 -125566  -123579  -122246  -121207  -120729  -120973  -121573  -122101 
 -122367  -122628  -123226  -123874  -123983  -123436  -122458  -121052 
 -119268  -117674  -116824  -116702  -116916  -117207  -117831  -119160 
 -121070  -123014  -124522  -125676  -126779  -127663  -127836  -126881 
 -124565  -121015  -116743  -112368  -108377  -104944  -102133  -100236 
  -99289   -98867   -98845   -99400  -100612  -102721  -105912  -109738 
 -113243  -115704  -117002  -117188  -116350  -114926  -113369  -111793 
 -110473  -109818  -109818  -110376  -111564  -113117  -114618  -116111 
 -118000  -120464  -123108  -125532  -127832  -130161  -132520  -134783 
 -136627  -137876  -138411  -138088  -136949  -134881  -131872  -128457 
 -125054  -121703  -118512  -115695  -113457  -112128  -111856  -112236 
 -112961  -113913  -114685  -115177  -115771  -116775  -118192  -119452 
 -119667  -118478  -116354  -114211  -112823  -112488  -113125  -114364 
 -115626  -116629  -117523  -118368  -119112  -119847  -120706  -121767 
 -123003  -124330  -125749  -127079  -127953  -128246  -127826  -126501 
 -124344  -121506  -118219  -114681  -110915  -107181  -103947  -101582 
 -100264   -99796   -99809  -100504  -102208  -104518  -107070  -109983 
 -113269  -116644  -119511  -121507  -122848  -123663  -123987  -124107 
 -124247  -124574  -125367  -126714  -128328  -129718  -130554  -130889 
 -130765  -130016  -128627  -126606  -123755  -120159  -116245  -112375 
 -108797  -105298  -101496   -97707   -94560   -92290   -90832   -90011 
  -89636   -89680   -90391   -91879   -93775   -95541   -96665   -96669 
  -95535   -93907   -92360   -90908   -89623   -89005   -89355   -90531 
  -92307   -94325   -96149   -97706   -99421  -101646  -104140  -106545 
 -108791  -111005  -113537  -116526  -119566  -121961  -123104  -122786 
 -121153  -118632  -115810  -112993  -110354  -108308  -107356  -107857 
 -109632  -112013  -114478  -116603  -117958  -118343  -117799  -116636 
 -115184  -113530  -111780  -110357  -109693  -109660  -109919  -110367 
 -110736  -110781  -110527  -109976  -109131  -108069  -107064  -106684 
 -107330  -108965  -111354  -114283  -117534  -120641  -123034  -124598 
 -125535  -125833  -125471  -124634  -123456  -121994  -120259  -118106 
 -115569  -113058  -111029  -109883  -109674  -110015  -110666  -111365 
 -111711  -111633  -110955  -109303  -106850  -104284  -102064   -99908 
  -97534   -95557   -94665   -94815   -95707   -97359  -100113  -103827 
 -107796  -111615  -115086  -117898  -119534  -119439  -117717  -115133 
 -112575  -110641  -109606  -109699  -110932  -113222  -116452  -120181 
 -124094  -128026  -131483  -134013  -135388  -135231  -133323  -130133 
 -126819  -124438  -123037  -122251  -122085  -122391  -122809  -123295 
 -123941  -124625  -125141  -125323  -124893  -123508  -120919  -117121 
 -112535  -107885  -103950  -101251   -99713   -99037   -99159   -99985 
 -101279  -102642  -103686  -104374  -104696  -104864  -105497  -106900 
 -108882  -111040  -113103  -114893  -116086  -116485  -116026  -114847 
 -113286  -111540  -109829  -108331  -107119  -106223  -105390  -104676 
 -104521  -104902  -105685  -106991  -108902  -111328  -114008  -116912 
 -120089  -123386  -126637  -129377  -131140  -131899  -131504  -129924 
 -127737  -125507  -123220  -120605  -117710  -114795  -111959  -109294 
 -107098  -105716  -105333  -106061  -107979  -110785  -113778  -116432 
 -118476  -119585  -119614  -118807  -117591  -116408  -115345  -114194 
 -113023  -112033  -111207  -110425  -109574  -108624  -107537  -106313 
 -105186  -104399  -103830  -103148  -102275  -101208   -99994   -99011 
  -98280   -97570   -97064   -96890   -97074   -97710   -98895  -100799 
 -102983  -104498  -105209  -105763  -106265  -106193  -105453  -104388 
 -103388  -102964  -103216  -103766  -104351  -104970  -105929  -107288 
 -108765  -110416  -112302  -114214  -116147  -118026  -119277  -119492 
 -118805  -117528  -116274  -115733  -116109  -117165  -118434  -119676 
 -121030  -122367  -123176  -123006  -121639  -119493  -117372  -115607 
 -114202  -113014  -111856  -110740  -109545  -108406  -107805  -107742 
 -107948  -108147  -107990  -107447  -106716  -105993  -105684  -106221 
 -107646  -109667  -111955  -114245  -116221  -117478  -117759  -117010 
 -115348  -113180  -110998  -109171  -107879  -107093  -106694  -106654 
 -107206  -108579  -110755  -113660  -117051  -120361  -123092  -125064 
 -126328  -126919  -126475  -124647  -121869  -118932  -116155  -113475 
 -111168  -109929  -109961  -110785  -111777  -112499  -112981  -113355 
 -113499  -113455  -113282  -112706  -111493  -109782  -107983  -106400 
 -105135  -104284  -103888  -103920  -104214  -104481  -104629  -104782 
 -105056  -105435  -106062  -107344  -109384  -111936  -114737  -117645 
 -120543  -123137  -125368  -127462  -129533  -131654  -133409  -134055 
 -133590  -132489  -131259  -130445  -130253  -130668  -131686  -133105 
 -134425  -135158  -135287  -135050  -134591  -133979  -133253  -132399 
 -131340  -130164  -129028  -127976  -127157  -126634  -126376  -126336 
 -126284  -126304  -126546  -126797  -127012  -127228  -127409  -127552 
 -127489  -127091  -126180  -124384  -121596  -118134  -114508  -111091 
 -108079  -105669  -104018  -103211  -103289  -104218  -105783  -107666 
 -109617  -111454  -113050  -114308  -115260  -115975  -116362  -116343 
 -115873  -114936  -113664  -112175  -110702  -109759  -109625  -110210 
 -111418  -113247  -115704  -118487  -120967  -122638  -123267  -122889 
 -121793  -120373  -119064  -118279  -118235  -118917  -120153  -121757 
 -123628  -125521  -127168  -128523  -129367  -129495  -129083  -128440 
 -127946  -127810  -128001  -128516  -129119  -129514  -129695  -129692 
 -129610  -129602  -129544  -129221  -128367  -126655  -124030  -120598 
 -116789  -113435  -110977  -109440  -108894  -109323  -110509  -112046 
 -113615  -115177  -116648  -117895  -118871  -119425  -119458  -118923 
 -117630  -115539  -112838  -109825  -106920  -104524  -102835  -101751 
 -100929   -99951   -98629   -97285   -96417   -96024   -95770   -95544 
  -95269   -94778   -94006   -92898   -91422   -89745   -88302   -87559 
  -87749   -88939   -91048   -93812   -96860   -99716  -101742  -102521 
 -102206  -101175   -99835   -98639   -98010   -98078   -98520   -99060 
  -99602  -100167  -100930  -101945  -103311  -105019  -106631  -107794 
 -108364  -108282  -107717  -106801  -105560  -104271  -103321  -102807 
 -102571  -102460  -102552  -103041  -103932  -105187  -106834  -108624 
 -110102  -111048  -111502  -111779  -112398  -113515  -114785  -115906 
 -116793  -117394  -117581  -117150  -116079  -114590  -112816  -110790 
 -108715  -107011  -105920  -105294  -104882  -104524  -104118  -103689 
 -103240  -102489  -101272   -99785   -98188   -96468   -94678   -93094 
  -92095   -92018   -93094   -95240   -98111  -101321  -104569  -107526 
 -109851  -111566  -112759  -113321  -113321  -112846  -112015  -110995 
 -109830  -108846  -108431  -108785  -110016  -111791  -113723  -115714 
 -117666  -119474  -120876  -121662  -121909  -121677  -121005  -119791 
 -117768  -114863  -111224  -107234  -103453  -100397   -98373   -97268 
  -96744   -96478   -96497   -97283   -98568   -99690  -100882  -101820 
 -102003  -102145  -102389  -102710  -103533  -104515  -105722  -107306 
 -108811  -110382  -112051  -113784  -115869  -118212  -120752  -123229 
 -125437  -127505  -129232  -130567  -131357  -131364  -130762  -129520 
 -127798  -125961  -124163  -122796  -122185  -122332  -122902  -123332 
 -123353  -122848  -121795  -120470  -119178  -118027  -116735  -114909 
 -112697  -110525  -108561  -106861  -105572  -105048  -105650  -107339 
 -109883  -112979  -116248  -119492  -122484  -124958  -126879  -128288 
 -129243  -129796  -129952  -129781  -129489  -129562  -130250  -131127 
 -131901  -132352  -131961  -130570  -128264  -125109  -121407  -117657 
 -114340  -111628  -109525  -108080  -107226  -107060  -107830  -109534 
 -111900  -114495  -116924  -119073  -120984  -122611  -123754  -124280 
 -124283  -123818  -123046  -122418  -122132  -122025  -121928  -121727 
 -121459  -121286  -121266  -121255  -121031  -120400  -119242  -117588 
 -115593  -113478  -111441  -109443  -107448  -105525  -103462  -101251 
  -99463   -98534   -98631   -99626  -100969  -102315  -103487  -104291 
 -104828  -105182  -105296  -105219  -105068  -104969  -104907  -104873 
 -105061  -105599  -106389  -107250  -108049  -108736  -109363  -110023 
 -110736  -111545  -112532  -113701  -115106  -116950  -119307  -122017 
 -125012  -128256  -131465  -134333  -136796  -138861  -140409  -141367 
 -141812  -141849  -141670  -141595  -141885  -142595  -143677  -145050 
 -146556  -148057  -149400  -150371  -150876  -150839  -150131  -148785 
 -146927  -144628  -142049  -139407  -136776  -134216  -131819  -129634 
 -127786  -126272  -124912  -123721  -122706  -121755  -120765  -119536 
 -118007  -116277  -114424  -112542  -110526  -108253  -105808  -103216 
 -100684   -98725   -97669   -97428   -97785   -98549   -99337   -99785 
  -99951  -100031  -100161  -100396  -100640  -100852  -101003  -100961 
 -100650   -99957   -98848   -97558   -96327   -95374   -94982   -95333 
  -96412   -97926   -99539  -101122  -102539  -103641  -104600  -105777 
 -107274  -108941  -110683  -112473  -114274  -116053  -117685  -119071 
 -120300  -121448  -122638  -124136  -125996  -127982  -129741  -131017 
 -131753  -132043  -132041  -131865  -131681  -131644  -131658  -131619 
 -131490  -131080  -130235  -129047  -127727  -126374  -124868  -123044 
 -120805  -118187  -115418  -112866  -110898  -109682  -109132  -109049 
 -109140  -109139  -108897  -108375  -107860  -107795  -108231  -108778 
 -109098  -109160  -108842  -107887  -106285  -104227  -102054  -100229 
  -99079   -98839   -99642  -101362  -103760  -106622  -109723  -112813 
 -115651  -117996  -119636  -120645  -121282  -121687  -121962  -122094 
 -122128  -122392  -123114  -124342  -125929  -127446  -128437  -128401 
 -126991  -124419  -121201  -117801  -114609  -111954  -109997  -108594 
 -107355  -106068  -105015  -104433  -104175  -104174  -104468  -105077 
 -106069  -107398  -108916  -110480  -111982  -113345  -114434  -115067 
 -115168  -114760  -113830  -112603  -111468  -110434  -109457  -108654 
 -107904  -107036  -105985  -104594  -102811  -100918   -99282   -98119 
  -97616   -97835   -98549   -99532  -100636  -101734  -102958  -104471 
 -106085  -107633  -109216  -110822  -112312  -113738  -115144  -116400 
 -117527  -118693  -119858  -120860  -121598  -121928  -121772  -121325 
 -120953  -120958  -121548  -122816  -124542  -126453  -128482  -130374 
 -131825  -132825  -133336  -133329  -132853  -131835  -130364  -128846 
 -127606  -126624  -125787  -125168  -124836  -124739  -124832  -124984 
 -124927  -124467  -123658  -122748  -121891  -120998  -119908  -118583 
 -117044  -115264  -113299  -111206  -108845  -106168  -103376  -100582 
  -97820   -95133   -92424   -89675   -87203   -85434   -84500   -84260 
  -84679   -85694   -86911   -87928   -88730   -89536   -90344   -90986 
  -91544   -92134   -92829   -93973   -95758   -98051  -100957  -104557 
 -108610  -112864  -116935  -120425  -123180  -125141  -126379  -127083 
 -127441  -127574  -127501  -127285  -127054  -126923  -127003  -127259 
 -127601  -128047  -128560  -129040  -129353  -129305  -128852  -128135 
 -127271  -126303  -125265  -124285  -123550  -123053  -122625  -122209 
 -121802  -121377  -120896  -120381  -119973  -119712  -119465  -119075 
 -118402  -117404  -116156  -114884  -114024  -113886  -114358  -114977 
 -115157  -114601  -113545  -112434  -111477  -110676  -109990  -109319 
 -108709  -108370  -108344  -108630  -109290  -110072  -110662  -111265 
 -112117  -112877  -113209  -113299  -113512  -114072  -114975  -116126 
 -117427  -118821  -120405  -122132  -123765  -125176  -126260  -126961 
 -127439  -127934  -128452  -128855  -129202  -129498  -129545  -129305 
 -128872  -128331  -127754  -127060  -126082  -124812  -123313  -121481 
 -119281  -116970  -114723  -112570  -110682  -109227  -108241  -107684 
 -107461  -107445  -107485  -107535  -107581  -107660  -108018  -108737 
 -109711  -110891  -112118  -113324  -114586  -115864  -117171  -118579 
 -120123  -121770  -123368  -124863  -126164  -127095  -127671  -127875 
 -127734  -127415  -126872  -126049  -125077  -124011  -122782  -121302 
 -119518  -117551  -115714  -114144  -112718  -111301  -109837  -108268 
 -106451  -104495  -102616  -100634   -98615   -97038   -96095   -95848 
  -96359   -97478   -98961  -100563  -102128  -103625  -104978  -106118 
 -107141  -108336  -109914  -111793  -113963  -116474  -119174  -121780 
 -124071  -125975  -127262  -127758  -127677  -127217  -126497  -125651 
 -124627  -123237  -121520  -119674  -117780  -116009  -114387  -112745 
 -111017  -109042  -106778  -104472  -102379  -100540   -98857   -97457 
  -96407   -95582   -95063   -94952   -95131   -95453   -95819   -96201 
  -96634   -97050   -97359   -97490   -97358   -97283   -97692   -98549 
  -99870  -101812  -104252  -107063  -110211  -113372  -116100  -118270 
 -119919  -121044  -121882  -122853  -123940  -124734  -125257  -125725 
 -125843  -125546  -125325  -125337  -125369  -125109  -124348  -123306 
 -122126  -120704  -119250  -118094  -117208  -116402  -115647  -114915 
 -114119  -113374  -112732  -112076  -111598  -111540  -111950  -112859 
 -114016  -115056  -115744  -115873  -115468  -114586  -113236  -111749 
 -110494  -109475  -108507  -107455  -106374  -105392  -104593  -104147 
 -104134  -104442  -104984  -105709  -106553  -107291  -107575  -107242 
 -106337  -105029  -103568  -102205  -101182  -100706  -100835  -101481 
 -102563  -103998  -105762  -107841  -109948  -111856  -113650  -115336 
 -116727  -117689  -118245  -118423  -118268  -117812  -116921  -115615 
 -114156  -112757  -111609  -110920  -110708  -110772  -111055  -111693 
 -112767  -114248  -115904  -117462  -118855  -119969  -120629  -120900 
 -120885  -120618  -120286  -120129  -120335  -121042  -122232  -123812 
 -125643  -127482  -129086  -130204  -130730  -130735  -130155  -128916 
 -127013  -124464  -121506  -118544  -115978  -113924  -112211  -110823 
 -109824  -109222  -109001  -108931  -108790  -108535  -108024  -107285 
 -106741  -106729  -107145  -107698  -108223  -108636  -108901  -108998 
 -108859  -108485  -107917  -107216  -106614  -106357  -106512  -107050 
 -107848  -108807  -110062  -111668  -113466  -115292  -116943  -118280 
 -119172  -119435  -119090  -118229  -117070  -116019  -115201  -114565 
