Origin Time       2011/03/11 14:46:00
Lat.              38.103
Long.             142.860
Depth. (km)       24
Mag.              9.0
Station Code      SZO026
Station Lat.      34.9812
Station Long.     137.8964
Station Height(m) 133
Record Time       2011/03/11 14:48:47
Sampling Freq(Hz) 100Hz
Duration Time(s)  177
Dir.              E-W
Scale Factor      3920(gal)/6182761
Max. Acc. (gal)   6.781
Last Correction   2011/03/11 14:48:32
Memo.             
[...]
    5964     5861     6015     6438     7089     7867     8630     9225 
    9500     9400     8985     8341     7559     6761     6092     5654 
    5502     5664     6133     6858     7737     8618     9322     9723 
    9821     9687     9373     8864     8133     7266     6434     5774 
    5332     5142     5220     5496     5864     6258     6610     6816 
    6783     6496     6009     5441     4925     4599     4589     4890 
    5404     5997     6527     6905     7086     7067     6872     6533 
    6064     5472     4803     4145     3585     3175     2907     2740 
    2651     2632     2638     2606     2501     2314     2095     1878 
    1675     1517     1449     1549     1865     2369     3002     3695 
    4359     4878     5151     5147     4915     4559     4173     3840 
    3660     3669     3827     4087     4398     4738     5146     5624 
    6109     6513     6745     6807     6770     6661     6474     6251 
    6058     5942     5942     6096     6379     6718     7055     7381 
    7749     8234     8847     9538    10231    10827    11224    11396 
   11385    11210    10900    10580    10364    10279    10322    10442 
   10522    10458    10191     9709     9049     8307     7651     7240 
    7176     7514     8206     9091     9993    10772    11304    11498 
   11350    10968    10525    10163     9984    10044    10308    10679 
   11042    11242    11158    10793    10165     9304     8320     7346 
    6481     5832     5486     5450     5666     6067     6593     7179 
    7738     8123     8184     7871     7231     6394     5560     4899 
    4486     4302     4264     4260     4196     4025     3755     3423 
    3104     2888     2837     2985     3312     3747     4247     4762 
    5170     5343     5235     4889     4409     3943     3619     3489 
    3592     3985     4641     5448     6318     7160     7849     8313 
    8530     8489     8264     8003     7767     7581     7558     7738 
    8014     8344     8713     8979     9058     9023     8873     8586 
    8286     8043     7788     7507     7246     6978     6679     6445 
    6353     6411     6619     6954     7352     7751     8109     8390 
    8553     8587     8520     8354     8072     7726     7366     6975 
    6635     6476     6440     6403     6375     6381     6400     6415 
    6395     6300     6141     5972     5838     5722     5572     5361 
    5079     4744     4424     4197     4110     4191     4439     4827 
    5327     5933     6644     7364     7930     8247     8273     8035 
    7657     7210     6722     6328     6120     6056     6103     6247 
    6435     6624     6762     6759     6560     6201     5753     5321 
    5039     4990     5193     5600     6080     6477     6674     6605 
    6289     5795     5173     4533     4056     3901     4125     4675 
    5440     6297     7112     7749     8137     8285     8221     7970 
    7586     7145     6729     6411     6222     6138     6141     6204 
    6260     6277     6240     6108     5929     5784     5668     5610 
    5639     5655     5609     5527     5395     5242     5127     5034 
    5018     5204     5637     6287     7059     7837     8544     9097 
    9381     9343     9045     8598     8137     7815     7750     8000 
    8534     9184     9731    10029    10036     9783     9343     8845 
    8420     8143     8021     8005     8041     8104     8169     8184 
    8095     7936     7829     7849     7962     8123     8313     8509 
    8658     8687     8552     8277     7914     7491     7041     6624 
    6295     6037     5750     5355     4877     4382     3927     3581 
    3429     3547     3955     4585     5304     5984     6527     6878 
    7013     6899     6533     6022     5525     5144     4894     4748 
    4679     4674     4714     4766     4797     4795     4784     4784 
    4762     4699     4623     4582     4621     4724     4801     4756 
    4553     4239     3892     3554     3262     3052     2954     3018 
    3279     3724     4356     5142     5959     6662     7169     7460 
    7553     7537     7514     7533     7615     7789     8051     8374 
    8730     9078     9402     9727    10049    10306    10450    10492 
   10439    10270    10009     9727     9482     9298     9182     9131 
    9157     9313     9642    10105    10615    11063    11341    11403 
   11259    10956    10569    10146     9708     9278     8867     8463 
    8056     7703     7473     7367     7336     7339     7338     7249 
    6964     6458     5794     5081     4460     4047     3917     4099 
    4510     5012     5486     5808     5897     5789     5588     5388 
    5274     5320     5580     6028     6571     7103     7490     7620 
    7479     7138     6701     6280     5968     5827     5917     6259 
    6778     7369     7947     8411     8690     8803     8811     8722 
    8517     8219     7882     7570     7322     7164     7133     7216 
    7326     7406     7416     7315     7097     6788     6463     6225 
    6125     6201     6463     6870     7341     7708     7813     7620 
    7144     6446     5722     5190     4953     5028     5385     5957 
    6642     7293     7748     7896     7713     7273     6677     6016 
    5396     4892     4545     4410     4514     4810     5222     5652 
    5999     6231     6380     6482     6561     6591     6469     6115 
    5571     4933     4288     3742     3409     3344     3540     3921 
    4331     4606     4659     4493     4176     3815     3518     3382 
    3449     3678     4028     4484     4976     5415     5742     5911 
    5930     5894     5864     5851     5915     6144     6574     7164 
    7789     8300     8625     8782     8809     8754     8687     8654 
    8681     8782     8931     9112     9320     9500     9567     9501 
    9387     9314     9314     9385     9499     9600     9627     9540 
    9342     9052     8700     8332     7972     7629     7347     7173 
    7124     7193     7308     7371     7367     7323     7261     7231 
    7261     7354     7536     7808     8154     8536     8814     8888 
    8825     8728     8653     8660     8799     9092     9507     9964 
   10365    10615    10646    10453    10083     9580     8983     8404 
    7955     7674     7594     7722     7998     8374     8803     9167 
    9350     9290     8964     8402     7731     7145     6784     6696 
    6893     7335     7914     8524     9078     9492     9732     9843 
    9886     9891     9879     9839     9745     9618     9504     9430 
    9379     9295     9151     8974     8811     8716     8707     8760 
    8853     8986     9177     9439     9774    10159    10545    10875 
   11086    11118    10951    10593    10069     9446     8823     8300 
    7969     7875     7993     8259     8608     8947     9140     9088 
    8765     8183     7407     6556     5741     5062     4577     4288 
    4184     4244     4416     4655     4916     5099     5114     4967 
    4724     4452     4211     4053     4004     4043     4155     4381 
    4754     5250     5816     6389     6902     7332     7695     8016 
    8272     8378     8278     7967     7472     6877     6263     5639 
    4995     4369     3833     3457     3258     3187     3175     3170 
    3163     3177     3224     3273     3267     3197     3125     3138 
    3291     3573     3921     4235     4445     4553     4585     4564 
    4507     4413     4313     4279     4380     4678     5165     5737 
    6277     6697     6957     7067     7026     6881     6725     6561 
    6398     6357     6512     6863     7426     8176     9009     9810 
   10487    10956    11153    11068    10717    10125     9374     8573 
    7794     7097     6567     6265     6186     6296     6531     6814 
    7089     7321     7501     7653     7838     8072     8301     8524 
    8776     9037     9268     9444     9540     9553     9465     9254 
    8943     8567     8131     7634     7132     6706     6390     6215 
    6202     6326     6535     6753     6933     7065     7119     7078 
    7003     6971     7028     7189     7448     7783     8139     8443 
    8653     8753     8728     8561     8257     7872     7503     7235 
    7102     7095     7132     7108     6971     6705     6329     5893 
    5444     5061     4843     4839     5021     5282     5489     5559 
    5441     5146     4734     4283     3899     3647     3517     3522 
    3678     3905     4103     4226     4224     4054     3774     3501 
    3292     3183     3199     3288     3388     3475     3496     3431 
    3350     3297     3267     3257     3251     3224     3156     3016 
    2786     2533     2379     2421     2706     3222     3906     4694 
    5501     6210     6728     7022     7120     7090     7039     7087 
    7297     7665     8163     8738     9290     9703     9921     9960 
    9849     9633     9390     9182     9059     9055     9153     9284 
    9378     9399     9343     9209     9034     8854     8693     8619 
    8641     8692     8769     8861     8914     8924     8885     8751 
    8512     8230     7984     7824     7781     7890     8161     8576 
    9053     9482     9812    10014    10035     9878     9629     9361 
    9099     8885     8769     8755     8843     9016     9228     9409 
    9486     9419     9231     8970     8648     8256     7824     7394 
    6970     6557     6208     6009     6009     6177     6448     6771 
    7119     7476     7787     7973     7994     7823     7476     7031 
    6533     5989     5440     4965     4637     4532     4729     5268 
    6086     7038     7970     8748     9248     9437     9407     9274 
    9131     9059     9094     9214     9390     9593     9737     9720 
    9499     9063     8441     7742     7098     6609     6355     6362 
    6589     6989     7517     8094     8633     9052     9284     9311 
    9161     8905     8637     8397     8168     7920     7665     7462 
    7348     7307     7295     7265     7162     6945     6602     6160 
    5659     5145     4669     4249     3905     3693     3650     3733 
    3842     3867     3745     3503     3211     2912     2622     2386 
    2269     2326     2575     2979     3463     3928     4256     4337 
    4118     3647     3032     2383     1835     1507     1451     1683 
    2174     2843     3609     4415     5170     5763     6151     6339 
    6343     6242     6157     6101     6014     5985     6126     6353 
    6618     6996     7440     7819     8091     8258     8322     8298 
    8195     8041     7907     7840     7839     7880     7948     8013 
    8028     7989     7904     7745     7494     7152     6738     6304 
    5880     5462     5028     4589     4251     4053     3916     3906 
    4073     4249     4392     4568     4644     4538     4339     4145 
    4064     4177     4457     4863     5331     5751     6062     6265 
    6374     6381     6234     5928     5538     5135     4769     4488 
    4298     4189     4181     4294     4513     4751     4973     5290 
    5659     5893     6048     6236     6443     6731     7166     7725 
    8377     9032     9534     9791     9770     9410     8665     7590 
    6321     5030     3880     2978     2364     2030     1943     2047 
    2251     2463     2626     2701     2670     2529     2234     1910 
    1825     1999     2375     2988     3764     4580     5331     5913 
    6331     6608     6652     6477     6212     5876     5443     4946 
    4440     4033     3820     3792     3923     4244     4732     5270 
    5772     6209     6536     6710     6742     6703     6712     6829 
    7012     7238     7511     7786     8009     8177     8323     8448 
    8527     8595     8706     8849     8975     9018     8890     8569 
    8113     7550     6917     6342     5925     5625     5371     5200 
    5187     5264     5344     5441     5539     5646     5800     5882 
    5848     5793     5643     5292     4810     4305     3857     3486 
    3216     3161     3386     3826     4380     4921     5302     5464 
    5437     5257     5029     4914     4993     5302     5871     6682 
    7688     8807     9905    10904    11751    12373    12720    12811 
   12782    12741    12676    12623    12670    12786    12866    12830 
   12658    12377    11983    11447    10816    10200     9638     9069 
    8447     7823     7272     6803     6365     5962     5737     5720 
    5819     6100     6555     7072     7610     8007     8216     8378 
    8463     8376     8156     7888     7581     7252     7002     6844 
    6765     6800     6903     7016     7208     7584     8132     8710 
    9246     9702     9987    10157    10288    10399    10603    10922 
   11229    11457    11620    11654    11444    11040    10512     9796 
    8902     7924     6924     5930     4959     4089     3404     2856 
    2382     2025     1829     1746     1682     1620     1612     1665 
    1765     1952     2268     2721     3261     3805     4296     4671 
    4869     4891     4776     4626     4558     4593     4739     5016 
    5414     5865     6240     6476     6599     6600     6482     6338 
    6295     6399     6579     6805     7101     7389     7537     7446 
    7071     6448     5726     5085     4607     4333     4303     4522 
    4926     5353     5661     5784     5614     5116     4390     3504 
    2472     1406      532      -90     -632     -963     -846     -707 
    -702     -386     -243     -647     -964    -1407    -2254    -2987 
   -3593    -4123    -4277    -3955    -3214    -2214    -1022      301 
    1516     2523     3351     3875     3974     3887     3805     3617 
    3596     3879     4067     4335     4880     5332     5728     6155 
    6427     6584     6671     6675     6644     6632     6680     6739 
    6751     6756     6873     7110     7273     7323     7469     7715 
    7847     7891     8020     8196     8250     8098     7830     7657 
    7645     7618     7544     7628     7954     8398     8835     9221 
    9518     9585     9400     9095     8658     8124     7664     7343 
    7155     6987     6860     6901     6867     6693     6562     6346 
    6019     5684     5389     5219     5043     4726     4232     3468 
    2621     2011     1525      913      406      255      238      332 
     596      834     1135     1476     1721     2083     2462     2687 
    2917     3324     3920     4369     4630     5028     5301     5126 
    4965     5103     5024     4574     4246     4137     4110     4277 
    4413     4270     4105     3899     3565     3296     3047     2757 
    2541     2412     2223     1981     1935     2150     2424     2696 
    3173     3913     4731     5433     6053     6798     7505     7954 
    8244     8352     8329     8243     7951     7647     7580     7544 
    7240     6663     5982     5286     4671     4221     3968     3915 
    4062     4520     5230     6008     6790     7461     7979     8284 
    8315     8321     8393     8316     8164     8188     8387     8621 
    8822     9024     9240     9322     9216     9018     8654     8054 
    7355     6671     6059     5584     5299     5297     5639     6155 
    6691     7283     7774     7957     7842     7452     6812     6056 
    5320     4675     4176     3770     3445     3276     3093     2802 
    2550     2261     1881     1499     1005      406     -166     -772 
   -1326    -1605    -1547    -1159     -500      312     1134     1789 
    2212     2461     2541     2471     2406     2516     2840     3419 
    4304     5352     6416     7438     8277     8912     9369     9572 
    9564     9433     9196     8910     8638     8411     8275     8198 
    8087     7897     7572     7034     6294     5423     4503     3654 
    2992     2504     2136     1954     1960     1987     1974     1953 
    1844     1680     1613     1677     1905     2337     2882     3519 
    4223     4783     5043     4999     4671     4068     3211     2277 
    1507      917      550      591      920     1313     1825     2437 
    2962     3363     3683     3858     3883     3837     3692     3541 
    3578     3705     3878     4266     4800     5322     5772     6055 
    6111     5882     5408     4924     4513     4119     3779     3495 
    3213     2903     2574     2247     1866     1427     1050      791 
     648      639      728      911     1220     1613     2061     2555 
    3065     3588     4112     4612     5129     5688     6242     6771 
    7229     7541     7666     7575     7266     6804     6338     6020 
    5900     5992     6316     6837     7497     8238     8990     9670 
   10188    10501    10618    10553    10351    10091     9845     9698 
    9686     9811    10085    10409    10620    10617    10286     9534 
    8366     6879     5281     3815     2688     2030     1863     2111 
    2602     3080     3316     3159     2581     1694      701     -183 
    -808    -1119    -1127     -883     -477      -24      382      712 
     963     1131     1244     1361     1532     1791     2147     2620 
    3244     4004     4815     5601     6307     6876     7252     7357 
    7136     6603     5824     4945     4139     3486     3051     2897 
    2981     3191     3413     3515     3431     3194     2828     2355 
    1911     1647     1600     1771     2114     2511     2888     3177 
    3299     3288     3219     3158     3181     3313     3560     3937 
    4364     4788     5238     5678     6095     6510     6838     7011 
    7047     6921     6627     6208     5671     5077     4516     4018 
    3648     3453     3366     3346     3372     3381     3363     3299 
    3138     2924     2687     2416     2187     2038     1919     1818 
    1737     1661     1592     1519     1472     1530     1731     2059 
    2494     2992     3489     3953     4342     4626     4834     4993 
    5143     5309     5423     5444     5393     5309     5251     5229 
    5274     5470     5835     6312     6866     7491     8193     8956 
    9706    10356    10848    11158    11285    11243    11043    10733 
   10399    10103     9868     9692     9518     9282     8945     8522 
    8083     7672     7304     7028     6868     6810     6871     7080 
    7422     7875     8402     8908     9329     9647     9811     9782 
    9584     9295     9021     8826     8738     8815     9105     9592 
   10190    10753    11132    11260    11155    10908    10654    10512 
   10544    10756    11131    11603    12006    12187    12090    11706 
   11084    10339     9577     8876     8289     7821     7440     7142 
    6931     6717     6420     6053     5632     5196     4817     4503 
    4234     4017     3838     3657     3445     3175     2792     2246 
    1541      727     -121     -880    -1412    -1654    -1589    -1211 
    -559      277     1162     1948     2535     2895     3050     3054 
    3034     3138     3426     3874     4448     5111     5805     6460 
    6984     7274     7300     7088     6678     6163     5653     5222 
    4944     4870     4928     4958     4849     4562     4077     3452 
    2843     2375     2131     2157     2420     2876     3507     4219 
    4871     5377     5678     5721     5483     4969     4238     3412 
    2614     1920     1379     1049      950     1010     1141     1282 
    1391     1455     1490     1538     1700     2032     2501     3109 
