Origin Time       2011/03/11 14:46:00
Lat.              38.103
Long.             142.860
Depth. (km)       24
Mag.              9.0
Station Code      SZO005
Station Lat.      34.7550
Station Long.     138.7841
Station Height(m) 4
Record Time       2011/03/11 14:47:53
Sampling Freq(Hz) 100Hz
Duration Time(s)  276
Dir.              U-D
Scale Factor      3920(gal)/6182761
Max. Acc. (gal)   14.210
Last Correction   2011/03/11 14:47:38
Memo.             
[...]
   -9922    -9302    -8925    -8927    -9410   -10223   -11309   -12743 
  -14318   -15758   -17002   -17882   -18216   -18201   -18153   -18211 
  -18369   -18543   -18822   -19262   -19521   -19519   -19674   -20114 
  -20608   -21018   -21364   -21799   -22360   -22722   -22546   -21979 
  -21382   -20781   -20067   -19367   -18801   -18351   -18056   -17829 
  -17503   -17027   -16239   -15214   -14527   -14451   -14747   -15157 
  -15650   -16363   -17132   -17546   -17538   -17167   -16394   -15359 
  -14298   -13363   -12624   -12141   -12069   -12372   -12773   -13214 
  -13766   -14345   -14898   -15421   -15881   -16344   -16843   -17199 
  -17256   -16957   -16314   -15653   -15342   -15377   -15668   -16101 
  -16297   -16056   -15680   -15407   -15035   -14432   -13850   -13383 
  -12837   -12317   -12080   -12027   -12025   -12157   -12429   -12845 
  -13403   -13900   -14243   -14520   -14528   -14074   -13656   -13782 
  -14306   -15241   -16708   -18260   -19621   -20834   -21726   -22268 
  -22509   -22524   -22731   -23121   -23166   -22952   -22857   -22779 
  -22637   -22463   -22189   -21906   -21668   -21329   -21017   -20961 
  -21007   -20989   -20906   -20557   -19640   -18179   -16614   -15278 
  -14160   -13458   -13394   -13799   -14427   -15155   -15956   -16761 
  -17450   -17916   -18045   -18068   -18300   -18444   -18156   -17783 
  -17686   -17616   -17474   -17503   -17283   -16281   -15052   -14244 
  -13702   -13365   -13367   -13354   -13017   -12684   -12758   -13163 
  -13542   -13766   -13954   -14124   -14284   -14584   -15164   -15970 
  -16673   -17066   -17375   -17768   -18247   -18949   -19792   -20486 
  -21018   -21326   -21279   -21326   -21783   -22025   -21604   -20971 
  -20617   -20537   -20488   -20474   -20678   -20876   -20684   -20070 
  -19246   -18563   -18198   -18044   -18127   -18396   -18618   -18933 
  -19537   -20052   -20114   -19952   -19912   -19850   -19362   -18453 
  -17501   -16824   -16526   -16499   -16711   -17034   -17029   -16721 
  -16515   -16239   -15648   -15106   -14873   -14682   -14374   -14172 
  -14188   -14255   -14330   -14666   -15434   -16352   -17106   -17810 
  -18371   -18421   -18200   -18106   -17934   -17574   -17333   -17309 
  -17255   -16971   -16508   -16005   -15629   -15505   -15503   -15599 
  -15893   -15952   -15478   -15014   -14864   -14740   -14618   -14593 
  -14604   -14585   -14297   -13614   -12813   -12104   -11454   -10805 
  -10184    -9809    -9811   -10026   -10367   -10770   -10904   -10757 
  -10707   -10868   -11311   -12141   -13143   -14229   -15436   -16417 
  -17045   -17739   -18621   -19309   -19546   -19408   -19124   -18954 
  -19098   -19604   -20393   -21332   -22227   -22979   -23430   -23260 
  -22689   -22128   -21375   -20664   -20622   -20822   -20767   -20782 
  -20735   -20196   -19435   -18938   -18804   -18623   -18042   -17500 
  -17369   -17211   -16878   -16934   -17464   -17651   -16959   -15797 
  -14509   -12981   -11538   -10741   -10539   -10664   -11171   -12047 
  -12944   -13558   -13872   -13907   -13864   -14221   -14960   -15515 
  -15713   -15656   -15235   -14603   -14287   -14536   -15167   -15752 
  -15865   -15609   -15290   -14815   -14347   -14280   -14354   -14195 
  -13835   -13385   -13161   -13176   -12936   -12580   -12500   -12364 
  -12036   -11839   -11847   -12147   -12581   -12529   -12116   -12013 
  -12212   -12511   -13004   -13583   -14173   -14958   -15981   -17189 
  -18441   -19331   -19626   -19465   -19041   -18595   -18333   -18158 
  -17846   -17384   -17119   -17422   -18100   -18714   -19191   -19560 
  -19827   -20190   -20673   -20863   -20479   -19689   -18698   -17789 
  -17458   -17820   -18559   -19419   -19994   -19877   -19362   -18979 
  -18531   -17695   -16831   -16152   -15296   -14191   -13086   -12044 
  -11022    -9923    -8786    -8008    -7727    -7588    -7584    -8055 
   -8870    -9734   -10623   -11326   -11707   -12071   -12520   -13122 
  -14252   -15873   -17575   -19168   -20609   -21767   -22318   -22316 
  -22423   -22834   -23229   -23692   -24290   -24730   -24924   -24972 
  -24950   -25018   -25150   -25134   -25045   -25066   -24959   -24438 
  -23773   -23251   -22646   -21921   -21351   -20702   -19627   -18286 
  -16799   -15211   -13848   -12884   -12130   -11422   -10804   -10283 
   -9742    -9265    -9023    -8892    -8804    -8938    -9406   -10131 
  -10833   -11356   -11855   -12318   -12789   -13577   -14478   -15267 
  -16199   -16926   -17058   -17187   -17611   -18065   -18591   -19088 
  -19390   -19751   -20171   -20455   -20829   -21482   -22269   -22930 
  -23124   -22766   -22227   -21682   -20855   -19804   -18986   -18542 
  -18347   -18228   -18042   -17955   -17967   -17821   -17760   -18015 
  -18285   -18515   -18856   -19308   -19990   -20753   -21039   -20734 
  -20162   -19373   -18335   -17292   -16485   -15963   -15682   -15454 
  -15106   -14757   -14497   -14174   -13772   -13418   -13122   -12789 
  -12388   -12121   -12223   -12609   -13112   -13611   -13812   -13523 
  -12934   -12383   -12108   -12174   -12535   -13108   -13694   -13971 
  -13853   -13778   -14118   -14605   -15017   -15479   -15766   -15752 
  -15829   -15993   -16016   -16195   -16681   -17085   -17162   -17130 
  -17259   -17427   -17538   -17822   -18228   -18447   -18630   -19027 
  -19389   -19477   -19547   -19972   -20640   -21129   -21438   -21828 
  -22309   -22782   -23018   -23002   -23147   -23301   -23001   -22418 
  -21688   -20844   -20095   -19174   -18005   -17248   -16975   -16670 
  -16313   -16057   -15825   -15560   -15287   -15247   -15566   -15805 
  -15733   -15553   -15207   -14877   -14708   -14122   -13360   -13141 
  -12866   -12341   -12350   -12554   -12413   -12320   -12277   -12081 
  -12128   -12555   -12962   -13034   -12798   -12465   -12068   -11659 
  -11485   -11455   -11357   -11323   -11644   -12389   -12919   -12980 
  -13765   -15432   -16468   -17054   -18357   -19734   -20749   -21804 
  -22231   -22089   -22229   -21654   -20075   -19471   -19909   -19847 
  -19787   -20227   -20216   -20150   -20585   -20416   -19520   -18675 
  -17986   -17767   -17592   -16501   -15056   -13977   -13350   -13616 
  -14622   -15572   -16250   -16766   -17007   -16839   -16417   -16237 
  -16553   -16747   -16224   -15662   -15755   -15831   -15517   -15578 
  -16121   -16506   -16576   -16561   -16749   -17136   -17401   -17580 
  -17991   -18513   -18706   -18775   -19143   -19442   -19514   -19602 
  -19359   -18992   -19318   -19712   -19136   -18090   -17090   -15777 
  -14335   -13018   -11629   -10771   -10975   -11571   -12155   -12927 
  -13678   -14066   -14047   -13649   -13033   -12522   -12103   -11465 
  -10744   -10462   -10736   -11205   -11713   -12406   -13225   -13881 
  -14180   -14123   -13807   -13452   -13387   -13570   -13701   -13976 
  -14683   -15290   -15319   -15360   -15856   -16249   -16263   -16215 
  -16018   -15683   -15494   -15110   -14544   -14463   -14651   -14639 
  -14482   -14066   -13287   -12220   -11119   -10330    -9801    -9574 
   -9946   -10927   -12294   -13520   -14306   -14976   -15508   -15766 
  -16125   -16713   -17588   -18798   -19595   -19606   -19506   -19449 
  -19284   -19364   -19499   -19242   -18870   -18591   -18274   -17932 
  -17452   -16694   -15874   -15137   -14268   -13334   -12849   -12687 
  -12201   -11705   -11844   -12153   -11973   -11555   -11513   -11918 
  -12284   -12723   -13915   -15387   -16295   -17280   -18675   -19696 
  -20418   -21085   -21328   -21284   -21022   -20432   -20016   -19877 
  -19543   -19163   -18931   -18327   -17421   -16943   -16618   -15949 
  -15372   -14905   -13971   -12677   -11589   -10765    -9952    -9541 
   -9923   -10303   -10256   -10558   -11187   -11529   -11921   -12567 
  -12981   -13182   -13497   -13658   -13214   -12483   -12268   -12782 
  -13843   -15264   -16452   -17076   -17517   -17864   -17941   -17946 
  -17978   -17868   -17573   -17080   -16471   -15930   -15458   -15043 
  -14784   -14702   -14657   -14543   -14571   -14682   -14327   -13691 
  -13382   -13102   -12598   -12422   -12627   -12634   -12455   -12292 
  -11817   -11177   -11000   -11310   -11823   -12242   -12315   -12306 
  -12382   -12405   -12648   -13247   -13881   -14477   -15218   -16049 
  -16683   -17232   -17926   -18303   -18112   -17945   -17988   -17661 
  -16888   -16406   -16440   -16382   -15940   -15571   -15615   -15514 
  -14843   -14350   -14397   -14264   -13880   -13744   -13700   -13568 
  -13559   -13692   -13859   -14007   -14139   -14342   -14445   -14250 
  -14013   -13958   -14024   -14189   -14384   -14400   -14170   -13806 
  -13275   -12605   -12087   -11765   -11556   -11477   -11350   -11168 
  -10996   -10613   -10184   -10010    -9975   -10133   -10633   -11382 
  -12044   -12344   -12776   -13738   -14657   -15366   -16106   -16640 
  -17142   -17779   -18125   -18486   -19322   -20134   -20671   -21241 
  -21891   -22585   -23272   -23788   -24166   -24514   -24905   -25490 
  -26096   -26421   -26609   -26798   -26779   -26360   -25625   -24825 
  -23917   -22876   -22157   -21772   -21202   -20513   -19891   -18983 
  -17692   -16278   -14732   -13055   -11469   -10048    -8874    -8064 
   -7438    -6936    -6620    -6200    -5684    -5662    -6304    -7242 
   -8193    -8951    -9437    -9761    -9856    -9667    -9351    -8886 
   -8260    -7688    -7148    -6488    -5980    -5979    -6421    -7132 
   -8043    -9029    -9914   -10597   -11202   -11989   -12868   -13571 
  -14196   -14872   -15429   -15888   -16540   -17286   -17744   -17859 
  -17744   -17479   -17169   -16622   -15721   -15047   -14996   -15203 
  -15566   -16392   -17252   -17508   -17548   -17785   -17880   -17834 
  -17943   -18117   -18336   -18631   -18854   -19150   -19720   -20229 
  -20240   -19945   -19745   -19403   -18619   -17821   -17462   -17403 
  -17454   -17630   -17694   -17443   -17114   -16907   -16924   -17150 
  -17339   -17546   -17771   -17625   -17132   -16676   -16468   -16425 
  -16337   -16286   -16367   -16331   -16063   -15746   -15533   -15551 
  -15766   -15965   -16303   -16972   -17599   -17981   -18393   -18827 
  -18865   -18333   -17738   -17507   -17310   -17022   -16979   -16972 
  -16630   -16272   -16206   -16165   -16059   -16119   -16204   -16191 
  -16531   -17323   -18042   -18634   -19253   -19488   -19100   -18354 
  -17434   -16600   -16117   -15641   -14924   -14379   -14090   -13967 
  -14383   -15128   -15584   -15959   -16271   -15889   -15178   -15031 
  -15269   -15427   -15519   -15450   -15286   -15346   -15450   -15348 
  -15220   -15026   -14575   -14022   -13562   -13155   -12737   -12450 
  -12571   -13091   -13581   -13880   -14301   -14719   -14655   -14353 
  -14288   -14269   -14181   -14427   -15094   -15730   -16071   -16362 
  -16992   -17803   -18173   -18119   -18229   -18600   -18876   -18766 
  -18372   -17984   -17490   -16860   -16474   -16480   -16794   -17184 
  -17300   -17235   -17264   -17375   -17596   -17914   -18145   -18214 
  -17997   -17469   -17081   -16967   -16700   -16444   -16411   -15936 
  -14902   -13972   -13053   -11829   -10509    -9235    -8205    -7676 
   -7725    -8397    -9339   -10026   -10437   -10815   -11266   -11823 
  -12514   -13226   -13753   -14173   -14573   -14621   -14257   -13893 
  -13578   -13283   -13251   -13138   -12494   -11774   -11306   -10869 
  -10689   -10882   -11088   -11393   -11936   -12558   -13292   -14115 
  -14907   -15686   -16462   -17322   -18389   -19579   -20777   -21982 
  -23127   -24106   -24819   -25136   -25147   -25036   -24784   -24298 
  -23577   -22733   -21901   -21133   -20310   -19349   -18381   -17390 
  -16466   -15902   -15440   -14972   -15076   -15576   -15681   -15531 
  -15610   -15663   -15368   -14894   -14488   -14226   -14037   -13816 
  -13716   -13848   -14076   -14541   -15427   -16511   -17640   -18859 
  -19977   -20774   -21461   -22270   -22973   -23509   -24164   -24986 
  -25963   -27000   -27671   -27992   -28426   -28861   -28899   -28605 
  -28200   -27801   -27413   -26838   -26030   -25219   -24384   -23380 
  -22378   -21430   -20396   -19451   -18651   -17697   -16722   -16092 
  -15531   -14703   -13943   -13330   -12578   -11925   -11376   -10464 
   -9436    -8833    -8651    -8769    -8977    -9052    -9223    -9485 
   -9318    -8873    -8720    -8764    -8848    -9071    -9335    -9779 
  -10591   -11294   -11777   -12681   -13884   -14906   -16017   -17252 
  -18329   -19324   -20173   -20786   -21461   -22265   -22944   -23605 
  -24404   -24895   -24827   -24627   -24489   -24259   -23833   -23224 
  -22843   -22851   -22648   -22121   -21825   -21804   -21752   -21531 
  -21072   -20704   -20713   -20555   -19826   -19005   -18593   -18587 
  -18712   -18797   -18857   -18846   -18776   -18685   -18444   -18095 
  -17792   -17377   -16784   -16230   -15822   -15590   -15587   -15876 
  -16423   -17002   -17666   -18537   -19259   -19822   -20574   -21225 
  -21510   -21689   -21753   -21500   -20964   -20255   -19437   -18404 
  -17083   -15733   -14433   -12921   -11299    -9974    -8968    -7984 
   -6846    -5583    -4289    -3010    -1874    -1023     -443      -81 
     115      163       25     -193     -461     -974    -1596    -2074 
   -2672    -3476    -4289    -5429    -6894    -8243    -9775   -11712 
  -13806   -16251   -18978   -21498   -23905   -26429   -28831   -30780 
  -32239   -33520   -34893   -36235   -37327   -38134   -38590   -38529 
  -37862   -36792   -35655   -34345   -32569   -30494   -28288   -25727 
  -22822   -20013   -17512   -15201   -13146   -11487   -10229    -9429 
   -8965    -8578    -8430    -8713    -8974    -8774    -8460    -8376 
   -8232    -7961    -7897    -8085    -8271    -8253    -8288    -8747 
   -9396    -9945   -10358   -10637   -11211   -12345   -13591   -14775 
  -16050   -17241   -18283   -19243   -20045   -20777   -21392   -21541 
  -21421   -21625   -22006   -22102   -22110   -22105   -21747   -21238 
  -20848   -20313   -19737   -19584   -19867   -20361   -20934   -21405 
  -21564   -21531   -21582   -21555   -21321   -21086   -20803   -20483 
  -20324   -20198   -20129   -20410   -21022   -21727   -22191   -22131 
  -21734   -21295   -20674   -19865   -19292   -19089   -19031   -18959 
  -18744   -18388   -18112   -18017   -17884   -17491   -16911   -16347 
  -16042   -16188   -16545   -16805   -17133   -17504   -17615   -17695 
  -18086   -18731   -19608   -20502   -21011   -21132   -20857   -20068 
  -19059   -18097   -17120   -16175   -15388   -14737   -14212   -14023 
  -14190   -14423   -14632   -14594   -14030   -13323   -12700   -11873 
  -10921   -10039    -9136    -8199    -7332    -6598    -5985    -5497 
   -5141    -4909    -4815    -4652    -4313    -4222    -4508    -4950 
   -5888    -7524    -9269   -10741   -12129   -13556   -14764   -15539 
  -16213   -17098   -18062   -19088   -20257   -21545   -22841   -23840 
  -24580   -25321   -25785   -25814   -25796   -25852   -25785   -25693 
  -25803   -26003   -26176   -26414   -26686   -26884   -26933   -26890 
  -26829   -26450   -25646   -24730   -23736   -22734   -21856   -20884 
  -19667   -18083   -16028   -13710   -11369    -9279    -7662    -6301 
   -4982    -3847    -2999    -2415    -2078    -1945    -2051    -2586 
   -3574    -4702    -5816    -7052    -8460   -10103   -11861   -13334 
  -14581   -15759   -16636   -17366   -18049   -18346   -18581   -19075 
  -19512   -20042   -20667   -20843   -20746   -20630   -20112   -19250 
  -18434   -17592   -16700   -15922   -15084   -14158   -13379   -12556 
  -11583   -10706    -9857    -9052    -8477    -7956    -7455    -7157 
   -7059    -7270    -7773    -8347    -9059    -9875   -10619   -11466 
  -12450   -13226   -13798   -14537   -15428   -16130   -16634   -17240 
  -17969   -18472   -18594   -18580   -18649   -18831   -19009   -18989 
  -18864   -18942   -19280   -19793   -20441   -21033   -21370   -21547 
  -21707   -21932   -22437   -23190   -23930   -24748   -25604   -26164 
  -26567   -27029   -27333   -27385   -27288   -27041   -26739   -26483 
  -26058   -25304   -24368   -23329   -22177   -21002   -19866   -18757 
  -17662   -16488   -15115   -13671   -12333   -10918    -9356    -7981 
   -6818    -5651    -4645    -3947    -3297    -2438    -1355     -150 
     906     1505     1698     1582     1056      314     -689    -2219 
   -3711    -4966    -6677    -8673   -10413   -12118   -13905   -15567 
  -17077   -18280   -19155   -20394   -22093   -23419   -24355   -25310 
  -26182   -26696   -26411   -25705   -25361   -24736   -23416   -22369 
  -21761   -20767   -19297   -18029   -17056   -15858   -14691   -13951 
  -13301   -12935   -12923   -12569   -12208   -12431   -12708   -12875 
  -13247   -13702   -14390   -15504   -16436   -16978   -17683   -18359 
  -18708   -18959   -18861   -18724   -19032   -18879   -18342   -18354 
  -18521   -18788   -19089   -18846   -18899   -19420   -19427   -19493 
  -20044   -20639   -21412   -21986   -22138   -22277   -22133   -21821 
  -21439   -20591   -20124   -19944   -18779   -17798   -17789   -17166 
  -16189   -16200   -16551   -16638   -16716   -16514   -15989   -15263 
  -14181   -13366   -13299   -13354   -13254   -13471   -13902   -13673 
  -12813   -12141   -11462   -10549    -9991    -9807    -9854   -10388 
  -11170   -11936   -12646   -12887   -12867   -13205   -13484   -13501 
  -13871   -14523   -15167   -15875   -16504   -17103   -17876   -18511 
  -18628   -18771   -19347   -19457   -19266   -19757   -19981   -19720 
  -20072   -20236   -19719   -19378   -18925   -18157   -17541   -16935 
  -16431   -16393   -16483   -16511   -16886   -17384   -17551   -17756 
  -18044   -18103   -18253   -18503   -18346   -17935   -17602   -16978 
  -16245   -15914   -15369   -14766   -14877   -14923   -14825   -14966 
  -14519   -14252   -14809   -14689   -14540   -15388   -15820   -16225 
  -17350   -17954   -18431   -19325   -19759   -20042   -20389   -20395 
  -20369   -20314   -20168   -19869   -18955   -18096   -17687   -16761 
  -15715   -14953   -13679   -12556   -11826   -10537    -9546    -9652 
  -10097   -10312   -10351   -10878   -11791   -12248   -12695   -13324 
  -13588   -13901   -14362   -14784   -15575   -16516   -17367   -18419 
  -19456   -20295   -21318   -22488   -23205   -23516   -23910   -24143 
  -24193   -24594   -25028   -24980   -24808   -24797   -24658   -24363 
  -24221   -24120   -23802   -23295   -22600   -21971   -21742   -21626 
  -21457   -21412   -21258   -20976   -20931   -20922   -20645   -20242 
  -19755   -19148   -18460   -17677   -16863   -16145   -15578   -15093 
  -14638   -14253   -13825   -13183   -12535   -12141   -11709   -11165 
  -10958   -10831   -10430   -10155    -9883    -9246    -8711    -8574 
   -8364    -7897    -7419    -6912    -6449    -6200    -6091    -6405 
   -7316    -8442    -9776   -11397   -13023   -14557   -15963   -17223 
  -18458   -19627   -20752   -21865   -22840   -23844   -24900   -25714 
  -26363   -26823   -26934   -26952   -26835   -26473   -26135   -25744 
  -25291   -24996   -24655   -24237   -23894   -23494   -23072   -22566 
  -21855   -21187   -20542   -19764   -18918   -18030   -17219   -16336 
  -15126   -13982   -13203   -12449   -11435   -10417    -9670    -8875 
