Origin Time       2011/03/11 14:46:00
Lat.              38.103
Long.             142.860
Depth. (km)       24
Mag.              9.0
Station Code      SZO004
Station Lat.      34.6471
Station Long.     138.8193
Station Height(m) 51
Record Time       2011/03/11 14:48:00
Sampling Freq(Hz) 100Hz
Duration Time(s)  235
Dir.              N-S
Scale Factor      3920(gal)/6182761
Max. Acc. (gal)   9.592
Last Correction   2011/03/11 14:47:45
Memo.             
[...]
  -70431   -71155   -72214   -73308   -74129   -74628   -74933   -75222 
  -75579   -75823   -75730   -75356   -74908   -74552   -74434   -74612 
  -74998   -75445   -75804   -75994   -76032   -75896   -75532   -75012 
  -74393   -73602   -72670   -71792   -71124   -70715   -70528   -70448 
  -70321   -70014   -69495   -68854   -68152   -67338   -66413   -65528 
  -64794   -64233   -63907   -63809   -63777   -63705   -63585   -63449 
  -63442   -63700   -64170   -64679   -65044   -65162   -65090   -65004 
  -65016   -65091   -65129   -65093   -65095   -65240   -65505   -65962 
  -66786   -67937   -69152   -70191   -70963   -71495   -71852   -72108 
  -72338   -72572   -72691   -72528   -72151   -71721   -71193   -70555 
  -69964   -69443   -68980   -68744   -68767   -68773   -68556   -68161 
  -67678   -67173   -66755   -66503   -66364   -66247   -66104   -65917 
  -65702   -65542   -65524   -65591   -65575   -65424   -65217   -65015 
  -64864   -64861   -65051   -65299   -65440   -65494   -65549   -65525 
  -65300   -64944   -64587   -64289   -64126   -64146   -64299   -64544 
  -64853   -65177   -65458   -65592   -65395   -64703   -63544   -62183 
  -60925   -59959   -59335   -58976   -58837   -59034   -59694   -60775 
  -62066   -63261   -64080   -64414   -64335   -64042   -63804   -63788 
  -64011   -64519   -65367   -66461   -67658   -68919   -70173   -71209 
  -71891   -72296   -72534   -72620   -72524   -72267   -71927   -71563 
  -71250   -71126   -71294   -71739   -72338   -72960   -73506   -73779 
  -73476   -72505   -71139   -69733   -68531   -67723   -67451   -67728 
  -68376   -69040   -69425   -69550   -69619   -69718   -69823   -69972 
  -70252   -70637   -71024   -71358   -71574   -71570   -71343   -71041 
  -70787   -70545   -70258   -70011   -69935   -70094   -70507   -71093 
  -71611   -71768   -71428   -70729   -69907   -69106   -68401   -67811 
  -67350   -67130   -67286   -67758   -68276   -68634   -68832   -68888 
  -68809   -68665   -68496   -68307   -68171   -68194   -68423   -68818 
  -69287   -69700   -69949   -70029   -69941   -69635   -69155   -68681 
  -68383   -68361   -68631   -69077   -69591   -70145   -70627   -70822 
  -70620   -70075   -69338   -68637   -68211   -68151   -68328   -68515 
  -68534   -68245   -67532   -66446   -65188   -63899   -62687   -61846 
  -61777   -62613   -64100   -65853   -67514   -68859   -69782   -70117 
  -69790   -68996   -68025   -67154   -66610   -66471   -66806   -67670 
  -68843   -69944   -70727   -71115   -71114   -70791   -70354   -70105 
  -70207   -70553   -70879   -71054   -71148   -71105   -70720   -69994 
  -69109   -68290   -67840   -67910   -68270   -68587   -68680   -68469 
  -68008   -67508   -67162   -67054   -67233   -67776   -68719   -69889 
  -70980   -71788   -72136   -71893   -71198   -70354   -69592   -69004 
  -68568   -68347   -68541   -69121   -69714   -69929   -69612   -68897 
  -68014   -67087   -66240   -65665   -65468   -65674   -66314   -67344 
  -68598   -69854   -70913   -71622   -71882   -71707   -71223   -70617 
  -70122   -69869   -69779   -69720   -69602   -69405   -69162   -68871 
  -68563   -68337   -68206   -68123   -68070   -68028   -67970   -67795 
  -67364   -66720   -66104   -65686   -65443   -65230   -64929   -64562 
  -64264   -64178   -64369   -64730   -65041   -65147   -64985   -64580 
  -64031   -63400   -62777   -62374   -62336   -62623   -63145   -63737 
  -64138   -64293   -64393   -64515   -64592   -64597   -64567   -64657 
  -65043   -65670   -66342   -66938   -67341   -67511   -67618   -67842 
  -68208   -68673   -69124   -69418   -69538   -69506   -69254   -68842 
  -68484   -68330   -68536   -69212   -70196   -71232   -72145   -72747 
  -72965   -73016   -73189   -73540   -73980   -74431   -74763   -74874 
  -74774   -74478   -74114   -73941   -74002   -74126   -74167   -73960 
  -73426   -72749   -72109   -71572   -71297   -71394   -71717   -72068 
  -72343   -72390   -72041   -71375   -70680   -70147   -69801   -69570 
  -69326   -69028   -68736   -68433   -68065   -67678   -67397   -67350 
  -67586   -67974   -68281   -68366   -68229   -67956   -67616   -67193 
  -66725   -66348   -66107   -65907   -65727   -65688   -65855   -66205 
  -66713   -67253   -67630   -67748   -67653   -67487   -67338   -67225 
  -67327   -67898   -68903   -70059   -71140   -72003   -72536   -72731 
  -72684   -72513   -72372   -72377   -72524   -72840   -73361   -73907 
  -74238   -74340   -74321   -74209   -73975   -73672   -73470   -73478 
  -73496   -73199   -72541   -71651   -70553   -69354   -68339   -67670 
  -67296   -67078   -66879   -66665   -66436   -66087   -65574   -65051 
  -64658   -64457   -64538   -64927   -65497   -66066   -66479   -66638 
  -66530   -66203   -65759   -65396   -65324   -65626   -66228   -66937 
  -67498   -67709   -67541   -67150   -66677   -66172   -65769   -65670 
  -65933   -66446   -67011   -67432   -67688   -67905   -68118   -68288 
  -68415   -68493   -68495   -68427   -68341   -68271   -68187   -68058 
  -67957   -68088   -68618   -69388   -69994   -70255   -70345   -70471 
  -70577   -70447   -70042   -69530   -69024   -68507   -67962   -67532 
  -67458   -67826   -68511   -69306   -70009   -70519   -70856   -71081 
  -71258   -71396   -71358   -70973   -70287   -69590   -69110   -68840 
  -68717   -68740   -68926   -69280   -69711   -70007   -69998   -69644 
  -68967   -68131   -67447   -67112   -67106   -67367   -67806   -68267 
  -68663   -68985   -69154   -69130   -69091   -69259   -69624   -70035 
  -70409   -70705   -70835   -70747   -70497   -70158   -69733   -69226 
  -68769   -68542   -68564   -68742   -69048   -69490   -70055   -70700 
  -71219   -71353   -71069   -70504   -69801   -69126   -68675   -68509 
  -68514   -68528   -68470   -68334   -68112   -67799   -67430   -67010 
  -66551   -66157   -65949   -65947   -66031   -66024   -65828   -65475 
  -65127   -64975   -65093   -65431   -65944   -66578   -67202   -67703 
  -68018   -68035   -67739   -67318   -66975   -66797   -66840   -67178 
  -67777   -68450   -69054   -69526   -69756   -69668   -69301   -68772 
  -68246   -67816   -67516   -67449   -67703   -68224   -68769   -69004 
  -68754   -68117   -67308   -66541   -66003   -65804   -65984   -66504 
  -67207   -67868   -68336   -68606   -68753   -68846   -68927   -69036 
  -69156   -69151   -68915   -68535   -68164   -67833   -67478   -67139 
  -66984   -67114   -67503   -68133   -68921   -69653   -70222   -70657 
  -70844   -70649   -70134   -69397   -68578   -67970   -67776   -67895 
  -68101   -68256   -68212   -67802   -67088   -66321   -65718   -65427 
  -65453   -65644   -65875   -66095   -66281   -66383   -66282   -65941 
  -65432   -64820   -64254   -63968   -64010   -64205   -64426   -64708 
  -65079   -65412   -65567   -65546   -65321   -64879   -64430   -64214 
  -64292   -64622   -65187   -65937   -66679   -67188   -67339   -67115 
  -66590   -65884   -65162   -64696   -64783   -65567   -66989   -68790 
  -70568   -71958   -72784   -73034   -72807   -72335   -71882   -71656 
  -71868   -72627   -73831   -75247   -76556   -77420   -77620   -77110 
  -76096   -74970   -74052   -73595   -73799   -74548   -75397   -75948 
  -76037   -75705   -75088   -74315   -73534   -72940   -72706   -72901 
  -73407   -74031   -74723   -75469   -76128   -76502   -76410   -75785 
  -74775   -73651   -72732   -72262   -72158   -72082   -71763   -71143 
  -70330   -69505   -68777   -68203   -67880   -67853   -68001   -68176 
  -68333   -68423   -68376   -68212   -67991   -67672   -67158   -66395 
  -65443   -64561   -64018   -63880   -64124   -64638   -65181   -65583 
  -65776   -65653   -65215   -64692   -64381   -64422   -64758   -65219 
  -65636   -65955   -66252   -66603   -66966   -67154   -67001   -66586 
  -66184   -66028   -66196   -66588   -67007   -67315   -67453   -67376 
  -67094   -66637   -66023   -65380   -64979   -65042   -65624   -66633 
  -67898   -69157   -70135   -70706   -70883   -70733   -70418   -70160 
  -70091   -70240   -70654   -71331   -72105   -72767   -73241   -73566 
  -73824   -74091   -74326   -74397   -74266   -74036   -73839   -73750 
  -73723   -73650   -73534   -73477   -73586   -73869   -74265   -74788 
  -75430   -76021   -76418   -76528   -76184   -75419   -74496   -73629 
  -73026   -72877   -73102   -73447   -73666   -73524   -72969   -72152 
  -71206   -70314   -69761   -69626   -69700   -69826   -69977   -70074 
  -70030   -69821   -69400   -68707   -67768   -66710   -65741   -65058 
  -64686   -64507   -64458   -64523   -64644   -64739   -64728   -64605 
  -64473   -64380   -64339   -64461   -64800   -65216   -65548   -65749 
  -65894   -66136   -66594   -67265   -68034   -68724   -69272   -69802 
  -70432   -71149   -71900   -72629   -73245   -73662   -73868   -73934 
  -74010   -74267   -74826   -75712   -76840   -78053   -79144   -79887 
  -80127   -79795   -78920   -77670   -76214   -74728   -73444   -72509 
  -72034   -72111   -72587   -73127   -73452   -73416   -73065   -72562 
  -72027   -71625   -71618   -72163   -73158   -74298   -75217   -75592 
  -75228   -74116   -72466   -70682   -69174   -68168   -67768   -68006 
  -68682   -69342   -69541   -69059   -67939   -66421   -64766   -63162 
  -61802   -60890   -60514   -60577   -60836   -61018   -60897   -60309 
  -59307   -58176   -57174   -56418   -55964   -55825   -55955   -56291 
  -56814   -57507   -58231   -58813   -59194   -59353   -59363   -59495 
  -59963   -60774   -61860   -63083   -64236   -65155   -65762   -66085 
  -66239   -66382   -66675   -67185   -67867   -68650   -69504   -70391 
  -71215   -71896   -72439   -72834   -73030   -73020   -72911   -72890 
  -73073   -73446   -73938   -74335   -74353   -74030   -73731   -73753 
  -74137   -74698   -75210   -75656   -76203   -76882   -77471   -77777 
  -77813   -77702   -77602   -77550   -77457   -77259   -76915   -76463 
  -76118   -75928   -75678   -75233   -74598   -73914   -73437   -73210 
  -72981   -72544   -71950   -71425   -71171   -71213   -71438   -71673 
  -71669   -71246   -70502   -69620   -68622   -67591   -66713   -66051 
  -65592   -65247   -64796   -64179   -63559   -63070   -62751   -62545 
  -62286   -61894   -61482   -61176   -61060   -61260   -61802   -62506 
  -63166   -63597   -63674   -63488   -63210   -62931   -62748   -62659 
  -62495   -62194   -61906   -61822   -62003   -62329   -62581   -62612 
  -62466   -62286   -62158   -62153   -62369   -62883   -63744   -64963 
  -66405   -67840   -69134   -70251   -71110   -71633   -71905   -72163 
  -72554   -73034   -73530   -73991   -74307   -74419   -74330   -73997 
  -73397   -72563   -71572   -70569   -69665   -68947   -68504   -68275 
  -68223   -68375   -68483   -68343   -68111   -67883   -67610   -67339 
  -67166   -67157   -67407   -68056   -69132   -70408   -71570   -72408 
  -72801   -72735   -72354   -71836   -71253   -70681   -70293   -70203 
  -70418   -70918   -71559   -72125   -72506   -72634   -72484   -72120 
  -71549   -70722   -69693   -68622   -67753   -67347   -67496   -68031 
  -68672   -69221   -69577   -69708   -69645   -69395   -69018   -68760 
  -68855   -69334   -70074   -70848   -71410   -71646   -71650   -71647 
  -71765   -71989   -72268   -72514   -72651   -72662   -72586   -72570 
  -72769   -73144   -73484   -73607   -73464   -73066   -72487   -71887 
  -71308   -70571   -69522   -68238   -66996   -66104   -65709   -65733 
  -65982   -66279   -66507   -66605   -66532   -66223   -65660   -64965 
  -64295   -63699   -63228   -63039   -63209   -63638   -64240   -65012 
  -65896   -66765   -67518   -68045   -68228   -68068   -67739   -67472 
  -67386   -67433   -67546   -67773   -68161   -68656   -69195   -69676 
  -69933   -69932   -69805   -69655   -69509   -69436   -69595   -70096 
  -70820   -71494   -71974   -72177   -71987   -71459   -70652   -69601 
  -68633   -67956   -67577   -67615   -67973   -68400   -68629   -68408 
  -67883   -67328   -66936   -66889   -67187   -67716   -68167   -68230 
  -68065   -67894   -67776   -67914   -68295   -68696   -69087   -69434 
  -69732   -70035   -70155   -69965   -69722   -69737   -69976   -70254 
  -70635   -71221   -72009   -73044   -74120   -74879   -75258   -75278 
  -75017   -74677   -74265   -73822   -73586   -73615   -73716   -73658 
  -73304   -72650   -71777   -70762   -69705   -68755   -68050   -67722 
  -67871   -68541   -69596   -70656   -71422   -71849   -71911   -71560 
  -70955   -70297   -69643   -69194   -69159   -69418   -69781   -70026 
  -69903   -69524   -69097   -68640   -68288   -68226   -68516   -69183 
  -70141   -71217   -72167   -72687   -72753   -72536   -72058   -71391 
  -70676   -69934   -69321   -69054   -69133   -69444   -69812   -69989 
  -69765   -69148   -68296   -67226   -66050   -65059   -64406   -64223 
  -64469   -64806   -65015   -64932   -64483   -63897   -63318   -63013 
  -63410   -64444   -65816   -67248   -68290   -68735   -68701   -68351 
  -67973   -67769   -67750   -68065   -68826   -69808   -70710   -71337 
  -71576   -71522   -71343   -71169   -71193   -71425   -71714   -72091 
  -72620   -73142   -73396   -73243   -72733   -71938   -70946   -69968 
  -69270   -68988   -68978   -68999   -68896   -68566   -68004   -67151 
  -65893   -64370   -62826   -61490   -60640   -60396   -60732   -61631 
  -62940   -64324   -65527   -66464   -67045   -67159   -66884   -66568 
  -66586   -67039   -67831   -68925   -70263   -71671   -73038   -74327 
  -75513   -76635   -77720   -78681   -79408   -79916   -80314   -80665 
  -81051   -81570   -82154   -82679   -83120   -83452   -83616   -83544 
  -83168   -82540   -81838   -81272   -81034   -81233   -81753   -82306 
  -82667   -82693   -82258   -81396   -80256   -79007   -77895   -77056 
  -76515   -76350   -76508   -76754   -76886   -76702   -76113   -75320 
  -74502   -73583   -72466   -71257   -70186   -69395   -68811   -68284 
  -67704   -67012   -66273   -65637   -65185   -64885   -64648   -64390 
  -64133   -63977   -63964   -64093   -64393   -64874   -65420   -65904 
  -66267   -66408   -66261   -65910   -65441   -64864   -64197   -63490 
  -62816   -62209   -61615   -60992   -60387   -59921   -59708   -59695 
  -59715   -59677   -59594   -59507   -59383   -59140   -58867   -58722 
  -58692   -58748   -58947   -59292   -59745   -60299   -61034   -62117 
  -63489   -64762   -65719   -66449   -66970   -67278   -67533   -67912 
  -68491   -69233   -70055   -70928   -71792   -72490   -72943   -73232 
  -73429   -73576   -73769   -74077   -74468   -74851   -75160   -75332 
  -75301   -75140   -74942   -74662   -74274   -73762   -73111   -72394 
  -71626   -70783   -69936   -69135   -68376   -67736   -67222   -66754 
  -66317   -65862   -65283   -64674   -64331   -64370   -64697   -65277 
  -65912   -66152   -65752   -64775   -63436   -62015   -60819   -60102 
  -59941   -60371   -61447   -62949   -64498   -65908   -67034   -67634 
  -67681   -67377   -66901   -66511   -66538   -67084   -67985   -68960 
  -69712   -70016   -69821   -69294   -68602   -67749   -66898   -66347 
  -66055   -65802   -65507   -65096   -64597   -64119   -63600   -63015 
  -62576   -62456   -62666   -63164   -63873   -64703   -65519   -66125 
  -66429   -66423   -66108   -65558   -64912   -64399   -64243   -64477 
  -65010   -65789   -66766   -67817   -68809   -69645   -70233   -70589 
  -70844   -71169   -71727   -72511   -73429   -74524   -75810   -77153 
  -78407   -79381   -79866   -79869   -79615   -79275   -78908   -78544 
  -78165   -77810   -77531   -77183   -76546   -75570   -74391   -73209 
  -72146   -71322   -70944   -71030   -71273   -71355   -71119   -70550 
  -69818   -69155   -68674   -68480   -68765   -69537   -70498   -71350 
  -72000   -72355   -72185   -71376   -70176   -68911   -67622   -66251 
  -64919   -63769   -62876   -62297   -61980   -61759   -61427   -60850 
  -60067   -59173   -58293   -57662   -57409   -57463   -57706   -57970 
  -58071   -57932   -57545   -56961   -56350   -55959   -55989   -56483 
  -57261   -58020   -58551   -58764   -58571   -57942   -57074   -56329 
  -55998   -56255   -57145   -58392   -59552   -60394   -60866   -60968 
  -60786   -60462   -60218   -60277   -60770   -61695   -62817   -63793 
  -64477   -64970   -65417   -65760   -65823   -65610   -65234   -64812 
  -64496   -64331   -64283   -64479   -65087   -66050   -67164   -68298 
  -69337   -70194   -70949   -71638   -72151   -72451   -72631   -72806 
  -73061   -73457   -73960   -74456   -74870   -75080   -74932   -74456 
  -73730   -72735   -71539   -70304   -69116   -68069   -67329   -66863 
  -66417   -65871   -65260   -64542   -63658   -62671   -61673   -60657 
  -59613   -58610   -57716   -57012   -56567   -56327   -56211   -56202 
  -56314   -56589   -57053   -57679   -58440   -59312   -60257   -61267 
  -62365   -63519   -64604   -65513   -66300   -67069   -67826   -68502 
  -69035   -69539   -70219   -71099   -72075   -73054   -73864   -74261 
  -74107   -73455   -72471   -71405   -70549   -70095   -70155   -70824 
  -71920   -72965   -73555   -73532   -73039   -72440   -71880   -71487 
  -71522   -71736   -71724   -71506   -71356   -70586   -68199   -66154 
  -65790   -65248   -64781   -65520   -65875   -64451   -62913   -62912 
  -63769   -64856   -64469   -62606   -63467   -66757   -67462   -65670 
  -65393   -66556   -66778   -66146   -65502   -65560   -65893   -65263 
  -64536   -64166   -63645   -63150   -62217   -61376   -61094   -60174 
  -59518   -60108   -59864   -59170   -60232   -60645   -58796   -57667 
  -57735   -57211   -56500   -56286   -56479   -57324   -58642   -59443 
  -59963   -61287   -62265   -61726   -61114   -61269   -61825   -62723 
  -63472   -64343   -65956   -67604   -68991   -70228   -71170   -71877 
  -72110   -72452   -73843   -75872   -77790   -79217   -80121   -81046 
  -82260   -82978   -82610   -81503   -80019   -78573   -77558   -77102 
  -77028   -76655   -75950   -75980   -77006   -77699   -77410   -76609 
  -75543   -75186   -75415   -74219   -72023   -70440   -69026   -67327 
  -65745   -64831   -64771   -64687   -64000   -63288   -62712   -61729 
  -60193   -58234   -56399   -55753   -56221   -56851   -57579   -58562 
  -59557   -59928   -59045   -57716   -56852   -56000   -54856   -53735 
  -53539   -54849   -56572   -57910   -59271   -60328   -60200   -58912 
  -57217   -55768   -55036   -55025   -55366   -56439   -58654   -61190 
  -63203   -64777   -65856   -65975   -65469   -64909   -64346   -64215 
  -64736   -65774   -67602   -69990   -72169   -73525   -73968   -73978 
  -73616   -73040   -72833   -72773   -73024   -74439   -76506   -78339 
  -79850   -80654   -80685   -80563   -80119   -78960   -77893   -77571 
  -77521   -77331   -76940   -76419   -75792   -74795   -73592   -72611 
  -71919   -71451   -70915   -70361   -70328   -70439   -70030   -69469 
  -69161   -69019   -68796   -68199   -67472   -66838   -65838   -64491 
  -63341   -62444   -61653   -60868   -60037   -59385   -59003   -58610 
  -58080   -57617   -57254   -56873   -56470   -56025   -55876   -56435 
  -57328   -58128   -58876   -59536   -59907   -59887   -59497   -58721 
  -57906   -57682   -58095   -59077   -60706   -62535   -64084   -65208 
  -65776   -65902   -65902   -66000   -66400   -67160   -68149   -69437 
  -71088   -72735   -74109   -75222   -75944   -76211   -76039   -75593 
  -75357   -75348   -75168   -74875   -74748   -74855   -74985   -74809 
