Origin Time       2011/03/11 14:46:00
Lat.              38.103
Long.             142.860
Depth. (km)       24
Mag.              9.0
Station Code      SZO012
Station Lat.      35.1257
Station Long.     138.6222
Station Height(m) 9
Record Time       2011/03/11 14:47:58
Sampling Freq(Hz) 100Hz
Duration Time(s)  300
Dir.              U-D
Scale Factor      3920(gal)/6182761
Max. Acc. (gal)   12.584
Last Correction   2011/03/11 14:47:43
Memo.             
[...]
  -54116   -52768   -51960   -51528   -50815   -50086   -50228   -51137 
  -51886   -52278   -52609   -52616   -51925   -50864   -50173   -50099 
  -50003   -49381   -48758   -48467   -48030   -47618   -48013   -49114 
  -50105   -50516   -50557   -50636   -50887   -51421   -52162   -52520 
  -52440   -52538   -52625   -52235   -51791   -51592   -51522   -51815 
  -52490   -53073   -53457   -54007   -54692   -54947   -54683   -54532 
  -54820   -55396   -56418   -58028   -59652   -60625   -60860   -60663 
  -60528   -60623   -60442   -59816   -59667   -60523   -61261   -60961 
  -60505   -60677   -60840   -60594   -60647   -61545   -62917   -64254 
  -65411   -66206   -66547   -66468   -65850   -64989   -64380   -63707 
  -62410   -60549   -58539   -56707   -54976   -53190   -51604   -50290 
  -48571   -46098   -43775   -42468   -41893   -41479   -40907   -39954 
  -39103   -39325   -40496   -41596   -42472   -43551   -44547   -45207 
  -45956   -46657   -46609   -46057   -45787   -45763   -45521   -45106 
  -44745   -44316   -43937   -44124   -44721   -44887   -44312   -43619 
  -43718   -44730   -45694   -45879   -45639   -45510   -45378   -44946 
  -44348   -44015   -44046   -44165   -44423   -44942   -45223   -44994 
  -44815   -45118   -45704   -45997   -45467   -44284   -43079   -42038 
  -40994   -40042   -39443   -39162   -38881   -38515   -38184   -37812 
  -37292   -36578   -35758   -35389   -35754   -36196   -36250   -36287 
  -36547   -36719   -36768   -37397   -39045   -41000   -42497   -43826 
  -45267   -46444   -47501   -48982   -50677   -52017   -52921   -53712 
  -54499   -55117   -55716   -56354   -56501   -56136   -55980   -56065 
  -55891   -55567   -55250   -54582   -53409   -52116   -51210   -50779 
  -50297   -49205   -47641   -46261   -45418   -44982   -44909   -45187 
  -45424   -45432   -45483   -45582   -45589   -45635   -45817   -46062 
  -46099   -45626   -44799   -44040   -43530   -43323   -43420   -43572 
  -43521   -43369   -43291   -43189   -42959   -42784   -43049   -43843 
  -44590   -44779   -44675   -44760   -45204   -45930   -46666   -47311 
  -48157   -49242   -50070   -50359   -50569   -51214   -52104   -52913 
  -53743   -54685   -55617   -56495   -57371   -58311   -59454   -60837 
  -62168   -62976   -63032   -62784   -62973   -63627   -64184   -64390 
  -64361   -64199   -63885   -63423   -63000   -62589   -61832   -60807 
  -59914   -59110   -58248   -57393   -56577   -55922   -55387   -54411 
  -52709   -50934   -49754   -48911   -48080   -47894   -48754   -49804 
  -50347   -50767   -51521   -52755   -54616   -56786   -58456   -59306 
  -59654   -59742   -59653   -59495   -59170   -58533   -57835   -57363 
  -56977   -56551   -56198   -55890   -55647   -55573   -55413   -54947 
  -54468   -54322   -54578   -55207   -55967   -56401   -56360   -56159 
  -56048   -55760   -54865   -53595   -52766   -52710   -52930   -53094 
  -53487   -54126   -54577   -54783   -55114   -55568   -55626   -55075 
  -54358   -53927   -53842   -53789   -53375   -52810   -52686   -52941 
  -53187   -53398   -53633   -54062   -54895   -55830   -56421   -56617 
  -56494   -56147   -55775   -55499   -55287   -55029   -54682   -54374 
  -54157   -53990   -54101   -54695   -55354   -55528   -55205   -54557 
  -53640   -52723   -52194   -52093   -52195   -52314   -52349   -52432 
  -52874   -53620   -54269   -54709   -55123   -55530   -55820   -56099 
  -56491   -56759   -56949   -57708   -59190   -60750   -61840   -62340 
  -62446   -62700   -63605   -64853   -65664   -66251   -67512   -69232 
  -70499   -71291   -72032   -72715   -73174   -73474   -73800   -74052 
  -73955   -73541   -73078   -72785   -72627   -72163   -70969   -69248 
  -67607   -66338   -65207   -63935   -62495   -60823   -59026   -57685 
  -57058   -56554   -55600   -54278   -52863   -51611   -50893   -50617 
  -49963   -48516   -47066   -46588   -47036   -47613   -47676   -47155 
  -46654   -47061   -48502   -50098   -51216   -52247   -53725   -55466 
  -57024   -58275   -59347   -60571   -62229   -64023   -65312   -65823 
  -65701   -65410   -65680   -66705   -67651   -67773   -67459   -67491 
  -68046   -68850   -69456   -69434   -68753   -67734   -66745   -65909 
  -65020   -63837   -62186   -60174   -58356   -57029   -55958   -55156 
  -54900   -54968   -54768   -54106   -53349   -52985   -52920   -52761 
  -52727   -52939   -53086   -53333   -53876   -54517   -54992   -55342 
  -56125   -57187   -57729   -57690   -57591   -58141   -59195   -59741 
  -59868   -60285   -60969   -61391   -61078   -60274   -59542   -59181 
  -59120   -58847   -58366   -58447   -59506   -61068   -62114   -62196 
  -61978   -62028   -62026   -61763   -61650   -61594   -60839   -59289 
  -57685   -56442   -55271   -53993   -52777   -51618   -50553   -50026 
  -50101   -50162   -49771   -48895   -47671   -46492   -45852   -45891 
  -46048   -45653   -44950   -44740   -45163   -45828   -46662   -47648 
  -48411   -48666   -48484   -47997   -47334   -46796   -46626   -46669 
  -46529   -46144   -45878   -45793   -45409   -44500   -43614   -43348 
  -43528   -43611   -43539   -43690   -44255   -45167   -46432   -47895 
  -49077   -49890   -50783   -51789   -52354   -52350   -52275   -52313 
  -52163   -51832   -51697   -51800   -51874   -52020   -52587   -53401 
  -53717   -53106   -52101   -51567   -51616   -51685   -51537   -51434 
  -51495   -51609   -51610   -51460   -51447   -51697   -51847   -51690 
  -51362   -50835   -50152   -49932   -50594   -51531   -52017   -52177 
  -52359   -52539   -52691   -52831   -52801   -52586   -52447   -52628 
  -53122   -53588   -53609   -53204   -52875   -52902   -52967   -52953 
  -53384   -54541   -56097   -57621   -58669   -58862   -58504   -58450 
  -59038   -59830   -60413   -60773   -60974   -60999   -60882   -60759 
  -60767   -60900   -61034   -61151   -61342   -61465   -61205   -60608 
  -60113   -60198   -61025   -62077   -62488   -61994   -61227   -60924 
  -61016   -60893   -60278   -59351   -58424   -57731   -57251   -56697 
  -55752   -54307   -52555   -50987   -50150   -50057   -49980   -49403 
  -48662   -48155   -47769   -47346   -47137   -47528   -48590   -50150 
  -51955   -53620   -54957   -56290   -57981   -59846   -61422   -62690 
  -63890   -64857   -65439   -65920   -66490   -67101   -67748   -68304 
  -68414   -67949   -67203   -66428   -65493   -64124   -62351   -60640 
  -59439   -58686   -57999   -57285   -56893   -57082   -57681   -58359 
  -58943   -59569   -60416   -61285   -62010   -62808   -63829   -65031 
  -66258   -67131   -67408   -67279   -67102   -67184   -67538   -67769 
  -67558   -67082   -66707   -66436   -65981   -65202   -64130   -62882 
  -61777   -61082   -60583   -59917   -59056   -58049   -56911   -55986 
  -55588   -55254   -54097   -52129   -50402   -49453   -48613   -47271 
  -45772   -44662   -43855   -43034   -42196   -41372   -40595   -40203 
  -40398   -40733   -40766   -40870   -41565   -42642   -43645   -44347 
  -44710   -44987   -45372   -45760   -46224   -46792   -47093   -47014 
  -46982   -47356   -47964   -48296   -48157   -47636   -46744   -45779 
  -45169   -44929   -44834   -44622   -44063   -43191   -42315   -41574 
  -40697   -39645   -38848   -38354   -37722   -36934   -36515   -36811 
  -37564   -38367   -39185   -40118   -41036   -41574   -41643   -41751 
  -42301   -43059   -43704   -44173   -44369   -44299   -44235   -44335 
  -44494   -44465   -44096   -43586   -43255   -43106   -42823   -42183 
  -41464   -41118   -41085   -41023   -40805   -40350   -39683   -39199 
  -39307   -39927   -40602   -41233   -42205   -43629   -45282   -47110 
  -49124   -51104   -52651   -53575   -54226   -55070   -56102   -57070 
  -57897   -58582   -59061   -59357   -59641   -60075   -60680   -61372 
  -61985   -62319   -62392   -62480   -62765   -63177   -63698   -64447 
  -65384   -66218   -66701   -66895   -67134   -67657   -68211   -68322 
  -67893   -67207   -66697   -66720   -67193   -67572   -67359   -66460 
  -65082   -63697   -62796   -62304   -61665   -60463   -58814   -57306 
  -56343   -55716   -55025   -54128   -52971   -51548   -50189   -49205 
  -48350   -47334   -46439   -45893   -45345   -44580   -43844   -43171 
  -42372   -41713   -41592   -41733   -41737   -41919   -42688   -43842 
  -44957   -45933   -47049   -48538   -50427   -52623   -54546   -55601 
  -56316   -57577   -59143   -60365   -61387   -62571   -63683   -64306 
  -64521   -64611   -64602   -64658   -65033   -65368   -65200   -64770 
  -64321   -63715   -63201   -63320   -63983   -64511   -64480   -64002 
  -63320   -62676   -62339   -62184   -61790   -61117   -60287   -59265 
  -58213   -57424   -56970   -56699   -56444   -56285   -56298   -56267 
  -56016   -55574   -54878   -53806   -52546   -51505   -50662   -49592 
  -48241   -47090   -46608   -46545   -45967   -44769   -44163   -44773 
  -45716   -45985   -45754   -45906   -46694   -47823   -49139   -50333 
  -51116   -51862   -53105   -54655   -55830   -56495   -57177   -58166 
  -59195   -59916   -60304   -60545   -60678   -60599   -60197   -59514 
  -58967   -58909   -58933   -58432   -57564   -56832   -56128   -55111 
  -54045   -53318   -52866   -52562   -52350   -52134   -51869   -51591 
  -51565   -51985   -52500   -52667   -52455   -52097   -51934   -52121 
  -52429   -52738   -53355   -54547   -56168   -57641   -58385   -58562 
  -58730   -58999   -59389   -60142   -61083   -61733   -62120   -62459 
  -62577   -62380   -62186   -62266   -62451   -62397   -61936   -61115 
  -60368   -60273   -60686   -60924   -60739   -60334   -59853   -59571 
  -59938   -60704   -60965   -60557   -60117   -59966   -60145   -60633 
  -60945   -60590   -59855   -59463   -59565   -59589   -59128   -58436 
  -58075   -58333   -58849   -59028   -58843   -58656   -58621   -58793 
  -59161   -59456   -59560   -59732   -59996   -60128   -60251   -60549 
  -60820   -60900   -60968   -61023   -60844   -60607   -60690   -61019 
  -61100   -60545   -59432   -58114   -56950   -56170   -55622   -55003 
  -54182   -53057   -51709   -50420   -49234   -47982   -46739   -45891 
  -45546   -45149   -44136   -42737   -41694   -41403   -41626   -41879 
  -41948   -42072   -42636   -43584   -44436   -45057   -45600   -45917 
  -46003   -46184   -46501   -46896   -47628   -48798   -49995   -50724 
  -50856   -50626   -50467   -50702   -51165   -51219   -50457   -49282 
  -48354   -47772   -47184   -46269   -45149   -44416   -44295   -44245 
  -43859   -43441   -43390   -43656   -43950   -44185   -44605   -45405 
  -46269   -46741   -46950   -47340   -47989   -48490   -48458   -48292 
  -48788   -49861   -50789   -51331   -51677   -51993   -52455   -53170 
  -54017   -54705   -54964   -54814   -54614   -54599   -54487   -53986 
  -53339   -52882   -52503   -51970   -51385   -50935   -50531   -50124 
  -50009   -50374   -50845   -50834   -50225   -49465   -48902   -48405 
  -47827   -47207   -46403   -45254   -44111   -43543   -43349   -42721 
  -41567   -40548   -39977   -39668   -39348   -38813   -38162   -37835 
  -38109   -38812   -39667   -40575   -41456   -42264   -43093   -43877 
  -44325   -44627   -45504   -47079   -48685   -49802   -50366   -50769 
  -51651   -53069   -54384   -55188   -55738   -56501   -57684   -59061 
  -60123   -60616   -60898   -61590   -62747   -63705   -64071   -64218 
  -64551   -64817   -64445   -63612   -63097   -62880   -62403   -61839 
  -61609   -61637   -61700   -61580   -61238   -60985   -60893   -60720 
  -60458   -60130   -59720   -59464   -59482   -59689   -60258   -61177 
  -61911   -62409   -63156   -64008   -64535   -64937   -65545   -66179 
  -66572   -66897   -67429   -67959   -68146   -68084   -68033   -68032 
  -68194   -68715   -69279   -69374   -69222   -69462   -70306   -71319 
  -71849   -71749   -71332   -70836   -70453   -70351   -70463   -70570 
  -70527   -70320   -69903   -69265   -68669   -68279   -67864   -67208 
  -66264   -65037   -63841   -63088   -62616   -62011   -61374   -61020 
  -60807   -60375   -60003   -60345   -61031   -60982   -60230   -59616 
  -59263   -58884   -58630   -58684   -58734   -58508   -58325   -58436 
  -58505   -58195   -57516   -56716   -56151   -55806   -55282   -54706 
  -54597   -54795   -54752   -54499   -54486   -54923   -55641   -56145 
  -56032   -55782   -56250   -57179   -57644   -57758   -58381   -59499 
  -60390   -60884   -61241   -61681   -62498   -63607   -64438   -64839 
  -65178   -65391   -65027   -64267   -63660   -63145   -62324   -61218 
  -60241   -59533   -58962   -58834   -59343   -59801   -59791   -59912 
  -60486   -60975   -61149   -61380   -61758   -62001   -61961   -61728 
  -61635   -62023   -62597   -62674   -62220   -61826   -61814   -62034 
  -62249   -62468   -62893   -63399   -63553   -63498   -63722   -63985 
  -63723   -63023   -62287   -61559   -60758   -59908   -58947   -57894 
  -57120   -57122   -57859   -58531   -58455   -57883   -57523   -57708 
  -58236   -58576   -58508   -58409   -58496   -58582   -58563   -58557 
  -58705   -58893   -58983   -59080   -59083   -58878   -58808   -58911 
  -58732   -58346   -58213   -58345   -58623   -59113   -59556   -59483 
  -58808   -57908   -57482   -57778   -58017   -57612   -57028   -56761 
  -56579   -56075   -55440   -55150   -55070   -54811   -54431   -54015 
  -53357   -52293   -50878   -49331   -47908   -46838   -46266   -45841 
  -44914   -43437   -41913   -40701   -39908   -39324   -38608   -37891 
  -37400   -36899   -36330   -35979   -35843   -35804   -35815   -35615 
  -35160   -35028   -35543   -36128   -36381   -36692   -37159   -37461 
  -37816   -38548   -39429   -40345   -41591   -43215   -44791   -45958 
  -46822   -47558   -48044   -48309   -48674   -49297   -50039   -50638 
  -51060   -51499   -51878   -52076   -52320   -52512   -52220   -51683 
  -51404   -51391   -51563   -51817   -51992   -52305   -53027   -53939 
  -54677   -55102   -55217   -55178   -55206   -55152   -54667   -53961 
  -53614   -53617   -53353   -52567   -51769   -51455   -51614   -51900 
  -51722   -50997   -50592   -50874   -51100   -50788   -50143   -49410 
  -48904   -48835   -48770   -48316   -47823   -47646   -47612   -47405 
  -46970   -46746   -47098   -47711   -48178   -48425   -48516   -48736 
  -49377   -50324   -51191   -51727   -52009   -52317   -52899   -53695 
  -54383   -54887   -55557   -56524   -57290   -57610   -58088   -59116 
  -60249   -61042   -61672   -62512   -63300   -63534   -63532   -63821 
  -64360   -65134   -66108   -66716   -66663   -66467   -66397   -66083 
  -65504   -64981   -64460   -63986   -63805   -63565   -62857   -62155 
  -62158   -62798   -63440   -63723   -63746   -63730   -63871   -64206 
  -64577   -64742   -64532   -64225   -64349   -64894   -65380   -65540 
  -65507   -65584   -65856   -66194   -66658   -67318   -67957   -68458 
  -68928   -69332   -69497   -69526   -69674   -69830   -69806   -69711 
  -69594   -69298   -68695   -67974   -67553   -67405   -67126   -66674 
  -66204   -65691   -65186   -64865   -64769   -64743   -64599   -64275 
  -63729   -62968   -62179   -61481   -60916   -60616   -60458   -60034 
  -59257   -58632   -58699   -59226   -59481   -59383   -59423   -59706 
  -60012   -60360   -60787   -61080   -61331   -61918   -62566   -62643 
  -62308   -62256   -62611   -62763   -62358   -61807   -61593   -61796 
  -62182   -62311   -62048   -61743   -61505   -61150   -60743   -60354 
  -59923   -59508   -59087   -58537   -57791   -56825   -55938   -55460 
  -54982   -54021   -52967   -52254   -51615   -50732   -49811   -49247 
  -49130   -49207   -49123   -48825   -48644   -48783   -48944   -48682 
  -48143   -47992   -48447   -49043   -49259   -48955   -48430   -47982 
  -47571   -47246   -47099   -46865   -46282   -45440   -44647   -44205 
  -44061   -43906   -43647   -43513   -43626   -43583   -43107   -42750 
  -42980   -43343   -43423   -43552   -43947   -44278   -44467   -44845 
  -45393   -45653   -45443   -45035   -44619   -44169   -43756   -43412 
  -43073   -42875   -42893   -42836   -42501   -42061   -41751   -41626 
  -41621   -41542   -41249   -41016   -41186   -41634   -42004   -42204 
  -42418   -42775   -43308   -44006   -44611   -44900   -45206   -46023 
  -47198   -48152   -48929   -50083   -51508   -52559   -53150   -53695 
  -54330   -54927   -55462   -55894   -56102   -56341   -56975   -57635 
  -57849   -58003   -58497   -59086   -59582   -60032   -60408   -60690 
  -60907   -61107   -61292   -61440   -61605   -61702   -61613   -61673 
  -62127   -62493   -62349   -61950   -61633   -61353   -61086   -61084 
  -61300   -61388   -61398   -61462   -61450   -61482   -61675   -61812 
  -62012   -62512   -62778   -62256   -61419   -61118   -61508   -61904 
  -61705   -61365   -61601   -62082   -62011   -61337   -60681   -60562 
  -60858   -60993   -60726   -60427   -60437   -60644   -60786   -60882 
  -61306   -62157   -62835   -62874   -62728   -63112   -63943   -64551 
  -64708   -64777   -65072   -65653   -66404   -66999   -67317   -67639 
  -67989   -68030   -67871   -67947   -68199   -68227   -67800   -66966 
  -66093   -65561   -65330   -65096   -64619   -63787   -62763   -61924 
  -61287   -60501   -59497   -58301   -56844   -55595   -55187   -55368 
  -55369   -54954   -54477   -54154   -53761   -53282   -53225   -53681 
  -53873   -53327   -52723   -52862   -53432   -53689   -53611   -53552 
  -53666   -53950   -54026   -53524   -53035   -53234   -53460   -52915 
  -52161   -52050   -52346   -52492   -52663   -53050   -53294   -53203 
  -53026   -52957   -52877   -52567   -52116   -51924   -52037   -51961 
  -51458   -50894   -50702   -50992   -51413   -51485   -51232   -50981 
  -50849   -50932   -51322   -51619   -51325   -50707   -50292   -50067 
  -49945   -50009   -49900   -49260   -48605   -48532   -48877   -49279 
  -49585   -49669   -49592   -49702   -50126   -50534   -50792   -51119 
  -51509   -51811   -51920   -51844   -52047   -52848   -53686   -53909 
  -53701   -53740   -54294   -54931   -55190   -55257   -55611   -56090 
  -56082   -55707   -55767   -56478   -57203   -57500   -57643   -57853 
  -57957   -58121   -58619   -58880   -58205   -57061   -56440   -56415 
  -56265   -55857   -55740   -55946   -55978   -55651   -55142   -54793 
  -54843   -54960   -54718   -54299   -53959   -53552   -53052   -52729 
  -52741   -53125   -53807   -54355   -54321   -53918   -53899   -54608 
  -55354   -55408   -55085   -55015   -55204   -55400   -55485   -55372 
  -55195   -55263   -55300   -54662   -53595   -52979   -52975   -53122 
  -53166   -53042   -52872   -53013   -53326   -53010   -51962   -51340 
  -51849   -52670   -52819   -52401   -52231   -52689   -53237   -53346 
  -53140   -52909   -52881   -53106   -53206   -52932   -52576   -52380 
  -52289   -52383   -52779   -53215   -53429   -53504   -53539   -53585 
  -53766   -54227   -54835   -55046   -54880   -55237   -56363   -57489 
  -58170   -58576   -58855   -59026   -59080   -59094   -59306   -59674 
  -59720   -59269   -58732   -58561   -58773   -58915   -58691   -58369 
  -58199   -58195   -58427   -58636   -58286   -57456   -56848   -56834 
  -56911   -56314   -55182   -54312   -53744   -53040   -52572   -52786 
  -53088   -52880   -52650   -52960   -53400   -53455   -53347   -53482 
  -53772   -53850   -53718   -53821   -54540   -55841   -57257   -58222 
  -58617   -58898   -59444   -60079   -60554   -60797   -60750   -60563 
