Origin Time       2011/03/11 14:46:00
Lat.              38.103
Long.             142.860
Depth. (km)       24
Mag.              9.0
Station Code      SZO022
Station Lat.      35.0918
Station Long.     137.8127
Station Height(m) 136
Record Time       2011/03/11 14:48:04
Sampling Freq(Hz) 100Hz
Duration Time(s)  215
Dir.              N-S
Scale Factor      3920(gal)/6182761
Max. Acc. (gal)   8.581
Last Correction   2011/03/11 14:47:49
Memo.             
[...]
   -8057    -8166    -8170    -8071    -7950    -7929    -8043    -8224 
   -8469    -8868    -9416    -9993   -10581   -11223   -11848   -12453 
  -13061   -13571   -14018   -14472   -14820   -15033   -15206   -15332 
  -15324   -15184   -14953   -14609   -14199   -13799   -13371   -12898 
  -12432   -12003   -11604   -11228   -10908   -10666   -10463   -10258 
  -10025    -9772    -9572    -9449    -9383    -9399    -9531    -9783 
  -10177   -10666   -11159   -11658   -12169   -12629   -13003   -13323 
  -13622   -13924   -14259   -14609   -14896   -15059   -15073   -14932 
  -14647   -14246   -13786   -13302   -12805   -12341   -11927   -11577 
  -11289   -10993   -10647   -10242    -9822    -9477    -9233    -9070 
   -8970    -8932    -8940    -8928    -8882    -8836    -8781    -8746 
   -8806    -8969    -9198    -9460    -9703    -9912   -10126   -10338 
  -10492   -10574   -10638   -10711   -10756   -10776   -10796   -10800 
  -10778   -10758   -10773   -10831   -10948   -11125   -11277   -11337 
  -11294   -11112   -10789   -10352    -9811    -9211    -8605    -8025 
   -7499    -7019    -6531    -6001    -5504    -5132    -4888    -4810 
   -4953    -5269    -5737    -6357    -7046    -7760    -8547    -9421 
  -10316   -11161   -11899   -12468   -12879   -13179   -13365   -13449 
  -13457   -13374   -13216   -13029   -12797   -12471   -12067   -11627 
  -11147   -10651   -10176    -9690    -9182    -8700    -8271    -7915 
   -7737    -7861    -8251    -8797    -9479   -10253   -11055   -11875 
  -12675   -13383   -13978   -14508   -15010   -15484   -15922   -16300 
  -16588   -16783   -16910   -17013   -17097   -17138   -17149   -17132 
  -17045   -16842   -16499   -15993   -15279   -14394   -13435   -12459 
  -11539   -10760   -10177    -9835    -9713    -9724    -9882   -10232 
  -10640   -10961   -11158   -11140   -10896   -10550   -10144    -9684 
   -9225    -8804    -8438    -8141    -7931    -7836    -7888    -8047 
   -8233    -8463    -8768    -9150    -9697   -10424   -11249   -12145 
  -13065   -13962   -14809   -15535   -16084   -16393   -16440   -16298 
  -15977   -15471   -14850   -14134   -13343   -12566   -11838   -11172 
  -10611   -10156    -9769    -9455    -9265    -9176    -9122    -9119 
   -9203    -9375    -9617    -9908   -10274   -10704   -11102   -11426 
  -11689   -11894   -12054   -12152   -12130   -12025   -11950   -11892 
  -11793   -11686   -11575   -11419   -11225   -10985   -10679   -10354 
  -10103    -9970    -9932    -9954   -10031   -10185   -10427   -10723 
  -11036   -11360   -11700   -12057   -12421   -12778   -13096   -13365 
  -13582   -13634   -13419   -12989   -12354   -11489   -10470    -9348 
   -8117    -6860    -5672    -4579    -3641    -2881    -2279    -1889 
   -1770    -1894    -2177    -2578    -3150    -3905    -4805    -5845 
   -6903    -7869    -8817    -9757   -10647   -11524   -12313   -12938 
  -13461   -13919   -14313   -14603   -14737   -14709   -14507   -14169 
  -13770   -13309   -12770   -12207   -11675   -11224   -10902   -10701 
  -10586   -10530   -10463   -10310   -10086    -9813    -9490    -9182 
   -8934    -8731    -8607    -8601    -8656    -8708    -8736    -8707 
   -8662    -8660    -8638    -8546    -8416    -8294    -8200    -8109 
   -8022    -8001    -8123    -8437    -8965    -9682   -10508   -11359 
  -12216   -13027   -13681   -14138   -14403   -14437   -14218   -13820 
  -13332   -12715   -11957   -11192   -10470    -9802    -9283    -8910 
   -8640    -8508    -8476    -8492    -8556    -8658    -8810    -9026 
   -9282    -9561    -9899   -10335   -10821   -11299   -11759   -12189 
  -12565   -12859   -13058   -13173   -13184   -13032   -12670   -12107 
  -11354   -10434    -9452    -8451    -7413    -6398    -5454    -4587 
   -3835    -3173    -2620    -2279    -2156    -2304    -2842    -3726 
   -4895    -6362    -8037    -9803   -11615   -13390   -15009   -16385 
  -17481   -18277   -18755   -18921   -18810   -18488   -18021   -17492 
  -16973   -16443   -15864   -15295   -14826   -14439   -14067   -13754 
  -13584   -13550   -13601   -13709   -13858   -14005   -14162   -14326 
  -14391   -14343   -14207   -13926   -13479   -12835   -11945   -10846 
   -9628    -8333    -6978    -5651    -4484    -3598    -3053    -2828 
   -2954    -3442    -4194    -5180    -6368    -7645    -8975   -10319 
  -11617   -12872   -14021   -15026   -15895   -16534   -16904   -16953 
  -16599   -15948   -15072   -13938   -12650   -11285    -9862    -8540 
   -7438    -6488    -5609    -4775    -3952    -3160    -2488    -1987 
   -1666    -1544    -1627    -1937    -2536    -3502    -4834    -6407 
   -8082    -9775   -11407   -12947   -14402   -15720   -16789   -17571 
  -18147   -18527   -18699   -18728   -18599   -18341   -18057   -17699 
  -17252   -16794   -16224   -15445   -14521   -13475   -12325   -11176 
  -10093    -9101    -8279    -7686    -7276    -6968    -6765    -6678 
   -6633    -6553    -6418    -6231    -5975    -5644    -5295    -4907 
   -4418    -3879    -3295    -2649    -2038    -1479     -936     -500 
    -214      -64     -119     -381     -799    -1354    -2032    -2842 
   -3727    -4581    -5443    -6335    -7190    -8081    -9080   -10113 
  -11167   -12270   -13334   -14299   -15199   -16020   -16700   -17185 
  -17448   -17545   -17477   -17213   -16823   -16325   -15714   -15047 
  -14300   -13438   -12514   -11579   -10679    -9876    -9254    -8874 
   -8728    -8784    -8992    -9323    -9746   -10199   -10646   -11068 
  -11470   -11828   -12087   -12287   -12449   -12551   -12612   -12563 
  -12349   -12106   -11887   -11693   -11687   -11911   -12307   -12932 
  -13786   -14815   -16047   -17417   -18753   -19940   -20899   -21571 
  -21925   -21915   -21543   -20808   -19699   -18315   -16775   -15092 
  -13251   -11292    -9303    -7371    -5571    -3973    -2633    -1577 
    -854     -562     -742    -1318    -2183    -3227    -4378    -5578 
   -6762    -7909    -9006   -10002   -10885   -11659   -12266   -12700 
  -13010   -13131   -12999   -12699   -12298   -11818   -11363   -11017 
  -10814   -10842   -11122   -11626   -12353   -13178   -13969   -14694 
  -15296   -15741   -15995   -16041   -15911   -15584   -15151   -14694 
  -14114   -13475   -12851   -12175   -11479   -10809   -10151    -9516 
   -8887    -8278    -7800    -7567    -7611    -7960    -8649    -9658 
  -10930   -12409   -13963   -15440   -16772   -17864   -18579   -18848 
  -18676   -18112   -17199   -15969   -14555   -13110   -11713   -10515 
   -9687    -9262    -9230    -9614   -10329   -11234   -12249   -13269 
  -14154   -14796   -15154   -15242   -15042   -14558   -13851   -12926 
  -11799   -10579    -9381    -8278    -7291    -6415    -5668    -5100 
   -4691    -4391    -4258    -4310    -4473    -4713    -5001    -5361 
   -5872    -6535    -7314    -8192    -9123   -10020   -10796   -11420 
  -11892   -12198   -12350   -12385   -12303   -12108   -11788   -11305 
  -10715   -10097    -9466    -8879    -8413    -8113    -7976    -7980 
   -8111    -8352    -8659    -8979    -9247    -9401    -9391    -9193 
   -8817    -8319    -7813    -7359    -6941    -6576    -6301    -6121 
   -6022    -6014    -6088    -6202    -6366    -6630    -7042    -7676 
   -8585    -9764   -11172   -12742   -14402   -16079   -17671   -19050 
  -20113   -20782   -20975   -20682   -19989   -18972   -17691   -16235 
  -14659   -13032   -11424    -9797    -8185    -6706    -5328    -4111 
   -3237    -2663    -2343    -2344    -2641    -3213    -4017    -4922 
   -5847    -6705    -7463    -8175    -8794    -9286    -9693    -9991 
  -10143   -10155   -10057    -9884    -9640    -9366    -9118    -8903 
   -8760    -8749    -8849    -9008    -9225    -9495    -9802   -10125 
  -10439   -10800   -11285   -11822   -12353   -12896   -13400   -13808 
  -14037   -13999   -13726   -13243   -12548   -11755   -10959   -10170 
   -9440    -8820    -8273    -7743    -7239    -6798    -6435    -6174 
   -6031    -5993    -6091    -6324    -6681    -7188    -7792    -8457 
   -9211   -10027   -10869   -11633   -12185   -12578   -12874   -13042 
  -13133   -13183   -13164   -13121   -13099   -13065   -12998   -12912 
  -12814   -12748   -12750   -12791   -12892   -13055   -13231   -13458 
  -13731   -14012   -14357   -14738   -15101   -15523   -15991   -16390 
  -16676   -16805   -16725   -16441   -15974   -15352   -14636   -13903 
  -13211   -12595   -12083   -11714   -11501   -11385   -11326   -11315 
  -11306   -11274   -11232   -11113   -10823   -10404    -9923    -9366 
   -8780    -8238    -7751    -7360    -7124    -7048    -7143    -7392 
   -7705    -7973    -8122    -8150    -8117    -7990    -7692    -7263 
   -6753    -6159    -5519    -4870    -4258    -3749    -3368    -3162 
   -3169    -3355    -3671    -4039    -4380    -4707    -5028    -5345 
   -5721    -6199    -6767    -7466    -8329    -9299   -10353   -11448 
  -12436   -13231   -13790   -14048   -13959   -13463   -12519   -11161 
   -9454    -7505    -5488    -3584    -1892     -432      766     1625 
    2057     2004     1513      627     -719    -2466    -4401    -6421 
   -8481   -10492   -12401   -14156   -15735   -17145   -18316   -19176 
  -19733   -19986   -19914   -19546   -18903   -17994   -16874   -15585 
  -14149   -12638   -11145    -9797    -8707    -7897    -7391    -7213 
   -7336    -7763    -8480    -9387   -10365   -11286   -12020   -12510 
  -12771   -12819   -12633   -12230   -11665   -10976   -10206    -9408 
   -8646    -8025    -7617    -7466    -7558    -7838    -8314    -8967 
   -9695   -10434   -11135   -11747   -12237   -12587   -12809   -12883 
  -12753   -12456   -12041   -11484   -10786   -10026    -9295    -8650 
   -8107    -7676    -7376    -7162    -7009    -6958    -7035    -7265 
   -7646    -8142    -8741    -9427   -10143   -10848   -11555   -12281 
  -13037   -13849   -14707   -15575   -16432   -17218   -17878   -18428 
  -18874   -19182   -19317   -19227   -18890   -18324   -17541   -16525 
  -15291   -13938   -12590   -11341   -10277    -9489    -9011    -8821 
   -8895    -9205    -9688   -10317   -11120   -12023   -12877   -13613 
  -14189   -14573   -14744   -14663   -14374   -13980   -13524   -13073 
  -12671   -12241   -11727   -11099   -10334    -9452    -8472    -7431 
   -6377    -5352    -4398    -3574    -2962    -2642    -2687    -3141 
   -3960    -5037    -6268    -7546    -8814   -10044   -11161   -12101 
  -12809   -13280   -13544   -13535   -13216   -12655   -11880   -10912 
   -9846    -8750    -7687    -6732    -5922    -5294    -4867    -4632 
   -4620    -4807    -5103    -5490    -6010    -6676    -7450    -8283 
   -9100    -9818   -10398   -10842   -11143   -11289   -11271   -11094 
  -10790   -10399    -9956    -9528    -9188    -8953    -8839    -8881 
   -9032    -9212    -9394    -9567    -9712    -9790    -9781    -9719 
   -9609    -9464    -9330    -9231    -9137    -8985    -8779    -8585 
   -8428    -8304    -8204    -8115    -8059    -8076    -8188    -8409 
   -8746    -9167    -9650   -10185   -10723   -11221   -11660   -12002 
  -12210   -12248   -12110   -11901   -11707   -11482   -11168   -10780 
  -10374    -9973    -9590    -9240    -8891    -8564    -8319    -8145 
   -8012    -7914    -7842    -7818    -7887    -8050    -8261    -8476 
   -8647    -8761    -8878    -9086    -9401    -9779   -10224   -10750 
  -11357   -12055   -12796   -13507   -14161   -14774   -15379   -15927 
  -16312   -16529   -16614   -16538   -16298   -15936   -15452   -14759 
  -13785   -12588   -11211    -9666    -8052    -6458    -4934    -3598 
   -2565    -1888    -1619    -1775    -2304    -3164    -4341    -5742 
   -7216    -8701   -10198   -11621   -12887   -13987   -14859   -15435 
  -15707   -15678   -15343   -14667   -13610   -12209   -10576    -8791 
   -6946    -5219    -3713    -2457    -1540    -1018     -886    -1132 
   -1721    -2585    -3651    -4892    -6255    -7621    -8944   -10197 
  -11333   -12377   -13330   -14174   -14910   -15499   -15914   -16161 
  -16271   -16254   -16057   -15672   -15141   -14474   -13692   -12793 
  -11810   -10843    -9946    -9161    -8557    -8173    -8019    -8071 
   -8262    -8540    -8869    -9218    -9573    -9909   -10194   -10394 
  -10490   -10520   -10482   -10306    -9967    -9514    -9019    -8518 
   -8032    -7635    -7383    -7236    -7162    -7228    -7445    -7681 
   -7934    -8318    -8769    -9209    -9729   -10339   -10937   -11533 
  -12168   -12801   -13364   -13762   -14002   -14143   -14116   -13934 
  -13717   -13484   -13266   -13154   -13181   -13319   -13477   -13562 
  -13599   -13596   -13456   -13208   -12935   -12581   -12126   -11663 
  -11204   -10679   -10109    -9535    -8944    -8431    -8103    -7972 
   -8123    -8588    -9257   -10128   -11225   -12511   -13941   -15381 
  -16682   -17752   -18539   -19098   -19425   -19469   -19280   -18921 
  -18453   -17940   -17415   -16906   -16368   -15796   -15239   -14697 
  -14183   -13684   -13207   -12795   -12368   -11851   -11262   -10597 
   -9906    -9258    -8652    -8112    -7642    -7209    -6851    -6565 
   -6332    -6201    -6151    -6117    -6007    -5799    -5594    -5385 
   -5166    -5095    -5225    -5549    -6156    -7019    -8005    -9055 
  -10112   -11100   -12018   -12844   -13521   -14108   -14657   -15144 
  -15612   -16088   -16560   -17002   -17340   -17559   -17635   -17453 
  -16976   -16159   -14943   -13428   -11734    -9890    -7970    -6076 
   -4234    -2501     -987      251     1158     1804     2280     2458 
    2335     2031     1490      641     -453    -1634    -2793    -4037 
   -5531    -7189    -8778   -10326   -11883   -13258   -14476   -15564 
  -16243   -16503   -16425   -15910   -14994   -13783   -12417   -10909 
   -9298    -7848    -6558    -5430    -4689    -4281    -4070    -4060 
   -4258    -4601    -5019    -5508    -5984    -6339    -6664    -7051 
   -7440    -7804    -8176    -8529    -8803    -8916    -8869    -8734 
   -8432    -7892    -7245    -6530    -5768    -5139    -4693    -4446 
   -4470    -4575    -4686    -5029    -5425    -5642    -5925    -6246 
   -6396    -6522    -6675    -6773    -6946    -7208    -7411    -7717 
   -8199    -8667    -9253    -9998   -10653   -11249   -11881   -12444 
  -12871   -13255   -13644   -13929   -14164   -14362   -14426   -14487 
  -14517   -14385   -14148   -13681   -12979   -12209   -11286   -10255 
   -9214    -8114    -7088    -6157    -5277    -4661    -4305    -4102 
   -4181    -4431    -4729    -5210    -5771    -6348    -7032    -7701 
   -8342    -9035    -9735   -10396   -10934   -11368   -11778   -12058 
  -12154   -12167   -12189   -12209   -12180   -12209   -12356   -12517 
  -12726   -12983   -13136   -13233   -13318   -13257   -13085   -12887 
  -12615   -12295   -11977   -11673   -11474   -11400   -11370   -11399 
  -11507   -11643   -11784   -11855   -11821   -11707   -11477   -11137 
  -10692   -10164    -9661    -9186    -8789    -8538    -8340    -8218 
   -8195    -8159    -8114    -8046    -7930    -7763    -7420    -6983 
   -6652    -6365    -6138    -5997    -5899    -6025    -6425    -7011 
   -7848    -8878    -9938   -10989   -12006   -12951   -13733   -14222 
  -14522   -14700   -14592   -14267   -13845   -13182   -12353   -11558 
  -10727    -9778    -8761    -7761    -6826    -5941    -5202    -4685 
   -4407    -4488    -4924    -5700    -6902    -8357    -9929   -11677 
  -13424   -15048   -16687   -18247   -19557   -20749   -21837   -22632 
  -23180   -23487   -23367   -22907   -22194   -21067   -19657   -18154 
  -16477   -14847   -13376   -11856   -10480    -9340    -8359    -7771 
   -7433    -7151    -7180    -7373    -7576    -8022    -8503    -8854 
   -9343    -9834   -10132   -10418   -10676   -10795   -10844   -10841 
  -10782   -10717   -10683   -10705   -10797   -10913   -11019   -11226 
  -11573   -11912   -12181   -12417   -12640   -12870   -13075   -13192 
  -13158   -12941   -12646   -12287   -11765   -11171   -10542    -9804 
   -9135    -8586    -7997    -7477    -7058    -6632    -6311    -6096 
   -5903    -5890    -6125    -6550    -7272    -8312    -9529   -10909 
  -12414   -13872   -15269   -16576   -17597   -18337   -18857   -19054 
  -18975   -18729   -18288   -17774   -17273   -16674   -16086   -15596 
  -15069   -14573   -14228   -13904   -13562   -13343   -13205   -13074 
  -13011   -12971   -12921   -12821   -12567   -12225   -11911   -11588 
  -11179   -10676   -10148    -9693    -9318    -8927    -8488    -7977 
   -7358    -6795    -6343    -5838    -5379    -5157    -5105    -5220 
   -5599    -6287    -7250    -8356    -9540   -10807   -12075   -13296 
  -14502   -15613   -16493   -17139   -17629   -17971   -18143   -18167 
  -18038   -17781   -17475   -17087   -16597   -16063   -15380   -14551 
  -13721   -12771   -11722   -10750    -9699    -8593    -7645    -6761 
   -5933    -5240    -4595    -4093    -3888    -3878    -4014    -4433 
   -5140    -6019    -7033    -8105    -9166   -10296   -11408   -12299 
  -12995   -13539   -13913   -14130   -14184   -14025   -13666   -13294 
  -12983   -12614   -12169   -11729   -11384   -10998   -10285    -9526 
   -9271    -9283    -8955    -8414    -8311    -8770    -9326    -9847 
  -10537   -11464   -12575   -13458   -13918   -14448   -14929   -14770 
  -14396   -14427   -14318   -13403   -12234   -11557   -11125   -10542 
   -9723    -8783    -8280    -8242    -8130    -8066    -8219    -8442 
   -8723    -8953    -9398   -10235   -10729   -10873   -11369   -11898 
  -12241   -12630   -12752   -12656   -12521   -12116   -11564   -10941 
  -10303    -9814    -9259    -8655    -8188    -7920    -7922    -8017 
   -8369    -9104    -9727   -10268   -11014   -11727   -12380   -12987 
  -13300   -13557   -14007   -14207   -14055   -13978   -13858   -13497 
  -13180   -12859   -12276   -11637   -11093   -10565   -10099    -9749 
   -9561    -9616    -9950   -10430   -10899   -11466   -12164   -12805 
  -13281   -13630   -14046   -14530   -14796   -14884   -15018   -15026 
  -14797   -14548   -14256   -13765   -13145   -12426   -11667   -11017 
  -10367    -9706    -9302    -9134    -9062    -9123    -9218    -9294 
   -9505    -9811   -10035   -10198   -10374   -10519   -10587   -10659 
  -10835   -11043   -11257   -11579   -11997   -12455   -12952   -13465 
  -13922   -14371   -14874   -15204   -15358   -15518   -15490   -15287 
  -15130   -14889   -14531   -14225   -13923   -13494   -12942   -12277 
  -11457   -10524    -9517    -8401    -7201    -6057    -5082    -4302 
   -3779    -3542    -3549    -3846    -4472    -5369    -6472    -7711 
   -9098   -10596   -12032   -13404   -14821   -16132   -17173   -18052 
  -18835   -19405   -19667   -19627   -19356   -18889   -18243   -17427 
  -16463   -15478   -14513   -13532   -12651   -11831   -10960   -10176 
   -9480    -8834    -8357    -7946    -7544    -7237    -6947    -6794 
   -6846    -6814    -6786    -7108    -7653    -8141    -8598    -9189 
   -9999   -10968   -11910   -12774   -13728   -14763   -15645   -16416 
  -17213   -17860   -18226   -18322   -18213   -17994   -17580   -17007 
  -16348   -15453   -14442   -13544   -12684   -11711   -10707    -9946 
   -9397    -8919    -8602    -8412    -8378    -8665    -9182    -9705 
  -10202   -10726   -11193   -11750   -12440   -12848   -13012   -13145 
