Origin Time       2011/03/11 14:46:00
Lat.              38.103
Long.             142.860
Depth. (km)       24
Mag.              9.0
Station Code      SZO006
Station Lat.      34.9111
Station Long.     138.7948
Station Height(m) 10
Record Time       2011/03/11 14:48:03
Sampling Freq(Hz) 100Hz
Duration Time(s)  221
Dir.              U-D
Scale Factor      3920(gal)/6182761
Max. Acc. (gal)   8.345
Last Correction   2011/03/11 14:47:48
Memo.             
[...]
  -56718   -56808   -56402   -55966   -55746   -55228   -54509   -54027 
  -53878   -53751   -52879   -51149   -49587   -48731   -47967   -46909 
  -46050   -45875   -46181   -46447   -46709   -47405   -48357   -49034 
  -49535   -50106   -50431   -50601   -51251   -52170   -52716   -52853 
  -52721   -52517   -52408   -52265   -52222   -52680   -53697   -54930 
  -55901   -56517   -57040   -57432   -57590   -57637   -57650   -57895 
  -58410   -58335   -57222   -55992   -55408   -55195   -55197   -55700 
  -56451   -56866   -56901   -56655   -56172   -55773   -55483   -55214 
  -55307   -55716   -56195   -56836   -57182   -56703   -55994   -55828 
  -56042   -56082   -55855   -55707   -55817   -55949   -55772   -55084 
  -53945   -52841   -52423   -52681   -52838   -52774   -53229   -54116 
  -54775   -55217   -55422   -55439   -55905   -56615   -56587   -55760 
  -54618   -53582   -53245   -53437   -53433   -53314   -53317   -53321 
  -53460   -53593   -53375   -53285   -53538   -53219   -52277   -51843 
  -52204   -52717   -52931   -53129   -53943   -55108   -55929   -56566 
  -57255   -57749   -57893   -57582   -57130   -57360   -58163   -58659 
  -58748   -58708   -58612   -58783   -59206   -59247   -58865   -58519 
  -58118   -57440   -56680   -56017   -55371   -54842   -54722   -54849 
  -54865   -54915   -55181   -55424   -55585   -55867   -55964   -55603 
  -55365   -55581   -55733   -55660   -55969   -56942   -57868   -57991 
  -57775   -57848   -57614   -56832   -56150   -55434   -54415   -53580 
  -53090   -52646   -52147   -51987   -52562   -53215   -53130   -52677 
  -52442   -52395   -52341   -52241   -52308   -52540   -52530   -52447 
  -52731   -52995   -52935   -52814   -52457   -51745   -51237   -51166 
  -51189   -51104   -50887   -50585   -50344   -50097   -49910   -50262 
  -51176   -52144   -52963   -53711   -54436   -55254   -56282   -57397 
  -58451   -59549   -60552   -60836   -60175   -59235   -58670   -58456 
  -58306   -58123   -58112   -58206   -57696   -56670   -56283   -56529 
  -56228   -55201   -54191   -53300   -52128   -50874   -50111   -49962 
  -50250   -50797   -51294   -51493   -51403   -50969   -50265   -50253 
  -51645   -53248   -53855   -54157   -54657   -54520   -53634   -52938 
  -52514   -51859   -51466   -51757   -51989   -51801   -51619   -51448 
  -51027   -50625   -50861   -51878   -53210   -54419   -55204   -55299 
  -54815   -54245   -53968   -53893   -53452   -52357   -51514   -51866 
  -52696   -53005   -53185   -53700   -54160   -54188   -53861   -53617 
  -53553   -53224   -52845   -52996   -53261   -53017   -52429   -51624 
  -50598   -50174   -50914   -51831   -52284   -52971   -53989   -54703 
  -55135   -55571   -56042   -56605   -57001   -56782   -56354   -56588 
  -57497   -58454   -59066   -59057   -58290   -57121   -55963   -54914 
  -54138   -53833   -53686   -53164   -52343   -51858   -52107   -52768 
  -53245   -53617   -54225   -54584   -54184   -53602   -53524   -53708 
  -53742   -53824   -54053   -53884   -53052   -52195   -51934   -52013 
  -51968   -51918   -52075   -52205   -52103   -52083   -52430   -52819 
  -53070   -53594   -54366   -54926   -55555   -56771   -57943   -58215 
  -58107   -58155   -57622   -56354   -55246   -54380   -53530   -53137 
  -53113   -52886   -52663   -52961   -53453   -53471   -53235   -53277 
  -53360   -53094   -52548   -52057   -51855   -51743   -51739   -52280 
  -53048   -53377   -53494   -53652   -53339   -52366   -51336   -50774 
  -50833   -51328   -51770   -52042   -52321   -52563   -52803   -52995 
  -52931   -52879   -52979   -52658   -51980   -51748   -51808   -51526 
  -51275   -51498   -51723   -51660   -51630   -51691   -51912   -52525 
  -53223   -53805   -54542   -55303   -55776   -55956   -55810   -55383 
  -55023   -54756   -54320   -54051   -54175   -54017   -53184   -52244 
  -52010   -52708   -53573   -54121   -55038   -56212   -56654   -56639 
  -56901   -57272   -57173   -56431   -55758   -55607   -55356   -54756 
  -54348   -54105   -53719   -53598   -53892   -53989   -53730   -53577 
  -53744   -54299   -55394   -56439   -56588   -56257   -56256   -56386 
  -56023   -55075   -54074   -53645   -53848   -54228   -54665   -55520 
  -56653   -57350   -57348   -56958   -56581   -56584   -56951   -57311 
  -57824   -58883   -59995   -60381   -60031   -59228   -58011   -56630 
  -55621   -54999   -54244   -53200   -52216   -51495   -50829   -50201 
  -50030   -50308   -50609   -50715   -50523   -50439   -51039   -51850 
  -52210   -52367   -52748   -53622   -54881   -55720   -55819   -55688 
  -55344   -54668   -54264   -54484   -55147   -56104   -56809   -56707 
  -56291   -56069   -55658   -55107   -55188   -55931   -56459   -56417 
  -56351   -56389   -56009   -55358   -55075   -55138   -55099   -54766 
  -54340   -53994   -53410   -52391   -51509   -51363   -51757   -52106 
  -52249   -52154   -51786   -51673   -51883   -51806   -51796   -52329 
  -52838   -52956   -52826   -52564   -52453   -52639   -52906   -53105 
  -53032   -52377   -51404   -50792   -50699   -50928   -51497   -52317 
  -53081   -53593   -53778   -53833   -54063   -54404   -54815   -55519 
  -56433   -57357   -58280   -59012   -59433   -59681   -59701   -59508 
  -59451   -59652   -59774   -59390   -58274   -56551   -54788   -53490 
  -52617   -52080   -51882   -51833   -51774   -51411   -50508   -49638 
  -49352   -49357   -49440   -49706   -49995   -50136   -50299   -50708 
  -51317   -51841   -52053   -52228   -52832   -53561   -53931   -54241 
  -54621   -54739   -54730   -54728   -54565   -54566   -54879   -54986 
  -54936   -55143   -55445   -55645   -55839   -56046   -56052   -55403 
  -54011   -52871   -52892   -53525   -53894   -53940   -53819   -53555 
  -53397   -53827   -55050   -56685   -58168   -59198   -59612   -59334 
  -58856   -58867   -59119   -58988   -58615   -58245   -57664   -56869 
  -56101   -55487   -55259   -55493   -55737   -55629   -55284   -54811 
  -54087   -53217   -52578   -52133   -51587   -51179   -51300   -51903 
  -52620   -53228   -54035   -55161   -56038   -56533   -57090   -57621 
  -57818   -57934   -58273   -58609   -58586   -58186   -57661   -57321 
  -57248   -57082   -56601   -56128   -56011   -56233   -56459   -56322 
  -55788   -55091   -54541   -54368   -54477   -54592   -54623   -54729 
  -54958   -55119   -55166   -55222   -55383   -55534   -55178   -54320 
  -53790   -53788   -53799   -53872   -54130   -54082   -53578   -53164 
  -53122   -53184   -53208   -53285   -53319   -53227   -52968   -52271 
  -51381   -51087   -51300   -51270   -51071   -51178   -51358   -51238 
  -51022   -50945   -50924   -50978   -51193   -51436   -51681   -52015 
  -52129   -51667   -50925   -50430   -50239   -50185   -50294   -50759 
  -51498   -51923   -51893   -52213   -53270   -54309   -54917   -55450 
  -55561   -54904   -54352   -54326   -54524   -55328   -56678   -57509 
  -57506   -57285   -57226   -57307   -57361   -57162   -56735   -56334 
  -56034   -55888   -55948   -55856   -55440   -55193   -55136   -54621 
  -53852   -53547   -53439   -52996   -52454   -52070   -51721   -51477 
  -51524   -51742   -52077   -52575   -52833   -52617   -52487   -52740 
  -52890   -52712   -52690   -53126   -53583   -53591   -53474   -53770 
  -54205   -54301   -54397   -54973   -55746   -56162   -56224   -56474 
  -57137   -57840   -58479   -59211   -59732   -59866   -59909   -59938 
  -59871   -59695   -59418   -59251   -59120   -58556   -57788   -57515 
  -57591   -57478   -57270   -57161   -56874   -56297   -55566   -54638 
  -53858   -53834   -54266   -54369   -53973   -53313   -52645   -52200 
  -51993   -51775   -51472   -51301   -51063   -50384   -49798   -49933 
  -50594   -51669   -52910   -53534   -53779   -54538   -55512   -56138 
  -56650   -57335   -58053   -58162   -57487   -56933   -56711   -55989 
  -54731   -53675   -53123   -52827   -52533   -52364   -52418   -52489 
  -52470   -52374   -52339   -52707   -53415   -53923   -54024   -53946 
  -53854   -53820   -54080   -54850   -55768   -56089   -55662   -55078 
  -54843   -54808   -54519   -53950   -53292   -52414   -51374   -50660 
  -50432   -50160   -49301   -48016   -47139   -47306   -48063   -48613 
  -49113   -49905   -50394   -49953   -49068   -48622   -48629   -48425 
  -47766   -47270   -47511   -48088   -48285   -48104   -47939   -47763 
  -47432   -47333   -47898   -48904   -49769   -50490   -51542   -52723 
  -53508   -54047   -54544   -54926   -55298   -55760   -56484   -57577 
  -58499   -58955   -59186   -58692   -57244   -55973   -55301   -54635 
  -54248   -54384   -54273   -53735   -53480   -53851   -54564   -55104 
  -55381   -55652   -55615   -55021   -54456   -54218   -53949   -53571 
  -53115   -52527   -52158   -52307   -52816   -53461   -54092   -54537 
  -54544   -54414   -54900   -55720   -56240   -56798   -57303   -57048 
  -56352   -55853   -55357   -54753   -54472   -54465   -53991   -52924 
  -52010   -51701   -51692   -51630   -51766   -52172   -52386   -52525 
  -52840   -52935   -52734   -52530   -52209   -51693   -51334   -51424 
  -51836   -52281   -52780   -53366   -53582   -53189   -52646   -52289 
  -51904   -51257   -50664   -50589   -50625   -50094   -49477   -49506 
  -49819   -49835   -49613   -49482   -49749   -50453   -51086   -51257 
  -51398   -52009   -52659   -52777   -52731   -52998   -53213   -53182 
  -53529   -54294   -54632   -54503   -54355   -53975   -53521   -53486 
  -53703   -53951   -54272   -54584   -54589   -54289   -54349   -54828 
  -54845   -54206   -53338   -52359   -51466   -50832   -50206   -49535 
  -49184   -49188   -49208   -49206   -49410   -49761   -49991   -50157 
  -50671   -51553   -52199   -52666   -53694   -54712   -54694   -54332 
  -54396   -54408   -54253   -54340   -54630   -55072   -55774   -56425 
  -56865   -57395   -57857   -58122   -58622   -59231   -59365   -58826 
  -57703   -56516   -55865   -55681   -55556   -55320   -54851   -54118 
  -53476   -53010   -52506   -52318   -52599   -52820   -52791   -52837 
  -53252   -54008   -54910   -55817   -56580   -57166   -57813   -58622 
  -59274   -59588   -59580   -58963   -57964   -57374   -57048   -56276 
  -55143   -54179   -53488   -52887   -52285   -51719   -51235   -50768 
  -50424   -50191   -49581   -48815   -48596   -48569   -48157   -47699 
  -47730   -48126   -48213   -47849   -47626   -47664   -47716   -47789 
  -47638   -47240   -47252   -47849   -48634   -49402   -50024   -50653 
  -51529   -52206   -52272   -52050   -51851   -51580   -51013   -50214 
  -49576   -49187   -48756   -48126   -47520   -47311   -47491   -47897 
  -48580   -49239   -49366   -49211   -49254   -49159   -48656   -48275 
  -48255   -48384   -48649   -49141   -49787   -50251   -50353   -50356 
  -50298   -49819   -49136   -49002   -49229   -49101   -48929   -49304 
  -50206   -51421   -52617   -53618   -54409   -54631   -54335   -54178 
  -54064   -53354   -52325   -51809   -51795   -51728   -51804   -52456 
  -53447   -54545   -55750   -56689   -57096   -57365   -57772   -57883 
  -57299   -56548   -56365   -56442   -56303   -56319   -56850   -57558 
  -57747   -57299   -56843   -56470   -55813   -55198   -55037   -55107 
  -55069   -54807   -54500   -54458   -54636   -54757   -54842   -55032 
  -55233   -55367   -55365   -55093   -54869   -54894   -54608   -54112 
  -54237   -55020   -55858   -56101   -55697   -55216   -54612   -53642 
  -52664   -52243   -52764   -53664   -54105   -54338   -54623   -54601 
  -54410   -54528   -54966   -55387   -55645   -55983   -56430   -56663 
  -56821   -57127   -57168   -56830   -56389   -55653   -54705   -54174 
  -53992   -53647   -53428   -53720   -54005   -53970   -53940   -53687 
  -52864   -51911   -51144   -50305   -49442   -49147   -49593   -50029 
  -49873   -49525   -49641   -50189   -50411   -50132   -50170   -50707 
  -51191   -51701   -52415   -53056   -53763   -54806   -55707   -56046 
  -56152   -56372   -56667   -56906   -57106   -57417   -57769   -57901 
  -57812   -57702   -57394   -56455   -55110   -53833   -52523   -51279 
  -50560   -50299   -50100   -50025   -50329   -50699   -50973   -51654 
  -52638   -53418   -54173   -54911   -55365   -55699   -55692   -55009 
  -54171   -53584   -53122   -52606   -51817   -51121   -50976   -50857 
  -50527   -50699   -51407   -51658   -51138   -50547   -50186   -50070 
  -50551   -51494   -52499   -53687   -54921   -55718   -56100   -56335 
  -56464   -56300   -55911   -55903   -56355   -56614   -56565   -56521 
  -56559   -56662   -56783   -56939   -57284   -57814   -58120   -57699 
  -56653   -55679   -55166   -54924   -54837   -55054   -55560   -56043 
  -56269   -56314   -56326   -56398   -56491   -56480   -56358   -56074 
  -55705   -55520   -55487   -55373   -55092   -54896   -55140   -55570 
  -55831   -56181   -56908   -57932   -58934   -59690   -60271   -60518 
  -60232   -59739   -59353   -59076   -58924   -58928   -58894   -58594 
  -58426   -58813   -59065   -58889   -59251   -60023   -60090   -59542 
  -58865   -58010   -56993   -55917   -55064   -54566   -54015   -53458 
  -53315   -53217   -52621   -51850   -51538   -51760   -52075   -52378 
  -53144   -54318   -55425   -56454   -57128   -56960   -56255   -55610 
  -55386   -55577   -55660   -55492   -55518   -55625   -55217   -54375 
  -53851   -53937   -54298   -54715   -55050   -55218   -55512   -55903 
  -55963   -55927   -56240   -56704   -57109   -57565   -58136   -58789 
  -59350   -59706   -60018   -60392   -60891   -61613   -62542   -63807 
  -65221   -65939   -65976   -66359   -67024   -67139   -66953   -66938 
  -66599   -65440   -63793   -62235   -60859   -59666   -58992   -58729 
  -58400   -57996   -57653   -57406   -57363   -57442   -57400   -57160 
  -56921   -56879   -56796   -56488   -56310   -56433   -56483   -56139 
  -55443   -54620   -53846   -53021   -51814   -50460   -49659   -49126 
  -48252   -47504   -47259   -47149   -46914   -46619   -46461   -46524 
  -46773   -47238   -47697   -47843   -47905   -48150   -48444   -48771 
  -49133   -49341   -49398   -49422   -49607   -50125   -50601   -50718 
  -50941   -51630   -52413   -52810   -52738   -52534   -52520   -52505 
  -52189   -51791   -51641   -51728   -51940   -52012   -51686   -51219 
  -51158   -51703   -52456   -53044   -53790   -54878   -55882   -56550 
  -56828   -56729   -56415   -55923   -55369   -55002   -54869   -54871 
  -54780   -54495   -54224   -53958   -53458   -52835   -52365   -52012 
  -51729   -51565   -51395   -51344   -51577   -51770   -51909   -52439 
  -53317   -54373   -55696   -56899   -57543   -57952   -58497   -59076 
  -59585   -60182   -60934   -61570   -61909   -62070   -62262   -62565 
  -62848   -63092   -63236   -63026   -62511   -61841   -61087   -60370 
  -59580   -58713   -58012   -57507   -57171   -57019   -56970   -57004 
  -57170   -57363   -57219   -56607   -56030   -55845   -55633   -54989 
  -54237   -53761   -53442   -53278   -53574   -54259   -54969   -55641 
  -56200   -56346   -56193   -56097   -55873   -55335   -54947   -55087 
  -55433   -55558   -55533   -55808   -56621   -57421   -57734   -58001 
  -58212   -57781   -57120   -56906   -56838   -56485   -56125   -56161 
  -56393   -56384   -56181   -56045   -55748   -55109   -54579   -54283 
  -53813   -53215   -52766   -52402   -52132   -52097   -52171   -52187 
  -52242   -52320   -52134   -51945   -52340   -52985   -53374   -53707 
  -53953   -53984   -54009   -53870   -53416   -52908   -52308   -51640 
  -51327   -51233   -50885   -50397   -50031   -49795   -49671   -49700 
  -49930   -50456   -51502   -52893   -53975   -54684   -55255   -55424 
  -55212   -54883   -54296   -53581   -53233   -53190   -53132   -53093 
  -52895   -52216   -51269   -50489   -49892   -49222   -48697   -48779 
  -49226   -49620   -50018   -50443   -50848   -51326   -51826   -52135 
  -52208   -52235   -52298   -52312   -52207   -51709   -50723   -49770 
  -49204   -49067   -49371   -49771   -50210   -51049   -51836   -51902 
  -51694   -51718   -51746   -51747   -51882   -52039   -52065   -52005 
  -52138   -52437   -52588   -52846   -53524   -54029   -53757   -53144 
  -52698   -52101   -51270   -50725   -50578   -50592   -50674   -50764 
  -50999   -51725   -52863   -53894   -54620   -55238   -55772   -56066 
  -56182   -56402   -56782   -57111   -57403   -57785   -58150   -58362 
  -58425   -58342   -57959   -57282   -56699   -56213   -55395   -54604 
  -54624   -55111   -55126   -54611   -54073   -53521   -52541   -51297 
  -50498   -50285   -50197   -49945   -49712   -49807   -50084   -50206 
  -50303   -50792   -51578   -52034   -52037   -52014   -52098   -52245 
  -52426   -52481   -52530   -52923   -53531   -53958   -54203   -54422 
  -54561   -54566   -54502   -54535   -54748   -54864   -54725   -54537 
  -54342   -54321   -54792   -55494   -56216   -57078   -57778   -58095 
  -58270   -58309   -58022   -57487   -56860   -56163   -55462   -54782 
  -54012   -53276   -52845   -52529   -52029   -51601   -51513   -51428 
  -50976   -50334   -49772   -49278   -48891   -48714   -48740   -48864 
  -48857   -48653   -48406   -48162   -47977   -47959   -47998   -47805 
  -47254   -46708   -46588   -46772   -47098   -47583   -48102   -48714 
  -49489   -50233   -51076   -51971   -52324   -52170   -51903   -51488 
  -51066   -50767   -50507   -50540   -50850   -51017   -51134   -51333 
  -51307   -51065   -50855   -50593   -50275   -50218   -50338   -50113 
  -49699   -49880   -50671   -51317   -51682   -52248   -52877   -53042 
  -52933   -52985   -52999   -52732   -52367   -51964   -51552   -51341 
  -51193   -50926   -50771   -50788   -50898   -51296   -52082   -53000 
  -53780   -54478   -55226   -55888   -56338   -56762   -57419   -58271 
  -59098   -59802   -60333   -60744   -61039   -61129   -61188   -61302 
  -61205   -60778   -60140   -59369   -58449   -57554   -57050   -56997 
  -57029   -56907   -56801   -56707   -56419   -56183   -56266   -56502 
  -56859   -57429   -58043   -58583   -59062   -59307   -59283   -59230 
  -59183   -58919   -58307   -57466   -56585   -55778   -55194   -54803 
  -54433   -54096   -53819   -53607   -53553   -53552   -53396   -53116 
  -52875   -52791   -52889   -53130   -53604   -54267   -54850   -55435 
  -56143   -56600   -56609   -56371   -55989   -55528   -55094   -54739 
  -54474   -54030   -53198   -52313   -51667   -51197   -50846   -50598 
  -50523   -50720   -50966   -50884   -50564   -50441   -50434   -50226 
  -50115   -50366   -50817   -51503   -52283   -52625   -52513   -52370 
  -52286   -52094   -51696   -51227   -50982   -50930   -50769   -50451 
  -50183   -50115   -50207   -50350   -50474   -50501   -50438   -50338 
  -50108   -49741   -49420   -49236   -49192   -49354   -49792   -50378 
  -50901   -51392   -51938   -52329   -52358   -52189   -52107   -52179 
  -52276   -52301   -52339   -52468   -52610   -52802   -53145   -53596 
  -54098   -54493   -54744   -55127   -55557   -55788   -56077   -56605 
  -57098   -57345   -57358   -57284   -57352   -57451   -57136   -56494 
  -56155   -56161   -55987   -55557   -55175   -54906   -54671   -54516 
  -54522   -54633   -54645   -54477   -54331   -54246   -54039   -53798 
  -53654   -53495   -53347   -53376   -53502   -53546   -53512   -53382 
  -53035   -52491   -51897   -51438   -51233   -51217   -51375   -51788 
  -52236   -52472   -52693   -53046   -53275   -53196   -52930   -52530 
