Origin Time       2011/03/11 14:46:00
Lat.              38.103
Long.             142.860
Depth. (km)       24
Mag.              9.0
Station Code      SZO006
Station Lat.      34.9111
Station Long.     138.7948
Station Height(m) 10
Record Time       2011/03/11 14:48:03
Sampling Freq(Hz) 100Hz
Duration Time(s)  221
Dir.              E-W
Scale Factor      3920(gal)/6182761
Max. Acc. (gal)   10.755
Last Correction   2011/03/11 14:47:48
Memo.             
[...]
  -33471   -33194   -32846   -32663   -32871   -33230   -33152   -32626 
  -32111   -31666   -31221   -30864   -30682   -30884   -31468   -32008 
  -32314   -32596   -33057   -33861   -34972   -35918   -36319   -36263 
  -35782   -34739   -33283   -31790   -30437   -29326   -28846   -29163 
  -29825   -30293   -30303   -29931   -29538   -29463   -29784   -30311 
  -31010   -32233   -34024   -35782   -37044   -37971   -38821   -39508 
  -39995   -40453   -40618   -40112   -39206   -38181   -36971   -35768 
  -34843   -33996   -32924   -31815   -31060   -30629   -30223   -29801 
  -29499   -29300   -29163   -29286   -29924   -30951   -31896   -32468 
  -32726   -32799   -32782   -32830   -33034   -33257   -33323   -33248 
  -33061   -32680   -32173   -31736   -31481   -31404   -31476   -31835 
  -32591   -33511   -34373   -35248   -36192   -37047   -37645   -37971 
  -38149   -38302   -38390   -38260   -37812   -37216   -36868   -36892 
  -37019   -36997   -36827   -36734   -36754   -36825   -37168   -37598 
  -37577   -37177   -36674   -36010   -35038   -33864   -32843   -32048 
  -31361   -30968   -30948   -31060   -31329   -32018   -33027   -34079 
  -35168   -36129   -36576   -36721   -37075   -37374   -37178   -36851 
  -36734   -36380   -35546   -34588   -33508   -32282   -31398   -30994 
  -30788   -30790   -31280   -32251   -33139   -33520   -33594   -33637 
  -33789   -34299   -35208   -36049   -36458   -36556   -36557   -36566 
  -36419   -35774   -34792   -33934   -33136   -32180   -31262   -30742 
  -30591   -30277   -29562   -28829   -28345   -28046   -27989   -28327 
  -28960   -29805   -30999   -32370   -33583   -34722   -35913   -36909 
  -37531   -38053   -38792   -39640   -40240   -40451   -40478   -40486 
  -40473   -40459   -40342   -39951   -39235   -38215   -37022   -36008 
  -35518   -35522   -35600   -35297   -34526   -33644   -33052   -32775 
  -32605   -32619   -33080   -33838   -34459   -34747   -34777   -34672 
  -34574   -34705   -35136   -35605   -35776   -35560   -35102   -34550 
  -34027   -33701   -33563   -33354   -32950   -32422   -31757   -30908 
  -30042   -29633   -29847   -30104   -30102   -30309   -30839   -31156 
  -31147   -31137   -31079   -30991   -31414   -32460   -33493   -34128 
  -34445   -34619   -34800   -34947   -34835   -34190   -33059   -31904 
  -30931   -29943   -28950   -28346   -28442   -28971   -29485   -29975 
  -30484   -30993   -31754   -32812   -33725   -34234   -34637   -35096 
  -35337   -35237   -34785   -33924   -32856   -31811   -30893   -30215 
  -29644   -29028   -28422   -27625   -26563   -25852   -25952   -26429 
  -26774   -27217   -27888   -28464   -29187   -30301   -31300   -31910 
  -32277   -32524   -32822   -33136   -33356   -33643   -34044   -34393 
  -34694   -35005   -35245   -35421   -35567   -35543   -35443   -35552 
  -35745   -35902   -35897   -35217   -34120   -33202   -31971   -30365 
  -29250   -28753   -28475   -28196   -27982   -28183   -28708   -29286 
  -30122   -31223   -32210   -33012   -33883   -34831   -35614   -36225 
  -36767   -37222   -37699   -38194   -38303   -37909   -37431   -37018 
  -36413   -35560   -34643   -33762   -32942   -32337   -32154   -32286 
  -32234   -31641   -30742   -30021   -29723   -29895   -30453   -31185 
  -32053   -33307   -34909   -36435   -37785   -39096   -40152   -40702 
  -40916   -40998   -40792   -40156   -39259   -38264   -37063   -35699 
  -34716   -34535   -34860   -35171   -35351   -35524   -35617   -35337 
  -34609   -33830   -33336   -33067   -32782   -32150   -31070   -29990 
  -29299   -28893   -28642   -28493   -28223   -27805   -27479   -27269 
  -27119   -27122   -27377   -27979   -28950   -30104   -31163   -32017 
  -32878   -33906   -34784   -35222   -35450   -35662   -35618   -35219 
  -34834   -34723   -34698   -34563   -34393   -34239   -33913   -33216 
  -32246   -31313   -30629   -30192   -29781   -29128   -28408   -28126 
  -28356   -28703   -28988   -29407   -30042   -30620   -30895   -30954 
  -31002   -31123   -31414   -31928   -32399   -32570   -32677   -33003 
  -33334   -33374   -33154   -32807   -32476   -32285   -32271   -32454 
  -32699   -32801   -32726   -32475   -32177   -32051   -32018   -31968 
  -31992   -32060   -31982   -31711   -31485   -31665   -32433   -33620 
  -34831   -35856   -36693   -37285   -37769   -38329   -38735   -38800 
  -38619   -38193   -37643   -37240   -36927   -36378   -35489   -34424 
  -33305   -32269   -31489   -30932   -30548   -30328   -30249   -30534 
  -31325   -32228   -32791   -33011   -33129   -33377   -33832   -34433 
  -35162   -35945   -36560   -36843   -36787   -36516   -36226   -36026 
  -35964   -36122   -36331   -36110   -35389   -34696   -34321   -34080 
  -33950   -34112   -34561   -35161   -35657   -35806   -35656   -35295 
  -34857   -34573   -34329   -33848   -33208   -32664   -32214   -31666 
  -31047   -30518   -30136   -29955   -29985   -30169   -30385   -30471 
  -30521   -30720   -31054   -31462   -31722   -31627   -31315   -30997 
  -30725   -30440   -30273   -30501   -30849   -30755   -30162   -29352 
  -28677   -28507   -29034   -30098   -31238   -32156   -32941   -33570 
  -33808   -33578   -33002   -32382   -32013   -31907   -31907   -31814 
  -31634   -31629   -31880   -32251   -32590   -32717   -32607   -32343 
  -31875   -31175   -30391   -29718   -29284   -29069   -28833   -28394 
  -27901   -27452   -27020   -26812   -27034   -27516   -27849   -27896 
  -27883   -27817   -27537   -27161   -26774   -26318   -25971   -25970 
  -26338   -26998   -27659   -27933   -27888   -27827   -27856   -28107 
  -28709   -29552   -30351   -30898   -31306   -31616   -31640   -31549 
  -31596   -31625   -31620   -31764   -31962   -32128   -32414   -32916 
  -33610   -34308   -34694   -34696   -34456   -33912   -33044   -32280 
  -31889   -31582   -31318   -31368   -31645   -32021   -32526   -32875 
  -32784   -32490   -32391   -32534   -32642   -32567   -32507   -32532 
  -32397   -32108   -31996   -32043   -31981   -31895   -31904   -31822 
  -31671   -31715   -31862   -31833   -31743   -31875   -32223   -32670 
  -33166   -33578   -33708   -33528   -33195   -32887   -32706   -32612 
  -32471   -32316   -32439   -33008   -33722   -34086   -34006   -33739 
  -33310   -32601   -31883   -31554   -31654   -32108   -32892   -33796 
  -34457   -34645   -34498   -34396   -34379   -34151   -33638   -33030 
  -32522   -32188   -31932   -31750   -31779   -31950   -32137   -32424 
  -32726   -32796   -32694   -32658   -32751   -33057   -33663   -34229 
  -34335   -34029   -33401   -32347   -30972   -29585   -28498   -27849 
  -27473   -27192   -27034   -27029   -27076   -27080   -27230   -27826 
  -28767   -29761   -30825   -31958   -33010   -34141   -35440   -36646 
  -37743   -38922   -40115   -40995   -41359   -41549   -41863   -41888 
  -41354   -40632   -39961   -39148   -38027   -36736   -35476   -34269 
  -33208   -32530   -32252   -32235   -32371   -32438   -32266   -31980 
  -31886   -32243   -32943   -33669   -34290   -34754   -35014   -35137 
  -35197   -35105   -34684   -33896   -32790   -31394   -29938   -28866 
  -28407   -28388   -28634   -29205   -30123   -31295   -32628   -34047 
  -35510   -36889   -38010   -38896   -39712   -40365   -40450   -39807 
  -38764   -37754   -36876   -35879   -34664   -33331   -31891   -30451 
  -29306   -28570   -27982   -27287   -26540   -25987   -25958   -26479 
  -27109   -27678   -28375   -29147   -29923   -30850   -32046   -33483 
  -34826   -35688   -36093   -36078   -35522   -34783   -34374   -34137 
  -33788   -33562   -33516   -33340   -33038   -32801   -32572   -32198 
  -31741   -31515   -31545   -31565   -31708   -32121   -32453   -32494 
  -32389   -32135   -31709   -31264   -30936   -30801   -30809   -31016 
  -31558   -32194   -32784   -33464   -34053   -34432   -34681   -34668 
  -34407   -34183   -34079   -33874   -33458   -33066   -32780   -32492 
  -32439   -32869   -33591   -34318   -35057   -35826   -36290   -36191 
  -35604   -34629   -33472   -32396   -31269   -29786   -28020   -26326 
  -25032   -24238   -23775   -23503   -23306   -23039   -22814   -22792 
  -22811   -22687   -22555   -22751   -23418   -24298   -25188   -26233 
  -27328   -28186   -29034   -30242   -31690   -32997   -33974   -34746 
  -35555   -36516   -37507   -38264   -38724   -39024   -39158   -38943 
  -38387   -37730   -36940   -35907   -34971   -34412   -34170   -34233 
  -34504   -34667   -34432   -33757   -32945   -32320   -32040   -32141 
  -32384   -32563   -32832   -33192   -33504   -33936   -34580   -35134 
  -35416   -35603   -35860   -36284   -37041   -38108   -39177   -39905 
  -40149   -40025   -39641   -39002   -38339   -37804   -37181   -36619 
  -36460   -36268   -35413   -34082   -32869   -32049   -31592   -31386 
  -31268   -31146   -31076   -31132   -31388   -31719   -31905   -32047 
  -32154   -31980   -31599   -31190   -30781   -30600   -30852   -31345 
  -31842   -32382   -33066   -33954   -35023   -36045   -36780   -37245 
  -37723   -38343   -38757   -38723   -38500   -38221   -37730   -37131 
  -36551   -35747   -34651   -33525   -32530   -31687   -30943   -30240 
  -29629   -29292   -29329   -29551   -29864   -30470   -31353   -32226 
  -32987   -33763   -34437   -34732   -34697   -34367   -33587   -32502 
  -31458   -30588   -29754   -28799   -27929   -27344   -26795   -26176 
  -25736   -25610   -25821   -26389   -27279   -28366   -29374   -30110 
  -30564   -30671   -30517   -30506   -30851   -31359   -31749   -31886 
  -31894   -31890   -31702   -31238   -30777   -30590   -30516   -30273 
  -29968   -29834   -29765   -29592   -29436   -29332   -29183   -29252 
  -29755   -30328   -30589   -30622   -30733   -30998   -31246   -31444 
  -31637   -31653   -31398   -31224   -31407   -31669   -31944   -32641 
  -33748   -34857   -35777   -36479   -36907   -36930   -36557   -36003 
  -35227   -33999   -32430   -30878   -29625   -28713   -28069   -27803 
  -27950   -28315   -28909   -29820   -30669   -31078   -31155   -31007 
  -30584   -30085   -29932   -30201   -30605   -31144   -31998   -32940 
  -33568   -33851   -34125   -34490   -34737   -34952   -35315   -35505 
  -35110   -34253   -33416   -32854   -32442   -32112   -32047   -32244 
  -32379   -32217   -31816   -31330   -31012   -31237   -31976   -32841 
  -33809   -34933   -36024   -36990   -37834   -38570   -38966   -38713 
  -38030   -37411   -37040   -36591   -35675   -34442   -33175   -31938 
  -30888   -30142   -29552   -28959   -28365   -27954   -27966   -28317 
  -28765   -29391   -30226   -30937   -31396   -31794   -32229   -32799 
  -33678   -34891   -36370   -38063   -39716   -40916   -41522   -41647 
  -41337   -40592   -39534   -38346   -37149   -36123   -35434   -34860 
  -34147   -33505   -33191   -33118   -33008   -32823   -32932   -33469 
  -34094   -34728   -35530   -36259   -36529   -36305   -35659   -34544 
  -33065   -31509   -30078   -28916   -28259   -28307   -28938   -29796 
  -30691   -31500   -32059   -32386   -32619   -32827   -33106   -33693 
  -34758   -36117   -37421   -38465   -39260   -39923   -40491   -40884 
  -40882   -40232   -39002   -37492   -35892   -34309   -32719   -31091 
  -29709   -28785   -28350   -28561   -29246   -30010   -30862   -31814 
  -32722   -33693   -34774   -35496   -35391   -34787   -34279   -33932 
  -33725   -33741   -33791   -33667   -33384   -32953   -32202   -30922 
  -29314   -27872   -26797   -26175   -26101   -26213   -26065   -25800 
  -25818   -26113   -26437   -26838   -27415   -27893   -27997   -27848 
  -27771   -28014   -28708   -29820   -31114   -32354   -33473   -34496 
  -35385   -36100   -36602   -36829   -36753   -36404   -36102   -36231 
  -36651   -36962   -36977   -36650   -36040   -35396   -34997   -34708 
  -34190   -33699   -33885   -34821   -35799   -36091   -35765   -35337 
  -34904   -34316   -33604   -32862   -32199   -31736   -31528   -31559 
  -31833   -32498   -33610   -34948   -36395   -37795   -38659   -38867 
  -38794   -38527   -37934   -37034   -36085   -35343   -34636   -33822 
  -32974   -31715   -29793   -27778   -26173   -24876   -23751   -22879 
  -22346   -22142   -22138   -22278   -22601   -22925   -23139   -23604 
  -24616   -25929   -27113   -28108   -29194   -30348   -31214   -31788 
  -32490   -33608   -34970   -36247   -37364   -38379   -39237   -39724 
  -39766   -39796   -40208   -40801   -41397   -42114   -42837   -43318 
  -43536   -43526   -43265   -42843   -42486   -42274   -42038   -41776 
  -41665   -41562   -41201   -40758   -40429   -39961   -39279   -38635 
  -37898   -36686   -34940   -32886   -30700   -28535   -26896   -26355 
  -26909   -28214   -30009   -31987   -33699   -34878   -35649   -36151 
  -36376   -36504   -36818   -37514   -38752   -40474   -42350   -44012 
  -45081   -45195   -44312   -42858   -41229   -39574   -38093   -36644 
  -34804   -32786   -31100   -29831   -28938   -28498   -28505   -28650 
  -28557   -28332   -28285   -28378   -28570   -29072   -29820   -30520 
  -31206   -32042   -32922   -33648   -34292   -35124   -36046   -36743 
  -37427   -38441   -39515   -40223   -40499   -40393   -39963   -39348 
  -38577   -37637   -36651   -35516   -33958   -31980   -29793   -27709 
  -26064   -25021   -24465   -24065   -23782   -23812   -24037   -24455 
  -25341   -26634   -28047   -29442   -30893   -32508   -34124   -35572 
  -36831   -37814   -38448   -38702   -38569   -38119   -37421   -36497 
  -35425   -34450   -33822   -33687   -34181   -35260   -36706   -38380 
  -40205   -42072   -43990   -45953   -47673   -48912   -49681   -50003 
  -49917   -49578   -49161   -48579   -47581   -46215   -44703   -43200 
  -41847   -40691   -39618   -38343   -36724   -35018   -33471   -32121 
  -30937   -29878   -29050   -28583   -28488   -28735   -29200   -29706 
  -30157   -30616   -31149   -31634   -31902   -31766   -31056   -29933 
  -28823   -28091   -27841   -27924   -28247   -28716   -28968   -28784 
  -28439   -28250   -28228   -28294   -28427   -28601   -28858   -29334 
  -29922   -30343   -30654   -31152   -31999   -33006   -33672   -33781 
  -33380   -32272   -30642   -29361   -28983   -29371   -30227   -31415 
  -32799   -34082   -35096   -35901   -36353   -36170   -35550   -34955 
  -34418   -33841   -33475   -33526   -33877   -34378   -34972   -35536 
  -35966   -36291   -36408   -36151   -35719   -35253   -34544   -33666 
  -32877   -32163   -31477   -30938   -30759   -31002   -31380   -31764 
  -32473   -33494   -34439   -35275   -36107   -36923   -37892   -39199 
  -40718   -42135   -43323   -44340   -45025   -45201   -44961   -44233 
  -42827   -40874   -38662   -36437   -34481   -33029   -32104   -31652 
  -31629   -31887   -32264   -32655   -33018   -33389   -33955   -35008 
  -36562   -38352   -40182   -41908   -43458   -44849   -46007   -46880 
  -47562   -48081   -48251   -47766   -46469   -44483   -42191   -40165 
  -38771   -38024   -37901   -38242   -38657   -38866   -38715   -38070 
  -37143   -36365   -35771   -35216   -34876   -35028   -35716   -36745 
  -37912   -39073   -40068   -40943   -41799   -42306   -42024   -41155 
  -40231   -39211   -37828   -36409   -35337   -34423   -33497   -32762 
  -32344   -32086   -31798   -31505   -31390   -31541   -31912   -32512 
  -33352   -34334   -35349   -36274   -37044   -37795   -38552   -39119 
  -39452   -39621   -39528   -39057   -38266   -37120   -35365   -33162 
  -31253   -29943   -28852   -27777   -26776   -25800   -24809   -23967 
  -23463   -23195   -22995   -23027   -23618   -24866   -26494   -28195 
  -29974   -31898   -33765   -35216   -36078   -36433   -36387   -36058 
  -35599   -35053   -34424   -33765   -33000   -31954   -30689   -29481 
  -28474   -27748   -27531   -27992   -29095   -30616   -32288   -34024 
  -35674   -36991   -38042   -38925   -39583   -40136   -40608   -40796 
  -40622   -40000   -38737   -36930   -34992   -33242   -31864   -30984 
  -30505   -30245   -30235   -30520   -30949   -31492   -32207   -32898 
  -33354   -33635   -33914   -34261   -34621   -34942   -35235   -35540 
  -35802   -35941   -36032   -36103   -36004   -35608   -34907   -33994 
  -33070   -32530   -32827   -33961   -35538   -37300   -38994   -40241 
  -40908   -41110   -41031   -40825   -40453   -39900   -39357   -38938 
  -38638   -38382   -37915   -37108   -36137   -35191   -34482   -34196 
  -34275   -34525   -34805   -35099   -35562   -36444   -37671   -38644 
  -38966   -38982   -39073   -39074   -38861   -38772   -38967   -39095 
  -38968   -38750   -38337   -37441   -36162   -34832   -33637   -32542 
  -31449   -30429   -29616   -29015   -28649   -28634   -28969   -29523 
  -30342   -31565   -33037   -34417   -35613   -36865   -38419   -40238 
  -42070   -43686   -44973   -45933   -46623   -46998   -46904   -46256 
  -45110   -43483   -41387   -39054   -36628   -34039   -31421   -28987 
  -26812   -25012   -23650   -22573   -21632   -20935   -20772   -21399 
  -22944   -25322   -28170   -31068   -33723   -35842   -37173   -37711 
  -37687   -37341   -36732   -35937   -35221   -34658   -34085   -33534 
  -33216   -33184   -33247   -33223   -33129   -33023   -32870   -32638 
  -32370   -32194   -32243   -32509   -32929   -33540   -34326   -35287 
  -36572   -38118   -39586   -40703   -41313   -41387   -41061   -40437 
  -39529   -38317   -36809   -35240   -33870   -32671   -31577   -30794 
  -30661   -31312   -32509   -33863   -35118   -36261   -37319   -38243 
  -39051   -39762   -40280   -40584   -40721   -40720   -40711   -40804 
  -40901   -40917   -40839   -40638   -40355   -40008   -39545   -38899 
  -37948   -36611   -35045   -33573   -32410   -31494   -30657   -29918 
  -29358   -29011   -28945   -29194   -29713   -30433   -31330   -32403 
  -33507   -34525   -35514   -36438   -37145   -37609   -37923   -38172 
  -38342   -38412   -38411   -38312   -38101   -37889   -37776   -37724 
  -37692   -37679   -37633   -37593   -37695   -37947   -38293   -38562 
  -38464   -37956   -37218   -36395   -35604   -34902   -34271   -33746 
  -33471   -33471   -33571   -33684   -33833   -33934   -33882   -33772 
  -33789   -33920   -34010   -34027   -34077   -34138   -34034   -33734 
  -33334   -32852   -32431   -32353   -32586   -32798   -32853   -32820 
  -32677   -32398   -32040   -31668   -31402   -31312   -31352   -31458 
  -31447   -31145   -30737   -30510   -30321   -29845   -29194   -28708 
  -28459   -28447   -28778   -29296   -29715   -30081   -30518   -31006 
  -31520   -32011   -32516   -33212   -34181   -35361   -36674   -38072 
  -39434   -40556   -41330   -41759   -41868   -41628   -40957   -39897 
  -38632   -37301   -35980   -34790   -33906   -33430   -33303   -33440 
  -33761   -34158   -34668   -35282   -35626   -35427   -34807   -34003 
  -33314   -33048   -33318   -34006   -34813   -35557   -36321   -37130 
  -37868   -38450   -38857   -39070   -39039   -38786   -38412   -37945 
  -37493   -37341   -37574   -38078   -38815   -39662   -40514   -41382 
  -42084   -42409   -42405   -42148   -41685   -41215   -40874   -40496 
  -39877   -39042   -38121   -37119   -35964   -34779   -33775   -32880 
  -31892   -30973   -30451   -30292   -30312   -30549   -31008   -31540 
  -32067   -32628   -33267   -33927   -34503   -34906   -35073   -35089 
  -35220   -35634   -36210   -36757   -37184   -37427   -37452   -37260 
  -36949   -36704   -36552   -36434   -36380   -36272   -35835   -35079 
