Origin Time       2011/03/11 14:46:00
Lat.              38.103
Long.             142.860
Depth. (km)       24
Mag.              9.0
Station Code      SZO011
Station Lat.      35.2129
Station Long.     138.6015
Station Height(m) 195
Record Time       2011/03/11 14:47:42
Sampling Freq(Hz) 100Hz
Duration Time(s)  300
Dir.              U-D
Scale Factor      3920(gal)/6182761
Max. Acc. (gal)   19.367
Last Correction   2011/03/11 14:47:27
Memo.             
[...]
  -11853   -11132   -11204   -11350   -11208   -10927   -10800   -10673 
   -9845    -7816    -4996    -2561    -1678    -2579    -4361    -5945 
   -6936    -7585    -8360    -9636   -11498   -13561   -15148   -15830 
  -15763   -15532   -15586   -15871   -15980   -15501   -14278   -12489 
  -10429    -8187    -5771    -3436    -1488       54     1301     2336 
    3230     3869     3877     3098     2082     1878     3170     5369 
    6847     6311     3659     -154    -3851    -6882    -9602   -12416 
  -15277   -17707   -19117   -19285   -18311   -16359   -13832   -11403 
   -9698    -9044    -9414   -10554   -12113   -13605   -14538   -14793 
  -14609   -14236   -13803   -13398   -13083   -12885   -12945   -13434 
  -14134   -14491   -14058   -12703   -10553    -7816    -4794    -2182 
    -910    -1398    -3147    -5137    -6546    -7080    -6851    -6323 
   -6150    -6666    -7517    -7720    -6326    -3317      106     2184 
    1830     -409    -2615    -3097    -1815     -231      -23    -1659 
   -3994    -5393    -5097    -3609    -2357    -2700    -4765    -7427 
   -9329    -9708    -8611    -6679    -4807    -3828    -4017    -4814 
   -5351    -5202    -4597    -4274    -5025    -7015    -9708   -12394 
  -14488   -15574   -15495   -14592   -13741   -13763   -14626   -15338 
  -14741   -12535    -9653    -7637    -7532    -9340   -12353   -15747 
  -18935   -21531   -22872   -22007   -18645   -13867    -9467    -6691 
   -5515    -4852    -3603    -1654      255     1286      983     -518 
   -2586    -4557    -6145    -7460    -8618    -9449    -9648    -9144 
   -8249    -7404    -6878    -6796    -7147    -7771    -8607    -9792 
  -11319   -12742   -13354   -12849   -11705   -10760   -10568   -11130 
  -11970   -12621   -13142   -13778   -14028   -12744    -9419    -4898 
    -669     2060     2681     1180    -1834    -5219    -7770    -8821 
   -8622    -8392    -9465   -11965   -14824   -16906   -17556   -16491 
  -13878   -10647    -8176    -7229    -7451    -7789    -7245    -5600 
   -3547    -2208    -2549    -4773    -7978   -10794   -12576   -13749 
  -15057   -16838   -18886   -20657   -21509   -21048   -19457   -17169 
  -14440   -11745    -9784    -8511    -7026    -4641    -1432     2057 
    5180     7427     8478     8108     6400     3984     1690       28 
    -835     -827      -39     1266     3035     5314     7669     9274 
    9554     8545     6766     4683     2566      754     -633    -2082 
   -4326    -7682   -11732   -15512   -17999   -18834   -18788   -19097 
  -20253   -21661   -22340   -21721   -19966   -17893   -16436   -15964 
  -16274   -16872   -17071   -16429   -15096   -13528   -12210   -11620 
  -11915   -12599   -12887   -12317   -10899    -9004    -7083    -5332 
   -3712    -2218     -996     -135      613     1496     2193     1998 
     560    -1652    -3623    -4682    -5002    -5222    -5789    -6672 
   -7569    -8365    -9411   -11120   -13182   -14494   -14173   -12542 
  -10846   -10014    -9893    -9593    -8340    -5992    -2943      270 
    3202     5447     6566     6402     5327     3888     2496     1443 
     658     -343    -1886    -3776    -5509    -6766    -7673    -8430 
   -8876    -8634    -7501    -5547    -2964     -166     1993     2481 
     735    -2801    -6742    -9682   -11167   -11775   -12386   -13310 
  -14037   -13989   -13237   -12107   -10665    -8849    -6633    -4004 
   -1075     1847     4308     5621     5151     2939     -290    -3703 
   -6830    -9556   -11767   -13248   -13935   -14103   -14308   -15050 
  -16348   -17717   -18498   -18323   -17429   -16340   -15331   -14390 
  -13372   -12141   -10725    -9229    -7683    -6111    -4536    -2902 
   -1236      291     1496     2178     2138     1280     -289    -2180 
   -3921    -5249    -6053    -6244    -5911    -5348    -4678    -3803 
   -2819    -2106    -2031    -2634    -3558    -4307    -4547    -4301 
   -3892    -3536    -3146    -2516    -1458       75     1798     3073 
    3228     2012     -182    -2488    -4082    -4679    -4606    -4410 
   -4476    -4872    -5285    -5102    -3871    -1794      297     1517 
    1577      924      243      -91      -99       55      205       49 
    -758    -2197    -3856    -5152    -5579    -5237    -4968    -5637 
   -7190    -8552    -8530    -6731    -3851    -1352     -692    -2406 
   -5639    -8748   -10636   -11386   -11777   -12626   -14318   -16450 
  -18140   -18870   -18787   -18358   -18059   -18429   -19904   -22239 
  -24467   -25650   -25512   -24467   -23259   -22577   -22793   -23783 
  -24960   -25646   -25538   -24735   -23394   -21529   -19164   -16436 
  -13490   -10521    -7855    -5926    -5194    -5757    -6954    -7712 
   -7223    -5306    -2457      393     2373     3283     3710     4379 
    5631     7361     8993     9685     8773     6081     2073    -2392 
   -6426    -9268   -10641   -11019   -11308   -12317   -14336   -16917 
  -19128   -20229   -20272   -20171   -21126   -23746   -27573   -31413 
  -34020   -34787   -34166   -33241   -32793   -32868   -32924   -32209 
  -30281   -27375   -24303   -21889   -20329   -19087   -17435   -14993 
  -11923    -8845    -6595    -5886    -6738    -8146    -8759    -8008 
   -6502    -5394    -5440    -6593    -8157    -9162    -8963    -7654 
   -6001    -4953    -5014    -6077    -7731    -9474   -10732   -11248 
  -11522   -12200   -13324   -14435   -14841   -14153   -12733   -11236 
  -10096    -9403    -8919    -8473    -8313    -8888   -10517   -13284 
  -16796   -20114   -22239   -22566   -21187   -18818   -16145   -13374 
  -10484    -7598    -5015    -2922    -1110      912     3420     6080 
    7880     7762     5502     1702    -2474    -5637    -7071    -6986 
   -5974    -4680    -3585    -2689    -1481      435     2845     5182 
    6938     7900     8402     9110    10031    10169     8406     4391 
   -1096    -6445   -10065   -11056    -9581    -6890    -4510    -3172 
   -2712    -2693    -2581    -1838     -457      936     1569      984 
    -726    -3059    -5533    -8030   -10729   -13819   -17346   -20898 
  -23473   -24158   -22867   -20469   -18415   -17816   -18567   -19483 
  -19422   -18164   -16338   -14847   -14212   -14311   -14817   -15558 
  -16446   -17449   -18518   -19567   -20534   -21160   -20907   -19435 
  -16971   -14151   -11692   -10190    -9918   -10661   -11900   -13223 
  -14419   -15257   -15531   -15349   -15111   -15227   -15838   -16560 
  -16550   -15118   -12352    -9079    -6137    -3792    -1834       78 
    2006     3425     3668     2545      360    -2224    -4487    -6148 
   -7339    -8218    -8848    -9258    -9396    -9218    -8885    -8563 
   -8158    -7627    -7346    -7877    -9544   -12141   -14778   -16417 
  -16670   -15847   -14536   -13227   -12235   -11730   -11545   -11155 
  -10149    -8617    -7145    -6505    -7095    -8575   -10205   -11491 
  -12558   -13924   -15833   -17951   -19583   -20174   -19859   -19246 
  -18687   -18150   -17487   -16593   -15654   -15196   -15501   -16161 
  -16417   -15694   -13999   -11961   -10303    -9321    -8774    -8186 
   -7564    -7550    -8567   -10198   -11612   -12395   -12878   -13668 
  -14942   -16317   -17251   -17541   -17573   -17905   -18472   -18598 
  -17779   -16127   -14354   -13277   -13040   -13049   -12612   -11425 
   -9613    -7502    -5384    -3331    -1148     1472     4474     7071 
    8255     7739     6237     4820     4105     4159     4709     5163 
    4986     4189     3144     2048      762     -759    -2198    -3295 
   -4007    -4205    -3806    -2991    -1976     -882       62      509 
     212     -891    -2553    -4181    -5292    -5908    -6369    -7003 
   -7848    -8569    -8795    -8481    -7950    -7725    -8121    -8914 
   -9575    -9754    -9600    -9722   -10703   -12475   -14257   -15220 
  -15169   -14514   -13800   -13269   -12781   -12114   -11171    -9966 
   -8459    -6520    -4254    -2270    -1424    -2206    -4403    -7202 
   -9657   -11280   -12275   -13324   -15110   -17735   -20654   -23231 
  -25029   -25868   -25975   -25782   -25569   -25459   -25476   -25485 
  -25212   -24476   -23445   -22527   -22023   -21956   -22015   -21538 
  -19950   -17319   -14151   -10797    -7370    -3936     -564     2600 
    5134     6431     6172     4499     1782    -1480    -4732    -7566 
   -9609   -10368    -9519    -7273    -4416    -1910     -235      850 
    2006     3729     5885     7942     9637    11192    13007    15191 
   17191    18017    17114    14744    11620     8656     6801     6623 
    7921     9773    11125    11461    10904     9837     8622     7477 
    6366     5098     3586     1950      442     -733    -1615    -2474 
   -3542    -4773    -5948    -6845    -7260    -7090    -6417    -5465 
   -4671    -4454    -4722    -5128    -5596    -6137    -6671    -7100 
   -7257    -7020    -6410    -5539    -4622    -3796    -2855    -1452 
     403     2197     3283     3346     2603     1636     1039     1290 
    2578     4333     5463     5204     3456      601    -2724    -5678 
   -7415    -7675    -7101    -6913    -8118   -10657   -13302   -14699 
  -14331   -12533   -10337    -9133    -9634   -11204   -12481   -12446 
  -10966    -8753    -6803    -5681    -5264    -5119    -5190    -5918 
   -7638   -10245   -13456   -17064   -20885   -24534   -27260   -28223 
  -27169   -24703   -21799   -19175   -16964   -14847   -12573   -10322 
   -8648    -8094    -8805   -10340   -11704   -11876   -10580    -8363 
   -6034    -4186    -2919    -1823     -449     1282     3099     4456 
    4849     4309     3317     2075      257    -2433    -5789    -9227 
  -12307   -15044   -17493   -19202   -19430   -17887   -15067   -11805 
   -8819    -6480    -4545    -2525     -453     1230     2261     2689 
    2837     3071     3355     3342     2730     1307     -947    -3749 
   -6617    -8970   -10321   -10509    -9738    -8383    -6743    -5047 
   -3673    -3082    -3520    -4924    -6892    -8808   -10183   -10768 
  -10518    -9670    -8665    -7775    -6885    -5581    -3354       17 
    4011     7302     8462     6973     3543     -465    -3749    -5632 
   -6329    -6551    -6855    -7438    -8347    -9510   -10531   -10948 
  -10628    -9863    -9348    -9703   -10851   -12123   -12673   -11859 
   -9793    -7400    -5646    -4927    -5146    -5919    -6648    -6879 
   -6708    -6589    -6984    -8265   -10553   -13693   -17122   -19837 
  -21186   -21277   -20692   -20276   -20432   -20678   -20412   -19560 
  -18487   -17796   -17940   -18784   -19886   -20964   -21863   -22447 
  -22586   -22263   -21813   -21734   -22175   -22826   -23375   -23814 
  -24289   -24893   -25542   -25976   -25807   -24633   -22358   -19364 
  -16312   -13673   -11453    -9456    -7673    -6390    -6122    -7141 
   -8899   -10321   -10632    -9764    -8337    -7138    -6411    -5815 
   -4869    -3488    -2094    -1074     -592     -806    -1835    -3770 
   -6608    -9930   -12892   -14731   -15352   -15211   -14621   -13503 
  -11638    -9016    -6059    -3514    -2042    -1694    -1904    -2095 
   -2121    -2283    -2945    -4108    -5569    -7098    -8247    -8548 
   -7874    -6534    -5052    -3704    -2484    -1457     -783     -458 
    -333     -461    -1090    -2193    -3431    -4556    -5550    -6371 
   -6879    -7109    -7359    -8025    -9483   -11971   -15465   -19599 
  -23630   -26860   -29109   -30423   -30782   -30341   -29519   -28828 
  -28580   -28547   -27998   -26316   -23515   -20170   -17172   -15620 
  -16112   -17851   -19172   -18902   -16780   -13241    -9243    -5553 
   -2050     1822     6089     9908    12127    12170    10388     7701 
    4995     2682      753     -848    -2078    -2768    -2663    -1757 
    -196     2111     5245     8990    12750    15565    16723    16344 
   15223    14212    13536    12577    10343     6266      825    -4522 
   -8288    -9938    -9823    -8596    -7129    -6308    -6445    -7110 
   -7420    -6864    -6008    -5877    -7052    -9538   -12746   -15747 
  -17906   -19059   -19328   -18950   -18139   -16990   -15382   -13014 
   -9702    -5747    -2040      537     1908     2573     2799     2536 
    1737      448    -1204    -3071    -5072    -7244    -9657   -12317 
  -15091   -17593   -19396   -20354   -20618   -20406   -19650   -18134 
  -16382   -15663   -16752   -19465   -23236   -27429   -31347   -34354 
  -36018   -36197   -34937   -32325   -28767   -25314   -23139   -22421 
  -21995   -20279   -16637   -11764    -6923    -3181     -970      -74 
    -356    -2004    -4874    -8327   -11585   -13776   -14130   -12631 
  -10056    -7332    -5185    -4001    -3584    -3410    -3264    -3256 
   -3518    -4275    -5672    -7700   -10473   -13861   -17176   -19715 
  -21270   -22117   -22746   -23419   -23905   -23727   -22480   -20116 
  -17200   -14504   -12349   -10769    -9903    -9946   -11065   -13115 
  -15418   -17267   -18281   -18320   -17453   -15741   -13360   -10961 
   -9059    -7523    -6035    -4280    -2228     -579     -249    -1750 
   -4839    -8348   -10952   -12071   -11860   -10724    -9023    -7118 
   -5409    -4181    -3398    -2729    -1704       91     2404     4198 
    4741     4349     4054     4951     7305    10105    11898    12008 
   10649     8225     5034     1279    -2921    -7041    -9991   -11012 
  -10165    -8167    -6407    -6243    -7860   -10494   -13298   -15446 
  -16453   -16706   -16940   -17688   -19288   -21776   -25047   -28886 
  -32691   -35738   -37690   -38587   -38486   -37483   -36043   -34713 
  -33719   -33144   -32823   -32139   -30483   -27934   -25348   -23457 
  -21997   -20222   -17839   -15146   -12517    -9837    -6811    -3647 
    -789     1812     4736     8409    12026    13530    11662     7626 
    4068     3011     4733     7851    10546    11934    12126    11430 
    9727     6460     1608    -3793    -8489   -11798   -14004   -16217 
  -19300   -23219   -27157   -29808   -30398   -29261   -27270   -25352 
  -23900   -22622   -21477   -20820   -20709   -20784   -20287   -18403 
  -15216   -11842    -9500    -8572    -8288    -7567    -6094    -4353 
   -3068    -2673    -3024    -3572    -3651    -2916    -1584       23 
    1669     3041     3903     4089     3441     1947     -229    -2710 
   -5087    -7113    -8476    -8926    -8486    -7224    -5478    -3927 
   -2857    -2082    -1464     -891     -135      827     1785     2707 
    3682     4841     6363     8150    10013    11945    13753    15051 
   15811    16521    17819    19710    21073    20518    17648    13241 
    8580     4760     2350     1299     1059     1064     1004      897 
    1509     3951     8249    12737    15067    14066    10725     7031 
    4223     2463     1233     -239    -2191    -3831    -3933    -1978 
    1148     3691     4357     2971      290    -2595    -5000    -6828 
   -8383   -10196   -12599   -15388   -17750   -18353   -16199   -11617 
   -6122    -1489     1499     3702     6721    11301    16480    20431 
   22081    21571    19734    17622    15866    14292    12484    10332 
    7967     5750     3811     1733     -581    -2480    -3278    -2789 
   -1419       11      837     1144     1661     2976     5064     7386 
    9179    10103    10762    12209    14927    18270    20814    21494 
   20369    18213    15584    12620     9391     5973     2519     -650 
   -3463    -6534   -10664   -15928   -21559   -26355   -29058   -29195 
  -27717   -26087   -25003   -24275   -23284   -21505   -19049   -16750 
  -15538   -15690   -16746   -17785   -18073   -17748   -17389   -17429 
  -18146   -19491   -21165   -22940   -24746   -26542   -28065   -28934 
  -29040   -28481   -27305   -25672   -23948   -22485   -21686   -22110 
  -23954   -26471   -28363   -28543   -26434   -22240   -16942   -11659 
   -7207    -4053    -2189    -1121     -359      222      638      981 
    1282     1465     1362      833      -65    -1095    -1948    -2406 
   -2389    -1978    -1703    -2185    -3600    -5877    -8636   -11106 
  -12772   -13775   -14518   -14962   -14726   -13801   -12691   -12019 
  -11883   -11648   -10738    -9271    -7556    -5715    -4130    -3428 
   -3919    -5287    -6541    -6667    -5604    -4150    -3169    -3095 
   -3662    -4232    -4435    -4235    -3765    -3228    -3028    -3869 
   -6165    -9369   -12357   -14409   -15566   -16290   -16982   -17707 
  -18212   -18248   -18009   -18183   -19372   -21414   -23229   -23314 
  -20860   -16849   -13380   -11694   -11518   -11881   -11887   -11211 
  -10251    -9521    -9176    -9169    -9252    -9157    -8837    -8337 
   -8010    -8585   -10386   -12745   -14380   -14355   -12671   -10053 
   -7484    -5791    -5044    -4618    -4202    -4021    -4050    -3784 
   -2741     -941     1012     2321     2579     2091     1495     1291 
    1568     1723     1035     -470    -2121    -3079    -2884    -1813 
    -540      296      326     -457    -1764    -3109    -3998    -4119 
   -3511    -2618    -2074    -2408    -3702    -5451    -6931    -7624 
   -7550    -7353    -7701    -8588    -9360    -9205    -7747    -5426 
   -3203    -2012    -2412    -4444    -7495   -10372   -12058   -12285 
  -11258    -9336    -6869    -4070    -1124     1788     4578     7254 
    9845    12260    14113    14730    13593    10791     6930     2805 
    -910    -3874    -5956    -7179    -7791    -8135    -8521    -9043 
   -9486    -9738    -9924   -10097   -10231   -10235    -9966    -9466 
   -8978    -8885    -9560   -11046   -13004   -14942   -16467   -17504 
  -18144   -18215   -17398   -15782   -13977   -12764   -12697   -13796 
  -15531   -17241   -18464   -19001   -18980   -18613   -17896   -16899 
  -15988   -15329   -14727   -13957   -12805   -11196    -9330    -7473 
   -5940    -5168    -5457    -6581    -7795    -8294    -7598    -5865 
   -4037    -3125    -3451    -4826    -6875    -9192   -11574   -13907 
  -15853   -16981   -17140   -16554   -15659   -14883   -14450   -14357 
  -14447   -14547   -14543   -14424   -14307   -14386   -14872   -15885 
  -17332   -18920   -20257   -20952   -20823   -20130   -19408   -18895 
  -18230   -16897   -14914   -12921   -11582   -11046   -11093   -11287 
  -11047   -10018    -8308    -6470    -5174    -4675    -4769    -5069 
   -5288    -5616    -6623    -8629   -11312   -13825   -15267   -15196 
  -13741   -11410    -8951    -7154    -6525    -7010    -7911    -8227 
   -7192    -4737    -1628      976     2099     1352     -756    -3108 
   -4769    -5359    -4882    -3540    -1815     -388      340      372 
    -112     -783    -1374    -1915    -2565    -3510    -4924    -6526 
   -7562    -7596    -6865    -5676    -3990    -1899      248     2465 
    4916     7417     9544    10508     9612     7146     3980      911 
   -1434    -2879    -3701    -4123    -4196    -4058    -3973    -4287 
   -5204    -6479    -7643    -8406    -8724    -8740    -8494    -7814 
   -6697    -5412    -4358    -4030    -4621    -5685    -6537    -6977 
   -7367    -8001    -8726    -9129    -8823    -7813    -6610    -5736 
   -5295    -4974    -4263    -2929    -1306      -86      217     -361 
   -1418    -2446    -3025    -3104    -3024    -3309    -4419    -6436 
   -9017   -11561   -13371   -13979   -13411   -12175   -10959   -10316 
  -10464   -11169   -11978   -12563   -12823   -12872   -12908   -13072 
