Origin Time       2011/03/11 14:46:00
Lat.              38.103
Long.             142.860
Depth. (km)       24
Mag.              9.0
Station Code      SZO024
Station Lat.      34.7104
Station Long.     137.7199
Station Height(m) 29
Record Time       2011/03/11 14:48:50
Sampling Freq(Hz) 100Hz
Duration Time(s)  300
Dir.              E-W
Scale Factor      3920(gal)/6182761
Max. Acc. (gal)   13.700
Last Correction   2011/03/11 14:48:35
Memo.             
[...]
    6924     6082     5212     4310     3362     2400     1440      495 
    -408    -1285    -2146    -2970    -3765    -4557    -5327    -6035 
   -6662    -7209    -7660    -8051    -8431    -8742    -8961    -9128 
   -9227    -9267    -9257    -9147    -8976    -8794    -8521    -8079 
   -7480    -6784    -5993    -5088    -4123    -3096    -2008     -933 
     141     1220     2239     3174     4069     4945     5778     6555 
    7247     7898     8566     9197     9768    10312    10798    11215 
   11568    11853    12069    12224    12370    12547    12680    12724 
   12721    12662    12565    12465    12323    12150    11960    11709 
   11399    11042    10663    10307     9962     9639     9380     9160 
    8961     8777     8603     8467     8383     8319     8245     8155 
    8066     7979     7885     7796     7738     7707     7684     7673 
    7674     7679     7672     7637     7569     7476     7364     7222 
    7029     6805     6586     6392     6196     5956     5673     5332 
    4915     4454     3948     3378     2775     2163     1542      926 
     354     -192     -759    -1327    -1896    -2516    -3189    -3871 
   -4552    -5248    -5932    -6545    -7070    -7512    -7859    -8123 
   -8321    -8475    -8581    -8602    -8562    -8523    -8477    -8399 
   -8291    -8186    -8144    -8201    -8321    -8469    -8680    -8977 
   -9312    -9639    -9973   -10326   -10676   -11021   -11372   -11719 
  -12070   -12441   -12790   -13097   -13354   -13545   -13701   -13835 
  -13935   -14006   -14055   -14102   -14165   -14234   -14280   -14277 
  -14200   -14038   -13816   -13546   -13195   -12767   -12301   -11811 
  -11338   -10891   -10406    -9883    -9378    -8901    -8437    -8013 
   -7647    -7329    -7088    -6908    -6754    -6644    -6560    -6509 
   -6531    -6595    -6690    -6822    -6980    -7172    -7415    -7710 
   -8047    -8406    -8791    -9223    -9687   -10162   -10665   -11177 
  -11666   -12183   -12723   -13189   -13587   -13966   -14325   -14677 
  -14993   -15224   -15363   -15408   -15343   -15118   -14730   -14251 
  -13678   -13006   -12287   -11531   -10779   -10097    -9456    -8821 
   -8229    -7712    -7253    -6850    -6500    -6160    -5816    -5481 
   -5154    -4864    -4637    -4457    -4341    -4312    -4346    -4425 
   -4546    -4681    -4816    -4976    -5165    -5360    -5555    -5740 
   -5902    -6048    -6199    -6340    -6413    -6418    -6371    -6237 
   -5997    -5688    -5344    -4974    -4598    -4254    -3936    -3611 
   -3275    -2908    -2496    -2047    -1583    -1141     -698     -249 
     196      671     1156     1616     2059     2469     2852     3220 
    3548     3829     4105     4378     4610     4816     4990     5089 
    5119     5095     5012     4881     4735     4615     4516     4429 
    4391     4373     4314     4243     4193     4119     3982     3815 
    3650     3489     3343     3194     3035     2893     2754     2613 
    2479     2292     2059     1842     1611     1353     1105      853 
     607      391      192      -12     -225     -428     -621     -842 
   -1095    -1370    -1680    -1990    -2269    -2549    -2825    -3066 
   -3287    -3468    -3584    -3680    -3771    -3824    -3799    -3715 
   -3649    -3573    -3435    -3288    -3141    -2950    -2727    -2469 
   -2162    -1846    -1518    -1173     -855     -548     -230       73 
     377      676      901     1063     1216     1329     1356     1292 
    1158      979      760      480      138     -262     -707    -1157 
   -1597    -2062    -2558    -3067    -3604    -4147    -4663    -5201 
   -5805    -6445    -7075    -7663    -8217    -8751    -9256    -9714 
  -10124   -10498   -10847   -11170   -11484   -11810   -12143   -12461 
  -12754   -13019   -13245   -13448   -13640   -13751   -13781   -13797 
  -13748   -13603   -13461   -13311   -13038   -12709   -12399   -12001 
  -11514   -11031   -10503    -9899    -9295    -8726    -8179    -7661 
   -7157    -6654    -6219    -5877    -5557    -5235    -4924    -4617 
   -4336    -4079    -3830    -3609    -3440    -3313    -3196    -3075 
   -2975    -2875    -2736    -2590    -2455    -2338    -2304    -2327 
   -2363    -2468    -2605    -2714    -2855    -3048    -3228    -3393 
   -3578    -3818    -4141    -4499    -4832    -5182    -5595    -6031 
   -6450    -6837    -7176    -7483    -7775    -8000    -8140    -8266 
   -8397    -8473    -8484    -8497    -8530    -8511    -8426    -8348 
   -8305    -8259    -8178    -8075    -7979    -7879    -7769    -7660 
   -7547    -7439    -7329    -7161    -6928    -6655    -6359    -6069 
   -5769    -5426    -5046    -4615    -4140    -3674    -3187    -2676 
   -2229    -1843    -1495    -1209    -1005     -924     -948    -1033 
   -1200    -1430    -1664    -1922    -2210    -2454    -2650    -2844 
   -3010    -3141    -3282    -3441    -3607    -3795    -3987    -4144 
   -4316    -4553    -4769    -4940    -5147    -5355    -5524    -5714 
   -5904    -6046    -6179    -6308    -6409    -6505    -6585    -6591 
   -6530    -6434    -6302    -6136    -5954    -5765    -5572    -5388 
   -5199    -5001    -4831    -4680    -4511    -4355    -4242    -4155 
   -4076    -4003    -3915    -3793    -3651    -3503    -3325    -3136 
   -2990    -2876    -2777    -2720    -2722    -2770    -2864    -3007 
   -3169    -3341    -3554    -3779    -3963    -4107    -4213    -4270 
   -4286    -4248    -4156    -4044    -3925    -3789    -3637    -3465 
   -3286    -3130    -3000    -2878    -2768    -2691    -2652    -2637 
   -2644    -2679    -2725    -2790    -2904    -3031    -3155    -3304 
   -3454    -3583    -3688    -3764    -3842    -3931    -4020    -4124 
   -4220    -4309    -4459    -4630    -4746    -4871    -5047    -5203 
   -5354    -5547    -5732    -5909    -6124    -6332    -6501    -6681 
   -6870    -7012    -7101    -7137    -7122    -7091    -7045    -6968 
   -6874    -6772    -6684    -6608    -6524    -6440    -6351    -6231 
   -6079    -5918    -5745    -5540    -5316    -5100    -4927    -4806 
   -4690    -4577    -4496    -4442    -4427    -4447    -4473    -4479 
   -4456    -4414    -4346    -4234    -4082    -3888    -3661    -3430 
   -3182    -2936    -2732    -2543    -2352    -2169    -1970    -1750 
   -1515    -1241     -914     -547     -167      197      542      877 
    1198     1524     1888     2283     2704     3169     3678     4220 
    4793     5349     5835     6281     6702     7037     7297     7522 
    7700     7865     8026     8125     8166     8169     8103     7953 
    7712     7390     7037     6666     6260     5841     5433     5044 
    4691     4359     4014     3655     3284     2904     2556     2242 
    1931     1645     1384     1097      785      496      209      -97 
    -334     -493     -638     -755     -862    -1009    -1171    -1319 
   -1464    -1616    -1767    -1892    -1984    -2080    -2171    -2216 
   -2221    -2208    -2215    -2272    -2355    -2467    -2605    -2749 
   -2896    -3026    -3122    -3192    -3236    -3254    -3257    -3252 
   -3261    -3287    -3330    -3402    -3472    -3508    -3552    -3599 
   -3618    -3612    -3570    -3493    -3413    -3317    -3193    -3049 
   -2889    -2715    -2493    -2207    -1919    -1653    -1390    -1115 
    -842     -615     -421     -230      -40      190      474      773 
    1063     1345     1652     1985     2312     2675     3073     3468 
    3848     4188     4499     4793     5070     5317     5487     5627 
    5787     5884     5904     5921     5907     5809     5696     5588 
    5407     5168     4922     4632     4279     3911     3546     3176 
    2786     2363     1972     1651     1343     1060      816      580 
     338       67     -172     -341     -553     -786     -935    -1060 
   -1158    -1192    -1256    -1310    -1278    -1270    -1306    -1315 
   -1330    -1351    -1354    -1376    -1373    -1313    -1249    -1158 
   -1025     -876     -711     -550     -378     -149      108      338 
     559      801     1061     1304     1492     1645     1780     1861 
    1892     1913     1911     1893     1886     1880     1865     1856 
    1860     1853     1828     1816     1796     1718     1594     1449 
    1253     1001      756      520      254       15     -190     -391 
    -554     -728     -946    -1150    -1392    -1728    -2089    -2453 
   -2856    -3272    -3691    -4162    -4670    -5190    -5760    -6379 
   -7015    -7660    -8318    -8998    -9679   -10337   -10990   -11645 
  -12290   -12910   -13465   -13928   -14347   -14775   -15187   -15573 
  -15993   -16448   -16877   -17280   -17672   -18040   -18416   -18795 
  -19124   -19443   -19808   -20180   -20522   -20846   -21135   -21382 
  -21609   -21789   -21913   -22001   -22028   -21979   -21864   -21701 
  -21514   -21294   -21057   -20837   -20601   -20319   -20011   -19671 
  -19268   -18836   -18422   -17998   -17555   -17141   -16730   -16252 
  -15721   -15179   -14637   -14096   -13540   -12965   -12380   -11748 
  -11042   -10309    -9570    -8796    -8027    -7318    -6677    -6109 
   -5597    -5090    -4576    -4064    -3535    -2981    -2436    -1895 
   -1341     -825     -362       96      543      949     1313     1648 
    1968     2246     2481     2716     2901     2982     3038     3104 
    3132     3121     3107     3097     3092     3090     3066     3015 
    2939     2847     2773     2692     2564     2426     2279     2073 
    1819     1569     1339     1112      916      785      673      552 
     462      393      300      196       65     -102     -252     -418 
    -623     -806     -991    -1167    -1295    -1434    -1554    -1625 
   -1720    -1841    -1987    -2151    -2281    -2406    -2538    -2647 
   -2760    -2893    -3049    -3259    -3539    -3874    -4255    -4654 
   -5042    -5403    -5722    -5978    -6178    -6357    -6531    -6711 
   -6890    -7038    -7173    -7280    -7336    -7395    -7468    -7518 
   -7561    -7606    -7644    -7692    -7747    -7770    -7789    -7846 
   -7888    -7874    -7873    -7881    -7820    -7726    -7618    -7414 
   -7140    -6851    -6496    -6063    -5601    -5090    -4544    -4042 
   -3554    -3051    -2544    -2032    -1542    -1066     -623     -255 
      80      356      542      730      907     1008     1104     1199 
    1261     1339     1379     1390     1486     1572     1600     1653 
    1653     1626     1626     1552     1453     1386     1302     1226 
    1144     1023      909      780      559      281       11     -259 
    -507     -737    -1003    -1258    -1451    -1657    -1908    -2169 
   -2449    -2752    -3072    -3406    -3758    -4076    -4336    -4619 
   -4882    -5058    -5234    -5428    -5587    -5728    -5907    -6104 
   -6272    -6502    -6779    -6997    -7246    -7526    -7725    -7917 
   -8131    -8308    -8493    -8657    -8779    -8935    -9080    -9191 
   -9317    -9431    -9522    -9586    -9606    -9600    -9550    -9433 
   -9295    -9156    -8974    -8787    -8659    -8559    -8461    -8357 
   -8179    -7905    -7597    -7260    -6858    -6406    -5932    -5455 
   -4975    -4464    -3951    -3398    -2753    -2119    -1471     -761 
    -121      509     1202     1817     2381     2929     3377     3803 
    4255     4645     4985     5279     5465     5584     5676     5653 
    5525     5384     5204     4978     4750     4518     4287     4069 
    3861     3647     3436     3231     2994     2749     2477     2154 
    1870     1598     1303     1064      828      542      288       53 
    -213     -494     -827    -1214    -1606    -2022    -2473    -2909 
   -3317    -3729    -4164    -4612    -5045    -5478    -5929    -6354 
   -6782    -7252    -7700    -8132    -8593    -9049    -9505    -9998 
  -10495   -10973   -11464   -11921   -12299   -12685   -13070   -13423 
  -13814   -14214   -14601   -15019   -15417   -15777   -16138   -16493 
  -16848   -17201   -17522   -17820   -18101   -18374   -18689   -19049 
  -19419   -19792   -20181   -20590   -20952   -21216   -21453   -21665 
  -21825   -21996   -22173   -22342   -22527   -22707   -22865   -22957 
  -22945   -22895   -22874   -22841   -22733   -22595   -22482   -22373 
  -22254   -22089   -21848   -21559   -21222   -20829   -20369   -19832 
  -19262   -18683   -18113   -17574   -17049   -16538   -16080   -15671 
  -15239   -14759   -14292   -13834   -13336   -12807   -12285   -11819 
  -11400   -11003   -10653   -10340   -10020    -9692    -9373    -9054 
   -8703    -8322    -7927    -7502    -7077    -6690    -6326    -6000 
   -5708    -5428    -5196    -5020    -4862    -4712    -4594    -4532 
   -4503    -4484    -4481    -4504    -4582    -4714    -4888    -5117 
   -5366    -5596    -5806    -6000    -6207    -6431    -6641    -6834 
   -6996    -7109    -7214    -7324    -7421    -7563    -7813    -8104 
   -8367    -8640    -8907    -9108    -9246    -9330    -9388    -9464 
   -9571    -9669    -9667    -9590    -9519    -9389    -9209    -9041 
   -8812    -8529    -8266    -7987    -7650    -7228    -6729    -6226 
   -5722    -5156    -4539    -3921    -3286    -2614    -1958    -1311 
    -625       65      734     1431     2172     2920     3693     4517 
    5351     6190     7035     7840     8554     9158     9727    10310 
   10862    11408    11968    12495    13029    13598    14121    14579 
   15008    15401    15767    16109    16405    16663    16914    17148 
   17319    17453    17570    17648    17716    17760    17719    17627 
   17533    17451    17365    17262    17136    16970    16768    16525 
   16230    15901    15541    15153    14725    14234    13764    13336 
   12835    12296    11804    11317    10839    10380     9865     9276 
    8672     8045     7349     6630     5904     5135     4385     3689 
    2975     2222     1454      665     -138     -959    -1875    -2880 
   -3848    -4763    -5681    -6582    -7468    -8360    -9234   -10086 
  -10913   -11676   -12382   -13059   -13711   -14347   -14941   -15476 
  -15983   -16443   -16835   -17194   -17496   -17703   -17863   -18021 
  -18168   -18278   -18313   -18288   -18272   -18273   -18245   -18211 
  -18195   -18134   -18018   -17895   -17789   -17724   -17685   -17628 
  -17528   -17395   -17243   -17080   -16941   -16876   -16871   -16883 
  -16912   -17001   -17142   -17302   -17486   -17663   -17834   -18066 
  -18312   -18510   -18719   -18930   -19112   -19308   -19506   -19678 
  -19814   -19891   -19905   -19897   -19917   -19946   -19939   -19877 
  -19750   -19603   -19427   -19176   -18903   -18641   -18359   -18055 
  -17728   -17365   -16983   -16606   -16233   -15862   -15514   -15181 
  -14841   -14487   -14079   -13585   -13037   -12464   -11858   -11219 
  -10577    -9952    -9345    -8758    -8189    -7634    -7074    -6501 
   -5933    -5367    -4783    -4207    -3663    -3104    -2537    -2007 
   -1503    -1021     -584     -201      143      483      806     1084 
    1377     1699     2002     2277     2493     2646     2757     2813 
    2858     2913     2947     2984     3010     2994     2968     2927 
    2824     2667     2489     2311     2133     1955     1781     1623 
    1504     1443     1423     1405     1381     1384     1396     1375 
    1362     1370     1339     1247     1121     1003      939      905 
     860      807      757      710      693      748      852      953 
    1032     1098     1176     1260     1339     1397     1397     1377 
    1391     1422     1432     1393     1318     1255     1194     1125 
    1085     1049      959      845      734      586      428      305 
     169       16     -126     -263     -392     -514     -600     -651 
    -716     -760     -755     -741     -728     -732     -760     -757 
    -714     -670     -621     -535     -406     -258     -118      -25 
      43      163      341      519      688      862     1005     1094 
    1191     1296     1354     1426     1560     1731     1921     2099 
    2241     2336     2403     2476     2547     2620     2684     2690 
    2619     2479     2310     2150     1994     1847     1711     1566 
    1397     1179      917      643      344       25     -280     -565 
    -818    -1063    -1357    -1696    -2031    -2346    -2650    -2948 
   -3234    -3500    -3755    -4009    -4239    -4451    -4668    -4891 
   -5110    -5301    -5477    -5674    -5880    -6065    -6227    -6373 
   -6495    -6626    -6789    -6940    -7085    -7255    -7400    -7493 
   -7563    -7568    -7512    -7490    -7528    -7592    -7658    -7717 
   -7764    -7776    -7762    -7763    -7787    -7802    -7779    -7726 
   -7666    -7613    -7543    -7433    -7330    -7268    -7216    -7165 
   -7127    -7116    -7116    -7106    -7095    -7084    -7041    -6964 
   -6881    -6823    -6802    -6806    -6829    -6887    -6968    -7027 
   -7071    -7106    -7113    -7093    -7042    -6967    -6895    -6828 
   -6785    -6798    -6860    -6921    -6955    -6973    -6972    -6952 
   -6924    -6882    -6843    -6839    -6841    -6809    -6766    -6789 
   -6876    -6946    -7024    -7167    -7341    -7507    -7616    -7664 
   -7726    -7786    -7813    -7866    -7970    -8115    -8282    -8448 
   -8596    -8705    -8802    -8909    -8985    -9025    -9077    -9152 
   -9209    -9221    -9198    -9202    -9260    -9311    -9341    -9351 
   -9278    -9169    -9120    -9085    -9027    -8995    -8967    -8938 
   -8945    -8946    -8919    -8890    -8858    -8829    -8808    -8803 
   -8812    -8802    -8768    -8735    -8700    -8617    -8481    -8349 
   -8239    -8159    -8101    -8021    -7950    -7919    -7927    -7983 
   -8052    -8104    -8128    -8094    -8021    -7916    -7798    -7721 
   -7676    -7655    -7670    -7713    -7774    -7833    -7859    -7832 
   -7751    -7652    -7558    -7438    -7275    -7083    -6855    -6596 
   -6333    -6041    -5690    -5335    -4978    -4557    -4128    -3727 
   -3276    -2795    -2338    -1849    -1326     -844     -377      134 
     630     1078     1549     2056     2543     2975     3336     3638 
    3893     4095     4258     4424     4613     4807     4984     5135 
    5258     5379     5527     5679     5808     5919     6030     6118 
    6141     6181     6314     6415     6417     6425     6453     6443 
    6427     6431     6427     6431     6468     6482     6437     6385 
    6338     6283     6238     6184     6109     6051     5997     5925 
    5873     5866     5876     5901     5983     6094     6173     6248 
    6350     6456     6530     6556     6563     6573     6569     6599 
    6704     6820     6926     7055     7168     7242     7332     7438 
    7532     7641     7754     7793     7747     7659     7523     7364 
    7233     7078     6863     6642     6420     6177     5901     5550 
    5137     4713     4274     3812     3366     2945     2544     2187 
    1850     1498     1150      822      508      196      -94     -350 
    -625     -918    -1172    -1393    -1582    -1724    -1861    -1997 
   -2116    -2261    -2444    -2624    -2812    -3026    -3223    -3376 
   -3521    -3672    -3787    -3896    -4065    -4258    -4433    -4612 
   -4769    -4891    -5016    -5123    -5170    -5195    -5220    -5210 
   -5175    -5142    -5085    -5004    -4949    -4912    -4886    -4900 
