Origin Time       2011/03/11 14:46:00
Lat.              38.103
Long.             142.860
Depth. (km)       24
Mag.              9.0
Station Code      SZO027
Station Lat.      34.7809
Station Long.     138.7934
Station Height(m) 14
Record Time       2011/03/11 14:47:56
Sampling Freq(Hz) 100Hz
Duration Time(s)  227
Dir.              U-D
Scale Factor      3920(gal)/6182761
Max. Acc. (gal)   5.558
Last Correction   2011/03/11 14:47:41
Memo.             
[...]
  -29232   -29573   -30035   -30466   -30726   -30889   -31166   -31611 
  -31993   -31981   -31501   -30954   -30805   -31176   -31980   -33020 
  -34043   -34878   -35409   -35532   -35236   -34665   -34089   -33758 
  -33739   -33914   -34100   -34104   -33830   -33481   -33289   -33179 
  -33054   -32967   -32909   -32807   -32594   -32215   -31712   -31234 
  -30935   -30886   -31026   -31147   -31105   -30963   -30787   -30508 
  -29988   -29303   -28864   -28897   -29253   -29852   -30610   -31217 
  -31449   -31371   -31163   -30944   -30763   -30756   -31030   -31373 
  -31436   -31203   -30921   -30674   -30388   -30197   -30432   -31108 
  -31800   -32270   -32704   -33206   -33592   -33730   -33714   -33691 
  -33714   -33777   -33820   -33795   -33824   -34097   -34461   -34513 
  -34124   -33381   -32320   -31143   -30226   -29864   -30090   -30599 
  -31002   -31233   -31538   -31984   -32176   -31809   -31237   -31124 
  -31644   -32274   -32549   -32674   -33107   -33919   -34650   -34694 
  -34028   -33295   -32982   -32981   -33053   -33194   -33460   -33780 
  -34037   -34191   -34230   -34063   -33715   -33411   -33218   -32947 
  -32570   -32240   -31967   -31727   -31587   -31515   -31467   -31515 
  -31645   -31658   -31380   -30959   -30861   -31457   -32590   -33605 
  -33985   -33882   -33738   -33749   -33901   -34152   -34458   -34794 
  -35055   -35089   -34942   -34758   -34519   -34227   -34028   -33979 
  -34011   -34077   -34056   -33796   -33324   -32818   -32475   -32334 
  -32189   -31894   -31644   -31726   -32109   -32472   -32592   -32497 
  -32186   -31543   -30673   -29836   -29180   -28919   -29192   -29729 
  -30186   -30548   -31001   -31592   -32057   -32137   -31910   -31647 
  -31545   -31559   -31524   -31494   -31589   -31725   -31777   -31721 
  -31534   -31236   -30982   -30854   -30629   -30150   -29725   -29683 
  -29885   -30115   -30513   -31259   -32171   -32879   -33165   -33068 
  -32829   -32662   -32586   -32561   -32641   -32857   -33128   -33373 
  -33450   -33263   -33125   -33378   -33779   -33824   -33333   -32571 
  -31945   -31661   -31699   -31897   -32060   -32121   -32081   -31861 
  -31351   -30625   -30034   -29818   -29740   -29479   -29081   -28799 
  -28909   -29532   -30332   -30794   -30711   -30224   -29660   -29200 
  -28671   -28048   -27814   -28361   -29425   -30476   -31244   -31725 
  -31997   -32080   -31932   -31680   -31557   -31584   -31629   -31721 
  -32030   -32580   -33059   -33019   -32479   -32014   -31954   -32070 
  -32140   -32303   -32884   -33862   -34725   -35079   -35016   -34865 
  -34814   -34824   -34906   -35124   -35298   -35201   -34932   -34716 
  -34549   -34195   -33430   -32418   -31721   -31667   -32014   -32424 
  -32918   -33699   -34681   -35433   -35594   -35062   -34032   -33060 
  -32651   -32762   -32981   -33057   -33086   -33253   -33503   -33618 
  -33551   -33425   -33232   -32812   -32083   -31213   -30522   -30150 
  -30030   -30168   -30545   -30935   -31005   -30500   -29605   -28932 
  -28848   -29243   -29888   -30605   -31199   -31459   -31285   -30836 
  -30455   -30361   -30511   -30695   -30690   -30544   -30652   -31245 
  -31922   -32140   -32065   -32271   -32778   -33185   -33384   -33514 
  -33581   -33472   -33220   -33009   -32847   -32539   -32057   -31683 
  -31696   -32155   -32942   -33729   -34101   -33893   -33243   -32355 
  -31482   -30974   -30944   -31193   -31602   -32124   -32548   -32645 
  -32315   -31634   -30802   -29985   -29350   -29121   -29428   -30227 
  -31286   -32255   -32884   -33191   -33299   -33216   -32956   -32655 
  -32426   -32216   -31897   -31512   -31231   -31060   -30928   -30852 
  -30863   -30980   -31184   -31405   -31718   -32247   -32770   -32926 
  -32734   -32509   -32552   -32895   -33170   -33111   -33050   -33509 
  -34488   -35426   -35780   -35404   -34440   -33139   -31923   -31266 
  -31287   -31805   -32595   -33280   -33610   -33816   -34174   -34627 
  -34891   -34728   -34211   -33537   -32772   -32094   -31797   -31994 
  -32642   -33619   -34574   -34997   -34679   -33888   -33032   -32295 
  -31686   -31379   -31650   -32427   -33222   -33659   -33821   -33929 
  -33956   -33720   -33306   -33022   -32835   -32502   -32134   -32028 
  -32332   -33017   -33783   -34201   -34169   -34017   -34026   -34060 
  -33926   -33755   -33854   -34306   -34767   -34866   -34572   -34090 
  -33732   -33624   -33562   -33423   -33332   -33327   -33224   -32874 
  -32440   -32280   -32481   -32657   -32447   -31984   -31573   -31197 
  -30689   -30223   -30239   -30770   -31367   -31672   -31721   -31811 
  -32089   -32383   -32613   -32945   -33378   -33584   -33323   -32771 
  -32336   -32276   -32541   -32853   -33081   -33430   -33976   -34490 
  -34794   -34862   -34781   -34669   -34597   -34684   -34902   -34941 
  -34609   -34010   -33201   -32123   -30894   -29948   -29696   -30208 
  -31420   -33226   -35247   -36994   -38173   -38701   -38649   -38124 
  -37203   -36106   -35233   -34743   -34299   -33536   -32584   -32014 
  -32210   -32767   -32982   -32821   -32738   -32940   -33271   -33429 
  -33244   -32990   -33128   -33596   -33722   -33050   -31868   -30770 
  -30187   -30211   -30751   -31716   -32699   -33064   -32642   -31902 
  -31470   -31487   -31614   -31747   -32235   -33265   -34540   -35661 
  -36358   -36458   -36043   -35411   -34820   -34367   -33842   -32856 
  -31419   -30042   -29170   -28897   -29231   -30036   -30892   -31523 
  -31914   -31848   -31144   -30191   -29564   -29594   -30404   -31774 
  -33174   -34129   -34369   -33804   -32524   -30997   -29970   -29727 
  -29925   -30293   -30786   -31220   -31252   -30765   -30028   -29340 
  -28855   -28710   -28881   -29204   -29697   -30489   -31444   -32180 
  -32462   -32435   -32457   -32593   -32484   -31906   -31201   -30896 
  -31036   -31238   -31260   -31182   -31208   -31400   -31439   -30897 
  -29837   -28784   -28125   -27873   -27838   -27921   -28393   -29606 
  -31238   -32446   -32889   -32825   -32531   -32225   -31919   -31419 
  -30905   -30919   -31558   -32263   -32451   -32084   -31605   -31371 
  -31285   -31173   -31197   -31628   -32466   -33354   -33921   -34162 
  -34296   -34472   -34747   -35130   -35510   -35713   -35734   -35668 
  -35282   -34207   -32682   -31345   -30389   -29743   -29545   -29922 
  -30771   -31844   -32868   -33528   -33520   -32815   -31730   -30636 
  -29744   -29388   -29983   -31290   -32587   -33524   -34096   -34373 
  -34527   -34481   -33789   -32400   -31009   -30221   -29892   -29634 
  -29532   -29957   -30942   -31993   -32463   -32076   -30921   -29227 
  -27416   -25990   -25396   -25892   -27315   -29287   -31367   -32932 
  -33575   -33477   -33049   -32436   -31654   -30910   -30317   -29766 
  -29292   -29122   -29421   -30114   -30928   -31719   -32571   -33338 
  -33472   -32896   -32459   -32763   -33409   -33971   -34529   -34978 
  -34910   -34133   -32916   -31879   -31466   -31494   -31546   -31531 
  -31559   -31516   -31079   -30274   -29626   -29443   -29496   -29516 
  -29477   -29632   -30403   -31775   -33076   -33764   -33893   -33703 
  -33348   -32879   -32213   -31366   -30675   -30466   -30713   -31189 
  -31693   -32057   -32116   -31931   -31892   -32174   -32416   -32308 
  -32091   -32178   -32594   -32978   -32979   -32622   -32173   -31780 
  -31450   -31046   -30487   -30144   -30368   -30872   -31164   -31166 
  -31255   -31693   -32094   -31970   -31368   -30615   -29962   -29494 
  -29312   -29618   -30285   -30814   -30977   -31093   -31528   -32391 
  -33558   -34683   -35687   -36841   -38029   -38708   -38489   -37544 
  -36569   -36213   -36572   -37119   -37215   -36841   -36365   -35806 
  -35032   -34115   -33159   -32215   -31313   -30502   -29929   -29774 
  -30062   -30608   -31218   -31686   -31662   -30996   -30079   -29633 
  -30080   -31046   -31879   -32563   -33497   -34640   -35309   -34827 
  -33360   -31887   -31108   -30913   -31034   -31501   -32434   -33603 
  -34220   -33746   -32547   -31266   -30309   -29896   -30041   -30581 
  -31296   -31989   -32444   -32530   -32183   -31315   -30215   -29484 
  -29300   -29383   -29578   -30042   -30709   -31173   -31415   -31761 
  -32215   -32468   -32222   -31586   -31154   -31239   -31484   -31561 
  -31651   -32075   -32823   -33639   -34234   -34257   -33592   -32759 
  -32378   -32529   -32897   -33042   -32754   -32358   -32245   -32327 
  -32365   -32520   -33022   -33681   -34207   -34484   -34383   -33916 
  -33415   -33309   -33764   -34475   -35026   -35325   -35450   -35391 
  -35040   -34481   -34098   -33912   -33454   -32670   -31856   -31001 
  -30022   -29131   -28673   -28791   -29308   -29935   -30522   -31121 
  -31825   -32559   -33043   -32918   -32281   -31891   -32246   -32950 
  -33379   -33487   -33682   -34131   -34490   -34422   -33913   -33079 
  -32202   -31653   -31381   -31035   -30654   -30655   -31200   -31805 
  -31634   -30468   -29119   -28474   -28685   -29481   -30558   -31631 
  -32546   -33227   -33506   -33202   -32388   -31459   -30871   -30862 
  -31330   -31891   -32252   -32503   -32881   -33500   -34385   -35467 
  -36480   -36994   -36770   -35953   -34864   -33838   -33121   -32686 
  -32289   -31765   -31288   -31134   -31248   -31391   -31363   -30996 
  -30364   -29701   -29088   -28599   -28374   -28423   -28587   -28731 
  -29017   -29811   -31105   -32270   -32699   -32525   -32217   -31905 
  -31648   -31581   -31683   -31894   -32163   -32376   -32366   -31983 
  -31431   -31182   -31184   -30875   -30051   -29171   -28902   -29424 
  -30186   -30705   -31078   -31386   -31451   -31181   -30701   -30267 
  -30035   -30012   -30289   -30966   -31911   -32932   -33891   -34604 
  -35008   -35102   -34886   -34601   -34386   -33948   -33129   -32299 
  -31866   -31709   -31365   -30718   -30237   -30291   -30553   -30626 
  -30787   -31521   -32761   -33964   -34770   -35259   -35485   -35130 
  -33777   -31634   -29743   -29059   -29733   -31287   -33033   -34510 
  -35592   -36243   -36265   -35446   -34133   -33081   -32613   -32569 
  -32758   -32956   -32916   -32573   -31935   -31005   -29924   -29035 
  -28760   -29206   -30101   -31155   -32112   -32688   -32703   -32149 
  -31180   -30121   -29375   -29276   -29908   -30943   -31939   -32810 
  -33707   -34607   -35195   -35240   -34984   -34927   -35250   -35611 
  -35596   -35150   -34496   -33884   -33274   -32316   -30937   -29502 
  -28260   -27294   -26714   -26528   -26848   -27823   -28983   -29554 
  -29469   -29287   -29318   -29473   -29806   -30543   -31580   -32543 
  -33236   -33589   -33607   -33445   -33199   -32872   -32497   -32231 
  -32363   -32877   -33384   -33651   -33626   -33310   -32832   -32292 
  -31739   -31298   -30997   -30771   -30695   -30906   -31450   -32328 
  -33389   -34287   -34861   -35167   -35067   -34295   -33023   -32004 
  -31820   -32212   -32520   -32576   -32831   -33431   -33569   -32679 
  -31664   -31814   -33099   -34266   -34471   -34196   -34265   -34660 
  -34780   -34374   -33805   -33453   -33284   -33056   -32618   -32112 
  -31970   -32460   -33322   -34174   -34910   -35369   -35217   -34440 
  -33373   -32438   -32077   -32414   -33051   -33621   -34193   -34907 
  -35498   -35505   -34921   -34167   -33403   -32377   -30918   -29368 
  -28502   -28704   -29481   -30246   -30809   -31055   -30983   -30599 
  -29744   -28649   -27927   -27843   -28255   -28894   -29404   -29691 
  -30040   -30471   -30628   -30387   -30044   -30069   -30653   -31468 
  -32101   -32440   -32550   -32476   -32188   -31772   -31509   -31605 
  -32133   -33115   -34184   -34676   -34519   -34274   -34261   -34395 
  -34637   -34970   -35223   -35346   -35446   -35413   -34937   -33907 
  -32652   -31560   -30707   -30206   -30308   -30957   -31772   -32335 
  -32378   -31919   -31201   -30429   -29761   -29486   -29938   -31169 
  -32764   -34173   -34981   -34945   -34388   -33901   -33491   -32945 
  -32319   -31679   -31226   -31112   -30978   -30446   -29711   -29312 
  -29479   -29886   -30169   -30323   -30528   -30934   -31567   -32237 
  -32697   -32981   -33291   -33529   -33440   -33062   -32574   -31998 
  -31380   -30877   -30549   -30406   -30504   -30823   -31311   -31808 
  -32028   -31928   -31746   -31826   -32302   -32658   -32308   -31472 
  -30854   -30939   -31751   -33033   -34554   -36004   -36892   -37000 
  -36628   -36137   -35461   -34450   -33538   -33281   -33536   -33855 
  -34154   -34570   -35147   -35750   -36259   -36695   -36932   -36757 
  -36285   -35752   -35124   -34326   -33713   -33835   -34647   -35469 
  -35767   -35472   -34737   -33752   -32613   -31253   -29782   -28635 
  -28109   -28168   -28705   -29558   -30411   -30979   -31243   -31456 
  -31927   -32573   -32879   -32571   -31906   -31314   -31018   -30877 
  -30814   -31095   -31836   -32735   -33233   -32980   -32373   -32044 
  -32023   -31960   -31642   -31127   -30756   -30864   -31465   -32221 
  -32653   -32599   -32333   -32076   -31787   -31501   -31376   -31397 
  -31420   -31407   -31444   -31649   -31923   -32063   -32124   -32201 
  -32253   -32195   -31896   -31551   -31520   -31620   -31562   -31486 
  -31507   -31514   -31423   -31257   -31099   -30989   -30960   -31078 
  -31236   -31152   -30768   -30268   -29768   -29471   -29669   -30417 
  -31612   -32917   -33737   -34015   -34300   -34846   -35468   -36070 
  -36903   -38189   -39665   -40774   -40985   -40087   -38511   -36989 
  -35951   -35334   -34670   -33642   -32397   -31094   -29751   -28443 
  -27342   -26597   -26216   -26232   -26636   -27103   -27293   -27250 
  -27408   -28193   -29389   -30307   -30686   -30836   -31015   -31285 
  -31728   -32269   -32654   -32806   -32837   -32782   -32506   -31844 
  -30991   -30610   -31075   -31993   -32855   -33576   -34195   -34556 
  -34484   -34143   -33978   -34096   -34103   -33829   -33596   -33689 
  -34047   -34284   -34021   -33371   -32797   -32630   -32845   -32964 
  -32489   -31563   -30731   -30294   -30057   -29636   -29148   -29111 
  -29633   -30466   -31375   -32091   -32424   -32354   -32105   -32106 
  -32416   -32677   -32796   -33011   -33443   -33905   -34134   -34051 
  -33728   -33397   -33215   -33019   -32804   -32879   -33374   -34100 
  -34643   -34678   -34404   -34169   -33960   -33643   -33174   -32608 
  -32083   -31707   -31622   -31887   -32214   -32372   -32509   -32680 
  -32608   -32020   -31014   -30033   -29320   -28720   -28338   -28654 
  -29554   -30116   -29873   -29494   -29821   -30866   -31909   -32432 
  -32714   -33175   -33725   -34095   -34255   -34428   -34771   -35112 
  -35205   -35016   -34477   -33458   -32216   -31294   -31000   -31224 
  -31552   -31770   -32007   -32204   -32134   -31850   -31690   -32021 
  -32917   -33941   -34462   -34297   -33814   -33407   -33155   -32947 
  -32799   -32890   -33220   -33682   -34325   -35100   -35733   -36068 
  -36210   -36336   -36491   -36469   -35973   -35111   -34302   -33651 
  -33108   -32822   -32835   -32913   -32814   -32488   -32030   -31496 
  -30897   -30304   -29887   -29786   -29828   -29725   -29638   -29908 
  -30439   -31001   -31584   -32133   -32431   -32364   -32177   -32207 
  -32478   -32858   -33183   -33307   -33394   -33602   -33694   -33498 
  -33194   -32985   -32812   -32441   -31837   -31175   -30536   -29873 
  -29156   -28539   -28248   -28330   -28695   -29088   -29173   -28891 
  -28460   -28294   -28687   -29389   -30030   -30638   -31265   -31768 
  -32124   -32418   -32645   -32881   -33355   -34000   -34365   -34373 
  -34464   -34787   -34951   -34553   -33741   -33157   -32999   -32714 
  -32000   -31206   -30836   -31200   -32136   -33067   -33495   -33292 
  -32817   -32519   -32428   -32524   -33095   -34291   -35764   -36925 
  -37509   -37708   -37584   -36890   -35663   -34321   -33251   -32653 
  -32421   -32278   -32072   -31791   -31527   -31280   -30938   -30596 
  -30486   -30693   -31189   -31912   -32678   -33316   -33898   -34399 
  -34515   -34224   -33969   -34059   -34259   -34162   -33740   -33246 
  -32821   -32441   -31950   -31266   -30708   -30630   -30860   -31000 
  -30915   -30837   -31026   -31242   -31048   -30611   -30519   -31008 
  -31795   -32528   -33110   -33579   -33729   -33272   -32510   -32005 
  -31795   -31644   -31427   -31157   -30935   -30862   -30837   -30493 
  -29822   -29256   -28994   -29179   -29983   -31262   -32670   -33786 
  -34428   -34770   -34941   -34890   -34437   -33516   -32500   -31870 
  -31722   -31813   -31911   -32072   -32336   -32390   -31936   -31186 
  -30635   -30396   -30202   -30044   -30265   -30977   -31877   -32567 
  -32853   -32998   -33435   -34107   -34608   -34714   -34427   -33825 
  -33019   -32233   -31668   -31185   -30607   -30206   -30202   -30236 
  -29986   -29806   -30315   -31513   -32535   -32689   -32260   -31834 
  -31706   -31992   -32590   -33166   -33513   -33713   -33802   -33584 
  -32997   -32272   -31591   -30862   -30053   -29484   -29454   -29953 
  -30738   -31588   -32515   -33415   -33949   -33954   -33586   -33240 
  -33231   -33400   -33453   -33396   -33365   -33340   -33022   -32068 
  -30503   -28765   -27469   -26968   -27065   -27382   -27789   -28405 
  -29259   -29940   -30081   -29947   -29975   -30268   -30909   -32086 
  -33611   -34929   -35683   -35912   -35805   -35350   -34502   -33487 
  -32626   -31927   -31061   -30098   -29732   -30365   -31662   -32839 
  -33257   -32914   -32071   -30882   -29597   -28635   -28311   -28515 
  -28941   -29431   -29787   -29898   -29992   -30241   -30625   -31315 
  -32278   -32741   -32152   -31043   -30240   -30101   -30462   -30978 
  -31755   -32975   -34068   -34283   -33766   -33306   -33329   -33644 
  -33894   -34008   -34206   -34511   -34567   -34122   -33499   -33282 
  -33477   -33504   -33058   -32542   -32450   -32583   -32392   -31901 
  -31666   -31921   -32261   -32255   -32034   -31999   -32227   -32411 
  -32276   -31928   -31645   -31490   -31386   -31287   -31192   -31165 
  -31287   -31501   -31707   -32059   -32637   -33005   -32802   -32211 
  -31621   -31452   -31726   -31731   -31293   -31374   -32313   -33359 
  -34005   -34201   -34016   -33692   -33440   -33246   -32982   -32844 
  -33295   -34273   -35261   -35859   -35819   -35243   -34456   -33492 
  -32306   -31164   -30642   -31076   -31888   -32233   -32053   -31814 
  -31822   -31998   -31963   -31519   -30949   -30610   -30513   -30507 
  -30630   -30967   -31558   -32558   -33834   -34876   -35492   -35678 
  -35344   -34668   -33829   -32850   -31875   -31091   -30650   -30476 
  -30334   -30111   -29776   -29434   -29123   -28705   -28245   -28003 
  -28022   -28122   -28298   -28605   -29043   -29707   -30315   -30388 
  -30049   -29788   -29830   -29988   -29943   -29640   -29467   -29858 
  -30631   -31207   -31421   -31724   -32424   -33093   -33255   -32851 
  -32026   -31256   -30861   -30672   -30754   -31422   -32572   -33670 
  -34252   -34333   -34353   -34575   -34749   -34677   -34486   -34331 
  -34433   -34796   -35063   -35140   -35172   -35183   -35147   -34851 
  -34116   -33249   -32447   -31507   -30530   -29912   -29896   -30306 
  -30651   -30904   -31427   -32115   -32473   -32310   -31900   -31453 
