Origin Time       2011/03/11 14:46:00
Lat.              38.103
Long.             142.860
Depth. (km)       24
Mag.              9.0
Station Code      SZO008
Station Lat.      35.0960
Station Long.     138.8657
Station Height(m) 5
Record Time       2011/03/11 14:47:51
Sampling Freq(Hz) 100Hz
Duration Time(s)  286
Dir.              E-W
Scale Factor      3920(gal)/6182761
Max. Acc. (gal)   40.181
Last Correction   2011/03/11 14:47:36
Memo.             
[...]
   -3283    -2962    -3058    -3665    -4955    -6415    -7314    -7636 
   -7616    -6858    -4815    -1670     1870     4920     6400     5773 
    3709     1281     -982    -2921    -4234    -4371    -2908      -49 
    3339     6263     8350    10024    11914    14116    16067    17274 
   18197    19783    21974    23717    24374    23994    22616    20295 
   17548    15215    13894    13799    14827    16479    18253    19999 
   21348    21494    19959    16977    13262     9695     6773     4487 
    3062     2973     4056     5584     6953     7679     7537     6962 
    6667     6961     7630     8381     9090     9448     8976     7751 
    6466     5608     5209     5178     5411     5832     6348     6527 
    5771     4058     2014      271     -994    -1978    -2727    -3024 
   -2818    -2258    -1342      153     2325     4673     6325     6713 
    5714     3674     1214    -1371    -4076    -6689    -8622    -9096 
   -7714    -4656     -422     4076     7648     9715    10506    10299 
    9093     7054     5011     4041     4300     4745     4244     2437 
    -432    -3865    -7307   -10208   -11946   -12284   -11702   -10709 
   -9331    -7575    -5853    -4794    -4855    -5840    -7075    -8414 
  -10126   -11980   -13500   -14476   -14929   -15051   -15088   -15321 
  -16064   -17407   -18802   -19190   -17888   -15071   -11472    -8115 
   -5883    -5038    -5509    -7179    -9618   -12299   -14862   -16897 
  -18239   -19080   -19426   -19188   -18542   -17689   -16736   -15849 
  -15157   -14470   -13242   -11165    -8879    -7530    -7669    -9116 
  -11334   -13463   -14733   -14823   -13628   -11336    -8560    -5945 
   -3770    -1987     -561      634     1999     3678     5027     4785 
    2180    -2092    -6624   -10613   -13880   -16157   -16736   -15117 
  -11973    -8747    -6307    -4650    -3487    -2497    -1409     -202 
     794     1440     2230     3814     6597    10617    15082    18507 
   19956    19815    18857    17207    14693    11478     8231     5771 
    4258     3071     1473     -574    -2287    -3281    -4021    -4795 
   -5495    -6084    -6537    -6546    -5635    -3914    -2156    -1045 
    -895    -1525    -2334    -2982    -3719    -4782    -5693    -5736 
   -4892    -3672    -2519    -1670    -1220    -1256    -1853    -2869 
   -3786    -3820    -2573     -557     1295     2400     2568     1599 
    -819    -4601    -8980   -13115   -16632   -19181   -20060   -18871 
  -16115   -12765    -9516    -6655    -4471    -3455    -3679    -4138 
   -3631    -2115     -239     1576     2928     3347     2610     1017 
    -621    -1629    -2040    -2430    -3318    -4457    -4794    -3828 
   -2458    -1593     -991        8     1376     2593     3656     4966 
    6552     7935     8263     6920     4186     1075    -1419    -2926 
   -3546    -3419    -2846    -2540    -3204    -4877    -7042    -9286 
  -11668   -14174   -15978   -16164   -14840   -12726   -10284    -7809 
   -5834    -4873    -5200    -6924    -9442   -11535   -12699   -13199 
  -13099   -12554   -12133   -12137   -12473   -13107   -14097   -15221 
  -15875   -15902   -15863   -15910   -15574   -14871   -14448   -14739 
  -15693   -17007   -18282   -19446   -20834   -22327   -23178   -23007 
  -22044   -20562   -18813   -17217   -16125   -15426   -14625   -13477 
  -12352   -11736   -11497   -11040   -10166    -9311    -8877    -8639 
   -8016    -6957    -6315    -6986    -8883   -11039   -12474   -12831 
  -12281   -10743    -7789    -3579     1007     4961     7418     8145 
    7813     7267     6985     7136     7607     8234     9091    10268 
   11326    11207     9328     6446     3936     2705     2840     3829 
    5077     6120     6407     5525     3780     1908      369     -521 
    -305     1069     2853     4128     4635     4611     3990     2437 
     215    -1800    -2955    -2978    -1657      662     2779     3577 
    2625      182    -2785    -5393    -7590    -9646   -11498   -12764 
  -13097   -12530   -11535   -10480    -9113    -6952    -3850      -62 
    3626     6177     7205     7186     6489     4869     2524      680 
     362     1543     3712     6366     9045    11334    12892    13660 
   13856    13553    12620    11190     9818     9016     8815     8825 
    8503     7738     7262     7837     9132    10072    10312    10659 
   11760    13164    14028    14146    13915    13674    13501    13281 
   12774    11937    10986    10136     9414     8418     6438     3265 
    -348    -3224    -4697    -5167    -5505    -5936    -6135    -6138 
   -6396    -7035    -7651    -7932    -8202    -8962   -10038   -10726 
  -10668    -9967    -8892    -8137    -8609   -10511   -13226   -16174 
  -19020   -21022   -21238   -19575   -16762   -13369    -9607    -5968 
   -3193    -1663    -1366    -2197    -3991    -6413    -9114   -11768 
  -13986   -15598   -16503   -16416   -15320   -13557   -11409    -8993 
   -6574    -4616    -3103    -1434      479     2053     3045     3759 
    4495     5236     5740     5822     5532     5162     4636     3160 
     442    -2530    -4725    -6243    -7974   -10322   -12630   -14168 
  -14988   -15450   -15517   -14737   -12777   -10004    -7310    -5087 
   -3301    -2393    -2523    -2494     -875     2045     4823     7067 
    9371    12188    15082    16354    15227    13341    12209    11563 
   10826    10192     9787     9030     7375     4793     1451    -2226 
   -5525    -8349   -11288   -13964   -14884   -13686   -11818   -10408 
   -8769    -5987    -2656      395     3493     6822     9668    11920 
   14087    15670    15651    14278    12927    12351    11858    10334 
    7374     3234    -1670    -6874   -11677   -15260   -17282   -18147 
  -18426   -18384   -18395   -19032   -20213   -21165   -21562   -21838 
  -22230   -22351   -21818   -20558   -18557   -16317   -15231   -16091 
  -17985   -19678   -21090   -22876   -25078   -26656   -26580   -25030 
  -22948   -20630   -17742   -14581   -12298   -11605   -11684   -11048 
   -9382    -7721    -7011    -7118    -7248    -7120    -7121    -7271 
   -6887    -5144    -1872     2044     5328     7133     7393     6549 
    5154     3763     2732     2541     4058     7607    12286    16890 
   21212    25524    29032    30114    28249    25090    22902    22090 
   21491    20850    21349    23321    25074    25140    24248    24054 
   25030    26458    27847    29365    31253    33323    34847    35097 
   33939    31716    28834    25764    23118    21071    19009    16364 
   13185     9565     5399      845    -3571    -7662   -11961   -16697 
  -20903   -23152   -22892   -21003   -18858   -16816   -14417   -11889 
  -10195    -9865   -10582   -11443   -11756   -11809   -12370   -13812 
  -15894   -17904   -19335   -20372   -21311   -22082   -22411   -22199 
  -21933   -22133   -22303   -21340   -19038   -16429   -14381   -12649 
  -10767    -9127    -8740   -10111   -12484   -14398   -14960   -14475 
  -13741   -12987   -12201   -11570   -10999   -10140    -8532    -5646 
   -1550     3195     8423    14255    20070    24499    26606    26341 
   24012    20085    15529    11809     9948     9900    11118    13081 
   15269    17282    18820    19519    19044    17352    14959    12457 
    9872     7263     5307     4609     4939     5565     5805     5222 
    3833     1715    -1430    -5428    -9402   -12810   -15485   -17183 
  -18030   -18621   -19389   -20495   -21891   -23061   -23418   -22900 
  -21771   -20344   -18806   -17109   -15261   -13439   -11937   -11096 
  -10848   -10589    -9908    -9034    -8409    -8240    -8524    -9359 
  -11139   -14145   -18031   -21942   -25123   -27405   -29023   -30091 
  -30339   -29524   -27911   -25795   -23304   -21082   -19936   -20054 
  -21463   -24127   -27380   -30265   -31867   -31559   -29595   -26894 
  -24470   -22952   -22284   -22251   -22944   -24418   -26037   -26746 
  -26210   -24647   -21818   -17353   -11531    -5169      973     6345 
   10293    12174    11875    10173     8347     7105     6353     5690 
    4729     3559     2828     2994     3760     4629     5683     7270 
    9451    11975    14248    15623    15921    15401    14389    12902 
   10605     7474     3791     -428    -4456    -6559    -5994    -3699 
    -800     2505     6266     9511    10943    10464     8745     6324 
    3773     1787      817      842     1424     2219     3137     3502 
    2188    -1166    -5905   -10981   -15439   -18510   -19803   -19373 
  -17128   -13160    -8905    -6287    -5631    -5753    -5858    -6277 
   -7495    -9320   -11054   -12234   -13003   -13661   -14390   -15241 
  -16475   -18639   -21421   -23831   -25683   -27119   -27739   -27258 
  -26021   -24598   -23264   -21997   -20779   -19774   -19421   -20024 
  -21234   -22356   -22904   -22580   -21089   -18215   -14282   -10355 
   -7410    -5783    -5660    -6980    -8591    -8575    -5940    -1461 
    3616     8831    13853    17881    20102    20043    17799    13829 
    8562     2870    -1774    -4169    -4049    -2035      914     3877 
    5650     5106     2513     -733    -3528    -5072    -4607    -2125 
    1076     2951     2155    -1114    -5387    -8896   -10663   -10381 
   -7738    -2963     2528     7059     9759    10587    10224     9730 
    9856    10586    11298    11592    11261     9851     7440     4819 
    2500      272    -2679    -7064   -12528   -18001   -22925   -27214 
  -30258   -31053   -29380   -26182   -22333   -18065   -14267   -12395 
  -12616   -13773   -15065   -16605   -18360   -19562   -19689   -19206 
  -18896   -18854   -18507   -17597   -16362   -14757   -12710   -10925 
  -10022    -9636    -9245    -8697    -7953    -6998    -5579    -3580 
   -1621     -424     -198     -942    -2709    -5453    -8597   -10923 
  -11538   -10856    -9839    -8399    -5832    -2459      593     2741 
    4368     6284     8766    10982    11730    10813     9067     7142 
    5193     3198      858    -2190    -6119   -10888   -15879   -19908 
  -22024   -22040   -20285   -17376   -14319   -12549   -13269   -16624 
  -21793   -27267   -31241   -32798   -32249   -29934   -25884   -20667 
  -15306   -10574    -7074    -5332    -5502    -7452   -10962   -15519 
  -20179   -23881   -25810   -25436   -22792   -18929   -15251   -12294 
   -9937    -8126    -6497    -4296    -1166     2429     5565     7696 
    9090    10355    11815    13317    14323    14292    13186    11315 
    8816     5762     2621      399       27     1521     3877     5717 
    6358     6367     6599     7294     8580    10787    13815    16828 
   18974    19929    19678    18309    15963    12890     9548     6320 
    3174     -352    -4675    -9190   -12460   -13835   -14062   -14314 
  -15007   -15623   -15737   -15844   -16486   -17163   -17094   -16115 
  -14356   -11930    -8791    -4799     -283     3993     7263     8772 
    8202     6008     2838     -783    -4146    -6476    -7429    -6999 
   -5288    -2743       13     2725     5182     6986     8069     8516 
    8334     7733     6699     4866     2437      365     -692    -1121 
   -1896    -3567    -5923    -8337   -10152   -11037   -10941    -9832 
   -7881    -5482    -2964     -787      507      912      993     1402 
    2587     4474     6668     9059    11372    12647    12007     9232 
    4833      310    -2484    -2506      116     4330     8970    13184 
   16239    17953    18543    18019    16876    16121    16031    16072 
   15622    14195    11603     8027     3662    -1308    -6435   -11201 
  -15353   -18863   -21865   -24426   -26283   -26998   -26291   -24383 
  -22044   -20109   -19045   -18923   -19616   -20764   -21601   -21299 
  -19784   -18028   -17075   -17121   -18058   -20060   -23076   -26423 
  -29080   -30308   -30054   -28777   -27131   -25669   -24602   -23843 
  -23051   -21683   -19255   -15656   -11138    -6194    -1699     1150 
    1421     -698    -3753    -6168    -7226    -6913    -5438    -3233 
   -1214     -359     -767    -1771    -2882    -3921    -4796    -5715 
   -7073    -9304   -12702   -16681   -20041   -22130   -23051   -23259 
  -23188   -22976   -22645   -22441   -22811   -23938   -25239   -25702 
  -24879   -23198   -21482   -20185   -19050   -17822   -16789   -16113 
  -15292   -13666   -10965    -7141    -2337     2671     6618     8704 
    9198     8891     8097     6448     3670      109    -3780    -7828 
  -11692   -14743   -16622   -17383   -17145   -15798   -13231    -9937 
   -6832    -4476    -2816    -1364      288     2019     3637     5538 
    8314    11810    15040    17093    18003    18555    19112    19172 
   18229    16252    13593    11070     9588     9372     9943    10680 
   11042    10591     9175     6907     4144     1510     -382    -1279 
   -1408    -1224    -1407    -2979    -6402   -10763   -14458   -16240 
  -15685   -13188    -9409    -4836     -226     3235     4918     5347 
    5440     5625     5799     5690     5031     3652     1684     -309 
   -1461    -1177      393     2620     4671     5659     5178     3436 
     819    -2198    -4901    -6666    -7288    -6797    -5245    -2824 
      23     2619     4286     4890     4815     4251     3075     1174 
   -1547    -4943    -8246   -10344   -10773   -10048    -8805    -7300 
   -5650    -4070    -3215    -3926    -6266    -9427   -12552   -15266 
  -17615   -19697   -21440   -22820   -24026   -25286   -26947   -29454 
  -32768   -36324   -39485   -41761   -43214   -44482   -46038   -48045 
  -50646   -53785   -57185   -60536   -63500   -65751   -66938   -66677 
  -65126   -63401   -62349   -61360   -59720   -57758   -55721   -53459 
  -51006   -48070   -43884   -37974   -30567   -22538   -15143    -9565 
   -6415    -5530    -6341    -8254   -10663   -12829   -13901   -13274 
  -11170    -8590    -6486    -5233    -4881    -5293    -6044    -6684 
   -6726    -5347    -1842     3747    10691    17940    24522    29894 
   33688    35381    34858    33010    31243    30594    31169    31999 
   32312    32496    32744    32650    32453    32420    32148    31850 
   32154    32768    32998    32337    30685    28823    27550    26961 
   26998    27559    28195    28071    26370    23028    18911    14982 
   11414     7864     4248      871    -1724    -3103    -3345    -2789 
   -1655     -186     1359     2672     3186     2578     1224     -164 
    -965     -925     -220      784     1692     2288     2596     2595 
    2240     1711     1367     1539     2411     3956     5682     6502 
    5550     3214      886     -340     -388      213      924     1516 
    2095     2604     2702     2263     1489      743      468      922 
    2035     3580     5203     6672     8087     9235     9351     7957 
    5170     1232    -3544    -8685   -13744   -18213   -21472   -23136 
  -23312   -22578   -21510   -20342   -19222   -18167   -16980   -15515 
  -13564   -11007    -8184    -5443    -2948    -1206     -646     -860 
   -1266    -1868    -2889    -4471    -6596    -8929   -10979   -12331 
  -12487   -10954    -7655    -3000     2344     7659    12215    15416 
   17194    18073    18710    19419    20234    21105    21853    22269 
   22283    21768    20446    18139    14891    10999     6973     3341 
     315    -2370    -5008    -7650   -10255   -12641   -14604   -16131 
  -17141   -17383   -16912   -16224   -15869   -16168   -17004   -17950 
  -18749   -19289   -19336   -18710   -17664   -16925   -17199   -18903 
  -22227   -26869   -31998   -36786   -40805   -44085   -46933   -49476 
  -51305   -51815   -50897   -49153   -47414   -46052   -44826   -43369 
  -41768   -40188   -37938   -34166   -29254   -24394   -20709   -19098 
  -19541   -20984   -22904   -25644   -28874   -31544   -32976   -32717 
  -30517   -26886   -22489   -17506   -12111    -6602    -1186     3691 
    7193     8606     7820     5341     1875    -2168    -6487   -10421 
  -13417   -15567   -17276   -18877   -20511   -22145   -23641   -24726 
  -25169   -24794   -23296   -20571   -16887   -12714    -8711    -5599 
   -4007    -4260    -6128    -9002   -12262   -15219   -16899   -16658 
  -14918   -12594   -10210    -7824    -5250    -2653     -711      320 
     694      501     -236    -1440    -2890    -3731    -3049     -984 
    1681     4352     6607     8174     8863     8343     6602     4110 
    1597       11      -62     1341     3869     6896     9688    11891 
   13566    14809    15621    16029    16319    16948    18125    19489 
   20569    21513    22667    23937    25145    26439    27919    29154 
   29416    28388    26458    24453    23306    23650    25519    28457 
   31750    34574    36062    35656    33505    30281    26778    23700 
   21434    20006    19181    18374    16891    14462    11245     7528 
    3609     -276    -4062    -7989   -12378   -17057   -21437   -24999 
  -27455   -28886   -29515   -29467   -29250   -29637   -30826   -32344 
  -33544   -34048   -33926   -33322   -32294   -31175   -30403   -29945 
  -29161   -27271   -24130   -20442   -17141   -14714   -13018   -11823 
  -11329   -11559   -11767   -11068    -9275    -7026    -5377    -5173 
   -6754   -10031   -14528   -19462   -23927   -27366   -29927   -31902 
  -33196   -33783   -33970   -33864   -33275   -32063   -30051   -26921 
  -22471   -16905   -10847    -5087     -361     2826     4548     5389 
    5959     6741     7906     9048     9600     9308     8234     6810 
    5657     5195     5658     7162     9498    11997    13892    14875 
   15074    14821    14677    15186    16344    17665    18769    19424 
   19380    18775    17999    17310    17162    18020    19940    22718 
   26000    29285    31875    33035    32491    30540    27765    24734 
   21799    19244    17363    16127    15099    13748    11671     8758 
    5182     1247    -2760    -6789   -10918   -14980   -18613   -21588 
  -23750   -24795   -24631   -23802   -23091   -22981   -23572   -24789 
  -26484   -28289   -29729   -30459   -30303   -29277   -27560   -25565 
  -23866   -22736   -21931   -21020   -19799   -18347   -16881   -15582 
  -14434   -13511   -13261   -14028   -15608   -17508   -19331   -20821 
  -21692   -21631   -20456   -18212   -15259   -12098    -8964    -6002 
   -3627    -2166    -1572    -1722    -2371    -2945    -2972    -2277 
    -813     1236     3763     6859    10155    12921    14815    16049 
   16996    17681    17872    17854    18524    20503    23603    27123 
   30371    33094    35194    36121    35349    33100    30012    26759 
   23937    21784    20225    19116    18137    16848    15063    12846 
   10355     7719     4775     1306    -2534    -6391    -9919   -12777 
  -14786   -16004   -16626   -16905   -16978   -16802   -16301   -15467 
  -14305   -12683   -10492    -7995    -5591    -3388    -1282      674 
    2240     3284     3623     2986     1587      -47    -1694    -3308 
   -4712    -5666    -6112    -6133    -5774    -5293    -5273    -6131 
   -7814   -10086   -12542   -14413   -15102   -14636   -13187   -10821 
   -8005    -5703    -4693    -5028    -6191    -7653    -9220   -10731 
  -11937   -12783   -13294   -13573   -13924   -14416   -14733   -14589 
  -13904   -12700   -11076    -9161    -7064    -4988    -3133    -1426 
     176     1410     2159     2710     3507     4748     6335     8234 
   10347    12302    13785    14641    14842    14678    14492    14135 
