Origin Time       2011/03/11 14:46:00
Lat.              38.103
Long.             142.860
Depth. (km)       24
Mag.              9.0
Station Code      SZO023
Station Lat.      34.8736
Station Long.     137.8167
Station Height(m) 46
Record Time       2011/03/11 14:48:09
Sampling Freq(Hz) 100Hz
Duration Time(s)  236
Dir.              U-D
Scale Factor      3920(gal)/6182761
Max. Acc. (gal)   5.430
Last Correction   2011/03/11 14:47:54
Memo.             
[...]
  -24887   -24880   -24905   -24939   -24946   -24881   -24722   -24491 
  -24268   -24115   -24041   -24040   -24115   -24278   -24531   -24853 
  -25201   -25521   -25773   -25959   -26112   -26283   -26511   -26772 
  -27012   -27195   -27324   -27434   -27581   -27783   -27999   -28189 
  -28333   -28417   -28453   -28486   -28558   -28710   -28936   -29182 
  -29405   -29578   -29675   -29691   -29626   -29499   -29319   -29078 
  -28804   -28524   -28205   -27793   -27270   -26638   -25924   -25207 
  -24571   -24062   -23680   -23415   -23258   -23195   -23202   -23275 
  -23406   -23581   -23792   -24046   -24363   -24779   -25327   -25998 
  -26733   -27447   -28086   -28640   -29122   -29542   -29889   -30140 
  -30269   -30277   -30190   -30024   -29782   -29471   -29117   -28754 
  -28405   -28074   -27759   -27496   -27329   -27251   -27223   -27197 
  -27126   -26994   -26827   -26651   -26453   -26204   -25880   -25476 
  -25017   -24533   -24052   -23600   -23198   -22865   -22613   -22467 
  -22457   -22578   -22790   -23047   -23319   -23596   -23898   -24259 
  -24688   -25180   -25717   -26249   -26740   -27190   -27600   -27941 
  -28189   -28349   -28446   -28497   -28518   -28519   -28462   -28294 
  -28001   -27579   -27052   -26473   -25877   -25257   -24610   -23966 
  -23366   -22832   -22354   -21928   -21572   -21305   -21134   -21067 
  -21105   -21243   -21441   -21659   -21909   -22221   -22597   -23020 
  -23463   -23896   -24299   -24683   -25076   -25489   -25911   -26290 
  -26580   -26785   -26934   -27047   -27144   -27239   -27327   -27390 
  -27411   -27382   -27291   -27157   -27030   -26920   -26790   -26618 
  -26396   -26102   -25729   -25306   -24866   -24421   -23993   -23618 
  -23299   -23029   -22841   -22776   -22865   -23083   -23349   -23641 
  -23974   -24303   -24586   -24843   -25087   -25299   -25454   -25533 
  -25532   -25464   -25357   -25231   -25093   -24972   -24895   -24867 
  -24888   -24930   -24954   -24959   -24929   -24838   -24716   -24631 
  -24620   -24630   -24596   -24507   -24368   -24221   -24133   -24107 
  -24123   -24184   -24254   -24301   -24362   -24457   -24548   -24629 
  -24718   -24819   -24920   -25024   -25131   -25220   -25279   -25304 
  -25269   -25176   -25056   -24957   -24929   -24987   -25122   -25328 
  -25590   -25878   -26184   -26506   -26830   -27165   -27530   -27912 
  -28290   -28650   -28990   -29315   -29634   -29934   -30174   -30316 
  -30356   -30302   -30180   -30026   -29825   -29542   -29174   -28710 
  -28144   -27503   -26810   -26092   -25392   -24750   -24218   -23840 
  -23603   -23455   -23355   -23267   -23155   -23009   -22859   -22733 
  -22639   -22575   -22526   -22493   -22494   -22539   -22636   -22789 
  -22999   -23247   -23500   -23766   -24067   -24395   -24753   -25132 
  -25508   -25885   -26276   -26691   -27131   -27568   -27955   -28250 
  -28422   -28486   -28491   -28466   -28432   -28386   -28280   -28089 
  -27829   -27515   -27164   -26786   -26361   -25902   -25438   -24989 
  -24601   -24309   -24112   -24013   -24002   -24044   -24110   -24186 
  -24245   -24284   -24329   -24385   -24449   -24541   -24643   -24710 
  -24764   -24831   -24869   -24850   -24838   -24902   -25055   -25302 
  -25641   -26026   -26413   -26798   -27186   -27573   -27928   -28217 
  -28424   -28537   -28529   -28372   -28057   -27609   -27085   -26555 
  -26093   -25741   -25493   -25315   -25153   -24962   -24724   -24453 
  -24194   -24001   -23909   -23923   -24040   -24256   -24562   -24939 
  -25370   -25836   -26328   -26848   -27379   -27885   -28339   -28719 
  -29002   -29183   -29282   -29312   -29266   -29128   -28892   -28565 
  -28161   -27700   -27200   -26691   -26219   -25821   -25510   -25270 
  -25071   -24895   -24732   -24577   -24452   -24401   -24444   -24568 
  -24736   -24893   -24998   -25046   -25062   -25075   -25072   -25040 
  -25004   -25007   -25071   -25207   -25380   -25537   -25662   -25743 
  -25772   -25784   -25815   -25873   -25958   -26059   -26144   -26195 
  -26202   -26147   -26020   -25814   -25535   -25207   -24840   -24438 
  -24011   -23561   -23094   -22636   -22213   -21843   -21524   -21236 
  -20984   -20798   -20704   -20724   -20866   -21108   -21424   -21788 
  -22176   -22581   -23007   -23420   -23757   -23977   -24062   -24018 
  -23896   -23759   -23635   -23532   -23460   -23410   -23365   -23325 
  -23290   -23275   -23294   -23354   -23463   -23612   -23775   -23923 
  -24019   -24044   -24008   -23913   -23771   -23610   -23440   -23269 
  -23141   -23101   -23152   -23273   -23430   -23582   -23673   -23670 
  -23590   -23448   -23248   -23006   -22750   -22529   -22385   -22337 
  -22388   -22518   -22705   -22945   -23215   -23467   -23679   -23844 
  -23967   -24062   -24120   -24125   -24084   -24009   -23909   -23788 
  -23630   -23437   -23226   -23013   -22825   -22680   -22585   -22548 
  -22563   -22628   -22750   -22884   -22976   -23008   -22975   -22899 
  -22826   -22786   -22769   -22739   -22672   -22556   -22390   -22184 
  -21959   -21727   -21496   -21295   -21162   -21118   -21169   -21302 
  -21479   -21671   -21870   -22074   -22293   -22515   -22712   -22880 
  -23040   -23202   -23375   -23542   -23661   -23729   -23769   -23796 
  -23827   -23850   -23821   -23703   -23464   -23088   -22594   -22019 
  -21418   -20834   -20279   -19774   -19335   -18964   -18680   -18511 
  -18458   -18509   -18636   -18829   -19102   -19447   -19852   -20332 
  -20899   -21532   -22214   -22921   -23602   -24225   -24793   -25300 
  -25749   -26152   -26502   -26774   -26943   -26990   -26936   -26797 
  -26550   -26208   -25809   -25372   -24927   -24490   -24062   -23675 
  -23345   -23074   -22881   -22765   -22724   -22761   -22857   -22991 
  -23159   -23354   -23556   -23735   -23877   -23997   -24112   -24223 
  -24326   -24406   -24422   -24352   -24221   -24068   -23911   -23755 
  -23614   -23512   -23451   -23425   -23428   -23455   -23499   -23556 
  -23638   -23765   -23937   -24137   -24353   -24576   -24790   -25009 
  -25252   -25524   -25818   -26114   -26371   -26555   -26657   -26673 
  -26602   -26450   -26250   -26048   -25859   -25669   -25467   -25231 
  -24944   -24626   -24311   -24019   -23798   -23683   -23641   -23627 
  -23630   -23648   -23679   -23732   -23822   -23937   -24045   -24149 
  -24279   -24464   -24726   -25061   -25440   -25823   -26147   -26374 
  -26493   -26472   -26280   -25984   -25683   -25395   -25085   -24754 
  -24408   -24037   -23649   -23275   -22960   -22756   -22694   -22743 
  -22870   -23093   -23390   -23691   -23964   -24192   -24344   -24427 
  -24464   -24466   -24447   -24420   -24410   -24434   -24491   -24586 
  -24709   -24828   -24916   -24962   -24977   -24977   -24983   -25040 
  -25162   -25329   -25525   -25728   -25921   -26104   -26276   -26451 
  -26654   -26881   -27119   -27372   -27623   -27834   -27982   -28070 
  -28084   -27995   -27787   -27476   -27094   -26675   -26240   -25803 
  -25391   -25050   -24799   -24634   -24558   -24550   -24571   -24595 
  -24612   -24618   -24612   -24613   -24649   -24719   -24808   -24905 
  -25014   -25131   -25233   -25306   -25332   -25289   -25228   -25245 
  -25349   -25486   -25625   -25738   -25821   -25889   -25922   -25917 
  -25934   -26007   -26074   -26068   -25998   -25866   -25676   -25482 
  -25327   -25207   -25104   -24990   -24848   -24707   -24626   -24628 
  -24723   -24932   -25225   -25526   -25797   -26038   -26241   -26403 
  -26539   -26622   -26610   -26554   -26539   -26561   -26618   -26752 
  -26949   -27188   -27454   -27694   -27908   -28148   -28389   -28587 
  -28768   -28947   -29103   -29224   -29300   -29325   -29295   -29214 
  -29096   -28942   -28751   -28540   -28343   -28197   -28107   -28069 
  -28098   -28208   -28384   -28605   -28846   -29073   -29257   -29412 
  -29575   -29754   -29948   -30174   -30431   -30693   -30962   -31239 
  -31496   -31720   -31915   -32068   -32126   -32016   -31717   -31280 
  -30746   -30151   -29542   -28943   -28350   -27768   -27203   -26664 
  -26163   -25737   -25418   -25209   -25102   -25096   -25188   -25359 
  -25585   -25858   -26186   -26573   -27015   -27522   -28074   -28621 
  -29123   -29561   -29896   -30073   -30089   -29993   -29784   -29397 
  -28837   -28202   -27527   -26802   -26110   -25506   -24978   -24548 
  -24213   -23949   -23787   -23720   -23695   -23705   -23757   -23839 
  -23952   -24111   -24325   -24593   -24897   -25227   -25593   -25995 
  -26414   -26849   -27320   -27837   -28359   -28844   -29279   -29604 
  -29777   -29824   -29757   -29610   -29443   -29261   -29042   -28775 
  -28446   -28069   -27678   -27302   -26965   -26688   -26484   -26341 
  -26232   -26135   -26022   -25874   -25686   -25467   -25224   -24934 
  -24590   -24208   -23798   -23368   -22932   -22517   -22157   -21874 
  -21693   -21655   -21795   -22140   -22717   -23521   -24498   -25568 
  -26664   -27721   -28686   -29538   -30260   -30835   -31267   -31551 
  -31679   -31648   -31455   -31127   -30717   -30275   -29853   -29488 
  -29192   -28974   -28820   -28705   -28601   -28480   -28316   -28102 
  -27840   -27539   -27226   -26923   -26642   -26397   -26184   -25971 
  -25748   -25517   -25299   -25143   -25059   -25021   -25042   -25153 
  -25365   -25674   -26059   -26475   -26899   -27346   -27811   -28270 
  -28724   -29173   -29598   -29968   -30275   -30542   -30778   -30989 
  -31172   -31317   -31422   -31486   -31503   -31471   -31378   -31189 
  -30917   -30614   -30305   -29999   -29715   -29445   -29170   -28903 
  -28672   -28472   -28287   -28114   -27939   -27729   -27426   -26980 
  -26377   -25640   -24837   -24061   -23376   -22823   -22424   -22148 
  -21966   -21870   -21867   -21982   -22230   -22605   -23101   -23699 
  -24378   -25145   -25974   -26792   -27551   -28244   -28852   -29370 
  -29825   -30256   -30705   -31166   -31604   -31993   -32312   -32557 
  -32699   -32687   -32543   -32338   -32096   -31801   -31461   -31088 
  -30657   -30145   -29589   -29046   -28536   -28045   -27562   -27087 
  -26628   -26170   -25693   -25211   -24773   -24439   -24256   -24199 
  -24218   -24303   -24439   -24596   -24787   -25060   -25449   -25943 
  -26494   -27053   -27595   -28112   -28576   -28969   -29304   -29564 
  -29722   -29778   -29738   -29647   -29520   -29326   -29052   -28692 
  -28246   -27752   -27263   -26779   -26274   -25768   -25299   -24887 
  -24552   -24327   -24230   -24234   -24286   -24329   -24313   -24234 
  -24114   -23975   -23882   -23910   -24080   -24365   -24743   -25203 
  -25714   -26243   -26813   -27439   -28059   -28618   -29131   -29620 
  -30058   -30422   -30709   -30896   -30962   -30923   -30780   -30512 
  -30126   -29666   -29148   -28546   -27908   -27337   -26842   -26388 
  -25996   -25653   -25300   -24905   -24460   -24009   -23613   -23265 
  -22921   -22574   -22272   -22063   -21955   -22002   -22258   -22692 
  -23297   -24104   -25053   -26043   -27040   -27990   -28814   -29482 
  -30002   -30413   -30746   -30978   -31107   -31171   -31151   -30994 
  -30723   -30367   -29895   -29304   -28639   -27900   -27055   -26136 
  -25196   -24255   -23341   -22497   -21742   -21079   -20507   -20031 
  -19647   -19370   -19257   -19336   -19561   -19875   -20253   -20682 
  -21152   -21649   -22153   -22626   -23038   -23382   -23661   -23920 
  -24252   -24703   -25225   -25787   -26409   -27079   -27749   -28347 
  -28781   -29025   -29168   -29309   -29417   -29412   -29316   -29130 
  -28795   -28314   -27713   -27040   -26362   -25704   -25099   -24558 
  -24082   -23704   -23407   -23180   -23048   -22984   -22963   -23023 
  -23201   -23452   -23709   -23981   -24360   -24807   -25099   -25221 
  -25353   -25456   -25453   -25445   -25451   -25409   -25389   -25485 
  -25673   -25907   -26185   -26518   -26895   -27261   -27520   -27591 
  -27519   -27394   -27196   -26910   -26600   -26309   -26039   -25768 
  -25488   -25232   -25029   -24880   -24786   -24757   -24778   -24855 
  -25006   -25188   -25373   -25587   -25835   -26093   -26347   -26584 
  -26759   -26846   -26850   -26736   -26493   -26124   -25598   -24907 
  -24094   -23229   -22354   -21538   -20890   -20394   -20004   -19760 
  -19649   -19610   -19653   -19779   -19947   -20161   -20472   -20916 
  -21477   -22100   -22759   -23409   -23998   -24522   -24976   -25346 
  -25635   -25800   -25776   -25559   -25208   -24857   -24608   -24353 
  -24032   -23842   -23793   -23626   -23317   -23071   -23135   -23549 
  -23805   -23758   -23997   -24419   -24627   -24940   -25398   -25802 
  -26210   -26477   -26644   -26900   -27021   -27046   -27188   -27408 
  -27643   -27449   -27055   -27255   -27431   -27138   -26970   -26898 
  -26658   -26225   -25841   -25786   -25635   -25150   -24586   -23815 
  -22996   -22485   -22034   -21608   -21405   -21352   -21416   -21596 
  -21897   -22282   -22708   -23171   -23614   -24136   -24657   -25021 
  -25440   -25851   -25988   -26002   -26126   -26337   -26471   -26441 
  -26296   -26131   -25949   -25594   -24983   -24266   -23657   -23212 
  -22795   -22389   -22163   -22097   -22042   -22052   -22264   -22640 
  -23094   -23616   -24150   -24775   -25527   -26121   -26514   -26870 
  -27059   -27033   -26945   -26782   -26431   -25931   -25363   -24713 
  -24017   -23293   -22507   -21754   -21035   -20223   -19342   -18561 
  -18026   -17678   -17331   -17052   -17119   -17534   -18011   -18511 
  -19178   -19898   -20562   -21210   -21832   -22481   -23219   -23938 
  -24573   -25165   -25596   -25834   -26066   -26254   -26306   -26284 
  -26211   -26080   -25880   -25655   -25433   -25192   -24982   -24755 
  -24521   -24439   -24397   -24291   -24369   -24655   -24867   -25045 
  -25348   -25659   -25915   -26191   -26542   -26953   -27298   -27544 
  -27685   -27628   -27479   -27412   -27326   -27049   -26580   -26063 
  -25534   -24961   -24401   -23776   -23086   -22490   -21932   -21396 
  -21010   -20815   -20845   -21086   -21509   -22077   -22737   -23548 
  -24502   -25568   -26725   -27826   -28829   -29751   -30535   -31178 
  -31717   -32181   -32468   -32462   -32217   -31827   -31374   -30708 
  -29745   -28802   -27908   -26916   -25960   -25131   -24400   -23638 
  -22855   -22275   -21888   -21619   -21502   -21497   -21671   -22075 
  -22497   -22911   -23536   -24286   -25007   -25789   -26579   -27233 
  -27734   -28109   -28433   -28695   -28850   -28961   -29010   -28943 
  -28727   -28390   -28050   -27711   -27385   -27095   -26789   -26544 
  -26375   -26169   -25933   -25724   -25530   -25300   -24967   -24565 
  -24231   -23923   -23574   -23342   -23202   -22993   -22800   -22651 
  -22445   -22228   -22055   -21878   -21730   -21686   -21712   -21799 
  -22046   -22442   -22898   -23413   -23923   -24379   -24867   -25365 
  -25799   -26188   -26569   -26941   -27228   -27408   -27485   -27479 
  -27522   -27560   -27417   -27121   -26734   -26244   -25679   -25097 
  -24426   -23643   -22900   -22152   -21358   -20726   -20295   -19972 
  -19802   -19804   -19894   -20116   -20553   -21064   -21565   -22107 
  -22619   -23081   -23520   -23870   -24186   -24562   -24968   -25360 
  -25748   -26094   -26368   -26670   -27060   -27465   -27833   -28221 
  -28619   -28892   -29018   -29026   -28907   -28702   -28386   -28013 
  -27709   -27398   -27095   -26929   -26823   -26755   -26758   -26699 
  -26610   -26588   -26457   -26191   -25933   -25634   -25301   -25061 
  -24940   -24894   -24886   -24966   -25104   -25200   -25372   -25707 
  -26107   -26559   -27095   -27584   -27915   -28176   -28477   -28798 
  -29049   -29146   -29091   -28957   -28771   -28538   -28309   -28194 
  -28227   -28346   -28550   -28833   -29042   -29130   -29237   -29410 
  -29547   -29576   -29496   -29349   -29225   -29146   -29050   -28985 
  -28981   -28879   -28580   -28148   -27625   -27080   -26630   -26266 
  -25875   -25421   -25015   -24766   -24625   -24521   -24458   -24446 
  -24515   -24666   -24825   -25044   -25481   -26108   -26788   -27454 
  -28017   -28424   -28826   -29308   -29768   -30072   -30080   -29833 
  -29462   -29019   -28720   -28703   -28727   -28570   -28259   -27959 
  -27834   -27804   -27642   -27321   -26972   -26662   -26423   -26274 
  -26124   -25928   -25757   -25589   -25455   -25453   -25533   -25648 
  -25808   -25919   -25838   -25673   -25616   -25543   -25371   -25229 
  -25129   -25045   -25018   -25092   -25254   -25424   -25561   -25628 
  -25581   -25444   -25237   -25013   -24875   -24753   -24570   -24375 
  -24050   -23566   -23145   -22785   -22350   -21844   -21313   -20891 
  -20587   -20286   -20030   -19819   -19676   -19714   -19827   -20012 
  -20410   -20934   -21573   -22391   -23271   -24136   -25030   -25957 
  -26789   -27466   -28118   -28700   -29013   -29028   -28836   -28577 
  -28253   -27847   -27492   -27141   -26764   -26550   -26454   -26359 
  -26309   -26218   -25988   -25709   -25431   -25088   -24658   -24183 
  -23677   -23137   -22576   -22032   -21565   -21185   -20929   -20887 
  -20994   -21143   -21397   -21760   -22104   -22403   -22714   -22993 
  -23234   -23572   -24066   -24736   -25678   -26811   -27898   -28905 
  -29911   -30863   -31691   -32371   -32880   -33238   -33414   -33398 
  -33234   -32899   -32423   -31876   -31341   -30913   -30485   -29962 
  -29471   -29022   -28526   -27956   -27332   -26731   -26175   -25668 
  -25218   -24773   -24413   -24220   -24074   -23970   -24077   -24384 
  -24782   -25216   -25593   -25903   -26232   -26590   -26930   -27229 
  -27542   -27888   -28224   -28568   -28898   -29233   -29663   -30084 
  -30381   -30609   -30758   -30773   -30681   -30475   -30147   -29748 
  -29313   -28901   -28547   -28174   -27791   -27496   -27244   -26956 
  -26690   -26514   -26351   -26161   -25932   -25544   -25071   -24697 
  -24320   -23815   -23232   -22609   -22025   -21560   -21169   -20848 
  -20609   -20382   -20154   -20021   -20054   -20275   -20731   -21343 
  -21896   -22343   -22765   -23175   -23571   -23880   -24027   -24100 
  -24172   -24252   -24387   -24583   -24850   -25147   -25296   -25277 
  -25191   -25140   -25293   -25632   -25966   -26200   -26251   -25990 
  -25431   -24802   -24362   -24195   -24186   -24068   -23678   -23208 
  -22962   -22967   -22978   -22784   -22365   -21832   -21361   -21091 
  -21066   -21165   -21183   -21046   -20863   -20812   -20882   -20942 
  -20900   -20699   -20553   -20755   -21273   -21877   -22308   -22533 
  -22809   -23271   -23805   -24275   -24695   -25176   -25712   -26135 
  -26270   -26164   -26082   -26154   -26268   -26326   -26371   -26400 
  -26263   -25854   -25291   -24866   -24768   -24881   -24922   -24784 
  -24609   -24465   -24259   -23998   -23795   -23777   -23981   -24193 
  -24112   -23784   -23480   -23280   -23090   -22807   -22403   -21992 
  -21665   -21332   -20903   -20549   -20468   -20614   -20913   -21241 
  -21369   -21299   -21210   -21154   -21108   -21073   -21092   -21205 
  -21317   -21406   -21579   -21878   -22305   -22782   -23238   -23735 
  -24181   -24440   -24610   -24839   -25181   -25624   -26082   -26460 
  -26689   -26732   -26657   -26536   -26365   -26195   -26057   -25914 
