Origin Time       2011/03/11 14:46:00
Lat.              38.103
Long.             142.860
Depth. (km)       24
Mag.              9.0
Station Code      SZO019
Station Lat.      34.7705
Station Long.     137.9989
Station Height(m) 36
Record Time       2011/03/11 14:48:36
Sampling Freq(Hz) 100Hz
Duration Time(s)  299
Dir.              N-S
Scale Factor      3920(gal)/6182761
Max. Acc. (gal)   10.579
Last Correction   2011/03/11 14:48:21
Memo.             
[...]
  -55112   -55054   -54957   -54744   -54477   -54191   -53777   -53275 
  -52783   -52262   -51704   -51182   -50705   -50264   -49894   -49569 
  -49271   -49037   -48802   -48497   -48157   -47763   -47336   -46963 
  -46592   -46272   -46148   -46125   -46141   -46323   -46552   -46622 
  -46691   -46813   -46793   -46741   -46786   -46719   -46518   -46406 
  -46328   -46164   -46035   -45934   -45764   -45646   -45612   -45550 
  -45500   -45484   -45378   -45160   -44903   -44608   -44217   -43745 
  -43257   -42741   -42189   -41672   -41179   -40669   -40213   -39854 
  -39566   -39366   -39215   -39026   -38837   -38693   -38562   -38467 
  -38422   -38393   -38378   -38367   -38359   -38361   -38314   -38215 
  -38137   -38054   -37980   -38011   -38087   -38147   -38269   -38396 
  -38434   -38437   -38418   -38328   -38133   -37891   -37682   -37500 
  -37396   -37400   -37396   -37359   -37343   -37289   -37189   -37125 
  -37051   -36888   -36712   -36571   -36406   -36256   -36186   -36136 
  -36088   -36089   -36082   -36048   -36111   -36274   -36448   -36663 
  -36945   -37224   -37534   -37963   -38449   -38966   -39599   -40256 
  -40834   -41412   -41991   -42550   -43129   -43757   -44447   -45095 
  -45633   -46185   -46728   -47118   -47464   -47873   -48166   -48325 
  -48544   -48726   -48788   -48934   -49178   -49363   -49509   -49664 
  -49696   -49557   -49392   -49209   -48983   -48833   -48717   -48463 
  -48125   -47761   -47266   -46713   -46267   -45865   -45471   -45236 
  -45097   -44883   -44656   -44437   -44138   -43839   -43603   -43362 
  -43167   -43062   -42950   -42848   -42820   -42813   -42828   -42889 
  -42957   -43099   -43324   -43486   -43642   -43891   -44127   -44364 
  -44652   -44911   -45165   -45449   -45695   -45889   -46060   -46145 
  -46114   -46034   -45927   -45778   -45614   -45445   -45246   -45037 
  -44885   -44775   -44656   -44586   -44583   -44547   -44472   -44440 
  -44440   -44451   -44497   -44565   -44638   -44749   -44900   -45029 
  -45126   -45210   -45209   -45119   -45044   -44963   -44836   -44758 
  -44741   -44720   -44751   -44856   -44984   -45135   -45298   -45470 
  -45686   -45926   -46150   -46316   -46401   -46476   -46608   -46731 
  -46815   -46944   -47080   -47138   -47210   -47329   -47384   -47435 
  -47563   -47624   -47593   -47593   -47554   -47464   -47487   -47578 
  -47679   -47891   -48142   -48320   -48472   -48619   -48713   -48814 
  -49002   -49188   -49301   -49422   -49544   -49616   -49726   -49860 
  -49889   -49862   -49827   -49703   -49529   -49366   -49167   -48925 
  -48616   -48264   -48016   -47843   -47676   -47663   -47813   -47964 
  -48130   -48354   -48536   -48663   -48790   -48866   -48918   -49030 
  -49125   -49141   -49131   -49103   -49044   -49008   -49017   -49002 
  -48971   -48972   -48914   -48734   -48491   -48193   -47778   -47275 
  -46795   -46370   -46014   -45784   -45634   -45475   -45322   -45176 
  -44987   -44778   -44578   -44347   -44093   -43858   -43609   -43336 
  -43074   -42810   -42520   -42242   -42013   -41829   -41679   -41552 
  -41444   -41366   -41315   -41284   -41258   -41202   -41110   -40995 
  -40840   -40680   -40542   -40386   -40259   -40250   -40341   -40518 
  -40810   -41158   -41505   -41888   -42309   -42728   -43160   -43613 
  -44049   -44420   -44724   -44972   -45129   -45193   -45222   -45179 
  -45020   -44795   -44504   -44162   -43847   -43548   -43237   -42988 
  -42807   -42637   -42523   -42463   -42359   -42198   -41985   -41723 
  -41418   -41063   -40737   -40500   -40334   -40301   -40377   -40455 
  -40618   -40888   -41160   -41477   -41830   -42125   -42348   -42460 
  -42470   -42422   -42278   -42097   -41937   -41739   -41568   -41477 
  -41397   -41349   -41318   -41203   -41029   -40835   -40578   -40284 
  -39981   -39637   -39262   -38884   -38554   -38299   -38061   -37858 
  -37736   -37649   -37646   -37785   -37968   -38152   -38357   -38548 
  -38708   -38858   -38997   -39130   -39297   -39586   -40026   -40594 
  -41289   -42076   -42916   -43783   -44640   -45449   -46159   -46770 
  -47274   -47617   -47856   -48050   -48172   -48232   -48218   -48096 
  -47856   -47520   -47124   -46668   -46188   -45710   -45194   -44673 
  -44180   -43649   -43065   -42519   -42093   -41787   -41561   -41448 
  -41478   -41583   -41769   -42085   -42456   -42829   -43228   -43649 
  -44067   -44487   -44898   -45256   -45576   -45871   -46130   -46443 
  -46864   -47338   -47840   -48344   -48806   -49212   -49558   -49830 
  -50026   -50167   -50267   -50329   -50371   -50388   -50392   -50373 
  -50289   -50171   -49987   -49713   -49408   -49010   -48497   -47955 
  -47357   -46715   -46162   -45729   -45336   -44958   -44599   -44205 
  -43810   -43522   -43287   -43055   -42926   -42925   -43001   -43148 
  -43392   -43695   -43979   -44269   -44528   -44674   -44839   -45090 
  -45335   -45583   -45840   -46067   -46283   -46499   -46666   -46744 
  -46813   -46937   -47072   -47257   -47536   -47820   -48067   -48290 
  -48515   -48750   -48959   -49152   -49320   -49394   -49391   -49364 
  -49318   -49236   -49121   -49009   -48891   -48767   -48672   -48545 
  -48384   -48199   -47907   -47637   -47507   -47362   -47278   -47443 
  -47732   -48080   -48582   -49162   -49741   -50355   -50992   -51606 
  -52155   -52628   -53026   -53292   -53454   -53584   -53674   -53778 
  -53902   -53971   -54021   -54073   -54089   -54101   -54101   -54047 
  -53940   -53765   -53554   -53385   -53239   -53082   -52960   -52900 
  -52825   -52704   -52579   -52366   -52068   -51814   -51512   -51123 
  -50769   -50384   -49935   -49516   -49087   -48595   -48090   -47580 
  -47042   -46521   -46033   -45542   -45095   -44739   -44452   -44201 
  -43986   -43825   -43674   -43523   -43417   -43293   -43091   -42853 
  -42608   -42328   -42034   -41777   -41486   -41096   -40685   -40277 
  -39819   -39350   -38896   -38415   -37948   -37554   -37208   -36911 
  -36732   -36672   -36663   -36713   -36798   -36834   -36823   -36806 
  -36803   -36844   -36941   -37072   -37218   -37386   -37575   -37753 
  -37938   -38159   -38399   -38617   -38787   -38943   -39091   -39236 
  -39452   -39701   -39905   -40110   -40316   -40462   -40609   -40861 
  -41125   -41332   -41585   -41821   -41977   -42179   -42399   -42554 
  -42751   -43016   -43261   -43528   -43874   -44234   -44577   -44962 
  -45370   -45772   -46215   -46666   -47041   -47350   -47630   -47874 
  -48082   -48274   -48420   -48488   -48523   -48492   -48395   -48327 
  -48246   -48102   -47985   -47937   -47939   -48002   -48147   -48358 
  -48564   -48755   -48938   -49101   -49266   -49409   -49534   -49654 
  -49748   -49886   -50052   -50188   -50344   -50521   -50686   -50833 
  -50912   -50896   -50803   -50653   -50424   -50093   -49682   -49200 
  -48658   -48033   -47330   -46625   -45895   -45150   -44485   -43854 
  -43268   -42834   -42480   -42179   -42063   -42082   -42163   -42360 
  -42603   -42812   -43042   -43325   -43631   -43954   -44301   -44637 
  -44914   -45149   -45322   -45393   -45379   -45275   -45069   -44763 
  -44392   -44031   -43704   -43387   -43067   -42737   -42398   -42014 
  -41578   -41126   -40660   -40209   -39776   -39356   -39021   -38752 
  -38477   -38241   -38036   -37786   -37477   -37078   -36603   -36116 
  -35624   -35110   -34597   -34119   -33680   -33283   -32949   -32711 
  -32618   -32673   -32849   -33157   -33565   -34013   -34568   -35244 
  -35920   -36628   -37447   -38260   -38990   -39705   -40428   -41100 
  -41713   -42355   -43037   -43646   -44198   -44763   -45274   -45677 
  -46028   -46366   -46653   -46882   -47069   -47228   -47353   -47426 
  -47499   -47569   -47595   -47638   -47710   -47791   -47884   -47973 
  -48046   -48094   -48103   -48038   -47902   -47775   -47662   -47560 
  -47560   -47646   -47784   -48016   -48291   -48597   -48999   -49432 
  -49886   -50419   -50911   -51360   -51907   -52423   -52783   -53131 
  -53469   -53698   -53894   -54079   -54184   -54246   -54304   -54344 
  -54349   -54288   -54114   -53801   -53371   -52885   -52374   -51827 
  -51307   -50878   -50485   -50154   -49951   -49811   -49700   -49622 
  -49529   -49392   -49216   -49031   -48841   -48617   -48403   -48211 
  -47992   -47783   -47622   -47498   -47471   -47543   -47642   -47769 
  -47914   -48044   -48158   -48254   -48348   -48420   -48423   -48386 
  -48284   -48060   -47780   -47450   -47006   -46516   -46032   -45506 
  -44940   -44361   -43729   -42983   -42135   -41242   -40312   -39363 
  -38448   -37573   -36762   -36081   -35497   -34959   -34491   -34060 
  -33640   -33264   -32878   -32452   -32055   -31715   -31444   -31287 
  -31226   -31212   -31228   -31280   -31434   -31727   -32084   -32477 
  -32959   -33495   -34042   -34652   -35290   -35881   -36474   -37102 
  -37695   -38252   -38849   -39413   -39891   -40379   -40831   -41155 
  -41383   -41482   -41433   -41375   -41324   -41181   -41023   -40885 
  -40666   -40401   -40161   -39884   -39554   -39210   -38856   -38522 
  -38252   -38057   -37936   -37877   -37861   -37906   -38002   -38137 
  -38391   -38800   -39318   -39945   -40655   -41369   -42057   -42702 
  -43265   -43791   -44374   -44977   -45536   -46117   -46723   -47256 
  -47687   -48048   -48318   -48438   -48428   -48308   -48046   -47708 
  -47349   -46951   -46569   -46232   -45901   -45593   -45330   -45072 
  -44806   -44542   -44263   -43989   -43729   -43455   -43193   -42971 
  -42788   -42669   -42618   -42657   -42838   -43117   -43442   -43854 
  -44336   -44822   -45326   -45842   -46359   -46911   -47497   -48074 
  -48608   -49102   -49558   -49927   -50205   -50475   -50763   -51036 
  -51341   -51684   -51950   -52133   -52268   -52263   -52105   -51846 
  -51429   -50851   -50206   -49494   -48689   -47877   -47085   -46244 
  -45373   -44514   -43641   -42729   -41807   -40914   -40028   -39168 
  -38415   -37752   -37169   -36717   -36372   -36138   -36090   -36207 
  -36414   -36741   -37223   -37799   -38435   -39136   -39896   -40719 
  -41576   -42385   -43087   -43653   -44047   -44236   -44222   -44100 
  -43970   -43783   -43474   -43105   -42703   -42272   -41872   -41485 
  -41081   -40692   -40305   -39898   -39539   -39281   -39092   -38970 
  -38967   -39099   -39315   -39583   -39951   -40398   -40883   -41464 
  -42105   -42728   -43376   -44005   -44537   -45024   -45436   -45707 
  -45853   -45876   -45787   -45609   -45376   -45115   -44792   -44392 
  -43977   -43561   -43097   -42600   -42099   -41547   -40912   -40213 
  -39445   -38607   -37718   -36744   -35658   -34535   -33430   -32359 
  -31372   -30503   -29764   -29178   -28778   -28576   -28531   -28614 
  -28860   -29228   -29675   -30243   -30897   -31554   -32187   -32789 
  -33382   -33979   -34580   -35192   -35822   -36502   -37241   -38000 
  -38805   -39666   -40533   -41410   -42294   -43135   -43921   -44668 
  -45355   -45951   -46510   -47067   -47561   -47991   -48340   -48508 
  -48498   -48357   -48056   -47644   -47181   -46690   -46226   -45782 
  -45363   -45012   -44683   -44371   -44131   -43880   -43569   -43269 
  -42952   -42630   -42450   -42384   -42351   -42459   -42715   -43015 
  -43383   -43859   -44401   -44971   -45571   -46205   -46808   -47336 
  -47829   -48257   -48575   -48846   -49102   -49321   -49554   -49832 
  -50119   -50408   -50707   -50950   -51102   -51226   -51327   -51337 
  -51261   -51137   -50941   -50628   -50181   -49590   -48867   -48098 
  -47367   -46649   -45956   -45351   -44803   -44311   -43929   -43644 
  -43462   -43433   -43559   -43819   -44270   -44963   -45809   -46754 
  -47827   -48924   -49912   -50831   -51648   -52226   -52619   -52931 
  -53114   -53189   -53230   -53201   -53094   -52941   -52715   -52403 
  -52019   -51570   -51070   -50494   -49849   -49206   -48559   -47900 
  -47338   -46895   -46511   -46255   -46122   -45998   -45909   -45824 
  -45611   -45295   -44948   -44545   -44048   -43481   -42879   -42186 
  -41417   -40661   -39867   -39009   -38179   -37420   -36765   -36264 
  -35921   -35693   -35560   -35528   -35533   -35535   -35599   -35703 
  -35806   -35965   -36184   -36438   -36698   -36953   -37253   -37570 
  -37863   -38168   -38416   -38556   -38670   -38747   -38785   -38887 
  -39026   -39114   -39191   -39272   -39321   -39409   -39592   -39830 
  -40144   -40535   -40925   -41284   -41613   -41905   -42152   -42360 
  -42560   -42742   -42857   -42923   -42977   -43007   -43005   -42999 
  -42984   -42924   -42856   -42816   -42747   -42649   -42590   -42545 
  -42484   -42482   -42555   -42601   -42637   -42728   -42770   -42740 
  -42702   -42578   -42364   -42184   -42033   -41876   -41811   -41897 
  -42097   -42408   -42854   -43370   -43864   -44360   -44850   -45253 
  -45619   -46000   -46333   -46628   -46938   -47259   -47561   -47840 
  -48082   -48203   -48191   -48124   -48000   -47825   -47672   -47567 
  -47517   -47515   -47533   -47591   -47632   -47623   -47629   -47577 
  -47463   -47424   -47406   -47369   -47415   -47471   -47439   -47394 
  -47303   -47062   -46730   -46351   -45894   -45445   -45079   -44748 
  -44437   -44181   -43955   -43737   -43514   -43257   -42942   -42532 
  -42033   -41467   -40798   -40054   -39333   -38591   -37808   -37068 
  -36297   -35443   -34575   -33684   -32764   -31871   -31037   -30262 
  -29539   -28872   -28304   -27882   -27628   -27558   -27626   -27829 
  -28237   -28771   -29353   -30045   -30774   -31411   -32010   -32583 
  -33064   -33531   -33996   -34360   -34664   -34955   -35206   -35451 
  -35718   -35994   -36266   -36527   -36843   -37221   -37595   -38016 
  -38502   -38936   -39320   -39704   -40027   -40291   -40577   -40889 
  -41206   -41584   -42025   -42458   -42859   -43222   -43512   -43686 
  -43757   -43761   -43672   -43537   -43417   -43292   -43217   -43235 
  -43290   -43371   -43506   -43688   -43897   -44154   -44453   -44730 
  -44977   -45194   -45376   -45520   -45609   -45702   -45804   -45863 
  -45952   -46071   -46146   -46255   -46406   -46526   -46663   -46845 
  -47042   -47263   -47524   -47804   -48063   -48311   -48568   -48775 
  -48908   -49009   -49074   -49061   -48989   -48892   -48710   -48459 
  -48235   -47998   -47746   -47576   -47448   -47330   -47293   -47346 
  -47464   -47681   -48013   -48414   -48870   -49423   -50047   -50669 
  -51294   -51941   -52509   -52989   -53470   -53875   -54175   -54477 
  -54737   -54905   -55050   -55157   -55149   -55046   -54907   -54717 
  -54493   -54292   -54069   -53748   -53341   -52893   -52374   -51739 
  -51046   -50309   -49510   -48717   -47944   -47142   -46308   -45426 
  -44492   -43509   -42457   -41343   -40148   -38830   -37467   -36167 
  -34982   -33994   -33238   -32701   -32423   -32400   -32546   -32840 
  -33305   -33871   -34463   -35105   -35752   -36364   -37056   -37759 
  -38377   -39113   -39977   -40776   -41562   -42412   -43139   -43602 
  -43938   -44147   -44060   -43857   -43688   -43432   -43177   -43070 
  -43018   -42979   -43073   -43257   -43404   -43613   -43901   -44164 
  -44434   -44673   -44824   -44914   -44939   -44932   -44876   -44731 
  -44601   -44474   -44273   -44153   -44144   -44099   -44066   -44056 
  -43961   -43794   -43561   -43241   -42863   -42418   -41923   -41429 
  -40957   -40544   -40285   -40185   -40226   -40496   -40959   -41515 
  -42185   -42923   -43649   -44411   -45207   -45948   -46658   -47388 
  -48065   -48702   -49401   -50086   -50687   -51249   -51741   -52085 
  -52248   -52246   -52100   -51790   -51353   -50844   -50212   -49481 
  -48766   -48047   -47312   -46651   -46054   -45447   -44868   -44331 
  -43733   -43069   -42429   -41765   -41013   -40250   -39540   -38865 
  -38246   -37700   -37156   -36624   -36155   -35704   -35294   -34978 
  -34730   -34537   -34388   -34282   -34199   -34101   -34043   -34016 
  -33928   -33852   -33879   -33953   -34106   -34364   -34606   -34809 
  -35020   -35175   -35231   -35221   -35141   -34978   -34792   -34632 
  -34479   -34360   -34327   -34377   -34518   -34748   -35039   -35390 
  -35784   -36151   -36468   -36830   -37269   -37719   -38212   -38755 
  -39282   -39832   -40379   -40847   -41279   -41596   -41724   -41788 
  -41779   -41644   -41533   -41506   -41497   -41566   -41784   -42054 
  -42339   -42697   -43041   -43337   -43656   -43931   -44159   -44407 
  -44613   -44789   -45033   -45383   -45857   -46456   -47102   -47758 
  -48486   -49318   -50286   -51323   -52280   -53256   -54254   -55072 
  -55820   -56584   -57240   -57803   -58264   -58641   -59033   -59427 
  -59754   -59982   -60100   -60074   -59856   -59495   -59059   -58444 
  -57626   -56825   -56099   -55312   -54557   -53980   -53444   -52966 
  -52698   -52517   -52358   -52263   -52195   -52126   -51978   -51756 
  -51561   -51355   -51078   -50817   -50604   -50373   -50222   -50234 
  -50259   -50252   -50297   -50343   -50345   -50394   -50505   -50601 
  -50799   -51175   -51535   -51873   -52283   -52590   -52728   -52779 
  -52680   -52432   -52121   -51710   -51187   -50639   -50083   -49430 
  -48714   -48028   -47277   -46394   -45413   -44370   -43380   -42445 
  -41464   -40523   -39716   -38968   -38298   -37768   -37295   -36867 
  -36508   -36208   -36026   -35944   -35922   -35983   -36103   -36252 
  -36426   -36610   -36699   -36642   -36536   -36362   -36097   -35861 
  -35659   -35442   -35303   -35287   -35299   -35382   -35606   -35820 
  -35997   -36264   -36532   -36687   -36790   -36844   -36799   -36700 
  -36534   -36260   -35940   -35606   -35240   -34911   -34643   -34371 
  -34121   -33910   -33677   -33444   -33239   -33053   -32922   -32816 
  -32707   -32734   -32950   -33269   -33770   -34541   -35417   -36272 
  -37187   -38157   -39051   -39843   -40632   -41457   -42195   -42805 
  -43448   -44058   -44494   -44899   -45317   -45698   -46126   -46565 
  -46925   -47298   -47684   -47952   -48161   -48414   -48622   -48737 
  -48834   -48898   -48915   -48970   -49081   -49171   -49268   -49426 
  -49543   -49576   -49602   -49591   -49542   -49542   -49530   -49408 
  -49263   -49139   -48954   -48767   -48618   -48397   -48135   -47879 
  -47526   -47121   -46760   -46348   -45895   -45525   -45152   -44712 
  -44308   -43946   -43586   -43245   -42905   -42600   -42347   -42075 
  -41803   -41523   -41161   -40788   -40458   -40102   -39756   -39471 
  -39167   -38827   -38472   -38059   -37612   -37172   -36700   -36195 
  -35740   -35376   -35052   -34752   -34545   -34435   -34398   -34493 
  -34749   -35110   -35558   -36093   -36713   -37435   -38250   -39109 
  -39954   -40751   -41531   -42262   -42890   -43493   -44087   -44586 
  -45064   -45586   -46060   -46487   -46941   -47371   -47734   -48056 
  -48319   -48530   -48749   -48929   -49009   -49037   -48998   -48847 
  -48646   -48397   -48079   -47761   -47437   -47079   -46763   -46488 
  -46240   -46068   -45918   -45734   -45546   -45334   -45070   -44824 
  -44662   -44523   -44395   -44341   -44278   -44154   -44023   -43842 
  -43591   -43380   -43189   -42928   -42709   -42583   -42444   -42354 
  -42319   -42177   -42000   -41832   -41503   -41105   -40757   -40309 
