Origin Time       2011/03/11 14:46:00
Lat.              38.103
Long.             142.860
Depth. (km)       24
Mag.              9.0
Station Code      SZO003
Station Lat.      34.8158
Station Long.     139.0544
Station Height(m) 149
Record Time       2011/03/11 14:47:45
Sampling Freq(Hz) 100Hz
Duration Time(s)  294
Dir.              E-W
Scale Factor      3920(gal)/6182761
Max. Acc. (gal)   67.621
Last Correction   2011/03/11 14:47:30
Memo.             
[...]
   17170    10584     1834    -6750   -13372   -16930   -17024   -14038 
   -9446    -5365    -2711    -1955    -3827    -7327   -10981   -14761 
  -18165   -19867   -19648   -18132   -15370   -11036    -5920    -2110 
   -1195    -3349    -7575   -11710   -13535   -12161    -8165    -3076 
    1683     5104     6247     4845     1790    -1059    -1480     1515 
    6990    13116    17385    17931    15391    11073     5940     1608 
    -728    -1078     -271      340      -80     -991    -2011    -3963 
   -6397    -7714    -8234    -9108   -10536   -12434   -14103   -13898 
  -10263    -2631     7831    18425    26948    32214    33204    30136 
   24419    17887    13346    12558    14646    17700    19500    18252 
   14141     8810     3724     -739    -5503   -11507   -18335   -25090 
  -30580   -33218   -32622   -29344   -24296   -18823   -12946    -5496 
    3568    12642    20034    24944    26796    25770    23386    20730 
   17408    12737     6303    -1734   -10297   -18812   -26345   -29868 
  -27280   -19698    -9203     2255    11683    16792    17645    14770 
    8388     -627    -9609   -14749   -14097    -9008    -3098      245 
    -588    -5541   -12642   -19176   -23380   -24466   -23226   -21082 
  -18139   -14729   -11798    -9282    -7512    -7543    -8918   -10026 
   -9392    -5792      390     7148    12916    16206    15521    11548 
    7039     4501     4888     7780    12453    17763    21307    21211 
   17582    11896     7030     4991     5557     8842    14022    17784 
   17988    14837     9562     4420      935    -1294    -2862    -3769 
   -4166    -4419    -4742    -5594    -7908   -11962   -16750   -21179 
  -24529   -26057   -25289   -21611   -15371    -9380    -6030    -5782 
   -8407   -12168   -13751   -10160    -1118     9970    18646    22239 
   20496    14860     6861    -2236   -10243   -14898   -15678   -13307 
   -9552    -6921    -6585    -8237   -10773   -11910    -9539    -3658 
    3594     9806    13765    14968    13721    11401     9265     8032 
    8198     9741    12380    15735    18113    17254    13216     8200 
    3897      585    -1763    -2686    -1873      331     3463     7214 
   10855    13675    16327    19764    22958    23567    19852    11186 
   -1540   -15096   -25751   -32168   -34567   -33709   -31043   -28305 
  -27159   -27400   -27253   -25821   -22944   -18679   -13150    -6904 
   -1481     2719     6648     9646    10244     8070     3881       54 
   -1085     1111     6262    12365    16749    18764    19210    18856 
   18028    16262    12857     7326     -141    -8026   -14678   -19718 
  -23531   -26079   -26480   -24097   -19628   -14835   -11170    -8467 
   -5798    -2728     1003     5612    10707    15498    19678    23350 
   26828    30649    34486    36565    35531    31599    24495    13294 
   -1208   -16498   -29270   -36460   -37111   -32516   -25486   -18958 
  -13785   -10176    -8888    -8467    -6053     -740     5828    11500 
   15554    17522    16685    13193     8114     3340      275    -1409 
   -2555    -2924    -1577     1077     2968     2398     -876    -6024 
  -11817   -16873   -19660   -19093   -15003    -8095      427     8744 
   14624    17482    18285    17432    15254    12754    10649     8015 
    2409    -7002   -17702   -26624   -32777   -36063   -35637   -30900 
  -22670   -13110    -4450     2788     8794    12449    12575     9916 
    6423     2789    -1516    -5496    -7304    -6888    -5182    -2469 
    1432     6376    11319    15453    20169    27097    35114    41728 
   44845    42942    35861    24951    12427      613    -8911   -15035 
  -16899   -15031   -12130   -11319   -13682   -18397   -23752   -27840 
  -28808   -24810   -16086    -5959     2063     6482     7759     8164 
    9954    13192    17077    20611    21548    18192    11133     2355 
   -5973   -12804   -18575   -23675   -27743   -30215   -30562   -28593 
  -24743   -20095   -15778   -12516   -10488    -8490    -4991      271 
    6937    14151    20760    26253    29996    31304    30605    28261 
   23803    16879     7475    -3531   -14404   -23508   -29463   -31513 
  -29637   -24379   -17169    -9451    -1633     6140    13367    19295 
   22583    21638    15677     5529    -6602   -18425   -27967   -33547 
  -34777   -33086   -30600   -28844   -28910   -31133   -33574   -33013 
  -27656   -17954    -5799     6979    19063    28905    34659    34816 
   29295    19865     9184     -176    -6028    -7472    -5605    -2307 
     838     2105     -110    -5390   -11850   -18325   -23346   -25162 
  -23127   -17412    -8623     2851    15235    25331    31913    35021 
   34427    30614    24648    17904    11954     7380     3646       79 
   -4234    -9706   -15227   -18488   -17588   -13205    -6928      136 
    4524     3729      338    -4194    -9844   -13260   -13445   -12617 
  -11263   -10133   -10502   -12951   -17857   -23962   -29133   -32352 
  -32940   -29821   -23562   -15926    -6803     2921    10076    13212 
   12511     9922     8516     9491    12766    16848    19756    20579 
   18677    15244    11518     6200    -1307    -9875   -17505   -22261 
  -25294   -29345   -34333   -37855   -37572   -32365   -23203   -12280 
   -1235     8339    14562    17878    20340    22000    21644    18968 
   14985    11445     9206     7796     6920     7027     7728     7773 
    6373     3293    -1105    -6048   -10167   -12290   -12800   -12498 
  -12485   -13966   -16264   -17492   -16706   -14292   -10971    -6872 
   -1747     3425     6796     7826     6809     4511     2424     1536 
    1993     3437     5180     6561     7381     7881     7748     6160 
    3044    -1273    -6246   -10636   -13763   -15758   -16899   -17381 
  -16778   -15025   -12686   -10199    -8132    -6107    -2662     2351 
    7376    10841    11583     9339     5827     3225     2327     2594 
    2745     2679     3732     6414    10020    13110    13824    11522 
    6881      229    -7836   -15650   -22043   -26613   -28566   -27411 
  -24109   -19842   -14939    -9493    -3368     2821     7310     9776 
   10876    10180     7715     4358      487    -3340    -5462    -4176 
     272     5779    10315    13332    15764    17398    16161    11385 
    4525    -2044    -6049    -7271    -6720    -4811    -2092      549 
    2949     5473     7170     6864     6260     7791    12020    18187 
   23625    25107    21006    11308    -1879   -14894   -24334   -28034 
  -25841   -19212    -9661      624     7959    10031     7553     2441 
   -3145    -7782   -11626   -15490   -20214   -25523   -29114   -28563 
  -23673   -16659    -9310    -1294     7350    15261    20732    22381 
   20345    15648     9492     3872      853      980     3079     6333 
   10669    14417    15146    12577     7907     1934    -4909   -12341 
  -19483   -25071   -28955   -31527   -32599   -31581   -28676   -24871 
  -20229   -14008    -5805     3628    12202    17520    17576    11823 
    2306    -7087   -13308   -15739   -14565    -9872    -1978     8066 
   17419    23281    24851    22703    18081    12252     6543     1864 
   -2285    -6447    -9706   -10585    -8678    -5061     -942     3469 
    7760    10419    10334     7271     1220    -7218   -16579   -24628 
  -29123   -29472   -26946   -23255   -19304   -15192   -11293    -8230 
   -6085    -4024       71     7466    16386    23965    28498    29676 
   27926    23472    16492     8105      194    -6112   -10402   -11992 
  -10792    -7998    -5304    -4374    -6175    -9600   -12611   -14811 
  -16531   -17312   -16496   -13438    -7745        7     8493    16304 
   22346    26424    29260    31474    32872    32812    30818    26742 
   20841    13530     5200    -2803    -8475   -11479   -13317   -15388 
  -17960   -20776   -24144   -28227   -31911   -33604   -32299   -27640 
  -19589    -8858     2462    11769    17324    18996    17600    13909 
    9417     5891     3584     1574    -1407    -6583   -13493   -19813 
  -23779   -24553   -21391   -14350    -4064     8163    19814    28519 
   32611    30945    24769    17671    11916     8156     6872     6746 
    5673     2951    -1617    -7344   -12018   -13581   -11756    -8011 
   -3682     1236     6843    12310    16030    16118    11907     4710 
   -3248    -9483   -12329   -12417   -11501   -10698   -11019   -13802 
  -19450   -26840   -33939   -38420   -38831   -35562   -30148   -23951 
  -17475   -10401    -2324     6726    16551    26852    37109    46380 
   53445    57500    57906    53842    45463    34751    24628    17225 
   12170     7042      297    -7966   -17471   -27307   -35759   -41747 
  -44349   -42061   -35118   -26547   -19210   -13878    -9607    -5213 
    -966     2427     4754     6328     8383    11356    14047    14862 
   12958     8738     2765    -4343   -11640   -18487   -24221   -28191 
  -29544   -26940   -20412   -11911    -3694     2222     4815     4458 
    2177       59      510     4750    13135    24351    34986    41852 
   43479    39854    31984    20733     6911    -7090   -18516   -26360 
  -30600   -31062   -27732   -22138   -16967   -13306   -10101    -6470 
   -2980     -591      526     1272     2911     5606     8606    11341 
   13272    13634    11799     7579     1547    -4936   -10841   -15915 
  -19759   -22262   -23724   -23605   -20906   -15367    -8231    -2104 
    1291     2959     4747     6252     5809     3722     1515      -58 
    -264     1384     4161     6241     5366      560    -7143   -15315 
  -20897   -22103   -19819   -15520    -9295    -1797     5759    13681 
   21674    28210    33052    36471    38527    38850    35420    27642 
   18039     8225    -2171   -13086   -22737   -28354   -29146   -27277 
  -25704   -26702   -30275   -33640   -34236   -31381   -25368   -17406 
   -9131    -1999     3009     5778     5981     2852    -3732   -12413 
  -20269   -25293   -27349   -26383   -22872   -18624   -14986   -11503 
   -7045    -1114     5868    12792    18689    23286    26116    26194 
   23613    19065    13124     7398     2828    -1555    -6388   -10239 
  -10171    -5267     2022     9047    14197    16555    16500    15195 
   13537    12052    11417    12276    14554    17192    17884    14490 
    7037    -3309   -15293   -27030   -37164   -45966   -54165   -61631 
  -67241   -69967   -69290   -64887   -57259   -46816   -33325   -16749 
    2484    21654    37846    51568    63140    70771    72429    66436 
   53683    37212    18585    -1182   -19166   -32701   -41112   -43604 
  -39343   -29727   -17695    -6047     2796     7077     7323     7156 
    9475    13540    17468    19798    19662    17493    14660    12716 
   11809    10656     8557     5920     3390      333    -4340    -9774 
  -13902   -15368   -14079   -10616    -5456      456     5955    11601 
   17011    18702    15698     9466       77   -10767   -19649   -24417 
  -25283   -24667   -24341   -24095   -23367   -22873   -23631   -24797 
  -25836   -26655   -24988   -19778   -10722     3818    20898    34572 
   42314    43708    39785    32925    24560    15487     7265     1901 
    -257    -1175    -2341    -3300    -3149    -1281     2707     7982 
   13026    16869    18244    16910    14094     9830     3609    -4666 
  -14778   -24252   -29388   -28428   -21931   -12898    -5647    -2687 
   -4212    -8674   -13411   -16480   -16299   -11560    -3216     6095 
   13099    14650    10028     1740    -5594    -8363    -6756    -2857 
    2004     7008    11078    13709    15892    18579    21464    23426 
   22514    17662    10487     3722     -661    -1947     -190     4262 
    9876    14565    17283    16914    13137     8711     6164     4572 
    1480    -4719   -13276   -21739   -28137   -31434   -31790   -29922 
  -26463   -23301   -22161   -22643   -23693   -24382   -24185   -23133 
  -20869   -17006   -11363    -3958     3899    10474    15392    19141 
   22131    24136    23706    19620    12900     5471    -2104   -10137 
  -18395   -25897   -30890   -31444   -27109   -19278   -10383    -3060 
     891      814    -3636   -12527   -23637   -32180   -34433   -30152 
  -21195    -9554     2340    11161    14877    13781     9372     4678 
    3446     7608    16900    29329    41593    50678    55522    56237 
   52336    44150    33769    23169    13622     5429    -1940    -7520 
   -9728   -10033   -10498   -10473    -9171    -6790    -4048    -2122 
   -1529    -2621    -5998   -11648   -17878   -21806   -21957   -18372 
  -11797    -4194     1915     4524     2725    -2780   -10483   -19185 
  -26084   -27351   -22185   -12651    -2702     3349     4224      563 
   -6671   -14873   -21002   -23780   -23784   -21819   -17300   -10233 
   -2617     4306    10705    16601    21999    26670    29886    31732 
   32846    33505    34481    35951    36277    33738    27732    18948 
    9215      228    -6593   -10174   -11895   -13914   -16571   -20604 
  -26236   -31749   -35666   -35858   -29807   -16927     1697    22367 
   38998    48116    50525    46976    38123    27889    19831    12891 
    5082    -2885   -10168   -18528   -29629   -41610   -51123   -56455 
  -57055   -53420   -47054   -38734   -28882   -18205    -7615     1082 
    6948    10074     9068     4209    -1498    -7775   -14825   -20610 
  -26115   -33000   -38662   -40585   -38043   -30134   -17028     -598 
   15718    28082    35070    39113    43864    50473    59152    69706 
   78792    82579    80243    72045    56874    34056     5189   -26844 
  -57120   -80915   -97708  -107482  -107972   -99023   -83931   -65246 
  -44408   -24239    -6587     8961    22873    36225    50559    64121 
   73011    75639    71366    61255    50598    41959    33072    24589 
   18748    14419     8072    -4834   -25302   -48552   -68849   -81158 
  -82689   -75066   -60404   -42107   -26307   -15034    -5682     4342 
   16183    28763    39767    48046    53680    55234    51366    43446 
   32733    20475     8547    -2311   -11006   -17574   -23225   -25842 
  -25649   -25098   -20845   -13130    -6273      148     4451     4944 
    3212    -1112    -6386    -9358    -9394    -6378      175     9500 
   18812    25526    27658    23790    14908     2585   -10610   -21809 
  -30231   -33351   -30275   -24542   -17476    -9928    -3875      358 
    2260     2888     5077     9597    15774    22742    29747    35087 
   36660    34867    30632    25037    19936    14927     8750     1404 
   -6247   -13707   -21768   -30015   -36518   -39127   -36083   -28825 
  -20653   -13149    -6311     1190     9977    18370    24894    28415 
   27980    24468    19219    13786     9774     6110      572    -7016 
  -15635   -24607   -32734   -37291   -36502   -31541   -24115   -14975 
   -5502     2413     8045    11647    14668    20056    28886    39352 
   49281    55691    56433    52717    46441    38681    30179    21309 
   11801      535   -11404   -20375   -24993   -26206   -25386   -24854 
  -25740   -27094   -28494   -29204   -27537   -23803   -18827   -12123 
   -5266    -1310    -1195    -4558   -10151   -14430   -13981    -8331 
    1282    13240    25073    33910    38320    38206    33614    25117 
   13579      443   -10404   -14555   -11615    -4495     4201    11955 
   15868    14097     6594    -4027   -14381   -23573   -31646   -37632 
  -41343   -43522   -42795   -37249   -28211   -18091    -8371      320 
    8684    17095    24398    29050    31115    31900    31810    31644 
   32666    35036    38162    39661    36600    28094    15195     -151 
  -16592   -33024   -48925   -64145   -76532   -83356   -82503   -73725 
  -60346   -45522   -30974   -18766    -9519    -1173     7941    16517 
   24161    32203    39630    45041    48585    49734    47223    41053 
   32887    24718    18224    13542     9225     4668     -523    -6595 
  -11667   -15348   -19486   -22672   -23203   -22363   -19288   -13279 
   -6518     1128    10317    19014    25117    26860    22694    13423 
    2045    -9439   -20953   -31494   -38470   -41712   -44136   -45948 
  -43427   -34532   -20520    -3794    12354    23841    27910    25705 
   21361    18272    17597    19754    24988    31919    37831    40490 
   37723    27870    11752    -8132   -28224   -44775   -56099   -61960 
  -62603   -58203   -48414   -34722   -20014    -5742     7065    17942 
   27560    35797    41798    44123    41925    36344    28003    17606 
    7505     -900    -7444   -12710   -18306   -24087   -28185   -30965 
  -34013   -37081   -38472   -35538   -27570   -17874    -9891    -5255 
   -4342    -5473    -5327     -949     8331    21240    34972    46237 
   54524    59828    59879    54228    43915    28738    10063    -8974 
  -26068   -40107   -50938   -58048   -59952   -55732   -46037   -33590 
  -21168    -9446      660     6986     8104     4469    -2286   -10556 
  -18414   -24336   -28191   -30756   -32466   -31440   -26056   -17399 
   -6389     5694    16865    26069    32026    35070    36631    36049 
   32502    25984    17026     6659    -4887   -17302   -28568   -36245 
  -39378   -37526   -31004   -22035   -12931    -5676    -1426      715 
    2352     4189     5601     6177     5981     4479     2035     -163 
   -1941    -3920    -5659    -4788     -359     5697    12148    18791 
   25166    31547    37837    42216    42608    38389    30918    21799 
   11722     1612    -8260   -17760   -25808   -32601   -38160   -41425 
  -42732   -42873   -42729   -42821   -42309   -40011   -34173   -24545 
  -13423    -2856     4915     8233     7103      842   -10855   -25893 
  -40535   -51191   -55795   -53580   -45719   -34655   -21809    -8778 
    2377    11551    19373    25232    28730    29354    25838    18361 
    7689    -5312   -17506   -25686   -28287   -24126   -13667      546 
   15523    27861    34710    36175    34088    29444    23033    16596 
   11300     7369     5699     5286     3193     -989    -6723   -14041 
  -21720   -28066   -31476   -31216   -28480   -25486   -24613   -26639 
  -29517   -30981   -29986   -25758   -18263    -8028     4311    17308 
   29439    39553    46854    51584    53804    52956    49473    43895 
   35695    24858    12331     -972   -14265   -27019   -38456   -46810 
  -50624   -49761   -44506   -35244   -22962    -9505     2873    12356 
   17710    18750    16967    14345    12111    10724     9402     6533 
    1552    -5246   -13246   -21268   -29426   -38245   -45881   -50101 
  -49653   -44159   -35121   -24398   -13488    -4170     2834     7917 
   11246    12781    13616    15992    20448    24236    23722    17912 
    8605    -2221   -13667   -25481   -36481   -44613   -48862   -48503 
  -42423   -31401   -18344    -5675     5523    15364    25096    35080 
   44270    52007    57172    57966    54761    48685    38696    24381 
    7201   -11282   -28714   -42881   -53055   -58191   -57390   -52272 
  -45487   -38416   -32233   -27910   -23791   -16890    -6981     4320 
   16319    27351    33947    33852    27051    14938      165   -14741 
  -27572   -35032   -35653   -31870   -26546   -21196   -16174   -10969 
   -5688     -240     6244    13021    18172    21049    21673    20094 
   16866    12428     7370     2726     -851    -3522    -5935    -8444 
  -11539   -15464   -19851   -25211   -31679   -37394   -39847   -37935 
  -32988   -27348   -23063   -21166   -20294   -18041   -13294    -6311 
