Origin Time       2011/03/11 14:46:00
Lat.              38.103
Long.             142.860
Depth. (km)       24
Mag.              9.0
Station Code      SZO002
Station Lat.      34.9653
Station Long.     139.1030
Station Height(m) 46
Record Time       2011/03/11 14:47:54
Sampling Freq(Hz) 100Hz
Duration Time(s)  239
Dir.              N-S
Scale Factor      3920(gal)/6182761
Max. Acc. (gal)   43.712
Last Correction   2011/03/11 14:47:39
Memo.             
[...]
  -50182   -50333   -49269   -46628   -43096   -39515   -36682   -35600 
  -36965   -40935   -46800   -53315   -59920   -66392   -72171   -76373 
  -78241   -78752   -80462   -85017   -91366   -95961   -95446   -89443 
  -80886   -73323   -68149   -65080   -62247   -57441   -51490   -46696 
  -44722   -46849   -52010   -57184   -60935   -64341   -68706   -73557 
  -77599   -80681   -83278   -84741   -84181   -81649   -78303   -76935 
  -78825   -81164   -80517   -75210   -66051   -56781   -50879   -49129 
  -50085   -52214   -54828   -56796   -58080   -59201   -60062   -60992 
  -60978   -59917   -59541   -59879   -61232   -63728   -65613   -65869 
  -64506   -63105   -63763   -66338   -69469   -71391   -71040   -68125 
  -62508   -56597   -54016   -56161   -61333   -66273   -69939   -72633 
  -74370   -76450   -79524   -82490   -83842   -82754   -80385   -78575 
  -78023   -77176   -72798   -63681   -51718   -40334   -32934   -30551 
  -31918   -35136   -38254   -40149   -41200   -42976   -46282   -50154 
  -54356   -59996   -67548   -76609   -86423   -96589  -106903  -115385 
 -118463  -114460  -105575   -95765   -87593   -81939   -78808   -76809 
  -74302   -71293   -68317   -65628   -63554   -60934   -55837   -49123 
  -43795   -41567   -41913   -43113   -43918   -44707   -46217   -47755 
  -48739   -49731   -50928   -52267   -53424   -53579   -53297   -54377 
  -57794   -63336   -69267   -72616   -71613   -67307   -62167   -58112 
  -56554   -57465   -59076   -60590   -62705   -66459   -72225   -78816 
  -84216   -85634   -81277   -72771   -63120   -55152   -51002   -50766 
  -53082   -55845   -57273   -57189   -56248   -55173   -54492   -54665 
  -56711   -61473   -68287   -75429   -82241   -88983   -94224   -95878 
  -93908   -89706   -85029   -81819   -81585   -84489   -88686   -91151 
  -89935   -85870   -81048   -75637   -68386   -59440   -50653   -43993 
  -40568   -40802   -44118   -48236   -50304   -48909   -45050   -41647 
  -41363   -45019   -51682   -59163   -65698   -70505   -73058   -73821 
  -73105   -70091   -65000   -59784   -57028   -58234   -62627   -67763 
  -70462   -69181   -65139   -60564   -58216   -59539   -63209   -67767 
  -72721   -77472   -80235   -78861   -73759   -67773   -63700   -62662 
  -63631   -65004   -66171   -67100   -67140   -65387   -62618   -60254 
  -58301   -56912   -57728   -62581   -70929   -79237   -84333   -85972 
  -85911   -85794   -86180   -86980   -87700   -87905   -87669   -86883 
  -85081   -81773   -76914   -71557   -67082   -63793   -60524   -55814 
  -49587   -43325   -39058   -37998   -39834   -43368   -47507   -51643 
  -55855   -61188   -68456   -76675   -83803   -88354   -90104   -90444 
  -91215   -92847   -94707   -95619   -94080   -89317   -81351   -71265 
  -61551   -53879   -47826   -42463   -37615   -33884   -31364   -29522 
  -29019   -30940   -34573   -38071   -40996   -45006   -52062   -62973 
  -76699   -90341  -100556  -104731  -102595   -97132   -91922   -88824 
  -87781   -87310   -85862   -82565   -77994   -73887   -70650   -67041 
  -62088   -56088   -50550   -47307   -47316   -50299   -55697   -62541 
  -68044   -69160   -65500   -59695   -55425   -54766   -57867   -63830 
  -70543   -75637   -78114   -78369   -77024   -74445   -71317   -68519 
  -66593   -65779   -65951   -66884   -68580   -70916   -73513   -75886 
  -77495   -77896   -76602   -72863   -66715   -60296   -56737   -57862 
  -63273   -70638   -76443   -77301   -72017   -62567   -52810   -46260 
  -44127   -46110   -52068   -60759   -70022   -78826   -86465   -91733 
  -93895   -93083   -89837   -84777   -79375   -75736   -74575   -74649 
  -74184   -72521   -70223   -67440   -63871   -59991   -56338   -52788 
  -49659   -48180   -49317   -52731   -56779   -59466   -59811   -58580 
  -57932   -59378   -61935   -63621   -64162   -65543   -69846   -76709 
  -83335   -86597   -85267   -80444   -74480   -69838   -67532   -66963 
  -66728   -64851   -60941   -57180   -55466   -55844   -56659   -55842 
  -53882   -53808   -58326   -67948   -80065   -90039   -94703   -94554 
  -92157   -89541   -87350   -84710   -80220   -73682   -66108   -58792 
  -52745   -48146   -43950   -38784   -32562   -26563   -22760   -22909 
  -27016   -33257   -39322   -43758   -46875   -50257   -55330   -62178 
  -69080   -73562   -74541   -73224   -71690   -71394   -72480   -73497 
  -73138   -72025   -72387   -76428   -83566   -90322   -93218   -90194 
  -81835   -72172   -65704   -63778   -64652   -66108   -66563   -64820 
  -61305   -58023   -56445   -56796   -58573   -61496   -65872   -71211 
  -76061   -79864   -83178   -86230   -88693   -90134   -90003   -87937 
  -84634   -81787   -80294   -79738   -79537   -78797   -76491   -72651 
  -68435   -65536   -64991   -66324   -68269   -69612   -69292   -66548 
  -62232   -59697   -62332   -69867   -78141   -82493   -81274   -76626 
  -71916   -69014   -68199   -68726   -69612   -70688   -71779   -72571 
  -73288   -72575   -67863   -59770   -51759   -46139   -43586   -44174 
  -47096   -51271   -56351   -62097   -67646   -71616   -73028   -72684 
  -72510   -73522   -75492   -77965   -80569   -82670   -83176   -80164 
  -72076   -60204   -48564   -41442   -40901   -45222   -49502   -49035 
  -43716   -38107   -36783   -41291   -49566   -57578   -62860   -65265 
  -66240   -68156   -71904   -76092   -78449   -77145   -72456   -67456 
  -65641   -67524   -70724   -72764   -72287   -69621   -67031   -66529 
  -67880   -69068   -68454   -66940   -66921   -69915   -75616   -80963 
  -82804   -81191   -77295   -73378   -72612   -74863   -78322   -81711 
  -82336   -78357   -71756   -67403   -69094   -75980   -83979   -88107 
  -85014   -76239   -66914   -61655   -61216   -62020   -59960   -54285 
  -47652   -43648   -44552   -49189   -53839   -56546   -57349   -57841 
  -61299   -68215   -75857   -81410   -82846   -80603   -76621   -72989 
  -71982   -73612   -76061   -77486   -76917   -75496   -74302   -73514 
  -72781   -70383   -65679   -60546   -58584   -62125   -68692   -74124 
  -75922   -73692   -69397   -65247   -63520   -66157   -72067   -78145 
  -81631   -81259   -77294   -70580   -62885   -57061   -55695   -59159 
  -65254   -71041   -73923   -73117   -70434   -67982   -66824   -67392 
  -69410   -72083   -74879   -76974   -76959   -74959   -72246   -69276 
  -66270   -63260   -60361   -58611   -58991   -61417   -64826   -68002 
  -70023   -70295   -69474   -69558   -72072   -76357   -80009   -81033 
  -79177   -75680   -72232   -69883   -68655   -68003   -68193   -70014 
  -72857   -75154   -75668   -74083   -71382   -68910   -67615   -67619 
  -67918   -67023   -63775   -58431   -52822   -48879   -47242   -47102 
  -47566   -48451   -49750   -51623   -54089   -56160   -56675   -55815 
  -54840   -54825   -55488   -55734   -55576   -55389   -55176   -55972 
  -58321   -61134   -62896   -61803   -58008   -54273   -53007   -55715 
  -61905   -68902   -74269   -76025   -74112   -71178   -69685   -69849 
  -69595   -67898   -66566   -67414   -70947   -75776   -79848   -82841 
  -84728   -85495   -86235   -87753   -89170   -88255   -84199   -78839 
  -74175   -70877   -68352   -65939   -64014   -63090   -63224   -63640 
  -63407   -62887   -62062   -60080   -57449   -55407   -55168   -57880 
  -63402   -70568   -77450   -81594   -81575   -77702   -72224   -68055 
  -66499   -67164   -68748   -69793   -69608   -67868   -64343   -59321 
  -53633   -48931   -46892   -47495   -48923   -49762   -50810   -53671 
  -58996   -65903   -72467   -77199   -78806   -77143   -74931   -75543 
  -80731   -89259   -96734   -99260   -95979   -88628   -80005   -72403 
  -67313   -64591   -62831   -61771   -62019   -63604   -65733   -66957 
  -66733   -65461   -63171   -60758   -60081   -61253   -62434   -62249 
  -61054   -60991   -64032   -69491   -74795   -77142   -75254   -70714 
  -66402   -65288   -69338   -77066   -84069   -86275   -82908   -77330 
  -73532   -72085   -71240   -70417   -70035   -69115   -66405   -62672 
  -59490   -56851   -53016   -47484   -42349   -39733   -40201   -42479 
  -44114   -44285   -44572   -46691   -51157   -56992   -62802   -68626 
  -74181   -77469   -77323   -74762   -72398   -72587   -75032   -77340 
  -77045   -72746   -65354   -58590   -56645   -60371   -66976   -72547 
  -73719   -69976   -63911   -58425   -55279   -54464   -54772   -55311 
  -56048   -58168   -62737   -69187   -75636   -79470   -79553   -78055 
  -78385   -82166   -88191   -93384   -94707   -91156   -84566   -78379 
  -75371   -75225   -75118   -72998   -68578   -63352   -60321   -61411 
  -65668   -70136   -72420   -72344   -71592   -72439   -74907   -76408 
  -74791   -69623   -62539   -56060   -51620   -50007   -50788   -52035 
  -52374   -52107   -53179   -56740   -60911   -62597   -59804   -53281 
  -46122   -40976   -39009   -39369   -39503   -37837   -34992   -32854 
  -33017   -35978   -41164   -46547   -49977   -51651   -54142   -59771 
  -67524   -73645   -75644   -73735   -69731   -66209   -65287   -67459 
  -71205   -74498   -76295   -76165   -75271   -75730   -77482   -79158 
  -80061   -79213   -75806   -70718   -65596   -61849   -60196   -59427 
  -57558   -54413   -51345   -49751   -50027   -51090   -51845   -53027 
  -56706   -63680   -71558   -77318   -81120   -84759   -89029   -94038 
  -99074  -102613  -103396  -101226   -97078   -92195   -87386   -82849 
  -78120   -73106   -68234   -63558   -59475   -56664   -55566   -56898 
  -60465   -65230   -70395   -74292   -75658   -75102   -73510   -71436 
  -69505   -69078   -70967   -73525   -75102   -75433   -74759   -74232 
  -74501   -74541   -72823   -69031   -64724   -62144   -63383   -68730 
  -76109   -82976   -85953   -83349   -77687   -71831   -67747   -66171 
  -65267   -63783   -62187   -61424   -62641   -65805   -69510   -71769 
  -71477   -69372   -66612   -64107   -62003   -60173   -59349   -59406 
  -59840   -61067   -62807   -64628   -66216   -65938   -62942   -59053 
  -56321   -55014   -54440   -54530   -56520   -61013   -66348   -71021 
  -75025   -78094   -79622   -79194   -76975   -74426   -72805   -71445 
  -68557   -63033   -55096   -46787   -41242   -39834   -41678   -44709 
  -46460   -45570   -42289   -38793   -38095   -40469   -43462   -45073 
  -45300   -46139   -49557   -56275   -65771   -75402   -82245   -84743 
  -82159   -76029   -69559   -65154   -64781   -68512   -73077   -75628 
  -75313   -71341   -63683   -53934   -44067   -35578   -30400   -29991 
  -32920   -36984   -40992   -44502   -48943   -55086   -61755   -67911 
  -71862   -72731   -72704   -74358   -78147   -82587   -85523   -85076 
  -80904   -75337   -70293   -65222   -59403   -53083   -48426   -47574 
  -49687   -53545   -58158   -61567   -62311   -60451   -58495   -59608 
  -64328   -70364   -75106   -78774   -82783   -87155   -91591   -94551 
  -93652   -88959   -82988   -78158   -75744   -76283   -78306   -79389 
  -79137   -77686   -75494   -74156   -74244   -74899   -74050   -70192 
  -65024   -61848   -62257   -63825   -63125   -60407   -57833   -57613 
  -60752   -65766   -70965   -74736   -75827   -74343   -70992   -67649 
  -65039   -62072   -59032   -57307   -58474   -62316   -66500   -70046 
  -73223   -76120   -77614   -76225   -73873   -73787   -76564   -80520 
  -83177   -84119   -84313   -84055   -84074   -84323   -83450   -80013 
  -73196   -64422   -56539   -52383   -53113   -56438   -59812   -62945 
  -66279   -69712   -72198   -72655   -70992   -68270   -66025   -64881 
  -64326   -62701   -58633   -53019   -47442   -42980   -40068   -37881 
  -35856   -34879   -36541   -41066   -46336   -50937   -55483   -60543 
  -66107   -71582   -75922   -78482   -79196   -78924   -79109   -80550 
  -83284   -86522   -89529   -91926   -92314   -89937   -85316   -79235 
  -73791   -70506   -69124   -69407   -71132   -74016   -76596   -75737 
  -70240   -61970   -52852   -44026   -36637   -31989   -31139   -33109 
  -35960   -40082   -46500   -54519   -62776   -69444   -73723   -77282 
  -81693   -86489   -90199   -92692   -94561   -95688   -97658  -101365 
 -103921  -102671   -96096   -83786   -68866   -56217   -48815   -45706 
  -43975   -42082   -40399   -41289   -45376   -49468   -51374   -50231 
  -45751   -40805   -38917   -40918   -45772   -52363   -60728   -70797 
  -81273   -90919   -97842  -100352   -98948   -94800   -90619   -89465 
  -90721   -91701   -89573   -82579   -72011   -60543   -50441   -43451 
  -40154   -40836   -45175   -50694   -55139   -57368   -56853   -55963 
  -57557   -61926   -68382   -75825   -83305   -89985   -94808   -97413 
  -97326   -94537   -89224   -81020   -72148   -65182   -60288   -57508 
  -56041   -55534   -55939   -54874   -50888   -44296   -36178   -28514 
  -22594   -19541   -19766   -22516   -26811   -31293   -35738   -40081 
  -43350   -46377   -51139   -58522   -67968   -77792   -86461   -93197 
  -98208  -101882  -103724  -103198   -99730   -93393   -86184   -80766 
  -78815   -79403   -80076   -80140   -80271   -81313   -83622   -86637 
  -90725   -96592  -102766  -106432  -105283   -98565   -87584   -74878 
  -63232   -54833   -50038   -46938   -43363   -39128   -35242   -32559 
  -31548   -32696   -37413   -46489   -58263   -70575   -82056   -91376 
  -97726  -101509  -104072  -106288  -107218  -104657   -96773   -84405 
  -70807   -58119   -47129   -38584   -31819   -25750   -20477   -15394 
  -10135    -6044    -3907    -4369    -8557   -16561   -27922   -41045 
  -53280   -64104   -75085   -86302   -95586  -101970  -106911  -111721 
 -117037  -123031  -128948  -133566  -135169  -132305  -124810  -113322 
  -99463   -85879   -74485   -65524   -59296   -56945   -57718   -58687 
  -58044   -56013   -54510   -56179   -61875   -70270   -80543   -93265 
 -105822  -111682  -108181   -98955   -88378   -78321   -68906   -59736 
  -49808   -38462   -26817   -17384   -13282   -15270   -19384   -21408 
  -20609   -18129   -16278   -17209   -21818   -31033   -44424   -59486 
  -73848   -86378   -97508  -106914  -111445  -109418  -103063   -94883 
  -87015   -81909   -79554   -77522   -74033   -67600   -56763   -43149 
  -30340   -19874   -12326    -9666   -13157   -21254   -31351   -40339 
  -45701   -48614   -52052   -58645   -69939   -83368   -94670  -102802 
 -108683  -112409  -113497  -112198  -108703  -102437   -94517   -87193 
  -81060   -76141   -71205   -63612   -53416   -42719   -32720   -25132 
  -21505   -20515   -20437   -21290   -23649   -29107   -38529   -50314 
  -62521   -72821   -79323   -82886   -85434   -87833   -89638   -90712 
  -91858   -93113   -93972   -93168   -89413   -83381   -75947   -68425 
  -62476   -57972   -54777   -52297   -48846   -44691   -41479   -39654 
  -38730   -38750   -39661   -41690   -46346   -52733   -58012   -61727 
  -63501   -62258   -59697   -58153   -56369   -53611   -52273   -52754 
  -55051   -59506   -62717   -62305   -59327   -53863   -46426   -39677 
  -35217   -33212   -33746   -35339   -36191   -37291   -39410   -40943 
  -41548   -42526   -45360   -50818   -57387   -64076   -71466   -78121 
  -82387   -84829   -85909   -86254   -87420   -89758   -92522   -94765 
  -95243   -94683   -96044  -100319  -105748  -110339  -112552  -112101 
 -110659  -110369  -111579  -112813  -112671  -110403  -105771   -99035 
  -90610   -80583   -69086   -57831   -48961   -43261   -40877   -41145 
  -43057   -46209   -49618   -52236   -54336   -56659   -59723   -63818 
  -68797   -73692   -76705   -76713   -74392   -71240   -68557   -67050 
  -66488   -66185   -65848   -65291   -64438   -63739   -62816   -60472 
  -56572   -51690   -46546   -42314   -39591   -38001   -37348   -37905 
  -39429   -40775   -41094   -41147   -43444   -49823   -58641   -66913 
  -73231   -77051   -78023   -76249   -73056   -70227   -67644   -64362 
  -60456   -56911   -55486   -56783   -59014   -60344   -59952   -57618 
  -55010   -54818   -57416   -60678   -62555   -62958   -63589   -65516 
  -67567   -67715   -65371   -62243   -60837   -62112   -65640   -71083 
  -77193   -81845   -84097   -83373   -79686   -74897   -70378   -66656 
  -64460   -63757   -63766   -63319   -61723   -59199   -56143   -53660 
  -53445   -56906   -64031   -72474   -79880   -85246   -87607   -86412 
  -82005   -75077   -66979   -59931   -55304   -52420   -50247   -48662 
  -48393   -50029   -52066   -51914   -47903   -39915   -31122   -26720 
  -29675   -39341   -51830   -62025   -67333   -67973   -65110   -61241 
  -58936   -58033   -56836   -54671   -52513   -52706   -56398   -61588 
  -65290   -65827   -63689   -61033   -59408   -59160   -60279   -62124 
  -63454   -63854   -64402   -65816   -66999   -66645   -64394   -60435 
  -55665   -50998   -47078   -45106   -45974   -49410   -54249   -59129 
  -63344   -66415   -68222   -69469   -70762   -72430   -74781   -78176 
  -83126   -89304   -95021   -98149   -97565   -93664   -88286   -84629 
  -84288   -85491   -85691   -83312   -78289   -71443   -62839   -52250 
  -40768   -30778   -23946   -20371   -19894   -21756   -24038   -25470 
  -26264   -27762   -32227   -41252   -53732   -66362   -76691   -84418 
  -90421   -95912  -100932  -104515  -105973  -104611  -100548   -94834 
  -89001   -84804   -81281   -76120   -69102   -60153   -49901   -40447 
  -33169   -29268   -29153   -32269   -37949   -44295   -49676   -53713 
  -56739   -59995   -64218   -70186   -78822   -88722   -97324  -103522 
 -107495  -109001  -107479  -104034  -100703   -99039   -99423   -99659 
  -96956   -90879   -82894   -75411   -70850   -69968   -71227   -72311 
  -72383   -72376   -73699   -76756   -80331   -82515   -81742   -78364 
  -75196   -74625   -76567   -79731   -83286   -86810   -89477   -90500 
  -89505   -86638   -82714   -78232   -73512   -68919   -64042   -58685 
  -53172   -47519   -42134   -38199   -37157   -39422   -43238   -46326 
  -47639   -46763   -43965   -40943   -39864   -41932   -47089   -54362 
  -62186   -69397   -76007   -82191   -87482   -90990   -91874   -90505 
  -88486   -87071   -86300   -85150   -81761   -74582   -63519   -49373 
  -33605   -18474    -6677     -188     1134    -1836    -8263   -16192 
  -23775   -30393   -36929   -45082   -54861   -65189   -74821   -81850 
  -85860   -87945   -88917   -89250   -88816   -87081   -83789   -79524 
  -75410   -72556   -72334   -74956   -79309   -84156   -87468   -88106 
  -86629   -84154   -82676   -82973   -83912   -84760   -84992   -83836 
  -81339   -78067   -74087   -69837   -65999   -62512   -59932   -58387 
  -56142   -52000   -46645   -42466   -41235   -41814   -42468   -42420 
  -41580   -40541   -39939   -40346   -41400   -42492   -44374   -47301 
  -50301   -52210   -51999   -49153   -44262   -39846   -38470   -40237 
  -43194   -44644   -43401   -40272   -36880   -35317   -36384   -39819 
  -45480   -52476   -60361   -69234   -77776   -83976   -86719   -86090 
  -82686   -77638   -72723   -69408   -69337   -72790   -76948   -78856 
  -76659   -70146   -62237   -56938   -56921   -62131   -69740   -76430 
  -80443   -82495   -84184   -85586   -85790   -83810   -78853   -71932 
  -65849   -62226   -59879   -56752   -52647   -49411   -48957   -51838 
  -57436   -64597   -72011   -78748   -84226   -88066   -90532   -91736 
  -91101   -89206   -88143   -89458   -93239   -98020  -101615  -102640 
 -100441   -95403   -89461   -84679   -81975   -81283   -81941   -82607 
  -82070   -80327   -78404   -77596   -78091   -78733   -78324   -76146 
