Origin Time       2011/03/11 14:46:00
Lat.              38.103
Long.             142.860
Depth. (km)       24
Mag.              9.0
Station Code      SZO004
Station Lat.      34.6471
Station Long.     138.8193
Station Height(m) 51
Record Time       2011/03/11 14:48:00
Sampling Freq(Hz) 100Hz
Duration Time(s)  235
Dir.              E-W
Scale Factor      3920(gal)/6182761
Max. Acc. (gal)   11.418
Last Correction   2011/03/11 14:47:45
Memo.             
[...]
   21457    21109    20405    19316    18219    17582    17560    18067 
   18976    20092    21090    21643    21665    21289    20620    19744 
   18889    18371    18334    18555    18734    18918    19394    20245 
   21093    21386    20929    19892    18549    17272    16433    16175 
   16426    17114    18264    19784    21178    21820    21514    20561 
   19427    18559    18281    18591    19128    19573    19908    20246 
   20636    20984    21160    21269    21593    22305    23299    24151 
   24473    24281    23745    22872    21705    20538    19738    19503 
   19811    20488    21301    21994    22324    22129    21394    20239 
   18845    17371    15978    14805    13987    13723    14143    15194 
   16675    18246    19572    20500    20911    20587    19429    17729 
   16028    14624    13408    12226    11153    10419    10153    10272 
   10633    11142    11735    12339    12860    13272    13579    13671 
   13355    12523    11378    10405     9886     9735     9893    10450 
   11455    12840    14367    15713    16624    16883    16412    15518 
   14689    14240    14275    14758    15533    16433    17353    18302 
   19293    20204    20907    21438    21818    21889    21502    20851 
   20419    20524    21055    21747    22506    23252    23666    23371 
   22332    20899    19474    18354    17783    17932    18789    20141 
   21644    22890    23559    23628    23342    22948    22571    22349 
   22453    22839    23165    23129    22698    21985    21153    20430 
   20075    20199    20635    21112    21412    21327    20708    19625 
   18364    17184    16203    15585    15481    15705    15794    15427 
   14608    13461    11997    10259     8532     7112     6128     5724 
    6049     7017     8282     9455    10304    10727    10638    10122 
    9593     9584    10362    11754    13457    15414    17636    19855 
   21646    22853    23695    24364    24772    24872    24869    24963 
   25176    25489    25985    26712    27533    28261    28822    29140 
   29064    28502    27557    26437    25297    24307    23680    23473 
   23585    23867    24118    24148    23790    22899    21514    19925 
   18562    17818    17761    18069    18418    18764    19189    19609 
   19762    19506    18941    18172    17244    16340    15736    15443 
   15177    14823    14673    15009    15643    16171    16490    16743 
   16919    16893    16694    16491    16391    16366    16329    16244 
   16154    16115    16114    15996    15575    14886    14139    13488 
   13006    12682    12473    12470    12787    13360    14031    14671 
   15160    15380    15344    15366    15914    17171    18921    20862 
   22784    24488    25722    26286    26222    25750    25064    24356 
   23843    23688    23946    24510    25111    25499    25619    25500 
   25051    24150    22924    21696    20662    19717    18698    17700 
   16974    16569    16270    15895    15427    14783    13756    12278 
   10581     9067     8037     7546     7559     8098     9081    10219 
   11225    11914    12149    11856    11080     9995     8849     7857 
    7264     7356     8212     9598    11225    12900    14359    15211 
   15170    14277    12797    11046     9489     8693     8980    10269 
   12191    14240    16009    17330    18102    18160    17411    16053 
   14626    13649    13258    13318    13748    14533    15511    16374 
   16949    17325    17596    17640    17361    16878    16345    15849 
   15498    15463    15906    16776    17734    18444    18838    18984 
   18803    18084    16839    15420    14292    13822    14087    14870 
   15951    17238    18651    19933    20727    20869    20445    19615 
   18543    17516    16854    16575    16416    16176    15869    15616 
   15366    14852    13980    13022    12390    12329    12763    13407 
   14097    14902    15901    16962    17809    18211    18131    17691 
   17001    16116    15072    13915    12830    12117    11941    12229 
   12753    13354    14053    14848    15625    16256    16641    16745 
   16653    16594    16870    17551    18398    19140    19631    19840 
   19814    19610    19380    19381    19715    20290    21028    21819 
   22429    22626    22352    21805    21260    20743    20121    19485 
   19104    19064    19224    19477    19891    20491    21086    21533 
   21920    22263    22335    21985    21371    20713    20036    19299 
   18521    17743    17052    16631    16692    17224    17879    18353 
   18708    19088    19390    19400    18986    18170    17053    15658 
   14044    12436    11054     9941     9030     8314     7833     7474 
    6995     6230     5311     4610     4391     4712     5539     6699 
    7940     9076     9918    10317    10329    10105     9725     9274 
    8915     8831     9107     9652    10329    11120    12045    13059 
   14082    15029    15807    16359    16736    17090    17508    17955 
   18459    19064    19653    20085    20408    20871    21668    22668 
   23610    24430    25103    25418    25149    24280    22969    21387 
   19698    18115    16780    15665    14685    13842    13213    12774 
   12373    11914    11382    10858    10612    10804    11267    11738 
   12068    12234    12152    11634    10802    10157    10061    10463 
   11161    12159    13585    15282    16848    18017    18795    19357 
   19806    20163    20557    21063    21477    21576    21469    21453 
   21667    22092    22682    23286    23583    23274    22344    21068 
   19687    18338    17300    16934    17354    18288    19301    20155 
   20779    21007    20603    19450    17677    15689    13986    12903 
   12500    12598    12999    13666    14530    15272    15593    15556 
   15400    15134    14532    13539    12495    11776    11404    11227 
   11308    11854    12851    13958    14872    15705    16676    17592 
   18049    17928    17438    16857    16258    15570    14893    14463 
   14403    14672    15115    15568    15926    16083    16000    15717 
   15286    14870    14743    15082    15845    16781    17641    18348 
   18870    19092    18936    18513    18130    18104    18510    19139 
   19782    20444    21191    21984    22746    23476    24265    25170 
   26058    26693    26983    26980    26715    26206    25594    25146 
   25059    25250    25484    25625    25599    25291    24624    23632 
   22474    21404    20625    20180    20037    20174    20505    20813 
   20916    20779    20315    19324    17891    16559    15795    15498 
   15218    14713    14196    13996    14118    14300    14371    14365 
   14333    14249    14090    13827    13391    12713    11870    11170 
   10902    11120    11720    12474    13036    13159    12857    12264 
   11358    10060     8621     7582     7342     7874     8821     9844 
   10766    11408    11606    11378    10848    10087     9142     8131 
    7287     6914     7230     8278     9913    11824    13679    15269 
   16475    17211    17474    17449    17462    17803    18579    19632 
   20703    21687    22539    23114    23293    23112    22783    22525 
   22340    22132    21938    21822    21682    21351    20815    20235 
   19773    19461    19313    19481    20070    20894    21637    22120 
   22300    22167    21714    20981    20126    19333    18693    18291 
   18227    18447    18753    18974    19036    18994    18927    18843 
   18739    18558    18239    17830    17377    16901    16469    16134 
   15973    16088    16532    17230    17922    18358    18522    18525 
   18493    18499    18492    18423    18259    17991    17745    17674 
   17797    17913    17750    17318    16807    16249    15619    14957 
   14280    13569    12857    12287    11998    11891    11706    11348 
   10893    10407     9926     9463     9054     8719     8401     8123 
    8016     8067     8063     7844     7517     7277     7086     6811 
    6539     6512     6853     7427     7996     8465     8824     8988 
    8842     8444     7985     7569     7231     7088     7302     7921 
    8781     9592    10131    10348    10356    10309    10263    10187 
   10098    10164    10631    11536    12644    13730    14628    15137 
   15158    14825    14437    14283    14407    14667    15089    15861 
   16989    18245    19423    20451    21319    22012    22509    22822 
   23013    23135    23317    23842    24924    26393    27761    28602 
   28770    28297    27331    26173    25146    24430    24035    23881 
   23857    23754    23351    22614    21667    20672    19785    19101 
   18686    18564    18642    18753    18697    18300    17519    16510 
   15512    14633    13824    13072    12525    12344    12493    12744 
   12875    12768    12380    11749    10995    10255     9688     9447 
    9648    10393    11656    13158    14534    15514    15973    15933 
   15502    14798    13947    13111    12424    11919    11629    11673 
   12070    12598    13018    13272    13344    13135    12615    12023 
   11767    12035    12727    13697    14855    16175    17632    19081 
   20337    21308    21962    22271    22156    21580    20679    19625 
   18557    17706    17315    17529    18299    19254    19982    20360 
   20358    19992    19423    18738    17871    16800    15688    14859 
   14519    14644    15182    16063    17094    17991    18547    18764 
   18678    18205    17394    16638    16377    16690    17306    17946 
   18505    18975    19308    19416    19285    18989    18675    18552 
   18763    19237    19715    20025    20211    20298    20174    19744 
   19088    18411    17835    17359    17045    17042    17403    18043 
   18800    19470    19923    20168    20259    20193    19948    19594 
   19292    19141    19045    18823    18445    18030    17667    17333 
   16966    16624    16461    16516    16722    17023    17328    17530 
   17499    17096    16374    15543    14799    14301    14141    14339 
   14868    15587    16314    16922    17335    17478    17322    17015 
   16794    16729    16731    16713    16662    16559    16257    15629 
   14844    14263    14102    14288    14598    14917    15264    15621 
   15911    16083    16121    16034    15852    15699    15741    15985 
   16264    16433    16509    16641    16953    17406    17876    18321 
   18752    19098    19304    19483    19827    20369    20839    20908 
   20574    20038    19355    18419    17233    16083    15321    14991 
   15005    15427    16261    17230    17942    18255    18378    18419 
   18138    17380    16421    15680    15293    15139    15104    15146 
   15171    15002    14542    13870    13087    12213    11330    10692 
   10554    10908    11483    11984    12232    12200    11999    11710 
   11326    10860    10382    10019     9895     9995    10182    10258 
   10041     9532     8918     8423     8281     8601     9350    10544 
   12210    14174    16085    17613    18544    18862    18873    18944 
   19051    18921    18526    18191    18238    18626    19096    19499 
   19777    19886    19886    19930    20114    20401    20750    21244 
   21961    22838    23676    24227    24391    24239    23859    23333 
   22711    22108    21837    22148    22983    24128    25332    26295 
   26661    26140    24788    23019    21309    20000    19366    19621 
   20708    22222    23678    24827    25677    26215    26258    25674 
   24607    23389    22304    21473    20894    20530    20355    20301 
   20221    19908    19168    17937    16298    14370    12350    10530 
    9156     8401     8267     8512     8947     9448     9775     9762 
    9375     8702     8015     7508     7342     7792     8866    10292 
   11740    12809    13316    13441    13375    13130    12703    12288 
   12099    11980    11625    11076    10607    10305    10086    10026 
   10452    11650    13514    15561    17295    18526    19270    19567 
   19522    19350    19289    19427    19688    20067    20641    21380 
   22082    22447    22323    21842    21165    20380    19633    19080 
   18716    18434    18287    18516    19170    19983    20675    21171 
   21531    21675    21379    20656    19807    19052    18455    18117 
   18204    18672    19266    19829    20266    20321    19717    18491 
   17133    16129    15516    15158    15117    15485    16183    17078 
   18126    19255    20169    20507    20232    19621    18933    18249 
   17510    16602    15539    14516    13708    13120    12623    12080 
   11457    10768    10062     9481     9102     8817     8595     8647 
    9178    10185    11586    13273    15005    16517    17734    18727 
   19522    20072    20349    20422    20450    20602    21036    21790 
   22696    23543    24166    24512    24592    24230    23328    21947 
   20217    18555    17130    15873    15034    14656    14629    14878 
   15172    15528    15804    15633    15107    14452    13831    13374 
   13131    13387    14168    15009    15752    16300    16327    15762 
   14594    13036    11603    10490     9861     9895    10341    10916 
   11497    12165    12906    13173    12805    12200    11539    11022 
   10745    10590    10603    10659    10616    10626    10789    11149 
   11780    12687    13806    14839    15526    15956    16172    16054 
   15644    15153    14852    14898    15221    15745    16427    17106 
   17632    18052    18518    19073    19723    20585    21663    22878 
   24275    25937    27933    30103    31996    33373    34257    34678 
   34729    34437    33862    33283    32821    32433    32125    31820 
   31482    31045    30212    28801    26888    24701    22529    20613 
   19290    18804    18996    19530    19881    19762    19405    18687 
   17394    15793    14257    13369    13259    13367    13612    13943 
   14023    13993    13910    13693    13556    13453    13422    13747 
   14213    14608    15014    15207    14902    14033    12773    11665 
   11082    10945    11119    11435    11668    11644    11223    10464 
    9607     8824     8327     8437     9360    11018    13040    14970 
   16487    17434    17888    18022    17933    17702    17438    17339 
   17620    18246    19023    19785    20328    20418    19962    19146 
   18268    17405    16458    15477    14727    14368    14291    14424 
   14811    15324    15737    15981    16206    16565    16982    17354 
   17722    18046    18107    17654    16684    15600    14818    14426 
   14359    14629    15248    16002    16553    16726    16454    15677 
   14549    13401    12513    12077    12106    12479    13082    13725 
   14098    13931    13098    11656     9944     8453     7490     7088 
    7097     7318     7705     8257     8853     9375     9726     9869 
    9915     9958    10035    10169    10286    10298    10173     9993 
   10051    10480    10981    11273    11421    11648    12089    12731 
   13525    14422    15308    16134    16963    17800    18508    18806 
   18459    17530    16232    14750    13345    12236    11516    11276 
   11560    12218    12912    13287    13186    12688    12050    11589 
   11544    11977    12611    13142    13679    14378    15138    15883 
   16673    17573    18587    19621    20565    21513    22541    23404 
   23964    24370    24620    24703    24667    24443    24154    24061 
   24267    24772    25510    26396    27289    27993    28391    28399 
   28088    27659    27174    26669    26223    25885    25727    25792 
   26072    26496    26875    27034    26861    26309    25462    24400 
   23207    22114    21304    20823    20652    20686    20853    21142 
   21486    21780    21920    21795    21299    20382    19159    17905 
   16802    15782    14761    13812    13066    12590    12301    12025 
   11727    11587    11822    12383    12946    13324    13690    14204 
   14714    15041    15190    15215    15182    15029    14522    13693 
   12965    12660    12795    13213    13836    14836    16157    17380 
   18332    19087    19550    19454    18602    17156    15554    14101 
   12885    12002    11628    11787    12243    12690    12891    12723 
   12286    11904    11799    11881    11992    12047    11919    11509 
   10896    10368    10324    10987    12249    13878    15680    17447 
   19028    20286    21090    21548    21897    22240    22541    22675 
   22605    22384    21925    21082    19860    18444    17061    15832 
   14863    14334    14426    15157    16253    17362    18254    18700 
   18514    17687    16353    14773    13225    11846    10723     9916 
    9365     9029     8969     9192     9647    10279    10921    11344 
   11469    11353    11068    10683    10280     9995     9998    10336 
   10958    11857    12918    13852    14485    14903    15318    15809 
   16230    16461    16551    16638    16909    17494    18412    19621 
   20978    22222    23096    23396    23028    22132    21015    20018 
   19421    19403    20026    21126    22369    23475    24259    24579 
   24283    23222    21591    19904    18404    17084    16002    15183 
   14675    14479    14405    14265    13869    13072    11998    10815 
    9605     8605     8077     8153     8888    10140    11610    12991 
   13986    14491    14652    14650    14595    14590    14806    15430 
   16456    17651    18795    19767    20448    20808    21006    21225 
   21425    21357    21040    20867    20947    21009    20952    20928 
   21067    21319    21639    22212    23143    24160    24940    25432 
   25746    25952    26087    26215    26380    26540    26592    26463 
   26105    25402    24248    22653    20755    18809    17015    15447 
   14216    13447    13151    13262    13683    14327    15115    15900 
   16522    16969    17363    17822    18363    18953    19586    20246 
   20810    21147    21227    21027    20576    20081    19736    19595 
   19593    19555    19376    19024    18340    17206    15751    14275 
   13118    12408    11830    11195    10908    11003    10779    10087 
    9665     9393     7726     4879     3632     4936     6423     5692 
    3382     3037     5406     6273     4664     3549     3489     3905 
    3996     4070     6036     8335     8888     9860    12302    14096 
   14859    16078    17373    17470    16977    17123    17939    17669 
   15615    14699    15803    16916    18454    20441    21868    23138 
   23513    23538    24944    25592    24469    23593    23055    22738 
   22067    20308    19237    18620    17073    15782    15177    15296 
   16178    16797    17900    19979    21123    21220    21600    21699 
   20594    18466    16292    14765    13416    12351    12306    13197 
   14508    15442    15770    16281    16947    16912    16162    15178 
   14302    13896    13949    14043    13829    13346    12759    11838 
   10628     9524     8272     6482     5024     4984     5640     6462 
    8324    11074    13792    15730    16441    16693    16962    16328 
   14459    12409    11364    11318    11348    11386    11919    12426 
   12455    12612    13000    13157    13619    14870    16293    17577 
   18454    18667    18942    19395    19840    20861    22323    23513 
   23802    22918    21131    18433    15109    12226    10484    10000 
   10969    13272    16063    18557    19838    18955    16351    13389 
   10964     9160     7976     7703     8029     8525     8945     8896 
