Origin Time       2011/03/11 14:46:00
Lat.              38.103
Long.             142.860
Depth. (km)       24
Mag.              9.0
Station Code      SZO005
Station Lat.      34.7550
Station Long.     138.7841
Station Height(m) 4
Record Time       2011/03/11 14:47:53
Sampling Freq(Hz) 100Hz
Duration Time(s)  276
Dir.              N-S
Scale Factor      3920(gal)/6182761
Max. Acc. (gal)   31.327
Last Correction   2011/03/11 14:47:38
Memo.             
[...]
  -40283   -42132   -44592   -47729   -51137   -54625   -58214   -61689 
  -64812   -67533   -69765   -71402   -72528   -73350   -73843   -73820 
  -73453   -73093   -72877   -72917   -73338   -74005   -74472   -74335 
  -73538   -72176   -70413   -68602   -66944   -65460   -64350   -63775 
  -63816   -64447   -65241   -65806   -66094   -66134   -66084   -66166 
  -66329   -66427   -66624   -67017   -67276   -67197   -66914   -66597 
  -66220   -65549   -64663   -63801   -62888   -62069   -61556   -61054 
  -60327   -59451   -58499   -57600   -56932   -56582   -56413   -56152 
  -55812   -55481   -54932   -54104   -53260   -52422   -51439   -50584 
  -50309   -50622   -51399   -52742   -54537   -56432   -58338   -60332 
  -62238   -63747   -64795   -65416   -65568   -65527   -65586   -65436 
  -64832   -64068   -63301   -62334   -61114   -59830   -58572   -57433 
  -56696   -56368   -56145   -55972   -55941   -56072   -56373   -56649 
  -56509   -55867   -55038   -54181   -53187   -52066   -50997   -50164 
  -49674   -49476   -49538   -50162   -51558   -53490   -55760   -58132 
  -60119   -61534   -62543   -63285   -63790   -64064   -64212   -64364 
  -64558   -64875   -65436   -66151   -66925   -67937   -69403   -71286 
  -73260   -75018   -76513   -77799   -78842   -79479   -79473   -78770 
  -77786   -76991   -76359   -75724   -75076   -74363   -73616   -73065 
  -72796   -72630   -72372   -71914   -71257   -70445   -69230   -67291 
  -64720   -61867   -59186   -57049   -55373   -53844   -52354   -51024 
  -49917   -48844   -47696   -46551   -45438   -44474   -43733   -43047 
  -42516   -42466   -42993   -44017   -45246   -46299   -46988   -47318 
  -47517   -47717   -47753   -47672   -47795   -48304   -49200   -50357 
  -51689   -53272   -55044   -56744   -58135   -59155   -60016   -60899 
  -61798   -62806   -63993   -65247   -66420   -67346   -67862   -67925 
  -67776   -67758   -67983   -68504   -69277   -69906   -70087   -69869 
  -69258   -68272   -67216   -66456   -66208   -66501   -67099   -67631 
  -67837   -67745   -67538   -67255   -66815   -66185   -65426   -64577 
  -63589   -62467   -61203   -59782   -58429   -57434   -56832   -56534 
  -56553   -56836   -57323   -58089   -58821   -59063   -58936   -58631 
  -58176   -57707   -57162   -56472   -55846   -55338   -54991   -55023 
  -55371   -55884   -56583   -57238   -57405   -56945   -56004   -54729 
  -53278   -51853   -50703   -50055   -50001   -50543   -51481   -52537 
  -53610   -54559   -55421   -56478   -57754   -59055   -60172   -61200 
  -62359   -63439   -64447   -65689   -66974   -68009   -68875   -69573 
  -69849   -69778   -69821   -70027   -70083   -69877   -69256   -67986 
  -66160   -63948   -61497   -59264   -57607   -56561   -56200   -56500 
  -57314   -58423   -59485   -60444   -61496   -62569   -63408   -63904 
  -64051   -63861   -63237   -62082   -60633   -59256   -58158   -57493 
  -57205   -57054   -56817   -56224   -55251   -54378   -53882   -53472 
  -52978   -52508   -52105   -52088   -52905   -54280   -55584   -56760 
  -58063   -59483   -60853   -62020   -62749   -62889   -62605   -62122 
  -61485   -60845   -60395   -60064   -59720   -59361   -58946   -58411 
  -58074   -58321   -58869   -59333   -59849   -60499   -61115   -61658 
  -62077   -62229   -62221   -62382   -62846   -63506   -64387   -65681 
  -67345   -69050   -70573   -71790   -72488   -72626   -72326   -71480 
  -69908   -67705   -65064   -62121   -59082   -56143   -53457   -51177 
  -49394   -48136   -47249   -46499   -45778   -45044   -44480   -44222 
  -43979   -43765   -44083   -45079   -46537   -48301   -50171   -51966 
  -53678   -55217   -56404   -57373   -58390   -59471   -60535   -61483 
  -62196   -62559   -62536   -62366   -62263   -62300   -62660   -63326 
  -64144   -65237   -66652   -68210   -69873   -71591   -73156   -74506 
  -75745   -76960   -78197   -79478   -80787   -82087   -83239   -84057 
  -84508   -84602   -84540   -84674   -84830   -84542   -83785   -82824 
  -81848   -80862   -79762   -78348   -76372   -73998   -71635   -69272 
  -66783   -64283   -61810   -59436   -57383   -55747   -54571   -53937 
  -53754   -53646   -53221   -52284   -50732   -48753   -46804   -45045 
  -43508   -42418   -41707   -41055   -40440   -39918   -39251   -38247 
  -37047   -35817   -34555   -33387   -32642   -32503   -32968   -34028 
  -35541   -37251   -39076   -41016   -42824   -44325   -45786   -47386 
  -48986   -50654   -52495   -54366   -56324   -58449   -60474   -62231 
  -63730   -65040   -66312   -67635   -69120   -70732   -72069   -72818 
  -72967   -72688   -72446   -72534   -72730   -73033   -73690   -74544 
  -75458   -76655   -78184   -79837   -81375   -82454   -82761   -82212 
  -81002   -79407   -77486   -75327   -73189   -71221   -69567   -68371 
  -67399   -66163   -64435   -62365   -60188   -58079   -56179   -54553 
  -53123   -51668   -50057   -48415   -46942   -45790   -45009   -44465 
  -43965   -43454   -42967   -42474   -41924   -41297   -40599   -40048 
  -40137   -41263   -43375   -46081   -49003   -51786   -54077   -55965 
  -57891   -59888   -61700   -63298   -64713   -65997   -67185   -68044 
  -68376   -68315   -68129   -68213   -69006   -70504   -72385   -74482 
  -76479   -77901   -78732   -79247   -79383   -78802   -77562   -76200 
  -74993   -73977   -73254   -72714   -72308   -72236   -72298   -72017 
  -71473   -71100   -70895   -70630   -70364   -70204   -70006   -69616 
  -69055   -68210   -66813   -64948   -63091   -61513   -60173   -59088 
  -58230   -57331   -56230   -54974   -53647   -52501   -51799   -51468 
  -51381   -51613   -52366   -53870   -56025   -58341   -60540   -62592 
  -64359   -65887   -67385   -68701   -69447   -69459   -68977   -68291 
  -67392   -66465   -65898   -65598   -65321   -65064   -64720   -64258 
  -63992   -63934   -63640   -63010   -62319   -61596   -60693   -59600 
  -58343   -56974   -55682   -54688   -54148   -54142   -54588   -55279 
  -56035   -56912   -58055   -59280   -60306   -61024   -61117   -60298 
  -58731   -56577   -53993   -51569   -49870   -49020   -49022   -49832 
  -51216   -52858   -54533   -56192   -57862   -59521   -61038   -62247 
  -63231   -64103   -64690   -64955   -65108   -65143   -65032   -65013 
  -65186   -65424   -65775   -66355   -67111   -67998   -69020   -70015 
  -70694   -70954   -70897   -70483   -69646   -68715   -68043   -67384 
  -66504   -65920   -66044   -66493   -66871   -67110   -67186   -67182 
  -67264   -67462   -67672   -67948   -68510   -69263   -69868   -70293 
  -70613   -70647   -70276   -69622   -68680   -67336   -65758   -64223 
  -62779   -61433   -60292   -59249   -58079   -56862   -55669   -54339 
  -52927   -51571   -50189   -48803   -47515   -46362   -45444   -44748 
  -44206   -43909   -43800   -43626   -43154   -42252   -41049   -39809 
  -38729   -38052   -37849   -37900   -38135   -38693   -39576   -40645 
  -41820   -43232   -45151   -47520   -49942   -52412   -55133   -57831 
  -60221   -62223   -63679   -64849   -66091   -67178   -68043   -68832 
  -69256   -69293   -69435   -69880   -70625   -71844   -73573   -75581 
  -77695   -79919   -82004   -83420   -84085   -84316   -84336   -84454 
  -84878   -85443   -86039   -86539   -86537   -85959   -84885   -83185 
  -81415   -80008   -78192   -75874   -73828   -71708   -69044   -66316 
  -63551   -60550   -57846   -55604   -53456   -51666   -50397   -49270 
  -48463   -48205   -48236   -48573   -49251   -50116   -51112   -52169 
  -53463   -55355   -57825   -60522   -63052   -65086   -66403   -66841 
  -66297   -64839   -62646   -59929   -56990   -54184   -51875   -50376 
  -49798   -49941   -50462   -51250   -52162   -52779   -53005   -53224 
  -53671   -54208   -54806   -55653   -56714   -57823   -58837   -59463 
  -59607   -59485   -59158   -58719   -58487   -58491   -58619   -58986 
  -59444   -59771   -60195   -60565   -60330   -59775   -59519   -59413 
  -59110   -58749   -58618   -58576   -58371   -58085   -57777   -57528 
  -57459   -57308   -56864   -56297   -55623   -54751   -53909   -53448 
  -53573   -54300   -55382   -56633   -58350   -60758   -63574   -66498 
  -69217   -71369   -73059   -74527   -75593   -76048   -75923   -75386 
  -74805   -74379   -73788   -72917   -72087   -71183   -69967   -68664 
  -67366   -66073   -64978   -63921   -62494   -60568   -58266   -55916 
  -53901   -52323   -51126   -50535   -50838   -51886   -53353   -55017 
  -56654   -58304   -60155   -61869   -63170   -64392   -65587   -66527 
  -67250   -67739   -68079   -68523   -69036   -69609   -70370   -71051 
  -71240   -70852   -69816   -67905   -65252   -62418   -59708   -57119 
  -54773   -52659   -50602   -48730   -47286   -46356   -45996   -46135 
  -46558   -47223   -48170   -49211   -50155   -51090   -52281   -53867 
  -55551   -57212   -59156   -60990   -62003   -62288   -61863   -60348 
  -57983   -55390   -52765   -50160   -48031   -46835   -46637   -47381 
  -48927   -51069   -53764   -57036   -60628   -64048   -67019   -69467 
  -71225   -72258   -72652   -72369   -71604   -70619   -69269   -67680 
  -66385   -65411   -64619   -64303   -64542   -65078   -65808   -66672 
  -67563   -68557   -69828   -71254   -72424   -73107   -73384   -73337 
  -73021   -72541   -71813   -70729   -69412   -68079   -66921   -66016 
  -65409   -65144   -65082   -65106   -65072   -64577   -63509   -62104 
  -60394   -58379   -56141   -53851   -51896   -50494   -49484   -48815 
  -48632   -48804   -49162   -49907   -50993   -52044   -53042   -54132 
  -55264   -56557   -58312   -60579   -63068   -65385   -67223   -68317 
  -68630   -68399   -67696   -66432   -64699   -62703   -60584   -58557 
  -56886   -55599   -54563   -53671   -52929   -52460   -52245   -52260 
  -52862   -54272   -56160   -58139   -59967   -61445   -62486   -62964 
  -62777   -62212   -61549   -60794   -60136   -59686   -59237   -58757 
  -58166   -57167   -55690   -53737   -51234   -48281   -45184   -42307 
  -39974   -38344   -37423   -37289   -37905   -38972   -40500   -42597 
  -45006   -47753   -51031   -54618   -58343   -62202   -65953   -69223 
  -71758   -73621   -74910   -75513   -75683   -75800   -75795   -75798 
  -76109   -76555   -76999   -77507   -77898   -78048   -78162   -78437 
  -78877   -79235   -79160   -78626   -77710   -76267   -74288   -72013 
  -69781   -67954   -66691   -66017   -65842   -65925   -66100   -66200 
  -66095   -65927   -65836   -65858   -66119   -66640   -67301   -67913 
  -68102   -67618   -66564   -64965   -62779   -60362   -58050   -55781 
  -53707   -52165   -51080   -50336   -50088   -50240   -50482   -50911 
  -51875   -53396   -55208   -56940   -58160   -58757   -58980   -59038 
  -58993   -58855   -58697   -58818   -59536   -60815   -62352   -63892 
  -65300   -66506   -67423   -67961   -68143   -68073   -67867   -67598 
  -67129   -66186   -64577   -62278   -59398   -56067   -52372   -48560 
  -45273   -43042   -41839   -41574   -42234   -43510   -45032   -46576 
  -47882   -48668   -48920   -48951   -48969   -49089   -49672   -50795 
  -52096   -53503   -55091   -56559   -57540   -57862   -57437   -56476 
  -55607   -55211   -55072   -54901   -54588   -54047   -53378   -52899 
  -52803   -53117   -53988   -55623   -58073   -61410   -65527   -69839 
  -73922   -77725   -80979   -83395   -85085   -86327   -87345   -88371 
  -89545   -90736   -91690   -92312   -92654   -92693   -92296   -91344 
  -89812   -87807   -85359   -82375   -78990   -75419   -71770   -68307 
  -65343   -63050   -61387   -60177   -59476   -59400   -59796   -60501 
  -61355   -62154   -63033   -64232   -65471   -66337   -66800   -66817 
  -66112   -64611   -62485   -59779   -56636   -53365   -49930   -46200 
  -42460   -38862   -35146   -31422   -28102   -25053   -22102   -19697 
  -18241   -17838   -18629   -20433   -22694   -25117   -27553   -29773 
  -31799   -33743   -35535   -37239   -38954   -40511   -41990   -43880 
  -46271   -48903   -51869   -55502   -59824   -64605   -69736   -75009 
  -79786   -83481   -85998   -87408   -87786   -87443   -86814   -85984 
  -84910   -83838   -82793   -81501   -80145   -79157   -78548   -78399 
  -79159   -80798   -82877   -85190   -87348   -88786   -89471   -89880 
  -90439   -91267   -92296   -93300   -93972   -94167   -93856   -93006 
  -91614   -89643   -87062   -83850   -79944   -75496   -70826   -66021 
  -61038   -55935   -50643   -45066   -39366   -33875   -28980   -24940 
  -21835   -19860   -19242   -19792   -21011   -22470   -23709   -24418 
  -24767   -25068   -25523   -26247   -27328   -28775   -30434   -32249 
  -34192   -35837   -36791   -37328   -37659   -37688   -37744   -38115 
  -38790   -39963   -41585   -43218   -44631   -45787   -46690   -47638 
  -49051   -51047   -53623   -56705   -60058   -63546   -67119   -70661 
  -74030   -77074   -79643   -81654   -83098   -83974   -84314   -84103 
  -83210   -81615   -79387   -76578   -73323   -69923   -66707   -63898 
  -61747   -60277   -59127   -58195   -57767   -57952   -58690   -60076 
  -62279   -65297   -68953   -73009   -76989   -80372   -83142   -85559 
  -87662   -89414   -90784   -91723   -92287   -92466   -92226   -91717 
  -91147   -90594   -89982   -89189   -88137   -86674   -84535   -81661 
  -78308   -74815   -71489   -68465   -65800   -63646   -61992   -60644 
  -59274   -57466   -55153   -52622   -50052   -47599   -45632   -44408 
  -43832   -43509   -42822   -41498   -39866   -38142   -36300   -34551 
  -33132   -32038   -31061   -29810   -27942   -25447   -22507   -19245 
  -15961   -13245   -11522   -10970   -11713   -13640   -16477   -20029 
  -23966   -27732   -30973   -33758   -36243   -38454   -40345   -41877 
  -43278   -44945   -47067   -49726   -52952   -56654   -60769   -65175 
  -69557   -73727   -77685   -81167   -83949   -86142   -87708   -88673 
  -89208   -89112   -88233   -86753   -84726   -82266   -79917   -78228 
  -77329   -77218   -77919   -79196   -80910   -83131   -85428   -87327 
  -88972   -90363   -91234   -91814   -92589   -93691   -94942   -96112 
  -97135   -97975   -98249   -97472   -95372   -91819   -86950   -81132 
  -74925   -69062   -64000   -59820   -56545   -54144   -52475   -51370 
  -50631   -49950   -49028   -47809   -46419   -44891   -43160   -41205 
  -39046   -36957   -35397   -34386   -33657   -33133   -32588   -31654 
  -30279   -28533   -26351   -23725   -20831   -18059   -15896   -14568 
  -13922   -13925   -14791   -16622   -19424   -23010   -26967   -30937 
  -34785   -38697   -42837   -47111   -51523   -56217   -61187   -66165 
  -70776   -74593   -77232   -78773   -79558   -79783   -79592   -79093 
  -78418   -77794   -77295   -76612   -75451   -73843   -71686   -69161 
  -67010   -65383   -63946   -62845   -62280   -62014   -61734   -61398 
  -60974   -60380   -59792   -59451   -59489   -60042   -61117   -62492 
  -63922   -65265   -66255   -66590   -66206   -65045   -62972   -59995 
  -56264   -52057   -47844   -43968   -40355   -36916   -33816   -31099 
  -28767   -27172   -26687   -27337   -28988   -31458   -34430   -37532 
  -40506   -43140   -45294   -47050   -48484   -49636   -50737   -52091 
  -53852   -56060   -58925   -62661   -66860   -70970   -74877   -78481 
  -81619   -84140   -85671   -86092   -85930   -85460   -84386   -82753 
  -80777   -78328   -75577   -73069   -71058   -69665   -69108   -69174 
  -69352   -69562   -69980   -70625   -71616   -73111   -74924   -76646 
  -78011   -78839   -78778   -77489   -74896   -71024   -66019   -60294 
  -54333   -48673   -43869   -40105   -37395   -35902   -35649   -36539 
  -38576   -41473   -44610   -47645   -50586   -53393   -55885   -57942 
  -59466   -60320   -60718   -61192   -62006   -63136   -64464   -65857 
  -67192   -68301   -69158   -69864   -70408   -70728   -70693   -70083 
  -68864   -67327   -65751   -64192   -62709   -61302   -59787   -58189 
  -56704   -55404   -54428   -53851   -53489   -53221   -52872   -52116 
  -50893   -49406   -47821   -46354   -45361   -45006   -45253   -46190 
  -47701   -49452   -51466   -53835   -56326   -58688   -60724   -62235 
  -63293   -64260   -65434   -67028   -69278   -72049   -74864   -77406 
  -79478   -80921   -81718   -81946   -81660   -80860   -79673   -78414 
  -77276   -76271   -75375   -74409   -73163   -71661   -69925   -67913 
  -65882   -64195   -62916   -61812   -60595   -59088   -57182   -54962 
  -52786   -50939   -49479   -48502   -48104   -48186   -48828   -50119 
  -51650   -53199   -54790   -55986   -56401   -56000   -54849   -53207 
  -51337   -49512   -47988   -46730   -45807   -45404   -45333   -45391 
  -45573   -45700   -45608   -45415   -45310   -45388   -45602   -45894 
  -46273   -46724   -47251   -47908   -48707   -49603   -50680   -52090 
  -53726   -55313   -56651   -57638   -58405   -59265   -60245   -61187 
  -62164   -63162   -63882   -64175   -63968   -63025   -61471   -59881 
  -58447   -56953   -55289   -53399   -51335   -49184   -46816   -44251 
  -41723   -39337   -37223   -35567   -34541   -34469   -35589   -37865 
  -41193   -45201   -49316   -53402   -57492   -61372   -65008   -68370 
  -71252   -73722   -75844   -77433   -78516   -79224   -79576   -79667 
  -79481   -78989   -78398   -77844   -77459   -77589   -78431   -79919 
  -81899   -83957   -85672   -87052   -88135   -88781   -88960   -88574 
  -87520   -86034   -84366   -82609   -80994   -79636   -78356   -77075 
  -75688   -73993   -72097   -70120   -67932   -65495   -62822   -59764 
  -56271   -52643   -49237   -46196   -43691   -41913   -40699   -39903 
  -39562   -39456   -39331   -39226   -39178   -39109   -38889   -38322 
  -37287   -35885   -34344   -32921   -31912   -31568   -32028   -33473 
  -35931   -38948   -42125   -45398   -48452   -50969   -52879   -53875 
  -53899   -53449   -52863   -52305   -52066   -52386   -53376   -55005 
  -57028   -59127   -61144   -62888   -64070   -64813   -65386   -65778 
  -65986   -65922   -65673   -65556   -65413   -65076   -64866   -64919 
  -65048   -65171   -65221   -65064   -64609   -63736   -62420   -61007 
  -59964   -59329   -59130   -59769   -61217   -62905   -64554   -66148 
  -67605   -68967   -70226   -71103   -71543   -71696   -71475   -70949 
  -70366   -69685   -69107   -68966   -69038   -69357   -70276   -71590 
  -73100   -74804   -76545   -78322   -79951   -81092   -81785   -81821 
  -81013   -79693   -77801   -75420   -73296   -71658   -70474   -69827 
  -69491   -69368   -69104   -68159   -66957   -65874   -64554   -63177 
  -62055   -60874   -59667   -58722   -57803   -56883   -56073   -54803 
  -52739   -50263   -47534   -44563   -41780   -39595   -37935   -36749 
  -36275   -36491   -37202   -38222   -39284   -40362   -41405   -42042 
  -42274   -42473   -42653   -42775   -43100   -43532   -43812   -44130 
  -44582   -44945   -45209   -45515   -45892   -46308   -46782   -47488 
  -48715   -50533   -52635   -54875   -57268   -59534   -61651   -63725 
  -65376   -66666   -68009   -69223   -70332   -71594   -72657   -73293 
  -73831   -74349   -74773   -75510   -76789   -78249   -79732   -81311 
  -82836   -84152   -85313   -86483   -87694   -88725   -89279   -89057 
  -87613   -84655   -80505   -75412   -69373   -63279   -57974   -53320 
  -49735   -47649   -46410   -45820   -45910   -46135   -46538   -47210 
  -47877   -48853   -49981   -50667   -51180   -51583   -51504   -51203 
  -50846   -50261   -49546   -48763   -47986   -47209   -46190   -45246 
