Origin Time       2011/03/11 14:46:00
Lat.              38.103
Long.             142.860
Depth. (km)       24
Mag.              9.0
Station Code      SZO016
Station Lat.      34.8564
Station Long.     138.3120
Station Height(m) 3
Record Time       2011/03/11 14:48:15
Sampling Freq(Hz) 100Hz
Duration Time(s)  293
Dir.              E-W
Scale Factor      3920(gal)/6182761
Max. Acc. (gal)   30.597
Last Correction   2011/03/11 14:48:00
Memo.             
[...]
  -44466   -44967   -45347   -45620   -45758   -45822   -45890   -46044 
  -46365   -46840   -47264   -47412   -47458   -47544   -47388   -47123 
  -47070   -47025   -46933   -47001   -47098   -47043   -46957   -46925 
  -46913   -47023   -47311   -47691   -48188   -48822   -49438   -49938 
  -50354   -50693   -50969   -51240   -51548   -51925   -52364   -52829 
  -53297   -53723   -54040   -54247   -54365   -54377   -54316   -54254 
  -54163   -53975   -53690   -53322   -52861   -52343   -51854   -51383 
  -50952   -50568   -50053   -49529   -49145   -48631   -47990   -47170 
  -46047   -45079   -44218   -43161   -42174   -41156   -39914   -38666 
  -37496   -36415   -35463   -34619   -33913   -33409   -33145   -33154 
  -33494   -34222   -35254   -36459   -37781   -39113   -40362   -41515 
  -42560   -43553   -44543   -45515   -46452   -47317   -48122   -48880 
  -49503   -49959   -50277   -50449   -50551   -50681   -50844   -50976 
  -51016   -50985   -50920   -50831   -50746   -50681   -50672   -50765 
  -50967   -51198   -51351   -51582   -52053   -52672   -53319   -53830 
  -54462   -55360   -55987   -56633   -57573   -58232   -58833   -59588 
  -60206   -60837   -61511   -62137   -62770   -63309   -63742   -64125 
  -64397   -64605   -64826   -65001   -65098   -65079   -64887   -64514 
  -63977   -63319   -62565   -61703   -60772   -59795   -58746   -57644 
  -56527   -55430   -54396   -53465   -52677   -52056   -51592   -51283 
  -51114   -51053   -51064   -51091   -51101   -51120   -51152   -51176 
  -51155   -51063   -50881   -50585   -50176   -49649   -48992   -48251 
  -47516   -46897   -46468   -46242   -46181   -46192   -46209   -46226 
  -46275   -46388   -46557   -46802   -47161   -47577   -47999   -48406 
  -48745   -49005   -49207   -49351   -49461   -49536   -49532   -49468 
  -49351   -49105   -48748   -48372   -47977   -47560   -47196   -46889 
  -46616   -46417   -46319   -46357   -46551   -46855   -47245   -47710 
  -48181   -48595   -48952   -49236   -49376   -49343   -49143   -48729 
  -48074   -47206   -46155   -44938   -43578   -42108   -40596   -39105 
  -37665   -36339   -35188   -34231   -33501   -33032   -32838   -32922 
  -33226   -33676   -34237   -34882   -35591   -36326   -37039   -37695 
  -38271   -38731   -39066   -39263   -39290   -39169   -38953   -38672 
  -38369   -38079   -37779   -37455   -37130   -36837   -36633   -36560 
  -36617   -36788   -37054   -37383   -37761   -38190   -38677   -39229 
  -39855   -40544   -41210   -41773   -42207   -42495   -42680   -42847 
  -43060   -43353   -43727   -44176   -44688   -45251   -45869   -46528 
  -47225   -47960   -48740   -49584   -50440   -51269   -52075   -52786 
  -53392   -53959   -54493   -54997   -55446   -55792   -56031   -56150 
  -56110   -55895   -55494   -54898   -54133   -53261   -52319   -51341 
  -50342   -49306   -48220   -47084   -45951   -44899   -43961   -43121 
  -42307   -41473   -40646   -39814   -38987   -38258   -37676   -37240 
  -36936   -36771   -36776   -36942   -37278   -37832   -38577   -39449 
  -40399   -41379   -42368   -43354   -44297   -45144   -45864   -46420 
  -46825   -47165   -47532   -47981   -48527   -49118   -49656   -50065 
  -50326   -50418   -50338   -50092   -49649   -49021   -48261   -47385 
  -46429   -45414   -44351   -43362   -42552   -41913   -41463   -41242 
  -41234   -41406   -41683   -41997   -42359   -42766   -43170   -43561 
  -43940   -44282   -44581   -44852   -45125   -45436   -45805   -46237 
  -46730   -47298   -47980   -48776   -49637   -50525   -51410   -52277 
  -53159   -54091   -55057   -56018   -56951   -57817   -58606   -59335 
  -60002   -60629   -61260   -61862   -62361   -62725   -62928   -62946 
  -62797   -62514   -62120   -61614   -61006   -60355   -59704   -59076 
  -58505   -57979   -57456   -56954   -56499   -56121   -55873   -55774 
  -55775   -55810   -55810   -55732   -55609   -55488   -55369   -55270 
  -55231   -55192   -55117   -55023   -54846   -54594   -54318   -54014 
  -53758   -53557   -53330   -53079   -52791   -52423   -52009   -51591 
  -51153   -50678   -50134   -49561   -49132   -48603   -47585   -46581 
  -45854   -44743   -43454   -42481   -41407   -40201   -39153   -38088 
  -36934   -35826   -34769   -33759   -32847   -32051   -31433   -31015 
  -30701   -30464   -30358   -30380   -30534   -30863   -31361   -31988 
  -32734   -33566   -34435   -35328   -36144   -36824   -37511   -38176 
  -38666   -39083   -39476   -39734   -39877   -39946   -39925   -39871 
  -39859   -39920   -40088   -40368   -40731   -41213   -41847   -42608 
  -43505   -44554   -45694   -46832   -47890   -48831   -49666   -50347 
  -50794   -51042   -51172   -51201   -51158   -51120   -51113   -51104 
  -51106   -51122   -51113   -51071   -50996   -50903   -50853   -50892 
  -51007   -51166   -51307   -51343   -51229   -50962   -50577   -50126 
  -49654   -49201   -48775   -48370   -47998   -47637   -47302   -47077 
  -46959   -46933   -47061   -47292   -47564   -47931   -48360   -48769 
  -49174   -49524   -49731   -49851   -49911   -49855   -49698   -49435 
  -49053   -48572   -47992   -47357   -46718   -46077   -45450   -44834 
  -44187   -43521   -42888   -42280   -41707   -41230   -40849   -40569 
  -40460   -40531   -40723   -40994   -41326   -41691   -42058   -42426 
  -42810   -43189   -43576   -44001   -44431   -44844   -45238   -45601 
  -45919   -46170   -46391   -46661   -46986   -47330   -47693   -48052 
  -48394   -48760   -49155   -49569   -50032   -50540   -51048   -51516 
  -51917   -52255   -52534   -52736   -52854   -52891   -52863   -52805 
  -52736   -52645   -52521   -52364   -52213   -52109   -52050   -52037 
  -52061   -52073   -52061   -52022   -51896   -51626   -51206   -50647 
  -49956   -49164   -48310   -47394   -46402   -45347   -44233   -43090 
  -42005   -40994   -40020   -39082   -38205   -37388   -36635   -35986 
  -35438   -34986   -34681   -34519   -34501   -34694   -35097   -35663 
  -36367   -37152   -37978   -38839   -39683   -40467   -41163   -41736 
  -42210   -42616   -42939   -43196   -43428   -43621   -43731   -43731 
  -43658   -43618   -43638   -43690   -43866   -44216   -44648   -45160 
  -45799   -46517   -47295   -48167   -49140   -50229   -51450   -52792 
  -54218   -55667   -57055   -58330   -59462   -60434   -61292   -62069 
  -62734   -63269   -63677   -63963   -64115   -64101   -63956   -63720 
  -63347   -62890   -62525   -62220   -61776   -61267   -60894   -60536 
  -60062   -59647   -59302   -58842   -58318   -57762   -57077   -56277 
  -55388   -54417   -53381   -52271   -51090   -49861   -48592   -47288 
  -45960   -44635   -43403   -42336   -41426   -40652   -39979   -39374 
  -38825   -38293   -37774   -37302   -36867   -36459   -36125   -35899 
  -35773   -35744   -35824   -36017   -36321   -36747   -37305   -38008 
  -38849   -39775   -40746   -41707   -42582   -43360   -43980   -44338 
  -44428   -44281   -43911   -43371   -42751   -42100   -41406   -40675 
  -39924   -39145   -38388   -37750   -37286   -37020   -36970   -37106 
  -37384   -37790   -38295   -38857   -39475   -40156   -40896   -41712 
  -42581   -43461   -44338   -45154   -45839   -46399   -46847   -47142 
  -47260   -47193   -46907   -46340   -45446   -44265   -42884   -41366 
  -39814   -38336   -36912   -35496   -34221   -33216   -32456   -31994 
  -31935   -32223   -32794   -33674   -34848   -36249   -37828   -39539 
  -41325   -43118   -44856   -46465   -47890   -49087   -49979   -50541 
  -50809   -50832   -50673   -50374   -49958   -49484   -48975   -48472 
  -48071   -47777   -47583   -47557   -47744   -48137   -48703   -49387 
  -50084   -50709   -51267   -51772   -52265   -52798   -53337   -53899 
  -54518   -55147   -55783   -56448   -57091   -57671   -58213   -58658 
  -58963   -59306   -59634   -59743   -59842   -59953   -59887   -59797 
  -59648   -59308   -58873   -58277   -57486   -56553   -55385   -53961 
  -52284   -50280   -48010   -45614   -43172   -40757   -38414   -36157 
  -34006   -31990   -30126   -28419   -26895   -25555   -24400   -23461 
  -22747   -22271   -22034   -22029   -22266   -22738   -23403   -24236 
  -25222   -26323   -27530   -28864   -30309   -31836   -33453   -35123 
  -36793   -38466   -40121   -41686   -43093   -44301   -45301   -46068 
  -46617   -47046   -47322   -47346   -47191   -46935   -46558   -46099 
  -45665   -45343   -45198   -45224   -45326   -45571   -45998   -46404 
  -46845   -47398   -47882   -48344   -48801   -49185   -49575   -49986 
  -50508   -51256   -52118   -53001   -53892   -54769   -55676   -56645 
  -57653   -58777   -60202   -61877   -63279   -64334   -65755   -67208 
  -68074   -68962   -69739   -70164   -70650   -70888   -71052   -71288 
  -71224   -71114   -70883   -70417   -69903   -69140   -68195   -67168 
  -65757   -63983   -61952   -59555   -56900   -54103   -51135   -48108 
  -45194   -42449   -39914   -37654   -35673   -33969   -32556   -31434 
  -30629   -30121   -29823   -29728   -29841   -30074   -30370   -30677 
  -31068   -31664   -32137   -32384   -32892   -33501   -33867   -34365 
  -34961   -35342   -35646   -35916   -36119   -36341   -36563   -36824 
  -37255   -37846   -38592   -39533   -40590   -41772   -43133   -44594 
  -46190   -48008   -49997   -52123   -54349   -56594   -58823   -60979 
  -62992   -64825   -66389   -67655   -68675   -69381   -69723   -69758 
  -69455   -68757   -67742   -66551   -65275   -63942   -62609   -61349 
  -60228   -59306   -58598   -58019   -57542   -57343   -57296   -57094 
  -56920   -56850   -56626   -56276   -55859   -55244   -54385   -53294 
  -51951   -50439   -48863   -47212   -45542   -43976   -42562   -41363 
  -40413   -39670   -39110   -38710   -38385   -38088   -37836   -37595 
  -37315   -37012   -36627   -36059   -35321   -34413   -33299   -32050 
  -30716   -29325   -27969   -26654   -25353   -24111   -22921   -21781 
  -20770   -19897   -19165   -18657   -18386   -18308   -18427   -18705 
  -19061   -19441   -19776   -20044   -20298   -20578   -20921   -21360 
  -21898   -22541   -23288   -24185   -25342   -26824   -28654   -30819 
  -33209   -35693   -38151   -40470   -42564   -44419   -46102   -47622 
  -49013   -50423   -51869   -53312   -54851   -56497   -58197   -60016 
  -61893   -63679   -65422   -67078   -68461   -69588   -70467   -70991 
  -71209   -71189   -70939   -70544   -70110   -69636   -69137   -68702 
  -68331   -68018   -67835   -67838   -68074   -68507   -69035   -69616 
  -70154   -70578   -70919   -71174   -71370   -71563   -71746   -71910 
  -72019   -72027   -71897   -71563   -71026   -70308   -69401   -68364 
  -67256   -66104   -64923   -63719   -62569   -61502   -60496   -59615 
  -58784   -57914   -57056   -56135   -55117   -54053   -52860   -51512 
  -50109   -48694   -47309   -46036   -44924   -43960   -43142   -42461 
  -41837   -41246   -40699   -40152   -39626   -39138   -38682   -38259 
  -37827   -37463   -37297   -37324   -37572   -38039   -38646   -39382 
  -40196   -40982   -41734   -42483   -43219   -43925   -44623   -45379 
  -46217   -47102   -48006   -48877   -49663   -50348   -50907   -51316 
  -51548   -51590   -51488   -51271   -51001   -50723   -50423   -50218 
  -50184   -50237   -50381   -50649   -51011   -51448   -51904   -52318 
  -52696   -53050   -53391   -53754   -54170   -54659   -55206   -55743 
  -56260   -56756   -57202   -57612   -57962   -58213   -58376   -58365 
  -58118   -57674   -57011   -56115   -55077   -54007   -52962   -51983 
  -51153   -50456   -49829   -49362   -49075   -48824   -48582   -48335 
  -47968   -47484   -46931   -46282   -45536   -44686   -43676   -42458 
  -40991   -39253   -37309   -35281   -33246   -31231   -29282   -27448 
  -25763   -24251   -22899   -21697   -20680   -19896   -19369   -19141 
  -19241   -19638   -20261   -21086   -22172   -23429   -24718   -26119 
  -27609   -28990   -30244   -31346   -32162   -32700   -33020   -33111 
  -33046   -32906   -32697   -32414   -32024   -31464   -30749   -29931 
  -29066   -28275   -27655   -27205   -27080   -27382   -27854   -28474 
  -29383   -30368   -31449   -32807   -34314   -35923   -37641   -39331 
  -40905   -42351   -43676   -44874   -45975   -47035   -48071   -49111 
  -50164   -51147   -52004   -52734   -53292   -53690   -54062   -54484 
  -55022   -55775   -56732   -57845   -59106   -60457   -61864   -63350 
  -64882   -66419   -67949   -69412   -70723   -71848   -72743   -73335 
  -73583   -73487   -73092   -72476   -71689   -70750   -69685   -68519 
  -67257   -65945   -64654   -63392   -62149   -60960   -59843   -58835 
  -57971   -57226   -56611   -56135   -55775   -55556   -55486   -55533 
  -55670   -55830   -55917   -55827   -55464   -54785   -53799   -52550 
  -51114   -49537   -47813   -45953   -43992   -41954   -39863   -37771 
  -35751   -33863   -32154   -30700   -29557   -28718   -28177   -27905 
  -27817   -27857   -28004   -28249   -28630   -29185   -29932   -30865 
  -31966   -33238   -34606   -35919   -37135   -38254   -39193   -39894 
  -40338   -40515   -40463   -40220   -39823   -39336   -38828   -38365 
  -37973   -37669   -37495   -37441   -37499   -37714   -38081   -38562 
  -39137   -39804   -40585   -41449   -42351   -43267   -44109   -44844 
  -45492   -46030   -46502   -46978   -47473   -48002   -48579   -49171 
  -49715   -50209   -50701   -51218   -51826   -52606   -53579   -54762 
  -56189   -57841   -59666   -61621   -63705   -65927   -68231   -70591 
  -73029   -75489   -77923   -80345   -82697   -84928   -87045   -88975 
  -90662   -92167   -93453   -94422   -95064   -95369   -95338   -95042 
  -94529   -93753   -92664   -91248   -89455   -87263   -84721   -81830 
  -78557   -74951   -71100   -67115   -63123   -59202   -55427   -51938 
  -48813   -46006   -43497   -41318   -39455   -37877   -36577   -35547 
  -34801   -34345   -34150   -34165   -34332   -34592   -34884   -35177 
  -35496   -35867   -36289   -36709   -37069   -37329   -37416   -37310 
  -37073   -36764   -36485   -36343   -36376   -36598   -36978   -37410 
  -37791   -38062   -38223   -38338   -38470   -38653   -38944   -39404 
  -40014   -40710   -41457   -42209   -42950   -43700   -44388   -44925 
  -45306   -45506   -45500   -45319   -44998   -44615   -44254   -43939 
  -43752   -43805   -44132   -44759   -45751   -47118   -48799   -50723 
  -52831   -55086   -57440   -59795   -62069   -64177   -66003   -67480 
  -68574   -69282   -69629   -69609   -69268   -68710   -67989   -67147 
  -66207   -65141   -63982   -62797   -61574   -60332   -59143   -57991 
  -56849   -55742   -54633   -53472   -52272   -51043   -49765   -48433 
  -47081   -45718   -44347   -43032   -41824   -40725   -39717   -38799 
  -37994   -37304   -36763   -36429   -36323   -36431   -36737   -37203 
  -37735   -38258   -38714   -38990   -39033   -38852   -38406   -37690 
  -36743   -35559   -34191   -32749   -31293   -29881   -28552   -27298 
  -26101   -24965   -23909   -22974   -22221   -21680   -21338   -21201 
  -21260   -21469   -21810   -22282   -22899   -23681   -24628   -25759 
  -27103   -28655   -30394   -32287   -34259   -36203   -38027   -39677 
  -41150   -42473   -43682   -44857   -46026   -47158   -48286   -49442 
  -50601   -51796   -53068   -54387   -55761   -57183   -58581   -59941 
  -61298   -62673   -64107   -65625   -67227   -68892   -70540   -72104 
  -73536   -74741   -75689   -76378   -76727   -76711   -76365   -75663 
  -74619   -73289   -71704   -69953   -68167   -66423   -64818   -63453 
  -62301   -61333   -60586   -60033   -59661   -59448   -59295   -59163 
  -59038   -58892   -58757   -58622   -58433   -58175   -57845   -57470 
  -57074   -56633   -56110   -55502   -54892   -54312   -53694   -53040 
  -52421   -51868   -51372   -50900   -50458   -50039   -49575   -49048 
  -48466   -47827   -47164   -46459   -45667   -44837   -44009   -43172 
  -42348   -41520   -40642   -39720   -38792   -37912   -37152   -36566 
  -36184   -36058   -36206   -36610   -37291   -38272   -39559   -41131 
  -42937   -44932   -47053   -49234   -51433   -53591   -55646   -57587 
  -59398   -61031   -62446   -63591   -64423   -64952   -65217   -65274 
  -65194   -65020   -64756   -64428   -64062   -63671   -63312   -63009 
  -62738   -62535   -62429   -62410   -62445   -62485   -62532   -62595 
  -62638   -62642   -62584   -62404   -62065   -61565   -60919   -60159 
  -59336   -58492   -57654   -56814   -55977   -55164   -54376   -53627 
  -52932   -52297   -51728   -51239   -50868   -50655   -50607   -50718 
  -50982   -51387   -51911   -52512   -53171   -53883   -54614   -55320 
  -55970   -56556   -57063   -57439   -57630   -57654   -57527   -57227 
  -56765   -56160   -55446   -54684   -53884   -53052   -52187   -51243 
  -50226   -49181   -48142   -47125   -46094   -45018   -43897   -42732 
  -41544   -40339   -39129   -37961   -36864   -35846   -34928   -34129 
  -33457   -32910   -32492   -32188   -31962   -31776   -31591   -31414 
  -31290   -31251   -31334   -31561   -31954   -32527   -33232   -34027 
  -34895   -35780   -36664   -37544   -38367   -39106   -39742   -40229 
  -40572   -40795   -40866   -40777   -40587   -40348   -40078   -39802 
  -39574   -39437   -39375   -39336   -39270   -39161   -39004   -38804 
  -38612   -38465   -38379   -38417   -38614   -38959   -39448   -40058 
  -40744   -41483   -42272   -43086   -43899   -44729   -45565   -46345 
  -47059   -47740   -48377   -48946   -49403   -49678   -49783   -49795 
  -49717   -49483   -49042   -48382   -47476   -46315   -44927   -43354 
  -41664   -39913   -38128   -36374   -34698   -33096   -31592   -30205 
  -28975   -27959   -27107   -26436   -26051   -25656   -25106   -24881 
  -24803   -24359   -23907   -23536   -22978   -22445   -21998   -21588 
  -21337   -21237   -21294   -21574   -22093   -22864   -23921   -25280 
  -26917   -28820   -30977   -33328   -35812   -38402   -41023   -43597 
  -46106   -48495   -50695   -52707   -54543   -56170   -57588   -58869 
  -60049   -61130   -62144   -63077   -63921   -64702   -65407   -66047 
  -66688   -67366   -68103   -68906   -69751   -70634   -71528   -72343 
  -73028   -73578   -73969   -74246   -74468   -74604   -74655   -74648 
  -74533   -74294   -73948   -73485   -72937   -72334   -71579   -70565 
  -69367   -68060   -66418   -64401   -62397   -60337   -58019   -55823 
  -53846   -51986   -50395   -49077   -48033   -47305   -46835   -46640 
  -46725   -47000   -47437   -48043   -48732   -49431   -50089   -50610 
  -50969   -51178   -51237   -51185   -51038   -50815   -50516   -50129 
  -49700   -49248   -48755   -48251   -47739   -47192   -46639   -46102 
  -45582   -45092   -44605   -44086   -43544   -42955   -42310   -41669 
  -41066   -40526   -40088   -39788   -39665   -39707   -39870   -40179 
  -40712   -41500   -42387   -43145   -43908   -44840   -45644   -46226 
  -46753   -47106   -47160   -46959   -46566   -45978   -45180   -44249 
  -43260   -42246   -41237   -40244   -39283   -38361   -37473   -36637 
  -35875   -35185   -34571   -34027   -33538   -33117   -32754   -32457 
  -32302   -32310   -32465   -32843   -33498   -34353   -35491   -37062 
  -38812   -40599   -42634   -44734   -46689   -48640   -50492   -52136 
  -53644   -54976   -56136   -57194   -58162   -59057   -59894   -60660 
  -61347   -61959   -62494   -62936   -63277   -63522   -63650   -63571 
  -63210   -62602   -61805   -60835   -59745   -58671   -57604   -56403 
