Origin Time       2011/03/11 14:46:00
Lat.              38.103
Long.             142.860
Depth. (km)       24
Mag.              9.0
Station Code      SZO001
Station Lat.      35.1425
Station Long.     139.0798
Station Height(m) 74
Record Time       2011/03/11 14:47:49
Sampling Freq(Hz) 100Hz
Duration Time(s)  260
Dir.              U-D
Scale Factor      3920(gal)/6182761
Max. Acc. (gal)   11.870
Last Correction   2011/03/11 14:47:34
Memo.             
[...]
    5000     3296     4150     7357     7153     2526    -3216    -6757 
   -6654    -4241      382     2326    -4852   -10602    -5777    -1790 
   -2663     -435     2515     1927    -1082    -5141    -4995     -913 
   -1656    -4831    -3059    -3305    -9456   -10102    -3508    -1540 
   -4679    -4608    -4179    -8411    -9762    -4200     -587    -2715 
   -6183    -9256   -10928    -9421    -5475      129     5086     2918 
   -4631    -5661      634     6083    10045    10787     6357     3868 
    4566     2969      753     -442    -2303    -3155     -682     3802 
    3900    -1196     -456     5154     2142    -3572     1547     9690 
    8756     1907    -3328    -5077    -4208    -1560     1220     2824 
    3035      978    -3136    -7251    -9897    -7721      840     5754 
   -2482   -14682   -15930    -7373    -2152    -5603    -8974    -4285 
    1038    -6119   -17394   -11160     4486     3862    -7548    -8646 
    -805     3585     2107     -582    -1452    -1861    -3753    -4613 
   -1862     1148     1502      941     -157    -1647      905     6351 
    3963    -5223    -6408      365     3754     3153      252    -3695 
   -1764     2480     -855    -5006    -2118     -153    -1653     1075 
    5793     5679     4309     6220     7289     3552      389     3979 
    7413     2563    -2577     1077     7680     8370     4039     1340 
    2924     6524    10895    14047    11838     6469     4230     3650 
    1971     4208    11058    14253     8906    -2539   -12227   -12449 
   -5571      -66      734     -920    -3189    -7855   -13681   -12458 
   -3837      848     -423     -113    -1250    -7383    -6924     1969 
    2797    -5021    -8554    -8769    -7914    -1991     3075      242 
   -4506    -4661    -2246     1895     7864     8655     1367    -5296 
   -5104      311     5511     3803    -2026    -2781    -1540    -4185 
   -3499     1731      188    -4975     -516     7919     9626    10065 
   10695     3814    -5216    -6018    -1553     1892     4243     4516 
    -182    -4907    -1931     2471      625     2153     9824     7984 
   -2904    -4892     1426     1576    -4348    -6365    -3320    -1351 
   -1968    -1904    -1244    -1523    -2431    -5519    -7632    -1257 
    7173     5507    -1849    -6046    -7651    -7504    -4205     1599 
    6369     4857    -3071    -9586    -8447    -4313    -4910    -6993 
   -4679    -2985    -5557    -5978    -2796     -698      859      820 
   -3719    -6858    -5350    -5979    -9162    -8087    -4974    -6469 
   -8449    -6016    -4662    -6099    -6325    -7481   -10068    -8720 
   -3729     -248     -328    -2381    -3648    -4158    -5116    -4725 
   -2925    -2643    -3186    -1256      461    -3381    -5502     2209 
    6190    -2764    -7516     -573     1466    -6262    -9174    -2885 
    2524     3647     3805     2831     2842     6616     7224     -826 
   -8046    -5726     -456      510     -113     -513    -3312    -6137 
   -3574     1563     3801     7090    12342     8735    -3755    -9059 
   -1171     7643     6366     -403    -3357    -1408     3153     5633 
    1698    -1746     1147     1631    -4864    -8385    -4122     -355 
   -2335    -6525    -9145    -7315    -2676    -4928   -13474   -13943 
   -7146    -4844    -3092    -1117    -8936   -15236    -6836     1327 
    1608     3517     3122    -3380    -3669     2800     1512    -3258 
    1808     4662    -6009   -11707    -3163      697    -6434   -10277 
   -7068    -2053     3660     3015    -8628   -15954    -8283      251 
    -378    -2492    -3379    -4868    -3123     -442    -2004    -2845 
    -413     -814    -3374    -3755    -3714    -1874     2621     3057 
    -444     -681     1594     -588    -5648    -2606     5151     2549 
   -3440      145     2094    -4052    -5560     -308     3273     4887 
    5467     2257    -2067    -2593    -1078    -1041    -1440    -1605 
   -3446    -4974    -4006    -4218    -4317      825     4341     -339 
   -2957     2177     2982    -4360    -7578    -2958      197    -3426 
   -9068    -9164    -3334       44    -4724    -9875    -5937     -445 
   -2764    -5078    -1083     2342      901    -2515    -4843    -3803 
     758     5311     6104     1738    -3803    -3396     1015     1875 
    -104     -840     -534     -709     -296     3133     5926     3306 
      50      -11     -189      198     2462     2137     -736     -714 
    2750     6522     7900     4354    -2132    -5194    -2121     4333 
    8896     8649     6216     2009    -5407    -9075    -3505     4217 
    6731     3875    -2118    -5849    -3599    -1215    -1995      769 
    5706     2944    -5127    -7548     -856     7357     6476     -161 
   -1290      330    -1860    -2914     1603     5755     2118    -4665 
   -4791    -1419    -1352    -1298     -276    -2104    -3794    -1325 
    3241     6123     4809     2006     2483     2135    -3199    -5739 
   -1466     1564    -1083    -6807   -10899    -7934    -1754    -1056 
   -1766     2160     3654    -1189    -4304    -2443     -496     -593 
   -3660    -9596   -11274    -5525    -1739    -4115    -5105    -3376 
   -3528    -3918    -3437    -4223    -2987     2121     3681    -1777 
   -6997    -7117    -4391    -3094    -7328   -12379    -7441     2060 
     368    -9182    -9823     -465     4494      921     -526     3947 
    6795     5691     4584     3360      959     -882    -1164      569 
    3485     5882     6214     1915    -3596    -2969     1317     2409 
    1216     1077     -547    -6451   -11299   -10037    -5965    -3193 
   -3535    -6213    -7295    -6668    -5727    -2813      140     -923 
   -4836    -7368    -7695    -7226    -4484    -1160    -2720    -6257 
   -5965    -3437    -1386     -705     -559     -138    -4301   -11793 
  -10911    -3288    -1455    -3996    -4641    -6731   -10818   -10687 
   -5352     -767    -2325    -8577   -10705    -4991      -92     -335 
     617     2272    -1225    -5820    -4746     -902     -938    -4483 
   -7350   -10008   -11515    -7093    -1144    -1722    -4785    -4809 
   -4050    -1934     2698     4093     -106    -3611    -2891    -1893 
   -2503     -807     2402     -429    -7831    -7701      545     2546 
   -4982    -7405     1317     8268     4240    -3269    -3552     2330 
    4636     1647     1972     6465     5340    -2834    -6221     1705 
   11391    11738     4901      811     3701     6969     5505     6199 
   11021     8796    -1453    -6673    -2352     3616     2562    -4938 
   -8040    -3887    -1398     -984     1258      640    -3523    -4690 
   -2745    -2268    -1957     2053     5603     1066    -6689    -4956 
    3277     3449    -3483    -6102    -5052    -6247    -6529    -1700 
    3057     2217       -7     1356     3579     1469    -4743    -7864 
   -4298      308      683    -2738    -5535    -5253    -5364    -6171 
   -4045    -1059     -694    -2967    -6976    -8409    -3477     2692 
    3486      813     -455     -571    -2651    -4995    -2304     2856 
    3556     1422    -1596    -7043    -8073    -1735      429    -3945 
   -3840     -119    -1060    -2949    -1762    -1441    -1042      422 
   -2405    -7666    -7584    -3368    -2215    -4879    -7276    -9040 
   -8677    -2627     3692     2946    -1989    -4932    -4496    -3044 
   -1353      675      422    -1037    -1164    -3134    -5446    -2894 
     596      240    -1906    -3274    -2986    -2110    -2293    -3494 
   -4883    -2486     5194     7124    -3715   -13132    -8586      277 
    2198     1957     3944     2973     -656    -1600     -473     1599 
    4657     5959     3872     -147     -810     4264     6038     -498 
   -6319    -5911    -1662     4801     7692     1404    -6871    -9561 
   -9745    -7689    -1624      556    -6114   -12129    -8972    -2508 
   -1514    -3951    -4403    -4079    -4446    -2523     1983     4394 
    2447     -183      107     2116     4439     7555     8577     3591 
   -4545    -8191    -4645     -608    -2633    -5466    -2133     -135 
   -6331    -9246     -955     7318     7025     3652     3729     5645 
    3627     -623      630     6448     8799     4572    -1115    -1022 
    2284     2760     3670     4952     2087      255     2394     2789 
    1422     -361    -6666   -12770    -7700     2704     5451     4436 
    5346     2332    -4233    -4848     3249    11275    10262     2207 
   -4940    -5824    -2306    -1947    -3939    -2522    -3695   -10639 
  -12295    -6432    -3800    -6600    -8873    -9683    -9031    -4004 
    1283      767     -112     1616      140     -478     4664     6777 
    1506    -3661    -3922    -3182    -4892    -4432      346     3069 
     794    -1415      -75     -265    -4286    -3753     2097     3507 
    -531    -4243    -4062      -89     1202    -2156    -2775     -117 
     134     -740     1538     5602     5949     1523    -2302    -2464 
     330     5435     8141     3158    -3331    -3109    -1800    -4289 
   -3659      157     -303    -2567    -2332    -1932     -587     1884 
     192    -4592    -4921     -580     1131    -1572    -3385    -3673 
   -5140    -5045    -1846      600      498     -694    -1280    -1593 
   -3847    -5394    -2169      849     -289     -299      256    -2677 
   -1165     6586     7273     1659      390    -1484    -7175    -6800 
     967     6701     5714      578    -4951    -7867    -6007    -1787 
     195    -1522    -6740   -10831    -7413    -1129       78    -1414 
   -3211    -6105    -5184     -143     1311     1341     6343     8444 
    1282    -3928    -2236    -4552   -10433    -9901    -5217    -2317 
   -2337    -3503     -990     3249     4302     5108     5912     3498 
     154    -1035     1301     5624     7084     4445     -183    -4892 
   -6243    -1409     5466     5045    -1746    -2407     1849    -2947 
  -11803   -10421    -4582    -3356    -3764    -5303    -7566    -5074 
    -288     -406    -1506     3096     6290      541    -4650    -1459 
     977    -1874    -2672    -1129    -1314    -1165     -727    -3229 
   -6376    -4792      185     1075    -2265    -4414    -6016    -6716 
   -5697    -5882    -3227     2693     2325    -1135     2185     6616 
    4936     2018     1108      784     1051     -710    -3457     -233 
    5930     6492     3350     1446      465      867     3690     3601 
   -4039    -9254    -1911     6670     5715     5339     8976     3564 
   -8063    -6854     6277    12605     9505     6712     2665    -4907 
   -8133    -5833    -4222    -1704     3876     5634     1245    -1271 
     161       31     -137     2358     2432      658     2736     4439 
    1270     -506     2776     4144      787     1343     5430     1666 
   -4091      166     4533     1580     1417     5231     6639     6361 
    4576     1630      830      595    -1527    -2603      -35     3276 
     543    -7286    -8456    -1809     1619     1944     5011     6040 
     108    -5235      100    10631    12573     6563      595    -4439 
   -5070     -893    -3469   -11083    -6885     4762     3987    -3932 
   -1974     2308      155      347     2706      156    -1581     1581 
   -1065    -9516    -6522     2862      818    -2224     3377     4079 
   -2000    -3650     -689     1391     3010     5948     4102    -5822 
   -9744       25     7637     2973    -5764    -9819    -7518    -5020 
   -7697    -7907     1858     8916     -784   -10712    -1625     9387 
    6250     2908     5235     3783     1903     5624     7244     1082 
   -7152   -10884    -7367      861     5989     3872    -2661    -8144 
   -9603    -8714    -4123     4873     5739    -5566   -10381    -3903 
    -416     -772      979     3547     4725     3114     2166     5711 
    7585     2637    -3139    -3323    -2161    -6091   -10235    -7764 
   -2496    -1219    -3063    -3731    -4813    -5426      225     4205 
   -3021    -6668     2996     6785    -1398    -5239    -4885    -6117 
   -2330     2548     -880    -4602    -1125     1392       94      491 
     423      -95     2972      -79   -10082    -6845     5402     6902 
    3857     3184     2165     3306     3435     1586     1023     -654 
     685     5286     3368    -2429    -6021    -7646    -5213     -891 
    1272     1181      650     1624     -695    -7246    -6590     4013 
   10825     4540    -5590    -6713    -3569    -6268    -8946    -5403 
   -3488    -4882    -1338     3719      368    -5674    -5679    -4733 
   -3114      621    -2313    -5508     2471     8331     3464     1325 
    5708     6254      719    -3362     1911    13760    14571     1706 
   -2162     3127    -2615    -8230     1340     6875    -1095    -4471 
    1632     3060    -5028   -11665   -10788    -8191    -6744    -7146 
   -9504    -9500   -10499   -16195   -17415   -10585    -3854    -2887 
   -4955    -4866    -3678     -781     2767    -1158    -4283      467 
   -3235   -11145    -4399     1666    -7988   -15668   -11197    -5234 
   -4117    -4304    -2935    -3460    -7869   -13904   -17478   -13396 
   -7332    -6205    -3032     1370      200      721     4099      336 
   -6502    -4669     4220     8119     2573    -2855    -3468    -4427 
   -3500     1036     1585        1     2321     2719      725      671 
    -255     2810     9422     2967   -11435   -12159    -4896    -5538 
   -8455    -5234    -3646    -8448    -7319     1782     5596     5335 
    5026     -691    -5690    -1696     2506    -2754    -9954   -10559 
  -13307   -19938   -14998    -3907    -6372   -16333   -19019   -14349 
   -8864   -11460   -18020   -12055    -1693    -7143   -15724   -10944 
   -8059   -12421    -7131     2184     -989    -8341    -7835    -4174 
   -2636      636     6035     5878      348    -2104     1082     5860 
    5722      819      141     2348    -4417   -14691   -11964    -3820 
   -5265    -6169      311      -84    -8128    -7681     1449     5311 
    1557     -377     3253     5079     -656    -5910    -2198     1052 
   -3925    -4398     2669     -512   -12049   -11526    -4352    -7393 
  -11045    -5731    -3409    -6527    -6725    -6624    -7995    -6645 
   -5460    -8111    -9961    -6640    -2324    -3854    -8242    -7398 
   -5619    -8499    -6521     2114     3572    -1973    -2826     -300 
     738     3107     7132     9380     8002     4468     2808     3101 
    3175     3027       38    -4236    -2967     -736    -3346    -3911 
   -1961    -4342    -7101    -6327    -6031    -4795    -1390    -1132 
   -2744    -1108     1616     2104     1794     1652     -427    -4032 
   -4748    -1210     2134     1137    -2882    -4521    -1772       35 
   -2268    -4022    -2171     -307    -1115    -2221    -2935    -3819 
   -2090     -404    -3597    -4607      965     1186    -6661    -7106 
    -948    -4260   -12253   -12960   -11465    -8222     2893    10423 
    3351    -4648    -1505     3931     4989     5316     6015     7122 
    7742     3868    -1775    -2421     -593    -2460    -5221    -2745 
    1304     -415    -4917    -5147       41     6827     8969     7069 
    7397     6713     2355     2430     7135     8303     5004     2192 
    3900     5528     -187    -5960    -3515      521     2619     5920 
    6423     1725    -1947     -346     5124    10114    10096     6947 
    5078      756    -5616    -1879     8734     8422       72    -1211 
    2425     1537       96     5636     9947     5395     2579     4242 
     697    -2103     2930     5371     1468    -1219    -2614    -4787 
   -4566    -2737    -4226    -7623    -7768    -5555    -2463     1862 
    1320    -5155    -8242    -8479   -11444   -13200   -13283   -15091 
  -14319   -10239   -10513   -15001   -15968   -12843    -9688    -6135 
   -1913     -260    -2298    -5729    -7423    -5871    -3903    -3154 
    -884      748    -2000    -5097    -6032    -5812    -2218     1959 
    1210     -661     -523    -3798   -10220    -9937    -1119     4464 
    1189    -1788      729     2180        0      455     3495      800 
   -4325    -1144     3833     1741     1153     5319     6297     5125 
    5107     1747    -4360    -5077     -354      671    -1793     1981 
    7985     3266    -6466    -7851    -5103    -5374    -3997      279 
    2180     2487     2356    -2258    -7161    -3904     2751     5029 
    4406     2792     1345     2285     3482     2850      627    -3731 
   -6557    -5501    -4954    -3530     1897     3940    -2520   -10598 
  -12280    -7720    -2441      682     1282    -2362    -7716    -8662 
   -6152    -3870     -405     2315     -237    -2845      -45      758 
   -4259    -5563     -966      707      -35     2851     4605     -709 
   -7169    -7259    -3157     1349     7925    13265     9143      906 
    1459     7531     8948     6945     5811     7492    11255    10433 
    5515     5807    10593    11090     5869     2741     6772    10235 
    7180     6387    10645     9927     3803      270     2369     8308 
   10439     5280     3107     8444    10452     5638     3761     6524 
    5282      592     1055     4445     3524     2332     5414     8236 
    8575     7688     5939     5381     5020     3605     5486     8819 
    7130     3622     4258     7961     9961     8231     5726     3127 
     -56     1703     7796     7615      153    -4947    -4688    -3232 
   -2869    -2425      158     2886     2176     -287    -2134    -2112 
    -177    -2280    -7243    -4374     2546     2017    -1778    -1568 
   -1242    -2180     -285     1387      -86     -405      706     1802 
    3972     2459    -4159    -4933     4418    11109     5960    -1212 
    -312     1573     -920     -276     5224     7944     3695    -3668 
   -5459      483     5413     2902    -2570    -3559    -1006    -1427 
   -3444     -818     2154    -2615    -9360    -8291    -3780    -4007 
   -5269     -810     5578     5625      864     -783      215    -1000 
   -1567       -8    -2325    -6091    -3422     -904    -5159    -5933 
      43     2330      918     2734     6635     8945     8627     6344 
    4148     4448     7896    10395     7646     2632      814     1551 
     507    -1819    -1399      666      957      417      937     1991 
     855    -3725    -5817    -1017     2672    -1077    -5689    -6794 
   -6442    -4156    -3230    -6954    -8595    -7381    -9295    -8379 
   -1326      894    -3951    -5452    -1386     1085      818     2377 
    4230     2449      231     2811     7942     8560     5041     4267 
    7009    10077    13054    14394    12181     8670     7002     7130 
    6514     3889     1452      -76    -2994    -5632    -4332    -1620 
   -2279    -5170    -5475    -3391    -3678    -5227    -3207     -278 
   -1556    -4471    -3558     -482    -1501    -5350    -4964     -799 
    1274      791      356     -327    -1105     -293      296    -1009 
    -900      860     -285    -2845    -1755       57    -1588    -2357 
   -1343    -4862    -8776    -4296     1743      518    -1707      616 
    1063    -4191    -8190    -5882    -1572     1326     4631     6796 
    3253    -3673    -5864    -2574    -1142    -1444     3149     9215 
    7455       54    -2367     1570     3309      627     -430     1045 
     397    -2658    -4723    -3760      601     5331     5627     2435 
     647      906      953      244      988     5226     8511     5523 
