Origin Time       2011/03/11 14:46:00
Lat.              38.103
Long.             142.860
Depth. (km)       24
Mag.              9.0
Station Code      SZO006
Station Lat.      34.9111
Station Long.     138.7948
Station Height(m) 10
Record Time       2011/03/11 14:48:03
Sampling Freq(Hz) 100Hz
Duration Time(s)  221
Dir.              N-S
Scale Factor      3920(gal)/6182761
Max. Acc. (gal)   11.419
Last Correction   2011/03/11 14:47:48
Memo.             
[...]
    1059      204     -778    -2055    -3475    -4566    -4752    -3926 
   -2733    -1834    -1286     -856     -380      -84     -382     -983 
   -1281    -1144     -589      246     1156     2232     3472     4518 
    4890     4420     3380     1952      213    -1405    -2445    -2964 
   -3277    -3426    -3439    -3634    -3995    -4183    -4239    -4255 
   -4001    -3464    -2802    -1952     -921      160     1131     1641 
    1454      741     -163     -986    -1655    -2312    -3050    -3750 
   -4228    -4417    -4265    -3662    -2633    -1370     -197      453 
     354     -375    -1429    -2432    -3229    -3821    -4013    -3754 
   -3288    -2785    -2412    -2296    -2305    -2296    -2380    -2660 
   -2919    -2878    -2549    -2035    -1456     -884      -94      919 
    1756     2404     3132     3924     4688     5257     5357     5077 
    4844     4813     4834     4809     4597     4023     3209     2325 
    1328      287     -659    -1585    -2645    -3867    -5086    -5995 
   -6429    -6478    -6224    -5804    -5451    -5261    -5349    -5744 
   -6152    -6464    -6810    -7027    -6825    -6243    -5647    -5337 
   -5249    -5178    -5145    -5387    -6114    -7170    -7887    -7673 
   -6577    -4971    -3170    -1385      349     2009     3389     4342 
    4938     5204     5199     5139     5127     5187     5432     5906 
    6554     7077     7020     6522     6115     5803     5430     4991 
    4259     3160     1872      499     -793    -1809    -2428    -2686 
   -2944    -3460    -3981    -4206    -4133    -3896    -3659    -3474 
   -3360    -3476    -3805    -4069    -4076    -3804    -3436    -3201 
   -3001    -2581    -1917    -1187     -607     -351     -459     -879 
   -1629    -2501    -3022    -3073    -2821    -2440    -2210    -2122 
   -1717     -710      665     1958     2834     3043     2565     1845 
    1390     1253     1187     1103     1077     1131     1251     1163 
     576     -119     -564    -1107    -1912    -2619    -2910    -2782 
   -2493    -2323    -2302    -2345    -2631    -3370    -4392    -5328 
   -5934    -6187    -6077    -5536    -4773    -4112    -3587    -3097 
   -2516    -1831    -1159     -527      -30      365      966     1687 
    2246     2724     3234     3637     3640     3138     2328     1398 
     391     -721    -1915    -3037    -3883    -4498    -5290    -6439 
   -7439    -7715    -7269    -6524    -5891    -5484    -5111    -4509 
   -3774    -3287    -3000    -2659    -2239    -1774    -1522    -1776 
   -2377    -2970    -3383    -3679    -3887    -3942    -3976    -3949 
   -3544    -2816    -2153    -1732    -1429    -1077     -617     -132 
     228      621     1391     2355     3029     3376     3601     3835 
    4139     4411     4562     4595     4484     4150     3471     2523 
    1494      491     -278     -731    -1009    -1168    -1280    -1379 
   -1279     -825     -211       99      -77     -403     -583     -732 
    -956    -1200    -1493    -1896    -2479    -3285    -4193    -5088 
   -5911    -6478    -6810    -7300    -8079    -8882    -9405    -9421 
   -8979    -8404    -7910    -7429    -6779    -5975    -5135    -4064 
   -2611    -1029      446     1655     2435     2916     3463     4189 
    4638     4295     3247     1829      297     -979    -1774    -2251 
   -2573    -2676    -2518    -2228    -1963    -1822    -1803    -1874 
   -2106    -2532    -2956    -3126    -3023    -2800    -2505    -2098 
   -1638    -1299    -1247    -1443    -1680    -1841    -1747    -1142 
    -419     -365     -946    -1632    -2379    -3384    -4735    -6253 
   -7275    -7234    -6251    -4773    -3273    -2167    -1542    -1333 
   -1619    -2381    -3378    -4419    -5501    -6659    -7880    -9005 
   -9856   -10576   -11161   -11197   -10757   -10344    -9962    -9370 
   -8558    -7421    -5877    -4226    -2644     -924     1141     3592 
    6126     8230     9807    11057    11860    12041    11661    10754 
    9382     7734     6012     4524     3468     2530     1312      -12 
    -978    -1420    -1518    -1612    -1801    -1708    -1096     -291 
     317      595      678      873     1141     1158      947      709 
     450      250      356      955     2055     3371     4520     5284 
    5539     5453     5324     5108     4818     4801     5162     5713 
    6243     6506     6451     6246     5897     5308     4683     4388 
    4423     4424     4264     4117     3825     2983     1848     1092 
     767      784     1269     2046     3135     4807     6823     8794 
   10458    11426    11536    11033    10098     8699     6850     4784 
    2866     1234     -225    -1473    -2424    -3183    -3803    -4348 
   -4992    -5636    -5944    -5755    -5210    -4696    -4535    -4607 
   -4511    -4037    -3326    -2601    -1886    -1153     -618     -666 
   -1374    -2340    -3285    -4249    -5178    -5965    -6673    -7480 
   -8464    -9431    -9983    -9800    -8826    -7249    -5281    -3017 
    -722     1125     2307     2972     3293     3342     3173     2792 
    2136     1252      352     -496    -1459    -2693    -4210    -5841 
   -7336    -8597    -9703   -10745   -11719   -12527   -13038   -13204 
  -13046   -12548   -11876   -11371   -11032   -10610   -10053    -9292 
   -8269    -7275    -6517    -5782    -5109    -4999    -5474    -5907 
   -5837    -5173    -4141    -3323    -3158    -3555    -4217    -4833 
   -5124    -5117    -5086    -5232    -5467    -5481    -5290    -5195 
   -5121    -4796    -4241    -3630    -2935    -2012     -864      435 
    1772     2954     3779     4123     4077     3847     3451     2601 
    1147     -512    -1967    -3072    -3716    -4054    -4363    -4703 
   -5060    -5336    -5387    -5155    -4700    -4173    -3645    -3111 
   -2585    -2059    -1490     -794      -54      515      794      614 
     -35     -810    -1493    -2113    -2663    -3028    -3212    -3333 
   -3333    -3173    -2857    -2274    -1482     -620       39       50 
    -443     -873    -1066    -1103     -983     -549      349     1528 
    2537     3016     2969     2709     2354     1684      650     -547 
   -1806    -3204    -4823    -6472    -7678    -8063    -7627    -6639 
   -5427    -4312    -3511    -3079    -2964    -2926    -2738    -2510 
   -2499    -2862    -3595    -4435    -5092    -5570    -5977    -6267 
   -6346    -6201    -5893    -5505    -5130    -4873    -4731    -4633 
   -4541    -4319    -3832    -3097    -2072     -790      413     1390 
    2293     3075     3573     3827     3951     3866     3461     2912 
    2502     2380     2539     2809     2934     2733     2276     1786 
    1290      756      395      323      352      326      179     -167 
    -705    -1432    -2383    -3452    -4460    -5316    -6007    -6543 
   -6957    -7306    -7584    -7698    -7528    -6894    -5759    -4401 
   -3113    -2056    -1305     -735     -110      627     1353     2015 
    2681     3256     3423     3015     2210     1350      705      269 
    -250    -1091    -2096    -2960    -3624    -4151    -4577    -4925 
   -5041    -4699    -3852    -2549     -914      857     2663     4402 
    5807     6642     6863     6575     6012     5378     4661     3623 
    1980     -230    -2540    -4579    -6413    -8195    -9937   -11540 
  -12649   -12940   -12609   -12023   -11200    -9950    -8175    -5983 
   -3646    -1426      514     1976     2648     2532     2125     1733 
    1309      918      727      876     1368     1811     1749     1324 
     970      656       71     -768    -1672    -2609    -3574    -4623 
   -5810    -6855    -7470    -7729    -7784    -7762    -7798    -7849 
   -7799    -7590    -7127    -6504    -6041    -5949    -6396    -7401 
   -8606    -9778   -10848   -11531   -11612   -11135   -10194    -8874 
   -7254    -5448    -3656    -2084     -884      -33      718     1462 
    1970     2066     1738     1012      -21    -1182    -2333    -3475 
   -4597    -5549    -6163    -6361    -6300    -6376    -6839    -7484 
   -7897    -7904    -7548    -6743    -5330    -3420    -1439      306 
    1808     2947     3615     4153     5064     6442     7744     8393 
    8463     8330     8094     7573     6754     5981     5401     4726 
    3793     2732     1610      410     -870    -2191    -3316    -4057 
   -4562    -5013    -5432    -5768    -5932    -5908    -5754    -5442 
   -4892    -4038    -2870    -1543     -272      777     1420     1512 
    1068      221     -906    -2203    -3579    -4949    -6078    -6791 
   -7249    -7702    -8252    -8762    -9053    -9223    -9333    -9174 
   -8641    -7860    -6969    -6109    -5459    -4984    -4478    -4051 
   -4072    -4655    -5605    -6551    -6976    -6517    -5377    -4055 
   -2779    -1596     -572      293      978     1483     2029     2849 
    3841     4647     5113     5545     6228     6776     6549     5602 
    4281     2682     1124      -75    -1034    -1932    -2746    -3410 
   -3915    -4101    -3684    -2811    -1970    -1304     -809     -714 
   -1074    -1634    -2094    -2178    -1780     -970      166     1497 
    2856     4133     5132     5537     5165     4135     2780     1391 
      36    -1311    -2564    -3507    -3960    -3899    -3403    -2592 
   -1600     -614      109      373        2    -1104    -2611    -4071 
   -5432    -6735    -7947    -9089   -10173   -11029   -11210   -10497 
   -9209    -7555    -5551    -3485    -1660      -59     1500     3024 
    4236     4875     4922     4598     4272     4080     3894     3754 
    3793     3873     3808     3646     3464     3206     2838     2374 
    1732      917       33     -992    -2160    -3247    -4181    -5002 
   -5579    -5660    -5134    -4193    -3185    -2372    -1779    -1312 
   -1047    -1102    -1402    -1748    -1830    -1399     -593      138 
     470      471      324       20     -634    -1746    -3070    -4284 
   -5231    -5880    -6353    -6688    -6735    -6400    -5772    -5074 
   -4415    -3702    -2952    -2356    -1930    -1548    -1259    -1096 
    -888     -467      234     1199     2352     3573     4697     5550 
    6052     6275     6260     6053     5727     5152     4316     3444 
    2575     1694      892      232     -246     -538     -601     -292 
     445     1567     2909     4124     5120     6077     6928     7375 
    7193     6402     5261     3896     2229      303    -1794    -3946 
   -5844    -7332    -8470    -9190    -9471    -9370    -8866    -8105 
   -7339    -6657    -6034    -5359    -4498    -3433    -2130     -472 
    1485     3475     5202     6402     7029     7266     7295     7234 
    7069     6609     5727     4495     2972     1303      -80     -927 
   -1253     -927      100     1667     3536     5277     6587     7471 
    7857     7753     7461     7207     7025     6899     6755     6531 
    6220     5744     4983     3936     2619      979     -881    -2664 
   -4064    -4909    -5422    -6102    -7051    -7893    -8428    -8725 
   -8749    -8359    -7518    -6400    -5217    -3995    -2722    -1554 
    -739     -491     -848    -1585    -2469    -3420    -4352    -5125 
   -5739    -6339    -6960    -7410    -7375    -6620    -5233    -3523 
   -1802     -398      545     1166     1687     2340     3116     3831 
    4449     4931     5165     4856     3651     1673     -817    -3752 
   -6799    -9497   -11643   -13122   -13952   -14336   -14341   -13959 
  -13314   -12444   -11259    -9772    -8189    -6806    -5756    -5103 
   -5039    -5585    -6461    -7403    -8245    -8725    -8601    -7950 
   -6986    -5777    -4359    -2793    -1169      347     1531     2212 
    2512     2767     3055     3234     3279     3313     3439     3542 
    3513     3535     3730     3981     4116     3964     3514     2937 
    2292     1490      548     -393    -1279    -2233    -3381    -4594 
   -5646    -6581    -7485    -8184    -8482    -8376    -7920    -6947 
   -5250    -3061     -880      917     2033     2314     2006     1512 
     806     -339    -1725    -3004    -4073    -4894    -5509    -5874 
   -5647    -4706    -3235    -1393      454     1854     2602     2714 
    2625     2843     3459     4490     6059     8184    10682    13159 
   15177    16319    16303    15182    13153    10503     7611     4595 
    1473    -1382    -3626    -5234    -6142    -6261    -5658    -4458 
   -2749     -710     1287     2955     4263     5101     5279     4877 
    4285     3803     3370     2829     2176     1276     -209    -2358 
   -4824    -7111    -8885   -10121   -10914   -11301   -11182   -10455 
   -9357    -8356    -7728    -7364    -7081    -6925    -6837    -6450 
   -5449    -3858    -1861      398     2558     3899     4002     3263 
    2329     1317       22    -1493    -2917    -3997    -4664    -4987 
   -5066    -4982    -4820    -4537    -3946    -3131    -2415    -1708 
    -692      687     2251     3745     5264     7046     8851    10548 
   12278    13719    14509    14749    14457    13357    11272     8450 
    5402     2539      172    -1470    -2431    -2884    -2995    -3075 
   -3242    -3315    -3249    -3139    -3146    -3431    -3796    -3969 
   -4126    -4475    -4754    -4545    -3687    -2275     -545     1203 
    2717     3834     4448     4503     4152     3813     3702     3514 
    2939     1960      574    -1274    -3502    -5958    -8474   -10748 
  -12538   -13852   -14820   -15623   -16436   -17289   -18038   -18507 
  -18746   -18958   -19094   -18880   -18254   -17301   -16003   -14393 
  -12594   -10693    -8862    -7384    -6391    -5765    -5265    -4718 
   -4109    -3531    -3148    -3002    -2869    -2696    -2673    -2752 
   -2863    -3190    -3696    -4098    -4332    -4430    -4324    -4054 
   -3637    -2917    -1834     -441     1174     2799     4188     5148 
    5636     5872     6097     6335     6554     6733     6788     6644 
    6352     6074     5846     5542     5256     5368     6140     7473 
    8924     9964    10401    10425    10183     9598     8717     7883 
    7406     7190     6703     5459     3494     1177    -1182    -3308 
   -4844    -5522    -5409    -4866    -4369    -4422    -5334    -7041 
   -9277   -11737   -14116   -16085   -17229   -17285   -16420   -15038 
  -13509   -12078   -10894   -10139    -9887    -9891    -9791    -9378 
   -8605    -7565    -6300    -4684    -2686     -528     1563     3428 
    4959     6198     7192     7894     8257     8124     7325     6078 
    4787     3742     3332     3788     4936     6686     8993    11450 
   13535    14961    15521    15049    13702    11895    10120     8843 
    8049     7394     6863     6609     6624     6752     6890     7298 
    8227     9552    11013    12427    13628    14362    14456    14004 
   13101    11731     9916     7772     5603     3842     2690     1965 
    1497     1388     1715     2296     2891     3423     3877     4110 
    3944     3429     2865     2427     2002     1521     1045      475 
    -440    -1743    -3198    -4513    -5378    -5529    -5063    -4382 
   -3807    -3439    -3218    -3090    -3133    -3459    -4001    -4559 
   -5124    -5849    -6707    -7487    -8046    -8297    -8061    -7226 
   -5973    -4629    -3466    -2695    -2424    -2639    -3251    -4190 
   -5443    -6843    -8118    -9025    -9268    -8802    -7997    -7013 
   -5566    -3536    -1182     1276     3740     6057     7988     9200 
    9376     8456     6774     4958     3526     2533     1699      823 
     -97    -1008    -1818    -2529    -3314    -4223    -5099    -5801 
   -6195    -6152    -5632    -4585    -2964     -966     1166     3211 
    4732     5545     5901     5811     5212     4412     3651     2911 
    2219     1538      617     -643    -1910    -2827    -3361    -3555 
   -3419    -2931    -1994     -744      409     1179     1422     1100 
     365     -653    -1957    -3411    -4674    -5517    -5946    -6019 
   -5708    -5049    -4156    -2930    -1253      599     2082     2841 
    2964     2778     2528     2299     2061     1814     1628     1552 
    1678     2028     2372     2526     2548     2507     2515     2771 
    3283     3974     4867     5914     7030     8144     9035     9438 
    9398     9269     9282     9376     9468     9396     8785     7536 
    5928     4075     1919     -482    -3027    -5538    -7655    -9041 
   -9717   -10014   -10112    -9930    -9347    -8325    -7111    -6017 
   -5026    -4036    -3139    -2476    -2101    -2024    -2241    -2738 
   -3577    -4807    -6385    -8144    -9706   -10596   -10509    -9514 
   -8015    -6374    -4740    -3280    -2185    -1439     -803      -34 
     952     2203     3710     5179     6347     7115     7169     6266 
    4570     2352     -123    -2538    -4566    -5942    -6624    -6671 
   -6064    -4910    -3407    -1672       -6     1116     1413      790 
    -599    -2301    -3949    -5273    -5837    -5400    -4252    -2801 
   -1279      138     1338     2290     2950     3260     3359     3580 
    4021     4528     4957     5127     4915     4390     3643     2734 
    1738      825      322      399      823     1339     1834     2221 
    2545     2692     2284     1190     -405    -2202    -3900    -5407 
   -6664    -7565    -8218    -8694    -8794    -8305    -7166    -5523 
   -3770    -2205     -795      359      851      581     -120     -770 
    -889     -367      501     1468     2374     2990     3219     3135 
    2839     2509     2262     1931     1380      778      417      479 
     798     1102     1374     1546     1515     1489     1585     1605 
    1457     1207      898      665      704     1080     1773     2689 
    3735     4890     5999     6955     7851     8672     9267     9458 
    9135     8332     7065     5204     2665     -449    -3897    -7259 
  -10067   -12101   -13291   -13471   -12516   -10534    -7934    -5429 
   -3633    -2698    -2633    -3418    -4732    -6073    -6920    -6836 
   -5788    -4166    -2453    -1014       21      720     1149     1307 
    1128      536     -382    -1446    -2624    -3886    -5110    -6160 
   -6835    -7024    -6842    -6379    -5610    -4550    -3341    -2166 
   -1140     -302      344      706      597       -7     -942    -2110 
   -3395    -4541    -5308    -5479    -4884    -3708    -2484    -1630 
   -1275    -1458    -2103    -2954    -3823    -4614    -5169    -5350 
   -5067    -4257    -3022    -1612     -245      994     2183     3396 
    4465     5214     5717     6063     6155     5809     4876     3333 
    1291    -1049    -3521    -6015    -8271    -9975   -11036   -11525 
  -11519   -11055   -10180    -8992    -7554    -6017    -4629    -3484 
   -2607    -2033    -1666    -1459    -1435    -1461    -1396    -1195 
    -783     -122      737     1728     2661     3336     3661     3532 
    2923     2105     1450     1064      847      731      661      625 
     714      994     1484     2195     3061     3943     4751     5522 
    6360     7208     7804     7983     7855     7578     7110     6391 
    5486     4438     3295     2170     1133      169     -744    -1539 
   -2116    -2485    -2787    -3213    -3830    -4566    -5379    -6283 
   -7244    -8088    -8573    -8604    -8299    -7871    -7468    -7033 
   -6419    -5666    -5047    -4856    -5161    -5743    -6327    -6781 
