Origin Time       2011/03/11 14:46:00
Lat.              38.103
Long.             142.860
Depth. (km)       24
Mag.              9.0
Station Code      SZO005
Station Lat.      34.7550
Station Long.     138.7841
Station Height(m) 4
Record Time       2011/03/11 14:47:53
Sampling Freq(Hz) 100Hz
Duration Time(s)  276
Dir.              E-W
Scale Factor      3920(gal)/6182761
Max. Acc. (gal)   25.771
Last Correction   2011/03/11 14:47:38
Memo.             
[...]
  -33680   -31590   -29500   -27689   -25877   -24153   -23161   -22870 
  -22917   -23336   -24179   -25323   -26614   -27988   -29504   -31350 
  -33599   -35880   -37958   -40150   -42521   -44896   -47412   -49861 
  -51764   -53301   -54504   -54741   -54265   -53969   -53703   -52966 
  -51828   -50381   -48887   -47715   -46614   -45404   -44468   -43842 
  -43274   -42784   -42458   -42409   -42666   -43039   -43446   -43990 
  -44776   -45773   -46783   -47696   -48523   -49153   -49313   -48880 
  -47985   -46597   -44628   -42371   -40139   -37878   -35579   -33437 
  -31439   -29431   -27603   -26199   -24997   -23968   -23313   -22526 
  -21296   -20076   -18942   -17968   -17608   -17876   -18562   -19683 
  -21309   -23417   -25928   -28809   -31799   -34463   -36764   -38780 
  -40476   -42063   -43577   -44813   -45909   -47017   -47995   -48913 
  -49751   -50120   -50093   -49927   -49329   -48264   -47205   -46398 
  -45846   -45564   -45748   -46767   -48701   -51292   -54219   -57235 
  -60130   -62527   -64147   -64906   -64786   -64106   -63159   -62057 
  -61172   -60576   -59771   -58699   -57860   -57361   -56983   -56566 
  -55950   -55294   -54593   -53342   -51452   -48908   -45466   -41433 
  -37147   -32643   -28317   -24559   -21234   -18318   -16131   -14593 
  -13507   -12986   -12794   -12812   -13391   -14350   -15309   -16445 
  -17858   -19332   -20726   -22141   -23693   -25113   -26203   -27218 
  -28305   -29510   -31009   -32642   -33980   -34993   -35942   -36813 
  -37540   -38365   -39297   -40136   -41282   -43150   -45498   -48064 
  -50701   -53071   -55010   -56759   -58275   -59184   -59599   -59761 
  -59519   -58933   -58329   -57834   -57486   -57493   -57980   -58767 
  -59764   -60992   -62152   -62990   -63502   -63584   -63167   -62481 
  -61681   -60561   -59171   -57894   -56716   -55694   -55139   -54767 
  -54452   -54539   -54606   -54174   -53408   -52121   -50081   -47689 
  -45320   -42867   -40273   -37817   -35582   -33532   -31800   -30344 
  -29086   -28060   -27001   -25531   -23723   -21636   -19037   -16105 
  -13259   -10726    -8852    -7910    -7853    -8542    -9629   -10707 
  -11835   -13158   -14381   -15305   -16146   -16986   -17842   -18942 
  -20291   -21626   -22833   -24050   -25443   -27182   -29419   -31998 
  -34739   -37562   -40159   -42429   -44375   -45789   -46762   -47357 
  -47668   -48267   -49324   -50600   -52028   -53319   -54346   -55344 
  -56284   -57175   -58139   -58998   -59688   -60242   -60519   -60610 
  -60696   -60989   -61701   -62526   -63209   -63945   -64628   -65148 
  -65671   -65983   -65890   -65560   -64817   -63491   -61819   -59817 
  -57594   -55556   -53722   -51904   -50122   -48419   -46729   -44986 
  -43276   -41624   -39886   -38117   -36485   -34972   -33630   -32655 
  -32224   -32553   -33671   -35126   -36408   -37331   -37750   -37586 
  -36973   -35886   -34314   -32532   -30648   -28706   -26892   -25371 
  -24464   -24389   -24815   -25431   -26307   -27475   -28881   -30431 
  -31938   -33390   -34852   -36176   -37221   -37986   -38483   -38762 
  -39031   -39393   -39629   -39766   -40092   -40508   -40908   -41413 
  -41888   -42207   -42541   -42933   -43134   -42989   -42579   -42070 
  -41675   -41400   -41108   -40962   -41056   -41340   -42008   -43064 
  -44145   -44970   -45561   -46056   -46523   -47151   -48052   -49163 
  -50655   -52473   -54168   -55638   -56794   -57272   -57060   -56430 
  -55453   -54044   -52225   -50140   -47735   -44842   -41541   -38125 
  -35047   -32647   -30790   -29308   -28322   -27881   -27745   -27695 
  -27688   -27525   -27213   -27163   -27681   -29047   -31392   -34440 
  -37835   -41211   -44195   -46637   -48520   -49831   -50666   -51228 
  -51621   -51789   -51634   -51204   -50651   -50006   -49266   -48502 
  -47855   -47524   -47471   -47431   -47348   -47308   -47173   -46835 
  -46520   -46439   -46594   -46992   -47695   -48911   -50800   -53213 
  -55913   -58658   -61150   -63228   -64936   -66229   -66862   -66888 
  -66574   -65834   -64630   -63219   -61572   -59507   -57390   -55655 
  -54175   -52869   -51908   -51278   -51037   -51138   -51048   -50636 
  -50084   -49122   -47828   -46500   -44880   -43128   -41724   -40294 
  -38635   -37260   -36091   -34905   -33971   -33211   -32477   -31959 
  -31660   -31548   -31720   -32023   -32113   -31995   -31905   -31748 
  -31315   -30563   -29523   -28347   -27182   -26144   -25333   -24781 
  -24585   -24722   -25004   -25298   -25463   -25516   -25858   -26837 
  -28342   -30260   -32759   -35769   -38966   -42144   -45096   -47722 
  -50006   -51694   -52731   -53311   -53450   -53246   -52943   -52797 
  -53028   -53593   -54230   -54682   -54798   -54565   -54100   -53413 
  -52368   -51210   -50312   -49354   -47936   -46204   -44293   -42481 
  -41334   -40984   -41219   -41982   -43240   -44721   -46014   -47161 
  -48505   -49606   -49790   -49406   -48835   -47811   -46334   -44540 
  -42348   -39739   -36798   -33650   -30237   -26541   -22896   -19518 
  -16439   -13862   -11745    -9780    -8081    -6798    -5738    -5053 
   -5039    -5680    -6982    -9030   -11672   -14571   -17583   -20700 
  -23781   -26635   -29128   -31140   -32514   -33323   -33920   -34569 
  -35304   -35988   -36558   -37100   -37704   -38418   -39005   -39279 
  -39621   -40289   -41137   -42087   -42988   -43854   -44920   -46009 
  -47150   -48640   -50222   -51842   -53675   -55283   -56572   -57906 
  -59014   -59675   -60271   -60887   -61388   -61895   -62532   -63477 
  -64774   -66137   -67411   -68697   -70059   -71254   -71914   -71870 
  -70946   -69282   -67222   -64471   -60982   -57386   -53870   -50352 
  -46921   -43584   -40497   -37937   -35898   -34250   -33027   -32261 
  -31976   -32198   -32627   -32998   -33461   -34054   -34682   -35358 
  -35936   -36205   -36092   -35668   -34898   -33671   -32181   -30406 
  -28143   -25836   -23917   -22335   -21301   -21102   -21600   -22726 
  -24452   -26208   -27426   -28082   -28216   -27814   -27063   -26227 
  -25606   -25556   -26094   -26962   -28303   -30139   -31922   -33514 
  -35103   -36498   -37749   -39042   -40153   -41282   -42902   -44728 
  -46344   -47928   -49489   -50641   -51386   -51774   -51465   -50500 
  -49275   -48050   -47005   -46163   -45616   -45735   -46799   -48699 
  -51109   -53676   -56256   -58918   -61299   -62858   -63675   -64026 
  -64110   -64170   -64241   -64285   -64332   -64358   -64211   -63745 
  -63085   -62337   -61257   -59761   -58133   -56464   -54691   -52698 
  -50238   -47488   -44793   -42213   -39976   -38241   -36752   -35196 
  -33544   -31967   -30348   -28553   -26752   -24816   -22673   -20748 
  -19294   -18357   -17969   -18092   -18704   -19764   -21164   -22622 
  -23929   -25072   -25818   -25924   -25515   -24825   -23967   -23002 
  -22198   -21823   -21902   -22665   -24336   -26612   -29093   -31635 
  -34251   -37107   -40343   -44008   -48350   -53196   -57526   -60982 
  -63976   -66158   -67197   -67691   -67948   -67609   -66567   -64928 
  -62487   -59157   -55167   -50730   -46157   -41950   -38524   -35984 
  -34327   -33501   -33015   -32351   -31483   -30445   -29358   -28606 
  -28223   -27973   -27916   -28067   -28242   -28432   -28633   -28715 
  -28854   -29233   -29557   -29776   -30350   -31320   -32383   -33596 
  -34903   -35832   -36169   -36077   -35639   -34847   -33834   -32866 
  -32115   -31557   -31349   -31753   -32632   -34046   -36294   -39111 
  -42207   -45591   -49220   -53345   -58176   -63039   -67090   -70288 
  -72678   -74111   -74851   -75006   -74374   -73167   -71655   -69812 
  -67841   -65939   -63700   -60869   -58003   -55733   -54206   -53292 
  -52803   -52684   -53146   -54327   -55840   -57192   -58344   -59314 
  -59985   -60563   -61243   -61876   -62522   -63398   -64465   -65663 
  -66978   -68264   -69232   -69431   -68685   -67326   -65444   -62856 
  -59640   -55874   -51653   -47296   -43088   -39131   -35289   -31452 
  -27799   -24581   -21922   -19651   -17528   -15776   -14643   -13978 
  -13731   -13902   -14332   -15096   -16250   -17635   -19250   -20952 
  -22443   -23724   -24947   -26258   -27746   -29350   -30749   -31551 
  -31860   -31952   -31706   -31157   -30509   -29568   -28408   -27567 
  -27139   -27067   -27592   -28623   -29864   -31307   -32815   -34034 
  -35034   -36295   -38141   -40738   -44153   -48079   -52155   -56296 
  -60377   -64203   -67530   -70180   -72301   -73943   -75135   -76345 
  -77803   -79192   -80334   -81232   -81698   -81542   -80932   -80005 
  -78537   -76529   -74257   -71633   -68488   -64930   -60969   -56674 
  -52476   -48625   -45019   -41845   -39422   -37618   -36402   -35903 
  -35832   -36023   -36549   -37247   -38051   -39058   -40362   -42162 
  -44389   -46778   -49215   -51328   -52829   -53807   -54007   -53060 
  -50893   -47513   -43133   -38234   -33520   -29482   -25976   -23077 
  -21357   -20705   -20520   -20757   -21249   -21506   -21718   -22141 
  -22380   -22333   -22218   -21718   -20680   -19569   -18495   -17532 
  -17039   -16929   -17108   -17581   -17992   -18269   -18784   -19698 
  -20964   -22545   -24174   -25745   -27644   -29909   -32312   -34947 
  -37547   -39707   -41679   -43525   -45092   -46899   -49170   -51442 
  -53562   -55390   -56663   -57576   -58075   -57929   -57540   -57226 
  -57219   -57921   -59307   -61285   -63793   -66502   -69232   -71850 
  -73969   -75497   -76573   -76884   -76368   -75719   -75323   -75020 
  -74714   -74429   -74194   -73996   -73735   -73338   -72766   -71802 
  -70146   -67773   -64823   -61359   -57625   -54037   -50662   -47328 
  -44115   -41176   -38383   -35655   -33117   -30661   -28109   -25764 
  -23924   -22291   -20616   -19135   -18011   -17260   -17012   -17252 
  -17780   -18424   -19138   -20086   -21279   -22509   -23703   -24732 
  -25614   -26659   -27820   -28962   -30251   -31599   -32747   -33596 
  -34026   -34137   -34251   -34383   -34431   -34686   -35248   -35839 
  -36585   -37498   -38358   -39451   -40780   -42071   -43484   -45006 
  -46478   -48074   -49805   -51312   -52658   -54172   -55497   -56406 
  -57156   -57640   -57905   -58059   -57845   -57330   -56576   -55452 
  -54186   -53106   -52357   -51895   -51544   -51067   -50203   -48936 
  -47229   -44986   -42730   -40734   -38399   -35827   -33636   -31618 
  -29737   -28520   -27921   -27763   -28275   -29201   -29977   -30606 
  -31093   -31315   -31531   -31755   -32018   -32798   -33869   -34965 
  -36470   -38168   -39895   -41773   -43194   -44123   -44984   -45370 
  -45323   -45125   -44505   -43919   -43669   -43297   -43094   -43325 
  -43798   -44596   -45369   -45981   -46826   -47543   -47944   -48399 
  -48609   -48520   -48843   -49843   -51610   -54368   -57571   -60801 
  -64420   -67980   -70716   -72882   -74564   -75241   -74875   -73716 
  -71560   -68358   -64643   -60632   -56533   -52844   -49323   -45688 
  -42512   -39990   -37746   -35886   -34443   -33126   -32014   -30912 
  -29397   -27647   -25769   -23747   -21956   -20571   -19539   -18968 
  -18961   -19385   -20112   -21347   -23015   -24694   -26242   -27513 
  -28532   -29277   -29237   -28754   -28509   -28152   -27646   -27411 
  -27248   -27037   -27150   -27720   -28480   -29464   -30790   -32187 
  -33674   -35345   -37037   -38924   -41049   -43111   -45354   -48282 
  -51693   -55172   -58615   -61340   -62848   -63865   -64396   -63966 
  -63197   -62128   -60780   -60044   -59383   -58508   -58498   -58743 
  -58872   -59832   -60871   -61701   -63192   -64590   -65467   -66358 
  -66832   -66676   -66336   -65856   -65169   -64392   -63798   -63631 
  -63571   -63541   -63917   -64347   -64769   -65302   -65119   -64344 
  -63546   -62215   -60375   -58372   -56067   -53572   -50923   -48020 
  -44763   -41310   -38377   -35955   -33544   -31330   -29279   -27128 
  -25021   -23205   -21837   -20931   -20593   -20847   -21437   -22294 
  -23218   -23851   -24211   -24144   -23400   -22180   -20577   -18498 
  -16204   -14017   -11862    -9742    -7903    -6216    -4598    -3566 
   -3267    -3335    -3759    -4573    -5622    -6918    -8303    -9376 
  -10094   -10802   -11987   -14043   -16926   -20319   -23987   -27862 
  -31945   -36020   -40024   -44226   -48475   -52278   -55590   -58557 
  -61150   -63523   -65739   -67674   -69459   -70980   -71921   -72537 
  -73201   -73796   -74247   -74783   -75325   -75740   -76159   -76385 
  -76372   -76392   -76260   -75897   -75365   -74488   -73591   -73027 
  -72680   -72584   -72633   -72603   -72683   -72860   -72849   -72570 
  -71840   -70422   -68327   -65826   -63220   -60233   -56676   -53087 
  -49631   -46225   -43247   -40636   -38044   -35655   -33573   -31617 
  -29725   -27942   -26276   -24629   -23130   -22051   -21435   -21295 
  -21550   -22082   -22940   -23943   -24744   -25108   -24917   -24380 
  -23710   -22868   -21897   -20795   -19548   -18325   -17025   -15437 
  -13834   -12411   -11053    -9939    -9089    -8130    -7231    -6680 
   -6220    -5973    -6150    -6323    -6676    -7901    -9921   -12794 
  -16837   -21481   -26343   -31607   -36692   -41102   -44985   -48121 
  -50418   -52140   -53178   -53551   -53641   -53631   -53570   -53604 
  -53796   -54132   -54775   -55799   -56847   -57732   -58704   -59787 
  -60878   -62076   -63388   -64870   -66665   -68797   -71170   -73603 
  -76043   -78323   -80092   -81377   -82220   -82348   -81763   -80780 
  -79566   -78019   -76132   -73994   -71510   -68810   -66016   -63023 
  -60135   -57443   -54626   -52006   -49940   -48125   -46460   -45045 
  -43697   -42405   -41395   -40627   -39997   -39567   -39295   -39182 
  -39251   -39155   -38569   -37505   -35976   -33980   -31596   -28886 
  -25914   -22871   -20075   -17700   -15807   -14502   -13515   -12587 
  -11920   -11336   -10610   -10115   -10022   -10247   -10699   -11051 
  -11194   -11325   -11742   -12897   -14809   -16987   -19291   -21920 
  -24739   -27442   -30057   -32546   -34691   -36690   -38753   -40688 
  -42479   -44300   -46021   -47586   -49232   -50805   -51978   -52898 
  -53555   -53752   -53681   -53435   -53016   -52532   -51816   -51009 
  -50517   -50273   -50323   -50849   -51587   -52445   -53589   -54792 
  -55878   -56869   -57594   -58082   -58398   -58394   -58202   -57757 
  -56824   -55682   -54513   -53261   -51998   -50652   -49277   -48058 
  -46928   -45799   -44578   -43248   -41901   -40443   -38888   -37394 
  -35978   -34766   -33946   -33474   -33230   -33155   -33182   -33168 
  -33017   -32904   -32993   -33161   -33366   -33743   -34236   -34668 
  -35060   -35342   -35359   -35310   -35373   -35520   -35855   -36349 
  -36774   -37012   -36856   -36109   -34894   -33380   -31826   -30620 
  -29735   -29110   -29055   -29489   -30086   -30970   -32224   -33614 
  -35094   -36681   -38164   -39466   -40688   -41777   -42661   -43453 
  -44362   -45398   -46555   -48014   -49711   -51448   -53091   -54456 
  -55549   -56438   -56942   -56999   -56797   -56171   -54912   -53411 
  -51920   -50346   -48899   -47766   -46885   -46203   -45690   -45457 
  -45613   -45985   -46364   -46773   -47271   -47856   -48603   -49402 
  -50008   -50543   -51168   -51882   -52822   -54027   -55431   -57002 
  -58537   -59707   -60304   -60351   -59839   -58607   -56781   -54748 
  -52616   -50323   -48015   -45851   -43821   -41983   -40434   -39031 
  -37599   -36155   -34731   -33338   -31992   -30727   -29679   -28956 
  -28605   -28749   -29408   -30483   -31968   -33774   -35679   -37498 
  -39056   -40353   -41452   -42181   -42538   -42844   -43166   -43350 
  -43340   -42948   -42021   -40721   -39179   -37410   -35511   -33600 
  -31742   -29954   -28259   -26716   -25420   -24390   -23506   -22786 
  -22387   -22345   -22665   -23357   -24215   -25143   -26290   -27664 
  -29357   -31416   -33517   -35437   -36930   -37695   -37928   -37911 
  -37530   -36764   -36000   -35379   -34782   -34493   -34578   -34613 
  -34476   -34229   -33911   -33695   -33634   -33601   -33558   -33639 
  -33801   -34042   -34644   -35332   -35696   -36106   -36724   -37239 
  -37678   -38194   -38832   -39557   -40247   -41018   -41952   -42849 
  -43578   -44058   -44311   -44462   -44432   -44145   -43762   -43519 
  -43595   -43974   -44527   -45275   -46120   -46899   -47781   -48842 
  -49909   -50856   -51646   -52318   -52859   -53320   -53863   -54581 
  -55563   -56774   -58058   -59417   -60754   -61708   -62178   -62384 
  -62305   -61870   -61284   -60611   -59627   -58239   -56631   -54973 
  -53293   -51637   -50034   -48432   -46830   -45267   -43611   -41790 
  -40012   -38346   -36753   -35372   -34087   -32715   -31470   -30419 
  -29396   -28401   -27480   -26639   -25754   -24678   -23556   -22458 
  -21235   -19934   -18658   -17492   -16634   -16009   -15449   -15124 
  -15115   -15398   -16063   -17129   -18619   -20391   -22158   -23812 
  -25242   -26441   -27556   -28646   -29740   -30735   -31467   -32027 
  -32590   -33196   -33771   -34312   -34985   -35737   -36251   -36533 
  -36823   -37181   -37641   -38206   -38844   -39610   -40412   -41287 
  -42608   -44351   -46281   -48578   -51214   -53912   -56649   -59366 
  -61915   -64144   -65829   -66914   -67462   -67469   -66997   -66280 
  -65443   -64490   -63701   -63306   -63148   -63104   -63136   -63172 
  -63152   -63031   -62902   -62773   -62494   -62106   -61548   -60501 
  -59101   -57710   -56233   -54696   -53394   -52224   -51063   -50070 
  -49143   -48128   -47266   -46487   -45411   -44251   -43233   -42067 
  -40798   -39774   -38937   -38065   -37129   -36226   -35327   -34325 
  -33259   -32049   -30432   -28510   -26683   -24996   -23327   -21956 
  -21116   -20591   -20264   -20291   -20667   -21126   -21502   -21741 
  -21632   -21159   -20695   -20337   -19921   -19618   -19585   -19728 
  -19991   -20266   -20550   -20956   -21390   -21767   -22081   -22345 
  -22799   -23594   -24642   -25975   -27548   -29175   -30940   -32947 
  -35021   -37068   -39082   -40899   -42483   -43897   -45021   -45821 
  -46406   -46761   -46886   -47001   -47310   -47706   -48086   -48650 
  -49519   -50544   -51605   -52646   -53569   -54345   -54953   -55351 
  -55603   -55748   -55837   -56006   -56237   -56609   -57309   -58162 
  -58953   -59733   -60530   -61229   -61613   -61553   -60966   -59788 
  -58185   -56253   -53914   -51311   -48602   -45840   -43220   -40801 
  -38584   -36979   -36131   -35526   -34913   -34454   -34045   -33537 
  -33089   -32725   -32378   -32217   -32064   -31568   -31051   -30811 
  -30561   -30288   -30182   -30119   -30215   -30650   -31028   -31038 
  -30854   -30513   -29893   -29106   -28315   -27531   -26793   -26218 
  -25868   -25770   -25897   -26013   -25931   -25746   -25470   -25019 
  -24518   -24014   -23391   -22714   -22159   -21792   -21739   -22152 
  -22890   -23879   -25293   -26927   -28543   -30294   -32048   -33525 
  -34797   -35913   -36649   -36899   -36894   -36740   -36425   -36263 
  -36434   -36784   -37396   -38383   -39548   -40855   -42436   -44059 
  -45513   -47009   -48466   -49503   -50243   -50829   -51191   -51622 
  -52152   -52559   -53136   -53961   -54786   -55592   -56172   -56351 
