Origin Time       2011/03/11 14:46:00
Lat.              38.103
Long.             142.860
Depth. (km)       24
Mag.              9.0
Station Code      SZO010
Station Lat.      35.3091
Station Long.     138.9349
Station Height(m) 460
Record Time       2011/03/11 14:47:45
Sampling Freq(Hz) 100Hz
Duration Time(s)  300
Dir.              U-D
Scale Factor      3920(gal)/6182761
Max. Acc. (gal)   51.856
Last Correction   2011/03/11 14:47:30
Memo.             
[...]
    1868      991     1716     3320     4326     3856     2535     1775 
    1756     1122     -773    -3119    -5188    -6735    -7819    -9148 
  -11285   -13860   -16280   -18221   -19517   -20529   -22020   -24370 
  -27258   -29634   -30232   -28799   -26266   -23829   -22577   -23304 
  -25572   -27714   -28668   -28714   -28237   -27443   -26786   -26250 
  -25282   -24042   -22896   -20888   -16943   -11442    -5274      799 
    5668     8520     9615     9769     9615     9371     8929     8225 
    7513     7122     7076     7551     9081    11400    13507    15043 
   16198    17323    18968    20790    21316    20102    18568    17792 
   17203    15721    13035     9787     6640     3719     1420      -71 
   -1645    -3512    -4421    -3862    -2745    -1610      -94     1645 
    2761     3576     5355     7655     8425     6990     5028     4462 
    5606     7382     8300     7668     6423     5855     6053     6421 
    6623     6842     7380     7589     6426     4311     2641     2139 
    2852     4440     5936     6494     6529     7240     8919    10460 
   10699     9394     7080     4815     3301     2289     1746     1999 
    2266     1318     -496    -2038    -3212    -4411    -5956    -8401 
  -11692   -14974   -17910   -20886   -23964   -26583   -28463   -30155 
  -32058   -33730   -34937   -36042   -36763   -36260   -34422   -31443 
  -27346   -23144   -20606   -20080   -20213   -19759   -18239   -15523 
  -11606    -6928    -3017    -1488    -2339    -4383    -6350    -7439 
   -7625    -7001    -5674    -4418    -3691    -3043    -2410    -1974 
    -994     1100     3045     3177     2007     1072      399     -451 
    -720      209     1694     3238     5292     7999    10588    12541 
   14654    17890    21704    24942    27293    28761    28988    27878 
   26449    25819    25340    23667    21061    18476    15812    12928 
   10828    10053     9617     8931     8356     7852     7529     7822 
    7933     6720     4931     4126     4371     4772     4890     4548 
    3892     3476     3178     2559     1958     1489      683     -486 
   -2287    -5418    -9331   -12599   -14808   -16537   -18181   -20200 
  -23711   -28306   -30616   -28717   -25468   -23748   -22454   -20135 
  -17735   -15771   -13180   -10454    -9690   -10332    -9767    -8231 
   -8278   -10307   -12200   -12992   -14034   -15491   -15426   -13789 
  -12769   -12980   -12991   -11722    -9212    -6277    -4182    -3440 
   -3464    -3742    -3700    -2463     -833    -1461    -5231    -9557 
  -11758   -12085   -11613   -10197    -8616    -8238    -7949    -6158 
   -3827    -1952        6     1602     1777      935     -320    -1842 
   -2934    -3287    -3730    -5100    -7324    -8996    -8760    -7723 
   -7519    -7164    -5536    -3877    -3523    -4456    -6256    -8246 
   -9585   -10132   -10190    -9468    -7562    -4912    -2575    -1514 
   -1274       10     2985     6580     9537    10372     9116     8672 
   10543    12647    13520    13999    14838    15701    15866    15489 
   15664    16621    17400    17621    17833    18260    18859    19687 
   19864    17940    14403    11982    12244    13413    13033    11235 
    9412     7872     6348     3985     -161    -4572    -6899    -7590 
   -7803    -6520    -3914    -2831    -3252    -3583    -5189    -7621 
   -8503    -8234    -7637    -6000    -3023     -167     1236     1766 
    2242     2752     3088     2838     1524     -725    -2886    -4554 
   -6424    -8449    -9591    -9363    -8025    -6120    -4215    -2614 
   -2244    -4356    -8439   -12573   -14913   -14842   -14238   -15328 
  -17603   -19207   -19520   -19070   -18756   -19324   -20225   -20091 
  -18964   -17941   -17195   -16290   -15161   -13892   -12289    -9962 
   -7073    -4519    -2564     -684     1020     2288     3481     4504 
    4858     4868     5223     5962     6845     7718     8118     7489 
    6181     5513     5965     6581     6988     7452     7504     7124 
    7197     7369     6047     3156      499     -811    -1022     -651 
      87     1838     4920     7824     9694    11749    14351    16628 
   18381    18947    16942    12789     8395     4584     1208    -1126 
   -1367     -179      202    -1109    -3135    -4980    -6081    -6143 
   -6195    -7491    -9129    -9280    -8061    -6729    -5488    -4351 
   -4254    -5612    -7549    -8884    -8822    -7729    -7371    -8983 
  -11588   -13408   -13969   -13872   -13613   -13240   -12654   -12071 
  -11953   -12745   -14307   -15274   -14444   -12263    -9636    -6864 
   -4458    -3099    -2585    -2438    -2842    -3883    -4946    -5448 
   -5447    -5135    -4281    -2812    -1222      466     2951     6068 
    8490     9345     9125     8761     8205     6949     5232     3313 
    1557     1455     3616     6050     6856     6691     7353     9617 
   12806    16060    19227    21773    23211    24083    24429    24208 
   24627    26190    27842    28531    27817    25738    22644    18865 
   14843    11221     8556     7454     7992     8639     7432     4423 
    1602      347      -19    -1044    -3051    -4887    -5873    -6598 
   -7458    -8550   -10755   -14366   -17981   -20485   -21889   -22462 
  -22879   -24174   -26589   -28815   -29357   -28407   -27073   -26014 
  -25541   -25413   -25120   -24956   -25318   -25799   -25855   -25413 
  -24887   -24581   -24407   -24445   -24446   -23756   -22687   -21613 
  -19885   -17420   -15102   -13357   -11520    -9210    -7259    -5671 
   -4055    -3462    -3769    -3574    -3359    -3748    -4100    -4950 
   -6668    -7513    -6850    -6017    -5427    -4811    -4293    -3475 
   -1631     1290     4757     7965    10324    12021    13231    13782 
   14096    14561    14442    13025    10984     9364     8242     7592 
    7850     8870     9938    10422     9733     7878     5482     2538 
   -1132    -4662    -6930    -7430    -6210    -4118    -2442    -1427 
     123     3018     6032     7367     7533     8538    10758    13073 
   14584    14979    14859    15640    18175    21246    22228    20135 
   16649    13792    12303    12311    14091    17240    20205    21684 
   21510    20221    18713    17644    16603    14706    12240    10447 
    9889     9990     9932     9739    10355    12415    15423    18476 
   21071    22795    23174    22362    21365    21066    21714    23337 
   25390    26595    26510    26307    26815    27238    26926    26347 
   25656    24437    22683    20662    18301    15570    12932    10785 
    9246     8316     7493     6013     3786     1317    -1114    -3289 
   -4543    -4219    -2633    -1339    -1487    -2295    -2473    -1730 
    -345      892     1351     1689     2666     4086     5635     7255 
    8906    10623    12214    12847    11830     9795     8311     8095 
    8193     7544     6419     5581     5269     5516     6244     7097 
    8094     9689    11702    13349    14299    14718    14729    14159 
   12698    10503     8127     6014     4441     3421     2622     1705 
     933     1126     2594     4442     5455     5492     5392     5773 
    6640     7671     8453     9134    10609    13157    15684    17030 
   17209    16761    15697    13707    10857     7925     5874     4799 
    4007     2917     1528      376      -77       57      243     -124 
   -1166    -2187    -2635    -3210    -5024    -8028   -11158   -13395 
  -14444   -14979   -15968   -17782   -20275   -23048   -25280   -26330 
  -26570   -26722   -26892   -26565   -25338   -23447   -21290   -19225 
  -17610   -16312   -14854   -13114   -11485   -10598   -11143   -13245 
  -15925   -17934   -18773   -18889   -19212   -20009   -20766   -21350 
  -22259   -23840   -25806   -27393   -27918   -27410   -26622   -26340 
  -26625   -26725   -26220   -25124   -22808   -19290   -15914   -13426 
  -11825   -11129   -11288   -12219   -13488   -14320   -14190   -13098 
  -11227    -8784    -6212    -3861    -2333    -2399    -3418    -3850 
   -3121    -1665     -233      517      531      597     1544     3331 
    5489     7688     9790    12523    16091    18341    19015    20675 
   22173    21372    20040    19305    18729    18381    18225    18229 
   18204    18064    17889    17428    16930    16875    16676    15886 
   15485    16049    16793    16961    16228    14935    14479    15851 
   18480    21270    23447    24254    23325    21482    19955    19082 
   18647    18513    18357    17954    17611    17473    17374    17373 
   17330    16655    15120    13129    11144     9552     8597     8067 
    7789     7946     8235     7584     5208     1702    -1477    -3802 
   -5818    -7876    -9970   -11871   -13097   -13553   -13463   -12715 
  -11296    -9757    -8536    -7465    -6344    -5466    -5212    -5556 
   -6118    -6402    -5921    -4584    -3267    -3264    -4999    -7621 
   -9963   -11586   -12421   -12479   -12324   -12447   -12568   -12525 
  -12823   -13713   -14991   -16620   -18588   -20762   -22662   -23224 
  -22028   -20005   -17936   -15814   -13886   -12484   -11512   -10924 
  -10525    -9796    -8549    -6834    -4599    -2301     -985    -1151 
   -2245    -3257    -3544    -3261    -2830    -2616    -3216    -4648 
   -5768    -5550    -3965    -1463     1372     3772     5259     6371 
    7894     9544    10434    10250     9536     8971     8476     7649 
    6639     5903     5605     5627     5688     5447     5030     4776 
    4570     4093     3112     1543     -634    -3190    -5082    -5346 
   -4340    -3473    -4082    -5934    -7570    -8468    -8977    -9217 
   -9195    -9130    -9687   -11131   -12792   -14168   -15096   -15584 
  -15757   -15236   -13574   -10866    -7616    -4318    -1257     1262 
    3250     4746     5377     5252     4984     4993     5448     6256 
    7019     7479     8117     9383    10598    10803    10066     9430 
    9702    10421    10662    10312     9731     9151     8959     9600 
   10973    12442    13479    14081    14524    14880    14945    14735 
   14570    14472    14378    14491    14799    15078    15275    15393 
   15409    15450    15547    15254    14573    14122    13587    12814 
   13165    14721    15758    15880    15771    15399    14702    14146 
   13761    12978    11792    10734     9622     7602     4360      582 
   -2785    -5426    -7533    -9367   -11104   -12430   -13038   -13243 
  -13380   -13724   -14525   -15696   -16985   -17909   -18150   -18245 
  -18887   -19773   -19787   -18596   -16993   -15625   -14939   -15135 
  -15745   -16486   -17430   -18618   -20193   -22115   -24145   -25811 
  -26301   -25663   -24919   -24633   -25086   -26319   -27552   -28513 
  -29630   -30410   -30330   -30058   -29973   -29974   -30453   -31407 
  -32041   -31509   -29820   -28051   -26753   -25344   -23323   -20920 
  -18878   -17424   -15715   -12807    -8609    -4177    -1180      288 
    2396     5055     6069     7874    12305    15683    17541    19515 
   20806    21786    23525    25931    28108    30073    31851    32221 
   31227    29495    27198    24525    21675    19308    17547    16070 
   14654    12679     9923     7164     5441     5011     5193     5341 
    5266     4819     4025     3314     2773     1809      123    -1718 
   -3209    -4756    -6537    -8177    -9882   -11682   -13224   -14483 
  -14961   -14425   -13757   -13129   -11661    -9527    -7929    -7157 
   -6724    -6306    -5326    -3732    -2633    -2389    -2189    -1694 
   -1461    -1802    -2103    -1954    -1312      -73      936      487 
   -1398    -3337    -4069    -3416    -1785     -124     1025     2467 
    4740     7596    10859    14153    17035    19521    21754    23714 
   25525    27311    28603    28858    28321    27732    27728    28593 
   30251    32034    32895    32725    32435    32569    33078    33593 
   33571    32884    31872    31075    30631    29876    28428    26879 
   26069    26159    26424    26282    25842    25393    25206    25205 
   25064    24984    25454    26596    27922    28622    28541    28249 
   28352    29262    30767    32127    32810    32623    31932    31203 
   30330    29554    29377    29344    28523    26829    24574    21616 
   18778    17336    16845    16365    15280    13247    10976     9320 
    8407     7500     5636     2912     -219    -3322    -5287    -5738 
   -6044    -7088    -7916    -8297    -9611   -11866   -13878   -15805 
  -18375   -21460   -24691   -28147   -31782   -35038   -37767   -40494 
  -43159   -45045   -45960   -46488   -47652   -49963   -52654   -55079 
  -57512   -59931   -61990   -63797   -65732   -67848   -69755   -71413 
  -73283   -75279   -76687   -77437   -77637   -76696   -75314   -74814 
  -74468   -73278   -71596   -70333   -70185   -70461   -69698   -67853 
  -65924   -64383   -63485   -63414   -63728   -63786   -63534   -63119 
  -62048   -60087   -58217   -57386   -57419   -57763   -58144   -58251 
  -57947   -57656   -57453   -56903   -55947   -54488   -52221   -49385 
  -46276   -42886   -39689   -37290   -35365   -33103   -30064   -25911 
  -20994   -16906   -14222   -11961    -9598    -6687    -3011      421 
    3117     5576     8078    11033    14822    18810    22131    25006 
   27951    31043    34175    37042    39719    42337    44629    46726 
   48665    50363    52174    53794    54794    55741    57215    59056 
   60754    62217    63456    64450    65902    68179    70223    70992 
   71212    72295    74209    75924    77015    77953    78903    79452 
   79724    79932    80069    80359    80744    80936    80622    79762 
   79063    78892    78787    78751    79065    79177    78399    76857 
   74900    72516    69910    67790    66470    65481    64271    62813 
   61537    60904    60702    60343    60164    60346    60020    59006 
   57828    56671    55551    54038    51344    47515    43644    40492 
   37735    34668    31232    28238    26214    24764    23397    21712 
   19270    16476    14243    12314     9624     6272     3719     2464 
    1136    -1212    -4408    -8204   -11951   -15039   -17586   -19826 
  -22297   -25767   -30013   -34029   -37329   -40135   -42258   -43163 
  -43640   -45208   -47992   -51233   -54491   -57485   -60102   -62640 
  -65541   -68376   -70312   -71876   -73800   -75834   -77596   -78680 
  -79174   -79421   -79131   -78395   -77891   -77587   -76807   -75280 
  -73265   -71233   -69748   -68879   -68147   -67374   -66638   -66038 
  -65804   -65571   -64633   -63276   -62119   -61165   -60350   -59374 
  -57853   -56174   -54744   -53383   -51940   -50250   -48294   -46706 
  -45730   -44643   -43404   -42857   -42892   -42692   -42217   -41754 
  -41133   -40209   -39158   -37922   -36443   -35404   -35526   -36432 
  -36920   -36095   -34042   -31473   -28875   -26325   -23971   -21752 
  -19375   -17380   -16237   -15113   -13513   -11937   -10395    -8393 
   -5927    -3418     -959     1722     4470     6608     7952     9236 
   10944    12854    14808    16548    18063    19863    21847    23480 
   25072    27749    30721    32064    33660    35999    35923    35441 
   36525    36561    36193    37078    38629    40652    42799    43827 
   43126    42080    41922    42401    43349    44557    45778    47150 
   48618    49930    50613    50454    50002    49467    48301    45963 
   42866    40699    40301    40440    40113    39457    38646    37679 
   36380    34958    33922    33036    31877    30494    29088    27775 
   26584    25775    25282    24433    23196    22014    20929    19983 
   19326    19036    18905    18455    17708    16979    16307    15729 
   15262    14990    14946    14655    13848    13132    12670    11676 
   10505     9965     9416     8772     8676     8161     5786     2225 
    -922    -3272    -4770    -5601    -6697    -8433   -10365   -11905 
  -12641   -12707   -12808   -13405   -14102   -14534   -15024   -15766 
  -16348   -16227   -15253   -13910   -13046   -12943   -12961   -12699 
  -12469   -12049   -10917    -9687    -9108    -8651    -8045    -8098 
   -8670    -8703    -8055    -7376    -7466    -8534    -9992   -11713 
  -13555   -14446   -14018   -13778   -15054   -16391   -15527   -13309 
  -12680   -14675   -17184   -18065   -18397   -20417   -23580   -25374 
  -24939   -24112   -25005   -27331   -29306   -30146   -30389   -31356 
  -33609   -35717   -36309   -35408   -33724   -32493   -32608   -33089 
  -32178   -30626   -30764   -32257   -33147   -33264   -33448   -34092 
  -35055   -35715   -35226   -32998   -30315   -29017   -27451   -23405 
  -18964   -17097   -17505   -18230   -18232   -17272   -14937   -11744 
   -9726    -9500    -9283    -8054    -6986    -7206    -7768    -7342 
   -6252    -5020    -3328    -1599    -1127    -1259     -207     1390 
    2744     4887     7555     8994     8982     8887     9522    10693 
   11816    12445    12474    11793    10671     9969    10164    10816 
   11380    11587    11564    12138    13086    12766    10982     9143 
    7954     7036     6116     5958     6793     6867     5331     3493 
    2261     1943     2562     3588     5238     7696     9558     9731 
    9011     8266     7504     7670     9633    11600    11707    10750 
   10162    10200    10267    10215    10513    10214     9063     9343 
    9953     8385     6738     5939     4452     2904     2835     4222 
    5506     6037     5846     4521     2755     2264     3934     6391 
    7885     8408     8309     7666     6857     6453     6729     7085 
    6888     6309     4903     1936     -952    -1439     -578    -1044 
   -2360    -2518    -2226    -3043    -4899    -7014    -8713    -9636 
   -9403    -8756   -10103   -13491   -15262   -13349   -10330    -9682 
  -11637   -14344   -17150   -20247   -22736   -23197   -21808   -20463 
  -19826   -18783   -17573   -17922   -19479   -19618   -18226   -18122 
  -19357   -18690   -15222   -11848   -10732   -10826   -10010    -7589 
   -5000    -3884    -4039    -4742    -5405    -4799    -3287    -3291 
   -4795    -5213    -4135    -2941    -2258    -3050    -5250    -5780 
   -3287     -753     -127     -241      172     1291     2017     1716 
    2086     4108     6205     6959     6638     6418     7050     8432 
    9873    10088     8724     7474     7534     7857     7705     7891 
    8568     9483    11207    13298    14033    13775    14698    16864 
   18592    19138    19351    20194    21182    21590    21652    22057 
   23293    25263    27340    28441    27741    25590    23268    22068 
   22036    21897    20794    18901    16449    13573    10744     8298 
    6202     4488     2846      800    -1333    -2888    -3803    -4761 
   -6446    -8965   -11530   -12977   -13660   -15141   -18095   -21678 
  -24282   -25195   -25216   -25574   -26545   -27487   -28626   -30614 
  -32838   -34728   -36114   -36452   -36028   -35966   -37039   -38937 
  -40459   -41010   -40890   -40722   -40758   -40294   -39111   -37838 
  -36792   -36212   -36246   -36654   -36691   -35577   -33776   -32123 
  -30869   -30587   -31464   -32247   -31829   -30629   -29492   -28625 
  -27838   -26849   -25373   -23360   -21499   -20768   -20941   -20819 
  -20005   -18718   -16625   -13821   -11370    -9634    -7756    -5125 
   -2752    -2210    -2912    -2947    -1909     -618      405     1286 
    2205     3358     5446     8340    10529    11486    12396    13993 
