Origin Time       2011/03/11 14:46:00
Lat.              38.103
Long.             142.860
Depth. (km)       24
Mag.              9.0
Station Code      SZO021
Station Lat.      35.0978
Station Long.     138.1332
Station Height(m) 441
Record Time       2011/03/11 14:48:18
Sampling Freq(Hz) 100Hz
Duration Time(s)  200
Dir.              N-S
Scale Factor      3920(gal)/6182761
Max. Acc. (gal)   13.249
Last Correction   2011/03/11 14:48:03
Memo.             
[...]
  -23601   -22887   -21940   -20882   -19671   -18266   -16822   -15593 
  -14638   -13804   -13008   -12391   -12224   -12638   -13429   -14183 
  -14583   -14625   -14636   -14994   -15704   -16402   -16772   -16867 
  -17038   -17564   -18433   -19535   -20857   -22316   -23595   -24354 
  -24528   -24345   -24069   -23790   -23518   -23264   -22963   -22518 
  -21903   -21170   -20372   -19531   -18688   -17863   -17013   -16174 
  -15474   -14926   -14417   -13956   -13737   -13912   -14339   -14632 
  -14651   -14738   -15186   -15826   -16403   -16987   -17838   -19047 
  -20422   -21678   -22632   -23191   -23319   -23088   -22656   -22113 
  -21445   -20740   -20293   -20308   -20627   -20883   -20735   -20010 
  -18814   -17437   -16111   -14870   -13696   -12772   -12436   -12778 
  -13437   -13924   -14118   -14370   -15020   -16028   -17157   -18271 
  -19285   -20029   -20408   -20580   -20761   -20918   -20871   -20652 
  -20603   -21079   -22076   -23139   -23712   -23649   -23323   -23201 
  -23401   -23731   -24038   -24389   -24891   -25426   -25711   -25654 
  -25484   -25490   -25707   -25910   -25872   -25566   -25210   -25069 
  -25195   -25451   -25637   -25567   -25247   -24880   -24679   -24826 
  -25381   -26149   -26800   -27085   -26922   -26401   -25760   -25242 
  -24919   -24642   -24203   -23608   -23115   -22955   -23153   -23663 
  -24399   -25132   -25614   -25721   -25414   -24762   -23949   -23118 
  -22300   -21489   -20666   -19774   -18780   -17799   -17079   -16789 
  -16890   -17190   -17500   -17753   -18003   -18319   -18684   -18986 
  -19078   -18868   -18405   -17874   -17444   -17144   -16975   -17061 
  -17467   -17958   -18151   -17946   -17726   -17901   -18378   -18742 
  -18815   -18763   -18769   -18735   -18430   -17860   -17314   -17057 
  -17082   -17134   -16952   -16511   -16084   -15979   -16232   -16621 
  -16863   -16762   -16334   -15773   -15260   -14880   -14731   -14980 
  -15676   -16631   -17608   -18473   -19122   -19462   -19477   -19312 
  -19281   -19621   -20255   -20889   -21309   -21549   -21729   -21855 
  -21894   -21942   -22081   -22229   -22266   -22150   -21979   -21964 
  -22145   -22297   -22239   -21972   -21513   -20860   -20164   -19694 
  -19568   -19705   -19953   -20191   -20429   -20746   -21097   -21345 
  -21425   -21344   -21144   -20948   -20852   -20785   -20624   -20322 
  -19916   -19539   -19348   -19362   -19503   -19738   -20051   -20385 
  -20719   -21135   -21739   -22513   -23244   -23665   -23676   -23444 
  -23242   -23205   -23309   -23443   -23426   -23095   -22463   -21669 
  -20747   -19648   -18436   -17236   -16064   -14871   -13741   -12909 
  -12482   -12246   -11896   -11440   -11247   -11655   -12663   -13943 
  -15086   -15847   -16300   -16702   -17146   -17517   -17822   -18238 
  -18787   -19253   -19479   -19536   -19584   -19675   -19695   -19511 
  -19196   -18980   -18997   -19201   -19491   -19772   -19910   -19807 
  -19574   -19465   -19616   -19910   -20065   -19783   -18971   -17880 
  -16990   -16719   -17114   -17815   -18485   -19107   -19782   -20499 
  -21192   -21856   -22555   -23290   -23861   -24041   -24002   -24288 
  -25177   -26375   -27440   -28152   -28497   -28566   -28485   -28397 
  -28460   -28723   -29086   -29432   -29722   -29968   -30157   -30213 
  -30024   -29494   -28610   -27514   -26502   -25839   -25490   -25204 
  -24877   -24610   -24542   -24675   -24769   -24525   -23922   -23238 
  -22702   -22268   -21789   -21218   -20560   -19863   -19284   -19053 
  -19306   -19888   -20382   -20496   -20288   -19925   -19541   -19349 
  -19555   -20071   -20557   -20789   -20825   -20879   -21066   -21270 
  -21419   -21609   -21797   -21702   -21135   -20285   -19519   -18974 
  -18472   -17824   -17105   -16567   -16362   -16458   -16705   -16903 
  -16855   -16425   -15654   -14800   -14132   -13700   -13343   -12931 
  -12542   -12326   -12259   -12196   -12134   -12240   -12592   -13038 
  -13367   -13573   -13852   -14362   -15079   -15874   -16614   -17148 
  -17367   -17359   -17398   -17723   -18328   -18975   -19527   -20135 
  -20959   -21965   -23038   -24036   -24772   -25161   -25328   -25462 
  -25665   -25935   -26166   -26283   -26370   -26483   -26524   -26428 
  -26245   -25967   -25513   -24947   -24519   -24424   -24629   -24949 
  -25231   -25402   -25411   -25250   -25088   -25166   -25479   -25757 
  -25795   -25596   -25251   -24825   -24338   -23908   -23777   -24006 
  -24336   -24468   -24318   -23938   -23357   -22586   -21743   -20984 
  -20331   -19718   -19174   -18865   -18927   -19266   -19592   -19713 
  -19680   -19620   -19610   -19735   -20055   -20515   -20966   -21244 
  -21246   -21033   -20848   -20955   -21436   -22132   -22753   -23042 
  -22940   -22640   -22437   -22453   -22485   -22208   -21553   -20811 
  -20348   -20260   -20401   -20638   -20817   -20667   -19994   -18983 
  -18146   -17879   -18082   -18281   -18071   -17346   -16223   -14933 
  -13812   -13242   -13388   -14015   -14667   -15032   -15155   -15326 
  -15761   -16422   -17161   -17925   -18723   -19491   -20045   -20187 
  -19929   -19536   -19216   -18911   -18450   -17810   -17182   -16767 
  -16545   -16342   -16049   -15688   -15305   -14910   -14538   -14237 
  -13987   -13733   -13460   -13227   -13099   -13087   -13243   -13723 
  -14590   -15658   -16697   -17670   -18679   -19750   -20732   -21459 
  -21910   -22129   -22126   -21951   -21789   -21805   -21941   -21999 
  -21818   -21329   -20618   -19879   -19254   -18705   -18054   -17210 
  -16335   -15712   -15457   -15366   -15232   -15188   -15480   -16090 
  -16713   -17005   -16888   -16617   -16492   -16514   -16492   -16408 
  -16403   -16511   -16656   -16724   -16641   -16484   -16324   -16010 
  -15347   -14383   -13379   -12580   -12087   -11856   -11816   -11962 
  -12261   -12618   -13046   -13659   -14398   -15000   -15310   -15439 
  -15602   -15920   -16373   -16948   -17742   -18827   -20041   -21083 
  -21897   -22722   -23711   -24726   -25546   -26081   -26367   -26464 
  -26415   -26277   -26197   -26370   -26827   -27362   -27736   -27877 
  -27900   -27990   -28242   -28621   -29021   -29359   -29614   -29733 
  -29594   -29130   -28382   -27489   -26604   -25746   -24829   -23837 
  -22813   -21761   -20698   -19629   -18474   -17182   -15902   -14891 
  -14291   -14025   -13840   -13592   -13465   -13708   -14230   -14835 
  -15645   -16892   -18504   -20160   -21605   -22771   -23719   -24499 
  -25028   -25234   -25203   -25046   -24798   -24493   -24107   -23459 
  -22552   -21819   -21663   -21987   -22334   -22343   -22009   -21595 
  -21301   -21035   -20607   -20050   -19496   -18978   -18523   -18207 
  -18061   -18082   -18250   -18490   -18758   -19094   -19509   -19874 
  -20022   -19938   -19749   -19594   -19528   -19490   -19394   -19207 
  -18926   -18640   -18546   -18779   -19268   -19768   -19997   -19803 
  -19263   -18643   -18276   -18402   -18989   -19733   -20322   -20578 
  -20487   -20250   -20110   -20130   -20280   -20503   -20631   -20553 
  -20388   -20375   -20684   -21302   -22050   -22740   -23296   -23717 
  -23959   -23973   -23828   -23673   -23593   -23563   -23492   -23287 
  -22992   -22751   -22633   -22639   -22703   -22687   -22595   -22529 
  -22398   -22025   -21447   -20871   -20498   -20462   -20769   -21296 
  -21908   -22451   -22779   -22991   -23322   -23756   -24037   -23996 
  -23749   -23532   -23420   -23321   -23178   -23078   -23153   -23392 
  -23707   -24097   -24542   -24927   -25156   -25247   -25309   -25400 
  -25419   -25205   -24767   -24318   -23969   -23605   -23096   -22431 
  -21701   -21004   -20292   -19422   -18468   -17720   -17334   -17261 
  -17366   -17488   -17559   -17623   -17708   -17742   -17685   -17627 
  -17550   -17236   -16620   -15903   -15270   -14785   -14487   -14428 
  -14603   -14792   -14640   -14047   -13332   -12802   -12352   -11835 
  -11519   -11748   -12476   -13369   -14177   -14917   -15722   -16613 
  -17517   -18420   -19446   -20715   -22101   -23292   -24067   -24400 
  -24424   -24298   -24016   -23460   -22602   -21492   -20188   -18880 
  -17868   -17293   -17039   -16871   -16578   -16089   -15492   -14907 
  -14485   -14402   -14608   -14836   -14930   -15009   -15244   -15606 
  -15856   -15756   -15248   -14518   -13897   -13685   -14025   -14863 
  -15944   -16936   -17719   -18456   -19310   -20254   -21198   -22118 
  -22981   -23615   -23829   -23659   -23314   -22908   -22418   -21853 
  -21359   -21134   -21177   -21208   -20994   -20582   -20181   -19953 
  -19873   -19811   -19740   -19740   -19851   -20068   -20438   -21050 
  -21915   -22917   -23842   -24428   -24526   -24284   -24002   -23808 
  -23663   -23560   -23558   -23615   -23416   -22630   -21429   -20371 
  -19759   -19477   -19371   -19421   -19568   -19639   -19523   -19351 
  -19384   -19682   -19996   -20101   -20032   -19884   -19609   -19143 
  -18599   -18164   -17842   -17527   -17255   -17142   -17171   -17298 
  -17651   -18436   -19661   -20974   -21935   -22414   -22542   -22475 
  -22379   -22430   -22712   -23250   -24049   -25016   -25940   -26637 
  -27145   -27608   -28027   -28353   -28588   -28710   -28661   -28393 
  -27907   -27338   -26871   -26466   -25864   -24999   -24092   -23213 
  -22128   -20712   -19223   -18143   -17749   -17843   -17997   -18002 
  -17918   -17830   -17718   -17576   -17467   -17434   -17461   -17554 
  -17809   -18294   -18865   -19267   -19418   -19422   -19395   -19310 
  -18968   -18249   -17302   -16380   -15652   -15225   -15221   -15705 
  -16538   -17397   -17932   -17954   -17482   -16635   -15554   -14433 
  -13498   -12867   -12447   -12082   -11729   -11415   -11246   -11436 
  -12142   -13260   -14396   -15096   -15261   -15225   -15338   -15718 
  -16382   -17362   -18638   -19999   -21060   -21548   -21585   -21594 
  -21900   -22491   -23121   -23516   -23499   -23039   -22221   -21144 
  -19922   -18717   -17709   -16994   -16471   -15934   -15327   -14816 
  -14611   -14716   -14858   -14839   -14793   -14925   -15260   -15733 
  -16325   -17079   -17952   -18725   -19186   -19372   -19510   -19743 
  -20037   -20236   -20209   -20027   -19914   -20002   -20245   -20598 
  -21120   -21766   -22320   -22673   -22931   -23195   -23453   -23670 
  -23840   -23938   -23923   -23789   -23514   -23021   -22297   -21430 
  -20518   -19625   -18821   -18254   -18116   -18411   -18866   -19186 
  -19304   -19309   -19254   -19202   -19348   -19813   -20371   -20646 
  -20570   -20462   -20664   -21288   -22243   -23303   -24260   -25068 
  -25737   -26214   -26519   -26792   -27080   -27305   -27417   -27387 
  -27106   -26485   -25572   -24487   -23353   -22258   -21266   -20484 
  -20079   -20109   -20324   -20307   -19844   -19114   -18542   -18417 
  -18746   -19354   -19959   -20361   -20516   -20425   -20194   -20033 
  -20068   -20198   -20200   -19944   -19382   -18412   -17011   -15435 
  -14114   -13309   -12895   -12538   -12017   -11356   -10701   -10092 
   -9390    -8425    -7139    -5689    -4348    -3218    -2147     -978 
     185     1017     1263      941      216     -845    -2254    -3940 
   -5814    -7879   -10105   -12348   -14482   -16483   -18441   -20454 
  -22444   -24267   -25925   -27517   -29077   -30526   -31767   -32760 
  -33514   -34040   -34220   -33881   -33049   -31863   -30369   -28600 
  -26699   -24852   -23134   -21493   -19880   -18343   -17064   -16176 
  -15572   -15105   -14779   -14598   -14508   -14539   -14732   -15025 
  -15390   -15884   -16482   -17118   -17786   -18423   -18935   -19361 
  -19745   -20017   -20147   -20204   -20213   -20176   -20140   -20070 
  -19881   -19607   -19403   -19443   -19772   -20237   -20608   -20781 
  -20834   -20861   -20825   -20580   -20033   -19284   -18497   -17701 
  -16851   -15980   -15299   -15101   -15454   -16133   -16934   -17872 
  -18985   -20111   -21009   -21605   -22071   -22616   -23187   -23502 
  -23396   -22989   -22451   -21774   -20994   -20385   -20180   -20349 
  -20685   -20917   -20878   -20546   -19902   -18987   -18043   -17378 
  -17121   -17247   -17663   -18164   -18468   -18393   -18017   -17633 
  -17499   -17705   -18211   -18811   -19158   -18982   -18330   -17481 
  -16642   -15798   -14782   -13461   -11900   -10328    -9014    -8190 
   -7950    -8174    -8656    -9195    -9594    -9728    -9569    -9158 
   -8587    -7895    -7001    -5883    -4814    -4265    -4550    -5629 
   -7152    -8628    -9776   -10684   -11547   -12391   -13097   -13569 
  -13827   -14020   -14362   -14960   -15721   -16505   -17268   -17997 
  -18667   -19299   -20027   -21025   -22287   -23631   -24898   -25943 
  -26614   -26838   -26697   -26369   -26079   -25970   -25926   -25672 
  -25038   -24011   -22675   -21188   -19680   -18176   -16668   -15179 
  -13743   -12393   -11167   -10066    -9054    -8171    -7546    -7307 
   -7572    -8411    -9689   -11068   -12326   -13549   -14929   -16517 
  -18238   -19925   -21304   -22213   -22843   -23572   -24664   -26172 
  -27986   -29894   -31706   -33336   -34742   -35906   -36830   -37531 
  -38057   -38420   -38527   -38228   -37359   -35908   -34240   -32917 
  -32179   -31823   -31557   -31290   -31117   -31062   -30936   -30544 
  -29854   -28896   -27673   -26154   -24405   -22611   -20880   -19192 
  -17441   -15510   -13355   -10985    -8523    -6189    -4156    -2555 
   -1405     -505      320      975     1264     1090      516     -311 
   -1350    -2646    -4118    -5591    -7023    -8536   -10248   -12115 
  -13999   -15820   -17579   -19210   -20536   -21493   -22258   -23023 
  -23805   -24489   -25019   -25466   -25881   -26231   -26461   -26527 
  -26456   -26278   -25933   -25412   -24826   -24258   -23739   -23344 
  -23189   -23322   -23612   -23869   -24011   -24033   -23924   -23661 
  -23205   -22574   -21849   -21067   -20216   -19333   -18460   -17552 
  -16568   -15592   -14773   -14208   -13939   -14008   -14392   -14881 
  -15189   -15247   -15283   -15565   -16243   -17294   -18479   -19444 
  -19935   -19888   -19481   -18988   -18544   -18090   -17443   -16420 
  -14983   -13308   -11694   -10389    -9461    -8782    -8121    -7358 
   -6590    -6032    -5861    -6099    -6608    -7167    -7617    -7951 
   -8277    -8709    -9379   -10370   -11564   -12709   -13605   -14239 
  -14839   -15595   -16402   -17056   -17534   -17920   -18257   -18576 
  -18974   -19451   -19820   -19896   -19714   -19487   -19387   -19420 
  -19503   -19556   -19535   -19448   -19414   -19619   -20109   -20718 
  -21281   -21719   -21944   -21917   -21792   -21910   -22526   -23498 
  -24384   -24809   -24697   -24249   -23674   -23048   -22450   -21909 
  -21269   -20382   -19281   -18145   -17185   -16511   -16057   -15595 
  -14852   -13682   -12175   -10635    -9431    -8784    -8660    -8900 
   -9428   -10329   -11634   -13177   -14819   -16600   -18552   -20551 
  -22392   -23970   -25333   -26502   -27424   -28133   -28734   -29368 
  -30173   -31133   -32082   -32836   -33267   -33367   -33231   -32950 
  -32527   -31899   -31004   -29828   -28456   -27100   -25953   -25092 
  -24488   -24139   -24159   -24595   -25235   -25830   -26334   -26786 
  -27119   -27228   -27157   -27133   -27313   -27553   -27555   -27144 
  -26333   -25171   -23658   -21863   -20077   -18671   -17796   -17361 
  -17257   -17426   -17784   -18239   -18704   -19113   -19525   -20028 
  -20590   -21092   -21392   -21361   -20935   -20205   -19410   -18769 
  -18327   -17929   -17367   -16580   -15689   -14897   -14363   -14118 
  -14021   -13813   -13295   -12470   -11507   -10638   -10030    -9742 
   -9723    -9770    -9684    -9465    -9236    -9100    -9089    -9186 
   -9424    -9862   -10460   -11142   -11903   -12760   -13658   -14449 
  -15012   -15406   -15829   -16405   -17083   -17753   -18387   -19053 
  -19879   -20916   -22063   -23226   -24352   -25324   -26083   -26766 
  -27566   -28552   -29585   -30372   -30684   -30458   -29799   -28907 
  -27981   -27199   -26619   -26084   -25373   -24396   -23221   -21985 
  -20833   -19926   -19382   -19129   -18864   -18282   -17358   -16301 
  -15311   -14465   -13784   -13296   -13002   -12836   -12683   -12515 
  -12434   -12554   -12928   -13484   -14023   -14321   -14297   -14079 
  -13850   -13703   -13694   -13889   -14301   -14781   -15121   -15229 
  -15107   -14788   -14323   -13794   -13329   -13028   -12928   -13033 
  -13334   -13767   -14238   -14758   -15445   -16386   -17577   -18862 
  -20003   -20909   -21657   -22285   -22691   -22755   -22537   -22229 
  -21942   -21699   -21453   -21094   -20593   -20033   -19484   -18965 
  -18468   -18005   -17660   -17481   -17370   -17215   -17036   -16939 
  -17063   -17479   -18130   -18884   -19565   -19948   -19930   -19698 
  -19526   -19469   -19386   -19136   -18646   -17965   -17269   -16746 
  -16534   -16639   -16882   -17057   -17121   -17188   -17375   -17620 
  -17787   -17867   -17903   -17828   -17430   -16560   -15388   -14278 
  -13483   -13105   -13127   -13397   -13738   -14057   -14328   -14577 
  -14853   -15121   -15271   -15239   -15028   -14682   -14302   -14030 
  -13992   -14192   -14533   -14956   -15440   -15953   -16498   -17108 
  -17812   -18688   -19771   -20917   -21943   -22773   -23426   -23896 
  -24067   -23833   -23262   -22507   -21671   -20829   -20053   -19394 
  -18840   -18262   -17546   -16727   -15925   -15287   -14971   -15046 
  -15430   -15887   -16163   -16202   -16211   -16464   -17003   -17595 
  -18084   -18562   -19158   -19832   -20437   -20947   -21480   -22067 
  -22592   -22949   -23203   -23566   -24134   -24740   -25182   -25423 
  -25497   -25417   -25224   -25005   -24866   -24851   -24846   -24669 
  -24221   -23556   -22883   -22442   -22313   -22365   -22448   -22585 
  -22938   -23595   -24485   -25475   -26459   -27359   -28076   -28507 
  -28630   -28529   -28282   -27927   -27467   -26893   -26218   -25493 
  -24818   -24321   -24092   -24191   -24601   -25138   -25549   -25686 
  -25547   -25180   -24611   -23876   -23077   -22371   -21877   -21599 
  -21428   -21201   -20813   -20325   -19881   -19571   -19410   -19343 
  -19282   -19180   -19034   -18884   -18765   -18637   -18445   -18162 
  -17790   -17364   -16862   -16202   -15444   -14782   -14359   -14186 
  -14139   -14039   -13771   -13282   -12594   -11852   -11278   -11032 
  -11097   -11319   -11570   -11810   -12027   -12228   -12459   -12755 
  -13102   -13479   -13861   -14227   -14585   -14930   -15234   -15522 
  -15811   -16072   -16307   -16549   -16828   -17119   -17336   -17418 
  -17382   -17312   -17333   -17547   -17973   -18577   -19249   -19818 
  -20230   -20584   -20958   -21348   -21726   -22092   -22498   -23015 
  -23619   -24179   -24580   -24822   -24974   -25046   -24955   -24640 
  -24158   -23614   -23062   -22517   -22018   -21601   -21235   -20858 
  -20478   -20199   -20085   -20021   -19762   -19129   -18175   -17112 
  -16113   -15206   -14330   -13492   -12796   -12284   -11879   -11462 
  -10973   -10490   -10158   -10057   -10190   -10499   -10831   -11003 
  -10970   -10887   -10957   -11216   -11484   -11601   -11631   -11725 
  -11942   -12235   -12502   -12641   -12615   -12499   -12462   -12615 
