Origin Time       2011/03/11 14:46:00
Lat.              38.103
Long.             142.860
Depth. (km)       24
Mag.              9.0
Station Code      SZO018
Station Lat.      34.7389
Station Long.     138.2247
Station Height(m) 3
Record Time       2011/03/11 14:48:11
Sampling Freq(Hz) 100Hz
Duration Time(s)  300
Dir.              N-S
Scale Factor      3920(gal)/6182761
Max. Acc. (gal)   29.053
Last Correction   2011/03/11 14:47:56
Memo.             
[...]
  -36521   -34082   -31533   -28929   -26360   -23818   -21232   -18662 
  -16235   -13958   -11849   -10036    -8506    -7165    -6127    -5460 
   -5003    -4767    -4942    -5424    -6006    -6764    -7759    -8898 
  -10214   -11782   -13441   -15098   -16881   -18774   -20783   -22937 
  -25105   -27215   -29243   -31277   -33317   -35251   -37171   -39111 
  -41082   -43171   -45321   -47442   -49529   -51674   -53937   -56173 
  -58161   -60009   -61928   -63688   -65207   -66687   -67937   -68997 
  -70053   -70737   -71159   -71587   -71701   -71536   -71312   -71067 
  -70680   -70082   -69513   -68783   -67801   -66824   -65654   -64280 
  -62847   -61311   -59789   -58227   -56541   -54895   -53391   -51974 
  -50591   -49263   -47975   -46790   -45727   -44680   -43697   -42820 
  -41982   -41195   -40517   -39913   -39350   -38758   -38039   -37233 
  -36356   -35383   -34321   -33202   -32075   -30938   -29814   -28717 
  -27663   -26679   -25744   -24895   -24098   -23318   -22640   -22007 
  -21406   -20888   -20366   -19816   -19260   -18738   -18236   -17750 
  -17355   -17084   -17076   -17275   -17556   -18122   -18939   -19952 
  -21316   -22883   -24532   -26295   -28287   -30495   -32550   -34502 
  -36599   -38594   -40433   -42358   -44329   -46310   -48385   -50390 
  -52266   -54164   -56006   -57699   -59278   -60798   -62234   -63478 
  -64688   -65860   -66838   -67761   -68520   -69046   -69452   -69586 
  -69434   -69014   -68290   -67339   -66174   -64826   -63263   -61502 
  -59656   -57680   -55559   -53377   -51109   -48755   -46413   -44121 
  -41960   -40056   -38350   -36727   -35212   -33917   -32811   -31797 
  -30924   -30110   -29210   -28302   -27467   -26648   -25827   -25097 
  -24459   -23757   -22944   -22156   -21468   -20822   -20194   -19620 
  -19196   -18978   -18817   -18724   -18915   -19420   -20208   -21202 
  -22371   -23765   -25314   -26976   -28614   -30125   -31607   -32991 
  -34196   -35199   -35914   -36532   -37168   -37738   -38538   -39646 
  -40727   -41970   -43494   -44941   -46346   -47862   -49383   -50869 
  -52403   -54072   -55740   -57414   -59230   -60945   -62581   -64364 
  -66005   -67372   -68646   -69820   -70770   -71460   -71978   -72287 
  -72347   -72320   -72248   -72018   -71720   -71488   -71157   -70680 
  -70185   -69566   -68785   -67932   -66931   -65772   -64530   -63121 
  -61525   -59871   -58162   -56354   -54503   -52608   -50617   -48625 
  -46686   -44655   -42616   -40723   -38883   -37092   -35470   -34070 
  -32794   -31577   -30569   -29805   -29302   -29047   -28834   -28765 
  -29033   -29492   -30059   -30770   -31670   -32803   -33995   -35124 
  -36449   -38044   -39648   -41167   -42664   -44187   -45675   -47035 
  -48281   -49513   -50754   -51849   -52860   -53849   -54622   -55219 
  -55768   -56267   -56666   -56971   -57361   -57839   -58273   -58671 
  -59116   -59685   -60207   -60610   -61052   -61399   -61537   -61559 
  -61435   -61140   -60732   -60243   -59660   -59027   -58380   -57634 
  -56757   -55751   -54577   -53247   -51682   -49824   -47839   -45805 
  -43696   -41597   -39599   -37687   -35781   -33964   -32283   -30602 
  -29030   -27678   -26486   -25494   -24731   -24241   -24029   -24090 
  -24424   -24986   -25745   -26504   -27213   -27989   -28699   -29375 
  -30047   -30591   -31252   -31878   -32068   -32253   -32572   -32541 
  -32276   -32181   -32125   -31859   -31699   -31761   -31804   -32125 
  -32805   -33481   -34211   -35121   -36177   -37312   -38396   -39360 
  -40259   -41191   -42103   -43026   -44031   -45010   -46042   -47127 
  -48083   -48982   -49844   -50505   -50891   -51027   -51035   -50940 
  -50589   -49979   -49282   -48615   -47929   -47207   -46584   -45969 
  -45279   -44615   -43870   -43086   -42384   -41639   -40831   -40055 
  -39377   -38794   -38344   -38161   -38187   -38407   -38945   -39701 
  -40599   -41667   -42832   -43965   -44985   -45931   -46742   -47329 
  -47697   -47864   -47999   -48243   -48531   -48771   -49131   -49872 
  -50783   -51727   -53032   -54492   -55924   -57625   -59235   -60655 
  -62329   -63923   -65154   -66134   -66885   -67332   -67308   -66923 
  -66123   -64901   -63553   -61895   -59812   -57508   -55045   -52482 
  -49814   -47007   -44078   -41258   -38741   -36343   -34007   -31859 
  -29953   -28311   -26814   -25444   -24341   -23496   -22843   -22309 
  -21878   -21682   -21640   -21617   -21758   -21972   -22116   -22350 
  -22632   -22869   -23187   -23613   -24020   -24339   -24719   -25237 
  -25751   -26316   -27050   -27837   -28686   -29754   -30953   -32231 
  -33799   -35652   -37614   -39619   -41624   -43659   -45710   -47729 
  -49729   -51602   -53323   -54832   -55943   -56734   -57251   -57508 
  -57591   -57208   -56372   -55639   -54917   -54033   -53461   -53097 
  -52661   -52628   -52851   -52891   -53208   -53788   -54120   -54225 
  -54283   -54240   -53882   -53482   -53172   -52651   -52208   -51884 
  -51438   -51006   -50573   -50207   -49809   -49121   -48312   -47641 
  -47174   -46758   -46426   -46270   -46025   -45741   -45488   -44982 
  -44323   -43601   -42720   -41796   -40844   -39926   -39006   -37990 
  -37085   -36261   -35479   -34862   -34281   -33671   -33055   -32394 
  -31722   -31088   -30460   -29779   -29175   -28761   -28460   -28343 
  -28438   -28665   -29088   -29661   -30397   -31379   -32495   -33738 
  -35116   -36620   -38318   -40133   -42024   -43954   -45808   -47596 
  -49327   -51003   -52596   -54094   -55651   -57242   -58655   -59845 
  -60985   -62156   -63130   -63937   -64657   -64986   -65126   -65122 
  -64525   -63731   -62880   -61513   -59724   -57687   -55439   -52954 
  -50365   -47808   -45174   -42721   -40478   -38260   -36461   -35185 
  -34240   -33752   -33617   -33631   -33970   -34642   -35396   -36205 
  -37081   -37853   -38429   -38941   -39329   -39383   -39225   -38971 
  -38479   -37828   -37425   -37310   -37187   -37197   -37545   -38136 
  -38921   -39894   -41007   -42075   -43048   -44124   -45188   -46100 
  -46945   -47610   -48069   -48443   -48750   -48953   -48963   -48810 
  -48545   -48216   -47914   -47591   -47331   -47277   -47442   -47797 
  -48245   -48802   -49422   -50000   -50598   -51141   -51624   -52177 
  -52790   -53473   -54177   -54910   -55746   -56507   -57119   -57622 
  -57855   -57786   -57480   -56929   -56145   -55175   -54102   -52883 
  -51612   -50379   -49034   -47714   -46506   -45314   -44295   -43490 
  -42752   -42054   -41545   -41238   -40949   -40671   -40411   -40130 
  -39840   -39440   -38991   -38556   -37948   -37225   -36556   -35836 
  -34960   -34006   -33098   -32230   -31374   -30551   -29811   -29290 
  -28994   -28806   -28700   -28790   -29072   -29406   -29862   -30402 
  -30886   -31451   -32167   -32987   -33887   -34863   -35952   -37029 
  -37948   -38733   -39343   -39671   -39716   -39556   -39211   -38570 
  -37719   -36906   -36075   -35173   -34262   -33318   -32402   -31528 
  -30668   -29856   -29075   -28324   -27657   -27119   -26685   -26293 
  -25968   -25784   -25769   -25987   -26420   -26967   -27782   -28922 
  -30100   -31321   -32641   -33863   -35036   -36268   -37438   -38444 
  -39284   -39907   -40259   -40439   -40534   -40471   -40218   -39825 
  -39343   -38822   -38241   -37615   -37062   -36611   -36233   -35974 
  -35931   -36045   -36285   -36780   -37392   -37959   -38590   -39310 
  -40088   -40748   -41109   -41382   -41592   -41577   -41451   -41220 
  -40877   -40525   -40101   -39638   -39188   -38680   -38171   -37702 
  -37192   -36593   -35923   -35190   -34357   -33407   -32362   -31303 
  -30308   -29356   -28506   -27949   -27729   -27792   -28167   -28807 
  -29619   -30590   -31644   -32656   -33649   -34613   -35446   -36191 
  -36932   -37693   -38482   -39246   -39982   -40778   -41624   -42430 
  -43177   -43856   -44420   -44871   -45291   -45705   -46069   -46501 
  -47084   -47733   -48504   -49405   -50345   -51327   -52318   -53337 
  -54451   -55609   -56769   -57950   -59147   -60330   -61428   -62350 
  -63085   -63608   -63847   -63817   -63515   -62972   -62280   -61448 
  -60537   -59646   -58802   -58105   -57622   -57303   -57162   -57245 
  -57541   -58013   -58607   -59216   -59733   -60199   -60635   -60903 
  -60954   -60855   -60564   -60075   -59504   -58761   -57739   -56571 
  -55283   -53815   -52240   -50593   -48851   -47094   -45405   -43799 
  -42309   -40991   -39844   -38839   -38007   -37342   -36690   -35995 
  -35306   -34578   -33837   -33093   -32327   -31675   -31130   -30606 
  -30157   -29770   -29446   -29170   -28880   -28656   -28545   -28507 
  -28562   -28791   -29247   -29885   -30753   -31856   -33067   -34380 
  -35737   -37098   -38570   -40120   -41671   -43182   -44543   -45753 
  -46880   -47896   -48738   -49406   -49870   -50075   -50053   -49829 
  -49420   -48897   -48309   -47672   -46990   -46318   -45730   -45183 
  -44624   -44026   -43346   -42602   -41799   -40910   -39928   -38889 
  -37879   -36950   -36160   -35507   -35030   -34847   -34905   -35242 
  -35948   -36829   -37842   -39137   -40625   -42158   -43663   -45014 
  -46207   -47338   -48374   -49303   -50291   -51359   -52422   -53507 
  -54600   -55650   -56588   -57377   -58047   -58600   -59039   -59276 
  -59309   -59211   -58903   -58365   -57597   -56539   -55183   -53587 
  -51820   -49848   -47634   -45197   -42528   -39642   -36556   -33322 
  -30001   -26612   -23277   -20095   -17082   -14330   -11875    -9672 
   -7708    -6003    -4598    -3444    -2465    -1582     -735      -42 
     391      667      916     1080      988      641      155     -455 
   -1215    -2123    -3136    -4198    -5309    -6484    -7718    -9056 
  -10624   -12452   -14438   -16616   -19111   -21901   -24874   -27865 
  -30711   -33358   -35743   -37728   -39288   -40580   -41689   -42611 
  -43452   -44261   -45138   -46260   -47486   -48825   -50499   -52371 
  -54369   -56521   -58686   -60867   -63016   -64944   -66538   -67816 
  -68822   -69416   -69624   -69585   -69206   -68586   -67877   -67054 
  -66212   -65379   -64464   -63541   -62753   -62008   -61223   -60563 
  -59994   -59364   -58729   -58142   -57591   -57040   -56473   -55860 
  -55195   -54559   -53932   -53286   -52612   -51829   -51010   -50224 
  -49366   -48405   -47333   -46159   -44905   -43532   -42077   -40577 
  -38998   -37325   -35597   -33901   -32172   -30355   -28636   -27062 
  -25608   -24404   -23486   -22891   -22673   -22804   -23229   -23879 
  -24805   -26021   -27426   -29002   -30698   -32526   -34577   -36734 
  -38953   -41310   -43690   -45993   -48235   -50382   -52331   -54068 
  -55675   -57095   -58411   -59742   -60899   -61865   -62854   -63934 
  -64982   -65905   -66801   -67602   -68141   -68387   -68349   -68133 
  -67761   -67120   -66204   -65099   -63792   -62233   -60594   -59021 
  -57498   -56087   -54778   -53524   -52357   -51234   -50150   -49096 
  -48086   -47235   -46528   -45897   -45361   -44881   -44386   -43913 
  -43487   -43007   -42448   -41836   -41144   -40407   -39694   -39039 
  -38451   -37919   -37461   -37138   -36983   -36962   -37025   -37092 
  -37094   -37083   -37107   -37137   -37229   -37560   -38148   -38878 
  -39789   -40843   -41892   -42899   -43731   -44266   -44548   -44537 
  -44134   -43384   -42366   -41016   -39392   -37728   -35989   -33997 
  -31863   -29781   -27846   -26108   -24495   -22953   -21574   -20391 
  -19423   -18736   -18387   -18391   -18650   -19089   -19733   -20526 
  -21364   -22219   -23109   -24011   -24904   -25822   -26747   -27658 
  -28559   -29389   -30171   -31059   -32087   -33128   -34163   -35264 
  -36392   -37560   -38897   -40386   -41917   -43585   -45423   -47260 
  -49124   -51047   -52881   -54593   -56217   -57747   -59163   -60443 
  -61561   -62428   -63130   -63896   -64723   -65500   -66174   -66812 
  -67426   -67815   -68043   -68142   -67864   -67401   -66752   -65591 
  -64290   -63103   -61844   -60512   -59155   -57910   -56736   -55567 
  -54521   -53511   -52656   -51987   -51276   -50607   -50038   -49586 
  -49291   -49011   -48623   -48155   -47748   -47308   -46660   -45914 
  -45091   -44112   -43018   -41860   -40566   -39119   -37632   -35991 
  -34168   -32441   -30841   -29284   -27827   -26550   -25564   -24874 
  -24494   -24486   -24764   -25410   -26457   -27608   -28826   -30189 
  -31591   -32978   -34272   -35444   -36500   -37444   -38318   -38980 
  -39408   -39770   -40110   -40391   -40513   -40554   -40613   -40624 
  -40699   -40746   -40648   -40564   -40427   -40254   -40074   -39801 
  -39644   -39588   -39384   -39072   -38878   -38729   -38432   -38294 
  -38235   -37956   -37826   -37644   -37213   -37004   -36843   -36471 
  -36174   -36309   -36766   -37187   -37846   -38852   -40047   -41493 
  -42918   -44261   -45729   -47349   -49151   -50988   -52797   -54696 
  -56732   -58967   -61301   -63504   -65583   -67536   -69181   -70613 
  -71960   -73002   -73640   -74056   -74313   -74298   -74058   -73625 
  -72914   -72022   -70956   -69664   -68254   -66783   -65251   -63649 
  -62041   -60366   -58605   -57015   -55472   -53739   -51894   -49905 
  -47707   -45219   -42509   -39709   -36651   -33494   -30508   -27483 
  -24317   -21197   -18268   -15439   -12731   -10327    -8161    -6228 
   -4550    -3111    -1977     -995     -135      535     1172     1811 
    2323     2514     2440     2303     1831      960       -8    -1300 
   -2921    -4510    -6347    -8343   -10066   -12029   -14296   -16273 
  -18145   -20225   -22384   -24461   -26612   -28965   -31284   -33723 
  -36325   -38590   -40619   -42696   -44625   -46360   -47918   -49178 
  -50255   -51353   -52325   -53008   -53598   -54247   -54785   -55127 
  -55376   -55469   -55412   -55344   -55170   -54880   -54618   -54267 
  -53774   -53290   -52772   -52178   -51594   -50916   -50125   -49348 
  -48517   -47509   -46302   -45009   -43744   -42557   -41481   -40473 
  -39534   -38781   -38314   -38050   -37869   -37913   -38177   -38403 
  -38627   -38943   -39253   -39552   -39898   -40255   -40524   -40754 
  -41022   -41272   -41622   -42037   -42298   -42522   -42758   -43054 
  -43456   -43652   -43742   -44006   -44199   -44320   -44495   -44446 
  -44320   -44410   -44367   -44192   -44165   -44160   -44152   -44199 
  -44436   -44776   -45041   -45566   -46206   -46745   -47468   -48167 
  -48767   -49446   -50113   -50803   -51480   -52049   -52591   -53173 
  -53710   -54129   -54491   -54854   -55319   -55897   -56482   -57146 
  -57929   -58763   -59600   -60378   -61100   -61722   -62172   -62392 
  -62279   -61964   -61533   -60853   -60022   -59064   -57932   -56800 
  -55617   -54313   -53044   -51873   -50817   -49871   -49104   -48588 
  -48244   -48186   -48432   -48770   -49268   -49896   -50442   -50959 
  -51477   -51845   -52062   -52189   -52089   -51777   -51357   -50759 
  -50060   -49309   -48444   -47536   -46543   -45463   -44454   -43461 
  -42338   -41124   -40007   -38931   -37653   -36327   -35016   -33528 
  -31967   -30242   -28254   -26262   -24240   -22149   -20153   -18331 
  -16760   -15522   -14567   -13743   -13211   -13137   -13226   -13372 
  -13695   -14195   -14844   -15620   -16535   -17595   -18846   -20360 
  -22064   -23821   -25590   -27438   -29281   -30902   -32334   -33616 
  -34678   -35569   -36287   -36878   -37378   -37627   -37649   -37608 
  -37454   -37137   -36751   -36372   -35890   -35172   -34359   -33626 
  -32910   -32105   -31204   -30304   -29445   -28500   -27484   -26554 
  -25705   -24804   -23892   -23094   -22382   -21829   -21499   -21335 
  -21435   -21827   -22455   -23351   -24513   -25938   -27600   -29549 
  -31853   -34317   -36754   -39193   -41656   -44142   -46603   -48991 
  -51291   -53405   -55372   -57237   -58795   -59980   -60855   -61298 
  -61266   -60879   -60111   -59049   -57936   -56763   -55592   -54569 
  -53648   -52872   -52315   -52008   -51907   -51876   -51925   -52039 
  -52181   -52401   -52612   -52772   -52944   -53085   -53109   -53017 
  -52967   -52902   -52687   -52576   -52590   -52522   -52522   -52720 
  -53017   -53329   -53618   -53876   -54188   -54426   -54349   -54137 
  -53937   -53646   -53314   -52982   -52604   -52146   -51633   -51106 
  -50451   -49655   -48901   -48220   -47516   -46708   -45686   -44505 
  -43423   -42539   -41740   -40883   -39908   -39015   -38486   -38222 
  -37917   -37567   -37465   -37774   -38308   -38902   -39509   -40065 
  -40853   -42001   -43072   -43946   -44829   -45791   -46849   -47787 
  -48467   -49151   -49834   -50303   -50665   -51050   -51494   -51935 
  -52184   -52288   -52479   -52862   -53193   -53132   -52805   -52353 
  -51740   -51092   -50305   -49304   -48249   -47102   -45988   -45108 
  -44213   -43144   -42160   -41354   -40481   -39533   -38716   -37956 
  -37194   -36520   -35929   -35383   -34770   -34082   -33508   -33129 
  -32871   -32542   -32046   -31587   -31291   -31097   -31076   -31311 
  -31736   -32336   -33223   -34396   -35760   -37352   -39182   -41059 
  -42804   -44482   -46151   -47665   -48977   -50163   -51118   -51784 
  -52406   -53138   -53811   -54034   -53693   -53465   -53710   -53730 
  -53256   -52630   -51973   -51605   -51587   -51258   -50367   -49544 
  -49247   -48932   -48120   -47274   -46647   -46065   -45343   -44190 
  -42980   -42195   -41537   -40862   -40228   -39588   -39087   -38969 
  -39208   -39435   -39653   -40156   -40834   -41398   -41738   -42098 
  -42709   -43285   -43457   -43347   -43414   -43646   -43646   -43499 
  -43445   -43516   -43797   -44018   -43661   -43044   -43097   -43825 
  -44096   -43345   -42645   -42957   -43298   -42695   -42052   -42100 
  -42268   -42121   -41861   -41822   -42163   -42802   -43336   -43645 
  -44272   -45473   -47190   -49034   -50063   -50638   -52161   -54291 
  -55692   -56373   -57160   -58188   -58995   -59398   -59446   -59457 
  -59787   -59958   -59677   -59551   -59731   -59784   -59569   -59262 
  -59062   -58892   -58382   -57577   -56971   -56423   -55422   -54168 
  -53010   -51851   -50661   -49480   -48204   -46851   -45448   -43898 
  -42161   -40385   -38740   -37032   -35061   -32925   -30759   -28801 
  -27140   -25556   -23976   -22554   -21356   -20301   -19409   -18774 
  -18367   -18067   -17720   -17399   -17276   -17281   -17360   -17619 
  -18116   -18683   -19082   -19449   -19966   -20552   -21198   -21767 
  -22144   -22578   -23151   -23736   -24314   -24936   -25754   -26713 
  -27524   -28358   -29607   -31124   -32623   -34175   -35853   -37626 
  -39540   -41544   -43537   -45503   -47343   -48946   -50394   -51792 
  -53106   -54294   -55391   -56349   -57121   -57766   -58285   -58710 
  -59038   -59210   -59359   -59577   -59733   -59809   -59970   -60218 
  -60443   -60700   -60983   -61210   -61432   -61616   -61663   -61597 
  -61412   -61145   -60871   -60532   -60115   -59714   -59343   -58903 
  -58349   -57864   -57587   -57464   -57416   -57281   -57034   -56870 
  -56773   -56643   -56642   -56815   -56953   -57009   -57054   -57132 
  -57327   -57585   -57683   -57644   -57683   -57798   -57977   -58149 
  -58105   -57975   -57934   -57820   -57605   -57422   -57216   -56858 
