Origin Time       2011/03/11 14:46:00
Lat.              38.103
Long.             142.860
Depth. (km)       24
Mag.              9.0
Station Code      SZO018
Station Lat.      34.7389
Station Long.     138.2247
Station Height(m) 3
Record Time       2011/03/11 14:48:11
Sampling Freq(Hz) 100Hz
Duration Time(s)  300
Dir.              E-W
Scale Factor      3920(gal)/6182761
Max. Acc. (gal)   31.277
Last Correction   2011/03/11 14:47:56
Memo.             
[...]
   -1987     -411      969     2062     2914     3526     3860     3948 
    3828     3491     2960     2371     1747     1030      231     -670 
   -1639    -2664    -3853    -5275    -6928    -8749   -10754   -12988 
  -15278   -17465   -19602   -21728   -23781   -25706   -27559   -29373 
  -31104   -32805   -34533   -36295   -38055   -39788   -41557   -43250 
  -44748   -46094   -47237   -48230   -49104   -49692   -50004   -50185 
  -50323   -50412   -50355   -50197   -49967   -49481   -48845   -48216 
  -47247   -46019   -44811   -43489   -42262   -41282   -40463   -39885 
  -39597   -39622   -39930   -40502   -41279   -42120   -43001   -43862 
  -44606   -45235   -45808   -46293   -46547   -46583   -46383   -45893 
  -45170   -44124   -42812   -41462   -40069   -38646   -37293   -36027 
  -34966   -34169   -33452   -32840   -32421   -31964   -31351   -30663 
  -29858   -28927   -27935   -26862   -25723   -24513   -23211   -21933 
  -20719   -19502   -18302   -17185   -16208   -15391   -14700   -14116 
  -13678   -13394   -13292   -13420   -13716   -14214   -15022   -16065 
  -17240   -18531   -19938   -21377   -22779   -24135   -25369   -26529 
  -27683   -28787   -29929   -31102   -32183   -33230   -34277   -35260 
  -36058   -36604   -37018   -37263   -37327   -37461   -37545   -37504 
  -37598   -37720   -37821   -38035   -38233   -38369   -38454   -38416 
  -38273   -37962   -37418   -36716   -35946   -35169   -34387   -33627 
  -33027   -32619   -32377   -32426   -32668   -32955   -33420   -33963 
  -34423   -34911   -35439   -35943   -36399   -36795   -37132   -37362 
  -37512   -37664   -37834   -38033   -38217   -38325   -38408   -38431 
  -38316   -38216   -38193   -38162   -38197   -38325   -38473   -38560 
  -38524   -38392   -38180   -37902   -37490   -36805   -35948   -34998 
  -33829   -32437   -30917   -29276   -27433   -25373   -23209   -21010 
  -18764   -16461   -14184   -12105   -10203    -8506    -7232    -6277 
   -5558    -5241    -5356    -5815    -6387    -7066    -7975    -8867 
   -9808   -10930   -11987   -13141   -14510   -15910   -17406   -18966 
  -20429   -21814   -23210   -24611   -25901   -27082   -28250   -29386 
  -30482   -31558   -32518   -33347   -34158   -34880   -35412   -35987 
  -36696   -37420   -38290   -39299   -40295   -41293   -42291   -43217 
  -44029   -44775   -45487   -46088   -46593   -47049   -47402   -47658 
  -47787   -47718   -47490   -47134   -46672   -46096   -45372   -44616 
  -43858   -43061   -42342   -41664   -40990   -40409   -39806   -39190 
  -38648   -38050   -37406   -36773   -36163   -35654   -35213   -34870 
  -34631   -34431   -34287   -34050   -33715   -33330   -32750   -32087 
  -31413   -30737   -30133   -29615   -29244   -29032   -29045   -29158 
  -29260   -29544   -29868   -30152   -30562   -30981   -31369   -31822 
  -32309   -32825   -33387   -33915   -34371   -34797   -35090   -35193 
  -35221   -35202   -35101   -34885   -34636   -34500   -34407   -34289 
  -34239   -34239   -34241   -34285   -34295   -34239   -34121   -33832 
  -33402   -32841   -32108   -31303   -30422   -29488   -28570   -27659 
  -26859   -26211   -25653   -25162   -24679   -24253   -23947   -23737 
  -23576   -23345   -23000   -22548   -21949   -21226   -20468   -19715 
  -18925   -18116   -17440   -16965   -16608   -16398   -16441   -16613 
  -16797   -17226   -17808   -18276   -18978   -19899   -20778   -21895 
  -23242   -24638   -26169   -27792   -29401   -30971   -32507   -33925 
  -35182   -36349   -37348   -38169   -38991   -39891   -40864   -41925 
  -43093   -44289   -45456   -46638   -47706   -48554   -49294   -49888 
  -50367   -50915   -51480   -52040   -52662   -53327   -54143   -55123 
  -56157   -57145   -57997   -58810   -59511   -59918   -60125   -60074 
  -59704   -59125   -58246   -57126   -55975   -54751   -53451   -52180 
  -50994   -49880   -48803   -47822   -46920   -46002   -45004   -43903 
  -42769   -41595   -40392   -39253   -38162   -37143   -36217   -35405 
  -34754   -34216   -33841   -33563   -33275   -33109   -33046   -33027 
  -33088   -33125   -32972   -32777   -32780   -32598   -32307   -32304 
  -32031   -31500   -31143   -30664   -30023   -29506   -29107   -28685 
  -28363   -28182   -27942   -27792   -27750   -27492   -27070   -26656 
  -26223   -25807   -25475   -25211   -25036   -25058   -25257   -25454 
  -25594   -25692   -25616   -25301   -24820   -24158   -23303   -22258 
  -21102   -20035   -19106   -18241   -17406   -16690   -16225   -15951 
  -15843   -15996   -16350   -16854   -17591   -18499   -19439   -20469 
  -21649   -22883   -24134   -25435   -26700   -27830   -28865   -29788 
  -30508   -31096   -31615   -32018   -32365   -32760   -33168   -33502 
  -33797   -34070   -34268   -34342   -34257   -34136   -33915   -33440 
  -32877   -32369   -32113   -32095   -32079   -32246   -32421   -32406 
  -32764   -33252   -33445   -33862   -34344   -34664   -35149   -35622 
  -35966   -36357   -36802   -37194   -37525   -37923   -38292   -38639 
  -39186   -39793   -40320   -40989   -41805   -42505   -43174   -43877 
  -44365   -44632   -44688   -44378   -43756   -42948   -41980   -41021 
  -40244   -39500   -38838   -38355   -37836   -37391   -37055   -36552 
  -35972   -35362   -34606   -33788   -32994   -32260   -31555   -30913 
  -30501   -30280   -30111   -30025   -30015   -29959   -29869   -29798 
  -29663   -29437   -29168   -28857   -28577   -28394   -28272   -28253 
  -28391   -28682   -29111   -29603   -30123   -30588   -30956   -31355 
  -31799   -32282   -32828   -33447   -34115   -34588   -34961   -35450 
  -35810   -35945   -35895   -35575   -34977   -34368   -33790   -32969 
  -32192   -31505   -30650   -29949   -29327   -28622   -28100   -27699 
  -27307   -27097   -27114   -27217   -27537   -28263   -29211   -30354 
  -31853   -33488   -35009   -36544   -38172   -39608   -40696   -41518 
  -41964   -42067   -41949   -41501   -40897   -40321   -39712   -39139 
  -38568   -37988   -37510   -37059   -36587   -36061   -35474   -34926 
  -34393   -33855   -33328   -32696   -31953   -31206   -30356   -29320 
  -28218   -27074   -25858   -24672   -23619   -22678   -21832   -21215 
  -20825   -20504   -20371   -20414   -20388   -20352   -20321   -20162 
  -19967   -19882   -19885   -20046   -20549   -21326   -22309   -23513 
  -24854   -26388   -28002   -29528   -31106   -32653   -34082   -35555 
  -37024   -38438   -39848   -41268   -42715   -44118   -45467   -46842 
  -48145   -49291   -50319   -51095   -51538   -51743   -51657   -51161 
  -50300   -49153   -47720   -45994   -44049   -42011   -39922   -37849 
  -35853   -33874   -32020   -30369   -28847   -27562   -26536   -25717 
  -25209   -24927   -24733   -24673   -24728   -24848   -25003   -25139 
  -25251   -25304   -25220   -25016   -24844   -24814   -24933   -25096 
  -25230   -25464   -25767   -26001   -26249   -26624   -27177   -27840 
  -28555   -29389   -30372   -31474   -32588   -33560   -34382   -35090 
  -35548   -35704   -35647   -35343   -34777   -34036   -33212   -32331 
  -31440   -30711   -30163   -29789   -29652   -29691   -29932   -30318 
  -30716   -31247   -31887   -32506   -33107   -33632   -34119   -34569 
  -34908   -35215   -35441   -35494   -35469   -35388   -35226   -35061 
  -34897   -34608   -34155   -33616   -32970   -32163   -31293   -30428 
  -29604   -28900   -28297   -27783   -27486   -27401   -27413   -27599 
  -27941   -28382   -29042   -29805   -30581   -31495   -32472   -33561 
  -34872   -36234   -37676   -39249   -40708   -42062   -43400   -44544 
  -45486   -46332   -46987   -47433   -47804   -48037   -48031   -47848 
  -47549   -47183   -46722   -46180   -45684   -45212   -44746   -44313 
  -43870   -43421   -42922   -42314   -41596   -40690   -39556   -38227 
  -36689   -34970   -33143   -31278   -29434   -27691   -26175   -24923 
  -23917   -23239   -22880   -22729   -22798   -23063   -23472   -24037 
  -24722   -25508   -26366   -27267   -28270   -29328   -30383   -31498 
  -32638   -33738   -34832   -35934   -37009   -38017   -38910   -39682 
  -40354   -40921   -41380   -41798   -42253   -42708   -43150   -43660 
  -44247   -44886   -45569   -46293   -47038   -47737   -48353   -48879 
  -49328   -49706   -50007   -50312   -50624   -50843   -50966   -51013 
  -50959   -50732   -50287   -49654   -48803   -47784   -46705   -45540 
  -44337   -43171   -41983   -40813   -39701   -38605   -37602   -36683 
  -35777   -35009   -34423   -33928   -33582   -33381   -33172   -32921 
  -32536   -31864   -30941   -29788   -28395   -26861   -25250   -23637 
  -22147   -20882   -19862   -19066   -18487   -18069   -17740   -17505 
  -17368   -17314   -17354   -17473   -17655   -17956   -18393   -18924 
  -19522   -20175   -20889   -21691   -22612   -23626   -24683   -25814 
  -27084   -28564   -30243   -32058   -33996   -35994   -38030   -40135 
  -42237   -44327   -46399   -48269   -49826   -51038   -51852   -52280 
  -52357   -52044   -51345   -50393   -49234   -47857   -46351   -44755 
  -43031   -41203   -39308   -37395   -35490   -33573   -31668   -29807 
  -27945   -26082   -24343   -22843   -21536   -20425   -19571   -18922 
  -18489   -18254   -18131   -18142   -18226   -18340   -18513   -18700 
  -18968   -19301   -19676   -20256   -20990   -21801   -22783   -23902 
  -25129   -26456   -27765   -28978   -30088   -31040   -31785   -32378 
  -32882   -33334   -33793   -34305   -34847   -35371   -35873   -36314 
  -36595   -36749   -36880   -36956   -36969   -36989   -37046   -37171 
  -37375   -37680   -38081   -38548   -39104   -39666   -40158   -40640 
  -41067   -41355   -41534   -41634   -41667   -41660   -41658   -41736 
  -41909   -42086   -42151   -42061   -41898   -41716   -41426   -40933 
  -40223   -39377   -38480   -37521   -36549   -35631   -34682   -33731 
  -32842   -31893   -30813   -29652   -28517   -27464   -26479   -25661 
  -25115   -24865   -24938   -25309   -25890   -26654   -27654   -28793 
  -29860   -30914   -32043   -33093   -34086   -35117   -36082   -36940 
  -37748   -38515   -39214   -39866   -40456   -40919   -41265   -41466 
  -41522   -41548   -41603   -41727   -41975   -42433   -43129   -43992 
  -45025   -46225   -47448   -48616   -49745   -50768   -51638   -52379 
  -52968   -53358   -53537   -53502   -53183   -52511   -51557   -50382 
  -48967   -47346   -45568   -43702   -41832   -39956   -38126   -36484 
  -35024   -33705   -32612   -31726   -30947   -30345   -29989   -29750 
  -29555   -29429   -29298   -29082   -28765   -28350   -27820   -27161 
  -26432   -25679   -24946   -24366   -23978   -23826   -24058   -24629 
  -25462   -26560   -27853   -29287   -30809   -32437   -34196   -36015 
  -37888   -39759   -41461   -42981   -44353   -45460   -46256   -46714 
  -46742   -46386   -45720   -44707   -43390   -41927   -40429   -38975 
  -37669   -36514   -35503   -34754   -34299   -34067   -34091   -34329 
  -34693   -35224   -35831   -36395   -36906   -37269   -37453   -37570 
  -37633   -37603   -37500   -37368   -37251   -37180   -37130   -37138 
  -37214   -37318   -37540   -37883   -38217   -38568   -39007   -39481 
  -39949   -40469   -41066   -41653   -42182   -42671   -43137   -43588 
  -44029   -44459   -44844   -45165   -45472   -45691   -45726   -45643 
  -45506   -45298   -44974   -44570   -44157   -43694   -43229   -42823 
  -42304   -41681   -41012   -40107   -38977   -37695   -36214   -34586 
  -32825   -30899   -28828   -26659   -24445   -22223   -20036   -17846 
  -15571   -13322   -11332    -9719    -8505    -7771    -7552    -7702 
   -8109    -8704    -9399   -10199   -11063   -11933   -12790   -13593 
  -14335   -14999   -15578   -16160   -16793   -17381   -17951   -18599 
  -19293   -20103   -21122   -22364   -23892   -25673   -27641   -29788 
  -32094   -34478   -36811   -39111   -41419   -43590   -45598   -47609 
  -49681   -51715   -53686   -55628   -57391   -58884   -60161   -61172 
  -61904   -62377   -62597   -62669   -62691   -62840   -63259   -63851 
  -64519   -65269   -65996   -66598   -67275   -67978   -68396   -68685 
  -68852   -68705   -68398   -67868   -66978   -65897   -64714   -63353 
  -61806   -60147   -58310   -56320   -54351   -52309   -50130   -48012 
  -46013   -44087   -42318   -40746   -39192   -37680   -36439   -35305 
  -34113   -32991   -31855   -30559   -29165   -27762   -26305   -24795 
  -23409   -22135   -20951   -20085   -19449   -18964   -18856   -18976 
  -19227   -19762   -20421   -21092   -21809   -22552   -23278   -23848 
  -24297   -24660   -24799   -24814   -24726   -24412   -24013   -23573 
  -23098   -22738   -22494   -22362   -22362   -22475   -22618   -22641 
  -22534   -22304   -21889   -21292   -20554   -19703   -18750   -17778 
  -16762   -15609   -14512   -13524   -12485   -11510   -10616    -9559 
   -8488    -7739    -7041    -6301    -5883    -5615    -5416    -5557 
   -5948    -6592    -7661    -9037   -10575   -12341   -14403   -16609 
  -18854   -21298   -23878   -26420   -29035   -31604   -33942   -36219 
  -38480   -40635   -42773   -44884   -46836   -48658   -50350   -51770 
  -52957   -54148   -55292   -56198   -57004   -57839   -58638   -59405 
  -60110   -60668   -61097   -61377   -61418   -61219   -60783   -60041 
  -58933   -57487   -55798   -53810   -51518   -49085   -46460   -43622 
  -40676   -37554   -34312   -31035   -27649   -24443   -21613   -18855 
  -16199   -13797   -11502    -9331    -7385    -5667    -4082    -2553 
   -1086      406     1944     3503     5069     6629     8235     9787 
   11291    12840    14142    14983    15587    16118    16383    16386 
   16371    15983    15155    14381    13308    11685     9840     7668 
    5193     2625     -216    -3328    -6394    -9483   -12669   -15690 
  -18603   -21532   -24378   -27131   -29882   -32635   -35147   -37465 
  -39960   -42355   -44482   -46772   -49026   -51030   -53173   -55393 
  -57547   -59807   -62074   -64261   -66410   -68457   -70392   -72174 
  -73682   -74855   -75711   -76315   -76573   -76461   -76252   -75870 
  -75168   -74332   -73225   -71752   -70182   -68583   -66919   -65197 
  -63556   -62150   -60905   -59938   -59333   -58858   -58489   -58229 
  -57964   -57776   -57724   -57666   -57586   -57614   -57580   -57371 
  -57125   -56776   -56341   -55804   -55099   -54391   -53525   -52452 
  -51437   -50445   -49519   -48624   -47605   -46568   -45398   -44229 
  -43345   -42353   -41373   -40723   -40020   -39417   -39131   -38908 
  -38845   -38983   -39173   -39392   -39642   -39875   -39980   -39981 
  -39948   -39789   -39583   -39520   -39448   -39262   -39199   -39141 
  -38863   -38561   -38150   -37482   -36654   -35603   -34390   -33027 
  -31509   -29977   -28235   -26269   -24263   -22100   -19818   -17491 
  -15061   -12616   -10231    -7958    -5797    -3747    -1942     -362 
    1083     2256     3143     3871     4348     4512     4442     4097 
    3470     2657     1725      672     -587    -1929    -3243    -4730 
   -6344    -7969    -9780   -11688   -13482   -15332   -17345   -19383 
  -21453   -23571   -25701   -27875   -30019   -32154   -34279   -36301 
  -38338   -40375   -42315   -44156   -45762   -47051   -48086   -48948 
  -49544   -49791   -49846   -49699   -49365   -49063   -48869   -48791 
  -48882   -49174   -49495   -49646   -49667   -49567   -49254   -48655 
  -47712   -46490   -45121   -43629   -42011   -40393   -38861   -37355 
  -35929   -34637   -33250   -31754   -30433   -29174   -27805   -26439 
  -25160   -24113   -23214   -22308   -21612   -21173   -20779   -20356 
  -19999   -19713   -19370   -19027   -18713   -18235   -17600   -17046 
  -16591   -16070   -15619   -15445   -15404   -15427   -15648   -16106 
  -16754   -17491   -18312   -19288   -20334   -21381   -22397   -23310 
  -24162   -24895   -25497   -26137   -26678   -26999   -27304   -27657 
  -28044   -28417   -28733   -29086   -29461   -29864   -30408   -31083 
  -31810   -32500   -33188   -34019   -34977   -35940   -36801   -37543 
  -38180   -38567   -38742   -38800   -38557   -38037   -37332   -36441 
  -35436   -34270   -32962   -31695   -30529   -29319   -27937   -26408 
  -24782   -23071   -21266   -19451   -17716   -16063   -14656   -13625 
  -12858   -12359   -12224   -12442   -12938   -13503   -14133   -15040 
  -16117   -17147   -18130   -19203   -20463   -21773   -23056   -24360 
  -25489   -26344   -27124   -27938   -28822   -29742   -30587   -31374 
  -32133   -32872   -33691   -34654   -35631   -36542   -37532   -38576 
  -39496   -40316   -41144   -42013   -42802   -43413   -43960   -44561 
  -45259   -46002   -46565   -46830   -46933   -47121   -47560   -48056 
  -48206   -47956   -47631   -47466   -47280   -46695   -45647   -44503 
  -43510   -42288   -40654   -39043   -37450   -35725   -33874   -31641 
  -29375   -27543   -25833   -23989   -22143   -20467   -18936   -17481 
  -16183   -15101   -14250   -13469   -12689   -12197   -12121   -12214 
  -12320   -12573   -13004   -13540   -14235   -15045   -15988   -17138 
  -18345   -19534   -20698   -21771   -22863   -24157   -25588   -26922 
  -28051   -29013   -29853   -30579   -31238   -31928   -32751   -33558 
  -34015   -34339   -34920   -35600   -36281   -36954   -37430   -37736 
  -37905   -37843   -37590   -37162   -36515   -35653   -34668   -33657 
  -32566   -31411   -30301   -29492   -29291   -29271   -28738   -27901 
  -27534   -27813   -27957   -27604   -27398   -27685   -28303   -28883 
  -29170   -29665   -30619   -31723   -32979   -34141   -35144   -36674 
  -38676   -40428   -41692   -42666   -43760   -45085   -46262   -46987 
  -47409   -47871   -48322   -48479   -48423   -48438   -48394   -47989 
  -47432   -47013   -46606   -46010   -45199   -44518   -44231   -43951 
  -43452   -43012   -42719   -42639   -42810   -42783   -42424   -42241 
  -42267   -42305   -42398   -42302   -42167   -42478   -42815   -42638 
  -42377   -42330   -42210   -42010   -41705   -41269   -41056   -41006 
  -40661   -40156   -39980   -40028   -40082   -40105   -39753   -39158 
  -38797   -38467   -37919   -37229   -36444   -35757   -35188   -34487 
  -33884   -33545   -33119   -32600   -32189   -31918   -31768   -31589 
  -31369   -31251   -31195   -31197   -31363   -31593   -31825   -32216 
  -32656   -32997   -33364   -33758   -34093   -34384   -34649   -34829 
  -34858   -34843   -34886   -34917   -34915   -34914   -34880   -34822 
  -34754   -34631   -34431   -34251   -34157   -34039   -33878   -33793 
  -33758   -33739   -33760   -33804   -33950   -34174   -34356   -34571 
  -34837   -34984   -34941   -34796   -34536   -34079   -33433   -32550 
  -31412   -30160   -28838   -27349   -25662   -23936   -22386   -21024 
  -19716   -18431   -17321   -16474   -15785   -15142   -14604   -14278 
  -14142   -14143   -14252   -14402   -14609   -14924   -15242   -15612 
  -16176   -16808   -17506   -18390   -19346   -20443   -21901   -23559 
  -25265   -27199   -29379   -31541   -33634   -35784   -37941   -40056 
  -42123   -44071   -45921   -47751   -49530   -51185   -52796   -54324 
  -55512   -56493   -57533   -58388   -58779   -58877   -58897   -58602 
  -57830   -56903   -56017   -55033   -53897   -52677   -51347   -49932 
  -48688   -47631   -46335   -44769   -43262   -41709   -39988   -38329 
  -36763   -35196   -33688   -32204   -30752   -29463   -28336   -27355 
  -26559   -25865   -25215   -24759   -24578   -24566   -24666   -24876 
