Origin Time       2011/03/11 14:46:00
Lat.              38.103
Long.             142.860
Depth. (km)       24
Mag.              9.0
Station Code      SZO001
Station Lat.      35.1425
Station Long.     139.0798
Station Height(m) 74
Record Time       2011/03/11 14:47:49
Sampling Freq(Hz) 100Hz
Duration Time(s)  260
Dir.              N-S
Scale Factor      3920(gal)/6182761
Max. Acc. (gal)   28.325
Last Correction   2011/03/11 14:47:34
Memo.             
[...]
  -73749   -70613   -65199   -59110   -53362   -51679   -52778   -53937 
  -56695   -59738   -62193   -66378   -67593   -61462   -55600   -57832 
  -63508   -63315   -58852   -56790   -53255   -45611   -44007   -52788 
  -62429   -66199   -65292   -60662   -54165   -51271   -54159   -59191 
  -62462   -62475   -58015   -48741   -41083   -42537   -49868   -56071 
  -58153   -54749   -49347   -48254   -51798   -54578   -52978   -51390 
  -54250   -55174   -49089   -42847   -42202   -44969   -49238   -54095 
  -56813   -59599   -66958   -72946   -71581   -68446   -65546   -60563 
  -57526   -56777   -55219   -55733   -57419   -55267   -53515   -57596 
  -62003   -62706   -64670   -66599   -62376   -58659   -61252   -60960 
  -57452   -61300   -67300   -66319   -63815   -60188   -49823   -41613 
  -44869   -51271   -52552   -55792   -65306   -70366   -66839   -63401 
  -60915   -56449   -55067   -57948   -61217   -65855   -70167   -67671 
  -59840   -55285   -58153   -65132   -70178   -69985   -66914   -66492 
  -69237   -69074   -65009   -63327   -63844   -62664   -63395   -65429 
  -63224   -61931   -63894   -60404   -53021   -51632   -55686   -58980 
  -62721   -71067   -77646   -73665   -65048   -59317   -53331   -48857 
  -51857   -57765   -60839   -62390   -61016   -55555   -53056   -58246 
  -67061   -73556   -71611   -59859   -48684   -47466   -51715   -54973 
  -59972   -66977   -68228   -64651   -66523   -72382   -71204   -62681 
  -55428   -53506   -54216   -51793   -46364   -48658   -64138   -80019 
  -81371   -69982   -56840   -48330   -46400   -50273   -55371   -57157 
  -56262   -55939   -55465   -54387   -57575   -64149   -64503   -56859 
  -51216   -54743   -62921   -66393   -63685   -59931   -56230   -52828 
  -54367   -59336   -59684   -57052   -58862   -63710   -65778   -62264 
  -53287   -42433   -36524   -39507   -47385   -55277   -61570   -62623 
  -57398   -52350   -52842   -57210   -59602   -57362   -54433   -53101 
  -52213   -54570   -61985   -69855   -74175   -73368   -67675   -63052 
  -63507   -63405   -59151   -55754   -54978   -52026   -45613   -41215 
  -44454   -53923   -62650   -67064   -68189   -64706   -55717   -47789 
  -46822   -49995   -54244   -59736   -63445   -62154   -57962   -54064 
  -50528   -47083   -46311   -51102   -59796   -65369   -62994   -59042 
  -61232   -63673   -59854   -57242   -62688   -69929   -69666   -61674 
  -53626   -50502   -50663   -53028   -58003   -61821   -61311   -58989 
  -56874   -56044   -60299   -68147   -70176   -63142   -55533   -54876 
  -59693   -64882   -65481   -59094   -51458   -48371   -46362   -44979 
  -49188   -55126   -56844   -56734   -56156   -56190   -62139   -68402 
  -63518   -55705   -59473   -67539   -64309   -50425   -38876   -38292 
  -46174   -55250   -61410   -64378   -65013   -63507   -60341   -57360 
  -55323   -53974   -54278   -55043   -53685   -53859   -58486   -60360 
  -57116   -57361   -61943   -64175   -64541   -66177   -67459   -65952 
  -62576   -62629   -67955   -69799   -62752   -53887   -48256   -45022 
  -45550   -49585   -53821   -58778   -66488   -71785   -68224   -62851 
  -64464   -66001   -61784   -57375   -55419   -56268   -58029   -55869 
  -54800   -59190   -60825   -59846   -64289   -69257   -68992   -67648 
  -65195   -58757   -51457   -47751   -51258   -60011   -62288   -55676 
  -53787   -59120   -62001   -62745   -62737   -57471   -50751   -49404 
  -52467   -56368   -58702   -59092   -58174   -55638   -53609   -55026 
  -58075   -59236   -59153   -60700   -63714   -67698   -72495   -73120 
  -67235   -61377   -59884   -59908   -59293   -59950   -61862   -59297 
  -52611   -53796   -64329   -68988   -63002   -57542   -59574   -66163 
  -69753   -66730   -64149   -67243   -70238   -69631   -68611   -67320 
  -62897   -55281   -48988   -49476   -55265   -58918   -57383   -55071 
  -57713   -65650   -73147   -76028   -75714   -73460   -68710   -63329 
  -59698   -56239   -50769   -46441   -47537   -52890   -60072   -66667 
  -66651   -58554   -50578   -50071   -55309   -58392   -56910   -57541 
  -60082   -56717   -50533   -49018   -48967   -46801   -46664   -52150 
  -60807   -66203   -66323   -63859   -55821   -41206   -32181   -38198 
  -51917   -60743   -61144   -57847   -56086   -56666   -55921   -53575 
  -55848   -63533   -70094   -72079   -68647   -61847   -58182   -57862 
  -55376   -53916   -59546   -66072   -66129   -64729   -64741   -59997 
  -51850   -48096   -48315   -50808   -58570   -65172   -59755   -48732 
  -45653   -50087   -55769   -60966   -64363   -65197   -64057   -60374 
  -55329   -53805   -59001   -67462   -73070   -74366   -71966   -64300 
  -53180   -44441   -40956   -43186   -50444   -57548   -59634   -58243 
  -56963   -57618   -60822   -66207   -71366   -70506   -62004   -52924 
  -47493   -44354   -44151   -46804   -50855   -57753   -66104   -69365 
  -64623   -54172   -42055   -34244   -34168   -41351   -54814   -67213 
  -68759   -63120   -60437   -61149   -62072   -64140   -64353   -58664 
  -54955   -60845   -69511   -73672   -72593   -63877   -47766   -33458 
  -30593   -38497   -49381   -57463   -61341   -64305   -69823   -74316 
  -71416   -61298   -52471   -53300   -63689   -78813   -91750   -92534 
  -77955   -58542   -47614   -46996   -50084   -55786   -65868   -75227 
  -80043   -81432   -77269   -67586   -58791   -55084   -56154   -58796 
  -59776   -59847   -58899   -55376   -52687   -54534   -58711   -60877 
  -61215   -65927   -75528   -77245   -63115   -44024   -34674   -38834 
  -51427   -64243   -71092   -69821   -62533   -55324   -51729   -50528 
  -51800   -55107   -57050   -56837   -54391   -49487   -46375   -45391 
  -43283   -44215   -49635   -54336   -58474   -60849   -55980   -48599 
  -47072   -49001   -51353   -56558   -62560   -65569   -66634   -66147 
  -64037   -63765   -64823   -60252   -50781   -46009   -46997   -50596 
  -61116   -74383   -77761   -73396   -68956   -62559   -57214   -59047 
  -61769   -60432   -62235   -69382   -75824   -78830   -76276   -66203 
  -54402   -50139   -54729   -60585   -62275   -61973   -62739   -64516 
  -65638   -65766   -66778   -66074   -61165   -61025   -68555   -70197 
  -63557   -60130   -59331   -54403   -48498   -45953   -46399   -49452 
  -53271   -57182   -63985   -69598   -68152   -64994   -63396   -59530 
  -55632   -52797   -46908   -40911   -40201   -45183   -53882   -60521 
  -62564   -64101   -62325   -52731   -42647   -39130   -40700   -44809 
  -47845   -48101   -50644   -57027   -61408   -62602   -64611   -66635 
  -65635   -62935   -61899   -64225   -67367   -66998   -64158   -62045 
  -60634   -61720   -66177   -67284   -62055   -58380   -59646   -58978 
  -54004   -48212   -41034   -35201   -38267   -47657   -56999   -66879 
  -73029   -68598   -60034   -58688   -63843   -66703   -64008   -58586 
  -54354   -57219   -67847   -77363   -79870   -75049   -63228   -50083 
  -43368   -44340   -50914   -59448   -62965   -60159   -56918   -53563 
  -47698   -43426   -43350   -44519   -46805   -53466   -63431   -69385 
  -66170   -57977   -52558   -51553   -51471   -51020   -50717   -49740 
  -49720   -53550   -58289   -56759   -46585   -35871   -34203   -40549 
  -50994   -64029   -71302   -66149   -57332   -56299   -61088   -64043 
  -65958   -69885   -70291   -61749   -49061   -43055   -50582   -66101 
  -76697   -77232   -72371   -68494   -68542   -68153   -62859   -57732 
  -56095   -54608   -55034   -55745   -48983   -41834   -44745   -51361 
  -57589   -65133   -66696   -62259   -62480   -65189   -64443   -64476 
  -63331   -56560   -51328   -50062   -47267   -48470   -59555   -69400 
  -67135   -57254   -47412   -39845   -36456   -38727   -45231   -54615 
  -62894   -62146   -53730   -50429   -57009   -65288   -69130   -68278 
  -64842   -64588   -66249   -56799   -37503   -29593   -39804   -53704 
  -62109   -65675   -64990   -61260   -57494   -57886   -64144   -68681 
  -65708   -61627   -57618   -48882   -43468   -47902   -53717   -56866 
  -60134   -59580   -52913   -48425   -53709   -66250   -77120   -78954 
  -72975   -65828   -59073   -49178   -37967   -35902   -46642   -59058 
  -66808   -71202   -65465   -49761   -40046   -41495   -45119   -46548 
  -45157   -42169   -42129   -44633   -46905   -51980   -62834   -76095 
  -86149   -89997   -85015   -68282   -43756   -24289   -20432   -30806 
  -48138   -66806   -78998   -77783   -68683   -62009   -57064   -50105 
  -44482   -41821   -41508   -47511   -61647   -75984   -78324   -69425 
  -64341   -65361   -61674   -57260   -58132   -55656   -51768   -53609 
  -52468   -49691   -57915   -69695   -73188   -74313   -76107   -71104 
  -61005   -52212   -44291   -40568   -42677   -43052   -41726   -44388 
  -51212   -59691   -62388   -57266   -57423   -68258   -77843   -76771 
  -66686   -56279   -52306   -53225   -54930   -56436   -61279   -65542 
  -56794   -42259   -39054   -44280   -53532   -67972   -77306   -78368 
  -82156   -86494   -79449   -61243   -39631   -23290   -23361   -39725 
  -55623   -60071   -57780   -55345   -55678   -61324   -72948   -83531 
  -80547   -65582   -56217   -58203   -61282   -59378   -53880   -45890 
  -37302   -33544   -36225   -41251   -47723   -57184   -68639   -79097 
  -82485   -75441   -64341   -56234   -52820   -55456   -64445   -75845 
  -83423   -84756   -80637   -68285   -50129   -42224   -52152   -66947 
  -76705   -79930   -73977   -64822   -61545   -59374   -53263   -53528 
  -65102   -76398   -83479   -87102   -80249   -69900   -66085   -59954 
  -53867   -59634   -65155   -60267   -57940   -61788   -61267   -55765 
  -49268   -41605   -38714   -46487   -57339   -61935   -59842   -55160 
  -54515   -60025   -67944   -77870   -86556   -87018   -79414   -65109 
  -48969   -43113   -48515   -55277   -52181   -35708   -27969   -44602 
  -67365   -85744   -99425   -96615   -79775   -60006   -40087   -31387 
  -35707   -39888   -50187   -68673   -70578   -50548   -30449   -18681 
  -16575   -29722   -45862   -54821   -65144   -69297   -56717   -42778 
  -37727   -35279   -32908   -33853   -45633   -64884   -70210   -60284 
  -59209   -67949   -68103   -66216   -73829   -72903   -53820   -36524 
  -28935   -25789   -33082   -48809   -57369   -56176   -54408   -55753 
  -64041   -81154   -88585   -71663   -50485   -43868   -47657   -57973 
  -66022   -65530   -67482   -68604   -58649   -54451   -65955   -74356 
  -68051   -55602   -50924   -58542   -67878   -72077   -76575   -80984 
  -82258   -82024   -73196   -53606   -39820   -42642   -57454   -73121 
  -74084   -60035   -51966   -52948   -49068   -49162   -59328   -62351 
  -58243   -56960   -54031   -50535   -45578   -35517   -34922   -45846 
  -55429   -68027   -75035   -57696   -35150   -32226   -41051   -49243 
  -56663   -67068   -78750   -82171   -74333   -58649   -38166   -26863 
  -35420   -50658   -59793   -64383   -63567   -57857   -59430   -70552 
  -69245   -53734   -55051   -70483   -71119   -63482   -61738   -63122 
  -69543   -75840   -78503   -87058   -88010   -67500   -53313   -60911 
  -65509   -60495   -60656   -59376   -48895   -48102   -66672   -78444 
  -61487   -34031   -27373   -44701   -65459   -74810   -72141   -62358 
  -49657   -41225   -45283   -54207   -55621   -55732   -60451   -63212 
  -65114   -72416   -78190   -71135   -57710   -52183   -52233   -49202 
  -41766   -32157   -30031   -41469   -55085   -65711   -81055   -91439 
  -83140   -70119   -66090   -62462   -60038   -69006   -74967   -62828 
  -49058   -46370   -46856   -48148   -49565   -48956   -52643   -60240 
  -65060   -67178   -64117   -55839   -50219   -50000   -56781   -67117 
  -67910   -60234   -53056   -45903   -40297   -35656   -33591   -42839 
  -54270   -57864   -63702   -69039   -62261   -51763   -46737   -43045 
  -41795   -49029   -59480   -66862   -72897   -74161   -68849   -62095 
  -53140   -47167   -54706   -67928   -74221   -70007   -55518   -42952 
  -43266   -51366   -62647   -74558   -77646   -66763   -51020   -42957 
  -43669   -47590   -51446   -51074   -47137   -47115   -48879   -47205 
  -49689   -60186   -69048   -70011   -65680   -58405   -49540   -44278 
  -46376   -51622   -56190   -62376   -68256   -67181   -62038   -61485 
  -62642   -60406   -61134   -63951   -59859   -53559   -49684   -42669 
  -37236   -41333   -49631   -56033   -59455   -61149   -64448   -64790 
  -56146   -45227   -42103   -49882   -61784   -63821   -50969   -33110 
  -21760   -20605   -29205   -46082   -60317   -58414   -45857   -36779 
  -35771   -43959   -56982   -64173   -62632   -56224   -48547   -44323 
  -45140   -47248   -48258   -50021   -54835   -60552   -60333   -52245 
  -45782   -49153   -59153   -69443   -73804   -66265   -52252   -45563 
  -47409   -46665   -40811   -38264   -41409   -44594   -48951   -59992 
  -73063   -79910   -78847   -70352   -57139   -44945   -37782   -37096 
  -40149   -42251   -44218   -48856   -56821   -68836   -80766   -85784 
  -83467   -74809   -62671   -56587   -58324   -60832   -62125   -60679 
  -56307   -54539   -56331   -61750   -74227   -87257   -90542   -84918 
  -73224   -56789   -43867   -42068   -50253   -61235   -65005   -58310 
  -50188   -49946   -56913   -65432   -71214   -69332   -56344   -39102 
  -28023   -23646   -25398   -38156   -58028   -73689   -80357   -76752 
  -63115   -48152   -42695   -47566   -57885   -71655   -82561   -79182 
  -62489   -46183   -38840   -39353   -43941   -51375   -59836   -64806 
  -69496   -80324   -88051   -80782   -66415   -54920   -40036   -20884 
  -13256   -23435   -39189   -50845   -56195   -53263   -44970   -37499 
  -32461   -30060   -31087   -36249   -46838   -58054   -62364   -61261 
  -59970   -59597   -57361   -51325   -48741   -56445   -66083   -68474 
  -68014   -67710   -62571   -53971   -46766   -40496   -39307   -50621 
  -69622   -82807   -84279   -78456   -70926   -64378   -60746   -62907 
  -72153   -81979   -81069   -65138   -42012   -26637   -28666   -43629 
  -59680   -69074   -70663   -67450   -62988   -56489   -47433   -43354 
  -48881   -57541   -63004   -59739   -45192   -32767   -33840   -42114 
  -53336   -65074   -69036   -67071   -65733   -60261   -48961   -42736 
  -45016   -45208   -39275   -35913   -41758   -52567   -60123   -64162 
  -68572   -71252   -68343   -60080   -51908   -50489   -53313   -54163 
  -54954   -58483   -62634   -65218   -67358   -72106   -74788   -68469 
  -61656   -63053   -65756   -64665   -58918   -47923   -43316   -53163 
  -65000   -71693   -78587   -81707   -78584   -76234   -70294   -54181 
  -36400   -26403   -28335   -40782   -52352   -55229   -51662   -46060 
  -45054   -51921   -60349   -63704   -62680   -61243   -59667   -53981 
  -42930   -33791   -35093   -43745   -52766   -63097   -72835   -75339 
  -70859   -61555   -48956   -39991   -38601   -40928   -45274   -52768 
  -59202   -58440   -52087   -46941   -45105   -44822   -48264   -56683 
  -62899   -61680   -56893   -52348   -48405   -46215   -47669   -52562 
  -57088   -56756   -52440   -49691   -49723   -47219   -41109   -40894 
  -53309   -68973   -76040   -76667   -76005   -71757   -63863   -57655 
  -55559   -56706   -60731   -66707   -72623   -75675   -72322   -61805 
  -48609   -38331   -32346   -30686   -36287   -49136   -61392   -63308 
  -53551   -42078   -37050   -36978   -42415   -56643   -72476   -79072 
  -77036   -71184   -62265   -55100   -54926   -57492   -59868   -66851 
  -77708   -83532   -79749   -69298   -57129   -47836   -42311   -38073 
  -35110   -35749   -42037   -51869   -58537   -61521   -64081   -62286 
  -55842   -53313   -57996   -65309   -68840   -64600   -55354   -47202 
  -42920   -43289   -50326   -60940   -66293   -66429   -68178   -69777 
  -65437   -54577   -42190   -37488   -45055   -58471   -67540   -67634 
  -62037   -57046   -57074   -62072   -63985   -56298   -47717   -47973 
  -51799   -51669   -48229   -43746   -38585   -34954   -38281   -50639 
  -63286   -63746   -52703   -43374   -42985   -47787   -53260   -55720 
  -52443   -48834   -52747   -62248   -69869   -71995   -69811   -65479 
  -57856   -47655   -42593   -45620   -50351   -54805   -61599   -66029 
  -61164   -49952   -41172   -38016   -38322   -42737   -52122   -60778 
  -64326   -64867   -61441   -51933   -43467   -43870   -51346   -62398 
  -75383   -83997   -82140   -71464   -56549   -43340   -40804   -50938 
  -64724   -74447   -78489   -75731   -66046   -52773   -42235   -40594 
  -47260   -57229   -69085   -79565   -79987   -67881   -50882   -38857 
  -38264   -48969   -65321   -79848   -84937   -78803   -69211   -62448 
  -55234   -45449   -38809   -38322   -40652   -44533   -51609   -60543 
  -65711   -63700   -58851   -56742   -58283   -62513   -66208   -66584 
  -67545   -71651   -73312   -70062   -66233   -64413   -64585   -63845 
  -59240   -56341   -60598   -68097   -76784   -86701   -90378   -83466 
  -72639   -65274   -63893   -64865   -61194   -53352   -48320   -49003 
  -53358   -59529   -66239   -69750   -66963   -61659   -58919   -55969 
  -48806   -41945   -41582   -46836   -53608   -56147   -48947   -38063 
  -34851   -39844   -49320   -59950   -64961   -63497   -59356   -52368 
  -46942   -50573   -60761   -69386   -70858   -62261   -47154   -34942 
  -31215   -36185   -48330   -61813   -69871   -72203   -70231   -64910 
  -61524   -61960   -61604   -61412   -65432   -68908   -64393   -52742 
  -41546   -40644   -54413   -71901   -79154   -77551   -73055   -64018 
  -50084   -38419   -37937   -49240   -63052   -72060   -75750   -72257 
  -60062   -46842   -42023   -46186   -54699   -62393   -67410   -73147 
  -78332   -76074   -67354   -57871   -48990   -43583   -45576   -54902 
  -68841   -79038   -78582   -72305   -63155   -50354   -44580   -50215 
  -52863   -48083   -45588   -46377   -47787   -50526   -51443   -50939 
  -54980   -62292   -66121   -63365   -55404   -46555   -41911   -43742 
  -48478   -50886   -51269   -51845   -52175   -52694   -53386   -52001 
  -49574   -48836   -48590   -46588   -42922   -40749   -43434   -49077 
  -54553   -59675   -62640   -62560   -63117   -65940   -68592   -67934 
  -62220   -56538   -57722   -60236   -55470   -49291   -51308   -59855 
  -67011   -66357   -58229   -50370   -46817   -45049   -46518   -52747 
  -56326   -53589   -52832   -58574   -65351   -69755   -72315   -70804 
  -63645   -54399   -47149   -44086   -46590   -52857   -59887   -66698 
  -68749   -61212   -51816   -51203   -56434   -61482   -65703   -65609 
  -58556   -48833   -41470   -38602   -40571   -46706   -54465   -59333 
  -60925   -62023   -58715   -47253   -36123   -34667   -40636   -48289 
  -55947   -62251   -64121   -60014   -53269   -51049   -55857   -61255 
  -60143   -51752   -42133   -39588   -44096   -48463   -50544   -51057 
  -49032   -46812   -47482   -52882   -63511   -72320   -71195   -62328 
  -53713   -50201   -51682   -54898   -54425   -47647   -41286   -43947 
  -53807   -62983   -67631   -67648   -64564   -61434   -58324   -51755 
  -43017   -39001   -42601   -49960   -56523   -59612   -57926   -55271 
  -58616   -67073   -73700   -75741   -71484   -59014   -44251   -36613 
  -38493   -46887   -56435   -58407   -49578   -39993   -40221   -47492 
  -53680   -57668   -60819   -60004   -52673   -41921   -34105   -33382 
  -38708   -47337   -55673   -57935   -55403   -57065   -64057   -70094 
  -70577   -61212   -44945   -34253   -33502   -35394   -35755   -36884 
