Origin Time       2011/03/11 14:46:00
Lat.              38.103
Long.             142.860
Depth. (km)       24
Mag.              9.0
Station Code      SZO023
Station Lat.      34.8736
Station Long.     137.8167
Station Height(m) 46
Record Time       2011/03/11 14:48:09
Sampling Freq(Hz) 100Hz
Duration Time(s)  236
Dir.              N-S
Scale Factor      3920(gal)/6182761
Max. Acc. (gal)   12.746
Last Correction   2011/03/11 14:47:54
Memo.             
[...]
  -22300   -21858   -21385   -20874   -20335   -19789   -19257   -18763 
  -18334   -17980   -17697   -17454   -17211   -16968   -16740   -16526 
  -16323   -16143   -16017   -15979   -16023   -16125   -16297   -16539 
  -16845   -17223   -17675   -18189   -18757   -19355   -19955   -20544 
  -21104   -21593   -21981   -22258   -22410   -22444   -22374   -22199 
  -21930   -21594   -21216   -20809   -20372   -19909   -19432   -18952 
  -18469   -17975   -17443   -16842   -16169   -15440   -14675   -13910 
  -13183   -12512   -11914   -11411   -11012   -10724   -10575   -10573 
  -10696   -10938   -11298   -11771   -12344   -12992   -13702   -14489 
  -15349   -16260   -17211   -18193   -19198   -20225   -21258   -22272 
  -23243   -24139   -24908   -25532   -26014   -26346   -26536   -26588 
  -26509   -26321   -26029   -25641   -25175   -24612   -23924   -23106 
  -22167   -21130   -20011   -18824   -17602   -16367   -15121   -13888 
  -12693   -11543   -10466    -9495    -8638    -7868    -7152    -6484 
   -5912    -5534    -5427    -5573    -5948    -6558    -7363    -8320 
   -9393   -10533   -11723   -12941   -14139   -15307   -16433   -17471 
  -18402   -19236   -19988   -20679   -21307   -21866   -22363   -22789 
  -23122   -23351   -23492   -23576   -23624   -23667   -23726   -23786 
  -23843   -23912   -23984   -24038   -24057   -24030   -23958   -23847 
  -23702   -23514   -23258   -22919   -22500   -22016   -21475   -20868 
  -20205   -19515   -18842   -18228   -17711   -17306   -17017   -16841 
  -16764   -16762   -16820   -16925   -17072   -17258   -17472   -17696 
  -17911   -18131   -18406   -18768   -19218   -19739   -20296   -20866 
  -21417   -21914   -22336   -22695   -23015   -23311   -23584   -23827 
  -24023   -24162   -24229   -24211   -24106   -23874   -23479   -22924 
  -22218   -21392   -20506   -19595   -18694   -17827   -17005   -16268 
  -15664   -15198   -14866   -14670   -14589   -14619   -14786   -15082 
  -15475   -15949   -16474   -17014   -17595   -18244   -18936   -19634 
  -20301   -20904   -21421   -21829   -22133   -22367   -22535   -22645 
  -22736   -22809   -22834   -22800   -22688   -22483   -22174   -21733 
  -21156   -20446   -19608   -18683   -17711   -16714   -15739   -14800 
  -13894   -13065   -12328   -11659   -11066   -10571   -10179    -9923 
   -9826    -9871   -10042   -10335   -10731   -11233   -11842   -12519 
  -13219   -13921   -14619   -15310   -15996   -16682   -17363   -18051 
  -18771   -19522   -20283   -21013   -21682   -22287   -22830   -23315 
  -23727   -24027   -24201   -24249   -24185   -24059   -23894   -23671 
  -23376   -23012   -22591   -22134   -21662   -21174   -20676   -20179 
  -19698   -19264   -18873   -18499   -18120   -17719   -17293   -16844 
  -16374   -15870   -15326   -14764   -14201   -13663   -13186   -12767 
  -12392   -12045   -11722   -11425   -11148   -10898   -10695   -10543 
  -10443   -10416   -10480   -10612   -10786   -11011   -11310   -11685 
  -12130   -12652   -13243   -13880   -14546   -15221   -15896   -16548 
  -17135   -17629   -18010   -18286   -18506   -18693   -18864   -19032 
  -19200   -19358   -19501   -19626   -19712   -19712   -19577   -19296 
  -18896   -18409   -17850   -17207   -16481   -15707   -14921   -14136 
  -13356   -12584   -11805   -11022   -10279    -9622    -9086    -8712 
   -8513    -8488    -8632    -8900    -9248    -9671   -10165   -10740 
  -11422   -12179   -12969   -13804   -14693   -15624   -16579   -17530 
  -18456   -19344   -20195   -21038   -21897   -22752   -23567   -24292 
  -24879   -25302   -25543   -25593   -25468   -25190   -24779   -24236 
  -23549   -22741   -21852   -20884   -19850   -18789   -17739   -16707 
  -15692   -14713   -13805   -12994   -12308   -11795   -11493   -11398 
  -11509   -11823   -12302   -12897   -13568   -14291   -15060   -15882 
  -16757   -17693   -18692   -19731   -20792   -21867   -22935   -23955 
  -24888   -25702   -26384   -26937   -27379   -27729   -27953   -28019 
  -27923   -27628   -27104   -26414   -25604   -24650   -23568   -22424 
  -21246   -20033   -18792   -17540   -16288   -15031   -13792   -12617 
  -11504   -10422    -9365    -8338    -7390    -6581    -5942    -5492 
   -5204    -5044    -5034    -5199    -5540    -6062    -6748    -7549 
   -8450    -9465   -10577   -11786   -13094   -14465   -15874   -17283 
  -18650   -19969   -21193   -22255   -23126   -23764   -24151   -24318 
  -24253   -23956   -23460   -22770   -21912   -20924   -19819   -18635 
  -17423   -16207   -15023   -13926   -12962   -12175   -11574   -11150 
  -10916   -10861   -10958   -11220   -11635   -12160   -12789   -13540 
  -14421   -15388   -16394   -17428   -18459   -19427   -20297   -21078 
  -21772   -22327   -22723   -22978   -23077   -23014   -22813   -22502 
  -22081   -21532   -20871   -20129   -19305   -18409   -17473   -16513 
  -15545   -14590   -13661   -12772   -11925   -11120   -10377    -9695 
   -9034    -8392    -7797    -7259    -6805    -6475    -6275    -6185 
   -6248    -6513    -6950    -7531    -8243    -9063   -10004   -11080 
  -12282   -13582   -14909   -16217   -17522   -18807   -20024   -21182 
  -22312   -23392   -24395   -25335   -26258   -27170   -28033   -28805 
  -29451   -29917   -30139   -30108   -29857   -29398   -28759   -27979 
  -27087   -26121   -25102   -24035   -22952   -21889   -20879   -19962 
  -19140   -18380   -17673   -17012   -16386   -15798   -15237   -14695 
  -14175   -13682   -13249   -12911   -12669   -12537   -12555   -12753 
  -13142   -13710   -14440   -15290   -16214   -17177   -18143   -19071 
  -19946   -20767   -21531   -22222   -22824   -23343   -23762   -24039 
  -24158   -24132   -23963   -23658   -23240   -22724   -22122   -21455 
  -20749   -20034   -19329   -18633   -17947   -17277   -16634   -16019 
  -15424   -14838   -14246   -13640   -13038   -12487   -12035   -11684 
  -11422   -11249   -11154   -11128   -11164   -11241   -11350   -11519 
  -11798   -12220   -12786   -13488   -14307   -15187   -16105   -17090 
  -18118   -19152   -20202   -21249   -22249   -23199   -24095   -24929 
  -25684   -26313   -26780   -27065   -27157   -27083   -26880   -26548 
  -26072   -25466   -24767   -23976   -23075   -22064   -20992   -19894 
  -18773   -17644   -16522   -15410   -14320   -13267   -12262   -11326 
  -10479    -9711    -9024    -8437    -7915    -7451    -7086    -6840 
   -6754    -6883    -7220    -7760    -8494    -9377   -10365   -11438 
  -12575   -13748   -14948   -16176   -17426   -18670   -19854   -20944 
  -21904   -22677   -23219   -23521   -23575   -23365   -22905   -22258 
  -21509   -20718   -19914   -19104   -18253   -17336   -16412   -15553 
  -14770   -14039   -13300   -12497   -11658   -10797    -9897    -9014 
   -8197    -7470    -6868    -6357    -5873    -5458    -5205    -5157 
   -5310    -5635    -6110    -6749    -7542    -8429    -9401   -10489 
  -11656   -12850   -14092   -15402   -16731   -18065   -19429   -20824 
  -22232   -23598   -24870   -26015   -26994   -27798   -28445   -28943 
  -29294   -29460   -29379   -29052   -28518   -27809   -26968   -26012 
  -24931   -23731   -22453   -21117   -19705   -18202   -16610   -14963 
  -13338   -11786   -10305    -8894    -7570    -6368    -5331    -4494 
   -3898    -3556    -3427    -3477    -3706    -4107    -4700    -5526 
   -6549    -7703    -8972   -10341   -11774   -13233   -14682   -16111 
  -17520   -18903   -20239   -21534   -22802   -24034   -25260   -26472 
  -27564   -28459   -29120   -29471   -29508   -29323   -28922   -28246 
  -27314   -26169   -24861   -23469   -21988   -20380   -18731   -17144 
  -15633   -14232   -12997   -11882   -10854    -9962    -9195    -8527 
   -7966    -7523    -7239    -7115    -7079    -7132    -7334    -7674 
   -8131    -8724    -9468   -10352   -11336   -12420   -13616   -14866 
  -16118   -17385   -18643   -19844   -21000   -22140   -23201   -24084 
  -24780   -25300   -25620   -25723   -25612   -25305   -24814   -24177 
  -23449   -22660   -21825   -20933   -19998   -19062   -18172   -17407 
  -16818   -16412   -16185   -16106   -16141   -16283   -16526   -16833 
  -17168   -17504   -17776   -17922   -17922   -17768   -17480   -17066 
  -16503   -15796   -14979   -14088   -13129   -12093   -11035   -10019 
   -9099    -8325    -7723    -7307    -7095    -7069    -7195    -7453 
   -7825    -8270    -8731    -9218    -9789   -10449   -11150   -11891 
  -12728   -13660   -14613   -15537   -16425   -17256   -17996   -18654 
  -19306   -20015   -20771   -21535   -22320   -23126   -23881   -24557 
  -25167   -25688   -26091   -26350   -26445   -26391   -26180   -25752 
  -25135   -24423   -23597   -22604   -21480   -20299   -19084   -17817 
  -16538   -15301   -14064   -12789   -11517   -10308    -9209    -8221 
   -7306    -6481    -5772    -5167    -4673    -4327    -4186    -4287 
   -4596    -5079    -5750    -6582    -7513    -8522    -9584   -10645 
  -11683   -12705   -13698   -14649   -15560   -16408   -17140   -17746 
  -18235   -18607   -18870   -19044   -19136   -19154   -19151   -19178 
  -19254   -19411   -19656   -19964   -20345   -20832   -21412   -22043 
  -22702   -23350   -23935   -24452   -24949   -25456   -25912   -26212 
  -26385   -26521   -26587   -26534   -26398   -26223   -26027   -25752 
  -25261   -24512   -23664   -22791   -21712   -20430   -19164   -17880 
  -16449   -14973   -13621   -12437   -11350   -10271    -9244    -8452 
   -7928    -7381    -6779    -6579    -6788    -6985    -7255    -7805 
   -8537    -9371   -10262   -11296   -12491   -13606   -14588   -15601 
  -16780   -18075   -19136   -19949   -20930   -21992   -22749   -23360 
  -24082   -24754   -25282   -25798   -26259   -26512   -26585   -26581 
  -26536   -26359   -25961   -25436   -24843   -24145   -23388   -22574 
  -21643   -20624   -19590   -18552   -17498   -16488   -15559   -14631 
  -13675   -12711   -11744   -10790    -9818    -8837    -7939    -7098 
   -6267    -5539    -4918    -4342    -3891    -3489    -2951    -2388 
   -1936    -1549    -1248    -1078    -1026    -1136    -1443    -1938 
   -2666    -3643    -4758    -5983    -7409    -9052   -10859   -12782 
  -14790   -16852   -18885   -20835   -22748   -24631   -26383   -27930 
  -29276   -30395   -31234   -31847   -32307   -32637   -32859   -32880 
  -32618   -32201   -31673   -30911   -29989   -29053   -28067   -26959 
  -25700   -24352   -23012   -21636   -20141   -18589   -17112   -15701 
  -14276   -12953   -11844   -10863   -10010    -9383    -8936    -8604 
   -8435    -8420    -8511    -8759    -9189    -9747   -10387   -11059 
  -11721   -12384   -13040   -13619   -14101   -14578   -15120   -15690 
  -16210   -16698   -17235   -17729   -18097   -18503   -18982   -19417 
  -19894   -20464   -20982   -21439   -21975   -22569   -23097   -23580 
  -24071   -24511   -24880   -25154   -25237   -25138   -24926   -24593 
  -24156   -23671   -23124   -22493   -21856   -21275   -20725   -20165 
  -19521   -18775   -17979   -17130   -16199   -15213   -14238   -13304 
  -12384   -11526   -10767   -10083    -9502    -9034    -8718    -8590 
   -8497    -8427    -8590    -8962    -9384    -9871   -10472   -11164 
  -11933   -12763   -13631   -14515   -15411   -16364   -17377   -18366 
  -19269   -20093   -20884   -21619   -22208   -22644   -22912   -23014 
  -23034   -22940   -22701   -22402   -22053   -21645   -21197   -20718 
  -20201   -19623   -19017   -18426   -17818   -17127   -16311   -15395 
  -14409   -13391   -12440   -11568   -10733   -10003    -9421    -8941 
   -8618    -8549    -8693    -9066    -9743   -10623   -11641   -12827 
  -14119   -15452   -16787   -18093   -19382   -20660   -21900   -23078 
  -24212   -25302   -26344   -27391   -28388   -29229   -29963   -30597 
  -31067   -31417   -31661   -31758   -31695   -31460   -31050   -30445 
  -29613   -28570   -27343   -25953   -24458   -22890   -21227   -19492 
  -17709   -15895   -14124   -12412   -10762    -9252    -7887    -6630 
   -5457    -4365    -3429    -2701    -2197    -1931    -1885    -2046 
   -2465    -3172    -4091    -5125    -6235    -7383    -8490    -9534 
  -10593   -11667   -12677   -13656   -14653   -15597   -16439   -17198 
  -17876   -18494   -19073   -19617   -20193   -20845   -21489   -22050 
  -22531   -22962   -23359   -23716   -24026   -24247   -24343   -24306 
  -24105   -23745   -23243   -22563   -21708   -20751   -19746   -18717 
  -17681   -16625   -15548   -14516   -13552   -12603   -11638   -10723 
   -9926    -9214    -8593    -8141    -7838    -7585    -7397    -7362 
   -7486    -7714    -8003    -8379    -8944    -9714   -10590   -11548 
  -12679   -13993   -15425   -16997   -18726   -20487   -22172   -23851 
  -25594   -27278   -28813   -30267   -31627   -32793   -33738   -34413 
  -34788   -35021   -35218   -35206   -34811   -34036   -33014   -32025 
  -31187   -30208   -28946   -27619   -26340   -25102   -23956   -22947 
  -22008   -21022   -19967   -18926   -17901   -16810   -15631   -14397 
  -13132   -11855   -10550    -9216    -7915    -6619    -5191    -3659 
   -2257    -1146     -348      206      606      806      755      490 
     -35     -843    -1867    -3127    -4652    -6374    -8275   -10418 
  -12776   -15277   -17866   -20408   -22785   -24972   -26994   -28957 
  -30879   -32621   -34080   -35235   -36088   -36601   -36692   -36435 
  -35955   -35155   -33936   -32387   -30631   -28735   -26674   -24410 
  -22000   -19496   -16910   -14318   -11819    -9454    -7185    -5017 
   -3133    -1603     -258      896     1688     2150     2389     2323 
    1854     1039      -68    -1486    -3174    -5061    -7079    -9199 
  -11462   -13809   -16149   -18441   -20590   -22602   -24507   -26218 
  -27755   -29122   -30267   -31224   -31962   -32418   -32601   -32503 
  -32073   -31238   -30022   -28562   -26917   -25088   -23146   -21154 
  -19129   -17115   -15219   -13520   -12020   -10700    -9554    -8582 
   -7831    -7374    -7183    -7164    -7340    -7759    -8313    -8958 
   -9860   -11057   -12402   -13816   -15283   -16802   -18382   -20011 
  -21668   -23269   -24724   -26050   -27274   -28322   -29119   -29644 
  -29862   -29766   -29419   -28870   -28177   -27386   -26427   -25277 
  -24047   -22762   -21416   -20124   -18882   -17587   -16309   -15147 
  -14096   -13108   -12176   -11378   -10706   -10107    -9602    -9173 
   -8799    -8473    -8121    -7754    -7450    -7206    -7018    -6870 
   -6735    -6665    -6700    -6844    -7135    -7594    -8177    -8781 
   -9330    -9837   -10336   -10767   -11056   -11279   -11523   -11767 
  -12011   -12292   -12624   -12988   -13366   -13745   -14107   -14496 
  -14924   -15322   -15716   -16167   -16648   -17131   -17605   -18048 
  -18457   -18849   -19233   -19603   -19969   -20313   -20537   -20596 
  -20539   -20446   -20476   -20727   -21106   -21491   -21805   -22013 
  -22155   -22206   -22038   -21609   -21033   -20496   -20035   -19532 
  -18908   -18160   -17324   -16381   -15195   -13707   -12054   -10511 
   -9355    -8636    -8140    -7662    -7184    -6813    -6651    -6634 
   -6637    -6805    -7410    -8435    -9648   -10913   -12326   -14080 
  -16157   -18273   -20087   -21483   -22611   -23639   -24712   -25964 
  -27271   -28301   -28957   -29417   -29752   -29922   -29931   -29744 
  -29331   -28785   -28194   -27480   -26445   -25062   -23575   -22157 
  -20725   -19124   -17347   -15564   -13851   -12152   -10543    -9151 
   -8004    -7185    -6853    -6897    -6943    -6851    -6788    -6857 
   -7084    -7474    -7850    -8071    -8247    -8482    -8781    -9130 
   -9499    -9928   -10503   -11198   -11886   -12577   -13346   -14117 
  -14847   -15629   -16505   -17445   -18328   -18956   -19330   -19644 
  -19963   -20258   -20572   -20887   -21071   -21066   -21004   -21052 
  -21215   -21397   -21506   -21497   -21392   -21162   -20759   -20285 
  -19836   -19386   -18945   -18554   -18208   -17882   -17503   -17044 
  -16551   -16008   -15471   -15103   -14889   -14727   -14628   -14557 
  -14433   -14267   -14071   -13811   -13505   -13201   -12907   -12665 
  -12580   -12688   -12945   -13305   -13708   -14045   -14272   -14505 
  -14800   -15091   -15396   -15715   -15963   -16106   -16168   -16206 
  -16265   -16334   -16409   -16490   -16547   -16604   -16735   -16924 
  -17144   -17436   -17753   -17992   -18194   -18474   -18832   -19175 
  -19451   -19626   -19678   -19644   -19597   -19577   -19574   -19575 
  -19526   -19366   -19185   -19075   -18926   -18598   -18098   -17501 
  -16837   -16096   -15310   -14499   -13604   -12632   -11746   -11045 
  -10463    -9933    -9488    -9224    -9189    -9316    -9562    -9954 
  -10479   -11102   -11816   -12629   -13545   -14531   -15551   -16602 
  -17632   -18567   -19394   -20141   -20836   -21429   -21849   -22173 
  -22520   -22899   -23275   -23578   -23719   -23681   -23509   -23260 
  -22996   -22710   -22336   -21896   -21459   -21034   -20678   -20400 
  -20116   -19880   -19711   -19488   -19235   -19050   -18901   -18729 
  -18529   -18311   -18103   -17930   -17766   -17605   -17439   -17214 
  -16919   -16599   -16274   -15942   -15589   -15202   -14801   -14407 
  -14017   -13628   -13230   -12784   -12305   -11883   -11535   -11240 
  -11056   -11033   -11185   -11519   -11988   -12542   -13195   -13995 
  -14951   -15995   -17040   -18048   -18991   -19887   -20770   -21584 
  -22275   -22823   -23188   -23366   -23394   -23328   -23195   -22964 
  -22654   -22330   -21985   -21571   -21092   -20613   -20178   -19761 
  -19341   -18940   -18601   -18359   -18179   -18020   -17942   -17965 
  -17992   -18015   -18106   -18264   -18458   -18672   -18872   -19030 
  -19142   -19203   -19182   -19046   -18798   -18476   -18129   -17797 
  -17472   -17148   -16875   -16730   -16748   -16915   -17203   -17619 
  -18158   -18784   -19477   -20218   -20972   -21740   -22529   -23347 
  -24203   -25069   -25887   -26615   -27276   -27891   -28407   -28802 
  -29088   -29242   -29287   -29253   -29083   -28767   -28370   -27865 
  -27261   -26626   -25931   -25163   -24329   -23381   -22341   -21249 
  -20080   -18842   -17556   -16243   -14959   -13749   -12655   -11686 
  -10802   -10028    -9413    -8940    -8617    -8482    -8508    -8674 
   -9017    -9545   -10221   -10999   -11854   -12753   -13673   -14627 
  -15595   -16509   -17339   -18095   -18773   -19339   -19783   -20127 
  -20373   -20537   -20652   -20723   -20721   -20639   -20504   -20321 
  -20070   -19778   -19463   -19059   -18535   -17971   -17433   -16905 
  -16349   -15757   -15149   -14530   -13879   -13215   -12588   -12026 
  -11540   -11138   -10815   -10557   -10392   -10378   -10501   -10767 
  -11249   -11914   -12710   -13685   -14846   -16124   -17462   -18836 
  -20227   -21593   -22858   -23974   -24948   -25802   -26555   -27221 
  -27772   -28155   -28358   -28424   -28390   -28282   -28124   -27879 
  -27497   -26988   -26391   -25711   -24931   -24058   -23096   -22053 
  -20956   -19819   -18658   -17488   -16319   -15232   -14302   -13512 
  -12829   -12286   -11936   -11769   -11737   -11852   -12164   -12669 
  -13350   -14248   -15352   -16586   -17924   -19386   -20936   -22488 
  -24024   -25595   -27186   -28758   -30292   -31744   -33071   -34257 
  -35278   -36103   -36720   -37151   -37416   -37476   -37321   -37033 
