Origin Time       2011/03/11 14:46:00
Lat.              38.103
Long.             142.860
Depth. (km)       24
Mag.              9.0
Station Code      SZO018
Station Lat.      34.7389
Station Long.     138.2247
Station Height(m) 3
Record Time       2011/03/11 14:48:11
Sampling Freq(Hz) 100Hz
Duration Time(s)  300
Dir.              U-D
Scale Factor      3920(gal)/6182761
Max. Acc. (gal)   13.812
Last Correction   2011/03/11 14:47:56
Memo.             
[...]
  -62173   -61721   -61170   -60625   -60053   -59427   -58842   -58274 
  -57709   -57163   -56579   -55979   -55376   -54705   -54029   -53438 
  -52897   -52439   -52157   -52033   -52057   -52249   -52591   -53060 
  -53599   -54194   -54836   -55474   -56096   -56643   -57102   -57537 
  -57892   -58143   -58355   -58518   -58672   -58840   -58942   -59041 
  -59222   -59425   -59639   -59876   -60137   -60432   -60727   -61021 
  -61324   -61608   -61873   -62171   -62499   -62792   -63068   -63371 
  -63655   -63863   -63970   -63991   -63975   -63974   -63936   -63813 
  -63685   -63606   -63619   -63695   -63716   -63744   -63839   -63907 
  -63922   -63920   -63864   -63708   -63570   -63535   -63457   -63306 
  -63228   -63196   -63132   -63080   -63022   -62882   -62715   -62587 
  -62434   -62248   -62044   -61770   -61471   -61183   -60845   -60432 
  -59984   -59608   -59327   -59081   -58883   -58736   -58666   -58656 
  -58612   -58560   -58508   -58413   -58298   -58178   -58061   -57894 
  -57668   -57519   -57404   -57185   -56964   -56793   -56580   -56370 
  -56232   -56137   -56077   -56088   -56166   -56306   -56520   -56767 
  -57035   -57373   -57732   -58089   -58540   -59079   -59655   -60308 
  -61031   -61791   -62575   -63317   -63998   -64634   -65191   -65640 
  -65964   -66207   -66423   -66561   -66622   -66656   -66624   -66492 
  -66270   -65977   -65633   -65217   -64769   -64382   -64043   -63700 
  -63306   -62891   -62572   -62229   -61724   -61233   -60787   -60186 
  -59489   -58868   -58288   -57748   -57343   -57024   -56742   -56560 
  -56462   -56356   -56239   -56162   -56088   -55993   -55914   -55800 
  -55712   -55743   -55785   -55863   -56046   -56277   -56605   -57033 
  -57474   -57958   -58500   -59076   -59710   -60372   -61037   -61731 
  -62421   -63066   -63707   -64322   -64840   -65310   -65750   -66118 
  -66464   -66757   -66963   -67159   -67330   -67444   -67487   -67387 
  -67192   -66994   -66735   -66371   -65946   -65491   -65002   -64480 
  -63931   -63376   -62856   -62355   -61855   -61394   -60950   -60497 
  -60074   -59712   -59415   -59166   -58952   -58776   -58644   -58539 
  -58408   -58294   -58274   -58320   -58399   -58445   -58450   -58510 
  -58633   -58732   -58753   -58711   -58599   -58438   -58288   -58082 
  -57828   -57646   -57552   -57551   -57610   -57719   -58001   -58425 
  -58897   -59464   -60118   -60823   -61576   -62339   -63066   -63728 
  -64356   -64977   -65544   -66016   -66405   -66699   -66850   -66860 
  -66745   -66494   -66095   -65530   -64823   -64061   -63253   -62377 
  -61471   -60556   -59661   -58845   -58051   -57216   -56413   -55677 
  -54915   -54132   -53407   -52728   -52063   -51391   -50736   -50175 
  -49686   -49239   -48896   -48622   -48406   -48333   -48317   -48317 
  -48455   -48698   -49004   -49426   -49945   -50544   -51210   -51945 
  -52775   -53628   -54468   -55374   -56264   -57090   -58040   -59052 
  -59961   -60854   -61732   -62606   -63483   -64163   -64647   -65072 
  -65410   -65583   -65598   -65589   -65522   -65302   -65057   -64837 
  -64613   -64370   -64102   -63918   -63830   -63737   -63608   -63481 
  -63428   -63396   -63263   -63080   -62920   -62746   -62564   -62371 
  -62138   -61894   -61656   -61452   -61282   -61086   -60839   -60539 
  -60283   -60087   -59808   -59492   -59287   -59150   -59006   -58856 
  -58706   -58586   -58528   -58552   -58672   -58814   -58979   -59265 
  -59601   -59912   -60180   -60388   -60631   -60886   -61017   -61073 
  -61066   -60969   -60854   -60680   -60389   -60107   -59892   -59658 
  -59434   -59313   -59171   -58954   -58808   -58691   -58527   -58364 
  -58242   -58200   -58172   -58131   -58094   -57945   -57781   -57719 
  -57524   -57211   -56987   -56757   -56521   -56322   -56055   -55827 
  -55712   -55548   -55344   -55211   -55096   -54989   -54963   -54980 
  -54995   -54993   -54962   -54978   -55039   -55069   -55140   -55305 
  -55526   -55873   -56363   -56928   -57626   -58456   -59323   -60228 
  -61091   -61850   -62644   -63450   -64192   -64927   -65614   -66293 
  -67090   -67911   -68557   -68995   -69443   -69872   -69967   -69824 
  -69676   -69446   -69090   -68605   -68016   -67426   -66779   -66005 
  -65166   -64263   -63283   -62254   -61202   -60181   -59214   -58266 
  -57314   -56333   -55328   -54352   -53376   -52318   -51232   -50209 
  -49215   -48232   -47254   -46296   -45500   -44881   -44317   -43837 
  -43437   -43094   -42911   -42773   -42570   -42512   -42614   -42650 
  -42716   -42967   -43177   -43319   -43635   -43996   -44256   -44607 
  -45100   -45568   -46009   -46538   -47126   -47741   -48399   -49092 
  -49828   -50547   -51249   -52015   -52786   -53534   -54385   -55285 
  -56055   -56790   -57624   -58448   -59168   -59818   -60479   -61162 
  -61821   -62462   -63032   -63529   -64005   -64385   -64628   -64755 
  -64789   -64798   -64727   -64514   -64274   -64027   -63752   -63457 
  -63032   -62515   -61954   -61245   -60454   -59629   -58695   -57699 
  -56609   -55473   -54451   -53459   -52524   -51748   -51025   -50402 
  -49887   -49386   -49036   -48882   -48812   -48777   -48737   -48733 
  -48843   -49035   -49272   -49529   -49806   -50146   -50605   -51198 
  -51784   -52353   -53031   -53725   -54448   -55295   -56155   -56991 
  -57804   -58582   -59335   -60055   -60782   -61448   -61986   -62428 
  -62806   -63221   -63618   -63916   -64190   -64425   -64629   -64836 
  -65009   -65136   -65219   -65284   -65375   -65484   -65593   -65733 
  -65890   -66010   -66135   -66297   -66469   -66676   -66911   -67114 
  -67287   -67476   -67662   -67787   -67879   -67982   -68038   -68051 
  -68103   -68132   -68075   -68000   -67915   -67800   -67647   -67418 
  -67155   -66911   -66680   -66419   -66107   -65766   -65350   -64803 
  -64150   -63411   -62680   -62027   -61387   -60713   -59983   -59259 
  -58666   -58165   -57669   -57168   -56767   -56520   -56278   -56066 
  -56006   -56036   -56158   -56343   -56530   -56793   -57128   -57500 
  -57925   -58370   -58918   -59581   -60187   -60702   -61154   -61614 
  -62113   -62460   -62648   -62824   -62932   -62918   -62774   -62453 
  -62055   -61710   -61250   -60479   -59598   -58720   -57727   -56735 
  -55713   -54554   -53498   -52593   -51718   -50900   -50095   -49323 
  -48688   -48162   -47695   -47266   -46940   -46764   -46618   -46541 
  -46647   -46840   -47069   -47376   -47822   -48438   -49114   -49801 
  -50594   -51524   -52535   -53520   -54438   -55334   -56181   -56934 
  -57614   -58236   -58796   -59269   -59599   -59784   -59843   -59775 
  -59657   -59533   -59279   -58846   -58393   -58043   -57715   -57370 
  -57087   -56809   -56442   -56063   -55782   -55571   -55261   -54820 
  -54426   -54087   -53689   -53273   -52905   -52577   -52314   -52234 
  -52335   -52489   -52663   -52875   -53208   -53718   -54320   -54967 
  -55662   -56388   -57191   -58106   -59019   -59810   -60507   -61165 
  -61750   -62246   -62648   -62895   -63081   -63241   -63183   -62973 
  -62818   -62631   -62296   -61893   -61546   -61252   -60924   -60590 
  -60262   -59887   -59532   -59193   -58832   -58490   -58127   -57838 
  -57677   -57444   -57250   -57303   -57423   -57515   -57703   -58079 
  -58604   -58944   -58982   -59171   -59727   -60294   -60594   -60673 
  -60643   -60767   -61227   -61537   -61309   -60946   -60936   -61294 
  -61455   -61011   -60497   -60438   -60513   -60178   -59423   -58854 
  -58818   -58750   -58141   -57467   -57370   -57624   -57605   -57292 
  -57152   -57455   -58017   -58395   -58628   -59160   -59854   -60353 
  -60829   -61483   -62227   -62928   -63507   -64069   -64697   -65226 
  -65581   -65862   -66054   -66119   -66116   -66034   -65844   -65534 
  -65053   -64497   -63917   -63184   -62346   -61538   -60817   -60088 
  -59148   -58110   -57203   -56366   -55545   -54754   -54034   -53466 
  -52842   -52048   -51462   -51180   -50936   -50759   -50737   -50832 
  -51066   -51384   -51703   -52134   -52737   -53310   -53787   -54394 
  -55167   -55907   -56493   -57006   -57758   -58752   -59504   -59878 
  -60258   -60945   -61839   -62502   -62798   -63074   -63580   -64182 
  -64485   -64445   -64415   -64534   -64737   -64723   -64337   -64000 
  -63890   -63754   -63413   -62805   -62110   -61666   -61482   -61155 
  -60607   -60130   -59643   -59011   -58446   -58132   -57919   -57547 
  -57130   -56882   -56713   -56573   -56524   -56502   -56506   -56688 
  -56959   -57086   -57117   -57109   -57405   -58229   -58633   -58465 
  -58730   -59237   -59671   -60246   -60557   -60751   -61285   -61753 
  -62041   -62432   -62945   -63537   -64051   -64353   -64526   -64825 
  -65244   -65307   -65120   -65202   -65493   -65718   -65619   -65268 
  -65185   -65382   -65463   -65350   -65108   -64928   -65034   -65154 
  -64960   -64684   -64548   -64503   -64477   -64380   -64310   -64384 
  -64390   -64215   -64042   -63890   -63622   -63245   -62866   -62515 
  -62099   -61550   -60940   -60376   -59853   -59259   -58627   -58073 
  -57565   -57086   -56662   -56212   -55762   -55472   -55296   -55030 
  -54678   -54442   -54370   -54370   -54381   -54396   -54518   -54744 
  -54917   -55096   -55369   -55658   -56039   -56484   -56802   -57129 
  -57581   -57999   -58415   -58948   -59500   -59948   -60375   -60863 
  -61310   -61709   -62115   -62417   -62696   -63195   -63783   -64197 
  -64540   -65055   -65639   -66081   -66483   -66984   -67491   -67916 
  -68227   -68478   -68804   -69150   -69389   -69547   -69637   -69692 
  -69719   -69559   -69251   -68966   -68604   -68132   -67716   -67276 
  -66668   -66089   -65662   -65162   -64583   -64104   -63648   -63194 
  -62787   -62283   -61753   -61341   -60879   -60320   -59859   -59454 
  -58991   -58664   -58624   -58637   -58471   -58312   -58371   -58404 
  -58231   -58070   -57956   -57744   -57470   -57166   -56859   -56632 
  -56488   -56374   -56185   -55978   -56010   -56186   -56193   -56119 
  -56174   -56282   -56332   -56320   -56314   -56491   -56765   -56903 
  -57001   -57154   -57338   -57618   -57847   -57889   -58013   -58291 
  -58442   -58487   -58610   -58774   -58939   -59114   -59306   -59491 
  -59582   -59689   -60019   -60525   -60915   -60916   -60773   -60974 
  -61420   -61783   -61881   -61662   -61501   -61651   -61814   -61836 
  -61810   -61740   -61572   -61200   -60812   -60856   -61167   -60993 
  -60237   -59605   -59465   -59592   -59575   -59139   -58626   -58364 
  -58168   -58030   -57939   -57733   -57571   -57482   -57258   -57031 
  -57031   -57177   -57258   -57234   -57266   -57432   -57626   -57776 
  -57941   -58184   -58492   -58800   -59107   -59473   -59941   -60474 
  -60969   -61456   -62028   -62657   -63298   -63883   -64380   -64882 
  -65372   -65749   -65991   -66127   -66177   -66120   -65951   -65669 
  -65257   -64779   -64262   -63626   -62862   -62046   -61246   -60510 
  -59756   -58935   -58197   -57619   -57088   -56515   -55981   -55606 
  -55330   -55056   -54837   -54740   -54754   -54840   -54905   -54949 
  -55172   -55640   -56171   -56663   -57197   -57805   -58473   -59192 
  -59855   -60415   -60956   -61538   -62087   -62470   -62710   -62943 
  -63219   -63435   -63493   -63421   -63312   -63225   -63093   -62872 
  -62585   -62215   -61835   -61508   -61133   -60637   -60091   -59591 
  -59162   -58719   -58183   -57657   -57226   -56804   -56378   -55977 
  -55571   -55200   -54926   -54742   -54518   -54227   -54043   -53971 
  -53942   -53970   -53997   -54054   -54248   -54577   -54924   -55234 
  -55633   -56177   -56798   -57416   -57960   -58478   -59086   -59796 
  -60497   -61103   -61624   -62091   -62615   -63209   -63682   -64029 
  -64323   -64524   -64700   -64803   -64714   -64581   -64522   -64476 
  -64380   -64245   -64163   -64127   -64057   -63963   -63870   -63776 
  -63717   -63707   -63731   -63815   -63944   -64095   -64285   -64493 
  -64681   -64842   -64943   -65046   -65208   -65298   -65296   -65303 
  -65313   -65294   -65189   -64946   -64671   -64411   -64082   -63694 
  -63248   -62738   -62229   -61699   -61107   -60480   -59877   -59306 
  -58726   -58149   -57600   -57090   -56612   -56168   -55741   -55266 
  -54798   -54387   -54026   -53708   -53372   -53060   -52844   -52677 
  -52495   -52312   -52187   -52079   -51951   -51888   -51906   -51940 
  -51985   -52114   -52296   -52429   -52551   -52707   -52831   -52910 
  -53031   -53187   -53312   -53450   -53581   -53653   -53723   -53770 
  -53765   -53774   -53782   -53762   -53764   -53774   -53756   -53772 
  -53811   -53769   -53659   -53528   -53358   -53177   -53027   -52889 
  -52767   -52674   -52562   -52451   -52388   -52324   -52230   -52139 
  -52071   -52049   -52036   -51988   -51976   -51996   -51986   -51994 
  -52025   -52052   -52109   -52168   -52181   -52201   -52251   -52259 
  -52276   -52358   -52476   -52655   -52843   -52993   -53188   -53429 
  -53690   -53938   -54102   -54233   -54403   -54577   -54742   -54938 
  -55138   -55335   -55581   -55815   -56015   -56268   -56579   -56932 
  -57327   -57713   -58102   -58543   -59014   -59517   -60068   -60617 
  -61133   -61673   -62255   -62840   -63466   -64116   -64768   -65499 
  -66324   -67203   -68108   -69040   -70036   -71061   -72011   -72880 
  -73766   -74719   -75657   -76450   -77168   -77912   -78603   -79254 
  -79855   -80299   -80697   -81128   -81452   -81577   -81497   -81308 
  -81117   -80850   -80393   -79751   -78933   -77962   -76960   -76010 
  -75036   -73936   -72738   -71555   -70424   -69280   -68125   -67028 
  -65986   -64949   -63922   -62948   -62051   -61254   -60554   -59923 
  -59346   -58780   -58209   -57711   -57343   -57028   -56664   -56353 
  -56240   -56218   -56149   -56116   -56186   -56261   -56361   -56556 
  -56738   -56910   -57154   -57430   -57758   -58104   -58389   -58685 
  -59075   -59549   -60023   -60459   -60915   -61381   -61838   -62299 
  -62741   -63168   -63636   -64158   -64637   -64992   -65299   -65633 
  -65945   -66158   -66291   -66359   -66342   -66354   -66416   -66394 
  -66314   -66295   -66319   -66323   -66361   -66445   -66526   -66694 
  -66930   -67079   -67174   -67271   -67312   -67288   -67196   -67044 
  -66838   -66552   -66213   -65858   -65443   -64956   -64478   -64046 
  -63595   -63107   -62650   -62254   -61927   -61684   -61491   -61311 
  -61142   -60995   -60906   -60823   -60653   -60498   -60464   -60411 
  -60239   -60064   -59959   -59879   -59814   -59700   -59452   -59142 
  -58846   -58545   -58239   -57886   -57442   -57003   -56660   -56378 
  -56112   -55860   -55644   -55458   -55300   -55204   -55139   -55063 
  -54991   -54938   -54874   -54773   -54647   -54511   -54372   -54235 
  -54152   -54130   -54137   -54170   -54189   -54203   -54207   -54159 
  -54133   -54117   -54020   -53881   -53790   -53802   -53819   -53785 
  -53902   -54109   -54208   -54454   -54891   -55201   -55493   -55918 
  -56349   -56774   -57210   -57636   -58071   -58520   -58957   -59387 
  -59822   -60211   -60571   -60972   -61347   -61643   -61908   -62169 
  -62394   -62561   -62652   -62657   -62649   -62609   -62479   -62344 
  -62231   -62103   -61962   -61780   -61608   -61451   -61212   -60930 
  -60598   -60162   -59735   -59317   -58843   -58372   -57898   -57412 
  -56978   -56580   -56171   -55691   -55137   -54592   -54077   -53549 
  -52981   -52383   -51801   -51303   -50883   -50446   -49992   -49590 
  -49232   -48947   -48734   -48534   -48363   -48258   -48231   -48301 
  -48468   -48684   -48929   -49273   -49723   -50230   -50803   -51412 
  -52001   -52630   -53322   -53988   -54655   -55358   -56038   -56682 
  -57278   -57846   -58434   -58949   -59336   -59762   -60293   -60678 
  -60906   -61306   -61673   -61735   -61773   -61836   -61814   -61748 
  -61577   -61339   -61110   -60835   -60529   -60234   -59938   -59630 
  -59314   -59021   -58807   -58638   -58407   -58114   -57837   -57609 
  -57423   -57246   -57115   -57042   -56965   -56952   -57079   -57288 
  -57509   -57742   -58061   -58471   -58892   -59339   -59870   -60426 
  -60947   -61471   -62035   -62626   -63191   -63735   -64367   -65066 
  -65704   -66378   -67178   -67962   -68687   -69471   -70330   -71188 
  -72054   -72964   -73883   -74792   -75682   -76525   -77366   -78213 
  -78938   -79501   -79982   -80352   -80544   -80574   -80466   -80245 
  -79945   -79560   -79104   -78637   -78176   -77700   -77213   -76705 
  -76130   -75508   -74934   -74348   -73684   -73076   -72553   -72039 
  -71531   -71023   -70565   -70185   -69837   -69496   -69145   -68847 
  -68626   -68365   -68096   -67907   -67679   -67402   -67188   -66983 
  -66682   -66252   -65741   -65277   -64932   -64560   -63985   -63338 
  -62807   -62388   -61934   -61290   -60572   -59912   -59309   -58803 
  -58239   -57488   -56686   -55978   -55484   -55131   -54675   -54096 
  -53567   -53252   -53118   -52986   -52821   -52714   -52678   -52686 
  -52794   -53026   -53307   -53546   -53662   -53785   -54175   -54778 
  -55190   -55226   -55283   -55770   -56483   -56914   -56924   -56952 
  -57405   -57996   -58223   -58132   -58176   -58537   -58820   -58727 
  -58552   -58539   -58574   -58501   -58257   -57951   -57686   -57485 
  -57266   -56926   -56594   -56343   -56039   -55759   -55596   -55400 
  -55192   -55106   -55012   -54814   -54600   -54376   -54086   -53786 
  -53519   -53184   -52767   -52416   -52159   -51849   -51443   -51095 
  -50892   -50745   -50550   -50287   -50096   -50047   -49954   -49782 
  -49672   -49583   -49518   -49534   -49490   -49404   -49415   -49472 
  -49574   -49643   -49574   -49660   -50095   -50526   -50763   -51056 
  -51470   -51922   -52480   -53084   -53610   -54095   -54554   -55026 
  -55551   -56095   -56671   -57194   -57598   -58032   -58548   -59094 
  -59605   -59944   -60196   -60648   -61272   -61772   -62091   -62363 
  -62654   -63040   -63522   -63894   -64128   -64426   -64736   -64976 
  -65255   -65526   -65682   -65811   -65952   -66048   -66140   -66223 
  -66172   -66023   -65912   -65791   -65604   -65455   -65334   -65166 
  -64982   -64777   -64593   -64554   -64613   -64596   -64486   -64447 
  -64645   -65069   -65458   -65684   -66037   -66678   -67364   -67958 
  -68604   -69361   -70116   -70796   -71477   -72271   -73130   -73874 
  -74386   -74787   -75274   -75749   -76081   -76361   -76481   -76387 
  -76434   -76594   -76444   -76031   -75641   -75332   -74967   -74470 
  -73940   -73331   -72593   -71900   -71302   -70676   -69961   -69218 
  -68472   -67702   -66942   -66241   -65679   -65221   -64637   -63922 
  -63363   -63072   -62891   -62630   -62293   -62039   -61891   -61772 
  -61672   -61541   -61361   -61230   -61181   -61107   -60969   -60876 
  -60866   -60850   -60809   -60796   -60790   -60785   -60852   -60902 
  -60821   -60747   -60741   -60646   -60452   -60292   -60153   -59937 
  -59697   -59540   -59408   -59186   -58882   -58572   -58310   -58027 
  -57624   -57234   -56933   -56549   -56144   -55813   -55347   -54821 
  -54455   -54076   -53592   -53162   -52841   -52584   -52328   -52101 
  -52008   -52002   -52007   -52061   -52147   -52266   -52484   -52704 
