Origin Time       2011/03/11 14:46:00
Lat.              38.103
Long.             142.860
Depth. (km)       24
Mag.              9.0
Station Code      SZO010
Station Lat.      35.3091
Station Long.     138.9349
Station Height(m) 460
Record Time       2011/03/11 14:47:45
Sampling Freq(Hz) 100Hz
Duration Time(s)  300
Dir.              E-W
Scale Factor      3920(gal)/6182761
Max. Acc. (gal)   78.008
Last Correction   2011/03/11 14:47:30
Memo.             
[...]
  -23134   -24582   -25734   -26752   -27685   -28642   -29940   -31576 
  -33400   -35468   -37566   -39251   -40079   -39580   -37868   -35605 
  -33268   -31170   -29437   -28008   -27082   -26836   -26956   -26785 
  -25829   -24353   -23351   -23776   -25745   -28529   -31197   -33104 
  -34125   -34662   -35271   -36335   -38130   -40797   -44119   -47446 
  -49775   -50566   -50532   -50777   -51788   -53534   -55729   -58086 
  -60570   -63302   -66175   -68788   -71069   -73506   -76182   -78569 
  -80551   -82458   -84533   -86734   -88472   -89089   -88583   -87500 
  -86679   -86960   -88538   -90863   -93412   -96092   -98710  -100664 
 -101570  -101530  -100664   -99180   -97485   -95957   -94812   -93843 
  -92368   -89613   -85327   -80218   -75580   -72299   -69922   -66984 
  -62408   -56401   -50282   -45384   -42112   -40091   -38732   -37414 
  -35473   -32358   -27783   -22245   -17146   -13475   -11281   -10433 
  -10546   -11019   -11906   -13797   -16886   -20574   -23731   -25487 
  -25995   -26170   -26736   -27910   -29711   -32172   -35394   -39184 
  -42841   -45631   -47155   -47588   -47609   -47770   -48210   -48773 
  -49193   -49270   -48693   -47107   -44725   -42411   -41105   -40902 
  -40647   -39089   -36325   -33790   -33229   -35340   -39288   -43724 
  -47704   -50922   -53601   -55769   -57200   -58221   -59573   -61626 
  -64178   -66652   -68587   -70195   -72054   -74604   -77784   -80692 
  -82241   -81881   -79511   -75538   -70864   -66644   -63752   -61991 
  -60332   -57945   -54581   -50332   -45520   -41038   -37997   -36617 
  -36283   -36160   -35514   -34509   -33799   -33320   -32834   -32288 
  -31437   -30588   -30322   -30495   -30939   -32179   -35056   -39722 
  -44990   -49238   -51571   -52064   -51140   -49191   -46911   -44988 
  -43562   -42565   -42129   -42212   -42595   -43335   -44555   -46379 
  -48728   -51088   -52851   -53365   -52387   -50559   -48790   -47741 
  -47748   -48659   -49858   -50671   -50843   -50430   -49570   -48484 
  -46983   -44610   -41532   -38241   -34949   -31647   -28047   -23948 
  -19897   -16861   -15459   -15527   -16082   -15991   -14584   -11973 
   -9137    -7109    -6223    -6143    -6149    -5714    -4995    -4677 
   -5506    -7831   -11384   -15350   -18427   -19426   -18431   -16717 
  -15576   -15427   -15711   -15859   -16109   -17274   -19907   -23446 
  -26580   -28298   -28515   -28143   -28010   -28127   -28368   -28875 
  -30157   -32920   -37101   -41609   -45273   -47548   -48668   -49440 
  -50421   -51477   -52433   -53376   -54421   -55820   -57691   -59610 
  -61151   -62182   -62663   -62871   -63115   -63278   -63031   -62221 
  -61220   -60601   -60729   -61636   -62643   -62961   -62396   -60992 
  -58902   -56290   -52935   -48753   -44736   -42220   -41686   -43158 
  -46318   -50231   -54184   -57865   -60876   -62866   -63501   -62549 
  -60403   -57902   -55615   -53684   -52178   -51287   -51195   -51968 
  -53462   -55162   -56459   -57260   -57880   -58522   -59153   -59660 
  -60037   -60267   -60574   -61587   -63591   -66401   -69869   -73798 
  -77886   -81877   -85629   -89057   -91905   -93723   -93892   -91874 
  -87988   -83627   -80282   -78446   -77423   -76031   -73679   -70571 
  -66928   -62839   -58431   -53667   -48690   -43938   -39554   -35169 
  -30269   -24918   -19922   -15940   -12951   -10613    -8518    -6185 
   -3272      134     3491     6002     7086     6696     5218     3410 
    2033     1085     -230    -2596    -6020   -10131   -14421   -18099 
  -20283   -20400   -18369   -14999   -11760    -9651    -9093   -10222 
  -12430   -14717   -16511   -17729   -18464   -18586   -17886   -16623 
  -15486   -15318   -16540   -18433   -19821   -20262   -20173   -20216 
  -20367   -20109   -19898   -21084   -24359   -29267   -34551   -38888 
  -41947   -44146   -45544   -45875   -45289   -44325   -43434   -42957 
  -43156   -43949   -44751   -44982   -44794   -44693   -44844   -45379 
  -46488   -47865   -48971   -49539   -49508   -48946   -47954   -46526 
  -44700   -42894   -41839   -42143   -43979   -47064   -50812   -54592 
  -58021   -60989   -63550   -65853   -67701   -68340   -67302   -65087 
  -62739   -61031   -60080   -59681   -59760   -60267   -60954   -61440 
  -61216   -59690   -56660   -52531   -47780   -42529   -36886   -31294 
  -26176   -21849   -18825   -17504   -17903   -19790   -22676   -25899 
  -29046   -32172   -35553   -39428   -43613   -47380   -50097   -51748 
  -52812   -53702   -54340   -54579   -54617   -54777   -55191   -55549 
  -55365   -54539   -53344   -52089   -50955   -50048   -49494   -49501 
  -50313   -51948   -54066   -56210   -58115   -59601   -60511   -60717 
  -60005   -58511   -56680   -54676   -52788   -51608   -51725   -53575 
  -56693   -59577   -60766   -59639   -56558   -52408   -47809   -42990 
  -38132   -33390   -28884   -24784   -21365   -18989   -17573   -16526 
  -15403   -13708   -10989    -7634    -4585    -2521    -1636    -1589 
   -1638    -1428    -1489    -2597    -4897    -7838   -10693   -12890 
  -14279   -15154   -15787   -16602   -18276   -21108   -24892   -29044 
  -32827   -35544   -36541   -35935   -34925   -34999   -37076   -40742 
  -44624   -47561   -48919   -48632   -47299   -45919   -45438   -46416 
  -48802   -51984   -55382   -58585   -60779   -61115   -59695   -57478 
  -55395   -53767   -51916   -48384   -42486   -35118   -27493   -20475 
  -15228   -13043   -14424   -18689   -24230   -29348   -32574   -32434 
  -28442   -21858   -14822    -9420    -6533    -5483    -5449    -6129 
   -7303    -8653    -9599    -9717    -9547    -9831   -10434   -10895 
  -11153   -11766   -13713   -17424   -22319   -27334   -31621   -35093 
  -38390   -42164   -46440   -50468   -53189   -54098   -53713   -52918 
  -52121   -51592   -51697   -52426   -53587   -55122   -56868   -58660 
  -60568   -62575   -64515   -66479   -68566   -70434   -71500   -71466 
  -70703   -70182   -70903   -73114   -76055   -78740   -80778   -82410 
  -83940   -85369   -86824   -88616   -90473   -91671   -91783   -90691 
  -88557   -85750   -82569   -79574   -77464   -76405   -76060   -75888 
  -75468   -74720   -73416   -71059   -67706   -64182   -61459   -59951 
  -59087   -57766   -55414   -52237   -48521   -44511   -40855   -38257 
  -36892   -36244   -35357   -33488   -30458   -26711   -23174   -20676 
  -19452   -19065   -19064   -19617   -20863   -22391   -23610   -24090 
  -23932   -23615   -23284   -23046   -23396   -24465   -25933   -27580 
  -29110   -30510   -32214   -34195   -36258   -38916   -42584   -46900 
  -51482   -56279   -61072   -65235   -68233   -70248   -71775   -72920 
  -73638   -73785   -73142   -72344   -72305   -72953   -73908   -74584 
  -74305   -73704   -73669   -73307   -71191   -67250   -62463   -58094 
  -55176   -53800   -52793   -50617   -46995   -42909   -38958   -35017 
  -31019   -26972   -22717   -17998   -12556    -6281      375     6153 
    9808    11019    10260     8341     6067     3825     1601     -334 
   -1423    -1856    -2609    -4174    -6269    -9085   -13562   -20186 
  -28118   -35810   -42395   -47577   -51070   -53406   -55783   -58668 
  -61937   -65518   -68785   -70723   -70772   -68841   -65599   -62486 
  -60737   -60840   -62368   -64348   -66002   -66600   -65621   -63705 
  -62056   -61220   -61287   -62168   -63569   -65315   -67214   -69100 
  -71228   -73460   -74910   -75020   -73827   -71771   -69737   -68692 
  -69074   -70761   -73806   -78079   -82201   -84641   -85322   -85043 
  -84445   -83656   -82268   -79829   -75991   -70874   -65507   -60822 
  -57524   -56912   -59889   -66035   -73905   -81150   -85836   -87961 
  -88144   -86272   -82228   -76617   -70704   -65593   -61628   -58464 
  -55184   -51100   -46304   -40981   -35375   -30152   -25980   -23239 
  -21486   -19378   -16002   -11766    -8194    -6282    -5103    -3312 
   -1043      818     2568     4704     5818     4963     2996      602 
    -898       18     2775     6246    10063    13292    14188    11255 
    4602    -4119   -12865   -19129   -20822   -17823   -11714    -5024 
    -332      917    -1276    -5405    -8918   -10335   -10412   -10508 
  -10949   -11563   -12451   -13360   -13579   -12539    -9808    -5657 
   -1272     2287     4308     4502     3139      579    -2072    -3119 
   -1949      876     4094     6173     6542     5825     4806     3584 
    1548    -2235    -8630   -17627   -27868   -37487   -45091   -50290 
  -53841   -56946   -60792   -66422   -73788   -81575   -88310   -92854 
  -94736   -94469   -93207   -92514   -93510   -95938   -98597   -99633 
  -97185   -91322   -83969   -77108   -72139   -69737   -69929   -72218 
  -75502   -78222   -78772   -77103   -75428   -75701   -78011   -81600 
  -85338   -87863   -88343   -86496   -82281   -76448   -70658   -66237 
  -62924   -59647   -55947   -51518   -46079   -40346   -35330   -31071 
  -27253   -23948   -20863   -17259   -13073    -8758    -4525     -807 
    1667     2654     2339      793    -1975    -5857   -10678   -16119 
  -21798   -27301   -32180   -36586   -41364   -46844   -52226   -56440 
  -58922   -59750   -59424   -58561   -58123   -59193   -62193   -66711 
  -71510   -75001   -76365   -76096   -75536   -75828   -77144   -79003 
  -80774   -81573   -80828   -79044   -77457   -76930   -77126   -77158 
  -76727   -76104   -75681   -75274   -73976   -71487   -68654   -66561 
  -66066   -67697   -71176   -75145   -77951   -78688   -77282   -74504 
  -71897   -70792   -71533   -73825   -77056   -80176   -82387   -83580 
  -83622   -82322   -80134   -78040   -76787   -76670   -77545   -78686 
  -79475   -79875   -79887   -79463   -78793   -78342   -78523   -79226 
  -79632   -78570   -75800   -72773   -71330   -72318   -75198   -78178 
  -79939   -80218   -78318   -74074   -68745   -63530   -59466   -57187 
  -56292   -56151   -55967   -54915   -52898   -50468   -48763   -48966 
  -51256   -54546   -56867   -57022   -55843   -54904   -55273   -57125 
  -59516   -61418   -62362   -62027   -60724   -59564   -59706   -61884 
  -65728   -70002   -73860   -76858   -78345   -77401   -73980   -69918 
  -67011   -65657   -65826   -66690   -66925   -66407   -65529   -64594 
  -64172   -63896   -63040   -61789   -60077   -57424   -53576   -48411 
  -42176   -35657   -29932   -25595   -22509   -19947   -16556   -11885 
   -7031    -2841      541     3051     4672     5668     6662     8115 
   10174    12945    16530    20665    24431    26784    27038    25487 
   23605    22707    23489    26204    30244    34518    37892    39261 
   38307    36086    33901    31956    30343    29962    30933    32017 
   32009    30402    27605    24577    21656    18435    14147     8269 
    1726    -3506    -6529    -8116    -9665   -12381   -16747   -22333 
  -28009   -32355   -34809   -36422   -38625   -41888   -46013   -50480 
  -54192   -56188   -56478   -55317   -53014   -50390   -48064   -46276 
  -45367   -45444   -46316   -48141   -51189   -55165   -59555   -63722 
  -66926   -68779   -69216   -68786   -68470   -68696   -69474   -70653 
  -71727   -72140   -71489   -69916   -68418   -67918   -68591   -70105 
  -71699   -72397   -71470   -68883   -65274   -61326   -57702   -54987 
  -53110   -51565   -49988   -48157   -46140   -44317   -42681   -40946 
  -39183   -37732   -37056   -37203   -37452   -37168   -36470   -36038 
  -36362   -37189   -37886   -38076   -37837   -37360   -36904   -37252 
  -39275   -42900   -47164   -50825   -52792   -53039   -52523   -51813 
  -51031   -50106   -48526   -45927   -42510   -39067   -36772   -36401 
  -38227   -42117   -47017   -51279   -53663   -53903   -52872   -52084 
  -52622   -54430   -56797   -58790   -59488   -58730   -56993   -55182 
  -54601   -56002   -59498   -64580   -69609   -72873   -73671   -72441 
  -70626   -69658   -70003   -71032   -71468   -70266   -67229   -63169 
  -59595   -58243   -60181   -64746   -70040   -74139   -75966   -75946 
  -75350   -75088   -75431   -76295   -77480   -78648   -79233   -78667 
  -76878   -74624   -73253   -73875   -76556   -80641   -85194   -88939 
  -90914   -90900   -89276   -86903   -84516   -82578   -81483   -81298 
  -81843   -82837   -83663   -83561   -82287   -79947   -76334   -71301 
  -65035   -57584   -49142   -40335   -31680   -23298   -15103    -7027 
     702     7350    12420    16330    19759    23170    26827    30744 
   34702    38377    41890    45557    48969    51616    53235    53289 
   51844    49834    47828    45851    43850    41671    39407    37632 
   36671    36350    36376    36369    35819    34047    30502    25191 
   18722    12286     7104     3809     2751     3946     6297     8012 
    7931     6001     2754    -1713    -6925   -11109   -14359   -18578 
  -23232   -27655   -33126   -38812   -42873   -45400   -46180   -45348 
  -44319   -43490   -42994   -43429   -44866   -47205   -50167   -53119 
  -55413   -56541   -56517   -55854   -55054   -54609   -54939   -56154 
  -58182   -60883   -63730   -65889   -66886   -66532   -64897   -62595 
  -60206   -58252   -57520   -58449   -61151   -65585   -71018   -76564 
  -81719   -85653   -87397   -86636   -83874   -80412   -77748   -76759 
  -77606   -79890   -82717   -85027   -86236   -86580   -86678   -87172 
  -88499   -90448   -92258   -93392   -94027   -94884   -96789  -100101 
 -104524  -109442  -114328  -118978  -123336  -127263  -130619  -133573 
 -136670  -140316  -144340  -148369  -152402  -156464  -160140  -162933 
 -164639  -165242  -164814  -163686  -162073  -159746  -156674  -152996 
 -148486  -143058  -137182  -131404  -126028  -121171  -116702  -112276 
 -107347  -101478   -95073   -88899   -83015   -77018   -70552   -63437 
  -55791   -47964   -40284   -32911   -25983   -19540   -13556    -8184 
   -3638        6     3179     6487     9893    13254    16674    19971 
   22905    25576    28434    31574    34264    36098    37337    38139 
   38682    38958    38730    38169    37848    38616    41107    44826 
   48475    51028    52186    52323    52157    52148    52197    51862 
   50671    48406    45374    42263    39851    38964    40271    43675 
   47900    51482    53670    53998    52503    49989    47200    44635 
   42990    42382    41681    40387    39172    37831    36065    34725 
   34161    34109    34597    35076    34859    34226    32945    30258 
   26599    22564    18349    14624    11845     9975     8810     7840 
    6463     4322     1538    -1340    -3877    -5905    -7436    -8927 
  -10855   -13445   -16919   -20990   -24869   -27964   -30054   -31218 
  -31630   -31570   -31574   -31878   -32450   -33462   -34614   -35588 
  -36789   -38311   -39911   -41316   -42025   -41922   -41263   -40235 
  -38947   -37801   -37421   -38199   -40726   -45231   -50687   -55776 
  -59755   -62524   -64387   -65995   -68033   -70470   -73267   -76777 
  -80910   -85216   -89181   -92706   -96068   -99071  -101818  -104887 
 -108247  -111799  -115621  -119489  -123427  -127895  -133025  -138339 
 -143385  -148031  -152216  -155696  -158184  -159907  -160981  -161069 
 -160352  -159291  -158080  -156985  -156357  -156361  -156683  -156608 
 -155587  -153407  -150168  -146190  -141793  -137415  -133538  -130455 
 -128034  -125572  -122704  -119821  -116960  -114119  -111709  -109270 
 -106193  -102921   -99537   -95549   -91108   -86247   -80423   -74021 
  -68220   -63464   -59669   -56969   -55404   -54552   -53789   -52350 
  -49626   -45920   -41926   -38120   -34980   -32388   -30026   -29207 
  -31128   -33512   -34265   -35284   -37349   -38457   -38658   -38742 
  -37888   -36822   -37044   -38009   -38991   -39888   -41389   -44266 
  -48075   -52906   -57863   -61037   -62957   -64243   -64249   -63285 
  -62005   -60701   -59894   -59982   -60516   -60811   -61012   -61874 
  -63563   -65018   -65181   -64080   -61789   -58180   -54065   -50554 
  -47507   -44098   -40002   -34773   -27881   -19849   -11367    -2764 
    4833    10294    13593    15179    16002    17346    19846    23447 
   27793    32437    37033    41447    45554    49249    52933    57128 
   61918    67149    71994    75161    76473    76625    76016    75046 
   74112    73368    72979    72911    72665    71497    69184    66288 
   63411    60722    58138    55879    54382    53709    53840    54866 
   56440    57887    58840    59126    58555    57283    55630    53618 
   51182    48429    45702    43348    41419    39889    38762    37805 
   36737    35465    33754    31668    29915    28531    26705    23981 
   20354    16062    11545     6819     1545    -3898    -8821   -13427 
  -17965   -22217   -26364   -30606   -34909   -39698   -45368   -51399 
  -57244   -63542   -70974   -79003   -86790   -93828   -99951  -105563 
 -110806  -115270  -118836  -121469  -123194  -124516  -125723  -126546 
 -127038  -127917  -129427  -131262  -133716  -136479  -138311  -138909 
 -138636  -138013  -137689  -137923  -138431  -138484  -138256  -138423 
 -138125  -136703  -135397  -135064  -134951  -134546  -134185  -133746 
 -133328  -133783  -134850  -135378  -135174  -134613  -133934  -133453 
 -132910  -131419  -128421  -124076  -119100  -113692  -107823  -102308 
  -97633   -93791   -90760   -88002   -85219   -82279   -78906   -75502 
  -72469   -70009   -68587   -68014   -68081   -69170   -70607   -71509 
  -72564   -74167   -75592   -76749   -77985   -79707   -82076   -83925 
  -84519   -84634   -84662   -84444   -83942   -83143   -82341   -81826 
  -81521   -81442   -81512   -81370   -81185   -81324   -81288   -80459 
  -79081   -77654   -76149   -74148   -71707   -69239   -66680   -63844 
  -60812   -57555   -54122   -50985   -48636   -46843   -44821   -42164 
  -38717   -34542   -30745   -28308   -26660   -25128   -23802   -22709 
  -22036   -21624   -20632   -19280   -18171   -16811   -15012   -13049 
  -11154    -9709    -8362    -6609    -4649    -2263      890     4613 
    8911    13668    18160    21636    23986    25609    26659    27570 
   28850    29886    30111    30119    30532    31175    31561    31431 
   30920    30356    29640    28328    26565    24814    22840    20385 
   18071    16409    14957    13184    11031     8521     5809     3101 
     447    -1961    -3765    -4899    -5902    -7216    -8517    -9463 
  -10295   -11408   -12665   -13266   -12841   -11864   -10678    -9546 
   -9028    -9189    -9556    -9792    -9591    -8706    -7122    -5065 
   -2802     -239     2346     4205     5341     6052     6571     7433 
    8488     8841     8063     6386     4207     2095      839      648 
     935     1257     1453     1379     1281     1074      287     -682 
   -1537    -2523    -3652    -5471    -8630   -13050   -18304   -23771 
  -28849   -32912   -35560   -37121   -38229   -39135   -39564   -39517 
  -39825   -41001   -42471   -43913   -45662   -47672   -49919   -52893 
  -56847   -61212   -65045   -67876   -69672   -70826   -72044   -73310 
  -74262   -75192   -76506   -78439   -81337   -85033   -88850   -92642 
  -96614  -100669  -104705  -108528  -111619  -113897  -116040  -118516 
 -121412  -124888  -128654  -132143  -135093  -137256  -138836  -140357 
 -141561  -142227  -143019  -144155  -145271  -146360  -147119  -146852 
 -145424  -142966  -139356  -134732  -129599  -124281  -119043  -114131 
 -109495  -104959  -100345   -95550   -90465   -85070   -79821   -74801 
