Origin Time       2011/03/11 14:46:00
Lat.              38.103
Long.             142.860
Depth. (km)       24
Mag.              9.0
Station Code      SZO011
Station Lat.      35.2129
Station Long.     138.6015
Station Height(m) 195
Record Time       2011/03/11 14:47:42
Sampling Freq(Hz) 100Hz
Duration Time(s)  300
Dir.              E-W
Scale Factor      3920(gal)/6182761
Max. Acc. (gal)   66.199
Last Correction   2011/03/11 14:47:27
Memo.             
[...]
  -30145   -31161   -28930   -24170   -18474   -13474   -10082    -8441 
   -8141    -8422    -8617    -8357    -7302    -5383    -2917     -131 
    2762     5751     9348    13771    18668    23558    27701    30480 
   31750    31240    28577    23577    15985     5967    -5395   -16674 
  -26519   -33960   -38866   -41446   -41863   -40743   -39136   -38081 
  -38251   -39561   -41256   -42221   -41169   -37227   -30567   -22405 
  -14698    -9516    -8273   -11331   -17763   -25469   -32023   -35575 
  -35277   -31405   -25154   -17954   -10994    -5204     -852     2562 
    5758     9262    13030    16509    18931    19227    16642    11561 
    5265     -796    -5414    -7817    -7816    -5811    -2655      572 
    2854     3615     3052     1987     1375     1717     2519     2370 
    -170    -5648   -13473   -22294   -30481   -36711   -40319   -41286 
  -40133   -37559   -33998   -29682   -24797   -19347   -13329    -7106 
   -1287     3389     6136     6616     5173     2473     -733    -3777 
   -6437    -8876   -11250   -13601   -15875   -17963   -19930   -22091 
  -24734   -27980   -31858   -36222   -40699   -44702   -47533   -48700 
  -48022   -45777   -42700   -39265   -35559   -31621   -27298   -22545 
  -17790   -13686   -11003   -10616   -13076   -18165   -24822   -31437 
  -36557   -39413   -39898   -38458   -36074   -33823   -32165   -30687 
  -28386   -24251   -17837    -9425      211    10211    19661    27454 
   32863    35943    37082    36627    34533    30212    23250    13894 
    3006    -7750   -16332   -21440   -22944   -21729   -19334   -17043 
  -15531   -15303   -16550   -18997   -22201   -25582   -28731   -31634 
  -34087   -35488   -35012   -31579   -24596   -14764    -3768     6409 
   14202    18841    19861    16937    10342      852   -10382   -21650 
  -31305   -38305   -41887   -41952   -39428   -35610   -31779   -28930 
  -27315   -26793   -27153   -27889   -28312   -27672   -25408   -21662 
  -17108   -12515    -8442    -4966    -1851     1035     3710     6280 
    8896    11544    14092    16419    18401    19742    19787    17985 
   14439     9562     3825    -2096    -7575   -12275   -15917   -18101 
  -18215   -15389    -9042      415    11421    21582    28411    30319 
   27138    19963    10713     1690    -5309    -9705   -11813   -12633 
  -13441   -14839   -16813   -19027   -20997   -22700   -24345   -25961 
  -27559   -28990   -30050   -30935   -32035   -33678   -36082   -39054 
  -41955   -43902   -44083   -42164   -38253   -32571   -25285   -16659 
   -7234     2304    11246    18912    24680    28008    28605    26551 
   22391    17180    12151     8223     5670     3951     2162     -361 
   -4138    -9825   -17796   -27585   -37964   -47116   -53128   -54708 
  -51421   -43862   -33594   -22715   -13413    -7170    -4186    -3881 
   -5502    -8314   -11870   -15688   -18756   -19971   -18782   -15319 
  -10266    -4704      233     3676     4909     3323    -1350    -8791 
  -17885   -26969   -34354   -38551   -38511   -34078   -26365   -17624 
  -10356    -6365    -6397   -10136   -16358   -23073   -27999   -29368 
  -26245   -18713    -8060     3760    14714    22763    26216    24108 
   16128     2772   -14421   -33076   -50308   -63469   -71000   -72542 
  -68676   -60538   -49573   -37670   -26836   -18328   -12497    -8996 
   -6939    -5407    -3716    -1436     1275     3875     6242     8945 
   12895    18709    25862    32764    37949    40443    39466    34777 
   26772    16270     4380    -7596   -17987   -25277   -29121   -30013 
  -28701   -26250   -23398   -20391   -17691   -15436   -13262   -11175 
   -9233    -7544    -6689    -6851    -8067   -11012   -16138   -23208 
  -31231   -38377   -42892   -43725   -40740   -34888   -27713   -21133 
  -17245   -17283   -21201   -28073   -36220   -43484   -47805   -47566 
  -41806   -30710   -15822      344    14636    24168    27457    24251 
   15230     2086   -12779   -26248   -35051   -37091   -31875   -20629 
   -6354     7296    17133    20832    17556     8290    -4605   -18156 
  -29624   -37136   -40025   -38806   -34658   -28895   -22987   -18324 
  -15649   -15163   -16572   -18913   -21236   -23267   -25212   -27477 
  -30328   -33410   -36119   -38172   -39433   -39856   -39508   -38319 
  -36036   -32263   -26665   -19232   -10177     -272     8898    15785 
   19443    19842    18043    15259    12301     9734     7705     5977 
    4170     1913     -925    -3942    -6227    -6786    -4951    -1009 
    3277     5184     2261    -6598   -20566   -36876   -51438   -60246 
  -60563   -51203   -33133    -9890    13585    32539    43673    46236 
   41713    32837    23035    15471    12153    13676    19080    26063 
   31850    33836    29959    19758     4973   -11169   -25018   -33946 
  -37165   -35429   -30630   -24980   -20446   -18714   -20452   -24994 
  -30785   -35612   -37483   -35238   -28113   -16238    -1315    13856 
   26040    32457    31912    24956    13332     -650   -14806   -26979 
  -34781   -36649   -32825   -25053   -16249   -10058    -9456   -15617 
  -27772   -43487   -59392   -72210   -79377   -79596   -73342   -62382 
  -49032   -35701   -24237   -15744   -10591    -8175    -7407    -7445 
   -7746    -7798    -7057    -5165    -1991     2010     5414     6601 
    4386    -2040   -12760   -26846   -42504   -57015   -67043   -70050 
  -65407   -54128   -38262   -21007    -6567     1409     1381    -5573 
  -16373   -27275   -35076   -37915   -35304   -27727   -16269    -2176 
   13086    27460    38624    44964    46204    43098    36822    28680 
   19664    10494     2507    -2402    -2907     1195     9025    18816 
   28372    35742    39656    40063    38310    36006    33965    32090 
   29195    23396    13354    -1233   -19663   -39985   -59369   -75092 
  -85170   -88806   -86611   -80201   -71560   -62208   -52620   -42658 
  -32081   -20605    -8241     4558    17000    27815    35606    39572 
   39665    36305    30323    22949    15572     9297     4584     1307 
    -939    -2692    -4407    -6090    -7323    -7713    -7021    -5208 
   -2466      770     3306     3191    -1251   -10544   -23553   -37642 
  -49719   -57151   -58160   -51907   -38482   -19409     1779    20403 
   32336    35365    29908    18759     6326    -2931    -5981    -1512 
    9536    24110    38564    49671    55337    54857    48457    37172 
   22743     7260    -7237   -19323   -28475   -35075   -40215   -44978 
  -49937   -55208   -60310   -64355   -66647   -66892   -65137   -61571 
  -56369   -49901   -42910   -36533   -31978   -29827   -29896   -31561 
  -33987   -36427   -38357   -39429   -39869   -40798   -43621   -49229 
  -57633   -68030   -79278   -90126   -99105  -104380  -103840   -96149 
  -81603   -61478   -36929    -8888    20926    49351    72272    85915 
   88876    82480    69054    51479    33204    17103     5035    -2452 
   -6553    -9121   -11648   -15389   -21158   -28755   -37230   -45485 
  -52175   -56082   -56774   -54530   -49985   -43506   -35211   -25499 
  -14892    -4087     5705    12867    15724    13288     5946    -4707 
  -16330   -26373   -32995   -35633   -34869   -32451   -31109   -33025 
  -38492   -46213   -53973   -59804   -62944   -63236   -60606   -54825 
  -45400   -32278   -16288      730    16308    28427    36049    39242 
   39053    36930    34380    32318    30615    28697    25973    21984 
   16647    10171     2939    -4576   -11846   -18160   -22972   -26156 
  -27699   -27584   -25792   -22353   -17639   -12304    -7100    -3156 
   -1582    -2431    -4887    -8078   -11248   -13942   -16234   -18683 
  -22024   -26832   -33185   -40345   -47046   -51804   -53245   -50573 
  -43132   -30393   -12698     8636    30859    49839    62031    65848 
   61612    51372    38250    25698    16625    12313    12413    15535 
   19619    22421    22231    18190    10034    -1934   -16875   -33305 
  -48856   -61133   -68690   -71154   -69255   -64125   -56539   -47382 
  -37806   -28901   -21521   -15577   -10055    -4109     2483     9267 
   15320    19955    22667    22776    19851    14048     5896    -4152 
  -15985   -29486   -44193   -59353   -73720   -85571   -93294   -95749 
  -92566   -84291   -72113   -57682   -43064   -30473   -21790   -18115 
  -19273   -23681   -29124   -33522   -35235   -33493   -28683   -21837 
  -14203    -6933     -633     4433     8444    12259    16741    22220 
   28140    32908    34915    33584    29203    22748    15898    10010 
    5255     1094    -3115    -8086   -14213   -21005   -27307   -31849 
  -33952   -33789   -31880   -28792   -24818   -20017   -14608    -8932 
   -3825     -830    -1313    -5678   -13212   -22286   -30775   -36698 
  -38912   -37104   -31311   -22139   -10941      717    11405    20046 
   26197    29948    31449    30416    26162    17960     5222   -11890 
  -31827   -52147   -70264   -84129   -92944   -97155   -97835   -95873 
  -91445   -84149   -73661   -60457   -45882   -31827   -20370   -13184 
  -11061   -13615   -19311   -26198   -32643   -37622   -40806   -42429 
  -43041   -43321   -43795   -44388   -44618   -44211   -42970   -40805 
  -38074   -35078   -31863   -28700   -25566   -21782   -17020   -11618 
   -6200    -1798      646     1165      651      417     1788     5295 
   10610    16919    23002    27667    29801    28449    23641    16368 
    7808    -1076    -9822   -18242   -25824   -32050   -36823   -39932 
  -40894   -39451   -35736   -30095   -22800   -13919    -3565     7974 
   20351    33157    45439    55159    59996    58836    51958    40360 
   25474     9178    -6634   -20660   -31921   -39499   -42961   -42686 
  -39983   -36427   -33125   -30457   -27601   -23147   -16294    -7014 
    4092    16063    27771    37827    44647    46955    44513    38257 
   29825    21200    14171     9570     7272     6601     6395     5437 
    2910    -1734    -8562   -16860   -25385   -32695   -37514   -38846 
  -36017   -29467   -21195   -13954   -10441   -12750   -21476   -35433 
  -52026   -67717   -79250   -84635   -83077   -74909   -61505   -44860 
  -27145   -10388     3525    12909    16715    14802     7933    -2132 
  -12676   -20633   -23599   -20817   -13400    -3649     5595    11703 
   13065     9108      266   -11906   -25157   -37047   -45488   -49182 
  -47599   -41144   -31395   -20960   -12753    -8822    -9801   -15022 
  -22776   -30872   -37143   -39733   -37556   -30698   -20334    -8288 
    3380    12613    17912    18836    15808    10133     3955     -590 
   -1910      720     6784    14920    23482    30894    35921    37798 
   36376    31951    24853    15384     4050    -8353   -21019   -33248 
  -44129   -52522   -57441   -58299   -55026   -48246   -39313   -30097 
  -22665   -18700   -18934   -22925   -29086   -35059   -38321   -36962 
  -30340   -19221    -5867     6442    14814    17762    15311     8815 
     687    -6204    -9464    -7952    -2028     6657    15665    22619 
   25908    25146    21289    15904    10381     5664     2150     -107 
   -1137    -1031       40     1923     4262     6370     7565     7114 
    4427     -296    -6212   -12047   -16194   -17328   -14824    -8939 
    -728     8441    17244    24764    30759    35359    38570    40344 
   40733    39746    37619    34739    31123    26618    21118    14601 
    7291     -635    -8962   -17080   -24447   -30850   -36276   -41032 
  -45470   -49576   -53025   -55214   -55517   -53743   -50024   -44567 
  -37668   -29636   -20752   -11425    -2244     6064    12624    16776 
   18424    17950    16256    14442    13269    13181    14354    16663 
   19542    21847    22232    19604    13457     4129    -7326   -19546 
  -31098   -40658   -47283   -50327   -49507   -45516   -39615   -32705 
  -25550   -18671   -12029    -6195    -2524    -1528    -2671    -5163 
   -7966   -10200   -11597   -11966   -11192    -9573    -7461    -5384 
   -4143    -4054    -5166    -7651   -11272   -15729   -20952   -26673 
  -32685   -38741   -44373   -49353   -53481   -56465   -58284   -59065 
  -58814   -57382   -54445   -49573   -42421   -32829   -20948    -7400 
    6794    20125    30605    36535    37087    32301    23273    12115 
    1384    -6724   -10951   -11163    -8514    -5082    -3064    -4092 
   -8776   -16766   -26999   -37799   -47429   -54644   -58821   -60148 
  -59473   -58083   -57593   -59051   -62513   -67470   -73037   -78395 
  -83028   -86638   -89094   -90024   -88720   -84289   -75829   -63005 
  -46657   -29010   -12869     -391     7614    11736    13053    12264 
    9778     5931      994    -4645   -10301   -15298   -19217   -21740 
  -22796   -22602   -21505   -20181   -19411   -19621   -20931   -22969 
  -24824   -25581   -24455   -21064   -15766    -9091    -1703     5204 
   10745    14728    16843    16862    15210    12501     9294     6126 
    3120      134    -2840    -5959    -9630   -13904   -18056   -20933 
  -21829   -20907   -18730   -16073   -14142   -13837   -15200   -17982 
  -21744   -25762   -29359   -31882   -32744   -31684   -28611   -23591 
  -17228   -10531    -4580     -574      680     -694    -4072    -8594 
  -12998   -15928   -16427   -14029    -8753    -1288     7093    15027 
   21361    25183    26003    23893    19406    13540     7462     2163 
   -1691    -3981    -5132    -5903    -7122    -9449   -13314   -18782 
  -25376   -32168   -38205   -42894   -46306   -49260   -52334   -55383 
  -58088   -59789   -59624   -56875   -50533   -39686   -24300    -5263 
   15781    36872    56254    72510    84548    91549    93234    90267 
   84097    76349    68256    60316    52420    44382    36205    28048 
   20244    13105     6842     1876    -1178    -2102    -1457     -434 
    -280    -1673    -4720    -9116   -13926   -17910   -20187   -20354 
  -18590   -15826   -13448   -12563   -13460   -15588   -18012   -20085 
  -21554   -22456   -23131   -23789   -24382   -24717   -24177   -22034 
  -17962   -12192    -5752     -152     3390     4543     3824     1915 
    -515    -2708    -4072    -4098    -2380     1104     6102    12211 
   18715    24570    28853    30982    30588    27686    22579    15785 
    8214      728    -6084   -11799   -16350   -19974   -22975   -25636 
  -28099   -30407   -32604   -34596   -36136   -37308   -38820   -41367 
  -45123   -49846   -54643   -58398   -60477   -60236   -57288   -52189 
  -45740   -38694   -32050   -26576   -22609   -20117   -18664   -17854 
  -17310   -16605   -15923   -15739   -16077   -16818   -17734   -18097 
  -17137   -14615   -10606    -5318      788     7143    13142    18241 
   22038    24147    24351    22600    18680    12586     5085    -2685 
   -9616   -14614   -16960   -16618   -14181   -10694    -7232    -4452 
   -2641    -2013    -2696    -4602    -7503   -11372   -16390   -22289 
  -28422   -34135   -38402   -40195   -39043   -34870   -28075   -19546 
  -10506    -2305     4081     8212    10195    10727    10611    10287 
    9934     9588     9138     8531     7747     6594     4940     2811 
     170    -2963    -6470   -10188   -13584   -15885   -16494   -15088 
  -11892    -7577    -2796     1874     5959     9306    12004    13981 
   15082    15154    13789    10721     6045      208    -5681   -10512 
  -13855   -15595   -15794   -14780   -13077   -11486   -10810   -11371 
  -13133   -16086   -20194   -25214   -30676   -35790   -39732   -42116 
  -42852   -42123   -40403   -37944   -34814   -31334   -27959   -24990 
  -22577   -20658   -18861   -16802   -14211   -10822    -6516    -1425 
    3975     9002    13078    15720    16392    14814    11343     6778 
    2106    -1598    -3679    -4209    -3746    -3262    -3854    -6266 
  -10892   -17561   -25478   -33755   -41419   -47519   -51618   -53577 
  -53360   -51103   -46959   -41068   -33641   -25114   -16260    -7940 
    -935     3970     6192     5603     2392    -3025    -9859   -17004 
  -23154   -27007   -27703   -25182   -20210   -14151    -8453    -4157 
   -1678     -742     -685     -981    -1499    -2341    -3358    -4158 
   -4378    -3635    -1817      735     3502     5843     7225     7589 
    7319     7222     8080    10002    12654    15423    17463    18217 
   17384    14901    11308     7504     4504     3347     4566     7977 
   13004    18795    24191    28123    29921    29324    26674    22628 
   17736    12550     7415     2139    -3720   -10314   -17361   -24123 
  -29540   -32808   -33754   -32816   -31011   -29635   -29670   -31549 
  -35092   -39524   -43908   -47286   -48825   -48266   -45717   -41567 
  -36593   -31702   -27802   -25663   -25725   -27816   -31249   -35252 
  -38956   -41593   -42774   -42373   -40595   -37909   -34702   -31050 
  -26810   -21773   -15772    -8907    -1598     5429    11262    15185 
   16997    17043    15861    13785    10896     7082     2157    -3799 
  -10355   -17075   -23646   -29835   -35577   -40865   -45483   -48977 
  -50887   -50930   -48997   -45234   -40132   -34377   -28688   -23671 
  -19501   -15942   -12661    -9338    -5543     -975     4333    10222 
   16159    21092    24240    25415    24748    22745    19975    16656 
   12827     8389     3149    -2752    -8624   -13519   -16707   -17986 
  -17782   -17000   -16826   -18403   -22275   -28210   -35338   -42368 
  -47981   -51251   -52000   -50738   -48406   -46288   -45485   -46391 
  -48810   -51945   -54358   -54535   -51235   -43646   -32106   -18340 
   -4505     7513    16393    21764    24070    24217    23304    22177 
   21262    20633    19985    18735    16315    12498     7528     1929 
   -3728    -8733   -12190   -13486   -12593    -9773    -5598    -1042 
    2947     5502     5876     3884      113    -4396    -8516   -10982 
  -10741    -7395    -1092     7209    15788    22937    27336    28292 
   25970    21131    14923     8830     4323     2470     3597     7031 
   11387    15235    17413    17151    14336     9486     3474    -2647 
   -7845   -11477   -13285   -13229   -11605    -8864    -5611    -2749 
   -1025     -810    -2016    -3871    -5347    -5672    -4305    -1014 
    3955     9919    15838    20739    24256    26389    27430    28214 
   29577    31948    35238    38701    41379    42378    40987    36933 
   30237    21303    11060      798    -7905   -13772   -16267   -15392 
  -11785    -6491     -535     4956     8836    10515    10231     8595 
    6352     4289     2770     2104     2706     4436     6879     9621 
   11980    13372    13267    10887     5643    -2479   -12533   -22535 
  -30495   -35335   -36854   -35477   -32095   -27796   -23662   -20592 
  -19030   -18967   -20042   -21526   -22731   -23360   -23400   -23154 
  -23161   -23937   -25759   -28550   -32014   -35703   -39053   -41507 
  -42555   -41920   -39752   -36622   -33320   -30440   -28283   -26958 
  -26204   -25672   -25333   -25289   -25667   -26527   -27662   -28710 
  -29374   -29549   -29241   -28505   -27626   -26893   -26309   -25936 
  -25914   -26281   -27187   -28731   -30744   -32959   -35030   -36562 
  -37257   -37022   -35924   -34153   -32273   -31057   -31056   -32553 
  -35465   -39396   -43686   -47210   -48802   -47815   -44035   -37784 
  -30050   -22005   -14796    -9545    -6837    -6482    -7741    -9548 
  -10884   -11310   -10841    -9421    -7063    -3983     -475     2835 
    5161     6170     5970     4895     3371     1536     -614    -2895 
