Origin Time       2011/03/11 14:46:00
Lat.              38.103
Long.             142.860
Depth. (km)       24
Mag.              9.0
Station Code      SZO028
Station Lat.      34.9522
Station Long.     139.1379
Station Height(m) 9
Record Time       2011/03/11 14:47:49
Sampling Freq(Hz) 100Hz
Duration Time(s)  300
Dir.              U-D
Scale Factor      3920(gal)/6182761
Max. Acc. (gal)   16.217
Last Correction   2011/03/11 14:47:34
Memo.             
[...]
  -59609   -60758   -61861   -62447   -62309   -62387   -63049   -62957 
  -61422   -59109   -56767   -55300   -54740   -54252   -54058   -54101 
  -53160   -51365   -50200   -50371   -51603   -53269   -54357   -53647 
  -51251   -49567   -50449   -52829   -54843   -55672   -55525   -55675 
  -57227   -59418   -60294   -59249   -57379   -55711   -55188   -56238 
  -57115   -56010   -54008   -53246   -54246   -56064   -57309   -57171 
  -56083   -55062   -54517   -54174   -53742   -53189   -53075   -54150 
  -56190   -58294   -59617   -59494   -58171   -56748   -55822   -55058 
  -54198   -53917   -54953   -56739   -57300   -55228   -51892   -49244 
  -47084   -44921   -42910   -41055   -40034   -40584   -42186   -43939 
  -45385   -47361   -51520   -56468   -58513   -57646   -56610   -55952 
  -55239   -54906   -54389   -52569   -50160   -49270   -50709   -52767 
  -53437   -52590   -51243   -50734   -51964   -54140   -56121   -58016 
  -59775   -61009   -61877   -61791   -60067   -57636   -55461   -54217 
  -55248   -57992   -58996   -56714   -54187   -54408   -56930   -60291 
  -63159   -64119   -63775   -64195   -65137   -64830   -63683   -62779 
  -61436   -60147   -61084   -62969   -62017   -58694   -56546   -56210 
  -56003   -55162   -54294   -54357   -55075   -55303   -54647   -53383 
  -52507   -53128   -54171   -53023   -49581   -47216   -47773   -49050 
  -49668   -50608   -51661   -52612   -54144   -55108   -54672   -54324 
  -54697   -55830   -58376   -60798   -60596   -57982   -55082   -54000 
  -55136   -56598   -56723   -55354   -53483   -53372   -55397   -56365 
  -54892   -53192   -53072   -55002   -57196   -56204   -52636   -50489 
  -50947   -52351   -52833   -51971   -51593   -53500   -57080   -59468 
  -58493   -55456   -53238   -53017   -54011   -54846   -54486   -52962 
  -52114   -53665   -56159   -57018   -56402   -56041   -56714   -57835 
  -58158   -57610   -57631   -58761   -59733   -59553   -58613   -57428 
  -55965   -54488   -53137   -50880   -47932   -46952   -48571   -50487 
  -51514   -52057   -53031   -55338   -58383   -60629   -61228   -60441 
  -59459   -59061   -58662   -57213   -54719   -52877   -52874   -53039 
  -51362   -48916   -48191   -49384   -50048   -49248   -49699   -52461 
  -54755   -55741   -57154   -58941   -59555   -58185   -55538   -53106 
  -51396   -50258   -49983   -50499   -50705   -49618   -47829   -47188 
  -48951   -52469   -55852   -57648   -57673   -57141   -57805   -59699 
  -60844   -60362   -59676   -59632   -59209   -57537   -55366   -54370 
  -55005   -55861   -55673   -54676   -54004   -54742   -57234   -59944 
  -60140   -58044   -57217   -59178   -61713   -62615   -61976   -60907 
  -60072   -59342   -57500   -53835   -50017   -48607   -50686   -54638 
  -56931   -56126   -54930   -55693   -56811   -56429   -54976   -52842 
  -50613   -49829   -50371   -49882   -47222   -44642   -44410   -45525 
  -46393   -46725   -46044   -45084   -46355   -49672   -51511   -50907 
  -50849   -53156   -56846   -60561   -62410   -60236   -55341   -52014 
  -51797   -52243   -51355   -49871   -49183   -49678   -51338   -53553 
  -54442   -53283   -52387   -53174   -53730   -52749   -50867   -48017 
  -44840   -44403   -47489   -50221   -50226   -49998   -51575   -53277 
  -53341   -51585   -48002   -44341   -43449   -44608   -44990   -44991 
  -46060   -46563   -45325   -44409   -44886   -45104   -44718   -45415 
  -47199   -49188   -52106   -55309   -56360   -55211   -53972   -53807 
  -53843   -52329   -49313   -46411   -44122   -41907   -39392   -37060 
  -36959   -40423   -45039   -47261   -47332   -47957   -49836   -52016 
  -53587   -53802   -53488   -53910   -53825   -52068   -51125   -53335 
  -56443   -57396   -56270   -54088   -51414   -48775   -46262   -44024 
  -42946   -43892   -46384   -48805   -49803   -49235   -48503   -49058 
  -50807   -52815   -53998   -53736   -52702   -52340   -53331   -54791 
  -56226   -58279   -60221   -60850   -60697   -60139   -58456   -55350 
  -51647   -49215   -49623   -52354   -54921   -55583   -55433   -55948 
  -56839   -57183   -56151   -54369   -53743   -54146   -54027   -53587 
  -53502   -52871   -51433   -50636   -50675   -50035   -48240   -46912 
  -47752   -49649   -50252   -49843   -49794   -49852   -50192   -51710 
  -53486   -54611   -55192   -54439   -52818   -52464   -54187   -57454 
  -60467   -61050   -59407   -57396   -56185   -55741   -55219   -53778 
  -51297   -48709   -47174   -46701   -47321   -49613   -52670   -55001 
  -56292   -56422   -55619   -54833   -54314   -53844   -54103   -55739 
  -57828   -59108   -59586   -59221   -57631   -55958   -55451   -55665 
  -55989   -55999   -55319   -54479   -53983   -53194   -51181   -48417 
  -46411   -45574   -45602   -45877   -45106   -43540   -42610   -42559 
  -43492   -45607   -47995   -49684   -50612   -51239   -52031   -52967 
  -53554   -53354   -52896   -53366   -54259   -53920   -52770   -52603 
  -53380   -53503   -52865   -52454   -51497   -49073   -46328   -44422 
  -44130   -46050   -48245   -48418   -47679   -47647   -47740   -47722 
  -48726   -50755   -52510   -53911   -55868   -58177   -59499   -58455 
  -55443   -53225   -53005   -52896   -51880   -50322   -48686   -48316 
  -49050   -48797   -48133   -49242   -51051   -51405   -51073   -51747 
  -53583   -55312   -55131   -53068   -51263   -51204   -52711   -54478 
  -54956   -53882   -52481   -51787   -51480   -51194   -51145   -50488 
  -48708   -47653   -48432   -49399   -48926   -47565   -47007   -47751 
  -48881   -49523   -49398   -49493   -50803   -51895   -51402   -50775 
  -51621   -53062   -53666   -54117   -55369   -56977   -58961   -61485 
  -63954   -65980   -67009   -66411   -65121   -64820   -64945   -63665 
  -61711   -60819   -60605   -60421   -60056   -59202   -58936   -60507 
  -63901   -67935   -69688   -67662   -64113   -61352   -59542   -57846 
  -55966   -54552   -53471   -52084   -50763   -49240   -46488   -43314 
  -41477   -41248   -41882   -42970   -44471   -45863   -46648   -47523 
  -49043   -50618   -51966   -53627   -56034   -58394   -59471   -59401 
  -58305   -56023   -54941   -57210   -60236   -60516   -58528   -56797 
  -56455   -57027   -57476   -56558   -54483   -53693   -55006   -56085 
  -55245   -52936   -50321   -48424   -47304   -45878   -43375   -40506 
  -38583   -38468   -40760   -45425   -50980   -55624   -59238   -62580 
  -65399   -67067   -67290   -65926   -63558   -61365   -60265   -60088 
  -59286   -56957   -54109   -51513   -49021   -46910   -45595   -45554 
  -47100   -49030   -50062   -51002   -53322   -56638   -58985   -59346 
  -58217   -56840   -56812   -57617   -56458   -52709   -48483   -45476 
  -44221   -44228   -44718   -45502   -46407   -47670   -49320   -49986 
  -49115   -47849   -47274   -47948   -49470   -50937   -52219   -53140 
  -53427   -53668   -54139   -54209   -53424   -52253   -52228   -54000 
  -55981   -57091   -57667   -57098   -55175   -53930   -54717   -56641 
  -58675   -60448   -61458   -60972   -59133   -58028   -59588   -62653 
  -64436   -63658   -61041   -58050   -55547   -53475   -51390   -49258 
  -47942   -47674   -47611   -48066   -49224   -49969   -51078   -53290 
  -54506   -54295   -54869   -57019   -59343   -60360   -61178   -63632 
  -66092   -66490   -65671   -64199   -61982   -60064   -58790   -57833 
  -57293   -56907   -56849   -57200   -56731   -55103   -53360   -52113 
  -51499   -51440   -51440   -50967   -50201   -49583   -49013   -48890 
  -50195   -52517   -54093   -54204   -53592   -52745   -51475   -49384 
  -46935   -45226   -43887   -42704   -42494   -42777   -43441   -44967 
  -45877   -45307   -45277   -47758   -52321   -56994   -60308   -62688 
  -65313   -67675   -68131   -66451   -64158   -62689   -61591   -59876 
  -58627   -59048   -60574   -62666   -64171   -63249   -60737   -59106 
  -58560   -57751   -56719   -56616   -57176   -57323   -57617   -59412 
  -62278   -63557   -61933   -59448   -57647   -56153   -54623   -52532 
  -49695   -47122   -45885   -46361   -48183   -50333   -51910   -52798 
  -53064   -52508   -51356   -50360   -50122   -50555   -51315   -53053 
  -56382   -59775   -61696   -62964   -64008   -63510   -61222   -58704 
  -57563   -57846   -58135   -58133   -58625   -59173   -59588   -60506 
  -61034   -59949   -57752   -56032   -56293   -58050   -58769   -57338 
  -55183   -53507   -52487   -52518   -53582   -54673   -54858   -54090 
  -52493   -50188   -49264   -51371   -54156   -55646   -57153   -59705 
  -61609   -60463   -57688   -56553   -56903   -57288   -56997   -55465 
  -54048   -54732   -57158   -59777   -61410   -61392   -60432   -60273 
  -61341   -62571   -63719   -65314   -66925   -67738   -67769   -67325 
  -66193   -63941   -60871   -57867   -55429   -53118   -50240   -47376 
  -45570   -45021   -46094   -48637   -50932   -51785   -51610   -51437 
  -52360   -54333   -55589   -54963   -53657   -53366   -53520   -52402 
  -50554   -49904   -50400   -50889   -51188   -50689   -48911   -47756 
  -48565   -50029   -51169   -52084   -52862   -53923   -55486   -56951 
  -57715   -57186   -54573   -50718   -48283   -48104   -48207   -47769 
  -48167   -49313   -49446   -48446   -47807   -48065   -48265   -47805 
  -46913   -45880   -45655   -46594   -47638   -48957   -51681   -55311 
  -57881   -58293   -57850   -57940   -57903   -57170   -55893   -53710 
  -51850   -52623   -55009   -56248   -56093   -55986   -56808   -58517 
  -60629   -61709   -60264   -57298   -54610   -52795   -52392   -52993 
  -53423   -54202   -56130   -57807   -57072   -53497   -48929   -46251 
  -46800   -48943   -50198   -49975   -49899   -52106   -56494   -60448 
  -62143   -61948   -61014   -60731   -61425   -61577   -61037   -61092 
  -60797   -59330   -58655   -59681   -61120   -62201   -62472   -61644 
  -60268   -58064   -54370   -51212   -51589   -54829   -57656   -58901 
  -59253   -58768   -57851   -57143   -56328   -55654   -55654   -55509 
  -54227   -52329   -52124   -54760   -57714   -59155   -60364   -61593 
  -61866   -61217   -59368   -55767   -51269   -47634   -46035   -46075 
  -46427   -46669   -47503   -48962   -49776   -49814   -50689   -52678 
  -54284   -54643   -54344   -54671   -56196   -58136   -59760   -61356 
  -63619   -67212   -71235   -72709   -70584   -67210   -64053   -60189 
  -55434   -51707   -50358   -50169   -49184   -46664   -43620   -42451 
  -44114   -46517   -47351   -46751   -46827   -48836   -51147   -51734 
  -50960   -50427   -51088   -52124   -51655   -49552   -47749   -47538 
  -47951   -46988   -44448   -42788   -44539   -49355   -54478   -57994 
  -60120   -61555   -62624   -63555   -64096   -64022   -64205   -64833 
  -64103   -61343   -58359   -56340   -54628   -52285   -49634   -48072 
  -47811   -48152   -49569   -52451   -55896   -58555   -59593   -59920 
  -61093   -62859   -64163   -64515   -63044   -59677   -56748   -56368 
  -57902   -59169   -58487   -56249   -54389   -53798   -54049   -54147 
  -52698   -49942   -48128   -48462   -49501   -48818   -46004   -43250 
  -42100   -41281   -39175   -36321   -33862   -32308   -32682   -35519 
  -39030   -41017   -41226   -40570   -40316   -41332   -42746   -43737 
  -44587   -45173   -46477   -49757   -52967   -53665   -52428   -51357 
  -52192   -54143   -54336   -52241   -50308   -50523   -53059   -56157 
  -57528   -57057   -55688   -54022   -53040   -52511   -50957   -48324 
  -46502   -47823   -52097   -55999   -57237   -56674   -56386   -57370 
  -58226   -57258   -55333   -53971   -53074   -52233   -51579   -50895 
  -49573   -48152   -48152   -49541   -51022   -52227   -53099   -53352 
  -53654   -55047   -56782   -57149   -57054   -58513   -60397   -60496 
  -58800   -56641   -54820   -52906   -51137   -50936   -52131   -53416 
  -54757   -56351   -57549   -58159   -59078   -61060   -63453   -64962 
  -65178   -64319   -63064   -62638   -62537   -60925   -58781   -58160 
  -57953   -56314   -53468   -50430   -48077   -47187   -47998   -49611 
  -50873   -51916   -53329   -55021   -56552   -57054   -56138   -54768 
  -53916   -53343   -52158   -50543   -49659   -49798   -50457   -50984 
  -51169   -52184   -54851   -57638   -58743   -58595   -58303   -58171 
  -58952   -60800   -61757   -60687   -59193   -58900   -59394   -59433 
  -58557   -57030   -55192   -53816   -53478   -52927   -51199   -50454 
  -52711   -56112   -57780   -57513   -56663   -55875   -55135   -54401 
  -53054   -50617   -48284   -46927   -45634   -44135   -42920   -41875 
  -41533   -42311   -43418   -44700   -46015   -47148   -49193   -52079 
  -54455   -55823   -55968   -55697   -56203   -57152   -57874   -57677 
  -56202   -54724   -54549   -55480   -56525   -56955   -56652   -55687 
  -54831   -55299   -56453   -55964   -53014   -49330   -47350   -48503 
  -51942   -55323   -57572   -59087   -60258   -61231   -61790   -61688 
  -61054   -60152   -59444   -59339   -59671   -59966   -59958   -59435 
  -58121   -56615   -56083   -56084   -55160   -53914   -54502   -57593 
  -61520   -63841   -63895   -62938   -62387   -63458   -65635   -66220 
  -64128   -61530   -60642   -61062   -61218   -60826   -60768   -61859 
  -63490   -63962   -63002   -61444   -59254   -56462   -54308   -53724 
  -53975   -54284   -55107   -56726   -58413   -59467   -59860   -59570 
  -58327   -56150   -52961   -48681   -44397   -41635   -40525   -40339 
  -41071   -42902   -45473   -48239   -50490   -51774   -52165   -51952 
  -51715   -51756   -51714   -51266   -50369   -49021   -47543   -46367 
  -45214   -43562   -41329   -38613   -35588   -32395   -29541   -28388 
  -29882   -33402   -37750   -42315   -46600   -49936   -52219   -53380 
  -52855   -50636   -47511   -44790   -44337   -46955   -51158   -55062 
  -58016   -59982   -61165   -62082   -62783   -62710   -61861   -60828 
  -59611   -57774   -55966   -55575   -56353   -57170   -57968   -58307 
  -57634   -56827   -56246   -54983   -52893   -50844   -49800   -50694 
  -53496   -56808   -59715   -62109   -63147   -62029   -59550   -56839 
  -53815   -50465   -47849   -46530   -45871   -45356   -45415   -46688 
  -48787   -50661   -51733   -52053   -51918   -51678   -51847   -52577 
  -53362   -54103   -54914   -55470   -56395   -58429   -59846   -58982 
  -57313   -56523   -55949   -54586   -53061   -52333   -51717   -50369 
  -49108   -48582   -48502   -49211   -50744   -51682   -51134   -49977 
  -49797   -51359   -53293   -53383   -51630   -50367   -51315   -53256 
  -53493   -51609   -49488   -48424   -48457   -48743   -48013   -46005 
  -43681   -42343   -43358   -46845   -50742   -53250   -54776   -56511 
  -59019   -61939   -64129   -64878   -64397   -63020   -61340   -59671 
  -56967   -52736   -48521   -46195   -45884   -45822   -45173   -45074 
  -45990   -47344   -48603   -49447   -50316   -51463   -52454   -53479 
  -54499   -54776   -54087   -52285   -49618   -47248   -45648   -44738 
  -45007   -46283   -47235   -47291   -47418   -48332   -49348   -49556 
  -49314   -49918   -51701   -53627   -54631   -54362   -53467   -52873 
  -52692   -52919   -53691   -54405   -54431   -53868   -53047   -52570 
  -52445   -51340   -49097   -47741   -48436   -50181   -51548   -52021 
  -51842   -51599   -51839   -52210   -51834   -50782   -49978   -49845 
  -50410   -51816   -53098   -52588   -50293   -47904   -47207   -48477 
  -49999   -50400   -50005   -49448   -48925   -48484   -48593   -49656 
  -50694   -50727   -50424   -50719   -51481   -51649   -50771   -50320 
  -51481   -53144   -53892   -53387   -51821   -50113   -49198   -48847 
  -48383   -47431   -46243   -45839   -46445   -47012   -47298   -47922 
  -48622   -48843   -48938   -49589   -50831   -51900   -52221   -52499 
  -53530   -54968   -56452   -57643   -58250   -58981   -59533   -58237 
  -55370   -52951   -51955   -52010   -52380   -52346   -51877   -52121 
  -53751   -55783   -57128   -57710   -58062   -58704   -59482   -59577 
  -58293   -55942   -54209   -54741   -56852   -58103   -57744   -57624 
  -59015   -60234   -58996   -55986   -53256   -51276   -50411   -51161 
  -52286   -52299   -51305   -50292   -50210   -51467   -53362   -54522 
  -54521   -54194   -54435   -55300   -56171   -56703   -56537   -55388 
  -54589   -55591   -57388   -57800   -55972   -53233   -51536   -50810 
  -49943   -49372   -49945   -51202   -52396   -53533   -54736   -55362 
  -54973   -54841   -56035   -57012   -56098   -53984   -51635   -49134 
  -47026   -45565   -43913   -42033   -40911   -40638   -41027   -42398 
  -44200   -46016   -48730   -52232   -55111   -56961   -58389   -59565 
  -60030   -59570   -58702   -58069   -57684   -56979   -55624   -54168 
  -53261   -52550   -51511   -50411   -49616   -49177   -49013   -48982 
  -49242   -50396   -52701   -54967   -55888   -56200   -57169   -58509 
  -59092   -58306   -56793   -55986   -56705   -58238   -59099   -58745 
  -57764   -56967   -56663   -56198   -55273   -54815   -55015   -55400 
  -56430   -57785   -58033   -57277   -56543   -55786   -54700   -53518 
  -52805   -52913   -52806   -51402   -50125   -50806   -52653   -54006 
  -54724   -55408   -56072   -56384   -55917   -54295   -52115   -50526 
  -49773   -49005   -47221   -45112   -44625   -45786   -47105   -48351 
  -50007   -51620   -52254   -52265   -53161   -55099   -57009   -58486 
  -59426   -59415   -58267   -56425   -54609   -53171   -52205   -51896 
  -52404   -53431   -54211   -54772   -55827   -57110   -57913   -57973 
  -57561   -57527   -57891   -58005   -58079   -58225   -57946   -57619 
  -58411   -60138   -61437   -62179   -62691   -62542   -62202   -62518 
  -63098   -63327   -62837   -61347   -59104   -56444   -53942   -52612 
  -52277   -51874   -51724   -52819   -54659   -55973   -56316   -56097 
  -56190   -57190   -58930   -60558   -60567   -58801   -57308   -56560 
  -54894   -52421   -50549   -49501   -48964   -48686   -48558   -48904 
  -49585   -49897   -50002   -50765   -52412   -54519   -56286   -56651 
  -55522   -53846   -52127   -50623   -49727   -49264   -49249   -50098 
  -50977   -50753   -50043   -50022   -50948   -52285   -53292   -54099 
  -55104   -55745   -55869   -56102   -56462   -56875   -57281   -57118 
  -56642   -56394   -55619   -54157   -53355   -53592   -54028   -54279 
  -54338   -54837   -56953   -60017   -61805   -61805   -61378   -61427 
  -62034   -63324   -64772   -65187   -64508   -63396   -61856   -60211 
  -59300   -59185   -59302   -59057   -57844   -55704   -53734   -52889 
  -52797   -52625   -52597   -53311   -54447   -55548   -56800   -58003 
  -58506   -58667   -59078   -58703   -56491   -53653   -51837   -50800 
  -49571   -47874   -45960   -44373   -43429   -43289   -44104   -45085 
  -45294   -45016   -44913   -45439   -46626   -47383   -46681   -45513 
  -45510   -46379   -46944   -46965   -46630   -46097   -45261   -43653 
  -41494   -39712   -38707   -38396   -38516   -38686   -39111   -40281 
  -42229   -44535   -46471   -47876   -49025   -49791   -50628   -52231 
  -54048   -55239   -55615   -55575   -55915   -56905   -58250   -59269 
  -58853   -57199   -55556   -53769   -51284   -48783   -47215   -46953 
  -47592   -48644   -50356   -53006   -56298   -59307   -60841   -60560 
  -59244   -58129   -57556   -56232   -53512   -50620   -48575   -47632 
  -47992   -49293   -50546   -51224   -51807   -52887   -54042   -54282 
  -53471   -52521   -52124   -52137   -51899   -50789   -49268   -48537 
