Origin Time       2011/03/11 14:46:00
Lat.              38.103
Long.             142.860
Depth. (km)       24
Mag.              9.0
Station Code      SZO009
Station Lat.      35.1972
Station Long.     138.9129
Station Height(m) 181
Record Time       2011/03/11 14:48:01
Sampling Freq(Hz) 100Hz
Duration Time(s)  300
Dir.              U-D
Scale Factor      3920(gal)/6182761
Max. Acc. (gal)   17.505
Last Correction   2011/03/11 14:47:46
Memo.             
[...]
    5148     5724     7036     8022     7950     7189     6483     5951 
    5293     4599     4188     4066     4058     3983     3827     3848 
    4167     4691     5387     6113     6521     6302     5360     3942 
    2337      602     -972    -1913    -2277    -2672    -3686    -5343 
   -6969    -7733    -7376    -6520    -6063    -6168    -6368    -6328 
   -5931    -5328    -4859    -4490    -3950    -3158    -2091     -963 
    -380     -397     -183      739     2043     3346     4431     5145 
    5379     5134     4715     4478     4573     5251     6637     8205 
    9127     9069     8417     7769     7409     7187     6856     6405 
    5664     4401     2991     1871     1069      735     1062     1864 
    2666     3039     2889     2408     1924     1761     1952     2294 
    2442     1969      905      -60     -240      315      715      125 
   -1150    -2198    -2762    -3062    -3176    -3454    -4534    -6358 
   -8071    -9094    -9538    -9721    -9890   -10094   -10187   -10105 
   -9714    -8730    -7421    -6443    -5869    -5517    -5603    -6089 
   -6508    -6826    -7245    -7474    -7152    -6273    -4928    -3252 
   -1442      312     1719     2533     2980     3581     4533     5696 
    6850     7710     8173     8382     8474     8554     8622     8637 
    8780     9018     8932     8570     8379     8433     8662     9018 
    9151     8815     8298     7903     7553     7247     7416     8320 
    9442    10220    10841    11595    12253    12695    13076    13101 
   12407    11498    11171    11455    11850    12092    12142    11897 
   11488    11320    11549    12029    12643    13349    14091    14900 
   15847    16726    17262    17633    18152    18810    19381    19503 
   18941    17934    16899    15997    15154    14188    13034    11923 
   10944     9863     8678     7458     5874     3954     2563     2219 
    2395     2424     2236     2036     1926     1882     1782     1530 
    1330     1509     1982     2299     2246     2105     2323     2931 
    3585     4191     4976     6104     7443     8537     9094     9302 
    9393     9564     9878     9732     8603     7077     6050     5740 
    5926     6435     7251     8138     8609     8743     9009     9191 
    8839     8298     8267     8955     9893    10366    10169     9638 
    9081     8595     8145     7709     7300     6714     5735     4574 
    3419     2021      285    -1499    -3053    -4183    -4849    -5261 
   -5508    -5447    -5119    -4643    -4011    -3517    -3753    -4844 
   -6309    -7626    -8291    -7837    -6630    -5837    -6100    -7142 
   -8500    -9807   -10821   -11682   -12571   -13292   -13747   -14103 
  -14262   -14089   -13840   -13782   -13974   -14420   -14975   -15337 
  -15277   -14803   -14144   -13657   -13630   -13839   -13690   -12975 
  -11917   -10844   -10144    -9851    -9502    -8717    -7520    -6213 
   -5167    -4458    -3940    -3716    -3813    -3700    -2955    -1930 
   -1229    -1122    -1604    -2395    -3152    -3908    -4813    -5682 
   -6265    -6523    -6646    -7006    -7728    -8502    -9154    -9801 
  -10469   -11111   -11633   -11916   -12151   -12582   -13078   -13407 
  -13423   -13112   -12677   -12234   -11848   -11735   -11948   -12383 
  -12985   -13557   -13802   -13556   -12810   -11676   -10302    -8849 
   -7595    -6877    -6864    -7399    -8028    -8208    -7726    -6920 
   -6242    -5814    -5536    -5305    -5133    -5080    -5016    -4810 
   -4680    -4766    -4778    -4570    -4286    -4016    -3963    -4327 
   -4977    -5698    -6322    -6655    -6755    -6901    -7033    -6862 
   -6592    -6718    -7296    -7884    -8059    -7968    -7978    -7775 
   -6775    -5213    -3797    -2699    -1798    -1192     -649      313 
    1554     2635     3435     3792     3685     3711     4439     5836 
    7492     8830     9550     9899    10230    10679    11140    11368 
   11411    11668    12351    13181    13651    13547    13130    12922 
   13472    14811    16051    16506    16706    17211    17665    17729 
   17582    17406    17266    17152    16924    16518    15965    15340 
   14815    14300    13429    12213    11092    10413    10150     9920 
    9470     9052     8947     9055     9133     9032     8597     7646 
    6369     5324     4806     4778     5215     5973     6754     7346 
    7780     8297     8904     9261     9372     9600     9953    10171 
   10138     9732     8941     8158     7790     7780     7840     7733 
    7120     5710     3728     1734      273     -252      -87      -80 
    -705    -1747    -2807    -3481    -3435    -2873    -2454    -2494 
   -2704    -2593    -1921     -926      -83      285      200       49 
     135      287      280      258      493     1111     1987     2821 
    3529     4319     5187     5694     5545     5143     5087     5347 
    5514     5635     6171     7277     8753    10484    12211    13386 
   13838    13832    13526    13168    13083    13043    12473    11187 
    9592     8333     7559     6811     5783     4676     3786     3090 
    2291     1253      114     -878    -1417    -1450    -1347    -1556 
   -2265    -3210    -3872    -4080    -4060    -4047    -4238    -4688 
   -5073    -5016    -4644    -4494    -4935    -5796    -6496    -6695 
   -6717    -6956    -7311    -7697    -8298    -8982    -9377    -9494 
   -9578    -9731    -9983   -10226   -10308   -10378   -10666   -11090 
  -11466   -11757   -11918   -11855   -11747   -11965   -12561   -13198 
  -13540   -13458   -13053   -12508   -11875   -11246   -10909   -10888 
  -10885   -10795   -10615   -10216    -9575    -8690    -7432    -5994 
   -4915    -4313    -3815    -3220    -2610    -2135    -1978    -2134 
   -2374    -2709    -3258    -3712    -3651    -3186    -2791    -2756 
   -2874    -2684    -2237    -2073    -2283    -2485    -2434    -2070 
   -1462     -880     -585     -627    -1069    -1986    -2993    -3435 
   -3157    -2563    -2158    -2263    -2736    -3144    -3368    -3601 
   -3991    -4599    -5277    -5682    -5783    -5985    -6606    -7553 
   -8406    -8777    -8622    -8055    -7293    -6877    -7187    -7871 
   -8435    -8879    -9323    -9611    -9610    -9415    -9147    -8903 
   -8792    -8809    -8941    -9210    -9432    -9333    -8897    -8323 
   -7692    -6812    -5643    -4608    -4064    -3979    -4221    -4552 
   -4566    -4043    -3130    -2122    -1197     -368      349      986 
    1707     2554     3267     3653     3909     4338     5004     5751 
    6359     6714     6858     6966     7226     7577     7839     8062 
    8273     8294     8239     8474     8913     9185     9315     9510 
    9621     9466     9425     9956    10772    11343    11732    12254 
   13031    13937    14561    14784    14946    15070    15001    14864 
   14593    14100    13679    13306    12672    12069    12050    12531 
   12893    12706    12070    11244    10424    10029    10356    10932 
   11048    10622     9962     9264     8569     7857     7143     6512 
    6141     6149     6229     5905     5198     4677     4920     5837 
    6661     6880     6716     6585     6617     6799     7149     7644 
    8296     9117     9818    10118    10085     9697     8857     7908 
    7250     6874     6698     6694     6616     6183     5422     4510 
    3568     2709     1918     1087      303     -297     -793    -1230 
   -1438    -1484    -1740    -2375    -3403    -4823    -6319    -7638 
   -8828    -9649    -9923   -10139   -10633   -11068   -11182   -11093 
  -10958   -10876   -10777   -10489   -10174   -10084   -10034    -9801 
   -9461    -9086    -8789    -8721    -8737    -8640    -8604    -8935 
   -9712   -10717   -11539   -11961   -12150   -12243   -12183   -12111 
  -12298   -12657   -12984   -13426   -14064   -14646   -15082   -15448 
  -15630   -15542   -15205   -14588   -13874   -13424   -13288   -13189 
  -12802   -12094   -11511   -11430   -11802   -12528   -13425   -14128 
  -14607   -15057   -15292   -15098   -14708   -14454   -14473   -14593 
  -14380   -13775   -13307   -13296   -13519   -13628   -13356   -12707 
  -11993   -11383   -10776   -10148    -9557    -8967    -8245    -7199 
   -5703    -3847    -1820      174     1794     2818     3461     4070 
    4838     5878     7183     8558     9872    11130    12296    13435 
   14652    15629    16060    16251    16440    16339    15709    14634 
   13450    12556    11874    10994    10048     9670    10181    11339 
   12535    13033    12230     9887     6557     3636     2092     1493 
    1408     2506     4650     6175     6612     7140     8016     8649 
    8821     7785     5593     5170     8232    11649    11908     9327 
    6335     4643     4247     4432     5109     6461     8439    10631 
   11947    11556    10445    10625    12208    13184    12919    12512 
   12068    11447    11405    11951    12223    11875    11257    10957 
   11218    11850    12653    12980    12245    11076    10145     9849 
   10777    11893    11417     9768     8642     9035    10712    12297 
   12922    13078    13049    12542    11933    11770    11684    11100 
   10358    10367    11130    11299     9934     7935     6812     6764 
    6855     6240     4897     3958     4431     5562     6321     6922 
    7026     5469     2741      491     -913    -1793    -1790     -497 
    1698     3630     3985     2335     -133    -1630    -1913    -2087 
   -2110    -1101      -70     -841    -3005    -5098    -6792    -8073 
   -9045   -10683   -13104   -14668   -14328   -12899   -11935   -12481 
  -14392   -16223   -16615   -16312   -17047   -19320   -22455   -24000 
  -21812   -18931   -19612   -22393   -23887   -23511   -21804   -19833 
  -18721   -18235   -18047   -17960   -16994   -15222   -14245   -14414 
  -14445   -13904   -13629   -14158   -15130   -15723   -15426   -14348 
  -12881   -12078   -12847   -13972   -13998   -13498   -12773   -11401 
  -10414   -10711   -11096   -10297    -8870    -8128    -8362    -8956 
   -9328    -8853    -7633    -7168    -8090    -9126    -9279    -8582 
   -7543    -6963    -6998    -7109    -7017    -6863    -7409    -9112 
  -10522   -10360    -9589    -9079    -8596    -8250    -7904    -7213 
   -6509    -5677    -5021    -5734    -6641    -5771    -4241    -3609 
   -3832    -4891    -6509    -7606    -7193    -5445    -3762    -2814 
   -1740      -96     1009      329    -1288    -1787    -1223     -987 
    -734      151      470     -539    -1689    -2044    -2057    -1827 
    -508     1944     4155     4859     3996     2369     1176     1537 
    3381     5118     5149     3561     1778      796      760     1273 
    1567     1882     3585     6824    10037    12056    12870    12266 
   10233     8411     8133     8745     8948     7708     5181     3121 
    2949     4395     6209     7591     9005    11174    13431    14149 
   12959    11129     9843     9966    11738    13598    14404    14789 
   14183    11786     9643     9768    11045    11041     8885     5903 
    4178     5006     7459     8671     7406     5625     4984     4546 
    3280     1625      204     -528     -382      453     2070     4031 
    5113     5028     3676      401    -3638    -6365    -7661    -8007 
   -7650    -7623    -7980    -7329    -5778    -5006    -5579    -6924 
   -8512    -9764   -10773   -12294   -13822   -14407   -14434   -14117 
  -13472   -14158   -16966   -19447   -19675   -18897   -18720   -19120 
  -19354   -18721   -16802   -14202   -12657   -12982   -13846   -13905 
  -13511   -13705   -14787   -16089   -16923   -17004   -15952   -14196 
  -13345   -13831   -14641   -15678   -17412   -19440   -20998   -21417 
  -20307   -18069   -15723   -14137   -13204   -12128   -10709    -9184 
   -7644    -6752    -7084    -8107    -9183    -9871    -9661    -8606 
   -7290    -6325    -5743    -4882    -3637    -2661    -1982    -1082 
     -21      766     1209     1604     2222     2885     3168     3052 
    2709     2119     1533     1265     1038      747      950     1820 
    2971     4004     4362     4053     4197     5005     5418     5560 
    6342     7634     8679     8842     8158     7654     8230     9440 
   10283    10749    11248    11416    10962    10258     9355     8105 
    6907     6199     6133     6588     6962     6993     7242     7963 
    8845     9628     9847     9164     8107     7401     7349     7947 
    8817     9594    10180    10343     9884     9089     8465     8289 
    8450     8591     8480     8222     8075     8207     8719     9712 
   10917    11731    12010    11942    11433    10572     9762     9087 
    8571     8294     7850     7134     6869     7119     7084     6618 
    6002     5251     4713     4682     4794     4659     4026     2983 
    2266     2083     1670      949      629      692      794      991 
    1165     1213     1293     1329     1237     1169     1235     1480 
    1681     1395      600     -337    -1085    -1343    -1209    -1323 
   -1890    -2296    -2074    -1601    -1464    -1521    -1324    -1123 
   -1448    -2309    -3554    -4966    -5984    -6369    -6450    -6357 
   -6078    -6025    -6616    -7420    -7530    -7019    -6764    -6858 
   -6719    -6207    -5706    -5660    -6145    -6980    -8138    -9359 
  -10138   -10657   -11461   -12380   -12979   -13445   -14232   -15153 
  -15679   -16150   -17228   -18629   -19961   -21323   -22216   -22059 
  -21579   -21671   -22117   -22549   -23130   -23861   -24245   -24147 
  -24234   -25006   -26148   -27161   -27831   -28090   -27962   -27593 
  -27263   -27195   -27074   -26340   -25062   -23727   -22514   -21423 
  -20568   -19921   -19191   -18332   -17665   -16952   -15629   -14213 
  -13459   -12885   -11904   -10735    -9507    -8119    -6642    -5152 
   -3767    -2572    -1551     -882     -810    -1293    -1850    -1859 
   -1242     -481      -20      138      332      612      835     1274 
    2060     2634     2419     1591      915      847     1260     1913 
    2541     2828     2661     2244     1931     1918     2104     2334 
    2770     3687     4915     5997     6600     6626     6531     6859 
    7337     7618     7903     8239     8533     8770     8850     8859 
    8886     8663     8148     7720     7661     8016     8548     8865 
    8917     8851     8741     8817     9042     8906     8399     7954 
    7549     7150     7112     7486     7976     8453     8859     9155 
    9525    10107    10777    11386    11902    12398    12920    13412 
   14069    15048    15945    16549    17073    17341    17148    16673 
   16066    15789    16333    17086    17131    16737    16637    16657 
   16042    14763    13719    13521    13770    13735    13232    12635 
   12087    11357    10480     9651     8924     8477     8381     8390 
    8343     8090     7425     6483     5645     5206     5197     5270 
    5020     4522     4130     3804     3237     2473     1920     1761 
    1585     1055      528      347      154     -485    -1312    -1942 
   -2631    -3495    -4014    -4242    -4849    -5808    -6646    -7360 
   -8297    -9636   -10887   -11490   -12005   -13057   -14169   -15004 
  -15763   -16252   -16292   -16313   -16641   -17042   -17388   -18037 
  -19204   -20564   -21672   -22299   -22305   -21740   -21057   -20669 
  -20570   -20529   -20274   -19805   -19494   -19415   -19291   -19073 
  -18789   -18346   -17814   -17409   -17262   -17190   -16673   -15592 
  -14683   -14437   -14295   -13870   -13567   -13369   -12795   -11966 
  -11299   -10881   -10751   -10989   -11367   -11410   -11005   -10587 
  -10449   -10520   -10759   -11061   -11181   -11025   -10816   -10912 
  -11269   -11388   -10993   -10336    -9692    -9057    -8509    -8251 
   -8237    -8159    -7840    -7416    -6976    -6319    -5370    -4452 
   -4101    -4600    -5397    -5510    -4644    -3461    -2740    -2307 
   -1520     -638     -268     -219      -63      287      843     1565 
    2391     3347     4241     4796     5071     5307     5864     6962 
    8014     8276     7979     7841     8051     8291     8343     8375 
    8617     9107     9750    10346    10799    11039    10860    10390 
    9955     9604     9585    10293    11536    12734    13318    13067 
   12533    12246    11929    11362    10868    10716    10873    11035 
   10797    10193     9629     9141     8584     8240     8137     7888 
    7721     7860     7792     7535     7641     7915     7885     7567 
    7190     7087     7304     7434     7388     7332     7180     7002 
    6974     6868     6418     5790     5359     5121     4705     4073 
    3494     3012     2706     2569     2109     1400     1285     1679 
    1849     1802     1601     1046      513      316       22     -520 
    -902    -1138    -1488    -1846    -2167    -2587    -2969    -3165 
   -3258    -3224    -3199    -3589    -4182    -4308    -4008    -3683 
   -3408    -3338    -3463    -3479    -3667    -4263    -4625    -4527 
   -4531    -4735    -4794    -4756    -4881    -5131    -5391    -5608 
   -5601    -5416    -5385    -5426    -5346    -5560    -6280    -6900 
   -6857    -6207    -5488    -5195    -5089    -4719    -4367    -4388 
   -4485    -4343    -4073    -3774    -3284    -2666    -2365    -2508 
   -2763    -2933    -2990    -2844    -2516    -2243    -2113    -1824 
   -1060      -10      764     1063     1111     1055     1271     2129 
    2911     2668     1856     1386     1166      880      797     1015 
    1192     1187     1019      615      132     -157     -309     -431 
    -369     -159     -124     -464    -1279    -2423    -3284    -3432 
   -3141    -3102    -3893    -5230    -6098    -6234    -6345    -6644 
   -6765    -6757    -6902    -7156    -7353    -7411    -7187    -6699 
   -6269    -5952    -5573    -5304    -5206    -4961    -4570    -4396 
   -4525    -4562    -4163    -3631    -3468    -3565    -3564    -3402 
   -3167    -3140    -3676    -4541    -5112    -5213    -5142    -5270 
   -5829    -6665    -7313    -7452    -7054    -6375    -5933    -5939 
   -5992    -5814    -5649    -5719    -5875    -5920    -5857    -5721 
   -5546    -5453    -5556    -5853    -6127    -6112    -5841    -5566 
   -5443    -5380    -5172    -4852    -4646    -4638    -4751    -4833 
   -4819    -4842    -5026    -5283    -5320    -4990    -4610    -4447 
   -4267    -3885    -3541    -3448    -3498    -3521    -3486    -3407 
   -3239    -2976    -2764    -2736    -2840    -2849    -2518    -1915 
   -1359     -838      -72      936     1992     2967     3685     4184 
    4922     6138     7482     8515     9072     9313     9643    10271 
   10977    11485    11779    12022    12236    12254    12129    12105 
   12144    11982    11589    11274    11311    11571    11751    11827 
   11846    11652    11175    10513     9818     9391     9489     9863 
    9876     9232     8326     7581     6927     6186     5409     4788 
    4415     4143     3792     3322     2845     2587     2590     2671 
    2761     2917     3083     3159     3170     3108     2852     2446 
    2136     2039     2076     2120     2054     1976     2140     2437 
    2515     2388     2289     2219     2162     2187     2210     2033 
    1506      751      136     -348    -1094    -2051    -2815    -3232 
   -3364    -3424    -3641    -3902    -4011    -4095    -4360    -4855 
