Origin Time       2011/03/11 14:46:00
Lat.              38.103
Long.             142.860
Depth. (km)       24
Mag.              9.0
Station Code      SZO015
Station Lat.      35.2433
Station Long.     138.3410
Station Height(m) 451
Record Time       2011/03/11 14:47:53
Sampling Freq(Hz) 100Hz
Duration Time(s)  231
Dir.              N-S
Scale Factor      3920(gal)/6182761
Max. Acc. (gal)   13.918
Last Correction   2011/03/11 14:47:38
Memo.             
[...]
   -9187    -9898    -9830    -9368    -9285    -9678   -10121   -10415 
  -10572   -10521   -10066    -9158    -8171    -7250    -6044    -4868 
   -4414    -4391    -4156    -3566    -2557    -1300     -437     -304 
    -771    -1828    -3249    -4353    -4983    -5541    -5846    -5289 
   -3890    -2307    -1325    -1805    -4112    -7198    -9391   -10209 
  -10283   -10131    -9917    -9501    -8565    -7328    -6586    -6661 
   -6936    -6638    -5481    -3613    -1475      291     1157     1018 
     165     -895    -1720    -2275    -2755    -2938    -2383    -1294 
    -273      342      231     -715    -1749    -1992    -1572    -1204 
   -1228    -1607    -2237    -2951    -3608    -4121    -4298    -3976 
   -3333    -2778    -2462    -2146    -1783    -1736    -2178    -2854 
   -3244    -2901    -2020    -1333    -1290    -1650    -2126    -3040 
   -4595    -6211    -7199    -7423    -7129    -6750    -6907    -7858 
   -9095    -9940   -10079    -9589    -8673    -7552    -6653    -6158 
   -5911    -6259    -7450    -8706    -9326    -9388    -9016    -8382 
   -7879    -7862    -8658   -10207   -11895   -13156   -13747   -13745 
  -13461   -13004   -12244   -11094    -9669    -8431    -7887    -7921 
   -7901    -7462    -6835    -6433    -6356    -6564    -7134    -7945 
   -8690    -9259    -9494    -8979    -7684    -6217    -5014    -3986 
   -3154    -2833    -3221    -4143    -5067    -5399    -5002    -4387 
   -4065    -4007    -4000    -4097    -4581    -5550    -6666    -7503 
   -7819    -7689    -7600    -7841    -8037    -7729    -6781    -5316 
   -3877    -3005    -2580    -2238    -1882    -1603    -1698    -2209 
   -2490    -2220    -1944    -1868    -1696    -1682    -2121    -2749 
   -3478    -4093    -4055    -3588    -3249    -2915    -2415    -1947 
   -1667    -1622    -1762    -1864    -1699    -1357    -1235    -1482 
   -1762    -1933    -2286    -3059    -4454    -6429    -8048    -8251 
   -7180    -5808    -4885    -4647    -4838    -5014    -5059    -5286 
   -5916    -6555    -6670    -6344    -6038    -5911    -5815    -5818 
   -6157    -6853    -7791    -8640    -8868    -8594    -8485    -8683 
   -9035    -9634   -10435   -11220   -11947   -12682   -13335   -13640 
  -13492   -12992   -11997   -10486    -9054    -8200    -7924    -8206 
   -8917    -9506    -9401    -8727    -8128    -7988    -8560   -10068 
  -11896   -13057   -13432   -13284   -12593   -11593   -10853   -10517 
  -10229    -9788    -9090    -7822    -6054    -4374    -3243    -2819 
   -2822    -2700    -2478    -2770    -3813    -5104    -6020    -6306 
   -6050    -5562    -4984    -4091    -2821    -1475     -316      510 
     880      719        3    -1134    -2323    -3196    -3720    -4142 
   -4689    -5302    -5680    -5901    -6526    -7562    -8299    -8439 
   -8186    -7640    -7067    -6761    -6654    -6737    -7017    -7273 
   -7448    -7708    -8162    -8654    -8892    -8860    -8473    -7485 
   -6298    -5579    -5183    -4604    -3963    -3722    -3717    -3415 
   -3021    -3120    -3566    -3794    -3527    -2719    -1689    -1102 
   -1286    -2191    -3683    -5269    -6382    -6966    -7197    -7128 
   -6751    -6134    -5548    -5276    -5432    -5952    -6430    -6358 
   -5881    -5535    -5488    -5806    -6650    -7821    -8898    -9695 
  -10115    -9969    -9040    -7322    -5199    -3104    -1309     -183 
     114     -173     -817    -1388    -1426    -1285    -1416    -1517 
   -1358     -925     -151      230     -642    -2213    -3500    -4065 
   -3468    -2134    -1530    -2038    -2922    -3913    -4848    -5288 
   -5045    -4206    -3100    -2270    -2092    -2658    -3828    -5227 
   -6424    -7203    -7633    -7770    -7647    -7494    -7468    -7570 
   -7699    -7423    -6429    -5063    -3920    -3380    -3541    -4254 
   -5206    -6051    -6710    -7271    -7562    -7454    -7184    -7007 
   -7052    -7223    -7111    -6521    -5723    -5118    -5084    -5764 
   -6898    -8130    -9123    -9528    -9477    -9588   -10108   -10759 
  -11294   -11578   -11570   -11345   -10924   -10420   -10119   -10175 
  -10431   -10478   -10050    -9369    -8868    -8831    -9246    -9789 
  -10122   -10050    -9480    -8652    -8166    -8551    -9770   -10941 
  -11175   -10672    -9925    -9005    -8282    -8138    -8310    -8388 
   -8194    -7724    -7153    -6831    -7103    -7951    -9140   -10635 
  -12214   -13065   -12648   -11381   -10017    -9123    -8986    -9356 
   -9739    -9882    -9689    -9091    -8101    -6762    -5187    -3589 
   -2236    -1382    -1089    -1177    -1479    -1806    -1822    -1378 
    -881     -872    -1263    -1550    -1522    -1293    -1118    -1319 
   -2005    -2954    -3881    -4785    -5881    -7180    -8437    -9483 
  -10305   -10898   -11154   -10864    -9866    -8240    -6364    -4841 
   -4081    -3820    -3565    -3327    -3339    -3555    -3708    -3564 
   -3261    -3233    -3619    -4104    -4149    -3335    -2022    -1180 
   -1352    -2480    -4076    -5228    -5523    -5462    -5342    -5038 
   -4595    -3926    -3018    -2508    -2840    -3729    -4807    -5588 
   -5546    -4930    -4434    -4259    -4299    -4604    -5280    -6182 
   -6778    -6635    -5979    -5469    -5666    -6568    -7572    -8230 
   -8645    -9033    -9608   -10587   -11778   -12625   -12764   -12228 
  -11489   -11140   -11114   -10808    -9954    -8751    -7678    -7309 
   -7690    -8114    -7953    -7388    -7004    -7237    -8320    -9871 
  -10801   -10554    -9756    -9230    -9194    -9345    -9179    -8565 
   -7914    -7453    -6963    -6426    -6091    -6010    -6162    -6612 
   -7244    -7969    -8811    -9360    -9110    -8306    -7410    -6604 
   -6184    -6191    -6174    -6095    -6256    -6404    -6054    -5268 
   -4497    -3974    -3687    -3685    -4020    -4469    -4541    -4084 
   -3496    -3059    -2867    -3232    -4101    -4724    -4638    -4060 
   -3205    -2278    -1642    -1423    -1618    -2278    -3146    -3764 
   -3998    -4016    -3869    -3476    -2856    -1945     -570     1094 
    2427     2908     2525     1747     1152      781      174     -844 
   -2017    -2948    -3297    -3155    -2957    -2889    -2897    -3030 
   -3366    -3857    -4325    -4551    -4630    -5061    -6025    -7191 
   -8330    -9366   -10253   -11067   -11737   -12049   -12101   -12258 
  -12583   -12849   -13098   -13393   -13485   -13312   -12915   -12123 
  -11063   -10041    -8925    -7573    -6247    -5181    -4482    -4343 
   -4845    -5829    -7114    -8435    -9260    -9207    -8461    -7330 
   -5996    -4840    -4275    -4385    -4949    -5505    -5761    -5837 
   -5832    -5781    -5951    -6394    -6630    -6191    -5096    -3685 
   -2365    -1551    -1377    -1415    -1251    -1092    -1207    -1359 
   -1371    -1534    -2085    -2988    -4026    -4714    -4943    -5368 
   -6389    -7635    -8551    -8951    -9239    -9886   -10766   -11449 
  -11681   -11388   -10644    -9668    -8644    -7634    -6707    -5981 
   -5532    -5302    -5221    -5224    -5108    -4775    -4310    -3680 
   -2865    -1985    -1157     -623     -749    -1565    -2506    -2794 
   -2188    -1150     -178      696     1627     2435     2693     2248 
    1314      248     -622    -1124    -1369    -1653    -2061    -2240 
   -1907    -1280     -663     -189      -44     -159     -202     -280 
    -641    -1075    -1540    -2374    -3464    -4313    -4789    -5140 
   -5605    -6178    -6644    -6981    -7456    -8178    -8904    -9300 
   -9126    -8438    -7572    -6611    -5421    -4156    -2953    -1819 
   -1014     -677     -593     -743    -1262    -1851    -2070    -1904 
   -1566    -1362    -1699    -2505    -3178    -3508    -3709    -3851 
   -4218    -5330    -7058    -8704    -9915   -10699   -11111   -11374 
  -11548   -11250   -10358    -9478    -9322   -10047   -11200   -12040 
  -12085   -11357   -10230    -9141    -8222    -7294    -6341    -5686 
   -5627    -6183    -7168    -8243    -9033    -9375    -9248    -8604 
   -7526    -6257    -5082    -4279    -3946    -4088    -4846    -6119 
   -7383    -8348    -9227   -10253   -11390   -12402   -13037   -13178 
  -12750   -11768   -10515    -9316    -8386    -8005    -8275    -8894 
   -9547   -10089   -10340   -10154    -9682    -9264    -8982    -8705 
   -8558    -8690    -8770    -8435    -7773    -7016    -6427    -6374 
   -6995    -8018    -9272   -10926   -12790   -14045   -14139   -13227 
  -11901   -10923   -10599   -10557   -10583   -10890   -11613   -12680 
  -13732   -14189   -13838   -12991   -11998   -11053   -10170    -9213 
   -8243    -7560    -7311    -7309    -7210    -6827    -6278    -5895 
   -5847    -5962    -6123    -6231    -5878    -4947    -4012    -3566 
   -3665    -4334    -5414    -6359    -6863    -7200    -7672    -8293 
   -8962    -9601   -10080   -10163    -9770    -9048    -8164    -7289 
   -6570    -5986    -5568    -5514    -5702    -5437    -4190    -2125 
     355     2843     4953     6583     7576     7485     6226     4410 
    2943     2394     2571     2878     2842     2168      890     -538 
   -1688    -2494    -2896    -2527    -1222      488     1934     3025 
    4099     5393     6814     7957     8459     8328     7799     7061 
    6109     4813     3157     1236     -894    -3039    -4782    -5837 
   -6282    -6397    -6316    -5873    -5088    -4447    -4241    -4267 
   -4360    -4527    -4886    -5602    -6540    -7370    -7881    -7877 
   -7316    -6432    -5447    -4507    -3822    -3554    -3568    -3533 
   -3302    -2999    -2924    -3365    -4202    -4852    -4856    -4316 
   -3700    -3491    -3943    -5048    -6631    -8418   -10062   -11240 
  -11831   -11866   -11403   -10721   -10160    -9680    -9011    -7978 
   -6535    -4757    -2777     -746     1021     2041     2204     2099 
    2383     3293     4818     6557     7837     8315     7864     6574 
    5049     3812     2996     2684     2717     2541     1759      668 
    -160     -834    -1834    -2883    -3292    -2835    -1648     -282 
     300     -381    -1932    -3592    -4680    -4897    -4316    -3280 
   -2389    -1993    -1952    -2167    -2820    -4018    -5583    -7250 
   -8679    -9457    -9636    -9759   -10060   -10176    -9727    -8860 
   -7992    -7415    -7293    -7707    -8693   -10210   -12071   -13926 
  -15211   -15415   -14321   -12061    -9254    -6651    -4608    -3058 
   -1907    -1328    -1230     -912      127     1728     3378     4403 
    4341     3250     1484     -675    -3170    -5876    -8349   -10118 
  -10993   -11135   -10963   -10919   -11270   -11913   -12382   -12368 
  -11888   -10906    -9642    -8771    -8535    -8477    -8248    -7855 
   -7338    -6941    -7007    -7388    -7611    -7456    -7125    -7111 
   -7570    -8017    -8144    -8133    -7979    -7606    -7286    -6989 
   -6397    -5779    -5456    -5192    -4900    -4796    -4977    -5348 
   -5639    -5689    -5670    -5819    -6195    -6678    -7188    -7707 
   -8067    -8158    -7988    -7468    -6723    -6199    -6165    -6594 
   -7406    -8241    -8464    -7896    -6995    -6137    -5360    -4858 
   -4827    -5023    -5370    -6110    -6940    -7302    -7053    -6066 
   -4390    -2845    -2334    -2999    -4473    -6204    -7664    -8714 
   -9339    -9375    -8902    -8084    -6920    -5703    -4856    -4410 
   -4249    -4294    -4446    -4766    -5455    -6417    -7023    -6887 
   -6447    -6206    -6358    -7142    -8458    -9773   -10796   -11318 
  -11041   -10127    -9079    -8355    -8408    -9262   -10345   -11214 
  -11759   -11885   -11684   -11478   -11382   -11303   -11338   -11745 
  -12629   -13898   -15336   -16591   -17233   -17044   -16197   -14975 
  -13665   -12660   -12047   -11427   -10631    -9849    -8967    -7758 
   -6352    -4919    -3487    -2207    -1479    -1742    -3031    -4806 
   -6323    -7190    -7479    -7386    -6973    -6223    -5335    -4881 
   -5295    -6408    -7783    -9076    -9976   -10274    -9970    -9203 
   -8236    -7272    -6261    -5192    -4192    -3327    -2632    -2097 
   -1616    -1296    -1577    -2682    -4122    -5125    -5433    -5254 
   -4717    -3859    -2892    -2090    -1510    -1033     -585     -141 
     310      602      563      378      308      281      253      461 
     897     1225     1366     1463     1496     1499     1645     1911 
    2151     2361     2663     3182     4006     5020     5789     5770 
    4598     2350     -456    -3309    -5819    -7524    -8221    -8114 
   -7358    -5863    -3583     -848     1707     3627     4620     4318 
    2873     1155     -260    -1529    -2862    -4142    -5272    -6387 
   -7557    -8680    -9774   -10740   -11060   -10536    -9582    -8485 
   -7364    -6384    -5598    -5007    -4395    -3344    -1791     -135 
    1011     1044     -150    -2080    -4223    -6227    -7616    -8021 
   -7450    -6182    -4896    -4289    -4371    -4833    -5356    -5393 
   -4739    -3922    -3488    -3554    -4262    -5803    -7734    -9283 
  -10192   -10353    -9658    -8597    -7938    -7923    -8334    -8894 
   -9340    -9544    -9626    -9627    -9550    -9719   -10320   -11017 
  -11568   -12005   -12121   -11571   -10376    -8974    -7740    -6737 
   -6015    -5453    -4542    -3034    -1162      835     2687     3886 
    4089     3495     2489     1313      204     -677    -1212    -1144 
    -247     1512     3810     6088     8186    10247    12136    13699 
   15032    16091    16638    16635    16272    15706    14858    13580 
   11998    10407     9033     8016     7456     7406     7689     8049 
    8554     9296    10121    10909    11473    11445    10720     9529 
    8110     6583     4996     3358     1752      479      -82      136 
     808     1549     2144     2493     2493     1940      694     -970 
   -2620    -4288    -6205    -8152    -9788   -11058   -11933   -12517 
  -13164   -13899   -14263   -13738   -12098    -9593    -6600    -3379 
    -485     1426     1969      799    -2038    -5681    -9131   -11806 
  -13446   -14250   -14845   -15754   -17051   -18544   -20040   -21197 
  -21597   -21266   -20501   -19380   -17932   -16287   -14702   -13766 
  -14063   -15543   -17695   -20031   -22026   -23207   -23565   -23379 
  -22764   -21637   -19870   -17528   -14847   -11895    -8815    -6113 
   -4135    -2790    -2054    -2167    -3200    -4952    -7168    -9467 
  -11426   -12906   -13802   -13840   -13039   -11660    -9779    -7579 
   -5354    -3175    -1230       16      260     -532    -2117    -4029 
   -6127    -8476   -10690   -12353   -13451   -13914   -13700   -13182 
  -12682   -12094   -11424   -10921   -10569   -10211    -9835    -9420 
   -8963    -8675    -8832    -9441   -10286   -11120   -11656   -11639 
  -11122   -10381    -9467    -8366    -7380    -6815    -6663    -6738 
   -6715    -6228    -5266    -4115    -2799    -1241      318     1780 
    3381     5006     6216     6897     7145     6955     6339     5312 
    4040     2862     1798      670     -462    -1568    -2851    -4464 
   -6356    -8372   -10252   -11632   -12257   -12086   -11345   -10596 
  -10241   -10190   -10283   -10454   -10721   -11240   -11821   -11968 
  -11599   -10857    -9754    -8516    -7470    -6723    -6432    -6678 
   -7140    -7590    -8159    -8911    -9797   -10855   -12030   -12886 
  -12819   -11580    -9302    -6230    -2843      159     2208     2999 
    2501      948    -1227    -3242    -4169    -3629    -1833      836 
    3717     6076     7778     8985     9460     8937     7868     6985 
    6341     5551     4686     4143     3889     3502     2870     2262 
    1886     1810     1988     2226     2290     1879      755    -1002 
   -3120    -5295    -7176    -8403    -8827    -8590    -7801    -6495 
   -4771    -2689     -474     1441     2810     3519     3435     2661 
    1512      246     -850    -1445    -1566    -1526    -1298     -733 
     -95      384      691      553     -188    -1295    -2601    -3966 
   -5177    -6140    -6663    -6560    -6070    -5693    -5789    -6354 
   -6963    -7126    -6731    -5959    -5170    -4964    -5831    -7771 
  -10279   -12778   -15073   -16874   -17577   -17205   -16389   -15432 
  -14488   -13787   -13203   -12596   -12190   -11980   -11724   -11453 
  -11135   -10648   -10207   -10057   -10208   -10491   -10572   -10302 
   -9827    -9264    -8578    -7643    -6437    -4992    -3253    -1361 
     308     1463     1982     2087     2265     2642     3000     3389 
    4001     4857     5991     7296     8315     8658     8272     7292 
    6039     5048     4769     5213     6079     6992     7441     7068 
    6048     4782     3463     2131      844     -413    -1745    -3058 
   -4154    -4925    -5090    -4465    -3485    -2683    -2279    -2360 
   -2667    -2675    -2233    -1493     -591       95       80     -680 
   -1955    -3567    -5214    -6503    -7179    -7103    -6296    -4984 
   -3515    -2258    -1402     -949     -919    -1273    -1751    -2008 
   -1821    -1283     -865    -1023    -1781    -2803    -3771    -4691 
   -5704    -6726    -7394    -7251    -6216    -4801    -3618    -3009 
   -3065    -3600    -4267    -4913    -5648    -6621    -7753    -8650 
   -8986    -8987    -9257   -10286   -12207   -14487   -16218   -17002 
  -16906   -16011   -14583   -12981   -11371    -9829    -8491    -7583 
   -7284    -7389    -7408    -6921    -5799    -4449    -3584    -3473 
   -3757    -4044    -4316    -4600    -4744    -4682    -4419    -3935 
   -3340    -2710    -1914     -809      643     2322     3848     4637 
    4200     2443     -340    -3646    -6922    -9703   -11759   -13092 
  -13753   -13768   -13238   -12352   -11327   -10384    -9677    -9114 
   -8370    -7194    -5727    -4554    -4160    -4325    -4495    -4337 
   -3797    -3186    -2830    -2482    -1659     -274     1389     2970 
    4234     5199     6088     7094     8277     9576    10822    11760 
   12112    11833    11188    10454     9700     8732     7374     5759 
    4053     2406     1128      315     -297     -980    -1805    -2508 
   -2636    -2040    -1060     -245       43     -209     -919    -1899 
   -2786    -3450    -3971    -4318    -4513    -4714    -5034    -5501 
   -6109    -6935    -8179    -9937   -12199   -14864   -17444   -19307 
  -20317   -20786   -21003   -21128   -21196   -21043   -20534   -19791 
  -19032   -18368   -17824   -17501   -17446   -17391   -17034   -16352 
  -15422   -14357   -13452   -12857   -12217   -11123    -9610    -7939 
   -6383    -5308    -4825    -4470    -3737    -2472     -704     1275 
    2961     4047     4505     4435     3927     2834     1017    -1229 
   -3365    -4953    -5683    -5458    -4589    -3618    -2768    -1821 
    -558     1038     2821     4381     5248     5277     4644     3732 
    2925     2353     2007     1908     2064     2396     2721     2870 
    2887     2965     3185     3513     3996     4753     5788     6884 
    7756     8129     7625     6006     3632     1265     -544    -1633 
   -2130    -2334    -2461    -2579    -2696    -2750    -2694    -2505 
   -2143    -1685    -1360    -1474    -2260    -3499    -4629    -5294 
   -5317    -4637    -3580    -2643    -1987    -1439     -821     -137 
     572     1365     2203     2884     3217     3114     2644     2036 
