Origin Time       2011/03/11 14:46:00
Lat.              38.103
Long.             142.860
Depth. (km)       24
Mag.              9.0
Station Code      TCG006
Station Lat.      36.7638
Station Long.     140.1295
Station Height(m) 122
Record Time       2011/03/11 14:47:13
Sampling Freq(Hz) 100Hz
Duration Time(s)  300
Dir.              U-D
Scale Factor      3920(gal)/6182761
Max. Acc. (gal)   181.213
Last Correction   2011/03/11 14:46:58
Memo.             
[...]
   27213    79104    61517     5917    -8555     2252    -8448    -8512 
   32961    64423    35473   -21077   -54020   -66725   -63708   -31651 
  -13196   -51857   -91962   -89273   -93606  -115479  -105291   -78747 
  -84840  -104307   -89212   -53641   -58886   -99354   -98353   -57451 
  -47828   -69218   -86153   -93925   -75625   -34051   -17370   -22932 
   -2333    20854      645   -26945   -30920   -35438   -25436    37899 
  122822   149960   100157    53526    74863   117377   116346    85405 
   63875    45528    11936     1881    47985    91567    76967    34154 
    8164    -2502   -23102   -40362   -19372    15142    21647     3389 
  -19362   -21449    -7371    -9171   -17526   -12830   -14577   -37985 
  -66620   -71345   -44794   -22207   -28177   -31551   -10407     2393 
   -6029     7952    47447    49608    13220    10607    37120    15917 
  -35824   -33286      685    -6186   -19411    -7282   -35901   -98167 
  -93637   -32448    -9210   -14382    19494    54193    16834   -33253 
  -12578    11199   -34200   -72003   -36665    16959    40772    50106 
   38519   -10985   -46522   -32212   -18958   -21779    -6752     6589 
     986     6916    26050    41572    57707    61181    34534    -3700 
  -17306     9196    33394     1585   -52166   -56153   -29264   -42403 
  -81214   -71471   -29053   -33241   -59724   -27974    23928     4668 
  -55451   -59302   -16450   -10393   -36799   -35350   -22678   -37118 
  -53462   -58369   -68547   -60883   -16190    21687    12372   -10284 
   15292    79242    95799    38107     7243    55144    82452    43479 
   19234    30905    25524     9521    26649    60652    61226    34507 
   16621    -4121   -34410   -27288    14986    16465   -21503   -14381 
   18258   -16034   -68915   -53316   -39416   -75335   -80928   -43418 
  -14794    19842    69181    69775     -309   -62479   -58167    -6790 
   53425    69162    32643    38405   102769   107559    38206     7446 
   44772    61908    13799   -10082    46873    85212    46348     8080 
   14753    33646    44298    40044    17407      992     4812    -1335 
  -22211    -8856    26178    -5867   -93884  -140287  -147052  -161390 
 -154061   -92206     1745    73411    58522   -36396  -100239   -71422 
  -18179    -2851   -17157   -37287   -31976    19109    73611    80777 
   70687    89936   117917   107452    41167   -29709   -31394     9214 
   19528    12122    26903    38229    -2023   -66151   -89205   -85789 
  -80699   -54346   -34232   -31457     2510    40937    11417   -65741 
  -98440   -51115    -4678   -23035   -49634   -38215   -25571   -43909 
  -85970  -109864   -82090   -52796   -66090   -57240    13686    79012 
   73799    15654    -5236    51285   101906    85178    37929     7085 
    3143     -880   -30258   -51689   -20264    33375    45525    21490 
    1658   -21711   -50326   -46377   -28485   -39155   -35888    18814 
   68830    62992    35871    33626    33804    11261   -13353   -25853 
  -17827    18692    49502    27183   -25688   -43982   -39485   -60052 
  -65648   -23932      216   -12402   -12565   -11132   -21729    -7445 
     722   -53381  -108293   -96562   -71341   -84534  -100838   -86580 
  -74456  -104415  -141895  -120645   -46666     6708    -3392   -38657 
  -48502   -41849   -46516   -55255   -38830     3069    17208   -13736 
  -25652    -5315    -1460     1379    34154    62411    51937    32471 
   45279    52232    20053    25856    91964   116042    92295   110780 
  162087   195132   207849   191166   156540   141026   118480    50751 
  -11779   -17986    -7786    -1691    46392   105318    87165    31362 
   34649    61324    45589    41228    89355   116248    70802    10873 
    7777    40470    49106    44377    39277     1226   -43715   -43698 
  -24449   -36013   -71706   -82862   -64218   -72778  -113777  -134936 
 -137312  -145308  -138401  -104500   -88435   -99241   -60259    23009 
   47994    15389   -10026   -25269   -38571   -52618   -74257   -85918 
  -75083   -54846   -51881   -76753   -83256   -36245    14842    22117 
   16232    23080    11689   -16005   -25561   -11545    29475    57415 
    6774   -59363   -37179     9188   -22854   -57866    -3642    52124 
   17329   -51236   -69546   -48986   -55651   -79884   -57229    -3036 
   16615    -9174   -33142   -33315   -44574   -78829  -102425   -84212 
  -23698    25721    15283   -32079   -93845  -156692  -144507   -50042 
   -6603   -38633   -20485    25857   -35918  -137389   -99728    34682 
   81419    36625    45344    97668    70950      297   -15917     -939 
    2571    -2469    -7689     3616    17533    11279    23951    60958 
   65597    67498   116634   148951   113399    51288    14544    19643 
   45925    78947   118410   135333   107605    55186    14050     9247 
   24441    27074    15914     6410    10554    15605     6302    -3220 
  -21360   -49570   -49090   -37573   -47673   -42484   -18613    -8248 
   18485    69199    88855    75884    61701    29212   -17522   -38925 
  -37005   -18674    13434    12587   -51064  -130328  -147460  -103808 
  -68328   -32158    29110    59818    82245   166450   230974   174652 
   63054    15429    25962   -12248   -88970   -60998    61499    95053 
   -1082   -64112   -11248    55697    58040    26705   -18878   -95384 
 -162723  -153593  -100926   -70013   -52928   -58572   -95910  -106276 
  -74556   -48846   -53195   -88052  -121838   -88532   -14403   -25609 
 -122525  -163216   -82925    36516    69073    12387    -3630    56750 
   93550    65466    35834    54731    72098    32786    23153   106584 
  178849   171497   110731    39263    41405   122572   156159    78385 
  -18161   -11694    51804    33684   -24318   -23831   -18461   -43673 
  -57376   -30116    25186    -1599  -112916  -109022    11850    44623 
  -17553   -50417   -32463     3193    12525    -1095    42053   125904 
  158235   137743    96483    54620    23316   -29061  -100184  -134457 
 -111626   -77420   -84514   -98380   -75601   -50029   -35800   -64187 
 -166919  -201387   -74051    12461   -85373  -198102  -182711  -146224 
 -188549  -219739  -168930  -100788   -44939   -11128   -78947  -205470 
 -217481  -131773  -103790  -117692   -95741   -74363   -66580   -25184 
   28606    19350   -46863   -65796    17343   123193   148361   107886 
   73174    29574   -43229   -59542    41873   163268   171421    92335 
   41895    41748    54384    72162    74249    16119   -75734   -89193 
   -4803    53163    60617   116149   186195   167302    97352    58272 
   47786    37632    29748    44872    73946    85364   103748   151310 
  171711   141075   107943    86965    43064    11609    85110   169728 
   80818   -59150   -12882   121878   103642   -35349   -58606    51918 
   56883   -69369  -113574   -78613  -108351  -120725   -10341    65638 
   17318    17942    81661    22588   -96806   -73675    34597    40925 
  -40943   -32635    81556    84697   -65715  -118513    -2368    85111 
   69082    -4059  -109350  -169943  -145555   -82968    13115   122680 
  146787    75565    29953    54131    67133    31114   -14552   -63331 
 -116314   -89388    34558   108129    66802     -845   -38995   -37631 
  -28402   -96894  -204091  -211223  -133589   -96394  -121270  -116108 
  -69477   -83684  -138521  -119091   -27328    48651    49601    20984 
   41926    80415    66311    11131   -27004   -31433   -13450    50496 
  104974    25074  -123113  -161359   -85407   -22972   -26615    -7760 
   71750    83377     3950   -24617   -11888   -59154  -113640  -119750 
 -138728  -204264  -266168  -267769  -228211  -198902  -168763  -139325 
 -169349  -232904  -220903  -140187   -85286   -38061    29210    15962 
  -89511  -127151   -27524    80791    72138     -340   -23997   -30556 
  -98786  -171496  -155001   -70959     6648    76044   146510   135144 
   41517    11159    38765     9837     5715   109468   172857   121800 
  117943   205473   201567    95426    65797    57226   -44336   -69931 
   43644    84812     1490   -73778   -77124   -17788    52386    90109 
   88861    54919    50367   114291   159834   109294    41797    83210 
  180321   166160    58214    32259   109407   149055   122350   110494 
   95214    28652   -11529    37077   102060   110813    90921   110276 
  135227    47796   -88396   -87747   -31111  -132417  -285382  -215049 
    6868    47276  -101807  -134174   -20626     -667   -74453   -62591 
   -5633   -33251   -81684   -75465   -34244    36368    55909   -55563 
 -186769  -201661  -128756   -57171    -5850    17314    -4673   -15933 
   23371    34548   -59826  -184303  -194547  -120991  -108118  -112909 
  -29235    43014    24611     1969    -5890   -63212  -138827  -114710 
   11559    73512     9514   -25817    20532     4724   -67884   -68023 
  -43420   -56940   -21559    94418   176363   171187   195625   265799 
  237559   147681   134591   148760   137069   169342   229027   192294 
   40347   -85515  -107123   -86442   -46525   -15059   -33432   -17513 
   13553   -52295   -61963    85396   136281   -10428  -126058  -123619 
 -141554  -203227  -206090  -150217   -93526   -38857   -19000   -70970 
 -129063  -143919  -120179   -19846   109400   124819    45131    12672 
   13706   -29474   -14502    87175    63617   -95232  -118858    30257 
  113518    69514    51641    79534    27350   -71565   -65209   -23549 
 -104610  -192931  -134637   -48892   -77039  -142343  -126621   -72633 
  -85041  -115383   -28841   119938   133553     -302   -91088   -40065 
   25161   -25370   -71802    10437    72253    27560    30850   105741 
  102758    62551   140508   214827   105016   -21660    24163   108168 
   60634   -45259   -22855   152075   242573    66821  -146687  -108227 
   29878     8327  -100536  -137931  -115674   -99424   -80521   -32262 
  -12037   -59330   -90732   -67844   -56442   -63500   -58342   -59884 
  -55447    11628   109770   127882    53276   -12007    12541   107354 
  154848    98656    39730    47944    76446   115123   180001   183972 
   97621    68397   114898    87019    46185   148440   275986   261363 
  161443    62200   -34427   -60959    39384   101783   -14568  -129253 
  -88833   -63905  -164779  -224531  -166284  -121764  -153063  -196458 
 -197544  -143587   -91167  -137704  -228064  -193843   -52587    27881 
   26731    45425    74124    41922    -4901    22784    94688   135238 
  168369   190215   126883    43741    17410   -35302  -117191  -129745 
  -75753     4814    76044    74830     9934   -43543   -65526   -99058 
 -130299   -73413    51667   123719   105638    45342    -5953   -18213 
   18376    63335    29182   -81455  -179609  -201334  -132585   -38748 
   14504    13218   -44187  -116605  -179606  -217126  -161129   -46740 
  -14032   -88955  -141175   -79858   -24560  -108884  -224841  -221816 
 -161225  -166802  -192322  -120167     1016    51872    78052   159104 
  204937   126031    11535   -35835   -32324   -15549    -2695     4199 
   26324    79572   178093   263920   211290    66725     8125    45556 
   93971   140543   152122   111941   104244   165780   214746   171271 
   51149   -55441   -75241   -21495    16950    28864    92242   142087 
   96421    49299    15335   -72138  -156505  -192656  -194278  -139599 
  -57856   -31664   -29530    26546    62719   -24695  -163158  -186815 
  -68346    32955    25229    24649   121241   203814   156041    67043 
   55629    79982    97298   131357   147733   113869    72527    33737 
  -18812   -45457   -26902    17381    48883   -12217  -137995  -177185 
 -105155   -27467     1168   -10632   -30972   -47091   -72400   -76752 
  -38017    -9594   -24863   -50076   -57806   -53144   -71700  -148843 
 -213856  -164137   -68251   -44715   -39349    18205    43532   -11141 
  -30826    39546    70233    -8368   -70785   -33731    31757    71801 
   83119    41449   -40411  -103652  -128301  -137380  -139238  -111299 
  -41038    38371    77126    68595    40890    -8350   -90419  -144932 
  -99000    -1130    42497    24525      808     1395    23229    28372 
   17704    59066   146840   186074   139402    76410    80688   104237 
   41333   -42485   -34443    -1101   -36561   -80508   -31850    85823 
  171086   162360    79870    27579    83355   189650   211170   112646 
   19962   -16564   -81974  -143498  -111051   -38238   -19550   -71292 
 -131586  -123176   -61225    -4066    44363    89303   136406   195794 
  222822   180439   135131   167074   222994   183539    67444     6151 
   29394    34549   -29480   -76714   -41058    -3197   -52851  -112674 
  -81907   -58430  -137788  -187064   -87130    45513    48622   -14983 
   26241   114406    89809     8867   -20470   -19794   -15970     1242 
   22080    25129    18529    15409     3071   -21484   -47674   -58366 
  -51427   -58013   -77658   -97713  -143969  -160194   -32170   157478 
  199323    84714   -17424   -14528    42097    61104    40296    60638 
  114375    84606   -47767  -161358  -170471  -113852   -79190   -91223 
 -119385  -160518  -219860  -261311  -229796  -112157    -6573   -35921 
 -142638  -160002   -83314   -61890  -124946  -110979    26960    86558 
  -12413   -73942    -7481    37333   -36160  -116461   -67867    34772 
   33215   -38141   -59376   -47702   -59562   -60315   -27346   -24018 
  -72562   -99978   -63405     1553     7912   -96922  -205367  -198694 
 -134312   -90445   -40975    33965    79942    68449    67036   108200 
  131032   100794    54242    57137   113240   145125   138130   176834 
  267687   281434   190749   128737   125603   112102    83926    57964 
   59987   111337   162078   165106   129989    74498    20404    -6391 
  -15660   -37004   -49049   -20709    10871    24955    47996    50092 
    4886   -23259   -13576   -35602   -91859  -106119   -45100    44116 
   60133   -51125  -204516  -266157  -209082  -121541   -76340   -52967 
   -3176    63809    99494   101187   110214   139088   177055   204573 
  174013    84236     4320   -58026  -127215  -132183   -38529    30657 
  -24750  -141940  -211731  -192921  -119138   -74870   -80029   -58861 
  -19701   -45950   -89650   -67385   -48462  -104676  -177626  -168023 
  -61722    14094     2440    25905   120028   180165   138091    13986 
 -104299  -154041  -128907   -33713    58339    58003    -3906   -37432 
   -1957    40790    22733    36557   143805   186504    87055    34523 
  146593   257487   231648   160116   110231    33079   -40300   -36234 
   -1299    -1390    -6788    -2255   -22568   -11595    66771    68878 
  -12293    22520   135202   133960    58255    32334    40534    -2149 
 -115330  -193619  -145928   -48719   -24734   -55200   -37028    23044 
   24950   -41612   -84174   -54482   -16471   -22585    -3884    65866 
   70170    -2649   -11287    57735   100630   111934   143419   158731 
   90860     1481   -25687   -56982  -150067  -228812  -196952   -58361 
   78771   157256   182645    96187   -82130  -158956   -60422    17824 
  -53940  -105069    13277   141676    96793   -30373   -78992   -74769 
 -103659  -113262   -42135     -193   -79924  -169742  -178844  -189140 
 -210283  -149757   -72022   -84783  -107706   -36575    53518    39377 
  -32137   -30482    22397     5687   -33489    46810   167414   156845 
   53890     6164    26861     7668   -46403   -36947    -7503   -22131 
  -16264    20070     4804   -77802  -130077   -57019    57755    65301 
   14947    39328   114963   122640    29858   -54049   -27837    35418 
   21946   -34360   -57347   -73852  -153549  -238946  -188898   -66767 
  -61287  -117746   -64284    29604    -7709  -114406  -113544   -30080 
    3303   -14729   -29594   -60643  -141252  -214898  -178335   -33712 
  104412   154961   146613   143121   150279   149348   157374   181950 
  183423   155649   152363   172666   155649    94948    42206    32140 
   51490    72051   109657   192924   248843   198823   127339    74310 
   -5083     9947   152326   245864   269730   273887   212537   110478 
   38293    14579    16119     7890    -6035    -1361    24852    48322 
   45434    34990    57729   108696   105111    26093     3558    76377 
   98956    28549   -25887   -49374  -116038  -195312  -202549  -164528 
 -162454  -192894  -198699  -173454  -146642  -134037  -152231  -191279 
 -196840  -156543  -131407  -148265  -149026  -100082   -58064   -65260 
  -76011   -48136   -12645   -31819  -125243  -189765  -112299    -6420 
  -47214  -153736  -173385  -149195  -149489  -120007   -55097   -34367 
  -37680     -388    24491   -18681   -67465   -56666   -19108     8882 
   56865   114321   132014   134134   148323   141706   116063   110133 
   97868    11370  -110278  -145602  -119634  -147849  -171921   -96067 
   -2652    10473   -33573   -58216   -31236     8421    16617    -8271 
  -19446     2761    10696     4475    18924    14971   -23809   -31798 
  -14466   -15272    11909    60320    45146   -24043   -59512    -9587 
   50377    -2879   -94493   -70495    -2719    -4659     1747    58331 
   64397    25042    56691   124532   115265    89054   129309   168557 
  157660   115644    44116   -25193   -46595   -44521   -58948   -54610 
    1404    44268    25505     -398    11102    23956    16342    40915 
  100007   116355   104723   134931   166962   136428    61007    -3477 
  -13815    -7879   -56801   -98339   -43208     8774   -31505   -20618 
  104865   154305    76347    30896    54918    86642   107941   112857 
  122684   146092   130383    74046    48112    46814     5784   -50318 
  -51978   -20164   -41878   -89999   -24931   112824   120939     9132 
  -44475   -34570   -45611   -25552    43845    37279   -52996   -78339 
  -15730     6732   -61273  -124130   -91773   -22530   -38601  -140557 
 -231833  -265762  -246798  -161756   -66742  -106262  -243060  -274241 
 -212216  -198444  -188909  -109565   -47648  -102139  -195872  -184038 
 -121373  -138104  -171418  -131679   -62073    -7898    26600    71352 
  126887    92449     7915    36995   115596   125800   109695    92902 
   88142   110205   114465    93384    87125   121150   184672   210205 
  159856    89078    48693    53823   111261   148066    98551    49488 
   42434    -3777   -42655     9107    80195   112007   103238    40308 
  -13332    14755    50279     2930   -71041   -92776   -74905   -47892 
  -31198   -64604  -154373  -213371  -179327  -124679  -104144   -84167 
  -65709   -50501    -6462    25314   -30177  -119612  -115464   -54926 
  -71585  -118465   -92584   -39684   -11393    -6678   -44304  -103192 
 -128312  -116592   -69240    36228   144196   146936    49827   -16868 
   26626   109805   142001   157035   216963   272716   254799   189725 
  140374   117522    98022    90408    87271    40159   -15847   -26039 
  -42440   -86576  -112823  -107108   -61617    -2281   -12253   -98531 
 -154242  -123157   -76347   -62351   -35719     6755     1016   -41930 
  -22402    56220    44232   -69083  -106076   -29449    18420   -18527 
  -59936   -71577  -108420  -162327  -153231   -87440   -61277   -86556 
  -70352     -239    43899    30847   -21664   -80825  -116362  -127514 
 -107530   -54547    -3395    15950     6766    -4333    -1845    27897 
   93202   110534    36198     7186    83060   119525    23640  -102435 
 -109045    -5818    67838    58232    47431    64634    35887   -20171 
  -20188    29884   109026   169584   147649   122940   167560   198638 
