Origin Time       2011/03/11 14:46:00
Lat.              38.103
Long.             142.860
Depth. (km)       24
Mag.              9.0
Station Code      TCG003
Station Lat.      36.8153
Station Long.     139.7184
Station Height(m) 403
Record Time       2011/03/11 14:47:18
Sampling Freq(Hz) 100Hz
Duration Time(s)  300
Dir.              U-D
Scale Factor      3920(gal)/6182761
Max. Acc. (gal)   119.940
Last Correction   2011/03/11 14:47:03
Memo.             
[...]
  -73330   -68199   -58868   -52496   -45851   -22679    13408    33876 
   23690     3744    -3452   -10598   -34168   -59744   -64955   -49385 
  -27060     4221    45969    59098    16899   -40959   -74262   -85809 
  -78912   -54762   -27918    -3819    16020    21183     6929   -19223 
  -33071   -19005    -4181   -13646   -31128   -38012   -39711   -48100 
  -58444   -58396   -49040   -33442   -18224   -14059   -11894    -5253 
   -6228   -16009   -24638   -25055   -19162   -17750   -19599   -10590 
    6691     8600   -15539   -48966   -68932   -63272   -46331   -47813 
  -62892   -61447   -39459   -12298     6753     6110   -10493   -26366 
  -36622   -43022   -37183   -17861    -2167     -984   -16863   -44709 
  -52555   -23478    13303    32914    29314    12353    13822    24389 
   -6804   -72154  -112601  -102745   -59085    -8626    25838    38214 
   38178    31814    18548     4569    -1052    -1392    -6904   -22926 
  -51138   -79766   -77637   -32254    21321    35819     3908   -40936 
  -60983   -49034   -39904   -59583   -79119   -63608   -27211    -8806 
  -16311   -24004   -27242   -43239   -57414   -44176   -14768     6649 
    4845   -28419   -71930   -84066   -55212   -15037     9252    15362 
    9516   -13484   -46685   -57450   -41499   -30888   -33345   -31595 
  -24920   -28667   -39196   -33304   -17515   -14803   -15816   -12734 
  -14501   -17551   -23830   -39735   -52697   -46145   -19129     9136 
   19825    20119    25332    23081    -5196   -34434   -37110   -35298 
  -47299   -60305   -68683   -71611   -57622   -28276    -9404   -14318 
  -25478   -23849   -12528   -10448   -21177   -29869   -31156   -20675 
    1151    12544     9832    14468    21661     3382   -35943   -58890 
  -53425   -32613    -6407     3963    -5848   -10205    -6631     -825 
   15105    24394     9573   -16116   -39867   -50798   -40568   -26083 
  -16901     -980    10094    -1942   -16253   -10990    -2849   -12444 
  -37498   -62938   -68772   -46987   -12867    13449    16134   -13555 
  -55333   -75546   -71467   -55643   -26972     2529        8   -40040 
  -79340   -80009   -40668     3200    10453   -22737   -64729   -83516 
  -66317   -25200    14328    32746    19600   -17714   -50363   -65406 
  -72058   -69909   -69326   -81028   -69178   -20160    12807     9242 
    2706      265    -9459   -10351     8748    22852    15284     -830 
  -23916   -52298   -56017   -23806    18324    38233    17303   -20435 
  -35495   -28760   -10098    11459     8868    -7243    -3731    -2139 
  -20957   -22246      -67     5282    -9114   -30616   -64306   -87094 
  -67965   -25469    -5460   -22793   -45814   -38565    -5884    20790 
   21013   -10949   -58537   -87811   -91935   -81776   -59449   -38971 
  -27702   -11082     6612     4760    -9961   -10729    -1353   -13175 
  -38365   -40256   -35266   -58229   -74761   -41894     2913     5382 
  -17453   -22618   -17470   -26779   -38640   -39445   -35866   -28987 
  -27347   -26660     2919    31148     2698   -46649   -66288   -70613 
  -68258   -50857   -35938   -40069   -39089      351    46241    37831 
  -19513   -79217   -96107   -51670     -119    -4319   -39539   -38097 
     263     8965   -31347   -71301   -71755   -35007    -2533    -8212 
  -27115   -25774   -10044     1274    -5289   -30334   -48540   -39806 
  -25511   -29135   -38132   -34553   -21366    -9611      657    15986 
   22326    -7403   -61399   -95856  -101913  -101616   -93366   -63245 
  -21923     7999    18766    19684    21565    25835    28182    19495 
  -12190   -58780   -90586   -92096   -65435   -20427    18371    35781 
   38681    30145    16424    16872    26476    13686   -31402   -77814 
  -84242   -54996   -32634   -29735   -28800   -17255     5886    14888 
   -6441   -19139    -6806   -16030   -66616  -123676  -142575  -107180 
  -49237    -5164    22217    41636    43570     7578   -45521   -68392 
  -59255   -33323     5831    21535   -14190   -55838   -47295      908 
   40703    54206    58687    56660    23322   -38799   -82111   -81804 
  -69687   -77104   -87385   -67693   -20572    20304    30147    19049 
   14632    12276   -15571   -55400   -66658   -44477   -19348   -11875 
  -10532    -6614   -15397   -38380   -58281   -70975   -75075   -56274 
  -20386     -978   -12678   -38539   -50726   -34542   -16103   -29292 
  -61696   -78930   -67280   -31272    11980    37793    40144    31952 
   22727    11539   -22134   -73757   -77049    -9583    47802    22489 
  -55725   -97516   -67926   -16176     2046   -15227   -36866   -54334 
  -68205   -54334   -17692    -3134   -19055   -41527   -63120   -78895 
  -76422   -53203   -14325    25030    30313    -1983   -13574    14879 
   23575    -2887   -14981    -7922   -15804   -32874   -31303   -15122 
   -3486    -2649    -8630    -5223     6029    -5836   -40725   -61318 
  -47030    -8279    27230    33488     4332   -30677   -25079    10247 
   13109   -33232   -82075   -80479   -38129   -13593    -8164      926 
   -5365    -6751    20823    19680   -35981   -83594   -87592   -77802 
  -76360   -72244   -59713   -32207    15160    37946     5464   -32482 
  -36968   -30574   -28976   -19850   -14959   -44464   -79798   -59894 
   -1277    27658    15792     5140     9922     2700   -21829   -34717 
  -38678   -60012   -85236   -83470   -48399     7870    54612    55530 
   17914    -7937    -8342   -21337   -42181   -27068     2589    -7497 
  -52748   -95775  -114999   -94410   -30960    25463    22384   -13485 
  -34414   -37066   -24317    -1144     6506   -11104   -30102   -28378 
  -18693   -26660   -43224   -48700   -50208   -43496   -13985     7122 
   -9562   -29834   -31843   -43156   -64216   -67919   -55089   -41268 
  -27798   -13031    -8144   -18673   -28242   -14956    21307    30742 
  -29283   -99513   -98967   -44600     4629    21109     1463   -34431 
  -55555   -45571    -5868    31205    24503   -13142   -41695   -56537 
  -75410   -97976   -91977   -42812    16670    55668    55589    18189 
  -13791   -20828   -28235   -45224   -56621   -55765   -55996   -67352 
  -71040   -48125   -14735     8889    18487     2801   -31444   -58638 
  -80725   -91716   -69035   -34421   -21611   -18642    -1197    16969 
   17626    26714    42407     3239   -75989   -99827   -64587   -37038 
  -11793    35278    56086    13071   -43544   -59471   -58043   -75753 
  -95041   -97992   -99463   -87632   -31403    45380    81629    55759 
    4166   -21184     2068    46891    53812     7754   -35710   -55631 
  -82357   -96227   -71488   -44484   -29148    -8812     1921     7206 
   33328    50592    13655   -47876   -73439   -60298   -42156   -31308 
  -18632    -5347   -10873   -27637   -27414   -28701   -52293   -70029 
  -77979   -94975   -92782   -36486    44341    74110    25748   -40930 
  -67608   -47344     3051    38809    27459     3026    -3571   -13653 
  -44754   -83829  -101916   -80789   -32600    14925    31568    13835 
   -9499   -35098   -70864   -90757   -78686   -51810   -21786    10702 
   29282    30639    44290    51583    -5244   -99729  -142093  -103807 
  -44561   -25060   -30777   -23603    -7555     9117    25279    18362 
  -15118   -43615   -55106   -64986   -77108   -75498   -45261    12594 
   77306   118861   116199    68971     5245   -47117   -94090  -144038 
 -179316  -176672  -123469   -27464    70974   119803   112715    97537 
   92961    61195    -1932   -57300   -97466  -125952  -127352  -109207 
  -87517   -36371    62392   145460   135347    42712   -61176  -120582 
 -139463  -153275  -156180  -122664   -60776   -12421   -12049   -30541 
  -33988   -33752   -25024    -5122     4459    -5992   -38965   -62452 
  -34815     5945     5721   -16147   -27223   -31700   -38697   -36318 
  -12750     -134   -29957   -67228   -81255   -80967   -55552   -20778 
  -35997   -87091  -102610   -71285   -25985     5009       67   -20752 
  -11328    15113    14756    -1649   -17545   -54969   -92350   -71656 
  -31141   -52604   -94832   -80800   -46630   -45341   -47228   -29241 
  -31477   -59838   -62623   -37433   -17422     5468    32204    37496 
   24301     6704   -13095   -22928   -20319   -23286   -32525   -51691 
 -108634  -167842  -137113   -35499    27432    39472    52357    56665 
   39655    22738   -11623   -76019  -113868   -98235   -61611   -18549 
   11179    -3517   -50777   -91598   -98662   -86571   -85551   -78283 
  -55727   -46927   -42557   -28580   -28031   -37711   -36924   -27100 
  -10421     3676     -296   -15211   -31871   -45361   -46640   -51900 
  -69450   -64411   -28513     -696    -8804   -40712   -54415   -45267 
  -46959   -43964   -15819    18721    51142    49309     4434    -8848 
   14351      305   -47642   -77992   -63308   -17080     9295    -7990 
  -48567   -68934   -40969    -4846     9793    26957    30567    -7191 
  -52943   -68696   -50098    -9022    18316     -549   -34054   -29398 
   -4633    -8457   -28879   -24942     3074    22500    12356   -20377 
  -57566   -73867   -50261   -22720   -38227   -68493   -66329   -32707 
   12506    41004    29123     1405     1494     5228   -40135   -95827 
  -95070   -57095   -32084   -36024   -47726   -36359   -14029      884 
   33062    70239    54860     8168      177    18588    12853    -9045 
  -25819   -48430   -73619   -86463   -92373   -88158   -57896    -2134 
   51963    60297    11560   -48473   -75576   -67841   -51263   -54060 
  -56242   -19093    16135    -3588   -36057   -31415   -18781   -34013 
  -51854   -39609    -8732    21353    34104     4643   -41665   -42515 
  -10457    -2512   -11716    -6550    -4529   -28777   -55777   -63333 
  -69693   -77987   -66958   -43992   -18845    15142    37721    21426 
  -30100   -93037  -138034  -133574   -72755   -13802    -2773     9863 
   57005    92037    84639    45823     2555   -10231     5895     9404 
  -14794   -41001   -47790   -34947   -21132   -28349   -36961   -16345 
   -4016   -39365   -81817   -92756   -83415   -61494   -26384    12030 
   32030     9706   -29621   -33143   -26005   -56503   -87765   -88007 
  -81894   -53640    12687    54086    33909    -1713   -13684   -10449 
  -11283    -6518    18833    26949   -16799   -53711   -32392   -11191 
  -26978   -29913   -12621   -21238   -49417   -53346   -32986    -9151 
   14647    17238   -12653   -35105   -29798   -20504   -10955    -2464 
  -29486   -99124  -163342  -174156  -121246   -33748    36606    56837 
   44979    42989    50637    17326   -63220  -115787  -100169   -61721 
  -46131   -51330   -47217   -29072   -25726   -27645   -14045   -14311 
  -28822   -22099    -1840    10008     8888     1077    -8952   -40052 
  -80290   -71465   -12905    37919    49226    14038   -37135   -49983 
  -35637   -38021   -59803   -77955   -59534   -16811   -19282   -63748 
  -71037   -35378    -8641     3532     9555    -5572   -42198   -75880 
  -78499   -37351    23970    56024    44306    12962   -29956   -61268 
  -46685   -21954   -22014   -26035   -51012  -100465  -104459   -56076 
  -21410   -11479      677    17288    26861     6516   -52733  -107365 
 -115165   -92797   -67238   -32705     3207     9772   -17785   -54604 
  -62159   -33461   -20601   -44763   -66171   -68083   -62272   -43990 
    -331    56723    91178    81121    34863   -14475   -44123   -72074 
  -93605   -88222   -87693   -84385   -28237    39830    63756    63458 
   42764   -13416   -61763   -59546   -37064   -30709   -38247   -53975 
  -56451   -31823   -14816   -19637   -16382     2060    12759     4415 
   -9125    -8737     3215     -881   -32330   -64865   -71593   -41388 
     329    -4517   -37989   -18268    34276    29140   -30545   -75397 
  -76747   -46118       89    41405    47370    14290   -15942   -22769 
  -28206   -35813   -27410    -7910   -11105   -51182   -83050   -72499 
  -56551   -58264   -55916   -43775   -20557     5034    14131    25213 
   33813     4121   -30372   -27309   -12713    -9706   -21985   -48111 
  -56104   -38415   -30940   -35734   -38105   -46283   -54781   -51755 
  -36593    -5610    18447     -599   -28366    -6001    35721    36279 
    1759   -35126   -59368   -61677   -45002   -36765   -47734   -42420 
   -2071    34333    28728   -10005   -48031   -64151   -61181   -51358 
  -44050   -40113   -31924   -24380   -27387   -18329    21748    57586 
   47036    -4479   -50282   -46329   -12033   -15672   -72563  -112450 
  -84977   -39351   -27181    -8464    47674    81853    52870     8439 
  -12852   -31693   -48745   -39873   -30836   -61325  -107210  -127078 
 -114185   -48118    70019   139642    99078    33875     9340   -16655 
  -69575  -105226   -84475   -28014    21942    51448    55767    30765 
    4198      493    -6578   -29407   -37901   -42648   -69299   -74047 
  -32162      421    -2678   -15603   -22809   -15363    -3942   -21498 
  -63621   -89881   -81964   -47504    -6800     7468   -17385   -61889 
  -81656   -32978    36339    33258   -15415   -30990   -22902   -16657 
    1260    22052    12171   -26338   -44158   -18195     9718    -3622 
  -57672  -113397  -129274  -111990   -84934   -53612   -44293   -58372 
  -33256    27332    45543    33879    45439    45796     6038   -32562 
  -40935   -31688   -36673   -79976  -137567  -160487  -136485   -92179 
  -49330    -8415    27796    54054    54619    -3128   -87223  -114395 
  -91153   -74466   -44784    31218   113671   145860   117920    65940 
   32543     9188   -30615   -62291   -70155   -90118  -139438  -190843 
 -202414  -143124   -25831    92854   163731   164546    99547    19882 
  -27601   -49260   -66551  -104278  -158044  -165689   -99205   -12533 
   40202    70874   106654   116153    56154   -45470  -111431  -108113 
  -61607    -9106    15566    23659    40200    27104   -11713   -11916 
   12017    20340    29450    38675    15509   -33821   -65804   -69309 
  -59349   -34628    -3394    12519     8890    -7176   -30665   -44962 
  -33570   -25910   -45963   -50325   -22624    -1608     3961      305 
   -9748   -12610   -15456   -35579   -67579   -88493   -83632   -65251 
  -46156   -31311   -26478    -7252    44399    80817    59952     8565 
  -29237   -39712   -31740   -11959    -3617   -42495   -98400  -112313 
  -82683   -30180    17095    40188    56410    59003    37722    23426 
   14812   -11109   -28998   -18003   -20138   -64812   -90661   -53031 
  -19039   -34891   -52192   -31234    13030    37676    14277   -31096 
  -59687   -75060   -80456   -60846   -31373    -7828    17455    46701 
   91779   134305   109225    19047   -70104  -122182  -118871   -74159 
  -40633   -25325    -7569     3059     -801   -20812   -60053  -106029 
 -139511  -128979   -61905     6098    30737    45052    65986    50700 
   -5635   -49902   -62358   -56498   -36650   -21605   -23859   -31717 
  -44577   -52730   -32320     5458    21308    -2673   -49497   -90788 
  -95474   -48488     1107    -8015   -51909   -74512   -63898   -29184 
    8848    33253    50700    44253   -10318   -71729   -89540   -83753 
  -96573  -122529  -116720   -60484    19141    80176    78100    22542 
  -32358   -81625  -110601   -86212   -62869   -81922   -91305   -55528 
   14363    93332   140293   120271    51781   -19056   -89150  -147432 
 -154024  -126071   -96922   -49677    24666    84073    83425    42341 
   25673    54616    79880    50146   -21606   -78774   -96890  -108676 
 -129543  -114619   -37543    60123   116938   103059    33432   -49853 
 -110252  -133509  -110931   -54356   -19247   -27835   -39780   -55723 
 -106086  -141613  -101503   -28615     9328    17143    24453    19997 
   -8735   -28901   -30593   -36554   -30783    -9956   -12234   -41541 
  -62736   -58914   -56890   -76581   -92337   -83927   -65299   -51887 
  -29375    18703    61246    60345    24536   -22385   -65468   -77187 
  -35038    21376    34922    20708     4943   -28994   -61713   -54159 
  -36431   -45207   -54039   -47669   -40596   -28703    -7607    15336 
   28799    35708    50328    51837    23997   -18827   -81560  -139428 
 -134113   -79234   -34005   -23681   -50676   -88524   -90256   -57055 
  -18111    28209    66243    45622   -26157   -66471   -27709    54358 
  121723   140905   113330    53274   -21387   -62985   -51193   -32336 
  -33123   -42272   -59394   -73278   -52597     5727    59251    65916 
   28226   -24568   -62474   -65965   -59648   -80543  -102044   -81153 
  -31850    13876    42078    46446    33470    16240   -10134   -56939 
 -114963  -157818  -156074  -104377   -29161    43132    92156   103115 
   77363    27932   -26438   -71902  -100362  -106605   -95167   -71772 
  -44594   -22468     8420    47747    50106     1887   -48855   -67073 
  -56614   -30133     -614    15733    10819    -2800    -8381    -8186 
  -12067   -21731   -32872   -40455   -41290   -19169    25899    31892 
  -19257   -47383   -37289   -42824   -57523   -71738   -99557  -111103 
  -78369   -21598    23562    36178    33029    44318    50088    14650 
  -25998   -18348    15157    25411      203   -39949   -67582   -74826 
  -52939    -2803    33413    30305    11996    10716    29477    32552 
   -4954   -55066   -72548   -49022   -20954   -16385   -24379   -31713 
  -33629   -37830   -69781  -106893   -92555   -48999   -46903   -89221 
 -122745  -122949   -96971   -48385     5455    42051    51617    21386 
  -24545   -30744     1391    27194    20674   -21019   -74634  -103021 
  -85799   -36944      630    11217    12046    -4172   -28036   -25839 
  -25757   -55762   -67038   -37477   -12694    -8625    -6373    -9448 
  -30088   -71524  -114435  -117488   -68800    -1018    46844    62581 
   57389    39837    19384    11571    18787    22228     2414   -36044 
  -77724  -108885  -111995   -87302   -58178   -43728   -46034   -55685 
  -63933   -65459   -55271   -30851     4359    24929    -3686   -62957 
  -86190   -49414     8633    53056    73930    69121    46269    17012 
  -11503   -39242   -61508   -59270   -42756   -51757   -78024   -73253 
  -31992     -515   -15919   -57864   -71207   -40874    -1514    21417 
   27541    26347    25124    17456     7668     8971     4185   -18636 
  -29162   -17954   -26983   -58454   -51056     2275    43876    38824 
  -10294   -59091   -70557   -77444  -108296  -132549  -118644   -76731 
  -33980     1393    35372    64589    65215    23449   -28349   -60709 
  -83296   -81934   -29713    35979    71985    91750    96028    56548 
  -12929   -56670   -55223   -43491   -40013   -34732   -31994   -33076 
  -29479   -16924    18080    66328    83420    51901     3792   -25204 
  -39690   -65342   -97246  -100573   -55859    13289    55852    33000 
  -37063   -88288   -92052   -79573   -85588  -109757  -110132   -65969 
  -24969   -32080   -66472   -76664   -36771    31434    73357    59773 
   13102   -36847   -70326   -74288   -44443    16381    62076    37937 
  -25232   -60937   -54339   -22139     2603   -11350   -39727   -46430 
  -42245   -31715   -15539   -27016   -63201   -79767   -74644   -76804 
  -83692   -73766   -57784   -43477     2693    64935    80975    56800 
   24354   -16177   -46799   -52585   -55582   -76432  -114494  -139501 
 -111792   -39506    31101    56661    26618   -10158    -7581     8143 
  -12346   -60751   -76650   -48807   -33344   -44391   -46983   -26689 
    3223    15031     7466    14587    35538    34891     7786   -20130 
