Origin Time       2011/03/11 14:46:00
Lat.              38.103
Long.             142.860
Depth. (km)       24
Mag.              9.0
Station Code      TCG004
Station Lat.      36.8065
Station Long.     139.4221
Station Height(m) 1492
Record Time       2011/03/11 14:47:24
Sampling Freq(Hz) 100Hz
Duration Time(s)  300
Dir.              N-S
Scale Factor      3920(gal)/6182761
Max. Acc. (gal)   216.071
Last Correction   2011/03/11 14:47:09
Memo.             
[...]
    1103     1711     2447     3396     3826     3624     3521     3497 
    3426     3418     3299     3071     2681     2876     4444     6318 
    7866     9601    11584    14156    17168    19049    19440    20077 
   21709    23305    24287    24823    24943    24805    24534    23687 
   22402    21533    20855    19749    18068    15824    13580    11470 
    9304     7278     5493     4858     5839     7187     8133     8619 
    9034    10039    10900    10708    10265    10741    12001    13330 
   14758    16021    16215    15236    13673    12390    12037    12138 
   11811    10686     9144     7788     6352     4602     3114     2304 
    2416     3826     6305     8704    10380    11856    13168    13421 
   12108    10125     8610     7608     7726     9231    10317     9704 
    7344     4050     2223     3386     5683     6698     6801     6874 
    6685     6436     6273     6139     6603     7221     6533     5625 
    6412     8070    10028    12169    13575    14920    16626    17943 
   19150    20613    21444    20261    18305    18041    18431    17940 
   16853    15518    14610    13723    12398    11907    12794    14620 
   15908    14778    12062     9867     8047     5340     2943     1680 
   -1009    -4335    -5015    -4786    -5560    -5324    -3095    -1799 
   -4034    -6291    -5123    -2951     -491     3957     8250     8469 
    4701      514     -257     4691     9694     9515    11370    16863 
   17482    14789    16996    21042    18850    17548    23420    25578 
   21165    16235    13860    17544    20762    17034    11693    10773 
   17470    25235    25493    18450     5986     -387    10267    23634 
   24108    20707    23844    27573    23306    13217     8454    12262 
   14705     7761    -3729    -5369     2674     3195    -3848    -5843 
   -3697    -2788    -3952    -6973   -11288   -12803    -5271     2447 
   -3418   -13755   -14959    -7406     3561     8185     4407     2826 
    8730    20153    24283    11897      655      497     3206     6782 
    4230    -3763    -2068     7286    10488     3836    -4544    -6239 
   -4624    -6011   -10310   -11234    -2976     5997     6393     3868 
    3242     7550    17604    25526    30795    31406    19298     4411 
    3681    18656    35092    36728    22069     3914    -1796     5824 
    7804    -1215     -724    11245    13963    11747    18093    22607 
   17292    10387    15594    34994    51217    60613    74805    93090 
  108373   114293   111624   101530    80151    52829    23106    -4868 
  -24183   -38670   -41887   -33206   -35766   -46602   -41971   -26042 
  -17532   -22560   -34256   -45776   -55879   -52909   -31665   -16256 
  -17613   -17295    -7402      -62    -5481   -13171   -12082   -13429 
  -20526   -17958    -3181     6381     1939    -3240    -5212   -12428 
  -12412     4486    21870    32911    39385    34496    26454    27646 
   29393    21927     9309     5004    19804    43818    60454    70301 
   75707    73763    70574    64380    46961    31715    31206    35650 
   32847    19930     5599     -379    -1389    -4653   -10678   -13271 
   -9564    -9108   -14333   -15524   -14284   -12504    -4965      642 
    -929    -3924    -9276   -14563   -14266   -12556   -10606    -7979 
   -9539   -11617    -7238    -1737    -4185   -13242   -18187   -12576 
   -4485    -2632    -2122     -435     -419     3192     9660    10466 
    8270    10359    17469    26897    35215    40209    43088    44811 
   41427    32281    24401    22452    26753    33185    33401    28109 
   27161    32006    34529    31085    23879    15925    11837    10029 
    4253    -1747    -3512    -4906    -7007    -6436    -1869     2306 
    1949     1008     2457     1426    -4751    -9940   -10110    -9671 
   -8703    -3645     1658     4299     8941    17190    21111    15931 
    8044     3653     4785     9601    12273    11511    10006    10733 
   14313    14591     9195     3962     1592     1417     3710     6925 
    8239     9134    13784    19923    21825    19938    17036    13919 
   11819    10201     6621     2725     2545     4208     4537     6144 
    9278     9897     8394     8596    11407    15019    19090    23624 
   27388    29939    29658    26249    23699    22309    18123    11410 
    6156     4147     3663     3321     4156     5609     5599     5434 
    7118    10099    13675    16093    15405    12853    10104     7929 
    6076     2268    -1471     -439     2362     3064     5118     9909 
   13118    12832    11982    12702    13045    11272     9631     9012 
    5457     -511    -2321      190     1750     2187     4986     9667 
   11808    10314     8568     8923    10473    10612     9572    10869 
   14573    17190    18167    19400    20652    20525    19930    20491 
   20896    19792    19112    19683    20172    19016    14737    11033 
   10804     9249     5821     5002     7454    11895    16616    20136 
   21791    22127    22370    21009    18072    17166    17656    16485 
   14498    12851    10868     8594     7297     8439     9766     7841 
    4597     2978     2608     1311      448     2763     3143      338 
     901     3433     3808     1458    -3906    -7553    -4426     1224 
    2561     1529     4100     8462     8699     5209     2667     3314 
    5122     3922      597      119       56    -4588    -8724    -6704 
   -4603    -7931   -10784    -9098    -6448    -4404    -3168    -2224 
    1436     6342     8543     8440     7954     9252    12614    14300 
   14230    16518    19681    19750    18883    19764    20481    19557 
   17875    16935    16963    15781    12736    10016     8745     9266 
   11677    13522    12286     9357     6820     4388     2928     3021 
    2449     2405     5717    10059    12904    14855    16914    19196 
   20180    19394    18296    16456    12643     9363     8801     7949 
    5598     3718     2061      525     -862    -1632     -516     -202 
   -2356    -4097    -4282    -4055    -3841    -2955    -2223    -3438 
   -4859    -3916    -1433      651     2657     6157     9916    11807 
   12722    13221    12359    11278    11472    12532    14064    15466 
   15808    15514    15504    16001    15891    13965    12589    14245 
   16986    18133    17756    19131    23158    25492    25263    25360 
   25488    23697    20897    19763    18731    14981    10698     8032 
    6171     4356     2217     -477    -2892    -3530    -2822    -2988 
   -5420    -8685    -9952   -10372   -12293   -13589   -12992   -11059 
   -6666    -2477    -1593     -680      924      340      199     3023 
    4853     3425     3514     6705     7846     6896     7584     9492 
   11497    12138    12123    15673    20240    20443    19160    20807 
   23892    24937    24063    22603    20595    20315    21108    18038 
   14303    16554    20565    19598    16040    14477    14685    14419 
   12725    10381     7858     5480     5537     8318     9623     7414 
    4970     4711     5668     6599     6520     6222     7548     8792 
    8075     6925     5935     4812     4762     5007     3774     3217 
    4658     4858     2905     1880     3081     4788     5617     6117 
    6930     8549    11516    13984    13705    12557    13290    13950 
   12026    10963    13984    17206    17707    17684    17507    16322 
   14984    13696    13128    14859    17415    17963    17878    19344 
   20400    19980    19848    19410    17594    16027    15284    14727 
   14843    14965    13554    11832    12011    13747    15831    16499 
   13757    10384    10157    10408     8334     5890     3529      188 
   -2060    -1602     -490      -13     1413     4549     7444     8092 
    7092     6306     6341     6711     6555     6074     7360    10432 
   12978    14923    17130    18825    19261    18721    17410    15409 
   13439    12071    10836     9389     8867     8752     7237     6951 
    8638     7399     4473     4429     5040     4584     5062     6510 
    7569     7730     8166     9605    10729     9110     3214     -601 
    2211     2000    -1226     3903     7721      125    -2743     4270 
    5945     1533    -1371    -2333    -1698    -2460    -6029    -5468 
    2798     9974     8074     3860     6509    11238    10610     9625 
   14255    18984    17750    14502    14267    14541    13449    13336 
   13892    14067    14169    13872    13563    13213    13378    14968 
   15985    17138    21005    23448    20650    16743    15384    13770 
    8706     2668     -500    -1757    -2474    -1604     -980    -2831 
   -5170    -6069    -6188    -7043    -9332   -12160   -13295   -11162 
   -8291    -6951    -4415     -871     -988    -3960    -4180     -389 
    3506     5803     9385    14380    16126    13899    12679    13596 
   12839    10469     8793     7563     7074     7028     7286     9003 
    9789     9022     9639    12522    16255    15484    13824    21015 
   24450    15377    13110    21150    23857    21902    25719    33706 
   32800    27303    28616    25454    20247    22321    18051     8558 
    4039     3506     2169    -3664    -3887    -1423   -10332   -20133 
  -14626     1010    -1198   -18495   -13781     1937     3018      303 
      79     3942    18968    47022    73475    61187     1863   -67948 
 -113864   -92076     5641    76892    41306   -50193   -99652   -39148 
   65767    61227    -8005     6376    51502    39688     9330    12242 
   50141    46944    -9184    -4032    56458    60929     4138   -39375 
  -27036     3334    14618    28738    36716    29366    33816    28001 
   -8872   -34010   -11191    27297    16641   -28685   -30665    13181 
   39314    27060    -6323   -38773   -34513     7719    41591    44726 
   20282   -26140   -45938     5816    60754    36120    -8699     4887 
   39352    36362     5248     5271    37713    22808   -20761   -10323 
   17706    11183    -3223     5712    35868    44794    21598     7191 
    4558     6664    13193    -3594   -32114   -30074    -6312    -1894 
  -14649    -1275    19124       22   -25458   -36550   -43437   -20519 
    9335     4808   -11180    -8320    19038    32151     8633      861 
   22874    40784    39681    15646     2089    26958    49626    34128 
    4009    -2101    24235    55023    60497    52159    56404    45138 
  -29986  -123429  -113175    34654   166981   110494   -46933   -80202 
   -6577     5479   -24000    26292    92404    30034   -78944   -51788 
   62297    94054    38216    -5408    15542    78266    92951    33735 
  -29118   -73498   -72983     7216    76453    49008   -39447  -104253 
  -92836   -74048   -93417   -66469   -14768   -10629     2395    18974 
    5937    55149   127512    74955     4324    65099   122280    39157 
  -98737  -127259     5801   112704    38166   -48641    -3156    57282 
   34474   -12712     1003    44174    28447   -15345    -8779    25113 
   32019     9054   -15667   -11721    10360    23470    41400    55085 
   35504    24870    37218    23038    31729    99924   119949    69969 
   28636   -11233   -40832   -11997    22576     1946   -42831   -72147 
  -69354   -39580   -23495   -33103   -33429    -8311    18189    14468 
   -7732   -14662    -7314     8459    31162    43279    34961    13316 
    1794    12543    20837    16314    13164     7665     8227    27089 
   26484    -3897   -16805   -15409   -22927   -12656    24704    49712 
   22820   -28846   -34927    -4762     8717    14281    18502     5173 
    -370    10151     9359    11604    29743    35481    26334    27294 
   37941    33900    14287    11576    30566    38198    28810    23971 
   24257    23997    25495    12276   -17954   -30053   -15651     3228 
   21636    36954    43226    45317    44038    39428    34419    25259 
   11338    -6423   -18528    -9120     7407     5450   -10607   -19507 
  -14627   -10637   -14575   -16934   -14669    -7340     3908     4516 
   -5271    -5528     3233    12005    25182    33334    23259     9825 
   10841    20513    19850     2901   -11516   -10528    -4345    -2999 
   -6832   -11299    -7570     4300    11656    13755    20512    24257 
   13703     1207     1465     7952     5897    -5643   -12285    -3420 
   17345    28080    14999     9513    28659    32374     7234    -6578 
    9106    26001    18785    -1582    -8845     4090    18908    22215 
   20553    16036    14096    26111    34261    27470    27502    32442 
   24600    12594    16087    34067    38311    19758     4708     5042 
    8164     4999     2610     9573    15264     6694    -7800    -9709 
    -767      639    -8711   -17199   -10611     5282     7025     1428 
    5454    12895    20248    27707    28664    19197     3426   -11417 
  -16256    -3801    13676    14828    -4502   -29367   -38948   -29449 
  -13807    -2932     -970    -3399    -6136   -11452   -10535     8211 
   27660    25503    16075    20431    28399    19854    -2004   -11472 
     934    13776    11970     5974     9929    19026    20114    19267 
   23139    17827     9713    19407    38637    57113    62733    39329 
   21447    33913    31399    19304    39953    58754    64651    77842 
   73491    59067    52043    39487    21331    11563    12590   -13563 
  -48929   -34234   -15650   -11107     6338   -26196   -93000  -125935 
 -148179  -143552  -120936  -128654  -150405  -194576  -177219   -35432 
   45876    41544    85316    74742    -9363    33740   180122   164656 
  -81548  -272160  -172752    61985   192251   227576   217801   146479 
  101467    62949  -121533  -331856  -322781  -117219   106341   213910 
  131980   -19108    -7953   118055   198571   256045   259644   168116 
  102028    56316   -69202  -125091    -3005   112931   158766   196347 
  124490   -22643    -7695    99532    55156   -63533  -112187  -127282 
 -140050  -166745  -191101  -146995   -83592   -88184  -108642   -41863 
  102293   180102   142537   109261   113024    92057    58437    44697 
     396   -75526   -31282   147492   207823    47300   -88333   -59654 
  -28592   -58080   -65113   -44681   -21470   -30970  -108823  -201508 
 -199689   -78900    43264    65384    11292   -68220  -130507  -115199 
  -36933    14182    18756    16305    21527    43864    82620   117700 
  154687   181325   134311    50355    31663    30139   -17625   -31774 
   32926   106431   108857    32899   -61823  -122625   -97437    13814 
  105095   128550   104707    47041     7226    -3565   -16580   -62281 
 -132868  -107037    26332   102778    63630   -18588   -56480   -26222 
   26051    94073   157513   151502    92886    28291   -21245   -32656 
  -37361   -52968   -38871   -17211   -25622   -61898  -111860   -96606 
    4828    93175   113370    68186    12462    12687    39363    54657 
   46776   -16974   -96185  -101483   -56070   -24486      320     3784 
   -6619    25725    58810    41469    14368     7559    23485    29572 
   -7633   -16532    32648    48399    14587   -14305   -11397     5610 
   -6538   -22925   -19342   -24077   -24600   -17877   -13900    11551 
   39268    37066    16629    -8074   -10784    14280    29815    33343 
   34237    21868    19278    44372    60781    49642    38085    31960 
   23248    20270    14814     -223    -6459     8269    28453    23028 
   -3658   -13832    -3475     6805     8095    -5073   -27748   -43194 
  -46268   -44361   -38989   -24749    -2037    16523    14919    -1101 
    -534    29605    58773    51315     9115   -32214   -43617   -27845 
   -2752    11897     8941     1519    -5486   -10769    -4226     7020 
   12220    16860    19894    10339    -9071   -19888   -19706   -17865 
   -7764     2616    -4880    -9216    11059    31990    27303    11817 
   20926    51528    67411    69944    75484    67551    48640    43148 
   42116    28897    13812    10899    12094    -4413   -26177   -17165 
    4164    -6409   -38256   -49911   -23069    17262    29234    11409 
   -9721   -18493   -10356     4469    11289     7048     1311     6326 
   13284     7558      846     3421     1709    -5898    -3779     5116 
    6813     2544     2256    10382    19776    18297     8755     9773 
   23019    26607    20053    23392    31157    30408    27764    26675 
   25203    24860    24485    23961    21620    11749     -120      182 
   11449    14789     -857   -21350   -26200   -14541     2042    10833 
    2041   -12783   -13712    -6558    -6809   -14254   -18483   -10960 
    3454    12630    13573    10189     6292     5332     6398     5374 
    3686     6300    12938    17012    14937    12321    13816    18027 
   22887    25785    24471    20000    18201    22958    27585    24685 
   17296    12725    12642    12166    10271    11761    14928    13573 
    9188     9877    16842    18407     9363     -201    -4579    -5418 
   -4037    -5342   -12241   -18371   -15843    -5993     3025     8243 
   11329    11187     9002    10312    14817    17448    17619    16414 
   15079    17650    23848    26076    22044    19470    21503    21164 
   13416     3647       85     1276     2140     3728     6161     6378 
    5630     7769    11704    14316    16413    18406    20303    25463 
   33365    38054    38860    41083    44811    44629    40049    33821 
   25359    15824     8530      559   -11520   -22314   -27470   -29677 
  -31673   -33305   -30852   -24086   -19088   -16723   -13932   -10509 
   -7203    -3895     2615    11394    15219    15134    18828    26721 
   32899    34992    36725    39577    39904    36590    31926    26598 
   21900    20584    20932    18344    12608     7906     6516     5975 
    4066     1637     -243    -1014      149     2356     2277      112 
    1464     7237    11438    12966    16075    19494    19069    16795 
   15225    11629     6551     6073     9836     9658     4168     -327 
   -3073    -6129    -8499   -10097    -9404    -5903    -3547    -2387 
    -651     -314      -76     3498     7786     8789     8216    10063 
   15638    22123    25908    28354    31603    33229    33476    34710 
   33445    27785    21928    18284    16603    16566    16872    16455 
   16569    18227    19625    20060    21117    21943    20957    19240 
   18010    16595    12571     5343    -1649    -4516    -2157     2278 
    4836     6062     8027    10129    10290     7958     5610     4056 
     894    -3817    -7318    -6958    -2756     1123     1193      -26 
    3177    10175    14019    12430     9218     6248     2739      833 
    1814     2526     3345     6342     9745    13006    15524    15836 
   15856    16697    16963    16336    15258    14639    15403    16390 
   16064    15322    14925    13659    10803     7532     6583     8786 
   10365     9167     8873    11280    13178    14012    16163    18783 
   19398    18484    17324    15293    12515    10250     9122     7946 
    4466      938     1596     4501     5888     6103     5929     4851 
    3173     1652      876     -111    -1975    -1568     1724     5158 
    7610     6440     3322     5517    10874    11048     8015     7750 
    8076     7260     7514     8319     6712     1257    -2018     2720 
    8700     7013     1224     1017     6851     8366     3908     7203 
   17146    20690    16540     4756      562    17003    21154    -4213 
  -16013     6575    18797    -5682   -20015     9006    31540     8610 
  -12314     1773     7540    -9122    -5851    14622    13793     1695 
