Origin Time       2011/03/11 14:46:00
Lat.              38.103
Long.             142.860
Depth. (km)       24
Mag.              9.0
Station Code      TCG010
Station Lat.      36.6348
Station Long.     139.4379
Station Height(m) 637
Record Time       2011/03/11 14:47:22
Sampling Freq(Hz) 100Hz
Duration Time(s)  300
Dir.              E-W
Scale Factor      3920(gal)/6182761
Max. Acc. (gal)   125.485
Last Correction   2011/03/11 14:47:07
Memo.             
[...]
   32463    21387    10592     7012     -136   -17563   -40863   -59158 
  -62034   -59449   -55826   -40111   -25370   -26725   -32039   -31880 
  -25032   -11088     3284    17286    30333    32485    30235    37532 
   46894    47828    39755    19998    -7801   -25335   -28295   -31175 
  -28861   -12818    -1321    -2117     3460    14645     4253   -23507 
  -36971   -35658   -31978   -27286   -24365   -13175     8059    19807 
   25015    33190    34049    29846    31255    35266    37096    31567 
   13405   -12275   -39598   -64805   -77339   -71026   -57107   -50659 
  -42141   -24369   -22784   -30213    -8917    24339    28506     2488 
  -16276     6307    42257    41571    16814     8663    13930     3156 
  -22711   -37125   -31680   -19874   -16739   -32362   -57477   -61057 
  -44445   -42260   -43871   -24172    -8514    -9932    -3159    15087 
   29185    37499    39028    26154     3398    -7888     2989    11374 
    -352    -7250     8315    31684    43414    36910    26375    20352 
     936   -29234   -36176   -25738   -33099   -43339   -27555    -6419 
   -4893    -9815    -9421   -12662    -8555    12972    24593    15051 
    4961     6559    16712    20775    13477     2795   -18827   -47114 
  -53342   -41577   -33742   -27123   -25548   -37184   -44831   -33820 
  -14407     2145    18822    37700    47441    40468    33755    38492 
   35696    18505     4789     5202     9511    -1394   -17765   -22265 
  -32350   -48803   -42119   -19556   -19549   -38046   -32162    -2945 
   15007    21491    17454   -14344   -45630   -32375    -3794    -4000 
   -5177    19077    32535    14871     -760      588    -3520   -20002 
  -34575   -39046   -36889   -33653   -31200   -37099   -53897   -65941 
  -65311   -55979   -39543   -20497     -682    13945    16052    22273 
   43207    54301    39737    26623    33896    31368     8476    -8537 
  -19407   -25394   -22891   -30318   -44750   -48739   -39549   -20299 
  -10017   -19377   -31311   -28729   -13475    -4962    -2153    15425 
   36296    39974    34632    34825    38083    23902   -12414   -43286 
  -55778   -63686   -73613   -82990   -85933   -79562   -68193   -44047 
   -3487    33948    54665    56913    47156    39504    32534    19327 
   13956    29449    38192     9796   -20885   -16560    -5544    -6188 
    3315    22233    28420    18670     4767    -4808    -1047    20975 
   44126    48353    43947    47749    44198    19284    -9431   -37622 
  -64811   -60900   -29710   -12915   -11037    -3564     2941      531 
   -7447   -17506   -21586   -17426   -19548   -36710   -48145   -29761 
    3300    20170    25213    41736    60310    55294    34170    15954 
   -1131   -22467   -43735   -54336   -50936   -48294   -54938   -59369 
  -53343   -39981   -35150   -50010   -66511   -71404   -65295   -41734 
  -11161     5575     7598    11572    30235    52466    68328    87588 
  103525    92408    59603    38448    33858    18993     2036     5351 
    3782   -14263   -22542   -25846   -42505   -61201   -62126   -47865 
  -36844   -23036     2396    10846    -8073   -23240   -17631     3226 
   26929    39340    38347    33291    29241    18307     3880     2595 
    2018   -15737   -35470   -45885   -48016   -36583   -23159   -22469 
  -19157    -2152    12908    21420    36231    51114    45306    21745 
     637   -13969   -27431   -35768   -36042   -36426   -40996   -34970 
  -19191   -18652   -23237    -7838    12008     8560   -16384   -26689 
   -1028    31557    42016    37790    31381    16785    -7714   -26298 
  -27840   -19408   -17249   -23630   -25063   -19610    -9613     7696 
   16979     8644      467    -2575    -5428    -2482     2523     7622 
   16242    24100    34211    39703    28057    17102    20442    27901 
   32414    29862    26299    31283    34500    23300    -1057   -24685 
  -35700   -45260   -58201   -62302   -60988   -60105   -62230   -67502 
  -60667   -46026   -36538   -22597    -8725    -5648    -1631    14881 
   28171    11094   -16864   -15498    -2127   -13835   -40897   -51442 
  -41952   -26170    -1603    24278    36011    50307    71090    69416 
   45759    27075    22197    17828     2636   -14270   -24372   -30331 
  -29397   -19903   -11005   -11300   -11122    -8035   -25252   -50177 
  -45031   -20445    -3257      696    -5454    -6570     5816    22739 
   35038    36486    34235    39007    36280    20778    15552    17367 
     734   -22186   -24642   -24955   -41969   -48646   -33974   -21330 
  -23022   -34276   -38281   -23458    -1241     9061     3396     6356 
   27359    31581    14162     6819     9122     8228     2763    -4130 
   -3434    -4890   -15924   -20392   -18010   -15067   -14942   -26367 
  -34721   -26266    -9126    11913    24477    24418    31387    41928 
   32908    10329     2930    14303    11059   -15594   -29172   -19681 
   -9816     -513    13847    20718    11592    -4431   -10574    -2305 
    3295    -8156   -28940   -44974   -49304   -47866   -53167   -55717 
  -36620    -6886    14699    31813    43904    41426    32781    30142 
   28784    19613     6149    -5960   -24525   -42813   -42078   -38680 
  -52694   -62369   -49067   -37346   -46883   -45408   -14724     8606 
   16586    32673    48549    52179    46683    32266    11666    -9123 
  -20491   -19076   -16189   -15969   -16012   -17929   -14103    -5607 
  -11551   -26564   -26574   -15419   -21550   -50344   -60612   -37656 
  -29186   -44157   -35486     2580    28884    30715    35170    46820 
   50224    55512    59713    44092    20844    -5771   -37564   -50466 
  -52162   -61351   -49645   -16257    -8073   -25738   -31103   -23373 
  -20108   -18216   -17694   -21060   -18586   -14957   -23621   -35428 
  -31163    -6870    15693    11145    -6505    -6778     5668    15602 
   23002    22510    23113    41228    48203    28175    23514    46376 
   61148    51271    31233    25686    37462    36151     5273   -33352 
  -60588   -82072  -106331  -124568  -110813   -62426   -21962   -15083 
  -11484    20764    61329    71304    58374    50305    38307    10983 
   -7373      507     9597    -3874   -22035   -25847   -29316   -36501 
  -30082   -20689   -28458   -40559   -39023   -25206   -20471   -39175 
  -49512   -29179   -11431   -11353    -6650      925     -844     2337 
   11808     4723    -1614    27569    60935    49258    13147     3092 
   15797    13214    -3548   -17187   -38509   -64885   -78086   -84733 
  -93027   -93484   -81200   -58508   -28477     3004    29139    43563 
   45006    38753    33106    34455    38382    36812    29684    20542 
    8441   -12186   -39898   -58669   -52634   -27317      787    22351 
   25833     6371   -18075   -25848   -17990   -19985   -38982   -52226 
  -60325   -74120   -76108   -53756   -15638    19868    40475    54082 
   62765    59552    45786    34236    46677    72367    71696    37081 
   -9267   -50009   -83099  -110042  -114723   -85414   -54585   -54683 
  -55918   -24676     8792    10568     3829    15424    20088   -12960 
  -60341   -81549   -76695   -64837   -52715   -41173   -29882   -20447 
  -10457     7397    27419    41461    53773    59718    50570    41023 
   47739    54758    36804     8705    -2637   -11402   -26464   -25771 
  -11870    -3570     -723    -5154   -14135    -5072    17602    20338 
    3518    -2034    12053    22706    10996   -13118   -33286   -48765 
  -59781   -63204   -62761   -61250   -55197   -49599   -60411   -77773 
  -66859   -39702   -35660   -36133   -15706     1634     7117    14826 
   16503     8476     9898    20619    14860    -6381   -12267    -3747 
   -7686   -16633   -16686   -27129   -44882   -47473   -48332   -43723 
   -8939    21579     8835   -15809    -9419    23173    51097    64973 
   78697    89041    75551    46912    40336    55150    52948    34257 
   20696     8995     5830    13790     9683   -14122   -51883   -89516 
 -102526   -97809   -88582   -63974   -40273   -35759   -31251   -21040 
  -12854    -7778   -16349   -36851   -48369   -39923   -18097     2447 
    8293    -5336   -24148   -31979   -33478   -27834   -10101     2330 
   -7388   -33375   -49572   -48691   -60989   -79963   -67450   -37815 
  -22136   -20458   -26426   -29998   -16022    29547   100534   150555 
  153674   141792   137372   134417   129298   113519    80651    39917 
   -1099   -43870   -86737  -114062  -111009   -97328  -101901  -108691 
  -91663   -61919   -28312    16492    56011    66934    51774    26194 
    5832    -1459     -109    -1819   -11420   -18145   -19352   -23779 
  -22103    -5208     7738    -3539   -39021   -82045  -104898  -104362 
 -111763  -126159  -103127   -45425   -15617   -31786   -39181    -6287 
   39331    75257   100185   105156    86539    68936    74814    81366 
   61091    34405    30066    45143    61043    63707    53400    38466 
   17526   -12080   -30857   -25422   -25028   -50466   -75377   -80798 
  -74424   -62424   -50909   -36313   -10058    12546    20684    27516 
   35180    30531     3834   -38267   -73162   -94423  -107149  -101123 
  -86138   -87040   -88439   -71461   -55379   -52236   -41917    -8019 
   33113    54147    49504    38317    42735    51931    44281    39922 
   52915    54877    46838    64597   104793   130184   124588   101561 
   76159    43725     3729   -17003    -8948    -3583   -30026   -88098 
 -145761  -170043  -166781  -145602   -98397   -43910   -18654   -22713 
  -26774   -23034   -18206     1758    35419    51786    44963    30319 
   16753    21239    50930    75037    64323    33550     6879   -20981 
  -56339   -91233  -120688  -124606   -81395   -16407    23986    21882 
   -1872   -10907    -5774    -6665     9852    65658   123542   145376 
  137403   115544    86580    60137    39215     8994   -32801   -60579 
  -75540  -107727  -140265  -135868  -108687   -92344   -91946   -87376 
  -71559   -66662   -73723   -64279   -35644    -8951     8835    16075 
    4680   -10957     9139    64722    93298    67289    30916    11112 
   -7265   -31463   -47466   -39400    -5621    39467    75831    95382 
   92159    54924     3397   -27999   -40932   -54918   -83317  -119599 
 -123592   -78848   -23651    13840    34237    37971    30070    19052 
   15139    28996    44814    34236     3517   -20928   -41212   -77290 
 -115827  -120427   -88897   -47656   -14936    -5489   -14887    -5988 
   29183    48351    35998    32359    54967    65106    51736    43472 
   36647    14359   -34520  -111197  -148521  -102312   -50377   -26837 
   27522    89458    86850    40212     9480      768   -14924   -36952 
  -30549    -3038    -2644   -32369   -57976   -61377   -49209   -44296 
  -46259   -24230    13574    24514    16353    21182    30803    24490 
    1288   -11975     9342    47989    86905   119673   112874    60528 
    7931   -30329   -74946  -106041   -89651   -55308   -41818   -27602 
    3465    20288    10607    -1806   -14414   -36999   -49859   -40237 
  -26479   -22721   -28595   -29944    -6515    31603    41249    -2407 
  -61662   -80792   -66458   -57901   -68041   -95480  -116560  -104743 
  -79370   -46036    18768    88999   122615   118743    96180    72948 
   46252    -3171   -66238  -103682  -101408   -80062   -45565     9854 
   66629    98360   110721   114232    98776    59539    15790    -5234 
   -3530    -2446    -2451    10272    23695    19248     3917    -3267 
    2108     8197     8891     7678    -2197   -20077   -26633   -26470 
  -34817   -42437   -50036   -63705   -59967   -29469   -13838   -42993 
  -75054   -59278   -27430   -32441   -40845    -2603    47006    56404 
   44750    53411    69255    53287    12987    -6004     9924    11919 
  -38236   -93591  -108859  -120722  -144282  -137417   -98543   -67766 
  -65480   -64169   -29026     8181    16274    28006    51829    66551 
   74527    76929    78967    98169   128906   143328   126588    90970 
   44148   -14767   -59605   -79754   -99942  -111102   -88747   -40690 
    9479    34032    36894    46674    56058    43815     2974   -60428 
 -112964  -123748  -102131   -86720   -91676   -88359   -72349   -62282 
  -36699    20773    79181   114514   129842   135151   139272   141907 
  136869   119328    91586    56829    10949   -28329   -29621    -8314 
   -9687   -38414   -59886   -60452   -54708   -46031   -32645   -16079 
   -3533   -21673   -63377   -83283   -93100  -124897  -138016  -102610 
  -62433   -31600    15224    48282    42795    46474    83113   117553 
  119622    89192    49199    22430    11491   -10066   -68435  -135220 
 -162550  -151003  -131261  -120230  -110648   -87889   -54658   -23677 
    2801    20723    19295     5156     3071    33860    85734   108973 
   74386     5539   -48056   -40342    10968    37800    36895    47350 
   59034    59091    54782    28283   -13688   -21594     7179    27351 
   13063   -28685   -62591   -66232   -58942   -44995   -17322     -417 
    9648    50973   106976   124644   110604   110643   110379    68286 
   10224   -17581   -31421   -71766  -127004  -145020  -105340   -48622 
  -21215   -17787   -16639   -24773   -35970   -15923    31257    75032 
  101597    80182    17097    -6640    21464    21208   -25985   -50463 
  -19211     7029   -12305   -22127     4170    15291      961   -11463 
  -29871   -56177   -77580  -100321  -116504  -103666   -70298   -50239 
  -53302   -45845   -13204     6729    -4931    -9487    27576    65134 
   43714     7268    35827    98380   119429   112675   113703    86445 
    2851  -101038  -177281  -203266  -197015  -193731  -190019  -156039 
  -95801   -41738     2867    66763   140512   162858   125163    90250 
   79071    62038    38925    39388    71687   108538   118180    91692 
   48029    12665   -12341   -33776   -45932   -45430   -44669   -66574 
 -110247  -134822  -114231   -68811   -32060   -23430   -31214   -17518 
   25228    54388    52150    54386    66718    49190     5823   -10962 
   17770    48885    29199   -27118   -56046   -51784   -56413   -60419 
  -32438    18547    73733   116783   128389   106822    60694       98 
  -51892   -78864   -94094  -121453  -160631  -173052  -128757   -57298 
   -3162    30599    56809    67429    58630    66029   109659   130762 
   82843    18522   -17123   -46843   -62922   -37563   -10392   -21981 
  -28865     1188    18003     2278    -5244     1397    10075    20012 
    8863   -27209   -54189   -73726  -112485  -154969  -166696  -133028 
  -69969   -10768    37898    79795    98092    91811    79293    66786 
   63160    69885    59675    28921     7282      601   -10232   -37293 
  -64417   -66841   -56869   -61020   -81543  -102190   -97027   -60056 
   -9044    55337   117793   121976    60051     6293    17359    48140 
   24606   -19862   -29515   -43596   -76488   -91417   -94350   -81907 
  -29899    29956    44373    10602   -30945   -45956   -31699    -8816 
    -697    -2615     8783    26363    19843    -8231   -18219    -4152 
   -8456   -28990   -17676    23216    57773    73945    71209    58636 
   53841    61250    63618    27203   -44182   -87904   -79191   -56046 
  -40682   -34684   -44240   -64226   -68051   -43785   -13904    16114 
   46958    49781    27114    12829     5597    -9480   -20006   -15264 
   -7980    -8210   -24958   -54541   -50861   -10793    -4071   -30057 
  -16344    34426    56342    33502     4381    -8015    -4809     7661 
    7146    -6151    -4218    -2690   -20775   -25136    -4557     1892 
  -21404   -28653    16351    63157    56202    27748    12352    -4607 
  -10726    11371    27784    21511    18747    25930    26320    17793 
   14918    17936     3508   -33302   -68628   -91494  -103067   -91095 
  -52758   -14011    -3546   -17700   -21259    -9457   -19173   -47925 
  -50109   -19830    -6394   -24498   -16779    27233    45383    38398 
   52978    76164    85142    94759    93436    47303   -17928   -40755 
  -22624   -26343   -83896  -153120  -175532  -144928   -92798   -37746 
   16714    58098    68733    50284    42245    82424   132337   123517 
   65633    24693    33047    50645    25989   -11608   -19148   -32886 
  -74911  -102491   -99849   -94239  -100333  -101798   -66584    12724 
   93157   119298    79226    14930   -13183     7545    34561    46162 
   44002    14222   -24601   -27266    -4070    13693    32766    50857 
   48648    31610    10938   -24856   -68780   -68822   -27213   -25662 
  -54728   -17382    65904   101964    94719    85149    68079    40602 
   19094     8267      -98   -14513   -53368  -126247  -182376  -171572 
 -136584  -121215   -86502   -17114    35342    48098    50183    74152 
  107129   101362    85259   127112   183432   182986   135918    59470 
  -23644   -65955   -66131   -60600   -73203  -100856  -116272  -114590 
 -107056   -79609   -28428    23427    48404    34409    13620    21037 
   39283    42275    23385   -19990   -65525   -92770  -112336  -112496 
  -79583   -45627   -32412   -27913   -12246    26621    64645    73876 
   69204    73848    90608    97178    74985    53562    38397    -7939 
  -55577   -55293   -35272   -38065   -68871   -94994   -72964   -32868 
  -36722   -60785   -56819   -32379    -2509    27939    46216    50673 
   55870    63390    56056    30751     3572   -21076   -56330   -99036 
 -112892   -84086   -57584   -61149   -61097   -34258     -212    25403 
   47235    71985    93442    90686    54676     6453   -28988   -43563 
  -41338   -44684   -67789   -76081   -48760   -21647    -5357    20061 
   36468    25093    16106    34739    56912    61894    73784   113705 
  154649   144941    69262   -29163   -98060  -124707  -136909  -157138 
 -163157  -136172  -104345   -84095   -49369     6523    51630    65061 
   55614    44637    47223    54015    44852    23369     4011   -17869 
  -43302   -53827   -45470   -39391   -39969   -21058    19887    52175 
   59962    51427    54178    75058    76715    66212    83182    88424 
   36845   -17590   -26291   -35170   -77458  -104485   -79953   -34002 
  -11054   -16673   -21326   -21512   -40075   -54558   -26733     8117 
   -4193   -26420    -2601    32177    38125    44260    58699    45723 
    3260   -39400   -55296   -35058   -10374    -9143   -18049   -23907 
  -24208   -24128   -27441   -19342   -16561   -39508   -35372    16347 
   45501    24577     -930     4651    34861    48643    24885    -4832 
  -17041   -23033   -20838     5227    39606    48166    29761     4008 
  -21780   -31887   -21166   -19520   -30755   -34833   -36835   -28073 
   -1331     -607   -33486   -43512   -28991   -33442   -45179   -27855 
   12962    41933    38416    25303    27654    27308    14941     9431 
    7455    -4265   -21810   -33123   -33083   -33903   -33172   -10824 
   23443    44301    41724    20832     5264     9107     7047   -26368 
  -61157   -47929    -5851    -2852   -43488   -63834   -51734   -45893 
  -27354    21716    44293    25141    19364    34444    39091    30524 
   12242    -7241    -8951    -8699   -29382   -41503   -20649    -4389 
  -18687   -28759   -19180   -15331    -8656     8394     3946   -11971 
   -3051    17350    23965    22204    29233    42331    34551     5363 
   -3781    11629      964   -40791   -62254   -52216   -44446   -56020 
  -68289   -49952    -1109    40264    49876    44730    45509    48978 
   48679    51586    66634    80999    65026    15967   -28432   -36083 
