Origin Time       2011/03/11 14:46:00
Lat.              38.103
Long.             142.860
Depth. (km)       24
Mag.              9.0
Station Code      TCG001
Station Lat.      36.9432
Station Long.     140.0825
Station Height(m) 253
Record Time       2011/03/11 14:47:10
Sampling Freq(Hz) 100Hz
Duration Time(s)  300
Dir.              U-D
Scale Factor      3920(gal)/6182761
Max. Acc. (gal)   154.930
Last Correction   2011/03/11 14:46:55
Memo.             
[...]
   26694    21006    -8297   -37036   -34559    -4041    25381    41970 
   47400    31748     3462     9652    58417    89588    81612    82041 
  103111   104175    84025    62993    15786   -43343   -44987    -4700 
   11625    10606    16527    15411     7607    15097    33097    36225 
   30659    40544    56700    56803    36267     7068    -6926     -805 
   12409    39246    81152   103470    83110    60974    83816   106557 
   74439    47145    78021   103373    77606    48821    49185    54853 
   48956    37347    31866    33180    13573   -31653   -47508   -20659 
  -18968   -57944   -71529   -40784   -14869   -11173     3491    36173 
   47690    27213    10946    -2008   -44842   -94465  -106404   -91689 
  -79277   -66053   -51907   -67751  -114757  -129901   -77016   -13117 
   -6893   -38843   -36512     6064    27868    15844     9776    11767 
   -8931   -34932   -22842     1439    -9843   -33040   -29296   -13254 
  -28263   -82218  -125773  -130217  -114831   -88841   -68660   -76791 
  -90505   -87897   -82806   -73425   -41446    -9714   -21319   -48738 
  -35832    -2579     8809      104   -15268   -31398   -39740   -24801 
   -3234   -22069   -62965   -67769   -46834   -35585   -30719   -21595 
  -14213   -19750   -30274   -30694   -30608   -38392   -39678   -24308 
    4399    39846    66950    49838   -27798  -110203  -129629   -91020 
  -48032   -28805   -21235   -14846   -11683    -8811     5444    26439 
   25173     3549    -5013     2678     7785     8774    23220    50714 
   48822    11173     4106    42578    61680    46743    37076    26666 
   -3307   -19247     -732    14319     5884     4914    29013    60651 
   86350    99539    79639    23196   -16856     2494    31420    13102 
  -18433   -29525   -43683   -57145   -41952    -9480    14030    18794 
    5676   -13342   -24171   -23348   -18492   -30892   -69114   -91081 
  -58415   -12318    -3864    -8084      460     -814    -8758    -6767 
   -5370     8220    54716   106190   117057    84017    59503    79349 
   99411    74009    40277    40056    28889   -28588   -60663   -18499 
   25270    15256    -3540     4896     7583   -11960   -21042   -18677 
  -22628   -23350   -45168  -101664  -123575   -82264   -46477   -59581 
  -78713   -65162   -68675  -134334  -195437  -168711   -89835   -56410 
  -63421   -26601    42661    58030    15630   -15136   -17678   -43609 
  -86548   -82403   -55325   -58472   -54702    -1368    68172    82797 
   25073   -47764   -88022   -90385   -70250   -54221   -52823   -49164 
  -29507     1003    27174    23237   -25999   -92160  -127227  -105549 
  -45780   -12142   -35024   -57992   -40821   -16574    -6042    10551 
   34894    31569   -10081   -41100   -43236   -65736  -115531  -132898 
 -101721   -79615   -90369   -70701    14083    87896    79264    36368 
   47869   101915   113134    76457    63235    75073    57743    14314 
   -7336     4603     5398   -26149   -33625    13014    47507    25365 
    3618    36414    78252    68540    45697    67679   106001   111029 
   87149    68858    64946    44841    -3741   -39994   -30763    -7326 
   -4626     -445    11636    -3022   -24573     2081    49825    49734 
   26676    37220    32381   -36869  -107442  -125416  -122605  -129633 
 -111198   -40873    16755    13771    -9848   -32569   -49138   -29449 
    9064    23269    20885    27951    42799    46036    40427    54131 
   56688   -21086  -117661  -115321   -65704   -65302   -61688    11130 
   89301    91371    67652    95431   115908    65938    10849     1640 
   -4972   -28414   -33481   -11782    18933    42947    36392    -1502 
  -37179   -64981  -104248  -129062  -107766   -75485   -68084   -55709 
  -19637    -9729   -43484   -58471   -40531   -57653  -118158  -138828 
  -94125   -57319   -60321   -62060   -49917   -46274   -56406   -66585 
  -66738   -73472  -105795  -124865   -68819    38388   101243    89090 
   68715    78614    80622    60740    39492     2680   -56945   -94548 
  -74134   -32452   -29230   -41397   -11495    32863    39825    33539 
   49533    62628    50452    45770    71729    94737    86102    69894 
   79527   102982    97104    65046    46576    24571   -25901   -59371 
  -51734   -44050   -50442   -52016   -56625   -67015   -48824     5009 
   36418     5197   -34655   -28641   -16768   -29745   -38308   -40641 
  -45081   -35945   -25426   -39749   -51124   -13914    32777    21686 
  -12814   -11843     3574     4196     2291    17258    53392    83723 
   73934    33884     -496   -15515   -16784     -680    33159    54276 
   46938    39508    47137    54609    50870    39124    29703    26188 
   16657    -9454   -31331   -19797     5593    22888    51616    74237 
   44373   -22280   -70416   -83646   -84772   -67429   -15444    24829 
   18221    11578    37314    66287    82354    88613    78115    49580 
    -574   -63224  -107184  -126828  -137027  -146525  -147707  -120215 
  -86950   -96697  -128297  -121467   -87949   -77680   -90309  -103975 
  -97083   -61189   -45017   -80931  -113750  -103008  -101836  -134996 
 -126488   -70398   -60625   -69324    22774   166033   189544    83223 
  -12878   -49257   -82929  -118972  -100931   -35384     5496    20155 
   48060    45891   -10621   -44652   -17517    18511    25272    23543 
   32267    29233     2021   -11709    16778    47568    42265    27605 
   10309   -24505   -25230    19463    15865   -50718   -76706   -26053 
   27971    40737    42176    36120      404   -23885    -8763    -6800 
  -38926   -49681   -10811    17736   -13023   -53992   -48960    -7050 
   34519    44878    31017     8756   -32915   -64246   -41820   -13701 
  -45686   -92092   -60464    21057    47606    20655    13141    43204 
   68832    34693   -32143   -38359    -1037    -7695   -31551    -8117 
   28862    15631   -38171   -53449     6528    65810    37809   -50360 
  -86561   -17419    77927    94042    35517    -8327    -2941   -14086 
  -59219   -53516    -9958   -21286   -45011   -12602    17717    -2549 
  -13634    39962   103759   100660    47710    -3598   -43445   -74486 
  -86531   -73270   -63687   -87540   -98291   -45372    19859    18499 
  -49583  -115083  -118888   -68495   -23091   -23073   -31481   -10644 
    4988    10353    52612   123994   161334   132380    72368    13471 
  -38933   -44798    -4652     7208   -17240   -30854   -19335    17250 
   37501    -1700   -41530   -28786   -10756   -14973   -20452   -29457 
  -43028   -61855   -95703  -112313   -75250   -21683   -18669   -51959 
  -46135     3156    28618    13482    11647    31452    26390     -790 
  -30696   -74787  -107280   -76123   -19881   -23847   -42530     -800 
   16562   -55714  -105915   -72618   -64986  -113365   -96960      702 
   55635    19597   -32505   -42178   -31509   -34535   -50852   -56442 
  -21087    44570    82906    93149   131497   159164   104463    36734 
   23684    -8266   -83822  -119254   -94452   -52706   -11071    28156 
   48918    23514   -38671   -75977   -68140   -56919   -47050   -15243 
   30572    71585    79835    53796    58503   118687   153707   115394 
   66914    49128    12011   -57389   -78148   -22328    17949    -4082 
  -24786   -14757   -21343   -68890  -113962  -116280  -101857   -95650 
  -74863   -42416   -41986   -65044   -42629     2965   -31677  -102865 
  -87564   -26315   -24424   -71214   -91578   -75249   -86590  -126359 
 -115368   -54842   -34640   -68811   -72306   -34887   -35673   -73354 
  -93314   -97087   -89394   -47833    11282    42394    34377     7441 
    7059    44452    42554   -12719   -45245   -59494  -103502  -165062 
 -200010  -173834  -109891   -85234  -122040  -131305   -38764    71235 
   77032     9618   -52663  -109605  -140953   -99749   -11685    70007 
  106884    57667   -34095   -67574   -41976     2586    59371    92256 
   70276    18444   -15472    -9528    23281    72383   126552   155912 
  146363   124358   120144   129823   126289    86786    21228   -32295 
  -60767   -77988   -53038    44757   124651    81862   -17293   -39114 
    2790    14365    14624    68412   132968   124001    62756    45000 
   79129    97178    87548    83433    89268    67477     5383   -28774 
    -479    18392   -10126   -42820   -68461   -94047   -79601   -11036 
   61811    85128    48294      297   -24897   -68776  -145640  -184376 
 -143071   -76384   -48538   -45011   -11218    36215    23132   -32307 
  -37039     3879    22808    25744    48639    85475    92554    37051 
  -29109   -42614   -51056   -77475   -21653   115277   178416   116118 
   35034     5197   -30398   -96118   -95659   -37184   -59635  -143443 
 -157274  -118657  -107431   -84544    -6594    53029    37709    -4176 
  -20733   -27622   -53709   -81794   -98273  -121066  -141141  -123315 
  -53284    33863    67387    33670     1606    -8698   -50648  -119366 
 -162599  -158225   -93014     5396    57405    45081    33086    43030 
   24383   -22929   -39331   -30805   -56073  -102416  -106145   -82525 
  -89555   -88991   -14894    80741   116577   110873    97935    54759 
  -11712   -36188    -4370    35295    74178   121312   150834   148815 
  121971    83375    49182    24339    21869    43577    49156    17678 
  -11657    12768    90101   147668   127475    90524   125678   163116 
   83943   -33218   -73709  -111771  -188580  -205117  -147918   -87582 
  -51986   -33614    -8154    20117    24200     -939   -34136    -6325 
   84029   106492    31803   -14909    -5440   -35563  -100802   -91133 
  -26285   -54854  -178496  -226734  -163529  -129763  -131603   -58270 
   48134    93624   107472   133465   128713    56602    -7318    -5439 
    5621    22773    81890   122734   108986    73138    35319    27127 
   31359   -24086  -105181  -122847   -92653   -82127   -89639   -56533 
    2293     9957   -14488   -11984     1456    -1705   -29582   -70446 
  -90772   -78956   -41820    -8681   -10145   -11798     9340    -7811 
  -79111  -101169   -29494     3262   -79781  -138282   -94685   -80743 
 -148686  -180345  -133885   -97201  -117303  -132850   -69033    21373 
    6110  -102744  -170902  -158432  -121363   -88684   -54458   -26092 
  -13109    -6272      -63    16367    61363   107226   106380    71764 
   58983    99308   166318   199927   183015   162331   157319   114556 
   21610   -55599   -95694  -130724  -166893  -166757   -91274    20180 
   82947    68583    22347    19141    67057   104570   120776   157979 
  213146   230390   193507   150132   106409    22799   -71012  -110433 
  -90846   -57057   -58902   -79159   -48401    18815    38938    20279 
   42773    88348    68077    -4430   -27103    10376    22015    -8978 
  -41813   -66834   -77707   -63296   -37200   -43281   -77802   -79953 
  -76457  -107333   -97788   -23140    39174    55208    37865    -2391 
  -29119   -21210   -36896   -87123   -83785   -49043   -86053  -135823 
  -89257   -10273    10482    38136   109262   103089     6064   -27884 
   14799    13273   -48533  -116969  -164839  -166491  -117804   -66082 
  -56804   -81907  -118676  -144094  -116075   -47350     2426    15434 
   -3153   -22974   -16110   -25254   -52488   -28928    28724    47998 
   13979   -58723  -138882  -188221  -201025  -193430  -179554  -131688 
  -33253    34185    23585     4074    -1876   -38157   -57736    18425 
  144878   216215   185606    89327     4869   -31062   -31713   -15251 
   14922    54873    64134    12316   -45966   -46214   -18995   -29264 
  -63344   -49112    25699    75761    41333    -7293    14204    52742 
   25624    -5675    47937   121615   122149    91089   102804   144362 
  164817   143253   106270   110624   139670   104727    29445    19106 
   58818    60950    18494     5043    57754    97896    60275    -8726 
  -70374  -118472  -123687   -85459   -48335   -45781   -67570   -77109 
  -83205  -139742  -215408  -217972  -157505   -97060   -54615   -42793 
  -60249   -87072  -126837  -163698  -161866  -133607  -103854   -79609 
  -71181   -85935  -119676  -126782   -65956    13951    41036    33427 
   67527   129421   107325   -10622   -96117   -91129   -70339   -60882 
  -10037    62946    77724    22172   -38983   -36043    36200    97911 
   97122    86214    96323    85206    37028   -20999   -51204   -34982 
     164    25457    35855    32072    29618    28434    16282    30564 
   97523   162462   166737   119751    72947    62252    99365   162318 
  160526    61863      205    44241    67624    -7145   -96318  -112259 
  -88635  -107715  -134936   -78955    39573   117225    94874    21788 
  -32265   -67606   -83430   -71404   -65559   -70567   -42526    18071 
   39847   -25059  -103440   -89044   -29986   -37152   -60225    -3577 
   68989    47002   -35130   -70269   -66157   -96633  -140099  -129452 
  -88719   -84921  -101679   -82792   -50688   -66426  -103843   -95006 
  -75900  -113375  -150791  -103528    -2120    70750    85435    64029 
   21602   -19389     4805    73276    73809    17849     6233    40750 
   61116    55769    52312    46347    23224    13759    46379    93052 
   80956   -10805   -92673   -97028   -48731    27735   100948   107767 
   60967    46252    79020    87211    28104   -28414    15220   119732 
  162859   124206    74360    43333    12517    -6729    16894    58174 
   41862   -51555  -138131  -146511  -112879   -97626   -98654   -74834 
  -11072    36590    24650    -1810   -32688  -102259  -152616  -140587 
 -137723  -168745  -164552  -100411   -37029   -30076   -50631   -42510 
  -42677  -126577  -239718  -255207  -183119  -142284  -160640  -150159 
  -63459    18903     1070   -66294   -54063    36653   107945   134715 
  136846   103423    49882    34618    71337   106526    81972    16353 
   18711   113051   162728   119713   106035   157756   171282   114999 
   81973   120295   145387   101268    66278    95976   124933    86807 
   21233     -175     5927    -4702   -23976   -58739  -112125  -129165 
  -92279   -36292    23269    56368    38589    10060     3842     2098 
  -19208   -58550   -84594   -79832   -65774   -64200   -70966   -74249 
  -76926   -74371   -54380   -40941   -66457  -108252  -103998   -46211 
   -4917     6544    41346    57621   -13059   -97636  -113629  -103554 
 -113942  -136376  -157347  -153531  -125291  -105743   -91293   -71328 
  -57768   -40579   -29069   -52986   -82993   -61804    18886    93622 
   90426    43305    23413    15683   -10255   -18944    25984    78313 
   75206    41180     7072   -36603   -41478    34614   103398    74802 
   17503    37617    92221    69753    -4002    -4976    65358    90656 
   53733    36923    58239    64852    28634   -13852   -12232     7097 
    2478     2750    11627      499    -6383     4387      320   -15975 
  -15631   -23842   -65611   -89173   -67724   -59796   -89594   -88366 
  -13478    45089   -10791  -112460  -146168  -131412  -122295   -89548 
    8500   116809   128432    48738    -9216    15647    74454    83410 
   35331   -13257   -36255   -22232    41875    96133    46446   -53911 
  -72568   -41384   -37684   -24570    -6890   -30021   -44349    -2270 
   53946    93019   145272   191347   131780   -25385  -132329  -130382 
 -102209  -113633  -123151   -68430   -28532  -103975  -178455  -115881 
  -19243   -31785  -114872  -145746  -106587   -92898  -103047   -25424 
   84788    56034   -70161  -110625   -55129   -20872   -16743     8475 
   23200     -523   -14648    11409    50133    56045    28084    25807 
   54316    51593    28947    40017    68225    86687   110830   127310 
   94708    25908   -18474   -12083    11529    31620    63128    88524 
   85889    61735    11855   -39050   -47677   -20935      451    -7343 
   -7035    11083   -19871   -76436   -66472     1329    38572    -9725 
  -77752   -66358   -25512   -64267  -143366  -169783  -162492  -142872 
  -93244   -66017   -86528   -89711   -41828    25522    37105   -32323 
  -72274   -17878    55257   101994   113878    67242    13041     7969 
    6385   -13983    -6343    18502    17158    -6775   -22587    -1769 
   21438     6807     3834    25677    33245    40941    44708    22611 
   10058    32216    48594    15028   -48096   -77786   -46921   -15866 
  -54709  -110450   -99402   -74899  -109464  -132151   -78401   -22824 
  -21052   -49597   -93543  -132300  -136848  -102533   -61315   -50488 
  -53073   -47259   -60539  -101405  -123181  -116140  -122935  -124701 
 -106492  -117489  -111296   -24061    40433    17819    30518   110195 
  115730    26417   -14847    42405    77900    14391   -37371    16360 
   80673    61214    11955     6719    39315    64007    60561    68829 
  117765   162349   166687   155120   155102   142778    75648    -2609 
   -8268    32599    45577    35940    29393    15171      214     8094 
   27281    24727    -3502   -20232      547    10674   -42874  -100987 
  -80943   -17425    17324    36020    58131    40474    -9557   -12730 
   55751   118672    75108   -43042   -70858    26091    81113    14834 
  -69878   -91739   -46655    41090   114181   145617   153791   124214 
   44230   -42319  -114147  -188195  -236738  -234657  -221026  -216380 
 -192884  -137518   -78306   -57736   -72673   -86593   -96538  -103886 
  -99237  -103625  -106041   -34970   110535   214214   193476   110216 
   64509    45759    -2183   -28469    42771   141136   144370    55668 
  -21022   -15525    21813     3191   -57229   -88569   -82554   -74198 
  -58357   -30058   -28313   -45538   -51453   -78318  -102068   -32888 
   74611    86457    23151   -17901   -15039     9523    26166    16851 
   -9485   -45382   -76333   -81708   -69797   -46526   -19564   -27502 
  -49185   -18344    31186    33186     7898   -12763   -32971   -55468 
  -79055   -94273   -70113   -16867     -828    -9966     6197     -361 
  -45504   -57617   -32122   -34612   -81317   -95789   -35467    18711 
   25643    44149    76645    68890    18420   -41325   -81394   -72844 
  -20650    14712    -8294   -55748   -84679   -97913  -100654   -72650 
  -22404    -5560   -16241    12867    64030    71104    47983    47865 
   60848    29110   -38411   -54122   -10046    -6151   -57853   -92674 
 -100489  -101709   -99296   -79469   -24347    30299    45526    35778 
   26437    26388    13787   -31303   -71763   -64490   -36709   -26814 
  -15399    12648    27623     9725   -10188     2874    37044    51031 
   -6684  -109514  -125302   -32075    31143     5571   -19105    23449 
   71712    62764    61750    89866    52230   -25723   -32757    22247 
   63120    56889    43087    70828   108400   113814   110918   107190 
   73476    21175   -21521   -40985   -31568   -25732   -34804   -27136 
  -24075   -56134   -93282  -110263  -113425  -111801  -108792   -98534 
  -67761    -8700    53944    65470    16754   -20104      643    18043 
   -6856    -5572    38689    42750    -4461    -6799    66675   100051 
   30667   -21370    23973    64988    12336   -52178   -13414    78504 
   86913    19804     4302    44997    31206   -23941     -679    89829 
  106932    20426   -44313   -32220   -22217   -46856   -58658   -45977 
  -35512   -41376   -65063   -80111   -49244   -13924   -33014   -61899 
  -75818  -118557  -163619  -153325   -93531   -50318   -78593  -114527 
  -80410   -37514   -57464  -102897  -116422  -100694   -89242   -83931 
  -60937   -24437    -4875     1247    28062    53606    35769    -1710 
