Origin Time       2011/03/11 14:46:00
Lat.              38.103
Long.             142.860
Depth. (km)       24
Mag.              9.0
Station Code      TCG008
Station Lat.      36.5600
Station Long.     139.7676
Station Height(m) 152
Record Time       2011/03/11 14:47:16
Sampling Freq(Hz) 100Hz
Duration Time(s)  300
Dir.              U-D
Scale Factor      3920(gal)/6182761
Max. Acc. (gal)   187.262
Last Correction   2011/03/11 14:47:01
Memo.             
[...]
  -14745   -31970   -34000   -22391    -3590    22907    54277    73808 
   66715    41481    22497    19536    20282    20164    32419    55320 
   64498    53187    42893    46474    50903    36097    -1033   -39774 
  -57663   -54018   -39876   -21766    -5943     4215    15007    27698 
   31774    27742    34376    59812    83907    82134    57464    37460 
   42390    59908    56323    20185   -18896   -27371    -6549    16490 
   21380     6627   -21296   -52066   -67317   -57349   -33663    -5330 
   30606    65228    77264    65081    53405    54707    50924    30834 
   14328    20811    37578    38590    22529    12140    15166    13206 
   -1834   -16590   -25309   -35361   -46513   -47964   -35762   -21700 
  -15608    -1172    46195   112159   148632   136297   107172    91095 
   76374    44550    10181      709    16676    33098    33233    22458 
   10864     3173     4052    14015    25401    32045    30319    13976 
  -12383   -27260   -16819     8172    28664    39100    43267    39642 
   29161    24753    31462    36091    32614    29011    24039     7260 
  -19858   -41226   -48934   -56910   -73282   -79442   -61213   -33009 
  -12736     1819    19006    38047    61198    98168   140016   150768 
  110165    47790    12139    16269    29372    23817    10968    12985 
   21610    11564   -15728   -32440   -27192   -15713   -13684   -24406 
  -42478   -56224   -53843   -33241    -7182     6597     4728     6225 
   35975    93225   141055   138220    89025    48935    55569    77267 
   64234    13005   -49319  -104418  -142919  -153311  -137697  -120573 
 -112642   -88935   -32136    26699    47774    47653    75861   133893 
  169370   155189   124768   106561    82467    40362    -3072   -43888 
  -85883  -107850   -86699   -36509      654     2174    -9567     1243 
   38541    73870    84369    74183    55966    30802    -1143   -27924 
  -35750   -19709    12401    42043    56238    59082    60339    61861 
   58803    44707    16831   -15020   -30547   -18913     8838    35216 
   55522    73116    85859    83735    56528     8424   -35169   -48757 
  -36771   -27109   -36314   -55981   -68327   -63670   -41279    -3670 
   37548    62753    66758    65390    69252    66373    37321   -14644 
  -53056   -46498   -10146    16085    16352     5447     1745     8607 
   14718     6320   -13252   -20728    -4626    17726    28494    27671 
   23449    23364    25732    21404    13089    18512    39728    48661 
   26685    -7741   -27473   -23964    -6758     6710     9005     8828 
    9206    -2584   -28044   -47112   -47421   -35049   -16327    11813 
   58528   121124   171744   185209   167703   137189   101711    67674 
   36710    -1956   -46120   -69982   -61055   -42310   -43969   -61743 
  -60591   -26587    13791    32114    27536    15597     5664     -279 
    4777    21266    26327     4076   -21741   -20376     -444     7279 
   -4589   -19183   -20619    -2684    29579    61008    79431    86064 
   87355    85425    79357    67763    55485    53557    57607    43858 
    6815   -22728   -23232   -19667   -36382   -45967   -15769    30586 
   46527    30928    18766    21946    26779    27495    26612    28223 
   35687    39849    27605     1316   -26263   -43827   -45433   -33576 
  -16804    -3441     2643     3008     4187    16905    43897    67592 
   66544    39563     1400   -35323   -65137   -85533   -92104   -74979 
  -31229    18781    52223    73856    99365   127546   142657   128802 
   88459    42993     5547   -22139   -32987   -23669    -5529     8008 
   15565    25190    39792    51532    50209    31587     2378   -22769 
  -33050   -26168    -8247     4268    -1501   -11644      401    26516 
   30399    10552      749    10456    16607     4664   -13439   -23784 
  -28415   -22817     7261    45284    49268    18334    -3950    -4132 
   -8680   -25593   -38505   -35097    -5783    45959    87250    90111 
   64631    44488    54219    78592    75322    33545   -11345   -35698 
  -60207  -100393  -126988  -105770   -45037    19291    62176    73103 
   47411     2164   -22055     -556    48947    92161   115020   119833 
  104578    73010    48925    48453    51945    36424    13743     4196 
    3902    -3028   -29720   -75936  -109927   -92650   -34775    16417 
   48635    86213   128343   142809   119336    84958    60605    40286 
   18020     4549    11755    30738    38881    33300    36255    55317 
   62024    35993     3826    -3829    -1359   -13354   -27103   -18455 
    4363    16952    19455    24708    26676    17350     6431     2226 
     599     -488     4624    22279    52976    80737    85243    69844 
   46622    13849   -22810   -40871   -32598   -18369   -18367   -29894 
  -33546   -10921    34995    75187    88176    88169    92594    85840 
   51597     9371   -19563   -44588   -74890   -99238  -110246  -115655 
 -118117   -97179   -35445    37909    76847    89501   119115   157744 
  150184    89150    28757    -1281   -20859   -41331   -44231   -25933 
  -15823   -32716   -62743   -87550   -97046   -78173   -21426    56141 
  108709   106290    75018    62139    74698    84071    77200    66202 
   54431    32356    -1464   -36655   -57980   -59438   -51797   -43539 
  -27831     4198    45141    67602    56518    35028    27226    24583 
   11645    -8135   -23498   -32633   -41657   -47156   -30696    13727 
   64595   104491   137345   159419   147722    94184    26179   -23764 
  -48298   -59768   -71813   -76424   -48999     3725    44317    63297 
   76806    75176    36470   -21844   -56813   -54838   -29488    11267 
   53006    67301    48535    32879    60512   119704   152186   128507 
   82616    50636    19782   -28183   -67054   -67802   -48091   -35374 
  -26397   -13931   -10387   -21103   -25228   -12067   -14003   -54835 
  -90679   -68549    -5050    49462    76548    86690    86745    74016 
   54611    43340    39826    28907     3478   -30120   -55066   -48450 
   -2416    58963    89631    59747    -2100   -31222    -7085    28331 
   37134    21951     -685   -19212   -20868     5583    48035    70872 
   60677    38823    17098    -6755   -21339   -16326    -6713   -15412 
  -39546   -53001   -45548   -39338   -50595   -55845   -23624    37971 
   89642   106181    96598    86435    94472   114165   116236    84041 
   31618   -15779   -45753   -66291   -86710   -98555   -88302   -54562 
   -5911    38241    53602    41893    29343    23900    18373    29224 
   70382   101925    73949     4743   -36763   -16670    23318    27622 
    6849    12109    47465    62773    31177   -14308   -23073    21974 
   90344   129982   113108    64904    38436    50935    64610    41695 
   -8204   -45891   -46549   -20150     3359     3310   -16864   -34887 
  -28775     -561    24646    32391    28145    12570   -14948   -41317 
  -53456   -48582   -32678   -23817   -34671   -43033   -15032    40771 
   82852    89541    68538    43721    46101    75318    89781    72253 
   56652    68062    84980    70440    20588   -22471   -16614    23025 
   34935   -10071   -66286   -74260   -31525    24343    59906    59218 
   40226    45852    81203    98104    57931   -23168   -84480   -74682 
  -14006    19110   -11998   -48187   -23584    35157    63496    60705 
   69022    95749   104623    71071    24890    11263    22764    24192 
   17351    19503    17068    -3580   -25664   -38821   -53786   -63629 
  -36263    33832    92938    84900    29356    -1292    22798    60088 
   61869    27926   -10098   -32466   -37231   -28876   -21267   -27168 
  -36453   -26361    -1276     6436   -14498   -38910   -35460     7421 
   68361   107596   105874    80201    63410    69212    79344    70102 
   35693    -8860   -36422   -35810   -23164   -16043    -9469    18852 
   76203   132401   142180    92438    19076   -35984   -63492   -66249 
  -41135     1581    31578    32826    31387    51697    68796    52113 
   18357     1913     4805     1068   -24016   -54020   -58501   -27604 
   15974    44133    45715    21467   -14800   -35207   -23343     3417 
   13455     2264    -9378    -6860    14856    45518    56094    33144 
   -3331   -27952   -37077   -38037   -31849   -24379   -24537   -24476 
   -6574    36920    90516   117110    98238    66771    64526    85902 
  100622    97760    70579    10137   -60040  -103966  -117744  -106551 
  -69192   -24060     2808     6114    -2859    -4278    19708    59340 
   79881    63397    29278     5799     -165     2711     3038   -16242 
  -62121  -105646  -107189   -62351     3120    62621    93758    80683 
   38154    11171    21665    40507    35303    15426    11812    32844 
   56092    63003    59669    54972    43825    20713    -2569    -2242 
   30249    67839    69396    30051   -17042   -53039   -87090  -115085 
 -109877   -68515   -28986   -14159     5266    59176   120612   138878 
  110973    81236    75964    79509    74274    57707    18895   -49878 
 -113175  -120155   -77942   -42170   -36117   -29417     9417    71648 
  121143   139519   137487   125165    96925    41163   -34456   -85919 
  -73350   -22113     4070   -11334   -30674   -25613      331    32276 
   50404    43297    33957    52652    83794    84578    44393   -12746 
  -65940  -102319  -106779   -86618   -75174   -76653   -62185   -31443 
  -12943   -17657   -33280   -40030   -21078    24623    78789   113861 
  107983    66736    25635    12603    19560    15688   -20935   -77279 
 -115392  -112044   -72542   -16859    28792    46213    44407    43381 
   42432    33189    26472    32566    34440    13336   -15867   -27178 
  -24722   -28079   -29566    -5723    31860    41175    13188    -6214 
   18655    60047    77155    76805    83799    93985    90774    75910 
   58216    38986    17514    -8707   -38714   -61249   -64415   -39853 
   12599    70131    99523    91652    72155    68315    65188    29050 
  -33488   -89373  -124310  -136584  -120199   -78975   -34810    -1927 
   31834    80316   127293   142316   125324    99133    62813     1754 
  -66422  -100323   -86930   -59202   -49595   -44149   -12392    34325 
   58477    56884    56764    61338    51271    25163    -5248   -29681 
  -35523   -17093    21175    62632    78829    68084    68094    94039 
  107797    82294    41768     4318   -43746   -87513   -80003   -22857 
   15985   -10911   -60798   -55371     7735    55598    47347    18821 
   10683    15581    25038    48228    60993    24042   -45770   -86774 
  -70851   -32400   -16031   -27572   -45644   -54791   -57280   -52474 
  -15199    74538   184726   249344   237513   179867   126522   101656 
   89016    48422   -40470  -146085  -201930  -165785   -66537    25933 
   77170   101669   116428   128275   141988   140521    91437    -1890 
  -96248  -155891  -172289  -156524  -122219   -68869     7155    88404 
  142497   157355   145049   112368    64648    22064    -2908   -21018 
  -43109   -68103   -90795   -97525   -77329   -50560   -44058   -43353 
  -21092     5721     2604   -10230    20023    84662   113782    77233 
   28497    24997    49421    49838    14890   -21494   -24929    -1967 
   13502     6741   -11008   -13855    22470    83624   121639   109566 
   65782    25167     3777    -6878   -26336   -66076  -112480  -135144 
 -114595   -54706    21127    80868   110732   127891   140714   125439 
   84455    67214    85284    80172    11305   -81372  -126241   -99133 
  -37308     8354    25996    51037   106911   150356   127497    57273 
   -4804   -42264   -66311   -76544   -68177   -50283   -40084   -44145 
  -44944   -19143    23184    48385    55996    77456   109182   111680 
   88906    87283   102708    85626    43337    31399    45034    16107 
  -77792  -172739  -206947  -192953  -162074  -103862    -9151    93849 
  173445   224104   259015   276394   248343   175167   108337    70855 
   20642   -63382  -136225  -158586  -149648  -145311  -145086  -131194 
 -108134   -80507   -27982    57996   144235   189297   194257   193404 
  198798   188114   138702    57536   -11520   -26461    -2670     3885 
  -28307   -65299   -65287   -26392     9820     8359   -20117   -37618 
  -20773     3670   -12405   -59464   -80531   -56375   -22105   -12441 
  -24484   -32789   -19928    19152    81311   149184   196814   211285 
  200094   172811   131901    81240    23582   -40736  -106885  -169028 
 -221370  -249998  -235310  -174154   -94145   -26565    26327    77306 
  127762   167208   184242   182730   179839   178584   160021   108032 
   38350    -6329    -5766     6920   -10411   -58971  -120431  -179656 
 -207690  -176930  -100408   -18541    47419   104540   158690   186476 
  159408   105119    80425    85330    76486    36439   -16883   -63030 
  -94481   -99812   -63674     1382    57672    84503    89048    78298 
   53689    25779     3109    -6237    14237    53421    71180    59543 
   47318    44903    39230    28796    19945     1814   -38367   -74716 
  -66395   -31232   -21682   -33728   -24293     7025    23567    18599 
   22900    42041    38658      532   -25319     1660    52433    66444 
   41850    43612   110129   194896   224637   183588   107941    28320 
  -42356   -86479   -86514   -57485   -46903   -76989  -102525   -72605 
  -18355    -4434   -25560   -28003     3007    30268    27241    15719 
   22061    24931   -12122   -64945   -63248    10740    92076   116243 
   89502    55451    32627    12309   -13278   -51158  -117887  -209989 
 -276364  -261918  -168325   -52518    29931    86763   166683   263063 
  310759   283444   223747   173186   125050    68861    26308    13810 
   18287    21055    24287    41601    64591    69267    51458    26073 
   -1056   -40390   -97972  -154750  -170451  -124794   -53414    -9596 
    4081    25873    64658    83822    54513    -2154   -34216   -21831 
    4148    10197   -12490   -50042   -67484   -37714    16161    34906 
   -4719   -67827  -121964  -164923  -189372  -176241  -115947   -16297 
   89852   167578   218414   263604   298993   291619   229348   148335 
   88977    55405    28271    -5439   -36087   -44128   -23979    18128 
   72287   125674   168489   183594   153507    99167    54993    11009 
  -52475  -110771  -139130  -160101  -194445  -206215  -142561   -18971 
   77157    85467    40437    17925    41892    73471    70693    29113 
  -16158   -28555   -22039   -30901   -42397   -22028    24366    60420 
   66788    44802    -2380   -55912   -78869   -58615   -25793    -7346 
    5836    22391    30440    31195    49361    84779    93240    56508 
   12069   -12345   -13330    26988   109152   179011   184739   140614 
  102368    82167    29511   -73221  -168993  -207189  -194784  -161577 
 -125662   -93449   -55732     9897   101253   169426   164687   103257 
   50914    36435    35234    30086    28200    40649    73071   107135 
  111360    90158    75928    72944    63049    51683    49508    33308 
  -13689   -51232   -32257    25523    68022    69334    36928   -10894 
  -52057   -67513   -58757   -50784   -65469   -91086   -95911   -77387 
  -56362   -36043   -14790     -306     3638     -341     4665    33947 
   67698    78634    69019    55908    54034    62879    66439    66479 
   81612   115717   160510   193695   176921    97413    -5132   -72169 
  -85658   -83533  -104837  -136785  -127101   -40820    97929   219301 
  264458   234816   175969   122013    77817    26865   -46917  -121338 
 -150116  -119825   -65018   -23850     7180    48529    82504    73790 
   30132   -11298   -39796   -64650   -74132   -54686   -31181   -37038 
  -68924   -93278   -75798   -14046    60688   119278   145942   135568 
  107657    88209    72509    47925    30310    26225     9535   -23610 
  -44922   -46131   -40832   -38111   -39766   -40768   -35485   -20119 
   11200    57686   107648   145563   163852   173178   184750   180233 
  127713    29033   -71103  -122397  -114439   -85535   -78545  -100383 
 -121075  -105879   -64282   -39273   -43054   -48630   -37288   -18346 
    4481    40629    75327    92512   113994   151317   161926   105102 
   10327   -53429   -54569   -23058    -9435   -19338   -16424     8107 
   26702    24494    11714     1960    -6194   -24826   -46968   -36956 
   27797   114240   168068   186736   198069   187376   129603    61291 
   40994    60070    56985     7002   -55036   -86647   -78592   -48202 
  -17544   -11628   -39019   -64660   -52834   -28040   -36434   -67696 
  -73595   -34791    33463   104838   147954   143263   106152    68545 
   38143    -1746   -53980   -91398   -87611   -45813     5776    31430 
   16782    -5388    11411    59975    89855    77895    40973    -1985 
  -41608   -64569   -57816   -18172    46605   102486   104489    58508 
   21001    15411     3287   -37399   -66648   -43240    20679    79506 
  100591    85488    60880    57719    87316   131416   152627   122087 
   48112   -33039   -89490  -110976  -103672   -78046   -56423   -63192 
  -79174   -52551    22135    80231    71208    31743    19835    20405 
   -3100   -23787    -1384    42535    65694    75028    95972   115689 
  120279   129640   148696   152133   130549    95829    49631   -11131 
  -68136   -99871  -115078  -128043  -124407   -88705   -34961    12932 
   49160    77595    92833    89393    72482    55792    50175    45071 
   26248    11361    31351    78020   103464    82031    36857    -1642 
  -22942   -25696    -9903    13753    22797    21052    48731   104294 
  116212    53132   -21352   -58466   -85528  -121936  -144828  -148655 
 -149402  -142481  -111073   -58583    -2967    51067   111031   168676 
  198482   193739   172629   139613    85115    30902    23155    55553 
   57706    -4041   -86366  -142126  -157708  -138279  -105815   -86909 
  -91054   -98168   -64173    34206   161978   253286   271176   240161 
  213405   200049   165555   110864    72053    43841    -8167   -82183 
 -145725  -174985  -163124  -114780   -56277   -27555   -36769   -39812 
   11595   101175   162020   167588   156654   157022   144224    97106 
   40088     3239   -20430   -55578  -105047  -143006  -144841  -121154 
  -99012   -74923   -30130    22336    51535    59279    71485    82545 
   67726    38721    22572    17671    17978    30712    46211    41918 
   27064    35312    58320    44846   -13472   -56266   -38687    -1784 
  -14141   -63809   -79250   -41256     5346    34009    55467    73608 
   79701    78953    93941   127614   146580   135463   124080   126881 
  108010    40633   -45694  -113066  -161456  -193700  -190418  -148566 
  -93678   -45822    -8945    27179    82408   151589   191385   166627 
   92183    17855   -17796   -18867   -23636   -59761  -108512  -127356 
 -102530   -47662    26548    95476   123724   112452    89865    71973 
   61235    50780    30343     6005    -1391     5756    -1719   -20792 
   -9686    42590    95256   106822    74744    27004   -10115   -31856 
  -45301   -48553   -36304   -16650     3126    30973    75714   127562 
  151307   120020    58271    10094   -17109   -35586   -43265   -35857 
  -16036    11025    35104    54094    72069    78166    62593    29862 
  -21233   -93369  -161738  -182689  -147139   -96537   -64536   -38257 
    3514    52274    91747   123079   138142   108219    38287   -17386 
  -28921   -26640   -37313   -40076   -10177    43833    91451    98666 
   58930    10550     1146    37615    84573   110261   110178    97041 
