Origin Time       2011/03/11 14:46:00
Lat.              38.103
Long.             142.860
Depth. (km)       24
Mag.              9.0
Station Code      TCG008
Station Lat.      36.5600
Station Long.     139.7676
Station Height(m) 152
Record Time       2011/03/11 14:47:16
Sampling Freq(Hz) 100Hz
Duration Time(s)  300
Dir.              E-W
Scale Factor      3920(gal)/6182761
Max. Acc. (gal)   292.939
Last Correction   2011/03/11 14:47:01
Memo.             
[...]
  118591    90456    49074     8532   -26301   -52768   -71636   -93869 
 -116125  -113934   -87738   -67703   -58331   -45945   -40985   -47246 
  -47077   -39161   -31307   -23298   -12824     6015    31053    50652 
   59586    53724    31776    10661     3375    -6371   -24450   -26324 
  -11413     -236    12632    26981    21381     1330    -8228     1532 
   22441    33046    22939     7328   -10775   -44340   -77870   -81893 
  -58902   -28182     2532    31714    49262    36197      744   -14694 
    2326    17326    17867    31738    62418    81649    86311    93299 
  101628   101101    90889    81415    80872    74822    47029    12248 
   -9619   -20025   -25883   -33120   -47868   -70340   -96795  -121712 
 -132350  -114850   -75336   -33500     3131    30324    36751    25326 
   11088     2059     5930    25955    53371    76032    80368    69546 
   59640    41139     3316   -30357   -43941   -47863   -39476   -11641 
   14891    15044    -8346   -27710   -26977   -21835   -15374    12683 
   50323    68861    77634    89675    91830    81005    68145    61890 
   64932    63990    49167    36555    34845    24455     -658   -24626 
  -44802   -64895   -79310   -82243   -77982   -76600   -72139   -55059 
  -35238   -15043    14281    39792    48852    57907    75010    84048 
   79692    68629    54830    45850    40744    28417    20514    30858 
   36749    29614    34856    51579    59225    50132    27603     9210 
   -1469   -16095   -22312   -13153    -7926   -15291   -30038   -42126 
  -45535   -55572   -75431   -75975   -51767   -34502   -31552   -19789 
    1053    13503    20852    30103    35884    40492    42322    28574 
   10025     7620    15193    22663    30905    36281    33920    17289 
  -13804   -39605   -45388   -31680     1781    42727    71926    86789 
   87633    74646    55333    40062    39523    40852    25336    14515 
   23026    26695    20523    15794    -3049   -49144  -108086  -162796 
 -194797  -184277  -138928   -82176   -19915    42393    83387   101761 
  121282   144909   155748   143089   108711    76981    63924    44770 
   15757    15034    32521    23964     1716    -8822   -24273   -53414 
  -77604   -88148   -94139  -101593  -108638  -114211  -114924  -109233 
 -103479   -90460   -58073   -15836    34182    97809   151277   165981 
  136931    78161    16554   -29948   -50478   -34744     2369    36593 
   57501    53941    27761      390   -21742   -45739   -62436   -57142 
  -38513   -28160   -29709   -36973   -56705   -83587   -91557   -74131 
  -38285    13583    63534    93398   103548    99098    90152    84081 
   76909    70626    70324    66424    50558    33782    22445     8514 
   -5766   -16800   -34954   -65193   -94610  -107359  -100156   -74283 
  -36600    -7111     3788     3284    -1559    -5979    -2200    14975 
   40231    65689    86884   100103   106092   102033    82376    60256 
   57554    69205    64771    34904      995   -29736   -61965   -91175 
 -129295  -175918  -192149  -176957  -159040  -122833   -67423   -32912 
   -8577    45270   108556   144953   160955   172330   179263   177755 
  171948   167913   153222   122850   103830   107418   108990    92774 
   63361    22148   -28352   -74685  -111992  -144969  -169341  -182154 
 -181941  -165400  -141766  -110736   -66698   -32960   -20641   -11504 
   -8976   -24526   -43106   -50506   -51260   -48219   -37581   -32667 
  -54795   -87771   -94191   -65831   -19293    23424    47578    58448 
   67949    75168    72887    66685    65955    67054    78278   113097 
  141461   131901   107603    96758   104703   126138   131883   107687 
   82713    67702    42547    10782    -6361    -8953   -12933   -24456 
  -41251   -72313  -121843  -157403  -143358   -89255   -30685     2739 
    1848   -18380   -48803   -87863  -115028  -118392  -109183   -94755 
  -75073   -42101     7259    53449    81081    96484   109162   117661 
  118399   122426   136472   144677   140913   138420   141947   143654 
  125472    76167    16770   -28068   -55014   -62400   -49092   -28486 
  -20013   -22334   -23673   -37683   -70956   -94937   -92216   -66728 
  -24124    12189    15439      563      -85     9054    14300    16288 
   -1227   -40033   -68437   -80626   -86766   -74211   -43240   -10136 
   27030    69094   102104   116395   109882    96776   102397   116976 
  110705    91238    73348    56386    55207    74003    97947   121650 
  130588   114814    90660    54776    -5109   -54450   -53258   -12009 
   36504    73211    89946    75771    27667   -21656   -28544      305 
   20376    19822    14086    -2544   -29201   -43192   -46496   -60819 
  -87536  -109870  -115377   -99716   -63218   -15780    33121    80317 
  110510   110056    93436    71633    32290   -17658   -58474  -101113 
 -143458  -150654  -125600   -92195   -52789   -33093   -49707   -66869 
  -70579   -69452   -49682   -12173    31793    79228   116697   146481 
  176675   188227   179730   167466   143535   111061    99019   106687 
  100373    68872    24234   -27666   -75148  -103455  -110111   -94070 
  -70245   -68538   -85410  -100895  -120907  -141241  -135926  -100876 
  -49636     7573    60974   110036   153056   171930   155941   110991 
   53871    12028    -9678   -30365   -42315   -32608   -18613    -7749 
    3592     5456    -3107   -13909   -21799   -16141     7675    37236 
   56316    56448    41852    23526     1355   -23819   -29577    -5196 
   28436    51964    61623    61196    50563    25719     4476      855 
  -10707   -32302   -30881   -16388   -12110    -7221    -9438   -33132 
  -50271   -46513   -44889   -43448   -31505   -29651   -40570   -42496 
  -40681   -43137   -31577     -542    30689    48288    47718    23714 
  -12734   -32965   -34976   -44057   -58522   -58109   -41496    -4280 
   57956   115152   141103   141581   115144    67045    27237     -164 
  -26665   -32987    -5731    35159    71189    88390    67980    22641 
   -7818   -13790    -7576     9963    34688    58835    78548    91977 
  108383   122678   105680    65746    39463    17698   -14859   -32993 
  -32232   -29556   -18973    -3749    11762    41435    63647    59766 
   61146    62181    29164   -17259   -52642   -84760  -110795  -119474 
 -110737   -98468   -96286   -95109   -91900  -101056  -109532  -101009 
  -89154   -71863   -37697    -7961     1777     8880    25535    46280 
   62644    75926   103330   140628   155732   148805   142297   130758 
  108176    90906    86871    87427    77874    44700    -2207   -42295 
  -72834   -85917   -69420   -37057    -9704     8240    19639    19091 
     287   -23755   -39891   -53336   -61676   -62371   -63675   -49021 
  -10922    16157    30612    55879    65768    40272    18052    29612 
   56296    72604    79075    73993    51484    36502    39750    38870 
   41049    44377    15370   -18019    -9298    10003      457   -31116 
  -73256  -111024  -123502  -114174   -91844   -51074   -14283   -12657 
  -29736   -48540   -72475   -74591   -35763    13851    36099     9899 
  -52684  -107879  -137147  -157227  -171590  -169973  -152241  -126343 
  -95019   -44062    28855    96216   152149   208966   243888   237614 
  211030   186074   171698   165711   158020   148441   131654    96507 
   53045    13715   -28321   -78040  -128451  -174166  -207489  -215892 
 -203535  -186203  -169444  -157467  -148632  -128305  -102499   -88449 
  -78457   -63229   -38381     4783    57065   107814   157471   191658 
  200197   192826   176143   157381   137603   100444    46986     2420 
  -14878    -3377    20628    34661    32525    19673    -2819   -31802 
  -54472   -59324   -49910   -33674      643    59337   113633   136402 
  135787   118263    73807    26996    16749    24676    22747    21243 
    9303   -30421   -77646  -119331  -149720  -157753  -157545  -157114 
 -144470  -127119  -112687   -87995   -43891    17989    81884   121305 
  136589   147664   148032   131797   118911   112317   101122    87498 
   67471    31382   -15139   -62799  -121830  -199892  -258217  -249251 
 -181367   -89417     4131    78218   115447   110512    81794    70672 
   86764   100651   113217   139579   153238   139487   129839   135645 
  137204   132222   125737   115005   101229    71325     8724   -66834 
 -127969  -174425  -204799  -208787  -194709  -182300  -183862  -209110 
 -254797  -296145  -315865  -295769  -197854   -37799   111423   231485 
  323333   333842   265745   199139   157141   124067   116432   129245 
  141498   156446   165177   161376   160850   157049   128240    76080 
   13930   -54410  -116783  -151473  -161613  -168319  -187729  -228450 
 -278574  -311389  -309328  -275441  -229693  -178385  -118816   -77671 
  -70656   -72983   -78816   -95713   -96701   -52721    34411   145689 
  257215   344254   382963   358515   277273   166429    60659   -11632 
  -32496    -2681    49331    89603   109631   117069   107842    77182 
   44303    30447    32070    34209    33449    42867    69578    88625 
   72674    47911    51601    54970    26618     7593    26902    41047 
   18495   -25319   -87400  -167699  -238201  -288009  -319874  -302843 
 -230552  -158253  -111910   -77140   -62872   -62726   -38268    16196 
   81273   157112   242449   310502   338462   328448   288995   231208 
  168553   100930    30219   -29286   -78458  -118646  -125001   -96242 
  -69860   -49702   -18864    -5677   -32357   -80620  -141267  -193285 
 -200479  -172482  -131776   -77850   -18812    52160   147453   226696 
  248752   221174   157091    74905    10559   -26212   -55319   -85424 
 -112147  -133634  -141423  -121725   -87479   -77552  -107079  -145432 
 -153167  -126522   -84175   -27699    46134   112727   137246   125868 
  125743   163244   221422   272186   295044   285304   252257   202878 
  155002   135432   140022   142421   128154   102661    67740    -4780 
 -111026  -187127  -204212  -180954  -128931   -69039   -36600   -42493 
  -68536  -106199  -159512  -215315  -263425  -307146  -327813  -306730 
 -259423  -196660  -110478    -6735   100989   203395   284414   322855 
  306128   252939   210424   199854   199719   203042   220927   227456 
  200784   169849   146111   104945    36652   -43577  -105906  -145117 
 -182984  -197985  -158858  -116451  -133737  -185093  -221063  -230694 
 -207359  -153732   -97724   -67957   -71841   -99773  -140374  -161721 
 -143619  -127638  -138996  -150770  -151840  -136146   -83131    -7532 
   45956    70720   105443   167123   232015   289071   346339   389804 
  400248   392714   385370   363497   315725   252932   174954    76019 
  -24663   -95058  -119915  -109768   -91232   -88835  -114911  -157403 
 -184377  -192574  -196310  -176306  -131308  -105565  -103865   -83021 
  -35063     6045    25328    38655    43919    13902   -41555   -78773 
  -84019   -66534   -32838      983    21952    39737    57135    58517 
   54540    72740   103748   115107   101558    92254    97899    87512 
   44116   -12333   -59172   -94384  -120580  -114927   -63971    -8886 
   10417    22978    69109   114865   104130    43740   -23785   -82451 
 -139821  -186520  -202275  -187063  -148628   -90964   -26216    29914 
   59630    50679    21057    -5528   -34441   -68940   -89090   -83760 
  -60851   -34817   -25845   -37793   -54146   -67904   -63027   -21306 
   17694    12983    -1212     2321     2522    13838    68305   139329 
  187727   211003   215472   216400   228173   232393   212017   174592 
  127759    86954    74379    90522   118341   130982   105727    54465 
    -124   -61704  -154802  -288628  -406463  -437522  -395670  -314051 
 -177040   -11043   119819   217233   300641   342013   308642   194002 
   50640   -39744   -77449   -97362   -83828   -47065   -14892    34452 
   93915   112326    85061    22860   -90816  -202972  -213836  -143611 
  -68401    22122   130421   203777   237118   254878   241290   186304 
  119800    65851    27494     5865    -1361     -299     2522     -341 
   -5226    -9112   -41221  -121578  -210546  -272542  -323526  -369787 
 -384094  -354035  -296638  -230008  -157014   -77640     3630    93025 
  197271   303803   399145   454346   417554   303015   183772    78806 
   -7620   -39154   -30611   -20300    -1510     8502   -28088   -80157 
 -101627  -105389   -95286   -45417    18503    45764    48104    53917 
   41152     3697    -5545    36856    94796   139676   162049   156751 
  128981    86050    43636    22193     4283   -35671   -69252   -70649 
  -57210   -32921    10422    67626   132177   173601   147095    58657 
  -55630  -183682  -297415  -339568  -314162  -294022  -296123  -272265 
 -214957  -144857   -69549     -984    57342   101324   126130   149602 
  174278   185402   183307   162908   123614    79138    22410   -43670 
  -79677   -70127   -36558     1474    31385    40810    12125   -51743 
 -101084  -104597   -88401   -64646   -17033    46094   108507   168258 
  213879   245220   279661   292982   237537   116643   -22156  -130179 
 -183287  -187723  -151391   -80819   -17226   -11313   -56186  -108766 
 -163291  -230811  -273179  -255528  -214983  -182576  -141967  -101510 
  -70941   -14882    74142   153844   197869   197912   147940    68794 
    5190    -6921    36895   107785   161493   179877   176580   133319 
   33313   -56586   -80641   -69935   -42945    20039    90110   118691 
  129045   153458   170996   187332   215808   208216   141411    58842 
   -5312   -40062   -37307    -8413    15792    15847   -15666   -89901 
 -191984  -284851  -364344  -432267  -454637  -424872  -386261  -350322 
 -295228  -232435  -174826  -104160   -34124    -1904     8415    28654 
   53424    90247   164653   256454   317299   341207   352134   341344 
  284894   208825   159915   138811   134462   154255   181687   188028 
  168371   126745    71119    15833   -35409   -83934  -120877  -141034 
 -143732  -117070   -67583   -31210    -9475    17117    14121   -35042 
  -67775   -51131   -10178    40227    84328   105443   106641    81463 
   34193    17267    50555    86623   118460   158647   159257   113802 
   74371    34525   -20350   -52898   -57008   -59327   -60543   -55981 
  -47442   -30740   -19652   -39890   -70554   -67552   -36262     4033 
   49111    76136    80971    95061   122803   137053   127411   112795 
  102161    75830    39012    20854    17266    16693    27081    49441 
   77184    94483    73407     1868   -93512  -160469  -181232  -193841 
 -215231  -219950  -219120  -244127  -264365  -245142  -204104  -134419 
  -24829    72671   127055   163531   177408   145458   105853    99857 
   75218    -7377   -77059   -87485   -74344   -43921    22558    94990 
  131509   141329   164773   217666   274779   304294   308747   301341 
  271550   227488   198696   171410   119209    63125    16545   -48968 
 -131499  -186895  -210588  -237770  -265529  -276723  -304228  -354484 
 -354986  -288780  -226989  -178638  -107484   -39229    20666   115015 
  208293   244094   259667   264808   200577    98373    59634    89248 
  118364   135366   162116   169754   126046    56343     4808    -8730 
    6244    28653    54770    82279    84962    55571    22749       50 
  -24473   -63752  -110445  -136353  -135171  -121049   -86310   -27068 
   31656    72746    84113    54156    20164    18774    23154    32563 
   81020   127663   111080    55395    -4137   -91592  -200681  -265205 
 -267098  -241513  -199910  -155189  -135572  -132277  -124550  -122029 
 -114825   -68198      412    55792   116654   185119   218480   215458 
  209474   205042   194047   177742   154200   124780    97538    83649 
   91379    98218    67661    -4919   -96740  -186611  -268820  -320176 
 -293360  -186761   -52517    57974   123768   152752   140280    78170 
    9998   -10353     7802    28460    54154    90391   115868   128246 
  130594   112665    83379    49411    18140     2989   -26444   -80049 
 -108223  -104262   -80908   -21999    37810    56187    66986    92558 
  102449    84310    42914   -16083   -69241  -108502  -147182  -168125 
 -137916   -66189    10344    79703   133820   144502   109876    56589 
    4717   -19620   -12490    -9924   -15735      119    36596    64255 
   70890    75857    77427    42183   -19949   -65769   -88244   -96664 
  -86803   -70420   -68801   -75613   -70352   -42850   -12176   -11213 
  -19146   -10725   -29217   -87243  -135197  -145697  -116553   -69844 
  -30425    19436    56821    17250   -59307   -93763  -105714  -113602 
  -81122   -26775     1503    10450    18963    27945    33029    41007 
   82058   140035   157806   150641   160347   165233   149591   145614 
  162085   171785   168626   156066   123545    81917    54231    42058 
   34357    16334   -11692   -30485   -34786   -27310    -7604     4698 
  -14840   -55711   -78123   -64314   -45735   -39550   -16990     8541 
  -14085   -72251  -122265  -155680  -170958  -162738  -136227   -98750 
  -59449   -23363    21558    79199   127198   158260   192027   225528 
  233628   211127   171294   125988    77816    21720   -35943   -64204 
  -39158    12174    44830    62906    80485    68668    23647   -10561 
  -13683    -1663     1898    -1080     8370    13893    14221    44383 
   71525    47606    18601    11788   -20118   -62230   -48897    -4074 
    7051    -6689   -22877   -57195   -97564  -104651   -64998     1970 
   56168    72707    62594    36790     7463    16068    72632   117175 
  112668    82014    38720    -7563   -20330    18085    76184   103175 
   86432    57380    18837   -47190   -95468   -69388     8114    92868 
  162749   182435   140970    72182    -4733   -77239  -118912  -133703 
 -146810  -158635  -139996   -68853    15229    66832   113923   162005 
  156948   104963    58360    31900    27442    45862    67205    64073 
   26368   -25647   -68384  -101319  -122701  -121549  -117535  -145869 
 -185711  -194782  -187997  -176989  -127498   -51235    -3107    17389 
   33660    32332    21148    41998    94749   133152   132996   107656 
   72014    37561    20507    29752    62040    90626    75359    12387 
  -57727   -83972   -51564     -723    41897    82730    92046    40380 
  -20632   -23496    13992    38173    54489    89454   127489   140925 
  134671   135761   145141   146181   142667   127255    83646    29269 
  -21872   -70821   -90640   -69560   -53380   -78721  -126591  -169223 
 -198878  -196422  -143663   -66559    -4364    35423    63843    87771 
  106366   118218   121005   107603    79654    46015     9904   -17557 
  -16907    13873    52366    67268    40220   -19564   -88635  -149927 
 -186132  -183786  -158160  -135339  -115443   -81633   -33290     9779 
   36943    46915    35613    20199    10368   -10478    -5236    76203 
  185629   266997   331472   358763   300678   180676    62788   -38648 
 -151767  -273437  -358837  -387341  -367143  -299634  -214867  -152308 
  -94143   -38246   -22180   -21285    -7143   -14610   -34576   -20434 
   16104    56214   115401   176315   202712   207607   201382   163310 
  117148    93862    72107    50895    51274    58042    60545    73063 
   90359    92655    82459    72647    57546    30847     7201     2456 
   11438    11080   -20703   -83592  -157000  -222663  -260940  -248955 
 -196566  -135702   -74375   -22259      341    14658    54017   106950 
  151361   185449   196774   160828    96519    59306    66498    98437 
