Origin Time       2011/03/11 14:46:00
Lat.              38.103
Long.             142.860
Depth. (km)       24
Mag.              9.0
Station Code      TCG007
Station Lat.      36.5677
Station Long.     139.8873
Station Height(m) 136
Record Time       2011/03/11 14:47:18
Sampling Freq(Hz) 100Hz
Duration Time(s)  300
Dir.              N-S
Scale Factor      3920(gal)/6182761
Max. Acc. (gal)   166.132
Last Correction   2011/03/11 14:47:03
Memo.             
[...]
  -31459   -16343     8299    14414    -7195   -28795   -29755   -22021 
  -11560     5588    17282    11470    -3680   -11141      140    24654 
   38158    25728     6384     2751     7325     7435     9365    12594 
    -945   -32661   -58011   -60890   -49577   -38601   -31042   -20698 
   -5053    14257    33032    39373    29475    18668    17224    23448 
   35464    42405    37315    31532    23628     7306     1722    14375 
   26434    28402    22422    19089    28056    34324    25647    14231 
    5754     1818    15889    39868    42550    22057     4699      886 
    2063     -178    -9346   -23574   -33830   -32650   -25647   -21922 
  -21571   -24463   -35386   -50377   -55108   -45752   -28901    -5497 
   16114    20891    14730    10528     5847      680      991     4592 
    7248     4580    -5339    -8378     2352     8998     7399     7614 
    3914    -1493    -1398    -9367   -19983    -9914     6788     2770 
  -17157   -32675   -31838   -14720    10282    35260    56768    69700 
   66481    52795    48579    57187    58354    39794    11283    -8363 
   -6791    10311    21382    13476    -3835   -17820   -23111   -22920 
  -34350   -56787   -66115   -67718   -76449   -74172   -59104   -53084 
  -50205   -39263   -31189   -28377   -20812    -6974     8312    20851 
   29274    34229    39389    45284    40535    31157    39730    51472 
   41979    26073    15930     2287   -17946   -34684   -25579    10439 
   32626    21526     3417    -3312     4421    20373    17391    -9026 
  -26717   -25598   -19808   -11977    -4742    -3995    -6051    -6562 
    2785    26741    42074    31996    19094    22029    31415    35646 
   29005    14381     5825     5182    -1869   -18882   -35096   -40834 
  -35433   -28239   -26017   -21787    -5160    19251    31560    25974 
   18006    13144     9160     8813     5055    -5918   -12827   -14644 
  -16105    -6553    11271    13086     4091    10844    30770    48974 
   56402    38235    -3343   -43661   -63967   -55138   -27110   -12007 
  -19725   -28255   -23319    -5157    18579    32914    36516    44503 
   55611    52699    41073    42776    51567    38107     7447    -2854 
    7100     5918    -4233    -2750    10217    26066    37849    41109 
   36832    22129    -2884   -18998    -8242    14596    21169    12724 
    8854    17941    41592    71466    88691    85055    68370    51522 
   39979    32584    35139    47367    48119    22042   -17828   -39174 
  -28449   -17002   -27024   -39783   -43992   -39156   -25554   -22157 
  -34670   -43069   -39925   -30287   -20572   -15021    -2978    20269 
   38350    43673    44467    44781    47816    57956    72215    83998 
   82959    68214    59128    62777    67013    66258    57724    39938 
   18440    -4791   -25181   -28395   -14869    -5149    -8384   -19044 
  -35127   -48787   -46770   -34083   -25889   -19275     -192    25533 
   29121     3108   -14481    -1452    13069    11627    11791    20047 
   24170    20590    15425     8010    -3031    -9833    -9381    -7600 
   -7372   -10617   -18721   -24233   -16350     4622    27565    42244 
   36731     7006   -18592   -15616     -783    14003    29086    24528 
    -950   -18879   -17947    -7579     2232     8181     9347     2526 
   -7388   -12163   -17632   -29974   -42637   -50237   -45524   -22037 
     694     -116   -12001   -10689     3744    14287    15810    17183 
   20984    24356    27174    31581    42115    57250    61924    43710 
   19600    18570    34855    38124    21104     5544     6721    11014 
    1795    -8298     -224    11718     -177   -31266   -51754   -43636 
  -14407     6458    -6977   -38124   -45153   -18955    12075    21253 
    9709     -871     1439    10255    16574    17372    16862    24526 
   41613    48112    30961    17543    26909    25744      711    -8554 
    7834    24149    35692    35478     9786   -13419     4310    43617 
   57664    42867    30047    35777    48503    50436    41460    26537 
    8541     3931    12220     8312     1406    18023    47170    71803 
   83476    66018    26853    -7168   -19262    -7501     5078     3858 
    4671    13214    22856    26154    14051     -180    -1357    -2343 
   -6026     5649    23770    18170    -4244   -14340   -15024   -18847 
  -25832   -41456   -54940   -44913   -24323   -12188    -3923     3532 
   10105    13138     5796    -1990     -173      444     -352     5127 
    1441   -14152   -15600    -1314     4396    -6628   -20620   -22041 
  -13244     1305    23715    32385    14734      490     5258    23146 
   44009    38683    15363    15074    22383    14309    13537    16690 
    5708    -1128     3911     5782    -5405   -28163   -35775   -17328 
   -5039   -12394   -23584   -24946    -1447    38620    52823    27093 
     315     4695    26438    32987    18648     3307    -3688    -2394 
    5045     4821    -7848   -14446      648    25541    33965    20188 
     502   -11520    -5639    20271    43640    41724    16400   -16639 
  -37086   -34468   -17645    -4877    -6439   -12302   -20110   -32628 
  -19864    23425    50105    41325    16088   -10319   -28099   -22438 
    9565    33464    29602    18997     8533     1666    10174    23444 
   23501    11423     6663     9364    -3541   -24778   -35815   -37055 
  -20903     4797    12678     5173     -295      253      918    -8203 
  -24385   -35876   -32000    -9804     4602   -11777   -36616   -50362 
  -55899   -37928        3    16896     3718   -13734   -14267     6230 
   19302     7186    -2583     7397    29878    52182    55535    43929 
   35909    31834    28373    21490    11132     9547    10869    -2365 
  -24920   -41685   -44268   -29425    -5065    10826     4886   -17321 
  -30234   -12576    27424    58148    51175    13576    -9825     4000 
   33184    62057    80192    74084    60366    52071    42519    38877 
   42972    51778    68145    74778    60859    50986    57524    61889 
   53363    37254    23333    13924     -914   -22981   -40656   -41835 
  -33057   -38407   -48194   -28520    -1816    -9188   -20772     6921 
   57036    90280    88281    59174    21386   -16506   -40922   -35720 
  -12745     5179     5555   -16767   -43733   -45957   -23363      644 
   13441    20697    26789    24722    16042    15540    30531    49415 
   48623    26026     6045     1910    14143    38905    54862    47171 
   32471    30966    39555    38830    23735    14516    13221     1720 
   -3302    17441    36744    39709    38293    27008    12426    15356 
   23980    16859      285    -8451    -2344    14738    30642    32331 
   15678    -6852   -14049    -9857   -15474   -27092   -26026    -4797 
   24702    40856    41080    27253    -1656    -9805    22745    41814 
   15521   -24131   -55365   -67224   -51238   -27407   -20281   -32667 
  -40686   -20492    11716    34912    47529    40923    24095    21687 
   29104    34589    38256    29544     8697     2696     7613   -10829 
  -33329   -21616    -1263      161     1258     8182    13638    30531 
   49671    37908     8198    -2107       72   -10028   -22903   -21197 
  -12798    -5096    -4799   -22926   -39248   -25916     2470    20580 
   33828    49906    52936    30358     1147    -2146    16897    26986 
   26386    26142    13726    -7182    -4662    25222    48285    36285 
   -3669   -34489   -26158    12502    34715     7825   -34021   -47336 
  -39169   -24157   -13982   -24689   -33070    -4457    35137    39619 
   21950    13385    11217    18660    39804    42057     2171   -42009 
  -46924   -32321   -23354   -18011   -30349   -48304   -41439   -35032 
  -48297   -46328   -20725    -3399    -2790    -7658   -16612   -29847 
  -46518   -59425   -54211   -42116   -50322   -73268   -80211   -56228 
  -13024    27658    47952    39767    10349   -13702    -3746    24135 
   27782    13789    11571    17105    20999    24290    26989    37205 
   55542    64021    59840    51168    36533    32755    45491    32672 
  -12397   -39118   -30356    -4633    25162    38712    32273    32986 
   42899    44522    40159    31794    19586     6692   -12030   -24400 
   -7479    30456    60163    63087    45295    36114    55251    71744 
   50944    30845    47328    66645    71393    66430    33042     1243 
   16005    26621     -958    -5753    24220    27788   -15343   -66796 
  -84928   -68802   -49065   -44711   -51593   -58318   -58174   -43605 
  -15524      664    -4718   -17368   -36556   -49200   -32371    -1934 
   12642    11932     7204    -4915   -14763     3234    39911    64260 
   71946    64600    41852    32122    44381    41615    23932    20150 
   18205     8267     6453    10880    14168    25752    36920    18555 
  -12466   -10737     6864     5842      967    -7285   -26182   -12703 
   42753    75203    58696    33506    25840    35001    49454    50873 
   47508    57421    61726    47380    37597    43863    60918    79292 
   73813    40319    10261     2130     9154    15097     8209    -5896 
  -20517   -32649   -34905   -32560   -33198   -28441   -22832   -28104 
  -24411    -2083     7713     1904    10606    25654    19167     2069 
   -6257   -16568   -35274   -51547   -53422   -28169     7241    12869 
  -12717   -41223   -57046   -51522   -22011    11985    26363    20138 
    7372    -7123   -24247   -28361    -7385    12639     2671   -24476 
  -45040   -54967   -49586   -26080     4315    42344    84100    89404 
   55440    41562    57806    61154    50688    50031    51221    31342 
   -2394   -11272     8598    13822    -6110   -18379    -6774    14021 
   17932     4175     7440    36359    59945    62346    45211    21262 
   13139    19509    29554    44034    54417    50326    36336    19826 
    -294    -8812    16880    49717    46951    12038   -30909   -56446 
  -52242   -46265   -55851   -63611   -71812   -77625   -61553   -52940 
  -80957  -107391  -104794   -89806   -63452   -35733   -41234   -68557 
  -76276   -65105   -56610   -50097   -38707   -19793    -9809   -41864 
  -83808   -75164   -44481   -36293   -26379     2309     9104   -20582 
  -33327   -14066     3939    10521    -7992   -40957   -49817   -40938 
  -23544     7498    43999    85520    99645    52617     5593    28292 
   83442    97517    66755    33076    19851    34134    61089    67662 
   65984    88223   105052    81936    51597    50724    68989    81325 
   74432    57125    41994    20829     4038    17292    26179   -11853 
  -58865   -74674   -72069   -61080   -53871   -71070   -94311   -91976 
  -68052   -38469   -10427    10015    27019    43716    42892    25363 
   12730     2083    -3537     5667    10800    13420    19553     6270 
  -10134     4859    34309    42129    21659    -8029   -26128   -21359 
   -6703    -3415    -6330    -8125   -12938   -16465    -5193    23609 
   43329    41255    39356    37031    18619    -3693   -11155     3263 
   29412    37014    15431   -10504   -15503     6256    30533    26767 
    7028    -9572   -27538   -24862    11834    34060    17898     -871 
   -4669     4674    24084    26599     8244      815     1757    -3334 
    4984    35381    58938    39044    -7129   -18662     3241    18835 
   33208    47626    44878    24876   -11547   -39784   -15506    40177 
   59826    42382    41102    60320    70480    79750   100714   113282 
  108649   108148   117189   109690    78723    43568     7239   -20707 
   -9386    31583    55528    46207    14674   -19395   -31581   -29634 
  -28661   -23880   -30246   -40207   -30492   -35835   -57041   -46492 
  -20246   -10864   -20752   -41301   -43201   -22526    -2669    14308 
   21797    13402     6116     7782    11257    -1404   -36779   -59444 
  -54592   -50640   -55109   -64201   -74167   -60579   -17601    25317 
   47935    60507    76385    85669    77504    66560    68483    65925 
   40264    21567    35485    55367    63417    65727    65031    64633 
   53383    25904     8956    15137    20164     5033    -8492     8753 
   36177    44067    34696     2138   -51635   -93613   -94914   -52195 
   -2340    10535   -19496   -78881  -126278  -109205   -50016   -13577 
  -24315   -70734   -93397   -50836   -18811   -48202   -65701   -46103 
  -49146   -79893  -110269  -135287  -134486  -108550  -102224  -130754 
 -159103  -150807  -125042  -122414  -115686   -78818   -59235   -65277 
  -42573     8027    51153    87963   105032    87044    65660    50352 
   39410    62035    87724    59421     7748   -14947    -4722    17350 
   33698    54807    82698    98672   100040    75987    34752    35612 
   88335   127740   120477    88715    54977    27569     9177    -9213 
  -40498   -74389   -96635  -115522  -118895   -86729   -57520   -65787 
  -78430   -72226   -62806   -49704   -28270   -10616     5986    28618 
   53261    76356    69460    26317     3567    12373    17537    25081 
   31192    10702   -11747     5677    47145    58138    25092    -4514 
    8867    45663    74294   103112   139159   176545   214561   218633 
  174494   129291    91666    43370    18155    38553    49052    -1594 
  -68201   -80768   -51173   -31445   -27082   -18629     3481    52036 
  100566    95254    65689    66042    62072    34869    29679    56804 
   88960    97689    75020    45974    28563    33883    63375    77450 
   71216   100645   158350   183287   172886   150778   130495   117061 
   79269    33512    43233    63649    16810   -56482   -82317   -49975 
    4221    33626    38142    55771    86806   107431   118590   140857 
  196076   263241   269448   175366    31133   -80755  -113337   -59909 
   34143    88858    72337    10864   -45804   -52337   -22875    -9975 
  -42549  -114956  -180283  -195929  -182720  -158949  -106097   -56136 
  -55680   -63774   -28051    26016    47225    12694   -48996   -66949 
  -21328    29824    44359    25555    -2940    -1222    29485    34979 
    9125    -9633   -27029   -62581   -92521   -97446   -92163   -84730 
  -88539  -108140   -97105   -43842     -435    -4481   -68311  -149828 
 -158304   -86862   -20399    -4255   -25412   -51273   -42540    -2673 
   22786     5038   -45862   -91619  -118180  -140153  -139286  -102628 
  -59510   -25193   -19863   -64658   -92431   -48879    -1573    13004 
   31613    37444   -14503  -108250  -173386  -168006  -109888   -34975 
      -1   -17476   -12413    25719    41452    50416    72120    81341 
   75807    51812    11347     4814    21415   -16788   -84057  -104408 
  -89045   -64759   -26387     5397     1001   -13968    -4437    18831 
   75711   180620   236563   179883    85792    39289    55729    90143 
   85638    39850    -9512   -32314   -18493    11789    22738    19666 
   43885    85644    82991    29642   -20641   -39809   -21888    20507 
   49844    60200    57224    51777    95716   173478   202117   174579 
  114507    40239    22668    96300   186553   200878   140177    91315 
  104232   143332   161438   150707   127245    88616    31649    -2703 
    6649    36225    73298    77743     7089   -83930  -108459   -57046 
   16157    59416    62068    32435   -27224   -91981  -118026   -95926 
  -57521   -35591   -40768   -60444   -68645   -57087   -33056       11 
   29449    58733    93338    89574    54259    72619   131741   140865 
  104796    63232    16507     4055    44263    79758    97913   109587 
   87985    68649   100606   135467   127256    95457    68134    46388 
   -3264   -85718  -151300  -175832  -165700  -136646  -144612  -206187 
 -235016  -183430  -108648   -57890   -33253   -27578   -34378   -47764 
  -48300   -16503    38531    74234    50194    -4790   -14394    37181 
   90831   100146    59530   -12220   -52539   -17166    37681    53351 
   43169     7693   -62683  -132280  -164286  -141105   -76506   -35671 
  -35543   -20968     3179    -6537   -39610   -80398  -114040  -105514 
  -58280    -5285    31509    44922    40861    20231    14266    54786 
   82564    60889    46892    63394    96463   141607   170607   161004 
  129206    93203    55855    29515    17397     2858    -4404     1314 
   -4013    -3001    25169    47131    47421    31126    -2467   -22254 
    2525    52348    85491    81497    43484   -21411   -97198  -155308 
 -182667  -187737  -170355  -110646   -15843    44711    27143   -15064 
  -26050   -23445   -29318   -24472   -18221   -55953  -113669  -113261 
  -41286    49819   104243    83010    -4787   -81836   -80132   -24967 
   30787    90008   131339   108291    78244    96877    99246    54792 
    5144   -36725   -45812     5382    70397   104516   126644   156620 
  187996   195031   147409    73506    50385    92290   145797   168634 
  142778    82263    23325    -7576    13233    68790    89255    57504 
   33481    52936    92778   125036   143195   143242   117771    63390 
   -5923   -59942   -81524   -70642   -55775   -75588  -101260  -100079 
 -120274  -160394  -139335   -78237   -66630   -96149  -120371  -119696 
  -89120   -84672  -125932  -126056   -79235   -55804   -28462    23465 
   48775    55810    79392   104267   103657    70597    26844    -5633 
  -22438   -21259   -11972    -1315    13405    20953    15890     3417 
  -20278   -61591  -104657  -118989  -116285  -122280  -125119  -126629 
 -135381  -145055  -170628  -202356  -197343  -139797   -50623     2155 
  -26396   -75790   -83630   -64441   -37183     9687    75807   112836 
   71248   -16269   -76823   -83321   -39034    38851   103770   119952 
   95004    49375    11009     6490    18367    24788    39353    56867 
   54675    38365    20543     -689   -25531   -38644   -31604   -24700 
  -21079     4692    48743    77672    65002    26765    27298    81643 
  127092   137102   127711    94187    51121    32277    33013    47681 
   92486   140146   138243   110363   126809   186605   235456   232864 
  161054    65497    19981    12872     3614    19030    57665    57523 
   22835     3166    -2226     9216    53821    98292   111514   110576 
  124285   162649   184816   131763    25812   -44194   -32799    35611 
  104682   117286    61452   -14032   -53896   -48287   -18082    16838 
   42545    62388    79990    75452    48565    31278    34019    26936 
  -20461   -77858   -86086   -63822   -66899   -97931  -134926  -136311 
  -68522    19079    64651    75413    78481    77445    63530    49488 
   55023    67836    86469   104317    69576    -4185   -37541   -16754 
   15642    18266   -13219   -34110   -19811     2033    -1724   -23158 
  -13313    47575    92356    34782   -90489  -158106  -139320   -92068 
  -31361    25079    19279   -49552  -102547   -77624     6652    73266 
   68983    18157   -34574   -55543   -16332    30412     8907   -44692 
  -91926  -142383  -136178   -55843      251    -1914   -27990   -63548 
  -73764   -45734   -16674    -6764   -25451   -62679   -70281   -38234 
  -10652   -13924   -47150   -95719  -122072  -107923   -77131   -47010 
  -20542   -11869   -29551   -46125   -22233    20629    17286   -39058 
 -104586  -151296  -143624   -57609    41797    70497    34779    -6534 
  -27059   -47831   -72987   -80860   -90295  -116046  -122720   -92892 
  -40763     2127    -6647   -41963   -32654    20444    81724   142029 
  179283   183621   176947   161543   126531    72541    12264   -31271 
  -53915   -67650   -69017   -63547   -65405   -57837   -34348    -6088 
   46888   111794   127707    91995    47536    20951    36607    79842 
