Origin Time       2011/03/11 14:46:00
Lat.              38.103
Long.             142.860
Depth. (km)       24
Mag.              9.0
Station Code      TCG013
Station Lat.      36.4368
Station Long.     140.0227
Station Height(m) 66
Record Time       2011/03/11 14:47:15
Sampling Freq(Hz) 100Hz
Duration Time(s)  300
Dir.              E-W
Scale Factor      3920(gal)/6182761
Max. Acc. (gal)   422.175
Last Correction   2011/03/11 14:47:00
Memo.             
[...]
  -55900    19349   107478   154466   145620   106092    63262    16992 
  -46680  -107342  -118916   -82344   -44516   -23066     2624    40825 
   70310    66236    37706    18224    10997    -4606   -25292   -35155 
  -35478   -35794   -38620   -42734   -51344   -68821   -89187  -107961 
 -134140  -153510  -126372   -55098    11516    44374    55378    63785 
   57249     4506   -83900  -149096  -151185  -115457   -85368   -48094 
   25936   104960   134610   104709    49108    14681    19647    42370 
   67558   108227   152981   153624    91488    -4134   -86269  -115112 
  -90329   -39604    26729    97607   133529   109792    44643   -24282 
  -61673   -58029   -27909    20324    69911    86636    66617    34279 
    1968   -20178   -21431    -2913    29093    59611    67743    44385 
    3349   -33859   -61023   -70626   -54280   -25826      829    20380 
   17474   -15809   -64440  -109937  -138072  -136481  -110794   -77252 
  -32797    27084    72703    66597    16349   -28705   -39445   -41157 
  -55579   -51535    -6238    39761    45791    34004    42844    68234 
   80075    68542    55579    50161    20799   -49024  -119031  -143389 
 -129159  -113861   -99492   -55289    12224    57237    55156    19389 
  -10432    -2745    16539    10923    12053    53678    93866    86073 
   43076    -1212   -30908   -43363   -25944    43053   147215   223138 
  241386   233843   214108   161722    84766    16917   -25465   -47996 
  -56753   -42242    -8078    10490    -2930   -18482    -7625     9049 
   -4661   -34338   -44333   -43157   -58738   -86547   -99676   -92482 
  -85475   -85752   -79358   -67053   -70872   -93668  -104997   -89669 
  -68535   -53046   -27504     9223    25853     5854   -22711   -33307 
  -35748   -36987   -28193   -16825    -1156    35730    72398    75712 
   51484    20572    -1100   -13603   -40228   -78125   -82763   -47881 
  -21451   -10888    22177    69509    85774    63030    32872    21708 
   21422    18924    35315    89558   154672   183948   163205   114773 
   54369   -15068   -72006   -87680   -59762    -9963    38684    68698 
   60983     8617   -63283  -120101  -152928  -162205  -127180   -44422 
   35645    64883    47884    10553   -29664   -50978   -35893     5631 
   46755    71959    84417    71363     5752   -86453  -130190   -96035 
  -39967   -19901   -15416    11133    26282   -25486  -128689  -209291 
 -210898  -153624  -107566   -80276   -25736    46090    82417    47147 
  -28437   -46744    12923    70310    97652   138091   200751   237798 
  215763   155834    95315    52977    27881    16680    28211    51437 
   48364    25099    30276    58613    55498    13222   -25256   -42670 
  -57325   -74302   -77576   -57283   -35480   -44393   -61774   -48803 
  -33913   -55928   -91749  -102208   -87867   -73650   -62916   -40118 
   -7480    17492    24929    21123    19666    16639    -1121   -23177 
  -36078   -47188   -56477   -48194    -9295    50831    90060    82337 
   56465    54396    83497   105966    86819    60096    73936    95940 
   71336    19983     6782    53173   103191    89506    22737   -23368 
  -11863     4485   -34386   -76766   -35307    42588    48272   -19690 
  -85359  -105373  -103169  -112458  -108079   -45267    48495    98970 
   85307    48903    20455   -19976   -85828  -136285  -141943  -121862 
  -87316   -35889     6561    13776     7675    11939    -2427   -51332 
  -96355  -112298  -107543   -99387   -95057   -71392   -21214    13416 
     202   -40824   -53307   -11642    27491    12570   -14722    -7455 
    1613   -20806   -39984   -25867   -11528   -28222   -53294   -54591 
  -30973   -12791   -16876     7113    87113   147333   138845   110415 
   96802    89245    83831    65556    25533     -745    10319    24832 
    6158   -33704   -62235   -71829   -89239  -136140  -169903  -139980 
  -88289   -79486   -88538   -54215     5641    30402    35594    76857 
  144226   175990   145365   102142    93047    94765    82612    71839 
   72541    73621    71119    70756    56017        5   -67393   -62570 
   15691    56330    12907   -43713   -62058   -78267  -145002  -226049 
 -228195  -144585   -60701   -29696   -44655   -91015  -132536  -128489 
 -109671  -111879   -94592   -24226    74906   136685    92977   -16682 
  -79067   -82796  -100687  -126100   -78125    45634   150219   167612 
  119850    72180    43546     3415   -48899   -62859     4385   103585 
  134686    95608    66573    70181    54370    -4271   -37664    17838 
   97432   106508    77206    80668    85914    30722   -56709   -94614 
  -73878   -70793  -106924  -107354   -39344    12256   -36426  -128398 
 -150101   -97210   -49797   -49366   -44446    21532    83822    58199 
   -6157   -27777    -9024    -2653   -35115   -55893   -22238    29249 
   68176    94116    97152    91635   107303   130024   134285   135969 
  147323   146142   119645    85923    70649    69094    49627    10488 
  -13879    -4319     8531   -29820  -107474  -140495   -97677   -44314 
  -43668   -79194   -89255   -60508   -53718  -104065  -159805  -167587 
 -141291  -114934   -76056    -6114    52120    64627    52656    28489 
   -8748   -50600   -70462   -41154    -1265     3247     6704    38969 
   60542    22271   -63812  -119890  -107345   -97501  -150378  -203619 
 -169086   -61264    23678    22104   -19259    -7533    48491    62538 
   24149   -12650   -18967    -3472    -9850   -57192   -80815   -30400 
   34753    37219    -1653   -14609    10452    44616    50825    26822 
   22673    34883    13903   -20596   -20110     1974     7694    11990 
   42840    89657   135004   166989   186729   205434   223804   241436 
  245261   220916   188360   156290   106699    48656     3570   -21663 
  -25985   -25270   -35625   -31525    24348    98253   103877    11620 
 -126732  -221987  -211428  -148639  -145161  -189523  -170171   -72994 
   -4465   -21421   -64357   -59896   -23432   -42093  -117172  -137834 
  -78670   -28313   -51274  -122731  -145552  -101462   -90717  -132976 
 -142836   -95591   -47295   -27130    -7453    25673    46972    36299 
    1243   -30249   -37360   -29644   -13141    15074    28456     9952 
  -18183   -41644   -59438   -54184   -14012    29979    39805    33255 
   50044    79085    75525    28761   -12083     7510    53041    35141 
  -29504   -29695    50780   112742   101080    54297    11118   -29878 
  -62871   -63423   -22764    33467    80051   125905   162569   152807 
   84104    -7821   -43172    -1424    44453    66985    88213    99916 
   90542    55968      735   -45619   -47927     4769    69530    98388 
   95868    68519    26332    -4889   -25462   -32689   -26238   -23227 
  -12591     6715    -5001   -65394  -132473  -142493  -106367  -107356 
 -158612  -179605  -123167   -41660   -15518   -42372   -61218   -54271 
  -46352   -55101   -59588   -23507    34126    76138    96251    90890 
   70845    37508   -26935   -98118  -121713   -77703    -7729    35484 
   43471    32891    38056    81759   118268   108959   102998   137469 
  159486   119043    51096    24595    61196   118779   143896   140609 
  133398    94406     1351  -103706  -158886  -147676  -108466   -66192 
  -10103    42695    45685     4763   -26351   -36743   -44568   -37384 
   -3185    30435    32070    14854     8022     7974   -13450   -64869 
 -104701   -91718   -40833    16317    52545    36400   -10405   -11239 
   41860    56812   -21418  -114374  -105454   -27900   -21249   -86087 
  -92808   -11233    45749     9297   -25308    34929   121966   139911 
   92369    40832    21844   -14370  -128717  -253274  -253741  -125656 
   17356   104382   138375   141713   113257    29425   -88702  -147542 
 -103568   -43991   -33787   -24975    19533    57223    36846   -34003 
 -103413  -139300  -143944  -111268   -41911    37346    98047   120108 
  114112    84395     5630   -75871   -73163   -10581    35723    80051 
  156307   219791   223516   167728    74698    -5910   -60084  -132278 
 -188785  -130632    16967   135383   186715   202643   204995   187184 
  109544   -30934  -137935  -136353   -91566   -87891  -110133  -124707 
 -128809  -121304  -120533  -149508  -196888  -227103  -204215  -138750 
  -81649   -50015   -14076    57090   129411   137777    91298    41517 
   16002    -1621   -33424   -40322   -13064    -1300     6758    37598 
   65040    62713    18786   -44769   -84399  -101833  -112196  -104487 
  -80671   -50625   -21113   -16840   -51831  -104656  -147019  -166231 
 -161767  -139872  -101767   -26696    86325   173648   184919   155846 
  138031   118846    63278    -1662    -3510    82647   188265   224343 
  200649   190487   206609   206590   163038    86490     7271   -47596 
  -71326   -86914  -100613   -91376   -68915   -50222   -27201    -1619 
    9755    -1044   -12496     2907    33713    56753    68434    73365 
   73617    49611   -15487   -90406  -135347  -154274  -161582  -146804 
 -110151   -68879   -27421     6689    24025    24974    13365     6898 
   11993     1257   -37825   -70396   -71546   -74661  -108120  -147071 
 -165731  -167064  -156524  -123805   -67965   -23643    -9868     7354 
   43778    45943   -10918   -42580     8699    76689   108947   128372 
  133517   104319    47071   -40083  -141130  -204646  -202413  -145113 
  -73923   -19417    30337    69223    62969      720   -91334  -157180 
 -161576  -126826   -96024   -77120   -28456    62042   134630   140507 
   85565     9804   -34933   -38919   -48339   -84992  -102641   -54634 
   32219    85066    77371    57157    78513   128753   158043   169035 
  196571   243398   294912   325220   311422   256804   180339   116402 
   64047   -19305  -113291  -145697   -90737    10011    88637   132028 
  179938   230257   238488   191518   136403   112600   101080    88552 
   78347    73177    84233    73122   -19022  -157938  -239992  -230218 
 -206474  -218191  -206937  -143077   -95157  -121225  -211932  -312700 
 -357398  -357586  -391910  -454439  -465342  -410612  -328222  -230929 
 -129685   -57413   -26876   -24853   -51709  -103324  -151917  -179607 
 -159191   -63201    50076    91453    60490      480   -72273  -147359 
 -210010  -230125  -158687     2948   180872   304326   363521   391915 
  390275   318919   186715    56997   -29344   -70707   -80730   -88725 
 -116388  -144193  -159709  -167722  -137855   -61301     6812    29445 
   25502    15132    -5416   -27228   -27857     1652    61732   139350 
  210585   258538   284197   307245   326740   319197   279929   225721 
  182089   160694   155880   165133   190185   231689   267238   252348 
  175615    76254    -4228   -60585  -103935  -125791  -111550   -74968 
  -49622   -53778   -67984   -55676   -33450   -60571  -136575  -203137 
 -236350  -272753  -347352  -429223  -452921  -406457  -342346  -314905 
 -322093  -302765  -233824  -167184  -128290  -110770  -112501  -111457 
 -120835  -170042  -218250  -233384  -232144  -210324  -161618   -92296 
   -6600    67088    99088    94917    87455   113586   169521   216336 
  247257   289623   350350   399616   390421   301985   167847    43014 
  -30986   -36461    12215    81090   142919   197094   260661   319085 
  314308   224330   125099   105542   154139   207171   243119   276300 
  324787   385913   420402   398405   337950   266891   187051    82128 
  -40797  -140719  -204295  -248885  -264640  -232499  -173540  -138496 
 -159041  -212374  -251315  -281703  -357986  -481055  -564250  -540649 
 -458127  -396494  -328283  -159958   101433   324408   412320   370639 
  254628   158045   133182   106642     3235  -103967  -101216   -16817 
   38625     9352   -65511  -100696   -92234  -109039  -163593  -197674 
 -164570   -87632   -21901    20973    53425    56074    -7343  -142440 
 -297487  -406384  -472160  -541099  -610606  -630876  -565654  -409217 
 -174050    88063   303174   448359   528612   544229   527188   491641 
  429382   380537   361025   340947   328613   304140   198433    27582 
 -115301  -182482  -191127  -159746  -102038   -50021    -8680    17690 
  -11536   -92667  -176692  -229535  -245116  -255017  -287711  -323462 
 -334067  -320335  -282777  -215318  -136432   -73157   -38113   -19137 
   16730    62008    70235    28126   -45374  -110789  -104584   -14035 
   92287   173389   252785   331158   374886   352833   253575   122728 
   33385    15698    42768    62106    62474    72040    83019    55470 
  -15124   -83743  -109511   -90906   -49969     6428    85069   149847 
  161376   139423   109708    80207    43631   -20464   -93426  -133718 
 -141516  -152480  -183962  -209040  -199778  -168389  -148598  -153674 
 -155806  -131224   -92809   -35940    60217   177664   285561   351992 
  337652   260959   185854   128318    71694    28695    18314    25215 
   21677    -7200   -80056  -193753  -300919  -379784  -453946  -520558 
 -529225  -451379  -339756  -252327  -156390    -7701   157581   282935 
  329771   276679   172601    83368    -5966  -112920  -183006  -178970 
 -111608    15742   176261   315913   394010   386674   317301   223396 
  109511    -1861   -79975  -109742   -66031    28660    96662   110079 
   91740    51259     3338   -27665   -48352   -67189   -59870   -21716 
   22192    73624   133436   166162   156902   126115   106535   130533 
  179726   214847   248321   293594   332107   347311   325388   269886 
  207653   169974   174160   196087   207266   220788   255718   306352 
  346783   344876   275912   145986    15947   -63894  -130011  -230916 
 -344022  -432440  -482416  -498115  -527101  -597219  -659841  -669314 
 -635533  -589896  -549621  -510048  -454502  -370141  -264743  -155268 
  -55947     -795   -14620   -66297  -121040  -177986  -228043  -252248 
 -239419  -175667   -75391    10167    56795    70916    55229    24792 
    9354    34916   109324   217498   335630   427386   458931   418150 
  296970   128906    -9809   -80781   -73565    13941   134981   230190 
  279679   274649   216476   133479    45662   -28612   -49861     3948 
  100054   180842   224869   238935   233834   226123   213587   169040 
   75540   -20683   -46988   -22640   -23053   -57752   -86002   -84510 
  -71320  -105481  -220444  -351835  -399698  -349221  -260796  -158737 
  -22211   135409   272074   359468   369441   284230   136880    -8505 
 -106266  -140245  -109898   -26432    80690   178062   246146   263426 
  203597    71878   -82871  -200444  -257939  -277674  -275752  -253597 
 -219176  -180902  -156541  -162590  -197303  -251180  -309179  -344741 
 -324869  -249704  -155791   -69378    -7681    12622     3122    -5154 
  -13444   -34059   -42946   -25246    11607    67835   131037   177899 
  188629   149974    70273   -26489  -114022  -172216  -199539  -210503 
 -207350  -167070   -93408   -31321    -1224     1375   -14046    -8892 
   34580    86481   140543   205329   256917   277627   277626   259591 
  211032   128873    30038   -61438  -129800  -164994  -158509  -107027 
   -8640   129819   271341   360892   365245   283641   151860    37484 
  -29174   -78627  -115613   -99518   -32301    37380    99159   160720 
  187324   159916   109744    61493     5179   -71763  -142530  -167463 
 -140610   -85612   -37314    -4830    33954    77771   100722    94507 
   65764    22520   -27480   -74374  -103777  -107416   -77293   -17966 
   28317    34132    14279   -26067   -88341  -160398  -244044  -346176 
 -425270  -410479  -308219  -193429   -91652     3383    55843    28041 
  -69797  -201826  -332254  -427952  -460399  -399527  -239770   -29713 
  167402   308875   361871   301068   155456      162  -136498  -241198 
 -261860  -188165   -65636    64355   169393   230806   266338   290674 
  264379   166520    70805    48064    66447    44705   -42282  -117892 
 -104619   -48938   -46744   -85566   -72012    -2584    37491    19102 
  -26439   -57958   -33262    45197   124073   183132   259883   350175 
  407927   437850   450340   418162   341946   258940   189564   138687 
  119853   126443   133672   144918   163337   155556   106938    38052 
  -45206  -130081  -179221  -185383  -181608  -192931  -202147  -179225 
 -132216   -95221   -92520  -118399  -142069  -152076  -168781  -194447 
 -194757  -152092   -91137   -39195    -5473     6190    -5447   -39526 
  -97944  -161231  -174591  -119156   -53465   -22212    -8129    12923 
   50991    95921   122591   124555   107061    83467    66571    36644 
  -21511   -95218  -164115  -185604  -141673   -84079   -74156  -119356 
 -155744  -138126  -121237  -164038  -244084  -269289  -166377      108 
  115652   171971   217502   268406   295284   250538   138843    23603 
  -33157    -8921    49958    93986   149312   227145   284183   295388 
  271167   244516   220791   179217   132695   103202   100261   118764 
  129100   119084   112919   125233   125753    82749    15643   -43880 
  -99828  -173580  -254234  -288020  -251382  -186540  -132275   -87892 
  -40357    13398    39670   -19378  -158007  -288707  -358660  -396772 
 -435083  -464817  -434779  -322209  -209621  -162330  -146874  -139972 
 -139468  -136498  -159913  -207198  -207835  -150914   -79401    -3777 
   56709    85753    99412   101533    97801    98930    97550    98697 
  123089   179804   250862   293291   295369   296573   311486   313154 
  293304   271473   265728   268550   253012   217573   187069   167186 
  151493   146865   146552   125738    79867    29017     -498     1652 
   14315    23602    48743    89260   106145    70765   -13448  -104633 
 -157336  -191505  -245807  -294886  -280251  -192053   -89366   -30860 
  -23790   -43531   -68605   -99835  -147234  -202622  -234993  -219344 
 -164415  -104226   -58415   -20852    -6381   -36598   -82617  -110202 
 -122654  -132673  -147044  -146587  -104928   -41994    10109    39552 
   34649     8838   -14406   -50097  -111511  -179823  -228557  -219301 
 -129572   -12612    64754   102824   122174   129627   113749    54328 
  -17914   -47563   -16694    58472   129272   163423   186482   215048 
  226992   200261   130948    49745     3529     3277    31223    81440 
  158304   251736   329745   363884   354510   307148   215555    83804 
  -56967  -153596  -181727  -162452  -101454    12110   157623   282117 
  330740   281486   166343    51092   -21072   -57969   -77929   -44605 
   71333   188606   223614   177246    69535   -40458   -85780  -108966 
 -173830  -226536  -203246  -135363   -72926   -42340   -46022   -53969 
  -40906   -22807   -43043   -93498  -117057  -107221   -86640   -65541 
  -68352   -95555  -107609   -89431   -68409   -62098   -57367   -41653 
  -21164   -20721   -59425  -123221  -178311  -200257  -194457  -178545 
 -152974  -115111   -69410   -28118   -26082   -91440  -195648  -277047 
 -305769  -293428  -254445  -188479   -85662    53211   183831   255577 
  253251   166593    32392   -57040   -75068   -59736   -21311    58408 
  179772   300550   365868   343314   235316    97022    -7153   -69263 
 -106985  -107776   -41637    82895   191543   226644   214242   182478 
  126524    59461    -5198   -67641  -114947  -126990  -105398   -71912 
  -33469     8345    27435    13631    -4169   -15386   -37241   -63832 
  -76545   -76310   -70432   -71333   -96408  -134539  -148355  -131690 
 -119791  -124203  -116664   -91198   -80188   -99976  -128108  -139776 
 -129249   -97511   -45213    25775   104742   169692   197152   177237 
