Origin Time       2011/03/11 14:46:00
Lat.              38.103
Long.             142.860
Depth. (km)       24
Mag.              9.0
Station Code      TCG015
Station Lat.      36.7488
Station Long.     139.7144
Station Height(m) 343
Record Time       2011/03/11 14:47:18
Sampling Freq(Hz) 100Hz
Duration Time(s)  300
Dir.              E-W
Scale Factor      3920(gal)/6182761
Max. Acc. (gal)   182.965
Last Correction   2011/03/11 14:47:03
Memo.             
[...]
  -27163    -9893     -655    -7107   -21942   -28981   -16504    11144 
   30861    28699    19734    15760    13648    14793    17685    19869 
   24334    26672    22409    14238     1919   -10945    -8212    13805 
   28577    19064     1169   -10009   -13731   -19034   -38437   -58845 
  -54978   -34185   -17101    -7844    -8341   -16270   -19147   -13848 
  -11304   -19080   -28695   -30114   -27378   -24841   -24047   -31065 
  -40575   -34985   -14331     2255     6969     4049    -4575   -12249 
  -12205    -4065    16761    46636    68474    74013    53980    -1384 
  -63079   -79785   -37927    29238    78608    80987    30268   -41961 
  -86006   -80185   -36877    18803    59911    66402    36260   -17551 
  -77005  -117751  -119878   -84815   -30106    17764    33231    15640 
  -10080   -27606   -36949   -28689     2118    32746    40949    27908 
    9056     -346      507     3318     5340     6445     9703    24520 
   47188    53484    33899     9067    -3577    -3563     6172    17980 
   18303     2363   -16909   -24416   -22830   -22709   -22587   -17043 
   -9355     -995    11954    27928    43801    55083    47699    17645 
  -13317   -21220    -5002    11627     7470    -6108   -11466   -15338 
  -20514   -15844    -1227    15769    27219    25715    17684    15478 
   20856    30751    39181    35296    18387     1085   -14896   -38143 
  -59749   -63724   -54266   -44933   -41068   -41543   -42196   -38952 
  -31204   -21229    -9852     5705    25611    43904    52255    49141 
   48933    58237    58681    50551    55317    64370    62001    55459 
   36291   -14897   -76737  -100596   -74893   -33380    -4698     -328 
  -23939   -50212   -48366   -25828      -77    22542    33261    35142 
   36825    28378     3512   -20757   -29241   -27202   -25006   -21436 
   -7205    13572    14676   -14099   -46799   -61492   -54780   -29871 
   -4441     8433    10016    -9511   -43903   -54152   -30623    -2349 
   20757    46795    68421    74859    65170    41256    16893    12044 
   28951    55993    73694    60590    22300   -13526   -33447   -37087 
  -23467     2700    30914    48572    41322    11728   -13352   -19100 
  -14023     -524    17685    24748    20258    18006    19816    14906 
   -2655   -21713   -29355   -23608    -6952     5944     -420   -18274 
  -34772   -47179   -55574   -63687   -69052   -63614   -54785   -50704 
  -38767   -12583     8506    11307     7783     3153    -9410   -12982 
    8279    27292    22674    14233    14603    12047     4391     3341 
   14907    36783    60207    67849    47337     9762   -16526   -15941 
   -1644     6441     7368    11306    14917     6388    -8139   -16623 
  -24238   -31985   -25415    -1495    25705    44930    51918    40628 
    6240   -41850   -81609   -95763   -78801   -36035     9908    24866 
   -3722   -45922   -59875   -31448    24419    73209    76972    36806 
    -991    -7832     -581     6967    16553    12943   -12977   -39472 
  -50189   -45023   -23589     4248    19353    13728    -1432    -4816 
    9829    25986    31610    29042    21584    14861     9548    -8128 
  -37531   -53925   -49004   -36592   -25266   -23016   -31886   -33950 
  -24392   -16793    -4717     9743    -6462   -47568   -66564   -48144 
   -5461    32851    24076   -25685   -59798   -57075   -38609   -10776 
   26181    49127    44434    27376     8859    -9228   -14752     1057 
   24683    28908     4847   -18311   -14233     3382    20764    39731 
   43066    26095    18589    21079    14251    15431    29242    20763 
  -14697   -40731   -39622   -23198     -381    17289     4748   -35629 
  -61841   -48914   -13743    17012    23061    -6347   -53711   -79564 
  -60932   -11036    35835    55225    52101    45961    45440    48353 
   46013    28377     7517     2468     -418   -15887   -26642   -25292 
  -30673   -49954   -66931   -63746   -40487   -13058    13713    47588 
   62952    22019   -38406   -51482   -24581     5433    35504    61897 
   70870    59140    27462    -7733   -13302    11927    28662    16218 
   -6085   -24543   -45401   -59172   -53705   -44744   -38499   -23249 
   -9156    -8274   -17063   -33845   -41412   -22369     -187     -121 
  -12823   -22095   -14688    13820    37233    27857     -690   -18494 
  -12666    17792    55124    67326    46143    13037    -9347   -13254 
   -2943    16436    33593    27350    -1419   -24304   -19850    11864 
   41635    33727    -1515   -22864   -13687     8256    17851    12605 
    3440    -8254   -17135   -17894   -16729    -9605     2061    -9002 
  -49249   -84613   -88556   -63519   -25081     3998     9633     1430 
   -4314    -1973     2169     2359     4345     9994    13766    15544 
   15756    17592    23047    25186    27073    33729    38804    44787 
   47627    27949    -6593   -28038   -30089   -21637    -7712     3367 
   -2547   -17749   -14939      495     3639     3682    13426    18699 
   17546    23218    32916    42342    51627    42638     7353   -25492 
  -40550   -53111   -57754   -36824    -7650    -3467   -30677   -61877 
  -61217   -22176    25686    50244    47633    37019    37193    51501 
   60318    48157    35957    43256    54470    51983    37991    25675 
   21790    13285    -9789   -36711   -56451   -63130   -50139   -26475 
  -18354   -38404   -71229   -99342  -127090  -156075  -160383  -126700 
  -82828   -56809   -46508   -34965   -15816     -198     2432    -5047 
  -11974    -4269    19796    49212    72754    72823    41492      681 
  -29901   -53461   -66780   -51256    -8876    27735    37068    16259 
  -35274   -85086   -85817   -42693     5835    33438    22641   -19903 
  -49843   -32326    11322    34214    32308    36098    47630    52932 
   49561    23568   -21171   -43774   -35146   -30858   -44981   -51836 
  -28925    19136    71992    96665    70503    20380    -5834     4998 
   37326    72617    89806    71293    20301   -35749   -67714   -69477 
  -47925   -11496    12497     2036   -14632    -3799    20987    38607 
   46755    43094    32302    25833    28867    43693    59846    54007 
   18915   -18869   -22759     4280    28902    36293    18654   -30828 
  -83681  -104589   -95758   -73082   -45287   -22735   -17362   -31027 
  -38725   -10617    40355    72057    58751    13351   -13326     6135 
   30320    23528     9231     8607     5827   -10519   -27766   -37937 
  -51141   -67727   -69407   -57257   -54948   -59135   -45858   -17206 
    9123    22982    19726     3214   -14215   -19242   -11898   -10135 
  -16972   -17518   -26773   -60839   -82479   -61128   -13250    34511 
   52820    32961    -2931   -40437   -62252   -42131    14240    67117 
   80946    53464     9717   -20634   -21430    -1910    23639    52255 
   73581    77169    60522    18295   -31511   -55834   -52133   -26226 
   20413    52845    35796    -9960   -44066   -47981   -24832    -4512 
   -5727    -3510    18958    41145    42160    23499    -1746   -28022 
  -52455   -59685   -43758   -21263    -2442     2102   -29666   -72500 
  -68156   -29669    -6472     7683    22101    17225     -504   -14602 
  -23654   -17599    11056    45978    64593    64309    55945    45900 
   37610    26495     7253    -7827    -7119     6498    30182    58567 
   70947    54652    33578    26451    15432    -3193   -12096    -9271 
    3178    14572     3140   -22866   -42337   -59095   -72337   -69821 
  -60507   -59135   -54229   -38365   -29159   -24393    -9297     6347 
   15890    20775    19775    26259    38601    31014     3979   -24623 
  -44156   -40426   -21637   -18736   -30467   -30124   -13449     5554 
   17587    21364    15470    -5877   -29627   -25770     5221    37060 
   58834    61031    28682   -11468   -10366    28202    69246    96108 
   91686    48475     -446   -15715     1965    17267     6157   -14481 
  -24418   -30235   -36998   -45181   -60339   -71424   -59092   -30306 
   -7413     6502    11019    -3751   -19154   -11710    -5701   -26446 
  -53644   -67673   -72894   -64056   -41097   -26965   -21468   -11558 
  -12549   -19851    -8667     4464     4889     6291    -1574   -23715 
  -34011   -25109   -10371    -1785    -3555    -8376   -16485   -24821 
  -17032    -3472    -8617   -22163   -17883     5636    31216    52804 
   69148    67127    53569    56583    72835    78241    72533    54855 
    9471   -44491   -65443   -54122   -37614   -26557   -24607   -33689 
  -35330   -10363    21100    37023    49875    56671    43895    25890 
    8188   -12322   -18044     2117    34827    58222    64176    56768 
   36900    20761    26930    38168    35111    29249    37981    60890 
   81573    86198    70703    42439    25310    35544    60275    81687 
   91637    72313    19353   -24693   -31909   -36482   -62909   -87733 
 -101223  -123720  -153011  -158295  -125664   -79300   -60202   -76375 
  -92433   -98901  -119295  -131060   -94284   -32902     5480     5447 
  -22360   -46410   -43852   -30502   -26268   -18520     8166    28881 
   14597   -14972   -32740   -44497   -50727   -33367    10373    59464 
   83955    67002    29486    10822    18053    31429    49831    78783 
   92603    63853     8317   -30686   -21864    22504    61618    82612 
   94171    90558    68113    42147    34693    47006    53964    43699 
   31244    27193    24250    11335   -12235   -34119   -34162    -5029 
   29934    43135    30020     1683   -23579   -34224   -35343   -37215 
  -43345   -49799   -57243   -67888   -74455   -68545   -43318   -11619 
   -9050   -36484   -64072   -75187   -47269    15431    54121    49938 
   39946    35183    34371    53335    82995    92031    81206    78742 
   83571    68084    39208    23129     8298   -13963   -20354   -11570 
   -7871    -8017    -6956   -16005   -46318   -77910   -73927   -38638 
   -8791    -3110   -28340   -77919  -113077   -97120   -26579    58026 
   87572    46442   -15827   -59730   -59486    -9387    41516    44537 
    7160   -25896   -22134     1875    15116    10196   -14131   -51286 
  -82203   -96225   -86492   -56675   -42600   -65705  -102771  -127755 
 -114991   -47268    37058    76771    56887     1618   -59525   -97575 
  -97350   -67330   -22761    10926     -877   -49624   -74531   -45147 
   -1241    14895     8629    -1915   -10049    -1822    29519    56464 
   51966    38088    44595    47785    27192    16621    34777    54584 
   59657    56170    43511    21313      597   -13229   -20536   -18798 
  -12602    -5925     3103    -2025   -38401   -83238  -101739   -85311 
  -43247    -5196   -12798   -58525   -88005   -93132  -104430  -102813 
  -58412    -3205    19826    13110     1584     4200    34588    87814 
  119397    97547    56784    35882    30429    35063    53148    70204 
   59241    11752   -44153   -77550   -83527   -57216    -4896    26380 
    3278   -44175   -61085   -32742     1829    15393    22035    23211 
    8459   -10954   -17742      178    35821    57508    43794     -591 
  -47526   -59439   -30878     5090    19106     6163   -20411   -31790 
  -16653    -1294     8109    33424    59231    54171    28543    10682 
    9820    21423    38708    44385    11918   -58523  -117398  -107838 
  -37443    26583    35119   -12124   -78140  -115056  -108952   -72289 
  -26235    -8007   -31250   -73042  -111913  -133285  -134192  -121820 
 -100531   -88523  -100828  -116680  -118699  -114619   -84803     1669 
  102371   137175   103154    58056    28140    25480    67424   111261 
   98491    50080    13605     3150    14977    23040     1042   -29697 
  -33728   -17687    -4657     5317    18377    27254    27852    25431 
   20705    29488    76430   137713   166416   156835   128362    94084 
   58419    31753    37445    76927   113581   108963    56046   -15567 
  -65062   -69092   -31353    10949    16782    -8608   -33006   -50076 
  -68130   -67678   -26809    24527    35004    -4497   -58681   -86669 
  -76510   -43439   -19739   -42225  -100694  -143271  -146813  -113691 
  -57163   -22619   -32213   -52116   -67083   -79023   -54177     8847 
   40650    12976   -27210   -59317   -87960   -89706   -65290   -44325 
  -28374   -15513   -23719   -47719   -59288   -60693   -69255   -66213 
  -20622    54313   100292    85215    39163    -5417   -31690   -13785 
   49290   133106   218531   269456   252617   189688   136959   133435 
  172861   219800   242946   229228   181662    97087    -8766   -77843 
  -99379  -130950  -187053  -211663  -162745   -76630   -21736   -14129 
  -42034   -96515  -137686  -125358   -61117    20560    69966    71649 
   59631    60317    61095    40388     3855   -19590    -5645    30196 
   37551     1434   -51069  -116933  -202040  -265923  -252803  -165210 
  -71086   -27205   -33318   -74294  -139781  -189209  -165724   -61163 
   75737   184959   220928   174764    83316      392   -30323     -169 
   69606   148231   174479   101753   -31603  -155262  -224934  -221419 
 -152537   -54734     6033   -13883   -69254   -77441   -12746    81256 
  139902   130795    74901    35266    60087   125419   183399   220045 
  230062   215014   182430   108920    -8168   -90677   -70501     7607 
   42945     5458   -59129  -121022  -184886  -230929  -215315  -152645 
  -95259   -27921    68407   122659    80829   -16374  -113160  -158430 
 -103893     9581    89844   114825    94834    21211   -86045  -174672 
 -214564  -217189  -198475  -169634  -146174  -108265   -29671    54256 
   83841    29840   -76540  -149607  -138642   -53761    83627   220619 
  286084   266632   187740    71570   -40264   -95259   -74321     -573 
   93061   174474   197202   144469    54946   -28424   -62693   -10898 
   88031   147895   150231   131814   101903    58074     9669   -33181 
  -48191   -28595   -13560   -32367   -60604   -73203   -72563   -60980 
  -53674   -70417  -103012  -135008  -146792  -110846   -41128    -7008 
  -46928  -111604  -138067  -121639   -79250   -29825    -5195     4771 
   33364    48879    17998   -26161   -64536   -96455   -89310   -45163 
   -4448    22506    16615   -43745  -115186  -151494  -157808  -129435 
  -45638    74987   185222   243227   216209   109668   -14290   -87939 
  -78956     7410   114578   165339   144285    83615    -6580  -107789 
 -169751  -171862  -136808   -86328   -36931   -11492    -8474    -1857 
    8689    11274    12445    10793    10669    30194    59415    84427 
   97569    63736   -27551  -128150  -194115  -203722  -128660    22916 
  163207   203212   144797    43441   -60407  -129969  -133623   -70429 
   37473   134289   162073   129720    80801    49922    61241    91487 
   96104    72345    22672   -42008   -53313    22344   121889   176949 
  157621    71925   -18057   -51293   -22708    43251    98399    77845 
  -18826  -121998  -180528  -175185  -105460   -21563    12727      462 
  -23541   -60188  -112347  -157442  -184882  -204083  -198561  -133320 
  -21737    95452   182243   178246    70902   -48044   -97255   -77951 
  -24943    28987    63912    84515   104495   112011    76821   -10821 
 -117368  -176573  -163115  -134693  -143651  -173550  -190360  -176101 
 -126322   -54037    17126    62768    83116    97020   106842   115538 
  116056    85774    50191    50511    81955   129997   177149   195398 
  171539   103361    12293   -42019   -19406    52067   106627    92778 
   18332   -46892   -62723   -64663   -80056   -90854   -74658   -22498 
   34189    33764   -33030  -119175  -173740  -158059   -79480    17276 
  101372   141998   113924    48832   -12664   -82921  -155680  -180929 
 -150206   -95465   -29650    48054   114591   129289    79138   -21169 
 -124761  -140334   -41295    86988   176724   203884   143557    36484 
  -31960   -39479     4659   104084   216467   260043   211021   111466 
   -1398   -88772  -106693   -67343   -20095    16313    37326    18070 
  -42698  -101848  -149747  -212145  -247968  -185448   -61024    14775 
   14523      357     5264    22284    55414    93953   105597    74046 
   17285   -12353    17741    68622    88458    81760    60709     9258 
  -51918   -75524   -68953   -65915   -66403   -57970   -36188    -9014 
   -2589   -25355   -52921   -68489   -84072  -119764  -151196  -117598 
  -27282    44457    57776     4429  -103482  -187718  -159031   -24553 
  114287   159729    93567   -35945  -167540  -242109  -199264   -33772 
  159170   270084   266746   174663    57721     3223    30700    76339 
  111408   154835   186440   161064    77596      543   -13522    -9706 
  -55102  -115468  -122655   -73526    -7349    35036    34761    -1458 
  -64585  -108676   -64983    32121    80245    65589    42979    45298 
   85283   144702   165640   117247    24779   -56705   -66036     7551 
  104776   152331   100196   -43979  -189231  -257017  -276327  -275627 
 -202599   -72001    -6538   -61249  -167089  -238295  -232832  -145074 
  -23516    48802    42166   -15804   -86523  -123229  -106539   -59369 
    2178    55672    49980    -9064   -42943   -23633    14295    59269 
   99362    90372    28472   -36240   -64780   -27559    80221   196195 
  249603   214043    98283   -36933   -94995   -46248    26223    41067 
    2062   -56607   -96746   -88720   -53477   -24006   -13459   -35732 
  -71209   -64879    -7554    53246    91323   100836    57638    -3802 
   -5134    29476    41157    47991    36682   -32795  -113189  -150230 
 -152005  -130759   -99741   -83772   -83892   -81141   -73751   -72702 
  -82851  -102663  -116424  -107964   -78686   -27026    46046   112979 
  146850   146703   132554   122956    92399    18874   -32890     -841 
   77877   152650   200318   170968    50537   -80755  -148949  -156071 
 -118063   -24433    97450   167779   160469   114482    47285   -19254 
  -35366    -2906    35345    63032    71497    67681    82499    97982 
   70422    12977   -38016   -59126   -35608    11192    37491    17322 
  -47975  -116472  -146878  -160351  -180515  -172069  -106123   -13120 
   56125    76039    49100    -5982   -56757   -68701   -36586      492 
    1378   -18761   -21554   -20168   -41324   -64271   -72854   -88252 
 -109615  -109165   -96837  -103177  -101322   -37930    73259   168021 
  210436   204958   162603    93594    21064   -25276   -19337    48828 
  146485   217223   221184   140616    13964   -56832   -27377    29267 
   50351    51539    46586    25792    -2269   -29890   -68327  -109054 
 -121074   -99608   -67470   -32341     3770    12483   -19971   -62877 
  -88223   -83018   -38713    24154    78130   120119   131962    89988 
   29013   -15095   -62711   -85431   -16295    90994   130734   109561 
   73839    13358   -67087  -112041   -97583   -60093   -28808    -8606 
  -26497  -100779  -176525  -181072  -111055   -12847    69665   107245 
   88065    30779   -16025   -13261    27721    58983    63449    66283 
   56622    18636     2611    20936    17302   -13953   -36807   -42601 
  -32912    -7579     8004   -17221   -61069   -65308   -13042    44904 
   54880    36167    45311    84564    95387    41883   -33237   -65191 
  -37653    25666    86809   107938    63505   -46614  -167163  -215543 
 -176315  -100909   -28136    23356    27477   -23292   -78862   -83313 
  -54639   -35331   -22529    -5590     4456     9055    30221    69165 
  102187   111047    74427   -12974   -93838  -100600   -24145   101823 
  207905   227540   179714   112522    27299   -51965   -81202   -64730 
