Origin Time       2011/03/11 14:46:00
Lat.              38.103
Long.             142.860
Depth. (km)       24
Mag.              9.0
Station Code      TCG001
Station Lat.      36.9432
Station Long.     140.0825
Station Height(m) 253
Record Time       2011/03/11 14:47:10
Sampling Freq(Hz) 100Hz
Duration Time(s)  300
Dir.              E-W
Scale Factor      3920(gal)/6182761
Max. Acc. (gal)   411.578
Last Correction   2011/03/11 14:46:55
Memo.             
[...]
  -10574   -36815   -44539   -47281   -48420   -33444    -9360     6221 
   15283    20742    12300    -9050   -27666   -31903   -22047   -12565 
  -16185   -28330   -34163   -19498    15436    50048    62234    49569 
   21787   -16038   -55616   -76961   -62103   -14478    41282    80518 
   85359    51281     5349   -22161   -36887   -49551   -38329    11333 
   56836    47442     -329   -38964   -57902   -64457   -56509   -38343 
  -20891   -11062   -12545   -23485   -35237   -36963   -19782    16963 
   53469    55647    18554   -17342   -18972     4473    37502    83777 
  135186   163644   157076   126216    89496    64358    51307    40018 
   27818    12911    -1278      237    16949    23522    -1340   -45660 
  -69492   -49299     -916    42572    58313    47032    26953    19459 
   35330    65321    92433   103227    86751    51727    27762    31384 
   56389    87919   108238    99982    56610      -18   -29041   -12016 
   28978    58235    55275    16545   -40865   -81703   -92759   -95308 
  -95595   -75112   -38663   -15484   -15196   -25927   -47639   -82261 
 -106149   -96665   -66028   -48682   -61188   -84987   -96248   -88270 
  -64337   -31696     3219    41245    87513   129655   130509    74833 
    3112   -35986   -34093    -5578    23637    18414   -18139   -47837 
  -62082   -72461   -67956   -31311    25481    59807    51627    34259 
   32417    31914    33788    53915    75990    71299    39564     3157 
  -10792     8291    37342    46910    27979    -8842   -32721   -25998 
  -10935    -4630     9677    47987    90003    89566    32689   -36423 
  -74799   -86269   -81328   -54057   -23348   -24451   -51776   -70300 
  -66320   -53872   -54761   -73139   -86505   -77586   -48074    -3247 
   37482    48313    35599    27834    33427    35033    18100    -6706 
  -19599   -24224   -34014   -39345   -30656   -20989   -12140     3922 
   12716    11192    26281    61297    86394    82365    54808    25127 
   16740    31620    52202    60318    41658     8061      830    40439 
  103007   147025   150352   125841   101167    90781    83456    56941 
   10292   -28763   -35085   -15628     5503    23227    50085    84759 
  108732   107394    78099    36784    12227    15265    35043    63149 
   99937   141857   170598   164551   122658    73739    49103    45659 
   51073    67295    78034    67459    57599    67485    77893    62833 
   27899    -2450   -20106   -27375   -18435     7997    32628    32598 
   17015     6833   -14204   -66363  -124657  -144878  -106733   -39208 
   -1176   -10395   -34920   -55752   -67356   -55889   -31892   -19917 
  -17834   -14169    -9292    -9191   -16911   -28656   -43523   -62819 
  -75345   -69952   -57548   -54574   -56668   -52958   -47938   -49631 
  -58764   -78686  -117581  -168028  -192046  -161267  -106007   -77702 
  -79474   -75032   -50127   -23256     -510    20507    18371   -10405 
  -24965    -4632    22896    36732    47623    55322    37137    -8842 
  -54151   -68559   -45587    -7746    20428    26244     8073    -9842 
    -599    24982    41251    42804    39598    45855    67983    94094 
  101173    77185    41521    24328    23510    15744      360    -7495 
  -10055   -17359   -27832   -33894   -20794    19974    64057    81483 
   69325    38299     6881    -4926     3647    22932    48212    68350 
   66724    36195   -15287   -63169   -90257  -103786  -103393   -72945 
  -11638    57422    98425    93959    67927    51924    57853    87338 
  130342   172082   204414   212985   189535   155938   131140   101493 
   56986    15460    -8044   -13110     2782    25848    23155    -3714 
  -20397   -18677   -15373   -17617   -14357    13583    61718    94822 
   92270    70870    60069    76159   107776   127664   133827   144108 
  149243   125837    77676    33812    26021    60528   104660   119323 
   99251    63447    26336    -2445   -20156   -25796    -8658    16387 
    7879   -34496   -63232   -48355    -9370    13757    -2145   -47787 
  -87681   -94085   -74315   -62361   -84984  -127846  -155465  -159444 
 -149687  -127562   -95262   -64137   -57325   -90917  -137774  -152875 
 -122878   -72593   -41149   -39013   -46848   -61890   -99741  -149225 
 -170885  -154182  -123953   -90646   -62290   -63484   -86069   -85630 
  -47925   -15743   -24326   -31847    11690    72877    95519    84678 
   85398   115266   145564   149673   140496   144659   163976   180408 
  173796   130436    60604     4812     7162    64676   112727    88177 
   -5750  -105191  -140603   -90729     5198    83622   104903    74174 
   20994   -24740   -30505    11522    53594    53328    25039    -8951 
  -42544   -55493   -30757     7969    18967    -5170   -27050   -11243 
   27829    42681    18830    -8037    -7841    18477    60324    98757 
  105309    60163   -22361   -85714   -81636   -22857    47222   103825 
  133612   124185    84148    49063    49863    76264    88694    66603 
   28767      410   -23835   -52837   -67377   -55411   -33019   -18489 
  -19410   -37293   -67330   -91055   -87686   -63804   -45917   -38860 
  -23946     -738    11891    10961     -378   -28139   -58539   -53130 
     613    60875    86314    84747    73402    56020    49191    60410 
   68571    63275    60266    74653    97593   100244    71634    36024 
   18694    24595    43458    43814     5319   -37087   -45563   -33221 
  -24389   -17139     2232    28478    45881    61605    86815   106384 
   95973    50424   -14249   -81423  -140142  -170604  -154866  -110473 
  -84737  -105545  -148956  -185008  -232099  -293356  -315817  -276847 
 -211028  -144562   -69005    21908    94349   103675    55042     1342 
  -13747     9594    44421    66885    71683    69326    59884    31547 
  -16278   -75363  -126089  -149593  -159126  -165924  -147023   -95461 
  -48179   -38782   -57753   -76812   -87955   -89429   -74740   -62081 
  -77652  -100505   -69980    30552   126841   142744    97918    59280 
   52259    65556    90339   125103   162871   187748   196776   210054 
  239466   269295   282962   278159   245149   184481   137714   139004 
  165271   171377   140450    85692    27682   -20900   -50057   -51200 
  -35954   -25238   -21205   -19094   -15974    -2404    19098    33450 
   37392    36415    41337    65582   106475   144019   158698   151642 
  141939   136381   116321    60331   -22050   -93612  -129838  -130274 
 -104977   -75816   -65980   -75751   -84916   -82554   -85942  -113990 
 -150760  -158956  -117925   -42576    31861    86823   117053   103417 
   39821   -30999   -50596    -9117    45437    65376    43715     1172 
  -31539   -30794      693    35625    47297    36449    18391    -5498 
  -29803   -28761     4365    32432    16115   -36646   -79935   -88980 
  -79895   -69594   -69891   -87340   -98629   -83939   -51905   -13164 
   21204    38359    30154    -2756   -35651   -37315    -7817    37222 
   85006   102651    73813    38124    26338    23650    10649    -9710 
  -21335   -21250   -19711   -24467   -42966   -75471   -96515   -71305 
  -10554    33957    49273    67098    91537    95143    71314    45065 
   39188    57783   107866   185969   246483   244753   180409    84502 
     647   -48612   -62066   -26967    45160   104085   129949   135202 
  110232    39473   -63564  -167742  -236720  -238674  -179536  -114705 
 -106599  -167187  -240245  -253361  -187348   -84244   -15842   -37683 
 -120068  -156921   -92280    25134   122407   154445   113783    40543 
  -21217   -51534   -39287    -6114    12272    27423    50448    54596 
   47539    62965    86313    76811    34899    10064    38751    92966 
  115453    94589    67419    54373    48458    55542    82156   112491 
  136527   155560   160806   146101   109327    49363    -1515     2034 
   46127    59890      362   -95170  -150877  -121460   -28167    56021 
   80599    47061   -31331  -115483  -147750  -122753   -66515     7138 
   68619    68567   -17174  -137435  -190820  -140884   -60205   -32401 
  -60377   -96988  -118546  -128985  -138631  -162645  -191572  -187203 
 -132542   -48523    19670    30130   -21125   -91157  -106562   -33906 
   72763   137827   139135   112276    85498    45928     2247    -6412 
   42757   135969   213342   226628   189103   137350   106381   102489 
   90212    65305    59002    65961    65395    48362     2205   -50652 
  -64250   -39929     2074    49229    69758    47560    -3880   -66417 
 -108561  -106812   -74038   -32897     4820    25438    22106     6223 
  -16290   -46698   -75631   -90006   -79540   -35584    30601    74063 
   59393     5310   -30254     4091    92457   155938   149682    91777 
    8012   -58517   -46587    32090   102709   129402   108750    40710 
  -41556   -85282   -76900   -54588   -59090   -84303   -84849   -52425 
  -35103   -51149   -77526  -110515  -155845  -194943  -196370  -150432 
  -78410     1750    89480   163230   176668   126070    62079    16103 
  -11591   -11760    17306    52171    77548    91454    81414    47507 
   17311    14115    41444    82727   111009   114533   100010    80805 
   72701    74149    62041    37250    26144    25915    13497   -12453 
  -38495   -48288   -25147    30048    82631    76792     1040   -84982 
 -137498  -170302  -196204  -203938  -181575  -140408  -106435   -76794 
  -35158     4676    31433    51300    45098      727   -30099     -303 
   63335   113635   124454    91873    44803     8696   -17470   -18322 
   17218    40779    27251    23977    46572    84555   142418   178658 
  156580    91228   -18733  -150362  -220732  -191922  -107885   -36106 
  -21686   -60190  -109671  -121039   -83216   -62557  -121026  -211001 
 -231937  -152198   -37795    22584    10202   -38188   -98476  -143778 
 -155658  -154954  -127944   -43988    63089   150451   199841   198162 
  171452   168089   184508   189671   197669   230128   266901   282804 
  265666   210537   143317    97010    66008    48787    70265   110264 
   98009    11235   -87871  -136843  -122650   -48768    53419   112293 
  101764    73394    67623    85940   115950   122632    87278    40528 
   21540    43303    82829    96640    55308   -32293  -113616  -132859 
  -83730    -9486    37468    30475   -30326  -117850  -170956  -148741 
  -84287   -39464   -43568   -80978  -113019  -116083   -82211    -9902 
   69526    97507    38894   -80021  -179939  -205903  -178208  -134083 
  -93828   -86843  -120065  -152351  -157686  -156278  -157990  -142372 
 -103638   -73587   -75311   -64840     9863   125227   228192   276918 
  230421   100592   -10612     5219   136408   260579   300563   292087 
  276159   225022   126922    39392   -12469   -70802  -143288  -192772 
 -210191  -202803  -159505   -84476   -27021   -38563  -116371  -213460 
 -270481  -243965  -145459   -32251    44695    70616    58038    26780 
   -4234   -30769   -41964    -5323    54023    54442   -12273   -62560 
  -25540    90706   201009   218251   143888    42246   -24737   -23631 
   20226    57529    66783    46261    14775     8623    52151   124598 
  180414   201859   173507    73436   -65715  -168699  -181511   -98508 
   32322   133018   152093    99304    25092   -17088   -13955    -9921 
  -18062    14363    84251   129352   140746   141135   127502    90006 
   33214    -3798    16654    64507    97012   101767    61419    -8989 
  -59341   -63544   -16431    60798   112439    99146    29805   -63151 
 -151447  -206731  -200295  -133015   -40052    50491   122010   143564 
  112167    80499    91475   126498   125566    69544    12643    -7821 
  -10679   -23940   -71159  -156875  -247183  -291335  -248940  -124093 
   12136    83012    80512    39541   -21066   -80104   -92425   -45198 
   31460   118579   198375   234635   211310   152068   105625   106798 
  132389   141450   121307    65230    -1315   -22965     5065    47951 
   83514    96279    66487   -24010  -149751  -239617  -262352  -221103 
 -102542    38899    87578    31236   -47610  -102089  -137553  -164835 
 -146773   -44425    73203   126941   143398   147461   121933    86661 
   78946   117775   199828   273094   285921   250650   201175   155593 
  121680    93742    68030    60356    90692   144973   170523   143903 
  101916    76123    66124    71615    87818   102907   103189    66851 
    1613   -57525  -101011  -124565  -117364   -97402   -94868  -107581 
  -95695   -39712    12223    -3504   -83338  -150644  -156925  -153843 
 -198317  -272135  -327712  -320516  -243243  -162466  -143116  -161012 
 -156617  -121613   -74330   -16108    44862    83050    90315    86885 
   85676    79319    73798    92961   126764   125091    80339    39110 
   19837     7823    -4255   -22958   -54937   -89923   -98586   -54604 
   34006   117749   141550   104144    47270    -3025   -23561     2534 
   42285    59004    60236    52254    10973   -68285  -133819  -137335 
 -106840  -104750  -128266  -111961   -38014    12710   -43014  -182027 
 -293804  -277970  -115735   108026   243335   211136    85292   -14581 
  -17182    75544   169289   168590    74922   -35233   -92013   -87831 
  -53222   -27845   -48809  -115310  -193451  -257718  -274906  -202290 
  -63620    62251   133573   164684   197576   268714   372234   450573 
  436844   300864    84855   -78549  -111156  -107549  -158402  -240100 
 -324487  -403576  -468132  -511105  -527010  -538585  -537670  -465000 
 -334798  -231258  -182512  -137746   -45009    91542   221102   280405 
  247479   170647   117313   117805   171647   274069   406776   534699 
  629162   656419   587318   438275   251878    95857    53010   118592 
  206837   250900   221882   145915    59420   -67381  -228169  -331174 
 -338269  -293937  -237068  -167082   -56893    81561   161185   121195 
    1025  -111249  -156672  -152176  -143640  -157963  -206742  -240570 
 -192821   -90637   -17660   -12783   -27494    12887   105861   186976 
  212886   183942   130024    89011    56864     2641   -41572   -15029 
   62332   116141   111179    72592    42239    43024    79199   128830 
  157331   163358   171119   188470   203515   201338   156320    37044 
 -142309  -318417  -444718  -500827  -451963  -269290     3975   234549 
  314347   262809   133059     2863     2788   119120   224341   256904 
  187295    48315   -95166  -221823  -284404  -247523  -134072    -3897 
   60591    34635   -46679  -143059  -205880  -211345  -177129  -128466 
  -86567   -57727   -51350   -88212  -142151  -150206   -87701     9182 
   87609   145984   201749   225043   198246   166542   183604   249876 
  314904   345530   348730   327742   262374   135138   -12370  -109683 
 -149714  -137095   -45854    69327   109680    83794    46046    -1932 
  -64566  -125211  -144403   -83899    14102    66449    61442    32751 
   -7139   -42779   -51155   -34336     6515    67401   109641   111256 
   84160    42287     7283   -21488   -73171  -147856  -229650  -318442 
 -406393  -475100  -496057  -430650  -284358  -136001   -52065   -16962 
   -4054     1136    45030   125014   177467   185833   174686   187552 
  259132   326826   301891   207197   129289   122727   172070   177896 
   74366   -55326   -93972   -17385   115659   201620   198588   171616 
  155019   119405    58002   -28628  -134716  -218873  -237552  -172552 
  -47839    69201   121162    99490    28953   -38322   -45991      159 
   54792   100962   142848   183012   201416   167763    90168     -619 
  -89994  -166493  -198127  -170572  -131102  -122068  -131625  -147118 
 -179655  -228006  -242517  -162735    -9484   106640    99984     -311 
 -104628  -138271   -69347    51953   124890    96847    -2479  -105808 
 -169229  -204312  -242725  -263712  -240499  -208069  -182125  -138578 
  -91832   -84081  -114708  -132807  -110549   -67166   -14654    53112 
  123024   164234   176391   184822   179767   131466    56274     3351 
  -12792   -17020   -20332    -9146    27125    73042    91647    75729 
   53107    41773    52970    95980   159925   221436   269445   308844 
  331751   309664   219522    75146   -53802  -102625   -86175   -48362 
    -495    49965    84895    99965   115193   146441   176134   188732 
  198873   220900   252902   282996   290359   263159   216997   173796 
  153567   178265   223876   237412   213146   154341    40098  -115060 
 -253120  -311287  -252266   -98263    56705   115228    66351   -55737 
 -204661  -305753  -349835  -350355  -267881  -142350   -45371    35191 
   97391   109114    71008     2710   -54780   -56092   -20180    -2785 
  -18595   -48083   -59740   -32026    25433    94692   155258   182605 
  178889   163039   127671    57803   -31409  -109072  -151433  -149045 
 -113873   -92624  -139018  -247001  -365603  -458279  -501462  -477285 
 -385680  -255812  -133577   -31359    62501   125010   117574    46565 
  -27147   -40248    16672   106467   183074   215064   186793    84521 
  -51784  -118110   -82687    -3095    70347    97744    86909    89790 
   90656    55108    26069    43167    74968    74638    42151     7748 
  -16813   -31742   -34967   -38465   -48580   -43820    -7401    46100 
   75020    46444   -10946   -34692    -2465    67195   146660   212933 
  260773   292336   313052   352660   416870   436485   352839   201254 
   50394   -53572   -57163    47776   154421   164581   109531    62301 
   40604    12079   -69702  -194481  -297212  -332185  -263719   -99386 
   46088    70173   -18513  -167658  -292815  -296175  -161486    55245 
  248821   321542   286801   188854    51266   -72781  -137497  -110053 
    4989   126406   185512   189811   169863   140065   104240    37903 
  -71567  -165133  -185960  -139169   -83268   -93391  -155008  -189188 
 -181844  -170483  -188705  -245421  -307354  -332552  -291122  -179029 
  -64633   -23773   -36674   -45614   -27641    19050    70548    91337 
   71927    22917   -36239   -65013   -16841    83175   151172   167750 
  169127   173211   178335   161602   109182    55213    44971    83514 
  137302   164199   142172    87794    28107   -30411   -72776   -73760 
  -34129    31972   104720   148756   142471    92437    21424   -37917 
  -58883   -40255   -16906   -31421   -81206  -131811  -168968  -180089 
 -137590   -69531   -56618  -122120  -214888  -284694  -322595  -330711 
 -284981  -185157   -91824   -46735   -23102     8761    45585    86719 
  121698   128597   128584   154420   186264   199228   214610   242952 
  254272   232616   179691    92064   -26490  -162321  -268132  -269405 
 -142415    44077   159027   126230    -5283  -145975  -218820  -191626 
  -95560    41122   176349   261286   293986   267966   211129   192701 
  191172   146815    83554    49214    48910    67285    86363   112947 
  172076   237086   254322   217976   138139    20125   -91472  -149282 
 -161313  -147122  -108216   -67209   -61853   -95586  -135421  -160448 
 -176950  -181649  -148510   -63576    39259   107920   134693   134591 
  111060    93275    94674    66749    10620     5930    80426   181148 
  264399   312925   290009   188835    77986     4141   -39141   -37435 
   10259    73075   146069   211640   231272   210668   172090   115308 
   41453   -39980  -114353  -157642  -158742  -136686  -120456  -130695 
 -170523  -222907  -263779  -273421  -248962  -206069  -165792  -140013 
 -118389   -88735   -58788   -43557   -53597   -80558   -95820   -76442 
  -17451    68660   160595   242203   295197   298519   261244   220639 
