Origin Time       2011/03/11 14:46:00
Lat.              38.103
Long.             142.860
Depth. (km)       24
Mag.              9.0
Station Code      TCG013
Station Lat.      36.4368
Station Long.     140.0227
Station Height(m) 66
Record Time       2011/03/11 14:47:15
Sampling Freq(Hz) 100Hz
Duration Time(s)  300
Dir.              U-D
Scale Factor      3920(gal)/6182761
Max. Acc. (gal)   300.147
Last Correction   2011/03/11 14:47:00
Memo.             
[...]
   59846   121143   105190    54094    40062    40033    -2387   -41594 
   -6360    69722   114151   104284    56771    15693    17058    43957 
   60330    56461    38077    19277    31363    74159    83165    26411 
  -34850   -41335     4542    78942   140152   132708    62885     7869 
   17827    70923   104700    59480   -44279   -92955   -23245    84600 
  118272    63321    -9901   -24320    36797   106797   108089    39404 
  -34595   -52628   -12249    35254    54527    62294    68209    36886 
  -26443   -37762    30111    84654    55018   -10616   -34206     -655 
   67500   130854   139154    94783    53680    45969    63089    82976 
   75228    43933    39179    64700    62790    37283    48548    80656 
   67061     9963   -25114     6619    69943    78174    21879    -1382 
   46096    78929    49131     9933     3077    19079    45244    69896 
   81182    85377    79417    33441   -39744   -63674    -9977    60629 
   87628    56511     2727   -11979    15098    25850     5149    -4541 
   13295    36181    44488    24635    -9268   -13349     6344    -2757 
  -33980   -29665    15426    39222    -7961   -91238  -116848   -37159 
   95599   175169   142809    57236    23870    51462    49723   -20983 
  -76827   -27626    78211    91744   -23489  -105863   -29088   103806 
  124773    27745   -54529   -33088    30897    32077   -19998   -35879 
    6758    45440    43332    33913    60424   107299    95956     8122 
  -46780    -1784    64444    69749    30282    12983    53844    99655 
   78327    43840    98956   181885   153117    45234      295    58519 
  147603   170683    91712    -2037    -2055    60270    82841    58366 
   40237    48786    77522    89029    44278   -11964    -7281    37442 
   63230    74940    90842    85531    42913   -14969   -58774   -66492 
  -35984     1334    17118    20467    12488   -19523   -34094    10998 
   60306    50351    19275    17089    11795   -27746   -57916   -32955 
   24551    54007    26243   -15923    -6143    49880    94512   107432 
   94441    65517    49356    48187    39868    40735    57855    53959 
   46211    91956   157573   155620    72799   -16507   -18908    70945 
  132354    75488   -32763   -79807   -35629    45208    75119    29809 
   -8426    24982    77764    84207    53600    18905     1147     -800 
   -8912   -11217    27392    70766    51381     8057    27667    87160 
   95299    39001     3338    50082   110910    77355   -19218   -40978 
   51758   140892   124986    64545    64766   114006   132346    83512 
    8063   -23542     2898    38523    38998    11189    -9407   -21241 
  -37009   -28873    22373    69395    40813   -67983  -154905  -105983 
   54980   167348   115066   -30968  -105484   -61302   -11936   -55662 
 -124439   -80190    49578    86207    -8015   -66485     3708   103009 
  115404    53796    27201    87424   150806   127155    50411    15019 
   28046    12934   -37940   -33927    67533   172519   163631    56099 
  -44116   -65311   -10809    44879    50719    50662    74661    86471 
   70396    37161    -7611   -36573   -21214    13216    24806    20659 
   12463    -8781   -12506    19255    39721    35433    41412    59327 
   68237    63518    46741    24564    13431    19434    27190    21419 
   22687    71792   143712   145296    59832    -1106    40842   115963 
  114509    37329   -11313    29099    80671    41961   -40407   -33222 
   59099   101586    59831    16170      775   -18528   -50417   -69244 
  -54964   -33189   -57301  -108418   -82597    38726   123184    85488 
   15933    22450    72979    79483    41666    47149   132627   185232 
  103987    -4664    22056   146897   196126   104944   -31661   -90083 
  -15277   140562   248317   214459    72188   -42942   -39556    38712 
   95986    85657    33458    -1604     7187    31435    26035   -20869 
  -87982  -130942   -88281    43615   158376   154900    80610    42341 
   39513    29358    21487    16107     8379    16712    21078    -1090 
  -23180   -30646   -17568    30229    77519    79729    65886    87972 
  133043   131538    50460   -38017   -37171    49975   137742   137688 
   25942   -97206   -99380     3301    76306    55910    -1509   -28286 
  -22662   -27657   -55152   -44085    47223   135934   120320    43373 
    6411     7555     7864    22213    45879    35383    -8980   -45557 
  -45075    -1515    55888    74524    41921     4721     5462    33201 
   55492    64773    72731    77606    55386     9707      162    54411 
  103175    74955      134   -36025   -12198     6991   -27943   -76990 
  -55756    67286   222355   293350   211760    32398   -66498     6288 
   98252    44013   -81516   -82533    69180   181649   104263   -64737 
 -109838     4456    77547   -25498  -154111   -91957   114502   209577 
   85322   -63645   -36507    76693    69023   -48705   -59836   106467 
  217455    90307  -131629  -207872   -78477   117222   174594    46549 
  -85066   -68521    34534    99320    63872   -58081  -123540     1131 
  190423   211558    61380   -80863  -103760   -22908   100547   188841 
  151670   -12928  -170428  -188189   -59688   102502   153631    69564 
  -21886   -36913   -18005    -3213    18341    67884   153357   228013 
  217271   118299    19044    -5050    35044    96980   136885    84190 
  -29296   -27707   113676   197175   121705    -9310   -48559    49765 
  155290    95557   -68640   -96443    32308    75454   -27421   -57962 
   84023   226585   167551   -65725  -200073   -47282   196869   216294 
   44264   -32368    52801    72881   -66967  -147474   -21448   172693 
  256712   195975    86510    40956    53404    30886   -39981   -60638 
    2033    42683     -147   -43680    -8184    75344   125618    84448 
  -15943   -52619    14809    71248    28333   -43482   -18230    82538 
   93063   -33799  -134029   -72506    66244    99113     4293   -47771 
   36452    98038   -30823  -218234  -213315   -12295   193030   259831 
  145544   -61907  -159976   -77001    65993   169853   169459    37738 
  -59329    41977   206474   209730    45544  -131523  -176574   -75122 
   23706    10372    -9501    81162   170100    90414   -83354  -131406 
   13526   217007   293496   182254    14433   -74954  -103417   -91626 
    5479   127946   161040   126834    93115    30702   -84522  -158883 
 -114076    -3515   104767   151446    55107  -116862  -144096    61540 
  336275   426407   239286      390     5418   182787   229764    87054 
  -56626   -43338    86977   112292   -49994  -166260   -37140   211184 
  290282    71648  -249846  -309746    -3082   314009   280927     7468 
 -140915   -39783    87708    29866  -139820  -194665   -37632   130948 
   71480   -94634   -93475    64027   160385    91347   -31614   -46110 
   29948    74317   106637   185808   197586    36464  -145382  -125946 
   36014    85284   -32255   -98924    36657   216636   187376   -30207 
 -188070  -142127    26571   134726    89361   -14114   -53189   -46874 
   12170   187183   307188   153103  -109428  -169285   -25647   122095 
  186595   179762   124467    64410     9939   -47599   -55385    36424 
  120479    14145  -205477  -268397  -125330    65594   161308    99583 
   -6169     7552    93130   138740   152499   122745    26783   -30296 
   35335   142055   184682   121598   -28719  -112728     5898   152284 
   53572  -188654  -217925    37441   255546   183340   -35060   -84162 
  126870   358138   325865    61282  -140274   -89982   109851   224887 
  131859   -79145  -184156   -85801    67479   137867   144050   123655 
   88627    52884    37030    88712   204717   239508    47243  -233614 
 -255373    18688   218623   110957  -132989  -182699    58749   292904 
  228093     2674   -44399   120044   179406   -35221  -288377  -287513 
  -22591   200599    85534  -181982  -177978    64197   151825   -12806 
 -157775   -77524   155056   285249   140784  -121964  -201610   -65967 
   71421    92777    34452   -44935   -67545     5361    89272   104210 
   61820   -22138  -108709   -85605    61019   170936   157839   105935 
   79983    60536    41455    45836    68031    83239    52810   -62134 
 -169711   -91055   152348   294021   149634  -111197  -134091   153965 
  415377   320062   -53753  -290570  -115449   243191   366644   201857 
   20268   -25500   -43563  -103679   -57175   155892   325527   248834 
  -23511  -206801   -98318   146596   273657   239749   124961    23749 
   -9071     6209    48369    91584    81369       91  -101478  -124037 
  -34213    61803    60447   -18220   -79354   -64647   -22793   -21400 
  -26323    20239    59863    -6485  -100518   -33546   150043   175195 
  -49712  -253179  -154425   132969   260585   125919   -36086   -18362 
   81413    41834  -139663  -260004  -183643    45914   219827   114173 
 -158428  -232017   -34556   186434   254739   130258   -77168  -101343 
  118210   280902   164238   -64250  -138823   -32114   132220   234590 
  200242   101883    81296   106165    71469     2568   -43976   -42624 
   22368    73893    10734  -118925  -175487   -63102   173588   295447 
  144010   -79309   -94666    56343   112087   -21233  -157296   -94627 
  134622   274183   132929  -121481  -182453   -19208   165125   207104 
   95181   -55776  -104990   -18740   107662   159788   110575    26968 
  -23315   -10075    78039   156148    96976   -44703   -82369    44127 
  184749   123603  -134058  -291045  -169151    22230    46247   -50429 
  -81082    38516   163839   117844   -27593   -82577     -259   108606 
  125916    55649     5404    62470   175684   202511   111814    17584 
   16885    96295   148908   112011    74399    89875    56014   -50262 
  -94808   -24022    63104    72693    -8619  -127192  -148781    18381 
  232530   225692   -48553  -269288  -128356   210662   332829   123267 
 -127642   -91146   167655   261680    45323  -198046  -192834   -41647 
   14319    30493   151932   244451   129550  -133533  -289106  -143093 
  111617   115547   -89994  -136781    83321   268134   179369   -46619 
 -151550   -62573    73305   100698    64543    73442    99879    44307 
  -83671  -108992    45391   186582   142258   -39185  -192973  -145665 
   96666   265389   173741   -11059   -43929    52111    79801   -27870 
 -115711   -41480    82079    69602   -28213   -44807    42351   126247 
   99166   -16546   -47996    50078    90625    42032    89273   204744 
  180050    22529   -63467    20839   158017   155289   -22062  -166993 
  -92164    94708   168464    74914   -96543  -186969   -59922   148322 
  130386  -116584  -256172   -90114   183987   249928    56028  -142472 
  -81722   189151   346068   169028  -164012  -283861  -103778   151564 
  266150   157689   -76978  -186022   -75638    94466   180971   140275 
   40935    31040    84883    60754   -16119   -52367   -55472   -59332 
  -69840   -83493   -77176    -2101   128828   173818    54292   -73532 
  -33983   114948   173536    73601   -31417   -19360     9586   -52071 
 -138786  -114763    81400   285188   211438   -97180  -258080  -101402 
  155632   270090   198915    56585     2299    77531   164009   152012 
   53854   -50822  -107180  -103351   -33130    57807    75807    20694 
  -42320   -95612  -119103   -80262      165    65134    66259     1144 
  -68147   -94208   -82715   -12000   105496   145901    64253   -11185 
   -6907    11360    36810   111613   172920   151654    83980    55791 
   95739   121823    62946   -53289  -176107  -241990  -155254    93109 
  327867   348501   158592   -63589  -128232    21507   212679   226767 
  108479    77443   158429   164462    33038   -94529  -109886   -46725 
    5822   -25978  -137724  -204433  -150041   -80668   -77792   -71565 
  -14620    20876   -33321  -105140   -59233   111432   260623   222513 
   -6150  -187518  -106524   108865   151195   -50573  -258058  -234062 
  -30358    96220    26921   -87528   -41557   158672   255898    87052 
 -111111   -47905   188516   326230   245217    34551   -79135    30923 
  187395   141415   -68084  -173975   -46747   130012   128101    -4855 
  -44320   123261   365988   414803   189140   -58053   -50895   173425 
  383625   459712   394803   196925   -18471   -66728   109054   380650 
  482292   269750   -32140  -113856    23736   141673   100814     3860 
  -11257    31027     9219   -99626  -131952    18751   192822   202309 
   54708  -130881  -221672  -138767    26797    66403   -69094  -209034 
 -217747  -120246   -22484   -17738   -97317  -111930    41254   182744 
   85209  -148620  -252757  -150914    13512    54258   -47684   -93155 
   44285   160649    31604  -171744  -151582    39432   138993    59887 
  -98854  -227193  -241913  -109559    47238    68275     1815   -12176 
   21270    34901    50123    72258    28045   -16531    86196   225989 
  199982    72383    16155    52026   110275   131415    79719    -7312 
  -29245    46296   138381   189066   212764   214533   197545   143897 
   55312    61979   205481   281893   171536    42348    55920   152328 
  221892   232607   205524   189042   166734    80505    -2057    43791 
  155441   136460   -38208  -168573   -97179    83442   142465     2459 
 -172884  -199343   -91930   -12028   -63876  -206180  -299206  -229226 
  -57554    25014   -38582  -118188  -145431  -160999  -140298   -42871 
   53345    46725   -51448  -131584  -101197    14691    93997    47463 
  -60153   -75755    20221   100494   117665   137993   175811   187965 
  172683   135084    27699  -128855  -164259    18004   260461   322983 
  132970  -132423  -191971    44448   373578   506934   337118    50101 
  -68137    29550   157068   191842   183405   202455   189436    63188 
  -81827  -118483   -79644   -17240    71426   146511   149689    64434 
  -33206   -13024   139299   286238   271375    99910   -38906   -13541 
   91694    97593   -21044   -46535   143953   288268   127861  -173163 
 -274150   -47420   279042   288107   -79715  -362891  -265301   -49943 
  -22568  -175565  -359232  -390789  -205808    10609    63305   -29641 
 -105683   -54283    53552   102939   126205   179584   197541   157020 
  119918    89420    36088   -45432   -91163   -25061    93303   174846 
  187483   109623    18194    14735    70310   122073   140952   150548 
  239519   399187   479329   378593   164523   -32719  -169732  -215982 
 -132835   -22999   -29692  -140879  -228163  -183638   -39918    73178 
  112996   126295   145255   176444   172408    92434    16695    13394 
   48943   120564   202763   178624    35923   -97919  -140192  -120537 
  -89122   -34954     1343   -63496  -140516   -91586    17258    29867 
  -80140  -175431   -98826   116113   257541   192359    -3141  -117071 
    -470   190791   185840    30461   -68295   -85730   -93522  -124564 
 -133832   -58249    13035   -31094   -99363   -57837    92760   242007 
  269946   210477   181686   180580   142942    79676    49656    55758 
   56168    39483     6213   -41730   -67014   -29547     4054   -47576 
  -95659   -80750   -90762  -114192   -53137    68388   134292   111428 
   75572    95287   189827   294665   285990   160242    69578   107983 
  154512    57751   -64129     3260   149619   110603   -73514  -168763 
 -121874   -52819   -35406   -33187    23721   127739   181979   138287 
   46277   -24471   -27281    14642     7283   -78582  -149194  -138766 
 -106294  -117837  -158598  -197617  -220581  -195259   -70063   124162 
  225551   190823   179422   231804   277536   323431   309014   192901 
  126540   202497   318901   336533   207012    32902   -64211  -105965 
 -119026   -71327   -31650   -73018  -108641   -40501    77366   129181 
   73863   -39420  -103095   -58223    60662   171176   131949   -60854 
 -178305  -129771   -60284   -61185   -97079  -101822   -43267    44504 
   78375    40350    36607   128490   227961   225076   111547   -15034 
  -44114    77624   281632   341296   155407   -68669  -139966   -52690 
  111954   198440   145956    89657   144385   267372   311206   206191 
   69278     5529    -5862    24781    88673   103637    36907   -46015 
  -99187   -96371   -20897    62346    65464   -23072  -140248  -207311 
 -192349   -86301    92152   218132   185873    88251    74539   139173 
  186703   173255   102942     -654   -73268   -59083    -5020     -774 
  -56748  -111183   -82040    21104    81265    81945    71614    22996 
  -22031   -11489   -10492    17158   145156   230223   131244   -54352 
 -158736  -141416   -51132    19933   -47164  -183185  -149039    73650 
  228739   139272   -65764  -124690    18512   189187   214530    65431 
 -112917  -105572   113945   317810   322425   211498   149307   167630 
  237860   314725   312395   202772    58023   -23220    -2686    52323 
   21521  -118297  -216844  -162889   -35857    56439    67025    20985 
  -23404   -73588   -78598     9013    44330   -36992  -128752  -173582 
 -154727  -126787  -143216  -110602   -21316    -2452   -27313     6379 
   47988    16699   -32419   -17589    30961    56973    73533   107874 
  136717   101064    27402    29971   105203   139320   110100    76047 
   62717    63176    39272   -54326  -158832  -167496   -73334    90521 
  258476   283797   131550   -40948   -73156    55690   219107   295197 
  260820   131036    -3526    -8570    90346   109984   -14067  -143453 
 -154316   -56531    23590   -10149   -66992   -38402    51591   131258 
  115676   -14898  -137952  -142614   -54040    44701    93046    78020 
   33831     5142     4179    27786    76671    98524    76478    97523 
  137261   104827    70903   112400   186828   259560   305747   262881 
  141402    53064    65059   137823   176841   148569   124957   135607 
  131495    97168    59252    55618    88810    82799    -9762  -111428 
 -141059  -118336   -97219  -137020  -239804  -274502  -160746    18857 
  126358    64198   -89402  -152845   -95224    -1338    79563   118846 
   97013    41777     5156    12302    50154   100822   140839   108476 
   24869    29645    94217    52189   -43334   -35246    75367   180130 
  146361    14923    27361   195919   270053   173881    37132   -30070 
   20001   101250    38782  -113968  -149002   -55150    34036   -24778 
 -223601  -310133  -181877   -12150    76703    49836   -55532   -82657 
   18249   109232   116764    78908    35806    39312    70751    33528 
  -44419   -45728    34074   116375   146690   100060     6437   -38541 
   16571   112689   165707   148330    85285    25284    38141   177233 
  348430   351121   177160    34863    48026   146035   192811   139192 
   51728     9624    13000    -1533   -39711   -48501   -48052   -86450 
 -141575  -163858  -125925   -64985   -55504  -106977  -158438  -123043 
   26947   145913    60447  -129577  -175298   -40794   139807   237368 
  170573    14584   -52188    52502   243216   295906   106960  -111186 
 -121226    65106   226232   145484   -88018  -146957    91726   356607 
  334203    95600   -44263    59912   265365   324467   188847    30822 
  -36775   -44358   -67813  -117941   -94736    11697    61901    22285 
  -11324    21395   109447   180208   179191   131886    68164     6888 
  -11589    31909    98928   125947   103666    89941   128015   181343 
  166133    55472   -65960   -73136    40194   127012    89886     7883 
  -14269    20014    57604    48643    -6491     2847   111043   132191 
  -40552  -241165  -270573  -121376    29212    37632   -20063   -16600 
