Origin Time       2011/03/11 14:46:00
Lat.              38.103
Long.             142.860
Depth. (km)       24
Mag.              9.0
Station Code      TCG010
Station Lat.      36.6348
Station Long.     139.4379
Station Height(m) 637
Record Time       2011/03/11 14:47:22
Sampling Freq(Hz) 100Hz
Duration Time(s)  300
Dir.              N-S
Scale Factor      3920(gal)/6182761
Max. Acc. (gal)   165.681
Last Correction   2011/03/11 14:47:07
Memo.             
[...]
   32623    20086     1099   -17057   -25951   -25258   -11375     8938 
   17767    21100    28151    27192    16666     8528    11109    18924 
   16958    11906    16893    15984     -206   -12205   -15272   -23793 
  -33736   -32114   -21304    -8721     1433     6538     8937    13387 
   22006    31829    36471    35647    34627    32366    19213    -7722 
  -29557   -32731   -33371   -38457   -32114   -17487   -12724    -9868 
    8128    23242    17979    13965    14608     2761    -4476    -5612 
  -23433   -30782    -8358     5474     3984     5735    -1955   -13868 
  -14424   -19204   -31038   -33163   -22747    -7651     3703    12912 
   26158    38296    43077    38855    23828    10114    13305    17625 
    6357     -132     -119   -20546   -41971   -35686   -25179   -23925 
  -21672   -19280    -6406    18187    30324    30041    29267    16934 
   -2197    -3740     5231     1475   -11660   -26403   -51566   -77599 
  -72773   -35894     7921    42437    49740    37558    40089    48498 
   39865    22723     2086   -13995   -17924   -31218   -52362   -53480 
  -53605   -66822   -54883   -22235    -2906    19903    47481    47591 
   34993    36534    37349    31353    31766    34995    36375    34058 
   19043     1753       31     3232    -3519   -11705   -12941   -12782 
   -4223    19329    32529    27295    23539    13690    -3880    -7173 
   -5408   -18857   -34842   -29966    -9184     2383     8071    28858 
   50785    48821    29886     7317   -15180   -22145    -3522    23316 
   40060    43538    34655    20564     8785    -5199   -20136   -29606 
  -39722   -49763   -49502   -35282   -10252     5855     1316     -422 
    7143     2231    -6012     -650     5361     7991    10551     6595 
    3734     9706    18790    21620     5599   -17245   -15512     1808 
    5203     7426    23808    26804      524   -23751   -15490    11433 
   29106    37572    39579    27523    12456     4701    -3415   -11927 
  -20827   -30675   -28657   -19001   -16863   -13856    -7727    -7776 
     427    18131    16945     3785     8709    20466    16648     8310 
    4865    -5875   -21534   -23858   -16610   -16981   -20309   -12318 
    5933    18529    18339    24173    37224    35789    31654    34528 
   17941   -12901   -25606   -22009   -13051    -6029   -13783   -19133 
   -8494    -5292   -11548    -6581     9576    19636    15434    13525 
   22060    26242    29362    43991    54339    44540    26759     7799 
  -12802   -18551    -6925     5681    14009     9617   -11300   -29697 
  -35514   -28115   -10114     3551    15857    30092    30690    27436 
   32041    31163    23840     8703   -18314   -29437   -14564   -11111 
  -28147   -30027    -6627    14717    26454    41695    37260    -9193 
  -54307   -60154   -46471   -23621     7387    13152    -7987   -12290 
      13     1053      690    10965    17276    12370     5595     4038 
     727   -22958   -60651   -70877   -43046   -11569    11213    31938 
   35029    19097    16794    35837    50770    57347    54411    21072 
  -19316   -23596   -16060   -17669     1970    27909    24563     9402 
   -7249   -24167   -17545     1857     4586    -6140   -17303   -14833 
   -1630   -14413   -56827   -79135   -58240   -20091     2320    -6558 
  -25486   -19761     1455    12366    17967    24189    24689    16243 
   -2554   -22480   -23252       89    19713    10202    -9364    -9132 
    8076    25937    37344    39876    33743    20650    -1838   -23778 
  -25114   -16563   -13337     1308    28637    41783    26907     -890 
  -20367   -27359   -14064    21397    42283    22882    -8269   -23352 
  -32142   -37995   -23478    15413    56517    59052    18297   -10498 
   -7459   -10237   -29840   -41689   -22481    20914    44331    27241 
    7425     9717     8819    -5221   -16239   -23106   -19277     -170 
    9885     3977    -5038   -26077   -52849   -53112   -27658    -4118 
    3541    -5318   -18454   -21192   -16569    -9666      719     5957 
    4484     5128     1831     1253    19896    33158    16536   -13471 
  -35685   -38585   -27357   -17844    -9541      564     9255    11169 
    -248   -10860    -5861     8029    23836    22983    -3912   -20153 
  -10129     2658    19030    32388    21226     1303   -15645   -31661 
  -27869   -13165   -17133   -24407   -16143   -11050    -8131    13021 
   31026    21190     2869    -8797   -13778    -7080     4548    15987 
   28216    31374    26409    25457    19480    -8263   -41355   -51721 
  -44839   -36366   -26101   -17452   -15973   -16674   -15800   -14218 
   -9823     2359    18004    17458     4492    13112    40666    46292 
   20368    -3603     -771    11151     8317    -1525       40    16621 
   28743    26215    30532    33689    12549    -6309   -11362   -22884 
  -25697   -10944    -9581   -31880   -51517   -50569   -41744   -36431 
  -17471    19458    39721    31864    22169    12431      604     5007 
   16850    20837    18949    12128    16182    35138    49986    66293 
   85666    85158    67734    48906    21729   -13115   -33617   -25651 
    2718    30663    44955    46206    26762   -16347   -47339   -46591 
  -43959   -44368   -32319   -23463   -28426   -34375   -33600   -31465 
  -29500   -15626    12652    34099    29631    10352    -3107    -7664 
    1097    22162    35433    39006    47097    49404    29277     3325 
    4066    26224    33785    29668    31968    19419    -6469   -12201 
   -1249     6000    11646    18096    10016   -17830   -45295   -54377 
  -41980   -18545      225     7429     -872   -26208   -56268   -64462 
  -45085   -23754     -191    32918    46855    41101    44764    48744 
   37399    24237    12143    -3034    -4243     9814    14809    12105 
   16259    12609     3149    13012    22904    15562    15364    24031 
   34067    40479    14444   -30849   -44244   -28053   -11509      801 
    7454    10656    20268    24491     8275    -2951    14900    39942 
   52418    53182    36734     5707   -27726   -54325   -64265   -57269 
  -34337     1117    27922    46560    70714    74781    50366    37565 
   40896    26965    -1510   -23124   -37592   -43231   -37512   -32368 
  -38345   -51049   -46244   -11286    23893    41308    62973    81133 
   61758    21185    -3832   -18873   -41150   -60254   -54349   -27525 
  -10431   -19771   -43642   -57693   -50447   -36915   -28238   -15837 
    4678    21470    20810    11779    10418    16080    24930    25790 
    8797   -12194   -16526     4671    33703    46180    55249    68200 
   55662    25033    12419     6267    -9026   -14933   -14359   -14013 
    3987    29354    30887    12452     6983    24718    39585    41821 
   46337    45960    29722     8083   -26497   -74761   -90349   -66519 
  -49068   -31420     9884    39321    26764   -12646   -51530   -59875 
  -37130   -14475     5235    28262    33300    19462     6266      -55 
   17895    54281    56358    13528   -34084   -64502   -77405   -74189 
  -54549   -26951   -12604   -23234   -40720   -36732   -16912    -7872 
   -8512    -3165    13693    44657    70038    60041    30874    15915 
   11670    11974    31698    57704    56209    47071    64315    78070 
   62561    47658    43465    28476     9731     4521    13813    32165 
   33391     2836   -27810   -42698   -59011   -65011   -38711    -2237 
   15357    26364    42577    40005    14364    -6927   -16027    -9967 
   12492    26865    25678    25036    17522    -8665   -37229   -55243 
  -63299   -53985   -32954   -12517    11765    29948    31352    29302 
   29262    29418    23795     1244   -24806   -35256   -37591   -39976 
  -38138   -31859   -25061   -33857   -63748   -77877   -63816   -48789 
  -27545     4738    19896    14110     9759    14847    22431    26060 
   30227    38342    33634     9521    -7243    -1250    13634    25374 
   27246    16716     2240    -9545   -15455   -16717   -26550   -40786 
  -36282   -22985   -22154   -14666     8004    16861    12068    17052 
   27905    34732    30885    11333    -8074   -22001   -36305   -39428 
  -37495   -37167   -22571    -6659    -3040     4070    11449    14621 
   22883    23793    11352     1008    -8242   -20272   -22402   -14290 
  -11328   -11594     -576    13930    15667     9855     4313    -4040 
  -11584   -11102    -2901    11109    13387   -18365   -58046   -66969 
  -55227   -43137   -32473   -18331    -5765   -14064   -24666     1448 
   39289    49029    50232    59218    55427    40956    33813    29201 
   22076    12710    -5268   -26319   -34510   -31490   -35854   -52785 
  -63173   -50137   -24419   -11829   -15628    -6802    29591    69165 
   92818    96182    69981    33623    14276    -1046   -14038   -13328 
  -20685   -43503   -68380   -86715   -77950   -53552   -40170   -18643 
   14960    43942    67766    68588    50529    39922    21443    -3408 
   -4771     3598    -1934   -10291    -7745    -8626   -26441   -37112 
  -19894     5899    14169     4397    -4691    -2981     6471    18928 
   24576    17901     7551    -1794   -14223   -18770    -3614     8057 
   -3417   -15397   -11665    -9861   -25217   -49035   -60314   -49658 
  -32262   -27980   -25913     1786    42387    52227    31926    26916 
   52579    81530    89421    76503    61675    56030    52135    40901 
   14949   -22978   -54450   -70313   -80649   -90312   -78428   -28560 
   28294    58495    69790    65875    46967    26880     3151    -7384 
   19653    38726    11268   -16154    -8797     2858    -3332    -4836 
   12077    18732     8997    13243    16756    -4733   -28045   -42896 
  -48712   -29416     -107    16349    29912    38145    22713    -3997 
  -18581   -21962   -26816   -37524   -45385   -37249   -13779     3515 
   -1817   -16557   -17830    -6136      -40     3487    23221    49004 
   61391    56771    36415    18376    14038     5555    -9778   -11496 
    8341    35698    46422    29727     2457   -12863   -17063   -26387 
  -41421   -38664   -11227     7767      559   -15150   -29309   -34044 
  -20478     -380    18949    39725    49429    41741    27505     9719 
  -10971   -23297   -22559   -12355     -209    -5436   -32968   -56428 
  -54482   -28324    11061    44073    56462    57403    57538    51134 
   40491    39671    49868    62204    65821    54863    43405    39711 
   32232    25132    17827   -16367   -62529   -73891   -62001   -54922 
  -30562     9313    19758     7180     6842     7837    -4626   -24837 
  -48330   -60501   -54524   -40855   -20990     2620    19436    27523 
   25732     9198   -12985   -25227   -27480   -29831   -36981   -44851 
  -45044   -35473   -23142   -10373     7341    34265    69582    94712 
   92987    79775    71142    61540    49690    36411    20636     9533 
     470    -9770   -11156    -9107    -5071    17537    38181    25276 
     771    -8182   -10907   -15102   -12832     1448    15413     6366 
  -16272   -21555   -13621   -17517   -39899   -61740   -60530   -49967 
  -51121   -56098   -48854   -15504    29996    51424    48350    45563 
   48960    51408    48147    36366    27375    33910    34997    13838 
  -11897   -36393   -62533   -68197   -40393    -9824    -8205   -16566 
   -2947    24886    51035    72647    77079    60772    39279    21440 
   14067    23844    39196    46310    48269    49269    50212    54892 
   58644    56328    57670    58263    27462   -39234   -99182  -121185 
 -117177   -94987   -56781   -30477   -26760   -36070   -56232   -65456 
  -47191   -17391     9101    23064    21161    19164    22716     8434 
  -28410   -54818   -56090   -37939     8269    64509    93440   107623 
  127251   129120   104031    71117    30877   -14468   -38446   -34750 
  -21619    -8990    -7054   -30373   -75638  -109033   -97872   -59696 
  -24526    17593    60872    70875    59195    54239    45493    25976 
    2532   -23018   -30411      844    41709    58343    72737    95785 
   98089    78981    49458    11827   -12834   -23208   -30147   -16343 
   10716    20711    23629    33490    26830    -9940   -48121   -53783 
  -38369   -39442   -51018   -39893    -5665    34206    62387    58738 
   24098   -20263   -58098   -72135   -54058   -26702    -3217    20550 
   28021    15504    -3123   -22861   -16855    21857    52946    76753 
  111260   125242   105298    76542    54261    52282    71328    86901 
   91743    88389    64491    20485   -28491   -72698  -106032  -121955 
 -113165   -83082   -52502   -39627   -39576   -35390   -33322   -56348 
  -97432  -125600  -122295   -80525   -12883    45449    78685    88126 
   65329    23580    -9898   -43051   -84566  -112727  -118847   -99493 
  -40252    33916    79897    99965   110090   103967    85931    76529 
   69354    50701    45211    53001    23367   -42553   -93972  -128438 
 -164855  -179692  -149892   -92451   -31235    24580    71368   106720 
  133609   159048   170363   141947    93945    71985    59014     9800 
  -56672   -87483   -68594   -25977    12377    38388    54468    60892 
   58648    55507    57542    45751   -11111   -97879  -151412  -140646 
  -98203   -64186   -39628   -11471    10082    26454    48120    43315 
    1825   -40842   -75850   -96060   -92162   -86671   -78020   -51685 
  -27195    -6809    22947    41194    26282    -4232   -17248    -3371 
   17595    29471    39867    48528    34703    15173    37863    85151 
   95735    75476    74655    93609    98320    90562    90149    91032 
   83636    70273    58278    58093    57119    16008   -78471  -184469 
 -249345  -259333  -233647  -186019  -115854   -48180   -29517   -64353 
 -109261  -122964  -100456   -61408   -10516    53220   107704   130410 
  119401    85143    49492    45464    81965   113121    94253    43104 
   -1455   -27628   -39647   -40912   -23416    15054    42167    27178 
   -9586   -26524   -16662    -3898    -1170     7220    33143    47206 
   20704   -19650   -36429   -28858    -8824    20070    54732    67423 
   31431   -12017   -13064     8539    21208    16682     1394    -8339 
  -25498   -61181   -77267   -57124   -28073     -264    18902    17166 
    8511     5913     6305     4577      336     7134    17685    -4566 
  -57490   -94733   -91802   -64667   -37616   -21429   -13726    -6494 
    3693    15498    34945    72629   116727   138223   137453   128915 
   96350    35363    -7424     2742    33527    27673   -29901   -97335 
 -118666   -83191   -32843   -14708   -32953   -50470   -42577   -23725 
   -8743    15854    42695    26255   -24934   -43375   -12502    30431 
   58472    56937    31485    10536     4129    13330    35873    37057 
    9410    -6110    -3989    -2314    -3311   -15413   -18417    14580 
   47311    58764    73173    82433    84230    95209    93012    71892 
   61624    53988    28151     1010    -5202     4349     8686    -7825 
  -40947   -61683   -56255   -54270   -69427   -63897   -21571    15171 
   19139     5800    -7525    -9755      400    12756    27057    47897 
   58996    38470     3430    -7754     3315    13265    25841    43312 
   38940     5786   -10968    14139    33539    13862   -12861   -26398 
  -36327   -33844    -8074    15643    11517     1678     7769    17122 
   29204    36587     1309   -72941  -128709  -129121   -90871   -59553 
  -51291   -38632    -5984    38331    78068    81223    38907    -3129 
  -11626     -223    19934    44934    68548    85703    79851    56653 
   42281    28139     6291    -2300     1111    -1160   -14817   -44004 
  -81660  -105701  -102541   -78941   -51871   -25616    14345    71306 
  106423    83743    44451    41673    38746   -11854   -70614   -78105 
  -55804   -69821  -102165   -80303   -17758    19946    14002   -10668 
  -25292   -24065     2001    62782   123902   153392   156474   139364 
  114113    90888    57907    16635    -9114   -16650   -28118   -45145 
  -41540   -16046    -8049   -28937   -43720   -31325     5773    38506 
   32652    18614    16844   -11565   -47179   -47900   -40837   -53494 
  -82536  -114287  -124266   -96620   -37503    22391    61086    92454 
  112516    86696    21773   -33084   -55853   -47953    -9117    32194 
   46827    46408    35870    16649    10166     -436   -28782   -29691 
    1364    18487    17992    26628    43372    44321    31033    22856 
   16374    -5198   -42992   -70522   -69212   -58220   -44921    -6051 
   51322    84034    71244    34732     5435   -17199   -36291   -28852 
   -8518   -17052   -43403   -45104   -13059    22344    39237    52383 
   72124    85859    87874    79127    57281    29625     9170   -10913 
  -55174  -118694  -157917  -154307  -137569  -121657   -80307   -20745 
   17360    42198    69527    74307    53429    35743    37690    64945 
  104173   114418    82693    44525    18465   -13540   -52953   -80889 
  -95749   -89556   -47607     -717    32636    78453   102784    59262 
   -4969   -42888   -46355    -6612    47096    95129   139492   126934 
   46549   -22227   -61371  -106632  -136459  -138523  -138435  -112931 
  -47956     6802    32575    42884    31711    12340    12547    17429 
   -7547   -38422   -16025    51601   107065   126008   116317    99967 
   84600    34025   -50326   -93040   -69676   -21794    20885    16606 
  -46041   -94517   -94789   -94690   -98199   -66236   -10874    41174 
   83015    95979    89746    97771   109869    99931    66661    31485 
   16384     4040   -25091   -40849   -16796    14020     3593   -37662 
  -56443   -38406   -23355   -25648    -4975    45438    76332    69655 
   39897   -13347   -70442   -94277   -92809   -82511   -46710    -3728 
    8248    18443    58596    89429    95118   114161   135460   117420 
   63207    -2940   -43165   -39288   -26422   -14448    10836    21163 
    -352    -9589    31802    92455   129733   148533   150501   115702 
   36691   -71434  -165193  -205472  -195320  -145683   -63407    11816 
   44986    49210    35414    -1313   -34811   -30924    -4251    10673 
   11198     3600   -13713   -34610   -53846   -63054   -46890   -12891 
    8898    11927    22255    60655   114422   139586   118071    86492 
   63502    31297    -2420   -15801   -22633   -50911   -84489   -80293 
  -38263    14087    56903    64089    44271    42207    53176    49163 
   39531    22967    -9258   -39092   -64212   -77532   -50129   -10944 
  -12316   -34478   -31948    -2245    20974     6440   -23435   -13454 
   29469    48693    45933    52627    51473    39408    29389     -564 
  -29327   -16359     6198    12857    23196    40412    58073    61858 
   36195     2692   -17516   -28208   -31846   -38901   -35342    22152 
   99505   111957    63443     4071   -51196   -80457   -69979   -40409 
  -10908   -10196   -46737   -69850   -49179    -9953    20274    32066 
   39100    57261    59295    16830   -29000   -21448    28807    79210 
  119051   147306   138678    75652   -14509   -83803  -113694  -113430 
  -76428     -690    57946    50279    22378    43896    97505   116427 
   89150    55463    36096    30365    37540    46393    30775   -18846 
  -75684  -119044  -139791  -130459  -119355  -117497   -85681   -20835 
   43231    88371   106694   102745    78590    40322    23771    37502 
   49133    42379    16787   -18404   -44357   -54772   -50874   -40752 
  -34488   -16985    17825    43392    44009    24874     6844     9951 
   22994    25267     9954   -15880   -34778   -40721   -39658   -25065 
