Origin Time       2011/03/11 14:46:00
Lat.              38.103
Long.             142.860
Depth. (km)       24
Mag.              9.0
Station Code      TCG002
Station Lat.      36.9903
Station Long.     139.8029
Station Height(m) 619
Record Time       2011/03/11 14:47:18
Sampling Freq(Hz) 100Hz
Duration Time(s)  300
Dir.              U-D
Scale Factor      3920(gal)/6182761
Max. Acc. (gal)   65.385
Last Correction   2011/03/11 14:47:03
Memo.             
[...]
    4299     -762    -7719   -14819   -16841   -10782    -5819    -6915 
  -11309   -20643   -28150   -25667   -21009   -19364   -19115   -20889 
  -18250    -5671     9759    18703    15432     -783   -19278   -23558 
  -13917    -6912    -2436     8742    15368     9848     3695      412 
   -1851     3598    13375    13497     3199    -8242   -15779   -18988 
  -20416   -21220   -19774   -16458   -13213   -10576    -7236    -4987 
   -7405    -8969    -6211    -4750     2464    21940    34509    23431 
    -595   -16851   -18421   -11501     1399    15750    18052     7433 
   -2155    -5369    -6094    -4512      738     6028     4916    -2672 
   -7360    -4301      184      -19    -7289   -20089   -29167   -25487 
  -13800    -8970   -14278   -19182   -19041   -15721   -10576   -11225 
  -23716   -38637   -47166   -51276   -47884   -34159   -20666   -14571 
  -10876    -8944    -9883    -3877    11423    19560    13747     4712 
   -3391    -6106     4640    14896    11987    11282    19612    26211 
   27972    22968     9876    -1561    -3498      761     4439     1335 
   -9849   -18047   -15574   -12758   -12293    -6023    -3152    -9442 
   -8983     -931     -111    -3609    -3169    -2596    -3951    -5661 
   -7986    -4748     9025    22303    25399    23406    16238    -2378 
  -23876   -33539   -29068   -17793    -7720    -1935    -3924   -16610 
  -27291   -22491   -10974    -5460    -8176   -19317   -29965   -26398 
  -14003    -7187    -6971    -7674   -10259   -19549   -26644   -16685 
    2042    14701    22339    20455     1308   -18696   -17217    -2591 
    2841    -1293    -5885   -11795   -19534   -24617   -21560    -9246 
    6840    21721    29277    25877    18937     9332    -8723   -20338 
  -10462     3192     4179     4327     8193     5066     -581      699 
    1374    -5564   -11811    -9033      880    12279    19649    21189 
   19009    11735     1480    -2983    -5425   -12499   -14830   -15855 
  -27754   -30068    -6635    17902    26521    22454      356   -29361 
  -34265    -8791    20179    30104    19421     -277   -16462   -16972 
   -3034     3845    -5138   -15115   -14390    -4578     6522    13472 
   15807    11828     1302    -5837    -1608     8857    18989    21875 
   14595     6996      883    -3652     6538    20392    13510    -3257 
  -11150   -13700   -14690   -11088    -5773    -8241   -18546   -21588 
  -13036    -3643     3860     7529     2622    -5582   -13610   -18163 
   -7833     8118     8618     3747     5190      742    -4785      -67 
    3044     2626     5432     1887    -3835     1918     6939     2435 
    -159     1112     1180    -1997    -7925    -7479     2455    11006 
    7142   -13533   -37430   -42091   -28539   -10849     4507    11230 
   12835    19406    24126    18218     5266    -8565   -16261   -20833 
  -32593   -40631   -28980   -11650    -7226   -10833   -15770   -18810 
   -7738    13383    19727    11069     5368    -3858   -19851   -19975 
   -7626    -5848    -5256      248    -5491   -16412   -17290   -13755 
  -15054   -13343     2112    16687    11224    -4776   -13974   -11682 
    1105    15070    19677    16980     9831     3452     9325    16526 
    6688    -6530    -8104    -8024    -9407    -3598     5486     8601 
    3034   -12564   -29894   -31904   -19028    -6932     -533     -464 
  -10730   -19405    -9513     7116     3564   -16259   -25289   -21760 
  -18247   -10864      467     4646    -2854   -15113   -18906   -10834 
    1483    13754    21404    18162    10109     9676    11428     7752 
   10182    13191    -1959   -21514   -28074   -26864   -17800    -1779 
    4321    -3187    -4376     8661    21609    21526     6593   -10889 
  -15392    -9875    -4308    -1391    -4493    -8495    -1307     8155 
    3760    -9881   -24952   -38000   -43912   -45765   -44256   -36112 
  -28583   -24306   -21987   -25845   -25363    -8330    12707    17799 
    3348   -14343   -23079   -24232   -12862     3748     4894    -3192 
   -5954    -7303    -9363   -11383   -14383   -10544     1124     3544 
   -9620   -22604   -26211   -27555   -27778   -21086   -12571    -9475 
   -8434    -4899     -141     1250    -3787   -10865   -12734    -9420 
   -2314     8932    15271     7051    -8627   -15305    -8849    -1671 
    2716    11873    16762    10061     5676      937   -18864   -35552 
  -26907   -10743    -7853    -5577     3393     3350    -1568     4522 
   14929    23871    31627    27835    13716     2538    -2518    -5418 
  -12950   -23713   -28440   -27902   -20869    -9380    -8145   -10365 
   -6131   -10300   -18295   -12291    -2680     3919    18796    30621 
   21099     5817     4661     9070     8711     8350     9319     7461 
    4179     1478    -1442    -4464    -6616    -7136   -10753   -19487 
  -19960    -7946     1056     3728     6446     2065   -12933   -23188 
  -19010    -9328     1652    16015    21331     6630   -14314   -23082 
  -18863    -9792    -3797    -4478    -7833    -8969    -3886     7363 
   15841    18368    18529    14027     9475     9656    -2270   -28465 
  -39453   -29599   -20059   -16084   -14739   -16014   -21120   -30678 
  -30732   -20063   -19522   -19623    -3521     8453     6393     7305 
   11323     3274   -13032   -21406   -25300   -32077   -31625   -28032 
  -36302   -45855   -43402   -27584     4236    33713    39240    29283 
    9077   -19596   -33992   -22784      486    16428     8871   -15499 
  -30359   -23276     -960    17580    14006     2831     3874     1115 
   -4290    12831    33481    28589    14394    11715    13181     7878 
    6225    16531    17960    -1200   -20063   -24153   -18718   -12034 
  -12422   -22967   -35715   -39940   -34193   -25729   -16660    -5473 
    -730    -6157    -8348    -2522     2515     6105    11499    18629 
   27361    29054    12557   -14007   -33894   -41887   -35333   -18351 
   -6021    -4051    -9122   -12738    -5997     3716     6701     4499 
    1401     1172      293    -3557    -2699     -232    -6038   -13961 
  -13607    -9932   -14267   -25508   -34710   -34589   -21376    -2927 
    9175     9199     -627     -757    14815    22295    20985    22490 
   13008    -1183      723     8731     9851     3526   -10361   -28840 
  -44930   -45191   -28205   -10841     1123     8484     8258     5266 
    2153      864     1688    -9584   -27199   -32239   -36357   -38810 
  -21887    -5799    -7419    -9013    -5634    -4279    -2097    -3583 
  -10563    -6698     3301     -450     -568    11873     9462     1952 
    8869     5946    -9285   -16721   -17778    -5181    19842    31421 
   27298    15066   -10550   -35734   -39845   -30775   -20994    -6923 
    7926    15524    14771     6904     6532    25126    42775    36157 
   15201     5778     9569    10182     1789   -15119   -34914   -41930 
  -27765    -7254    -4928   -13794    -4270    16812    22669    15856 
    8039    -6352   -31724   -46535   -37793   -34300   -40394   -29047 
  -14528   -16801   -20310   -15984    -9457     1366    14268     8542 
  -18582   -33831   -25502   -18760   -19171   -17422   -22734   -29800 
  -18622      515    12557    24706    35822    36573    25462     3743 
  -17494   -29718   -39584   -37832   -17566    -8093   -11867     -407 
   10265     8553    18619    25164    11391     3994     2927   -10924 
  -24946   -25750   -19580   -13700    -7425     3177    10338     2929 
  -12415   -24681   -31530   -34248   -35385   -30871   -16611    -1473 
    4051    -2131   -12083   -15403   -11347    -2497     4117      349 
   -6090    -4726     7068    24613    32134    25303    15109     6901 
    2610     -416    -4284       43     8492     6338     6240    24180 
   40954    36527    22868    15816     9862     3265     6237    10196 
    4823      240      529     3899     4737    -8546   -21367   -15205 
   -2029     5645     2752   -10558   -23126   -28180   -21311    -9973 
  -16543   -32461   -30403   -18383   -11948    -8658   -16777   -29141 
  -13397    19672    33515    33938    30191    11313      325    20139 
   38192    29936    14899     5929    -4327   -14431   -13202    -5853 
   -6479   -14500   -26569   -34888   -24703    -5946      898    -8783 
  -34785   -55015   -40513    -6430    19799    36764    37517     9298 
  -25851   -35515   -31157   -33859   -31906   -18829    -5362     8021 
   23013    31160    30901    31058    24828     7136    -2084     -472 
   -1238     2222     5056    -8093   -21966   -21684   -19769   -19276 
  -13326   -12411   -23631   -31681   -29776   -32467   -39758   -34735 
  -19291   -10707   -12701   -13809    -5597    11713    29601    28651 
    3152   -24042   -34374   -21452    11848    32443    16578   -11155 
  -27044   -30806   -18304     1842    -4826   -40975   -55329   -29749 
   -2531    17174    35114    23772   -11474   -23515   -12818   -15245 
  -20719    -9122    -4210   -10367      618    23373    32322    25203 
   16235     8748   -10213   -32455   -30725    -9495     4199     1996 
   -6096   -15039   -24478   -23430   -10733    -3929    -4248     3169 
   20166    33468    29064    13337     4746     2465     5325    17253 
   20045     9121     3661     4758     8329    12706    11637    12513 
   13301    -5340   -36079   -49809   -33744    -3264    17717    22948 
   12648   -10908   -25455   -10700    15748    18096     1966      381 
    6213     7422    23229    41408    36324    22508    11469     -390 
  -10020   -21912   -36409   -35143   -13943     2785     4702     6079 
    7926     2461    -6734   -13521   -12494    -5390    -5878   -15194 
  -18120   -16006   -17130   -12469    -6229   -12362   -21690   -23186 
  -16196    -2966     7807     6949    -7328   -22461   -24969   -20252 
  -18584   -22052   -29620   -31131   -11551    13799    13766    -4232 
  -17203   -19894    -8295    13658    25047     8200   -20058   -20387 
    -383     3538    -2786   -11234   -29030   -31616   -13037   -15265 
  -42022   -56154   -54356   -45472   -23055      689    13705    20805 
   15098    -4459   -24858   -43889   -54355   -44830   -27685   -18392 
  -18722   -30912   -42537   -34248   -18197   -12303    -4967     7700 
    5953     -461    15152    35398    36545    30552    30611    34191 
   32754    23754    11351    -5077   -19600   -15707     6051    17283 
    6039    -1218    -3453   -24694   -44976   -44297   -43995   -44702 
  -30749   -10928     4493     5370    -8752    -7903     9062     6491 
  -11251   -18221   -20851   -20648     1691    33518    40709    24492 
    8636      350    -2612     3957    14898    21733    35218    47250 
   28747    -3583   -17441   -28726   -44893   -36612   -14570   -12500 
  -15783   -13867   -28018   -44902   -37714   -22370   -15728    -6805 
    3274     4799     4415     4667     4972     8455    11876    19631 
   23881     2475   -25681   -35659   -41055   -39861   -22874   -10755 
   -5725    11947    33152    32747     7106   -27979   -56030   -66581 
  -58438   -43888   -35833   -35685   -40598   -44321   -40046   -33603 
  -33326   -33752   -25451   -10296      549     2527     3227     9329 
   21534    32995    25463    -5695   -37787   -51469   -44901   -29720 
  -24480   -29924   -29120   -15241      712     7210     7598     2296 
  -11978   -12308    10662    23500    13759     2017     3778    20534 
   33506    27823    14102     4999      632    -8507   -19254   -14714 
   -4154      702    13115    24695    14705    -7201   -21730   -20870 
   -7583    -1595   -17604   -32731   -19914    15722    56004    74397 
   58775    30084    -2842   -35747   -45445   -34717   -28242   -34874 
  -49108   -54935   -46833   -37988   -25079     1489    17739     5915 
   -7513   -12696   -28033   -39999   -30675   -19295   -20942   -22557 
  -14314    -6688    -2471    16385    41281    34648     7452     1856 
   12270    16047    13652     9349     4778      458     2696    14789 
   26399    32751    27503     6288   -10346   -10205    -6096    -4308 
    1666    10810     3615   -22490   -36246   -30780   -25944   -16678 
    6001    30146    43559    43251    38194    40889    48929    50120 
   39570    25986    14960    -4664   -28305   -31184   -22175   -29247 
  -50279   -68574   -67995   -46485   -22755    -3672     9378     7897 
   -4185   -24100   -48416   -55992   -44947   -35107   -22386    -5343 
   -8713   -28492   -36866   -34450   -29454   -17248    -4376    -6063 
  -16053   -16032   -18132   -29007   -18757     3852     6461     1942 
     135    -8209   -15812   -14519    -8331    -5803    -1251    20484 
   49381    66824    70522    65388    59004    47376    32482    37009 
   47901    32456    15276    26582    39070    30641    16646    11011 
   13314    10841    -2263    -8589    -2221      906     -839     -556 
   -4308   -16946   -36196   -57173   -65942   -53529   -27138     9454 
   43345    46062    21951     2501    -1349    -1055    -9787   -18585 
  -12144    -9115   -25151   -37250   -35246   -31174   -19235     6204 
   25875    16892   -11387   -23548   -14484    -2021    20285    40958 
   26896    -1699   -11367   -11922    -6773     7171    10850     6124 
   19163    44212    58661    71045    81902    58540     6943   -25189 
  -27298   -23713   -30079   -43421   -48340   -43396   -40614   -27639 
    2058     7557   -15252    -8881    27246    47159    55155    73301 
   87629    74945    43666    27179    30716    20028   -12768   -30958 
  -24847   -23303   -30703   -31015   -26623   -25251   -29260   -41373 
  -53059   -58740   -74843   -99888  -107784   -95249   -72715   -47272 
  -30729   -22184   -13484    -6300     1442    15796    34928    49938 
   51231    41039    36529    45769    60581    75368    74487    46059 
   15493    -3488   -14908    -2241    16187     8362     8607    35536 
   45648    31670    22249    12981   -16386   -56536   -69398   -50614 
  -40049   -41213   -33963   -31183   -41518   -46187   -24410    20467 
   50264    33579   -11975   -50344   -70020   -72440   -56911   -32220 
  -18563   -30384   -54099   -55706   -27205    -3089    -7450   -18695 
  -16985   -10836     3827    32153    42429    24734    14201    10550 
    1565    16312    45430    45508    33199    35024    28067    10301 
   16633    32421     9167   -31072   -43585   -47799   -51320   -31901 
  -15914   -32821   -58469   -58118   -28838    -6624    -8486    -6915 
   -7663   -21063    -6281    29376    34503    21665    21471    22772 
   19519    19931    13374    -4651   -17782   -26605   -29605   -14031 
   -4794   -13726    -4611    14826     6748   -13492   -22955   -36503 
  -54627   -53868   -42499   -39410   -31635   -16054    -8174    -6292 
   -5121   -11615   -21467   -13040     6225    -2375   -28507   -20067 
   11964    11418   -10308    -4756    10571     6300    10635    31813 
   36267    22281    11192     5064     3461    17326    36459    28198 
    1670    -4279     2663    -1204    -9738   -17012   -20532   -19536 
  -17580    -4178    12325    10544    13440    30795    26446     4804 
     -63     5659      702    -8552    -4697     3733     2034    -2803 
   -3458     6255    28851    49241    50961    28696    -1977    -9351 
   14554    39822    38879    17070    -7978   -26614   -32653   -29215 
  -28038   -36348   -54114   -62811   -48325   -36244   -35166   -22063 
  -16968   -43155   -70066   -79568   -82046   -74239   -57565   -42495 
  -21914     3829    13622    14182    32498    55411    51659    30466 
   17551     6777   -13873   -24593   -11042     6310    16326    24797 
   22497    11049     6648     1595   -13117   -25389   -29104   -32179 
  -45110   -65485   -74059   -65045   -56338   -57463   -54057   -33135 
   -9611    -5346   -12520   -10662    -2001     4528    11880    15729 
   16047    25854    31129    12423   -10282   -21769   -27577   -18478 
    7569    40126    72383    81419    65606    55558    45926    30964 
   37572    48504    32459    11301    -1654   -13758   -13137    -4690 
   -2911    -2884    -9149   -22736   -31342   -36878   -41955   -43239 
  -47699   -66068   -91070   -96153   -76092   -42341    13410    73006 
   96159    93831    85197    60376    27745     6327     2827     9647 
   10969    17653    39884    47798    32296    13061   -14411   -43439 
  -47784   -34233   -25838   -33703   -52623   -54430   -31972   -15152 
  -11289    -9391   -20035   -39339   -40799   -27760   -19028    -9274 
    9237    25002    16134   -11574   -14348     7318    10735     5121 
    9291    10048    10763    13418    14229    18959    16575      121 
  -15309   -15316    -3895     1639     2098     3648     2251     4411 
    8707     8301    11630    15971     6921   -12340   -20042   -11494 
  -12460   -20846    -8365      510   -25569   -48381   -40518   -35134 
  -47873   -50600   -32285   -21945   -26279   -14923     3873    -2451 
  -22810   -37785   -47983   -44772   -26382   -12917   -10619    -4830 
    6090    12488    24891    50416    61476    44632    27282    33919 
   52502    50401    35035    36843    38873    22042     6362      253 
   -6372   -12746   -19472   -38435   -60758   -63044   -47034   -18055 
   15610    30037    32631    29594     3219   -14046     3138     9716 
   -3071     5630    22599     9098   -12616    -5689     6732    -1960 
   -8819    -9300   -23151   -31972   -21481   -17048   -34358   -50309 
  -33147     1486    20993    32435    38140    25130     4607    -7569 
  -12913   -17713   -11519    12913    25463    10048    -9695   -27138 
  -42258   -36122   -15082   -15963   -45376   -63513   -53491   -42200 
  -37118   -35570   -47688   -53292   -39312   -31427   -20831     4517 
    8511    -1492     9723    17426     2869   -14428   -28843   -35305 
  -24359   -11214   -14862   -29914   -44375   -45129   -18462    11960 
   11000    -4110    -7751   -13662   -30521   -39448   -26186      757 
   25940    38540    31413    13673     1569    -3524    -1100    10242 
   18686    12789    -8368   -30482   -30755   -16231   -15206   -23249 
  -15546      287    -2267   -16908   -19431   -16506   -22923   -20047 
    1753    14100    10605    11782    15559    14285    15205    19688 
   14199    -1079     3477    25981    25746     6607     3457    18324 
   30556    30608    26835    23227    15337     2968   -12684   -25705 
  -20571     6287    20068      787   -14912   -13712   -16770   -19452 
  -13887    -2807     7347     4337    -1219     6878    10494    -1906 
   -8114    -8197   -20394   -25556   -12126    -4912    -7096    -5777 
   -2930    -2540    -2039     4461     8022    -3866   -17049   -23702 
  -36394   -37051     4524    59042    69605    39602    18930    19321 
    8818    -6547     9401    30905    15765    -7138    -3200    11178 
   11233    -7728   -30349   -37877   -29511   -13487     3468     7771 
   -8299   -21555   -10231     8097    16300    20021    18229    11881 
   12620    12055     -121     -941    11478     3529   -13969   -14075 
  -15882   -21691   -12811    -9896   -20551   -15723     1958    10807 
    8781    -1699   -17904   -38810   -53650   -48886   -48066   -62611 
  -58978   -38609   -30057   -20016     4471    17198    10971    11554 
   15517     3817    -8220    -7027    -1347     4514     7536     7857 
    4417   -13010   -33601   -38455   -36039   -33874   -21343     -408 
    6623    -5455   -12149    -4973    -4337   -10017    -3169     4644 
