Origin Time       2011/03/11 14:46:00
Lat.              38.103
Long.             142.860
Depth. (km)       24
Mag.              9.0
Station Code      TCG005
Station Lat.      36.8061
Station Long.     139.9264
Station Height(m) 196
Record Time       2011/03/11 14:47:15
Sampling Freq(Hz) 100Hz
Duration Time(s)  300
Dir.              U-D
Scale Factor      3920(gal)/6182761
Max. Acc. (gal)   85.925
Last Correction   2011/03/11 14:47:00
Memo.             
[...]
   29108    16600     6795    -2570    -1381    19593    34841    24172 
    3087   -15435   -23097   -12737     4325    15167    20375    26053 
   31140    30331    25366    12583   -13390   -40102   -48725   -35749 
  -19055   -10481    -1323      511   -21882   -47329   -44105   -17904 
    4762     2921   -24735   -53225   -67611   -78380   -80864   -62467 
  -37405   -21182   -13252   -12017    -9248     1511     7632    -2353 
  -17408   -23290   -22996   -20987   -17021   -18605   -33827   -56439 
  -67652   -60828   -46143   -26013    -5858    -7923   -33342   -47925 
  -38738   -34939   -50868   -75411  -101127  -111017   -94219   -70185 
  -49996   -29429   -15815   -11270    -7211    -6117   -16539   -33932 
  -44739   -41884   -24863    -4701     -875   -10692   -14246    -6475 
    3133     4503    -1756    -8001   -14807   -28090   -52936   -82892 
  -95024   -85868   -78197   -76729   -70076   -58731   -45534   -28066 
  -11629    -1748    12021    25531    14608    -5951    -5237     1810 
     -89     4131    12577     4983   -21440   -48199   -58778   -56815 
  -51331   -47405   -53426   -59748   -48079   -34756   -38832   -40931 
  -25227   -11260   -13763   -14370    -7562   -19371   -46692   -52761 
  -27898     7306    29198    18805   -17267   -48915   -58769   -43081 
   -5888    27827    37282    23851    -5467   -30488   -29874   -10291 
   14345    39279    53981    47089    25833     8818     -569    -8715 
  -10148     4423    30131    44747    35404    16730     2309    -7086 
  -12325   -16628   -19463   -18743   -17813   -16715   -13517   -10617 
   -6998     1311     8732     7922     7222    15627    29169    46357 
   58807    44438     7341   -21030   -30462   -36654   -50697   -68780 
  -80764   -84276   -86247   -83572   -64323   -37719   -24899   -22061 
  -10744    12586    37250    54327    58355    45576    33592    45080 
   60296    46163     8143   -32186   -63000   -72393   -53930   -23339 
   -5091    -7585   -26555   -46364   -39176      651    33273    19359 
  -15501   -20142    -3940    -7618   -36571   -69566   -84752   -75858 
  -61566   -56278   -48938   -35496   -27900   -28046   -33002   -41994 
  -46999   -44057   -45526   -58357   -65966   -58558   -49213   -40686 
  -23909    -6342    -2686    -8335   -13800   -26440   -36378   -19542 
    5740     5672   -12915   -13601    20566    50526    35097     1423 
   -5700    11286    29481    32205     7801   -31247   -52029   -39494 
   -5473    30674    52758    52524    35773    15489     -826    -9313 
   -8450      655    17877    33906    34053    25115    24775    23227 
    -312   -30820   -39779   -27926    -3912    26221    37598    13264 
  -23535   -40745   -36135   -27233   -26397   -34883   -41310   -26727 
    4585    23181    25827    33297    39057    24345     -664   -10655 
    5746    32354    33615     5791   -14898   -18919   -23964   -23072 
   -8458    -1307    -9473   -17240   -24604   -37144   -45777   -49707 
  -55759   -56674   -48138   -36898   -20092     3780    24448    36817 
   41103    34895    12794   -20826   -36096   -10816    32612    55111 
   37936    -5735   -37277   -29724     2218    25698    38140    56508 
   71984    74510    70563    54837    33225    22474    13335     4625 
   18676    45835    55750    61367    76398    66711    30320     6861 
  -12760   -54336   -88090   -73627   -21980    20341    26851     9993 
   -5549    -6433      968     5819    11532    16848     5495   -20243 
  -34952   -33991   -33957   -38100   -41629   -42620   -31558     4844 
   55452    79113    58626    21751    -8194   -24368   -26156   -23726 
  -20414   -15249   -12166    -5626     9257    26981    39814    40892 
   33578    26003    16780     -313   -29966   -57103   -53366   -29166 
  -13774     1059    23324    34492    30966    28207    36626    44425 
   32725    13529    -3906   -38313   -83596  -117354  -133821  -119272 
  -78470   -57191   -72482   -88836   -80986   -61528   -43354   -31272 
  -38087   -53705   -58821   -63010   -60834   -42293   -36604   -44448 
  -28677     4956    28356    37314    25336   -12499   -43515   -29462 
   19324    60940    67413    40209     7266     3829    29813    44196 
   23329    -7595   -11546     9057    21739    20494    13886   -11441 
  -52153   -74200   -61228   -28156     2627    15529    11471     3400 
   -3989     -306    25660    40400     9030   -39133   -58808   -44869 
  -18971    -6113   -23039   -59637   -76555   -59281   -41100   -38554 
  -37146   -38403   -49119   -54868   -45251   -31951   -24304   -23075 
  -33222   -48536   -51373   -38352   -14767    14585    25836    -2319 
  -37907   -40114   -29849   -30901   -17827     3755   -12425   -52129 
  -64428   -52895   -40829   -31545   -38576   -59548   -60345   -33314 
   -6007    -3506   -17988   -14970     7371    19776    19746    25512 
   41225    51742    42123    19633      885    -6681    -1598     5006 
     747    -4940   -11409   -39871   -83059  -100846   -76637   -37206 
  -14665   -19946   -50659   -86596   -89888   -50730    -2214    33258 
   46879    30413    14721    25844    43131    58423    62025    24391 
  -28482   -38565    -5866    31013    48334    45443    41259    54493 
   73998    66499    25858   -18831   -54678   -82449   -87971   -69608 
  -43541   -28772   -44825   -75493   -76621   -44894    -8132    21043 
   35306    31131    16340     2692     3679    18923    34864    46543 
   50621    34130    -5822   -46142   -62347   -54186   -39361   -34934 
  -44206   -55567   -49301   -20205    14395    40486    58368    69599 
   69140    57253    38007    11211    -1439    22355    52114    51268 
   30259     6762   -15275   -29414   -36509   -41516   -40925   -40566 
  -51625   -59331   -43167   -24616   -37542   -62713   -58241   -29192 
  -11301   -17880   -37396   -57832   -65758   -53158   -34499   -15089 
   13087    26212     4696   -19942   -21445   -17968   -25355   -20012 
   15509    44748    36298     9963   -11812   -27285   -37410   -32567 
   -3889    29211    38940    10112   -48890   -76072   -43933   -27859 
  -54992   -57048   -21504    -5242   -24697   -37917   -23669   -10980 
  -10935    -9479   -16743   -44423   -84315  -109214   -84030   -28427 
     900    -5417   -23208   -35966   -44148   -56170   -55732   -28017 
    5027    25714    38310    53890    83989   108517    96114    71678 
   76975   103536   110681    70598    14891    -5723    -3145      592 
   17653    38375    40950    31106    19535    14821    29115    53489 
   57307    27944     -768     8183    38352    60260    63289    41260 
   12164    -5225   -18318   -40039   -70597   -77930   -49161   -22405 
   -8853     7450    14171    -3741   -34876   -58566   -65289   -55095 
  -21511    34403    78660    88917    83876    66871    25470   -24730 
  -59030   -65792   -50865   -36513   -33758   -30968   -14387    15008 
   41915    54712    47410    15510   -19879   -31842   -36227   -62936 
 -102171  -121099  -111744   -85185   -53508   -40694   -50201   -53204 
  -45715   -37611   -18940     6856    19456    12113     -881    -6179 
   -8376    -3077    16204    27155    15030    -5353   -21732   -32352 
  -32063   -12943    10312     -418   -42063   -63852   -47521    -9322 
   35754    56770    42146    26329    29167    40138    40710    21989 
    3917    -3739   -16614   -29104   -24195    -2080    26121    40454 
   34287    17634    -7653   -31605   -41753   -45374   -47994   -51476 
  -62679   -75055   -69339   -45855   -29884   -31319   -32809   -17436 
    6392     8357   -12691   -30318   -43769   -55266   -53490   -38784 
  -11094    25214    53236    68384    70425    55618    34387    14684 
   -6262   -20283   -16048    -2168    -5845   -29949   -39682   -24770 
   -8438     2552    19077    38488    35479     3260   -27481   -30022 
    2408    43260    44724    13016   -14979   -38147   -54139   -52846 
  -42010   -27255   -17033   -23952   -42983   -53916   -44468   -39572 
  -62739   -83150   -76276   -53895   -21846     -576   -12019   -30452 
  -26328    -6058     8324      496   -10257    11359    51788    75159 
   77276    65147    46468    27069     -969   -29880   -36716   -30302 
  -44270   -83320  -109584   -87745   -29717    12876     7886   -12910 
      23    40115    71237    78859    47903   -10127   -36427   -19911 
    2222    28978    64191    72307    28367   -35698   -74503   -81887 
  -71674   -62893   -69007   -77363   -75353   -55324   -12293    23672 
   25348    14052    20110    51863    93984   108034    74513    32297 
   22628    30653    35060    35605    27354    21315    26923    22479 
   10696    16698    28080    16394   -17344   -50245   -69407   -64518 
  -24664    14145     8158   -15541   -18403    -8193    10554    48629 
   91587   105827    76898    20091   -29659   -33616     6000    35812 
   22563   -24981   -90229  -134523  -123033   -80837   -46782   -30098 
  -35671   -54848   -62072   -59810   -69817   -81578   -68367   -32457 
    3835    25740    29356    17150    -1146   -21898   -54282   -82143 
  -71595   -40359   -29206   -28969   -12173    19258    40866    34123 
   10285    -9561    -8544    25200    62337    58261     9382   -61997 
 -114577  -113198   -81489   -68314   -88162  -119059  -134092  -123660 
  -87480   -36767    -4340   -18431   -59691   -77670   -62398   -40601 
  -18080    -1548   -11593   -29076   -25301   -19480   -27731   -36620 
  -44044   -46162   -16871    36527    51872    12018   -25519   -30996 
  -24037   -24985   -35595   -40805   -28737    -2127    15654    17597 
   30371    40453    21841     6230    15657    27996    23721    16184 
   35700    68672    82459    83333    79696    70361    58446    40614 
   19639     2634    -9478   -14874   -11313    -1722     5437     5093 
   -1737    -2523    19694    44493    42811    34666    44058    62831 
   75705    75586    62492    34290      824   -15418   -13674   -12294 
  -24101   -42016   -42053   -22465    -8780   -10093    -8940    10122 
   27349    22035    21214    34422    37584    32497    15233   -16556 
  -31057   -20373     3274    31865    37665    12209   -16626   -26013 
  -23291   -37307   -50445   -22155     8953     5222     9314    30661 
   27640     4305   -19113   -43484   -42842    -3851    22661     7221 
  -14715   -22032   -26398   -13771    25540    42564    16733      771 
   10822    13791     5757    -7561   -30124   -47683   -48271   -36726 
  -19672    -8124    -9317   -11792     -283    16550    14359   -12772 
  -46128   -62320   -52342   -29491   -16192   -14731   -12702   -15838 
  -27842   -28834   -19531   -23134   -35882   -47161   -64837   -78612 
  -64890   -32312    -6416    10543    20631    15118       32    -8000 
   -2228     8646    11751     6379   -12038   -44453   -68456   -71540 
  -52822   -17386     4578     3838     3483     4898    -8191   -40594 
  -71061   -77145   -68162   -53937   -47900   -68553   -87856   -75850 
  -43787    -4045    22089    16489     4247    19972    67803   110230 
  106651    77208    60713    44539     3438   -39147   -48381   -39971 
  -37854   -35792   -35355   -36930   -18275    13422    10884   -24495 
  -41374   -38611   -36504   -20827    -6530   -24017   -50187   -45543 
   -9047    23488    25244    10633     8583    21278    10819   -41452 
  -82920   -68361   -29834   -17413   -37280   -64548   -78249   -73802 
  -61924   -59481   -61492   -58161   -65153   -79659   -77238   -56978 
  -28322    -4294      101    -9427   -24986   -43090   -41814   -13361 
    8450     4391      293     7108     2463   -12204   -16107   -13203 
  -13347    -7233     9522    18029    13127    15306    16830   -10056 
  -48732   -59650   -48690   -51296   -69339   -77798   -74162   -69822 
  -61490   -46428   -27875    -7359    15748    45565    62929    37077 
  -17777   -58426   -60833   -33236    -7153   -11541   -46316   -73973 
  -70762   -58184   -43867   -24827   -26222   -45769   -45373   -22834 
   -6022    -6878   -23739   -40145   -28822     6244    32064    35829 
   23553      254   -20392   -25666   -15377     9168    43472    76533 
   95159    87915    58098    14583   -34250   -53635   -19036    29285 
   39712    13800   -15209   -32759   -44972   -45580   -32759   -30885 
  -47716   -64834   -75604   -74627   -49816   -20201   -18423   -28339 
  -10351    24209    40572    41919    42618    41163    31369    14154 
    6633    17112    38381    59873    55272    27041    18468    28177 
   22872     6919     -908     4205    14856    18282    12805     2890 
   -4420     2460    24673    53086    70618    62536    48025    50476 
   60225    75409   100355   111573    91427    50432    10309   -10431 
   -8829     6121    20937    24262    20772    13155   -11775   -45978 
  -63313   -55295   -25471    12156    37486    39125    15245   -21697 
  -50327   -55055   -41989   -26825   -11867    -6548   -14218   -12967 
    2310    16466    27269    41433    49080    39436    28524    21238 
    7477     2229    15059    22734      300   -43029   -72559   -76047 
  -65157   -46497   -26433   -10701    -3007   -16669   -43706   -54145 
  -58011   -76515   -85248   -62901   -23692    12643    31889    27204 
    9054    -4177   -13905   -30177   -39522   -34915   -26773    -5998 
   19748    14393   -16978   -39189   -37041   -18209    -5830    -6478 
   -4636      443      543    -2519    -3944    -2717    -2964    -6231 
   -3674    17567    52680    74061    62020    24315   -13908   -36914 
  -45419   -38788   -35125   -65751  -116901  -145906  -137373  -105271 
  -74489   -65071   -74689   -79783   -69917   -59521   -56410   -56628 
  -54182   -44081   -31223   -18804    -5827     1301    -2378    -8678 
   -2650     6961    -3302   -22618   -24937   -14955   -11607   -14095 
  -17680   -32260   -43809   -27053      392    16232    20320    10244 
     412    10195    25308    33801    49135    66201    55417     6225 
  -47365   -63399   -46172   -23416    -6775     4218     5898   -12621 
  -38342   -42093   -24806   -11442   -21030   -42724   -48337   -45382 
  -58483   -72998   -69421   -59240   -42065    -6904    24154    29806 
   17529   -11171   -44943   -51344   -33563   -23954   -25848   -19680 
   -9333   -17901   -36414   -42434   -41784   -34575   -18235   -16260 
  -35427   -56066   -69995   -73183   -61457   -42961   -31259   -29336 
  -18699     1198     5461     4681    19727    37819    50153    55919 
   45011    18544    -5106    -9010     1894    17006    43306    67540 
   60103    29591     2588    -6217     5162    17277    14583     7875 
    8651     9851     4534     1721     5453     7110     8863    11027 
     398   -13113    -6617     4952    -4164   -17562   -14342   -10046 
  -16497   -23167   -21472   -14398   -17145   -31381   -32914   -10907 
   22527    44453    32827     5935    -2642    -3148   -17826   -40210 
  -53020   -50547   -44005   -41591   -33075   -16578    -8637   -14326 
  -16831    -4240     9195    14309    17603    10441   -10436   -34555 
  -51039   -41506    -9324    16630    18614     1487   -18118   -34066 
  -42043   -35536   -29631   -34987   -45788   -65973   -87709   -91619 
  -80205   -64128   -49909   -37861   -18356     1492     -207   -25791 
  -55553   -66143   -48725   -15935     6403     3004   -13844   -26732 
  -33265   -35555   -33456   -31456   -32211   -27175   -19056   -15310 
   -6170    -2610   -23644   -46914   -48033   -31950   -16023   -19175 
  -38851   -48447   -30015     3320    22016    21348    17294    10459 
     217    -1552     7640    19876    31037    36646    27850     5369 
  -19339   -32975   -27647   -14553    -9610   -11129    -8724    -4043 
   -6507    -7684     -695     1716     4241    23202    47491    56376 
   49567    34256    14565     4705     6821     -658    -8014     7316 
   23218    30068    45897    55978    46120    37931    46305    61035 
   66463    55877    39134    36536    51348    64086    62425    47554 
   23737     4753     5308    20837    34426    37184    30397    22537 
   21690    17545     1412    -8593      375    18756    36448    44231 
   34882    19525    15023    17628    16577    15249    14188     4458 
  -10661   -20357   -23667   -25695   -29380   -32664   -35173   -36676 
  -31291   -21569   -15559   -10847    -3089     2059    -4780   -10586 
    6227    22397    11674    -1226    -2489    -1640     9061    26319 
   34746    32563    20535     3454    -7734    -6101    -2963   -20047 
  -41078   -37146   -23015   -18437   -24453   -34444   -32019   -22666 
  -30350   -50336   -55580   -37999   -21206   -20898   -25516   -35661 
  -49806   -44110   -27569   -24967   -24844   -22868   -27129   -20648 
   -4202    -9245   -39143   -67279   -75914   -67553   -54070   -44530 
  -49302   -68119   -76240   -63780   -51854   -49021   -47010   -50581 
  -65345   -74105   -61172   -38178   -19647    -3353    10748    12102 
   -1983   -19533   -29262   -33045   -37287   -44022   -51915   -55481 
  -56801   -62339   -65981   -59079   -43197   -34177   -39027   -36346 
  -22543   -19511   -25187   -27132   -29362   -34399   -35781   -33834 
  -37509   -42230   -39354   -39069   -40918   -31595   -25128   -38521 
  -51522   -44603   -36484   -43020   -51974   -54451   -51561   -45743 
  -41126   -41323   -46876   -46027   -31142   -15840    -7686    -4459 
   -9679   -17640   -22009   -28803   -30727   -16385      113     5079 
    2097   -10543   -28473   -29803   -11608    -2817   -19607   -43707 
  -60228   -69719   -68762   -60724   -52860   -40589   -24662   -11349 
    3605    17217    18437    13501    12096    13332    18905    28243 
   32535    23053     1511   -19065   -29465   -28030   -15068     6312 
   26854    30179    11360    -9842   -13785    -3603    11078    30694 
   47300    44490    27645    13608     9253    17096    28819    26463 
    4866   -19835   -27796   -17171     1894    18875    22211    14031 
   11106    14875    13513     8215     5327     3930     6115    13144 
   17961    20676    28253    36140    36531    37781    50729    62641 
   57464    40668    19595     -438   -12422   -19546   -21615   -11108 
    3004     1057   -11786   -11607    -1695    -2426   -11953   -21412 
  -31449   -40874   -43435   -34361   -21038   -15916   -20688   -29682 
  -33104   -24066   -11109    -5588    -7533   -15673   -27970   -36304 
  -37527   -36313   -37210   -38867   -38072   -35372   -29635   -28103 
  -41474   -58519   -67146   -67973   -53577   -25766   -11265   -23783 
  -39897   -36670   -21174   -10678   -14065   -22607   -18719    -7954 
   -7761   -14276   -16432   -16974   -19005   -16429   -12175   -14038 
  -14002    -9544    -7155     3500    24872    36968    34452    29945 
   20016    -8595   -37241   -37574   -23049   -11186     9082    36092 
   50869    51776    49504    44811    43222    54566    63734    56862 
   47165    45032    45580    43817    44186    48461    49053    47168 
   49641    53866    52938    45590    35526    28126    30203    36330 
   31998    20767    17172    19329    15565     9512    12069    19193 
   21554    19852    21945    28297    27543    19002    11750     1511 
  -13140   -22198   -27106   -26291   -10457     5029     5811     4673 
    6363     5556      710   -14968   -41887   -63928   -61501   -36419 
  -15784   -15658   -27802   -41973   -54627   -63371   -61298   -44918 
