Origin Time       2011/03/11 14:46:00
Lat.              38.103
Long.             142.860
Depth. (km)       24
Mag.              9.0
Station Code      TCG002
Station Lat.      36.9903
Station Long.     139.8029
Station Height(m) 619
Record Time       2011/03/11 14:47:18
Sampling Freq(Hz) 100Hz
Duration Time(s)  300
Dir.              N-S
Scale Factor      3920(gal)/6182761
Max. Acc. (gal)   104.820
Last Correction   2011/03/11 14:47:03
Memo.             
[...]
    4948    -1487   -11258   -17777   -18329   -15497   -12255   -10669 
  -10563    -9548    -8905   -12429   -18998   -23199   -23587   -24764 
  -28964   -34778   -41445   -45011   -40563   -29421   -15335      251 
   15374    26592    33542    39201    44792    48652    48174    42560 
   34239    25308    16785    11976    12462    13731    14147    18952 
   26952    30211    28293    22826     9468    -9299   -22482   -26586 
  -26655   -24946   -20831   -17698   -19984   -24930   -25072   -18417 
  -10552    -7415   -10796   -19499   -30402   -39405   -44836   -49090 
  -52263   -49710   -41778   -34942   -33048   -35199   -37067   -35202 
  -31210   -26885   -20817   -13458    -7727    -3105     3604    13084 
   23521    32950    40510    45209    45438    42709    39573    35253 
   30261    26202    21613    16977    14328    10906     3620    -5089 
  -11560   -15100   -15194   -12340    -9913    -6609     2565    15676 
   27563    36451    41260    40447    32859    20339     8497     1162 
   -2281    -3469    -2420     -744    -2701    -7668   -10844   -11506 
  -11149   -10471   -10878   -12015   -11267    -9217    -9093    -9292 
   -7492    -9121   -17060   -24521   -29091   -35222   -40239   -38195 
  -32324   -28616   -28010   -29422   -29859   -24798   -14800    -7759 
   -8493   -10585    -6870     1085     9468    16192    18452    15493 
   10923     7799     4737     1133     1569     5455     3345    -4624 
   -8318    -7357    -5262     2147    15517    27103    30307    23933 
   10641    -3694   -12743   -16194   -18829   -22203   -24142   -24516 
  -25837   -27702   -25690   -19088   -12054    -5819      780     5298 
    6210     7346     8643     5866      883    -4240   -12286   -21886 
  -27103   -24860   -18197   -14045   -15098   -16996   -17629   -19292 
  -20188   -19625   -22780   -26255   -20314    -6851     7163    18948 
   22837    15258     3857     -662     4463    14149    22204    24645 
   19876    10074      118    -6255    -8283    -7192    -6597    -9638 
  -13828   -16406   -18112   -18053   -14353    -7827    -2343     -692 
    -722     -311     -560    -2729    -6428    -7972    -2896     6267 
   10648     7481     1919    -4403   -11197   -14742   -17080   -23312 
  -29852   -31698   -32638   -36276   -38228   -35485   -31734   -29319 
  -26829   -22303   -15002    -9945   -11550   -14030   -11839    -6734 
    -636     4403     5808     6075     9819    14821    15410    12480 
   10653    11449    13743    14806    11786     3384    -9731   -22611 
  -27263   -20286    -7655     -433    -3629   -12439   -20498   -23698 
  -21492   -17862   -13306    -5159     3880     7984     3555    -6082 
  -10978    -8119    -5638    -7564    -7289      732    11640    16427 
   13632     9061     8567    13855    19734    22523    27639    35832 
   39917    37951    30051    16508     4362    -3288   -13517   -25261 
  -27687   -23622   -24566   -28815   -28718   -24178   -19984   -18726 
  -20930   -27354   -32511   -28736   -17964    -7401    -3397    -6661 
   -9998   -12023   -18261   -24154   -22078   -16696   -12633    -6512 
    1721    10406    20638    27046    21228     6899    -3984    -6214 
   -3861    -4430   -11928   -20930   -21883   -15259    -8943    -3571 
    1696     2309      178     3544    13973    24426    27870    23928 
   17452    13984    15254    19354    23479    23311    17202     6596 
   -7340   -18601   -22007   -20762   -18658   -17603   -19345   -24555 
  -30959   -32290   -27441   -22875   -20724   -16539    -8271      328 
    4928     4411      583    -3798    -8002   -12726   -19081   -26702 
  -30255   -25562   -16935   -11161    -9451   -10025   -11449   -10564 
   -6520    -2736      118     2448     2734     1542     -456    -2788 
   -3097    -1225      580    -1282   -10596   -24673   -34637   -34074 
  -26094   -18940   -14193    -8881    -2766     1692     1498      143 
    4824    14009    21478    25596    24812    16184     3969    -3299 
   -4710    -3839    -1080     2347     3119      772    -1697    -1093 
     553    -2655   -10429   -16839   -20017   -23964   -31539   -38853 
  -40271   -35255   -27702   -22330   -19769   -16162    -8979      109 
    7652    15061    26649    37395    39393    36408    35725    36101 
   31532    21464    11526     5879     6199     9649     8336     2587 
     409     2462     6555    13362    19154    21364    21799    17371 
    6642    -3060    -6940    -8652   -10963   -10904    -8327    -5392 
     253     7484    10216     7788     4644     1986    -4049   -13887 
  -22368   -27762   -32913   -38599   -41491   -37991   -27800   -14115 
   -1994     6227    12346    17231    19083    17383    15201    15189 
   16196    15443    10335      953    -8054   -11937   -12226   -14971 
  -21482   -28162   -33317   -36235   -35024   -29665   -23630   -18832 
  -14701   -14464   -19550   -22917   -19757   -13247    -6578    -1265 
    -646    -5300    -9318    -7310     -508     5841     8019     6144 
    1285    -6607   -16741   -26108   -30748   -27645   -16244    -3235 
    1930     3453    10872    20271    25616    27192    24027    18257 
   16337    18687    18965    12507       -1   -13020   -17643   -10050 
    3739    17476    27239    26207    12599    -5915   -21255   -28068 
  -26555   -26542   -35690   -48803   -56560   -55453   -45626   -26771 
   -2360    17485    26258    29812    34778    37440    37001    38942 
   39020    32213    26736    27018    22505     6645   -11412   -23853 
  -31950   -34748   -33664   -36330   -43825   -50355   -51796   -49592 
  -49909   -53750   -54631   -48376   -36651   -25302   -20232   -20313 
  -19172   -14155    -6908     1207     9053    14911    16263    13089 
   11807    18982    33033    45092    48278    43081    32976    23017 
   18835    21792    26819    26476    21203    17257    16135    17080 
   18378    16542    12252     8116     5218     4552     4096      134 
   -5819    -5985     2874    11229     9799     1527    -6607   -12852 
  -19259   -26000   -31939   -37629   -42381   -47351   -56678   -66108 
  -67490   -61445   -51766   -41713   -34452   -29550   -25047   -17724 
   -7438    -1079     2528    13066    28620    38992    38337    26179 
   10717     3051     4002     5625     2658     -370     3841    13941 
   22482    24564    21890    19650    19261    19499    19721    16655 
    4646   -17197   -40107   -55175   -62824   -64213   -57929   -46630 
  -34055   -21415    -7826     6788    17672    23703    28196    27209 
   17660     5027    -4419    -8937   -14438   -25671   -36252   -37745 
  -30326   -21417   -14327    -5180     6598    18045    26541    26877 
   15717      139    -8405    -9086    -8380    -6924    -3243    -1227 
   -5125   -11425   -12596   -10900   -14206   -19977   -24911   -35513 
  -50996   -57282   -49131   -38145   -31576   -27339   -23777   -13327 
    8107    28754    40329    46519    49488    47754    41949    33199 
   20106     2263   -15736   -27019   -30353   -29318   -22972   -10238 
    2410     9138    10540     9329     8507    11937    20047    26058 
   25191    21800    19919    18442    15897     9891     -262    -7889 
   -9702   -13233   -21462   -29614   -37818   -48287   -57250   -57471 
  -46142   -29181   -14975    -6101     -701     1977     2728     5177 
   12768    25073    37563    44980    44391    38039    32900    30926 
   29050    28596    30390    30318    25193    15450     5461     -434 
   -1740     -143     -299    -5564   -10562    -8216    -2696    -4002 
  -10824   -14159   -13281   -12123    -9862    -6370    -4004     -855 
    3951     3588    -6944   -21398   -30241   -33777   -37156   -39088 
  -36519   -30542   -24874   -22181   -20135   -17837   -18605   -22724 
  -27214   -25649   -15393    -5396    -1846    -1014     4007    17130 
   30378    34731    37078    44413    48610    42384    28659    11629 
   -4027   -12927   -17363   -23605   -27585   -23959   -22266   -28710 
  -33510   -30661   -23626   -17882   -21239   -35987   -53808   -65584 
  -69111   -67688   -63961   -58625   -51507   -40375   -24233    -4058 
   14926    22546    19343    16484    17729    22027    29331    34771 
   34918    36990    44690    49358    48902    48382    46886    44259 
   40550    32644    20570     7179    -3664   -13078   -27466   -45095 
  -58397   -64342   -61313   -50862   -40993   -35696   -30184   -19973 
   -6479     4766     9250    10336    13891    15280     8882     1974 
    1818     7024    16399    25836    24964    12923     3530     6630 
   17224    24744    24003    17419    11649    11678    15542    18096 
   19947    23683    26732    27677    27368    19285     -389   -19577 
  -32326   -46324   -57437   -55649   -45581   -36470   -26395   -12504 
   -4172    -3322    -1668    -5365   -18879   -31193   -37786   -39872 
  -36125   -29874   -26286   -23849   -16482    -4798      882    -5838 
  -15606   -14154    -1242    14581    28260    34963    33896    34746 
   44103    55539    61069    60783    60005    59730    52192    34975 
   18188    11436    17072    27096    26129    12865     2950     4023 
    7788     5504    -1046    -7162   -13294   -16978   -14256    -7757 
    1093    13414    24609    28033    26664    28550    28467    19313 
    8622      978    -4323    -9058   -23399   -44723   -58319   -65946 
  -71735   -69360   -60256   -51942   -44409   -36269   -31001   -29101 
  -28094   -26333   -22440   -20254   -21531   -18389    -8810    -2380 
   -4257    -8852   -10691    -8740    -3655     1497     4902     7003 
   10354    18613    27818    30478    25833    20161    20286    23468 
   22933    18184    10440    -1343   -14145   -16434    -7319    -4266 
  -13242   -25546   -37488   -45388   -45803   -43999   -44450   -39912 
  -22560     -477    13331    16332    11203     1017    -9500   -14089 
  -11053    -4019     7070    18458    18519     7063    -2660    -3357 
    -543    -1919    -8106   -15494   -22078   -28701   -38388   -51304 
  -58897   -54655   -45483   -39617   -36694   -34508   -34083   -34602 
  -32539   -31763   -37639   -46930   -56711   -64507   -66910   -66539 
  -65582   -59944   -45133   -23980    -6206     2013     3383     6468 
   15967    24811    26207    23870    20219    13321     6061     2286 
    2926     7408    11765    13999    14949    10728     -489   -10625 
  -12524    -7376     2060    11044    12251     6444     1099      974 
    7169    14945    16337    11480     6004    -1091   -10536   -15967 
  -17107   -17402   -13176    -6996   -11309   -26906   -40479   -46908 
  -49529   -45083   -33820   -25545   -25207   -29414   -33685   -37274 
  -38534   -32625   -20012    -7144    -1222    -5512   -18278   -36316 
  -52871   -65151   -77312   -83559   -77534   -68205   -61941   -53752 
  -38072   -15824     3892    14875    21139    26788    31432    33380 
   32694    33591    36997    39204    40716    40778    35161    25849 
   16101     5597    -3449    -9598   -13834   -14527   -11661    -8460 
   -5151     1508    10974    17408    21814    30391    39829    46395 
   54912    65842    74057    77874    77770    71695    57029    39663 
   28224    19610     7367    -9338   -27107   -38361   -42424   -44684 
  -42529   -31790   -15356    -2351    -1564    -9741   -18374   -22910 
  -19228    -8804     2762    13613    19022    11338    -6308   -21823 
  -31428   -37412   -38248   -36140   -34950   -32887   -27600   -17531 
   -5063     5797    16910    24300    19887     9580     5244    12179 
   28059    44108    54236    54121    37442    11350    -5627    -9589 
  -10406   -11936   -13724   -19712   -30889   -40940   -45447   -44780 
  -40128   -31641   -19314    -8645    -6029   -12006   -25338   -41125 
  -56268   -71374   -79555   -80184   -83029   -86498   -81752   -68731 
  -56955   -49968   -32238     6265    51976    92237   125486   149122 
  156930   145890   124412   102584    82878    69020    61538    54944 
   47756    37990    21974     3610    -9977   -17584   -20697   -17737 
   -8246     -507    -7495   -30418   -56924   -76140   -83564   -81090 
  -71691   -54918   -38650   -32170   -30986   -30668   -33101   -32897 
  -21275    -1334    18815    39741    62017    76608    74054    56838 
   35784    18297     8822     6233      785   -10631   -22687   -31326 
  -33063   -27152   -14442     -705     2751    -2175    -4655    -1473 
    8318    22655    36487    49142    59305    64769    67650    70202 
   70767    66806    56827    37760    11313   -12474   -31247   -52087 
  -71241   -78380   -76282   -73212   -71492   -72509   -76295   -79731 
  -79698   -73508   -63512   -57140   -54072   -49256   -48711   -58459 
  -64808   -50363   -18603    15924    46387    73430    93911    97645 
   85006    72718    71359    74703    71684    56296    25430   -20631 
  -65212   -81200   -64557   -35751    -9892     2267    -7971   -28500 
  -41645   -47328   -51310   -55708   -57217   -46204   -20679     8437 
   28465    33654    26773    11107   -11597   -33448   -45160   -45158 
  -40599   -41961   -52044   -66162   -79952   -89585   -92666   -91409 
  -87224   -73981   -52808   -39345   -37489   -32262   -14908     4716 
   17237    30649    49553    65437    77333    89660    98204    93913 
   76188    55030    33522     5227   -29859   -62918   -83759   -90144 
  -90673   -90150   -85284   -80193   -79456   -76415   -69270   -58965 
  -38954   -10511    14720    28778    36539    45411    49314    47564 
   51780    63665    81375   105788   130231   146863   155878   160706 
  159997   151947   134845   104264    65391    28891    -2970   -29619 
  -48402   -59152   -65469   -71896   -74883   -68429   -58225   -46928 
  -29684   -17150   -22905   -42204   -61550   -68467   -61950   -49058 
  -28097     1952    30697    49728    60009    61037    45979    13918 
  -20453   -37767   -34984   -27166   -29186   -42197   -57957   -68909 
  -67349   -50566   -28281    -9785     2216     7922    13534    19027 
   17578    18864    30092    35987    32746    27782    17102     5526 
   -2093   -15234   -26488   -27214   -33148   -47792   -56093   -53362 
  -42895   -26230    -5444    12075    19120    23382    35288    49750 
   60674    66457    63255    52053    38207    24466     6168   -14958 
  -18308    -1275    10930     8098    -4005   -20807   -33450   -35352 
  -31521   -30147   -30319   -27127   -23159   -20355   -19352   -26797 
  -37741   -35860   -16790    11895    38955    55898    61116    54307 
   36668    19624    18747    26385    20631     7086     1649    -2627 
   -9970    -9695    -1727     5426    12664    24391    37577    43056 
   35706    19655    -3137   -31784   -53989   -57616   -42235   -15802 
    6475    14542    14009    16483    29641    49109    63046    69849 
   73840    76552    80534    81215    69207    50300    41031    49239 
   66879    78087    82367    89134    91049    81505    64974    39131 
    6321   -26407   -56455   -74425   -75978   -67999   -53778   -37499 
  -26692   -23717   -24199   -19423    -3524    20107    40635    45549 
   28396    -5238   -40310   -65357   -78974   -79964   -67153   -43674 
  -11340    23074    45796    47209    27099    -1951   -26789   -47326 
  -68239   -91569  -113326  -128667  -137461  -134644  -115177   -84240 
  -51423   -28640   -23287   -29152   -39050   -52561   -63521   -61523 
  -47061   -29630   -15720    -7314    -3318    -1515    -1760     2157 
   21122    50439    72606    83121    91869    99470    94355    71280 
   36667     4905   -10438   -12679   -18160   -32652   -45391   -46413 
  -36013   -18185     2229    16301    16677     6791    -6018   -18848 
  -27515   -28012   -20276    -3932    16185    32620    46356    53981 
   45801    26340    10414     9502    26751    51170    69213    76065 
   68016    49740    35836    28782    23359    18140     9722     1575 
    -379    -2345    -8988   -18514   -30539   -44381   -58772   -67334 
  -64858   -55637   -39934   -19101    -4339    -1955   -11377   -23373 
  -25252   -23431   -26977   -25980   -16907    -9814    -7420    -7934 
  -12696   -23721   -39911   -52722   -56578   -55820   -52744   -46908 
  -39851   -29651   -14249     1142     8779     8029     4849     1439 
   -4286    -8479    -2973     8857    14404    13151     9679     1482 
   -7309   -11262    -9708      641    12571    17469    21193    25243 
   30209    41581    51559    50577    43754    40230    40850    41111 
   42469    44412    38497    24835    13217    10231    12973    11737 
     -38   -23833   -53673   -76827   -89728   -95019   -91264   -84396 
  -83618   -89399   -99711  -108335  -109248  -107690  -105423   -95165 
  -74134   -42869    -4816    30412    52798    56658    44824    27173 
   14613    17650    34752    47405    43197    28983    18954    18143 
   21570    27870    33118    28644    16950     5272    -1129      659 
    5847    11424    14459     4491   -17938   -35912   -41678   -42958 
  -41691   -37143   -35242   -28493    -6284    19377    32943    30906 
   22058    23116    34363    42318    40526    25017     1754    -8996 
   -2264     8646    18061    26330    27319    17729     6833     -188 
   -8252   -14071   -18484   -33532   -54254   -64822   -58869   -38884 
  -18126    -8663    -9759   -15020   -18227   -17418   -10765     2811 
   14218    15280     6587    -8284   -22492   -32572   -37629   -33728 
  -24725   -15909    -2158    17047    31937    33976    19741    -4486 
  -20092   -11812    12551    27020    20562     7961      924      387 
    4721     4555    -6605   -22492   -32675   -30058   -17352    -4851 
    2584    11560    27022    37066    30011    10680   -14181   -35901 
  -40932   -32307   -28035   -34777   -43052   -42857   -34189   -24934 
  -21627   -20249   -11768     -303      301   -11393   -23203   -26217 
  -24466   -25546   -25028   -16198    -6984    -6777    -9425    -5994 
    1558     8882    14133    15675    13198    11087    17298    29004 
   37895    46614    51835    41995    20586      521   -13156   -23756 
  -33094   -41594   -54093   -67762   -72152   -65972   -58248   -58016 
  -61715   -56444   -35227    -2971    24967    35470    30272    22633 
   20465    19207    18532    21577    21751    14312     2430    -9040 
  -13911    -9479     -245     5705     2922    -7224   -18941   -26809 
  -28782   -23540   -13045    -6744    -7038    -5659     1247    10903 
   18550    22778    24426    20915    14472    11469     9510     4373 
     875      909    -3452   -13956   -20683   -15000     -508     9318 
    6628    -4958   -16493   -19489   -15332   -11395    -8016    -2326 
    7831    20739    22808     5463   -14590   -15109     5239    31666 
   45577    35831    12253    -5908   -10409    -5022      764     3430 
    7444    12089    10452    -2723   -24686   -43210   -47632   -37114 
  -16728     8072    36050    65393    81460    70744    41618    10922 
   -9034   -12973    -7147     2147     9263     2296   -17342   -31771 
  -33062   -27754   -19480    -9071    -2117     3653    13259    17206 
   15100    18991    21168    12416     6061    12091    22360    25344 
   17773      604   -23255   -42018   -46285   -42087   -35834   -24139 
   -9862    -5591   -13326   -20283   -14320     1952    10966      325 
  -23124   -40376   -37653   -20571    -5135     2006     6825    17697 
