Origin Time       2011/03/11 14:46:00
Lat.              38.103
Long.             142.860
Depth. (km)       24
Mag.              9.0
Station Code      TCG005
Station Lat.      36.8061
Station Long.     139.9264
Station Height(m) 196
Record Time       2011/03/11 14:47:15
Sampling Freq(Hz) 100Hz
Duration Time(s)  300
Dir.              E-W
Scale Factor      3920(gal)/6182761
Max. Acc. (gal)   290.393
Last Correction   2011/03/11 14:47:00
Memo.             
[...]
   93050   124761   144095   143653   125718    96272    56272     4206 
  -54888  -107153  -137255  -139471  -123538  -103341   -83309   -63385 
  -46198   -38766   -48884   -71001   -86246   -82933   -66958   -52946 
  -46048   -34195    -4386    40573    85912   118877   135391   139589 
  139358   132828   109703    71532    31688     1134   -15974   -20651 
  -17670   -16181   -22244   -32514   -42179   -49881   -54756   -56804 
  -61900   -76315   -92383   -96476   -88059   -76311   -66465   -54583 
  -34753    -9420    14179    30791    39960    49673    65769    78649 
   74784    55734    37705    35173    46786    56358    50413    32216 
   12914    -2709   -16610   -29655   -39185   -42521   -38473   -31661 
  -31752   -42297   -57438   -68333   -71246   -68959   -62659   -53823 
  -47850   -44703   -41815   -40213   -37317   -30026   -20636   -10140 
    4877    25161    44066    54802    57953    56304    50857    44476 
   39191    33548    28009    25312    26306    28337    26883    21436 
   15326     9552     3119    -2999    -7551   -11684   -14040    -8693 
    6749    25857    41255    53255    64003    71284    71215    60264 
   40585    23796    20887    31259    43103    43343    31598    22013 
   26636    40003    45184    32585     8311   -15944   -38809   -67990 
 -105902  -143335  -165588  -168063  -162136  -160355  -162778  -159528 
 -143177  -114889   -80908   -49068   -23856    -5957     3036     4355 
    5379    15957    42503    78811   107592   114008    93087    52651 
    8045   -32237   -66048   -87472   -93038   -91985   -95199   -99173 
  -91141   -64313   -24908    12928    38972    52070    55115    50667 
   40670    25157     4216   -18369   -37053   -45761   -40174   -24906 
  -12687   -13070   -27319   -53307   -87841  -125122  -154700  -163076 
 -144349  -103128   -49718    -2231    26507    43743    58624    67802 
   68972    65076    54835    40505    33249    38646    57365    91104 
  133501   171738   193069   189773   168893   142055   112180    83257 
   59485    37170    15879     1242    -6393   -11741   -21775   -43635 
  -72752   -94607  -102564   -98612   -85189   -65200   -37164     3205 
   51780    99876   138888   158397   158588   152674   146870   135505 
  113024    80513    42294     1591   -37318   -71863   -99392  -114823 
 -118374  -110288   -91578   -68149   -39970    -9133    14829    28564 
   33272    29108    17199     1677    -9814    -9810     3945    24576 
   40938    49432    57211    73138    98777   129099   154733   166160 
  160351   138176    99459    45099   -17172   -73681  -113917  -133785 
 -135370  -129479  -125276  -117490  -102136   -87104   -76257   -71680 
  -75339   -78609   -78068   -79568   -79881   -72405   -54408   -19391 
   34511    91968   132996   151835   154230   144673   125771   103069 
   78555    48027    12921   -20089   -47164   -63893   -63471   -42216 
   -7009    27444    50668    56659    40724     9643   -18780   -34213 
  -33505   -15072    10584    30885    43420    47056    45173    43429 
   37773    25642    13429     4095    -4126    -8010    -5382    -2135 
    -767    -1729   -10834   -30746   -59193   -92349  -125918  -154276 
 -170765  -175161  -172203  -163976  -147215  -117536   -75848   -22955 
   37685    91433   124425   133571   124903   109828    97707    89124 
   80414    77609    87641   106770   129835   145967   145342   137384 
  134168   132681   124082   100440    59486    12588   -28462   -62174 
  -89226  -110775  -128345  -143087  -155720  -163359  -159532  -142473 
 -118617   -88443   -48431    -6547    29146    58711    77310    76923 
   56903    21529   -23675   -68496   -97835   -98490   -63690      783 
   75593   142135   186492   199166   185127   154671   107075    42567 
  -22018   -66136   -83063   -81843   -78852   -80924   -79095   -63092 
  -37204   -17329   -14043   -24583   -42964   -66830   -88883  -100894 
 -100361   -82687   -51843   -29847   -34592   -64988  -108227  -146864 
 -167064  -171850  -175697  -180746  -180337  -172747  -150822  -108455 
  -53881     1668    52039    94188   121539   126975   119631   114623 
  108482    90565    60802    23109   -13871   -36528   -40103   -26126 
    4579    46040    84541   103284    96626    72479    38300     1829 
  -25867   -39800   -46126   -49973   -45446   -28938    -5853    18576 
   41621    60717    72338    76119    75600    72287    69886    73683 
   81490    87345    82563    57350    16151   -21613   -39325   -33147 
   -5368    37475    77293    94942    82446    43957    -2560   -35416 
  -45820   -41188   -34802   -36978   -51914   -74213   -91807   -95556 
  -85678   -66328   -40424   -20212   -24039   -53793   -97995  -144166 
 -177700  -195453  -204228  -199890  -175917  -135169   -85754   -37617 
    5982    48933    86957   103227    87861    57003    36741    30650 
   23641     7836    -8687   -11426     4278    27577    42117    44340 
   44877    47475    46841    40715    31200    23853    21627    18580 
    5770   -16333   -34078   -35152   -23637   -15704   -23730   -50550 
  -90825  -128643  -149428  -152371  -143591  -124134   -86030   -31368 
   19283    48353    52651    42473    35023    40713    53346    56400 
   45137    30839    24133    28071    42706    70467   110736   152532 
  181958   188749   168078   122121    58641   -10126   -72189  -117491 
 -140071  -140052  -119599   -88900   -55793   -13934    30703    59295 
   66681    54769    24231   -15366   -50789   -77664   -92228   -87894 
  -66316   -39673   -25158   -25858   -26106   -19134    -9499     4005 
   22862    44523    67232    86822    94510    81970    49407    11298 
  -17938   -38986   -52845   -56772   -56138   -56325   -62528   -82749 
 -108800  -115353   -87133   -31680    31772    87162   129785   158340 
  166575   146784    95054    28144   -22797   -47375   -55836   -58478 
  -61232   -63007   -57603   -46612   -31960    -3861    37402    73003 
   87865    80838    63967    58062    71494    88863    92667    82347 
   72229    76891    92614   102767   101950    92816    69796    30830 
  -15490   -62752  -104717  -132642  -148254  -155865  -147614  -121246 
  -83461   -36395    10885    46139    66725    65404    31424   -23637 
  -67789   -78037   -47029    19252    96973   163320   208544   225185 
  211281   177557   134898    88727    50827    26709     6624   -10993 
  -18509   -13415     3308    30656    65516    94744    94439    50266 
  -24640  -101766  -155622  -170969  -149793  -106886   -57819   -15505 
   13909    36395    66191   114130   173446   224048   247983   231746 
  177430   102703    19287   -62174  -122618  -148261  -140281  -114437 
  -93717   -87643   -89970   -97762  -107378  -112464  -114676  -114222 
 -108111   -95349   -70468   -32343    13433    63420   109309   145430 
  172480   180546   164814   134431    89623    35507   -10725   -47238 
  -80852  -110044  -123607  -108240   -72150   -32297     7239    31741 
   23200   -19355   -91305  -167382  -209637  -213096  -191205  -143899 
  -78745   -15703    41103    90046   117036   123609   121979   109661 
   78195    21260   -57357  -135128  -186275  -198555  -180076  -149437 
 -119013   -97236   -86798   -88023  -108246  -142354  -169301  -180542 
 -178114  -163321  -140960   -98759   -22364    63643   131818   179338 
  204755   208811   198319   176745   136457    76115    20711    -8561 
  -18781   -32124   -62694  -100823  -129429  -136515  -112522   -62617 
   -4625    46595    79106    84141    68327    57856    75255   119404 
  178251   238885   284584   300451   279263   221534   134012    34898 
  -46535   -95091  -118771  -125490  -120107  -115319  -119239  -132534 
 -157483  -184968  -200839  -210474  -224854  -241796  -253529  -257279 
 -251691  -225923  -172987  -103696   -30745    41962   112799   174758 
  212039   209547   169459   107624    34598   -45352  -125448  -194727 
 -237389  -244240  -229807  -218125  -212054  -198109  -168241  -121154 
  -63343    -9716    30481    55428    62540    56769    54325    71765 
  113995   171409   229725   273712   294011   296423   291836   281385 
  256034   210267   148121    80606    19155   -36562   -92463  -146800 
 -190609  -213356  -214673  -213024  -226550  -248952  -265096  -270728 
 -263900  -242523  -205869  -150272   -78688     -548    85299   178632 
  259285   304445   312972   300551   268472   208647   135858    71812 
   29108    11061    -3794   -36461   -77464  -111120  -134367  -153125 
 -175757  -197774  -206385  -203142  -198597  -193646  -183928  -165695 
 -134774   -95933   -56224   -10771    42616    94777   136170   161872 
  173036   177600   183176   180369   146311    77118    -1705   -65056 
 -108253  -133225  -140363  -129005   -96006   -52319   -21575   -10869 
  -15141   -33173   -57675   -80115   -98090  -104519   -85098   -24278 
   74455   179669   257848   292512   291495   276040   251575   210494 
  147168    68421     6574   -14819   -10985      755    23530    60033 
   99961   126418   121321    76339    10291   -49385   -99942  -151064 
 -196567  -223218  -230283  -222127  -201457  -176716  -150906  -111087 
  -61478   -32362   -31060   -38573   -46734   -52873   -45426   -16339 
   29634    82425   142118   210682   271177   311738   341407   364333 
  373813   365345   346071   324569   293761   242504   177803   122825 
   93327    83701    76775    64139    45158    18319   -11588   -38028 
  -53807   -48125   -16692    35999    94572   142628   177737   199141 
  201252   180550   134407    62954   -14827   -60308   -60491   -43613 
  -38283   -56559   -91772  -117875  -115987   -91981   -58151   -18483 
   17109    29716     8360   -40755   -98926  -145752  -159593  -129267 
  -71258    -8002    49608    90960   110434   113432   110403   108823 
  102846    84753    61037    42967    35435    42716    66675    90722 
   93735    70978    23939   -40912  -112633  -185212  -247624  -286010 
 -300725  -298022  -279151  -247793  -211867  -178521  -152710  -138008 
 -133160  -125294  -102385   -70545   -43390   -26417   -17859   -12135 
   -2143    14407    33611    53525    79233   113820   148759   167712 
  155494   109227    42041   -21443   -56680   -64044   -62128   -56403 
  -47020   -41977   -44542   -53360   -64060   -60052   -30794    10769 
   47558    67641    68281    62542    59109    57780    56825    48051 
   29152     7320   -12175   -26709   -32215   -21624     3493    25685 
   24794    -3915   -46178   -84173  -103637   -96338   -67538   -28768 
    6459    22060    10867   -19314   -51259   -72766   -86017   -97139 
 -110283  -134606  -174072  -209503  -215040  -179792  -106078   -14485 
   61615    99447    93801    58427    26971    29299    65240   115203 
  161104   188839   193112   179034   160887   154929   159742   168763 
  177416   166768   123498    55423   -22889  -100048  -162139  -187282 
 -163641  -104418   -43676   -16482   -26698   -49059   -59488   -37813 
   21929    92458   148456   189272   211059   204728   175009   135749 
  100441    82493    80394    76193    59905    29478   -14463   -61718 
  -96063  -110270  -118570  -135608  -156075  -169962  -171652  -169787 
 -188101  -225833  -257124  -271315  -266704  -237734  -187621  -119495 
  -30950    71377   175431   261237   302367   298768   271824   228629 
  159692    60888   -48413  -133336  -166552  -149511  -110516   -63884 
   -7564    39934    52103    14229   -68532  -163221  -239314  -284656 
 -301764  -300999  -276624  -215624  -123519   -25142    56943   115985 
  155346   178303   176392   151332   120210    84050    31379   -46241 
 -132908  -185029  -174428  -109944   -25471    43168    83355   102257 
  106403    99681    91577    86241    76494    67041    72110    96412 
  137779   177383   191722   180595   150237   111070    83368    63555 
   31803   -10007   -51628   -91149  -122711  -137396  -130665  -106265 
  -78940   -55708   -33034   -16284    -2929    16162    23645    -2389 
  -59305  -130925  -196431  -239516  -258922  -264386  -258912  -230528 
 -170608   -86430     8225    97110   162893   198158   205077   182570 
  124657    38675   -50717  -119617  -145248  -113743   -36903    59351 
  147629   207973   234918   231073   207453   176173   140689   108492 
   92926    99607   113627   107370    67266    -1626   -76493  -127480 
 -145577  -145690  -146760  -154097  -161788  -155170  -120854   -69291 
  -15342    38655    89284   131501   158061   161242   139505   104349 
   77091    64940    57903    47356    35613    29407    29552    37644 
   55984    79169    96376    97139    81996    63176    51695    46932 
   42717    39530    39604    48852    72847   101252   123094   134052 
  125822    91979    27552   -62117  -146528  -194976  -203156  -186467 
 -163939  -145044  -129971  -118313  -107593   -94544   -78927   -56853 
  -25338      327   -11538   -76704  -174821  -266553  -313719  -301570 
 -244514  -161932   -71058    12832    80711   126788   148793   149489 
  135457   111868    77497    32205   -11809   -40029   -44513   -22534 
   13119    39619    38546     4853   -44792   -87815  -113712  -123962 
 -125192  -120193  -111452  -100455   -75395   -27745    24394    60248 
   80033    76834    29564   -51099  -126195  -184262  -232802  -258723 
 -251409  -221570  -174541  -113152   -56461    -8781    48113   104300 
  132594   131961   108639    72743    56688    78824   117706   149758 
  177817   218128   272669   319381   336592   323163   290606   246991 
  189988   111347     6312  -120295  -256627  -378011  -449636  -458453 
 -421678  -361102  -290750  -210628  -109149      310    84373   129103 
  125379    76440    20145   -12940   -16955    11971    72786   154104 
  237270   301021   336885   350968   351303   340878   314277   267269 
  201023   115474    21243   -64182  -135641  -193633  -239362  -263872 
 -249819  -209552  -166239  -119585   -69982   -18824    39353    97961 
  141459   161295   161630   160782   181049   212930   212023   164964 
  108679    71721    53656    42999    26184     3505   -14701   -22248 
  -27877   -66578  -144384  -211741  -230092  -187134   -90946    18961 
  106507   166632   209372   228226   212451   179599   146511   109927 
   70878    37347    15468     8022    15312    33062    51420    64333 
   66395    47059      365   -70510  -157278  -244801  -307561  -334525 
 -339557  -324726  -280500  -210598  -124325   -34196    44597   110018 
  170356   220159   237691   215334   168176   104531    24164   -65106 
 -151222  -212337  -228369  -206230  -162842  -107198   -49931     1533 
   42291    52675    22384   -26916   -67615   -92983  -114344  -126573 
 -108365   -64581   -18704    23557    64860    94601   101657    77875 
   11915   -82933  -157124  -173183  -139955   -83893   -21159    43511 
  105341   141470   132334    86467    17525   -55869  -103713  -121532 
 -127158  -120224   -88060   -31075    35423    92757   125992   124276 
   95893    64449    35745     9678    -5175    -9310    -4230     7432 
   14081    11398     6066     7549    24062    52282    70483    64285 
   42761    11819   -26270   -58494   -73472   -65327   -32655    17925 
   75013   129192   174875   208955   234302   247929   228764   158704 
   44837   -83491  -194583  -271865  -307381  -296833  -251051  -185577 
 -107015   -22945    61730   144340   212074   252166   254170   217237 
  162969   103673    37979   -15104   -28480     9332    88202   177841 
  249738   285134   272124   218686   143939    60835   -17098   -72201 
  -88580   -64099   -15454    41604    99558   149218   185371   209082 
  213373   173732    72567   -63189  -181550  -253367  -271152  -231900 
 -147739   -41227    71033   165973   216557   214668   167101    83492 
  -22694  -135546  -239322  -311084  -328614  -292032  -210474   -94980 
   24812   122442   188252   210938   184434   124026    53972   -12152 
  -68484  -109397  -125232  -113798   -92072   -63506   -22085    15695 
   43982    69986    83401    79833    61990    23126   -32443   -85789 
 -115971  -107858   -62214     2260    57422    81458    70717    44543 
   30603    36981    47157    44121    36674    42061    52968    50961 
   30704       10   -21938   -14940    15845    41100    41747    18976 
  -18523   -55315   -83011  -111761  -143910  -166220  -172935  -165215 
 -146217  -125341  -105476   -84418   -68450   -64236   -78717  -117927 
 -170161  -213556  -238345  -244506  -227527  -185123  -122693   -46875 
   26028    73939    92149    91632    81791    62980    26424   -25977 
  -70108   -85272   -62654    -6446    53260    96511   131530   154767 
  156978   143592   119211    91171    71596    57459    36421     9073 
  -15006   -29182   -33434   -38919   -52729   -61426   -47047    -8009 
   39723    78250    96953    92500    78441    76413    85103    82891 
   64592    48932    53028    79056   112436   131527   124450    87169 
   21541   -60546  -142678  -207659  -234897  -212454  -152480   -72259 
   14693    87395   133550   149344   131407    93679    54211    12879 
  -29888   -57659   -58548   -35919     4129    46185    71576    85317 
   96465   102533   108598   108930    80610    23426   -41295  -102511 
 -152530  -176627  -174266  -159454  -137583  -111374   -91376   -81670 
  -75638   -70243   -69160   -73266   -80915   -87360   -81654   -61812 
  -39445   -23129   -10558     4524    23077    43347    64146    83438 
  101741   120462   135327   139059   131968   123283   119057   112522 
   90491    48486    -4323   -53451   -87132  -101831  -106747  -111368 
 -116448  -124453  -137030  -146680  -140710  -111441   -65446   -18091 
   18272    38251    42771    37034    30250    30511    34283    37261 
   43280    49119    51585    57502    70120    85347    96670   102275 
  107020   108442    96228    70788    41778    14965    -5132   -14152 
  -14629    -9124     5495    24034    35200    31250     5039   -37378 
  -73219   -82395   -59757   -16290    29115    67306    99263   120081 
  127941   128484   117788    88271    42389    -8269   -50407   -75164 
  -80099   -65207   -26440    32794    90373   124219   131797   118106 
   84544    38271   -13402   -66810  -111276  -137062  -141270  -121280 
  -78548   -21843    37709    86333   111600   114984   104443    79560 
   33825   -33765  -103801  -148099  -159103  -149674  -135795  -120943 
  -96787   -63440   -31459   -11640   -10710   -25439   -48407   -76755 
 -109724  -145362  -176221  -189980  -178093  -140702   -84158   -15217 
   57163   117351   150664   152698   128327    86186    36214   -10553 
  -40848   -42736   -17286    20138    47899    50508    32608     4977 
  -26062   -52452   -75865   -98662  -115024  -125641  -127888  -111445 
  -72957   -20802    32288    76203    99250    98798    88202    77333 
   71243    74225    80327    87668   104633   126665   142784   156354 
  173175   189950   202357   202045   171367   104301    19566   -59916 
 -124918  -174442  -205225  -212626  -198787  -174508  -146522  -107401 
  -49318    18917    80297   123674   137723   112363    55199    -8993 
  -57265   -80566   -78123   -53962   -18953    10033    16549     3143 
   -7223     1596    25521    47761    49533    24191   -20970   -73914 
 -122106  -155631  -166073  -147807  -103248   -44076    10454    44226 
   53186    50623    60468    84465   105441   122083   134339   129271 
