Origin Time       2011/03/11 14:46:00
Lat.              38.103
Long.             142.860
Depth. (km)       24
Mag.              9.0
Station Code      TCG002
Station Lat.      36.9903
Station Long.     139.8029
Station Height(m) 619
Record Time       2011/03/11 14:47:18
Sampling Freq(Hz) 100Hz
Duration Time(s)  300
Dir.              E-W
Scale Factor      3920(gal)/6182761
Max. Acc. (gal)   150.356
Last Correction   2011/03/11 14:47:03
Memo.             
[...]
   12973     6635    10250    19953    29882    36241    35793    30104 
   23164    18268    20261    28812    33344    26400    13595     1149 
  -12523   -26905   -36456   -38401   -34325   -26718   -17845   -10623 
   -7759    -9449   -12574   -13363   -12237   -12389   -15478   -23125 
  -34337   -44264   -54480   -68363   -76697   -70128   -53464   -35030 
  -19506   -10379    -7258    -6953    -9053   -15321   -25322   -33933 
  -36930   -36978   -36688   -35340   -33110   -27630   -15495      610 
   14087    19892    18112    13092     6920     -509    -6626   -10621 
  -16511   -25358   -33390   -35871   -29960   -20893   -14966    -9225 
   -2442     2330     7734    15365    19907    17837    13028    10600 
    7990     1366    -3765    -2251     2460     6247     7260     6557 
    7726     8939     7391     7032     7582     4178     -222    -4862 
  -15869   -29169   -36485   -38903   -35906   -24624    -9636     4082 
   12597     7961    -9751   -28176   -38062   -40985   -43453   -44984 
  -38412   -25256   -13274    -6201    -5203    -4899      928     6009 
    4308     1199     1291     4058     6716     5148     1804     3708 
   10852    18102    20691    16612    10281     4114    -7830   -24366 
  -33225   -31152   -25887   -20981   -17294   -17261   -19262   -22465 
  -32738   -49459   -61625   -67781   -74685   -78853   -74943   -65141 
  -52401   -38230   -21390    -2142    14062    23445    23224    12603 
      30    -5707    -4412     1271     9104    18237    27992    32968 
   31330    30746    34221    37789    41815    45766    41943    25876 
    3863   -13978   -23773   -28313   -28725   -22642   -13393   -11862 
  -22292   -34017   -37269   -36931   -38959   -37231   -24719    -6231 
    9641    20777    24203    14843    -3459   -20255   -29151   -31463 
  -29486   -20475    -5600     8985    22790    35773    43209    43956 
   40272    31134    18436    11221     9038     1654    -7949    -9790 
   -5272      479     5672     8881    12304    19813    25710    18765 
   -1772   -26118   -45019   -57650   -69811   -81276   -86001   -84439 
  -80317   -73583   -63362   -47184   -23495    -1082     7928     2333 
   -9731   -17584   -15724    -7670     3252    14510    21634    27479 
   35913    41257    37451    25381    11314    -1463   -15705   -28018 
  -31531   -26906   -16280    -2193     9361    16538    21841    25945 
   27520    21893     4080   -21059   -41325   -52190   -58730   -61480 
  -53932   -33333    -3414    26976    48577    59984    62199    53271 
   37251    22683    11112     -125   -11778   -25315   -39896   -47311 
  -39309   -19611    -3672      214     1219     5230     6849     8090 
   12297    11982     5610     -832   -10582   -27049   -41100   -46743 
  -49046   -47229   -36678   -23601   -14432    -8124    -4342    -1756 
     316    -3403   -16449   -34655   -47207   -46723   -38204   -26531 
  -13389    -3870     3992    12005    13546    13693    22610    34866 
   43988    51751    55564    51519    45034    41632    36515    24976 
   11147    -1081   -12727   -23224   -30384   -33495   -32183   -26545 
  -17833   -10341    -7638    -4885      899     3172     1380     2462 
    5032     1556    -8777   -20561   -29653   -33290   -30405   -25705 
  -24980   -26475   -24070   -17410   -12731   -14103   -18657   -22271 
  -25924   -30903   -32323   -24022    -5565    17056    36907    53277 
   64393    59723    38570    17995     6944    -2382   -16023   -32908 
  -51317   -70855   -88855   -95894   -86718   -67945   -42810   -13454 
    6831    10967     4993    -9185   -32035   -55720   -71464   -79944 
  -85368   -85942   -80585   -72021   -56813   -30992     1320    34422 
   63060    84811   100552   103998    88539    60016    27012    -6152 
  -35790   -57993   -66123   -55735   -34364   -14732    -3265     2215 
   11966    28390    32855    14079   -13872   -40191   -65336   -83265 
  -87016   -80016   -70057   -57119   -35221    -8792    10630    21944 
   29715    33742    32669    26956    18231     9587     4406     3168 
    3808     7033    13267    16757    16045    18887    26678    32017 
   30952    23789    14165     8723     6722      -41   -11323   -18505 
  -19704   -20759   -27339   -38464   -46214   -47959   -47498   -45899 
  -44560   -45295   -46675   -47610   -48821   -52198   -56903   -58219 
  -55875   -52508   -46143   -34758   -21964   -12604    -5423     4004 
   15299    22410    19806    13309    16033    30195    47804    59719 
   58487    47178    34251    20500     6407    -4375   -10072    -9856 
   -7789   -10434   -18486   -27962   -33039   -33337   -34718   -34958 
  -26695   -11223     2176     3305    -6786   -18161   -29350   -40421 
  -48278   -56662   -61637   -51251   -29586    -8398     9856    26166 
   40096    50386    53124    44112    27251    10213    -5393   -16904 
  -24063   -34568   -45286   -49608   -54302   -58805   -55564   -46138 
  -30065   -10079     1964     3556    -2709   -17831   -34508   -42324 
  -40643   -32754   -23054   -17171   -12295    -3268     5988    12957 
   19149    21001    15851     8553     3979    -1254   -11820   -23498 
  -29057   -24391    -8063    16685    43061    64876    81244    92990 
   91930    70165    34916     -201   -29173   -53006   -66405   -64762 
  -63102   -69961   -71060   -60554   -41653   -11870    24085    54379 
   74403    84462    80936    61590    33469     3414   -29300   -60217 
  -78053   -79741   -68475   -49811   -35311   -28882   -25360   -28102 
  -39377   -50621   -59080   -68124   -78753   -92640  -103946  -103303 
  -95954   -87223   -74011   -62262   -52382   -33724   -12942     -312 
    9636    17489    17215     7363    -8632   -19380   -14235     6627 
   35481    60621    75726    84390    87350    79991    62146    40091 
   23374    16730    17651    23848    32600    41404    49637    53135 
   50148    44088    35598    23592     6524   -15181   -36990   -56113 
  -68712   -69508   -59885   -45742   -34775   -31450   -29042   -21300 
  -11533    -2122     5759     7712     3634     -321      -18     -427 
   -9053   -21881   -29542   -31504   -32796   -34886   -33600   -27768 
  -19377    -4012    14618    20642     9992    -9989   -30424   -43886 
  -51126   -52659   -49619   -51264   -54757   -47370   -33585   -23240 
  -15092    -7571      904     9047     3998   -17860   -39730   -53148 
  -64978   -70825   -59530   -37589   -18150    -1519    15015    25015 
   23780    16983     7693    -5438   -15717   -15137    -3289    14426 
   27713    32879    35030    32935    25506    18427    10233    -1482 
   -8893   -11073   -19233   -33581   -43126   -47604   -49852   -41318 
  -17745    10363    30791    41086    44726    43290    37779    29545 
   21110    15603     6106   -17103   -48845   -79366  -104181  -115614 
 -107249   -82494   -46836    -2294    45163    82875    99412    88571 
   51140     1529   -37480   -56659   -65467   -66788   -49908   -15991 
   18536    41128    47920    42181    31443    20668    11660     1871 
  -14911   -34007   -40593   -32594   -19243    -3329    13262    22501 
   24390    30524    38216    27281    -3128   -32573   -51399   -59856 
  -54933   -39262   -24179   -11641     6555    26152    35811    36193 
   31193    20867    10417    10089    20137    25221    16802     5243 
     967     2047     1281    -2207    -4793    -6088    -2935     7784 
   18606    22362    22413    21256    10684   -15895   -46864   -66890 
  -77402   -80149   -69291   -50743   -33216   -14342     6862    26856 
   38453    34969    24577    17695    12305     7920     7571     7828 
    -590   -21712   -43599   -54873   -59124   -57029   -43451   -24914 
  -13396    -6992      392    -1863   -20560   -39479   -46927   -43863 
  -29618    -9462     8456    22635    32320    37249    40005    41128 
   36370    25190    15467    12134    13643    17792    22812    28910 
   33768    30110    19219    11320     5402    -6057   -17399   -22351 
  -26516   -36040   -52309   -70717   -84263   -91967   -97112  -101467 
 -100380   -88210   -69058   -51311   -39165   -32251   -25675   -16880 
  -13391   -19814   -26566   -27677   -28656   -32613   -37849   -41496 
  -42635   -39891   -27280   -10283    -2355     1587    10979    22032 
   33865    46432    52642    53492    53710    46169    27257     7157 
   -4380    -3806     2039    -1980   -17919   -35437   -50534   -62218 
  -66820   -62462   -47413   -23121     1179    21448    42178    59037 
   64000    64115    67845    67889    60167    52452    43826    29294 
   16109    12355    14166    11680     4036    -1756    -6772   -13351 
  -15293   -14096   -23715   -45424   -60082   -62687   -69792   -80197 
  -80618   -76596   -72415   -60371   -42758   -29480   -25255   -22562 
   -6603    17980    33375    39972    43278    34649     9228   -24758 
  -60117   -92365  -110511  -104132   -77039   -44941   -23102   -17041 
  -18981   -17448   -12866    -9683    -1022    17240    32805    36969 
   38533    40693    32791    16025      322   -16281   -35628   -50903 
  -59080   -61097   -56065   -44118   -26565    -7789     2665     6102 
   17337    40813    69359    94601   107889   108979    96479    58919 
    2052   -48923   -80168   -91581   -84377   -65595   -50743   -48893 
  -53664   -56023   -53603   -47192   -40515   -38496   -40723   -41770 
  -37122   -27834   -20544   -20436   -25121   -28048   -25644   -19684 
  -13513    -7441    -1535      560    -3594   -11289   -16785   -15540 
   -8380    -1431    -2240   -11284   -19712   -23358   -26222   -28585 
  -27744   -23857   -17905    -8098     8665    24323    22234     1553 
  -21245   -29365   -17756      610    13371    26048    46197    69113 
   81158    74671    57010    34914    13434     6491    18695    38340 
   56374    73275    92948   113283   123803   117590    96500    60466 
    8816   -48143   -97731  -131144  -138557  -121604   -94257   -66115 
  -44748   -36524   -40575   -52930   -62202   -53445   -30041    -8172 
    7316    19192    26508    30522    30263    14493   -19610   -53063 
  -66246   -58664   -39845   -16090     5706    18860    28176    37653 
   38925    36427    45781    59792    58634    33611   -13673   -68435 
 -112258  -140249  -151104  -138221  -105509   -67524   -26094    23789 
   71330    98825   100614    86913    71644    55937    37992    26010 
   20411     8926   -12779   -37575   -56049   -64626   -66657   -55894 
  -19780    30537    66873    81896    89678    93403    80375    49171 
   16845    -5110   -19938   -30520   -33627   -27023   -15766    -7433 
    1854    21301    50569    82471   101784    93280    64587    34077 
    5909   -20519   -41537   -57035   -66383   -64695   -52038   -35497 
  -24293   -25022   -38289   -58918   -78308   -95176  -113715  -127430 
 -130534  -125644  -110110   -87438   -73008   -75128   -89585  -100959 
  -90376   -54601   -10117    23834    39335    32439     3484   -28033 
  -43695   -46496   -37728   -15678     9603    37785    75254   106730 
  116618   111684   105296   107587   117082   122737   124680   123054 
  102317    57147     3843   -40733   -67159   -68878   -41952     6992 
   54354    79634    84581    74580    51893    32354    26687    21638 
    2974   -29244   -63269   -85419   -98729  -110808  -111575   -93271 
  -62890   -24998    15747    47245    60346    54603    34300     -155 
  -48013   -93061  -121916  -141868  -154966  -155698  -151733  -149514 
 -144589  -131968  -103027   -53140      733    37229    56565    66473 
   63290    48580    37422    34424    26987     6776   -19641   -39371 
  -45000   -38975   -23303      784    15328     8956     5743    21167 
   35714    39302    43440    48836    41872    17504   -15404   -52207 
  -99588  -155419  -198542  -212487  -199341  -161569  -101076   -36499 
    9590    33278    40740    34783    21970     9110    -7159   -28510 
  -49596   -64961   -67043   -50240   -17751    21735    59478    89290 
  106062   104616    83010    47095    10171   -16758   -32939   -41426 
  -39985   -27574    -9067    15295    43077    63748    78760    90993 
   92307    93707   109953   121739   108858    77010    34705   -15332 
  -72105  -129341  -169652  -179969  -159801  -117261   -68390   -28012 
   -3032     7459     8838     1540   -16107   -37955   -56596   -71815 
  -84753   -92333   -90475   -80992   -69457   -52721   -25147     5027 
   26029    39122    54891    78157    98917   105540    92776    48766 
  -23149   -81425  -102962  -110041  -107679   -86727   -65686   -47416 
  -10282    39001    81299   115782   136096   124316    82373    33713 
  -10345   -51546   -81886   -88550   -65417   -18216    35453    77398 
   92695    82265    67441    56307    44586    39708    37704    19192 
  -17359   -56837   -90403  -116507  -131358  -133442  -127144  -114219 
  -95431   -74453   -56011   -51610   -63269   -65581   -45133   -22267 
   -9752    -2901    -5142   -20788   -41010   -58127   -71337   -75947 
  -68075   -50039   -23941     7736    40485    71319    97874   114295 
  114367   106183   111070   129883   133250   108684    79985    59561 
   34475     3729   -23437   -47115   -64258   -66016   -56190   -49794 
  -51782   -57086   -68484   -86022   -94160   -87520   -77585   -65427 
  -42884   -10029    25007    55332    82449   106927   123368   135255 
  146711   144604   119746    85910    61121    48570    42858    45407 
   58411    73695    84694    91234    92359    88998    82023    66295 
   34438   -12519   -61763  -105053  -148756  -196579  -235318  -245190 
 -220139  -173776  -128215  -101807   -95953   -94211   -83701   -66963 
  -55337   -54986   -57221   -56108   -58857   -65740   -69949   -70032 
  -63625   -47404   -23168     7487    44624    82777   114762   140943 
  160679   163058   143251   113064    81184    44542     6445   -20186 
  -30259   -25697    -5151    24383    46868    55361    47225    16704 
  -31374   -79394  -115630  -140710  -153038  -147271  -127375  -106770 
  -98510  -101581   -99604   -84001   -61362   -34930    -1760    35889 
   72348   106419   137193   158551   167529   165134   146455   111116 
   73042    44559    25384     7397   -11610   -22774   -26323   -27584 
  -15384    10122    25301    23809    11684   -17963   -60175   -97564 
 -126972  -147104  -153060  -145891  -121486   -78096   -30372     7287 
   30180    36852    31628    24272    18526    12751    13829    26846 
   40862    50590    60108    63081    58196    55672    53049    39797 
   17708    -1880   -13635   -22337   -26924   -18613    -1329    14462 
   28720    38553    35450    20929      404   -25027   -55850   -91767 
 -121854  -133143  -133762  -136650  -138008  -132963  -118569   -87690 
  -48884   -22847   -11180     -197    15842    32075    43517    56730 
   77653    91869    87170    72106    57887    51113    50801    48399 
   44833    48100    57820    67756    74849    74882    57605    24438 
   -9213   -36161   -55421   -66199   -72534   -76907   -83145  -101600 
 -134772  -170311  -195852  -210396  -212787  -193721  -156412  -120359 
  -93813   -73741   -64956   -71114   -77382   -61871   -24190    18461 
   61654   107202   142260   158018   162250   159667   145804   115271 
   66537    11551   -26761   -37530   -28601    -7315    21828    43603 
   48705    47345    45048    32977     3677   -35745   -67998   -88144 
 -100978  -100311   -79275   -47075   -20811    -9750   -10657   -13510 
   -9190     3401    18506    30713    38091    41840    34287     1129 
  -46775   -80932   -97031  -100007   -74041   -20176    25015    44561 
   55302    61475    53918    43165    43011    42960    28490     1144 
  -28594   -52986   -69439   -71273   -56858   -38633   -20525     2539 
   22439    26655    16897     2927   -10851   -18888   -13251    -2760 
   -2845   -10951   -15832   -10262     5263    18155    17494    10535 
   14653    33562    52194    62668    70799    75234    69430    47840 
    7323   -34578   -59073   -79659  -106103  -125798  -141710  -159986 
 -164716  -142716   -96479   -39374     7794    38287    63094    79687 
   73855    47618     9429   -31704   -54471   -51043   -42200   -44122 
  -51885   -54898   -48733   -35081   -18197    -5341    -2401    -8216 
  -19313   -30857   -36367   -32725   -18884     2005    20684    30525 
   24976    -3376   -41216   -57365   -45762   -31502   -26415   -23752 
  -23854   -22719    -4660    30665    63798    86904   108384   125287 
  127208   115027    93702    64980    32928     9243     -163    -5486 
   -9566    -4569     5149    10747    14745    25304    42390    55453 
   55311    37539     3240   -31717   -50164   -58940   -66030   -55182 
  -24256     -504      947    -8905   -12183    -2563    12872    25854 
   26506     3545   -37346   -71026   -88276  -108134  -132947  -144757 
 -144695  -134143   -98095   -36875    26882    70950    93140    99634 
   84308    52849    26342     5372   -12877   -11456     9441    22230 
   15134     6333    10790    14850     2867    -9955    -7464     2081 
   15115    33898    42867    26183    -8806   -41350   -60045   -67786 
  -61042   -28699    17046    48723    67107    85784    87474    55629 
   14400   -11578   -28836   -46918   -65848   -85466   -98749   -99339 
  -95960   -92842   -83893   -72151   -56889   -27850     6664    29149 
   42843    56033    63021    57585    42173    23700     8002      981 
    8190    21779    32006    46976    64741    60985    29951    -6457 
  -31721   -42536   -35311   -12873     6776     7841    -7769   -25878 
  -35136   -35988   -31940   -28147   -36193   -55473   -71283   -80316 
  -86754   -86678   -77223   -63051   -49280   -35482   -18033     -281 
   10853    15901    15248     7880      311     -787     5248    12845 
   14998    18131    33085    55187    75124    88967    91714    82900 
   67653    47680    28908    21181    23218    29416    36130    33930 
   15901   -14017   -46204   -72043   -89921  -100220  -100259   -90417 
  -74201   -58125   -51807   -55096   -54685   -39848   -13739    11322 
   26373    29439    21278     4388   -15069   -25786   -21100    -4407 
   27462    79230   136126   177586   191426   172972   135319    96025 
   54190    11276   -17790   -31483   -40683   -50187   -62529   -75837 
  -82640   -84688   -85572   -82566   -82994   -92986  -102041  -102909 
  -94039   -74575   -59439   -63958   -79114   -92501  -105552  -116098 
 -118046  -114687  -105203   -78600   -35950     8547    47781    83214 
  115507   139433   145271   132375   114176   100567    90696    84280 
   81481    78722    71977    55109    27622     4102    -4446    -2577 
    4595    11619     3094   -28746   -69057  -105708  -143749  -179414 
 -199376  -203975  -192695  -155163  -101395   -56356   -24802    -2237 
    4310    -6024   -16377   -12829     -560     9742    16792    23018 
   30522    42636    59961    78238    89279    89473    89081    97365 
  106325   106186    99401    88431    72490    56891    44333    29927 
   12989    -5515   -26701   -45829   -60060   -78926  -108858  -138907 
 -158082  -171252  -185174  -196820  -200197  -190697  -166079  -132199 
 -102149   -80503   -56512   -25670    -1069     6664     -595   -12519 
  -14669    -2462    19247    45831    66659    74271    76482    75955 
   62808    38602    22077    28195    53123    81159    99966   103782 
