Origin Time       2011/03/11 14:46:00
Lat.              38.103
Long.             142.860
Depth. (km)       24
Mag.              9.0
Station Code      TKS007
Station Lat.      34.0903
Station Long.     134.2854
Station Height(m) 50
Record Time       2011/03/11 14:50:56
Sampling Freq(Hz) 100Hz
Duration Time(s)  168
Dir.              U-D
Scale Factor      3920(gal)/6182761
Max. Acc. (gal)   1.597
Last Correction   2011/03/11 14:50:41
Memo.             
[...]
   17872    17872    17900    17894    17868    17888    17887    17873 
   17906    17907    17881    17904    17932    17940    17948    17940 
   17939    17959    17958    17956    17973    17966    17949    17967 
   17982    17968    17972    17988    17978    17966    17972    17967 
   17959    17964    17958    17945    17942    17939    17937    17938 
   17937    17933    17927    17928    17935    17937    17937    17940 
   17937    17924    17931    17944    17933    17936    17947    17934 
   17937    17942    17936    17953    17960    17947    17928    17908 
   17919    17922    17906    17910    17892    17879    17912    17905 
   17878    17900    17904    17890    17912    17909    17886    17898 
   17910    17902    17902    17912    17923    17919    17906    17926 
   17952    17942    17952    17990    17996    17990    18010    18037 
   18043    18045    18069    18084    18072    18085    18111    18105 
   18095    18100    18103    18095    18080    18084    18095    18070 
   18051    18055    18043    18036    18031    18011    18007    18006 
   17999    17997    17986    17990    17999    17985    17993    17992 
   17962    17976    17995    17964    17942    17931    17913    17915 
   17895    17846    17835    17819    17759    17724    17721    17699 
   17661    17624    17594    17561    17533    17516    17474    17431 
   17430    17408    17364    17354    17336    17312    17321    17314 
   17294    17305    17305    17284    17279    17291    17314    17316 
   17304    17342    17387    17383    17391    17431    17453    17469 
   17503    17528    17536    17566    17604    17611    17652    17713 
   17700    17712    17789    17798    17785    17840    17889    17898 
   17924    17975    17996    17992    18019    18061    18079    18089 
   18107    18133    18159    18178    18201    18234    18246    18236 
   18260    18308    18325    18326    18353    18380    18378    18397 
   18450    18463    18438    18452    18487    18483    18483    18515 
   18525    18525    18542    18538    18541    18578    18576    18550 
   18569    18584    18564    18566    18572    18554    18573    18591 
   18547    18537    18560    18528    18499    18500    18476    18449 
   18450    18448    18416    18377    18353    18345    18348    18329 
   18296    18280    18247    18224    18244    18230    18203    18212 
   18190    18144    18144    18151    18122    18093    18089    18089 
   18072    18045    18030    18027    18027    18012    17982    17976 
   17977    17951    17945    17960    17950    17933    17930    17923 
   17895    17883    17906    17894    17849    17848    17856    17822 
   17809    17834    17835    17818    17837    17865    17853    17862 
   17904    17892    17878    17921    17942    17945    17981    18005 
   18016    18059    18088    18086    18127    18169    18175    18206 
   18225    18216    18257    18324    18346    18344    18358    18371 
   18383    18414    18413    18376    18382    18430    18457    18436 
   18411    18427    18444    18435    18452    18457    18419    18453 
   18501    18452    18451    18506    18459    18418    18485    18493 
   18395    18396    18475    18384    18295    18430    18435    18277 
   18350    18405    18257    18293    18376    18268    18268    18318 
   18236    18217    18269    18245    18181    18193    18250    18210 
   18167    18233    18264    18231    18219    18228    18274    18302 
   18269    18265    18302    18322    18349    18361    18350    18401 
   18438    18378    18405    18496    18458    18465    18590    18566 
   18502    18594    18648    18639    18658    18668    18708    18736 
   18710    18720    18761    18765    18754    18794    18810    18790 
   18844    18866    18845    18909    18921    18892    18969    19016 
   18968    18985    19054    19026    18986    19058    19122    19104 
   19078    19090    19124    19140    19136    19120    19113    19161 
   19161    19096    19109    19130    19103    19096    19062    19040 
   19049    19029    19003    18930    18879    18910    18886    18829 
   18795    18758    18728    18672    18655    18649    18543    18503 
   18529    18465    18421    18384    18298    18272    18268    18245 
   18214    18142    18130    18162    18114    18051    18045    18040 
   17986    17933    17941    17958    17940    17882    17859    17935 
   17954    17857    17850    17900    17841    17822    17864    17795 
   17779    17843    17764    17775    17865    17735    17696    17815 
   17779    17729    17760    17753    17725    17746    17774    17716 
   17702    17797    17772    17689    17777    17821    17724    17768 
   17798    17641    17671    17860    17832    17706    17715    17831 
   17881    17781    17744    17871    17931    17847    17849    17979 
   17990    17897    17934    18071    18103    17984    17971    18137 
   18140    18031    18113    18211    18168    18159    18238    18257 
   18238    18297    18326    18303    18351    18395    18399    18436 
   18450    18449    18510    18550    18538    18509    18508    18646 
   18653    18422    18495    18709    18559    18449    18543    18515 
   18502    18532    18450    18428    18461    18416    18407    18406 
   18361    18391    18367    18280    18372    18430    18298    18271 
   18338    18321    18300    18304    18268    18255    18308    18286 
   18200    18220    18292    18276    18163    18141    18268    18240 
   18104    18159    18211    18143    18145    18124    18065    18116 
   18090    17993    18038    18037    17963    18013    18016    17930 
   17945    17969    17897    17870    17937    17925    17836    17849 
   17878    17829    17833    17878    17857    17789    17772    17833 
   17865    17810    17761    17800    17855    17822    17786    17800 
   17765    17742    17795    17800    17724    17689    17757    17787 
   17700    17679    17727    17695    17673    17687    17663    17642 
   17641    17660    17674    17616    17576    17621    17606    17554 
   17614    17651    17569    17552    17650    17653    17572    17607 
   17660    17640    17638    17657    17674    17693    17751    17788 
   17734    17730    17814    17857    17838    17852    17907    17902 
   17903    17968    17998    17961    17954    18049    18073    18012 
   18066    18111    18086    18135    18184    18149    18150    18242 
   18271    18206    18212    18286    18330    18338    18316    18342 
   18439    18433    18391    18497    18543    18476    18525    18603 
   18600    18626    18672    18651    18615    18676    18756    18710 
   18658    18723    18779    18725    18677    18740    18773    18705 
   18693    18729    18737    18731    18715    18735    18747    18704 
   18707    18730    18691    18687    18723    18672    18643    18709 
   18680    18666    18737    18656    18615    18743    18739    18657 
   18675    18699    18702    18691    18674    18696    18679    18642 
   18693    18714    18682    18682    18647    18655    18729    18686 
   18602    18612    18634    18623    18626    18605    18534    18547 
   18574    18460    18402    18474    18456    18350    18309    18327 
   18295    18210    18164    18162    18096    18004    18048    18070 
   17911    17849    17946    17895    17756    17784    17824    17712 
   17673    17759    17701    17567    17615    17697    17638    17559 
   17566    17639    17641    17550    17573    17658    17606    17576 
   17653    17664    17651    17675    17658    17672    17730    17736 
   17728    17736    17769    17817    17797    17794    17838    17793 
   17794    17903    17889    17818    17853    17915    17949    17921 
   17873    17943    18017    17973    17979    17982    17936    18050 
   18103    17978    18018    18098    18049    18075    18112    18080 
   18091    18145    18166    18110    18104    18201    18189    18108 
   18188    18275    18166    18109    18255    18298    18182    18169 
   18263    18297    18208    18161    18270    18270    18140    18167 
   18218    18136    18093    18100    18106    18097    18044    18037 
   18045    18000    18008    18025    17996    17991    17987    17961 
   17941    17968    18014    17982    17936    17957    17966    17947 
   17961    17957    17890    17889    17944    17915    17897    17941 
   17942    17938    17984    18015    17990    17986    18055    18068 
   18006    18071    18173    18096    18068    18211    18221    18139 
   18234    18325    18264    18272    18352    18363    18346    18336 
   18379    18421    18358    18359    18435    18383    18369    18471 
   18406    18304    18436    18462    18298    18358    18451    18324 
   18299    18395    18361    18278    18309    18355    18284    18263 
   18322    18266    18237    18288    18220    18175    18227    18194 
   18154    18175    18140    18114    18166    18145    18066    18098 
   18123    18038    18029    18090    18040    17968    18014    18032 
   17945    17943    17992    17903    17850    17920    17877    17803 
   17855    17841    17770    17793    17797    17756    17769    17755 
   17699    17715    17740    17699    17692    17709    17688    17691 
   17696    17680    17673    17660    17673    17686    17655    17677 
   17716    17664    17640    17714    17725    17665    17714    17798 
   17745    17703    17772    17808    17798    17804    17812    17849 
   17869    17833    17880    17958    17915    17917    17999    17986 
   17984    18027    17993    18000    18079    18079    18048    18084 
   18103    18066    18090    18145    18111    18094    18156    18139 
   18102    18162    18184    18142    18157    18195    18187    18177 
   18205    18233    18225    18223    18274    18303    18279    18306 
   18339    18313    18336    18370    18349    18380    18434    18433 
   18425    18430    18471    18513    18473    18464    18508    18478 
   18479    18514    18484    18494    18507    18465    18477    18484 
   18443    18436    18436    18419    18408    18395    18384    18378 
   18376    18377    18366    18351    18355    18373    18371    18355 
   18370    18391    18378    18394    18447    18442    18428    18480 
   18515    18521    18538    18545    18567    18591    18597    18624 
   18643    18638    18651    18661    18673    18705    18692    18694 
   18756    18747    18718    18749    18756    18753    18759    18750 
   18739    18718    18703    18698    18676    18656    18634    18609 
   18588    18546    18505    18486    18472    18438    18388    18362 
   18337    18285    18255    18249    18208    18151    18129    18110 
   18049    17993    17992    17970    17895    17864    17868    17818 
   17752    17731    17712    17664    17618    17594    17573    17537 
   17520    17496    17443    17444    17457    17412    17396    17419 
   17399    17360    17364    17358    17323    17344    17369    17351 
   17341    17324    17318    17355    17370    17360    17376    17387 
   17387    17410    17428    17448    17478    17483    17505    17542 
   17541    17556    17608    17630    17633    17656    17677    17694 
   17717    17741    17765    17778    17780    17817    17860    17852 
   17862    17903    17927    17944    17941    17970    18021    18001 
   18010    18086    18090    18089    18145    18147    18154    18215 
   18229    18242    18292    18309    18324    18371    18415    18435 
   18455    18501    18541    18552    18586    18636    18659    18691 
   18747    18768    18778    18834    18896    18918    18930    18987 
   19054    19067    19100    19170    19203    19237    19291    19328 
   19371    19421    19469    19516    19548    19590    19645    19668 
   19688    19728    19771    19823    19851    19866    19919    19949 
   19958    20007    20033    20041    20081    20102    20107    20126 
   20137    20145    20148    20142    20149    20148    20128    20129 
   20129    20097    20083    20083    20040    19990    19984    19964 
   19910    19882    19859    19811    19785    19755    19696    19654 
   19602    19537    19503    19444    19364    19339    19297    19208 
   19174    19140    19035    18976    18960    18875    18790    18761 
   18714    18627    18550    18503    18453    18377    18321    18297 
   18243    18174    18149    18118    18040    18003    18008    17950 
   17878    17872    17850    17781    17753    17753    17721    17677 
   17651    17648    17645    17614    17591    17602    17592    17560 
   17579    17607    17559    17538    17605    17610    17562    17604 
   17643    17617    17642    17683    17678    17677    17697    17733 
   17771    17786    17806    17826    17844    17915    17994    17991 
   17983    18051    18112    18128    18174    18242    18275    18302 
   18360    18414    18454    18501    18560    18605    18633    18692 
   18764    18791    18829    18908    18948    18959    19014    19085 
   19124    19163    19223    19274    19310    19351    19407    19471 
   19509    19552    19639    19685    19702    19779    19825    19822 
   19885    19954    19965    20008    20078    20091    20119    20196 
   20212    20210    20286    20326    20294    20324    20395    20412 
   20436    20491    20496    20513    20575    20592    20602    20656 
   20688    20687    20706    20743    20746    20755    20792    20781 
   20774    20813    20789    20754    20779    20761    20720    20730 
   20715    20659    20642    20626    20561    20527    20531    20474 
   20407    20411    20396    20312    20249    20237    20200    20136 
   20104    20063    19984    19934    19895    19832    19786    19754 
   19693    19616    19562    19534    19494    19429    19369    19327 
   19297    19261    19203    19142    19106    19075    19026    18978 
   18932    18872    18838    18827    18776    18708    18673    18629 
   18586    18585    18546    18466    18444    18411    18334    18321 
   18321    18253    18199    18188    18166    18123    18089    18072 
   18042    18004    17987    17975    17965    17951    17911    17880 
   17877    17864    17837    17822    17809    17782    17759    17765 
   17758    17736    17753    17765    17738    17726    17726    17714 
   17714    17726    17725    17714    17717    17737    17749    17748 
   17750    17751    17766    17785    17780    17805    17845    17828 
   17830    17873    17877    17888    17928    17941    17958    17966 
   17954    17997    18056    18075    18102    18136    18161    18197 
   18232    18250    18270    18298    18334    18396    18457    18474 
   18494    18562    18620    18655    18715    18761    18768    18810 
   18891    18946    18980    19015    19038    19092    19177    19199 
   19200    19270    19317    19311    19371    19449    19437    19449 
   19537    19561    19534    19575    19620    19616    19637    19663 
   19664    19701    19736    19713    19705    19733    19757    19765 
   19755    19758    19765    19739    19742    19779    19752    19721 
   19743    19735    19691    19678    19689    19681    19658    19626 
   19583    19564    19564    19525    19487    19483    19444    19387 
   19369    19349    19310    19269    19223    19185    19143    19107 
   19086    19023    18961    18966    18934    18859    18849    18833 
   18763    18740    18730    18666    18644    18636    18564    18546 
   18569    18510    18451    18443    18407    18369    18364    18338 
   18288    18271    18269    18229    18199    18204    18172    18117 
   18094    18070    18040    18017    17982    17956    17948    17919 
   17875    17832    17792    17765    17731    17690    17668    17631 
   17574    17560    17551    17505    17474    17442    17402    17409 
   17404    17352    17323    17315    17298    17267    17235    17234 
   17230    17177    17147    17180    17199    17181    17178    17188 
   17190    17193    17207    17236    17256    17249    17276    17337 
   17345    17357    17411    17420    17449    17515    17520    17533 
   17581    17603    17644    17687    17691    17722    17789    17823 
   17828    17852    17903    17944    17960    17987    18031    18053 
   18079    18128    18155    18180    18225    18253    18276    18322 
   18374    18404    18418    18450    18494    18526    18560    18596 
   18623    18642    18663    18706    18736    18746    18788    18814 
   18795    18819    18863    18872    18882    18891    18894    18915 
   18934    18925    18922    18939    18930    18907    18920    18935 
   18902    18864    18869    18865    18819    18811    18828    18767 
   18690    18708    18728    18662    18620    18639    18599    18535 
   18533    18513    18450    18420    18418    18389    18330    18297 
   18280    18219    18182    18199    18157    18078    18066    18049 
   17985    17955    17943    17897    17856    17843    17806    17751 
   17731    17703    17645    17627    17609    17546    17515    17505 
   17471    17441    17417    17395    17376    17351    17335    17320 
   17291    17256    17237    17236    17219    17183    17152    17138 
   17147    17155    17142    17130    17119    17112    17123    17114 
   17080    17081    17111    17128    17121    17106    17117    17129 
   17115    17131    17170    17156    17136    17174    17221    17228 
   17225    17237    17247    17268    17308    17320    17326    17365 
   17391    17406    17459    17502    17516    17549    17591    17630 
   17679    17712    17735    17776    17825    17891    17943    17943 
   17973    18046    18077    18103    18186    18245    18246    18267 
   18319    18354    18383    18433    18473    18480    18503    18553 
   18583    18617    18664    18672    18688    18752    18783    18774 
   18789    18829    18859    18859    18872    18893    18879    18900 
   18952    18937    18918    18949    18947    18922    18942    18952 
   18924    18928    18945    18916    18898    18920    18906    18861 
   18870    18895    18859    18830    18847    18825    18793    18816 
   18823    18798    18799    18793    18763    18758    18763    18742 
   18726    18742    18739    18696    18691    18725    18717    18691 
   18692    18684    18676    18697    18704    18678    18668    18694 
   18709    18696    18705    18725    18715    18705    18710    18705 
   18700    18705    18721    18728    18712    18694    18694    18704 
   18696    18672    18672    18671    18652    18659    18660    18621 
   18601    18612    18608    18573    18536    18531    18537    18506 
   18474    18476    18468    18458    18465    18442    18403    18402 
   18406    18377    18355    18369    18361    18310    18305    18344 
   18328    18295    18302    18289    18281    18326    18327    18278 
   18290    18309    18280    18296    18338    18328    18306    18310 
   18326    18335    18339    18348    18345    18357    18397    18386 
   18347    18382    18424    18397    18397    18450    18465    18463 
   18492    18516    18530    18557    18592    18633    18665    18676 
   18699    18748    18798    18830    18851    18880    18920    18963 
   18995    19028    19070    19091    19111    19158    19181    19197 
