Origin Time       2011/03/11 14:46:00
Lat.              38.103
Long.             142.860
Depth. (km)       24
Mag.              9.0
Station Code      TKS001
Station Lat.      34.2034
Station Long.     134.6096
Station Height(m) 2
Record Time       2011/03/11 14:51:17
Sampling Freq(Hz) 100Hz
Duration Time(s)  84
Dir.              U-D
Scale Factor      3920(gal)/6182761
Max. Acc. (gal)   1.515
Last Correction   2011/03/11 14:51:02
Memo.             
[...]
   -7843    -7844    -7833    -7820    -7814    -7797    -7773    -7759 
   -7740    -7719    -7706    -7683    -7654    -7639    -7628    -7618 
   -7611    -7592    -7566    -7547    -7525    -7506    -7492    -7472 
   -7444    -7415    -7398    -7402    -7410    -7419    -7430    -7437 
   -7441    -7443    -7438    -7441    -7452    -7450    -7442    -7445 
   -7448    -7444    -7452    -7462    -7451    -7438    -7439    -7450 
   -7471    -7494    -7504    -7506    -7509    -7517    -7522    -7510 
   -7498    -7502    -7500    -7494    -7509    -7534    -7550    -7563 
   -7577    -7590    -7605    -7618    -7628    -7630    -7619    -7615 
   -7624    -7627    -7627    -7634    -7648    -7673    -7712    -7750 
   -7783    -7822    -7862    -7892    -7920    -7945    -7969    -7994 
   -8005    -8011    -8023    -8043    -8070    -8087    -8089    -8089 
   -8091    -8089    -8084    -8070    -8049    -8033    -8028    -8022 
   -8025    -8040    -8054    -8069    -8090    -8115    -8146    -8180 
   -8211    -8235    -8256    -8270    -8274    -8278    -8289    -8286 
   -8270    -8260    -8246    -8213    -8182    -8161    -8140    -8123 
   -8112    -8107    -8109    -8107    -8099    -8090    -8084    -8083 
   -8089    -8095    -8101    -8120    -8150    -8179    -8208    -8244 
   -8283    -8315    -8340    -8366    -8398    -8434    -8476    -8517 
   -8544    -8563    -8584    -8604    -8627    -8648    -8653    -8638 
   -8623    -8610    -8586    -8555    -8531    -8512    -8490    -8463 
   -8431    -8408    -8393    -8367    -8353    -8359    -8351    -8340 
   -8343    -8345    -8348    -8360    -8370    -8379    -8398    -8421 
   -8448    -8481    -8504    -8511    -8513    -8521    -8537    -8547 
   -8541    -8528    -8517    -8509    -8505    -8501    -8507    -8521 
   -8520    -8512    -8517    -8521    -8508    -8491    -8486    -8486 
   -8484    -8483    -8487    -8493    -8493    -8496    -8502    -8507 
   -8513    -8517    -8522    -8521    -8512    -8507    -8500    -8482 
   -8469    -8460    -8443    -8422    -8398    -8372    -8358    -8362 
   -8369    -8371    -8370    -8361    -8357    -8360    -8357    -8350 
   -8345    -8339    -8332    -8331    -8332    -8323    -8312    -8313 
   -8319    -8317    -8315    -8318    -8312    -8285    -8257    -8246 
   -8243    -8238    -8235    -8223    -8204    -8197    -8197    -8202 
   -8215    -8229    -8236    -8230    -8215    -8208    -8203    -8190 
   -8184    -8181    -8162    -8138    -8124    -8111    -8096    -8082 
   -8062    -8043    -8035    -8020    -7994    -7970    -7954    -7938 
   -7913    -7887    -7873    -7869    -7871    -7873    -7869    -7857 
   -7846    -7839    -7841    -7858    -7884    -7904    -7916    -7928 
   -7937    -7938    -7954    -7992    -8024    -8050    -8081    -8104 
   -8123    -8145    -8162    -8172    -8181    -8190    -8199    -8202 
   -8198    -8190    -8171    -8146    -8128    -8111    -8081    -8046 
   -8029    -8026    -8007    -7980    -7964    -7943    -7921    -7921 
   -7933    -7945    -7958    -7971    -7975    -7971    -7972    -7973 
   -7965    -7963    -7970    -7978    -7997    -8021    -8040    -8061 
   -8076    -8086    -8097    -8100    -8103    -8111    -8113    -8115 
   -8115    -8117    -8134    -8149    -8151    -8160    -8175    -8184 
   -8203    -8238    -8270    -8287    -8302    -8326    -8336    -8324 
   -8318    -8318    -8305    -8284    -8263    -8241    -8216    -8188 
   -8158    -8125    -8097    -8062    -8012    -7964    -7918    -7866 
   -7817    -7778    -7740    -7704    -7685    -7674    -7660    -7658 
   -7675    -7694    -7711    -7742    -7781    -7814    -7854    -7909 
   -7965    -8020    -8073    -8125    -8177    -8225    -8260    -8295 
   -8337    -8373    -8402    -8434    -8461    -8480    -8497    -8507 
   -8507    -8505    -8495    -8484    -8475    -8461    -8446    -8432 
   -8413    -8394    -8385    -8380    -8370    -8364    -8365    -8357 
   -8343    -8338    -8336    -8332    -8329    -8324    -8319    -8308 
   -8290    -8282    -8277    -8260    -8250    -8249    -8235    -8220 
   -8213    -8208    -8218    -8226    -8216    -8210    -8204    -8184 
   -8169    -8166    -8172    -8173    -8164    -8162    -8173    -8179 
   -8181    -8186    -8188    -8185    -8185    -8194    -8210    -8227 
   -8244    -8266    -8286    -8293    -8290    -8282    -8271    -8266 
   -8263    -8251    -8229    -8200    -8165    -8127    -8088    -8058 
   -8027    -7982    -7940    -7903    -7857    -7806    -7760    -7716 
   -7674    -7638    -7604    -7567    -7537    -7514    -7485    -7456 
   -7438    -7431    -7426    -7421    -7420    -7424    -7431    -7441 
   -7450    -7457    -7470    -7484    -7493    -7503    -7516    -7527 
   -7537    -7548    -7553    -7553    -7553    -7553    -7552    -7546 
   -7538    -7529    -7512    -7491    -7480    -7469    -7458    -7453 
   -7445    -7434    -7422    -7400    -7377    -7363    -7343    -7315 
   -7291    -7268    -7239    -7222    -7211    -7185    -7158    -7131 
   -7095    -7069    -7049    -7009    -6956    -6909    -6874    -6841 
   -6798    -6756    -6718    -6674    -6629    -6589    -6543    -6495 
   -6462    -6436    -6404    -6377    -6363    -6355    -6349    -6341 
   -6330    -6326    -6327    -6329    -6342    -6357    -6371    -6406 
   -6444    -6476    -6525    -6571    -6602    -6635    -6658    -6674 
   -6697    -6708    -6708    -6714    -6716    -6706    -6699    -6700 
   -6694    -6682    -6674    -6668    -6659    -6651    -6642    -6626 
   -6608    -6598    -6601    -6607    -6613    -6630    -6651    -6668 
   -6688    -6713    -6738    -6759    -6787    -6821    -6850    -6875 
   -6898    -6916    -6934    -6949    -6955    -6953    -6949    -6951 
   -6952    -6945    -6936    -6933    -6930    -6928    -6933    -6939 
   -6936    -6933    -6932    -6930    -6938    -6949    -6957    -6971 
   -6979    -6971    -6971    -6987    -7003    -7014    -7028    -7053 
   -7092    -7126    -7163    -7218    -7270    -7313    -7361    -7399 
   -7435    -7484    -7522    -7558    -7608    -7644    -7665    -7696 
   -7721    -7735    -7749    -7751    -7742    -7735    -7726    -7708 
   -7689    -7667    -7636    -7597    -7561    -7534    -7504    -7461 
   -7421    -7390    -7354    -7306    -7258    -7223    -7187    -7143 
   -7103    -7067    -7029    -6990    -6947    -6910    -6881    -6863 
   -6855    -6847    -6837    -6838    -6844    -6847    -6850    -6857 
   -6870    -6884    -6892    -6906    -6929    -6945    -6959    -6981 
   -6998    -7005    -7025    -7047    -7053    -7058    -7068    -7071 
   -7076    -7092    -7105    -7113    -7123    -7130    -7130    -7127 
   -7131    -7142    -7152    -7156    -7163    -7175    -7185    -7199 
   -7212    -7218    -7226    -7238    -7244    -7244    -7240    -7235 
   -7231    -7223    -7210    -7197    -7181    -7162    -7134    -7097 
   -7074    -7073    -7071    -7057    -7044    -7041    -7042    -7045 
   -7052    -7063    -7077    -7098    -7121    -7144    -7175    -7204 
   -7224    -7246    -7271    -7293    -7317    -7342    -7362    -7380 
   -7397    -7420    -7451    -7482    -7513    -7544    -7575    -7619 
   -7670    -7717    -7763    -7810    -7854    -7898    -7957    -8025 
   -8085    -8142    -8199    -8248    -8299    -8354    -8401    -8441 
   -8478    -8508    -8540    -8577    -8604    -8624    -8644    -8650 
   -8648    -8665    -8691    -8697    -8697    -8718    -8746    -8751 
   -8742    -8741    -8745    -8750    -8775    -8819    -8851    -8870 
   -8895    -8920    -8945    -8979    -9010    -9023    -9038    -9064 
   -9087    -9094    -9107    -9138    -9142    -9109    -9099    -9144 
   -9202    -9246    -9276    -9289    -9278    -9256    -9245    -9273 
   -9320    -9339    -9327    -9304    -9284    -9284    -9288    -9276 
   -9264    -9248    -9226    -9211    -9217    -9248    -9269    -9250 
   -9225    -9222    -9242    -9275    -9308    -9330    -9329    -9310 
   -9309    -9331    -9340    -9345    -9369    -9386    -9383    -9378 
   -9390    -9420    -9442    -9436    -9432    -9434    -9407    -9351 
   -9311    -9294    -9258    -9205    -9167    -9126    -9069    -9020 
   -8977    -8928    -8876    -8827    -8794    -8771    -8728    -8672 
   -8629    -8596    -8560    -8525    -8500    -8479    -8459    -8437 
   -8405    -8383    -8377    -8370    -8363    -8358    -8341    -8311 
   -8287    -8263    -8231    -8199    -8168    -8141    -8121    -8101 
   -8084    -8070    -8050    -8026    -8007    -7988    -7969    -7955 
   -7939    -7914    -7889    -7876    -7871    -7853    -7834    -7832 
   -7825    -7811    -7814    -7827    -7826    -7819    -7822    -7830 
   -7835    -7840    -7850    -7857    -7850    -7843    -7857    -7871 
   -7878    -7884    -7891    -7902    -7913    -7920    -7931    -7940 
   -7936    -7923    -7908    -7898    -7894    -7881    -7856    -7830 
   -7800    -7765    -7741    -7728    -7709    -7691    -7680    -7666 
   -7646    -7626    -7616    -7612    -7605    -7597    -7596    -7595 
   -7588    -7582    -7591    -7605    -7620    -7648    -7674    -7686 
   -7699    -7719    -7738    -7756    -7772    -7795    -7822    -7843 
   -7867    -7894    -7918    -7941    -7961    -7978    -8004    -8034 
   -8058    -8081    -8104    -8123    -8146    -8178    -8210    -8237 
   -8258    -8273    -8284    -8290    -8294    -8301    -8303    -8302 
   -8300    -8301    -8304    -8297    -8291    -8292    -8282    -8270 
   -8271    -8269    -8265    -8261    -8254    -8249    -8246    -8240 
   -8235    -8230    -8229    -8235    -8232    -8233    -8252    -8268 
   -8285    -8316    -8350    -8373    -8390    -8405    -8421    -8435 
   -8448    -8468    -8486    -8489    -8492    -8502    -8507    -8505 
   -8502    -8499    -8498    -8490    -8473    -8461    -8452    -8443 
   -8444    -8447    -8444    -8443    -8441    -8430    -8429    -8443 
   -8451    -8453    -8461    -8468    -8472    -8476    -8476    -8478 
   -8479    -8472    -8463    -8453    -8440    -8430    -8423    -8411 
   -8395    -8379    -8366    -8353    -8339    -8321    -8302    -8281 
   -8252    -8213    -8179    -8156    -8135    -8101    -8068    -8045 
   -8011    -7975    -7962    -7952    -7926    -7905    -7905    -7911 
   -7901    -7893    -7903    -7915    -7918    -7924    -7930    -7934 
   -7947    -7959    -7957    -7955    -7963    -7965    -7964    -7981 
   -8001    -8009    -8022    -8034    -8033    -8035    -8042    -8036 
   -8027    -8024    -8020    -8017    -8016    -8007    -7993    -7982 
   -7969    -7949    -7931    -7915    -7896    -7875    -7855    -7835 
   -7814    -7788    -7760    -7734    -7709    -7686    -7667    -7647 
   -7626    -7610    -7601    -7595    -7597    -7610    -7628    -7641 
   -7648    -7660    -7681    -7707    -7739    -7783    -7822    -7843 
   -7866    -7896    -7912    -7918    -7927    -7932    -7936    -7941 
   -7936    -7923    -7913    -7906    -7893    -7880    -7868    -7849 
   -7830    -7811    -7779    -7748    -7726    -7707    -7683    -7653 
   -7633    -7628    -7621    -7614    -7609    -7596    -7585    -7582 
   -7579    -7584    -7596    -7609    -7626    -7648    -7663    -7677 
   -7699    -7714    -7720    -7731    -7734    -7731    -7735    -7737 
   -7747    -7766    -7779    -7785    -7790    -7795    -7803    -7810 
   -7827    -7840    -7838    -7846    -7857    -7857    -7862    -7874 
   -7882    -7890    -7900    -7904    -7897    -7889    -7881    -7868 
   -7855    -7844    -7826    -7795    -7763    -7738    -7708    -7669 
   -7635    -7599    -7551    -7504    -7470    -7438    -7403    -7367 
   -7345    -7333    -7319    -7310    -7309    -7314    -7320    -7329 
   -7352    -7380    -7398    -7417    -7448    -7482    -7512    -7538 
   -7566    -7591    -7609    -7626    -7636    -7638    -7641    -7640 
   -7632    -7628    -7632    -7634    -7622    -7603    -7595    -7591 
   -7580    -7572    -7571    -7563    -7552    -7557    -7558    -7546 
   -7548    -7561    -7560    -7560    -7570    -7571    -7566    -7577 
   -7591    -7591    -7595    -7608    -7612    -7607    -7605    -7609 
   -7616    -7615    -7606    -7600    -7593    -7575    -7550    -7530 
   -7521    -7515    -7512    -7523    -7536    -7531    -7523    -7518 
   -7512    -7514    -7524    -7526    -7525    -7526    -7525    -7523 
   -7530    -7538    -7541    -7538    -7539    -7547    -7548    -7541 
   -7552    -7581    -7591    -7586    -7594    -7607    -7606    -7600 
   -7595    -7592    -7591    -7591    -7589    -7590    -7585    -7571 
   -7549    -7527    -7497    -7461    -7431    -7407    -7377    -7344 
   -7315    -7288    -7259    -7226    -7191    -7155    -7112    -7060 
   -7014    -6984    -6957    -6924    -6889    -6862    -6834    -6799 
   -6774    -6761    -6745    -6724    -6700    -6677    -6661    -6643 
   -6617    -6597    -6588    -6575    -6559    -6550    -6546    -6536 
   -6513    -6483    -6462    -6449    -6429    -6399    -6376    -6351 
   -6308    -6265    -6229    -6180    -6127    -6088    -6049    -6008 
   -5968    -5926    -5886    -5853    -5821    -5799    -5792    -5781 
   -5772    -5778    -5781    -5783    -5800    -5817    -5834    -5853 
   -5865    -5880    -5896    -5896    -5895    -5900    -5897    -5886 
   -5876    -5861    -5844    -5829    -5806    -5777    -5757    -5737 
   -5711    -5696    -5687    -5674    -5664    -5662    -5665    -5673 
   -5683    -5699    -5724    -5754    -5792    -5835    -5881    -5934 
   -5989    -6052    -6122    -6186    -6244    -6303    -6359    -6408 
   -6451    -6499    -6554    -6598    -6630    -6665    -6704    -6738 
   -6774    -6814    -6849    -6873    -6905    -6949    -6994    -7037 
   -7083    -7133    -7177    -7214    -7271    -7343    -7405    -7471 
   -7548    -7628    -7703    -7769    -7837    -7905    -7953    -7996 
   -8047    -8095    -8142    -8189    -8231    -8276    -8322    -8362 
   -8398    -8428    -8462    -8502    -8531    -8545    -8559    -8582 
   -8608    -8629    -8653    -8684    -8714    -8739    -8774    -8823 
   -8868    -8906    -8934    -8949    -8973    -9006    -9027    -9045 
   -9074    -9106    -9131    -9157    -9183    -9199    -9203    -9201 
   -9197    -9198    -9205    -9207    -9202    -9201    -9203    -9197 
   -9195    -9200    -9211    -9230    -9246    -9252    -9260    -9271 
   -9276    -9284    -9300    -9315    -9323    -9332    -9346    -9358 
   -9376    -9410    -9443    -9465    -9484    -9499    -9508    -9514 
   -9515    -9514    -9516    -9514    -9502    -9495    -9487    -9460 
   -9427    -9391    -9342    -9291    -9248    -9197    -9133    -9071 
   -9006    -8930    -8860    -8798    -8730    -8662    -8591    -8519 
   -8456    -8397    -8343    -8297    -8247    -8196    -8145    -8091 
   -8040    -7989    -7935    -7882    -7840    -7807    -7778    -7748 
   -7718    -7686    -7652    -7617    -7582    -7555    -7523    -7488 
   -7454    -7409    -7370    -7345    -7316    -7287    -7270    -7252 
   -7218    -7174    -7138    -7098    -7052    -7022    -6998    -6964 
   -6938    -6926    -6908    -6887    -6882    -6884    -6880    -6877 
   -6871    -6859    -6858    -6866    -6874    -6875    -6861    -6850 
   -6845    -6835    -6833    -6838    -6841    -6848    -6853    -6851 
   -6836    -6811    -6787    -6759    -6721    -6677    -6639    -6600 
   -6551    -6500    -6453    -6417    -6396    -6369    -6331    -6298 
   -6265    -6234    -6216    -6205    -6197    -6191    -6182    -6175 
   -6177    -6185    -6197    -6212    -6231    -6258    -6293    -6330 
   -6368    -6410    -6454    -6496    -6534    -6567    -6605    -6650 
   -6681    -6702    -6727    -6749    -6769    -6796    -6829    -6865 
   -6903    -6939    -6978    -7024    -7073    -7120    -7168    -7220 
   -7270    -7311    -7357    -7415    -7472    -7529    -7583    -7626 
   -7671    -7719    -7760    -7809    -7866    -7915    -7961    -8011 
   -8055    -8102    -8150    -8195    -8240    -8283    -8325    -8372 
   -8416    -8451    -8490    -8531    -8568    -8603    -8632    -8654 
   -8691    -8729    -8751    -8781    -8811    -8828    -8857    -8887 
   -8915    -8964    -9006    -9030    -9065    -9100    -9126    -9162 
   -9197    -9223    -9250    -9276    -9290    -9309    -9335    -9354 
   -9370    -9378    -9378    -9378    -9375    -9371    -9368    -9363 
   -9362    -9369    -9369    -9365    -9372    -9383    -9386    -9388 
   -9390    -9390    -9388    -9390    -9395    -9394    -9384    -9374 
   -9363    -9345    -9324    -9296    -9266    -9243    -9213    -9177 
   -9144    -9106    -9063    -9017    -8970    -8920    -8862    -8796 
   -8734    -8683    -8634    -8579    -8526    -8471    -8409    -8345 
   -8283    -8218    -8155    -8101    -8056    -8014    -7973    -7940 
   -7914    -7883    -7847    -7820    -7804    -7789    -7769    -7748 
   -7732    -7712    -7682    -7665    -7663    -7653    -7635    -7616 
   -7586    -7550    -7518    -7483    -7447    -7419    -7387    -7350 
   -7320    -7290    -7259    -7242    -7229    -7212    -7194    -7172 
   -7158    -7153    -7138    -7122    -7111    -7087    -7061    -7050 
   -7039    -7025    -7007    -6979    -6955    -6938    -6917    -6892 
   -6867    -6836    -6801    -6770    -6741    -6714    -6689    -6660 
   -6632    -6605    -6581    -6563    -6543    -6525    -6513    -6499 
   -6482    -6467    -6459    -6454    -6452    -6456    -6467    -6484 
   -6505    -6520    -6541    -6566    -6579    -6595    -6619    -6638 
   -6657    -6674    -6692    -6716    -6734    -6754    -6776    -6783 
   -6784    -6790    -6796    -6798    -6801    -6821    -6837    -6838 
   -6844    -6858    -6873    -6888    -6897    -6905    -6916    -6923 
   -6932    -6945    -6962    -6982    -6997    -7015    -7041    -7060 
   -7078    -7101    -7119    -7134    -7152    -7170    -7185    -7195 
   -7197    -7202    -7213    -7214    -7219    -7238    -7252    -7261 
   -7277    -7289    -7307    -7335    -7359    -7378    -7398    -7419 
   -7443    -7476    -7513    -7542    -7569    -7597    -7625    -7649 
   -7669    -7693    -7722    -7748    -7777    -7803    -7819    -7834 
   -7846    -7857    -7874    -7889    -7896    -7902    -7916    -7926 
   -7931    -7948    -7970    -7983    -8006    -8036    -8060    -8084 
   -8112    -8136    -8152    -8168    -8189    -8214    -8234    -8245 
   -8263    -8289    -8307    -8327    -8350    -8365    -8386    -8414 
   -8440    -8471    -8505    -8527    -8552    -8578    -8593    -8607 
   -8630    -8650    -8665    -8679    -8696    -8729    -8756    -8761 
   -8778    -8806    -8819    -8831    -8844    -8847    -8855    -8864 
   -8868    -8871    -8868    -8866    -8864    -8861    -8864    -8868 
   -8872    -8882    -8890    -8891    -8900    -8930    -8964    -8988 
   -9014    -9042    -9059    -9070    -9090    -9111    -9122    -9127 
   -9137    -9152    -9165    -9182    -9201    -9209    -9208    -9209 
   -9206    -9196    -9181    -9162    -9140    -9121    -9092    -9053 
   -9025    -8999    -8973    -8955    -8933    -8911    -8890    -8865 
   -8853    -8846    -8833    -8829    -8827    -8821    -8817    -8811 
