Origin Time       2011/03/11 14:46:00
Lat.              38.103
Long.             142.860
Depth. (km)       24
Mag.              9.0
Station Code      TKS001
Station Lat.      34.2034
Station Long.     134.6096
Station Height(m) 2
Record Time       2011/03/11 14:51:17
Sampling Freq(Hz) 100Hz
Duration Time(s)  84
Dir.              N-S
Scale Factor      3920(gal)/6182761
Max. Acc. (gal)   2.500
Last Correction   2011/03/11 14:51:02
Memo.             
[...]
  -13038   -12977   -12945   -12922   -12892   -12857   -12821   -12826 
  -12858   -12866   -12879   -12918   -12960   -12999   -13048   -13113 
  -13176   -13221   -13283   -13372   -13441   -13498   -13586   -13678 
  -13744   -13817   -13896   -13954   -13997   -14037   -14065   -14073 
  -14075   -14080   -14083   -14081   -14069   -14051   -14032   -14007 
  -13973   -13922   -13864   -13808   -13735   -13653   -13590   -13524 
  -13429   -13333   -13254   -13172   -13084   -12991   -12902   -12836 
  -12772   -12690   -12622   -12571   -12518   -12478   -12456   -12429 
  -12426   -12457   -12468   -12482   -12538   -12592   -12635   -12689 
  -12751   -12830   -12930   -13018   -13097   -13202   -13305   -13377 
  -13436   -13485   -13527   -13594   -13672   -13727   -13771   -13804 
  -13814   -13813   -13793   -13748   -13699   -13644   -13573   -13504 
  -13429   -13333   -13247   -13162   -13047   -12920   -12797   -12680 
  -12580   -12479   -12368   -12263   -12153   -12051   -11984   -11918 
  -11842   -11786   -11755   -11746   -11751   -11757   -11767   -11800 
  -11854   -11905   -11960   -12039   -12109   -12170   -12253   -12331 
  -12394   -12472   -12543   -12606   -12697   -12797   -12889   -12970 
  -13034   -13101   -13171   -13225   -13264   -13295   -13304   -13298 
  -13296   -13272   -13223   -13187   -13164   -13131   -13072   -12990 
  -12912   -12842   -12765   -12686   -12612   -12532   -12429   -12317 
  -12220   -12126   -12016   -11908   -11809   -11710   -11619   -11543 
  -11477   -11421   -11376   -11343   -11331   -11323   -11314   -11329 
  -11359   -11365   -11363   -11371   -11385   -11410   -11440   -11471 
  -11524   -11595   -11673   -11761   -11841   -11912   -11992   -12070 
  -12133   -12208   -12282   -12330   -12384   -12454   -12520   -12583 
  -12639   -12687   -12737   -12771   -12788   -12822   -12853   -12870 
  -12894   -12904   -12901   -12899   -12875   -12845   -12860   -12885 
  -12874   -12845   -12814   -12789   -12777   -12756   -12730   -12727 
  -12721   -12687   -12647   -12615   -12589   -12567   -12549   -12532 
  -12509   -12477   -12458   -12454   -12428   -12385   -12359   -12333 
  -12287   -12242   -12197   -12138   -12087   -12049   -11996   -11923 
  -11860   -11803   -11730   -11660   -11597   -11537   -11482   -11422 
  -11383   -11368   -11344   -11324   -11322   -11323   -11323   -11330 
  -11343   -11358   -11380   -11414   -11455   -11496   -11551   -11617 
  -11679   -11748   -11827   -11902   -11971   -12055   -12177   -12298 
  -12384   -12480   -12606   -12716   -12815   -12932   -13039   -13114 
  -13188   -13267   -13330   -13383   -13441   -13495   -13538   -13578 
  -13606   -13626   -13646   -13652   -13646   -13647   -13645   -13645 
  -13663   -13669   -13663   -13665   -13659   -13650   -13639   -13614 
  -13591   -13576   -13547   -13507   -13488   -13472   -13442   -13409 
  -13372   -13327   -13278   -13233   -13186   -13123   -13073   -13039 
  -12988   -12932   -12895   -12869   -12853   -12847   -12848   -12850 
  -12852   -12851   -12860   -12886   -12913   -12935   -12963   -13001 
  -13047   -13098   -13143   -13187   -13233   -13267   -13298   -13323 
  -13323   -13341   -13385   -13409   -13432   -13476   -13505   -13522 
  -13556   -13586   -13594   -13611   -13620   -13614   -13631   -13641 
  -13633   -13641   -13638   -13616   -13605   -13591   -13570   -13557 
  -13541   -13522   -13511   -13499   -13491   -13492   -13491   -13491 
  -13507   -13529   -13543   -13564   -13600   -13625   -13647   -13686 
  -13739   -13803   -13870   -13921   -13972   -14029   -14075   -14125 
  -14174   -14193   -14220   -14263   -14282   -14296   -14327   -14357 
  -14381   -14379   -14373   -14402   -14419   -14406   -14402   -14407 
  -14414   -14422   -14429   -14441   -14444   -14425   -14424   -14455 
  -14475   -14472   -14472   -14474   -14464   -14448   -14426   -14411 
  -14405   -14381   -14331   -14289   -14257   -14218   -14184   -14140 
  -14082   -14058   -14059   -14029   -13983   -13963   -13953   -13925 
  -13893   -13875   -13856   -13829   -13807   -13787   -13756   -13722 
  -13695   -13662   -13629   -13612   -13600   -13586   -13584   -13582 
  -13572   -13564   -13567   -13575   -13578   -13584   -13590   -13588 
  -13598   -13608   -13599   -13594   -13593   -13597   -13608   -13604 
  -13613   -13646   -13659   -13650   -13658   -13665   -13656   -13663 
  -13681   -13689   -13722   -13771   -13792   -13822   -13880   -13933 
  -13996   -14063   -14115   -14183   -14253   -14296   -14357   -14440 
  -14492   -14528   -14566   -14585   -14614   -14671   -14719   -14755 
  -14785   -14800   -14828   -14876   -14915   -14940   -14956   -14967 
  -14983   -14988   -14962   -14930   -14909   -14890   -14879   -14843 
  -14769   -14704   -14646   -14565   -14475   -14382   -14284   -14193 
  -14096   -13991   -13904   -13822   -13721   -13625   -13536   -13440 
  -13363   -13303   -13239   -13190   -13146   -13094   -13061   -13038 
  -13008   -12995   -12987   -12964   -12945   -12951   -12955   -12938 
  -12927   -12931   -12939   -12960   -12991   -13019   -13045   -13062 
  -13087   -13116   -13129   -13144   -13169   -13190   -13209   -13228 
  -13231   -13222   -13224   -13214   -13172   -13135   -13110   -13080 
  -13050   -13011   -12958   -12901   -12836   -12760   -12690   -12618 
  -12527   -12442   -12368   -12270   -12163   -12064   -11954   -11847 
  -11751   -11645   -11537   -11423   -11300   -11209   -11121   -11019 
  -10952   -10893   -10818   -10766   -10732   -10702   -10693   -10678 
  -10645   -10627   -10617   -10614   -10648   -10693   -10728   -10782 
  -10848   -10898   -10957   -11033   -11102   -11186   -11281   -11362 
  -11449   -11551   -11651   -11763   -11888   -12005   -12115   -12230 
  -12343   -12445   -12535   -12625   -12717   -12784   -12829   -12883 
  -12928   -12955   -12986   -13006   -13003   -12977   -12937   -12903 
  -12875   -12843   -12805   -12776   -12754   -12716   -12672   -12631 
  -12584   -12551   -12530   -12494   -12457   -12418   -12374   -12358 
  -12347   -12328   -12326   -12312   -12275   -12259   -12259   -12246 
  -12243   -12259   -12264   -12267   -12297   -12326   -12348   -12384 
  -12422   -12464   -12524   -12584   -12630   -12682   -12749   -12808 
  -12852   -12895   -12939   -12983   -13032   -13074   -13118   -13172 
  -13220   -13257   -13279   -13304   -13346   -13365   -13370   -13382 
  -13387   -13401   -13417   -13417   -13424   -13432   -13431   -13430 
  -13408   -13386   -13379   -13355   -13325   -13296   -13254   -13220 
  -13187   -13161   -13153   -13130   -13096   -13080   -13070   -13060 
  -13057   -13059   -13062   -13067   -13073   -13096   -13128   -13148 
  -13174   -13209   -13247   -13297   -13351   -13394   -13430   -13463 
  -13511   -13580   -13645   -13694   -13748   -13801   -13838   -13869 
  -13903   -13920   -13936   -13979   -14006   -14016   -14050   -14067 
  -14054   -14050   -14027   -13984   -13965   -13938   -13878   -13836 
  -13800   -13730   -13670   -13630   -13567   -13495   -13435   -13379 
  -13330   -13287   -13253   -13225   -13193   -13170   -13162   -13156 
  -13144   -13141   -13162   -13186   -13191   -13185   -13201   -13244 
  -13274   -13287   -13315   -13354   -13407   -13485   -13547   -13564 
  -13580   -13636   -13705   -13754   -13800   -13856   -13916   -13979 
  -14046   -14133   -14232   -14292   -14310   -14341   -14394   -14435 
  -14471   -14519   -14542   -14529   -14526   -14521   -14501   -14503 
  -14519   -14510   -14478   -14439   -14396   -14355   -14322   -14291 
  -14254   -14230   -14210   -14165   -14109   -14064   -14033   -13991 
  -13940   -13885   -13815   -13768   -13751   -13725   -13700   -13662 
  -13593   -13548   -13538   -13500   -13437   -13403   -13385   -13345 
  -13301   -13272   -13257   -13253   -13226   -13171   -13160   -13191 
  -13192   -13182   -13198   -13208   -13211   -13244   -13301   -13346 
  -13387   -13441   -13485   -13522   -13574   -13634   -13692   -13733 
  -13753   -13789   -13843   -13874   -13888   -13904   -13906   -13884 
  -13857   -13828   -13766   -13686   -13630   -13571   -13484   -13403 
  -13327   -13233   -13120   -12990   -12874   -12787   -12680   -12538 
  -12414   -12313   -12210   -12111   -12028   -11956   -11883   -11803 
  -11731   -11693   -11668   -11645   -11646   -11649   -11633   -11628 
  -11649   -11693   -11741   -11795   -11881   -11976   -12059   -12163 
  -12291   -12418   -12548   -12692   -12837   -12975   -13117   -13254 
  -13386   -13533   -13670   -13786   -13901   -14004   -14100   -14202 
  -14298   -14376   -14449   -14518   -14565   -14601   -14636   -14667 
  -14699   -14718   -14709   -14689   -14669   -14641   -14600   -14546 
  -14485   -14413   -14337   -14267   -14191   -14098   -14004   -13904 
  -13788   -13687   -13606   -13515   -13426   -13340   -13248   -13186 
  -13139   -13076   -13034   -13010   -12971   -12935   -12916   -12898 
  -12891   -12906   -12924   -12941   -12965   -13009   -13078   -13158 
  -13232   -13304   -13393   -13493   -13591   -13690   -13808   -13931 
  -14054   -14191   -14319   -14444   -14594   -14728   -14847   -14975 
  -15087   -15183   -15266   -15336   -15412   -15476   -15511   -15533 
  -15550   -15565   -15572   -15558   -15529   -15502   -15466   -15411 
  -15356   -15294   -15218   -15143   -15059   -14958   -14857   -14761 
  -14668   -14569   -14459   -14362   -14279   -14190   -14099   -14020 
  -13944   -13866   -13797   -13745   -13700   -13664   -13626   -13579 
  -13548   -13534   -13522   -13524   -13536   -13549   -13569   -13601 
  -13648   -13703   -13754   -13812   -13882   -13950   -14013   -14080 
  -14154   -14222   -14274   -14321   -14371   -14420   -14462   -14496 
  -14529   -14554   -14565   -14569   -14575   -14577   -14567   -14552 
  -14534   -14512   -14475   -14431   -14397   -14360   -14299   -14231 
  -14184   -14136   -14068   -14001   -13940   -13874   -13815   -13774 
  -13727   -13668   -13624   -13595   -13561   -13538   -13533   -13519 
  -13516   -13540   -13564   -13597   -13640   -13685   -13750   -13834 
  -13903   -13961   -14036   -14116   -14178   -14243   -14321   -14392 
  -14470   -14552   -14614   -14679   -14757   -14821   -14873   -14926 
  -14981   -15029   -15066   -15096   -15125   -15160   -15182   -15192 
  -15196   -15183   -15176   -15183   -15169   -15144   -15129   -15114 
  -15105   -15096   -15064   -15042   -15038   -15002   -14952   -14934 
  -14910   -14869   -14847   -14828   -14803   -14792   -14785   -14770 
  -14764   -14759   -14741   -14733   -14734   -14734   -14748   -14759 
  -14757   -14770   -14791   -14808   -14830   -14843   -14857   -14890 
  -14904   -14903   -14918   -14927   -14929   -14944   -14946   -14930 
  -14921   -14906   -14869   -14842   -14819   -14775   -14731   -14681 
  -14624   -14580   -14526   -14463   -14422   -14384   -14338   -14294 
  -14245   -14202   -14176   -14151   -14119   -14081   -14046   -14020 
  -13996   -13986   -13977   -13956   -13947   -13949   -13955   -13971 
  -13994   -14019   -14047   -14088   -14140   -14184   -14228   -14288 
  -14355   -14409   -14454   -14515   -14568   -14584   -14596   -14625 
  -14636   -14631   -14638   -14646   -14622   -14583   -14562   -14541 
  -14498   -14454   -14416   -14381   -14340   -14285   -14230   -14181 
  -14127   -14069   -14024   -13980   -13933   -13883   -13829   -13777 
  -13721   -13664   -13617   -13571   -13531   -13497   -13467   -13444 
  -13405   -13362   -13340   -13315   -13296   -13294   -13278   -13259 
  -13261   -13274   -13276   -13278   -13294   -13295   -13275   -13264 
  -13255   -13246   -13242   -13234   -13219   -13206   -13195   -13164 
  -13125   -13113   -13111   -13087   -13064   -13060   -13046   -13032 
  -13034   -13030   -13031   -13039   -13033   -13012   -12998   -12989 
  -12966   -12940   -12920   -12898   -12870   -12830   -12779   -12735 
  -12698   -12651   -12591   -12532   -12470   -12403   -12338   -12278 
  -12217   -12154   -12093   -12033   -11986   -11941   -11890   -11848 
  -11807   -11757   -11729   -11713   -11681   -11656   -11652   -11642 
  -11622   -11609   -11608   -11617   -11627   -11639   -11651   -11668 
  -11707   -11747   -11780   -11823   -11869   -11916   -11978   -12041 
  -12093   -12158   -12229   -12288   -12349   -12431   -12517   -12596 
  -12684   -12776   -12861   -12949   -13045   -13131   -13211   -13293 
  -13356   -13406   -13462   -13514   -13567   -13620   -13660   -13690 
  -13716   -13742   -13761   -13775   -13800   -13815   -13808   -13807 
  -13819   -13830   -13832   -13809   -13787   -13791   -13772   -13739 
  -13738   -13727   -13709   -13720   -13720   -13710   -13721   -13739 
  -13764   -13812   -13862   -13906   -13963   -14029   -14102   -14196 
  -14292   -14387   -14504   -14627   -14740   -14859   -14976   -15094 
  -15231   -15362   -15476   -15603   -15732   -15839   -15945   -16054 
  -16142   -16223   -16298   -16341   -16371   -16408   -16433   -16449 
  -16456   -16444   -16438   -16436   -16416   -16398   -16389   -16361 
  -16324   -16296   -16264   -16218   -16181   -16165   -16151   -16123 
  -16101   -16104   -16105   -16103   -16119   -16133   -16146   -16178 
  -16214   -16245   -16276   -16313   -16350   -16388   -16432   -16468 
  -16500   -16543   -16585   -16622   -16652   -16677   -16717   -16767 
  -16815   -16861   -16910   -16959   -16995   -17033   -17081   -17122 
  -17147   -17161   -17191   -17239   -17258   -17267   -17295   -17303 
  -17293   -17289   -17280   -17281   -17281   -17263   -17253   -17259 
  -17261   -17242   -17222   -17211   -17183   -17144   -17102   -17037 
  -16966   -16912   -16849   -16767   -16681   -16606   -16541   -16464 
  -16367   -16265   -16174   -16085   -15966   -15828   -15720   -15622 
  -15499   -15392   -15326   -15257   -15165   -15078   -15018   -14962 
  -14899   -14861   -14838   -14803   -14771   -14749   -14729   -14708 
  -14675   -14643   -14608   -14564   -14539   -14525   -14499   -14487 
  -14491   -14483   -14454   -14422   -14406   -14385   -14353   -14328 
  -14288   -14230   -14180   -14132   -14082   -14036   -13996   -13954 
  -13909   -13872   -13828   -13771   -13717   -13654   -13587   -13541 
  -13515   -13491   -13451   -13410   -13373   -13331   -13299   -13256 
  -13192   -13145   -13105   -13068   -13048   -13018   -12977   -12931 
  -12870   -12816   -12771   -12735   -12701   -12640   -12577   -12528 
  -12475   -12429   -12392   -12355   -12307   -12260   -12228   -12196 
  -12174   -12168   -12159   -12163   -12178   -12201   -12242   -12273 
  -12303   -12350   -12380   -12409   -12444   -12480   -12532   -12591 
  -12662   -12741   -12805   -12882   -12968   -13030   -13095   -13167 
  -13232   -13306   -13382   -13440   -13488   -13546   -13615   -13685 
  -13750   -13798   -13843   -13901   -13944   -13990   -14053   -14086 
  -14115   -14158   -14182   -14211   -14255   -14290   -14320   -14350 
  -14387   -14436   -14465   -14478   -14518   -14562   -14558   -14537 
  -14529   -14508   -14488   -14463   -14423   -14412   -14405   -14365 
  -14334   -14299   -14239   -14187   -14151   -14110   -14066   -14014 
  -13955   -13921   -13917   -13911   -13907   -13917   -13935   -13966 
  -13991   -13992   -13997   -14013   -14034   -14064   -14083   -14091 
  -14111   -14137   -14161   -14190   -14220   -14229   -14221   -14236 
  -14272   -14292   -14315   -14346   -14377   -14414   -14446   -14469 
  -14493   -14519   -14537   -14555   -14582   -14594   -14607   -14643 
  -14663   -14674   -14691   -14691   -14695   -14713   -14711   -14712 
  -14716   -14704   -14705   -14721   -14734   -14745   -14744   -14738 
  -14747   -14754   -14735   -14710   -14698   -14681   -14667   -14662 
  -14634   -14612   -14606   -14580   -14556   -14522   -14477   -14466 
  -14439   -14381   -14354   -14344   -14314   -14291   -14283   -14273 
  -14284   -14315   -14327   -14344   -14380   -14418   -14467   -14510 
  -14548   -14600   -14642   -14692   -14759   -14805   -14843   -14885 
  -14916   -14940   -14968   -15001   -15021   -15031   -15041   -15057 
  -15064   -15048   -15032   -15028   -15011   -14997   -14985   -14944 
  -14904   -14876   -14836   -14790   -14727   -14653   -14598   -14549 
  -14492   -14426   -14350   -14268   -14193   -14123   -14050   -13988 
  -13936   -13872   -13820   -13775   -13701   -13644   -13618   -13570 
  -13509   -13468   -13435   -13397   -13367   -13344   -13309   -13256 
  -13217   -13205   -13188   -13164   -13149   -13127   -13111   -13113 
  -13094   -13071   -13089   -13096   -13080   -13099   -13113   -13110 
  -13137   -13161   -13174   -13209   -13237   -13248   -13283   -13323 
  -13350   -13393   -13437   -13455   -13482   -13518   -13547   -13589 
  -13629   -13648   -13675   -13699   -13711   -13729   -13743   -13754 
  -13763   -13759   -13761   -13768   -13760   -13748   -13744   -13740 
  -13732   -13721   -13692   -13651   -13624   -13600   -13575   -13559 
  -13533   -13497   -13461   -13415   -13367   -13311   -13249   -13197 
  -13142   -13072   -13002   -12939   -12875   -12807   -12746   -12676 
  -12611   -12575   -12526   -12459   -12411   -12368   -12333   -12300 
  -12253   -12222   -12198   -12161   -12139   -12134   -12125   -12106 
  -12085   -12060   -12027   -12011   -11997   -11961   -11940   -11923 
  -11894   -11872   -11842   -11826   -11831   -11820   -11815   -11810 
  -11787   -11786   -11780   -11755   -11762   -11768   -11745   -11738 
  -11747   -11735   -11718   -11713   -11695   -11666   -11641   -11607 
  -11577   -11544   -11499   -11473   -11440   -11384   -11341   -11296 
  -11242   -11194   -11147   -11100   -11049   -10999   -10962   -10925 
  -10873   -10807   -10745   -10695   -10649   -10607   -10558   -10506 
  -10462   -10405   -10350   -10319   -10299   -10290   -10286   -10277 
  -10283   -10307   -10331   -10359   -10402   -10450   -10499   -10571 
  -10646   -10704   -10787   -10881   -10963   -11068   -11181   -11283 
  -11405   -11540   -11676   -11817   -11948   -12078   -12221   -12364 
  -12487   -12614   -12763   -12898   -13027   -13160   -13258   -13341 
  -13436   -13518   -13607   -13693   -13737   -13773   -13820   -13853 
  -13874   -13894   -13905   -13905   -13884   -13844   -13826   -13813 
  -13744   -13670   -13631   -13570   -13507   -13456   -13384   -13307 
  -13236   -13171   -13119   -13053   -12981   -12918   -12857   -12808 
  -12767   -12738   -12726   -12715   -12707   -12695   -12696   -12730 
  -12756   -12780   -12819   -12855   -12902   -12954   -13006   -13075 
  -13140   -13200   -13271   -13344   -13423   -13507   -13580   -13638 
  -13707   -13789   -13855   -13915   -13972   -14017   -14085   -14155 
  -14203   -14262   -14311   -14341   -14379   -14407   -14429   -14460 
  -14483   -14512   -14545   -14555   -14572   -14615   -14645   -14654 
  -14670   -14684   -14683   -14699   -14720   -14726   -14742   -14758 
  -14776   -14810   -14829   -14843   -14872   -14893   -14901   -14926 
  -14964   -14989   -15012   -15044   -15069   -15088   -15105   -15104 
  -15108   -15125   -15127   -15136   -15152   -15134   -15122   -15149 
  -15158   -15154   -15168   -15157   -15143   -15174   -15188   -15155 
  -15138   -15145   -15148   -15159   -15159   -15143   -15153   -15174 
