Origin Time       2011/03/11 14:46:00
Lat.              38.103
Long.             142.860
Depth. (km)       24
Mag.              9.0
Station Code      TKS006
Station Lat.      33.6689
Station Long.     134.4191
Station Height(m) 2
Record Time       2011/03/11 14:51:40
Sampling Freq(Hz) 100Hz
Duration Time(s)  60
Dir.              N-S
Scale Factor      3920(gal)/6182761
Max. Acc. (gal)   2.171
Last Correction   2011/03/11 14:51:25
Memo.             
[...]
  -13365   -13383   -13417   -13429   -13438   -13487   -13524   -13521 
  -13517   -13532   -13561   -13571   -13553   -13578   -13645   -13660 
  -13631   -13634   -13656   -13658   -13663   -13683   -13694   -13698 
  -13687   -13663   -13655   -13647   -13606   -13566   -13544   -13515 
  -13497   -13476   -13426   -13382   -13343   -13289   -13221   -13153 
  -13099   -13034   -12960   -12897   -12860   -12858   -12842   -12787 
  -12738   -12676   -12600   -12581   -12601   -12601   -12623   -12664 
  -12644   -12607   -12647   -12700   -12722   -12775   -12821   -12835 
  -12860   -12883   -12935   -13016   -13054   -13067   -13087   -13099 
  -13125   -13152   -13151   -13162   -13189   -13196   -13200   -13205 
  -13188   -13169   -13159   -13138   -13115   -13100   -13096   -13094 
  -13077   -13064   -13048   -13024   -13035   -13061   -13051   -13027 
  -13026   -13039   -13048   -13040   -13043   -13068   -13079   -13077 
  -13088   -13088   -13065   -13056   -13076   -13079   -13050   -13031 
  -13021   -12998   -12965   -12935   -12904   -12858   -12820   -12803 
  -12756   -12690   -12656   -12621   -12565   -12548   -12553   -12505 
  -12432   -12393   -12362   -12350   -12367   -12378   -12390   -12404 
  -12413   -12411   -12400   -12425   -12445   -12424   -12426   -12418 
  -12404   -12421   -12400   -12355   -12318   -12276   -12249   -12233 
  -12204   -12151   -12108   -12076   -12009   -11935   -11901   -11873 
  -11826   -11805   -11793   -11751   -11720   -11694   -11641   -11615 
  -11622   -11594   -11542   -11543   -11569   -11562   -11536   -11504 
  -11487   -11494   -11493   -11470   -11447   -11439   -11418   -11400 
  -11414   -11400   -11362   -11371   -11390   -11359   -11315   -11320 
  -11331   -11292   -11257   -11261   -11256   -11235   -11229   -11234 
  -11220   -11186   -11146   -11114   -11109   -11098   -11058   -11048 
  -11059   -11045   -11015   -10983   -10978   -11000   -10989   -10976 
  -11005   -11026   -11035   -11047   -11054   -11071   -11094   -11117 
  -11149   -11195   -11247   -11286   -11315   -11347   -11390   -11431 
  -11469   -11511   -11528   -11534   -11575   -11628   -11655   -11676 
  -11724   -11767   -11761   -11766   -11816   -11864   -11900   -11925 
  -11934   -11930   -11943   -11992   -12037   -12081   -12137   -12191 
  -12245   -12276   -12296   -12348   -12404   -12434   -12458   -12497 
  -12545   -12574   -12600   -12657   -12715   -12744   -12766   -12794 
  -12818   -12827   -12849   -12891   -12922   -12941   -12950   -12955 
  -12957   -12944   -12939   -12925   -12904   -12922   -12934   -12897 
  -12868   -12868   -12850   -12812   -12803   -12802   -12754   -12695 
  -12689   -12692   -12656   -12626   -12611   -12589   -12557   -12513 
  -12492   -12504   -12489   -12451   -12425   -12408   -12390   -12363 
  -12353   -12372   -12376   -12354   -12345   -12342   -12337   -12349 
  -12363   -12362   -12360   -12361   -12353   -12350   -12385   -12417 
  -12420   -12449   -12484   -12475   -12484   -12518   -12541   -12568 
  -12588   -12605   -12644   -12687   -12698   -12688   -12724   -12781 
  -12790   -12806   -12853   -12865   -12868   -12896   -12904   -12918 
  -12966   -13008   -13041   -13080   -13109   -13132   -13168   -13227 
  -13288   -13338   -13379   -13426   -13488   -13548   -13610   -13691 
  -13757   -13805   -13865   -13926   -13982   -14040   -14103   -14164 
  -14216   -14274   -14327   -14350   -14365   -14391   -14428   -14449 
  -14423   -14392   -14384   -14354   -14313   -14283   -14240   -14199 
  -14154   -14056   -13942   -13869   -13782   -13673   -13602   -13553 
  -13464   -13349   -13275   -13216   -13145   -13098   -13046   -12989 
  -12959   -12897   -12810   -12793   -12805   -12768   -12734   -12741 
  -12752   -12734   -12688   -12682   -12710   -12686   -12645   -12647 
  -12637   -12596   -12570   -12568   -12569   -12560   -12552   -12542 
  -12516   -12506   -12510   -12494   -12479   -12493   -12500   -12480 
  -12480   -12510   -12536   -12559   -12593   -12628   -12661   -12691 
  -12732   -12781   -12819   -12866   -12906   -12922   -12946   -12977 
  -13001   -13006   -12998   -13005   -13007   -12984   -12948   -12902 
  -12850   -12799   -12735   -12656   -12580   -12518   -12456   -12368 
  -12267   -12168   -12081   -12013   -11930   -11829   -11750   -11683 
  -11597   -11509   -11467   -11455   -11413   -11356   -11341   -11341 
  -11334   -11342   -11351   -11353   -11371   -11400   -11431   -11485 
  -11562   -11611   -11614   -11623   -11660   -11712   -11754   -11775 
  -11815   -11872   -11905   -11919   -11949   -11999   -12038   -12062 
  -12114   -12171   -12190   -12226   -12298   -12355   -12385   -12421 
  -12481   -12536   -12580   -12643   -12716   -12793   -12872   -12930 
  -12973   -13023   -13092   -13199   -13299   -13358   -13437   -13532 
  -13594   -13654   -13750   -13864   -13947   -13998   -14045   -14107 
  -14174   -14209   -14231   -14277   -14317   -14337   -14334   -14317 
  -14329   -14345   -14311   -14263   -14253   -14240   -14180   -14125 
  -14099   -14055   -13997   -13954   -13918   -13888   -13858   -13828 
  -13818   -13801   -13761   -13746   -13770   -13781   -13764   -13772 
  -13813   -13843   -13859   -13894   -13941   -13976   -14017   -14069 
  -14104   -14139   -14195   -14235   -14241   -14281   -14363   -14420 
  -14467   -14524   -14557   -14573   -14594   -14646   -14706   -14728 
  -14754   -14807   -14826   -14830   -14872   -14915   -14931   -14945 
  -14946   -14919   -14884   -14878   -14878   -14838   -14806   -14782 
  -14743   -14715   -14685   -14654   -14645   -14616   -14566   -14547 
  -14538   -14498   -14468   -14463   -14445   -14410   -14386   -14385 
  -14379   -14350   -14322   -14305   -14286   -14262   -14247   -14224 
  -14178   -14149   -14135   -14098   -14065   -14056   -14030   -13981 
  -13944   -13917   -13867   -13811   -13782   -13750   -13690   -13633 
  -13599   -13568   -13522   -13469   -13430   -13399   -13353   -13304 
  -13270   -13229   -13188   -13173   -13148   -13108   -13090   -13074 
  -13036   -12992   -12953   -12927   -12900   -12863   -12845   -12832 
  -12781   -12728   -12709   -12686   -12650   -12624   -12600   -12559 
  -12517   -12487   -12454   -12431   -12423   -12401   -12361   -12327 
  -12297   -12268   -12254   -12237   -12201   -12175   -12159   -12137 
  -12102   -12042   -11991   -11969   -11940   -11891   -11861   -11859 
  -11822   -11764   -11738   -11717   -11704   -11681   -11650   -11658 
  -11653   -11618   -11631   -11659   -11653   -11666   -11722   -11759 
  -11754   -11761   -11803   -11847   -11879   -11904   -11947   -12007 
  -12034   -12035   -12060   -12084   -12094   -12108   -12111   -12099 
  -12092   -12076   -12047   -12031   -12027   -12005   -11973   -11948 
  -11922   -11883   -11828   -11766   -11712   -11661   -11613   -11582 
  -11541   -11477   -11438   -11404   -11349   -11303   -11252   -11203 
  -11169   -11136   -11124   -11106   -11082   -11110   -11122   -11103 
  -11139   -11188   -11203   -11239   -11298   -11364   -11446   -11524 
  -11601   -11690   -11764   -11840   -11942   -12041   -12124   -12203 
  -12283   -12368   -12443   -12510   -12583   -12653   -12710   -12751 
  -12785   -12814   -12832   -12849   -12864   -12869   -12866   -12840 
  -12805   -12779   -12743   -12705   -12674   -12649   -12618   -12570 
  -12527   -12498   -12477   -12469   -12450   -12426   -12431   -12440 
  -12445   -12458   -12453   -12442   -12430   -12412   -12427   -12454 
  -12446   -12438   -12438   -12413   -12388   -12376   -12353   -12337 
  -12329   -12303   -12285   -12285   -12268   -12230   -12212   -12208 
  -12200   -12223   -12260   -12252   -12236   -12260   -12290   -12309 
  -12340   -12392   -12441   -12479   -12529   -12585   -12632   -12687 
  -12751   -12808   -12873   -12945   -13011   -13076   -13131   -13190 
  -13276   -13352   -13403   -13449   -13486   -13521   -13557   -13593 
  -13648   -13704   -13710   -13698   -13701   -13694   -13678   -13668 
  -13658   -13639   -13605   -13567   -13528   -13507   -13505   -13483 
  -13433   -13384   -13341   -13305   -13291   -13298   -13282   -13232 
  -13212   -13222   -13220   -13222   -13235   -13239   -13234   -13213 
  -13202   -13217   -13231   -13230   -13209   -13173   -13145   -13112 
  -13072   -13058   -13041   -12992   -12942   -12906   -12864   -12805 
  -12744   -12695   -12651   -12610   -12555   -12489   -12453   -12433 
  -12387   -12348   -12341   -12324   -12293   -12279   -12255   -12210 
  -12196   -12207   -12197   -12179   -12177   -12178   -12171   -12146 
  -12135   -12149   -12138   -12121   -12123   -12100   -12081   -12119 
  -12161   -12158   -12147   -12135   -12126   -12142   -12159   -12168 
  -12179   -12160   -12128   -12139   -12161   -12132   -12096   -12107 
  -12094   -12049   -12033   -12019   -11996   -11981   -11938   -11881 
  -11855   -11827   -11771   -11727   -11708   -11675   -11614   -11564 
  -11539   -11520   -11488   -11436   -11416   -11479   -11510   -11321 
  -11066   -11140   -11357   -11275   -11277   -11613   -11577   -11223 
  -11295   -11387   -11081   -10933   -11105   -11394   -11544   -11225 
  -10900   -11001   -11145   -11301   -11630   -11631   -10991   -10441 
  -10635   -11023   -11207   -11616   -11838   -11185   -10455   -10502 
  -11020   -11581   -11844   -11566   -11122   -10997   -11120   -11257 
  -11514   -11837   -11708   -11201   -11069   -11359   -11624   -11727 
  -11599   -11422   -11447   -11505   -11457   -11463   -11580   -11643 
  -11564   -11396   -11313   -11438   -11562   -11537   -11544   -11639 
  -11651   -11552   -11500   -11542   -11653   -11773   -11764   -11682 
  -11676   -11718   -11793   -11870   -11832   -11782   -11869   -11973 
  -11978   -11962   -12059   -12202   -12221   -12158   -12120   -12156 
  -12237   -12221   -12219   -12438   -12634   -12552   -12437   -12525 
  -12614   -12527   -12460   -12549   -12604   -12480   -12374   -12509 
  -12625   -12464   -12308   -12343   -12355   -12280   -12223   -12165 
  -12051   -11973   -12041   -12136   -12038   -11836   -11761   -11750 
  -11743   -11818   -11834   -11772   -11790   -11729   -11600   -11667 
  -11767   -11747   -11740   -11679   -11564   -11572   -11590   -11559 
  -11634   -11723   -11696   -11628   -11586   -11564   -11535   -11521 
  -11556   -11585   -11573   -11521   -11467   -11503   -11548   -11465 
  -11418   -11513   -11540   -11483   -11527   -11555   -11438   -11383 
  -11519   -11725   -11785   -11589   -11412   -11496   -11646   -11741 
  -11822   -11826   -11784   -11786   -11831   -11889   -11935   -11985 
  -12008   -11911   -11824   -11972   -12170   -12122   -11963   -11892 
  -11875   -11905   -11938   -11927   -11912   -11760   -11497   -11449 
  -11574   -11590   -11517   -11466   -11387   -11205   -11002   -11003 
  -11164   -11143   -10965   -10911   -10869   -10725   -10710   -10844 
  -10896   -10806   -10721   -10737   -10756   -10735   -10753   -10799 
  -10810   -10786   -10788   -10878   -11001   -11019   -10987   -10997 
  -10931   -10855   -10953   -11112   -11224   -11335   -11390   -11313 
  -11214   -11234   -11295   -11302   -11385   -11588   -11691   -11641 
  -11588   -11568   -11636   -11805   -11887   -11835   -11817   -11862 
  -11871   -11899   -11989   -12032   -12026   -12002   -11916   -11916 
  -12142   -12347   -12278   -12127   -12141   -12202   -12178   -12155 
  -12206   -12314   -12353   -12300   -12361   -12475   -12444   -12395 
  -12459   -12535   -12502   -12442   -12504   -12600   -12589   -12563 
  -12596   -12588   -12541   -12649   -12822   -12727   -12506   -12430 
  -12397   -12429   -12546   -12571   -12528   -12514   -12471   -12370 
  -12307   -12344   -12354   -12219   -12050   -12022   -12099   -12177 
  -12260   -12257   -12116   -11950   -11815   -11732   -11767   -11905 
  -12012   -11941   -11779   -11718   -11766   -11843   -11895   -11885 
  -11791   -11696   -11728   -11803   -11814   -11839   -11939   -11983 
  -11891   -11861   -11904   -11859   -11864   -11947   -11969   -11932 
  -11877   -11888   -11919   -11919   -12064   -12242   -12126   -11828 
  -11735   -11892   -12009   -12004   -11980   -11898   -11752   -11658 
  -11694   -11830   -11920   -11829   -11615   -11479   -11484   -11497 
  -11492   -11525   -11489   -11353   -11212   -11130   -11184   -11351 
  -11435   -11321   -11180   -11172   -11117   -10956   -10938   -11053 
  -11057   -10972   -10990   -11077   -11060   -10963   -10936   -10944 
  -10848   -10777   -10878   -10911   -10790   -10785   -10834   -10725 
  -10675   -10750   -10717   -10676   -10679   -10572   -10496   -10514 
  -10469   -10434   -10471   -10464   -10393   -10308   -10288   -10384 
  -10481   -10439   -10296   -10207   -10222   -10295   -10366   -10386 
  -10405   -10429   -10406   -10397   -10425   -10479   -10524   -10478 
  -10443   -10521   -10565   -10557   -10616   -10629   -10494   -10418 
  -10515   -10611   -10616   -10607   -10604   -10566   -10492   -10468 
  -10539   -10562   -10492   -10458   -10466   -10444   -10427   -10458 
  -10476   -10456   -10431   -10376   -10334   -10344   -10305   -10239 
  -10255   -10285   -10269   -10286   -10394   -10485   -10393   -10173 
  -10001    -9946   -10012   -10190   -10415   -10448   -10099    -9731 
   -9825   -10363   -11150   -11806   -11697   -10820    -9946    -9600 
   -9758   -10241   -10660   -10590   -10315   -10622   -11727   -12965 
  -13408   -12760   -11456   -10005    -8940    -8869    -9760   -10875 
  -11868   -12764   -12903   -12040   -11405   -11422   -11130   -10813 
  -11295   -11670   -11092   -10504   -10622   -10709   -10725   -11597 
  -12599   -12455   -11911   -11846   -11708   -11279   -11208   -11584 
  -11768   -11505   -11050   -10760   -11030   -12008   -13144   -13421 
  -12589   -11623   -11344   -11644   -12047   -12003   -11524   -11527 
  -12076   -12265   -12294   -12475   -12273   -12005   -12288   -12636 
  -12473   -12099   -11998   -12025   -11941   -11957   -12172   -12457 
  -12619   -12563   -12662   -13044   -13080   -12557   -12132   -12222 
  -12454   -12507   -12661   -12961   -13025   -12962   -13030   -12955 
  -12704   -12745   -13004   -12863   -12404   -12343   -12729   -12994 
  -12982   -12844   -12660   -12495   -12390   -12425   -12555   -12572 
  -12423   -12237   -12176   -12252   -12265   -12107   -11944   -11952 
  -12125   -12422   -12612   -12386   -11907   -11574   -11548   -11769 
  -12043   -12254   -12363   -12232   -11932   -11775   -11892   -12133 
  -12241   -12176   -12074   -11980   -11957   -12015   -12089   -12186 
  -12235   -12109   -11894   -11877   -12133   -12391   -12459   -12358 
  -12194   -12095   -12077   -12076   -12068   -12068   -12158   -12325 
  -12409   -12349   -12206   -12093   -12071   -12117   -12210   -12271 
  -12241   -12127   -11933   -11805   -11881   -11994   -11998   -11922 
  -11786   -11691   -11732   -11854   -11938   -11883   -11741   -11621 
  -11523   -11469   -11487   -11587   -11700   -11721   -11716   -11720 
  -11687   -11693   -11697   -11646   -11697   -11821   -11818   -11785 
  -11899   -12002   -11969   -11960   -12025   -12004   -11930   -11947 
  -11992   -11997   -12030   -12085   -12106   -12140   -12175   -12144 
  -12094   -12088   -12101   -12078   -11988   -11902   -11872   -11873 
  -11917   -11947   -11905   -11879   -11874   -11860   -11875   -11828 
  -11741   -11770   -11834   -11829   -11806   -11817   -11843   -11826 
  -11814   -11871   -11996   -12116   -12113   -12052   -12043   -12024 
  -12036   -12113   -12122   -12115   -12200   -12267   -12290   -12347 
  -12412   -12447   -12443   -12374   -12290   -12296   -12357   -12377 
  -12383   -12435   -12519   -12578   -12571   -12524   -12476   -12400 
  -12292   -12274   -12342   -12327   -12240   -12158   -12053   -11959 
  -11932   -11937   -11921   -11858   -11768   -11698   -11654   -11609 
  -11595   -11600   -11527   -11401   -11351   -11356   -11309   -11269 
  -11307   -11321   -11226   -11133   -11152   -11205   -11233   -11297 
  -11379   -11404   -11321   -11171   -11097   -11124   -11175   -11217 
  -11252   -11286   -11311   -11337   -11344   -11323   -11337   -11354 
  -11315   -11293   -11347   -11419   -11445   -11442   -11448   -11484 
  -11514   -11510   -11551   -11614   -11579   -11517   -11566   -11676 
  -11735   -11732   -11734   -11774   -11810   -11823   -11873   -11952 
  -11981   -11972   -11994   -12045   -12063   -12035   -12035   -12087 
  -12101   -12074   -12080   -12105   -12108   -12073   -12032   -12043 
  -12065   -12049   -12040   -12039   -12003   -11941   -11885   -11863 
  -11881   -11887   -11856   -11833   -11819   -11812   -11860   -11915 
  -11886   -11806   -11774   -11795   -11822   -11887   -11995   -12030 
  -11973   -11970   -12068   -12161   -12198   -12220   -12255   -12302 
  -12360   -12429   -12506   -12553   -12546   -12580   -12690   -12745 
  -12748   -12791   -12837   -12843   -12825   -12803   -12799   -12838 
  -12887   -12895   -12887   -12876   -12844   -12804   -12769   -12758 
  -12764   -12750   -12725   -12698   -12679   -12694   -12722   -12688 
  -12588   -12539   -12588   -12603   -12553   -12526   -12517   -12501 
  -12515   -12551   -12549   -12502   -12462   -12435   -12416   -12441 
  -12509   -12569   -12576   -12567   -12595   -12625   -12631   -12637 
  -12647   -12650   -12657   -12692   -12754   -12801   -12814   -12840 
  -12907   -12932   -12860   -12803   -12846   -12914   -12934   -12957 
  -13004   -13011   -12986   -12953   -12907   -12909   -12960   -12979 
  -12984   -13006   -13006   -12980   -12950   -12931   -12951   -12998 
  -13013   -13016   -13052   -13067   -13045   -13025   -13019   -13052 
  -13084   -13096   -13147   -13180   -13148   -13139   -13194   -13243 
  -13232   -13210   -13234   -13253   -13230   -13237   -13307   -13352 
  -13324   -13280   -13279   -13305   -13334   -13374   -13391   -13348 
  -13299   -13292   -13310   -13333   -13345   -13333   -13314   -13307 
  -13290   -13269   -13272   -13249   -13188   -13170   -13180   -13148 
  -13117   -13111   -13064   -12991   -12967   -12960   -12906   -12860 
  -12857   -12827   -12764   -12720   -12690   -12660   -12633   -12612 
  -12571   -12489   -12434   -12451   -12460   -12428   -12409   -12393 
  -12337   -12282   -12273   -12297   -12303   -12276   -12248   -12208 
  -12158   -12162   -12199   -12207   -12192   -12170   -12168   -12193 
  -12189   -12164   -12177   -12197   -12183   -12157   -12154   -12187 
  -12220   -12213   -12193   -12186   -12176   -12167   -12173   -12203 
  -12238   -12230   -12189   -12162   -12155   -12150   -12142   -12136 
  -12119   -12108   -12131   -12158   -12174   -12169   -12123   -12066 
  -12032   -12001   -11974   -11989   -12025   -12035   -12034   -12038 
  -12020   -11992   -11991   -11987   -11936   -11881   -11873   -11887 
  -11911   -11942   -11946   -11919   -11869   -11823   -11833   -11856 
  -11844   -11829   -11806   -11755   -11732   -11752   -11733   -11698 
  -11691   -11656   -11596   -11569   -11574   -11588   -11584   -11561 
  -11541   -11512   -11478   -11474   -11476   -11465   -11461   -11462 
  -11455   -11440   -11430   -11438   -11446   -11455   -11460   -11447 
  -11463   -11499   -11504   -11510   -11524   -11513   -11495   -11511 
