Origin Time       2011/03/11 14:46:00
Lat.              38.103
Long.             142.860
Depth. (km)       24
Mag.              9.0
Station Code      TKS001
Station Lat.      34.2034
Station Long.     134.6096
Station Height(m) 2
Record Time       2011/03/11 14:51:17
Sampling Freq(Hz) 100Hz
Duration Time(s)  84
Dir.              E-W
Scale Factor      3920(gal)/6182761
Max. Acc. (gal)   2.268
Last Correction   2011/03/11 14:51:02
Memo.             
[...]
   -6839    -6858    -6873    -6884    -6878    -6862    -6848    -6832 
   -6805    -6786    -6768    -6718    -6666    -6632    -6592    -6549 
   -6522    -6496    -6459    -6428    -6400    -6362    -6332    -6309 
   -6268    -6216    -6179    -6152    -6127    -6104    -6073    -6040 
   -6009    -5975    -5949    -5927    -5903    -5884    -5868    -5855 
   -5843    -5828    -5828    -5831    -5804    -5792    -5818    -5829 
   -5819    -5816    -5819    -5818    -5825    -5837    -5818    -5774 
   -5749    -5737    -5708    -5679    -5659    -5628    -5594    -5581 
   -5576    -5572    -5572    -5554    -5531    -5527    -5521    -5523 
   -5541    -5552    -5560    -5574    -5594    -5633    -5658    -5656 
   -5664    -5689    -5710    -5726    -5748    -5776    -5808    -5850 
   -5901    -5942    -5981    -6045    -6106    -6145    -6202    -6268 
   -6316    -6377    -6437    -6463    -6488    -6538    -6580    -6595 
   -6607    -6614    -6588    -6563    -6556    -6525    -6484    -6468 
   -6441    -6393    -6352    -6293    -6209    -6146    -6095    -6032 
   -5982    -5949    -5904    -5854    -5824    -5807    -5787    -5763 
   -5737    -5710    -5699    -5706    -5699    -5683    -5680    -5677 
   -5677    -5694    -5722    -5752    -5786    -5824    -5858    -5878 
   -5902    -5957    -6012    -6042    -6091    -6164    -6213    -6254 
   -6309    -6342    -6373    -6437    -6485    -6503    -6532    -6564 
   -6578    -6592    -6610    -6613    -6601    -6592    -6587    -6584 
   -6585    -6580    -6559    -6542    -6533    -6517    -6504    -6518 
   -6540    -6547    -6570    -6615    -6642    -6673    -6717    -6750 
   -6797    -6870    -6948    -7040    -7152    -7250    -7329    -7412 
   -7499    -7585    -7674    -7761    -7841    -7935    -8044    -8137 
   -8218    -8307    -8394    -8475    -8545    -8599    -8649    -8703 
   -8747    -8766    -8772    -8764    -8740    -8727    -8723    -8692 
   -8648    -8600    -8525    -8436    -8350    -8261    -8173    -8085 
   -7990    -7903    -7814    -7722    -7654    -7595    -7539    -7496 
   -7444    -7397    -7369    -7341    -7321    -7320    -7315    -7304 
   -7318    -7344    -7356    -7386    -7441    -7487    -7530    -7590 
   -7643    -7679    -7731    -7788    -7829    -7873    -7939    -8005 
   -8065    -8140    -8205    -8252    -8308    -8345    -8350    -8350 
   -8335    -8309    -8304    -8304    -8278    -8226    -8157    -8074 
   -7970    -7870    -7781    -7675    -7553    -7436    -7321    -7214 
   -7117    -7004    -6875    -6763    -6654    -6531    -6408    -6290 
   -6176    -6082    -6002    -5938    -5885    -5829    -5786    -5758 
   -5725    -5700    -5688    -5680    -5668    -5637    -5616    -5643 
   -5683    -5708    -5743    -5791    -5824    -5850    -5896    -5947 
   -5991    -6031    -6057    -6091    -6146    -6178    -6187    -6214 
   -6244    -6249    -6249    -6249    -6230    -6196    -6161    -6119 
   -6047    -5972    -5911    -5829    -5750    -5686    -5606    -5521 
   -5422    -5283    -5146    -5046    -4943    -4827    -4740    -4677 
   -4604    -4532    -4476    -4410    -4347    -4318    -4297    -4269 
   -4249    -4233    -4233    -4256    -4266    -4262    -4275    -4307 
   -4351    -4402    -4450    -4493    -4535    -4596    -4677    -4746 
   -4808    -4881    -4962    -5046    -5128    -5206    -5278    -5332 
   -5378    -5426    -5489    -5577    -5647    -5686    -5738    -5791 
   -5811    -5820    -5845    -5853    -5837    -5832    -5834    -5813 
   -5782    -5764    -5727    -5679    -5662    -5660    -5643    -5623 
   -5609    -5575    -5530    -5514    -5515    -5512    -5521    -5540 
   -5542    -5546    -5571    -5584    -5581    -5596    -5625    -5643 
   -5656    -5677    -5695    -5711    -5733    -5755    -5771    -5791 
   -5823    -5849    -5880    -5941    -5990    -6018    -6069    -6122 
   -6153    -6192    -6242    -6289    -6345    -6400    -6432    -6461 
   -6502    -6549    -6597    -6643    -6681    -6705    -6724    -6752 
   -6785    -6817    -6840    -6851    -6859    -6873    -6901    -6933 
   -6955    -6981    -7000    -7002    -7014    -7033    -7041    -7061 
   -7096    -7120    -7135    -7141    -7120    -7097    -7093    -7089 
   -7076    -7056    -7023    -6988    -6954    -6922    -6893    -6852 
   -6804    -6772    -6742    -6696    -6645    -6603    -6564    -6521 
   -6489    -6474    -6462    -6466    -6477    -6459    -6439    -6439 
   -6456    -6496    -6534    -6550    -6574    -6622    -6681    -6737 
   -6770    -6778    -6796    -6835    -6864    -6884    -6912    -6941 
   -6970    -7007    -7034    -7036    -7026    -7019    -7007    -6978 
   -6936    -6894    -6858    -6806    -6740    -6673    -6578    -6457 
   -6352    -6258    -6144    -6017    -5890    -5764    -5635    -5495 
   -5346    -5205    -5076    -4947    -4829    -4732    -4631    -4519 
   -4417    -4330    -4237    -4141    -4068    -4001    -3931    -3890 
   -3859    -3813    -3766    -3720    -3670    -3635    -3636    -3651 
   -3664    -3696    -3737    -3759    -3778    -3806    -3842    -3893 
   -3957    -4032    -4127    -4234    -4321    -4395    -4483    -4565 
   -4629    -4686    -4731    -4764    -4794    -4832    -4871    -4896 
   -4908    -4899    -4872    -4851    -4839    -4824    -4815    -4805 
   -4772    -4725    -4689    -4658    -4623    -4601    -4573    -4529 
   -4491    -4452    -4405    -4369    -4347    -4331    -4314    -4290 
   -4267    -4253    -4256    -4287    -4314    -4322    -4340    -4352 
   -4350    -4367    -4415    -4475    -4548    -4635    -4724    -4807 
   -4890    -4986    -5084    -5173    -5272    -5385    -5509    -5647 
   -5787    -5916    -6043    -6161    -6261    -6362    -6463    -6561 
   -6658    -6732    -6794    -6861    -6933    -7011    -7083    -7148 
   -7222    -7291    -7352    -7421    -7485    -7531    -7572    -7618 
   -7650    -7669    -7698    -7726    -7742    -7750    -7745    -7722 
   -7684    -7636    -7585    -7537    -7483    -7413    -7340    -7266 
   -7179    -7088    -7011    -6951    -6894    -6831    -6766    -6703 
   -6646    -6596    -6553    -6525    -6498    -6465    -6438    -6407 
   -6364    -6309    -6254    -6223    -6209    -6185    -6154    -6128 
   -6103    -6076    -6073    -6108    -6133    -6122    -6108    -6105 
   -6136    -6205    -6249    -6251    -6257    -6269    -6290    -6352 
   -6432    -6482    -6514    -6538    -6559    -6597    -6636    -6645 
   -6652    -6691    -6711    -6674    -6636    -6641    -6670    -6668 
   -6604    -6545    -6549    -6579    -6578    -6530    -6471    -6438 
   -6397    -6332    -6295    -6278    -6234    -6145    -6022    -5935 
   -5931    -5928    -5837    -5693    -5588    -5528    -5464    -5402 
   -5353    -5269    -5173    -5131    -5108    -5061    -5013    -4981 
   -4949    -4914    -4890    -4882    -4893    -4895    -4869    -4861 
   -4860    -4823    -4812    -4850    -4841    -4778    -4746    -4753 
   -4748    -4738    -4745    -4734    -4710    -4722    -4762    -4777 
   -4763    -4755    -4780    -4826    -4871    -4917    -4958    -5001 
   -5059    -5117    -5160    -5194    -5231    -5293    -5373    -5424 
   -5442    -5471    -5522    -5568    -5602    -5643    -5693    -5730 
   -5750    -5780    -5818    -5851    -5887    -5938    -5978    -5988 
   -5995    -6013    -6029    -6047    -6074    -6091    -6093    -6106 
   -6135    -6156    -6162    -6160    -6158    -6158    -6151    -6154 
   -6168    -6164    -6145    -6125    -6110    -6111    -6110    -6091 
   -6070    -6074    -6093    -6109    -6124    -6128    -6131    -6154 
   -6194    -6245    -6297    -6351    -6408    -6456    -6490    -6539 
   -6622    -6713    -6796    -6880    -6983    -7098    -7208    -7318 
   -7423    -7504    -7583    -7668    -7742    -7810    -7889    -7951 
   -7990    -8035    -8088    -8127    -8149    -8152    -8148    -8161 
   -8172    -8145    -8106    -8089    -8077    -8046    -8010    -7976 
   -7935    -7885    -7826    -7771    -7711    -7640    -7581    -7522 
   -7453    -7386    -7315    -7239    -7160    -7083    -7001    -6904 
   -6817    -6749    -6682    -6620    -6562    -6498    -6451    -6446 
   -6453    -6437    -6413    -6413    -6428    -6441    -6463    -6485 
   -6504    -6533    -6572    -6615    -6642    -6652    -6668    -6683 
   -6701    -6733    -6767    -6791    -6812    -6833    -6855    -6867 
   -6882    -6900    -6903    -6903    -6910    -6916    -6923    -6922 
   -6910    -6904    -6894    -6869    -6836    -6791    -6742    -6689 
   -6611    -6518    -6427    -6342    -6248    -6136    -6027    -5925 
   -5823    -5721    -5614    -5502    -5401    -5312    -5221    -5134 
   -5057    -4991    -4937    -4889    -4832    -4779    -4742    -4701 
   -4665    -4648    -4636    -4628    -4629    -4635    -4652    -4680 
   -4715    -4753    -4789    -4833    -4876    -4910    -4956    -5007 
   -5040    -5066    -5102    -5133    -5159    -5197    -5237    -5259 
   -5263    -5266    -5260    -5227    -5196    -5192    -5179    -5135 
   -5103    -5089    -5047    -4996    -4966    -4929    -4885    -4853 
   -4817    -4775    -4758    -4757    -4748    -4748    -4751    -4741 
   -4738    -4751    -4761    -4774    -4799    -4817    -4833    -4862 
   -4894    -4924    -4962    -5001    -5045    -5099    -5145    -5191 
   -5239    -5265    -5295    -5345    -5392    -5447    -5501    -5521 
   -5550    -5607    -5632    -5632    -5657    -5677    -5665    -5661 
   -5663    -5653    -5651    -5662    -5660    -5646    -5639    -5636 
   -5624    -5615    -5611    -5598    -5579    -5565    -5554    -5552 
   -5565    -5575    -5575    -5579    -5586    -5591    -5614    -5648 
   -5672    -5698    -5742    -5799    -5853    -5903    -5966    -6030 
   -6089    -6162    -6234    -6288    -6355    -6432    -6488    -6525 
   -6561    -6593    -6628    -6666    -6667    -6647    -6641    -6634 
   -6608    -6563    -6511    -6457    -6392    -6329    -6274    -6214 
   -6153    -6094    -6010    -5914    -5843    -5772    -5689    -5628 
   -5566    -5492    -5438    -5388    -5326    -5280    -5253    -5231 
   -5218    -5218    -5224    -5232    -5257    -5292    -5321    -5368 
   -5431    -5487    -5546    -5610    -5671    -5740    -5828    -5915 
   -5989    -6056    -6120    -6199    -6305    -6403    -6480    -6551 
   -6607    -6648    -6696    -6745    -6782    -6810    -6827    -6850 
   -6866    -6858    -6858    -6860    -6841    -6826    -6811    -6769 
   -6719    -6676    -6626    -6567    -6507    -6450    -6386    -6307 
   -6222    -6150    -6095    -6042    -5992    -5935    -5871    -5826 
   -5793    -5763    -5742    -5717    -5684    -5664    -5672    -5679 
   -5679    -5691    -5706    -5723    -5745    -5784    -5829    -5847 
   -5868    -5911    -5948    -5989    -6035    -6060    -6082    -6137 
   -6185    -6197    -6203    -6212    -6218    -6234    -6262    -6270 
   -6255    -6254    -6264    -6257    -6244    -6242    -6241    -6234 
   -6227    -6211    -6180    -6155    -6144    -6133    -6120    -6110 
   -6095    -6080    -6074    -6066    -6051    -6041    -6042    -6038 
   -6025    -6018    -6012    -5993    -5975    -5969    -5963    -5937 
   -5913    -5909    -5903    -5874    -5836    -5809    -5779    -5735 
   -5697    -5671    -5647    -5630    -5613    -5579    -5548    -5526 
   -5498    -5468    -5432    -5387    -5358    -5335    -5291    -5253 
   -5223    -5176    -5136    -5114    -5087    -5068    -5058    -5032 
   -5003    -4998    -4990    -4973    -4967    -4959    -4960    -4989 
   -5010    -5017    -5042    -5081    -5112    -5135    -5166    -5204 
   -5236    -5268    -5300    -5323    -5344    -5368    -5378    -5375 
   -5386    -5397    -5383    -5371    -5378    -5372    -5339    -5306 
   -5281    -5253    -5222    -5180    -5124    -5070    -5018    -4964 
   -4934    -4918    -4879    -4822    -4779    -4754    -4728    -4702 
   -4675    -4646    -4638    -4649    -4648    -4640    -4643    -4647 
   -4654    -4686    -4717    -4738    -4787    -4851    -4903    -4969 
   -5048    -5121    -5208    -5301    -5373    -5449    -5546    -5641 
   -5725    -5815    -5912    -5999    -6087    -6190    -6285    -6361 
   -6433    -6507    -6575    -6640    -6712    -6783    -6845    -6917 
   -6983    -7031    -7086    -7144    -7183    -7216    -7243    -7260 
   -7276    -7284    -7281    -7291    -7315    -7318    -7302    -7287 
   -7266    -7233    -7204    -7184    -7150    -7097    -7050    -7015 
   -6973    -6917    -6860    -6816    -6786    -6755    -6711    -6645 
   -6573    -6514    -6438    -6353    -6291    -6217    -6140    -6097 
   -6044    -5971    -5924    -5884    -5831    -5779    -5726    -5674 
   -5630    -5591    -5550    -5512    -5490    -5478    -5457    -5437 
   -5430    -5438    -5452    -5463    -5478    -5497    -5523    -5571 
   -5617    -5643    -5677    -5731    -5794    -5845    -5872    -5904 
   -5954    -5998    -6053    -6136    -6208    -6261    -6317    -6370 
   -6429    -6472    -6473    -6476    -6501    -6499    -6477    -6471 
   -6464    -6433    -6387    -6331    -6263    -6197    -6135    -6045 
   -5921    -5797    -5666    -5524    -5407    -5314    -5210    -5095 
   -4970    -4821    -4669    -4531    -4380    -4212    -4052    -3908 
   -3769    -3625    -3492    -3367    -3223    -3087    -2983    -2875 
   -2755    -2657    -2577    -2506    -2467    -2448    -2420    -2397 
   -2400    -2419    -2434    -2441    -2447    -2476    -2521    -2548 
   -2565    -2617    -2692    -2753    -2829    -2926    -2995    -3034 
   -3090    -3179    -3287    -3403    -3538    -3673    -3784    -3892 
   -3996    -4080    -4181    -4294    -4386    -4484    -4575    -4633 
   -4707    -4802    -4866    -4919    -4987    -5030    -5052    -5092 
   -5133    -5166    -5200    -5220    -5234    -5249    -5249    -5244 
   -5235    -5216    -5186    -5144    -5111    -5091    -5066    -5032 
   -5004    -4978    -4937    -4887    -4844    -4800    -4747    -4717 
   -4693    -4637    -4592    -4585    -4577    -4571    -4576    -4581 
   -4597    -4627    -4655    -4680    -4719    -4758    -4787    -4826 
   -4882    -4942    -4999    -5053    -5118    -5190    -5253    -5314 
   -5387    -5471    -5556    -5649    -5762    -5870    -5965    -6064 
   -6166    -6266    -6355    -6430    -6510    -6601    -6689    -6768 
   -6842    -6914    -6995    -7078    -7149    -7206    -7247    -7289 
   -7339    -7390    -7434    -7461    -7464    -7463    -7485    -7493 
   -7485    -7490    -7467    -7432    -7427    -7403    -7349    -7315 
   -7292    -7256    -7211    -7164    -7112    -7064    -7031    -6997 
   -6954    -6927    -6916    -6895    -6864    -6853    -6855    -6845 
   -6834    -6833    -6839    -6860    -6891    -6927    -6964    -6996 
   -7022    -7049    -7085    -7125    -7155    -7183    -7221    -7254 
   -7273    -7302    -7336    -7357    -7405    -7465    -7478    -7486 
   -7513    -7496    -7458    -7467    -7469    -7440    -7433    -7397 
   -7310    -7259    -7222    -7144    -7075    -7044    -6977    -6873 
   -6801    -6738    -6647    -6564    -6493    -6388    -6268    -6183 
   -6087    -5941    -5817    -5719    -5581    -5446    -5337    -5206 
   -5076    -4980    -4871    -4737    -4623    -4525    -4411    -4298 
   -4206    -4116    -4027    -3950    -3895    -3848    -3787    -3737 
   -3716    -3696    -3681    -3681    -3687    -3700    -3714    -3725 
   -3753    -3800    -3849    -3908    -3971    -4005    -4029    -4079 
   -4138    -4184    -4238    -4309    -4377    -4440    -4513    -4595 
   -4675    -4740    -4800    -4870    -4929    -4974    -5026    -5076 
   -5109    -5132    -5156    -5173    -5178    -5183    -5188    -5180 
   -5171    -5174    -5166    -5137    -5110    -5088    -5073    -5066 
   -5050    -5035    -5022    -4995    -4965    -4939    -4908    -4879 
   -4859    -4837    -4807    -4789    -4788    -4785    -4769    -4745 
   -4723    -4711    -4710    -4710    -4704    -4705    -4726    -4744 
   -4757    -4782    -4810    -4825    -4848    -4894    -4941    -4976 
   -5015    -5061    -5108    -5161    -5211    -5251    -5289    -5321 
   -5348    -5380    -5398    -5409    -5427    -5437    -5443    -5457 
   -5462    -5460    -5459    -5455    -5452    -5447    -5436    -5426 
   -5418    -5412    -5402    -5379    -5350    -5327    -5302    -5271 
   -5253    -5235    -5192    -5153    -5130    -5096    -5051    -5007 
   -4969    -4935    -4896    -4853    -4807    -4762    -4735    -4709 
   -4669    -4635    -4602    -4554    -4516    -4499    -4464    -4415 
   -4391    -4372    -4342    -4318    -4297    -4284    -4268    -4234 
   -4223    -4242    -4235    -4208    -4206    -4220    -4225    -4241 
   -4283    -4308    -4313    -4345    -4388    -4428    -4484    -4536 
   -4566    -4601    -4653    -4705    -4747    -4783    -4820    -4858 
   -4887    -4916    -4953    -4977    -4991    -5017    -5047    -5073 
   -5104    -5123    -5126    -5139    -5158    -5168    -5175    -5185 
   -5196    -5196    -5184    -5172    -5157    -5136    -5115    -5093 
   -5063    -5023    -4991    -4976    -4954    -4915    -4886    -4865 
   -4854    -4863    -4852    -4826    -4819    -4808    -4794    -4795 
   -4804    -4815    -4818    -4825    -4856    -4881    -4898    -4934 
   -4958    -4970    -5009    -5043    -5074    -5133    -5171    -5186 
   -5226    -5264    -5290    -5331    -5376    -5414    -5440    -5458 
   -5495    -5540    -5549    -5557    -5576    -5563    -5556    -5577 
   -5558    -5514    -5499    -5481    -5438    -5390    -5336    -5273 
   -5217    -5175    -5128    -5057    -4982    -4929    -4879    -4828 
   -4786    -4720    -4635    -4581    -4531    -4480    -4461    -4423 
   -4355    -4336    -4341    -4295    -4278    -4308    -4291    -4274 
   -4311    -4334    -4337    -4378    -4428    -4453    -4497    -4562 
   -4599    -4638    -4708    -4775    -4825    -4888    -4957    -5021 
   -5086    -5153    -5226    -5290    -5336    -5386    -5436    -5477 
   -5520    -5561    -5590    -5609    -5638    -5671    -5684    -5683 
   -5683    -5685    -5681    -5664    -5658    -5652    -5621    -5598 
   -5609    -5619    -5595    -5575    -5573    -5549    -5519    -5504 
   -5485    -5475    -5487    -5490    -5471    -5467    -5476    -5473 
   -5486    -5514    -5528    -5553    -5591    -5621    -5659    -5709 
   -5749    -5787    -5821    -5859    -5922    -5973    -6000    -6052 
   -6107    -6133    -6162    -6200    -6232    -6269    -6317    -6361 
   -6391    -6418    -6456    -6493    -6511    -6523    -6536    -6561 
   -6603    -6633    -6648    -6678    -6712    -6746    -6795    -6835 
   -6855    -6886    -6913    -6935    -6972    -7000    -7031    -7086 
   -7129    -7160    -7203    -7236    -7265    -7308    -7337    -7347 
   -7365    -7390    -7404    -7413    -7420    -7408    -7392    -7386 
   -7374    -7365    -7352    -7303    -7238    -7195    -7156    -7109 
   -7070    -7024    -6971    -6926    -6871    -6801    -6715    -6618 
   -6531    -6448    -6351    -6252    -6163    -6081    -5999    -5908 
   -5813    -5726    -5651    -5581    -5518    -5469    -5426    -5378 
