Origin Time       2011/03/11 14:46:00
Lat.              38.103
Long.             142.860
Depth. (km)       24
Mag.              9.0
Station Code      TKY002
Station Lat.      35.7306
Station Long.     139.1454
Station Height(m) 291
Record Time       2011/03/11 14:47:42
Sampling Freq(Hz) 100Hz
Duration Time(s)  259
Dir.              E-W
Scale Factor      3920(gal)/6182761
Max. Acc. (gal)   48.883
Last Correction   2011/03/11 14:47:27
Memo.             
[...]
   14911     -145   -14361   -19797   -20879   -24212   -24415   -17875 
  -11984   -10370    -8377    -5958    -9290   -15636   -14624    -7264 
   -3390    -3700    -1496     2186     -249    -7944   -11774    -8964 
   -7741   -15250   -23858   -20831    -8799     2307     9770    11327 
    7265     3021    -3785   -15436   -22499   -19619   -10730      360 
    8150     8104     3751     1539     1436    -3034   -11172   -12517 
   -7778    -7210    -6505      982     3148    -7213   -14893    -9329 
   -2134    -6379   -14954   -12688    -2915      890     -905    -3823 
  -10046   -17192   -21015   -21036   -13575      753    11706    15215 
   15422    12310     4095    -4271    -4786     2485    10189    15538 
   18212    13574     2713    -4947    -6083    -4365      -88     7001 
   12113    13029    13750    13976     8645      214    -3323     -567 
    1674    -1512    -5337    -5188    -5100    -7191    -8610    -8121 
   -5092     -682     2277     4047     4646      568    -8463   -13894 
   -9539    -5355   -11203   -16348    -9261     -377    -2652    -9852 
  -12673   -14670   -18278   -18364   -14962   -12670   -10385    -3594 
    4669     5404      713     1705     6453     3479    -6475   -12274 
   -9940    -4948     -980     1168    -2753   -12645   -19949   -24622 
  -35189   -46824   -47521   -38638   -26646   -13676    -3402     1707 
    2443     -639    -4968    -7897    -9463    -9962   -10070    -8842 
   -3851     3334     8887     9810     6109     4408     7335     6215 
   -1510    -5763     -817     7755    12024    12028    13376    14334 
   10868     6693     2707    -1956    -1143     3229      356    -8036 
  -12066   -10686    -9389   -10784   -10641    -5097       83    -1042 
   -4416    -5371    -5419    -7303   -11359   -14209   -11645    -4316 
    3111     6316     4735     1070    -3848    -8699    -9656    -8733 
   -9640    -7715     -408     5631     6493     4167       73    -4119 
   -5269    -1334     5628     9950    11186    14354    16279     9268 
   -2588    -9747   -11229    -9521    -4858      371     4361     8885 
   13426    15375    11566     -290   -12330   -14340   -11127   -12294 
  -17535   -21375   -18781   -10604    -5417    -6707    -9476   -12867 
  -19060   -23562   -21574   -18014   -18694   -17757    -8235     1198 
   -3231   -16458   -21136   -17065   -16940   -17643    -7651     8649 
   18304    16652     8134       40    -4675    -6841    -7111    -8725 
  -11340    -6583     5021    11983    12517    14426    18815    19166 
   11823      622    -8218   -13070   -17120   -20849   -19843   -14079 
   -7945    -1501     4335     4567      391    -2699    -5016    -9650 
  -15565   -18727   -17384   -12757    -6185     -829      618      660 
    -855    -7139   -11438    -5122     4832     6014      287     -876 
    3484     3173    -2039    -2187     1128       26    -2457    -3269 
   -6654   -12657   -16840   -17819   -17646   -16811   -11843    -3641 
   -1535    -9619   -19112   -21460   -18321   -14712   -10168    -2918 
     883    -3573    -6819     -499     6547     5157     2446     5373 
    7268     4882     5735    11679    15031    10527     2720      167 
    1256    -2968   -11071   -13247    -7972    -4115    -6345    -7611 
   -3985    -1358    -1023     -188     -466    -2456    -4488    -5998 
   -8276   -11944   -10319      207     8690     7415     1515    -4569 
  -10583   -16910   -22548   -23885   -20849   -15652    -6985     1412 
    2111    -2420    -5877    -6726    -4945    -3007    -2746    -1534 
     842     1959     1616      169    -1450    -2475    -4465    -7228 
   -8390    -8172    -7419    -5232    -1409     3236     6772     6521 
    3136     1492     4486     8171     6809     1495     -353     5215 
   12215    13755    13467    14940    10547    -1497    -7627    -2460 
    1648    -2016    -6946    -9353    -9840    -8051    -5622    -4123 
   -3806    -6976   -11969   -10253      355    10856    15408    18378 
   22901    23377    15905     4720    -6138   -14951   -20026   -21632 
  -17969    -4120    16488    28494    22904     9898      711    -7393 
  -16084   -19260   -16731   -13426   -11407   -11358    -9182     -693 
    4419    -3484   -15090   -17980   -12589    -5549    -1480     -244 
    -781    -3189    -4460    -3570    -3876    -4050    -2447    -3200 
   -5548    -3883      605     3625     4686     2964    -2303    -6390 
   -3603     3651     6307     1515     -839     4962     7819     1325 
   -4201    -3885    -3641    -4919    -5082    -2724     1100     3501 
    5644     8479     8598     7910     8344     4942       48     -230 
     -44    -2410    -4093    -6929   -13432   -17901   -14226    -6162 
   -2437    -5065   -10046   -14819   -18451   -20313   -21295   -21442 
  -17984   -11167    -5370    -1684     -587    -4041    -6759    -2602 
    2897     2566     -851    -2717    -3904    -5419    -5325    -3624 
   -2387      285     6989    13101    14000    11928     7627      -33 
   -7375   -11035   -12706   -15634   -20616   -23555   -21031   -16431 
  -12361    -7554    -4110    -3904    -2770     2281     6786     4919 
   -2207    -8244    -8619    -4032     -417    -2040    -3248     2330 
    8803     8560     3395    -3456    -8410    -4464     5516     6746 
   -2872    -5777     6584    19110    17980    10296     8322    11450 
   13754    15388    16812    15358    13815    15833    17694    18364 
   18894    14264     6816     6043     9175     8355     4803     2433 
    3082     4339        5    -6625    -5326      404     -576    -7404 
  -14233   -19247   -20354   -19014   -17915   -13758    -7721    -6206 
   -7409    -7996   -11873   -21485   -33650   -40079   -32052   -15024 
   -3172     1882     6134     8397     6632     4675     4579     4349 
    3412     1414    -2971    -8517   -12380   -13340   -11095    -5640 
     -35     1735     1765     5443    11027    11744     9606    11599 
   14675    14198    11806     5434    -4300    -9093    -9465   -13059 
  -17557   -14936    -7427    -5899   -11830   -14609    -9290    -1779 
    2183     2138     1268     3453     8052     9556     6304     3646 
    4370     4673     2336     -214    -1841    -3566    -3208     1698 
    6931     9081    12553    18003    18435    13072     9440     9113 
    4635    -4256    -7261    -5222   -10491   -20609   -21531   -12246 
   -3675    -3322    -7907    -8886    -7010    -7673    -6355      218 
    3512    -1233    -5051     -598     3432    -2556    -9266    -5162 
    2316     4406     6768    12038    12746     5917    -1713     -319 
    9764    15125    10424     6429    10773    16546    12955     2717 
   -3889    -8619   -14594   -14919    -9373    -3540     1743     2249 
   -4622   -10819   -10256    -5606    -2640    -5197   -10180   -11326 
   -7091     -108     4901     4327      646     -664     1780     4505 
    3560    -1262    -6145    -8457   -11832   -19250   -23778   -20010 
  -15716   -17772   -20525   -17004   -10317    -7862    -9918   -11318 
   -9492    -4330     2956     8575     9419     6209     2869     5155 
   14564    22944    23183    21414    25300    29132    23951    12218 
    2975    -2084    -9761   -19755   -19822    -6936     2232    -3269 
  -10850    -7940    -2617    -5161    -7307     1825    12343     9917 
     632    -2037     3709     9641     5518    -7657   -14799    -8603 
    1020     7098    12851    16847    14422    10161    10800    13163 
   11506     9690    12916    14548     7323    -2177    -3587      757 
    -584    -7705    -8319    -1253     1408    -5380   -12257    -9176 
   -3800    -7201    -7981     3684    12667     9502     4041      250 
   -6481   -12167    -7312     3764     6036    -1281    -9550   -19093 
  -28470   -29605   -22205   -15852   -16259   -15853    -7029     2989 
    4133    -2240    -9426   -13046   -10660    -4309     -662     -112 
    4225    11937    14385     8364     1644     2058     3707    -1962 
   -9116    -8389      955    12120    15100     9683     5775     6161 
    4282    -2197    -5678    -3096    -3015    -4601     2507    12636 
   13679    10800    13336    17790    17608    11913     1788    -8643 
  -11419    -5641     -189     2062     6681    12444    13447    10202 
    6412     4126     2079    -3585   -11729   -15197    -9851    -1581 
   -2894   -14203   -20373   -18788   -21723   -28494   -29156   -23198 
  -16839   -15772   -17569   -13266    -5993    -5795    -7145    -3035 
   -1592    -5223    -4502     3054    11578    13264     5135    -2704 
   -1850     -842    -8019   -16191   -15284    -5170     6353     9810 
    5835     4341     3026    -6358   -15710   -14729    -5751     4967 
   12188    16197    19010    14078     -496   -14097   -20023   -19088 
  -15631   -15650   -16206   -10257    -2382    -2002    -9028   -15143 
  -16017   -16772   -19704   -18442   -10757    -2228     1681    -1278 
   -9498   -17712   -20538   -18108   -13623    -5134     7821    18184 
   23601    28174    30524    25899    16546     8726     4268     3144 
    3807     -211    -9358   -12492    -2210    13484    19171    13189 
    9253     7800    -3312   -16839   -16458    -6289      162     1535 
    4649     9111     7571       91    -7356   -15104   -23436   -24621 
  -16811    -8221     -696     5179     1692    -6600    -8063    -7840 
  -12028   -13088    -6865     1799     7410     9947    15677    24651 
   27396    19236     2582   -15638   -22679   -14054      496    13881 
   22747    20064     8043    -1349    -8304   -21368   -31586   -24358 
  -12239   -13214   -12893     6344    28368    30948    18799     7625 
   -2359   -19390   -37559   -42651   -34932   -24081   -12125     1421 
   13506    22642    26209    18352     -367   -19293   -27593   -21353 
   -4513    11863    19885    21630    21720    23984    27060    20384 
    2984    -8176    -2686    12464    23498    19125     2209   -14412 
  -27553   -38583   -40480   -27799    -4473    19449    31782    27807 
   14579     1431   -10008   -24571   -40128   -43006   -26314    -1110 
   16119    17997    12005    10191    11768    10718     9472     9853 
    8184     1903    -6254    -8600    -5787    -8509   -15924   -17906 
  -13684    -5312     6452    14307    15483    15532    11915    -1341 
  -20731   -38166   -46761   -46322   -40380   -25745    -4241    11110 
   16184    14019     2831    -8823    -7010     1311     3667     2388 
    -458    -4593    -4297     1849    11476    21148    24049    20603 
   18656    19341    18307    13717     4864    -7225   -15430   -14175 
   -8266    -2480     3538     4834    -2363   -11851   -21613   -37002 
  -55262   -65319   -60285   -44167   -26512    -8489    11421    20465 
    7513   -16896   -36446   -46378   -50779   -52651   -44949   -21207 
    7511    28260    43293    53381    52671    43422    30251    12423 
   -9106   -29791   -40519   -31935    -8936    14171    31094    41357 
   42277    31362    11740    -5240   -12610   -18791   -27926   -29396 
  -19363    -3726    15502    33239    36099    18866    -4546   -16438 
  -13943    -4598     4750     9482     9792    10679    11941     6842 
   -6179   -19746   -23818   -15315    -5689    -7298   -15501   -22215 
  -28730   -33956   -34148   -29044   -19332   -10203    -6848    -9381 
  -20961   -37521   -41610   -29496   -15493    -7820    -8015   -15569 
  -21540   -19805   -15753   -10872     -140    11726    13691     9114 
   14131    31188    42659    36621    18915    -2673   -25289   -42695 
  -49009   -47025   -38931   -24394   -11867    -7875    -6433    -2635 
    -184    -4494    -9596    -2873     8041     6932      -19    -1956 
   -2310    -5930   -15977   -33203   -46908   -44445   -29713   -15844 
   -3271    11863    19705    14444     5065    -1984    -7569   -17180 
  -33067   -41524   -28070     -655    17800    16120     4896    -3288 
   -5087      490     8869    12684    12754    11990     8624     1480 
   -8713   -19558   -25084   -21953   -13122    -1737     8905    14961 
   17349    16114    10525    10002    15550     8414   -12112   -22524 
  -16049    -4593     5671    15709    23513    17243    -9336   -37990 
  -50059   -49344   -42297   -27392    -7244    13782    36643    59542 
   70369    55463    19493   -14379   -32335   -38051   -32871   -13617 
   12110    26898    22945    12026     7886     6162    -3063   -10876 
    -493    23040    37724    33762    17986    -5390   -36126   -62621 
  -68900   -52933   -28948   -14635    -8858     1937    13114    14263 
   11134     4300   -13305   -31770   -35341   -25654   -17134   -18704 
  -18817    -1193    24084    38591    44041    42737    33814    29137 
   29256    17030    -5552   -19767   -23848   -28250   -30097   -16858 
    6884    18206     9367    -3828    -9749    -8701    -2692     4114 
    5188    -4150   -19284   -24405   -13049     1359     5738    -2837 
  -20854   -35177   -35767   -29705   -23154   -13120    -4387    -6209 
  -18638   -33071   -39040   -35117   -26435   -13739     -257     9117 
   15379    16980    15077    14343     6263   -11974   -24010   -24876 
  -20282    -6105    15214    31740    41596    46723    44629    32692 
    9836   -15284   -31176   -39542   -39427   -18744    19723    51117 
   55330    37116    16107     4708     2177     5044    11771    15190 
    6342   -11216   -26267   -31766   -29189   -31286   -46250   -61447 
  -60612   -45966   -27963    -4810    21739    31218    18973     6843 
    3553    -3466   -25591   -58862   -80309   -73186   -51821   -37453 
  -27528    -6055    28909    56593    53835    22390   -11610   -26936 
  -27206   -27515   -33658   -38343   -28047     -724    25034    34218 
   30615    19288     4418    -3311    -4302    -9322   -15475   -16591 
  -17550   -19260   -18511   -18167   -19965   -19406   -10653     6179 
   17896     9695   -10738   -23208   -24069   -19530   -10461     -439 
    4280     5438    10513    21760    30782    24719    -1285   -36308 
  -59417   -57461   -37390   -15070     5107    25058    40148    46656 
   40092    11961   -27964   -51653   -47302   -27144    -6386     7838 
   20171    39207    56082    50786    20424   -15783   -35786   -37061 
  -33198   -32866   -38016   -43749   -37008   -17619    -4244    -6629 
  -13737   -16216   -20610   -29829   -28068    -5687    19019    26440 
   18820     2739   -18059   -34361   -39389   -34526   -25687   -18158 
  -10127      645     8110     3624   -13369   -24477   -10363    13850 
   23603    26507    34265    36693    27176    12774     -343    -9903 
  -11617     1063    23830    39338    39823    31370    18107     4552 
     206     7055    12240     2268   -17870   -28831   -19969     -375 
   12534    11556     3992    -1733    -4278    -5851   -11101   -23484 
  -37809   -43735   -35220   -16328     1972    16278    29452    36241 
   32046    22004    11654     5266     4911     5612     1553    -4680 
   -4196     1465    -1433   -12999   -18400   -16010   -19232   -31049 
  -35464   -23617   -13182   -19656   -31260   -33170   -29694   -33000 
  -44365   -50365   -41044   -23569    -7900     4944    12122     8138 
    -604    -3184    -2403    -7681   -20597   -33693   -36957   -29732 
  -20526   -12390    -5495    -5765   -12201   -14562   -11751   -10336 
  -10094    -7068     -875     4520     4910     8007    26922    52847 
   62326    52263    40402    37473    35844    25527    13475    12179 
   14110     2465   -18335   -29294   -26015   -16702    -3904    13348 
   32910    49700    58739    58804    47216    23735     1800    -5921 
   -2851     1779     1800    -3480    -6300    -4014    -9027   -26373 
  -42252   -46202   -40452   -29874   -16410     3617    32094    57668 
   67286    59568    35982    -1031   -40296   -65129   -64090   -46406 
  -33293   -24216    -4838    18739    26663    10085   -19955   -40555 
  -40602   -26500    -5320    17486    36459    49293    48692    27650 
   -3570   -27516   -35652   -26191    -9685    -7960   -22099   -28523 
  -19119    -7096    -1651    -3850   -10595   -18028   -25078   -29724 
  -30024   -26220   -20139   -18442   -23632   -22949    -5949    16072 
   24561    16615     2102   -11930   -20732   -15882     4085    27000 
   40731    43252    38376    29959    19589    10404     7992     8591 
    1623   -12780   -27891   -38900   -41567   -39971   -38867   -30185 
  -12224     3528    14411    24493    28220    14511   -15516   -37744 
  -29030    -2178    14141    15203     7686   -10617   -35475   -52963 
  -56569   -46837   -27935   -10819    -2492     -786    -2753    -5237 
   -8258   -15429   -18062    -3940    13656    10065   -14920   -39776 
  -48319   -42934   -32497   -19864   -11727   -14822   -16247    -3187 
    9140     2588   -14731   -26557   -29059   -23166   -10845     -290 
    1658    -4145   -16611   -34119   -45110   -37101   -17143    -5592 
   -6608    -3940    11187    28494    33819    22124      778   -16829 
  -22749   -16311      951    23314    38117    37790    27854    15299 
    4447     -206    -2321    -9331   -14447    -4199    17380    33671 
   39892    43280    46709    45900    37125    21910     4705    -8998 
  -11769    -1777    12921    24920    33460    40472    43790    34439 
   12130    -6285    -9441    -3513     3766    10969    16780    18061 
   13884     7130     -604   -12474   -29167   -41292   -40478   -33501 
  -28494   -22397   -16027   -14993   -15851   -13561   -10157   -10742 
  -17888   -22003    -8869    14631    27537    24998    15968     5946 
   -1599    -2835     1782     8500    14710    18887    17135     6649 
   -5374    -9884   -11212   -18960   -33318   -43401   -38991   -29432 
  -30714   -34622   -24173    -4024    11822    21476    27525    25286 
   13162     2341      547    -2576   -14116   -19422    -8679     5374 
    9496      941   -16261   -31223   -36891   -35495   -30457   -26895 
  -27456   -23750   -13021    -7956   -11273    -8601     5403    20049 
   26218    25329    21236    11438    -4872   -19964   -30493   -38148 
  -35025   -15001     9302    23421    27687    26126    17881     1709 
  -20389   -40564   -48169   -39995   -24353   -12791    -5662     6158 
   19582    20677     9586    -3111   -13263   -16245    -8007     2917 
    5375    -4080   -20973   -32498   -32308   -26836   -19300    -9683 
    1867    20821    42284    46728    30678    10961     -892    -3923 
   -1188     3940    11628    17437    10933    -5289   -18439   -26688 
  -32238   -29838   -19072    -9240    -5677    -2071     7051    13789 
   10029     1366    -4258    -8527   -17025   -28549   -35419   -33808 
  -27708   -22663   -18280    -9290     1420     1772    -9608   -21008 
  -26104   -26963   -25875   -23294   -19851   -19680   -24558   -28280 
  -28448   -28802   -25570   -13686    -1655    -1027    -9892   -18797 
  -24415   -27674   -26955   -23686   -20200    -8469    15595    37871 
   47947    50275    42644    16638   -16128   -31334   -26198   -18419 
  -16260   -12902    -5306      333     1678     1788     -880    -9103 
  -18992   -21905   -11003     9692    23358    17339    -1076   -15354 
  -19576   -20704   -24122   -24003   -15376    -3568     4293     5073 
    3551     5022      522   -12279   -16961   -13663   -17389   -22576 
  -16974    -7201    -4801    -5772     4867    27638    42343    37727 
