Origin Time       2011/03/11 14:46:00
Lat.              38.103
Long.             142.860
Depth. (km)       24
Mag.              9.0
Station Code      TKY022
Station Lat.      35.7002
Station Long.     139.7963
Station Height(m) 1
Record Time       2011/03/11 14:47:42
Sampling Freq(Hz) 100Hz
Duration Time(s)  300
Dir.              N-S
Scale Factor      3920(gal)/6182761
Max. Acc. (gal)   183.755
Last Correction   2011/03/11 14:47:27
Memo.             
[...]
   36456    45153    49947    53589    59611    66346    67432    62646 
   57760    55289    54718    54208    49583    37425    18003    -6647 
  -35589   -65860   -90902  -106835  -114609  -119395  -128224  -139072 
 -141997  -134958  -122820  -107014   -87903   -66031   -39952   -10112 
   20688    50161    76174    97173   112792   122606   127109   129630 
  132956   133188   120694    90200    46205    -2003   -43299   -66197 
  -65231   -45246   -18818     2538    15714    25017    38406    61162 
   88244   108761   116718   111053    93922    72731    53942    38425 
   24776     9792    -7213   -20805   -28467   -35020   -44078   -52893 
  -58562   -61124   -56090   -38750   -16238      791     9196    10483 
    9513    11194    14772    15222     7434    -7764   -22599   -29795 
  -26136   -12462     6289    25479    45374    67718    88674   100621 
   98942    81521    47464     1526   -46452   -88767  -121449  -140938 
 -145749  -138144  -120591   -95336   -67572   -44189   -27568   -12122 
    8239    30928    47158    50302    41045    23982     3620   -10501 
   -9379     2124    12045    13721     6293    -6634   -16024   -10244 
   14165    48178    80249   102941   112810   110248    99247    87419 
   81803    84314    92683   101150   101760    88412    59808    20878 
  -18233   -47120   -61245   -63905   -63353   -67722   -80146   -99953 
 -125653  -149805  -156796  -136905  -100585   -70632   -61242   -67167 
  -70789   -58743   -30767     5921    44650    80631   108633   122424 
  117941    97129    69314    46661    33969    28434    29249    36284 
   45463    53073    57129    56476    54178    55438    61999    73766 
   89012   102777   112348   119004   125467   135169   148032   160396 
  169382   171982   165177   149212   126890   101269    75153    49202 
   22834      141   -11883   -14046   -16882   -29159   -50913   -79247 
 -110151  -134121  -142748  -137896  -129173  -126975  -135297  -149537 
 -162953  -170520  -169860  -162930  -150353  -127083   -91004   -48555 
   -8705    21681    40338    53182    67929    84249    99858   118021 
  138897   156173   165972   166733   155703   132926   102344    71015 
   48017    37938    37138    37451    32847    22985    10499     -372 
   -1444    17673    60252   113007   151667   158867   134481    91909 
   46971     9648   -16539   -33399   -44695   -49635   -42688   -22184 
    1202    10524      245   -22197   -51089   -87383  -132260  -180582 
 -221294  -246614  -256178  -250272  -228343  -196307  -165987  -142662 
 -119471   -88070   -48902    -9245    24965    52475    72832    85367 
   90111    88028    84972    88040    95976   101004    96093    79432 
   57823    43253    44951    65899   101338   138679   164484   173133 
  165944   145289   115568    85860    65272    57850    63429    78055 
   92950    99998    99398    99421   108047   125018   143886   158170 
  163276   158063   144734   125878   105492    89167    78929    72509 
   66905    59050    45206    22681    -8428   -45170   -78253   -93910 
  -86607   -62829   -34533   -13945    -6063    -6660   -11201   -15560 
  -11998     2304    23579    48870    72614    87632    93564    94740 
   92977    86730    73936    52665    22985    -9523   -34091   -39804 
  -24862    -1211    12745     3597   -29959   -78000  -124783  -156447 
 -172182  -182842  -196127  -212150  -227459  -239392  -249618  -257939 
 -258434  -249005  -236202  -227278  -222385  -213919  -191962  -152931 
 -102806   -48767     8482    67782   119803   153756   166512   163743 
  157268   157788   163313   160213   141065   112583    86532    70442 
   62051    53928    44013    34009    25043    20356    24673    40141 
   64332    90129   107971   112247   105136    92196    81554    83633 
  102678   135302   173992   208965   234802   250812   255597   247733 
  227257   195306   154508   109071    65225    31391    14120    12988 
   20284    23030    10613   -15377   -44978   -66786   -68564   -46181 
   -8990    28687    53948    62167    60161    56310    56017    62456 
   73695    84862    90117    82757    59017    20708   -23814   -64020 
  -94039  -111066  -114346  -108864  -103650  -104537  -109160  -113626 
 -118470  -120211  -112857   -98298   -78643   -52662   -27946   -17330 
  -24080   -41015   -57288   -62328   -51422   -30300    -8634     7807 
   16587    18305    15446    10963    10185    19060    40398    71371 
  106044   141027   171282   187472   184301   164417   138132   120560 
  120008   130446   136844   125918    93144    42081   -16756   -68711 
 -102599  -113048  -100806   -74644   -48056   -35172   -45743   -76614 
 -112386  -137634  -146305  -142014  -130486  -110615   -75964   -24235 
   35284    82137    99380    86609    53402    13304   -13196    -9061 
   22452    61291    90599   106482   110148   104754    98784    98335 
  100937   101935   100702   101015   107616   120282   129028   120325 
   92259    55624    21984    -4576   -29677   -58293   -87160  -113066 
 -131597  -133930  -120490  -103136   -91213   -88975   -99643  -124288 
 -156304  -175134  -163284  -131159   -98148   -64240   -22239    26140 
   70462    97684   105971   101210    84754    62199    44831    39609 
   47168    60377    71679    80136    84896    84290    77720    65909 
   54209    46853    42285    39787    40861    44595    47893    48652 
   46776    42802    38402    37824    44843    61409    87473   117756 
  145553   166717   178185   180048   174010   160710   141245   112987 
   69966    12985   -48998  -104132  -141988  -158310  -153685  -133487 
 -110853   -99641  -104260  -116421  -123330  -120344  -109750   -93208 
  -71873   -45828   -14159    16861    34165    31330    14268    -4173 
  -12373    -6110    11744    35927    61135    78782    81319    73898 
   67894    66987    68451    69198    68800    69077    71582    76978 
   84634    92654    97770    93823    73674    35130   -14913   -62152 
  -91973   -95475   -73424   -40284   -16775   -12401   -21112   -31963 
  -38575   -42019   -46894   -53243   -55268   -50076   -41212   -33222 
  -29811   -32697   -40958   -55126   -74417   -93010  -105987  -111206 
 -105526   -87363   -62975   -44471   -39209   -44548   -50913   -48605 
  -35526   -16804     2185    19958    37166    53426    71937   100011 
  137005   172705   196161   198489   176050   134083    85799    47444 
   29374    32587    50545    69675    75656    61309    27105   -18965 
  -63689   -97310  -116281  -119533  -109756   -93240   -72488   -42478 
    2162    56712   105657   132895   133475   116459    97841    91046 
   98801   113811   127775   137655   145144   149127   145540   135138 
  120737   105282    93838    88420    87601    88150    83346    67487 
   38934     -200   -42528   -79012  -103594  -114396  -115797  -115921 
 -119561  -125818  -130497  -128759  -117891  -101295   -89568   -93690 
 -115301  -145038  -170349  -182360  -177610  -159130  -134629  -111987 
  -96369   -87470   -80302   -69696   -53134   -33316   -14684     4734 
   28828    57020    89175   124459   158314   187051   209083   225360 
  238623   249723   257255   256868   242426   209524   159416   104266 
   61149    40945    45729    66030    84260    88398    77644    58338 
   39717    29908    31142    37108    39023    33834    22153     4841 
  -15400   -35314   -54926   -76641   -97394  -109073  -110218  -105152 
  -97165   -91398   -91318   -91392   -82391   -61965   -38986   -27137 
  -32170   -47139   -59781   -61927   -52855   -36508   -17712     -355 
   13831    25390    35178    42909    48661    53485    57913    63256 
   71181    80368    87829    91246    89939    85102    77922    69558 
   61141    53265    45725    36981    28372    24029    23424    20942 
   11127    -6973   -29098   -50179   -67640   -81869   -94239  -104786 
 -112681  -116422  -115453  -111546  -105336   -95880   -85159   -78131 
  -76327   -73759   -63448   -46825   -32546   -25581   -23088   -23577 
  -26886   -26734   -19223    -7396     5482    14507    16619    16466 
   19832    28814    40973    50656    55590    57763    59786    62796 
   66035    70400    77878    87998    98974   108559   114637   116517 
  115187   113138   111185   107263   101051    94408    87878    79692 
   65791    42198     7986   -33314   -72950  -101079  -113326  -112727 
 -107361  -104841  -107041  -111237  -114505  -115495  -115036  -113708 
 -107509   -91819   -69549   -48516   -33758   -25560   -19154    -8480 
    8396    30347    53196    71219    82469    86985    87360    92679 
  109231   132047   151474   159316   149040   119077    78711    46076 
   35240    46308    68587    89654   102427   106668   104648    99613 
   96503    97751   102220   108172   113266   115451   113052   103148 
   83184    52019    12250   -27045   -56806   -73871   -78653   -75508 
  -72703   -77339   -90928  -105629  -107273   -87703   -53341   -20307 
    -737     2622    -7268   -22185   -32316   -32703   -24469   -13802 
   -7041    -7567   -16117   -28496   -39342   -45206   -42107   -30240 
  -15722    -6046    -7683   -20877   -39170   -55530   -63547   -57311 
  -35259    -6052    14355    19635    17750    14591     8586     1940 
    1715     9841    22333    34992    44332    48402    47801    43558 
   35939    25045    12200      796    -5548    -5997    -4934    -8774 
  -17945   -27960   -35332   -35939   -25841    -6241    17436    38332 
   50659    54581    56449    61731    70596    79709    86973    94609 
  104807   117324   132114   145515   150547   144669   130944   115877 
  105473   101361   102549   106807   112494   120672   132334   146845 
  162757   177000   185931   188642   187227   183212   176306   167329 
  158078   147648   133167   113514    88436    56540    18056   -23038 
  -60222   -87144  -100633  -100927   -91430   -78413   -68023   -62770 
  -60462   -56719   -48503   -37858   -31048   -30185   -32452   -37017 
  -44430   -53425   -61791   -68404   -74457   -82234   -93596  -109178 
 -126895  -140965  -143266  -129282  -103399   -74583   -48349   -25001 
   -3343    15904    31422    42664    49083    53188    61438    79150 
  107385   142909   179560   211242   234441   247957   252028   248918 
  242356   235133   226424   212832   193010   167969   138561   105534 
   69500    32704      138   -26222   -47384   -61640   -68266   -69001 
  -63520   -50660   -30644    -7604     9927    17049    17293    15405 
    9018    -6336   -28227   -51631   -74184   -94289  -109728  -117161 
 -118147  -121320  -131121  -146620  -166858  -186868  -201070  -208158 
 -206458  -195188  -176228  -149876  -116076   -76461   -34737     1824 
   26950    39823    43923    44915    47335    54345    67596    84070 
   99930   114663   127652   136213   136681   127177   109488    86901 
   62716    38442    12272   -18035   -52653   -87175  -112725  -124621 
 -127685  -129529  -130265  -122685  -103910   -77796   -48037   -18386 
    9820    38921    66278    86494    97913   100274    96526    93520 
   93726    92663    89591    88382    86612    80825    72722    63503 
   54553    47026    40371    37703    44122    59584    79361    98130 
  112649   124176   136576   152198   171801   193652   213470   228523 
  237899   241312   239917   234947   226737   214799   198155   176868 
  150384   117055    79832    46380    23379    14629    17565    21524 
   15867    -2993   -31333   -59901   -78893   -83467   -75418   -62036 
  -51746   -48898   -51920   -55918   -57674   -56018   -50228   -41858 
  -35017   -35219   -44106   -55543   -66654   -81824   -99999  -115731 
 -127226  -132499  -128655  -115209   -93973   -69250   -44538   -18491 
   10532    37799    55115    59089    51842    38521    27095    22359 
   24251    33163    46720    60343    72882    83825    93254    99931 
   97780    83945    60599    30793     -618   -29900   -53865   -69249 
  -77928   -82850   -84377   -84080   -83327   -81209   -74164   -57351 
  -30691     2010    36517    64460    78392    80433    76916    72186 
   68460    65646    62407    56155    44544    29396    14534     2776 
   -4532    -8564    -9580    -5869     2888    16403    33913    52281 
   67023    77201    87628   102124   119784   137425   150338   155677 
  154015   146352   135887   128797   127771   130207   133991   138612 
  142375   143167   138508   124280    97148    57811    11446   -34238 
  -72436   -99916  -117388  -127706  -133569  -137299  -140642  -143770 
 -144929  -140267  -127544  -108940   -88930   -74096   -68981   -71752 
  -78005   -82457   -82934   -83341   -85855   -89894   -95608  -102336 
 -109902  -117222  -122606  -126582  -127731  -125834  -124414  -123215 
 -120171  -113592  -101754   -87897   -76126   -66458   -56526   -43901 
  -29181   -12849     5666    24683    43440    62341    83002   108509 
  137622   167458   196614   221314   237958   245186   243964   237289 
  226524   213662   201453   189593   178565   169128   161185   158842 
  166770   185719   213237   243074   268553   286523   296672   298632 
  291265   276136   257200   237405   218661   202269   188461   175478 
  160909   143717   122064    94781    64937    37445    16550     4529 
    1517     5632    11400    13069     6963   -10427   -37954   -68252 
  -94926  -115421  -130197  -141272  -149448  -155065  -158357  -159174 
 -159203  -159641  -159731  -160932  -165760  -174668  -187206  -202700 
 -220809  -239927  -255438  -264002  -266040  -265125  -267062  -272773 
 -276732  -276515  -274415  -270942  -265077  -259747  -258689  -256196 
 -242686  -218877  -190975  -159025  -120093   -79576   -49445   -33480 
  -25848   -18408    -3395    19908    47034    74076    93958   104676 
  116776   138571   163675   179954   187586   196979   210831   223044 
  228095   224657   215583   203748   190518   177557   165539   154201 
  143136   132617   123912   116325   108960   103410   100464    98663 
   96122    93787    94102    95411    94035    88504    80305    72846 
   67024    61635    55913    47200    34049    20074     9743     6261 
    9918    15880    18865    16067     7134    -4705   -15044   -20528 
  -19762   -13793    -3795     9960    27049    45095    59764    67696 
   65638    52770    35665    20729     8158    -3610   -15156   -26076 
  -36203   -44589   -50575   -59021   -74760   -92548   -99675   -91174 
  -78832   -74372   -76278   -80952   -86639   -91764   -96729   -98292 
  -92793   -83157   -73110   -65198   -62209   -63568   -65840   -65416 
  -59912   -49089   -35411   -24352   -18866   -16506   -15032   -13632 
  -10528    -3958     5864    16687    26373    34887    44049    54276 
   63898    72668    79593    81246    76634    67425    56855    49364 
   46315    47823    55440    67862    82418    97289   109160   116487 
  120429   122731   126591   132830   139559   146469   153809   162294 
  172133   181396   188749   193285   194770   195233   195560   195199 
  193835   189384   179504   163961   144953   126720   110776    95187 
   78555    59675    38706    18121      515   -11636   -18186   -22296 
  -27423   -36541   -49974   -63172   -70853   -72117   -71026   -71342 
  -72334   -72835   -73076   -72450   -70907   -69084   -68457   -71801 
  -79350   -88271   -96337  -103827  -111903  -118788  -122650  -125463 
 -127526  -126827  -124322  -121003  -116067  -110678  -106691  -103618 
  -99893   -95191   -89728   -82952   -75342   -68189   -61792   -57025 
  -54971   -55061   -56034   -56651   -56132   -54414   -51363   -47050 
  -42359   -39175   -39144   -42191   -47939   -55248   -60771   -62186 
  -60610   -58488   -55166   -46611   -30430    -6606    22049    49157 
   70723    85625    93151    95701    95698    94684    96788   103909 
  114338   125899   134859   139942   144241   148515   150577   149423 
  146188   142470   137877   132716   128991   126790   125921   125847 
  124612   122304   119122   114025   107861   102319    97903    92426 
   82387    67422    49570    31421    16040     5746     1315     -768 
   -6379   -16662   -28017   -35811   -38204   -37276   -34396   -29197 
  -21885   -15130   -13753   -18629   -25465   -29521   -27586   -19810 
   -9586    -1753     -302    -4234   -10671   -19245   -29391   -40656 
  -51436   -57095   -57109   -56332   -59204   -67322   -78095   -88790 
  -98841  -106491  -110422  -108722   -97744   -79424   -61832   -51011 
  -46878   -45645   -43414   -37001   -25764   -12780    -1712     5467 
    8488     8342     6489     3960     1402      489     2183     5180 
    9353    14396    17152    16000    12148     7902     7099    13221 
   26528    43109    57685    68462    77020    85010    93861   105224 
  119652   136224   153796   171603   188152   201615   211756   219008 
  223554   225343   223377   217327   208433   197623   184656   168992 
  151149   132440   114319    98703    86838    78830    74167    71131 
   66717    57488    42142    22271     -645   -24927   -47639   -66296 
  -78727   -84082   -84395   -83267   -84161   -87668   -91646   -95262 
  -99098  -103800  -110084  -117526  -124569  -129560  -130789  -127563 
 -122595  -120721  -124967  -134914  -145497  -151114  -152366  -150779 
 -143853  -132241  -120906  -111750  -101849   -87265   -67026   -44418 
  -25163   -13133    -7599    -6303    -6537    -4019     3660    16046 
   30345    41783    49480    57050    66849    79653    94471   106692 
  110403   100778    76384    44336    19309    11737    19765    34386 
   47453    54697    55385    50870    43985    37964    34155    31573 
   28681    24711    19538    13550     7706     2950     -576    -4130 
  -10090   -20676   -36340   -55077   -73866   -89271   -96871   -93850 
  -81821   -65835   -51849   -42834   -36421   -28980   -20358   -12039 
   -3213     8091    21995    37318    51570    60394    62160    59767 
   56373    54284    54766    57696    63107    70095    76822    82179 
   84947    84837    82138    76317    69861    66799    67185    69292 
   71342    71371    69398    66632    64644    64892    66734    69179 
   71989    73454    71435    65376    56422    46500    35869    24343 
   13528     4097    -3873    -8491    -7763    -1064     8877    16907 
   20799    21856    23471    29252    38618    47690    54472    60560 
   68743    79439    90549    99709   105800   109831   112493   112564 
  109737   105037    99541    94246    89390    84503    78328    68974 
   55706    39740    23026     7095    -6456   -15975   -21123   -23701 
  -26829   -31926   -37450   -40496   -39020   -34954   -32807   -35847 
  -45380   -59234   -73536   -86301   -95655   -99478   -97106   -88717 
  -75532   -60778   -48007   -38278   -31288   -27127   -24711   -22287 
  -18535   -11629     -425    14260    30426    45950    59288    69326 
   76457    83254    91454   100037   107135   112081   115187   116461 
  115825   113452   109918   105807    99873    91122    80472    68839 
   57939    48826    40533    33000    25836    17392     7426    -3760 
  -16293   -29079   -40298   -49858   -59022   -67633   -73838   -76763 
  -78179   -80331   -83831   -88487   -93409   -97509  -100831  -103815 
 -106691  -109735  -113038  -116229  -118334  -118384  -116208  -112089 
 -106794  -101354   -95319   -87243   -76446   -62811   -47086   -31472 
  -18456    -8918    -2000     3776    10164    17909    26660    36208 
