Origin Time       2011/03/11 14:46:00
Lat.              38.103
Long.             142.860
Depth. (km)       24
Mag.              9.0
Station Code      TKY004
Station Lat.      35.6301
Station Long.     139.4034
Station Height(m) 81
Record Time       2011/03/11 14:47:40
Sampling Freq(Hz) 100Hz
Duration Time(s)  300
Dir.              U-D
Scale Factor      3920(gal)/6182761
Max. Acc. (gal)   47.792
Last Correction   2011/03/11 14:47:25
Memo.             
[...]
   -1852    -7853   -11809   -14007   -15202   -17345   -19012   -16319 
  -10336    -3005     3683     4565      237    -2944    -3312    -2979 
   -4140    -8656   -13252   -10964     -310    14291    25253    24107 
   11397    -2009    -7693    -7650    -8828   -11448    -9914    -3587 
    3928    11317    18097    21944    22759    21059    12310    -3202 
  -16207   -21575   -19316   -10307      293     6692     7722     5586 
    3957     4720     6867    11478    20088    28090    30751    29160 
   25717    23307    25180    31001    36494    36913    30779    19847 
    7623    -1180    -5167    -7899   -12219   -18944   -28211   -36141 
  -36445   -27991   -17340   -13399   -17081   -20710   -21153   -22255 
  -24262   -23914   -22119   -21209   -19553   -15533   -10467    -6185 
   -5321    -9522   -15099   -16441   -11292    -2115     3768     1892 
   -3066    -5960    -7278    -9472   -13733   -17197   -17949   -20244 
  -24279   -23974   -17510    -6636     4808     9440     4596    -4635 
  -12109   -14489   -13847   -14498   -15809   -16304   -18994   -24736 
  -28832   -27532   -20474   -10577    -5744   -10332   -17313   -19238 
  -17463   -14370    -9207    -3738    -3030   -12273   -30431   -43628 
  -36359    -9781    19050    31757    23990     7780    -5284   -12285 
  -10862     -343    13281    23116    25304    18797     8741     2475 
     775     1938     5210     6286     1567    -7575   -17763   -24650 
  -24096   -15312    -3944     2852     4875     4752     2755     -315 
   -2278    -1686     1249     7269    18245    31579    39609    36648 
   24086     8580    -2083    -3324     2133     9442    18971    29816 
   33400    22055      374   -17274   -21534   -14442    -2881     7419 
   14948    19697    18833    11344     1157    -6405    -6808     1241 
   13692    23539    26406    23135    16425     9354     5248     3591 
    1626       26     -475    -1325    -1820    -1564    -1492     -331 
     978      188     -924    -1280    -1259      536     4545     9268 
   12094    10974     8473     9117    12336    13891    11005     3428 
   -5812   -12193   -13889   -11441    -5876     1399     8863    14327 
   15168    10957     3694    -3373    -6059    -4142    -3769    -9259 
  -16834   -19449   -15574    -9875    -6522    -7502   -12173   -15031 
  -11782    -4738     1543     4263     3278      225    -3301    -4858 
   -2785     1166     4832     6061     1759    -6195   -10364    -8143 
   -4608    -3196    -2006      713     2679     -100    -7325   -13871 
  -17178   -19846   -22448   -22703   -23299   -27755   -33052   -35987 
  -36268   -32046   -21583    -7480     4426    10383    10957     6275 
   -4419   -16566   -21867   -15593    -1015    13309    21970    22179 
   11169    -6949   -21537   -24840   -15123     3847    21632    26411 
   14532    -8176   -29350   -35929   -26260   -10341     2110     5578 
    -644   -10949   -18842   -21402   -16977    -5612     7764    16037 
   15322     6985    -1169     -302     7684    14513    15970     8537 
   -7363   -22998   -31767   -33021   -28058   -20542   -13899    -8856 
   -7181    -9374    -9792    -4936     1478     6710     9242     6764 
    2774     2183     2403     -260    -4942    -9636   -13504   -17091 
  -18890   -15177    -7531    -1222     1626     -632    -7188   -10476 
   -5160     6318    19637    29412    27970    13581    -5540   -20839 
  -28620   -25914   -12478     4809    17887    24256    25569    24086 
   20640    15157     8995     4630     2357     1888     6064    15403 
   23015    22131    14670     6297    -1126    -5708    -4427      296 
    3273     2269    -4230   -16493   -31127   -42527   -44470   -34640 
  -18936    -7407    -4750    -7333    -9790    -9110    -5619    -3192 
   -3159    -3434    -5003    -8030    -7573    -1323     8387    19276 
   27559    27829    19329     7878     -675    -4873    -4284     2348 
   12847    21449    24186    20356    11354      -75   -11255   -19456 
  -21774   -16018    -2819    10412    14206     7840    -2689   -12407 
  -18331   -22654   -30592   -38349   -38573   -34533   -32857   -33991 
  -35656   -34736   -29036   -22995   -23868   -28727   -27451   -19978 
  -14135   -12065   -12851   -16484   -21177   -24854   -25043   -18571 
   -7291     1948     6073     5357     -785    -7660    -7952    -2009 
    5910    12388    11940     1928   -10618   -16780   -15544   -10575 
   -5535    -4241    -7249   -10752   -13109   -14943   -14025    -8659 
   -1967     2341     4419     7162    13518    21837    25651    23722 
   21075    18442    13806    10183    11606    16598    18866    12423 
   -2584   -19065   -28157   -26535   -18655   -11699   -10833   -14435 
  -16060   -14631   -13604   -13997   -13950   -10853    -5823    -5435 
  -14874   -29914   -39631   -38819   -31792   -24342   -18686   -14627 
  -12318   -11668   -10019    -5474    -1105    -1565    -6744   -11959 
  -13618   -11726    -7150     -595     5653     8451     7051     4374 
    1747    -4298   -14088   -20711   -18588    -9129     2259     9468 
    9701     6536     4233     1917    -1751    -4541    -4005       12 
    4018     1740    -9418   -24417   -35338   -38104   -30833   -12111 
   11710    29227    35430    29864    15242     2706     3365    17061 
   34953    47137    50118    46755    38316    25940    15325    11727 
   16415    27024    37308    39607    30197    14822     5053     5122 
   10712    18589    24708    23966    18815    12640     4225    -2807 
   -3630      -20     4487     7481     9683    14057    18641    19878 
   18773    16868    15306    14742    11878     4979    -1801    -4223 
    -542     6567     9200     5061      264    -3860    -9905   -15077 
  -17222   -16341   -10380    -2588      554      669     3163     8159 
   11630    11118     9827    11429    11889     5581    -5779   -16699 
  -22092   -18542    -8341     1452     6622     9523    14071    18651 
   18214    12698     6523     2709     2874     6390    10094    13699 
   19133    25198    28988    29631    27988    24350    17530     7386 
   -2694    -8195    -5879     3880    13960    16871    12491     5305 
     852     2141     5082     4482     2229     1476      764    -1746 
   -7224   -14748   -20079   -24058   -29625   -33092   -32266   -28831 
  -23437   -17661   -12774   -11675   -18963   -29347   -31081   -22824 
  -11800    -3949    -3630   -10942   -21096   -30856   -37436   -35661 
  -22895    -2971    14377    19047     9755    -4272   -12137    -8098 
    6532    23719    34974    34663    21390     2954   -10529   -15815 
  -13478    -7623    -4856    -5512    -5195    -3896    -3429    -1555 
    3337     8172     9407     4719    -7361   -22637   -32003   -31284 
  -23587   -12934    -2938     1969      -42    -7160   -16232   -22088 
  -20144   -12871    -6450    -2252      391      589      459     1319 
    -240    -2969    -1857     1214     2549     3627     5269     5985 
    5646     3880      552    -1213      182      509    -3838    -9572 
  -10022    -2941     6465     9408      645   -15359   -27756   -30579 
  -26919   -23262   -21681   -19127   -14189    -8733    -4173      199 
    5061     8466     8939     6447      451    -6396   -10279   -11937 
  -12866   -12969   -13789   -18440   -27121   -34780   -35829   -27435 
  -11450     2952     7657     3103    -7964   -23061   -35989   -38566 
  -26734    -5776    11286    13505      615   -18165   -34177   -43727 
  -43914   -34259   -17674     1566    13695     9516    -5630   -17154 
  -16154    -3054    14008    23760    21382    10579    -3481   -15773 
  -19420   -10070    10057    32157    43251    35447    14678    -3129 
   -5797     5866    21387    30810    32343    29023    21940    12704 
    4746     -256    -1044     1380     2076        8    -2485    -4096 
   -1178     6346    12211    13653    10569     4084     1391     6853 
   15295    20642    20986    18323    16680    17881    21900    29163 
   38092    42599    36673    22578     9888     3973     3858     8650 
   14421    15805    13679    10403     6203     3174     3479     5759 
    7299     5938     -210    -9907   -18078   -21377   -20379   -16119 
   -9164    -1453     3614     2597    -4709   -13516   -20274   -25725 
  -27750   -23360   -16439   -11088    -5636     1031     7664    13936 
   18445    18078    12224     4313     -366     2562    12053    21093 
   25603    25379    16783     -719   -20179   -34365   -35910   -21621 
    -327    14637    15212     1214   -19937   -37783   -42671   -28971 
   -1091    26633    39639    32184     9684   -14331   -26736   -23383 
   -9271     6869    17325    17935     8785    -5990   -19395   -24077 
  -17762    -7123     -796     -736    -5457   -13751   -21795   -25506 
  -25536   -25069   -24580   -22850   -20313   -16099    -8810     -652 
    4644     4451      132    -4022    -6093    -5567    -4429    -7445 
  -13457   -17406   -18607   -17957   -17183   -19295   -22178   -21528 
  -17388    -9120     4468    18932    28109    29254    21462     7276 
   -5702   -11804   -10269    -3318     2762     3364      238    -3377 
   -5183    -5261    -6022    -8615   -13096   -17606   -17974   -13979 
   -8985    -2454     6517    13734    15093     9180    -3398   -18450 
  -29460   -31115   -24110   -14775    -8297    -7523   -12114   -15225 
  -11345    -4453       33     3152     7768    14363    20656    22188 
   17992    13020    11871    14194    15988    15456    15891    18528 
   19470    16954    13695    11806    10458     8593     4352    -5977 
  -20115   -30056   -33644   -34514   -35667   -38980   -45147   -51703 
  -52740   -43959   -28078   -11718      663     6411     4553    -2231 
  -10375   -16139   -14922    -7550    -2068    -3823    -9905   -16056 
  -20584   -20433   -12997    -1037     9941    17116    19355    15314 
    9185     8899    15356    22694    24715    18286     5243    -8404 
  -17887   -23897   -26971   -25035   -18186    -9384    -4484    -6171 
   -8594    -5951     3029    13763    13030    -5887   -29790   -40006 
  -31328   -11716     9465    25786    31276    23105     4957   -13264 
  -20481   -13227     4273    25420    41294    43837    31854    10133 
  -11750   -22553   -19500    -8084     5275    12570     9188      754 
   -3717      731    12299    22101    22216    11187    -7699   -25240 
  -31337   -26241   -17770   -10919    -9225   -15997   -26626   -31500 
  -27361   -18388   -11238   -11269   -18209   -25533   -27644   -25823 
  -23104   -16530    -3463     8815    11308     3653    -8307   -16433 
  -14973    -5829     4517    11434    13279     9087    -1798   -14347 
  -16823    -4887    11358    21642    24470    22813    19975    14377 
    3426    -7417   -11856    -9718    -4953    -4542    -9664   -11902 
   -5593     5914    15235    15748     8233     1309     -880     -675 
    1754     6738    12853    17957    16491     4587   -12450   -25196 
  -27534   -19880    -9085    -1542      396    -3418   -10751   -19811 
  -28896   -32957   -29399   -20500    -9068     1719    10197    16251 
   16850     7721   -11856   -36007   -52816   -52934   -35871    -8637 
   15429    24823    19907     6177   -12080   -25810   -25380   -11623 
    5871    18552    23378    19317    10500     7294    11327    15357 
   16029    12329     6067     3056     3356     1639    -4012   -12647 
  -22458   -30552   -35150   -35477   -30958   -23260   -17256   -16895 
  -19600   -20061   -15543    -3739    11987    21624    23012    20036 
   12799     3333    -5431   -11644   -10823    -4885     -513     3382 
    8445    12472    17288    24138    28948    27653    19625    10231 
    6453     6929     6807     5964     3730    -2919   -15113   -30930 
  -43474   -44987   -33928   -15775    -3310    -5407   -16499   -29726 
  -40861   -43839   -41767   -40471   -34788   -22315   -11533    -9651 
  -16976   -28697   -38580   -44135   -44128   -36781   -25542   -14985 
   -4932     2541     4581     4562     6080     8807    11209    11720 
    8744      420   -11111   -18508   -18248   -12757    -5018      657 
    1295     -289    -2251    -6103   -10142   -10928    -8329    -5052 
   -2902      605     6346     8080     3210    -4516   -14251   -21665 
  -19657   -11072       91    15484    31646    40757    37596    21836 
    2915    -6507    -4577     4615    17457    25575    23756    16286 
    4233   -14002   -29439   -29024   -11268    11844    25210    24039 
   13383    -1468   -13137   -15228    -8999     5012    24615    38797 
   39364    28048    13735     4181    -2286    -5995    -1475     9286 
   19553    25314    21147     6844    -4977    -3352     7734    16538 
   15695     9254     7859    12919    16127    13051     5496    -2338 
   -7742   -10815    -8337     2970    19165    35473    45804    38584 
   12208   -17389   -32829   -28317   -11652     3363     9359     5265 
   -8892   -30892   -54599   -66196   -53916   -26368    -3293     3042 
   -9944   -34836   -56486   -62779   -52322   -32259   -12471    -1426 
   -3718   -18949   -39643   -51703   -44399   -22657    -5943    -7261 
  -17636   -22584   -18672    -8556     -341    -5155   -23193   -43766 
  -57729   -59783   -47722   -25286      518    21718    30972    27558 
   16719     5327     -327     1649     8963    16814    19426    14377 
    1347   -15975   -25583   -20350    -6440     7218    15038    14731 
    6430    -6137   -14232   -12702    -4334     7266    18909    26155 
   26295    16313    -7415   -39400   -65733   -77897   -76143   -63912 
  -45762   -26414   -10362    -1772    -2717   -11202   -20453   -23098 
  -18083   -10617    -4786     -300     3936     7516     8818     5344 
   -3015   -10316   -11323    -9397    -9392    -9573    -5536     2790 
    8954     5037    -9563   -27409   -40609   -44390   -39613   -32130 
  -23601   -13807    -8193    -9609   -13453   -12828    -2802    12584 
   22816    22539    11010    -8358   -23718   -25277   -15166     -678 
   11445    15680    11907     4640    -1529    -1062     9934    25391 
   31063    21819     7055    -6700   -17443   -18084    -7705     4650 
   13237    15658     9032    -4311   -16879   -22182   -16310     -888 
   14131    17684     6916    -8790   -15593   -11319    -2562     8886 
   21381    27769    22575     4839   -21074   -41925   -44466   -29254 
   -8169     7518    13352    11822     9450     9490     6851    -2104 
  -10312    -9771    -2194     3069      112    -4622    -2474     4791 
   10892    10458     1407    -7952    -7932      -61     8570    12710 
   13188    14096    13471     8252     4026     7871    16816    22426 
   21432    13386    -2029   -17514   -22843   -18604   -10840    -1387 
    8231    15490    18938    16884     8651    -3615   -14816   -19488 
  -18445   -14992    -7026     4871    15934    26251    34066    31430 
   15387    -7899   -28747   -38333   -34365   -24820   -17092    -8084 
    4300    13734    14631     5926    -6556   -11402    -5066     8105 
   24982    40590    50290    53885    50073    39200    27173    19254 
   17202    19066    19188    14211     7759     4016     1526    -1906 
   -5808    -7248    -3661      844     1297    -2323    -9286   -15674 
  -17536   -18400   -19982   -17456   -10025    -1069     7912    15143 
   17801    14916     9584     5148     -347    -6944   -10340   -13252 
  -20587   -28140   -30649   -28235   -22349   -15836   -11970   -11200 
  -13009   -16273   -19514   -22437   -19914    -5826    14006    29057 
   34355    29398    20358    15406    15715    19521    26043    30901 
   29819    25463    19903    10873      597    -6073    -8904    -7858 
   -1332     5860     6527     3241     2079     3650     7154    10317 
   10513     9167     6709     1141    -6140   -10816    -8977     -297 
    8226     7584    -3484   -18938   -31315   -35807   -32247   -24091 
  -17726   -19204   -26601   -33151   -36019   -33053   -23509   -13332 
   -7641    -6265    -8268   -12573   -18365   -24397   -24703   -14663 
    -813     5423      -45    -9526   -10943    -3670     3672     9175 
   13809    11621    -2791   -25220   -44709   -51423   -42710   -24805 
   -6400     6292     7663    -2076   -14514   -22802   -23915   -16728 
   -5181     4656     9540     6360    -5779   -17974   -21114   -19580 
  -21017   -24373   -25579   -21396    -9311     7547    21297    26907 
   24821    17137     4388   -10806   -19080   -10956    10442    31484 
   41481    35995    16068    -7934   -22240   -22132   -11100     3924 
   11985     5154   -17248   -49122   -72605   -69678   -40421       64 
   30131    34248    18921     1263   -11168   -15959   -11699    -2974 
    5725    12752    13576     5730    -6840   -18030   -20238    -9266 
    5992    10559     2247    -7886   -12621   -14081   -14778   -14114 
  -12209   -10763   -12241   -18213   -26625   -34721   -41245   -45053 
  -46889   -45349   -34065   -13249     5403    10283     -263   -18378 
  -33697   -41036   -39688   -27723    -7944     8705    16613    17668 
   12512     4801     2215     6017    12018    18573    21478    13402 
   -3206   -18554   -28202   -31547   -29032   -23163   -12868     2311 
   12533     9756    -3810   -25426   -46174   -50091   -36319   -16393 
    3941    17934    17310     5067    -9849   -20039   -20667   -13859 
   -2970    12574    29771    42702    47441    40550    25025    14468 
   18521    32553    46808    54199    53035    46947    36568    20735 
    3839   -10219   -19079   -19014   -13370    -9210    -9515   -19359 
  -38593   -55310   -63205   -62115   -47332   -21063     4368    18589 
   15344    -6447   -38205   -65428   -76490   -67319   -43959   -20739 
   -8148    -6148    -9957   -13226   -10064     -736     7598     8549 
    3469    -3733   -11371   -15647   -14480    -9801    -2103     6797 
   15547    25176    32660    36417    39129    39244    33272    22801 
   11924     3120     1191    10750    25942    36467    37648    28484 
   12438    -3663   -16799   -24045   -18232     2543    30046    50499 
   52695    37954    16653    -1959   -13376   -16990   -13243    -7723 
   -8323   -15433   -26244   -35618   -34438   -20840    -2790    12256 
   21507    25520    28093    32051    34657    32710    27512    21717 
   17124    13113     9081    10930    22814    38278    48418    47738 
   33499     7604   -21613   -42728   -47540   -33843    -8614    12395 
   17798     7890   -11166   -29020   -33802   -22185    -1396    18221 
   27317    22751    10888    -2620   -15582   -22356   -20583   -15303 
   -9408    -2290     3675     5620     4586     4176     8153    14648 
   17570    16599    15179    15593    20775    29633    34945    31924 
   22477    10876      393    -4929    -2229     4697     9530    10024 
    6860     1949    -1678    -1898     1808     9577    17747    17802 
    6303    -8302   -13173    -4660     7434    10740     1288   -15094 
  -26065   -23147    -8337    12248    30238    38120    37221    29471 
   12217   -10067   -26600   -30881   -22856   -10101    -3478    -6603 
  -15497   -23180   -24173   -19676   -11004     3875    19948    27612 
   22936     7781   -11158   -24694   -25824   -13795     4521    21373 
   32512    36186    32380    21011     5869    -3733    -1925     9214 
   22255    27663    19777     2995   -11692   -18884   -21268   -22273 
