Origin Time       2011/03/11 14:46:00
Lat.              38.103
Long.             142.860
Depth. (km)       24
Mag.              9.0
Station Code      TKY003
Station Lat.      35.7968
Station Long.     139.2916
Station Height(m) 179
Record Time       2011/03/11 14:47:33
Sampling Freq(Hz) 100Hz
Duration Time(s)  300
Dir.              E-W
Scale Factor      3920(gal)/6182761
Max. Acc. (gal)   171.231
Last Correction   2011/03/11 14:47:18
Memo.             
[...]
   15860     -648   -13418   -23613   -34830   -46907   -55299   -58499 
  -59020   -57885   -55079   -51601   -47966   -43244   -36676   -28746 
  -19538    -9359      506    10202    18778    23267    24993    26926 
   27658    26718    25942    24265    20640    16316    12488    10968 
   11837    11114     5427    -4093   -13262   -18941   -20405   -17767 
  -12676    -7367    -1826     2828     2817    -1460    -7078   -15219 
  -24621   -29950   -31523   -33148   -35162   -36539   -37325   -36560 
  -31132   -19896    -4439    14795    34574    48127    55158    59340 
   58409    52482    50012    54199    59028    59922    56812    51280 
   44886    38310    31429    23387    14557     7138     1776    -2896 
   -8610   -18088   -32695   -48323   -59126   -63513   -63928   -65036 
  -67752   -64701   -50684   -31185   -14243    -2405     7442    20703 
   37984    54396    66940    74703    77188    77163    77341    77415 
   75968    69951    59254    49956    43527    33609    17108    -2535 
  -18699   -26940   -29474   -28828   -25723   -23372   -22762   -22042 
  -21827   -23235   -25927   -30063   -35823   -41110   -43507   -43567 
  -41518   -35046   -24912   -16655   -13643   -14622   -17318   -18637 
  -17205   -15109   -10909    -1526     9734    19767    30281    39698 
   43427    41146    35800    29536    23179    16842    10507     5905 
    5870     8687    10231    11817    15305    17672    17612    16007 
   11179     3994     -663    -1191      945     4641     9118    14458 
   19816    23361    24449    23068    20924    19154    13814     2251 
  -12058   -26035   -36751   -38455   -31101   -22157   -16238   -12565 
   -8836    -2969     4442    10423    13798    17297    23682    29413 
   30142    30541    36240    44070    49047    49240    43233    31994 
   19144     7894      385    -4424   -10054   -16268   -19838   -20270 
  -20262   -23011   -27483   -28302   -24367   -19949   -17186   -16845 
  -20802   -27047   -30414   -29191   -24036   -14333     -317    15430 
   30126    41870    49041    50762    48670    46129    44466    42539 
   39617    36558    34717    33806    33149    33882    35524    35274 
   31597    24036    15195    10941    10886     8089      922    -6657 
  -12635   -17217   -20808   -23561   -26107   -29068   -30031   -26553 
  -22072   -22961   -31102   -41127   -45763   -43821   -39144   -33597 
  -25979   -14980     -563    14719    27889    39660    50730    60009 
   69715    80335    86264    86772    87537    89318    88394    83070 
   74035    62996    51863    41878    31382    17727     2622   -11231 
  -23899   -34482   -41005   -42530   -38684   -30805   -22313   -15347 
   -8834    -2477      898     1382     3278     6242     6569     7333 
   12761    19174    22969    25220    25275    21881    16226     8785 
     164    -7221   -12451   -17324   -23040   -26938   -26660   -25159 
  -23972   -20015   -14998   -15154   -20971   -27817   -31664   -29383 
  -21052   -12018    -7796    -9640   -15312   -20601   -22139   -20542 
  -18351   -16213   -13162    -8745    -3143     4369    13881    22981 
   29661    33484    35020    37093    42779    51911    61714    69520 
   73426    72336    66683    58124    49416    42033    33865    23635 
   13128     4343    -2249   -10218   -23820   -41236   -57749   -70539 
  -78923   -84095   -85039   -78381   -65394   -50548   -35211   -19599 
   -5529     6572    19649    36135    53839    68328    77862    84990 
   94332   107186   117908   119719   112813    99636    78922    52492 
   26337     3080   -16962   -32796   -44964   -57154   -73335   -91603 
 -106113  -115173  -119222  -116661  -109265  -101427   -92352   -80000 
  -66059   -51828   -38308   -26362   -13129     3277    19411    34465 
   52490    72821    90340   102819   110711   115030   115978   112353 
  104345    94086    82228    68176    54554    45562    39938    31396 
   15682    -5987   -28363   -46195   -58288   -66705   -73405   -79386 
  -84054   -85556   -83574   -79670   -76200   -75032   -74690   -71997 
  -65865   -56340   -44003   -30113   -13384     8492    31702    50037 
   64137    76556    86025    92011    95635    98764   103062   106914 
  108437   106868   100175    87270    69143    49414    33523    21548 
    7629   -10205   -28125   -43286   -53996   -58958   -60397   -61757 
  -65357   -70493   -70878   -62814   -50175   -36555   -23219   -11287 
    -901     7348    13044    17580    21017    21600    20913    23755 
   30167    33399    29467    22210    15051     7578      700    -4620 
   -7557    -5356     1426     8440    14170    20746    28209    32469 
   30935    23545    10604    -2513    -8265    -7119    -4169      -42 
    7408    17900    29593    40686    48054    49081    44932    37942 
   28780    19398    12724     7515     1516    -1485     2665     9859 
   14144    15200    12786     4487    -8703   -23474   -37775   -49144 
  -55364   -57294   -55788   -49731   -40956   -33211   -25705   -15705 
   -5127     1974     5774     8432    10104    12451    18282    26966 
   37235    49000    59762    66790    69786    68078    61930    54356 
   47291    40763    34578    27639    20372    16426    16329    15634 
   11347     2804    -9273   -21426   -30485   -36144   -39544   -41028 
  -40157   -39159   -41182   -44409   -46052   -47377   -47049   -39350 
  -23382    -5356     8763    18696    27304    35690    43513    49803 
   53604    56415    59311    61010    62845    65687    63460    52784 
   40696    32318    24312    14231     3455    -6488   -13893   -17874 
  -19400   -20392   -24843   -35916   -49275   -56924   -56610   -50786 
  -41625   -31312   -22576   -18432   -21454   -29246   -33776   -29777 
  -19320    -6784     6158    19922    34632    50610    67560    81956 
   90416    92893    90320    84229    75386    63197    50723    42928 
   39451    36246    30395    20123     6853    -4866   -14709   -25461 
  -34461   -37002   -33994   -29636   -27569   -29309   -32893   -34428 
  -29990   -18351    -1924    17218    37122    54859    70687    85009 
   92529    89312    78626    64536    49607    38058    32745    31771 
   30902    27555    21537    12104    -1850   -19103   -36879   -51812 
  -61805   -68394   -71986   -68751   -58557   -48081   -41784   -37879 
  -34367   -31218   -26482   -18350    -9214    -1290     5869    12886 
   21480    32138    39902    38665    28729    17227    10074     8320 
   11978    18440    22311    21483    17557    13062     8825     2395 
   -7548   -18015   -24304   -23847   -18045    -8910     2620    12185 
   13528     6366    -3516   -11664   -19335   -30649   -45122   -55804 
  -57580   -51019   -36805   -15637     7324    25493    35577    38217 
   37071    34834    33759    40282    57253    76433    87932    89160 
   84193    78691    72281    59693    41593    25000    13078     4288 
   -2778    -9721   -18356   -29140   -39923   -47652   -52621   -56112 
  -55923   -49599   -37599   -21447    -3746    12208    26318    39491 
   48775    51094    46882    38723    30736    26595    26303    26392 
   24145    18872     9266    -4208   -18127   -31677   -47019   -62487 
  -70982   -67941   -55988   -40656   -26817   -16477    -8719    -3044 
    -112     -205     -773     1508     4809     6448     8513    11741 
   14245    18823    28984    40094    45856    46993    46453    45427 
   45543    45973    43197    38006    33794    29354    20208     6275 
   -5995   -13286   -17162   -17338   -18549   -28771   -45131   -60367 
  -73038   -82172   -86458   -88644   -89859   -85858   -76703   -68399 
  -60699   -49178   -37593   -29913   -19320    -1216    18603    36810 
   57276    81423   104031   119855   128895   133803   136816   138188 
  136663   132916   129196   124056   112008    93339    74720    56018 
   32109     3902   -24232   -47793   -61175   -63506   -59163   -49314 
  -35637   -25189   -20263   -18168   -19105   -20418   -15427    -2612 
   12592    23113    26456    24997    21222    18067    17553    15249 
    6804    -3081    -8702    -9888    -7619    -5924   -10896   -20583 
  -26841   -26160   -20997   -15787   -14523   -17393   -19605   -17570 
  -15451   -19752   -29808   -42912   -61220   -82106   -96220  -102351 
 -105582  -104303   -96237   -84782   -72292   -60621   -51811   -41171 
  -22108     4024    31421    56277    77241    95385   113357   131539 
  146526   155197   158462   159592   158574   151377   136151   113433 
   84219    54201    31982    20876    15537     6821    -8899   -30751 
  -58968   -87891  -105763  -107895   -98060   -80816   -59959   -40114 
  -26211   -19301   -16412   -17453   -22556   -26525   -26946   -25778 
  -21784   -15008    -9123    -2540     7814    16444    18292    17660 
   16931    12041     3093    -4481    -5070     2959    11814    12219 
    4078    -9415   -25143   -36752   -38037   -26407    -5963    11560 
   17854    15090     7534    -2980   -12443   -15117   -10588    -5223 
   -3857    -4494    -3308      392     6436    14019    18766    17405 
   11399     2852    -4699    -5893     -707     6974    17287    31689 
   47253    59393    66946    71365    73187    72190    66851    54884 
   39522    26625    15404     4052    -4890   -13055   -23451   -30242 
  -27393   -18495   -11972   -14965   -27095   -38589   -41252   -37998 
  -35745   -34959   -33217   -29149   -20078    -6963     1917     -486 
  -11636   -24588   -35742   -43096   -47795   -53936   -58835   -55432 
  -43745   -29681   -16227    -3572     7088    17152    26007    24219 
    9197    -4501    -3856     9519    27062    39112    40117    37667 
   44529    60618    77308    92151   104959   112983   116090   114165 
  105274    91584    79156    70746    62968    52022    35754    11086 
  -21077   -51591   -71293   -82066   -92835  -106163  -118582  -129452 
 -138911  -144439  -145067  -139170  -124813  -109781  -102797   -99619 
  -93178   -81124   -62629   -40386   -17522     7225    33544    57183 
   76999    93506   104173   110010   116262   123961   129370   127546 
  116990   101965    85842    68478    50305    32561    17596     7562 
   -1796   -19260   -47336   -79398  -106446  -121094  -120068  -107258 
  -87616   -60603   -26477     9939    44479    73201    91252    97627 
   95541    87917    76621    66991    68550    84131   102539   111807 
  111111   101845    80509    44338    -3474   -53393   -94436  -121319 
 -135656  -140120  -135799  -125961  -114653  -102320   -89987   -83555 
  -87439   -96345   -98438   -86126   -62584   -37107   -12832    11941 
   32800    45194    52007    55506    54712    52158    53743    62967 
   77163    88594    91838    89691    89227    92416    94523    93577 
   91666    86081    73640    60467    55068    56064    54574    42834 
   17717   -15486   -47525   -74998   -95695  -105579  -108114  -110779 
 -113587  -113256  -109995  -107301  -109202  -112574  -111270  -106268 
  -97327   -77238   -42916     -990    39955    74188    97331   111020 
  120571   124305   121121   120291   129484   142378   146877   139049 
  120548    92871    60588    27749    -5075   -35710   -62699   -87278 
 -109254  -127425  -140336  -144659  -136034  -114451   -88854   -68422 
  -52367   -35856   -15821    10010    39543    67639    93678   118161 
  136085   143988   146493   147280   140381   118542    84207    46255 
   13268    -9349   -21195   -23613   -18081    -8336     3639    15673 
   18590     6387   -14076   -33694   -49397   -57704   -55649   -47741 
  -36189   -16238     8765    27499    35444    33050    17953    -9869 
  -44902   -81006  -110459  -124893  -123468  -109322   -82315   -45236 
   -6265    27995    54491    71769    78412    76730    75781    80691 
   89878   104346   121286   131198   133319   134023   131132   117331 
   91504    59382    28305     1268   -24898   -57311   -99010  -138745 
 -162943  -173853  -177069  -170674  -154566  -129028   -95174   -61756 
  -35630   -13420    11325    38381    62351    81559    95173   100682 
  102900   108156   112283   109225    96248    69721    32419    -8462 
  -53297  -100670  -137020  -151847  -149239  -137850  -121737  -102269 
  -82712   -66285   -50834   -32821   -11797    10775    30302    44365 
   56611    67311    74878    85101   101134   114088   115149   107367 
   99685    94498    86140    70777    52417    37296    26860    17884 
    6723    -7216   -21482   -31439   -31541   -20309    -4718     4457 
    3391    -3005    -8473   -10194   -10990   -15529   -21374   -22852 
  -19534   -13250    -7837    -9744   -19152   -29030   -36656   -46244 
  -61885   -83877  -105392  -116528  -116552  -113488  -115312  -124253 
 -135641  -144301  -145551  -130930   -96582   -50792    -1895    49919 
  101068   139187   153431   146628   136018   134219   136956   138148 
  138741   138014   133774   125787   113992    96937    69634    31160 
   -8540   -37741   -51223   -53644   -54975   -57790   -59033   -58136 
  -54785   -49615   -45786   -43184   -38937   -31948   -18958     1972 
   21430    27737    19424     1974   -17090   -31257   -37308   -35422 
  -28119   -17740    -6470     4417    16304    29915    42774    50622 
   49910    42191    34980    33075    34298    39261    53224    75504 
   98389   113325   113396    98240    76227    50096    12007   -38235 
  -90361  -136275  -174533  -207302  -229759  -233415  -221036  -198764 
 -169081  -136416  -100949   -61087   -22799     6894    28964    50396 
   72217    93391   124242   169839   214268   244000   263797   274217 
  267050   245745   215644   173137   119380    60665     3194   -43929 
  -74198   -90549   -99706  -103219  -100839   -99034  -104227  -112177 
 -115680  -113642  -103631   -79808   -42535     2318    46199    77455 
   91851    96261    96295    92040    83674    70031    47049    15173 
  -19259   -48989   -66621   -68567   -59507   -48526   -43319   -48125 
  -64555   -91051  -118949  -136763  -139879  -126430   -94964   -54952 
  -21155     3392    25023    46223    63238    71327    67316    53187 
   38636    31569    30963    34601    41708    48399    53262    62281 
   78138    92304    96847    93638    86460    76753    66102    54527 
   41490    31573    33241    46015    59360    70142    79747    81365 
   71906    56562    37446    15424    -6135   -22760   -30648   -32793 
  -33638   -32122   -29601   -27587   -25123   -27617   -37850   -46838 
  -46667   -37476   -23659   -11072    -3598    -1836    -2759    -1916 
     892     2866     3819     5411     6578     3759    -6161   -24040 
  -45144   -63621   -81803  -103331  -123066  -133767  -135042  -130033 
 -118405   -98922   -74574   -49216   -23196     4733    32066    53288 
   67590    79232    91758   104526   111999   114094   117843   118961 
  106718    81882    51191    20020   -11880   -46976   -77547   -97146 
 -110127  -116944  -114920  -107433   -96516   -80046   -59569   -38965 
  -19198      940    25631    59848    99553   131263   147726   156203 
  165004   170335   164561   147846   124092    97194    71886    48441 
   21805    -8982   -38024   -61154   -79085   -95229  -115703  -142061 
 -164916  -177326  -181971  -177174  -161231  -142543  -127689  -116303 
 -104572   -91124   -79717   -68100   -50418   -27190      194    30507 
   58092    81128   105468   130202   146025   149588   144546   135996 
  125760   110004    90947    80359    85541   101897   115733   116698 
  103432    77225    45990    20781     3140   -11357   -27558   -47495 
  -66073   -78838   -87776   -94207   -94923   -88052   -77835   -70289 
  -68357   -70074   -68732   -60389   -47823   -33482   -15112     8681 
   32970    52182    66961    80957    95766   109547   119181   122989 
  119878   108512    88555    62241    33776     6492   -19046   -44342 
  -67413   -83098   -92430   -99711  -105715  -112190  -120147  -126980 
 -133492  -141629  -147359  -145432  -131546  -102245   -62611   -23610 
    9329    34303    49159    58001    70134    90413   117917   149397 
  177775   195758   201863   195433   177958   159084   145515   133466 
  118149    98675    73864    42819    10772   -13139   -28062   -45318 
  -76056  -120193  -164430  -191018  -195885  -187789  -172715  -152782 
 -128996  -101435   -73037   -48772   -31298   -18703    -3927    20355 
   53333    85316   107807   122298   134447   143376   145201   140193 
  128773   112348    97584    86217    70663    47068    20477    -1424 
  -11176    -5905     6058    12719    11384     4083    -8581   -22657 
  -34093   -42511   -46592   -44607   -37367   -29254   -26788   -33592 
  -46396   -55609   -55034   -48497   -40664   -32458   -26961   -26141 
  -26253   -24039   -19259    -8994    10232    33694    51847    59328 
   55939    47742    43556    41842    32428    12903   -10813   -33658 
  -51988   -63098   -65379   -57879   -43863   -30557   -22529   -20663 
  -26165   -37471   -45949   -43782   -31906   -16151      436    20786 
   46057    69320    83128    85799    80538    72979    66622    60578 
   52457    39673    19513    -6105   -30985   -51936   -69172   -81395 
  -84953   -79123   -69197   -61167   -58189   -60164   -60791   -53229 
  -41631   -33838   -26841   -15316    -1595    11524    22127    29221 
   36008    42812    47441    50225    48361    37970    20840     4160 
   -5399   -10405   -17087   -24083   -25672   -19579   -11514    -9707 
  -12209    -9695     2202    19816    35268    42543    40653    33333 
   25918    19200    11067      666   -12489   -25068   -30817   -29328 
  -25056   -18466    -5495    13456    30443    38007    35267    28741 
   26895    31222    39384    50483    62850    76131    90140   101907 
  108469   106234    93942    76684    58765    39400    19129     2116 
  -12284   -28683   -44552   -56161   -66798   -78705   -89102   -93880 
  -92780   -90535   -89351   -87765   -84407   -78097   -68832   -55586 
  -37733   -20302    -7964     1615    12217    22350    28010    28207 
   25366    21557    15269     7184     2465     1415     1456     3356 
    4704     1081    -4993    -9389   -12621   -12849    -7257     -815 
    1516     3239     6049     5171     1664     2166     6151    10054 
   14014    14986     8230    -4220   -15296   -19648   -17352   -12153 
   -7437    -4372    -1869     1652     5764     8461    10075    13193 
   20581    36415    59164    77214    84426    86990    89972    91759 
   89486    81567    68916    55744    45149    35229    22853     8336 
   -6999   -23596   -39094   -49411   -58256   -72212   -88891  -102565 
 -112642  -119783  -122799  -120767  -112370   -96811   -78510   -63659 
  -54235   -50027   -48571   -44275   -33376   -17392    -1907     8350 
   14221    22527    39470    61424    77999    83710    82270    79042 
   73828    65638    54826    42365    34102    33565    35137    33785 
   30279    25352    17709     7266    -4321   -16511   -30477   -43362 
  -47684   -42700   -34345   -24808   -14507    -5508      250     1123 
   -3866   -16231   -34850   -49705   -47933   -25689     9017    42811 
   67239    82847    91690    91290    80842    66909    57862    54928 
   52847    49942    48647    47775    45638    42275    35148    22763 
    5087   -17806   -39134   -51747   -59968   -71129   -83479   -89598 
  -84972   -71536   -55365   -40231   -25249   -10091     3015    14473 
