Origin Time       2011/03/11 14:46:00
Lat.              38.103
Long.             142.860
Depth. (km)       24
Mag.              9.0
Station Code      TKY004
Station Lat.      35.6301
Station Long.     139.4034
Station Height(m) 81
Record Time       2011/03/11 14:47:40
Sampling Freq(Hz) 100Hz
Duration Time(s)  300
Dir.              E-W
Scale Factor      3920(gal)/6182761
Max. Acc. (gal)   109.291
Last Correction   2011/03/11 14:47:25
Memo.             
[...]
   53113    50540    44394    38396    35051    33774    33428    33935 
   34231    34961    39296    47185    53407    52750    45522    36628 
   31280    31901    36203    40917    45186    47013    44002    36189 
   23848     9035    -3729   -13193   -20417   -23544   -21780   -18603 
  -16840   -17307   -19837   -21815   -19601   -10435     5711    23492 
   35322    37093    29792    17345     2589   -12095   -21076   -20030 
  -12850    -7148    -5026    -2439     4871    16430    26741    30956 
   29131    22648    10149    -9100   -28726   -38163   -33469   -19098 
    -658    19128    39648    60484    80525    97101   106063   104588 
   93013    73108    45862    12570   -22577   -52756   -72421   -81734 
  -85851   -89287   -92441   -92962   -88507   -78265   -64103   -50612 
  -41165   -34864   -30411   -29112   -31987   -38686   -49107   -63174 
  -80319   -98884  -114283  -120889  -118695  -114263  -112377  -110490 
 -104120   -94489   -86768   -81930   -74642   -60891   -44119   -30689 
  -23475   -21640   -22218   -22181   -19574   -12547    -1760     7370 
    9644     5157    -2829   -11627   -19074   -22808   -21456   -15982 
   -8583      517    13314    29899    46732    59971    69145    76681 
   83386    86029    80417    67167    53398    45604    43317    42330 
   39747    35566    32699    33495    36627    39771    41595    40950 
   37081    29378    17875     5205    -3510    -4431     1855    12681 
   25748    38937    51636    64910    80197    97884   114544   124990 
  127717   123825   115169   106494   101617    98352    93452    86936 
   79375    70853    60860    48577    35586    24902    18477    17176 
   19585    23351    27527    29672    25357    12736    -4326   -18532 
  -27303   -35430   -46631   -57763   -63009   -61259   -57536   -56241 
  -56310   -54455   -48939   -39564   -27667   -15289    -2693    10265 
   20966    26440    27090    25053    21085    14664     6373    -1355 
   -7299   -13145   -20856   -31269   -44225   -57511   -68805   -77726 
  -83003   -82025   -73891   -59759   -42706   -28149   -20813   -19516 
  -17382   -10531    -3283     -510     -638     -855    -2659    -8744 
  -19701   -34048   -48102   -58242   -63931   -66298   -67157   -69514 
  -74611   -81094   -87500   -91215   -88630   -79150   -64647   -45478 
  -22178     1237    21379    38283    50628    55056    50479    38929 
   24036     9389    -3561   -18070   -39629   -66617   -89876  -104017 
 -109852  -107511   -96824   -79959   -58549   -33863    -8263    16474 
   37766    52145    57567    52567    39444    25863    15617     5021 
   -8549   -21398   -27931   -27319   -22984   -17431   -11642    -6580 
   -2987    -1146      707     5455    12420    17805    18987    16298 
   12303     8337     3704     -114       87     2882     1494    -6502 
  -13032    -8686     7169    28630    50260    69876    86097    95881 
   97730    95663    94008    89573    76628    57744    41658    32224 
   26057    19547    13887    13058    17553    22797    26234    30456 
   36757    42414    44918    46057    52315    66996    83554    92918 
   93103    89477    89223    94362   101166   106802   110192   107956 
   96392    75942    52398    34115    26212    29007    40513    55195 
   63875    62330    56723    54530    55882    56588    51342    35427 
    9039   -23947   -59659   -93209  -120130  -140046  -154277  -161566 
 -159871  -148651  -127095   -95762   -60539   -30458   -10605      689 
    5882     2809   -11703   -36136   -64853   -91106  -109106  -117953 
 -120819  -118432  -109108   -92538   -70372   -46462   -24932    -7005 
    7276    17015    23666    29714    31461    21531    -1524   -31606 
  -60289   -81425   -93464   -99163  -101377  -100200   -96357   -92867 
  -91365   -89985   -85598   -78248   -71437   -65697   -57839   -48680 
  -41564   -34497   -23431    -8584     6996    21406    35961    52434 
   69021    81804    87839    86906    81182    71218    56050    37899 
   21265     8879     1311    -2151    -4140    -7903   -13245   -17084 
  -17876   -16463   -14598   -13368   -12899   -13653   -14623   -12195 
   -4125     7300    16189    18689    18669    23601    34271    43363 
   45626    43300    40459    39435    41487    45382    48734    51555 
   54812    58376    61604    63410    62659    58079    48599    36060 
   24984    18049    13205     6599    -1165    -5220    -4841    -6058 
  -13287   -24410   -35314   -43930   -50266   -55636   -59782   -59210 
  -53070   -45505   -37938   -28001   -16160    -6300    -1864    -2740 
   -5300    -7106    -9141   -12721   -17000   -18115   -11935     1103 
   17634    34585    48026    54475    53406    45506    30443     8697 
  -14829   -33737   -46611   -55369   -61805   -67325   -69819   -65562 
  -55355   -42236   -27255    -9675    10011    25436    28579    18919 
    1173   -20935   -43833   -63552   -78083   -86627   -87553   -79952 
  -65031   -44599   -20788     2823    21903    33548    37559    37009 
   36120    34567    28758    19311     9742     -270   -13785   -30254 
  -44882   -53024   -53922   -50978   -46526   -39057   -28003   -17805 
  -14518   -18449   -23310   -22702   -14885    -3707     3396     1048 
   -9171   -20972   -30419   -37694   -42913   -46214   -49412   -53805 
  -60241   -68361   -74634   -76148   -72539   -64133   -52653   -41086 
  -31074   -21009    -7800    10077    31284    49559    56078    47692 
   28940     5477   -21084   -49414   -73675   -89698   -99044  -100912 
  -91692   -73050   -48858   -21328     4461    23827    37318    47093 
   56932    71035    88694   105890   116835   114900    99792    79141 
   61188    50084    46820    52321    65612    79465    87205    90758 
   95010   100914   105662   106618   106524   109634   112057   105263 
   86555    59863    31466     5623   -18374   -42293   -64645   -83186 
  -96771  -104027  -104262   -97916   -85094   -67369   -49364   -34936 
  -24739   -18394   -16022   -17746   -21974   -25328   -26293   -27482 
  -34138   -49935   -71636   -90203   -98196   -93459   -76504   -48078 
  -12921    19427    43535    60142    69024    68264    56659    33907 
    3228   -27834   -52275   -68406   -79538   -87674   -88864   -79070 
  -59781   -32548     2683    40565    72099    93167   105589   112639 
  115567   112612   101711    84035    63185    43080    26069    11270 
    -872    -5998    -2787     4595    12153    19763    28873    36074 
   35997    33287    39170    56230    76334    89116    90143    84341 
   78516    72864    64262    52586    40472    30082    22221    17908 
   18632    24058    31495    38012    42256    44941    46460    45571 
   42536    39584    37990    37694    37721    36442    32739    26254 
   18058    10857     5596        0    -7970   -18628   -31696   -45850 
  -58146   -66729   -73918   -82156   -88148   -86687   -77422   -63885 
  -49201   -34889   -22325   -13620    -9944   -10659   -13825   -16232 
  -16306   -15936   -16453   -16974   -17648   -19857   -23943   -28553 
  -30249   -26851   -21074   -16357   -13238   -10667    -7305    -3447 
   -1561    -3731    -9485   -16170   -21825   -27301   -34015   -40860 
  -46436   -50969   -52357   -46766   -34320   -17766     1365    21010 
   37785    50792    61954    70579    73141    69235    62347    56836 
   55734    57961    59490    57966    53939    49685    47944    49127 
   49383    44433    35605    28956    28642    34518    44578    55674 
   63659    64737    57258    44435    32121    21820    11905     4673 
    3688     7190    10419     9287     1094   -12171   -24586   -32989 
  -38108   -39541   -35042   -24837   -12174     -741     6603    10313 
   13787    18925    25619    32852    38770    42682    44102    39768 
   26206     4636   -18853   -38549   -53285   -64181   -71379   -74218 
  -71791   -63824   -52655   -41784   -32040   -23202   -17793   -17908 
  -20850   -22641   -23240   -26188   -33883   -43555   -50179   -52395 
  -53325   -57927   -68928   -83361   -94810   -98861   -94930   -85388 
  -74476   -65597   -60118   -58749   -60317   -60853   -57792   -52606 
  -46978   -40097   -31997   -26157   -26053   -30569   -35623   -37672 
  -33075   -19658      452    22462    41057    52514    57100    58636 
   60585    62721    63165    60007    50586    35069    17795     2199 
  -10762   -19688   -22786   -19990   -12611    -3057     5191    11001 
   16239    22327    31051    45313    64585    83319    95975   101519 
  102315   101918   104126   109621   114670   114772   106933    89232 
   60694    23735   -14773   -48403   -74750   -93455  -104102  -105777 
  -98097   -82373   -59604   -29827     2999    30856    50528    65671 
   77585    82049    76297    62185    42617    19218    -8145   -40223 
  -72589   -94704  -100393   -93947   -83882   -74664   -64281   -50119 
  -36265   -30424   -33701   -38724   -38976   -34845   -30120   -27927 
  -29329   -32057   -33402   -34298   -36622   -40139   -44480   -49144 
  -51445   -48642   -40241   -26135    -5773    18989    43090    63435 
   81025    95167   103798   108965   112043   109742   100155    84370 
   65321    49825    44045    47269    54686    62683    69440    74112 
   76948    78231    77280    72471    63291    51560    37170    18827 
     -49   -14678   -23685   -27372   -28029   -29995   -35203   -40664 
  -41465   -35098   -22952    -9644     -481     2771     2908     1913 
   -2969   -14077   -27617   -37732   -43499   -48694   -57493   -70951 
  -85704   -97278  -103450  -104029  -101077   -98559   -98665   -99767 
  -99968  -100063  -101113  -102626  -104120  -105481  -106648  -107954 
 -108633  -106625  -102318   -99025   -97914   -96398   -92299   -86219 
  -79905   -75001   -72911   -73478   -75350   -77844   -79297   -77162 
  -72351   -68124   -64980   -61080   -56026   -51477   -48282   -44759 
  -39031   -31266   -23121   -16854   -13858   -13008   -11272    -6253 
    2019    12178    23079    33803    43970    53683    62458    69193 
   73203    75308    77423    80800    85700    91407    96013    99166 
  104045   112195   119367   120607   115178   104889    91129    73532 
   50806    23910    -2803   -25467   -43774   -58021   -65917   -65163 
  -56773   -43023   -25219    -5999     9575    17010    15555     8406 
     928    -1393     2746     9265    14502    17401    17931    18192 
   20825    26074    32805    39601    44423    46375    46862    45831 
   40556    30710    20256    13796    12721    13908    13088     9804 
    7026     7157    10317    15137    20056    23316    22530    16476 
    5543    -9993   -27169   -38273   -38041   -29489   -19102   -11187 
   -7312    -5662    -2731     2244     8368    16217    26899    40799 
   56973    73603    89672   103985   113468   115351   111094   105813 
  102314    97329    84473    60942    31012     1540   -23461   -42660 
  -55911   -63074   -63640   -58796   -51800   -45881   -44030   -49541 
  -63115   -79876   -93294  -100628  -102430  -100553   -97363   -94934 
  -94190   -94165   -92808   -88275   -79922   -68786   -55432   -40065 
  -25627   -15052    -7193      425     8295    15214    17971    12126 
   -2524   -20397   -36799   -50874   -62738   -72635   -81281   -89792 
  -99889  -112450  -125038  -132932  -133392  -126503  -112823   -93672 
  -71398   -46880   -20096     6426    28482    43444    50960    53215 
   53966    55105    55661    54074    50387    45934    41059    35267 
   29066    23280    18141    15631    19071    27346    35681    42170 
   47056    50460    53365    55359    55463    55627    56702    56760 
   55468    53587    51585    50544    52247    59353    73466    92448 
  110727   123170   129355   131088   129329   126794   126479   128080 
  129778   129612   125435   116346   103007    87173    71833    59888 
   52817    51322    53945    54899    48240    34107    16945     -366 
  -16817   -30907   -41090   -46450   -46704   -43501   -41368   -44008 
  -49163   -51504   -49225   -43400   -33202   -16544     4940    25363 
   38890    44071    44324    43834    45971    53299    64595    75503 
   82378    82844    76014    63887    49997    36630    24504    13849 
    4317    -5931   -19481   -37360   -58018   -76992   -88354   -90123 
  -86725   -83417   -81566   -81208   -82568   -84007   -83659   -81323 
  -77537   -73641   -70300   -67172   -66163   -69401   -75128   -80047 
  -82617   -82640   -79856   -74141   -66651   -59594   -54326   -49572 
  -42614   -31971   -18027    -2821    11794    26418    40964    52508 
   59877    64637    67329    67093    62446    52271    38325    23296 
    7915    -6792   -19662   -31319   -42090   -51437   -59054   -64251 
  -66247   -65196   -62052   -57687   -52173   -44400   -33663   -23060 
  -17963   -21028   -31365   -45385   -58452   -68376   -75082   -78351 
  -78798   -77817   -74852   -67681   -56063   -42227   -27442   -11080 
    6355    21899    33097    39511    40197    34130    23779    14642 
   10992    13033    18318    24646    29621    30031    24997    17550 
   10649     4932     2144     4325    10184    18059    26804    33848 
   39024    45152    52289    56457    54197    46409    36597    26733 
   18128    13860    16933    26845    38378    45500    47354    47565 
   48323    48918    48262    45520    40316    32620    21517     7482 
   -4719    -9575    -5465     6556    25029    47395    70337    91764 
  110728   126465   138958   148665   155231   158866   161817   165855 
  170157   172225   169866   162713   151425   136748   120590   106389 
   97406    93331    89909    84728    79279    74624    70375    66089 
   61442    57012    54109    53311    54434    58069    64475    70279 
   71271    67544    61413    54137    46794    40471    34995    29180 
   21789    11533    -2598   -19991   -38110   -54773   -69284   -80064 
  -84975   -84691   -82063   -79692   -79101   -79517   -78935   -77717 
  -78620   -82206   -85205   -84971   -81901   -77093   -71296   -66386 
  -65844   -72395   -85628  -102870  -121445  -139481  -155323  -166873 
 -171789  -168948  -160081  -148242  -133719  -114151   -89198   -62648 
  -39537   -21079    -4368    12046    27153    40679    51902    58412 
   58092    50002    35065    16803     -418   -14223   -24194   -29535 
  -30497   -30167   -30813   -32692   -36302   -41118   -45551   -50467 
  -58288   -68641   -79549   -91266  -104591  -117803  -128070  -134061 
 -136212  -135469  -132438  -126884  -117732  -104989   -90468   -75686 
  -62236   -52258   -45072   -37691   -28435   -16459    -1834    12382 
   21199    20636     9761    -8890   -30140   -47516   -56279   -55882 
  -48321   -36363   -23277   -11116      505    13189    27402    41402 
   52993    61560    67996    73111    76279    76329    73498    69094 
   64777    63144    65880    71730    78471    83963    85770    83587 
   80001    78400    82270    92705   105960   117491   125671   130235 
  131186   128626   122081   110861    94926    75864    56612    39218 
   24082    10872    -1238   -12814   -23212   -31477   -38227   -45972 
  -56496   -68014   -76612   -80537   -81455   -81934   -82706   -82666 
  -81208   -78705   -75525   -71855   -66948   -59536   -49886   -39776 
  -30242   -20512   -10133     -597     6468    10923    13472    14918 
   16626    19819    24041    28691    34176    40819    49100    58878 
   68390    76039    81472    84815    85701    82660    74208    60974 
   45938    31728    18234     4033   -10573   -23238   -31938   -36355 
  -37076   -35468   -34206   -35255   -37587   -38692   -37590   -35399 
  -33404   -31578   -28325   -20922    -8526     6208    20765    34944 
   49165    62609    72809    77800    76864    69827    57578    40884 
   22349     7301    -3810   -12490   -15241   -12761    -9821    -6600 
   -4939    -7623   -12256   -16766   -18455   -13997    -6395      430 
    5725     7543     4753    -1308    -8968   -16054   -20337   -19738 
  -13006    -3873     2163     4851     4555      -68    -6652   -13318 
  -19937   -20690   -14501   -12625   -17737   -22206   -28500   -40678 
  -51250   -53371   -48337   -39925   -31029   -22609   -15007    -8754 
   -3143     1512     4880     9740    17571    26435    34032    38485 
   39254    38536    39059    39292    35199    27612    20613    16255 
   14853    14215    11794     8802     7308     7836     9712    10219 
    7674     4166     2202     1640      507    -1644    -4110    -9287 
  -19275   -30840   -38735   -40044   -36902   -35394   -39419   -48547 
  -60057   -70185   -76095   -77296   -74191   -67281   -58388   -49825 
  -42459   -35999   -30813   -28751   -30453   -33813   -36164   -35065 
  -30253   -25014   -20852   -14724    -3702    11818    29300    46729 
   64005    81638    99604   117183   132711   144736   152381   154356 
  149942   139783   125306   108422    91111    74386    57482    40560 
   26520    16617     9734     6478     7465    11856    19563    28658 
   34641    35117    30718    23440    15319     7157    -1081    -8892 
  -15433   -21546   -28429   -34492   -37678   -39033   -40901   -43798 
  -46829   -48853   -48947   -47305   -44407   -40024   -33823   -25567 
  -16434   -10272   -10564   -16447   -23973   -30627   -36241   -40236 
  -41264   -39469   -35916   -30487   -23294   -16140   -10692    -7111 
   -5198    -5870    -9746   -15290   -20802   -26286   -32425   -39367 
  -45786   -49063   -47502   -41710   -33244   -22262    -7840     9719 
   29073    48521    65470    78252    87205    91940    91341    86530 
   78907    67404    51728    34572    19125     6846    -2538    -9103 
  -11321    -7311     3173    18060    34249    49622    62600    71118 
   74118    72422    67870    63062    60566    60671    60658    57367 
   49692    38510    26119    15074     6160    -1426    -8668   -16228 
  -23484   -28198   -27660   -20140    -6336    10455    26254    38894 
   48085    53463    54736    52194    46001    36849    25984    14043 
    1594    -9972   -19535   -27320   -33756   -38445   -40837   -41038 
  -39105   -34359   -26441   -15627    -3125     8161    15953    20703 
   24394    29421    36936    44018    45707    41321    34648    28335 
   22224    15526     7863     -818   -10440   -20705   -30692   -39396 
  -46784   -53206   -58614   -63126   -66647   -68338   -68519   -69621 
  -72398   -73803   -71962   -68681   -66018   -65464   -67755   -71634 
  -75743   -79543   -82392   -83937   -83791   -81077   -75162   -65903 
  -53974   -41574   -31912   -27096   -26027   -25434   -23113   -18473 
  -13208   -11737   -15351   -20984   -26383   -28993   -26776   -21166 
  -13212    -3728     4299     9274    11716    11725     8546     1494 
   -8580   -19805   -30589   -39215   -44229   -45514   -44047   -41451 
  -39532   -39040   -39457   -39437   -36600   -28966   -16468     -677 
   15300    28297    36661    39757    38530    35663    33222    31270 
   28460    23789    18282    14308    13527    16092    20934    26518 
   32162    38136    44147    48946    51347    51097    48874    45633 
   42186    38867    35483    31990    28292    23721    17992    11858 
    7102     6024     9397    15982    24061    32012    38759    44281 
   49380    55164    61946    68540    73176    74548    71901    65259 
   55995    46292    38006    32704    31410    33324    36458    39598 
