Origin Time       2011/03/11 14:46:00
Lat.              38.103
Long.             142.860
Depth. (km)       24
Mag.              9.0
Station Code      TKY013
Station Lat.      35.6627
Station Long.     139.8341
Station Height(m) 1
Record Time       2011/03/11 14:47:28
Sampling Freq(Hz) 100Hz
Duration Time(s)  300
Dir.              N-S
Scale Factor      3920(gal)/6182761
Max. Acc. (gal)   133.901
Last Correction   2011/03/11 14:47:13
Memo.             
[...]
  -32996   -45852   -51383   -49070   -45493   -44853   -44460   -44588 
  -50274   -59586   -64797   -63832   -59549   -52777   -43187   -33785 
  -29342   -28517   -24019   -13749    -2589     5299     9546    12630 
   15339    16221    16166    15420    13553    13993    17709    20295 
   18574    12303     2971    -6688   -12999   -11628    -1030    15364 
   32670    47575    57585    63034    66342    64152    52494    37749 
   28949    28338    33449    40599    47931    55188    59082    55751 
   49957    48877    50802    55926    65950    69543    62577    58934 
   62709    65488    65369    67158    69701    64309    49140    31861 
   18999    11732     7409     3814      696    -2047    -3069      179 
    7776    15852    19535    19937    23160    26973    22235     9236 
   -5352   -20072   -33500   -41126   -44647   -49688   -54908   -56247 
  -51507   -37932   -17681     2520    17946    24567    21424    12815 
     883   -13445   -24701   -29876   -32672   -35889   -37516   -36025 
  -34959   -38089   -44190   -49897   -53958   -57691   -60776   -61200 
  -60817   -62975   -67993   -74455   -79649   -81207   -79506   -75700 
  -70470   -63766   -52953   -35951   -15418     3971    19113    29553 
   36366    40846    46087    53520    58881    59322    57528    56038 
   54344    50710    44135    34890    25810    21292    21782    24626 
   29977    38235    44159    43693    40827    39039    37904    35523 
   29019    19550     8649    -3395   -13095   -20428   -28372   -35446 
  -38164   -34115   -22998   -10388    -4875    -6512    -7267    -2593 
    7553    21880    34596    37996    31257    19442     8312     1948 
    -842    -1896    -1436    -3205    -8654   -14711   -20417   -25656 
  -29340   -30782   -30348   -30631   -34123   -40131   -44528   -42265 
  -33671   -23959   -16486   -13520   -15433   -17303   -16502   -15345 
  -13988   -13028   -15681   -21727   -29594   -39654   -48633   -50896 
  -44830   -32049   -17393    -6223     2089    10253    17446    20562 
   18502    17402    23292    30886    32092    28716    26997    26817 
   26525    28964    33032    35139    37041    37090    31857    26731 
   24987    22045    13976    -1286   -19485   -30762   -34699   -39102 
  -43049   -40883   -36780   -37723   -43463   -49115   -48431   -39444 
  -26477   -14604    -7033    -3195      373     4140     6472     8758 
   12937    16357    16886    17534    17155     9247    -6727   -24425 
  -37024   -43910   -51745   -63171   -73030   -77051   -75141   -69339 
  -60879   -50992   -43996   -43343   -47669   -49576   -39533   -19392 
   -1154    10787    19570    25265    27396    26299    22765    22052 
   27395    35964    45841    55160    60542    63065    66106    68588 
   69299    71804    78318    84745    84365    75914    66777    63200 
   62275    57582    46923    34121    25671    24815    27702    28974 
   30054    34931    42762    48760    50039    48829    46357    40164 
   30983    22929    18308    15848    11388     4539      775     1677 
    3414     4628     7637    13391    17286    14688     8577     1819 
   -8564   -22306   -35512   -46608   -54324   -56960   -52934   -42348 
  -29229   -16921    -6337     1153     5243     6983     7277     7844 
    9981    10891     6764      -24    -4528    -6255    -6315    -6315 
  -10707   -21388   -32982   -38901   -39378   -39236   -39514   -37469 
  -31749   -21578    -8631    -1639    -6562   -16239   -19630   -13915 
   -4124     5852    17030    28524    38947    50422    60724    66686 
   71940    77907    80559    77276    70842    68042    70258    70774 
   62727    47623    36321    31610    24215    15473    14690    19789 
   24450    29910    39838    52497    62600    68674    74207    81442 
   86549    83368    70824    53731    38141    26741    18114    11112 
    6202     2242    -2177    -6868   -12567   -19751   -24765   -22807 
  -15161    -7911    -4608    -5884   -11056   -16574   -18598   -17629 
  -17419   -20185   -25248   -29260   -28366   -23358   -17198   -11447 
   -8261    -8317   -10901   -14905   -16992   -16912   -18696   -23195 
  -27566   -29463   -29708   -31465   -35115   -38957   -44170   -53167 
  -64631   -72714   -73949   -72580   -73405   -74588   -70497   -58915 
  -45061   -34444   -24611   -10421     6862    20058    23971    20319 
   14998    11081     6098    -2258   -11455   -17027   -20669   -31035 
  -49222   -63558   -66836   -64503   -61562   -57374   -51922   -45561 
  -41385   -44203   -48796   -47345   -43583   -41868   -37469   -25993 
   -9795     6682    19796    27087    28968    25389    16544     8347 
    4297     -791   -10394   -21291   -30792   -39744   -47523   -52387 
  -57010   -64516   -72065   -74983   -73221   -70491   -67895   -62696 
  -55690   -51188   -49273   -47223   -44226   -41274   -40554   -41726 
  -39790   -31434   -18624    -4067    10673    23460    32741    39199 
   45840    55202    65877    75781    84274    88883    87155    79323 
   67624    55160    41813    27416    18983    20696    25624    28279 
   30651    34675    40114    46539    54670    67236    84382   100137 
  108953   111317   111345   110924   105362    91420    76415    67548 
   60338    47806    32756    21201    11431     -168   -11224   -17974 
  -20943   -23526   -27913   -34399   -42293   -48637   -49768   -47631 
  -49108   -55518   -58174   -47914   -28228   -12785    -7794    -7996 
   -8245    -6634    -2926      -31     -409    -3042    -6872   -10986 
  -12438    -9919    -4698     2325     6989     5318     2520     3015 
    1405    -6601   -18060   -28759   -38703   -51096   -64196   -70737 
  -69694   -68277   -69849   -69162   -62025   -52906   -47980   -47812 
  -51302   -57619   -63337   -64244   -59920   -54463   -52024   -52995 
  -53205   -47142   -33837   -15077     8324    33052    53842    68491 
   77881    83050    83173    79260    78257    84393    91462    91446 
   82238    64480    40988    18763     4057    -3294    -8327   -15697 
  -27172   -41868   -55123   -60227   -53821   -37342   -14778    11084 
   39279    66495    88299   102995   111514   118070   127016   134031 
  129243   116992   112914   114047   107841    98512    89299    74549 
   56267    38181    19292    -1859   -25286   -45365   -54060   -51558 
  -45485   -37440   -22850    -6005     4407     7713     7053     7781 
   16084    31196    45121    49949    46620    41543    35749    27331 
   18274    12413     7829    -3964   -25378   -46626   -58348   -62404 
  -65348   -68819   -73246   -82873   -99662  -119188  -134707  -142649 
 -146235  -150906  -157075  -161752  -163565  -165455  -170457  -172758 
 -165999  -156103  -146809  -131664  -111690   -93708   -76662   -58670 
  -41899   -25758    -8260     9181    24057    35996    45140    50777 
   54030    57594    62183    66212    68187    68294    66499    62166 
   56309    49902    43954    41706    45103    52806    62766    72906 
   82310    91981   101924   110964   119063   124909   123832   113220 
   97785    84832    75487    65621    53275    38950    22715     4519 
  -15519   -35256   -51787   -65232   -75361   -79638   -75475   -61335 
  -40719   -21838    -9577    -2220     2194     2935     2961     6353 
   10220     7257    -8826   -35063   -57615   -64611   -51708   -24270 
    3763    26542    48325    67839    79379    82592    81199    77421 
   71086    63486    57079    48685    30089     1792   -23481   -39635 
  -53079   -67522   -80435   -88377   -90782   -92470   -96528   -99099 
  -96467   -91092   -88440   -90590   -92120   -84099   -66190   -45798 
  -27758   -15841   -12045   -14173   -19767   -25638   -31211   -36858 
  -35030   -20454      475    20447    37964    53082    63731    66943 
   62954    55208    45158    32657    19679     9550     6018     8716 
   12502    16453    23460    34379    48622    65024    83282   102921 
  120865   135646   147269   152256   147576   133950   113614    90964 
   71305    56658    43581    24739    -5248   -44747   -84646  -112605 
 -120786  -111882   -95691   -78309   -59805   -39666   -17895     3329 
   19443    28842    33979    38652    45024    52816    62130    71961 
   79137    82388    82350    79503    74575    70182    69592    71588 
   72884    72382    67987    58941    47979    35598    21447    10276 
    8368    14855    20867    17613     3063   -17272   -35032   -46861 
  -56666   -69163   -83689   -95317   -99344   -96173   -92794   -95156 
 -100642   -99210   -88902   -82970   -79646   -63102   -41704   -25208 
   -1083    31437    56662    67310    67408    62956    56198    48056 
   42094    41007    41318    39801    39490    41276    42031    39142 
   29137     9805   -16946   -45907   -71020   -88328   -96418   -95910 
  -89486   -81072   -71999   -60108   -43960   -21923     7468    38644 
   62107    74982    79535    75571    61846    39230     8547   -26478 
  -56040   -77282   -96022  -109276  -115062  -119548  -116659  -101131 
  -84389   -74201   -71520   -74657   -76649   -77943   -83490   -89429 
  -90211   -85157   -75391   -58746   -30506     5063    34322    49730 
   55939    59945    62286    59647    52237    46455    49484    62627 
   80058    92610    94805    86959    71429    52342    36200    28227 
   27733    27030    18681     3279   -14347   -30401   -43222   -55312 
  -69310   -83703   -94430   -94152   -76411   -46385   -20181    -6236 
    3823    18686    40022    64505    83409    99198   118589   131926 
  133623   129698   122696   114802   108180   104167   104309   106017 
  106880   106973   105231   102098    97480    86664    70599    60240 
   61563    67700    67923    60539    52516    44365    29197     7245 
  -13345   -27650   -37864   -48144   -59214   -68460   -72517   -68539 
  -57493   -46429   -40309   -35025   -26320   -16713    -9607    -5544 
   -1034     8875    22404    33046    33860    17810   -12316   -42534 
  -61986   -68715   -66561   -64912   -74695   -95222  -113294  -120806 
 -120542  -115350  -104392   -89430   -74392   -59488   -42232   -20892 
    1758    19195    31038    43225    57960    72590    82374    83394 
   77615    68306    54881    37623    18244    -1806   -21044   -39931 
  -57934   -70696   -74381   -68588   -55534   -38494   -22888   -14109 
  -10167    -8090   -11829   -23331   -39922   -60022   -83376  -111423 
 -144368  -174830  -192709  -196295  -190410  -177750  -157328  -126513 
  -82631   -24441    43236   105120   145729   165721   177641   188167 
  193494   189366   179293   170516   166260   163851   156888   140215 
  112850    76394    32743   -13961   -51752   -67407   -61696   -48726 
  -40517   -35547   -23161     -367    20874    26772    17958     4914 
   -8602   -20177   -20868   -10348     3693    17859    28206    30054 
   21616     5458    -7920    -9293     1781    21333    41863    57001 
   64955    61879    45139    21189     -158   -15135   -26828   -37030 
  -43336   -45458   -43046   -31884   -12118     9060    26650    43003 
   62499    82023    93068    93214    84100    65628    39364     8828 
  -19308   -37207   -45490   -47763   -42913   -33373   -22856    -9050 
    8907    26684    39356    45418    48962    54311    59025    58103 
   51687    42164    30470    18205     4424   -14268   -36521   -57488 
  -73645   -82849   -84865   -82271   -78348   -76295   -79437   -87095 
  -96229  -105534  -109729  -101985   -81834   -52053   -20075     3913 
   19049    30527    42643    58606    73310    79133    81469    89066 
  100363   111094   118414   118702   111053    96945    78719    59916 
   44231    34744    30784    29488    31057    34148    31252    16402 
   -6107   -24859   -32060   -29222   -21852   -11940     -844     5328 
    -286   -17341   -36169   -47275   -50461   -49888   -47629   -43659 
  -38743   -36553   -38242   -40449   -41021   -39794   -37253   -32215 
  -21036    -5364     6210     7769     1393    -6040   -10897   -16194 
  -23582   -30525   -36442   -41181   -44226   -48478   -55060   -59956 
  -59455   -51730   -34609    -6388    31075    70931   103756   123670 
  132795   135907   133692   126300   115404    97905    65568    15359 
  -42156   -87987  -109989  -114366  -117520  -123731  -123874  -114430 
 -100036   -83380   -65219   -48424   -34883   -21111    -2728    18290 
   37628    54645    69038    80483    86996    80764    62172    43405 
   27458     9564    -9762   -27119   -38360   -41723   -38852   -31966 
  -24708   -20781   -23047   -30441   -36749   -40376   -43535   -44968 
  -45272   -47339   -51220   -55367   -58527   -60812   -63027   -64672 
  -63818   -57738   -44768   -27313   -11165     -670     2829     -912 
  -10397   -22055   -33381   -43403   -50144   -52502   -53392   -56534 
  -61372   -65197   -68072   -70953   -72209   -69737   -63732   -55792 
  -47289   -37939   -26067   -13462    -5512    -3996    -5525    -6351 
   -4869     -242     8165    20524    38245    60855    82426    98101 
  108880   117233   123167   125767   126893   129103   130471   128116 
  124839   125601   130033   134312   138192   142541   142771   135545 
  126134   120224   115669   102377    72811    39272    22673    25351 
   39509    61944    84437    99799   109907   111667   102259    90690 
   86060    89333    95266    98504    99582   100942   102012   100381 
   94399    84205    72020    60119    47983    35597    23953    10252 
   -8863   -32356   -56770   -79740  -101983  -124908  -146700  -165467 
 -182093  -196249  -206058  -209426  -204307  -193539  -181765  -168514 
 -154808  -144062  -133274  -119888  -107283   -93594   -72852   -44742 
  -13573    12874    28699    35782    37155    33400    25123    13601 
      92   -16123   -34966   -53809   -73340   -97278  -123320  -144262 
 -158286  -167496  -172189  -172100  -165689  -153092  -138943  -124456 
 -107181   -89688   -76057   -64803   -53317   -41997   -31882   -23492 
  -15153    -3664    10842    25207    34242    34640    34415    44149 
   62211    81840    99455   113740   126158   138854   151061   160153 
  165189   166998   166375   163783   158270   149515   140541   133291 
  125680   116873   110558   109627   111714   114008   117829   124233 
  130493   132680   128761   120138   109370    97492    84741    71974 
   61200    53186    46018    36901    24753    11919     -427   -14132 
  -29051   -43673   -57602   -71721   -86632   -98130   -99304   -91511 
  -88007   -95984  -104026  -104210  -102949   -99316   -88066   -75268 
  -62097   -41080   -17210    -1077     8521    15470    19841    24092 
   32136    44538    56591    64740    69988    70353    61690    43354 
   18430    -8459   -36205   -66592   -97994  -125307  -144557  -154407 
 -156041  -152667  -145469  -134757  -125345  -118107  -104309   -78975 
  -46085   -13177    13562    35032    52430    64339    75813    91965 
  108162   118523   126462   135475   141043   142379   142153   137998 
  129572   120744   113101   104684    92854    75905    52520    24789 
   -1339   -21578   -33316   -35298   -31996   -30249   -32103   -36424 
  -42158   -47521   -50783   -50794   -46356   -38435   -29991   -22218 
  -14937    -8478    -2056     6067    15599    23975    28583    28889 
   27224    26602    27653    29027    29578    27376    19039     3003 
  -18163   -39099   -54901   -63315   -63866   -56949   -44890   -30305 
  -14199     1802    15946    26321    29533    25968    19049     9277 
   -2977   -16204   -29369   -40678   -49121   -54627   -56249   -52796 
  -43057   -27329    -8343    12134    33651    53972    70016    80001 
   83304    80097    70599    55872    40170    28167    19779    11617 
    1966    -6611   -10650   -13323   -21480   -35140   -48070   -56380 
  -60758   -61463   -56261   -44205   -28031   -11639     2297    11933 
   16859    18396    18137    17756    19408    24031    29568    33847 
   37499    41475    44250    42647    34507    19806     -153   -23518 
  -47570   -67319   -78793   -83253   -82709   -78910   -75364   -72334 
  -68405   -64620   -61253   -56009   -47157   -37610   -30228   -23318 
  -16393   -10556    -4667     2002     7416    10223    12640    17285 
   25028    35415    46017    54802    62171    68702    73835    76947 
   78283    78634    80054    85271    93516   100771   103243   100110 
   95197    92482    92746    95990   101940   108973   113793   112992 
  104390    86107    59316    29379      149   -28024   -55813   -83299 
 -108370  -128157  -141995  -150292  -154178  -156696  -159478  -160589 
 -157082  -146489  -127016   -97961   -60658   -20084    17018    47663 
   74457   100961   124372   136362   135004   127612   122209   120992 
  117477   106272    90797    71799    45157    11369   -25043   -56372 
  -74923   -82519   -86773   -90438   -91813   -90608   -89054   -87961 
  -85453   -79081   -67649   -52024   -33412   -13403     4264    16787 
   25485    31811    34461    33478    30952    28277    26706    26038 
   22862    15273     7363     4015     4810     7008     8966    10823 
   13609    15151    12801     9432     9337    13386    20438    28890 
   37438    45749    56220    71491    88504   102259   111626   117576 
  122226   128967   139217   149447   155610   159690   164026   166040 
  167232   170730   171608   166640   158597   148922   138963   129301 
  119371   110692   102194    89384    73180    59778    50942    44438 
   40473    38485    35742    31966    28226    25175    23599    22662 
   19149    10108    -4329   -20934   -34149   -40025   -41764   -42340 
  -37267   -25306   -12880    -5487    -3943    -4364    -1307     7623 
   20694    33818    44944    54657    61624    62538    56878    48512 
   42342    39089    34151    23623     8815    -6517   -20716   -34215 
  -46321   -56147   -64002   -69415   -72200   -72156   -68166   -62020 
  -56385   -50596   -43689   -37007   -33807   -36623   -44234   -54373 
  -67918   -85884  -104150  -117013  -124276  -130165  -137453  -144439 
 -147098  -144183  -137788  -130727  -125626  -122081  -118182  -115055 
 -111137  -101094   -86091   -72072   -61588   -54242   -47457   -39129 
  -30012   -21166   -14590    -9904    -2420     7956    17981    27199 
   34310    37409    36836    36139    39578    45749    50926    54541 
   56275    55651    53851    52318    51027    48965    45697    40902 
   34530    28232    23821    21782    21937    24141    29334    38377 
   49342    58628    64160    66430    67091    67357    67763    67674 
   65837    62704    59400    55402    50719    47394    46777    47343 
   44385    33009    14493    -5799   -26588   -46195   -58913   -64455 
  -66491   -64706   -59297   -53292   -47057   -38845   -29805   -22964 
  -19210   -17796   -19909   -28181   -41689   -56697   -70741   -82196 
  -90493   -95802   -98338  -100343  -103766  -107996  -112267  -115718 
 -117491  -118054  -117647  -115901  -112762  -106790   -95123   -76476 
  -53038   -29700    -9695     7809    24974    42924    60342    74884 
   86574    95574    99743    98104    92266    82969    69274    51735 
   33485    18177     8514     4595     2509     -462    -3888    -9339 
  -16082   -19768   -20002   -18306   -15445   -12781   -10737    -9333 
   -8685    -8387    -8122    -7501    -5718    -1919     3518     9628 
   16600    23800    30431    38122    46987    53607    55773    54528 
