Origin Time       2011/03/11 14:46:00
Lat.              38.103
Long.             142.860
Depth. (km)       24
Mag.              9.0
Station Code      TKY026
Station Lat.      35.6707
Station Long.     139.8633
Station Height(m) -2
Record Time       2011/03/11 14:47:25
Sampling Freq(Hz) 100Hz
Duration Time(s)  300
Dir.              N-S
Scale Factor      3920(gal)/6182761
Max. Acc. (gal)   160.859
Last Correction   2011/03/11 14:47:10
Memo.             
[...]
   46455    39855    36076    35252    35494    35724    38356    44113 
   48727    47589    39975    29495    19877    10226    -1590   -14527 
  -27185   -38884   -47325   -51106   -51747   -50646   -48194   -44364 
  -38189   -30864   -26703   -27537   -30990   -33554   -32217   -25634 
  -15109    -4030     3913     5928     1394    -6962   -15882   -24872 
  -35231   -47044   -57136   -61753   -60321   -53076   -39073   -18734 
    4935    26749    41361    45191    35588    13114   -16056   -43809 
  -62708   -68315   -64317   -58466   -51914   -40496   -23545    -5481 
    8046    15337    19697    21879    17911     6757    -8126   -22795 
  -35212   -46020   -54409   -56603   -51287   -38586   -16767    10804 
   34048    47848    55482    59692    60174    58553    57005    54382 
   49836    45234    41709    40018    41001    42459    43670    49259 
   61348    75805    86563    90017    88182    84089    77955    71622 
   66797    61770    54973    45080    31725    18415     8697     4124 
    5477    10522    16013    21187    26374    31847    37572    43691 
   49208    50608    46249    37489    25165     9072   -11591   -35575 
  -56537   -67025   -65301   -55658   -43586   -31599   -19553    -8855 
   -2043     1202     3300     5111     6075     8426    15311    26264 
   40235    56111    70095    78863    81920    80107    74368    66388 
   59239    53978    47638    38226    27652    16794     4086    -9191 
  -19775   -26043   -27086   -24052   -20522   -18106   -15335   -11513 
   -7562    -3116     2640     9427    16744    22733    25038    25134 
   26513    29235    31777    33997    36635    40342    42558    41189 
   39429    39275    40598    44181    46660    42119    28830    10728 
   -3885   -10203   -13216   -18323   -23751   -28368   -32791   -34467 
  -33922   -34571   -34852   -32699   -29979   -27742   -26209   -26963 
  -30503   -35514   -39189   -38417   -33857   -29731   -29400   -32468 
  -34130   -29471   -18901    -5273     9524    22054    29967    34310 
   34930    31698    27561    26049    28918    34489    38155    36549 
   30988    24429    15784     3710    -7846   -15484   -19568   -19312 
  -13811    -3389    11478    26903    38316    44882    45878    40570 
   31437    22876    17931    16616    18541    24473    33652    43737 
   51519    53006    45591    28964     8146    -6001    -7545      529 
   14545    31026    44842    53888    59031    60479    58399    52894 
   43431    30954    19051    12125    12199    17575    25949    36818 
   48071    54880    54537    47426    34322    18016     3522    -7435 
  -16960   -26337   -34704   -39888   -40511   -36078   -25509   -10680 
    4445    19732    35339    46481    47738    39033    24912     9175 
   -6084   -17021   -19442   -12993    -1704     8832    14808    14702 
    9509     3402       34      208     3537     6346     2948    -5904 
  -14005   -18516   -21341   -25624   -31626   -34972   -32873   -28045 
  -23381   -19153   -15190   -11339    -7210    -2861     1527     6071 
    9256     8615     5507     4949    10905    23232    36962    46309 
   50468    51885    49113    38112    19523    -2435   -23802   -41025 
  -51972   -56002   -53935   -47484   -36961   -23947   -13941   -11416 
  -15656   -22940   -29664   -33836   -36206   -38126   -37169   -28699 
  -12902     3550    15224    21887    23342    19173    12577     8763 
   11139    18144    25024    30935    39537    52744    68362    81166 
   84696    76072    58435    37022    16843     2027    -6910   -10964 
  -10386    -7120    -3027     2085     8863    16998    23061    23907 
   21786    19707    17131    12304     4322    -4607    -9952    -9873 
   -5747      263     6485    13002    20065    25422    25977    22738 
   21451    25971    34458    42804    47925    48620    45550    41269 
   39566    42519    48917    55912    60145    59974    58753    60796 
   65771    72329    79964    86044    88263    85562    75899    59073 
   38999    20623     6631    -1043       27     8815    21081    32537 
   38017    34979    26930    18369    11802     9421    12035    17865 
   24989    32711    39500    42780    41595    37266    32351    29753 
   28880    24814    16264     7252     -146    -6185   -11072   -14819 
  -15339   -11020    -4372     1094     3526     2417     -324    -2866 
   -8212   -19223   -32730   -45250   -55759   -61582   -60972   -56319 
  -48865   -35232   -12216    17548    45486    62783    66902    62279 
   54839    47945    43733    43594    46487    49969    52658    54989 
   57107    57207    53438    44584    29901    10406   -10051   -23005 
  -20139    -2780    20622    42290    55101    53714    39830    22102 
    8426    -1147   -10889   -20856   -28216   -33510   -37379   -36234 
  -27891   -15677    -4589     2485     5314     4840     1992    -1584 
   -3620    -2945     1597    12868    31825    53562    69981    76034 
   72141    61546    48212    36094    28444    27316    30844    32757 
   28248    16820      437   -17025   -32005   -43106   -49536   -51577 
  -50551   -46114   -38187   -29666   -21901   -12157      731    13267 
   21018    22092    17217     8033    -3438   -14925   -25374   -33781 
  -37419   -34107   -24705   -13715    -7028    -6658    -9908   -13359 
  -14952   -14942   -14598   -13341    -9641    -1987     9570    21110 
   28750    31908    31649    29949    27960    25041    22520    25036 
   34722    47290    56025    56721    49872    39827    28990    15505 
   -1036   -16826   -26777   -27027   -16844     1966    27635    56174 
   79408    90560    88809    77786    62323    44540    23761     2490 
  -12512   -16849   -11072     1496    15461    24942    26944    23127 
   18111    14903    12602     8284     -460   -12014   -19020   -15283 
   -3430     8486    14123    11840     6869     7876    16402    25566 
   31110    35061    38345    39431    39257    40154    42834    47023 
   51994    57413    63073    66373    64583    59156    53307    49128 
   48411    49773    47455    38731    27475    18795    14738    14065 
   14218    12416     6376    -1875    -7061    -7253    -3854     2291 
   10819    20442    29413    36112    38318    35015    29488    26107 
   25682    26863    27177    22927    13114      901    -9907   -17273 
  -21888   -25827   -29382   -31427   -30116   -22684    -8947     7823 
   24365    38447    48492    51840    44829    28274     8058   -10147 
  -23754   -33673   -40468   -41739   -36607   -26649   -12731     3693 
   19160    30081    34362    32108    26333    21348    18226    13735 
    5425    -5272   -14903   -20617   -23656   -28156   -34226   -39105 
  -42636   -45316   -46909   -47592   -46841   -43453   -36869   -28294 
  -20793   -16644   -14852   -13399   -12801   -14363   -16642   -17531 
  -18132   -18285   -12630     1423    18853    31948    37383    39033 
   39884    38001    32146    22505    11908     6646     9464    17953 
   29942    43407    54647    62001    68446    77056    85994    91226 
   91610    87436    77652    62239    44613    30086    21725    16933 
    9786    -2231   -15779   -27119   -37592   -49808   -61742   -70025 
  -73690   -71692   -62963   -49238   -34475   -21963   -12643    -6309 
   -2823    -1085      -65     -826    -3959    -7647   -10256   -11733 
  -12954   -15111   -19008   -24244   -27934   -26344   -18436    -6101 
    6168    13875    18022    23218    31906    43667    55494    63125 
   65301    64974    64246    59850    48295    31394    12167    -7126 
  -23668   -36516   -46256   -52756   -56355   -58223   -58142   -54442 
  -46293   -34369   -21545   -12522    -9011    -7828    -5392    -2304 
   -3167   -10076   -17999   -19584   -12686    -2550     3392     2242 
   -3530    -8768    -8962    -2958     7236    17464    23715    26326 
   28729    32379    36802    40227    40126    37983    37459    38542 
   40571    44383    49437    54981    61034    65813    67544    69223 
   73730    77198    75967    71282    63673    53037    40756    27436 
   15116     9887    14978    23908    27508    23767    15975     7115 
   -2557   -14397   -27055   -36830   -41185   -38259   -27446   -10426 
   10378    29330    38578    37491    32042    25630    18893    13168 
   10892    15562    29430    50610    73324    90746    99630   102540 
  102523    98539    90251    80214    68479    52223    30062     3276 
  -24040   -45729   -58627   -65110   -68249   -67682   -60555   -45421 
  -23997     -309    17668    24084    25314    31299    43072    55604 
   63143    62890    58132    54709    53994    52031    46248    38751 
   32474    28026    23918    17815     8460    -1790    -9350   -14517 
  -19022   -21850   -21193   -15865    -6384     3044     9694    16874 
   28521    44669    61040    70816    71694    68851    67743    69173 
   71872    74186    75395    77525    81857    87281    93230    97729 
   96299    87316    72111    50423    23727    -1303   -19435   -32838 
  -45719   -56291   -60889   -59330   -50706   -35344   -17861    -1019 
   15337    30002    39286    39185    29584    14970     1439    -5389 
   -3225     3509     7222     6978     8628    13347    15400     9673 
   -4643   -22498   -36572   -45032   -51171   -58789   -69031   -79105 
  -86281   -89886   -89198   -83707   -73162   -58122   -41477   -26090 
  -11826     2435    13514    16429    13116     9955     9865    10602 
    6314    -4630   -15371   -20555   -22810   -26563   -31551   -32811 
  -25356    -8674    14034    40209    67714    91788   108403   116808 
  115056   100774    76067    44042     5554   -34195   -63656   -75202 
  -71584   -61656   -52850   -44492   -30330    -9257    13730    32845 
   41501    36816    22973     3471   -19469   -39098   -49206   -50206 
  -47096   -45127   -46909   -52048   -57505   -59155   -54838   -45173 
  -32350   -18890    -6457     3696     9761    11466    10838     9513 
    7928     5325     2365     5291    18631    37268    53841    65224 
   71925    76091    76393    69023    52599    27914    -1611   -29843 
  -49990   -55761   -46198   -28353    -9392     6851    16902    23328 
   33854    49740    66486    80333    88201    87598    77757    59276 
   33179     2112   -28037   -50320   -61365   -62178   -54386   -40775 
  -25743    -9204    12131    37564    62202    79387    83810    75050 
   57469    36830    15327    -6980   -25634   -34273   -30254   -17046 
   -4510      980     2905     6449    11139    10409     -391   -16283 
  -29345   -36372   -37135   -32305   -21034       56    30306    62132 
   87045   100365   103412   101886    99654    95699    86038    66985 
   37353     -701   -42114   -79771  -105385  -113585  -105483   -86212 
  -60999   -35313   -15033    -2946     -994   -10680   -24976   -35123 
  -37997   -31776   -21624   -13817    -5350     6375    20646    35514 
   49185    63808    79003    91942   103007   110838   115254   118905 
  117060   106117    90614    72043    52942    38121    26510    16541 
    9264     5883     6962    11838    18648    25619    32354    35997 
   34791    33595    34650    37507    45542    57086    64734    65937 
   61359    51753    39673    24903     4524   -19847   -42557   -60022 
  -71935   -75960   -65691   -36146    10184    60753    99917   120099 
  121296   104743    73397    33460    -7962   -42526   -62069   -66773 
  -64515   -60131   -54566   -49101   -41923   -28714    -8387    17519 
   46714    74394    94112   103746   107255   107910   106050   103825 
  103360    98926    78455    34540   -27774   -88193  -121817  -123142 
 -108534   -93503   -84375   -84458   -88845   -85427   -73369   -64482 
  -64888   -69848   -75148   -83875   -96677  -105242  -102849   -88590 
  -62425   -27746     6063    29434    40759    44698    43575    37877 
   29147    18631     9095     4782     9258    24688    49060    76803 
  101710   117442   119394   105137    75051    34623    -7780   -44208 
  -69781   -83300   -84546   -76487   -64982   -52693   -42075   -36716 
  -34606   -33763   -39096   -53537   -74059   -94968  -107721  -109460 
 -106182   -99237   -84365   -61121   -31671     2107    36211    61243 
   66353    52336    31140    14020    13623    39439    82555   124822 
  155969   171352   172043   165630   154578   136713   113552    88910 
   66148    45615    25656     4934   -16629   -33017   -35678   -23024 
     862    31183    63809    94921   118712   129572   130079   128281 
  125618   119198   109265    93908    68394    35096     4040   -16733 
  -25616   -24741   -16182    -1480    18882    47645    82493   110435 
  121169   114963    96173    68423    34566     1151   -20980   -27453 
  -23480   -11933     9733    42325    81495   117341   139902   144151 
  130472   105061    71601    27537   -23348   -67332   -92114   -95555 
  -84932   -69376   -56286   -50845   -51426   -53394   -55981   -56054 
  -47708   -30920   -11582      857    -2869   -23924   -54570   -85912 
 -113068  -133718  -146591  -152308  -152911  -148190  -134311  -108355 
  -72027   -32963     -237    25914    51129    75454    94613   106471 
  112892   116174   111079    84183    28152   -36625   -67620   -48098 
   -2272    45365    82039   101653   114255   126877   131641   123186 
  100996    67807    30021   -10370   -54310   -97947  -134836  -162782 
 -181822  -186519  -173596  -144716   -87135      573    76509   107964 
   98691    57999     8510   -13317    10766    71104   141466   197681 
  235169   260173   265769   243679   210492   182736   143980    75508 
  -11764   -94282  -138121  -114191   -44455    29112    93428   137383 
  147928   135127   115644    97158    81940    67495    50827    30911 
    8713   -13549   -33738   -48363   -58300   -66709   -72301   -71683 
  -49416    12102    99428   174988   212872   214504   191128   151329 
  109548    73421    39563    12751    -7479   -34693   -71257  -108957 
 -139329  -154512  -155418  -148522  -141509  -141277  -143163  -137101 
 -122987  -110590  -107404  -110053  -108675   -94013   -61902   -18232 
   21666    46212    56730    58114    53403    44210    25541    -3752 
  -31271   -45766   -44588   -28911    -2447    26068    41911    37013 
   17117    -5038   -16625   -14837    -2497    17901    36984    52266 
   65627    66057    47800    11298   -38658   -84310  -119475  -145202 
 -156175  -160914  -168392  -173766  -176319  -174595  -163464  -146205 
 -124612   -94448   -50669    10543    80617   140692   177785   192916 
  194853   189089   180870   176271   173698   167174   157047   148625 
  142224   134118   124548   117340   107940    83497    45511     6659 
  -24076   -37166   -30387    -6231    32276    70965    96919   106257 
   97948    74697    42328     5129   -35698   -68388   -77405   -63521 
  -29652    21164    76066   122003   149556   157697   150227   130783 
  107861    82264    47296     5162   -36193   -69230   -87298   -90023 
  -85884   -81635   -73772   -50723    -6149    44475    77696    84688 
   72721    57924    49272    44463    40670    36119    28714    19754 
   14994    19238    31173    40856    41070    36979    32064    25907 
   18540     6895    -8984   -28874   -49395   -59714   -57335   -41872 
  -11618    23017    53973    80869    98036   100444    87287    60459 
   29204     5257    -3588      687     6813    11627    15106     8199 
   -8853   -31317   -64335  -104930  -145700  -178833  -183217  -146979 
  -80419    -6621    44921    60805    46359    14223   -12230   -14051 
    8177    41457    69689    85841    93828    98220   103870   113472 
  121074   119408   108793    94663    80162    64430    49000    37968 
   32909    32345    30523    21656     7735    -2508    -4419    -7013 
  -20891   -46445   -79244  -109125  -124979  -122158   -97435   -51947 
    9160    83892   161677   218288   238987   228237   196959   158953 
  123235    86599    49920    20636       31   -12556   -21748   -38923 
  -66908   -97076  -120944  -134871  -141885  -146699  -149274  -151195 
 -153554  -151754  -146376  -139372  -122424   -89750   -46052     3019 
   49707    87701   119172   138886   139790   129737   108791    74526 
   43520    22964     7494    -3224   -11116   -12661    -6862    -4074 
   -7709   -13584   -17495   -20550   -29386   -45683   -66995   -90968 
 -112587  -122384  -112925   -88724   -58426   -21835    20563    58397 
   81769    88074    79232    61579    46776    44674    55509    74150 
   95332   114588   128754   136054   138149   137076   136877   144813 
  156641   164180   168171   165195   150310   120468    74990    29143 
    -404   -14016   -20318   -28514   -44531   -66703   -87478   -98877 
  -96333   -79976   -55542   -29837    -2024    28913    50703    49815 
   25265   -16422   -63986  -103935  -130320  -148592  -163427  -170286 
 -167356  -157271  -133403   -79637    14592   129024   211285   234460 
  226157   209132   179698   144347   106718    56284    -8566   -77791 
 -132985  -157023  -151004  -131396  -110774   -90894   -75384   -66536 
  -53621   -27371     3278    22759    27015    25126    33056    55663 
   80369   100350   107136    80618    29964   -15223   -44138   -50942 
  -45362   -47113   -50692   -52691   -56578   -51567   -34476   -16024 
   -6055    -9183   -23884   -41826   -50137   -42062   -25251    -7961 
    7259    15463    16963    13891    12048    26538    56101    88237 
  115920   132482   142758   151033   149526   135316   107968    74988 
   49230    26542     6026    -3473    -7078    -4686     9070    25035 
   38289    45469    40622    27892    11427    -6117   -23055   -36584 
  -38058   -28423   -14457     4611    29908    58166    79361    80034 
   55124     8478   -47498   -92225  -116074  -126968  -133462  -138481 
 -141602  -141632  -139015  -131312  -113564   -83568   -41178    11313 
   66278   111120   135359   140105   133847   119601    94406    55835 
    6454   -42202   -78087   -97250   -98524   -87561   -77994   -78766 
  -90015  -100432   -94787   -75811   -59406   -49462   -37824   -21780 
   -6432     3952     8590     6218    -3835   -14006   -12251     5734 
   34776    65889    91685   109717   120768   126409   127051   120048 
  104974    87506    73011    63265    59023    60470    69082    87245 
  112283   137574   158464   172635   182065   192509   204567   213536 
  217075   215660   211379   206646   200517   189872   173382   151135 
  121327    80703    30294   -20288   -56836   -71672   -67455   -48577 
  -18175    18099    53301    79300    88035    77208    49822    12676 
  -18995   -28874   -17343     5790    34308    59500    76257    86596 
   91560    93264    91228    83038    70260    50616    19953   -19508 
  -61635   -95030  -110859  -116943  -120814  -118147  -114708  -117787 
 -119329  -119866  -124725  -129090  -135660  -147095  -158450  -168991 
 -176894  -181037  -182957  -180186  -171754  -160349  -148355  -137349 
 -127911  -119974  -111732   -99185   -81118   -61045   -42360   -24778 
   -4568    20658    48831    76119    97927   111586   118580   120146 
  116160   105267    83571    48553     3090   -42848   -76744   -94448 
 -101152  -102336   -98987   -90246   -77601   -64439   -52491   -40155 
  -25860   -13973   -10633   -12922   -10750     3363    30614    66599 
  103920   136099   160189   176150   184993   188500   187709   181814 
