Origin Time       2011/03/11 14:46:00
Lat.              38.103
Long.             142.860
Depth. (km)       24
Mag.              9.0
Station Code      TKY007
Station Lat.      35.7111
Station Long.     139.6864
Station Height(m) 34
Record Time       2011/03/11 14:47:29
Sampling Freq(Hz) 100Hz
Duration Time(s)  300
Dir.              E-W
Scale Factor      3920(gal)/6182761
Max. Acc. (gal)   166.373
Last Correction   2011/03/11 14:47:14
Memo.             
[...]
  -19114   -13133   -15700   -22011   -23493   -14318     1551    17010 
   29077    34593    30161    18069     3227    -9840   -15146    -9312 
    3675    15714    22130    23368    20074    12448     3185    -3554 
   -4381     2996    18896    39483    56957    64633    62496    55527 
   48219    42089    35670    30408    30783    31966    23881     6483 
  -12783   -26594   -29818   -22742   -11464    -1551     6744    12890 
   13517     9407     4011     -639    -1336     2096     4021      411 
   -7791   -16716   -20756   -15626    -2561    12075    21630    23413 
   18325     9114      892    -3824    -9122   -16408   -18844   -11028 
    1814     8772     5534    -3532   -10901    -9686      873    14892 
   25724    28595    22213     9347    -6991   -25729   -44611   -59064 
  -65033   -59515   -43281   -22038      437    21619    35437    37823 
   30261    17836     8276     7146    12799    18454    19153    16180 
   13979    14834    17086    17447    14297     6846    -4774   -17494 
  -27759   -32096   -27787   -18870   -12739   -11083   -12468   -15566 
  -17487   -16612   -12871    -6072      999     4477     5331     6332 
    6565     5277     4144     2379    -1178    -3475    -1726     3806 
   12255    20711    24210    21053    13808     4850    -5369   -17607 
  -32067   -44576   -50601   -53430   -59306   -69399   -80046   -84645 
  -79454   -69109   -61233   -58193   -54435   -41640   -19038     5466 
   23474    32030    34767    36515    37556    36241    32422    25338 
   13571    -2381   -22144   -45898   -68864   -81320   -78073   -64387 
  -49177   -36799   -26937   -16651    -4184     7714    15793    21039 
   26125    30591    33535    36445    35629    23680     2934   -16907 
  -30660   -38582   -41596   -39725   -33798   -25431   -17316   -12702 
   -9931    -4132     5225    14872    22202    26101    24074    13385 
   -3413   -21262   -36388   -42297   -33177   -13793     2365     5829 
   -1093    -9126   -10812    -2943    14318    37218    58716    68687 
   59099    32882     1897   -22528   -34171   -32700   -21766    -5704 
   10670    23717    32744    35687    30043    18074     5508    -1428 
   -1141     2056     4584     5385     5414     7366    11239    14463 
   16184    16984    16891    16911    19815    25376    30138    32721 
   33603    33666    32381    26549    15715     5681     3585     9637 
   17922    25798    34075    42343    50193    57802    66097    77174 
   90893   102784   106287    97682    80441    61100    41612    20102 
   -3012   -24649   -43893   -60173   -70602   -74657   -73082   -64363 
  -49656   -32932   -17404    -7584    -4835    -3455     2403    14257 
   26557    30961    28548    24286    16115      -55   -24544   -51156 
  -68899   -73106   -69631   -64466   -57694   -48142   -33625   -12206 
   12346    35551    55298    67897    70841    63984    49306    32889 
   20880    14820    10011      939   -10391   -20147   -29313   -38478 
  -43979   -40220   -25698    -6631     8000    15462    21456    30774 
   42450    55270    68827    81792    91386    93912    89921    83803 
   75769    60928    37788    12525    -8617   -25004   -37230   -46012 
  -53041   -58549   -64697   -74853   -87318   -97236   -97305   -80228 
  -48384   -12221    17720    32599    30627    20192    10644     5609 
    3410    -1680   -12288   -22811   -26682   -23713   -17372   -10885 
   -8820   -15779   -30850   -48215   -62977   -72165   -72837   -65692 
  -56849   -49999   -43980   -40407   -41556   -43559   -41902   -34445 
  -18986     1002    17549    27349    29192    21722     8396    -4591 
  -11480    -9164    -1981     4000     9448    17631    29789    45496 
   60864    70323    71500    63146    44523    18864    -9491   -36558 
  -58004   -71213   -74789   -70417   -62918   -53612   -40596   -24405 
   -7568     9344    27585    46539    62121    69939    69809    63461 
   51652    37795    26203    19150    19463    26491    34986    42414 
   46625    43474    34609    26615    21788    18160    16010    17128 
   20207    22061    18997     9065    -2501    -9739   -13709   -13811 
   -5423    12188    37018    63792    80525    79150    64160    43225 
   21202     3279    -8088   -15157   -20281   -23759   -22891   -13234 
    3459    19573    32887    44181    50146    49529    42308    25722 
    1947   -20406   -33324   -33145   -22025    -6093    10332    26354 
   40736    50679    53786    49668    40032    27806    15700     4034 
   -7900   -19580   -31642   -45183   -58049   -66203   -67949   -65047 
  -58519   -48354   -37694   -30309   -28259   -31847   -36252   -33875 
  -21444    -2390    13744    17653    11439     5388     4468     7477 
   13034    21063    31766    42680    47644    39839    17783   -10445 
  -32689   -39878   -28755    -5975    14314    21584    15779     4648 
   -4840   -10208   -11323   -10606    -9819    -7470    -5097    -6699 
  -10919   -13207   -12480   -10226    -7209    -5341    -7827   -14609 
  -21470   -23954   -20870   -14289    -6576     2646    12942    18473 
   13819    -1922   -26199   -51639   -70990   -82093   -84265   -77442 
  -62011   -35907      898    40062    68730    79807    76436    65596 
   51372    35845    21505     9921      310    -7742   -14254   -20577 
  -24865   -23454   -15322     1252    23877    42195    48005    39983 
   23221     7560    -1736    -7217   -12924   -21587   -32047   -37527 
  -34145   -26060   -18430   -12467    -6693     -569     4064     7601 
   15119    31255    53574    72139    77554    69305    54159    36850 
   16633    -6405   -27766   -40544   -38032   -20845      761    16988 
   23327    18594     7458    -1756    -5605    -5759    -2718     1478 
    -603   -13227   -32984   -51610   -58077   -50576   -40932   -37259 
  -36541   -34036   -26189    -9756    13099    35360    52473    63182 
   68801    73557    78968    81644    77604    62524    34721      840 
  -31353   -58737   -76011   -77962   -69151   -59026   -50186   -39273 
  -23339    -1985    20592    38366    49566    55674    57778    57105 
   55246    52812    50552    49769    50190    48482    41614    32903 
   27895    26196    24056    19638    13838     8923     5741     2593 
   -1681    -2809     6113    24472    42818    52361    50376    37689 
   18273     -265   -12061   -16080   -15452   -15759   -19828   -28427 
  -43042   -60885   -74401   -76384   -64220   -44450   -27289   -16993 
  -13722   -13707    -9684     -810     9002    17653    23834    30112 
   35606    30020    11089   -11267   -28435   -35486   -31303   -19950 
   -6040     7657    16287    12973    -3471   -26110   -44580   -50725 
  -44937   -36061   -32006   -32523   -35296   -41409   -47619   -47081 
  -37693   -20235     2438    23465    37060    43157    44377    42988 
   39840    32956    22339    10956     -471   -10264   -14296   -11216 
   -1639    14954    36311    56084    71531    84160    93007    97093 
   99932   104289   106609   101200    86176    61847    30299    -2445 
  -30703   -50813   -57680   -49538   -34972   -25310   -21764   -19619 
  -18330   -17243   -11260     3012    22727    41064    53663    60039 
   59375    53152    45359    36561    27378    18153     4750   -10935 
  -20274   -21027   -16809   -12076   -11720   -18939   -32363   -45563 
  -52776   -52427   -44373   -30895   -16629    -3671     6883    10326 
    4076    -6978   -19211   -32974   -43392   -44161   -35886   -20415 
    -765    13300    16061    11897     4329    -4739   -11602   -18303 
  -30746   -47665   -62496   -68085   -57295   -33072    -8018    14180 
   36191    52358    57866    55673    47110    35123    25625    14432 
   -6007   -32746   -61417   -91098  -116489  -131874  -136270  -127166 
 -101485   -62366   -16804    27443    63330    88341   102291   102678 
   87960    60691    24873   -14555   -51747   -83585  -109331  -126121 
 -131818  -130541  -126402  -117458  -101661   -78383   -46388    -8334 
   29644    60872    80540    91431    98188    98602    89489    70330 
   41947    11258   -13137   -32484   -49854   -60506   -63390   -63019 
  -61115   -60988   -65804   -71969   -73803   -68126   -55373   -38881 
  -21167    -3177    13046    23892    26818    18903    -4142   -37461 
  -65963   -81150   -83773   -76121   -63574   -51306   -40259   -31913 
  -28452   -27741   -23419   -11744     7097    34613    68343    97729 
  115691   119985   108528    86884    66046    53270    56235    80298 
  114735   138936   139364   111486    60820     1654   -56727  -110787 
 -150500  -166606  -168550  -174496  -187317  -196924  -194261  -173641 
 -134136   -81278   -22719    32815    75854   103433   117976   119792 
  106671    76692    35003    -5632   -35380   -50337   -49660   -37842 
  -25768   -22079   -24452   -26135   -24530   -19275   -11263    -2204 
    8205    19750    29551    33391    28290    18053     7495    -5213 
  -20471   -35296   -46869   -51007   -48418   -46776   -48146   -47826 
  -48206   -56266   -72883   -95882  -118975  -130466  -126100  -111907 
  -91913   -65648   -34171     -604    30367    53485    65435    64926 
   56884    51887    51370    45503    31253    17377    12304    22511 
   53179    96490   134627   157573   164988   158076   134903    94112 
   45753     1866   -41039   -86509  -122120  -135162  -121725   -83976 
  -33998    14770    56405    86298   100384    95961    72514    38946 
    8792   -12905   -26352   -29089   -23099   -14612    -3779    10857 
   30366    58011    90027   118040   137183   143229   133147   104461 
   57055     1197   -48899   -85284  -103546  -104749   -95855   -76387 
  -46028   -16573     7602    28106    38629    41951    47654    55032 
   59945    59106    52661    49869    57818    75823   100177   119121 
  120259   101860    67090    24197   -14968   -46216   -70829   -89251 
 -103336  -113969  -116167  -102739   -72775   -33167    10140    55919 
   95958   112564    98411    64082    26587    -2187   -21381   -29665 
  -21088    -2890     6240    -3986   -30659   -64624   -97574  -127246 
 -153206  -169642  -172128  -159674  -127910   -79764   -32278     1524 
   25424    45982    61283    69545    66687    46877    15417   -21910 
  -64522  -104047  -129581  -135964  -120882   -88455   -56223   -40370 
  -31231    -9492    26295    65875    96838   114732   125707   127470 
  112969    81931    34278   -19018   -58815   -82439   -94813   -94905 
  -87183   -82238   -79201   -67860   -46233   -14281    27111    61677 
   69387    42493    -9647   -59379   -80550   -69315   -41559   -18383 
  -12536   -22816   -36961   -38367   -15166    30050    78860   106068 
   97599    61260    11013   -44913   -94630  -118002   -97408   -37872 
   30580    78502    95400    87617    70253    57873    58133    71880 
   97240   132521   169938   191211   179423   129331    51863   -27743 
  -89797  -125833  -131099  -114701   -98685   -96891  -104732  -110557 
 -105672   -82005   -41372      905    30577    41759    42426    46117 
   53551    64640    89259   127638   166591   196521   204491   170338 
   94444    -2574  -101609  -182765  -229339  -235432  -207734  -167996 
 -134511  -110684   -94728   -80200   -58668   -30707    -3637    21991 
   50336    79822   104151   111224    90923    53074    22158    11793 
   10684      858   -21784   -55132   -97800  -145844  -189770  -216151 
 -219869  -201755  -163409  -123185  -105937  -109803  -108684   -79959 
  -19953    57304   129345   178599   200589   197497   173308   135885 
   95514    62396    41516    31835    32549    45767    71040    99489 
  121345   134728   145240   158186   167977   165382   149987   127486 
  103913    80231    53191    23948    -2781   -22922   -31529   -26914 
  -15016    -7291   -16570   -40573   -59422   -68856   -81484   -98301 
 -114258  -125218  -126629  -119590  -102633   -66470    -4176    73762 
  140272   175973   174197   138985    95130    63022    39378    19378 
    1125   -18265   -42335   -80674  -129958  -164153  -160864  -117128 
  -46090    31151    92247   114978    94907    55819    21390     1885 
    3927    23033    42769    50076    45915    40242    36470    32479 
   33707    51206    79344    85811    46307   -28319  -113369  -187085 
 -229596  -232845  -206200  -168297  -137811  -128883  -145575  -173798 
 -198115  -223260  -247694  -249789  -224152  -182614  -132762   -86333 
  -52427   -23999     8612    44168    75200    97015   106226   102253 
   90149    74800    61800    52500    37637    16062      219    -4086 
    -212     2793    -6149   -25756   -47465   -64541   -70531   -68853 
  -64745   -51340   -27315    -3411    10126     7419    -6946   -16294 
   -5354    27897    72528   110657   129271   129461   116815    93323 
   64445    37281     9684   -24394   -62002   -94420  -115356  -122494 
 -115557   -92747   -56461   -18280    10282    21061     8848   -21878 
  -60945  -100261  -131694  -146922  -142690  -125847  -107956   -91850 
  -72716   -47294   -17397     9059    29186    50615    74002    90334 
   95725    90016    75301    62882    63092    70600    69776    54426 
   35619    22135    11470     -374   -19595   -46111   -70454   -86921 
  -88303   -68138   -33936    -1617    16021    19785    22923    37920 
   68364   102389   121609   119543    91984    32828   -47508  -127904 
 -187482  -210271  -204751  -194197  -184382  -175393  -180462  -198407 
 -203406  -178529  -126216   -55793    18770    85739   143151   191694 
  229682   254375   261133   250006   229671   209798   197242   190291 
  177603   152354   115083    70742    30033    -3358   -33985   -57254 
  -63033   -52175   -37314   -31462   -37331   -46982   -52546   -53137 
  -49904   -40678   -22973    -2529     8665    10043    15124    34469 
   68884   109769   142911   158696   153180   128010    90478    47241 
    4270   -31866   -55473   -66158   -69674   -71384   -80450  -104251 
 -133190  -154474  -161200  -145704  -111132   -69594   -29438     -271 
   17387    41995    84367   126825   141488   119171    73188    23546 
  -13895   -32180   -31385   -13512    14522    41711    56817    53605 
   39406    22310     5178     1074    16694    36701    49682    58392 
   64224    65221    58074    35589    -1815   -39836   -67401   -81785 
  -80703   -67131   -49461   -37033   -41605   -68991  -113076  -162692 
 -199291  -202415  -170491  -109704   -24393    60888   119184   145846 
  144119   129912   126843   137284   147179   142196   114671    68490 
   13764   -39806   -85872  -120237  -141547  -149622  -135941   -96819 
  -46386     3653    47373    78634   103164   125706   136292   124210 
   85009    22178   -51909  -121084  -173829  -203570  -196698  -161151 
 -140294  -133589  -104033   -66115   -33479    11828    56925    87883 
  108318   110094    93900    73289    60350    60432    62286    55064 
   45003    37995    30363    20964    16355    19790    21955    12498 
   -7215   -28864   -45123   -53085   -54161   -49482   -38702   -27018 
  -26112   -39785   -56541   -63497   -56535   -36971   -13325     1798 
    6871    11228    21537    36489    48552    52438    54157    64454 
   83951   105278   123239   132982   130043   111915    78642    37548 
   -3666   -41891   -72148   -87494   -80973   -53761   -23478    -6957 
    -771     6467    16058    24198    28300    24693    11553   -11490 
  -45295   -84824  -120791  -143802  -141682  -111097   -63765   -10485 
   39897    75380    93556   103504   112989   122371   125615   117233 
   99672    80153    61808    43456    24360     3950   -14263   -22769 
  -23340   -22588   -18432    -7226    10293    28023    34702    27429 
   15999    10718    15226    24378    27508    22474    18144    16640 
   10971      902    -6469    -7021    -5063   -11380   -31875   -61554 
  -90259  -107267  -104389   -81040   -46271   -14208     6377    19291 
   33044    50438    68494    80823    85046    83528    73781    54576 
   32689    16202    10310    13646    17938    12600    -7956   -35224 
  -54165   -58023   -46180   -23817    -6469    -6762   -24914   -54409 
  -83768  -102057  -103477   -87180   -63353   -45553   -36193   -32598 
  -33181   -33816   -29992   -18506     4030    38130    78472   114828 
  136201   138744   128203   111951    92912    71553    47857    19017 
  -15301   -46216   -65515   -70525   -60080   -40427   -23497   -16433 
  -16649   -12632     6530    42333    85195   119081   132708   124045 
   97385    63377    37046    31376    48936    78011   101970   111054 
  104174    84439    56491    28520    10589     5272     6230     7462 
    1418   -19547   -49151   -76432   -96483  -103139   -97483   -89873 
  -83172   -75004   -67004   -59911   -53327   -52444   -63307   -82867 
 -103308  -120565  -131516  -128444  -107479   -83187   -72794   -73993 
  -77153   -74777   -59636   -31896    -1289    20823    31133    30497 
   17832     -446   -11151    -7011     9387    26356    31817    23382 
    4175   -19322   -35030   -38132   -38827   -47184   -64343   -86944 
 -109735  -129344  -141845  -138939  -119536   -94967   -76607   -70573 
  -77069   -87645   -94363   -96838   -95314   -87442   -72217   -52902 
  -34504   -19146    -7456     1342    12103    30969    60233    94181 
  122775   139315   142470   139021   136010   128558   111294    87880 
   61729    33748     4120   -27737   -58364   -80660   -89499   -82961 
  -61396   -29535     1164    16929    13862     1463    -9309   -11296 
   -1002    19444    45333    67194    71726    55891    30610     8309 
   -5096   -10819   -14141   -15068   -10489    -4862    -3831    -6693 
   -8671    -2257    14748    34406    47380    49461    42876    33095 
   23055    15747    16481    26041    38065    44083    39090    26797 
   14050     -922   -20422   -38471   -55185   -78659  -106447  -127120 
 -132983  -117089   -76297   -19549    41241    95739   133392   152488 
  159712   164168   176967   196532   202380   180377   135032    77007 
   18913   -28362   -60802   -74431   -69152   -59891   -61901   -75139 
  -95863  -118747  -127998  -110268   -65907    -7404    46164    86007 
  115554   137401   155023   171588   181686   179742   167447   143386 
  104371    54558    -1474   -54100   -82068   -77194   -54838   -30953 
  -12769    -2203     4063    10504    23217    45507    69981    89778 
  102329   100749    81037    45825    -1670   -56343  -106844  -137317 
 -140464  -124178  -100007   -75163   -53925   -37785   -26375   -21299 
  -24236   -32582   -45915   -67737   -96880  -129826  -163511  -190531 
 -205734  -212571  -211449  -196575  -167171  -123955   -66020     -635 
   59616   106930   139261   157386   162749   156568   140565   118323 
   92594    62843    27822   -12888   -55349   -89358  -108216  -116119 
 -120208  -121282  -117471  -109780   -99731   -90527   -87278   -88040 
  -84612   -74183   -61988   -53949   -50377   -47260   -40909   -30274 
  -17590    -6403     1737     6874     8788     8287     8128     9671 
   11362    14164    22645    36435    48187    53539    54400    49659 
   36334    18027    -2078   -25145   -50376   -77851  -105519  -120552 
 -111398   -82201   -45755   -12872     8781    17427    19210    22547 
   33473    50336    64776    74660    81764    79957    61776    27345 
  -17555   -62122   -93577  -107119  -107283   -99449   -89449   -85595 
