Origin Time       2011/03/11 14:46:00
Lat.              38.103
Long.             142.860
Depth. (km)       24
Mag.              9.0
Station Code      TKY022
Station Lat.      35.7002
Station Long.     139.7963
Station Height(m) 1
Record Time       2011/03/11 14:47:42
Sampling Freq(Hz) 100Hz
Duration Time(s)  300
Dir.              U-D
Scale Factor      3920(gal)/6182761
Max. Acc. (gal)   67.675
Last Correction   2011/03/11 14:47:27
Memo.             
[...]
   -9982    -8290   -13160   -15217   -11214   -11037   -17034   -20343 
  -18943   -18580   -23314   -34158   -47444   -53113   -44856   -31802 
  -27848   -32973   -37316   -36018   -31703   -28499   -28488   -32469 
  -39270   -44339   -44025   -39204   -34524   -35987   -42215   -45005 
  -45295   -46553   -39308   -22489   -12067    -8605     1158    13548 
   17908    15574     9822     3324     2352     5705     6527     6080 
    6395     5123     8012    21105    34281    35163    27127    21938 
   22894    20871    10954     2621      480    -5474   -15647   -14724 
   -1450     7387     6456     5494     6955     1895   -12597   -24617 
  -25282   -23119   -25502   -26561   -24149   -24268   -30123   -40730 
  -49616   -48915   -41785   -35028   -27810   -22926   -25975   -28463 
  -18289     1389    20072    30195    29513    26512    29557    31637 
   25626    17683    13038    11868    14835    17292    14563    10246 
    4317    -6836   -15584   -13610    -5923     1646     8042     9888 
    8547     8982     5643    -6990   -22979   -38876   -52932   -57391 
  -54565   -54257   -51726   -40809   -30782   -26345   -19320    -7489 
    3142     9317    12739    18572    26368    25949    15896     7379 
    1889    -8579   -22941   -32645   -33668   -30424   -29768   -31244 
  -30199   -25491   -16935    -6843    -2167    -4398    -7564    -9350 
  -11569   -12659    -9710    -4027      983     5773    12765    19321 
   21996    21967    18988    13295     9280     7352     6141     6636 
    4895    -1522    -5645    -5466    -9209   -16872   -17958   -14224 
  -20823   -38764   -51037   -50600   -47633   -48217   -49021   -48261 
  -45553   -39937   -32622   -26540   -25240   -27206   -25384   -21128 
  -20768   -18456    -7575     4964    12309    13502     8279     3590 
    7384    14121    19201    29925    42957    42108    29055    20703 
   15651     -340   -22192   -32182   -28528   -23651   -23946   -24845 
  -22436   -21286   -26777   -35791   -39952   -36486   -33053   -36609 
  -42093   -41958   -38452   -39001   -46360   -53343   -49455   -37936 
  -31039   -26596   -16579    -9222   -11098    -9728     2404    15873 
   24306    30497    37608    45369    47401    40491    36188    43505 
   51388    45793    28935    13147     4808    -1130    -9355   -16733 
  -23583   -33560   -40923   -42043   -45215   -49465   -44416   -34773 
  -29058   -22183   -13282    -8375    -4254      491    -1674    -9318 
  -14696   -19072   -23573   -23215   -19097   -16675   -16733   -18406 
  -19635   -18726   -20414   -26931   -30552   -26363   -18707   -12618 
   -9396    -5508     4413    15686    16574     7822      583    -2100 
   -5062   -10412   -16502   -21910   -26967   -31072   -30410   -22769 
  -14315   -15290   -24887   -29310   -22717   -15134   -13397   -14373 
  -15841   -17549   -19256   -21572   -23961   -28091   -35450   -38558 
  -32789   -27364   -27120   -24370   -17199   -10636    -3047     6759 
   12217    13060    19410    33911    44632    41517    30374    23796 
   23140    20745    16078    10645    -3131   -24253   -35260   -29928 
  -20885   -15366    -9962    -2973     4984    13238    18999    19237 
   12838     2162    -6892   -12262   -16342   -18006   -17749   -21774 
  -29080   -32382   -33207   -36144   -37057   -30760   -21063   -18555 
  -28399   -39570   -37164   -26045   -22753   -27015   -26276   -20272 
  -15947   -12716    -9906    -9084    -7240    -4051    -3184    -1831 
    3918    10206    12331    10394     6844     2628    -6801   -26486 
  -48221   -53941   -44370   -44119   -61208   -74348   -71760   -61981 
  -50295   -37479   -25898   -13398     1952    16384    28651    40051 
   46868    45005    37496    29987    24688    22053    19280    12792 
    9677    17360    25650    22997    14235     7617     5127     5806 
    3521    -6548   -17150   -20506   -18816   -15539   -12921   -14514 
  -20724   -28372   -32654   -29394   -21541   -16399   -15811   -17294 
  -18549   -17672   -15270   -13380   -12662   -13931   -16952   -20430 
  -22654   -18481    -9301    -6044    -8263    -7928    -7840    -7533 
     754    10230     7272    -3553    -8275    -7404   -10192   -15391 
  -15734   -10796    -6109    -8662   -21327   -36435   -42699   -39920 
  -36710   -35206   -32278   -32378   -39295   -41231   -28439   -13870 
  -11322   -13576   -11013    -6082    -2514     -462     1851     6263 
    8371     2796    -5583    -7254      208    11067    17693    16526 
   10736     7750    10849    16714    22158    23459    14822    -2750 
  -19956   -28969   -30697   -32494   -37426   -42905   -47434   -48170 
  -42539   -33396   -23110   -11773     -202    10745    17479    16765 
   13518    15770    23211    26916    23374    21015    25340    30137 
   27815    19280    13249    13118     9628    -3729   -20414   -30259 
  -28532   -20948   -20891   -31971   -41164   -39427   -34709   -33330 
  -28816   -19559   -13887   -14797   -19479   -25546   -28277   -25097 
  -21239   -21412   -22082   -17738    -9322    -1560     1832     1597 
    6412    17867    20211     7757    -3724    -6711   -10909   -21645 
  -30143   -26703   -17533   -17406   -26430   -31811   -29043   -23873 
  -19062   -13123    -8419    -9436   -13651   -13602    -8603    -7204 
  -15122   -24215   -22756   -15241   -14783   -21218   -27295   -33233 
  -38626   -36835   -26501   -15135    -9005    -7232    -4769      825 
    5467     5622     5008     4668    -2973   -17769   -26849   -25720 
  -23455   -24629   -24793   -20523   -15150   -16807   -24761   -23142 
   -5946     8156     5071    -4614    -7328    -4966    -5639   -10910 
  -14779   -12940   -10799   -14795   -21371   -24255   -24611   -27248 
  -31426   -31035   -25881   -24213   -29266   -34538   -34858   -32381 
  -30091   -26592   -20249   -12583    -7935   -10870   -17650   -19324 
  -16505   -14650   -13797   -14982   -17096   -11684      722    10497 
   18191    26990    31768    32670    35518    38630    37750    33671 
   27894    21519    18096    20207    24724    27095    26352    21390 
   12757     5844     -146   -11105   -21793   -24780   -25538   -28096 
  -26594   -19600   -11996    -7826   -12877   -28652   -41211   -34132 
  -10674     9330    11582     -254   -13877   -24508   -35009   -45246 
  -52629   -56105   -53553   -46345   -40848   -36655   -28336   -20151 
  -19836   -21328   -14835    -6099    -6905   -19255   -34883   -40127 
  -32292   -25014   -19609    -2030    21400    29493    22164    14920 
   13810    13022     5298    -7259   -14401   -13326   -12565   -17448 
  -20923   -14225    -3363    -1529    -7895   -11292    -5757     7285 
   19662    22109    15666     8343     3643      761     -396     -371 
   -1556    -4764    -7130    -6903    -8541   -16808   -28282   -35895 
  -38264   -39921   -44423   -49453   -50082   -45758   -40385   -36342 
  -32742   -28143   -22866   -20754   -25312   -33528   -41769   -50482 
  -55004   -49260   -38556   -29765   -20801   -11088    -6890   -11608 
  -19325   -19028    -5605     9662     8188    -9344   -22247   -18870 
   -7842    -2802    -4565     1167    19943    35016    36091    35526 
   41780    46095    39370    25016    15210    12902     3252   -20004 
  -34694   -23403    -5610    -7843   -24418   -32479   -26670   -20188 
  -21387   -23756   -22154   -24417   -33435   -37944   -35155   -36174 
  -43758   -48415   -43390   -31561   -19736    -7313    11488    31553 
   41718    44022    45842    43759    32363    14129    -3844   -14259 
  -16224   -15055   -14386   -16752   -23250   -29701   -33207   -36420 
  -41101   -44348   -41706   -34408   -29946   -30580   -32493   -35517 
  -37485   -29863   -12362     1272     -932   -13908   -22153   -21596 
  -22439   -27237   -25698   -14615    -2283     5849    10259    12447 
   14308    16413    17213    16443    16780    21198    30109    39937 
   43149    36995    30786    30566    28698    23520    23569    24419 
   13479    -4523   -14106   -13045   -13676   -25928   -44901   -57517 
  -60413   -59745   -58242   -57881   -61684   -64353   -59785   -52180 
  -43451   -29942   -18598   -16009   -10371     4407    12930     7249 
   -1787    -4974    -2030     2010      -12    -8506   -16154   -18842 
  -19532   -22386   -29944   -41014   -48233   -47677   -45419   -45417 
  -44116   -39202   -33326   -32603   -38242   -37049   -19255    -2069 
   -6311   -20579   -19178    -3443     3770    -1724    -1646     9572 
   17328    13344     6409     8431    19521    28089    26491    21676 
   22972    24961    15385    -5100   -25783   -40741   -50585   -58187 
  -66015   -73658   -77222   -72865   -64886   -62172   -61767   -54721 
  -45004   -39988   -37894   -37116   -36787   -34895   -38147   -50124 
  -56399   -50287   -46594   -49094   -45868   -40194   -40978   -39313 
  -29007   -20895   -21211   -23637   -23717   -24461   -28902   -35611 
  -42839   -46975   -43470   -39201   -42071   -43120   -33829   -20576 
  -12576   -12517   -14222   -10433    -4422      276     8087    15334 
   12339     4241     2014     4920     9021    13170    14539    12233 
    6884    -2407    -9874    -5772     6064    12138     9568     5475 
    4218     5869     8733     9497     4730    -5199   -13680   -15377 
  -15010   -19985   -28916   -36387   -41395   -43977   -43916   -42516 
  -37957   -31850   -34876   -45775   -48074   -38846   -27910   -17342 
   -7351    -1239     1471     2775     6632    15891    19190     3787 
  -18110   -24451   -16131    -9634   -12148   -20163   -26542   -24621 
  -17552   -17045   -26292   -37394   -43304   -40386   -31161   -23185 
  -15599    -6186    -4145   -11864   -17492   -16515   -16634   -24026 
  -37241   -49004   -51271   -40972   -25040   -16226   -14960    -9662 
   -1034    -1974   -14126   -24119   -19581    -3183     9584    10917 
    8820    12249    23498    35844    35584    24423    20548    26317 
   26323    16837    10060     9988     5092    -7223   -13336   -10418 
  -11506   -21615   -32279   -36229   -36436   -37316   -32381   -17314 
   -4123    -1797    -4319    -7917   -15198   -25131   -35636   -45991 
  -50684   -44964   -36924   -34912   -31050   -20313   -14656   -22458 
  -38064   -48101   -40744   -25437   -24270   -34792   -37987   -33982 
  -34601   -39947   -43780   -44186   -42129   -39747   -37064   -29405 
  -16096    -4987     -183     1578      105    -4224    -3876     2502 
    7850    11210    15865    21770    27849    30149    23532    11860 
    6799    15423    32257    42163    34659    19783    18746    28470 
   21126    -5739   -22731   -23325   -28843   -43581   -54783   -54054 
  -36783    -9769     9886    20040    31942    46493    56403    57451 
   47784    32687    22490    16444     8456     2597     -194    -9919 
  -26542   -38007   -40259   -36860   -29883   -22522   -18641   -19091 
  -20528   -16825    -9853    -9876   -16134   -18453   -18071   -22000 
  -27042   -26222   -19852   -12507    -5706    -3020   -12533   -29203 
  -35016   -25912   -16358   -20554   -36547   -44764   -35757   -24835 
  -18462    -5282    12121    20917    20331    14508     5194    -3993 
  -11092   -17935   -24597   -27783   -25744   -23641   -28383   -32940 
  -18985    16425    52674    67516    55876    30947    11744     5280 
    1866    -9800   -27628   -40373   -42179   -35672   -25336   -14789 
   -5360     3158     9946    18034    31250    40512    32933    11806 
  -10979   -28662   -38115   -39828   -35359   -24332   -14250   -15673 
  -22008   -22178   -25407   -42301   -59615   -61402   -55174   -53676 
  -52132   -45341   -38136   -26981    -7630     7292    11264    16230 
   24008    25773    26158    28816    26719    27048    40512    53608 
   54073    52075    50351    39650    29314    32609    37528    30758 
   19408    14994    20347    24612    14721    -1527   -11411   -20868 
  -33681   -40991   -41414   -41625   -45441   -52863   -58834   -56205 
  -45367   -38839   -47750   -61894   -63013   -53133   -45601   -44961 
  -49402   -53467   -51026   -43277   -33986   -23677   -13252    -2273 
   11870    25118    28121    22618    22299    27738    20313    -4112 
  -24399   -27666   -20237    -9173      618     6467    13406    23532 
   33852    47216    58423    52754    38556    36959    41421    32778 
   15084     6014    11175    19142    13375    -5986   -19674   -19207 
  -17984   -26941   -41930   -54204   -60785   -66769   -75408   -80210 
  -80726   -88115   -99365   -97127   -81710   -68590   -59441   -45869 
  -31411   -26389   -29331   -30834   -28176   -23387   -16699    -9338 
   -2604     5686    13043     9956    -3856   -16506   -19583   -14606 
   -9855    -9468    -5306     7247    18654    25215    37951    59718 
   75306    73054    60768    53717    52442    44065    28590    22457 
   29881    34015    22261     5059     2314    14898    21846    12163 
    -186    -3133    -3883   -11225   -21769   -29051   -34022   -40142 
  -44267   -44868   -50695   -62578   -64087   -50709   -41187   -43754 
  -42471   -24157     4984    27383    31576    27379    33439    46279 
   45181    27626    11666     5447    -1279   -15783   -30793   -36478 
  -32213   -26141   -25836   -28091   -26140   -22760   -21532   -18990 
  -13147    -1874    16492    32122    34730    27219    15874     4065 
   -5576   -13363   -21937   -30332   -30734   -17521    -1522      682 
   -6333    -4660     6268     9532    -5296   -31943   -59430   -82714 
 -100051  -111382  -117716  -116726  -104367   -85045   -72755   -71158 
  -64038   -40449   -14106    -5040   -13783   -24554   -26761   -21210 
  -15297   -19459   -33107   -41770   -41994   -46379   -58787   -71209 
  -76894   -70108   -53577   -42321   -37039   -20681     4151    16525 
   13949     8834     3938    -6022   -19981   -26332   -16692      417 
    8364     -584   -18399   -27535   -20756   -10075    -7394   -12137 
  -21075   -31119   -38155   -40918   -36197   -18470     8453    30999 
   40757    41830    39046    32192    25603    21484     8831   -17077 
  -39848   -46065   -44232   -47593   -55779   -58173   -49345   -39223 
  -36037   -30662   -18541    -9535    -4981     2979    13630    18821 
   13382      806    -9153   -11930   -11470    -9317    -3961      -35 
   -1056    -1223     4073    13371    25336    37912    47167    51454 
   52398    53368    54460    48792    34141    20531    14973    12164 
    3537   -15850   -42212   -60504   -61239   -56254   -62368   -76963 
  -82080   -68803   -47543   -32540   -25500   -18865    -8148     3785 
   10090     7146      974    -1324    -3825   -10463   -11749       83 
   18774    36090    47033    45368    29714     9513     -770     5640 
   18997    23857    18175    10934     8897    14276    23410    25747 
   15844     4972     9275    28497    45095    41698    23150    14007 
   19887    19938     3765   -21182   -48192   -72801   -89465   -96063 
  -94730   -88821   -83927   -81585   -74824   -66270   -71142   -89968 
 -104096  -100616   -83604   -65761   -54538   -41010   -12923    21275 
   42999    50884    56930    66179    74069    73134    58375    38561 
   34304    48355    55611    39251    11308   -10628   -21171   -27517 
  -44017   -72219   -95013  -100831   -93513   -80742   -70984   -69406 
  -69999   -64526   -53769   -41658   -28919   -17397    -9691    -4460 
   -1641    -5254   -14510   -22359   -24010   -16418     2613    23968 
   31571    23903    16599    22542    36323    40425    28626    15509 
   13164    12216     1410    -8704    -1001    17060    21173     7675 
   -4432    -5701    -4986   -13186   -31640   -49446   -55033   -52020 
  -51334   -54123   -52445   -40970   -25306   -15805   -14419   -16169 
  -19219   -23074   -22382   -14308    -4214     2609     4137     1148 
   -1881    -4342    -8442    -7195     7880    27236    31860    21946 
   13458     9246      797   -12951   -27963   -36399   -26256    -2408 
   12641    11879     8101     9873    16405    22591    20847     9860 
   -1685    -9071   -16926   -24053   -23969   -19607   -16790   -15403 
  -15647   -16128   -12407    -7924    -8470    -6302     5674    13313 
    2169   -15412   -18823    -8631     -301    -2452   -11379   -20843 
  -30322   -42297   -55646   -62975   -56502   -38521   -17951     1946 
   22974    45715    66065    74661    68374    57007    50346    51060 
   55350    50369    27569    -1713   -17307   -11466     1348      295 
  -13298   -22960   -25482   -28179   -31065   -27640   -17202    -8987 
  -10286   -14576    -9021     7352    21254    23251    17158    10769 
   10572    20979    39316    56468    63848    60025    50763    38836 
   22790     6119    -7682   -21104   -33939   -41836   -43855   -40059 
  -29285   -17821   -15848   -21492   -24438   -18687    -2813    16999 
   28391    27265    17573     2468   -14328   -29818   -45402   -63434 
  -80177   -86197   -78491   -67562   -65232   -65676   -51617   -25110 
   -7081    -1689     4665    13376    16042    13545    10744     9381 
   13312    25167    40120    50940    56016    59983    64103    60171 
   43936    26242    17338    13245     6614    -4978   -20682   -35779 
  -46833   -57383   -71211   -84581   -90949   -89766   -84408   -76846 
  -70790   -70926   -76210   -82142   -85685   -84465   -77186   -64743 
  -49135   -31648   -12335     7866    25450    37295    45834    55654 
   66170    73348    75988    78878    85186    88311    81058    64984 
   48248    39205    34991    22998     2676   -12581   -21787   -37379 
  -57515   -67055   -61969   -50770   -41864   -39251   -41903   -45179 
  -46067   -45727   -44457   -38340   -25955   -11477     2230    13192 
   15858    10777     9560    17884    27835    32522    33241    34137 
   37080    36415    24856     6790    -9630   -24266   -35286   -38346 
  -38604   -44215   -54354   -63454   -68839   -70231   -67748   -62092 
  -52490   -37702   -21574    -8733     1427     7867     9182    12096 
   19949    24048    18545     8010    -1467    -8649   -16830   -29182 
  -44014   -56036   -62060   -63550   -62880   -60674   -58645   -59221 
  -58924   -49745   -31640   -14834    -6254    -2878      110     3309 
    6869    11385    13384    10048     4714      344    -4503   -13160 
  -26511   -39034   -45965   -50666   -56971   -61774   -59282   -49209 
  -38025   -30776   -27039   -25144   -22304   -14051     -346    13588 
   24360    32631    40958    50579    57980    60123    60652    62122 
   58778    47427    37656    38626    44680    45568    39542    30672 
   23249    18281    12224     3855    -1716     -930     4115     9783 
   12350     8953    -1399   -18375   -35132   -41507   -42958   -54205 
  -70145   -74168   -64687   -49460   -36536   -32906   -33886   -32595 
  -35061   -42944   -46144   -42578   -40363   -42766   -43326   -33807 
  -15362     3168    19809    38402    53157    54941    47250    40141 
   39107    40681    34508    20668    11844    11470    13945    16605 
   13841     1569   -11423   -18184   -24626   -32284   -34536   -34080 
  -39136   -45194   -40764   -28249   -23634   -33835   -47080   -49836 
  -42798   -35520   -33416   -34428   -31103   -17493     1520    17361 
   29261    38596    45040    51357    58468    60046    51492    36814 
   23968    19750    23910    26762    19105     2391   -13548   -23452 
