Origin Time       2011/03/11 14:46:00
Lat.              38.103
Long.             142.860
Depth. (km)       24
Mag.              9.0
Station Code      TKY025
Station Lat.      35.7136
Station Long.     139.8972
Station Height(m) 1
Record Time       2011/03/11 14:47:32
Sampling Freq(Hz) 100Hz
Duration Time(s)  300
Dir.              N-S
Scale Factor      3920(gal)/6182761
Max. Acc. (gal)   131.663
Last Correction   2011/03/11 14:47:17
Memo.             
[...]
   15741    24572    25400    24476    25738    25913    25836    19014 
    2916    -2303     7652    11018     7881    14186    24058    25570 
   24224    30091    42413    49622    46096    43093    42842    33658 
   24733    29210    32950    28589    30583    42822    51998    47582 
   37494    37057    41770    35897    23225    20124    31162    47246 
   55121    54020    56514    63725    60916    41661    23940    24321 
   25985    13457     3908      369   -12365   -13678    11680    24031 
    7606     5889    32625    51342    51295    51948    53111    48395 
   43367    37347    29660    27326    34887    50881    63497    65667 
   71331    84557    92258    98432   109272   113456   108598   103552 
   96997    82213    63422    50730    44219    36095    22932    12800 
   15465    20941    15767    11409    13771     3236   -19285   -28616 
  -28042   -35683   -38215   -24960   -19050   -25101   -19610    -6378 
    -409    13614    42039    60565    65222    71908    71569    57533 
   55253    72074    80246    76173    79585    81867    72383    66392 
   63849    49489    28586    15129    13889    22462    28279    22715 
   14017     4479   -14100   -37092   -52226   -60040   -70754   -83527 
  -84195   -69601   -52603   -41361   -33687   -26205   -17492    -6180 
    6750    16944    27360    42974    52586    50259    53836    73381 
   93347    93171    75942    66519    68687    66130    60534    56102 
   47488    38165    27969    11958    -2254    -9123   -12072    -9266 
   -1444     -585    -8221    -9082      497     9069    10003     4226 
      90     6239    18118    27753    32528    31038    30969    39952 
   46465    43410    44712    54034    55683    45068    36670    41753 
   54511    61895    63297    67529    71037    63888    52188    47849 
   46061    35673    21222    15572    20034    24190    17906     3420 
   -7183   -13610   -23678   -30278   -24639   -14769    -6658     9335 
   36554    56760    56728    52814    62170    70119    61347    51075 
   49936    46854    41672    39911    33499    22925    18924    20340 
   21686    22713    21397    15937    11281    10102     3545   -12408 
  -25082   -26121   -23000   -21855   -18243    -3502    22339    41845 
   42485    37887    42324    48520    48323    47851    50128    46581 
   38232    37844    43119    41460    33118    24650    19701    18542 
   20058    30916    48272    52056    44964    40592    25555    -1628 
  -20468   -30227   -33366   -22809   -11048   -13534   -17255    -9834 
   -3842    -3791      854     8766    15188    21795    31179    46760 
   65205    79049    83909    78558    71516    74328    82574    81630 
   74513    73027    69550    60000    56100    54713    45382    30292 
    9826   -13261   -25054   -27942   -35359   -38336   -30353   -27711 
  -33351   -35148   -36744   -44882   -47682   -35976   -23601   -23650 
  -25663   -14088     6861    19256    17242    14138    15638    10293 
    3144    13135    29806    30799    20926    12184     4099    -4831 
   -8313    -3929    -9415   -31452   -42433   -34004   -30297   -29165 
  -13016     2779     2732     1510     5455     4897     2107     1357 
    1553     9185    21605    25663    29823    48559    69977    77786 
   76086    77903    84963    83922    72907    73831    90309    95284 
   84489    81217    84144    73479    55425    50353    54361    46800 
   26978    16419    19630    19736    18773    24684    19851     3730 
    4127    16628    16893    14071    23540    34299    34937    30156 
   25844    19586    11502    11779    25000    37367    34902    33051 
   53969    75764    69988    57044    58157    63489    66006    60787 
   45684    36172    37637    33728    16516     -793    -4480    -2409 
   -5695    -4724     4350     6950     5534    14136    20600    10138 
    1866    14608    30012    27346    19482    24490    36133    42897 
   48884    58351    59265    49140    47558    52836    43402    31437 
   43170    66864    76994    74745    73453    76726    81820    82995 
   78017    74981    75795    68948    56343    53052    53986    48755 
   46781    48642    41482    26800    13298     6258     8281    11896 
    9968     8429    11573    11946     3376    -6794    -7752    -4252 
   -5798    -6351    -1009     2695     8094    25303    42973    41635 
   27319    27412    47041    54993    45619    57607    90647    99146 
   82638    75683    75770    64082    50949    51934    55664    48859 
   42645    42587    33900    16680     7610     5195    -3626   -17474 
  -31483   -46122   -52957   -43681   -29707   -25139   -22897   -13262 
   -5098    -2774     6749    25662    41894    53521    62754    61889 
   48777    35904    29263    23067    16775     9234    -2822   -11473 
  -13060   -16047   -22285   -26629   -26045   -21643   -18099   -15425 
  -11624    -8777     1775    26628    42515    36541    36543    54747 
   65202    58317    56214    68435    77792    72530    63576    63521 
   63843    55153    49443    47142    31296    11874    10584    17749 
   14439     9140    13402    10470    -5877   -10059      601     2160 
   -1545     8091    21511    19856     6177    -4820    -4525     4695 
   12646    14911    16380    20162    28044    40651    51510    59377 
   67115    65964    55916    53165    58334    59485    61079    71888 
   79269    73425    70251    74351    67007    48134    35168    28655 
   19407     6892    -4241    -7444    -1740     2377    -1408    -5830 
   -4043     1851     9701    21571    35295    43895    45586    45441 
   47762    50936    50542    45912    41057    39850    38937    32556 
   24954    18898     7549    -7620   -19447   -29833   -39460   -40962 
  -33882   -27752   -23891   -15434    -7298    -8337    -9673      624 
   18320    36389    51414    56811    53716    50812    47047    40909 
   40863    46366    47690    46434    48765    54586    59470    53991 
   41140    36837    39495    39736    37175    30558    26906    32118 
   30710    16379     7136     7503     -993   -22398   -33733   -23458 
  -13312   -18355   -21174   -11816    -7617   -15388   -18527   -13016 
  -15832   -24743   -18133    -1164     3583      561     8747    23151 
   29662    35640    49842    67164    81307    86556    86221    87352 
   83622    74133    70110    71518    72122    73612    73322    64306 
   52650    44845    35346    28824    32472    32134    21369    13583 
   10822     6789     1279    -5893   -15250   -24576   -23963    -4618 
   21542    35838    36960    36015    39273    40649    36548    36267 
   41013    40413    41708    57786    70713    64112    60657    73597 
   79727    70170    60154    54493    53138    59402    67321    69850 
   67890    65141    64322    60563    49216    37892    32499    29603 
   23680     8010   -10522   -10582     4340     8221      293    -3229 
   -5532   -15082   -25780   -31785   -34717   -30310   -16546    -5122 
    5394    27251    46379    49090    54050    67849    65604    44139 
   34840    46150    50157    37465    27610    22207     8274    -7825 
  -21443   -39316   -47545   -30348    -7920    -7606   -20587   -19104 
   -3582    -1800   -18374   -25791   -17034   -10138    -1472    20179 
   41324    52759    64852    80305    91953    96856    93082    80666 
   67444    57075    39256    14832    10382    30959    39885    22809 
    7786     6832     5065    -1176    -1358     5979    11757    14501 
   20634    32046    48153    67617    82695    83050    66644    47329 
   44847    56934    61885    57069    60647    72367    68347    44169 
   28496    30742    23717    -1382   -21274   -22117   -13834    -9271 
   -5400     7008    22508    26796    18117     8524     3176    -8475 
  -26433   -29980   -20475   -24616   -41751   -47810   -39011   -33433 
  -39508   -41382   -27985   -11718    -1707     6846    16428    25471 
   30338    26716    19601    16605    15917    16561    21697    28056 
   29196    27610    34855    51675    58671    45206    30542    32841 
   36847    27080    22151    30997    31129    19640    15406    15267 
    5669    -4238      504    10780    10415     5560    11519    26617 
   40999    52929    56084    44277    34132    34467    27033    15779 
   24234    44343    57565    67240    77548    86057    95426   104794 
  100252    79717    66634    63289    42918    11621     2705    11482 
    5855    -9681    -4034    16180    19387    11615    19226    30638 
   19021     1201    10371    33512    39512    37252    45879    53631 
   48342    36038    22672    12917     7065      784      213     7437 
   10089     8807    13475    19992    22260    24095    30668    37633 
   36766    32628    32964    33850    34363    40374    47270    47987 
   42532    28113    14344    16033    16595     3845    -3095    -4922 
  -15359   -23191   -23848   -27255   -28587   -26481   -31343   -33772 
  -19462    -2352     5241    14303    26135    29052    25565    26170 
   31137    33774    29150    19962    16670    22090    29689    39736 
   53773    64952    69897    76081    84146    77937    53856    32392 
   23710    22503    27839    33570    31077    28788    35504    36072 
   13043   -19333   -35717   -35174   -31262   -31026   -28420   -13154 
    8532    14892     1067   -10830   -12573   -17682   -19652    -5577 
   10375    18895    32301    48345    51675    44758    37289    27816 
   14909     2276   -11709   -27030   -30411   -18303    -6846     6555 
   37115    63383    59887    51988    64322    72815    64538    64786 
   79419    90354    89168    79437    81694    98798    90109    52538 
   30539    17257   -12549   -31018   -28993   -36717   -50894   -54527 
  -53893   -48019   -30208   -12618    -8231    -9419    -2288    17091 
   37883    41441    36018    48393    66692    63275    54419    62126 
   63466    37040     3411   -15158   -20833   -19064    -9999     9550 
   44572    80996    89758    76769    77562    92440    94899    86280 
   83140    82920    74718    60059    45488    32796    25591    19458 
    -777   -31157   -49604   -48390   -34122   -13132     9101    28516 
   31591     4291   -23720    -9858    22226    31149    41690    76659 
   96898    86776    84175    96977   103107   111152   128675   135676 
  131056   127559   117436    91097    57897    31876     9405   -20174 
  -46388   -56178   -61430   -70153   -73638   -77689   -92628  -107664 
 -111061  -108360  -108152  -109878  -108167   -99143   -87850   -83309 
  -76807   -53829   -26143   -11114     3035    29047    52349    68437 
   92297   117893   130529   136502   146697   158906   161605   153676 
  145795   135506   116436    94253    67611    30875    -5619   -27653 
  -36120   -43339   -57461   -71527   -69545   -45245   -13241     4340 
    3782     1947     8713    15475    13919     2885    -9826    -8190 
    4371    11453    20786    44712    69697    81691    87605    91472 
   87181    82923    89381    93456    83437    70286    56240    33527 
   18557    20529    10652   -18216   -27358      -39    31557    35352 
   16568     2839     4093     4199   -11140   -41130   -72148   -85659 
  -75014   -48173   -16779    12429    36501    49863    56696    72883 
   91831    92761    84326    84106    86459    81073    66604    46521 
   25238     6058    -8138   -18682   -29079   -38070   -45380   -54872 
  -62828   -59883   -49396   -42819   -41725   -43092   -48951   -58814 
  -65193   -60950   -40987    -3334    37437    58393    63600    74434 
   85089    80680    75985    86504   105392   125631   142718   151848 
  155227   156576   157540   154513   133628    83102    17760   -23524 
  -27496   -21096   -11790    19811    61572    82725    78379    53698 
   18126    -7985   -28291   -59872   -80343   -69996   -62574   -79180 
  -92630   -85398   -72736   -72683   -86400  -105345  -112588   -87945 
  -41838    -4433    27706    78650   133873   152638   139515   134597 
  135683   108467    59581    28121    20482    12052    -1431    -4182 
    8224    29089    45206    40887    19430    -3787   -24042   -32461 
  -20410   -11067   -23380   -30112   -18073   -19358   -36350   -38685 
  -28582   -23454   -21079    -9410    18682    51787    69010    65704 
   56449    55175    54529    33731   -13084   -59431   -64102   -31579 
  -10827    -7496    14129    50504    73171    84929    94559    89650 
   76205    79419    92799    95278    98879   119662   140782   144588 
  139666   134612   117258    82996    57266    60044    80266    97238 
   99566    89613    73007    49733    26322    13850    12517    13413 
    7065    -8158   -21774   -25313   -23622   -19058    -5395    15266 
   34786    45536    40647    32037    36328    41955    40814    47838 
   59638    66411    83138   106900   107728    87231    73100    65912 
   49724    25440    -4404   -41694   -66566   -60377   -46719   -58699 
  -91547  -118198  -130983  -142465  -153332  -153868  -141832  -110867 
  -51981    24254    88209   114987   111150   109569   127906   143449 
  126136    90226    63277    32896    -1119     1889    47191    91262 
  106486    96054    74706    54517    31453     5413    -6186    -5632 
  -15600   -34606   -44137   -39818   -28971   -20918   -14048     8390 
   50091    88369   101721    96013    99890   123787   134066   105905 
   72493    65372    52759     7230   -28625   -15472    21236    50926 
   77340   105187   131504   156494   174919   179063   179042   197321 
  227630   233163   204048   170010   145886   116160    80206    59416 
   52751    40315    29468    37508    46011    36755    32305    44499 
   46172    26254     4680   -11564   -28957   -40200   -38879   -31448 
  -16798    12572    48224    69057    75065    90140   108114    93612 
   55311    30668    13749   -15824   -44737   -56200   -59773   -70533 
  -79282   -70585   -51762   -31422    -1296    37511    60740    54089 
   33750    17055    -1712   -29148   -48839   -52067   -53950   -53336 
  -37973   -15129     6539    23134    24678    16556    14159     5258 
  -22744   -51525   -70997   -86108   -90244   -80078   -65212   -48027 
  -20884    10132    24137    19971    17243    17690     7417   -11118 
  -31051   -56697   -76487   -70978   -51567   -42751   -44683   -37552 
  -13581    14069    41737    78781   120323   156150   185061   199758 
  194870   184741   178400   165243   145733   137693   141657   140443 
  138069   148503   158256   152675   141383   126054    90435    34399 
  -18562   -52670   -75056   -98209  -120603  -125395   -97399   -46206 
   -6562    -4665   -31904   -59561   -67945   -60982   -64759   -95397 
 -128239  -136409  -127634  -108219   -70008   -21007    22922    58601 
   79988    77286    62489    52991    42646    27886    21933    22654 
   16298     7117     4630     7612    19066    45819    75065    85897 
   89711   104472   108333    90786    85671   104460   123155   128509 
  117838    97068    79650    60434    33684    17012    18953    33180 
   67182   119202   155466   157605   143513   125259   100881    66298 
    9603   -59890   -97637   -89777   -75339   -72467   -62634   -46398 
  -40741   -41389   -36102   -35019   -50177   -68334   -70405   -45628 
    4433    53948    78497    89678   109423   126240   120035   105212 
   97753    89451    87433   105246   124070   128502   131361   135244 
  125665    98763    62694    22902   -13433   -34467   -44305   -54566 
  -51099   -23323    -8577   -33441   -58850   -54216   -39176   -18053 
   24727    70212    88474    92051   103959   112842   108100   106748 
  119937   134307   139122   142055   136599    98549    40943     9106 
   13136    26908    33676    32427    28777    22527    -1663   -42309 
  -70701   -77183   -77078   -76215   -75430   -84361  -102887  -112508 
 -103261   -90500   -88928   -90064   -84735   -84212   -98382  -108067 
  -82725   -32795    -7934   -23641   -36487   -17496    -6002   -37406 
  -68159   -48575     1439    44827    81102   116647   136887   134213 
  125281   125091   122960    96627    53596    26245    18128     3841 
  -22478   -40415   -36041   -24193   -27791   -34791   -19848     6592 
   28644    54278    84828   114437   144505   168298   179419   185135 
  182493   164646   146235   130578   102746    79812    88243   105054 
   91108    53015    18365   -18135   -68618  -111354  -125915  -129111 
 -140495  -140802  -102724   -43590      480    28971    57666    75183 
   68698    57895    53562    42110    29594    24848    19792    21193 
   29754    23734      113   -27348   -50264   -65213   -75881   -80990 
  -74227   -61333   -51275   -42235   -31256   -26331   -22095     5467 
   40408    39571    13544     1594     1259    -9129   -25040   -33530 
  -34608   -28510   -21718   -23908   -23743   -13835   -11333   -21729 
  -24716   -11568        7     5404    21754    52319    84975   109072 
  119012   116081   109451   109485   112058   109020   111086   124096 
  129944   121815   120378   139827   164734   169825   156418   152215 
  164757   168010   151078   131128   112207    90235    77992    73850 
   55378    24885     3065    -9416   -23229   -41018   -62415   -83899 
  -96838  -100629  -100628   -98234   -98989  -106295  -113908  -118827 
 -119212  -112120  -103319   -97680   -89829   -80466   -80611   -86793 
  -77515   -40618     9331    43981    56396    62331    67715    70143 
   74898    88077   104589   114544   120300   129054   140772   151596 
  155488   154501   159718   169900   172233   161621   142716   125842 
  117435   109248    97188    90271    86837    77304    62196    47406 
   39168    36714    27777    10233    -3970    -9597    -5639     5335 
   14436    24334    40712    54239    60282    63953    59090    37911 
   10643    -7592   -12572    -7405     -771    -3594   -14716   -23167 
  -30200   -45276   -60726   -64657   -66240   -72661   -69666   -49429 
  -29156   -25044   -22460      878    34027    52919    56477    53852 
   50005    50577    57751    69458    80578    85449    88925    95574 
   95473    78924    49367    20369     2435   -10420   -25474   -34779 
  -37188   -42580   -43860   -30102   -16549   -21508   -31599   -23939 
  -11101   -25144   -58090   -69795   -59212   -60364   -70759   -58418 
  -25451    -4737    -9880   -23789   -29411   -28824   -23369    -2069 
   29705    47264    46291    42222    36859    29476    31947    42518 
   49735    58805    72573    78494    73202    68264    68566    63888 
   50397    42450    43637    38045    20499    -2772   -24522   -36843 
  -46663   -63532   -78245   -81057   -74261   -63961   -54842   -51027 
  -55807   -63203   -63953   -62106   -62650   -54259   -24749    18258 
   53593    71656    83506    97657   106302   106779   104824    96795 
   89508   104719   134243   148369   147863   149934   147821   128079 
   98877    72673    45345    11282   -21156   -41205   -47358   -46109 
  -48241   -58379   -66907   -66891   -66883   -65463   -45435    -7540 
   29202    52408    63090    71119    79771    80722    71021    59318 
   55562    59651    62492    60308    54970    44360    28777    18250 
   20013    25185    24488    27180    37885    38645    25022    16712 
   13343    -1476   -18217   -18214    -6054     4296    10489    20381 
   36184    48467    52710    53463    50242    43921    45514    54492 
