Origin Time       2011/03/11 14:46:00
Lat.              38.103
Long.             142.860
Depth. (km)       24
Mag.              9.0
Station Code      TKY014
Station Lat.      35.7002
Station Long.     139.8351
Station Height(m) -3
Record Time       2011/03/11 14:47:31
Sampling Freq(Hz) 100Hz
Duration Time(s)  300
Dir.              E-W
Scale Factor      3920(gal)/6182761
Max. Acc. (gal)   121.798
Last Correction   2011/03/11 14:47:16
Memo.             
[...]
  -49284   -48683   -49284   -44420   -32845   -16860     -569     9956 
   12513    11445    10335     9349     9021    10406    14456    22563 
   33816    43059    47687    51251    54767    54325    49632    46440 
   47660    46668    36671    22446    12316     5353    -2652   -10173 
  -14836   -18599   -23839   -29787   -35214   -40556   -46726   -53577 
  -58972   -61337   -62769   -66338   -70092   -67587   -57429   -46070 
  -38935   -38267   -46333   -60220   -70501   -71327   -65001   -55291 
  -43594   -31879   -23581   -21356   -22583   -19161    -7421     7682 
   19432    25377    29241    35318    42026    46184    47767    48090 
   48150    48579    49598    50143    49010    47101    47132    52198 
   61977    71408    75501    72035    63174    54913    48293    37646 
   20474      514   -16992   -28505   -33052   -31462   -25661   -17148 
   -4945     9898    21048    25175    24477    20420    15803    15150 
   16563    13326     5043     -637      974     4760     4114      616 
     -27     2803     5261     5644     5423     5519     5175     3956 
    2014      269     1493     7394    16292    25174    30629    29673 
   23190    16834    15001    15056    12061     6182      -37    -6047 
  -11325   -14808   -16653   -18185   -21293   -26999   -33906   -38269 
  -35367   -24337   -11632    -3783      188     4448    10913    18270 
   21936    19043    13113    10982    16561    26986    35720    37652 
   29773    13050    -6528   -23175   -35914   -46847   -56114   -60307 
  -56655   -47129   -35884   -24190   -12469    -4068    -1655    -2322 
     178     8842    21747    34838    42441    39260    26983    13511 
    3353    -3604    -6951    -5684      691    10280    19931    31314 
   47090    62358    69874    68437    61565    52998    42890    30052 
   17778     9300     2077    -5950   -10682    -7898    -1368       21 
   -6897   -16473   -22645   -23149   -18740   -14395   -15212   -21838 
  -30834   -37944   -42385   -44253   -42805   -39558   -34893   -26520 
  -15747    -6736     1728    15618    35988    55931    67937    71213 
   70803    69708    66792    63377    63059    66318    70315    70445 
   64876    57759    51625    42731    30245    20960    18601    16808 
    7935    -7494   -23011   -32967   -34911   -27851   -10988    11024 
   25554    24162     9706   -11908   -34910   -52156   -60359   -63300 
  -66531   -70300   -69852   -63621   -55686   -48806   -43123   -40768 
  -43274   -47241   -48224   -46271   -42629   -32563   -11662    12594 
   28093    31904    30731    33193    41178    49076    51271    47445 
   43765    47141    56570    65044    68456    68603    68858    69752 
   69761    68547    67507    69147    75349    83576    88635    87187 
   77519    62933    52223    47660    41835    29265    12751        1 
   -4644    -5927   -11435   -21252   -28414   -28162   -22732   -17489 
  -16896   -23433   -35238   -46469   -53635   -58241   -61257   -60907 
  -57969   -56016   -55245   -52805   -47600   -40459   -32833   -27167 
  -26637   -31714   -38244   -42136   -41520   -35594   -26624   -17713 
   -8397     2592    12956    19033    21705    24755    27218    24564 
   15113     1066   -13109   -24212   -31755   -34718   -31761   -24451 
  -16675    -9441      414    13950    27677    36488    38041    36772 
   39437    46973    54099    55216    49699    41239    32296    23605 
   18935    22051    29683    33596    28972    17928     4875    -7109 
  -16126   -21447   -22331   -17910    -9677     -430     9356    18796 
   24135    23750    19417    12509     4064    -2504    -3228     -155 
     117    -3312    -4366      452     7269    11083    12496    14632 
   17597    19789    19292    12707    -1020   -16515   -26969   -32128 
  -35952   -38310   -36169   -30132   -23998   -19985   -16928   -11115 
     223    13482    22039    25115    25963    25015    20730    14714 
   10860     8795     4324    -3390   -10333   -12587   -10824    -8673 
   -7404    -5660    -2415     3609    14073    26737    35715    39033 
   39196    36295    28681    17330     4181    -9555   -21794   -27785 
  -22841   -12073    -9416   -18734   -28544   -29783   -24624   -18916 
  -16774   -19297   -23425   -24583   -21682   -18489   -21205   -32752 
  -47602   -55496   -50310   -35201   -21135   -18090   -24844   -28222 
  -16386     6282    23729    28324    28048    33002    42470    49267 
   52487    57794    68366    82002    93008    96447    92350    84171 
   75623    67674    56486    38394    16025    -2660    -9997    -5679 
    1476     3186      328    -3231    -6916   -11039   -17573   -26889 
  -32669   -31145   -26754   -22569   -14708      450    17392    27410 
   30568    30720    27254    19643    10586     2394    -5785   -15658 
  -26783   -37710   -46509   -51277   -51174   -44920   -32588   -20170 
  -14604   -13856   -10270    -1198    10741    23427    36209    48792 
   60900    69907    70998    63108    51732    42763    37033    35147 
   39023    43752    40728    29867    18875    14130    16351    20024 
   17576     8799     2478     4664     9873     8955     2222    -2363 
    -879     4822    13670    24753    32278    31182    25999    23122 
   20319    14424    10592    16910    33458    50450    58980    59178 
   55678    51662    48966    48494    49714    52086    56188    61822 
   65589    62989    53932    43666    37540    36296    36661    35105 
   30914    27683    29707    33865    31237    19850     6163    -5364 
  -14087   -20046   -24623   -30072   -38266   -49402   -59521   -63412 
  -63007   -65780   -72791   -76498   -69827   -52004   -28486    -7040 
    7753    14788    12999     1126   -18471   -38322   -53354   -65237 
  -73815   -75333   -70173   -61708   -52391   -44237   -37774   -31938 
  -27709   -29033   -35804   -40000   -34592   -21934   -10037    -4988 
   -9372   -20917   -29676   -25913   -10955     5857    17465    23780 
   27969    31814    35002    34276    25998    12748     2674      246 
     498    -3421    -9730   -11733    -7584    -1282     2723     3574 
    1974     -956    -1013     4887    13269    17416    14723    10850 
   13896    25526    41093    55062    64100    65675    56573    37251 
   16063     2415    -3178    -6671   -12081   -18492   -21582   -17461 
   -5690    10094    23757    30631    29812    24225    19334    17719 
   17419    18512    23921    33532    44583    54730    62046    65240 
   64875    63425    60924    52428    34729    12481    -5854   -17176 
  -25498   -33036   -36623   -35227   -31117   -24370   -16007   -10761 
  -11499   -16654   -20913   -20417   -19148   -21069   -23296   -23067 
  -20553   -16832   -13709   -11897    -9922    -6559    -3507    -2905 
   -4567    -7424   -10656   -15732   -24724   -34364   -38582   -35468 
  -28300   -21091   -13646    -4261     4711     9991    11539     9787 
    4136    -4916   -14987   -22373   -24292   -22412   -21420   -22431 
  -21142   -13505      277    17356    33512    44651    51091    56505 
   61109    60415    50399    31997    10942    -6550   -18135   -26004 
  -31672   -30447   -17300     3084    19604    23763    14502       58 
   -9486   -11498    -9612    -7759    -6121    -3386    -1855    -4139 
   -7792    -9513    -9389    -7492    -1671     9481    23601    34875 
   39137    38618    37446    35621    31850    26911    21656    16179 
   11865    10475    11392    13069    14754    14458     8839    -2498 
  -15403   -26528   -37380   -50008   -61138   -64825   -60321   -51111 
  -38912   -24749    -8257    11473    28668    37355    40497    43434 
   48056    53426    58226    61959    62191    57137    50610    47861 
   49579    51975    51143    47154    42096    35699    26082    12312 
   -3583   -15289   -17539   -11711    -2760     4996     9457    10613 
    8625     4467      569    -1050     1198     8376    18357    25462 
   26166    24128    25285    29476    30956    26684    19644    12665 
    5435     -728    -2337      918     5712     9136     9159     4570 
   -4114   -16133   -29507   -39115   -40086   -31503   -14902     8922 
   38687    68652    90464   100295   100538    93933    80602    61839 
   40650    17833    -6359   -27090   -35791   -28511   -12782    -1252 
    1706     2284     6417    11010     8740      100    -5741    -2898 
    6864    18493    25449    24680    20320    16696    12891     6384 
   -3921   -17501   -29723   -33231   -26458   -16476   -11461   -13531 
  -18819   -22786   -24487   -25547   -26007   -22477   -12646     -524 
    8245    14440    22104    30146    32452    24770     9761    -4915 
  -14212   -19336   -21688   -16893     -761    21557    40510    53630 
   64414    73494    78041    76959    71227    61931    51023    41684 
   37267    39166    43828    44977    41326    37963    38458    39717 
   36088    26624    14669      548   -17323   -33903   -39667   -33497 
  -25207   -21189   -17541   -10089    -1227     3957     5228     8174 
   15541    23355    25985    21376    12223     1855    -8372   -16466 
  -20403   -21368   -20018   -11254    11164    44571    76045    93661 
   96701    93504    90988    88457    81571    68951    55368    48093 
   48435    50914    49330    39822    23691     7888    -2182    -6731 
   -7637    -7030    -8440   -13656   -21095   -27792   -32673   -38928 
  -48074   -56279   -61220   -63333   -61217   -54157   -46597   -43582 
  -43206   -40787   -36409   -33351   -35219   -40995   -44141   -42869 
  -40050   -36465   -33046   -29374   -22854   -14039    -5226     1422 
    2147    -3630   -10166   -12077    -9641    -5607      695    13153 
   31762    50259    64487    76651    88099    96892   102290   103050 
   95213    77887    57987    44722    39441    35010    25658    12805 
    1942    -2270      829     5792     5342      -74    -3845    -4038 
   -3038     -298     5288    11238    14962    16179    14490     7354 
   -8403   -32020   -55351   -67130   -64775   -58039   -55534   -55338 
  -53889   -51267   -46033   -37544   -29482   -24892   -23387   -22479 
  -19263   -13089    -4573     6152    16794    24249    29123    33681 
   37543    38241    35284    33131    36770    44382    50467    54440 
   60295    69826    79913    86014    86165    81712    75446    67357 
   53891    34950    16399     2434   -10660   -27892   -44289   -50898 
  -46461   -34174   -16438     4696    25321    39593    45370    44559 
   36921    22487     5863   -10109   -27153   -44868   -60230   -72414 
  -81687   -86168   -83204   -72772   -58577   -46508   -40595   -40044 
  -42760   -47473   -50711   -49507   -45682   -43492   -43674   -38563 
  -18930    13953    49840    79443    99067   108508   110549   111730 
  116065   120209   118805   110957    98854    83075    63915    45606 
   34637    34486    44232    60909    78477    88062    86596    78772 
   70263    64824    61454    54733    40908    21145      591   -15062 
  -22622   -22713   -19621   -17388   -16698   -17579   -21497   -27116 
  -27427   -18288    -6871    -1722     -270     4589    13456    21739 
   25725    23889    15998     4405    -7660   -20624   -36686   -54355 
  -67947   -74027   -76081   -76906   -73369   -65769   -60036   -56793 
  -50666   -39972   -28429   -18264    -8296      -55     2029    -1286 
   -3462      387     9692    18739    21735    17546     6978    -8322 
  -24869   -38882   -48078   -53083   -54172   -50233   -44139   -40702 
  -40979   -43033   -44131   -42886   -39921   -36688   -35227   -36226 
  -37886   -39511   -44648   -56645   -71432   -81056   -83511   -82545 
  -80696   -77212   -70884   -63459   -57776   -51350   -38561   -21260 
   -7437     1414    10309    21241    32033    39414    41818    41494 
   40712    39433    39041    42457    50843    63017    77316    91955 
  102713   105058    98836    86621    71958    60575    55801    54897 
   54995    55795    56816    58473    61590    66242    73547    84559 
   97800   108696   113285   113476   113889   116298   120207   123828 
  125229   124523   122048   116339   106630    93009    75346    55828 
   36268    17488     3886    -2430    -3255     2510    14378    27440 
   38752    46547    47813    43227    35818    24878     9703    -7749 
  -27800   -51186   -74272   -93934  -111990  -130619  -148786  -163416 
 -171776  -173547  -169454  -160409  -150211  -142397  -133034  -114847 
  -87820   -59475   -37887   -26387   -23194   -26248   -35079   -49198 
  -68275   -90120  -107607  -112543  -103029   -85602   -71396   -66473 
  -66728   -66576   -64331   -59117   -52061   -46663   -43924   -40860 
  -34151   -24315   -17100   -17749   -23158   -26664   -27684   -28904 
  -31249   -33477   -31969   -25689   -16397    -1261    22959    51927 
   78613    99451   112965   117754   114001   105957   100864   102991 
  107941   109222   109471   112414   112181   105630   101703   107393 
  118553   126888   125694   116248   107530   101681    91726    75713 
   62619    59430    58623    51619    42491    35526    26536    11324 
   -7886   -24265   -33264   -35226   -30984   -21654    -9221     7108 
   28740    52746    72858    83436    82520    72243    58108    47691 
   46339    53083    63143    73426    82712    88947    88922    80768 
   65111    42860    16002   -11441   -35156   -49161   -49673   -41959 
  -33207   -23702   -13914   -10018   -14949   -26668   -42477   -56028 
  -63848   -69079   -71919   -73603   -81668   -98135  -116894  -134231 
 -149525  -163002  -176086  -185849  -187907  -185033  -180406  -173045 
 -163133  -149802  -132628  -115307   -98518   -80575   -65213   -55997 
  -50473   -46627   -45673   -48122   -50561   -46821   -35586   -22647 
  -14630   -13558   -14529   -10746    -2521     3613     4507     4653 
   11025    25683    42631    52280    50854    44505    43810    54242 
   71652    88963   102983   112632   118025   120161   117792   108008 
   89816    66626    47050    39706    46279    63153    83643    97496 
   98927    90836    75090    51292    24538      745   -19467   -36314 
  -47807   -49522   -36174   -10338    14633    27032    26807    21027 
   13864     3294   -14546   -40057   -68219   -93126  -110406  -113382 
  -97754   -71148   -47401   -31197   -17328    -2258    10035    11583 
    2204    -6595    -4382     9704    28448    39531    30653      824 
  -32795   -51839   -53107   -41792   -25192    -8040    13846    45074 
   79499   102981   103636    82775    57504    47314    57876    81090 
  107774   132644   150021   156099   151979   138301   115836    91413 
   71150    51622    26647    -4057   -35470   -61887   -80207   -87311 
  -81468   -69990   -65016   -71592   -87089  -106950  -125449  -137715 
 -145244  -154434  -167335  -177358  -176382  -164898  -149520  -132519 
 -115891  -104111   -94664   -83357   -70266   -53479   -31008    -1867 
   36094    80203   120846   147370   154801   146502   126554    95644 
   61808    40256    36765    43847    49577    45271    31845    20458 
   24779    45340    66094    76659    78557    70428    51491    28183 
    8559    -2592    -5244     -507    11432    29511    51579    70887 
   77873    68218    42776     9583   -19407   -43236   -66558   -87898 
 -104937  -115647  -116004  -102094   -71953   -30106     9262    30037 
   30222    22186    11687    -8081   -40039   -76627  -106680  -117425 
 -100671   -66560   -34322   -10413    11160    39622    77299   109750 
  118546    97756    52845     2652   -29349   -40658   -44179   -41907 
  -27621    -2361    25416    47979    63194    72860    79910    86188 
   91414    94134    88984    67508    31018    -4311   -22237   -17428 
    6360    35408    48376    35089     9925    -5065    -2349     8099 
   11915    12915    28474    57027    77878    78642    60816    29356 
   -8077   -39959   -57598   -59364   -50718   -42439   -40352   -36494 
  -20539     4344    27445    42719    47906    43053    31506    16396 
   -1189   -19557   -32130   -29852    -9469    24705    61782    90179 
  106697   113886   113894   105230    83015    45686       36   -40027 
  -64758   -76726   -83121   -90252  -102952  -121304  -139119  -147099 
 -140514  -122166   -98827   -76816   -58111   -42954   -36682   -46337 
  -68874   -93110  -111677  -121954  -123157  -115477   -99807   -82472 
  -70989   -65291   -62352   -57044   -41465   -15617    10606    27474 
   33468    33840    33343    35004    40544    48103    53901    54425 
   48427    40616    38155    42236    45646    39399    21538    -5308 
  -39468   -75990  -106567  -124768  -125217  -105234   -66704   -14754 
   37499    73412    86287    78999    59340    37520    18606     1425 
  -14065   -24170   -24621   -13005    10075    40758    73964   104277 
  124560   129451   120893   105058    88596    79033    77900    78485 
   76306    72384    68366    65502    65570    69920    78004    85452 
   83707    66233    35383     1203   -25085   -36412   -34544   -30131 
  -30335   -31498   -31800   -38255   -54534   -75721   -95075  -107228 
 -109294  -100194   -80824   -57014   -35018   -16379    -2664     4311 
   10853    25073    42448    54511    61644    65519    62915    49913 
   25569    -8733   -50832   -93469  -124446  -135357  -124864   -99682 
  -72522   -52488   -39377   -25502    -6391    11936    23452    29469 
   36461    53250    79288   102668   117335   121462   110325    93401 
   87664    93040   102154   109062   105010    90340    76442    72188 
   79682    93252   100654    94143    78576    64023    53234    41589 
   23654    -4229   -37463   -62161   -68518   -54393   -22903    12624 
   37048    46465    46253    43960    44117    46963    50047    49735 
   44274    35098    24598    12870    -3946   -27210   -50897   -70514 
  -89300  -111089  -133189  -147129  -144443  -123777   -93135   -62172 
  -34624   -12720    -1501    -6264   -30117   -65732   -97807  -121676 
 -137877  -143097  -141336  -134615  -118566   -97645   -74785   -42312 
    3142    51001    82535    87042    68956    40785    18501    10721 
    8226    -2056   -21237   -39065   -42683   -26603     6854    49265 
   90621   126879   154478   166354   158639   135735   107783    80468 
   52689    20925   -20573   -70333  -112002  -126725  -108861   -70214 
  -30339    -3033     8908    12075    12830     9882     1006   -12823 
  -31697   -52022   -61974   -54452   -36676   -19777    -7787     1080 
    8317    13092    16264    20768    27352    35508    44784    54087 
   61778    66221    69373    72685    70801    60074    44789    33828 
   36359    51897    69559    83348    92813    93602    85107    74680 
   67907    64752    61625    53728    36781    10949   -14567   -30940 
  -40866   -49449   -55654   -54638   -40164   -15624     5128    14446 
   12526     3804    -3542    -6661    -7415    -4022     5750    18840 
   31617    44473    57368    68523    76807    79711    74521    66094 
   63984    68535    73039    73421    67993    58377    46770    32646 
   19046    11441     6678    -5292   -27363   -53173   -74623   -85622 
  -83978   -68640   -41439   -12951     5583    10887     4487    -7965 
  -17273   -19874   -19364   -19737   -22980   -27990   -35397   -47259 
  -60233   -72744   -86545   -99851  -109887  -113387  -106973   -91013 
  -69023   -45158   -21655     2294    27435    51962    71399    78701 
