Origin Time       2011/03/11 14:46:00
Lat.              38.103
Long.             142.860
Depth. (km)       24
Mag.              9.0
Station Code      TKY020
Station Lat.      35.6646
Station Long.     139.8086
Station Height(m) 2
Record Time       2011/03/11 14:47:31
Sampling Freq(Hz) 100Hz
Duration Time(s)  300
Dir.              E-W
Scale Factor      3920(gal)/6182761
Max. Acc. (gal)   129.999
Last Correction   2011/03/11 14:47:16
Memo.             
[...]
  -61154   -60715   -58084   -53095   -44486   -35426   -29691   -25744 
  -22204   -20397   -18264   -13660   -10566   -10996   -10723    -6867 
     354     8339    12220    11300     8676     5503     3281     1745 
   -1472    -2371     2144     6702     9828    14962    21146    27411 
   33280    34345    30472    27469    26843    25763    22996    19478 
   16938    16152    15324    12155     7929     4701      982    -3981 
   -8988   -13949   -18375   -22748   -27840   -30621   -29668   -27968 
  -27202   -26925   -25839   -22599   -18293   -15675   -16218   -19179 
  -22192   -23457   -24277   -26792   -29505   -29450   -27749   -28994 
  -34357   -38191   -36202   -32040   -29486   -27189   -24389   -23487 
  -26262   -29950   -30021   -27069   -25101   -24696   -21796   -13020 
   -1759     5962    10253    15678    24447    33113    36065    33929 
   32043    31210    28664    23719    16797     8884     2843     1085 
    3063     5060     3991     2128     2242     1453    -3639   -11132 
  -18033   -26250   -38162   -49601   -56555   -62121   -67589   -69669 
  -69096   -68059   -66636   -66090   -65321   -60831   -53914   -48803 
  -46760   -45373   -40992   -34063   -28596   -25318   -23427   -23186 
  -21935   -17817   -13940   -11407    -6870      704     8163    12309 
   12579    11875    13418    15306    15503    18411    26276    34059 
   38665    41543    43391    44127    43593    41413    40012    42801 
   47548    48958    47866    49796    55090    58981    60293    61740 
   63646    63958    62167    59738    57704    55051    49711    41909 
   35183    30848    25461    17115     8210     1469    -3165    -7669 
  -12010   -14204   -13461   -10674    -8970   -11010   -14693   -16246 
  -15504   -16002   -19443   -22243   -22126   -21538   -21063   -18817 
  -15320   -12834   -12728   -14143   -14307   -11742    -9211    -9984 
  -10667    -7889    -7951   -15213   -24147   -30812   -36417   -42260 
  -49434   -57317   -62426   -62603   -58278   -49147   -35942   -22911 
  -12890    -4146     5584    13842    14936     9791     6858     9865 
   14987    18823    20787    20644    18064    13438     7687     1466 
   -5409   -13334   -20654   -24743   -26906   -30526   -34404   -35512 
  -36134   -39969   -45204   -48482   -48516   -43206   -32629   -21599 
  -13562    -8587    -5904    -3736     -411     4435     9909    13728 
   15077    16125    17517    15960     9110     -366    -8450   -14652 
  -20287   -24571   -25267   -22179   -18503   -16902   -14847    -9756 
   -5028    -2311     1811     7128    10926    13637    15520    14791 
   12299    12244    14109    13489    12770    16671    23827    31452 
   37823    42541    47273    51089    51609    49980    47989    45481 
   42586    41255    42736    44570    44373    43600    43570    41843 
   36619    30723    26666    24251    23784    24873    25012    22214 
   17932    14371    10076     4806     1389    -1396    -7827   -18861 
  -31055   -40193   -45260   -47486   -48625   -50442   -52378   -52604 
  -51311   -49547   -47306   -44637   -43225   -45265   -49807   -53745 
  -56297   -58015   -59469   -62825   -68496   -72858   -73180   -70020 
  -64966   -58849   -50724   -40249   -30565   -23583   -16186    -6733 
     940     3793     4209     5685     7856     8247     6535     5355 
    6077     6484     6818    10645    16300    18180    14296     6126 
   -2007    -6009    -7892   -10246   -10328    -6077     1201     9984 
   17520    21142    23918    30264    36490    36966    34218    32448 
   30442    27029    24774    25967    29257    31845    32730    32078 
   30383    28018    25026    21917    18089    13329     9504     5898 
    1380     -946      531     3225     4497     2976     -597    -3526 
   -5120    -6539    -7046    -5432    -3515    -5090   -10190   -14364 
  -17079   -21703   -27083   -30125   -31095   -30023   -25310   -17708 
  -10483    -4581     1769     8316    13109    15954    18913    23997 
   29303    31088    29608    26773    22194    15269     6355    -3228 
  -11314   -16423   -17228   -14253   -12565   -14798   -16147   -13540 
  -10802   -10898   -11808   -11330   -10645   -11455   -12861   -14212 
  -16385   -18536   -19499   -19715   -18683   -15939   -12560    -8854 
   -5267    -2563     1013     5821     8868     9517     8850     7815 
    8343     8713     5187    -1068    -8409   -17292   -26136   -34911 
  -44382   -49960   -49703   -48449   -47043   -43598   -40621   -39080 
  -36594   -33067   -30189   -29969   -33861   -40009   -44641   -46013 
  -45683   -45900   -46438   -45566   -41454   -33108   -22684   -13879 
   -7522    -1608     4570     9374    12698    16054    18089    16564 
   13265    10413     7157     3595     1304     -164    -1526    -1257 
    1011     2737     2734      883    -4264   -10630   -13085   -10614 
   -5109     1312     5642     7536     9921    14623    21224    27113 
   28613    25188    19456    13091     7224     3959     4220     7045 
   10503    12173    11550    11399    13267    13967    10846     6387 
    3088     -980    -7732   -14193   -16321   -15744   -16475   -17290 
  -14932   -10864    -8642    -7561    -4332     -113     1504      535 
   -2216    -6534    -9503    -8738    -6383    -5611    -6425    -6204 
   -2811     2328     6251     9446    13223    16631    19539    22660 
   26186    28573    26482    21397    19028    19401    18104    13906 
    8427     3898     2499     3965     5304     4298     1572     -801 
   -3148    -8357   -14822   -17631   -17515   -16808   -13966    -8210 
   -1313     3038     2872     1382      407    -1284    -2735    -2655 
   -1770    -1907    -4418    -8203   -11063   -11495   -10096    -9469 
   -9117    -6391    -3858    -6063   -11396   -15956   -20931   -28837 
  -37014   -41683   -44851   -50091   -55420   -57589   -57131   -55317 
  -53498   -52617   -51294   -49390   -47308   -42809   -35978   -29258 
  -21663   -12801    -7152    -6451    -6070    -4144    -4604    -8152 
   -9852    -7664    -5443    -6088    -8005    -7945    -4514     -645 
     447      426     1011      596    -1517    -4257    -6441    -7181 
   -7118    -6870    -4399     1435     8502    14813    17999    17022 
   16982    20112    21131    20309    22595    26065    26547    25318 
   26024    28672    30701    32558    35145    36722    37049    37012 
   35890    33513    31624    31150    30082    26827    22659    18631 
   14881    12027    10118     8529     6355     2658    -1995    -4917 
   -3778    -1199    -1347    -1476     1553     3597     2505      699 
   -1571    -4561    -9025   -16847   -25388   -30642   -33917   -36684 
  -36580   -33243   -30289   -29380   -28470   -26859   -26626   -28523 
  -30337   -30488   -30645   -31830   -32263   -31981   -33003   -34788 
  -35294   -35303   -36773   -37980   -37021   -36479   -37958   -39498 
  -39538   -37700   -36446   -39219   -43775   -46715   -49200   -51629 
  -53207   -55340   -58994   -62605   -64355   -65325   -66690   -65537 
  -59665   -51279   -42749   -34977   -28606   -22430   -13824    -2857 
    7451    15500    22180    28796    37178    47940    58054    65165 
   69741    70371    65292    58298    55885    59266    63404    64262 
   62983    61175    58010    53528    49431    47813    50032    53687 
   55210    55920    57862    58966    58360    56852    53549    49446 
   46332    43555    41437    40679    40686    41010    40054    37458 
   35759    34921    32813    29587    25967    22097    17874    12362 
    5733    -1120    -9274   -18583   -25329   -28162   -30367   -33790 
  -37790   -42397   -47249   -51014   -53316   -54827   -54909   -53605 
  -53745   -54735   -53762   -51859   -49295   -45592   -42849   -40858 
  -37084   -30944   -22897   -14249    -8490    -6895    -5335    -1455 
    2296     5888    10910    15997    20578    24741    25937    23079 
   19697    18460    15609     7401    -2378    -9077   -12722   -14654 
  -15868   -16621   -17334   -18254   -17901   -17064   -18175   -18529 
  -13988    -7740    -6029    -8225    -8994    -6035    -1092     2777 
    4812     7581    11875    13480     8767      261    -7266   -12077 
  -15022   -18231   -22740   -27000   -30153   -32698   -34552   -36128 
  -36957   -34445   -29621   -27101   -25835   -21747   -17270   -15507 
  -14686   -14342   -15062   -15755   -16120   -14463    -7276     4514 
   15647    22456    25559    28609    33106    36371    36933    35963 
   34240    32621    32051    33295    37600    43205    45783    45082 
   43899    42905    41023    36821    30179    23145    16960    11178 
    5915     2662     1149    -2191    -8877   -17182   -25243   -31372 
  -35848   -39851   -41904   -40487   -38392   -39148   -40862   -41220 
  -42177   -43791   -44089   -42333   -38467   -35860   -36672   -36553 
  -33097   -27708   -21270   -16579   -15107   -14455   -14529   -16783 
  -19118   -20272   -23288   -27667   -28833   -26445   -21491   -14711 
  -10728   -11313   -13338   -15859   -17251   -13972    -7286      780 
   13061    29672    45414    57417    65708    69793    70601    72188 
   77827    84215    86723    89801    99429   111280   116358   110873 
  100706    95715    94652    88032    76745    69759    67337    62215 
   53089    45408    41295    37876    32606    24512    14927     6372 
    -974    -7027   -10741   -11586    -8014    -1351     2953     4582 
    7700    10973    10432     7239     3594    -1995   -10621   -21248 
  -33031   -44095   -52688   -60241   -66908   -70600   -73175   -76641 
  -77611   -73442   -65583   -56447   -48144   -40192   -29500   -15953 
   -3242     5622    10005    11960    15203    21188    27599    32205 
   36402    41139    43787    44787    47608    50797    51935    52370 
   52439    52392    54149    55988    54185    49945    46955    45414 
   43102    38698    32583    26657    22375    18896    14663     9346 
    3814     -864    -5086   -11544   -22036   -33471   -40252   -41775 
  -44788   -51677   -55935   -57253   -59224   -58376   -52658   -44815 
  -39272   -38618   -40801   -43993   -45288   -42063   -37679   -35929 
  -37759   -42815   -48409   -51773   -52597   -51167   -47761   -45171 
  -46249   -47576   -44906   -41861   -41519   -39628   -34714   -30987 
  -29358   -27272   -24110   -20897   -18453   -16210   -13060    -9316 
   -4173     3338     9545    11312    11504    13517    17043    20558 
   22703    21807    18280    14923    12724    11561    12699    14916 
   14376    11548     9926     8532     4769      707     -891    -2141 
   -6528   -11309    -9847    -3422      700     2271     4898     8140 
   12508    18256    20564    19938    23348    28224    25712    15683 
    4624     -896      181     -562    -7513   -12567   -11290   -10020 
  -13793   -20916   -26402   -26469   -22038   -15309    -5686     6875 
   19923    30546    36651    39155    41344    44661    48516    52052 
   55039    59220    65837    72607    76224    75187    71020    68167 
   68086    66633    62911    61466    62925    63625    62343    59727 
   56239    53497    52352    50111    44645    39008    37514    40160 
   43151    43062    40032    36191    32362    28201    23397    17899 
   11249     3427    -4008   -11545   -21739   -33442   -42693   -49343 
  -57445   -67509   -75365   -80188   -84862   -90464   -96583  -103363 
 -108999  -110066  -107662  -104849  -100694   -96242   -95669   -98367 
 -102010  -106694  -110223  -111508  -114736  -121390  -128879  -136240 
 -140239  -136480  -129125  -124480  -120697  -114844  -108008  -100927 
  -93963   -88880   -86227   -83685   -80198   -78213   -80332   -86781 
  -93433   -95128   -93030   -90045   -84146   -74010   -61665   -48759 
  -35984   -21760    -4112    15238    34374    52335    67198    79032 
   87571    90847    91805    94361    95236    89543    77908    64704 
   52607    43301    41286    48046    58972    68837    73915    75614 
   79209    84826    88678    89048    88044    90810    99061   108724 
  116675   122922   126284   126181   126386   128263   127833   122795 
  111243    90376    64159    40855    24914    17136    13013     5574 
   -4565   -13583   -22773   -35728   -54442   -74414   -85743   -85970 
  -84466   -87811   -90325   -86544   -78703   -69701   -60927   -51529 
  -41133   -34491   -33423   -33372   -30471   -23544   -14405    -6544 
   -2876    -3818    -4970    -3595    -3812    -8338   -14516   -21645 
  -31795   -43451   -53165   -59731   -63289   -66548   -72508   -77218 
  -74340   -66466   -60298   -56302   -52205   -45508   -33653   -21727 
  -18734   -25140   -36773   -51807   -67598   -82542   -95954  -104005 
 -106482  -109247  -114965  -121158  -125698  -125395  -116493  -100549 
  -80418   -59173   -42584   -31325   -22551   -15319    -6972     1299 
    3421      -58    -4729    -8365    -7073     1171    12866    22840 
   29856    38731    48103    52071    57036    67810    78304    87379 
   96624   105470   113277   117811   120603   124459   128276   133223 
  139567   142464   142521   146300   154145   161407   166199   169598 
  172808   172387   164010   153411   150517   152982   148629   134629 
  121171   116087   115453   110187   101945   100171   102951   100370 
   89148    76469    70576    68092    62574    53571    43227    34793 
   25086     9739    -7073   -23368   -36856   -42675   -46626   -55291 
  -67506   -82393   -97159  -109922  -123382  -137599  -150857  -162772 
 -173462  -183663  -192584  -199326  -204418  -207771  -209398  -208473 
 -203282  -195848  -190511  -188925  -189801  -188228  -181040  -174864 
 -176393  -182887  -189616  -195295  -199757  -201106  -197487  -189801 
 -178838  -162967  -140420  -113651   -88194   -67124   -51363   -39945 
  -28701   -14280     2086    16548    27358    35446    42297    48223 
   51132    51750    53746    55282    53714    52077    53489    59054 
   67891    75704    79056    77511    70721    62042    58732    60249 
   60500    59092    57175    55065    52933    46106    31275    14125 
    5595    10612    18151    18201    16900    15893    10044     4380 
    3360     2171    -2067    -9297   -21884   -37518   -48562   -50027 
  -40369   -25686   -13224       21    15227    29182    42296    54609 
   67961    83301    97093   108923   118463   123253   124138   121020 
  111385    95451    74840    53373    35963    21896     9031    -4541 
  -22289   -42620   -62502   -82214  -102841  -123544  -136754  -138690 
 -134614  -124720  -106188   -79521   -46715   -13586    13705    35680 
   57114    77373    89924    90532    83188    81273    87497    78971 
   44496     7875   -12210   -26957   -55899   -92641  -108125  -101311 
  -97899  -106584  -121653  -135698  -139106  -129360  -116884  -111777 
 -108665   -94858   -66193   -31881    -5324    11726    27433    47536 
   70504    86128    85158    71094    51936    32604    18232    11148 
    6878    -1601   -15362   -32334   -54038   -76426   -90598   -95965 
  -93696   -81304   -62777   -44168   -23313     3387    33096    57969 
   71521    75121    74098    69647    58276    37399    14882     4937 
    9604    20204    30460    36178    34181    24822    13688     8409 
    8474     7636     6245     6769     6900     6977     9432    13470 
   19968    32118    49981    66557    69873    54305    27512     7224 
    5632    12010    10075     3959     4226    10266    18727    27522 
   30976    25729    16303    10168    12024    19234    24146    25014 
   28547    40024    55750    68511    75270    72156    56500    38391 
   26171    13833    -1569   -18148   -34042   -41617   -39749   -35545 
  -29766   -20686    -8782     3559     9512     6444      361    -6052 
  -15493   -27797   -41187   -55950   -72746   -91293  -110093  -122861 
 -120834  -106220   -92357   -85561   -80174   -72779   -65090   -54316 
  -39474   -26832   -17073    -5379     6878    15262    17816    12693 
     864   -12465   -24639   -37451   -51855   -62022   -60707   -52299 
  -48066   -51472   -55572   -51609   -39805   -27510   -18515   -12900 
  -11397   -11982    -9734    -4861     -436     5095    11438    15266 
   15420    10411     1513   -10537   -29263   -50771   -67459   -78069 
  -83461   -86518   -89971   -91408   -88589   -83333   -79341   -77246 
  -71875   -59335   -40663   -18081     4381    21373    31599    40519 
   54556    70858    78659    73438    61831    50465    39245    27170 
   15796     7596     4534     5141     6380     4912     1608    15382 
   52517    79613    87033   102484   124260   133461   129665   116780 
  100347    89101    81999    69310    50283    34000    23321    13111 
     554   -11089   -19936   -29092   -38537   -43643   -42612   -38537 
  -35196   -32450   -29067   -28382   -32159   -34366   -30656   -25519 
  -23812   -24843   -24569   -18339    -8980    -1299     9684    22827 
   30565    36341    41551    44614    50477    56102    55310    49805 
   40503    29454    18345     4112   -10827   -22876   -34849   -49133 
  -66849   -84604   -97333  -108046  -117270  -122091  -125806  -130041 
 -134853  -141202  -145657  -144719  -136318  -121332  -106793   -94354 
  -77921   -57696   -41153   -36488   -48153   -68752   -82647   -83215 
  -79627   -81557   -85155   -85540   -86780   -90328   -93521   -95743 
  -95352   -91271   -84203   -74570   -66099   -60639   -53402   -43173 
  -33818   -25452   -15326    -4196     3665     5261      369    -8168 
  -16206   -23675   -30106   -31350   -27365   -20649   -12217    -3292 
    7336    21599    39012    57511    71002    74403    70019    61748 
   53063    47274    43002    36402    29155    30024    42712    59375 
   73262    83913    90787    92316    87773    78540    65864    52653 
   45949    45696    44988    43962    46976    54082    62177    69752 
   78323    88347    98047   105715   109553   108170   101405    90155 
   75842    58946    41200    27937    22009    19444    17069    16117 
   16628    16944    14967    12247    14978    21964    24542    18937 
    9148     1581    -3378    -9774   -15927   -16145   -11166    -9065 
  -14291   -22444   -29791   -38134   -47430   -55811   -63866   -70437 
  -72435   -69752   -64311   -57908   -53256   -53618   -58775   -64651 
  -68609   -70112   -68629   -65451   -61355   -53072   -40972   -31072 
  -24847   -20762   -17803   -14253   -14305   -22362   -32616   -39164 
  -42530   -42987   -39331   -32248   -25423   -19499   -11277    -1615 
    8863    19423    25853    31212    39411    48066    57567    65087 
   65202    60128    55607    58878    68454    69411    59962    53243 
   50954    47377    42155    34514    23093     9813    -2456   -10336 
  -12545   -11601    -8850    -3665     2387     6391     9239    12690 
   14312    12765     7491    -6562   -30823   -56334   -70362   -66698 
  -50626   -30180   -11775    -4137    -8646   -17317   -22353   -20730 
  -15538    -7604     2941    11150    13578     7113    -3686    -3836 
    8524    19732    22072    18744    18001    24085    30848    33980 
   35743    35853    35849    37749    39147    40601    41849    41157 
   41882    45771    52355    60080    64382    65826    66745    63950 
   58861    56999    56732    54877    50876    43787    36561    32694 
   31277    32013    34018    34695    35469    36591    33172    25138 
