Origin Time       2011/03/11 14:46:00
Lat.              38.103
Long.             142.860
Depth. (km)       24
Mag.              9.0
Station Code      TKY027
Station Lat.      35.6930
Station Long.     139.8913
Station Height(m) 1
Record Time       2011/03/11 14:47:39
Sampling Freq(Hz) 100Hz
Duration Time(s)  300
Dir.              E-W
Scale Factor      3920(gal)/6182761
Max. Acc. (gal)   155.110
Last Correction   2011/03/11 14:47:24
Memo.             
[...]
  -46726   -44104   -43649   -40877   -39256   -37358   -30197   -21717 
  -14990    -6381     3352     6675    -1831   -19469   -38318   -51903 
  -56719   -54453   -55339   -65187   -75510   -81459   -87253   -89660 
  -84692   -76665   -65204   -49944   -37773   -23935     -580    20689 
   34031    48721    60771    63415    61284    55945    52022    57745 
   67874    74046    78995    84142    80608    65093    49415    39883 
   28246    12988     -519   -18899   -47223   -73857   -91463  -104560 
 -109800  -101063   -87821   -78031   -62424   -38239   -15676     2944 
   16761    19372    14502     8074    -1268    -5020     3331    10465 
   14406    30246    51777    61003    60145    57674    48790    25711 
   -4239   -23941   -33893   -48548   -65654   -76465   -88487  -103495 
 -105984   -91068   -69217   -43469    -8190    32924    65305    80969 
   83803    77292    59321    32582     9931    -4446   -18653   -25477 
  -13510     6791    27683    50953    65450    62650    49021    28429 
    -143   -34410   -65997   -84262   -91260   -97664  -101835   -97456 
  -87294   -75484   -65874   -58336   -43270   -22507   -10903    -7986 
   -7158   -13346   -26073   -36013   -40533   -46419   -57029   -62284 
  -53033   -28994    10069    53719    82660    96433   105809   106202 
   92030    74987    62384    46406    27673    15159     6959     1367 
    4842    16312    30563    48089    66648    80352    87244    89621 
   90795    89021    80048    68835    65646    72034    77354    74181 
   73068    76632    65139    40044    25039    16772      528   -14641 
  -21296   -26972   -32420   -34039   -38103   -53620   -76979   -97204 
 -111477  -118439  -113712   -99816   -83648   -73322   -70571   -62456 
  -46021   -36435   -35569   -36727   -46994   -69149   -92245  -108907 
 -117883  -119729  -117234  -111212  -101159   -91140   -85382   -83042 
  -81774   -77427   -67763   -57063   -44041   -22993     -927    12667 
   23510    37565    45822    41465    31914    24440    20159    21949 
   33360    51142    67546    81938    98230   110622   111400   105841 
  100889    94994    88869    87181    88333    84448    72601    61074 
   55154    51205    53782    66516    77715    83700    90544    93136 
   86169    70973    46452    15663   -11435   -24995   -22760   -14215 
   -5605     5892    17559    28002    41010    49025    44392    32785 
   17403    -1989   -18994   -27383   -26364   -18860   -10100    -2558 
    4755     8406     3853    -2624    -3704    -4926    -9989   -10793 
   -3892     6406    20600    39114    55481    64239    63375    52670 
   36935    24114    18674    16184     9491     3628     6399     9558 
    5502     4016     8352     3956   -10892   -19899   -19481   -16701 
  -10251    -1271     1790    -1547    -5719   -10202   -15819   -20496 
  -23938   -29516   -38740   -47717   -51867   -51206   -49203   -48729 
  -51267   -54361   -49689   -35693   -20352    -4505    15411    35086 
   47657    52644    55012    54118    46715    42432    48857    53997 
   49945    44268    37257    25757    15989     5482   -12003   -26237 
  -29065   -25049   -16326    -4649     2989     2586     -178     1807 
    4902     6111    13971    31288    48457    59962    68426    74700 
   77801    80187    80948    71204    50979    35376    28548    19344 
    6364    -6349   -23788   -47932   -70768   -84742   -90878   -93978 
  -90884   -76106   -57274   -43903   -30428   -13265     -406    10737 
   26490    35995    33806    30430    27162    19790    11176    -2721 
  -26767   -50575   -66335   -77017   -80635   -77524   -76462   -76964 
  -73512   -71153   -74047   -77132   -75350   -70059   -69684   -76113 
  -78715   -73351   -62686   -48328   -38187   -33983   -26930   -17249 
   -8172     1823     9511    12157    10700     4518    -3703    -7693 
   -4567     5088    20045    38372    55978    67160    71980    77114 
   80914    74598    58895    37987    11890   -11445   -19217   -12145 
    -114    12649    22416    23346    16652     4769   -13247   -30876 
  -38625   -36194   -27195   -14857    -1624    14016    29712    38364 
   40906    39939    31034    16779     7314     5049     6737     9139 
   10934    17276    26845    23331     3651   -13171   -21843   -32148 
  -39716   -39782   -41266   -45209   -45225   -44954   -50209   -56460 
  -58125   -58144   -56949   -49819   -39850   -32086   -23772   -11816 
    2213    12643    16361    19324    25598    35478    55059    81648 
  100470   108944   111924   107793    99232    88178    69954    47231 
   20505   -15644   -48404   -62699   -67593   -71766   -70171   -62718 
  -54989   -49031   -43548   -37500   -30829   -21180    -8153     2894 
    7626     3086   -10823   -26075   -39250   -54721   -67590   -70194 
  -65413   -58388   -53478   -53780   -55820   -56121   -54814   -51093 
  -45306   -38235   -29565   -23935   -25252   -26569   -24052   -25683 
  -31194   -30865   -24551   -14978      674    20791    39688    53517 
   60344    59453    48401    27716     6392    -7952   -13501   -10183 
   -4135    -2849    -3537       -9     7423    13904    17661    24863 
   37696    47194    49863    53724    64876    78545    86910    92455 
   96161    90789    81949    76778    67819    60110    65768    74441 
   76846    80689    84070    81432    80281    82522    82514    78492 
   67885    49961    27637     6116   -10029   -25027   -37302   -36788 
  -30139   -27806   -23033    -8688    13368    36483    52220    57761 
   55477    50151    47499    45979    38983    24803     7157    -7687 
  -16870   -22465   -24427   -23752   -24149   -23810   -21248   -22253 
  -28584   -35889   -47730   -70991   -97591  -111093  -109483  -104583 
  -98671   -81886   -56851   -37193   -23611   -11313    -4463    -4733 
   -6531    -5687    -1621     5503    16940    31259    42107    48227 
   54137    58462    58369    58056    59351    55510    42678    28394 
   19271    10544      572    -2895      487     5002    11088    14374 
    3170   -19558   -37028   -46471   -59230   -72563   -74100   -69353 
  -68584   -64820   -56077   -53913   -55792   -51543   -43773   -33713 
  -19473    -6900     3708    18273    32571    41109    48324    54753 
   56723    59222    64473    68787    73744    76186    69282    53377 
   31717    12505      379   -10993   -21169   -23422   -16206    -2242 
   13962    33983    53663    55611    43587    37177    30699    14380 
    1906     2033     6405    12580    24328    37130    46260    53914 
   59562    61591    64207    68574    68096    60817    53986    49621 
   40819    27637    15253     -428   -20573   -34413   -38138   -35962 
  -27910   -16829    -6808     5129    20267    35008    45792    48815 
   41131    22196    -2203   -20911   -29275   -28571   -20247   -11301 
   -8081    -6662    -2121     1903    -2764   -18239   -38184   -56360 
  -68901   -74381   -73726   -63932   -45441   -29000   -19953   -14471 
  -11173   -11167   -18867   -36097   -48995   -50516   -54417   -58374 
  -48032   -35542   -31985   -21839    -1240    16079    28756    38192 
   38076    31110    24233    11055   -13913   -33351   -33080   -28433 
  -25394    -7437    16051    19960    12545    13176    14305     7879 
    8440    20227    28048    33272    46101    56310    55476    52730 
   50762    41611    23742     4234   -11531   -19602   -11602    10033 
   29423    43198    52932    49178    37390    34829    35869    30315 
   27127    28078    23160    13106     2128    -9209   -15781   -13681 
   -5402     3015     9577    23752    46686    62343    68668    77201 
   84034    79725    65647    41192     2688   -39875   -67097   -70807 
  -59910   -48298   -41251   -36073   -32004   -29073   -25212   -23304 
  -25206   -24285   -19924   -19665   -23070   -23578   -19677   -14023 
   -8505    -5760   -11747   -25661   -34409   -35624   -44329   -56930 
  -52220   -37397   -31600   -22047        4    13011    14086    21086 
   27102    18074     6674     6318     7621     6466    14683    30404 
   44724    63222    84255    95332    97671    99201    99338    92003 
   72560    44858    15902   -14456   -43827   -61445   -66643   -72231 
  -84293   -99920  -116466  -129782  -138268  -144385  -143043  -130803 
 -119872  -116501  -108627   -88369   -62044   -39016   -21313    -4748 
    8836    14476    17383    26257    43013    64505    86688   104668 
  108314    91634    64573    41083    26515    18821    16218    21952 
   35029    48850    62208    78062    96025   111239   122154   133250 
  142800   144784   142674   141536   138106   130887   125032   123908 
  126337   128577   124738   111356    89185    60366    30731     6551 
  -11742   -24715   -34009   -44951   -57876   -68324   -76789   -85073 
  -87905   -81827   -75325   -74285   -73027   -74573   -89354  -105176 
 -102262   -89496   -76479   -51531   -24188   -19969   -33708   -50323 
  -72219   -97484  -113058  -113479  -106896   -99765   -90303   -82618 
  -83717   -92614  -106120  -119905  -130805  -139894  -144485  -141801 
 -134358  -123333  -109067   -92103   -72752   -56522   -49443   -47032 
  -37224   -16360     6233    23696    34576    33317    20133     8647 
    8276    16324    31376    55158    84055   108499   121568   128427 
  132195   122649   102334    89023    84825    83536    89121    98696 
   99306    89203    69810    31504   -21932   -67070   -93293  -102139 
  -93266   -75978   -58513   -37033   -16328    -9290   -14621   -17127 
   -7890    11890    42298    75084    95926   112208   132352   140316 
  135381   134278   126851    98737    65805    46592    40454    42546 
   49899    55425    55659    51315    38738    17994    -5675   -27043 
  -37806   -37121   -32812   -26793   -19693   -13518    -8508    -8828 
  -16314   -26923   -35824   -31486    -3615    39041    79381   109086 
  128125   140194   139382   109501    51184   -18294   -79880  -108363 
  -96303   -66720   -38523   -19070   -10443    -5380    -4971   -15848 
  -26842   -26127   -18690    -8512     2748     7886     4693    -1352 
    -912     6749     1234   -26453   -54392   -76404  -106045  -131560 
 -139225  -145736  -163501  -180946  -186768  -185364  -186418  -186739 
 -177184  -163345  -153580  -142549  -127442  -115783  -113254  -116792 
 -116027  -108616  -102807   -95489   -79337   -62751   -51773   -39188 
  -22301    -6651     5931    20326    35739    46511    56973    68806 
   74536    77503    83672    88737    93799   106424   127432   152015 
  174085   190223   204370   219730   230037   232325   232910   226249 
  202764   176060   154543   126810   101712    94206    90556    78098 
   63670    49240    28282     5035    -6693    -4657     4202    24035 
   59281    97216   121976   127096   117638   108197   103891    96590 
   84814    73944    66582    65275    64048    49142    24700     3446 
  -17546   -38571   -49270   -52159   -59615   -68382   -73841   -93737 
 -128387  -148841  -160416  -189354  -218295  -224172  -222529  -223536 
 -215178  -199693  -194730  -201298  -199597  -183845  -172778  -172690 
 -168517  -156287  -147373  -141210  -121145   -84483   -50914   -29536 
  -15797   -17435   -38177   -61237   -74373   -78360   -73778   -63534 
  -55797   -55010   -59251   -64557   -65363   -57700   -44165   -28756 
  -13090     1589    20566    51707    89118   122489   152605   182687 
  209667   221840   210991   189389   167434   135185    94228    67179 
   56392    37023     1012   -31927   -50292   -64298   -80105   -87477 
  -78398   -53819   -12649    40593    84331    98911    90725    80860 
   76286    70949    67488    69402    62304    33611    -8325   -48848 
  -77234   -87076   -80114   -63627   -45118   -30956   -22087   -12420 
    -548     6669     9149    11936     8407   -11762   -45015   -77795 
  -99438  -109149  -110526  -100265   -69054   -13884    50007    99902 
  128336   132626   107720    65576    16350   -42859   -95991  -126207 
 -141336  -147798  -149701  -155016  -154462  -128459   -71616     3360 
   71330   109817   113981    87174    34493   -28745   -84651  -120855 
 -131516  -119310   -85152   -31155    28953    80263   115553   135993 
  144248   140189   129676   118895   104861    82870    57108    41701 
   39173    31516     8930   -22386   -57389   -90206  -111804  -117298 
 -108249   -90976   -67702   -33714    11809    61187   102674   131106 
  153613   171395   173083   160070   145362   126476    91269    33463 
  -45410  -122460  -169451  -193434  -211133  -214249  -200685  -181886 
 -152988  -104699   -52250   -18525    -3244     2722    -2561   -20813 
  -42897   -51080   -35901    -7485    23765    61675   108282   150309 
  176391   192229   201161   194557   168247   121998    58904    -1958 
  -44476   -75841  -100708  -113339  -120554  -131282  -142092  -145761 
 -139646  -134096  -133489  -117004   -76704   -35798    -6213    21838 
   46191    57919    68336    84217    87828    71374    48785    27317 
    -853   -36956   -66076   -78407   -76574   -59006   -24081    20137 
   63601    96659   113268   115129    99910    56514   -12969   -78522 
 -117642  -140002  -149802  -136746   -95995   -20538    77894   157424 
  196962   210020   209887   204771   196825   176870   144275   110309 
   88815    86198    84495    67075    36381   -13233   -78737  -131569 
 -161611  -182881  -197010  -199477  -193382  -177754  -148488  -109696 
  -73613   -49740   -39982   -49452   -84427  -133111  -175287  -208386 
 -235060  -245008  -230628  -191567  -116705    -3033   102517   149389 
  152296   136553    95245    25232   -69373  -161034  -210893  -225262 
 -213133  -153320   -56787    26988    69533    86526   102877   117005 
  116307   103501    91481    87651    85182    82371    98273   138156 
  179872   205825   218386   226359   226848   213428   192956   178542 
  174478   171012   157112   136528   115151    90926    72746    68706 
   65311    49292    17562   -21829   -52701   -76854   -99838  -117802 
 -140902  -169718  -188713  -199632  -195574  -154125   -80422     3123 
   76974   123229   145291   154268   136575    79437    -2903   -84845 
 -143257  -170549  -177803  -175415  -165711  -143759  -106972   -66142 
  -28623     3780    20734    18101     5851    -8416   -19377   -18586 
   -8754    -2614    -5261   -15940   -30191   -41155   -52514   -67709 
  -81644   -96349  -112072  -122193  -128999  -137320  -147861  -158608 
 -161553  -152984  -133222   -92248   -26208    41574    87186   115421 
  135753   140447   125622   100669    75459    56777    47138    43198 
   36855    18239   -10858   -36092   -48489   -40706    -7639    31872 
   57008    73343    85919    90392    95307   108054   117104   111348 
   92842    64597    30370     2899    -9147    -7120     7918    29719 
   49940    68074    77101    68691    48661    18035   -25278   -64969 
  -87587  -100644  -108963  -107821   -98113   -79272   -47433   -14672 
     908    -1160   -16163   -40995   -58178   -57869   -57823   -62951 
  -51243   -15783    26738    61273    78095    73273    60129    55572 
   59634    67442    79247    89684    89839    81300    70797    55184 
   29539     3370    -7001     4794    33344    64839    86278    98402 
  106711   106010    82424    29467   -37353   -94613  -133163  -150728 
 -144438  -123598   -95550   -49552     4320    31033    24580     3834 
  -24250   -56851   -84552  -104994  -123689  -140414  -150410  -152902 
 -152025  -146579  -120540   -63444     4519    53765    78858    85949 
   77255    63959    56383    56079    67724    85107    98224   113691 
  122891    96492    31582   -44460  -107708  -146653  -161218  -171401 
 -193535  -207219  -194409  -163423  -104132   -13610    70065   125192 
  155433   161920   156772   146076   120986    86713    52321    20420 
    2056     6244    31865    73930   119875   157772   184587   196634 
  192664   178245   160803   150291   146014   133689   112156    89178 
   53301    -2909   -54456   -84853   -99011   -88921   -56062   -22196 
    1090     8478    -4210   -30518   -53825   -60888   -55622   -44782 
  -26303    -5382     2752    -8530   -32674   -62140   -92231  -111760 
 -108612   -93860   -85836   -77304   -59407   -41779   -29867   -17469 
   -2822     3230    -5392   -19884   -37147   -57528   -63857   -47641 
  -32144   -31988   -35566   -40321   -54112   -70005   -72134   -53952 
  -18344    27962    69390    91464   102113   117804   139600   157253 
  165821   170137   168794   154764   130129    96996    55970    18991 
    -320    -4618    -7711   -13643   -17038   -23400   -41568   -62428 
  -72768   -73845   -70779   -62609   -47740   -28261    -9967      557 
    4181     5627     2631    -5163   -10826    -8979     6216    37836 
   75730   106333   127491   141693   144401   135261   125721   118009 
  102040    77813    54418    35073    18882     8916     8065    10323 
    9927    12872    22811    29314    25330    18035    10247    -7044 
  -33318   -52935   -58700   -59446   -61003   -59928   -54927   -50099 
  -45843   -33735   -14593    -7804   -17765   -26117   -30126   -37364 
  -39734   -35624   -38543   -50181   -61151   -66502   -62731   -47976 
  -28987   -19743   -33143   -67201  -101156  -119012  -124269  -120688 
 -106194   -87207   -72215   -61705   -53495   -39774    -7137    42127 
   86410   112778   124582   126541   123650   119679   115111   111605 
  108008   104487   106723   113313   115765   104274    65902     -274 
  -70934  -121011  -146149  -153924  -153928  -156264  -159583  -153774 
 -137579  -113057   -78894   -42395   -15040     3964    18928    23842 
   15436     1963   -13297   -35821   -61090   -74311   -73458   -68346 
  -58437   -41395   -25097   -10053     6758    17375    18543    18359 
   21732    25796    29167    36788    48398    55503    58716    67098 
   77187    76377    64208    50594    40852    36599    39538    43068 
   35850    18014    -4990   -34280   -67886   -99729  -130162  -158700 
 -176252  -177070  -168189  -159593  -149391  -123534   -74715   -14730 
   41799    87531   112656   116430   113799   107308    89792    68387 
   47269    20215    -6234   -16503    -7660     9012    25418    42101 
   53463    50316    32331     2227   -36710   -77821  -115073  -142003 
 -153950  -157426  -160167  -157293  -147291  -140740  -139834  -135587 
 -125617  -116835  -112554  -105374   -88677   -63554   -30776     5887 
   37001    58816    74396    87446   101267   114594   119625   109626 
   84796    49036     6858   -31064   -51362   -56229   -58559   -58814 
  -50582   -36922   -22894    -8148     4377     6944     -319    -7788 
  -11251   -11430    -1128    21024    39398    49438    62496    74976 
   78251    80838    86266    85365    78629    71482    62893    55715 
   54419    55021    53970    53955    54974    56674    65144    80950 
   97904   116882   138277   156757   172273   185059   190753   191154 
  191753   191888   188873   182973   175977   167340   151745   126122 
   95264    63637    31554     4082   -14419   -31460   -50067   -62725 
  -73327   -89841  -105246  -114003  -118430  -108342   -68244    -7914 
   40487    57807    49471    29822    13100     7733    17846    45352 
   77150    96098   100927    87302    44954   -13931   -64015   -98903 
 -126841  -145955  -151305  -154381  -164519  -171690  -169717  -166880 
