Origin Time       2011/03/11 14:46:00
Lat.              38.103
Long.             142.860
Depth. (km)       24
Mag.              9.0
Station Code      TKY009
Station Lat.      34.6867
Station Long.     139.4410
Station Height(m) 53
Record Time       2011/03/11 14:47:42
Sampling Freq(Hz) 100Hz
Duration Time(s)  300
Dir.              U-D
Scale Factor      3920(gal)/6182761
Max. Acc. (gal)   13.516
Last Correction   2011/03/11 14:47:27
Memo.             
[...]
   -2863     -897     -659    -3616    -6050    -6168    -4928    -3219 
   -2270    -2676    -3109    -2153      601     4708     7989     8220 
    6383     4365     2237     1403     2750     2471     -193       28 
    2803     2182    -1062     -862     2850     3903     -231    -5168 
   -6920    -5766    -2921      276     1555      328     -510     1950 
    6561    10008    10999    10863    10461     7946     1885    -5247 
   -8845    -6633    -1857      382      687     2561     3898      474 
   -5364    -8139    -7966    -7616    -5122     1264     5395      917 
   -6250    -4371     6051    12023     5336    -7221   -10384       -5 
    7924     1905    -6141    -3716     2653     1790    -5772   -10769 
   -7497     -525     1909     -668    -1799     1121     3853     2924 
     397    -1209    -2825    -5354    -8386   -10667    -9783    -6229 
   -3018     -488      873     -233    -1349     -923    -1685    -4361 
   -7203   -10277   -12436    -9940    -4130    -2290    -7064   -12127 
  -10663    -4666    -1140    -1166     -716     1898     5108     5897 
    2536    -3112    -6825    -4951      644     3304      794    -3019 
   -4190    -1717      850     -178    -1661       41     1117    -2971 
   -9282   -10927    -7218    -5384    -8959   -11933    -8726    -2317 
     350    -2651    -5395    -2359     3583     6385     4717     1796 
     970     1885     2706     4473     7096     5217    -3715   -11779 
   -9474      563     6185     2152    -3264    -2384      -84    -3639 
   -9846   -10680    -5621    -2249    -5053    -7695    -2450     6008 
    6590    -1134    -6851    -4355     2325     5825     3774      134 
    -564     2246     6022     7345     4342       -5      421     5059 
    4611    -4779   -13818   -13322    -7859    -8076   -14440   -17947 
  -13446    -5647    -1801    -1851    -1198      935     2868     4752 
    6640     6603     4692     4876     8191     9084     3661    -3915 
   -6668    -3193      323    -2329    -7678    -6747      480     4418 
    1534     -937      412       58    -3419    -4845    -4289    -7326 
  -12799   -11892    -2994     3090     -148    -4072     -325     4874 
    3101    -1847    -2071     2467     4864     -434    -8564    -8324 
    -200     2138    -6579   -14329   -10489    -1361     2117      838 
     378      162    -1472    -3217    -4166    -4232    -4491    -7588 
  -12628   -14865   -13139   -10269    -7293    -3196     1422     3290 
     -27    -5678    -7931    -5892    -4365    -6013    -7195    -4417 
    -763     -682    -3013    -4052    -2933    -1836    -3933    -9859 
  -14727   -13731    -9171    -5503    -4044    -4815    -5787    -5012 
   -5738   -10543   -14192   -10322     -296     8045     8481     3543 
    1205     4045     6531     2994    -4376    -7184    -2682     1332 
   -1052    -5351    -5329     -979     3691     5244     2448    -2928 
   -4997     -333     5193     5281     1829     -820     -678     2962 
    7669     8083     4161     2849     5547     4729    -1308    -3696 
    1599     7247     7831     5129      372    -3662     -746     6555 
    7751     2768     1335     5264     6860     2363    -2562    -1096 
    5900    11412     9422      169    -9060   -10340    -4548      163 
    1325     3942     7736     7050     3525     3301     5138     5101 
    4466     3658      324    -4162    -6687    -7240    -6502    -4457 
   -2644    -3373    -6527    -9548   -10511    -9201    -6298    -3295 
   -1367     -667    -1757    -4128    -4359    -1225     1394     1478 
    1587     2274      703    -3595    -8125   -11682   -13481   -12261 
  -10432   -11509   -13538   -12789   -10719   -10893   -11393    -7035 
     730     4138      701    -3568    -3250      822     4853     6435 
    5391     2611    -1518    -6470    -9441    -7620    -1791     4081 
    5822     3178    -1259    -6192    -8602    -4686      857     -211 
   -5091    -5641    -3157    -2872    -3109     -427     3478     4941 
    2553    -2231    -4991    -1843     4469     7960     7304     3262 
   -3876    -9074    -6724       76     5385     8161     7232      182 
   -9497   -13623    -8873     -972     1418    -3496    -8218    -5521 
     979     3272     3106     5497     5671    -1543   -10475   -12614 
   -6214     2497     4567     -392    -4242    -4537    -5225    -5201 
    -122     8003    10530     1577   -12193   -17238   -11024    -4441 
   -5984   -12055   -14045   -10469    -5789    -1385     2826     5006 
    4947     3635     1597     1140     3938     7681    10313    11938 
   11083     6819     2376      471     -610    -2580    -4159    -5036 
   -6710    -7808    -5077      -90      871    -4314    -9599    -9294 
   -5925    -4562    -4434    -2418      651     2379     1965       79 
      78     4723     9250     7348     2321      -31    -1377    -3388 
   -2871      393     1818     -806    -5048    -8494   -10987   -11427 
   -7918    -3077    -2006    -4904    -8179    -9203    -6085      826 
    5602     2813    -3728    -7225    -8848   -11670   -11964    -7450 
   -2632     -614    -1496    -5677   -10461   -10440    -4423     2820 
    5799     2941    -3796   -10453   -12362    -8858    -3928      -20 
    1794     -723    -5894    -7992    -4878     -107     1677      806 
    1922     4107      615    -7733   -11706    -8095    -3432    -3903 
   -8086    -9371    -5244    -1362    -1794    -1815     2878     7290 
    3365    -7143   -11602    -4792     1275    -3164   -10244    -8484 
     194     5504     4614     3812     5900     7083     5571     3384 
    3008     6211     9802     6737    -1242    -3895     -716     -947 
   -5006    -5779    -3647    -4459    -8279    -9983    -8304    -6364 
   -5213    -5530    -8757   -11038    -9027    -8582   -13600   -16320 
   -9482     1469     5993     3469     1612     2197     1765     2176 
    5561     7382     5213     2403      205    -1508     -622      999 
   -2052    -7406    -7502    -3903    -4145    -7831    -9876   -10993 
  -13206   -13040    -8297    -3907    -4964    -9889   -13157   -10550 
   -2669     4201     4767     2234     2947     6463     8203     7622 
    7458     7039     1787    -7538   -12674   -10345    -6558    -6706 
   -9692   -10126    -5983    -3399    -6359    -8832    -6264    -3661 
   -6050    -9315    -6594     -731      634    -1124     -944     -608 
   -3285    -7614   -10864   -11330    -9206    -6695    -4633    -3441 
   -6508   -13370   -16170   -11945    -7711    -7822    -8206    -5990 
   -3890    -3696    -3426     -480     4555     5549    -2094   -10976 
  -10202    -2154     2671     1421    -1605    -4292    -6177    -3141 
    5871    11802     8403     2496     1947     5492     8083     7887 
    5878     2893      407    -1131    -5290   -11456   -11383    -4569 
   -1143    -3631    -4748    -2556    -1667    -3076    -2737     2175 
    8846    10592     4943    -1930    -3512    -1096     1680     4505 
    6268     4120    -2001    -8750   -10971    -5427     3946     9757 
    9318     4556    -1081    -4019    -4051    -5222    -9491   -12552 
  -10403    -6098    -5367    -8816   -11256    -8352    -2707     -488 
   -3187    -6929    -7835    -4998    -1197     -388    -1675        1 
    5589     9512     6439    -2240    -9356    -8798    -1794     3767 
    2108    -4164    -9053    -9785    -6555    -2545    -3977   -12472 
  -20016   -18491   -10287    -3963    -2616    -2491    -1836    -3367 
   -6954    -7497    -3210      370    -1309    -5372    -6077    -1348 
    5102     6926     3127     -579    -1289     -505     2165     4748 
    1765    -3831    -3017     1675     -755    -9518   -13966   -12284 
  -10756    -9812    -5184      968     1504    -3842    -6644    -1567 
    5967     6995      810    -3807     -687     3749     -180    -9186 
  -11295    -5304    -2123    -5324    -6808    -3035      843     1393 
    -123    -1124      512     3662     4432     2911     3810     7287 
    6881      282    -6598    -8798    -6422    -2049     -319    -3537 
   -7888    -9456    -8300    -5882    -4401    -5248    -6838    -6860 
   -4108     -167     1202     1091     3511     5316      785    -7408 
  -12340   -12324    -9627    -5796    -2914    -3004    -3554    -1673 
   -1063    -4388    -5805    -1540     2616     1573    -1187     -792 
    1244      470    -4334   -10493   -13302    -9357    -1372     3528 
    4122     6034     8934     6697     1174    -1073    -1465    -3578 
   -4138    -1828    -2123    -5108    -4706    -2273    -2717    -2734 
    1274     5246     5794     3900      443    -2594    -2226    -1312 
   -5587   -11580   -10921    -5322    -3110    -5379    -6742    -4437 
     225     4399     5518     4736     5720     7658     6163     1722 
    -792     -899    -2863    -6773    -7418    -3730    -1843    -6178 
  -12722   -14503    -9909    -2700     2383     3964     4902     5828 
    3384    -1417    -2823       99     2724     1704    -3688   -11792 
  -16472   -12347    -4140    -1176    -2356      462     5338     2613 
   -6714   -11207    -6857    -2153    -5119   -12700   -16143   -13156 
   -9008    -7366    -5719    -1336     1857     -665    -2833     4159 
   14358    14554     5252    -2483    -4280    -4558    -7382   -11390 
  -12283    -9965    -8827    -9116    -7644    -5303    -4315    -3637 
   -2221    -2256    -5974   -10506   -10140    -4420      194     -882 
   -3773    -3260    -1039      189     3361     9737    12363     4836 
   -7964   -13549    -6167     5028     6870     -368    -5481    -3901 
   -1357    -2283    -4040    -1984     2887     3430    -3274   -10489 
  -11839    -8800    -5325    -3086    -2664    -3200    -1768     2508 
    6287     7295     6978     6086     4674     5165     8410    11340 
   11799     9747     4264    -4780   -13699   -18487   -18813   -15053 
   -8566    -5939   -11288   -17917   -16923    -7763     1148      555 
   -6722    -8179    -1105     3861     1022    -3657    -4701    -3139 
   -2589    -4868    -7084    -6715    -7046    -9630    -9241    -3958 
   -1767    -8502   -16457   -16312   -11520    -8978    -7530    -5711 
   -7531   -12902   -14244    -7838      547     2645    -4745   -15468 
  -17801    -8784     1560     5341     5528     5506     2415    -4008 
   -7061    -2943     3385     5635     2781    -2594    -7011    -7699 
   -4876    -1390      820     2020     2545     1406    -1659    -3686 
   -1535     3681     7997     6538    -3135   -13148   -11164     1329 
   11011    11258     5618     -349    -2468     -180     2493     2535 
    1164     -590    -3486    -5822    -3742     1903     5091     2785 
   -1697    -2843     -349     -891    -5050    -3226     5460     9265 
    4209     -627      717     3295      377    -7245   -11050    -4611 
    4792     5582     2244     6844    15065    12768      761    -5761 
     317     8586     5767    -6309   -13974   -11108    -5139    -3514 
   -5174    -6385    -5949    -4807    -4767    -5610    -5971    -7336 
   -9702    -9092    -5661    -4491    -7274   -11336   -15002   -18014 
  -18955   -16888   -12935    -9471    -8590    -8501    -5483     -707 
    1936     2432     3440     5516     6357     3824     -845    -3832 
   -4420    -6271    -9251    -8328    -4976    -6676   -12561   -14043 
   -9278    -4266    -2256    -1541     -422      729        4    -2853 
   -4253    -2914    -3616    -8548   -12262   -10260    -5782    -3850 
   -3378       63     5533     6423     1282    -1766     2055     5079 
     -81    -7823    -9356    -5986    -3390    -2551    -2436    -2238 
    -895      398      -72     -788     -621    -1517    -2884     -871 
    4357     7903     5426    -2768   -10150   -10738    -6999    -4868 
   -5784    -7659    -8142    -6127    -2971    -1293    -1296     -233 
    1470     -615    -4629    -3513     1200     3018     3232     4812 
    4734     1589    -1410    -2046    -1028    -1837    -6575   -10645 
   -8891    -3977    -2661    -6443    -9221    -6192     -319     3907 
    4879     1925    -2664    -4282    -2396      159     2025     2015 
   -1842    -7804   -10409    -9123    -9173   -10125    -6360       86 
    2046     -516    -2929    -3181    -1144     -184    -4796    -9191 
   -3795     5314     3687    -8140   -16686   -15428    -9216    -4680 
   -4048    -4613    -2705     1241     3845     2964     -783    -3608 
   -1508     3089     2474    -4737   -10440    -9169    -4372    -1228 
   -1061    -2331    -3371    -4318    -6221    -7518    -4503     1378 
    3447      832    -1358    -2729    -5890    -8513    -6319     -330 
    2212    -3475   -10672    -9991    -3870      172     2812     7201 
    8416      786    -9370   -10605    -2608     4629     3611    -3430 
   -7063    -2725     2257      833    -2657    -1338     3950     8247 
    8680     5702     1549    -1769    -1843     2554     7014     6365 
    2435     -882    -3853    -6023    -4050      376      660    -2986 
   -4026    -2166    -1995    -2406     -272     1514     -357    -3907 
   -5757    -3531     2095     5086     1796    -2255    -1215     1616 
      57    -3425    -1286     4447     4733      831      871     2948 
     487    -3668    -3093     1088     3290     1690    -1114    -3207 
   -5559    -8701    -9997    -7109    -2804    -2415    -6504    -8865 
   -5336    -1080    -1274    -3757    -7255   -11191    -9731    -1874 
    2761    -1515    -7323    -6440    -2479    -3131    -7329    -8680 
   -5297    -2611    -7692   -18411   -23530   -18047    -9878    -6901 
   -6397    -3066      320    -1448    -4710    -1853     5031     7328 
    3999      865      308     1044     2148     1997       92      -68 
    2636     2398    -4252   -11204   -10930    -4985    -1553    -4173 
   -7925    -7594    -4148    -1373     -440       63      653      590 
     456     1306     2977     5066     6001     3821      481     -234 
    1642     3262     2908      830    -1472    -2005      186     3296 
    3131    -1266    -2778     3945    10979     8544      630    -2915 
   -1033      723     -716    -4862    -9146    -9635    -6515    -5380 
   -7540    -7958    -5868    -5246    -4953    -1265     2207     -419 
   -5717    -5966    -1721        3    -3089    -6111    -6148    -7149 
  -11317   -13736   -10302    -4303    -2515    -6559   -10227    -7841 
   -2206     -330    -4042    -8183    -7763    -4942    -5532    -9705 
  -12599   -12613   -11371    -7919    -2111      -75    -5362   -10219 
   -6468     1504     3585    -1481    -5852    -4592     -910      688 
     -51    -1478    -2687    -3414    -4462    -6238    -6206    -3454 
   -2932    -7079   -10498    -9851    -7908    -4963      257     3685 
    2203     -858    -3063    -5027    -5545    -4127    -3977    -6987 
  -10808   -12488   -12017   -12472   -15002   -14233    -6350     1472 
     569    -5663    -8347    -6618    -4184    -1118     1959     1635 
   -2161    -5312    -4500     -693     1815      669    -2429    -5446 
   -7181    -6391    -4071    -1921     1277     4592     2465    -4691 
   -8144    -5026    -1561     -886     -719     -798    -2823    -5955 
   -8052    -7922    -4170     2543     6404     2933    -3362    -4913 
   -1804     -259    -2517    -4666    -4411    -4296    -6312    -8208 
   -7047    -3998    -1515      862     2463      885     -714     3770 
   12389    16104    10644     1762    -2323     -532     1806      383 
   -4084    -6937    -5155    -2783    -5670   -11293   -12538    -8708 
   -3622      626     1691    -1341    -2652     2110     5791     1249 
   -4780    -4004    -2041    -7168   -15044   -16031    -8808     -616 
    1243    -3314    -7739    -7650    -6117    -6972    -6770     -276 
    8125     8782     2205    -1747      881     5681     8705     8401 
    5318     2168     -755    -4536    -6524    -4620    -2141    -1891 
    -692     3337     3717    -4012   -11870   -10690    -3653     -211 
   -3108    -6538    -4941     -739     -782    -5475    -7562    -3669 
     110    -2426    -7410    -6094     1292     5949     4674     2601 
    2142      516    -2787    -4795    -4260    -3987    -6437    -8864 
   -7671    -4458    -2430    -1577     -183     2853     6463     7473 
    5565     4326     3254    -1552    -6374    -4089     1145    -1173 
   -9675   -12134    -4659     3946     6909     5662     3239     1055 
    1044     4617     8128     6241      949    -1800    -2257    -4794 
  -10214   -15712   -17436   -12983    -6579    -5516    -7675    -4924 
     541     -283    -5559    -5815    -1069      561    -3402    -8165 
   -8429    -2022     7751    13494    12226     8898     7598     5897 
    2081      318     3086     4196    -2560   -11746   -13761    -9133 
   -4990    -3202     -509     3545     5844     5860     6091     6145 
    3503     -793    -3749    -3959    -1672      739     1532     1899 
    1790     -993    -5045    -4306     3277     9697     7171      956 
      41     1768      160    -1387     1472     4703     3462     -181 
   -2201    -2224    -1716    -1560    -1474     -966    -1113    -3344 
   -6733    -7847    -5055    -2343    -3864    -6868    -6831    -5931 
   -7968    -9073    -4070     2977     5332     4183     3197      603 
   -4833    -9663   -11650   -10411    -6288    -3470    -5270    -7751 
   -6260    -2914    -1993    -3338    -3340     -255     2956     3030 
     959     -564      641     4726     6944     3191    -2944    -5326 
   -3151      -87     1853     3797     5041     3081     -646    -2660 
   -3331    -4522    -5575    -5142    -3279    -1736    -2144    -1789 
    3016     8489     8331     4127     1817     2761     2804    -1465 
   -6970    -8360    -6348    -6162   -10043   -14444   -14715   -12909 
  -14690   -17181   -12411    -1768     6321     8344     6531     4435 
    5196     8737    10867     8305     3009        7      876     2152 
    2151     2144      577    -4389   -10442   -14090   -12632    -6317 
    -824     -456    -2115    -1825        1     2542     6134     9091 
    8561     4914     2242     2936     4195     2889      108    -1045 
     799     2648      201    -4661    -5902    -2182     2300     3818 
    2504      -83    -3069    -4043     -952     2376      891    -2650 
   -1924     2110     2710    -1320    -3382      523     4975     2284 
   -5244    -6802      703     6795     2429    -7271   -11137    -7815 
   -5585    -7928    -9241    -6865    -6665   -12112   -17393   -16026 
   -9885    -6225    -8034   -11366   -12958   -14252   -15806   -14749 
  -10411    -6753    -6474    -6565    -3023     2428     4584     2101 
   -1430    -2319      262     3996     4439      549    -2461    -1160 
    1223     1495       25    -3075    -7188    -7936    -3301     1335 
    2286     2441     3061     2742     2837     4545     5648     5057 
    5142     6477     6737     6404     7683    10324    14274    18270 
   15978     5520    -3066    -1800     3681     4738     1406     -519 
    1216     1887    -1269    -3115     -783     1236      789     1209 
    3478     3515    -1073    -6795    -9347    -8580    -7186    -7322 
   -7680    -4831     -214     1162     1695     6910    11443     6925 
   -2564    -7381    -5775    -2111     -248    -1855    -4040    -1367 
    5067     8516     7001     4398     3060     1900     1606     4905 
