Origin Time       2011/03/11 14:46:00
Lat.              38.103
Long.             142.860
Depth. (km)       24
Mag.              9.0
Station Code      TKY027
Station Lat.      35.6930
Station Long.     139.8913
Station Height(m) 1
Record Time       2011/03/11 14:47:39
Sampling Freq(Hz) 100Hz
Duration Time(s)  300
Dir.              N-S
Scale Factor      3920(gal)/6182761
Max. Acc. (gal)   212.489
Last Correction   2011/03/11 14:47:24
Memo.             
[...]
  -38713   -45947   -44897   -41302   -40961   -42004   -43136   -46799 
  -52736   -58287   -60751   -56581   -42252   -16060    17418    47339 
   67984    81364    87160    83838    76494    70051    62986    57469 
   56937    55405    49723    43425    34927    24018    15824    13595 
   18702    27689    35086    41771    48494    54972    64393    74417 
   80165    84524    87493    83021    73580    62330    42760    17286 
   -2896   -17550   -31294   -43449   -49836   -48137   -41729   -31149 
  -15806    -1395    10845    23490    32515    35318    36099    32658 
   15713   -11292   -35380   -53029   -63967   -64456   -55457   -40084 
  -20085    -1333    10467    16971    22238    27075    27773    19243 
    4768    -5752   -10018   -13268   -16662   -16088   -12695   -14353 
  -19892   -19903   -14516    -7042     4577    16277    21461    19923 
   10830    -4146   -16439   -23191   -29733   -37984   -43988   -45390 
  -43264   -35391   -17870     7713    36040    58299    66533    66065 
   64799    58711    46560    34220    21668     7108    -7165   -17735 
  -20252   -13318    -1210    12496    25927    34463    35883    32835 
   25952    16556     9116     4605     4684    14204    28955    37902 
   40344    43692    48253    48711    44455    38719    32484    25323 
   19175    14505     6868    -4625   -14171   -21037   -30401   -40020 
  -42972   -40462   -37438   -34582   -32557   -33599   -34655   -26816 
   -8206    11887    27745    39132    43062    41362    39981    36297 
   24503     4612   -19610   -41650   -55329   -57888   -49581   -35278 
  -21269   -12102   -12103   -20316   -30344   -38593   -43314   -43171 
  -39083   -31016   -20145   -11376    -6073     -904     4263     6773 
    8666    14582    22467    26411    26538    24894    18841     6602 
   -9453   -24298   -32634   -34397   -32430   -27989   -24382   -24679 
  -27089   -28106   -23142    -9373     7587    21483    34266    46752 
   54097    55761    55774    53597    46878    38510    31697    25760 
   21578    21203    22723    24027    26078    30205    36919    45211 
   53992    63218    70540    72291    67669    57116    42250    28977 
   20971    16353    17371    27975    43505    56298    64812    70503 
   70939    63685    52784    40527    24586    10494     4802     -275 
  -11898   -25189   -38996   -54736   -65515   -67784   -64505   -55832 
  -44940   -39187   -39920   -43030   -44756   -44614   -44490   -44536 
  -45684   -49897   -55010   -58370   -59665   -58623   -56525   -55317 
  -55070   -53745   -48126   -39108   -31444   -26366   -24260   -27834 
  -35375   -41451   -43473   -41101   -33305   -18836      598    20161 
   37361    53461    66650    71728    69994    66840    62543    59896 
   64139    70086    72571    76041    79385    77031    72096    65675 
   51434    32393    19674    16914    23562    38287    53297    62433 
   67063    69128    69965    69245    65850    63517    65032    69732 
   77292    83028    83966    83312    77951    64971    51884    43530 
   40082    42669    47287    48522    46850    43764    39453    35659 
   34075    33378    30634    26440    24216    22987    21965    25784 
   32258    33812    32368    30655    22915     7811    -6906   -15888 
  -18980   -15080    -5297     4708    13235    21763    28293    32044 
   35282    37945    38670    36783    31908    26751    23694    19957 
   15802    14665    12127     2317   -13301   -30028   -40392   -39732 
  -34475   -31153   -28847   -30257   -40203   -54118   -65831   -75812 
  -82763   -83649   -79659   -71605   -59472   -46450   -36026   -29001 
  -25787   -28868   -38726   -51029   -61755   -68905   -72039   -72906 
  -70681   -63093   -51486   -36355   -18773    -4135     6492    14425 
   15634     8997    -2965   -19157   -34051   -43440   -49637   -48924 
  -34769    -9686    21033    51215    72048    82357    87625    89072 
   85008    75313    62150    49019    37780    28508    18762     6582 
   -3146    -7460   -10537   -12404   -11188    -8813    -4659      790 
    3339     2307    -2677   -12712   -22996   -28763   -29229   -21647 
   -5899    13338    34948    56895    72038    79795    85195    87925 
   87843    88675    90161    88807    83437    76507    72124    71228 
   73081    78555    85719    90551    91710    87800    77992    66055 
   56551    51163    49182    49342    52351    56366    55682    50520 
   45719    40708    31053    16461     2047   -10360   -22467   -31273 
  -36908   -45293   -54955   -62776   -72482   -83439   -92053   -99752 
 -104564  -104360  -103860  -102932   -98623   -93388   -86043   -72575 
  -52458   -27149    -3301    12676    23341    31045    34026    34233 
   34440    34948    36956    39848    40221    35948    26500    14066 
    3033    -4926   -10271   -12602   -11927    -9517    -6115      462 
   12632    26989    37833    43915    47707    54598    68455    84849 
   96355    99945    95896    85650    68532    43492    16094    -9615 
  -37661   -66221   -86844   -97401   -98987   -92340   -82606   -74664 
  -66857   -55045   -37984   -17603     3044    19467    25314    19373 
    9536     2308    -2850    -5252    -1971     4318     8670    14214 
   27171    44012    57793    68367    72688    63791    45225    26061 
    7969    -8704   -18379   -18925   -15285    -7857     8166    28233 
   42845    51904    56922    55822    52188    49500    46232    45818 
   50480    52218    47337    41128    32604    16656    -3855   -24363 
  -42510   -53175   -55965   -54720   -48491   -39610   -33900   -32252 
  -35332   -42274   -48390   -50999   -48540   -39319   -22207     -760 
   14636    23158    34974    49817    62512    75806    88680    96407 
  101702   107137   109126   106696   100285    84304    57696    30565 
    6912   -17966   -39700   -51706   -59668   -67680   -70597   -67502 
  -60659   -47765   -30720   -18399   -14518   -16782   -24711   -35671 
  -42287   -41640   -36759   -30253   -24600   -21683   -20428   -19108 
  -16117   -11085    -5637      375     7422    14135    20862    28721 
   36313    39657    34045    19031      326   -14955   -23074   -24367 
  -19737    -9858     2105    13764    24924    32524    33822    31288 
   29093    30910    35326    34920    32252    37925    47875    54925 
   65702    79736    87942    92123    94253    90886    86079    81772 
   69529    49683    36479    33141    27403    19915    21360    23811 
   17940    15417    20904    21123    14196    11440    13063    10956 
    6013     -177   -13104   -28931   -37272   -39103   -37371   -28101 
  -11764     3537    11986    16584    19616    16904    10756     4124 
   -9772   -27953   -40745   -53266   -68836   -79380   -85118   -91829 
  -98086  -102382  -106368  -107779  -105016  -102306  -102245  -103904 
 -105924  -108231  -112579  -115656  -111200  -100417   -88383   -77050 
  -66881   -58349   -49329   -37516   -25616   -16717   -10494    -6290 
   -3630    -1809      889     7040    17274    30953    48203    67987 
   87495   106193   125630   143917   157723   167345   172739   170827 
  163194   158841   159383   153641   140524   132351   125357   105643 
   80701    61883    40675    17246     7147     6197     1851     3880 
   19947    37742    52163    66091    70998    64411    58753    56710 
   53513    53244    56440    55714    48506    36420    22496     9797 
   -3459   -17084   -24984   -26351   -27092   -29830   -32942   -34784 
  -34210   -32186   -31370   -31000   -29907   -31929   -37743   -43184 
  -49916   -61104   -72819   -79190   -77105   -67517   -53919   -35761 
  -10907    15367    33751    41714    44072    43607    38484    29309 
   19686    11211     4156     -873    -3734    -4676    -3972    -1981 
     295      736    -2302    -6981    -9584   -10586   -13547   -17694 
  -18816   -16073   -11423    -5058     3845    13797    21811    26683 
   28033    24982    18715    11517     4973     1999     5025    11941 
   18544    24143    30855    37448    39394    35998    29655    19327 
    4749    -9870   -24630   -43148   -60312   -69847   -78114   -87193 
  -86195   -75559   -61543   -38269   -11553     1107      860    -4907 
  -17505   -32624   -42794   -46140   -40969   -26260    -6825    10989 
   25640    36146    39521    37340    32745    25035    15399     6352 
   -1011    -2170     3406     6833     5465     3489    -2985   -16896 
  -28804   -32622   -32251   -27391   -16767    -5600     2256     4839 
    1998    -1969    -5641    -8892    -6647      617     3834      345 
   -5924   -13542   -17397    -8391    13377    39219    63246    81692 
   89099    84916    73045    52325    24012     -353   -15753   -26926 
  -33899   -37536   -40059   -35740   -22638    -6334    13753    40577 
   68322    89447   105159   115781   114454   105527   100213    93518 
   81979    76339    76993    75069    69723    61648    48239    30536 
   10408   -13825   -37321   -49701   -48025   -30627     5096    49935 
   87447   107348   109344    99104    79091    46927     2754   -43469 
  -74871   -87133   -91571   -89247   -67913   -27791    13779    39464 
   45616    43982    41131    25385    -8804   -48118   -77838   -91402 
  -94428   -95695   -88724   -69311   -50726   -40761   -38546   -46481 
  -62165   -78075   -90012   -98142  -103894  -106304  -107840  -112954 
 -117648  -118775  -119660  -115041   -91818   -49265    -2506    31726 
   46641    50739    53574    52365    47830    47044    50127    57379 
   69431    80377    89252    96218    95349    89595    82107    66244 
   49140    43960    44765    47082    55892    65986    71652    72576 
   66567    55060    38675    18454     -379   -18926   -33782   -34675 
  -23959    -4283    28076    63253    87033    97824    99529    95641 
   86280    69171    50244    39325    34791    33066    42855    64966 
   85801   103821   119061   116331    94673    70022    44873    14086 
  -18212   -46624   -73513  -101312  -124084  -137569  -142059  -130260 
  -96573   -48145     2221    39568    56988    59622    50239    31324 
    9083   -14342   -36565   -52913   -62076   -66102   -65154   -53822 
  -30982    -1905    32924    68056    89374    95849    94516    78482 
   40053    -8546   -50450   -83837  -109009  -118372  -112110  -100959 
  -89514   -75592   -65210   -65881   -69838   -68014   -62483   -55275 
  -47103   -38635   -28700   -18303    -6904     7358    21744    33005 
   38774    37914    33983    30970    31555    37620    47809    60590 
   72345    76203    72474    65582    57083    51572    51700    56530 
   66258    72143    64213    48360    31948    11471   -13662   -32501 
  -35206   -27490   -19101    -6946    10584    20772    14329    -2405 
  -19928   -37170   -57163   -78704   -98054  -115438  -131444  -140685 
 -136833  -116585   -75582   -16648    39470    74841    93521   104657 
  109849   107694    97435    82623    66089    44778    15217   -22049 
  -59142   -86982  -105127  -113756  -110422  -100745   -94546   -93665 
  -95339   -99093  -102055  -100158   -95177   -90011   -85656   -84206 
  -85275   -86675   -89650   -93787   -89205   -61139    -8410    49081 
   95602   136027   173103   197566   202895   188705   166498   155027 
  153738   151099   149479   150092   145982   139629   132049   114424 
   89884    69014    49414    28800    15399    13548    21591    36874 
   54026    71427    91968   112796   127008   131302   127992   125218 
  129651   137593   142688   148705   159720   163701   146187   110263 
   67783    28102    -1822   -21928   -38478   -57103   -79819  -103390 
 -124071  -141452  -151630  -147752  -126942   -91371   -53620   -32221 
  -31816   -44877   -67069   -95464  -123710  -143897  -147672  -123824 
  -66372      788    38616    43328    36011    22725     2561   -25013 
  -62365  -101735  -132003  -150810  -162820  -171131  -173243  -173134 
 -174622  -167460  -139088   -80883    -2080    60525    88318    98300 
   99853    91906    72279    31334   -18548   -46046   -45513   -32426 
  -15384     5705    29237    51596    73300    92999   104898   108807 
  112677   121002   126096   127172   139992   161862   172753   178772 
  189892   186496   163252   144290   135622   127354   126411   139555 
  154721   161331   161633   158749   152332   143089   129269   107687 
   88084    84113    89092    92767   100135   106327    98263    84835 
   77787    72669    71336    80253    95329   107855   109248    98404 
   80717    58737    38077    15134   -22055   -58025   -76231   -86323 
  -83504   -63391   -49728   -54547   -73732  -107872  -152551  -200014 
 -245552  -282921  -305667  -312591  -307848  -294687  -274067  -245222 
 -202835  -145196   -83321   -31803     1753    17968    22115    15854 
   -2022   -30332   -68257  -116898  -169414  -193623  -160101   -93261 
  -33880    15417    60828    93247    93567    44846   -29628   -83933 
 -112797  -141392  -176154  -197413  -190422  -167266  -145741  -129371 
 -113437   -88178   -45984    10394    68042   110298   136482   160311 
  185432   204466   208276   192171   164234   136256   115474   110135 
  123300   146520   168925   188858   210044   226057   224006   195159 
  133185    48672   -17902   -34814   -17682     7002    39016    76248 
  106202   128413   145668   161462   189238   232171   269713   281630 
  271251   252193   234415   227367   219460   178416   104197    37090 
   -2873   -33765   -66354   -99967  -142611  -190631  -234651  -278140 
 -313919  -327220  -321027  -298925  -243891  -146744   -41131    26330 
   51039    57968    56905    46809    34208    27611    29231    33429 
   34782    31019    19904     5371    -3476    -4134    -5037   -13308 
  -24427   -35548   -51478   -67604   -68268   -45908    -9110    28300 
   58169    79762    93822    95779    82741    61556    42628    31437 
   21044    -1952   -34176   -56846   -57392   -27733    33180    99470 
  139266   152718   155962   154720   152700   152119   144643   123841 
   97629    75722    56094    32569     3378   -27759   -53987   -73139 
  -84599   -87203   -88901   -96783  -104700  -105539   -97522   -79121 
  -54065   -34098   -26983   -31110   -45705   -70060   -93467  -102933 
  -93712   -65158   -21602    22471    54130    74481    89796   101323 
  107606   103936    82980    45858     2583   -39982   -75320   -92702 
  -90549   -76801   -52475   -16342    20970    48093    66974    81109 
   85742    76899    50986     4546   -45621   -71838   -75331   -75025 
  -71700   -62109   -53351   -43199   -24648    -8029    -5043    -3925 
   13431    47375    85326   112319   120856   113052    90264    57224 
   24158    -2749   -20606   -27703   -23243   -12543    -4566     -304 
   -3824   -20970   -44117   -65396   -78937   -79503   -80213   -93443 
 -109034  -121157  -135280  -147190  -151649  -151475  -145710  -133868 
 -119458   -90299   -28603    47428    99805   124982   139601   143530 
  133719   111116    72239    19721   -30093   -56592   -53956   -33208 
   -4076    32596    76643   122399   162707   187923   191394   184661 
  179990   173799   165196   156238   140251   110264    67289    20804 
  -19544   -52564   -78399   -94673  -104557  -114685  -124171  -124864 
 -116456  -106538   -91436   -62569   -18456    41152   101776   135653 
  136882   121272    98929    69072    30187   -10057   -39812   -51579 
  -38258    -2414    37743    67509    81941    75124    41367    -9566 
  -55471   -88549  -116676  -143308  -161777  -162972  -146412  -114014 
  -65802   -14431    23638    49470    72694    93853   109005   119755 
  130224   141210   151138   159898   163324   152819   128356    87381 
   20485   -49439   -82753   -89813   -97374   -91666   -65526   -33373 
    1886    30503    39932    38185    34036    24649     7514   -13342 
  -30081   -36938   -35200   -28445   -12001    20268    60510    95250 
  121087   140455   155098   164201   163870   156360   147963   135302 
  112799    80892    40592    -2958   -42335   -77182  -107636  -129034 
 -141562  -150154  -154108  -151000  -145691  -142748  -137914  -128041 
 -116427  -102971   -86991   -75518   -74283   -80125   -88192   -96792 
 -105302  -114273  -124414  -134841  -144929  -152595  -152200  -139837 
 -115670   -81336   -42092    -5702    23795    44145    55062    63078 
   72517    80743    87933    94534    97447    98699   101642   104993 
  111508   124746   140340   155380   172293   189671   202909   209458 
  209389   203007   183092   139269    80878    36032    16112     7682 
     604    -8297   -20679   -30131   -36512   -45096   -44968   -24552 
    8924    42603    70191    89136    95939    87733    65741    35299 
    5071   -16620   -29508   -40949   -55144   -70780   -84865   -90632 
  -85423   -80403   -84678   -93525  -103772  -117290  -130449  -138807 
 -142822  -139969  -118423   -71596   -15381    27453    52923    70083 
   81236    85121    84684    77821    61885    44583    30340    15286 
    4111     5835    18262    37654    63351    85491    95215    99301 
  106012   113247   118836   126423   138660   153172   166086   178004 
  190827   199674   199343   191688   174841   139336    84420    23230 
  -30873   -72184  -100758  -119261  -129502  -130529  -121408  -105286 
  -89821   -83220   -88145  -103300  -127377  -154812  -177714  -190308 
 -187077  -170923  -156963  -152822  -150925  -144910  -133396  -114803 
  -90686   -66130   -44853   -26320   -11778    -7534   -15231   -31961 
  -57471   -88663  -119230  -145895  -164708  -172473  -172497  -166777 
 -153901  -138598  -124016  -102165   -67242   -24331    16919    49065 
   72785    92303   106861   115020   116413   109449    96597    86119 
   86601   100181   121303   143570   163405   178194   186669   188789 
  185506   179102   168928   154711   143730   140847   140261   136348 
  130856   125822   119282   111106   104050    96253    85156    75208 
   65400    46161    20534      105   -16538   -31288   -34670   -27441 
  -20477   -12926    -3441      132     -442     1427     1095    -3580 
   -7730   -14783   -28107   -40291   -49629   -61999   -73676   -78588 
  -79188   -75785   -67123   -57507   -47363   -34548   -22956   -14457 
   -7271    -3612    -7172   -17718   -30663   -42491   -55441   -70880 
  -84590   -94604  -102858  -109025  -113517  -119872  -127559  -132955 
 -137542  -142666  -143274  -134260  -108180   -54029    19817    80123 
  105563   105669    96555    84409    69789    50046    26052     7830 
    2962     6439     9229     8439     4441    -2741    -9791   -11947 
   -8903     -333    16090    35831    50393    59172    65904    67855 
   60825    50132    42688    37736    36389    41367    44890    35305 
   10699   -21857   -54179   -81150  -101126  -115532  -125245  -128287 
 -122847  -107782   -81366   -44275    -1888    38500    70815    91113 
   98544    95223    84730    71568    60505    54148    50796    45582 
   35178    22605    14748    14376    20349    32446    49602    69117 
   89238   108399   124329   136467   146937   156448   162480   164986 
  167519   169890   168778   164336   156864   143711   124326    98636 
   65347    30440     3977   -12956   -24529   -31756   -35222   -35393 
  -30062   -18188    -2816    12953    26696    33680    33924    34166 
   36038    39323    50143    70406    93068   112626   129531   143664 
