Origin Time       2011/03/11 14:46:00
Lat.              38.103
Long.             142.860
Depth. (km)       24
Mag.              9.0
Station Code      TKY026
Station Lat.      35.6707
Station Long.     139.8633
Station Height(m) -2
Record Time       2011/03/11 14:47:25
Sampling Freq(Hz) 100Hz
Duration Time(s)  300
Dir.              E-W
Scale Factor      3920(gal)/6182761
Max. Acc. (gal)   162.265
Last Correction   2011/03/11 14:47:10
Memo.             
[...]
  -50745   -60782   -66995   -66542   -61379   -51907   -35230   -12412 
   10116    29002    45456    58436    65439    67864    68998    69685 
   68534    64969    60657    55889    47435    34221    19813     5933 
   -8163   -20101   -26929   -29849   -31040   -29244   -20443    -2756 
   19034    37604    50659    57976    56564    44812    26756    11634 
    7276    12241    20833    31013    41024    46871    46044    40397 
   33696    26342    18115    11352     5730    -2454   -17355   -39995 
  -63446   -80812   -93592  -104069  -112505  -119677  -122841  -118353 
 -106794   -90104   -70232   -49676   -30214   -13879    -4596    -6635 
  -18625   -31459   -38361   -39510   -34014   -20643    -2874    16780 
   38266    58264    73057    82850    88298    89325    87537    85648 
   85435    85642    82730    74092    59282    42153    27692    15275 
    3635    -5756   -14415   -24962   -36934   -49067   -60419   -69835 
  -77731   -84770   -88494   -87907   -86169   -86287   -90067   -96027 
 -100034  -101033   -98145   -87212   -68122   -47000   -26990    -6962 
   10482    19246    16616     4867   -12541   -32179   -50126   -64933 
  -76047   -80472   -76275   -62907   -40920   -15825     5475    20023 
   26308    23569    14235      951   -14862   -31727   -50047   -68608 
  -83503   -93889   -98520   -95981   -90895   -85886   -77895   -67030 
  -54295   -38671   -23739   -13408    -6212    -1138     3637    12726 
   27498    45462    61711    72572    80408    87890    94117    99893 
  106915   113667   118558   121168   120369   116587   111172   105257 
  100907    98175    95235    92035    89302    85251    77320    66698 
   56003    45631    36157    30155    29134    30768    32204    32191 
   28847    21743    12583     1088   -14531   -35265   -60791   -87478 
 -110741  -129109  -141548  -145973  -139209  -119461   -93160   -67322 
  -41709   -17755     3809    26962    49779    66728    75390    71841 
   54182    27664      343   -19192   -26256   -24667   -19831   -13616 
   -8822    -9162   -12215   -11470    -6152     1275     9667    14848 
   14145    10398     4173    -5838   -18084   -31124   -43567   -53950 
  -63072   -68914   -67490   -62291   -59055   -56811   -54057   -50590 
  -41365   -23492    -4335     7913    11986     8874      201   -10543 
  -19766   -24938   -27136   -31038   -38912   -49257   -59579   -67119 
  -71660   -74955   -75414   -70189   -58730   -42334   -26360   -16809 
  -13901   -15738   -20685   -24194   -23068   -20388   -19433   -17605 
   -9925     4961    22617    37079    47242    54676    58293    57384 
   54252    50190    44449    36593    27854    21721    20261    20619 
   19765    19223    20787    21492    17411     8957    -1293   -12434 
  -24943   -38060   -48809   -55383   -58265   -57510   -53906   -49309 
  -43674   -34889   -21390    -5976     5725    11213    10846     6260 
    1276     -257     3280    11165    21003    31027    41737    53575 
   63776    67488    61210    47282    34518    27580    22451    16717 
   11467     6092      399    -4950    -9733   -13454   -18022   -25605 
  -33907   -41116   -48088   -53684   -55617   -53314   -47567   -39709 
  -31235   -21880    -8234    12091    35077    52186    58789    56961 
   50177    43122    42095    48627    59056    69287    76583    80574 
   81841    81147    80578    80613    79281    75564    68934    58405 
   44401    28117    10820    -3990   -12087   -12699    -8332    -2271 
    3468     8446    10939     7908    -1193   -13824   -26798   -38161 
  -48339   -59171   -69792   -75795   -73787   -63170   -46260   -29578 
  -19734   -17472   -18648   -18500   -14675    -9397    -7098    -9762 
  -16991   -27021   -36847   -43372   -44616   -42395   -40579   -38277 
  -32148   -23094   -14129    -8907   -12874   -27117   -45596   -61026 
  -68263   -67536   -64351   -61198   -57091   -52699   -48639   -45078 
  -42224   -38067   -30411   -20889   -14079   -12139   -13123   -15999 
  -21278   -26862   -29276   -26869   -20424   -11916    -2222     6844 
   10414     6162    -2694   -13299   -26714   -43175   -57672   -64960 
  -66624   -67818   -69930   -70802   -69394   -66756   -63178   -57045 
  -48328   -39851   -31895   -22409   -13089    -6613    -2575      -76 
    2778     9011    18520    29658    43110    59009    74348    85144 
   88603    84650    76817    69238    62953    57498    52319    45150 
   34940    24500    16098     9728     6381     7073     9542    10191 
    8385     5811     2736    -1491    -6058    -9901   -12745   -14436 
  -14593   -13028   -10227    -5484     1952     9222    14330    19528 
   24979    27500    25346    17395     3794   -10197   -17385   -13273 
    2845    26309    49621    68075    79971    85107    85298    82447 
   76175    65227    50676    35690    21713     8852    -1844   -11391 
  -22394   -33289   -40476   -44283   -47659   -52423   -57830   -62377 
  -67839   -76512   -85755   -92366   -95472   -91721   -79844   -66832 
  -58985   -55283   -53109   -51237   -48351   -43415   -37033   -32285 
  -31358   -32729   -35581   -40185   -43825   -44478   -42612   -37475 
  -29536   -21818   -15686   -10517    -5693    -2560    -4292   -10385 
  -15760   -17400   -16758   -16337   -17463   -20978   -26523   -30733 
  -30855   -28821   -28394   -31012   -34760   -36836   -36512   -33311 
  -25863   -15346    -4815     5749    17214    26326    30034    28770 
   23137    15098     6504    -5655   -21927   -35043   -38953   -32851 
  -18007      768    17077    28016    33255    34856    36243    37216 
   37042    38784    43638    48372    50516    50591    51342    55559 
   62378    69379    76500    82996    86664    88006    88497    86673 
   79897    66921    47379    22738    -1024   -17815   -27169   -29738 
  -24971   -15740    -7216    -2612    -2441    -4879    -8135   -12520 
  -15650   -11465     1163    17981    34934    47422    51820    48559 
   40576    31801    24671    18621    13016     7747     2327    -2201 
   -4520    -5420    -5231    -4156    -5169    -9910   -16517   -23912 
  -32072   -39915   -44479   -42685   -35710   -26777   -17385   -10889 
  -12125   -21591   -34944   -46678   -54169   -58419   -59498   -56299 
  -51153   -47588   -45435   -43222   -42043   -43134   -44619   -43322 
  -37094   -25244    -8182    12837    33324    46273    49054    43853 
   31578    12914    -8276   -26839   -37590   -37351   -28476   -15520 
    -170    15751    27131    28839    20092     6165    -6995   -19173 
  -30084   -34275   -29426   -21552   -18244   -20808   -24158   -24710 
  -25059   -26980   -27490   -25386   -22048   -16897    -8404     2962 
   14739    25714    35588    40786    38081    29753    20410    13626 
   10515     9928    11456    12880     8597    -2697   -16320   -27799 
  -34927   -37489   -36285   -31438   -22935   -12148    -2405     4264 
   10656    19653    29693    38865    48051    58299    66827    69147 
   66919    65618    65272    62802    57527    48937    35609    17113 
   -4979   -26555   -43603   -54841   -59159   -55168   -44009   -28148 
  -10373     4848    13680    15667    11834     2159   -13408   -32236 
  -49260   -60432   -64566   -62092   -53794   -41189   -26537   -11475 
    3703    20119    39298    60181    78783    91239    96775    98620 
   99377    97501    91578    82889    73392    65123    58684    52439 
   45981    39562    31235    20655     9635    -1440   -10207   -11969 
   -6338     2629     9455     8491     -475   -11234   -19425   -25023 
  -28300   -28932   -26468   -20392   -10265     4866    24632    44891 
   61281    73202    80325    80872    76218    69271    60408    50588 
   40048    25549     8429    -3582    -7473    -6710    -3480     1011 
    3383     2014    -1632    -7860   -18165   -31652   -46269   -60191 
  -72662   -83438   -89717   -89280   -84970   -80701   -77400   -73947 
  -68845   -61079   -50088   -35874   -18845    -1853     7338     3431 
   -9745   -26039   -41636   -52959   -57449   -53947   -42508   -25954 
   -8644     5705    14431    18192    21356    25856    29363    30988 
   30468    25200    14889     2852    -6653    -8867    -1603    12973 
   29914    42522    47668    49377    50901    49190    41142    27913 
   12536    -1234    -9372   -10978   -10872   -15697   -26969   -39197 
  -45059   -43078   -37144   -28526   -15922    -1609     8500     8782 
   -2290   -21558   -43926   -64498   -82327   -99924  -115546  -124514 
 -126487  -123398  -115771  -103794   -88117   -70634   -55962   -49039 
  -49911   -53828   -55900   -54144   -49420   -43566   -37839   -32997 
  -31265   -34541   -40223   -45008   -48949   -50933   -47985   -40109 
  -28018   -11201     7414    22799    33208    40204    44992    47423 
   49936    56220    65168    72755    77300    79480    80162    79759 
   77715    73401    67825    62800    61678    67059    75110    80769 
   84419    88150    91823    93636    93077    91397    87251    77224 
   62091    46226    32417    21938    15580    12634    11927    12696 
   13162    11374     6651    -1241   -10301   -16538   -19195   -20651 
  -21675   -21416   -20610   -20300   -20960   -26096   -37763   -51397 
  -62391   -69589   -73841   -76578   -75244   -65818   -48576   -24697 
    3746    28186    37686    26179    -4048   -38901   -63857   -80737 
  -96497  -106996  -105978   -92512   -66195   -28371    14299    50808 
   71956    78658    79540    80527    80283    72904    53362    22529 
  -13190   -48954   -83221  -111377  -127204  -131894  -133555  -136634 
 -138311  -136085  -130979  -124162  -118404  -118141  -123074  -128128 
 -130652  -132398  -135146  -138720  -142327  -145462  -148452  -150017 
 -144835  -128024  -100214   -65827   -29589     3268    27553    40751 
   43883    41645    38308    32957    21917     3394   -16942   -27441 
  -23425    -9305    11344    36906    65077    94743   124563   150229 
  168597   180151   184595   182063   175206   164287   148615   130498 
  111919    95033    84079    80536    82315    85962    85714    78974 
   69673    59045    45998    35432    29685    24590    20443    19530 
   21760    29594    45681    69337    94281   110757   118167   122499 
  123592   120043   111760    96803    77440    57740    39499    26013 
   18331    16210    21838    32532    42088    48928    53264    51569 
   40579    23227     3065   -20543   -46899   -72697   -96910  -121768 
 -146765  -165020  -170298  -163090  -147435  -127221  -105905   -87648 
  -79715   -88732  -111563  -137762  -160045  -176410  -187540  -195785 
 -202394  -207214  -211419  -215206  -216989  -215959  -211219  -201844 
 -186633  -163209  -129040   -82667   -30976     8770    25976    24237 
   11718      739     1657    11240    21295    28153    31063    30081 
   24385    14638     2460   -14285   -36294   -57280   -69159   -66301 
  -46184    -9329    37999    80392   105752   116536   118331   112531 
  101931    90236    79072    69171    61729    58728    60072    62126 
   61811    57977    52764    52223    55960    54722    45826    36527 
   31660    30820    32401    34552    37514    44024    54861    68185 
   83340    99648   113383   121466   124406   123460   120820   118934 
  115348   107849   100776    97511    96282    92826    81853    60990 
   32593     3534   -17938   -31201   -42367   -56049   -75448  -100400 
 -123301  -138517  -149745  -159611  -164984  -165234  -161676  -154619 
 -146956  -140755  -134080  -126147  -118149  -110556  -105566  -108893 
 -122545  -139099  -149458  -153782  -159639  -167600  -170015  -165566 
 -156129  -136607  -104221   -66655   -34139   -11684     -973    -2548 
  -12419   -20773   -17571       20    27632    61206    98658   135834 
  168622   195116   212312   217101   208681   183507   129932    37333 
  -75809  -158913  -186420  -181705  -162758  -133011  -110590  -105635 
 -108744  -109119  -101555   -94110   -97191  -105572  -107785   -95995 
  -68676   -32477     6250    41420    64197    70058    58886    36425 
   14331     -867   -10644   -17029   -17489    -8308     9979    32001 
   48183    50882    39681    17055   -10608   -29913   -31396   -18249 
     809    18253    27856    25919    12931    -4278   -16599   -23545 
  -30329   -36618   -38825   -35874   -28990   -22403   -19905   -21107 
  -27004   -38429   -50304   -59007   -65257   -68744   -69138   -67014 
  -62697   -55591   -40710    -9991    38647    95682   143910   170804 
  177189   172233   166141   162632   153733   133003   107267    86584 
   75195    72597    73929    70388    53742    24740    -6155   -29644 
  -43156   -47696   -43863   -30598    -9956    10681    23665    25453 
   18953    10355     2170    -5461   -10164    -7749     3640    18020 
   25367    21564     9569    -4476   -16819   -30035   -48147   -73427 
 -105477  -137352  -162290  -181170  -195833  -206178  -212659  -214239 
 -209729  -195555  -158214   -83157    22231   120360   171608   165042 
  107506    20434   -47642   -61970   -41683   -25119   -23358   -23928 
  -19018   -13620   -12991   -15354   -16038   -13162    -5313     7528 
   17766    22133    25612    27057    27581    35101    50490    69489 
   85297    89191    81453    66390    37099   -10932   -63029  -103858 
 -134373  -159634  -178413  -192634  -203330  -204845  -200996  -190098 
 -155751   -96602   -27405    26174    38509    21615    14541    33913 
   71223   119742   167079   196429   215526   233126   241468   246721 
  249886   236505   209611   174244   125666    71429    23968   -12398 
  -34787   -45107   -51333   -53043   -45448   -29209    -4637    27065 
   62459    96752   120503   127809   123310   111643    91210    63384 
   33351     3285   -27282   -61928  -100925  -137332  -168658  -195501 
 -213741  -219683  -213791  -200089  -181516  -157575  -131501  -108899 
  -92768   -84994   -82127   -76749   -60485   -24558    28879    88399 
  139056   159835   140983    94713    39506   -10931   -48777   -71346 
  -76840   -63941   -37609    -5486    27305    50655    56955    51992 
   40602    25208     7431   -18872   -48148   -65276   -72264   -76416 
  -77985   -81752   -89713   -96307  -101506  -107559  -115148  -125885 
 -138412  -152362  -168911  -183414  -187589  -178265  -159172  -133004 
 -100020   -64659   -31605      280    29701    49821    61408    71017 
   76449    73022    66245    66420    74455    85740   101492   120966 
  140968   158847   169350   173983   176482   173494   165055   156952 
  152941   155167   162565   164472   148523   113699    69735    29990 
     672   -21432   -38332   -54470   -77180  -100627  -113612  -116333 
 -112744  -104312   -93500   -78469   -56794   -35433   -17663      -89 
   12581    14606     8533      625    -4592    -4907     3653    21911 
   45607    71162    92626   103047   102066    92225    72010    42363 
   11119   -15813   -41676   -71715   -97741  -112775  -124972  -135375 
 -140657  -141555  -132945  -114426   -92514   -70202   -46495   -19545 
   10178    39620    63547    78113    81578    72503    48140     3894 
  -55113  -112221  -154092  -180761  -198548  -205262  -202631  -203648 
 -211241  -221001  -227712  -220324  -192324  -140487   -64294    20496 
   82664    92359    48446   -16260   -67105   -88860   -84800   -73111 
  -67805   -63874   -52939   -35137   -14129     6708    22694    28063 
   24267    19765    21321    31962    50181    71846    93525   110780 
  120163   121434   113677    92065    50429    -9538   -73372  -119079 
 -130980  -113814   -84664   -53700   -20363    18064    57805    92880 
  121423   135883   124052    91138    56823    28740     6454    -6324 
  -17115   -39177   -69959  -100138  -121335  -126467  -118024   -99552 
  -71973   -43372   -20503    -2151    13520    28760    46917    68764 
   94258   122893   148840   167289   180113   186051   183618   175561 
  161930   142695   111755    63654    14671   -19815   -42999   -54963 
  -52560   -38065   -11917    22414    55858    81846    95646    92768 
   68521    20437   -40579   -92628  -122256  -129972  -121283  -101519 
  -74000   -41736   -12155     4322     3650    -8981   -24847   -32949 
  -22662     6841    44579    78726   103647   116135   114614   103905 
   93650    87198    78724    65397    50989    37367    23754    10307 
    -231    -3196    -1238    -3865   -15825   -36482   -61941   -86353 
 -105162  -115886  -119686  -119586  -115763  -106523   -91372   -69303 
  -39687    -8521    14329    27163    37142    48355    57894    59912 
   49873    30375     9955    -4475   -10266    -8427    -2214     5542 
   13750    24250    40555    61482    74500    60475    21350   -13105 
  -32491   -54130   -77498   -96432  -122374  -154481  -177420  -179211 
 -151100  -101515   -57803   -34960   -20714    -1854    18171    36448 
   53826    66964    74951    77735    76373    79415    87561    86604 
   75552    61874    34581     2954    -7819   -10839   -10970     3141 
   14906    20002    28537    35689    36720    31943    20984     5037 
   -8195   -15417   -21533   -25253   -25079   -32230   -53466   -76356 
  -91302   -96166   -87878   -71716   -50485   -24194    -3458     7251 
   14055    18920    18870     7772   -18100   -55250   -93904  -117754 
 -118126   -95674   -42607    33462    95919   125217   130785   121155 
   95683    53333    -2051   -62298  -112442  -139791  -145680  -134665 
 -110332   -80959   -52033   -25996    -7046     7767    23610    35729 
   39946    37221    27887    15317     4413    -2007    -1703     6126 
   21252    41208    60797    77726    93882   111849   130981   144747 
  147109   139025   124758   109116    94770    77384    48829     4139 
  -49773   -96693  -130807  -155442  -168424  -169123  -163101  -154162 
 -143938  -134191  -127747  -127129  -129285  -128328  -121867  -110675 
  -97559   -86584   -79637   -73479   -62898   -45236   -20244    10172 
   41486    67231    81990    83164    68033    34869    -9931   -49260 
  -66386   -61010   -45298   -26212    -4736    14763    26377    27802 
   20530     8548    -4442   -15744   -22789   -25731   -26673   -25564 
  -23258   -22738   -24125   -27587   -36569   -52463   -72683   -92991 
 -108182  -111418   -95576   -62122   -26126    -2715     6041     5904 
    1931    -4937   -17594   -35197   -50154   -56008   -52708   -43197 
  -26676    -1117    30365    63371    94215   120321   142886   162529 
  177421   186925   192495   195931   197364   194112   181180   155136 
  118745    79576    41887     7523   -14656   -19776   -18203   -17528 
  -18505   -24412   -31773   -35513   -39133   -44617   -50208   -55047 
  -58075   -59911   -63740   -69337   -73202   -75084   -75400   -72776 
  -69045   -68454   -73398   -84927  -101379  -117181  -127480  -129493 
 -121350  -104162   -81939   -59212   -39647   -25362   -18043   -20315 
  -33584   -55795   -82085  -106728  -124705  -132245  -129258  -118947 
 -103476   -85907   -69609   -52506   -33429   -16428    -2562    10176 
   22504    34658    45540    53754    60179    65999    70512    71700 
   68661    63957    61680    64142    71032    78660    82477    81939 
   78694    73722    68777    65176    63186    64230    68958    75747 
   83550    92724   103691   115879   127479   137066   143683   145510 
  140808   128635   109610    86989    64583    44896    30083    22750 
