Origin Time       2011/03/11 14:46:00
Lat.              38.103
Long.             142.860
Depth. (km)       24
Mag.              9.0
Station Code      TKY028
Station Lat.      35.6698
Station Long.     139.7891
Station Height(m) 4
Record Time       2011/03/11 14:47:30
Sampling Freq(Hz) 100Hz
Duration Time(s)  300
Dir.              E-W
Scale Factor      3920(gal)/6182761
Max. Acc. (gal)   195.142
Last Correction   2011/03/11 14:47:15
Memo.             
[...]
   35203    38200    25010     5536    -8098   -14609   -15133    -9394 
    1164    15281    30373    40101    39827    32393    25329    24468 
   33078    49072    64885    75822    78004    68952    55659    43022 
   30436    25192    31166    36896    29093     6485   -17285   -29286 
  -32936   -38686   -52701   -71679   -84896   -87522   -79465   -60725 
  -40628   -32638   -36798   -40615   -38524   -36638   -32951   -17663 
    6176    27028    38901    42576    40098    31594    24514    26100 
   28795    28248    29178    30125    27386    20347    10958     1815 
   -8060   -15737   -15448   -12405   -16420   -26884   -36595   -41810 
  -39571   -28132   -17412   -20711   -35220   -45696   -45215   -41003 
  -36130   -24780   -11186    -5730    -5599    -2675    -1137    -8258 
  -14771    -8853     -451    -5913   -25455   -46675   -58120   -60257 
  -59585   -62062   -74959   -94546  -108496  -114430  -114741  -110625 
 -102073   -84363   -61181   -47183   -47103   -49978   -39376    -7108 
   33696    60966    70982    74960    79578    85940    94321   107389 
  127070   145851   149488   125082    77381    37683    31139    49813 
   69683    69577    41511    -2270   -38295   -46389   -28015    -8062 
    -149     3317     6063     8981    14989    21355    30952    51282 
   74557    83561    70682    41999    11894    -4069     3654    26044 
   35821    21851     2176   -13425   -34649   -60442   -73008   -63290 
  -45025   -38659   -53479   -86505  -121324  -135388  -123961  -103814 
  -85633   -67273   -54405   -52341   -51716   -45975   -35346   -19509 
   -5155     1357     3199     3619     3791     6449    14432    28988 
   46623    58790    57933    46217    35421    32519    34587    36392 
   31860    20478    11188     7320     2538    -5956   -16634   -30668 
  -46290   -53668   -49457   -42366   -35131   -23879   -10979      342 
   10481    17103    15853     7624     -726    -6411   -14844   -26089 
  -29038   -18319    -2664     7964     8847    -1100   -13504   -14934 
   -5842     3466    14505    31419    42587    38737    31864    37047 
   49136    52655    45848    37509    30066    21550    15068    17430 
   29164    39116    36742    27844    23827    21565    13443     3340 
   -4416   -14007   -25955   -31011   -25937   -24881   -38724   -52972 
  -48531   -29510    -9130     8644    21143    24106    19301    15061 
   18559    26525    32377    37650    39791    29448    10118    -4503 
   -8539    -9575   -18017   -27873   -29296   -32005   -42758   -48731 
  -41461   -27974   -21455   -27948   -37928   -41382   -38850   -33831 
  -33404   -38501   -33288   -11927     6660     9007     6323    13307 
   24480    25537    16796     8453     4240     2582     1621    -3044 
  -12855   -21487   -26319   -30907   -33597   -27945   -10915    10889 
   24858    26714    22262    17132    12637     9382    13534    32393 
   60369    80357    82768    73085    60670    51408    46548    41643 
   33151    22642    10607    -5062   -23751   -40611   -50107   -49467 
  -42039   -39485   -49848   -64804   -73807   -77401   -76273   -68531 
  -58961   -53896   -50925   -44067   -33845   -24382   -17424   -11995 
   -6387    -1148     6596    21575    34483    34322    30682    35463 
   45008    51832    51561    44150    32584    18411     7342     3530 
     -48    -7849   -14694   -16504   -19383   -34751   -58404   -73352 
  -76716   -75479   -70780   -67088   -71278   -74698   -60352   -31791 
  -10453     1005    20050    47707    68706    78018    78826    72909 
   63195    54980    55357    65064    75166    81098    83927    78622 
   59582    37797    36288    54745    63677    49495    27063     8975 
   -1890    -3945     3703    18223    29261    29367    21144     8313 
   -1617      431     9936    15525    15490    14732    12952     6625 
   -3164   -16292   -34343   -51014   -58563   -56480   -48418   -43656 
  -49302   -59367   -66394   -66259   -56128   -45983   -47949   -57842 
  -65157   -64216   -57551   -50447   -39050   -22919   -12045    -6398 
    1160     9816    15953    14766     3659    -9240   -14008   -10061 
   -4131    -1688    -1433    -2206    -5450    -8027    -8618   -12557 
  -17447   -14926   -12211   -23539   -41018   -44712   -36843   -35039 
  -38339   -33697   -26081   -24400   -19549    -8343    -2803    -2682 
    3396    14359    20257    20109    19046    14576     5822     5572 
   18163    26811    21777    12854     8046     4143     -992    -1352 
    5179     8109    -1306   -20523   -41270   -53729   -54871   -48327 
  -34538   -17752    -9766   -14160   -20243   -16509    -4115     7549 
   13328    11998     1864   -13266   -22868   -27084   -38074   -51097 
  -45866   -22321    -1759     3903     3610     9976    21703    31349 
   37131    36977    30569    28298    37464    48065    49368    48210 
   55208    65163    68324    66276    61860    54838    51608    55591 
   58392    54217    44698    31274    17501     8043      688    -8816 
  -17484   -20367   -19479   -19338   -18212   -14602   -16295   -27006 
  -36309   -38641   -43638   -54891   -56681   -38995   -20757   -22056 
  -33897   -39243   -34048   -21685   -10350    -7268   -12871   -23397 
  -30895   -29893   -22722   -13518    -7274    -7752   -15900   -33849 
  -54401   -57420   -34982    -6721       51   -18120   -40412   -51176 
  -48355   -31952    -7584     9221     6222   -11770   -28234   -34294 
  -34694   -31392   -17002     5721    18988    14190    -1232   -19008 
  -31252   -28750   -12065     9740    31080    46624    48354    34888 
   16060    10112    26988    53698    75652    94577   111810   119859 
  112991    94430    71952    48650    27205    13763     5613    -8287 
  -29894   -50415   -62586   -64672   -56891   -42917   -34263   -38484 
  -46015   -48011   -50649   -57579   -60864   -51669   -31463   -11418 
    5125    23204    38585    43446    40562    41184    51392    63929 
   71947    74543    70716    66411    64766    55284    32976     5419 
  -17683   -31509   -41244   -52472   -62637   -70565   -78677   -85773 
  -86937   -82170   -79211   -80378   -80468   -78930   -77226   -69932 
  -48491   -15299    11960    20246    16443    14988    23639    41165 
   57269    59438    43404    18054     2329     6029    16589    21759 
   28745    42574    52921    52355    41893    24782     7655    -3113 
   -5223     1348    15370    34761    52937    58571    47298    27035 
    9559     3270     9263    18687    18019      582   -25542   -39827 
  -29102    -6761     3135    -6194   -24145   -39114   -51008   -65058 
  -74920   -70463   -54676   -37715   -29404   -37128   -54770   -62967 
  -52021   -35086   -29719   -35187   -39405   -38080   -33715   -26949 
  -19943   -18702   -22147   -19698   -10393    -5392    -7477   -11771 
  -18252   -27215   -34327   -36752   -35688   -30445   -20651   -11902 
   -6947    -2810     -548     -997     1453     9016    16485    19782 
   21045    26809    42761    66921    88723    99089    96961    85997 
   71827    59660    53820    56047    61287    65650    70008    69450 
   59117    44297    29698    12319    -7239   -16224    -6821     5290 
    3665    -3588    -1969    10224    24307    28972    25747    27646 
   37141    44098    40191    25153     2869   -21133   -37740   -44729 
  -50997   -58115   -58519   -53692   -54965   -65945   -74055   -68937 
  -61716   -66199   -74553   -74314   -65983   -51759   -33775   -19587 
  -11320      458    19004    28789    22776    21520    38181    56659 
   61223    56746    53910    53217    47332    35021    25381    24175 
   26769    28588    31381    34497    30825    18056     3006    -8601 
  -16683   -23523   -32699   -44974   -54420   -55589   -48058   -31849 
   -9900     8991    19149    22588    23325    25205    30711    36644 
   36210    29016    23253    22012    18952    12064     5393      474 
   -2603    -2088     3950    11824    13167     6457    -4018   -15323 
  -22777   -25262   -31033   -42429   -49697   -50353   -51102   -49497 
  -41012   -34795   -39457   -49192   -57380   -64462   -67122   -60879 
  -52516   -52158   -57145   -55751   -45882   -38461   -37192   -32353 
  -21012   -12129    -7985      152    14839    27764    37285    50548 
   64330    68773    65918    65523    72551    82891    89091    90086 
   86928    80302    78031    84869    90689    88698    88406    93738 
   92743    79098    59731    42108    31826    32583    38167    37052 
   25097     8680     -329     1055     3015     -473    -8336   -22053 
  -42310   -63373   -78644   -88190   -95687   -99023   -94582   -89481 
  -93530  -102037  -102998   -94848   -85963   -82819   -80147   -69236 
  -57267   -57529   -68436   -79226   -80643   -71522   -62427   -58393 
  -51967   -41559   -29336   -14049    -1800     1183     -157     2797 
   12419    20216    22118    26703    33518    34970    32541    28331 
   22932    20033    24591    39677    55701    59468    53965    46181 
   38947    38176    44177    52100    57372    51009    35281    27901 
   34787    49617    67687    80595    81610    72895    60036    53716 
   62381    78548    88988    88480    79560    70403    66566    61928 
   49408    34706    29263    38542    55403    62010    49780    30474 
   18264    10774    -4762   -28682   -44923   -44896   -39206   -39604 
  -39943   -25207      537    14465     7544    -8337   -23923   -38630 
  -48099   -47279   -44715   -51774   -59113   -50519   -34504   -30857 
  -34654   -27901   -13258    -2739     7230    20756    27649    22977 
   15800    13767    17267    24908    36514    47970    48472    35211 
   20578    13863    11580    10782    15237    23031    22606    11720 
    5390    12169    22208    28139    32201    31857    24483    15918 
    9306     2471    -3990    -6662    -3297     1801     -579   -14766 
  -35215   -49905   -53148   -50356   -48090   -50645   -57658   -63079 
  -65318   -67233   -70275   -77183   -87508   -95361   -96474   -88607 
  -74852   -62044   -49197   -35936   -28769   -28308   -31300   -35735 
  -37067   -31291   -18870    -7547    -5470    -6357     1413    16368 
   27070    24571    13333     6286     7892    18133    37343    58195 
   75077    90262   103597   112737   115320   109985   100376    87327 
   70927    61527    63442    65998    63875    59490    48080    20687 
  -18439   -49846   -61424   -59465   -54200   -51127   -53443   -61329 
  -72387   -82118   -84852   -82211   -80880   -81312   -84121   -91859 
  -94754   -78025   -42710    -5941    17985    32421    43978    50187 
   54820    62342    68120    76577    91427    99758    98235    98968 
  103865   104356    97650    91610    96816   111303   118409   106733 
   83684    64640    57769    59459    59573    53690    43442    25917 
    3186    -8389    -2224     7871    13727    20048    28989    38076 
   46189    55358    62207    59205    53637    54929    52092    35445 
   15398     5601     1829   -11589   -30379   -35083   -27627   -25434 
  -34053   -48530   -63760   -75364   -77813   -71522   -70896   -84037 
  -98258  -101904   -89660   -60430   -34244   -31732   -44804   -61391 
  -76578   -74760   -53762   -42940   -61436   -89117   -98696   -92857 
  -90837  -101372  -122775  -145429  -156149  -153649  -149371  -154838 
 -171499  -189965  -205067  -219505  -228633  -225517  -211372  -188722 
 -163991  -148044  -143801  -144341  -138263  -120340  -100406   -87536 
  -77427   -67394   -61435   -57731   -50173   -39977   -32678   -25960 
  -13940     1616    16243    28552    38709    50571    67730    86515 
  102794   118392   135195   150012   156900   154933   150952   147828 
  138149   118971   100119    88497    78289    64852    55851    58513 
   63754    58961    48318    42419    44596    55632    72898    92774 
  114699   130636   133157   128338   118523   103410    96501   104410 
  110799   100056    78172    63822    61948    55817    34676    10945 
   -1541    -4219    -2769     -196     1465     4692     8811     1576 
  -23776   -56702   -82071   -89996   -82314   -74964   -77815   -83406 
  -84277   -82870   -84887   -91760   -99399  -102050   -96818   -88431 
  -81706   -71781   -53837   -27461     6898    40033    62118    76772 
   89061    98954   106716   110408   106971    94693    75155    56994 
   47623    42735    31811     9767   -17569   -39116   -51354   -58060 
  -64449   -78489  -101804  -124740  -136429  -134308  -133882  -155783 
 -196290  -230290  -236987  -216082  -185166  -159189  -139909  -124902 
 -107728   -80560   -48073   -18498     5052    16931    19389    24315 
   35779    50878    68625    89427   109159   120283   121961   117452 
  107916    97595    90022    82577    77168    79034    85202    93684 
  103332   102711    87444    70134    64392    73870    86613    86655 
   73231    52805    31952    23950    34564    49771    55904    55989 
   58953    64043    63425    60500    67315    80779    88807    91767 
   91643    83485    73069    73672    85265    97976   105439   106434 
  103515    96562    77570    47743    25399    16909     9144    -2285 
  -12034   -20393   -27029   -28391   -25555   -20442   -10386     4504 
   15264    10846   -10783   -38598   -57723   -62691   -56843   -45749 
  -37040   -36671   -43449   -50035   -49790   -46817   -50129   -58484 
  -68507   -85133  -111462  -143791  -175342  -198020  -210234  -219296 
 -228820  -236622  -243227  -249465  -254747  -262026  -275424  -293472 
 -308819  -310892  -292349  -258954  -222841  -189255  -160076  -137432 
 -116578   -85395   -40151     6258    41575    66199    84460    98552 
  109684   116770   117071   112829   112656   122640   138897   148143 
  136353    99465    48153     6393    -5997     3092     9602     4904 
   -3970    -7335     4214    25996    41381    47673    51094    52535 
   55906    67092    85455   100640    99972    84505    66083    52279 
   37614    13061    -7985    -8428    -7234   -23775   -41579   -48914 
  -55620   -67795   -83432   -93310   -89839   -79864   -70102   -58709 
  -47196   -37619   -27150   -16972   -11241    -7520     3857    32675 
   74084   107498   117968   105108    76511    44520    17525    -6694 
  -28601   -39429   -35337   -27566   -32635   -55167   -83036   -98103 
  -90584   -69368   -55921   -60873   -71547   -67169   -41593    -5044 
   29310    52534    63466    69743    76886    77025    60950    39988 
   40932    78287   135230   174746   176113   153697   131734   115415 
  101554    98315   109885   121892   122236   111968    90099    54285 
   14181   -14075   -22686   -16099    -2448    16311    35327    38684 
   19408   -12657   -45278   -60691   -43310    -7067    20300    29509 
   22703     5067   -12483   -24013   -30633   -29970   -19457    -7678 
  -10843   -36107   -74987  -109895  -123869  -113162   -90954   -75194 
  -73851   -83321   -97768  -109064  -107496   -97699   -95730  -108020 
 -131320  -157928  -170985  -156308  -122785   -94133   -79582   -68530 
  -52078   -29892    -2026    28436    54608    74662    92593   110459 
  125261   133986   138152   141354   143978   142207   132910   116157 
   93267    67670    42037    13370   -20465   -55082   -80367   -83720 
  -68467   -59493   -70954   -91127  -107774  -120731  -127696  -120674 
  -99624   -73528   -48949   -28217    -9858     9471    27130    41036 
   59672    89445   120486   138205   142609   145196   152881   164188 
  177610   194082   208221   212578   209303   198508   174230   141254 
  108363    74681    41299    17213     8575    11633    11912    -5669 
  -40850   -75649   -86489   -64656   -28406    -5833    -7896   -26165 
  -50827   -79711  -113239  -151109  -188932  -215715  -220843  -202246 
 -173235  -160637  -181456  -223525  -258733  -268141  -251154  -218777 
 -181852  -150997  -138644  -145668  -157870  -158844  -138879  -101744 
  -64529   -42229   -32299   -18844    11630    64023   130872   187917 
  210700   197717   168047   146394   144901   148929   136243   101811 
   54577     8604   -26540   -52724   -74669   -93483  -105780   -99673 
  -67643   -24714     5778    12533    -2446   -21518   -22493    -5589 
    3860   -15571   -54900   -89808  -110876  -115056   -94245   -52783 
  -11451    11837    19784    26874    36709    51993    80662   116555 
  147038   167878   180664   189803   195646   195782   192656   185879 
  169096   141907   112519    90968    79628    69011    52006    30470 
    8968    -6013   -15930   -30666   -51089   -72531   -96160  -122224 
 -146685  -170315  -198269  -227550  -249007  -260355  -261367  -246687 
 -217186  -181570  -140765   -91697   -43608    -9860     6697    13712 
   26586    56513    98722   140061   171276   190744   200830   205113 
  208743   214336   217679   211653   192422   160375   122306    87178 
   57496    37054    25991    11744   -10519   -41008   -85496  -134504 
 -168196  -178991  -175981  -176743  -191822  -215364  -229939  -225892 
 -210192  -192983  -182510  -181369  -177588  -161438  -142834  -139899 
 -158251  -178120  -174398  -143502   -93526   -38384    -1848     3291 
  -10018   -22714   -33961   -50654   -68618   -84929  -101395  -111809 
 -109119   -94144   -73753   -55772   -43605   -37662   -34013   -24768 
   -8082     9848    20417    19309    14456    17256    28602    47009 
   72939   100244   121229   134226   142598   151657   161465   169251 
  177821   184660   177370   155274   133199   121606   117541   105335 
   72804    31748     1308   -14397   -18382   -15322   -11790    -7660 
    2140    16150    28069    34529    34731    29962    23718    19360 
   17671    15890    12107     6619    -1189    -9080   -10164     1567 
   25043    47037    53558    46521    33646    17646     3610     -695 
    9539    30204    47554    52178    44613    28294    10039    -2179 
   -6450    -3918     4462    15023    25417    39191    57363    72678 
   79672    80520    79049    78225    78152    74032    65271    59797 
   61693    67553    73473    72242    56410    27693    -9490   -54006 
 -101827  -144282  -174155  -190004  -193288  -184119  -162535  -129695 
  -88972   -50931   -28339   -23470   -27313   -28274   -21522    -9165 
    7676    25952    38926    48376    63304    86310   113687   139724 
  157313   165483   169519   169701   163893   152172   132218   105397 
   81384    66399    54738    34307    -1716   -46252   -87940  -124366 
 -150544  -156517  -145972  -130299  -114829  -106206  -110810  -123379 
 -133381  -137068  -136185  -132516  -128630  -129512  -139048  -154776 
 -165537  -157960  -129952   -93845   -67494   -63427   -78654   -94803 
  -94182   -75992   -52376   -33261   -21305   -13380    -5684      585 
    4277     7504    11788    19458    31874    46632    62471    79240 
   95619   112020   129116   143221   150916   155540   159330   158921 
  154067   147296   139116   129609   117225    98868    75811    54167 
   36752    20311     3346    -9942   -15312   -12784    -5093     4904 
   14467    22263    30264    38708    44547    47820    49136    47025 
   42930    39962    40601    45041    48761    49761    53077    62570 
   74398    80459    75685    59080    33027     5144   -16995   -32739 
  -47904   -67400   -85452   -92747   -91855   -88691   -82165   -75849 
  -76202   -78694   -78625   -81569   -92467  -109392  -124172  -127674 
