Origin Time       2011/03/11 14:46:00
Lat.              38.103
Long.             142.860
Depth. (km)       24
Mag.              9.0
Station Code      TKY023
Station Lat.      35.7259
Station Long.     139.8254
Station Height(m) 0
Record Time       2011/03/11 14:47:29
Sampling Freq(Hz) 100Hz
Duration Time(s)  300
Dir.              N-S
Scale Factor      3920(gal)/6182761
Max. Acc. (gal)   141.152
Last Correction   2011/03/11 14:47:14
Memo.             
[...]
   32439    23806    15524     5193    -8010   -22386   -35317   -44323 
  -47913   -47375   -44956   -43590   -44677   -42742   -34180   -24292 
  -16719    -9735    -5374    -8619   -15606   -19038   -20512   -20877 
  -16543   -10826   -10933   -16772   -21595   -23124   -24979   -28024 
  -30986   -32847   -31558   -26065   -18393   -12368    -9053    -5985 
     -10    10777    25334    41506    55686    63149    64287    63537 
   63609    63094    58824    52411    48328    48942    56678    72367 
   89522    97612    94039    84354    72278    61573    56349    52861 
   43312    25749     6068    -9440   -22238   -34537   -42645   -45949 
  -49367   -54040   -55725   -53751   -53492   -56220   -55792   -48847 
  -39162   -30825   -24962   -21827   -19247   -12202     -770     6115 
    2369    -7593   -17491   -23936   -24238   -19033   -13438   -12113 
  -12643    -8232     -229     3597      235    -9673   -23756   -36581 
  -41870   -37796   -31768   -30570   -29759   -23264   -12125     -903 
    8198    16100    20813    19195    13418     8026     7774    16924 
   34127    50867    57450    52561    42748    31607    19894    12345 
   11758    13192    13294    14960    18387    20750    22824    25273 
   27155    30986    37596    41621    41519    43964    53274    65294 
   73981    77391    74964    66657    57062    51519    49682    48214 
   43796    35195    25480    16970    10274     8713    12448    15551 
   16398    18183    17388     9448      543    -4716   -11537   -20840 
  -25980   -24316   -20394   -17995   -14821    -7454     2107     8237 
   10341    12211    11096     1141   -14918   -30252   -43904   -56800 
  -66151   -71056   -72308   -66049   -49291   -27584    -8592     7542 
   23894    37386    41805    37874    32650    29367    25458    19491 
   13993    10462     5207    -3908   -12389   -16997   -18538   -17049 
  -11533     -939    14122    30847    46736    59166    65853    68337 
   69784    70034    68031    64691    59242    49381    36454    25023 
   18080    15747    15378    13916    13285    15514    18710    24172 
   32015    36931    37449    34729    27850    19213    14923    14541 
    8518    -3973   -11994   -14528   -18038   -21721   -23577   -25361 
  -28316   -30749   -31523   -33471   -38058   -42834   -45488   -45390 
  -43475   -39549   -31920   -22785   -14963    -6596     1465     5434 
    6916     9300    13422    19121    24846    28381    27819    23580 
   19585    19296    22190    23506    19734    13825    10362     8455 
    4389      345      305      969    -1737    -6795   -12562   -17655 
  -19356   -16793   -12422    -7424       46     9092    13996    14418 
   17327    21648    20885    19642    26318    39041    49448    53098 
   50036    39606    25291    15909    15208    18416    19464    17395 
   12916     7158     4935     8263    12846    12832     4523   -10025 
  -24741   -35040   -39242   -35761   -24544   -13388    -9486   -10470 
  -14427   -21917   -30497   -36998   -37257   -30490   -24448   -23351 
  -21105   -13321    -2234    11313    29851    51230    69359    81587 
   85274    77532    62546    51059    52208    64095    75732    82363 
   89101    95739    93539    81948    70520    62752    53812    41587 
   29745    21398    15762    12032    12334    18481    26168    28294 
   23458    12860    -1049   -10843   -12193    -9355    -9516   -12928 
  -11207    -3900      376     1248     3795     8251    11600    13003 
   15542    19124    18233    11693     4103    -2592    -9792   -16878 
  -21161   -22783   -23916   -22853   -19441   -21215   -29754   -34378 
  -27978   -15414    -7234    -9363   -18421   -26942   -29393   -27424 
  -26512   -26634   -26842   -30862   -41852   -57831   -74002   -89324 
 -102586  -107697  -103113   -92081   -75261   -54204   -33167   -14400 
    4341    23907    38935    46707    50138    50994    48844    40387 
   25448    10806    -2383   -17031   -28259   -31264   -28227   -21076 
   -8333    11805    38403    65668    86916    99456   100551    88973 
   73072    61346    49794    32639    15080     3866    -2665    -3898 
    6121    21672    28203    25162    25833    36076    49027    57777 
   59865    55544    47757    39366    32656    27151    19189    12539 
   16017    26386    30865    24528    13841     6417     6816    16474 
   27671    29853    22733    11982     3097     -151      417      912 
    1460     3225      690   -10130   -21030   -26828   -30119   -30543 
  -29469   -30901   -36519   -43882   -47468   -46854   -46031   -46132 
  -44469   -37751   -26967   -14168     -250    10595    16803    22686 
   29490    31960    24852    11011    -2461   -11734   -14496   -12262 
  -10899   -11996   -11930    -7268     2875    16263    28884    37071 
   39891    40179    41827    46177    48882    43674    31715    19559 
   11380     8038     8122     9802    10230     7238     7076    15844 
   24310    20099     6726    -4042    -9444   -12967   -13294   -10433 
  -12619   -22242   -27814   -22415   -14084   -10858   -12305   -16648 
  -22244   -25010   -23145   -20110   -20348   -23968   -26322   -26475 
  -29228   -33814   -35032   -33670   -31099   -23627   -10683     3012 
   13795    19861    21071    20333    18723    12480      966   -10348 
  -20042   -31587   -42734   -48066   -46849   -39646   -26728   -10950 
    3894    14989    20738    22800    26785    35896    45531    50299 
   50901    48987    42380    28470    10061    -4895   -14489   -26107 
  -39896   -47094   -47636   -46322   -39930   -21391     9394    39552 
   56371    61908    63448    64571    66074    64016    51835    28515 
    5377    -4657    -7086   -15651   -30278   -44622   -57988   -66966 
  -61742   -42982   -29489   -32996   -42322   -47271   -54194   -66961 
  -76673   -78142   -75669   -70190   -56639   -32205    -1975    25177 
   47777    67935    82815    92687   100008   101608    94041    79352 
   66501    63312    68021    74726    79236    80801    79345    73984 
   69232    70293    71846    66218    57638    53521    50613    42908 
   29464    12783     1475     1332     7017    14942    26073    36300 
   41217    43478    46230    48714    51604    55095    55740    51436 
   39660    16062   -15919   -45767   -67968   -84075   -96054  -103503 
 -105587  -103322  -101534  -101720   -96590   -82479   -63765   -44569 
  -27820   -14090     -563    12767    22589    29830    38309    44770 
   40668    23608      323   -18996   -29628   -34991   -38911   -41823 
  -42836   -40371   -36781   -39398   -45440   -39326   -15859    15102 
   46075    72357    88331    94494    93943    86707    71547    47539 
   19919    -2640   -19267   -30026   -26996    -6577    23730    55617 
   84794   111231   135824   150699   147238   130385   109431    86508 
   59549    26746   -10516   -43844   -61451   -58048   -34879     2756 
   43509    75531    91775    92480    84240    69414    47053    23650 
    6671    -4940   -14099   -22216   -34536   -53569   -70005   -73303 
  -63149   -44632   -23782    -8213    -6410   -18924   -31537   -33547 
  -30368   -27152   -21641   -12105    -1416     5524    11479    24640 
   45516    68943    91495   108033   109793    91668    58630    22687 
   -7932   -33031   -53730   -67274   -69857   -63645   -54978   -44566 
  -25736     6161    46118    83232   106711   111764   103845    90413 
   73225    51459    21776   -20163   -68691  -111298  -143421  -167230 
 -185970  -200301  -203738  -191657  -168670  -144206  -124208  -101955 
  -68194   -24529    21602    57313    67971    53902    31806    16896 
    9774     1182   -12177   -23180   -23591    -8708    17567    37991 
   32595     1211   -32499   -51138   -57074   -58150   -61342   -62737 
  -54517   -43806   -34621   -21287    -7993    -4806   -11672   -14216 
   -1098    23831    53550    79743    96324   108502   118193   122573 
  124342   119132   100140    71963    39206     2554   -33359   -60026 
  -72095   -73032   -68956   -61274   -51120   -41930   -32971   -20008 
   -3379    10128    12442      751   -16869   -28527   -36153   -47740 
  -62915   -80815   -98155  -106907  -104725   -94231   -75924   -46016 
   -3719    41340    76356    96209   104409   105365   101313    96244 
   90797    79221    62399    51786    52202    54315    53859    55996 
   57640    55033    50016    39736    27821    26030    37816    59538 
   81208    88980    81016    64056    45160    36796    46445    63995 
   72496    70892    74257    85008    94365   105689   119916   128555 
  130614   126256   114132    99408    88902    85532    84181    77758 
   64973    47329    32056    25176    24115    28722    37960    45409 
   45952    34834    14329    -8591   -35607   -65009   -88984  -109298 
 -129372  -147409  -161173  -166987  -163771  -154357  -141610  -128141 
 -114817  -102509   -94082   -91393   -95122  -105087  -122698  -148615 
 -172317  -182658  -181670  -172163  -149950  -111375   -62106   -18605 
    8259    21837    26422    25967    30039    46107    74353   105460 
  125761   133679   136027   133332   123717   109657    95677    86440 
   84252    87428    98383   121190   148575   167764   168831   144822 
  101132    62803    53911    68798    84231    89417    89002    89512 
   84988    65930    39141    11789   -20798   -54291   -77342   -90551 
 -101314  -112379  -120697  -124002  -126445  -131168  -134239  -129274 
 -112089   -83696   -45541    -1045    30940    31230     8030   -16100 
  -32338   -42713   -48135   -51122   -53714   -52848   -45911   -36543 
  -32873   -34290   -28736   -11783     9131    26601    39383    50621 
   58612    59034    56578    57902    58743    53560    48934    53007 
   63165    74811    85972    93892   102119   114559   126661   137364 
  148830   158697   165903   168767   160737   139243   109540    78868 
   55095    46711    55084    71273    87839   104956   122439   136657 
  146255   153877   159081   155815   142976   128731   118389   109462 
  100078    91224    82846    72017    54071    25901   -10785   -45632 
  -67438   -79290   -89603   -95756   -93842   -91939   -98691  -111391 
 -128514  -152665  -177175  -192714  -198189  -197018  -191375  -180232 
 -165756  -154642  -147104  -139262  -133644  -135052  -146250  -166691 
 -184414  -184278  -173277  -173449  -186204  -195119  -194840  -187313 
 -168464  -132045   -78074   -20229    23100    46815    59181    71602 
   90440   111145   126781   136290   135129   118865    95294    77729 
   74262    83351    95397   103233   110181   121296   136235   155953 
  179566   200832   216077   221761   209193   171015   112924    62415 
   47441    60950    78416    88399    82206    60686    42758    38725 
   42346    43404    35590    19146    -1646   -19036   -27112   -24887 
  -19536   -27774   -56207   -94843  -131530  -154596  -155349  -134115 
  -98417   -59407   -21110    22636    64817    85507    85171    79967 
   75992    73994    72821    65756    47197    13626   -31187   -72739 
 -101489  -115549  -111258   -89590   -62525   -41722   -28970   -21809 
  -16518   -12717   -15501   -23921   -32866   -39193   -38386   -26649 
   -1519    35593    73242    99448   115171   125385   128084   121972 
  111409   102305    97640    94551    91144    90098    87145    72496 
   45981    17176    -3610   -12412   -14704   -16144   -12591      860 
   19600    37278    51738    63040    74551    88713    99204    94958 
   71654    38854    13493     1555    -1512     3816    16402    28538 
   33353    30875    28466    30602    33124    31335    23867    14447 
    8928     5718    -2059   -16150   -28856   -31188   -24844   -21909 
  -33448   -57317   -81612  -100478  -112523  -113498  -104452   -90662 
  -75282   -63453   -56877   -50202   -42500   -36953   -31290   -23070 
  -19553   -29437   -46933   -59414   -64681   -65910   -62495   -55216 
  -47842   -41775   -38133   -39406   -43198   -39455   -17573    21285 
   62629    93233   110197   112597    97050    68537    43219    34808 
   42645    56935    73943    95879   122734   151645   174457   183810 
  183469   180703   178239   175820   170561   159513   142177   121840 
  107371   105273   109760   108160    91388    60487    30022    16716 
   24573    46007    65977    66308    41569     6565   -22573   -45931 
  -71133   -97488  -119098  -135798  -148647  -155244  -155301  -151027 
 -147032  -148772  -155154  -160451  -162409  -163978  -166915  -164679 
 -149383  -122702   -91920   -64415   -47868   -44418   -49618   -62825 
  -85654  -110782  -127717  -134652  -136286  -138299  -143670  -150269 
 -154139  -151425  -139186  -117984   -90614   -61015   -33564    -8298 
   18184    44932    69393    94082   119966   143246   162550   179392 
  192358   196253   187956   170261   149694   132072   119291   110553 
  103333    92541    75241    56101    42870    39850    50152    73993 
  100787   115271   111947    97191    82222    78246    90668   113070 
  131909   136525   126040   110465    99325    93962    93211    93258 
   88042    73992    46437     2705   -48356   -91497  -116485  -123641 
 -123148  -122667  -122633  -125583  -132285  -138361  -141546  -143107 
 -145872  -149570  -150822  -148876  -147651  -153712  -165429  -172691 
 -170238  -155334  -125583   -87022   -51678   -27928   -15622   -11248 
  -13640   -21479   -33151   -46464   -57388   -65220   -70301   -68716 
  -57916   -37009    -3935    37465    78839   117057   152566   185206 
  212680   228999   230160   217316   194523   169207   146349   124762 
  105481    91191    79086    67197    57340    45910    28321     9082 
   -6202   -15646   -14138     3163    33154    67407    98487   123197 
  140083   147201   143946   127673    95762    56363    23517     3418 
   -9044   -24615   -48589   -75776   -96964  -107516  -108953  -103847 
  -94294   -80958   -59688   -24785    22424    66334    85856    77396 
   56718    38164    26090    21382    24792    35322    50120    66545 
   78809    76975    57541    25792    -9996   -38182   -49266   -44289 
  -30540   -12122    10471    34009    49822    49347    35312    20870 
   15541    23082    44189    68405    76792    61150    30744      571 
  -17623   -19695   -11875    -4807    -7220   -21658   -41317   -58891 
  -73716   -86890   -99444  -111707  -119749  -118701  -109167   -94191 
  -73124   -45977   -17775     6248    24235    35619    37313    26035 
    4051   -21088   -40749   -53068   -62136   -67456   -67284   -63911 
  -58429   -49532   -37021   -25872   -22724   -28925   -42653   -58677 
  -68974   -71406   -68581   -62048   -54899   -50787   -48506   -43576 
  -34575   -23550   -12331    -5003    -5793   -11452   -15960   -16243 
   -9408     5494    23868    39100    46653    45801    40787    34673 
   24486     7996   -14191   -37873   -51478   -50748   -46087   -44781 
  -46294   -48695   -45795   -30878    -9612     3940     5211      813 
    -686     6997    22552    36072    39363    32448    21002    14280 
   18827    30889    42622    52126    61733    72316    82038    88638 
   93047    97975   104118   111856   121385   129907   132625   125664 
  112856   106952   115323   133283   153645   171214   180681   180617 
  175086   162893   137051   101213    69443    47684    29150     6989 
  -17491   -39758   -58115   -73332   -86237   -96156  -102421  -104887 
 -101944   -94004   -85986   -81552   -79465   -77246   -75230   -76957 
  -85498   -99040  -114846  -132638  -150529  -166780  -181019  -192744 
 -202750  -209727  -210124  -200705  -177957  -143732  -109147   -86551 
  -77482   -74398   -72582   -70083   -65243   -58494   -50258   -40949 
  -30747   -18991    -4067    16978    42504    64852    78563    84233 
   86492    89818    95931   105798   118161   127325   129325   126865 
  126592   134364   151642   175247   198570   213630   216698   209729 
  196509   182483   174978   179631   195092   211978   221390   221675 
  214586   201145   182984   162214   136674   102230    63067    29413 
    6704    -6729   -16741   -27678   -39985   -53215   -64256   -68855 
  -66342   -56194   -40901   -30892   -34803   -52078   -76841  -102497 
 -122259  -130233  -127185  -119586  -110964  -100183   -85417   -66994 
  -46115   -22299     3547    27973    46939    56182    54334    42992 
   23478    -2924   -32805   -59066   -75567   -82258   -81054   -74008 
  -65209   -56061   -42762   -20910     9973    44678    75323    96338 
  106044   106912   103158    96068    85925    76024    68928    62028 
   52245    42273    35986    31538    25987    20589    16049    13138 
   16642    27424    39886    49208    53372    53491    51994    50676 
   51740    55925    63122    72799    80700    82635    80780    81568 
   88421    98640   106910   109799   107890   104091    99937    94797 
   86808    74266    57002    35727    12870    -7017   -20301   -24512 
  -21123   -17851   -20314   -30440   -48771   -70528   -90905  -108736 
 -122029  -128594  -128628  -123900  -112996   -93114   -65264   -31170 
    3806    29587    42466    46046    44630    40318    31427    17017 
     246   -14071   -20301   -17384   -11683    -6800      676    16111 
   41480    70673    94960   110087   115573   115356   115896   120322 
  125504   126210   123592   121001   117003   111100   100882    79245 
   47990    16921   -10096   -33634   -52363   -64956   -72127   -73256 
  -67401   -57619   -47193   -38356   -33344   -31565   -32462   -36499 
  -41786   -47324   -54340   -61929   -66098   -61336   -45278   -22700 
   -2320     8372     8194     1756    -8162   -20432   -31164   -37971 
  -42287   -44820   -44305   -37699   -23049    -3634    16432    33933 
   46346    55412    62757    68020    71851    74095    75526    78073 
   81865    87688    95010    99475    99153    95896    89898    78919 
   62691    43882    23231      770   -18816   -32823   -44185   -52777 
  -56456   -52612   -34856    -3841    28115    49758    58798    60858 
   61770    61002    54965    40226    14751   -17361   -45799   -64283 
  -75854   -83727   -86806   -83761   -71941   -48490   -15301    22376 
   59561    93077   120054   137723   147934   154445   158101   159181 
  157742   153157   145881   138304   133045   130971   132356   136421 
  139043   135856   128627   123184   121783   123168   122707   111488 
   86160    54138    24974     4603    -4769    -5355    -4254    -7618 
  -14355   -21805   -29890   -39575   -53161   -70295   -87066   -99930 
 -107549  -111255  -113860  -118282  -124398  -129502  -133620  -138211 
 -144245  -152836  -162784  -172488  -182151  -191179  -198184  -203018 
 -206674  -208881  -207520  -201235  -190745  -176911  -159451  -139095 
 -118298   -98689   -80445   -64527   -52722   -44208   -36487   -29015 
  -21088   -11720    -1104    12915    32077    52879    71661    88037 
  103146   119061   136333   153374   168861   181549   190424   195342 
  197063   198161   200703   204062   207647   211785   215372   214978 
  206883   192232   177730   166663   155926   144211   132830   121589 
  111134   103118    97762    94466    91207    84170    71471    54974 
   36542    16935    -1171   -13876   -19103   -18317   -15427   -14101 
  -16892   -24541   -36446   -50755   -63111   -69651   -70018   -66781 
  -62800   -58502   -54338   -51028   -45760   -36481   -27745   -26176 
