Origin Time       2011/03/11 14:46:00
Lat.              38.103
Long.             142.860
Depth. (km)       24
Mag.              9.0
Station Code      TKY028
Station Lat.      35.6698
Station Long.     139.7891
Station Height(m) 4
Record Time       2011/03/11 14:47:30
Sampling Freq(Hz) 100Hz
Duration Time(s)  300
Dir.              N-S
Scale Factor      3920(gal)/6182761
Max. Acc. (gal)   125.155
Last Correction   2011/03/11 14:47:15
Memo.             
[...]
   33132    24521    23056    27817    36537    45283    48201    45592 
   40386    31424    18943     7978     3451     4420     4970     1465 
   -5757   -14693   -20739   -19853   -14330    -9185    -6617    -9179 
  -19546   -33434   -42201   -42529   -38304   -38110   -49789   -69025 
  -79631   -74405   -63519   -56756   -54242   -51589   -45659   -40064 
  -38735   -38353   -34421   -24529    -9100     4256     9005    11440 
   19444    30059    38481    42220    38910    32900    30652    29047 
   22642    13303     5285     1247      292    -2713    -8155    -9472 
   -4008     4234    10812    15047    21442    33841    48461    58112 
   61090    60814    58729    55987    54204    51409    47732    44533 
   38730    29375    20202    13854    10506    10596    15061    20934 
   21806    17765    15971    20075    28241    36809    41849    43190 
   46646    54706    62554    68065    69999    66176    61729    61989 
   65047    68057    68142    61141    46819    29827    14179      117 
  -12477   -23732   -36514   -48214   -51917   -48799   -42747   -35916 
  -30668   -23953   -14818    -9896    -9581    -8949    -6168      285 
    6163     4289    -3504   -12959   -21326   -24192   -22168   -20567 
  -20534   -20345   -19674   -18127   -17278   -18838   -21394   -26409 
  -34897   -41904   -43151   -37503   -27772   -19378   -13736    -9997 
   -6884    -2045     4853    12858    20192    24514    25600    24967 
   23677    19690     9552    -6636   -22833   -28484   -19591    -6280 
    -224    -2630    -7675    -7407     1169     9983    13050    15971 
   22937    31952    40504    44637    43163    40368    38000    35942 
   36572    38983    39007    34574    25070    13484     5364     1827 
    -679    -7560   -17880   -21856   -16447    -5778     8530    19328 
   19181    12389     4428    -1590    -1788     2600     7196     7414 
    2409    -1606    -4315   -10447   -14538   -10468    -1886     6869 
   10073     1016   -13100   -16893    -5191    13818    24492    20692 
   12607    10193    15710    25066    33608    45897    63262    74117 
   70126    55305    41617    40227    48793    53952    49677    40861 
   32594    25818    17506     6123    -2324    -1425     6450    11781 
    7829    -1549    -8439    -9953    -7926    -7529   -12849   -21231 
  -28545   -35368   -42899   -49007   -49836   -43388   -33107   -26293 
  -26424   -30514   -34698   -35737   -30012   -19082    -9255    -4330 
   -6279   -14786   -25348   -33921   -37153   -33015   -25736   -22672 
  -26746   -33493   -34865   -25977    -9057     8013    20714    32169 
   44037    51888    54214    56218    61410    69047    77553    83838 
   85386    85217    87504    89304    86600    81121    73825    64613 
   56531    51564    49913    50241    46250    34842    23117    16395 
   12747    10571     6463    -2433    -9905   -10432    -7385    -4805 
   -2512     1683     9913    20954    27648    24191    14291     5622 
    -376    -8089   -17718   -25806   -34102   -44607   -55241   -64864 
  -71243   -72274   -72284   -74721   -73899   -63585   -46509   -30912 
  -22563   -19446   -15056    -7212     1381     7637    12831    22287 
   33805    37217    30326    22142    20681    22991    19797    10847 
    5163     6488    10279    11072     7101     2887     4028     7359 
    7142     5384     6491    11522    16887    15931    11024    12874 
   22671    32736    38063    39535    43450    51573    56233    52456 
   45044    42209    46309    50406    45725    32828    20110    11768 
    4858    -2878    -8144    -5439     4853    16579    26191    33162 
   37935    40999    38492    27304    13280     3910    -1270    -6572 
  -13918   -22004   -26054   -23687   -20904   -23371   -27538   -27209 
  -22673   -19314   -19238   -17449    -8023     6538    16495    17816 
   15575    14700    17102    20933    19282    10953     5602     8767 
   14857    16531    11544     6310     9631    20169    29927    32352 
   26566    21166    23378    28686    29160    23163    17389    20701 
   32166    42079    43908    37776    30380    30740    37815    41991 
   39452    34855    32787    33418    34712    32945    25508    15055 
    4435    -5561   -12362   -15543   -17974   -20768   -24647   -27975 
  -25285   -16702    -8362    -4484    -4154    -1631     5242    11060 
   11776     9162     6698     5681     4377     -999   -10370   -17320 
  -20438   -23828   -27144   -33030   -46925   -63081   -72176   -74863 
  -74822   -71507   -66005   -60098   -51766   -41403   -31122   -21103 
  -12740    -3902     9748    24318    34163    39011    38767    34595 
   29930    28046    30655    34804    36094    32897    26217    21084 
   21923    24979    23198    15257     7375     8036    17069    26175 
   30291    29526    26778    25406    25331    25306    27286    33136 
   39146    40322    38829    40694    46383    51351    51854    47578 
   43830    46396    52448    56167    56531    54014    49786    46225 
   45166    47811    52255    53624    49605    40712    28530    17196 
    9600     4092    -1814   -10118   -21101   -32029   -41593   -49735 
  -55162   -57970   -56750   -49785   -42697   -40081   -37321   -29840 
  -19145   -10736    -9622   -12719    -8974     6521    23718    29278 
   21112     9648     7289    14443    21175    21326    18852    21431 
   27463    27857    21343    16336    21178    34857    46281    47348 
   41118    35573    36740    43995    51999    58495    63647    67109 
   67128    60420    49093    40629    37219    35396    32783    28527 
   23527    19472    15564    10910     6474     2737    -1139    -6132 
  -13708   -25664   -40324   -54911   -69966   -82733   -85322   -76141 
  -64535   -59841   -60638   -58532   -49003   -37099   -31874   -32914 
  -30883   -20491    -2191    17554    26723    23668    18395    16016 
   17313    20997    21974    20265    17721    11175     1913    -2997 
    1311    12392    18362    12376     2661    -3961    -7687    -6905 
   -2547     1266     4262     7836    12517    18133    22342    25465 
   31165    38499    43595    43271    35915    26827    24584    31059 
   40024    44560    43859    41219    38265    32277    22968    18258 
   21584    26858    30532    32058    31203    29719    28044    26004 
   24215    22873    23259    26322    30241    31763    28669    22516 
   18953    21273    25288    26028    23843    19995    14045     7321 
    4023     7238    15382    21724    19654    11922     7068     8814 
   15901    21252    16598     8003     8410    19153    33415    42965 
   44770    44630    46025    46807    44272    40284    41668    48676 
   56966    65071    68236    63462    56191    50290    44006    35828 
   25955    16016     7994      207   -10254   -20565   -26190   -26494 
  -21207   -14028   -15410   -27789   -40480   -44651   -39464   -29914 
  -26910   -35148   -45055   -48230   -46606   -46681   -52535   -60698 
  -65722   -68140   -72346   -79578   -85875   -85579   -75249   -58498 
  -44362   -38102   -36688   -32094   -20215    -6975     -737     -828 
    1946    14696    33234    45924    47454    44665    45785    48521 
   45668    35272    24264    24037    34208    43314    45319    41947 
   40162    44680    50287    50593    45351    38330    34799    38095 
   45685    49542    44774    34970    26870    25087    30300    39720 
   47883    48320    39453    27629    22065    26852    38207    48072 
   51486    51790    54154    59455    66044    69362    67449    65264 
   63810    58556    50681    45278    43697    43967    42542    36877 
   28851    19684     6479    -9339   -22026   -29727   -34260   -38991 
  -45454   -50479   -51022   -48637   -47856   -49608   -49139   -44058 
  -38377   -37490   -41304   -42154   -33757   -19921   -10138   -10265 
  -17709   -24249   -26270   -29028   -35942   -41080   -38897   -31591 
  -22903   -16708   -16222   -16557   -11758    -5453    -2258      312 
    6560    16271    22458    18480     8149      260    -1256     1168 
     329    -6844   -14049   -16423   -17827   -24157   -35042   -43037 
  -42319   -35400   -27196   -17732    -5850     5401    12825    16484 
   18354    22252    29128    35082    39156    44092    51395    59815 
   64595    63328    59664    55445    48757    41427    37574    35912 
   34756    37461    43290    46878    48212    50274    53241    55378 
   53381    46934    43165    46426    51248    52433    50982    49661 
   48867    47354    44361    37803    27512    18791    13419     8068 
    3557     1219    -1398    -6067   -14351   -24578   -29511   -27487 
  -25344   -26940   -31313   -35407   -33107   -24164   -16632   -13880 
  -12711   -11456   -10796   -10336    -7995    -2450     4382     7710 
    4811    -1348    -6509    -8645    -9063   -14578   -27769   -40424 
  -46531   -46628   -43181   -40717   -39521   -35566   -29266   -23707 
  -21582   -23858   -24515   -16562    -2491     8692    10841     7121 
    6085    10529    15352    16407    16012    17922    22375    25935 
   24137    17689    12972    15135    23308    31981    35296    31049 
   23503    18820    20334    27092    31289    28339    22999    17995 
   11819     3716    -2755     -596    10206    21622    24541    15955 
    7035    11710    28611    46548    59071    66329    69968    70848 
   66068    54398    45709    48800    57889    58876    42645    16134 
   -5163   -13952   -14188   -17139   -29702   -44128   -50249   -48944 
  -46616   -47241   -50210   -52171   -53837   -59650   -70470   -82448 
  -87764   -81782   -70990   -61831   -55083   -52056   -49076   -41554 
  -33087   -26346   -22970   -27964   -40449   -54430   -65259   -69809 
  -69394   -68226   -68557   -71455   -74729   -71577   -58817   -41905 
  -30953   -30647   -32402   -25441   -10858     3318    12420    18686 
   28995    46821    65866    75528    73086    66491    65377    70655 
   74518    73552    73299    78165    86906    93382    92166    87200 
   85236    86306    86526    82950    78534    79811    87505    97712 
  106926   111289   108830   103612   100184    97235    93999    91079 
   85769    77685    68448    58342    50573    46526    38915    23367 
    9140     5803     9443     9860     2402    -9426   -19959   -26996 
  -29595   -27651   -24438   -23723   -27232   -36176   -49939   -63265 
  -70347   -72047   -75090   -82567   -90747   -94510   -90558   -82288 
  -76738   -72474   -63005   -47114   -29465   -18584   -18124   -18850 
   -9797    10966    36734    55155    60530    57323    50573    45492 
   44428    43603    41157    38645    36810    35275    34447    36105 
   39233    40813    40773    39960    40559    46692    56414    64272 
   68914    68912    64918    60897    56989    54010    54701    57016 
   56991    51657    40367    27010    15743     8716     5733     3670 
    1371    -2576   -11044   -20254   -25377   -25962   -20710   -13215 
  -11453   -15013   -18318   -18915   -16526   -13213   -10536    -6118 
    3374    17530    30394    37254    38747    36044    30801    25648 
   20169    12590     5811     3009     1631     -453    -4643   -10786 
  -10589    -1356     9195    18129    23028    23058    24698    25069 
   19147    13909    11220     9032    10829    13239     9192      -36 
  -10086   -17234   -17235   -11795   -10530   -19086   -32096   -42084 
  -46051   -45937   -47555   -52227   -58938   -69659   -79355   -79413 
  -70337   -59657   -56989   -64676   -71199   -66261   -52274   -38452 
  -33517   -36492   -38194   -36169   -34974   -35870   -35428   -30534 
  -23672   -21014   -25546   -34637   -41222   -40111   -32678   -22945 
  -16045   -15615   -18076   -16756    -8936     2478    10615    12399 
   12670    16212    23728    34882    45477    47704    41298    36647 
   41938    55597    70976    80908    82765    81385    83470    90772 
   98769   101005    95811    89531    88045    87334    82658    76195 
   69899    65423    64264    62612    58401    54540    51506    47461 
   40223    29159    17714     9076     3815     2054     2862     4396 
    5317     5794     6145     2596    -6930   -15571   -16644   -12235 
   -9233   -11564   -16476   -19310   -19941   -21911   -27975   -38037 
  -48015   -52248   -49988   -45392   -41562   -37431   -29802   -18112 
   -4746     8413    20829    31266    38950    46173    52135    53271 
   52218    52363    54980    62317    71021    76746    79461    77807 
   72488    64951    54266    44246    40238    41735    43902    42067 
   37921    39164    48400    58014    60718    58672    56336    53736 
   49218    38953    21448     3247   -10941   -23654   -37712   -54580 
  -73546   -88102   -93529   -94202   -94797   -96382   -99410   -99946 
  -94397   -86936   -82495   -79163   -71208   -56459   -39148   -27484 
  -25836   -28810   -29904   -27941   -23408   -19875   -21757   -27262 
  -30050   -25568   -16671   -11750   -14783   -21177   -22263   -13763 
     769    14549    21766    24591    33074    50646    70507    85256 
   93399   101346   117774   143734   171446   190842   195015   186059 
  173887   165793   165340   171091   171860   161738   147861   134614 
  121563   109531    98995    91735    88331    84465    75373    59990 
   40762    21316     3653   -12574   -27858   -42290   -56013   -66109 
  -67785   -61366   -52186   -45219   -41284   -36819   -31625   -30533 
  -37983   -57409   -82935  -100386  -107567  -114827  -130187  -153953 
 -176992  -188158  -186727  -180027  -175128  -174301  -173117  -167197 
 -156765  -143390  -130114  -119706  -109897   -98122   -85685   -70536 
  -48342   -20533     8479    35187    56766    73335    87220    96783 
   98043    92857    87178    85028    86159    84416    74812    62921 
   57658    58622    57819    51209    43135    39026    40213    44837 
   49186    52325    56981    64485    75383    87669    94656    94230 
   90600    86950    84851    83525    80600    75455    65930    51023 
   37143    28889    22311    12652       95   -11311   -19521   -27914 
  -38402   -45732   -44193   -35027   -23355   -12877    -4749     1943 
    8151    12898    13897     8729    -4003   -23165   -42212   -52559 
  -53796   -49756   -43015   -40301   -45767   -53412   -55148   -48194 
  -34612   -20207    -9962    -1570     9103    21238    30987    34430 
   33256    35493    46718    64159    79365    86734    87763    85912 
   78806    61254    36463    10648   -11932   -22744   -20613   -14394 
   -9771    -9738   -11979   -10702    -6054    -3497    -7232   -10154 
   -4020     3927     4860     1580     1749     8271    13697     8192 
   -7535   -25840   -42922   -56515   -63098   -67349   -78266   -93649 
 -105982  -114404  -120282  -122907  -118155  -101984   -80419   -62163 
  -49171   -40565   -30674   -10769    21548    59233    92211   117815 
  140500   161844   177781   182060   171663   152877   135524   123766 
  117443   113617   109048   104591   100024    92786    82810    69309 
   53485    41862    36688    32156    22298     7967    -3871    -5917 
    4150    19192    27337    25247    19435    17056    20067    24028 
   24424    23411    22003    14920     2759    -7479   -11664    -7835 
   -1266    -4377   -20848   -42916   -63619   -81015   -94674  -106192 
 -117590  -124265  -119978  -106942   -92483   -82278   -74057   -58477 
  -34170    -9789     9768    25860    40928    57418    74638    85439 
   83867    72046    56611    46169    43595    40535    31105    17591 
    1813   -13684   -25322   -32937   -36059   -34581   -33706   -35275 
  -31554   -18156     -823    14268    25684    35090    44685    54853 
   65190    76106    90294   111018   136380   158209   167168   161269 
  147827   134899   125516   117827   107991    93178    72855    48719 
   22905     -269   -16694   -28724   -38833   -43658   -40995   -33722 
  -27113   -27782   -37907   -48765   -49888   -43262   -38078   -37235 
  -42568   -57861   -77666   -93339  -101749  -101165   -94802   -88444 
  -84349   -85928   -94494  -103822  -103368   -87524   -66040   -53282 
  -51062   -53658   -55980   -53529   -42793   -20686    12265    49518 
   83944   108009   115916   110469   100006    91283    83444    73418 
   64162    57505    51503    44309    35934    30288    30122    36093 
   48127    58781    61097    57490    51566    46858    44433    39095 
   27953    12470    -4707   -20522   -31672   -33046   -23196    -7134 
   11464    27685    32651    26911    20246    20976    33441    53879 
   74345    91338   104447   113677   119591   122862   124203   124836 
  126226   129459   133381   134605   129145   113458    90152    69447 
   59735    60822    64728    61263    46104    24527     6142    -2851 
    -824     7344    13127    15795    18754    22108    27765    38947 
   53755    64969    68463    67889    64863    54655    36040    11840 
  -16465   -44552   -67006   -83978   -95820   -99474   -95549   -89704 
  -85884   -84071   -80740   -70708   -54815   -41593   -40465   -54441 
  -74513   -87899   -94576  -102285  -111619  -119162  -122873  -123473 
 -124728  -125530  -121058  -110955   -98163   -85748   -73801   -62992 
  -58635   -63032   -73214   -82849   -83911   -74289   -57091   -35820 
  -16358    -3319     5392    11547    12999    11998    13935    22641 
   40775    63315    79386    83352    76030    64219    59632    70300 
   95804   126433   146027   145077   125740    97299    72851    60032 
   58509    65455    75724    82557    80780    70957    56990    45589 
   48705    65253    78061    77761    63445    40637    26757    30709 
   44800    61332    71329    67885    58720    50972    40322    25313 
   11670     5620     9425    20506    31803    33531    25856    16590 
    7744     6621    21726    44331    64187    78937    82171    71642 
   57460    50832    54105    58940    53298    35154    14449    -2958 
  -17817   -26594   -29620   -35492   -47534   -60877   -70001   -75400 
  -82192   -91349   -98756   -99428   -90830   -75008   -58669   -49692 
  -45722   -36215   -19557    -1738    12516    20953    27013    34481 
   39219    33728    15022   -13428   -44257   -69154   -83991   -92599 
 -101882  -115256  -129772  -138138  -134566  -119143   -98303   -77326 
  -58635   -49340   -50879   -52134   -45763   -32532   -16656    -4087 
    6489    19348    31159    41374    55979    76056    96817   113139 
  122937   125891   121735   113910   108001   106503   108641   111479 
  113003   113718   115025   118391   120349   115372   104663    91008 
   76253    62609    50828    44453    45060    49402    56619    63853 
   65605    60812    53333    47619    42354    34862    27385    22830 
   23507    31714    45454    58033    64612    63567    56977    54129 
   61548    73737    81035    78220    67528    56240    48114    42244 
   39487    38213    29718    11076    -9651   -25743   -37273   -47702 
  -57581   -62996   -62778   -60064   -59278   -63696   -71440   -77709 
  -80700   -84691   -97030  -116025  -133214  -146685  -155698  -158631 
 -157091  -150001  -137421  -123805  -109425   -92009   -75686   -67106 
  -65952   -65492   -58991   -44573   -25075    -5714     8565    20070 
   34860    50710    64843    79026    88790    91818    95972   106970 
  122785   136216   139978   132757   117510    96859    73156    49647 
