Origin Time       2011/03/11 14:46:00
Lat.              38.103
Long.             142.860
Depth. (km)       24
Mag.              9.0
Station Code      TKY023
Station Lat.      35.7259
Station Long.     139.8254
Station Height(m) 0
Record Time       2011/03/11 14:47:29
Sampling Freq(Hz) 100Hz
Duration Time(s)  300
Dir.              E-W
Scale Factor      3920(gal)/6182761
Max. Acc. (gal)   124.467
Last Correction   2011/03/11 14:47:14
Memo.             
[...]
  -22123    -5498     9977    14565     3517   -12979   -26059   -33910 
  -32629   -23943   -15887    -9576    -1846     8663    21567    30582 
   28585    18205     7879     3688     7405    17158    30625    45960 
   62163    78783    89927    89111    76700    51809    15573   -18980 
  -39188   -44441   -38908   -24505    -4432    14100    25256    27184 
   21713    14782     7416    -4322   -16367   -23338   -27982   -32500 
  -36670   -39487   -34796   -21794   -10927    -7185    -9145   -16498 
  -22737   -21684   -16485   -10440    -4918    -1675     1218     9015 
   24673    45408    64995    77938    85248    90918    93304    93995 
   97975   101397    98845    89486    72729    51225    31151    15113 
    1112   -13603   -30214   -45754   -56862   -63343   -63928   -58339 
  -47314   -31876   -19188   -13866   -13433   -20306   -38039   -60284 
  -77912   -87504   -87691   -81651   -79187   -84588   -94317  -103425 
 -104383   -92163   -69693   -44280   -25525   -20032   -26405   -34874 
  -32501   -19397    -6685     2321     8484     9258     4745    -3387 
  -15298   -29286   -40373   -44037   -41486   -36485   -26637   -12146 
   -3926    -7231   -17915   -33414   -48224   -56798   -61189   -62623 
  -58914   -48561   -31468   -11077     8381    25412    39811    52711 
   62894    63348    50448    31223    16244    12208    22984    45548 
   66681    78337    82979    82848    83367    90515   101666   114077 
  125600   128092   117377    99136    80476    68770    69667    77913 
   86019    89976    82930    65650    47121    32750    24911    22001 
   19790    16346    12721     9845     4703    -4234   -15600   -26333 
  -27292   -14839     1677    14426    20518    18209    10472     -473 
  -14546   -23787   -18208      764    21783    33383    32379    22175 
    5837   -14959   -38889   -61454   -78711   -94602  -109813  -117807 
 -118061  -111853   -96210   -74008   -52422   -36381   -33101   -46282 
  -68753   -93622  -118069  -136039  -143823  -143162  -137368  -132265 
 -125008  -101756   -57709    -3359    37345    41229     9272   -44871 
 -102291  -134069  -137493  -137616  -137590  -130797  -126161  -124572 
 -120448  -114831  -109333  -107796  -110280  -107087   -89521   -57703 
  -18875    18925    53697    87594   118389   141407   154558   155171 
  142775   122120    99180    81537    74067    71795    67289    59596 
   53239    53977    61451    64418    54619    38929    23664     9523 
    1898      294    -2476    -7625   -18287   -37594   -54164   -55018 
  -37630      -68    49967    85837    96459    98113    92223    69712 
   43803    26570    14510     4339    -9011   -27403   -44252   -54738 
  -55671   -49319   -46383   -50104   -57310   -68113   -79507   -88748 
  -93764   -84135   -56361   -22046     8338    26589    28940    22737 
   16137    13646    15273    16085    15232    15890    17802    18321 
   19286    23869    29830    37178    49548    65409    82857   100714 
  113482   122909   135459   147946   157967   165090   162387   148307 
  127081    99265    69626    45910    26815     8708   -10508   -33972 
  -55546   -67608   -72669   -69038   -55013   -41315   -33919   -28235 
  -21686   -14552   -11799   -21524   -40505   -55407   -60098   -60277 
  -62432   -64159   -58372   -42890   -21536     -545    11582     5307 
  -21506   -60866  -104088  -143046  -168478  -180941  -187432  -188166 
 -182352  -170439  -150338  -123301   -93652   -61190   -21790    18091 
   40680    40086    30138    26523    26721    18472     1631   -19061 
  -42812   -64132   -75803   -79116   -78673   -74265   -67343   -60944 
  -53479   -44035   -29043    -3565    24933    48330    69846    91284 
  110727   128282   141390   146182   142711   132872   120443   108084 
   95725    89306    94876   105195   110077   106977    94277    76045 
   67947    75984    87373    92385    89816    79997    66682    53513 
   43987    39935    35716    28764    22084    13723     2829    -5871 
  -11075   -15412   -19561   -24943   -34823   -47584   -60777   -75232 
  -86034   -89484   -94036  -105216  -118517  -130872  -142155  -151968 
 -158183  -156418  -144848  -127033  -107875   -91181   -79154   -68986 
  -56387   -40210   -20884     -805    17040    29579    33414    27924 
   13697    -6788   -25827   -37494   -39865   -30000    -9370    14579 
   33950    41875    38086    27554    11207    -9573   -31121   -53199 
  -72747   -82431   -80908   -76891   -79817   -90568  -106356  -124793 
 -142303  -156496  -168967  -181824  -190761  -187051  -162878  -110746 
  -35238    31670    62429    71593    77560    74043    67084    71744 
   85004    98226   104275   100908    94926    89698    84161    78466 
   69965    55972    40457    28700    20587    16611    19077    24012 
   24344    17619     5862    -7606   -21163   -33299   -41368   -45688 
  -48019   -47118   -42588   -33194   -10053    27902    57562    57685 
   41131    30402    23903    19319    27422    45367    60893    70857 
   69773    46869     5509   -35058   -60674   -71263   -69307   -54108 
  -32633   -21766   -29354   -43242   -46635   -36314   -19415    -3741 
    3622     3920     5983    11806    16261     9353   -16377   -51738 
  -81975  -100497  -106812  -104046   -94393   -79462   -61133   -35226 
    1809    41505    72869    93644   106301   109383   101466    91130 
   82828    70505    58488    55961    58859    63601    73112    81592 
   82560    77683    66230    48925    31254    17852    17014    31381 
   45339    45101    36463    31236    31910    33329    28792    13283 
   -9594   -29412   -40064   -41433   -38370   -36995   -36792   -32427 
  -23685   -16708   -13202   -11511   -11790    -9864    -4347    -1210 
   -1100    -1388    -4281   -11573   -23578   -41339   -59704   -70134 
  -73513   -76780   -80589   -78919   -70782   -60095   -44536   -24986 
   -8217     9925    34195    56718    69728    67193    43270     6264 
  -23867   -36265   -36319   -35433   -38148   -41102   -43677   -46347 
  -44566   -36984   -24411    -5245    18598    43122    63707    74696 
   76097    73173    71719    79153    97125   118688   140706   159362 
  166476   163626   156514   144738   127564   101665    61965    17035 
  -13848   -25235   -27246   -26076   -24330   -27005   -34531   -42144 
  -44798   -40333   -29592   -13752     4784    22920    40659    61246 
   82194    92476    88758    78049    65510    57178    58085    61840 
   58968    44944    14468   -29284   -67260   -84616   -84065   -75293 
  -63585   -52183   -45240   -40624   -33024   -26467   -30443   -46191 
  -66396   -85493   -99866  -104993  -102068   -94666   -82704   -69624 
  -59511   -52005   -47269   -44711   -44077   -45963   -46891   -43259 
  -36451   -33028   -39810   -54530   -68878   -78399   -79454   -67352 
  -44719   -20390     -771    11430    17621    22189    26972    33520 
   44201    55089    58388    50255    32387    14155     6972     7350 
    1315   -11669   -22189   -28582   -31190   -26564   -15094     -316 
   17462    38609    59392    74746    82072    83149    83023    84649 
   90415   102715   116421   123290   122415   117398   111689   111628 
  123188   141588   155672   161706   161486   154782   139448   111939 
   73502    33680    -1149   -32034   -59587   -83107  -103464  -121896 
 -138492  -150225  -151725  -140239  -118756   -95860   -81350   -80241 
  -89266  -101480  -111561  -113324  -104546   -88424   -67337   -46507 
  -34225   -35059   -45716   -58237   -65436   -62345   -51172   -37881 
  -26984   -26248   -38619   -53943   -59871   -52593   -34253    -8725 
   15237    29058    32957    30624    24774    18840    15879    17231 
   21193    24045    24057    23061    25731    36158    53389    72891 
   90349   101119   101049    91805    81148    76984    83284    97741 
  114758   129543   135822   129833   114599    92978    64315    28766 
   -9209   -42599   -67902   -85072   -92708   -90044   -80957   -73073 
  -71448   -74240   -77354   -75526   -64971   -49507   -33227   -16741 
   -1257    12699    24192    33137    42353    51373    53557    43444 
   24878     7940    -1745    -7834   -16421   -29032   -46796   -68641 
  -85976   -89432   -73630   -40882    -4723    18985    25249    18735 
    2605   -18358   -33417   -34402   -19302     5780    28165    39659 
   38297    24901     4506   -17927   -37561   -48073   -51972   -56011 
  -57051   -50833   -40050   -27214   -13839    -1146    13067    31766 
   54727    77702    96475   109629   112827   100401    74268    43399 
   17710     3254     -678     1648     6425     8390     4723     -460 
   -4662    -7947    -8162    -7322    -8476    -7968    -1333    12660 
   34354    60611    82598    92250    84552    57834    18506   -20787 
  -45927   -52208   -48784   -43562   -39581   -42035   -52784   -63831 
  -67173   -63682   -52136   -30244    -5209    14470    25530    29063 
   25451    10678   -13742   -40331   -66684   -90986  -106596  -112609 
 -113056  -107146   -96476   -87142   -81756   -80510   -80658   -77313 
  -70242   -60996   -49765   -39940   -31980   -19751    -3159    12914 
   27412    38895    45666    47052    39901    21863    -2795   -24650 
  -37855   -43804   -47610   -53279   -61225   -72659   -87073   -99621 
 -109749  -117978  -121530  -120410  -114725  -101990   -78669   -41094 
    6032    48323    75304    85847    80457    55909    11370   -41397 
  -83657  -106180  -111761  -106192   -93778   -79534   -67260   -52413 
  -30890    -6163    19971    42114    53923    60899    67865    72889 
   76151    79873    85172    90829    95601   101061   109110   118423 
  125828   129127   126909   118281   103184    83775    65744    53888 
   48466    48519    53381    60773    68210    74704    77846    74225 
   64886    53151    39779    25703    13303     4587      354    -1634 
   -4947    -9928   -14521   -17060   -15432   -10132    -6308    -5843 
   -6008    -5181    -1959     3768     9076    13349    19916    31053 
   45266    58383    65923    63402    47210    19843   -10174   -34662 
  -48282   -50616   -47602   -44625   -41126   -35713   -28397   -17514 
   -5074     1187    -2615   -12942   -21781   -22339   -13819     1797 
   19966    33768    40482    40302    31610    15294    -2334   -15426 
  -25242   -38004   -54480   -69461   -79708   -82324   -75529   -61809 
  -43515   -24803   -11874    -6091    -3579       89     6419    16482 
   31190    47847    61955    68995    66705    58282    49417    44908 
   49177    62060    76820    87881    93684    94123    90195    81243 
   63881    39025    16258     7219    14949    31022    45315    51297 
   45055    32316    23511    21831    26995    34245    34887    27412 
   17250    12074    16208    25580    33658    35634    28880    16132 
    3264    -7005   -14390   -18922   -24651   -35463   -49334   -65184 
  -82609   -96226  -103682  -108421  -111876  -115697  -123821  -136282 
 -149568  -159626  -162102  -154216  -137238  -117560  -101615   -90742 
  -82980   -76588   -73124   -75644   -85129  -100221  -116823  -130662 
 -140128  -145109  -145353  -140573  -131884  -120128  -106590   -96738 
  -93040   -89248   -80309   -67678   -54153   -40877   -27496   -14711 
   -2106    14351    34904    56758    79769   101404   117318   126886 
  130580   127833   121676   118754   121316   126835   132430   133632 
  126740   112963    96544    80151    62004    40368    17134    -5278 
  -23519   -34990   -43527   -54849   -67822   -75679   -72143   -55331 
  -30383   -10231    -8135   -23049   -42781   -62178   -81424   -98273 
 -111696  -120731  -123850  -120626  -111787  -101811   -94671   -90168 
  -87232   -83372   -74853   -58411   -34400   -10570     3953     5849 
   -2172   -14555   -28107   -42307   -57849   -75771   -92526  -104358 
 -113126  -118933  -120382  -117963  -110415   -97661   -81908   -64885 
  -48773   -34618   -21215    -8195     2992    10311    14731    21674 
   32436    44340    58478    73452    85810    96081   102603   103573 
  100191    92284    82026    73288    66706    63623    66554    74776 
   86934   101962   114941   120366   116634   106272    93178    78016 
   61112    43221    21982    -2034   -23961   -43015   -61299   -77661 
  -89353   -94911   -93679   -84826   -67103   -44050   -27346   -23794 
  -27807   -33615   -38430   -37471   -28778   -15969    -3008     8813 
   18135    25289    34578    46134    55903    64526    73580    80667 
   82840    78223    66163    49188    33688    25715    27126    34738 
   43374    50713    54748    55620    58826    65494    72296    77758 
   79037    75713    71530    66490    57198    42219    23263     2663 
  -16526   -29781   -37149   -42850   -47739   -51177   -54316   -56246 
  -56632   -59208   -64774   -69705   -70128   -63023   -49430   -34816 
  -24820   -22673   -27456   -34434   -38920   -38659   -33976   -26559 
  -17643    -7588     3871    16291    28031    38036    47037    57073 
   69779    85786   104357   121367   131955   135127   131848   123982 
  115428   108465   102763    98327    93834    85911    73580    60380 
   50641    44405    38341    30192    20616    12760     9421    11693 
   18816    26219    28521    24736    18080    12548     9532     9416 
   13354    18219    18809    16290    14129    12662    13519    18895 
   25830    28327    23102    10319    -6990   -22818   -33572   -40671 
  -45156   -48706   -55699   -67784   -83253  -100215  -117338  -133865 
 -149502  -164955  -180098  -192087  -197182  -192696  -178718  -159769 
 -142948  -132611  -127806  -125250  -122264  -117023  -108361   -95329 
  -78016   -59113   -41302   -25279   -12569    -3911     3621    12126 
   21728    33169    44858    54049    61700    69388    76687    83616 
   90893    99393   109251   118892   126861   132848   137302   140801 
  144251   149880   158299   167329   175239   180680   183303   184618 
  183092   175884   164164   147387   124170   100166    82830    74761 
   73715    74595    72568    63688    47681    28317     7868   -12502 
  -31468   -48542   -62043   -70480   -74840   -78369   -85489   -96976 
 -110179  -122647  -129726  -127504  -119059  -110993  -106473  -105300 
 -107454  -111823  -116943  -123963  -133653  -144451  -154612  -162109 
 -162834  -152528  -129722   -94818   -51387    -8244    27302    54870 
   76188    93208   109682   126249   139468   148299   152778   150943 
  143548   132879   119394   105296    93316    83792    77698    77170 
   81252    86386    90599    92228    89498    81829    69936    58119 
   50405    46127    44315    45040    47060    48528    46904    38793 
   24012     6796   -10109   -26258   -39609   -49334   -58055   -67468 
  -77631   -88803   -99183  -107265  -112700  -113318  -111104  -109069 
 -104767   -98998   -94203   -89349   -85555   -83762   -81889   -79593 
  -79058   -80789   -83629   -86715   -86900   -82152   -75713   -71342 
  -71746   -77255   -82820   -83408   -79571   -74364   -69185   -65090 
  -63646   -64281   -65039   -65613   -65789   -64196   -60768   -54882 
  -44487   -31084   -18160    -7424     -167     3868     6779     9538 
   11643    12030     9797     5245       81    -3601    -4489    -1952 
    4428    14361    25964    36264    42855    44364    39164    26743 
   12016     3483     4491     9730    13444    15178    16321    19246 
   24851    30366    33784    33593    28360    20116    12738     9099 
   10575    16573    24067    28235    25176    14047    -2325   -17879 
  -27881   -32452   -34078   -35536   -39512   -46137   -52612   -57437 
  -61606   -65900   -69806   -72239   -72214   -69455   -65462   -60748 
  -53655   -44208   -32760   -19520    -6340     6217    18039    28221 
   37173    45134    51528    56079    59326    63776    71616    81462 
   90286    95988    97254    94953    92346    91350    91163    90223 
   87852    84254    80273    77344    75582    74004    72849    72213 
   71407    70704    69863    68032    65882    63703    60949    57712 
   53512    47518    39336    30239    24076    22463    23301    25235 
   26773    25431    21455    17842    17668    21672    26416    26603 
   20681    13113     9178    10219    15602    23520    30564    35801 
   41939    49893    57309    62731    66111    66901    65125    62975 
   62397    60956    55588    47433    37174    24945    13796     3876 
   -7970   -21623   -36198   -52111   -67061   -78926   -88569   -95304 
  -98604  -101768  -106525  -111482  -116214  -120307  -122728  -123018 
 -121046  -117518  -113101  -107594  -100948   -92906   -84115   -77100 
  -72167   -66755   -59546   -50801   -42497   -37714   -37737   -42738 
  -50343   -55310   -55555   -50925   -39926   -23933    -6843     9231 
   23938    37575    50391    62036    72483    82555    93119   104636 
  116817   129019   141087   152424   162046   169221   173016   173161 
  169651   162313   152122   139439   122810   102038    80171    61629 
   48106    37593    27190    13623    -5228   -27143   -48665   -68478 
  -85451   -99126  -111392  -123619  -134841  -143987  -149521  -147983 
 -138210  -122664  -103902   -86126   -73519   -65359   -59861   -55948 
  -50309   -41557   -32062   -23249   -15819   -10464    -7086    -6363 
   -8165   -10964   -13263   -13190   -10792    -7860    -5714    -6118 
   -9130   -12573   -15341   -17370   -18626   -18369   -14334    -4897 
    8236    21631    33022    41563    47541    51940    54966    56675 
   57634    57280    56355    57078    59391    64277    73646    85282 
   96322   106028   112913   115362   113473   107502    96957    83961 
   72449    63864    60257    63829    71799    79711    83963    81130 
   71241    57073    41320    27804    19458    16293    17995    24452 
   33626    41959    47598    50246    49342    46438    44061    41996 
   39800    36835    30777    21070     8416    -6671   -22413   -36669 
  -48264   -57294   -65446   -75157   -85626   -93986  -100743  -106034 
 -108809  -110962  -113164  -114153  -113591  -110781  -106783  -104477 
 -104888  -108261  -113001  -114535  -111086  -103298   -90613   -75328 
  -61969   -52230   -45213   -38370   -29534   -19177    -8438     2606 
   14649    28852    45610    63126    78332    89409    97118   104259 
  113949   126723   138878   145674   144395   135276   123374   115468 
  113494   114374   115230   115292   114226   112294   109575   105684 
  101346    97061    92905    89377    85955    81820    77181    71650 
   63451    51466    36469    20451     5995    -5589   -14930   -22326 
  -28181   -33782   -39596   -46175   -54825   -64840   -73170   -77842 
  -79443   -80444   -84580   -93342  -104069  -113514  -119027  -119100 
 -115843  -113273  -114325  -119321  -125817  -131161  -134304  -135829 
 -137274  -139780  -142885  -144109  -141751  -137286  -131772  -124155 
 -115069  -106264   -97766   -89988   -84174   -79734   -75094   -69479 
  -62198   -53150   -44530   -39130   -37318   -37985   -40212   -42086 
  -41959   -40812   -39091   -35993   -32722   -29594   -25325   -21108 
  -18407   -17513   -19738   -24349   -27205   -26041   -21787   -15715 
   -9595    -4625      389     6573    14055    22771    31232    37584 
   41346    43061    43924    45073    47242    51122    56872    63851 
   71758    80630    89826    98743   107045   113900   118287   118742 
