Origin Time       2011/03/11 14:46:00
Lat.              38.103
Long.             142.860
Depth. (km)       24
Mag.              9.0
Station Code      TKY021
Station Lat.      35.6875
Station Long.     139.8190
Station Height(m) 1
Record Time       2011/03/11 14:47:29
Sampling Freq(Hz) 100Hz
Duration Time(s)  300
Dir.              E-W
Scale Factor      3920(gal)/6182761
Max. Acc. (gal)   164.207
Last Correction   2011/03/11 14:47:14
Memo.             
[...]
    8355     4417    -1820    -5427    -1958    10303    25666    34469 
   34476    31793    30476    25908    11419   -10135   -27988   -35155 
  -33821   -30809   -29827   -30167   -31616   -35835   -43015   -52408 
  -66115   -85197  -104566  -117677  -121442  -116434  -106340   -95204 
  -83798   -68815   -47421   -22035     3358    27600    49484    66650 
   78750    87331    93687    97809    97552    91922    84129    76908 
   70401    63978    54831    40272    21207     1130   -15616   -27488 
  -36646   -43906   -46836   -42857   -33058   -22556   -14690    -8135 
   -1189     6200    14158    23637    34959    45985    53770    57554 
   57958    54910    47806    36099    20267     2317   -15758   -31466 
  -40776   -41007   -33098   -19492    -1357    20266    41374    55823 
   59510    51706    34208    11524   -10906   -29725   -44598   -56180 
  -63114   -63675   -60563   -60471   -66470   -73442   -74217   -66670 
  -53227   -38378   -27550   -24312   -26176   -26561   -24665   -27372 
  -39018   -55337   -68248   -74216   -74053   -66313   -48421   -23259 
     576    17540    30273    41968    50623    55006    60037    70584 
   81914    84257    76037    64176    53320    40998    23739     5421 
   -5437    -5313     3285    16996    33377    48838    58129    59316 
   55854    49597    37091    17118    -3548   -16325   -19550   -18846 
  -19193   -20257   -21638   -23854   -25243   -24225   -19377   -11030 
   -2622     4712    11734    17829    20808    16443     4222    -9283 
  -18938   -25755   -31604   -35840   -37221   -36719   -37345   -39534 
  -39356   -33937   -24549   -12968     1095    17645    33399    43065 
   43747    35584    19630    -1491   -23442   -41239   -51126   -53355 
  -48278   -34219   -15518    -1815     3345     4854     8574    15414 
   22620    28651    35123    44198    53738    59167    59294    55004 
   46772    33246    11658   -14179   -33821   -42565   -44649   -44892 
  -43503   -38955   -32462   -26998   -23632   -21181   -19022   -17457 
  -15235   -10967    -6596    -6439   -12921   -24065   -35307   -42778 
  -45064   -43347   -39906   -35757   -29499   -20207   -11301    -7508 
   -9948   -17960   -31028   -46190   -58216   -63917   -62982   -56104 
  -44739   -29009    -8542    11520    23055    23567    18077    13942 
   13666    15413    18796    24752    32967    40574    44140    43460 
   39767    34178    27770    18444     3627   -12207   -19532   -14252 
   -2700     4826     5671     7003    13155    18003    15274     8704 
    5955     6480     2866    -6782   -16647   -22665   -26093   -28013 
  -27212   -25287   -26574   -29381   -25327   -10835     7708    21531 
   27520    28690    29382    30531    29353    23764    15262     5699 
   -5483   -17823   -27424   -31129   -30633   -30590   -33411   -36855 
  -37458   -34428   -27654   -14881     5310    29485    50331    61928 
   64963    64727    63961    61962    57556    49013    35319    18610 
    3469    -7092   -15917   -28035   -42386   -53095   -56408   -52503 
  -44124   -33319   -19404    -2221    16697    34411    46197    50974 
   52427    51704    45802    33540    20055    11586     7808     4949 
    1664    -1408    -3393    -4585    -7422   -13635   -20828   -24900 
  -25147   -24434   -24814   -25041   -23465   -22135   -23818   -25891 
  -23545   -17112   -10680    -5480      178     4917     4035    -4727 
  -19114   -35541   -51698   -65722   -76150   -82714   -84093   -77970 
  -64601   -45597   -22064     1848    19256    26234    23750    15497 
    4840    -5817   -12936   -13772    -9835    -4264     1805     8077 
   12909    14347    13046    12305    13670    13908     8516    -2899 
  -16945   -31367   -46874   -63891   -78832   -84760   -78402   -64639 
  -50645   -38882   -28020   -17840   -10724    -8952   -12882   -21228 
  -32203   -44396   -54622   -57914   -52772   -42046   -28362   -13103 
    1361    12176    19612    28124    40926    53503    56773    49418 
   42315    46092    58232    68067    70192    66214    59962    55489 
   53809    52371    48485    42304    38177    39094    40230    34320 
   21310     7566    -2004    -7551   -11149   -11496    -5266     6394 
   19036    29815    37132    39923    37894    31185    20205     5609 
   -9720   -21015   -25830   -25108   -20801   -13282    -1418    14192 
   29818    41280    47511    50455    52113    53016    52693    51793 
   51578    49924    43534    33529    23750    16961    13405    10089 
    3615    -6172   -15838   -21562   -23746   -26193   -32310   -43784 
  -58051   -69530   -76169   -78929   -77553   -71729   -61482   -46458 
  -27947    -8387     9326    21136    26872    31507    36141    36883 
   33706    30128    26240    19742    10772     1951    -6170   -18232 
  -37312   -57696   -71144   -75944   -76694   -77626   -77917   -75370 
  -70847   -66871   -65521   -67491   -71711   -75746   -75753   -69049 
  -57601   -43790   -27038    -9237     4237    10048    10074     9730 
   12074    15416    17333    17284    15661    12424     6627    -2531 
  -14944   -29446   -42969   -52069   -54981   -51200   -42607   -33444 
  -25767   -18025    -8665     2198    13011    20712    22753    20605 
   19725    23662    30524    37176    41830    42791    39659    33981 
   27234    20418    14185     9229     8160    13226    22447    31085 
   35401    36042    37225    40385    42178    40910    40928    46766 
   56068    63234    65898    63891    56869    44739    29443    16442 
    9080     3650    -2618    -6245    -4623       68     5030     9762 
   13876    13720     4703   -11688   -27179   -35366   -36880   -33219 
  -21091     2551    33671    62244    78032    76473    60576    36720 
   11386   -10659   -29229   -46702   -63295   -76042   -81399   -78919 
  -71525   -62057   -51194   -38937   -26703   -17832   -14745   -14885 
  -15073   -16954   -22301   -30565   -39994   -46806   -48891   -48515 
  -48753   -49489   -47985   -43163   -37407   -34236   -35463   -41483 
  -51220   -59793   -61118   -52639   -36865   -20844   -10479    -6408 
   -8247   -16359   -28592   -41186   -52105   -60666   -65472   -64161 
  -55831   -43363   -31335   -22525   -16821   -12281    -7616    -3132 
     513     3486     6405     8894     9980     9378     7323     4107 
     345    -1429     2777    13152    23570    27999    28444    31687 
   38602    43843    44826    43583    41997    41240    43261    48360 
   53367    54627    51913    48046    44776    40372    32206    20816 
    9838     2803      121    -1548    -5094    -9015   -10172    -8364 
   -5945    -5203    -7286   -10606   -10154    -1653    13515    29393 
   42598    55796    71661    87852    99938   104947   101933    91862 
   77034    60144    42531    23594     4010   -12446   -22634   -28351 
  -34134   -41200   -47284   -51181   -53907   -55668   -54426   -48927 
  -40005   -29395   -19487   -11849    -7295    -6404    -7438    -7816 
   -7247    -7238    -8685    -9709    -8055    -5039    -2990    -1465 
    1312     6006    11638    16232    17674    14101     4422    -9892 
  -22898   -27905   -25059   -20357   -16494    -9346     4808    20952 
   29658    28290    21660    15114    10316     5501      -36    -3752 
   -4084    -2867    -2170    -2812    -5036    -8121   -11868   -16227 
  -18764   -17907   -15495   -12655    -7290     3347    18116    30444 
   33168    24644     9584    -5297   -16632   -26042   -36066   -45635 
  -52057   -54805   -54703   -52036   -46024   -36022   -22170    -4081 
   16182    32307    39451    37925    31646    22533     7879   -10901 
  -24982   -28347   -23717   -17576   -11232      715    20335    38916 
   44771    36754    23409    11253     1102    -7296   -11349    -8091 
     264     9156    17891    27332    35710    41361    45665    49844 
   51862    48696    41249    34822    31114    24665    10964    -8602 
  -28430   -42379   -49593   -53319   -54354   -52130   -48296   -45050 
  -42844   -39381   -30958   -17781    -4524     6742    18007    30246 
   42772    54016    59855    55984    43665    29045    15594     1837 
  -13390   -26905   -32955   -30288   -25131   -24680   -29712   -34018 
  -31326   -22610   -14069    -8124    -1812     6299    14098    18038 
   15452     8066      925     -407     8369    25712    45235    63074 
   78510    89892    94540    90359    77767    60810    43588    27587 
   13889     2718    -8419   -19990   -27643   -29142   -28039   -28067 
  -28225   -24074   -13294     1988    18159    31407    38761    41176 
   41394    38867    31038    19305     9604     4630      467    -6446 
  -15396   -24309   -30834   -32316   -26855   -13824     4527    22659 
   34885    38817    37370    36311    37103    35232    28614    23097 
   25522    35105    45614    53540    58855    60069    56191    49840 
   43178    35659    26616    17495    10101     2025   -10012   -23041 
  -34565   -49330   -67830   -81991   -89000   -91962   -90656   -85873 
  -81143   -76502   -70714   -65805   -66140   -72892   -79985   -82196 
  -81278   -77499   -66799   -48939   -29135   -11958     2235    13924 
   20159    18221    11763     7362     5676     1965    -6268   -16912 
  -25630   -30346   -33494   -36146   -34429   -24437    -7405    10506 
   24931    36641    45838    49010    43074    28944    10725    -6865 
  -20370   -26326   -20834    -5117    13232    27446    36157    41911 
   45562    43151    30802     9988   -12372   -28961   -37573   -40106 
  -40525   -42853   -45118   -40811   -28706   -14145    -1588     8568 
   16933    23177    26997    27834    24298    16158     5431    -6027 
  -18336   -30789   -38874   -37867   -28999   -18866   -12169    -7377 
    -212    10148    19813    26356    33065    44082    59483    75637 
   87473    91881    88567    78120    62486    46345    34579    28742 
   29498    39555    59823    85303   106609   118613   124812   127331 
  122983   110803    93701    75528    56925    34484     7140   -20910 
  -43420   -56042   -58492   -52471   -38370   -16096    10346    32640 
   45693    50865    49436    39503    22064     3787    -9628   -17709 
  -21627   -22120   -21285   -22225   -26333   -32581   -40665   -52258 
  -66947   -81368   -93830  -105619  -116316  -121058  -117379  -111173 
 -109552  -111642  -110962  -105223   -98803   -95050   -92429   -88433 
  -83550   -80761   -81103   -81256   -76570   -67518   -60463   -57839 
  -55391   -50751   -46851   -50015   -62485   -77056   -87776   -94480 
  -95315   -90119   -83601   -79302   -76632   -72250   -64185   -54272 
  -46048   -41903   -40105   -35933   -28079   -19521   -12151    -6194 
   -2238      154     2887     8020    16010    23717    28151    32420 
   41549    54789    67293    75624    78968    76484    66854    52995 
   42321    39477    42261    45447    48387    56195    70504    85891 
   98477   109954   122149   132693   137687   136929   132030   122359 
  106583    82272    48571    13534   -13619   -32791   -44865   -46097 
  -32898    -5372    28931    60827    88928   112096   124266   124167 
  118330   113419   110168   104844    94754    79038    56920    28043 
   -6741   -43133   -76128  -106360  -135437  -160168  -176781  -181607 
 -168441  -135252   -90249   -43960    -3043    26178    40450    41766 
   30028     3138   -34866   -73229  -103991  -128443  -148069  -156459 
 -150219  -136885  -124333  -114306  -105373   -93591   -77719   -62279 
  -51154   -45860   -46691   -52413   -61679   -72167   -81618   -90781 
 -100649  -109501  -114042  -111985  -104466   -93781   -80707   -66978 
  -55072   -45581   -38930   -35672   -34211   -32912   -31285   -27102 
  -17631    -4624     4993     6322     2610       93       54      391 
    1320     4027     8680    16673    28015    40205    51843    62162 
   71190    81259    94972   112511   132165   152782   172491   186770 
  190555   181584   162046   135979   105909    74039    42868    14549 
   -8129   -25156   -39223   -45891   -35969    -9756    21738    47293 
   64604    77984    86430    85089    76196    64796    52386    41163 
   33680    30417    29805    27012    18987     8706      -67    -8200 
  -21165   -40980   -59973   -70544   -71699   -60285   -33010     3389 
   35988    54125    56262    52614    53318    57281    58064    52710 
   42124    31382    29354    39512    54984    67124    72651    74130 
   76143    77306    69526    46265     9205   -31185   -63776   -86722 
 -106024  -125926  -143079  -151262  -150919  -148744  -150837  -159303 
 -170367  -176773  -173953  -163873  -153199  -144971  -136646  -128934 
 -125809  -126029  -124666  -119715  -112277  -102188   -85380   -57883 
  -21536    15034    39583    43992    31097    10653   -10155   -30191 
  -52562   -77560   -96247   -98029   -81478   -55812   -33728   -17298 
    1794    25940    48889    64912    75409    88381   105279   116854 
  117435   109093    98684    95278    99594   107079   115939   124999 
  138150   155723   165317   160336   143962   114263    67128     4129 
  -67358  -133384  -182338  -214412  -231179  -229932  -212694  -185418 
 -153165  -121568   -96509   -82138   -77512   -75811   -72100   -67661 
  -64134   -60593   -56704   -52037   -43165   -27423    -8465     6618 
   12920     9731      891    -9776   -23928   -44728   -69970   -93891 
 -112932  -128417  -143724  -156572  -159324  -148578  -126882   -97441 
  -62344   -21758    23434    67323   105612   140122   170893   196586 
  220213   242292   255180   250728   229613   200428   170685   143001 
  115742    84879    52594    29383    24915    40630    66454    86533 
   92523    88006    81043    77124    78493    83174    83216    72570 
   54661    36003    20311     6787   -11109   -35708   -59382   -76236 
  -90294  -109140  -132733  -152128  -156469  -139399  -107054   -73494 
  -46606   -27983   -15069    -2529    11045    23832    31462    26891 
    6609   -26352   -63014   -93219  -113458  -126570  -132807  -127443 
 -112556  -100872  -101754  -112730  -124226  -131172  -139007  -149532 
 -154929  -150970  -137366  -115642   -93304   -78147   -72482   -70485 
  -60724   -39063   -10590    20871    55131    94059   138092   178163 
  200321   201844   193446   186773   185142   183336   173550   149810 
  109387    56611     1218   -48610   -87994  -117633  -142761  -162969 
 -171441  -165353  -146828  -115890   -69669    -6769    65349   128599 
  169880   192077   205124   215066   219602   213178   194576   164363 
  125434    87141    58536    41332    30493    18672     3048   -14130 
  -30974   -46542   -58470   -64249   -64850   -64658   -66821   -69998 
  -69752   -64410   -58019   -56645   -63515   -74443   -81618   -81554 
  -73688   -57791   -32836       41    31630    50741    52989    42451 
   26397     6309   -19863   -50717   -82064  -108124  -121090  -115777 
  -97816   -82946   -81905   -86344   -80819   -66475   -54645   -46576 
  -34927   -13287    18121    48954    67352    72272    70186    65723 
   59899    50010    35339    24006    25329    42832    72725   102083 
  120051   124482   114420    89081    45335   -19644   -93423  -154387 
 -192598  -212970  -221602  -214084  -184218  -134924   -71580    -1511 
   60830   103390   126846   136335   124159    74730    -8328   -95886 
 -159566  -193616  -207476  -208007  -196836  -170534  -121029   -51419 
   19628    75798   111077   124730   118991    96683    60363    16308 
  -26955   -59399   -69413   -55703   -26864    12802    57556    91267 
   97348    70528    20138   -35360   -79271  -104062  -112632  -113687 
 -112780  -109461  -102261   -89555   -71223   -53053   -41430   -38999 
  -45698   -55222   -60652   -63387   -64083   -57553   -41066   -12814 
   27773    69727   100731   124578   146708   161741   167774   169390 
  170839   172371   168475   156596   139676   121258   103622    83601 
   57700    31871    16169    15653    29799    51650    70600    81890 
   88101    93792    99878   100149    87226    59955    25206    -4394 
  -21032   -29347   -38028   -47316   -48439   -35798   -16385    -3395 
   -4793   -19448   -41153   -67001   -97685  -130390  -160486  -185568 
 -203015  -210127  -206141  -192022  -170086  -142405  -110077   -75141 
  -40577    -9663    12014    20032    14895    -2925   -29996   -57788 
  -83265  -105095  -117874  -121821  -122305  -121947  -117555  -103417 
  -80934   -57148   -35858   -16446     4839    30682    57048    76954 
   88748    97893   111634   130081   143951   144264   128816   101784 
   75485    59230    44244    18266   -15250   -44630   -62979   -71756 
  -78211   -86427   -90823   -83880   -67425   -49980   -35762   -21204 
   -2834    18372    42406    69584    97240   120672   132246   127739 
  112825    95775    80080    64373    46293    27992    15052     9941 
   11926    19849    29190    32179    23132     1709   -26450   -52688 
  -72006   -86650   -98316  -103034  -101091   -98389   -96736   -93372 
  -85976   -77040   -71830   -68699   -58162   -35048    -4837    22896 
   40687    48127    52722    59093    64810    66736    61858    48604 
   29193     8737    -4319    -4751     2862    11150    16674    19595 
   22648    27035    31146    35723    41609    46562    48592    44953 
   35350    23919    10292    -8706   -31056   -50690   -61858   -63012 
  -54646   -36714   -13383     6773    17032    15978     6778    -6604 
  -22433   -40486   -58976   -73607   -81304   -80142   -66907   -40430 
   -4718    30753    56883    73479    86501    99201   109035   112563 
  111007   107095    97765    73962    31309   -18944   -55547   -67695 
  -63508   -53513   -39301   -24431   -18647   -26606   -44859   -68608 
  -93438  -113936  -126471  -131284  -128803  -115062   -84107   -36867 
   15079    57354    83216    94816    95424    83214    56884    24817 
   -2017   -20390   -29482   -28515   -21280   -11090     3841    26743 
   57601    87327   101616    95740    75135    43152     1143   -41822 
  -72865   -87878   -89057   -75409   -45923    -9038    19923    32806 
   33259    26920    16555     9248    14809    32322    51910    65453 
   68509    62747    51662    34144    12072    -8585   -23494   -28749 
  -23027    -7633    15477    39418    55749    62255    62367    61109 
   57485    45062    25702     8019    -2988    -3427     9011    27923 
   38629    30973    10566    -7495   -12155    -4577     4233     3974 
   -7408   -23683   -39313   -54651   -70779   -87796  -103191  -112558 
 -113817  -104103   -84029   -61547   -42574   -28621   -16480    -1567 
   10844    13073     8198     3741     1990     -896   -10904   -30002 
  -54935   -81930  -105131  -117466  -122499  -129219  -133008  -120137 
  -83286   -24788    41821    98018   136605   163253   183143   193762 
  190652   175443   154442   132106   108792    84805    63414    46023 
   29738    13260     -428    -8458   -10354    -6550     1132    10960 
   21633    27849    25782    19182    11614     4693     1410     2867 
    7844    12001     9545      -14   -12402   -22218   -26842   -28767 
  -31191   -36580   -46099   -56942   -66385   -75127   -83849   -90633 
  -93644   -94440   -95203   -95164   -92249   -86217   -78713   -70696 
  -63888   -62162   -67713   -81069  -101096  -122306  -140008  -154370 
 -164005  -164109  -153998  -138225  -120926  -103171   -84997   -70576 
