Origin Time       2011/03/11 14:46:00
Lat.              38.103
Long.             142.860
Depth. (km)       24
Mag.              9.0
Station Code      TKY004
Station Lat.      35.6301
Station Long.     139.4034
Station Height(m) 81
Record Time       2011/03/11 14:47:40
Sampling Freq(Hz) 100Hz
Duration Time(s)  300
Dir.              N-S
Scale Factor      3920(gal)/6182761
Max. Acc. (gal)   124.233
Last Correction   2011/03/11 14:47:25
Memo.             
[...]
  -23999   -21838   -16690    -9844    -2359     6417    15176    21011 
   24322    26990    28728    29271    28784    25811    19461    10525 
      44    -9530   -15430   -17956   -19022   -19127   -17676   -13558 
   -5372     6880    20286    29676    32416    30522    24803    14636 
    3561    -4504   -10822   -18219   -27017   -35260   -40204   -40646 
  -37883   -34743   -34042   -36713   -41880   -48122   -53859   -57698 
  -58525   -56680   -54759   -54305   -54478   -54564   -53783   -50958 
  -45747   -38339   -29416   -20373   -12251    -5142      255     1663 
   -2316    -9569   -15436   -17581   -18531   -21029   -24536   -27217 
  -28387   -29762   -33559   -39312   -44570   -46594   -44007   -38813 
  -33737   -29029   -23930   -18770   -17131   -22235   -28407   -26470 
  -16261    -4531     3264     5645     5005     3933     1181    -5598 
  -14288   -20324   -23415   -26505   -29838   -30596   -26890   -19929 
  -12890    -8153    -4868     -727     4418     9271    12115    11272 
    8117     5315     2081    -2726    -7245   -10659   -14244   -17232 
  -16819   -12073    -5242      770     4830     6980     6899     3410 
   -4502   -14406   -20325   -19435   -15409   -13127   -13939   -16357 
  -19517   -25088   -33950   -43197   -48480   -47540   -42235   -36304 
  -31333   -27276   -23669   -20736   -19373   -18435   -16929   -16218 
  -17695   -21553   -25491   -27160   -27473   -27577   -27777   -28726 
  -30222   -31453   -32225   -32615   -31073   -25399   -16658    -8544 
   -3386       82     4922    10813    14399    15169    15302    15395 
   14408    11782     8233     5339     4550     5939     8136     9833 
   10355     9893     9682    10112    10125     9314     7884     5179 
    1478     -586      179     1905     4404     9837    18417    28350 
   37848    45778    51751    54155    49752    38103    24296    14118 
    8740     6808     6859     5591      396    -6241   -10024    -9105 
   -2652     8729    20599    27226    26144    19064     9045    -1547 
  -10213   -15107   -18263   -24134   -32551   -38927   -43033   -48530 
  -54224   -54363   -46003   -31523   -15980    -4481      145     -738 
   -4404   -10702   -20134   -30794   -39263   -43482   -44492   -45450 
  -49338   -56473   -63452   -66136   -62768   -53827   -41251   -27185 
  -13377    -1871     6128    11273    14315    13597     6821    -4829 
  -19122   -34748   -48385   -57900   -64394   -67766   -67763   -66259 
  -64607   -62849   -60707   -57665   -53363   -47232   -37742   -24722 
  -11714    -2568     2581     5677     7699     8353     7197     4507 
    2736     6448    15438    22406    24002    24495    26474    28495 
   29579    29805    29032    26854    22580    16065     9114     3676 
   -1002    -6865   -14752   -24721   -34884   -41716   -44670   -46052 
  -47628   -50741   -55092   -58323   -58503   -54641   -47773   -40672 
  -35046   -31109   -28022   -25433   -22978   -18859   -14795   -15357 
  -19999   -24768   -28595   -32883   -37377   -38723   -35026   -28373 
  -20099    -9456     2784    14442    23325    27018    24701    19850 
   17664    19006    21185    22659    22807    20902    16037     8424 
    2445     3223     9576    14827    14498     9909     3747    -2476 
   -7955   -13954   -21484   -28274   -31599   -31677   -30686   -28829 
  -24220   -16537    -7521      263     5048     7420     8634     9329 
   10585    12826    13365     8936     1448    -3134    -1452     4775 
   10826    12782    10366     5058    -2902   -13349   -23876   -31202 
  -33795   -32470   -30488   -30687   -30964   -27993   -23609   -21079 
  -20345   -20964   -22263   -20816   -13688    -1757    11165    20126 
   21857    17414    10821     6005     5615     8762    10650     8505 
    4593     2794     4662     7022     6008     2769     -280    -3143 
   -5613    -7433    -9502   -12645   -16668   -20014   -21866   -22494 
  -20717   -16083   -10223    -4838    -2423    -4729    -9613   -13304 
  -15043   -16659   -18308   -19417   -21885   -26849   -32055   -35459 
  -37113   -37845   -38301   -37985   -37582   -41169   -50853   -61781 
  -66657   -63108   -54249   -45073   -39917   -39164   -39248   -38686 
  -38897   -38275   -32453   -20988    -8889    -1845    -1996    -6248 
   -9487   -10319   -10377   -10963   -12791   -15324   -17104   -17877 
  -18031   -16402   -11240    -3004     6518    15856    22722    26637 
   31909    41456    51387    55843    54339    52285    52990    53401 
   49652    39925    24604     7763    -6904   -19283   -29004   -35405 
  -40007   -43042   -42681   -39476   -35314   -29666   -21121   -10259 
   -1572    -1117    -7481   -12636   -13645   -12949   -11582   -10067 
   -9028    -6929    -3223     -458      -30     -716    -1003     -594 
   -1239    -5073   -11697   -19020   -26601   -34751   -40229   -38232 
  -28663   -15296    -1007    12585    23585    29538    28974    24190 
   19260    14246     5940    -6030   -17767   -25137   -27578   -26891 
  -22773   -14237    -4534     1123      424    -6205   -18108   -34069 
  -49414   -59734   -66930   -74324   -82049   -89817   -96396   -99074 
  -95471   -83787   -65946   -48257   -34986   -25640   -17322    -7109 
    4693    14692    20440    22100    21212    17655     9718    -1008 
  -10526   -17084   -20438   -21167   -20809   -20065   -19438   -19938 
  -21789   -24842   -28825   -32804   -37172   -42795   -48149   -52277 
  -55414   -56530   -55509   -53284   -49594   -43611   -36026   -29055 
  -22738   -15492    -8102    -1610     4926    12396    20580    28716 
   35813    40196    40009    34992    26128    14180      742   -11647 
  -21913   -30366   -37396   -43399   -47919   -49779   -48571   -43805 
  -34446   -21524    -7791     3977     9739     6895    -1907   -10865 
  -15094   -13883   -10149    -7427    -8489   -13441   -19525   -24364 
  -27112   -27027   -24385   -20946   -17584   -14373   -10780    -5396 
    1333     7199    11001    13719    17457    21809    23608    21113 
   16118    13029    15814    24012    32567    37403    39809    42693 
   45550    45942    42442    35225    25660    15415     5106    -6952 
  -21267   -33051   -37970   -38745   -40238   -42432   -42673   -40344 
  -36477   -33915   -35017   -36785   -35778   -33843   -34518   -38473 
  -42547   -43346   -40089   -33527   -25827   -19232   -14650   -13070 
  -14371   -15628   -14334   -11978   -11068   -10251    -7381    -4043 
   -2802    -4188    -6241    -5429     -936     4202     6797     6793 
    7552    10151    11015     7802     1412    -6114   -13418   -21243 
  -31134   -42884   -52799   -56736   -54063   -45907   -34861   -24210 
  -14036    -4073     3648     8088     9543     8865     5530    -3473 
  -16346   -25297   -26223   -21276   -15036   -12459   -16623   -26328 
  -37370   -46342   -51506   -52498   -51084   -49900   -50385   -51149 
  -47721   -38042   -27303   -21679   -20889   -21084   -20177   -18090 
  -15315   -12176    -8361    -4294    -1962    -2193    -3299    -3956 
   -5500    -9279   -11813    -7495     1827     7741     6589     1897 
   -1313      250     6362    14561    23370    30288    31109    25502 
   17985    12655     9452     5677     1090    -1604     -918     1860 
    4188     5704     9058    15360    22187    26609    28284    29582 
   30633    27447    18877    10204     7077     8778     9358     5110 
   -1046    -5053    -7829   -10716   -12082   -11159    -8594    -5977 
   -5463    -6598    -7013    -6411    -7386   -13556   -26433   -41994 
  -53297   -58513   -60904   -62604   -65085   -70213   -76747   -81933 
  -85131   -85681   -81533   -71377   -56369   -40082   -25868   -15099 
   -8060    -4587    -4670    -8271   -14039   -19045   -20726   -20572 
  -22861   -28575   -34677   -37415   -34604   -27716   -19807   -11249 
   -1742     7079    13224    14404    10282     4560     -343    -4345 
   -6531    -8183   -12901   -21771   -32405   -41988   -49582   -53486 
  -50698   -41695   -30291   -20044   -12355    -5234     3095    10105 
   12370     9446     3544    -1604    -3137     -932     3070     6433 
    8983    12254    15568    17349    16708    12621     6612      876 
   -5274   -10807   -12410    -9408    -3821     1736     6179     9167 
    8278     3293    -1100    -2717    -4368    -7687   -10594   -10724 
   -9619   -11094   -15531   -20148   -23099   -24430   -26798   -34943 
  -49878   -66425   -79696   -89051   -95099   -96528   -91286   -82477 
  -77377   -78052   -80310   -79143   -71636   -59658   -48332   -40098 
  -33964   -28831   -23892   -17756    -9720     -490     8745    16776 
   23060    27660    30602    32358    32339    28339    20462    11787 
    3759    -5101   -15144   -24473   -33287   -43757   -54379   -60195 
  -58162   -49620   -38638   -26882   -12900     1711    12576    18514 
   21556    23806    25839    26119    23610    19946    17160    15474 
   12122     4659    -2963    -5059    -2783    -1945    -6415   -15465 
  -25218   -32874   -37977   -38595   -32117   -20028    -6340     5593 
   13401    17020    17742    14563     6254    -3824   -10767   -13240 
  -13581   -15685   -19719   -20877   -16150    -7003     2053     5718 
    3066    -2521    -8577   -14976   -20195   -19332   -11085    -1228 
    5140     7039     5504     2368    -2623   -11542   -23413   -32305 
  -32076   -23352   -13171    -6917    -3067     2932    11351    18763 
   24768    32267    41721    50043    54787    55750    51464    38554 
   17011    -9683   -38416   -63673   -77457   -77015   -67206   -56317 
  -49873   -46553   -42263   -34125   -21863    -9167      508     6146 
    8114     8524     7669     4647     2051     3461    10019    18874 
   24387    24327    21128    18408    18624    20967    23026    24254 
   23653    17065     3573   -10540   -20079   -24740   -25343   -24758 
  -27038   -31816   -34451   -32178   -27821   -26615   -29871   -34465 
  -38840   -43966   -48521   -49339   -44404   -33489   -19619    -7330 
    1147     5096     4243     -769    -8677   -17155   -22395   -21195 
  -13660    -1052    15338    29938    37712    42668    51450    64560 
   77774    86533    88909    85858    79048    68463    53330    35692 
   19515     7355    -1264   -11192   -27324   -47385   -64574   -74216 
  -75582   -72485   -69108   -65007   -59108   -52249   -44300   -35659 
  -27560   -18325    -6892     3349    10925    18185    25154    29179 
   28190    21325    10192    -1030    -9917   -17286   -24231   -31107 
  -36104   -36901   -36419   -38845   -43318   -47967   -52613   -56617 
  -57694   -53135   -44661   -36520   -28266   -18649    -9924    -3259 
    1437     3888     4756     3485    -2432   -14671   -32199   -49788 
  -60769   -62923   -60133   -58508   -59016   -57245   -52244   -46143 
  -36806   -21879    -4510    11183    22714    28181    27580    22470 
   16050    11460     7418     1628    -4688    -8830    -9232    -7261 
   -5305    -3510    -1876    -1889    -3493    -3407     1187     9298 
   17928    24671    28387    28037    23022    15253     6288    -4033 
  -15413   -29437   -46364   -59030   -60442   -51933   -39421   -28048 
  -19475   -13218    -9998   -10237   -14438   -23771   -33314   -34013 
  -26035   -20960   -28741   -47025   -65565   -78523   -87926   -95919 
 -100480   -99955   -94122   -82089   -65424   -47313   -28243    -9434 
    5450    13610    13373     6084    -2882   -10073   -17667   -28733 
  -41642   -50880   -52920   -50236   -47062   -43360   -36489   -25647 
  -13833    -6415    -5819    -9621   -13229   -11551    -2148    12254 
   26878    39531    52024    67446    86146   103686   112820   109904 
   97772    80628    60669    40241    22041     6972    -5775   -17214 
  -28606   -41380   -54607   -65605   -74718   -85701   -99480  -109783 
 -109452   -98262   -80643   -62053   -47897   -39795   -34828   -29841 
  -24170   -19405   -16342   -13564   -11713   -12676   -15153   -18078 
  -22162   -26408   -29755   -33069   -36797   -39588   -39141   -34020 
  -25704   -16822    -7632      896     4811     2753    -2938   -10002 
  -17331   -24877   -31729   -35566   -34307   -27456   -18115   -10552 
   -5781    -2780    -1147       47     4510    15214    29899    43532 
   50668    47046    34801    22337    15717    13532    12068    11310 
   12744    15222    17771    22712    30084    34981    33964    28173 
   22062    19989    21411    22848    22482    20263    17058    12894 
    6150    -3638   -15003   -26457   -36771   -44329   -46028   -37237 
  -16531    10092    32501    42745    40077    31208    22721    16130 
   10416     3939    -3925   -11760   -18095   -20908   -18975   -16688 
  -18872   -22873   -23361   -19186   -11426     -229    13956    29431 
   42500    47064    40986    30260    20868    14125    11341    12589 
   15421    19391    23364    22564    13601    -2247   -18567   -28307 
  -33086   -40695   -54177   -72487   -94191  -114520  -127908  -132981 
 -130830  -123551  -114571  -106111   -97554   -86423   -70403   -51125 
  -33777   -21885   -15305    -9920      325    16879    35596    52300 
   65375    74626    78085    70934    51845    27960    10619     7001 
   14000    21335    22741    21304    22884    27136    27645    19313 
    2963   -15956   -32051   -43860   -52978   -59738   -62769   -62038 
  -57634   -49404   -38229   -22443     -877    19780    31767    34020 
   27829    16400     5589    -5415   -25741   -60451  -104161  -146968 
 -181181  -202156  -207474  -197029  -172115  -136169   -95863   -57638 
  -24196     3632    22913    30873    30510    28599    30495    37004 
   43182    44058    40968    38633    39555    44136    51414    57839 
   60992    61827    59779    53620    47418    46624    49432    49679 
   45483    38830    30979    22224    13133     4722    -1794    -7047 
  -13261   -17523   -13101    -1277     9085    11531     5663    -2368 
   -4316     1352    10538    20787    31007    40364    49766    59199 
   66205    66890    56041    29852    -9549   -53104   -90894  -118097 
 -133081  -134868  -122949   -97602   -63507   -30247    -5717     7257 
    9756     6383      911    -6158   -11195    -8147     2427    12304 
   13591     6442    -4293   -15049   -21956   -23693   -23118   -21289 
  -18051   -15769   -18167   -28192   -44909   -61210   -68842   -66109 
  -58859   -55417   -58571   -63449   -65261   -61804   -48694   -22001 
   14959    53551    86360   109103   119585   117135   103723    83982 
   62559    42163    23416     6148   -10715   -27895   -42493   -51881 
  -57745   -62414   -64237   -58320   -44592   -29458   -18234   -14368 
  -20298   -34526   -52120   -65185   -66545   -58762   -51190   -47324 
  -43407   -36557   -27849   -18212    -7410     3969    16480    30079 
   41911    51284    59583    65958    67049    59650    46109    30443 
   11289   -11017   -31182   -44948   -51405   -54285   -57725   -60742 
  -61367   -58647   -49499   -33111   -15588    -2782     6064    14414 
   25070    38602    50839    56367    53533    44833    34686    24882 
   14525     2532   -15146   -43155   -79201  -114279  -138064  -143637 
 -130380  -102589   -67893   -37403   -18683    -7999     3098    15660 
   24056    26081    23627    17189     7446    -2580    -9583   -13454 
  -15969   -15600   -12203   -10324   -10246    -7455     -537     6589 
    7413     -779   -13941   -25273   -30714   -32472   -37111   -48848 
  -63562   -72007   -69571   -59516   -48442   -38468   -26773   -14086 
   -3831     3138     6756     8875    12297    16334    19853    21331 
   17513     9121     -341    -9875   -20794   -34949   -51147   -64890 
  -72418   -72870   -69495   -65903   -59986   -48239   -32616   -17244 
   -3818     5331     5368    -5102   -21666   -39130   -54162   -64544 
  -68558   -66849   -63894   -62562   -59598   -50877   -35190   -12650 
   12467    32932    46026    52504    53752    52762    51345    48688 
   43193    34050    22451    10651      684    -6720   -11807   -13945 
  -12751    -7915      328     9113    18024    29394    42061    53593 
   61885    64772    63802    61134    55019    44289    31405    19241 
    8866      358    -6553   -12437   -17801   -24252   -34569   -49465 
  -66121   -78513   -79567   -68442   -52519   -36967   -18853     4499 
   30355    55684    78785    97060   107529   107694    96656    76536 
   51413    25717     4804    -7224   -12754   -17734   -23327   -27018 
  -28710   -29641   -29135   -25416   -17637    -7484     2195     9761 
   13751    13600    11669    10257     9461     9448    10669    12103 
   11463     8135     4378     1204    -2870    -8526   -16333   -29840 
  -52860   -83987  -117949  -149142  -172260  -184478  -186262  -179222 
 -165191  -146754  -128433  -115484  -108729  -103943   -98244   -91018 
  -80188   -65315   -51249   -44578   -48297   -59845   -73631   -84400 
  -88376   -85326   -79202   -71864   -61026   -47717   -36217   -26241 
  -12974     5203    22911    33977    38435    39991    40814    42601 
   47419    54423    59907    61063    58209    54091    52193    55267 
   62322    67689    67150    63986    64137    68116    72371    73412 
   69945    64074    58676    54688    48996    38212    26744    19216 
   11182    -1988   -18277   -32803   -42836   -50693   -59759   -69742 
  -77995   -80654   -74153   -58863   -40629   -28105   -26268   -33014 
  -42277   -48181   -48816   -47418   -47047   -45521   -38827   -28142 
  -18826   -12133    -4621     5245    16265    25955    32120    35540 
   36606    33020    23698     9708    -5846   -17254   -21529   -23460 
  -29232   -37932   -44448   -45002   -37551   -21937       35    23936 
   42796    52689    55984    57842    62514    69044    71462    67027 
   58167    47399    36994    28793    21106    11940     4394     1926 
    1956    -1273   -11630   -28511   -47282   -63864   -76576   -84279 
  -86621   -84045   -77306   -68599   -61626   -60275   -65959   -75533 
  -84269   -90108   -92701   -90355   -81056   -64667   -41470   -12881 
   16310    42066    64289    84577   103832   118906   123699   115872 
   96964    68467    33248    -2392   -31096   -49459   -59513   -65322 
  -70585   -76601   -80734   -79362   -71569   -60017   -49445   -42795 
  -39782   -39750   -41800   -44351   -47913   -53846   -61363   -68755 
  -73609   -71954   -62124   -47920   -34098   -23071   -16937   -16048 
  -18214   -22490   -28655   -35461   -43945   -57018   -73165   -87095 
  -96487  -101679  -102474   -98556   -89891   -77460   -63102   -47860 
  -31914   -14152     7860    34226    60451    80659    92617    98164 
   98576    94480    86769    71805    46843    19578    -1495   -16795 
  -27008   -29844   -28057   -27731   -31626   -38358   -43608   -44720 
  -42531   -38254   -34889   -35215   -36534   -35155   -30892   -25311 
  -20376   -15807    -8931     1390    15988    37254    64794    93876 
  119174   136946   145884   147818   146014   142263   136165   126276 
  110998    89171    62068    34404     9629   -13870   -37266   -57390 
  -71014   -76368   -73765   -67319   -60814   -54958   -47718   -36195 
  -21561    -7444     5115    16814    27322    35937    42620    46086 
   44603    37590    26274    14323     4438    -3262    -9846   -16085 
  -19910   -17658    -7101    12702    39559    66277    85841    95445 
