Origin Time       2011/03/11 14:46:00
Lat.              38.103
Long.             142.860
Depth. (km)       24
Mag.              9.0
Station Code      TKY010
Station Lat.      34.3779
Station Long.     139.2573
Station Height(m) 16
Record Time       2011/03/11 14:47:47
Sampling Freq(Hz) 100Hz
Duration Time(s)  300
Dir.              U-D
Scale Factor      3920(gal)/6182761
Max. Acc. (gal)   134.635
Last Correction   2011/03/11 14:47:32
Memo.             
[...]
  -10679   -10160   -10273   -11097   -11923   -12484   -13165   -13941 
  -14419   -14780   -15096   -14837   -14189   -13889   -13774   -13330 
  -12738   -12141   -11288   -10407    -9917    -9444    -8511    -7680 
   -7675    -8240    -8968    -9889   -10584   -10382    -9650    -9342 
   -9677   -10213   -10218    -9310    -8172    -7377    -6809    -6782 
   -7087    -6328    -4462    -3068    -2700    -2774    -2979    -3410 
   -4137    -4865    -5196    -4976    -4175    -3007    -2019    -1767 
   -2380    -3354    -3980    -3935    -3212    -1794      174     2004 
    2738     2027      324    -1795    -4117    -6667    -9352   -11852 
  -13631   -14246   -13978   -13439   -12699   -12020   -12256   -13363 
  -14399   -15314   -16794   -18680   -20224   -21226   -21839   -22096 
  -22085   -21958   -21900   -21930   -21492   -20267   -19066   -18642 
  -18544   -17988   -16779   -14950   -12855   -11616   -11493   -11379 
  -11351   -12152   -13019   -13292   -13289   -13014   -12590   -12437 
  -12356   -11864   -10950    -9860    -8591    -7279    -6386    -5791 
   -5116    -4524    -4194    -4269    -4872    -5414    -5258    -4821 
   -5001    -5989    -6955    -7018    -5974    -4094    -2277    -1289 
    -670        1      267     -153    -1044    -2262    -3724    -4892 
   -5293    -5535    -6409    -7462    -7675    -6854    -5472    -4146 
   -3732    -4412    -5058    -4998    -4706    -4248    -3389    -2594 
   -2286    -2195    -1981    -1605     -892       62      263     -554 
   -1208    -1206    -1105    -1277    -2089    -3724    -5674    -7373 
   -8466    -8753    -8504    -8289    -8533    -9198    -9882   -10485 
  -11119   -11602   -11852   -11893   -11522   -10864   -10442   -10507 
  -10776   -10876   -10966   -11301   -11611   -11531   -10941   -10019 
   -9197    -8725    -8338    -7517    -6109    -4454    -2983    -2066 
   -1848    -2142    -2682    -3124    -3305    -3515    -3641    -3137 
   -2303    -1655     -755      691     2134     3069     3215     2423 
     990     -487    -1424    -1716    -1865    -2106    -2280    -2669 
   -3356    -3594    -3158    -2708    -2470    -2588    -3930    -6589 
   -9340   -11477   -13003   -13675   -13624   -13674   -14163   -14403 
  -13932   -13237   -12736   -12448   -12599   -13309   -14306   -15421 
  -16420   -16737   -16108   -14845   -13358   -12052   -11095   -10016 
   -8733    -8033    -8141    -8770    -9821   -10461    -9936    -9127 
   -8898    -8845    -8685    -8863    -9708   -10861   -11804   -12406 
  -12294   -11049    -9152    -7183    -5312    -3912    -3215    -3162 
   -3847    -5195    -6835    -8197    -8605    -8133    -7512    -6937 
   -6188    -5311    -4642    -4641    -5511    -7014    -8603    -9708 
  -10498   -11652   -12970   -13629   -13456   -12910   -12493   -12327 
  -12068   -11320   -10049    -8603    -7554    -7473    -8314    -9171 
   -9286    -8774    -7863    -6524    -5224    -4559    -4418    -4431 
   -4403    -4501    -5347    -6911    -8040    -8093    -7590    -6956 
   -6274    -5975    -6371    -7021    -7622    -8580   -10003   -11340 
  -12072   -12074   -11746   -11549   -11021    -9387    -7168    -5481 
   -4436    -3801    -3676    -3740    -3797    -4529    -6267    -8485 
  -10535   -11674   -11386   -10140    -9050    -8591    -8295    -7795 
   -7185    -6791    -6919    -7171    -7116    -7239    -7688    -7941 
   -8035    -8266    -8423    -8176    -7700    -7326    -6841    -5977 
   -5027    -4516    -4830    -6046    -7929    -9965   -11542   -12538 
  -13130   -13258   -13266   -13779   -14484   -14756   -14936   -15398 
  -15575   -15034   -14056   -12790   -11391   -10545   -10404   -10200 
   -9545    -8774    -8411    -8904   -10253   -11932   -13397   -14475 
  -15128   -15135   -14270   -12639   -10707    -8987    -7763    -7032 
   -6670    -6768    -7525    -8928   -10815   -12417   -12674   -12254 
  -12747   -13716   -14087   -14206   -13904   -12542   -11128   -10848 
  -11380   -12062   -12689   -13169   -13432   -13802   -14596   -15229 
  -15239   -15124   -14982   -14666   -14671   -14971   -14945   -14810 
  -15123   -15445   -15188   -14828   -14911   -15214   -15293   -14808 
  -13863   -13065   -12747   -12792   -13068   -13339   -13370   -13201 
  -12942   -12791   -12916   -13029   -12798   -12347   -11955   -11641 
  -11285   -11190   -11789   -12730   -13178   -12797   -11889   -10998 
  -10383    -9595    -8386    -7365    -6785    -6326    -6040    -5912 
   -5687    -5511    -5396    -4810    -3594    -2487    -2164    -2357 
   -2706    -3312    -3992    -4511    -5035    -5368    -4888    -3672 
   -2482    -1708    -1367    -1521    -2126    -3036    -4147    -5307 
   -6321    -7238    -8556   -10765   -13363   -15123   -15653   -15512 
  -15014   -14174   -13188   -12161   -11168   -10430   -10013   -10115 
  -11199   -12710   -13263   -13049   -13298   -13746   -13649   -13324 
  -12914   -11970   -10755   -10058    -9566    -8580    -7676    -7377 
   -7337    -7683    -8786   -10311   -11337   -11156   -10186    -9263 
   -8893    -9484   -10343   -10356   -10020   -10032   -10112   -10110 
  -10041   -10065   -10437   -10996   -11745   -12713   -13518   -14243 
  -15133   -15592   -15200   -14515   -13886   -13231   -13092   -13709 
  -14074   -13474   -12185   -10696    -9606    -9390    -9764   -10104 
  -10692   -12166   -13982   -15190   -15505   -14911   -13715   -12606 
  -12055   -11908   -11612   -11015   -10454   -10120   -10008   -10102 
  -10144    -9719    -9121    -9167    -9647    -9469    -8332    -6873 
   -5566    -4656    -4435    -4528    -4173    -3515    -3310    -3683 
   -4056    -4187    -4398    -4705    -4880    -5239    -6042    -6749 
   -7153    -7858    -8753    -9034    -8803    -8801    -9212    -9980 
  -11252   -12623   -13288   -13349   -13423   -13564   -13685   -13864 
  -14227   -14895   -15591   -16099   -16625   -16943   -16711   -16357 
  -16426   -16791   -16846   -16398   -16053   -16249   -16984   -18279 
  -19620   -20202   -19972   -19361   -18567   -17404   -15845   -14221 
  -12557   -10974   -10039    -9691    -9313    -8953    -9109    -9644 
   -9967    -9920    -9779    -9864   -10128   -10050    -9281    -8270 
   -7929    -8125    -7827    -7294    -7161    -6688    -5869    -5850 
   -6180    -5871    -5899    -6933    -7796    -8059    -8362    -8633 
   -8598    -8693    -9089    -9322    -9520   -10247   -11269   -11872 
  -11939   -11876   -11737   -11479   -11560   -11929   -11996   -12055 
  -12333   -12427   -13072   -14227   -13342   -10532    -9085    -8038 
   -5551    -5226    -6884    -5891    -4654    -6895    -9655   -10473 
  -11055   -12480   -13730   -14705   -16152   -17435   -17279   -15737 
  -14230   -13161   -12108   -11409   -10974   -10947   -11413   -11129 
  -10558   -10933   -11067   -10587   -11032   -12362   -13167   -13051 
  -13058   -14205   -15804   -16663   -16527   -15660   -15087   -15379 
  -15731   -15709   -14770   -12805   -12019   -12496   -11498   -10136 
  -10773   -11824   -12342   -13519   -14699   -14594   -13855   -13283 
  -12178   -10505    -9266    -7990    -6785    -6613    -6647    -7508 
   -9835   -10739    -9788    -9687    -9966    -8754    -7211    -7335 
   -8124    -7678    -7455    -9004   -10321   -10669   -11532   -12170 
  -11471   -10158    -9572   -10252   -10174    -8344    -7418    -8004 
   -7931    -7661    -8732    -9466    -8788    -9526   -12332   -14124 
  -14826   -15541   -14572   -12967   -13521   -14597   -14242   -13767 
  -14658   -16302   -16790   -16184   -15842   -15680   -15363   -14994 
  -15132   -15588   -15049   -14483   -14787   -14431   -14082   -15090 
  -16335   -17000   -16868   -16063   -15655   -15807   -15971   -16132 
  -16032   -15721   -15497   -15273   -15673   -15930   -14704   -14404 
  -15545   -15184   -15012   -17535   -19859   -19540   -18585   -17920 
  -15301   -11453    -8993    -7347    -5042    -3524    -5303    -7918 
   -9232   -11326   -12069   -10082    -8619    -8741   -10044   -10758 
  -10052    -8938    -7334    -7366    -7978    -6306    -7248   -10455 
  -11267   -13593   -14791   -10234    -7303    -6121    -3590    -5283 
   -8215    -7300    -4868    -1588     -598    -3250    -6483   -10377 
  -10446    -6959   -11249   -18640   -16618   -13422   -18208   -20828 
  -13663    -4112     1682     3917     1509    -5503   -10566    -9598 
   -8838   -12102   -13410    -6013     4238     4045    -4970   -18603 
  -34361   -30329      900    28419    23045    -9296   -35084   -36159 
  -17351    11302    16053   -15810   -32195   -13879    -4379   -11959 
  -14652   -13424   -11215    -5057    -3538   -12823   -18168   -10211 
   -5159    -9055    -9975    -9218   -11733   -12831   -13324   -13123 
   -5729     -121    -9322   -19877   -14801    -2542     1457    -3385 
   -6213    -2990     -291     -277    -2591   -10526   -19459   -16910 
   -2986     2163   -10706   -20827   -19716   -21288   -19602   -10906 
  -10860   -12813    -7043    -2185     2684     4735    -3619   -12951 
  -18395   -22510   -21285   -17217   -13928   -12813   -19546   -23610 
  -14082    -8805   -16394   -17465    -8430    -9915   -18131   -10087 
   -6162   -24248   -25892    -9206   -10744   -20379   -26648   -35480 
  -29495    -6132     9706     8946     3002     1667      378    -3676 
   -2480    -4435   -10176     3995    20372     8273    -9308   -11884 
   -9796   -10686   -12774   -10597   -12035   -22011   -23666   -17365 
  -17065   -16575   -10361    -2511     5848     7154    -2126    -2624 
    8448     2433   -11202    -2125     3251   -13915   -19261   -10410 
  -12481   -18017   -16371   -13423   -13055   -12488    -9454   -12741 
  -22733   -19694     -590    12361     5818   -13687   -25195   -10870 
   11155    11978      230    -8474   -21066   -32508   -23866    -4481 
   -1553   -11949   -14192   -11476   -15370   -20007   -21590   -23708 
  -20275    -4849     9945     7461    -4851    -7551    -4122    -8660 
  -10707    -3720    -6500   -17080   -14363    -2623     2476    -2433 
  -18367   -34922   -32700   -21171   -17396    -9564     1836    -1794 
  -11852    -9355     1077     2842    -4091    -6252    -7893   -18207 
  -28143   -36019   -44987   -35170     2940    30726    14704    -9291 
    2272    21447    18525    13075      358   -33697   -52817   -41028 
  -31484   -24883    -7154    -3682   -12736   -10480   -17732   -33699 
  -26806   -10411    -4615      -56    -2249   -14577    -9246     9567 
    9945     -448    -5745    -6932    -3785    -7347   -23697   -36212 
  -40582   -43747   -37949   -31508   -38598   -35996   -17868   -12202 
   -9977      332    -2642    -8164    -1554    -5377   -16522   -15904 
  -12114   -12200   -12655   -11194    -7225    -7669   -17875   -31275 
  -37482   -28606    -6179     7895    -3325   -11726     6718    13328 
  -11017   -23849   -14034    -4186     5674    12199    -3547   -33473 
  -40410   -16992     1927    -2686   -12095    -9392    -3931    -7411 
  -10698     2510    15676    -3253   -28619   -17622     5071     1581 
  -13181   -16380   -20912   -31440   -24216   -11862   -22094   -33100 
  -31835   -29677   -13639    15433    24694     3844   -12266     6163 
   34132    31849     2911   -21733   -31983   -34023   -23405    -7658 
    1921    13721    20354      874   -32824   -46796   -48130   -62542 
  -62569   -29913   -10194   -26469   -30737     8680    38474    20116 
    4462     9871    -9928   -25975     2112    -5371   -71624   -89185 
  -48127   -26920   -11492    17609     9176   -17811    -4035    18857 
   14282    -1119   -17232   -23493    -9831     4350    -5540   -32206 
  -45707   -24035     9631     2751   -21497   -12758   -10016   -28305 
  -18960     3336    -3554   -20085   -11728     9897    20670    30580 
   45307    42024    11811   -22699   -39541   -42709   -28060     3383 
   -4019   -58744   -76780   -34692     2666     6101     4625    32656 
   88515    93758    -1661   -98298  -105410   -55550   -21393   -53673 
 -100178   -64134    24401    85369   110981    82345    -6351   -56036 
  -29237   -20287   -59311   -84045   -66130   -22899    24076    49343 
   49933    30716   -19398   -40863     4688    25987    -2226   -27093 
  -58859   -78546   -45734   -14113   -24593   -18436    28588    56954 
   39446     1257   -24859   -19885   -16948   -43950   -62011   -36669 
   24000    63680    22541   -23473    17567    58904    32733    -9158 
  -58554   -90888   -43407    20429    12148   -22925   -23273     7380 
   40919    46010    20261   -10700   -33485   -48024   -39345   -17807 
  -18999   -10692    19151     9528   -14789    -3974    -5482   -47844 
  -89496   -95481   -75209   -57407   -39351    -7189    24162    38236 
   37821    32787    25587    21662    25445    17026    -1984    -2210 
    5042     -602     3143    12367   -13478   -42772   -16188    19534 
  -13757  -103711  -174880  -151700   -56968   -16525   -50721   -47180 
   41974   147252   163932    72089   -13386   -14994      251     2595 
   28667    37816    -9276   -74441  -104381   -76162   -22800    23042 
   77941   125030   107072    33198   -30123   -32778   -22806  -100962 
 -169778   -81199    23971     6162    -2707    47713     6256   -77693 
  -31439    14882   -69527   -86105    50478   124675    80942    95555 
  150598    94871     1204     5619    15181   -82635  -136225   -47411 
    4152   -26337   -21964   -12212   -32246   -60912  -124844  -160330 
  -72838    27245    -4959   -64436    23962   179591   202976   108775 
   22065   -68627  -132758   -52754    43436   -24508  -125206  -110233 
  -43202    -7708      623    42760   110342   101796    39781    31577 
   46615    27534   -19005   -97020  -168185  -162684   -70179    32827 
   37482   -16923    -7252    12955   -20980   -13073    43416    48194 
    7264   -24528   -53749   -91191  -108320   -78161   -23151   -15105 
  -61171   -69217   -11646    46505    49155    -6729   -51460   -43090 
  -28067   -20113     2406    20579    27283    31463    23056     7802 
  -16605   -74288  -139994  -151548  -105088   -49854     5887    76255 
  130757   146337   141958   122581    44423   -97284  -194665  -200616 
 -180494  -109766    34953   131495   104252    17904   -26886     7368 
   45562    45129    69808   107026    85375    31089   -10440   -56036 
  -97485   -88421   -43092    -1385    44516    76223    66195    70525 
  118100   117364    23185   -64014   -88447  -115206  -154699  -162040 
 -139504   -92854   -34171    -8714   -22960   -13485    50784    95541 
   70157    28390     4354   -11520   -11667    -4944      117    21735 
   47774    50464    32022    -4450   -45410   -44371    -5080    -4079 
  -50516   -60487   -12308    28172    28312     7528   -25675   -70168 
  -95066   -68488   -12518    24038    33959    44121    54817    35993 
   -3140   -12424      591    -6644    -9595    25961    69797    75324 
   37878    -7120   -45517   -86162  -105235   -90159   -74294   -68649 
  -56344   -44047   -40373   -32777   -24629   -32133   -35765    -2607 
   46756    62006    45101    34955    28555    11053    13545    39749 
   39509     5911   -21684   -27942   -22737   -14971    -9655   -10531 
   -9659     4795    23363    33276    32983    10750   -30640   -55686 
  -51517   -39721   -30896   -29227   -46030   -73853   -87969   -81510 
  -70598   -59358   -32523     7983    44644    71110    84448    84593 
   78841    64965    41959    30375    36655    27274   -16083   -63451 
  -78444   -52612   -12689     6153     6036     9232     8989    -8847 
  -26312   -29464   -30783   -31963   -29607   -35154   -40182   -18612 
   14309    23616    21752    29164    29325    19021    18227    25929 
   21681    -2086   -28087   -45566   -58599   -55911   -38319   -32531 
  -30913    -4984    26738    37092    41070    46491    37497    14951 
  -11412   -35703   -50662   -58202   -60857   -54401   -41245   -26472 
  -11203     4611    20810    35758    43788    34661    15764    12821 
   20723     8014   -28418   -65602   -82309   -69321   -44398   -37823 
  -45862   -41293   -29195   -29093   -27925   -11163     8277    17516 
   15619     4059   -15318   -35976   -42217   -25946    -6276    -3146 
   -7642    -8332    -9866   -11047    -7725    -3845     3582    22013 
   44945    57276    56830    52242    44122    29453     7888   -15699 
  -24541   -17103   -13780   -14940   -11128   -15046   -31571   -39338 
  -30581   -25522   -28275   -20097    -4386     3039    11411    31707 
   45249    31037     1268   -20480   -29685   -29003   -21004   -14560 
  -16393   -23642   -26354   -18834    -6796     2874     5230    -1227 
   -6936    -8238   -16476   -30861   -36697   -37027   -44946   -51864 
  -47632   -42241   -35875   -18022     3258    15661    22787    28411 
   25225    11654    -1240   -13405   -31233   -40036   -32415   -30441 
  -37955   -30842    -7785     9698    15510    12328    -4836   -27189 
  -32744   -23752   -19552   -19254   -13901   -11324   -16710   -17767 
  -10232    -6087    -5295     3642    18679    30032    34797    33483 
   26676    19040    19041    24729    20382     2304   -10015    -1234 
   17941    26972    18755    -1983   -23797   -31204   -21418   -10720 
  -10181   -13337   -20588   -35276   -38316   -24693   -21582   -27941 
  -14346    12288    22023    16778    13653     9548     1723     2722 
   13382    15820      462   -21726   -38312   -51052   -61614   -62189 
  -55612   -53266   -49923   -40516   -37685   -42318   -39677   -30284 
  -27459   -35131   -43782   -41197   -26908    -8841    10636    29936 
   43614    52120    57624    54283    40517    23603     5707   -10682 
  -16234   -11032    -7344   -10095   -10481    -5483    -7853   -22709 
  -33961   -31071   -24077   -20763   -20689   -25355   -28573   -21623 
  -11131    -8231   -14269   -23340   -28284   -28038   -26296   -23515 
  -18975   -12997    -5421     1044     3943     3904    -1598   -12721 
  -19620   -15154    -6946    -8273   -19276   -25870   -20948    -9901 
    3805    18648    30904    39954    46768    49238    43310    29658 
   19031    18964    20757    15784     8738     4664     2768     1535 
     309     2533     9476    12433     7141      751    -3939    -9783 
  -13584   -11255    -7300    -6142    -4977    -5647   -12872   -19026 
  -17974   -17024   -20861   -27822   -33005   -28429   -16030    -9597 
  -16814   -28639   -30774   -22926   -16470   -14887   -11123    -4616 
   -4428   -12035   -19884   -28700   -44565   -61933   -68722   -59744 
  -37415   -13378    -1609     1766     9296    15937    12513     7829 
   10224    11541     7541     7219    11493     7672    -9336   -30497 
  -47498   -54315   -43576   -20896    -1811    12404    27086    36145 
   37682    40387    43173    38581    30526    21936     5694   -14547 
  -25838   -29260   -31482   -28170   -17124    -7022    -2719     -580 
    2486     6371    10593    16859    22566    20571    15979    16126 
   11219     -773    -5936    -8561   -21469   -33503   -33683   -33358 
  -36591   -33783   -27769   -23471   -12547     2021     3957    -2450 
     -59     8146    10764     8825     4348    -4539   -14115   -20104 
  -23947   -25740   -21603   -10315     3485    13463    16488    10218 
   -7432   -29082   -42066   -44853   -43306   -38339   -30722   -25836 
