Origin Time       2011/03/11 14:46:00
Lat.              38.103
Long.             142.860
Depth. (km)       24
Mag.              9.0
Station Code      TKY021
Station Lat.      35.6875
Station Long.     139.8190
Station Height(m) 1
Record Time       2011/03/11 14:47:29
Sampling Freq(Hz) 100Hz
Duration Time(s)  300
Dir.              U-D
Scale Factor      3920(gal)/6182761
Max. Acc. (gal)   72.077
Last Correction   2011/03/11 14:47:14
Memo.             
[...]
   32871    15972    -3839   -22909   -38294   -45029   -38208   -20911 
   -7562   -11751   -29111   -37368   -24365    -6218     3446    15469 
   32523    38201    31421    28719    38638    54491    58102    40603 
   20785    15312    12507     2747      344    14646    30460    32305 
   24884    16961     6702    -4369    -7183    -2952    -2188    -6342 
   -7076    -2565    -2490   -11282   -18775   -15148    -2643     6533 
    -108   -15400   -15499     4601    25782    33228    24990    11327 
    9388    13088    -3054   -31224   -35125   -12249     4243    -3352 
  -21713   -30579   -26221   -21062   -24856   -36388   -48247   -51419 
  -45059   -37264   -28003   -10898     6777    10807     1633    -7575 
   -5501     7989    19733    18549    11504    11879    21517    33534 
   39516    35316    23891     7966    -9550   -20744   -24732   -29059 
  -31736   -26852   -19843   -15400   -13249   -19954   -35158   -43226 
  -38215   -28725   -17682    -4642     2312    -1645    -6340    -4175 
   -2734    -3146     7576    25330    23991    -2392   -25509   -20459 
    4366    20534    16430     7312     4809    -2074   -27016   -58812 
  -69716   -57816   -49503   -49492   -38569   -20685   -15213   -16648 
  -10693    -5277    -9081    -8596     7382    28244    41646    45136 
   34498    11365    -5923    -6326    -3904   -12199   -18213    -3689 
   17629    15992    -7704   -26529   -26258   -12733      376     1150 
   -5527    -2086    13288    23932    20481     9339     -153    -3198 
    1579     9528    11319     5689       69    -4888   -13207   -20395 
  -22182   -22662   -21170   -12752    -4221    -4456    -4951     4185 
   15057    18803    16495     9500     3422     6366    11668     7282 
   -2489    -6623    -4567    -1286      535     -404    -3258    -6035 
   -8701    -8697     -178    13412    16293     -965   -27569   -41865 
  -34311   -22478   -30157   -51067   -59413   -51016   -42424   -36388 
  -20822      298     7672    -2058   -14629   -21494   -23000   -20549 
  -19130   -21309   -15565     6134    26643    27500    16854     7897 
   -2203   -12921   -13998    -4824     6660    15619    19731    18909 
   13680     3060    -9230   -13796    -6023     6386    11607    11675 
   16959    21138    13487     5796     7915     6807    -2969   -10120 
   -9458     -276    16293    26299    19487     8949    10152    18440 
   20972    14847     7391     3794     -950    -9968   -13079    -4947 
   -1087   -13634   -28967   -31221   -23987   -15134    -9405   -12450 
  -19271   -21850   -28681   -42846   -46808   -37814   -36590   -45774 
  -43306   -23002    -4728    -3643   -15529   -24823   -17341     1039 
   10670     9969    11721    17228    21329    22032    15387     2510 
   -4088     3673    17653    22213    10300    -7637   -18206   -21071 
  -15565     1777    16956    13875     1586    -7125   -16093   -25543 
  -27687   -24308   -21044   -17118   -12289    -5478     9264    29822 
   41715    36333    23835    20887    28641    33968    30882    25288 
   20990    15169     5506    -8007   -20706   -20217    -5689     1820 
   -7220   -17351   -22414   -30757   -36433   -26653    -9448    -3622 
  -11473   -21072   -25822   -26790   -24118   -15537      521    20312 
   36287    43376    38249    26176    24865    36633    38293    18854 
   -4928   -17386   -20493   -21907   -21557   -13812    -1503     1664 
   -9712   -21965   -19734    -4440     8188     3884   -13388   -25048 
  -22736   -15096   -11326   -12695   -15699   -16469   -14190   -13449 
  -19764   -28898   -29668   -18537    -4317       54    -6853   -13139 
  -12935    -7930     6586    30232    46985    46049    33172    18488 
   10537    10783    10955     9341    14617    27968    41006    47166 
   42599    25641     2810   -13001   -13735    -4067     1364    -7578 
  -26696   -45950   -59312   -64900   -63866   -58464   -49991   -40948 
  -34295   -27159   -13690     1530     5266    -3694   -11222   -10396 
   -9199   -12385   -15850   -19918   -29037   -39205   -39518   -25088 
   -4558     5935     3318     3982    16451    27592    26820    17629 
    2709   -17735   -34965   -36265   -19523     3019    15038    11463 
     562    -9898   -16520   -13695     -683    11045    11289     2155 
   -8694   -12539    -2242    15743    22629    11619    -2329    -4215 
    3000     8451     8794     3052   -12794   -31995   -38304   -29936 
  -19602   -14121   -13759   -17728   -20179   -19581   -25388   -38670 
  -45822   -41149   -35283   -34757   -31387   -19046    -2756     8779 
    7599    -4941   -15691   -18230   -18214   -14405      872    20143 
   25516    17025    16502    37598    63915    70092    56785    43615 
   37187    31237    25710    24821    26098    22621    13355     3498 
   -6167   -16048   -20465   -19735   -17695    -7655     7705     7070 
  -14403   -37328   -49805   -52534   -48052   -44234   -42677   -33008 
  -18305   -10816    -5194     3636     2814   -10004   -17183    -9640 
    5825    18968    22775    22925    29639    35606    30372    23118 
   22247    19224     9490     -895   -11098   -21182   -23747   -20593 
  -25965   -40480   -49029   -47782   -45865   -45646   -42833   -35386 
  -23126   -10613    -6389    -9773    -8817     1930    12297    12370 
    8778    16560    38888    61670    69379    61121    46645    32131 
   18785    10659    10174    11082    10480    14803    20470    11895 
   -9502   -21903   -16736    -8639    -8966   -16269   -29356   -44348 
  -51096   -49653   -49917   -51034   -46635   -42499   -41917   -32961 
  -17230   -17684   -34549   -40422   -29738   -20190   -15539   -12630 
  -15612   -18315    -9466     5428    15210    16469     7948    -4803 
   -7663     6240    30150    48890    48580    34843    28714    35744 
   40422    32227    20273    17465    19535    15375     6653    -1695 
  -10982   -19869   -25742   -28217   -23784   -13349    -6960    -8973 
  -13600   -15225   -14568   -20130   -35913   -45721   -34095   -16847 
  -17856   -30415   -30095    -9880    12036    13794    -2950   -15111 
   -9608     2838     7882     5296     1739    -3116   -11753   -15971 
   -8169     1811     2866     2290     8768    13134     5808    -5790 
  -10006    -2296    10760     8457   -17064   -36109   -22959    -2117 
   -8864   -33812   -44374   -30146    -7670     1715    -3517    -7748 
   -8038   -15426   -28568   -37303   -39914   -36095   -24362   -10580 
   -2776    -3199    -5922    -3607    -2875   -14637   -31948   -40101 
  -33663   -16040      964     6594     4636     2481      -75    -2014 
   -1457      777     7804    19696    29831    39090    49616    53111 
   47637    42155    37179    25886     8321    -8328   -15918   -11867 
    -693    12912    26398    34667    31869    18650      750   -16672 
  -28594   -33649   -37706   -44083   -47118   -38738   -18567      383 
    4990    -1149    -8059   -13330   -16418   -16813   -18485   -23647 
  -27812   -26326   -21886   -21703   -24407   -22199   -18114   -15883 
   -7227     3329    -1923   -17414   -23164   -19383   -16304   -13805 
  -11150   -14084   -23572   -30540   -25344    -9164     8307    22162 
   30460    23121    -5035   -36207   -47493   -39714   -28833   -21273 
  -14040    -5477     -782    -7759   -20977   -26897   -25206   -24133 
  -28206   -38395   -45920   -37559   -21516   -22093   -43010   -65350 
  -75956   -75586   -68840   -56615   -38579   -21896   -15013   -12566 
   -6015    -2509    -9289   -15869   -13387    -8320    -8178   -15285 
  -27855   -36513   -34307   -27469   -22947   -18875   -15991   -20161 
  -30068   -35647   -32364   -28124   -27712   -24404   -12323     1665 
    -589   -21547   -36067   -29260   -16254   -13274   -18221   -22322 
  -23631   -24784   -22566   -10654     4507     9520     5164     3333 
   11834    25693    26602     6606   -12326    -8347     6868    12271 
   11143    16170    25590    30880    30598    29582    31698    33618 
   28139    17343    12597    17466    22490    17216     2369    -6958 
    1095    12240     1950   -26727   -45697   -37847   -10987    14257 
   17164    -5112   -27958   -28900   -17626   -13893   -14272    -5688 
    6489     8605     1589    -7270   -20044   -38920   -56481   -65801 
  -68201   -67846   -64546   -51805   -27038    -4099      841    -6618 
  -11230   -13754   -22892   -36673   -45360   -41338   -24776    -5895 
    4167     6685    10601    16606    18378    14745     7710    -2492 
   -9442      768    29849    53265    46370    20747     5486     1512 
  -10674   -31847   -44509   -40411   -29017   -24674   -30232   -36423 
  -37814   -36092   -31134   -25238   -21082    -7904    22336    51115 
   58516    55395    57423    53335    32078     8525    -1113     1694 
    9149    13920     6630   -16448   -43260   -54396   -43424   -23447 
  -10308    -7184   -13533   -33056   -55190   -50919   -15731    11385 
    2837   -17019   -11722    17084    41626    46873    39334    34131 
   36324    32842    19428    15149    27348    37174    30013     9507 
   -9526   -12424    -7057   -16925   -37681   -39147   -14702    13269 
   27149    22850     1713   -31311   -66598   -88123   -82141   -54285 
  -27869   -19789   -23692   -20151    -3264    11265    10865      324 
  -13870   -28320   -32578   -16408    11656    28319    24209    13898 
   11333    12636     7972    -2469    -9339    -8136    -5491    -5151 
    2415    22957    40302    33742     9377    -6742    -5400    -3247 
  -14679   -31201   -35030   -25348   -18577   -22784   -25936   -15213 
    1541     4757    -7682   -17731   -16270   -11630   -10174    -8803 
   -3527     1781       99    -3269     2016     9903     7036    -4344 
  -10087    -3144     9952    17920    17600    16928    22880    33398 
   45287    55922    54315    30351    -6300   -33654   -41346   -36468 
  -27470   -13015     7302    20390    11678    -8143   -11967      290 
    5474     -161    -4892    -6034    -5548    -8136   -18176   -19329 
    9964    53837    74788    64209    42979    26971    14279     1677 
   -5451    -7886   -16787   -35728   -55093   -64410   -63513   -61596 
  -63130   -60694   -48499   -32053   -18188   -11596   -17187   -25248 
  -19482   -12814   -26845   -43037   -34174   -15693   -11751   -12580 
   -2674     7840      296   -21991   -32851   -15071    19257    43563 
   39430    10537   -15205   -11081    15630    35714    36791    26802 
   14687     6646     4204      520    -4702     3616    32856    65716 
   78979    67076    37789      569   -27072   -26532    -3390    20137 
   30935    25692     7131   -13510   -22745   -16519    -7569    -8933 
   -9203     5295    15698     1726   -18126   -16620     4930    28397 
   40483    38544    27239    13683     3223    -4329   -10192   -14084 
  -24181   -51054   -83088   -91134   -63628   -22301      118    -3393 
   -9233    -3022      226   -11898   -25631   -20994      485    16582 
   11437    -5202   -15212   -18480   -22127   -22374   -13682     5802 
   30135    40089    28082    10242    -2720    -9473     -587    23997 
   42042    37833    21985    12515     8578    -6221   -34244   -55286 
  -52213   -27673     4117    27603    31699    17839    -4137   -31319 
  -61220   -78927   -74078   -57154   -46599   -50672   -61276   -60143 
  -37977    -7291     9815     4461    -6067     4896    32035    40252 
   20163    -1667    -6944     5849    35686    64983    67962    50495 
   40039    39813    32809    18844    16544    34248    55541    59656 
   48789    38570    32455    23543     5480   -18682   -28079    -7254 
   23687    33841    24085    12664     3608    -7939   -25778   -43645 
  -45363   -31287   -15788    -2000     7896     4742    -7681   -17320 
  -24707   -35169   -47511   -55513   -47276   -20827     2737    11225 
   19896    33156    34761    25143    20130    23528    29808    30818 
   17868    -2241   -10458    -3774     3424     3774     2625     7696 
   17851    17443     -454   -14490    -7629     8262    17912    15703 
   -1893   -29663   -56244   -74220   -75896   -61430   -46280   -36413 
  -21080    -2310     2595    -9669   -24906   -33638   -37016   -38881 
  -47244   -69035   -89831   -84198   -55651   -30975   -18226    -7304 
    1744     -504   -13849   -25716   -24919   -14764   -12162   -25007 
  -38959   -44905   -55692   -78495  -100181  -103347   -77933   -30166 
   14247    29591    13311   -10179   -13132     2113    10897     6298 
     600    -2746    -7756   -10981    -5304     7465    12479      418 
  -14840   -13891     4208    23905    28803    15751    -4453   -18520 
  -22527   -27690   -44479   -62099   -64164   -51169   -29753    -3026 
   18783    22266    12898    12243    24465    29447    17752     1022 
  -15980   -36833   -50016   -37071    -1282    30800    37489    21513 
   -1285   -23033   -43584   -52987   -38389   -11296     1363    -6195 
  -12124      888    22459    36111    42542    44168    34648    16707 
    7282    15764    30822    39573    48262    66021    78013    60798 
   22174    -3908    -5449    -3996   -16974   -39602   -59024   -61734 
  -41021   -12043     -113   -11613   -32965   -49158   -52761   -45199 
  -34227   -25071   -14248     5916    33533    50067    41740    20904 
    7579     3436    -3174   -18261   -36189   -46259   -41749   -30049 
  -29916   -44970   -51131   -31344    -6339    -3802   -17551   -24115 
  -20000   -20061   -27766   -28589   -11992    19188    56184    89784 
  109057   101849    69519    33230    15439    19488    25471    12763 
   -9043    -8578    23654    55825    48611     5487   -26603   -19894 
   -3896   -11927   -32227   -44850   -47932   -36152   -11601     2304 
   -4119   -10536    -2127     9175     7211    -5520   -15565   -18588 
  -22827   -34771   -50417   -63857   -73488   -75961   -69115   -59535 
  -52202   -40074   -16140    10223    21801    17445    13404    21509 
   36497    43166    31092     4449   -17034   -12468    12440    26797 
   18585     9907    18582    36775    49967    50241    34627    10812 
   -4288    -4516     -828    -5384   -17125   -21609    -9605     7326 
   10707    -4212   -28039   -45891   -47114   -36373   -29855   -35466 
  -43650   -40394   -25712   -13669   -13052   -16332   -12403    -3493 
    -735    -9203   -25900   -44405   -59582   -69108   -67232   -49731 
  -27690   -19884   -29547   -40210   -37918   -28053   -25755   -34181 
  -38150   -26654    -9551      965     5719     9302    11788     9706 
    4691     6303    17114    27457    31251    33681    39456    44888 
   44865    39024    33166    35086    41335    39952    35560    47064 
   67953    65855    36112    10532     7308    16484    25910    28295 
   20274     9402      653   -16788   -45464   -66844   -69693   -62859 
  -56213   -51124   -45833   -34987   -12389    13026    19984     5472 
   -8162    -4763     6986    11668     9142    10818    18274    18260 
    7310     6357    32171    65633    72615    51349    32788    34953 
   44147    42032    29615    21808    25486    29181    21074     5737 
   -7036   -13333   -12250    -9385   -12967   -16410    -6337    10464 
   12415    -5105   -23546   -28768   -26706   -27999   -33672   -37016 
  -30934   -15683       98     8877    11777    12375    13517    21493 
   31257    24584     4774    -4245     2419    13795    30252    52280 
   66421    65261    55418    41940    28395    21529    20070    13418 
     -33    -9194   -10750   -15155   -25914   -29944   -16870     4595 
   17446    16430    11683    14849    27696    43269    51591    48008 
   38050    29431    25720    26901    25711    14530     -284   -11302 
  -25915   -45707   -54375   -43927   -27597   -19381   -19467   -24108 
  -35929   -53690   -64186   -60924   -54957   -54494   -55744   -55130 
  -52113   -47508   -43823   -40857   -36445   -32670   -33656   -38468 
  -43207   -46398   -47104   -44083   -35931   -16472    17795    49415 
   53217    34588    20958    17699    13586    12497    20274    28998 
   34973    39811    36741    21586     4293    -3271      -34     9223 
   21996    34779    41701    42955    44265    46222    46782    48883 
   51953    51462    52499    58374    55373    35285    11431    -5196 
  -18287   -27627   -28477   -28540   -35868   -40861   -34881   -27389 
  -28999   -36189   -38862   -35430   -37841   -53148   -66608   -61012 
  -40296   -19065    -2166    15037    29864    30891    20058    12325 
   10860     7674     1029    -1978     6065    20414    26287    21721 
   18239    15535     6414    -2921    -9738   -24636   -42186   -41530 
  -25444   -17381   -19395   -13318     -484     -422   -14815   -26575 
  -29302   -32643   -41605   -48480   -45137   -35609   -33985   -43633 
  -47758   -36508   -25047   -26533   -29575   -18376     2288    12782 
    4490    -7585    -6785     2712     8675     7053    -1825   -16155 
  -30998   -37304   -27086    -8436     1501     4778    15319    28524 
   27471     8285   -17965   -35525   -34002   -21813   -18009   -24434 
  -29748   -32177   -31916   -23862   -11706    -2026    10829    31872 
   52117    59846    52897    37224    21113    11205    10331    17081 
   26565    33804    34765    22750    -2338   -23029   -24021   -12265 
    -472    10595    22800    31021    29089    17445     4410    -3243 
  -10898   -24940   -36738   -31948    -9575    15214    24741    17721 
   12941    21015    25241    10961   -10151   -19258   -14556    -9960 
  -13307   -18232   -20740   -24209   -26658   -18579     4480    34936 
   59729    67652    54388    28200     4937    -6746    -7801    -1571 
    3860     -563   -10938   -17858   -22524   -29860   -37770   -40293 
  -34440   -24985   -19759   -21158   -27769   -33165   -27155   -11386 
    3569    14220    18000    12563     7200     9495    11557     5512 
   -5141   -14110   -17210   -12748    -5503    -2646    -6263   -15198 
  -24244   -23521   -12757    -3952    -1970    -1126     2011     4888 
    3283     -744    -1647    -2529    -6909    -6513     4050    13961 
   11241     -267    -6205     1440    10999     4008   -13788   -20578 
  -12518    -3770    -3769    -8394    -9351    -3936     5158    13601 
   18195    17759    15491    19072    30529    42238    48964    53195 
   56468    55535    47455    32999    14735    -6257   -28441   -44102 
  -42533   -23821    -4226      490    -7613   -17570   -24782   -29146 
  -30651   -28668   -23678   -23504   -35604   -49067   -43074   -17394 
    4415     6288    -4765   -13842   -11204     4731    25120    35654 
   30423    19167    15246    21371    32981    43009    43240    34639 
   26517    22626    21737    23106    22909    18416    16646    24716 
   34838    32910    16750    -2954   -14191   -14874   -14601   -20785 
  -28053   -30469   -31105   -31530   -31472   -34905   -39275   -36623 
  -29581   -25702   -21868    -8563    11776    23446    20214    12366 
    8089     4960     2329     7212    19828    27636    19971     -558 
  -18295   -15962     5025    20080    10489   -11047   -22600   -24008 
  -23524   -19109   -13185   -18383   -35862   -51176   -53738   -44925 
  -34232   -32567   -38926   -41982   -41469   -45632   -49329   -43884 
  -35245   -28257   -19323   -16076   -28631   -42338   -34620    -9902 
    9560    15713    17775    23162    29348    30203    23886    13583 
