Origin Time       2011/03/11 14:46:00
Lat.              38.103
Long.             142.860
Depth. (km)       24
Mag.              9.0
Station Code      TKY002
Station Lat.      35.7306
Station Long.     139.1454
Station Height(m) 291
Record Time       2011/03/11 14:47:42
Sampling Freq(Hz) 100Hz
Duration Time(s)  259
Dir.              U-D
Scale Factor      3920(gal)/6182761
Max. Acc. (gal)   31.184
Last Correction   2011/03/11 14:47:27
Memo.             
[...]
   -4060    -6252    -7217    -3626    -4198   -11300   -13909    -8419 
   -3829    -4457    -3779      -16    -2534   -11940   -16149   -11821 
   -6359    -5695    -9892   -11187    -3594     5508     6833      111 
  -11702   -18497    -7854     8502     7855    -4346    -7920    -2797 
   -2311    -7556    -6556     2205     4897    -1962    -7405    -8942 
   -9975    -8230    -7824   -14652   -19257   -14147    -9228   -11663 
  -13552    -8973    -6939   -14521   -21723   -20229   -15993   -12932 
   -7767    -2688    -5055   -13286   -16549   -10950    -4262    -3786 
   -5316    -1180      560    -9857   -18183    -9874     3822     7072 
     724    -5647    -7819    -5874     -424     2049     -619     1221 
    6547     4976      997     -361    -4559    -6082     1049     3915 
   -2881    -6856    -6015    -8774   -12479    -9736    -5395    -8631 
  -12829    -6031     2012    -2597    -8174    -2113     4439       64 
   -9006   -12088    -9654    -9081    -9955    -9724   -11673   -13646 
  -13368   -16689   -19764   -13596    -6179    -6684    -8685    -7788 
   -7830    -9145   -10669   -13489   -14996   -11535    -6679    -5969 
   -6466    -2872     1523     2398     3186     5129     2880    -3045 
   -4894    -1140     1751     1435     1627     3337     4235     1445 
   -6113   -12344   -10135    -2406     2131     -340    -5230    -6297 
   -2963     2262     6723     5386    -4979   -13804    -6750     3662 
   -4989   -19184   -13746       35     -435    -9339   -11182    -7564 
   -5125    -4596    -6792    -8531    -5792    -2870    -3293    -7650 
  -15944   -19433   -12388    -6041    -8289   -11085   -10204    -9814 
   -8185    -4420    -6178   -11699    -7198     3779     1479   -12144 
  -18747   -18037   -16741   -11350    -3362     1639     4724     4702 
     273    -2958    -3338    -3002     -537     1205    -1770    -2418 
    3572     4373    -4403    -6528     3111     7208      641    -2918 
      49     2524     1911    -1221    -2029     2576     5351     3836 
    1606    -4754    -9868    -2346     5576    -1133    -9629    -8206 
   -7060   -11908   -14879   -13910   -13518   -12519    -8783    -4245 
    2468    11821    15514     9940     4570     5472     7106     4533 
    1088     2346     6157     4987     -980    -5758    -8666    -9878 
   -6632    -1150     1278      -45    -2732    -4446    -4826    -6031 
   -9449   -13976   -16444   -13927    -7732    -1940     1167      284 
   -6115   -13647   -14438   -12253   -15055   -18224   -17137   -13092 
   -5817    -1529    -2859      153     3467    -3524    -8512    -3028 
    -988    -6142    -9249   -10154    -9942    -7397    -8513   -11859 
   -5371     4283     -296    -8585    -1296    10495     8086    -2410 
   -4354     4019     8509      475    -9281    -8657    -3112    -3294 
   -7692    -7618    -1357     5190     6772     -394   -11692   -11105 
    1547     6697      857    -3700    -3909    -1417     2457     1581 
   -3583    -3813     -996    -3441    -5663    -1344     3157     3754 
    1192    -3629    -2065     8004    10488      199    -9253   -13704 
  -17642   -18138   -12414    -5691    -2251     1498     5924     2274 
   -9204   -14341    -7153     1353     1697      793     6244     8738 
    1303    -4686    -2931    -1807    -2680     -761     1193     1750 
    3510     2180    -6875   -16440   -16011    -6877      -89    -1052 
   -3444    -2595    -3824    -9656   -13165   -10701    -8536   -12056 
  -15986   -12400    -6305    -8285   -12213    -7078    -2415    -8174 
  -12288    -5235     2974     1057    -8187   -10501      309     9246 
    4076    -4662    -4679     -534    -1792    -7034    -9815   -10215 
   -8514    -5299    -5901    -8590    -8461    -7665    -7199    -9149 
  -15967   -20095   -17499   -13760   -10197    -7849    -8839    -8595 
   -6198    -5411    -3392     1113     3194     2067     1884     5016 
    7829     5708      394    -4974    -7267    -2301     4230     2603 
   -3596    -8028   -11239   -10531    -6760    -7458    -8377    -2919 
    -424    -6761   -12314    -9932    -3115      330    -3652    -8358 
   -3364     7639     9608     1516    -3815    -5974   -13192   -21390 
  -20010    -8847    -2002   -10390   -20178   -12903      195     1095 
   -2576    -2449    -4331    -7063    -8518   -11755    -9745    -1667 
   -2066    -7116     -576     8188     4968     1070     4749     5501 
    1385     -387      866     6916    13420     4418   -13850   -15287 
   -2348     1554    -5129    -8105    -3786      166    -1544    -5336 
   -5726    -2854    -1097    -3316    -4386     1599     6885     2437 
   -4976    -7379    -6283    -2881      865     -129    -4508    -5845 
   -3080    -1045    -2696    -3306     1787     6230     3258    -1510 
   -1147     3201     8499     9701      972   -10829   -12023    -5291 
   -4531   -10550   -10147     1409     9184     2620    -4101      753 
    5357     1505    -2643    -2719     -238     2950     1004    -6586 
  -10619    -7890    -7720   -16435   -23790   -19699   -14081   -15997 
  -17068   -14901   -16660   -17839   -12312    -8260   -11525   -15128 
  -14357   -10651    -4922    -2127    -6912   -11886    -8137     -743 
    1463     1007     1920      971     -530     1340     1019    -5004 
   -8439    -6287    -6620    -9757    -8275    -3807    -3225    -7321 
  -12701   -16005   -14162    -7293    -1751    -1361     -927     2599 
    7601    14394    17278     8165    -7101   -17084   -17500    -9698 
   -2526    -5092   -12049   -11514    -2213     7035     6650    -3858 
  -10032     -518    10236     3577    -9412    -9240    -3221    -4737 
   -7858    -9971   -16903   -18548    -9018    -7384   -18989   -22449 
  -10675     1064     3389      -16    -2603    -1907    -3342   -10468 
  -14998   -14002   -16207   -20335   -18450   -10204     1685     7091 
   -2497   -12271    -7890     -474    -1183    -4113    -1843     3123 
    1721    -7837   -12656    -5484      431    -2950    -4442      384 
    3630     2538    -1803    -5796    -3504     1854     6141    14010 
   21650    18952     9537     2871     1674     1891    -4933   -15874 
  -16253    -8601    -7658    -9516    -6016    -5966   -13380   -19722 
  -21575   -16814    -4157     3867    -1644    -8618    -8620    -9565 
  -12252    -8918    -3738    -3924    -4020    -2718    -7440   -10124 
   -1820     1134    -8040    -9361    -1460    -2821    -9415    -7051 
   -1013      295    -2491    -8320   -11277    -6288    -2590    -6907 
  -11169   -10879   -10121    -9928    -9465    -8055    -3628      397 
   -2753    -9500   -10823    -7366    -3378     1884     6436     7275 
    7459     6172    -2120   -11038    -7391     5071     7754    -3837 
  -12450    -8115    -2004    -1929    -2105    -2649   -10150   -19434 
  -17400    -3836     3607    -5561   -13650    -4970     3616    -2402 
   -5843     5850    14884     6468    -5870    -6705    -1657      320 
    2119     6265     7125      227   -10545   -13555    -2406     9552 
    7115    -4190   -11593   -11116    -5761     -270     2707      437 
   -6817   -12070   -14531   -18390   -18050   -11951   -11120   -15006 
  -12679    -7118    -5181    -4012    -4946   -10891   -13868    -9695 
   -6743    -9737   -13561   -12264    -5408      473    -2091   -11521 
  -15670    -6548     2011    -6848   -18917   -12793     -694    -2962 
  -11170    -8733       75     2989     -234    -4901    -9084    -9606 
   -6388    -4448    -5557    -8917   -14148   -16170   -10834    -5474 
   -7661   -10983    -7334    -2775    -7781   -18491   -19631    -7639 
     561    -8559   -23164   -23948   -15299   -14529   -18189   -12475 
   -4562    -8058   -14935    -9502     4416     9346     -132   -12632 
  -14790    -3047    10188     9063    -1195    -4642    -3544    -6991 
   -9076    -5619    -4988    -5704     1789     9722     7407     4407 
    7903     7293    -1679    -7667    -2352     7946     9294     -743 
   -8605    -6987    -3353    -3162    -2336     3140     5816    -4385 
  -17490   -15464    -4670    -1252      764     8960     9420    -2391 
   -8086    -4324    -5780    -9138    -4988    -3444    -9389   -12027 
  -10362   -11528   -17268   -26076   -30742   -24624   -15409   -13455 
  -15659   -14634    -8502      624     4111    -3519    -9650    -4755 
   -2472   -12809   -21897   -15904    -3947    -1553    -8030   -13980 
  -10393     3635     9784     -948    -7521     -516     3118     -875 
    -632     2571     -300    -2927     1940     2259    -9314   -20114 
  -21462   -16296    -8284    -2421    -3044    -6183    -4370      919 
    2279      -69     -711      208    -1670    -7648   -11563    -4842 
    6960     6386    -6615   -13830    -9699    -3822    -3276    -7420 
   -9160    -5382    -2894    -4322    -5115    -4772    -3986    -3490 
   -6840   -10381   -10429   -14852   -20201   -12893    -4205   -10128 
  -16415    -9361     1572     6613     2443    -8368   -12979    -8903 
  -12016   -23975   -25064    -9511     5099     2545   -12291   -17456 
   -8701    -9312   -25217   -34601   -27981   -16440   -10838   -11659 
  -12231   -11703   -14464   -17955   -17434   -13996   -12781   -16237 
  -16982    -7685     5559    10770     5164    -1875    -3411    -4336 
   -8461   -11434    -8578      -88     5298    -1192   -10255    -7046 
    3727     6807    -2261   -11608    -8195      321    -2419   -13217 
  -16970   -10919    -5001    -6874   -13669   -14959    -6929    -1808 
   -9618   -18651   -12327     2705     3055   -13082   -18793    -6916 
   -2789   -12345   -15228   -10082   -12118   -20261   -22492   -17095 
  -12249   -12453   -11981    -4911     2009     -944    -8658   -10058 
   -5166    -4021   -14033   -21766    -7646    12030     8831    -6550 
  -11656    -8718    -6010    -6904   -13524   -19891   -18300   -11933 
   -8512    -7823    -4287      663      267    -5309   -10331   -11856 
   -9056    -2654    -2142   -16045   -26399   -11953     5899      451 
   -8278      665     8236    -1295   -12784    -9232     3201     5428 
   -4857   -10176    -3713     2067     -449    -4646    -5947    -6046 
   -3073     1826     2806     1611    -1321    -7659    -5811     6403 
    9053    -3072   -12442    -6294    10978    20515    10933    -5656 
  -14311   -12436    -6338    -8766   -20857   -26655   -22242   -19481 
  -20982   -20868   -16895    -9110    -1718    -1429    -4220     -213 
    4751    -2112   -13124   -13073    -5762      -79     3134      344 
   -5683    -3183     2104    -2443    -6874     -542     6821     5528 
   -1460    -7034    -9320   -11244   -13029   -13452   -11717    -4869 
    3229     1040    -9956   -15768   -13306    -7780      585     9496 
   12379     5898    -6786   -15388   -13580    -7566    -2227     3477 
    3841    -3053    -3809     3805     4096    -3840    -8216    -8900 
  -10388   -13762   -17557   -14181    -3450      220    -7593   -13566 
  -10722    -5572    -3554    -5510   -10826   -14878   -13927   -11902 
  -13820   -19540   -25009   -23269   -14133   -11726   -22719   -31387 
  -28094   -24791   -26311   -20366    -4837     6092     5569     -852 
   -8871   -15021   -15052   -12791   -12102    -8109    -3130    -2315 
    2867    10970     5608    -7704   -10286    -4093      171     -862 
   -7361   -12331    -9176    -5659    -7042    -5857    -1893    -4066 
  -13435   -21566   -21523   -15393    -7879    -2765   -10222   -29996 
  -36655   -17050     5968    11119     3907    -3283    -7234    -7489 
   -3785    -2365    -7373    -9662    -2734     2760    -2106    -9243 
   -7483     4583    16385    13835     2925     1910     6236     2521 
   -2185      409     4649     6018     8105    13521    13424      348 
  -13252   -15246   -10772    -5114    -3622   -14029   -25576   -24609 
  -25019   -36377   -39063   -27233   -20941   -22363   -15614    -3610 
     431     1159     6508     9995     8374     7470     4663    -7967 
  -23477   -25816   -16187    -8700    -6610    -4733     -475     3099 
    3190     7833    16625    11317    -5951   -12362    -5433     1807 
    2725    -6463   -20384   -22609   -16584   -23477   -34800   -26555 
  -12147   -16326   -30474   -34850   -24901    -9562    -6864   -25134 
  -44418   -41945   -27470   -21314   -22494   -26053   -29174   -19268 
      70     3733    -7408    -7005     3070     1291    -6973    -6471 
   -1165      461    -3486    -8106    -4759     5026    10596     6071 
   -3605    -2728    12662    18191     4437    -2001     5819     7119 
    2612     6627    16339    18943     9609     -250      377     3893 
    2752      956    -2026    -6100     -683    15038    23404    14755 
    3913     5089     7391    -1133    -7362     2543    15742     8277 
  -21770   -44940   -35767   -12732   -10460   -23589   -23789    -9030 
    5874    16747    23260    21748    12542     -805   -14121   -19253 
  -13049    -6756    -8543   -11890   -13731   -14276    -2316    17963 
   16285    -7609   -17577    -6424     2352    -1620   -13855   -22439 
  -18438   -12784   -14685   -14285    -5936     3399     4006    -7485 
  -17200   -11364    -1689    -3842    -8519    -1739     7261     2624 
  -10279   -15763   -12847    -9473    -8842   -11453   -14039   -14073 
  -16564   -20586   -18532   -11920    -4201     4384     6736    -1320 
  -12916   -22530   -24805   -14532    -2698    -1571    -3050     -671 
    -617    -3988    -8925   -14784   -16258    -8127    10332    31455 
   43331    44019    33756    12424    -7579   -18293   -22638   -17452 
   -7457    -6095    -7237      878    11159    14186     9480     1749 
    -553      885    -2201    -2772     6379    11678     2080   -10485 
  -14081   -16473   -22883   -21534    -7601     7514    15155    15567 
    9788      121    -6408    -7700    -9266    -9718    -5141    -3857 
  -11595   -14635    -3120     6978     1812    -8492   -11156    -2505 
   11121    10875    -6793   -18293   -17411   -25533   -42306   -42039 
  -18757     9200    24678    20309     2945    -8571    -5656     -139 
   -6079   -22395   -34014   -27974   -12085    -4108    -1015     7554 
   11567     4460    -3977   -11300   -18203   -19370   -14616    -5901 
    4400     8364     3989     -548      337     3749     1507    -9424 
  -17837   -14568    -8919   -10184   -14629   -15439    -8096     2362 
    4783     2432     7903    17283    14873     1106   -10949   -18361 
  -22938   -21696   -15054    -9277    -9850   -13098   -10736    -6504 
   -8311   -11163    -9206    -5053    -2345    -6152   -14028   -10520 
    5181    11836      235   -14045   -16221   -11867   -11509   -12577 
  -14828   -24668   -33183   -27811   -16129   -10739   -12099   -14139 
  -12798    -8561    -2897      962    -1601    -2197    10990    23641 
   16580     -377   -11103   -13539    -9933    -8014   -14680   -20483 
  -13659    -1653      218    -5994    -7921    -8376   -13035   -10783 
     520     2465    -9569   -18160   -13367    -3652    -1437    -9237 
  -17135   -16175   -11536   -12024   -16414   -18050   -12130     -370 
    7013     2581    -6177    -6819       18     4611     1901    -6325 
  -13192   -14322   -12428    -6679     3191     8202     7562    10000 
   13574    11986     9187    11860    17707    16647     4147    -9170 
   -9177     1805     7185    -1840   -18399   -29830   -26015   -12401 
  -10052   -20949   -19695      563    15329    10107    -5239   -16454 
  -16587   -10355    -7544    -8266    -6926    -5724    -9353   -12980 
  -12441   -16281   -26159   -26135   -13951    -8615   -12053    -7373 
    4686     9846     4878    -6054   -14994   -12475    -5463    -8173 
  -14304   -13736   -12858   -12369    -7471    -5590    -5367     4925 
   16158    11567    -3495   -12911   -10382    -3409    -3173    -8340 
   -8506    -1722     3610     1497    -4120    -7116    -7777    -9343 
  -11978   -11372    -6848    -5922   -11007   -16827   -19384   -14601 
   -4709      -26    -1478     -715     2650      406    -9008   -14583 
   -9270    -1897     -788    -2507    -4481    -6005    -1564     6989 
    9746     5815     -506    -6117    -1624    13299    20015    12928 
    9093    13332     9814    -5887   -18187   -20950   -24129   -28721 
  -25131   -10497     7799    16449    11512     7120     8233     1040 
  -11193    -8902     1568      -20    -6593    -3199     2469     -829 
   -9633   -13183    -9899   -14951   -31117   -36449   -26487   -17644 
  -10372    -1302     1851     1868     5627     5662    -2764   -11299 
  -14638   -13879    -7902     1834     8973    12641    14112     8668 
   -2327    -8955    -9501    -8518    -5850     -764     4875     7356 
    3078    -3654    -3805     2329     5391     -895   -12100   -14861 
   -5144     2134    -1407    -7952   -13660   -13654    -1296    10801 
    9807     4762     4553     5988     2765    -5235    -8804    -7187 
   -9114    -8710     2375    12905    12019     2361   -12450   -23886 
  -20012    -8108    -5297    -9121    -5520     6477    12444     1023 
  -17277   -21444   -11367    -5338    -8301   -10552    -9929    -9158 
   -4584     4668     9348     4045     -825     4448    11438    10807 
    7458     5637     4119     4677     4670     -621    -3301      347 
   -4984   -23948   -36957   -32359   -21692   -17459   -17964   -16143 
   -9524     -424     4974     -143   -12429   -20179   -22010   -24909 
  -26506   -20585    -9996    -2722    -5744   -19714   -31377   -25520 
  -11223   -12313   -25981   -26525   -12671    -5809    -8166    -6580 
    -794     1077    -1457    -3192    -3281    -4844    -7740   -11335 
  -17984   -24869   -22502    -8283     7241    12403     7533     2062 
     874       -3    -3619    -6597    -5344     -677     3944     5402 
    4169     3007     2704     4214     7156     6147     2592     4822 
    7889     2268    -3249     2550    12994    17482    13473     6080 
    6131    11440     6517    -5194    -5734     4210    11133    11541 
    8405     2911    -1196       48     2272    -1864    -8929    -8509 
   -1537     1049    -3919    -7641     -756     8771     2184   -14217 
  -14387     2633    14399    13908    12678    13903    10075     2432 
     415     4608     7984    10621    14203    13019     7458     2578 
   -5321   -14581   -15847   -11885    -8708    -4237     -599      514 
    4887     8497     2050    -6397    -8505   -13385   -20754   -17324 
   -8294    -7739   -11238   -10347   -10430   -17345   -24912   -25786 
  -23381   -22171   -18718   -10639    -1467     3957     3684      696 
   -3322   -10939   -19751   -24705   -27013   -26103   -19387   -13240 
  -11135    -7192    -3148    -1470     5083    14459    18571    20634 
   20930    14132     6079     5096     8528     8343     2485       26 
    7153    14071    12039     6434     2190     -874     -826     2084 
    4558     5571     4502    -1368   -13680   -28251   -35533   -31239 
  -25219   -27630   -31817   -27314   -18405   -14766   -14470   -10470 
   -5683    -6372   -12058   -21373   -31376   -34066   -27932   -21474 
  -19751   -19041   -15236    -9605    -4186     1579     7321    10137 
    7295     3236     4997     5728    -1494    -4072     4420    10077 
    7518     5536     6141     7439    12451    17344    12435      949 
   -5669    -5934    -3543     1961     7239     5736     1333     2220 
