Origin Time       2011/03/11 14:46:00
Lat.              38.103
Long.             142.860
Depth. (km)       24
Mag.              9.0
Station Code      TKY029
Station Lat.      34.0757
Station Long.     139.4789
Station Height(m) 32
Record Time       2011/03/11 14:48:11
Sampling Freq(Hz) 100Hz
Duration Time(s)  300
Dir.              N-S
Scale Factor      3920(gal)/6182761
Max. Acc. (gal)   17.034
Last Correction   2011/03/11 14:47:56
Memo.             
[...]
   -1239     -280      280      313       77     -305    -1032    -2119 
   -3381    -4635    -5672    -6453    -6996    -7171    -7076    -6964 
   -6843    -6619    -6269    -5853    -5371    -4803    -4335    -3969 
   -3216    -1890     -507      378      606      410       -6     -871 
   -2215    -3463    -4046    -3673    -2388     -672      926     1971 
    2174     1624      863      690     1330     2110     2478     2427 
    2104     1788     1826     2223     2419     1858      769     -116 
    -370      -66      505     1098     1605     1882     1590      484 
   -1122    -2480    -3175    -3370    -3217    -2635    -1792    -1078 
    -383      588     1473     1939     2255     2603     2941     3165 
    3030     2526     1949     1549     1336     1046      684      651 
     904      812     -107    -1622    -3069    -4156    -4949    -5412 
   -5602    -5805    -6186    -6625    -6897    -6757    -6066    -5092 
   -4239    -3517    -2814    -2283    -2046    -1859    -1172      308 
    1794     1941      561    -1197    -2235    -2485    -2758    -3545 
   -4388    -4783    -4823    -4916    -5325    -5820    -6135    -6459 
   -6787    -6733    -6260    -5718    -5516    -5924    -6869    -8053 
   -9043    -9350    -8890    -8014    -7027    -6199    -5862    -5996 
   -6338    -6849    -7435    -7833    -8085    -8487    -9134    -9941 
  -10815   -11440   -11441   -10955   -10363    -9753    -8982    -7925 
   -6683    -5572    -4846    -4419    -3973    -3599    -3871    -4847 
   -5677    -5737    -5521    -5738    -6208    -6445    -6520    -6542 
   -6283    -5751    -5313    -5444    -6365    -7545    -8122    -7876 
   -7319    -7029    -7006    -6796    -6353    -6042    -5774    -5183 
   -4590    -4763    -5707    -6554    -6704    -6431    -6488    -7279 
   -8288    -8733    -8560    -8176    -7839    -7720    -7921    -8351 
   -8725    -8598    -7724    -6422    -5384    -5133    -5536    -5946 
   -5987    -5741    -5306    -4663    -3801    -2805    -2053    -1960 
   -2438    -3047    -3360    -3164    -2635    -1963    -1031      138 
    1047     1131      345     -815    -1935    -3036    -4089    -4655 
   -4433    -3660    -2665    -1500     -129     1182     1859     1619 
     708     -369    -1031    -1115    -1100    -1296    -1522    -1616 
   -1608    -1667    -1847    -1960    -1997    -1973    -1613     -997 
    -640     -821    -1486    -2421    -3403    -4360    -5201    -5838 
   -6300    -6555    -6598    -6455    -5883    -4747    -3495    -2776 
   -2938    -3839    -4858    -5532    -6073    -6678    -6861    -6091 
   -4557    -2867    -1532     -920    -1133    -1792    -2439    -3055 
   -3753    -4398    -4890    -5324    -5723    -5919    -5745    -5272 
   -4828    -4769    -5071    -5266    -4958    -4139    -3189    -2651 
   -2716    -3217    -4003    -4848    -5476    -5863    -6110    -6143 
   -5732    -4834    -3913    -3598    -3983    -4633    -5080    -5185 
   -5236    -5471    -5726    -5769    -5401    -4553    -3641    -3058 
   -2681    -2474    -2706    -3079    -2640    -1498     -873     -682 
    -213       66      179      886     2007     3028     3708     3658 
    2753     1299     -515    -2492    -4186    -5406    -6162    -6204 
   -5261    -3509    -1681     -580     -438     -864    -1297    -1531 
   -1843    -2391    -2711    -2328    -1515     -936     -851     -986 
    -965     -594      109     1031     1954     2425     2090     1105 
     -16     -939    -1865    -2987    -3914    -4357    -4664    -5174 
   -5848    -6531    -7041    -7217    -7033    -6577    -5997    -5526 
   -5493    -6001    -6499    -6148    -4755    -3007    -1707    -1129 
   -1344    -2267    -3059    -2952    -2328    -1796    -1247     -481 
     295      588     -229    -2106    -3759    -4067    -3230    -2042 
   -1104     -677     -761    -1309    -2063    -2616    -3097    -3881 
   -4784    -5397    -5495    -5020    -4270    -3588    -2844    -1769 
    -420      807     1490     1659     1725     1923     2060     1799 
    1166      587      286       54     -211     -165      451     1264 
    1510      783     -430    -1079     -620      384      864      197 
   -1417    -3166    -4227    -4348    -4013    -3948    -4230    -4399 
   -4206    -3583    -2636    -1978    -2251    -3367    -4561    -5023 
   -4528    -3467    -2318    -1433    -1055    -1215    -1880    -2887 
   -3631    -3648    -3197    -2649    -2106    -1755    -1901    -2695 
   -3888    -4777    -4746    -3690    -2011     -590     -142     -339 
    -108     1232     3347     5409     6981     7900     7818     6489 
    4278     2211     1228     1245     1549     1731     1644     1167 
     398     -160      121     1190     2284     2786     2629     2192 
    1939     1769     1248      469     -178     -734    -1591    -2780 
   -3648    -3735    -3372    -3063    -2960    -2744    -1914     -422 
    1247     2349     2282      990    -1112    -3196    -4274    -4052 
   -3317    -3081    -3621    -4504    -5241    -5802    -6448    -7330 
   -8574   -10211   -11963   -13436   -14281   -14284   -13585   -12619 
  -11736   -10923   -10005    -9160    -8835    -8946    -8946    -8712 
   -8519    -8647    -9292   -10230   -10861   -10729    -9727    -8110 
   -6306    -4679    -3463    -2745    -2558    -2885    -3669    -4731 
   -5536    -5609    -4974    -3982    -3235    -3214    -3789    -4343 
   -4263    -3441    -2156     -679      755     2067     3299     4292 
    4647     3896     1702    -1806    -5857    -9195   -10721   -10295 
   -8502    -5845    -2878     -572      211     -449    -1707    -2762 
   -2910    -1370     1872     5366     7073     5543      590    -6172 
  -12003   -14941   -14731   -12096    -8169    -4255     -983     1486 
    2305      844    -1570    -2831    -2594    -2054    -2007    -2557 
   -3975    -6559   -10048   -13552   -15436   -14396   -11291    -8129 
   -5666    -3443    -1160      728     1459     1003      251      -47 
     -99     -704    -2198    -4126    -5847    -6720    -6042    -3645 
    -400     2458     4426     5924     7345     7971     6625     3172 
   -1512    -6095    -9065    -9612    -8564    -7939    -8952   -11151 
  -13310   -13774   -11436    -7504    -4295    -2354     -457     2129 
    4690     6437     7528     7827     6152     2076    -2839    -6888 
   -9690   -10681    -8866    -4945     -753     2619     4297     4035 
    3414     3881     4666     3958     1045    -3136    -6796    -8562 
   -8792    -9158   -10441   -11718   -11641    -9792    -6801    -3555 
    -866      157    -1375    -4678    -7499    -7961    -5887    -2727 
    -376     -261    -2803    -7091   -11647   -15110   -16467   -15578 
  -12715    -8378    -4175    -1971    -2324    -4374    -6195    -6083 
   -4256    -2276    -1029     -350     -362    -1610    -3702    -5408 
   -5806    -4704    -2837    -1267     -291      437     1197     1812 
    1798     1346     1312     1863     2522     3007     2979     2225 
    1226      349     -635    -1521    -1536     -524      830     2116 
    3734     5745     7136     6975     5413     3485     1864       67 
   -2432    -5578    -8739   -10211    -8475    -4052      649     3082 
    2549      339    -1858    -3094    -3423    -3592    -4169    -4514 
   -3594    -1941     -852     -549     -662    -1259    -2502    -3628 
   -3519    -2401    -1390     -997    -1025     -797      486     2740 
    4708     5303     4472     2586      414     -817     -809     -476 
    -675    -2041    -4575    -6864    -7765    -7765    -7799    -8147 
   -8108    -6817    -4628    -2770    -2167    -2664    -3059    -2441 
   -1025      246      377     -889    -2958    -4847    -5431    -4254 
   -2292     -948     -655    -1211    -2336    -3432    -4118    -4662 
   -4977    -4292    -2543     -859     -244     -495     -562      -33 
     365      -57    -1210    -2289    -2614    -2837    -3967    -5728 
   -7297    -8566    -9520    -9046    -5755     -400     3846     4139 
     629    -3590    -5788    -6287    -6761    -7751    -8680    -8649 
   -7487    -6088    -5135    -4707    -4862    -5539    -6486    -7194 
   -7249    -7008    -6884    -6757    -6735    -7312    -8694   -10680 
  -12760   -14065   -14288   -14076   -13485   -11718    -8938    -6784 
   -6290    -6084    -4594    -2919    -3134    -5524    -8616   -10442 
  -10333    -9412    -8466    -7031    -4795    -2543    -1947    -4151 
   -8478   -13057   -15663   -14396    -9663    -4289     -689      522 
     -91    -1790    -4682    -8850   -12698   -14535   -14690   -13502 
   -9855    -4099      340     -173    -5786   -12411   -14824   -11058 
   -4314     -234    -1535    -5874    -9266   -10060    -9149    -8328 
   -8639    -9200    -8294    -5882    -4461    -6328    -9839   -10844 
   -8500    -7057    -9877   -13775   -13511    -9259    -5153    -3519 
   -2825     -807     1250      301    -3636    -7675    -9721   -11189 
  -14755   -18242   -15656    -5613     5841    10612     5330    -5919 
  -14978   -16306   -11131    -5128    -2908    -4698    -6433    -4198 
     709     3567     1548    -4415    -9966   -10004    -4130     3116 
    8443    10937     8237     -559   -10020   -13961   -12969   -10970 
   -9182    -6396    -1248     5259     9095     6748    -1610   -11387 
  -17369   -18604   -15230    -6727     3236     9398    10150     5909 
    -681    -4955    -5752    -5060    -3265     -224     2990     4818 
    3295    -1956    -7874   -10942    -9992    -4672     4143    11503 
   12105     6516     -430    -4496    -4889    -4507    -5085    -4227 
    -187     4645     6769     4930      204    -4485    -5815    -3407 
     373     3309     3375     -977    -7089    -7836     -318     8689 
   11383     7699     2267    -1193    -1192     1029     2278     1431 
     511      868     2000     3053     2278    -1942    -6916    -6911 
    -540     7907    13466    13406     9153     5446     4575     4266 
     918    -6877   -15783   -19927   -16752    -9328    -3274    -1027 
    -673        5     2401     5869     5795     -718    -9240   -12732 
   -8797     -608     6275     7704     4179     -731    -5064    -8014 
   -8065    -5434    -2163     1022     4617     7803     7359     1057 
   -7775   -13268   -12455    -5805     3088    10023    13287    11989 
    6044    -2054    -9141   -13012   -12537    -8068    -1849     2238 
    1806    -1955    -6870   -10748   -11461   -10179    -9801    -9630 
   -6773     -278     7330    10716     6966     -363    -5232    -5056 
   -1789     1237     2210     1300      643     2969     8228    12774 
   12710     7021    -2197   -10692   -13805    -9704     -950     8131 
   14652    16654    12390     3673    -3913    -6990    -6432    -4187 
   -1587     1013     3950     6518     6770     4270      986    -1785 
   -4639    -7377    -8508    -7480    -4735     -942     2398     3697 
    2710     -191    -3996    -5828    -3636      334     2651     3445 
    4618     6210     7062     6452     4199      864    -1885    -2171 
     -22     2346     3400     3923     5354     7533     8421     6365 
    1538    -4165    -7290    -6207    -3836    -2972    -2058     1194 
    4809     4402     -403    -5486    -7220    -4203     1883     6236 
    6409     4783     3413     1741     -763    -3878    -6594    -6647 
   -3052     2056     5658     6058     3313    -1018    -4380    -4451 
   -1655     1261     3077     4216     4797     4589     2421    -2224 
   -6715    -7911    -5857    -3546    -3652    -5706    -6741    -4094 
    1533     6409     7907     5710      637    -5417   -10316   -12456 
  -11761   -10575   -10692   -10904    -9194    -4990      182     3028 
    1512    -2674    -6576    -8483    -7375    -3917    -1018    -1049 
   -3745    -6706    -7597    -5763    -2609    -1593    -4403    -7277 
   -6642    -5323    -7342   -10952   -11266    -6855    -1089     2214 
    2112     -391    -4287    -9099   -13333   -13692    -8766    -2348 
      89    -2200    -5350    -6559    -6281    -6330    -7017    -6033 
   -1757     4626    10287    11548     5986    -4946   -16039   -21562 
  -19674   -13375    -7665    -5487    -5289    -3931    -1322      -54 
    -983    -1256     1813     6902    10005     7683     -472   -10742 
  -18052   -20076   -16373    -7287     3176     9398    10336     9020 
    7012     3276    -2799   -10966   -19142   -22053   -17427   -10114 
   -6082    -7724   -13668   -19307   -19748   -13292    -2884     5743 
    9576     9995     8699     6604     3807    -1860   -10497   -17109 
  -17642   -12964    -6573    -1917       32     1189     3236     5479 
    6340     5011     1250    -3953    -8157   -10423   -12081   -13033 
  -11186    -6325     -723     3715     6239     6766     5673     3775 
    2748     3449     4710     5614     5871     4498     1659     -796 
   -2927    -6630   -10949   -12402   -10010    -6139    -2809      732 
    6111    12726    18782    22659    21132    12165     -573   -11155 
  -15879   -12801    -2156    11461    20289    19653    12659     5798 
    1681     -911    -3567    -5911    -4780     1044     6965     7899 
    4315       74    -3152    -5908    -7001    -3429     5580    15736 
   20545    17496     9762     2690     -298       16     1101     2871 
    5370     5313       29    -8312   -14425   -14648    -9236       47 
   10520    17862    19950    17509    10819     1004    -9356   -18612 
  -25572   -29008   -28688   -25130   -19439   -13518    -9515    -8846 
  -11071   -14806   -18706   -19831   -15638    -7730      299     6296 
   10355    13552    14733    11341     4173    -2965    -7860   -11374 
  -14602   -15238    -9454     2087    13543    18976    17215    11493 
    4929     -808    -4834    -7302    -7278    -2580     4992     8673 
    3976    -6924   -18615   -25989   -25891   -18918    -8349     2241 
    9089     9467     4645     -551    -2115       88     3591     6024 
    6097     3952     1398      167     -642    -3826   -10529   -18439 
  -22723   -19756   -11997    -5474    -2286     -592     1350     4219 
    7701    11127    13491    12815     7607    -1847   -13090   -21349 
  -23295   -20634   -17046   -14176   -11387    -7366    -2118     2494 
    4892     5926     6671     6094     4011     2437     2033     1155 
   -1071    -3489    -4950    -5951    -7612    -9767   -10923    -9310 
   -4223     2181     6857     9488    10609     9452     5722      319 
   -5483   -10752   -14712   -15764   -12636    -6582    -1446     -712 
   -4110    -8575   -11287   -11119    -9618    -8531    -5879      437 
    8216    14404    17457    16053    10872     5921     4784     6760 
    8055     6030     2050      413     3708     9598    13285    12590 
    9610     7769     8758    11591    13108    10773     4903    -2987 
  -11579   -19064   -23885   -25700   -25538   -25243   -24152   -19062 
   -9752       65     6932     9605     8723     6205     3924     2794 
    3305     4880     4751      645    -5848   -11099   -13670   -14622 
  -14290   -11621    -7551    -5426    -6735   -10445   -15604   -20209 
  -20876   -16242    -7384     3248    11560    14978    14927    12706 
    7364     -359    -6952    -9683    -8394    -4386      132     2088 
     149    -3614    -6700    -8133    -7608    -5489    -3026    -1621 
   -1778    -3419    -6788   -11672   -16745   -20404   -21074   -17173 
   -9158     -893     3662     3612      346    -3654    -6404    -8140 
   -9295    -9063    -7872    -7299    -7706    -8234    -7562    -4902 
    -846     3157     5496     6001     6247     6199     4114      677 
    -919     1384     6538    11122    11777     8052     3716     3477 
    6901     9080     7812     5088     3024     2098     1151    -1396 
   -5438    -9097   -10277    -8416    -4557      162     4085     4946 
    2440    -1340    -4177    -5216    -4935    -3732    -1936     -666 
     -73     1284     4613     9830    15043    18279    19869    20581 
   19566    16141    10972     5041     -750    -5623    -9002   -10128 
   -8865    -6648    -4994    -3733    -2479    -2594    -4491    -5534 
   -4153    -2086    -1645    -4130    -8757   -12307   -12604   -11095 
  -10169    -9813    -8491    -5778    -2368     1676     6343    10371 
   12745    13575    13287    12638    11971    10552     7742     3740 
    -661    -4606    -7248    -6580     -462     9725    19367    24536 
   23814    18178    10111     2259    -3391    -6561    -8327    -8618 
   -6022     -648     4506     6317     4951     3098     2769     3239 
    2495      912      354     1103     3324     7180    10680    11795 
   10675     8312     5502     2550     -855    -4444    -6745    -6586 
   -4199     -304     4354     8542    11277    12395    11841     9117 
    4283     -312    -2055    -1664    -1509    -2887    -6594   -11918 
  -15728   -15761   -12294    -6282      670     5936     7990     7534 
    6236     5442     5549     6139     6774     7424     7928     7401 
    5275     2655     1093      748      964     1453     2273     3440 
    4726     5551     5057     2895     -252    -3491    -6313    -8102 
   -8059    -5927    -2551      227      805     -473    -1740    -1986 
   -1622     -903      -55     -268    -1935    -3331    -2843     -755 
    1469     2512     2152     1036     -425    -2345    -4643    -7000 
   -9405   -11239   -10980    -8497    -5619    -4147    -4784    -7029 
   -9526   -10981   -10898    -9439    -6897    -4044    -2073    -1373 
   -1426    -1799    -2244    -2212    -1290      239     2053     4174 
    6197     7075     6012     3443     1279     1131     2009     1943 
     952     -123    -1173    -2033    -2779    -3848    -4982    -5760 
   -6239    -6096    -4559    -1487     1771     3081     1728    -1031 
   -3572    -4678    -3844    -1925     -145     1212     2288     3157 
    3923     4567     4632     3053     -374    -3865    -5793    -6442 
   -6819    -7285    -7409    -6468    -4109     -855     2023     3624 
    4142     4244     4474     4931     4958     3718     1103    -2392 
   -6193    -9558   -11498   -11114    -8207    -3755      649     3614 
    4350     3159     1110     -902    -2378    -3412    -4312    -4765 
   -4226    -2641     -745      182     -341    -1560    -2695    -3244 
   -3116    -3327    -4578    -5956    -6523    -6324    -5704    -4720 
   -2956     -700      348     -882    -3652    -6917    -9993   -12057 
  -12390   -10836    -8058    -5373    -3608    -2459    -1517    -1121 
   -1543    -2100    -1946    -1313    -1199    -2125    -3717    -5209 
   -6147    -6730    -7359    -7946    -8044    -7571    -6831    -6178 
   -6154    -7110    -8436    -9048    -8601    -7794    -7444    -7406 
   -7066    -6647    -6623    -6547    -5765    -4187    -2117     -226 
     998     1670     2021     2295     2731     3313     3778     3790 
    3337     2710     2018     1236      567      439      940     1366 
     852     -669    -2439    -3646    -4160    -4399    -4573    -4388 
   -3667    -2913    -2669    -2915    -3510    -4222    -4534    -4050 
   -2773    -1101      345      995      588     -450    -1234    -1335 
    -981     -529     -288     -219      167      951     1660     1970 
    1740     1007      107     -533     -546       40      543      294 
