Origin Time       2011/03/11 14:46:00
Lat.              38.103
Long.             142.860
Depth. (km)       24
Mag.              9.0
Station Code      TKY028
Station Lat.      35.6698
Station Long.     139.7891
Station Height(m) 4
Record Time       2011/03/11 14:47:30
Sampling Freq(Hz) 100Hz
Duration Time(s)  300
Dir.              U-D
Scale Factor      3920(gal)/6182761
Max. Acc. (gal)   65.077
Last Correction   2011/03/11 14:47:15
Memo.             
[...]
   54369    54274    40618    26583    27379    30382    16590     2986 
    9275    20051    22085    22086    19748    14782    17106    27672 
   37235    35971    23122    17345    31966    50290    51787    42316 
   40179    49876    63908    75364    77922    63891    36912    16865 
   16455    33699    59216    71005    58892    41874    30320    21362 
   20968    19058      956   -11462    -3438      425   -10514   -14807 
    4319    36211    51976    36730     5121   -12271     2418    30102 
   40805    36962    41007    57689    66839    53855    38028    38711 
   39072    28157    23633    30865    42307    54356    53973    42194 
   43211    53310    51576    42699    34678    32024    42216    48996 
   32414     7301    -1755     5972    12926     4843   -13484   -22456 
  -11841     8196    23581    29409    30544    33485    37327    42134 
   49308    54985    58041    55085    42590    31378    29800    34393 
   43587    49865    40193    23671    18887    18492    16457    28049 
   47733    53276    47570    44278    43328    45447    53074    50491 
   25092    -2738    -6981    14562    46285    60375    40043    10378 
    4252    17178    32622    39192    24746     6272    15235    42584 
   56993    48989    32917    28428    36572    39342    24774     2567 
   -3434    16756    46934    62153    45304     7883    -7907    17249 
   50918    60483    49281    30894    17330    24176    43721    45163 
   22755    -4093   -20935   -11702    25736    58337    64142    52832 
   28776     6356    18761    56447    72679    57159    34087    16900 
    7587     7086    11395    17721    27852    37206    36140    24675 
   16332    22309    34670    38319    33911    30341    29257    34878 
   51917    65521    59481    41466    25900    21191    30160    43194 
   44798    27738     3971    -6928    -3742    10805    33777    44474 
   38766    30313    15980     7638    27725    52453    46535    21501 
    6325    10563    28861    42273    29023    -1009    -9781    13043 
   40385    59419    71256    64940    48728    45889    46735    38967 
   42077    60001    70034    65843    57696    54169    56410    53475 
   41758    35984    40999    46414    51515    57273    49622    27835 
   14212    12883    13650    21729    30077    17744    -1374     -107 
   11733    17308    22363    27319    21998    10981     8443    12039 
   11005     7714     3465    -1810     9291    37817    53630    51145 
   53578    65931    73483    59009    21158    -5839     9956    46566 
   60615    39333    -3067   -34319   -25560     7075    24051    16797 
    7885    19702    46427    58510    47631    36602    39876    50761 
   58177    52674    32445    13496    15691    33767    46053    51335 
   60418    67338    68735    72258    69398    53320    41298    40598 
   40944    44749    56352    62555    55062    44775    38662    32246 
   29569    35155    34849    24190    21050    20829     7015    -1002 
   15305    36318    40712    27893    12578    16585    37293    41542 
   18377    -3153    -2437    17300    47318    65086    52553    26823 
   10797    15359    43779    70343    66459    41274    15367     -690 
    -262    18049    50135    75617    69046    42334    26065    21439 
   22045    35187    52859    54102    36038    12702     3058    15972 
   29791    23317    16448    29181    41411    35172    24918    25750 
   35286    44166    44064    39798    43891    50456    39867    15415 
    6837    20511    30723    32809    41010    55678    73814    82100 
   62134    31563    16595    11872    12078    21043    28422    24704 
   19010    21514    27301    30954    34795    32314    19168    13525 
   27931    48735    60542    61503    56325    45966    30196    21862 
   32764    51289    54444    27954   -11322   -20301     7333    33868 
   41662    37490    31153    38951    58988    62565    40994    21876 
   21222    29661    43778    52911    34688    -3651   -33672   -41434 
  -26182     -200    14524    16688    24463    35035    30191    17511 
   18640    36661    61300    73231    55954    28587    25019    44374 
   63846    68036    47284    11117    -6693    10801    41572    54900 
   45560    33149    32210    34273    26310    10024    -5532   -11032 
   -3565     6654    14021    22843    34991    53487    70734    64085 
   33737     9309    13932    47388    82342    82889    51115    28314 
   41837    76551    98688    92492    71987    58684    54969    50472 
   41283    34493    38887    49396    51715    36449     5427   -20338 
  -20284    -2679    11157     9551    -8445   -29916   -32620   -11334 
   11464    17154     8837    -3424    -3569    15677    35038    42130 
   38873    19531     1918    16967    50040    73074    80649    64821 
   36723    28242    33269    28823    26997    38564    50036    59144 
   67794    66798    60861    58244    50669    38862    34583    34784 
   29967    25417    33802    51726    61572    54087    37231    27359 
   29317    36739    43402    33899     8280     3615    35954    72343 
   81231    63453    43492    40544    45327    42199    33206    26800 
   28920    37462    40813    36490    31254    25368    19798    19312 
   19488    18461    30705    49069    37099     1181   -10928     8910 
   32728    40516    23904      513     1387    21479    36466    38793 
   27754    15373    14772    12498     4585    10129    23329    21758 
   12455    14591    25610    34251    32727    21767    20848    39368 
   53335    44813    27056    13196     1315    -5417      295    14027 
   27676    39498    46174    43174    36819    37372    42995    50224 
   64024    75960    68877    54098    49861    45519    34611    26864 
   20478    19154    37158    64483    78314    76216    67652    55891 
   41475    31916    33415    38152    35617    24361     8138    -3877 
   -2233     6914     6928    -3365    -8955    -4739     -288     1389 
    6410    10221     5858     4082    11177    16062    22513    45296 
   70127    73068    61625    52395    48085    52504    61831    60386 
   50211    40800    29379    25940    36322    36492    22582    18254 
   21069    13462    -2611   -13016    -4764    20374    40280    35373 
    9379   -15972   -20185    -4713     7834     9767    19236    41191 
   58991    60476    46105    27724    20943    33720    58001    68004 
   46604    10583   -10885    -7739    10060    23923    23390    14447 
    8070    17299    40864    53253    52446    62244    73021    55794 
   16754    -7794     7649    49782    76143    62834    33650    25367 
   40721    52245    41771    24476    25414    41480    51150    47796 
   39107    34747    42187    58530    71183    63385    31556     8393 
   22114    47431    53616    46941    36203    23549    20775    27964 
   28499    24404    30449    40865    49114    54562    39933     8816 
  -10014   -16875   -17648    -6556    -5891   -30198   -51153   -48728 
  -28693     1378    29802    43451    38142    20986    14603    37412 
   77281   104958    99118    64066    35515    40778    60321    57753 
   28607      931     2647    33524    61162    54189    22753     6599 
   18557    26679    10305    -5243     6701    38201    60013    51200 
   28428    24513    31958    19019   -10789   -31580   -39493   -40798 
  -27091     4141    27708    25214    15245    15000    16274    17203 
   23474    25040    15050     4871     4831    16035    28520    25007 
    7173    -1719    11028    38662    63279    59148    25304    -4779 
  -13631    -8365     6099    20782    27689    27829    15874    -4587 
   -7612    13349    36267    53913    66878    62525    45671    37543 
   36438    28535    18015    14214    17081    26468    33452    17122 
  -18615   -41587   -36430   -15541     1228     2844    -7016   -19290 
  -19483     -720    16356    17658    13289     6724      869     9896 
   33321    52747    60619    61137    50349    34187    35307    46089 
   42110    36137    40191    40189    39850    46745    54545    69295 
   85088    76426    49142    29222    21569    23042    32368    40514 
   41062    41658    46477    42990    30975    28520    34475    37670 
   42544    49701    53865    58383    66776    78974    82209    54679 
    9675   -13628   -10008     1111    14175    22424    10310   -14783 
  -29984   -30779   -17431    13642    44583    52403    43063    27338 
    6232     2874    31600    58157    60223    50207    32830    21367 
   31607    44606    45167    41299    32941    23716    26560    39269 
   48403    40153    15018     4357    27184    55320    63844    59426 
   53297    55027    63628    59084    42014    35911    31724     9653 
  -10156    -6432    10489    21632    18941    15728    26066    40911 
   49405    43873    17300    -7168    -3195     8789     1231   -14483 
   -8291    29248    71181    87752    77833    58764    48760    50096 
   54836    54732    35102     2881   -13651    -9630     5957    18558 
    5530   -17492    -9367    30074    71792    96329    93604    64039 
   23994     2089    18206    53055    67698    54444    33943    24265 
   30847    42686    41294    20896    -1702    -2597    15692    28602 
   24276     7116   -12399   -24090   -26888   -22425    -9208    13893 
   44437    64041    52924    26539    10737     4904     4598    10487 
   21763    39932    52519    51175    54432    63384    61117    61031 
   79474    97517    92955    70221    49069    44392    50979    48250 
   33280    28400    42713    60872    70124    67504    56702    45101 
   29399     6982    -6958    -6172    -3774     -860    12891    30588 
   35337    24783     7239    -5244    -2712     3629     2239     2733 
    3102    -4301   -10235   -13644   -15221    -5124    17569    48959 
   73809    67473    45361    48522    70917    74137    56388    44040 
   45234    53017    57290    51811    52300    71975    90142    84078 
   54897    14672   -12189    -4405    24646    49576    59276    48278 
   27163    13790     2269   -15004   -26991   -27501   -18338     1919 
   25760    35634    32365    34131    46074    59813    59946    34678 
     367   -16889    -7146    26116    53146    41523     6834   -14542 
   -8287    21283    51060    53338    25100   -10689   -23144    -1909 
   28651    38920    25756     9788    15122    45138    74263    72210 
   41359    19549    25425    40357    58137    82941   101142   102748 
   89567    66745    47008    38363    38541    48945    67217    83453 
   94619    96698    85504    72839    67364    62640    57086    50006 
   37516    29622    34968    44291    50574    56003    64562    80574 
   98342    95925    57702     9460    -6665     7356    28305    42190 
   23257   -24321   -53106   -50894   -38323   -22349   -12318   -12138 
   -3663    14464    23583    25078    26848    23761    20506    26125 
   32627    33720    36086    39447    38121    34188    31192    34246 
   45723    49174    35140    29969    50711    71225    66883    43361 
   17691     7034    21253    49591    68802    72416    77658    96924 
  118644   120850    97513    64584    38291    26250    32537    51308 
   69724    76465    65866    46482    29441    14391     3355     2519 
    8180    11368     8671     3744     1754     1451       39      608 
    2958      -79    -9138   -12166     -747    12631    10958    -1107 
   -6870     -879     9694    15553    12911     9732    14875    16494 
    5953     6208    29665    56285    77276    99700   115547   114925 
  109410   107436    96874    80987    81676    95203   104229   108819 
  102809    74962    45250    41442    57365    74099    78103    55330 
   20253     8483    21607    37748    44377    37192    25343    12786 
   -9234   -25096   -17938    -7849   -14177   -31898   -50388   -59969 
  -46558    -2522    47924    69838    60124    35896    20095    33158 
   58077    61466    46165    33593    33591    43130    49583    46880 
   38697    26053    12192     6856     7703     3294     3429    18930 
   36691    50600    58471    47833    32562    38792    51160    43262 
   26970    25685    44218    68765    69036    30830   -16463   -33524 
  -10516    33267    63568    55355    21778    -2298    -4101     4643 
    9481     4106    -9926   -29096   -43810   -46708   -46478   -47458 
  -43222   -34391   -24004   -16010   -12698    -5257     5164     6084 
    2776     7731    18526    25878    24330    15876    11378    18024 
   29633    39632    43383    32783    15613    13715    23111    15740 
  -13936   -42879   -48402   -20377    32614    79556    89992    70912 
   54396    50086    54419    69324    80811    80005    80879    79326 
   61263    41893    35825    29011    15415    12919    27497    44757 
   51292    39147    14116    -4366    -7149     3639    19589    24576 
   18466    13381     6144    -2105     1291     9681    10300     8121 
    2421   -11998   -12264    20118    58126    77540    88585    92208 
   79106    64792    63988    66088    65456    65414    60377    53840 
   57321    62513    57483    48873    41377    33985    36405    51947 
   64676    64161    55363    40143    20775    13412    24036    35174 
   36548    33683    30305    29131    32637    32921    20219     3682 
    2299    14424    23071    29273    44436    62189    72608    76342 
   72022    56576    35632    25267    32898    44305    48752    46444 
   32287     7034   -17593   -29587   -19637     5162    21043    11983 
  -20241   -57220   -71097   -49785   -14340     3923    -2903   -19284 
  -23381    -6120    16415    21807     7896    -6758    -6597     7113 
   31423    59880    73960    69699    61667    54711    47720    47563 
   58931    75532    78902    54225    19875     5861    13222    33400 
   59266    68055    50623    31257    30396    46413    67983    76607 
   61051    36880    25284    24223    22399    19716    17920    16324 
   21193    36605    57976    74318    64272    25156    -8210   -13515 
   -2063    18826    42092    42281    15028    -7201    -6584     5585 
   19831    28947    23398     9512     2019     5317    26040    58641 
   69665    52496    35973    29904    30958    40544    53649    64312 
   67523    59036    42314    25236    18860    28821    45751    56747 
   48685    19060    -4695     -115    16136    21398    18089    18425 
   23109    26469    29060    32681    36342    39879    43821    51302 
   60674    60889    51917    46746    50210    60281    74259    84524 
   82782    68212    50342    39352    33782    27405    22302    24653 
   30852    36154    46534    57506    54854    46815    52639    70252 
   84856    88536    76903    49355    19956     7750    14796    28853 
   37430    31677    20069    24810    40378    36622     9712   -18885 
  -33135   -21899    11590    37814    33591     6625   -19162   -22439 
   -5291    10946    16886    14022    11415    30413    67874    90159 
   81621    56139    38723    45955    70688    93992    94467    66236 
   40387    39671    49045    59302    77075    96912   100487    82544 
   62454    53053    51429    62049    77006    72834    54663    43973 
   39410    34184    36829    49701    57283    55492    59694    71326 
   76167    66215    40906    14223     8845    27022    50860    61645 
   51855    31603    15490     9958    21550    49119    68837    60782 
   35589    15768    12281    20543    27216    25353    18968    12934 
   10010     8717     2420    -6938   -12042   -12849    -5621    10048 
   19999    22475    28628    36672    39246    34089    29799    41378 
   59384    64339    63947    67931    71692    76067    82282    87234 
   86119    76510    70271    71491    63463    43777    27411    18461 
   13740    15721    22646    25247    23244    23002    19242     3745 
  -12981   -12180     2862     9658     -116   -14379   -21833   -17864 
   -4312     8438    14069    18326    25822    29997    24848    15636 
    8988     8318    18636    36540    49783    57174    63652    64487 
   60486    61654    67532    71393    63750    33508    -1861    -6740 
   19638    48312    60258    55690    48128    50732    60853    65554 
   56328    34806    14396     7769     9075     9034    12344    21489 
   32614    44886    51325    44442    32084    23202    13999      148 
  -11516   -10015     4250    19217    24228    17934     9763    10903 
   18538    20411    16433    18037    28644    39822    39801    23624 
    3710    -1092    12569    35255    55729    66441    68514    65588 
   61171    61027    65142    70047    76376    81716    81946    78431 
   72227    64013    58565    58165    57660    49697    32567    13058 
    1076     2351    17136    36798    45134    37829    24270     8253 
   -6067    -8266    -1628      465    -1277     1723    10087    18467 
   19262    13465    15384    30824    46509    46534    30695    15766 
   11241     6316    -3967    -3972    15397    42420    62574    66445 
   57888    59209    77973    94091    94675    84592    71160    62401 
   64114    70221    69042    60633    50901    37592    25054    23121 
   23362    16194     7696     3634    11858    33724    46148    35175 
   15588     4371    10203    23143    22014    14073    15910    17427 
   13033    13263    17494    21648    26459    26329    20700    16780 
   13891    13812    25525    43260    51234    50093    50908    56716 
   70238    91317   103487    98890    92840    91534    88173    84923 
   81584    70826    56070    44477    33594    23640    24221    33554 
   34757    27023    23598    21543    15764    12687     9338     4977 
   11683    19468     9206    -5794   -11130   -16222   -22370   -20464 
  -12010    -3480     5874    14860    10545    -9143   -25120   -24546 
   -9683     9435    17287     9210    -2029    -1539    17406    44548 
   59270    58565    54786    52166    50624    52704    54908    50511 
   41899    38441    42892    50052    56620    61974    62701    52647 
   32905    17798    17671    24968    28197    25732    23132    27047 
   38070    48379    50293    44218    37806    36612    38995    39099 
   30991    20710    22674    35090    44063    45672    45377    47156 
   51614    62684    80748    90533    83266    72095    67701    70848 
   80187    83860    70801    54764    57743    78854   100297   108493 
   98007    70391    40296    30287    43919    58518    58509    49691 
   35944    14779    -9595   -27493   -29523   -17685    -7408    -3694 
      68     2447     1578     -829    -5564    -7403      390    14116 
   22939    19303    10241     8878    13366    14187    12823    14483 
   17678    22499    31024    37462    39328    47473    62483    66935 
   56132    44708    42238    47515    58294    70738    77101    72926 
   62479    52615    45618    43287    47195    51155    48236    38620 
   25706    18328    23591    30556    23607     5549   -10651   -17937 
  -14014     -991    12587    19075    16711    11584    13999    23036 
   30229    35222    39275    40883    40890    39268    36298    36808 
   43751    51693    54465    52100    46481    43703    48785    50907 
   40936    27368    14602      870    -7229    -6801    -3539    -2047 
   -4729    -6770     1197    14832    19009    12936    11527    22173 
   38820    51407    50810    37510    22393    12362     8095    10299 
