Origin Time       2011/03/11 14:46:00
Lat.              38.103
Long.             142.860
Depth. (km)       24
Mag.              9.0
Station Code      TKY006
Station Lat.      35.6989
Station Long.     139.5028
Station Height(m) 70
Record Time       2011/03/11 14:47:48
Sampling Freq(Hz) 100Hz
Duration Time(s)  300
Dir.              N-S
Scale Factor      3920(gal)/6182761
Max. Acc. (gal)   97.754
Last Correction   2011/03/11 14:47:33
Memo.             
[...]
    2748    -3804   -10042   -12984   -11035    -5711       81     3837 
    3906      641    -4243    -9473   -12998   -12997   -11456   -11542 
  -13841   -17712   -21951   -24834   -25779   -24257   -19376   -12657 
   -6316     -578     4515     9517    16741    26803    36140    40357 
   39067    35082    30634    28130    30105    34558    35459    28732 
   14385    -4279   -23207   -41102   -55756   -61366   -56650   -48493 
  -45217   -50199   -59203   -64952   -65895   -65508   -63792   -56430 
  -43539   -32050   -26712   -26520   -30009   -36404   -43709   -49199 
  -50726   -49203   -48413   -50545   -54747   -58735   -61764   -66625 
  -74211   -80345   -81859   -79935   -76687   -72244   -66428   -60081 
  -53448   -47151   -43114   -41318   -38307   -32240   -26912   -25608 
  -26357   -27287   -28201   -27275   -23807   -20688   -20170   -20557 
  -17948   -11961    -7460    -5517    -1571     4776    10645    15849 
   19830    20474    17968    15390    15854    19085    20827    17805 
   12078     7039     2246    -2934    -6278    -6374    -3837     -213 
    2312     2948     2301     -240    -3757    -3312     2390     8587 
   13853    19257    21554    19042    14159     7081    -2463   -12910 
  -23537   -32158   -36492   -38700   -42101   -48199   -55336   -58047 
  -54243   -48281   -44028   -43159   -46761   -52884   -57612   -58438 
  -54415   -46725   -38179   -28908   -16862    -3832     6139    12470 
   17096    20988    22837    20884    15123     7390      768    -3576 
   -7384   -11748   -15961   -18693   -20053   -20764   -18687   -12887 
   -6535     -989     4540     9863    14906    18376    17049    11199 
    6494     6573     9471    12771    16334    19985    21595    20181 
   18049    16182    13786    11969    11185     8792     2907    -4540 
  -10944   -16150   -18820   -14568    -2876    10503    21853    32071 
   40209    43858    44305    43139    38023    27615    14948     4151 
   -3499   -10912   -20439   -30982   -42333   -54360   -63558   -66208 
  -61192   -51208   -41016   -30821   -19682   -12014   -10734   -15606 
  -27168   -40914   -49363   -51370   -49303   -43620   -34934   -27762 
  -27453   -33573   -42848   -53668   -63817   -71968   -78987   -83767 
  -84689   -84114   -84516   -84665   -82337   -74770   -60258   -43047 
  -27542    -8756    17707    43120    57557    59913    51292    36417 
   24342    18525    16570    16960    19092    20907    20369    19044 
   21108    27750    34888    37423    34156    27871    22516    19870 
   17226    10410     -176    -9594   -13126    -8893      866    11217 
   19968    28207    34312    34249    28853    22648    16197     7563 
   -1794    -8118   -10445   -10973    -9037    -1794     8024    13662 
   11845     6242     3666     4715     3733    -2687   -13670   -27584 
  -44931   -66340   -88223  -105477  -116064  -120887  -122822  -123485 
 -121405  -116928  -114578  -117039  -120394  -118998  -111832  -101764 
  -92363   -85056   -78503   -72333   -67304   -60573   -48282   -31957 
  -14488     3693    20193    32573    40263    40593    32819    21534 
   11298     3785    -1012    -2221      421      934    -6013   -15821 
  -22801   -26426   -24500   -13982     2999    21507    38176    52366 
   64697    74646    82086    86866    86832    81986    73374    58703 
   38411    17954      380   -15414   -30875   -45251   -56399   -63461 
  -66435   -66382   -66803   -70533   -75616   -76007   -67933   -53594 
  -35945   -15958     1137     7323     4250      775    -1417    -5343 
   -9607   -12395   -14951   -18470   -23784   -30905   -39660   -51338 
  -63340   -68391   -65363   -59546   -50139   -34703   -19362    -7546 
    4808    18215    28209    29988    22998    11006    -3835   -18110 
  -26254   -29915   -36268   -47548   -59251   -66946   -70284   -69419 
  -64204   -55786   -45319   -33377   -18625     -743    15077    24802 
   31100    37303    42950    44665    39222    28671    17898     9314 
    4984     3875      231    -6196   -10396   -13176   -18230   -24090 
  -25964   -18186      166    18219    22984    13363    -2890   -19153 
  -32528   -42471   -50051   -54554   -50817   -36259   -15542     5054 
   17686    18827    16250    11820    -1667   -21645   -39915   -53927 
  -61176   -57338   -44880   -33007   -27241   -26300   -26563   -25690 
  -23036   -17547   -11179    -9359   -12054   -16076   -22881   -33063 
  -42020   -46128   -45746   -40683   -30774   -18450    -4674     9355 
   21263    32593    42970    45822    38002    26044    17353     9242 
   -5467   -26521   -44757   -52042   -50671   -46018   -39774   -34487 
  -31432   -28764   -24676   -18184   -10959    -7122   -10054   -18983 
  -27216   -28756   -23901   -12918     5515    26346    39874    41903 
   36955    31736    28680    27856    29506    33209    37637    39793 
   38215    35603    33807    32134    29693    25181    19101    13813 
    7142    -5827   -24073   -42461   -58867   -74830   -91878  -107999 
 -120089  -128667  -134542  -136813  -137552  -139024  -137656  -128776 
 -112455   -91890   -71007   -53201   -41113   -34544   -28591   -20053 
  -10594    -1286     8116    17640    26869    32133    29493    22326 
   16913    12289     4511    -5956   -18551   -33472   -48259   -61267 
  -71788   -75774   -69875   -57194   -42686   -27875   -14448    -5904 
   -1556     4838    17349    32895    44605    48411    46307    42620 
   40125    41177    46899    55725    65667    72868    72549    65957 
   56274    43914    31987    22698    13723     5016    -3265   -14711 
  -30194   -46074   -58363   -64141   -63237   -57554   -48406   -38159 
  -28248   -15703      579    16186    27004    31479    28588    19115 
    6741    -5129   -13852   -15926   -12986   -15572   -30430   -50194 
  -65462   -75599   -80844   -79727   -73508   -63036   -50257   -40892 
  -36505   -32242   -24860   -15020    -3442     7822    13225    10641 
    5183     2309     2999     3665      290    -4750    -5706    -2321 
     148    -3223   -11561   -17410   -15440    -7963      650     7428 
   10048     8130     2960    -3609   -10432   -20263   -35683   -52460 
  -64037   -67699   -64974   -58979   -50923   -41808   -34128   -29337 
  -27412   -27431   -28425   -29629   -28627   -24523   -21642   -23645 
  -28510   -33098   -37484   -42365   -46176   -46743   -42310   -32699 
  -22271   -15949   -12954   -10478    -8135    -5623    -2918    -2315 
   -6250   -14846   -24936   -31480   -33032   -33778   -37060   -41000 
  -43395   -45472   -48511   -50930   -49531   -43633   -37930   -37105 
  -38584   -35737   -26221   -12739     1050    11062    14480    11730 
    4174    -5147   -11345   -12220    -8317     -480     8614    14565 
   15224    11704     6486     2403      822      149    -1732    -4669 
   -7751   -11069   -15247   -21577   -32248   -47354   -61655   -70603 
  -75975   -78829   -77429   -72163   -61584   -43455   -22594    -5412 
    5783     9366     6810     3531     2667     4182     7228    10311 
   12358    12511     8963     1710    -6717   -15403   -26204   -40820 
  -56358   -64631   -60904   -49671   -36050   -20570    -6356     1198 
    2534     1379    -2470   -10164   -18569   -23869   -26113   -27556 
  -30049   -34052   -37543   -38074   -35851   -31657   -25550   -18522 
  -13154   -11979   -13689   -16450   -22410   -31794   -41296   -48540 
  -51911   -51044   -48527   -49660   -57416   -66136   -68200   -62783 
  -52040   -38173   -23710    -8762     8825    29292    49764    67566 
   80228    84155    78416    66125    51611    38601    30420    29942 
   36560    46986    58521    67521    72069    75924    82019    87474 
   88581    84951    78438    70251    59746    46067    29809    14605 
    6291     6870    10874    10843     5364    -2308   -10771   -17928 
  -17717    -8459     2815     9106     9075     4417    -3542   -15382 
  -31615   -50648   -70883   -92096  -113473  -133604  -151280  -163084 
 -164621  -156114  -143413  -133599  -129205  -126253  -118581  -102938 
  -79319   -49216   -17225    10518    33141    53586    71651    84431 
   90930    94386    98095    98883    91966    78116    59941    40455 
   22706     5844    -8316   -12238    -4647     5470     7907      100 
  -11869   -21174   -24875   -21883   -14584    -9712   -11051   -15547 
  -17380    -9806     8711    27737    37616    39614    35915    27181 
   16764     5891    -6758   -21450   -38573   -56306   -68493   -70909 
  -64980   -55418   -46607   -38525   -29918   -22583   -17720   -15089 
  -15696   -20320   -26270   -31066   -38486   -51496   -65908   -77315 
  -83457   -82475   -74578   -61968   -48684   -36680   -22528    -5010 
   11757    24762    32476    31577    20002     2352   -11661   -14609 
   -5911     8697    21630    28493    27705    19873     9962     2326 
   -3950    -9577   -13183   -13819   -11389    -8871    -8746    -9129 
   -9896   -13782   -20160   -24329   -22776   -17121   -11547    -6402 
    2711    16490    28823    35663    38185    38319    37863    37530 
   35042    26610    10844    -8429   -23750   -28425   -23008   -17022 
  -19151   -29421   -41319   -47946   -46209   -35222   -17273     -102 
   12152    24718    39947    51410    55741    56410    55763    53556 
   49276    41427    29263    12647   -11731   -43524   -73798   -96768 
 -112220  -119163  -119822  -118544  -116642  -114167  -111389  -107954 
 -100354   -86566   -71543   -59037   -50342   -48242   -49601   -48519 
  -44425   -36327   -23131   -10990    -9638   -22447   -42503   -59222 
  -69105   -75964   -81012   -80972   -73100   -56541   -35227   -17978 
  -10722   -12164   -17685   -24146   -29884   -34081   -37354   -39743 
  -40481   -40107   -39498   -37757   -32625   -23171   -10349     4602 
   20384    34912    44855    48404    48307    48326    47313    40834 
   28864    15213      285   -16905   -34330   -49825   -62083   -70001 
  -74537   -77321   -76997   -71004   -60390   -47598   -34329   -25840 
  -28515   -43830   -67000   -87525   -98222  -102345  -103793  -101403 
  -95637   -89663   -86476   -86766   -85468   -76996   -64070   -51359 
  -37155   -20067    -3385    10246    20224    26705    29356    24771 
   10736    -7233   -20878   -29382   -36981   -42801   -44853   -46750 
  -48774   -45689   -37055   -27513   -20240   -15357   -11074    -5400 
    2633    11106    14011     7583    -4204   -15574   -23162   -25863 
  -28482   -38062   -54383   -70711   -82812   -92493  -101203  -107530 
 -111960  -115056  -115442  -112869  -106318   -93819   -76103   -57378 
  -43111   -33219   -21853    -5676    13056    29373    40848    47323 
   47908    44923    42076    38307    32195    26656    26307    33424 
   44938    54134    56114    51193    45447    45266    46629    38686 
   22544    10878     9526    14892    22975    31656    38887    42950 
   44230    44244    44713    48503    56485    64751    69264    69558 
   65350    55605    41459    25010     8637    -4707   -14219   -20608 
  -24569   -27405   -29633   -30776   -29853   -25603   -18418    -9292 
    1011    10509    18826    26876    32194    32678    31218    30951 
   31788    33494    36593    39540    39381    34258    24467    13443 
    4039    -5290   -16785   -29346   -38707   -41721   -40071   -36976 
  -33934   -31577   -30137   -28898   -26095   -21152   -15195    -7373 
    4696    19155    30318    36012    37752    35729    31157    27223 
   22664    12745    -3118   -22089   -41990   -60155   -73545   -81737 
  -86278   -87288   -84625   -80279   -74409   -64697   -52628   -42282 
  -34728   -28154   -19435    -6692     8765    25352    43327    62192 
   79333    94198   108488   120160   124039   117031   101173    82924 
   65820    48244    29458     9654   -10043   -24267   -30924   -35369 
  -39132   -37756   -29056   -14840    -2165     -381    -9828   -22727 
  -33969   -41615   -45811   -51217   -61494   -73830   -84990   -96665 
 -109856  -120807  -125882  -125444  -120792  -111339   -97320   -80838 
  -64068   -50197   -42690   -41799   -44236   -44869   -38437   -24470 
   -9942     -371     4899     5562     1813    -3381    -9838   -15954 
  -16272   -12532   -13500   -20705   -27009   -26879   -19548    -8200 
    2018     9343    13953    14072    11077    10602    14002    18533 
   23307    26197    23263    13680    -2010   -22474   -40856   -48437 
  -44338   -35786   -28653   -22737   -19099   -21675   -27033   -27051 
  -20189    -9531     1411     8607    10053     6497     -478    -8830 
  -14289   -10460     5420    28182    47253    56080    59243    62053 
   63982    69054    80907    92140    95326    91221    82337    70910 
   60827    54500    51057    48898    46611    43382    38677    31615 
   24027    20335    22300    26232    26456    22154    16882    12808 
    9974     8766    12231    22344    33612    39611    40895    38606 
   30585    16379    -2006   -21743   -40234   -58104   -75784   -87853 
  -89941   -85330   -78726   -72078   -66233   -60949   -56114   -52737 
  -51813   -53917   -57949   -61358   -63559   -65367   -66490   -66983 
  -66246   -60804   -48970   -33877   -18328    -2257    14866    33127 
   51139    66824    80668    94376   107165   116915   123912   129286 
  130992   126547   116520   102806    88559    77902    71427    64798 
   53649    38156    21444     5012   -12276   -31573   -52404   -72462 
  -87372   -94800   -99348  -107288  -118739  -130508  -141426  -151594 
 -160165  -165609  -168485  -169803  -167924  -162670  -155622  -147547 
 -140741  -135715  -129154  -120674  -112411  -104115   -96827   -94475 
  -97688  -102424  -104606  -103201   -99454   -93278   -82888   -68451 
  -52165   -35796   -21076    -9305      342     8997    15640    17747 
   15068    11726    11122    13685    20713    32221    45042    57260 
   68541    78293    85735    88281    83758    74851    64878    53776 
   41571    28609    14334     -927   -15971   -28860   -37156   -40699 
  -41745   -41167   -38254   -33202   -25980   -15294     -828    13821 
   22168    22457    20071    18984    18308    17666    18199    19827 
   22168    25273    28026    29058    28022    23848    15175     3105 
  -10156   -23845   -37281   -48739   -57600   -65995   -77030   -92634 
 -112164  -131247  -145187  -153397  -157074  -156562  -153629  -150405 
 -145861  -138155  -126885  -112483   -97491   -84167   -70785   -56028 
  -43128   -34823   -28430   -20691   -11501     -211    12239    21269 
   24515    21660    13486     4868     -730    -4464    -7286    -9860 
  -12829   -15624   -19342   -26412   -35928   -44728   -51302   -54462 
  -51944   -42138   -27552   -15231    -8598    -4172     1183     6790 
   10627    11923    10604     5042    -4750   -13725   -18279   -19889 
  -19362   -16793   -13900   -11308    -7437        2    10260    19775 
   27703    34287    36949    34449    29962    27499    28945    34074 
   40979    47320    51148    51194    47735    42350    37450    34730 
   33095    30243    24480    14877     2119   -10867   -19482   -22092 
  -23810   -29038   -35187   -38940   -39874   -38625   -36600   -34259 
  -31117   -27921   -25846   -23976   -20455   -15761   -10922    -6103 
   -2120     1182     4773     9068    14914    22493    30835    38551 
   43947    47431    50681    52328    50444    45481    35830    20612 
    7043     1093    -2069    -8470   -16560   -21413   -22242   -22416 
  -22684   -20244   -14886    -9117    -1710     8515    17394    24473 
   32952    40145    43415    46432    51180    55043    58079    61699 
   63268    60812    55743    49850    45143    41943    37884    32164 
   26207    20670    14400     6201    -2977   -12289   -21679   -29322 
  -34385   -38732   -43658   -48855   -52759   -53391   -51362   -48948 
  -45133   -38019   -30007   -23557   -16887    -7896     1366     6778 
    8514    10289    12320    12432    11006     8912     5721     2022 
    -809    -3185    -7048   -12907   -19587   -26488   -33659   -40503 
  -45562   -48403   -51444   -57108   -64398   -70281   -71399   -65757 
  -55042   -42751   -31659   -23840   -19198   -15415   -11702    -9726 
   -9837    -9263    -5388      576     4610     5047     4382     5851 
   10495    15948    19097    19723    18585    16449    15781    18211 
   22345    25964    27782    27142    23702    17331     8585     -454 
   -7989   -14318   -20994   -29879   -41545   -54807   -67926   -79533 
  -89935  -100181  -110266  -119044  -123662  -120888  -111574  -100794 
  -91630   -83490   -76046   -69487   -62970   -56083   -50671   -49047 
  -50346   -50854   -48367   -44948   -44482   -46905   -47363   -42472 
  -33107   -22366   -14012    -9151    -6332    -5140    -4957    -5634 
   -9155   -15300   -21454   -26231   -28969   -29600   -29138   -28143 
  -26336   -24095   -23057   -23950   -25271   -27050   -32240   -41886 
  -53950   -65953   -76074   -84605   -92378   -97151   -96003   -89064 
  -77585   -62164   -45449   -32068   -22782   -13428    -1393    11918 
   24507    35213    43467    49810    55148    59141    60215    57852 
   53316    48085    44063    42317    41602    40812    39643    38490 
   38058    37006    34124    30310    26058    21483    17064    12728 
    8606     4986     1461    -2076    -6266   -12957   -22487   -32439 
  -39496   -42216   -41147   -36698   -29343   -19674    -8057     3496 
   11901    16477    19630    23437    26975    28411    27715    25977 
   23947    21560    17971    12882     7510     2952     -721    -3033 
   -2913     -834      601     -364    -3624    -8030   -10917   -10925 
  -10481   -11646   -13110   -13095   -11227    -8679    -8305   -11134 
  -15335   -20293   -25704   -29920   -33396   -37779   -42721   -47709 
  -53051   -58371   -62510   -64081   -62316   -57449   -49962   -40901 
  -31795   -23871   -18413   -15604   -14108   -12960   -11665   -10074 
   -8635    -7800    -8052    -8897    -7926    -3327     3200     8025 
    9577     7897     2794    -3914    -8810   -10514   -10030    -8886 
   -7278    -4525     -739     3614     7395     9026     8895     8908 
    9938    11401    12525    12603     9907     2567    -8904   -21462 
  -32264   -41141   -48496   -53460   -56846   -59595   -60037   -57016 
  -50787   -42384   -32924   -22165   -10378      970    10360    16985 
   22370    29253    38816    49602    58370    62326    60811    55547 
   48756    41681    34731    27177    18249     7851    -3853   -15169 
  -24058   -30551   -34725   -35266   -32100   -27278   -21937   -14791 
   -5031     5288    13511    19475    23953    25806    25316    26163 
   28620    28035    21022     7092   -10798   -27133   -40203   -52708 
  -66036   -78967   -89315   -96195  -101385  -104957  -104412  -100646 
  -95724   -87909   -76480   -64753   -55102   -47015   -40184   -33435 
  -23877   -12475    -2543     5533    10258     9225     4473     -675 
   -4845    -6028    -2662     3455     9520    13736    14692    12424 
    7874      616   -10007   -22512   -34276   -43420   -49077   -52297 
  -54860   -56737   -59298   -64905   -70243   -71129   -68746   -64561 
  -59424   -55402   -52818   -49139   -42553   -35168   -29445   -25618 
  -23518   -21754   -19222   -16834   -14855   -12503    -8813    -3260 
    3150     9252    15289    22242    30424    38872    46048    50830 
