Origin Time       2011/03/11 14:46:00
Lat.              38.103
Long.             142.860
Depth. (km)       24
Mag.              9.0
Station Code      TKY025
Station Lat.      35.7136
Station Long.     139.8972
Station Height(m) 1
Record Time       2011/03/11 14:47:32
Sampling Freq(Hz) 100Hz
Duration Time(s)  300
Dir.              E-W
Scale Factor      3920(gal)/6182761
Max. Acc. (gal)   159.040
Last Correction   2011/03/11 14:47:17
Memo.             
[...]
  -34017   -37332   -27682   -18462   -16026    -7749    12640    34975 
   47292    46355    39670    38545    43560    39757    21030     8989 
   16653    24810    24145    25079    23079    12419     5058     4387 
    2100     3061    18596    41274    54068    56738    52143    32302 
    5749    -8480   -14540   -21730   -24620   -19552    -7292     5582 
    6723     5181    18724    32324    27941    19545    19694    26077 
   37832    43739    29242     7514     3226    14655    18376     5491 
   -3593     4289    14549    18648    18035    11110    12911    33715 
   50244    48635    41292    34474    30125    27429    19180    13117 
   16772    19328    23224    33080    28014     8905     5716    12932 
    5996    -3320     3681    18092    24632    19840    11245     4571 
   -5158   -16515   -19268   -15086    -9769     2022    18446    24324 
   22306    32468    53714    67546    71790    74657    75321    73962 
   75736    77810    76540    78732    86211    85896    70113    50292 
   37101    17051   -24963   -66028   -79235   -86552  -108672  -111045 
  -70849   -29060   -18998   -15493     9160    39620    47375    29291 
    8399     5595    14898    23569    36913    52491    53428    44661 
   42162    38366    24033    12521    13869    18575    20028    23825 
   28331    24947    18727    19325    21961    20062    15218     8151 
    6251    20342    34397    25275    12891    26119    42164    35306 
   34072    56490    67034    48539    32317    33547    29634    11219 
   -3473    -4926     1750    12096    18388    19864    23872    20177 
    4748     2784    16711    15421     -213     3147    29409    56118 
   72246    78901    81918    82860    80118    82867    91397    88310 
   76262    73517    73799    64398    55966    58803    62632    52578 
   31047    16546    12535     1012   -20342   -33111   -30139   -23216 
  -24810   -30909   -26870   -12478    -6230   -15979   -23875   -18490 
  -16189   -24888   -25084   -16611   -24096   -35302   -21238    -2951 
   -3748     2097    22649    25451     9847     6215    15879    18177 
    4031   -18529   -30267   -23673   -12683    -6437    -4344    -8418 
  -13229   -12918   -12004    -6872     8080    22768    31479    42640 
   57308    65760    65375    62039    55194    36800     9868    -3485 
   10947    34858    47513    57824    72729    75398    65039    63358 
   66064    51218    27338     9417   -13241   -39355   -49423   -48749 
  -53214   -55582   -52012   -53112   -47617   -18070    17290    37669 
   54746    71604    69728    58759    62471    67513    57683    48091 
   44914    39310    38883    49607    57358    51448    33812    14585 
   10826    23080    28481    16513     -609   -15937   -34001   -53067 
  -62883   -60739   -58371   -64947   -72743   -70863   -59261   -44162 
  -34522   -35264   -36189   -25253    -7761     9741    34475    62535 
   67656    36776    -3250   -14708     2014    19838    33643    50904 
   64967    72384    77093    77315    70715    54130    25889    -2627 
  -22172   -38217   -46306   -30713     1614    25154    27826    16555 
    9036    18525    37606    52887    59334    55543    52985    63825 
   73335    66191    54237    49910    48733    47454    50803    57591 
   57469    45991    36331    42459    49890    34368     8172     2490 
   16671    26443    22417    14270     7266    -7344   -32073   -49601 
  -43800   -22623    -3458    14024    36738    55600    63227    71533 
   85348    86181    65349    45152    41130    33194     6712   -15539 
  -15709    -9905   -11493   -12662   -10949   -12351   -16025   -20411 
  -24233   -22055   -16597   -15676   -14510    -6436     -590    -4201 
   -5295     4658    17425    28484    41725    59512    79684    90972 
   85707    76147    71841    57798    23828    -6731    -9723     2535 
    8538    10170    13031    11289     4229    -1482    -3586    -5920 
  -10847    -8991     5309    14949    11337     8362     7319     6708 
   20497    44517    61711    72566    74137    61099    56014    74497 
   89621    80158    63328    57132    59526    65144    71203    73708 
   70581    64458    57805    47817    35437    30379    33015    33813 
   32928    32115    26094    18233    16437    14770     6616    -1123 
   -5106    -6212    -1634     -519   -10070   -13533    -4211    -1829 
   -8570    -2006    18568    30411    26283    15166     3296    -3331 
    2318    16739    21551     2924   -23702   -28790   -11979     -113 
    1193     9540    21117    18915    12570    20841    36566    43748 
   46471    53236    54787    48684    54692    72746    74539    57092 
   43130    34883    25790    24044    28621    29447    30532    33133 
   31490    32768    36904    33332    32872    44502    48440    32899 
   13428     6976    11047     6451   -12164   -20883    -6466    10437 
   16611    26415    42253    45968    40691    48402    64666    62865 
   40917    25412    23027     9432   -18675   -37694   -42684   -36408 
  -12309    12738    17201    19006    34730    43883    34205    20835 
   11456    -1059   -16183   -18960     -355    23232    32906    42494 
   68807    86103    69744    45409    39152    37761    24895      955 
  -25823   -41845   -42703   -41436   -43945   -36406   -12805    10428 
   21751    29585    36130    29959    18290    20307    26369    20417 
   19898    38845    57339    61029    60864    67592    76962    79000 
   77321    83373    91064    91894    97014   106794    99668    75705 
   57479    43100    16759   -10237   -20710   -19519   -15605   -13939 
  -17128   -17945   -12300    -9325   -11533   -10343    -7270    -8657 
   -6253     6861    20608    28166    34342    40067    41894    36644 
   22612     8709     5824     8646     5649    -4776   -14801   -16107 
   -8519     3702    13475     8864    -6892   -10812     1105     3863 
   -9687   -12783     3543     9384    -3716    -2273    15136     8454 
  -18481   -26406   -19333   -22839   -31382   -29753   -20798   -14171 
  -11047    -8421    -9211   -14041   -14197    -9659   -10351   -13477 
  -13437   -15856   -17714   -13001   -14630   -29857   -40644   -35161 
  -24030   -10766    15948    49740    70226    79665    89675    93340 
   86095    76165    64378    50536    42724    36466    17672    -8586 
  -27109   -35950   -39878   -43152   -48642   -52799   -50599   -41302 
  -30349   -25307   -16100     9692    26405    11936      299    18323 
   39705    47791    57120    67543    64727    48074    30925    22464 
   11473   -10943   -25450   -22092   -20866   -23491    -8488    17769 
   30867    36332    50381    61750    59211    56727    59073    53373 
   46511    52470    56180    41252    22322    19156    29099    36555 
   33102    29144    41166    62774    72999    65122    45510    30039 
   31723    37858    35865    35795    39216    36447    35329    45443 
   52361    44543    38940    48285    56399    52364    48978    52793 
   53562    43579    27109    14569     8331      147   -10654   -13011 
   -4762     1698      971     1226     4615     1356   -13720   -28634 
  -26423    -7409    17152    44410    74986   101595   112885   106075 
   91599    78560    64414    49639    44824    50680    56751    61030 
   61239    47282    22553     2335   -10302   -19363   -19006    -5823 
    9493    17351    16923     9056    -2605   -13493   -26060   -39129 
  -39436   -25416   -13793    -9825    -4468     5211    14313    17012 
   17251    27239    43045    48387    41586    31912    30318    41295 
   46341    32765    22226    27365    29228    19957    17183    28314 
   33501    17535    -3299   -10238   -12377   -17705   -11216     7012 
   11606     1782     5762    27495    42158    43090    45439    49984 
   44960    31676    19151    10452     4031    -5105   -16785   -22030 
  -20539   -15107     4248    35597    58278    66046    66611    62783 
   59353    58854    52122    40817    36737    30323    10786    -5910 
   -7954    -3700    -2356   -10717   -29304   -45357   -44998   -27860 
   -9879    -5518    -6808     1133    15529    25095    30158    42422 
   62112    74658    85244   109849   130523   126106   116588   117419 
  107553    78785    50196    27689     6348    -8568   -15217   -18021 
  -16232   -10505    -5121    -2672    -4895    -7741    -2337    10342 
   16798     5412   -15607   -22647   -15326   -18599   -30343   -25546 
   -8053     3564     9725    13466    14685    20746    31500    39378 
   50690    70665    79748    67173    59407    67480    61827    39393 
   37726    63521    81921    79885    79671    90504    98228    96244 
   85235    61779    34577    18709     7045   -11361   -21706    -7802 
   16994    24178    13287    15445    36343    48221    46945    48239 
   48667    44102    45153    53589    58140    48466    24119     1133 
   -1569    10435    12605     1315     3438    30033    51033    45268 
   33915    30773    17537   -11021   -36456   -47587   -45709   -36296 
  -24644   -12906    -4640    -2747    -3895    -5961   -11134   -13948 
   -1953    21977    37182    36272    37635    51076    55433    38960 
   27585    36567    42667    34970    36478    57862    79168    81651 
   70462    63657    60954    43082    14509     6253    23560    37408 
   38327    47343    61910    53806    27017    13512    16502    10522 
  -11765   -30638   -33205   -31596   -39092   -48123   -47819   -44343 
  -50975   -67757   -78227   -70356   -53505   -40896   -29244   -13935 
   -1373     8733    26043    46314    50270    35702    30666    51947 
   72916    70290    65061    74366    77391    60676    40271    27848 
   18706     9378     1459    -6143   -15536   -20885   -14944    -5651 
   -5470   -10718   -12766   -10839    -3938      958    -9876   -20871 
   -4363    25613    42739    53153    66647    79422    91675   101053 
   98128    88463    89982    96396    83253    60798    63205    82342 
   81137    60272    46405    34700     1745   -37434   -46867   -34548 
  -35014   -44430   -32497    -5380      620   -13787   -15344    -1510 
    4316    -2791    -7758     2400    19987    24739    18960    16230 
    5948   -17704   -35129   -41834   -51088   -59654   -57559   -49190 
  -43279   -40414   -34774   -23349    -7415    10366    20545    18954 
   18398    26206    40580    61280    73889    69808    71363    83950 
   86238    81384    78430    69193    63315    69711    71549    70153 
   80119    86085    75421    67673    73696    80999    83088    83529 
   85943    91001    92248    88267    90254   100654   108826   111306 
  111117   105333    93048    82931    75981    58939    28970     1341 
  -13730   -17376   -11733    -4830    -6727   -11020    -6583     -469 
   -2057     -103    17970    38694    39644    21268     4581     4757 
   11990     5076   -12712   -17787   -11677   -17625   -31439   -33453 
  -33847   -45664   -52199   -44371   -36370   -32052   -24961   -20020 
  -21356   -21721   -20288   -19426   -11050      392    -5215   -20935 
  -21401   -17965   -31487   -34566    -9304     3624   -11768   -18002 
   -2730    12170    11828    -3638   -15135   -15007   -32770   -64356 
  -55273    -8732    19623    26773    32356    25186    12651    13184 
   12696     5834     6630     7205       77    -2650    -1628    -6066 
  -16594   -32553   -36200    -2612    46972    69443    72751    88497 
  106047   100191    80730    68982    62852    51666    35595    22355 
   23640    40059    52726    55529    60846    60819    41783    23851 
   32040    59204    85322   101745   109371   111115   105403    85984 
   53462    21815     4738    -2241   -12920   -27229   -30789   -16910 
   -8135   -29809   -53666   -38050   -11299   -15527   -25315   -15794 
  -16719   -37169   -40184   -14448    16368    39769    51069    45751 
   37230    38465    42023    44532    54939    74229    93461   103851 
  102869    91106    66400    37097    18139      -27   -36731   -79890 
 -102566  -101553   -88137   -69331   -50701   -36335   -33280   -47086 
  -62465   -61081   -54868   -61938   -66987   -48671   -18288     6973 
   28639    44272    48655    55488    77503   102868   110127    92834 
   67298    54294    58139    69313    72896    59473    38564    22447 
    2908   -30257   -66096   -85951   -81236   -57051   -31250   -17152 
   -9101    -1526      547       40     6706    19002    29187    37662 
   47346    59258    81254   111972   126460   112147    88938    74925 
   71418    79584    94926   101242    95151    88926    79932    54295 
   19813    -6900   -36078   -74868   -94280   -82300   -73134   -90731 
 -115244  -113947   -84573   -57120   -51390   -53013   -33976    16415 
   79961   126619   144614   146787   141589   123674   100214    86259 
   82025    87454   110339   143063   164575   167737   160374   147741 
  127995    98382    61284    25678     3674     -759    -1564   -15371 
  -38145   -55642   -71413  -101120  -141005  -166867  -165664  -146414 
 -122594   -98173   -69313   -40519   -33582   -62087  -102367  -122339 
 -129892  -143697  -146157  -119442   -79351   -43615   -12488    16954 
   41112    54540    61722    72966    84330    82240    71863    71463 
   74654    57483    26433    10029     4474   -13147   -35229   -43193 
  -37223   -24338   -22450   -44851   -61950   -51681   -53089   -91216 
 -125296  -121204   -97866   -84207   -85128   -88460   -74751   -38590 
   -5562     1776     7252    49401   108818   136884   147446   186164 
  241877   269277   258884   235263   208834   163725    97217    35960 
    -953   -13572      768    41507    92771   128905   133237   120622 
  111077    91016    52026    23719    13898    -7732   -38408   -52728 
  -63424   -92416  -129868  -151526  -144341  -116094   -86486   -64666 
  -42132   -15159     5876    14060     9731     4267    19671    49562 
   60270    55908    65401    71219    47271    24010    28544    33749 
   25347    26248    31545    17777     2087     9128    22835    23625 
   21157    26637    33342    33423    33292    41697    50168    44131 
   27676    20422    34657    63458    94108   121728   142299   150578 
  142953   114887    69877    23900    -6130    -9126    10955    35359 
   52801    61879    62475    58053    45151    13167   -27769   -49517 
  -49392   -44486   -34694   -24933   -35424   -61326   -79528   -87544 
  -92246   -84572   -58778   -26921     4569    37465    64095    75647 
   76877    76878    69206    39966    -7284   -59648  -110709  -151352 
 -166460  -150016  -120016  -105717  -110396  -107029   -79597   -48139 
  -40841   -48289   -34956     1464    36762    67035    91802   106064 
  128511   172934   217283   235393   213106   141966    42758   -35038 
  -61033   -48302   -35108   -49383   -89422  -137122  -169831  -170024 
 -142034  -106263   -79773   -67977   -62417   -52534   -46990   -54059 
  -43680     7946    54350    45759    18052    33184    87695   134776 
  150831   149203   150874   159635   162217   148188   123797   104444 
   95016    80670    54929    41531    55523    74318    73045    53123 
   29469    14440     9866     3498   -21114   -58484   -76478   -64541 
  -56960   -79053  -113912  -137383  -148094  -157542  -167756  -164801 
 -133461   -72788     -736    53959    81111    99615   116238   116746 
  114420   133350   148850   128056    94255    83387    90001    94348 
   93713    88951    70562    34466    -1789   -20182   -22388   -12132 
    8600    24878    17933   -14399   -51967   -76825   -90459   -94507 
  -86723   -69144   -40193    -2060    32160    60258    86311    88649 
   50029    -1870   -35725   -42901   -15296    34880    70584    84904 
  102859   130217   150861   155806   144144   109517    52214     -563 
  -20795   -17230   -12905   -13825   -24043   -47633   -69900   -75597 
  -68006   -52764   -32001   -12680    -2722    -3328   -10008   -19083 
  -23560    -9963    22910    56619    80269   102750   123704   127338 
  117863   116596   123691   124155   116162   100584    66426    14443 
  -29614   -43768   -30011    -3486    17242    15472   -12939   -57846 
  -94177   -87702   -34801    19146    32478     6865   -36568   -71107 
  -71831   -49434   -34263   -26867   -11113     6706    11865    12832 
   20127    25103    27708    33527    25510    -6242   -36794   -45618 
  -41150   -30857    -9377    22273    52555    66566    54190    24175 
    3528    10367    31828    45512    49938    50796    48256    50188 
   65098    90850   116962   122410   101057    87106   101088   110507 
   94285    69737    44121    16224    -6732   -26253   -44570   -51479 
  -40069   -14773    12663    26930    31236    55174   108969   152699 
  140659    75744    -7443   -80142  -115127  -104373   -77241   -51786 
  -16266    26841    55682    65887    70408    65192    40237    10632 
  -15376   -56172  -106687  -133956  -130326  -108495   -68992   -17313 
   19400    14080   -31595   -82315  -100555   -83035   -51765   -11751 
   49558   116744   146218   124803    88339    65438    52967    54815 
   77740   104909   124838   150195   184187   209905   221933   230228 
  232699   213895   167595   100412    24109   -41042   -74024   -72560 
  -56398   -48577   -56070   -67934   -62733   -30590     9017    34256 
   46456    49546    37481    11593   -16237   -35155   -36657   -14597 
   23320    54380    69122    85590   113987   127613   100521    60755 
   58450    86060    93384    73557    68434    95470   112221    78592 
   30878    15834    -4952   -79058  -168070  -210740  -203691  -181236 
 -165896  -152794  -126235   -85113   -40361    10030    65969    95888 
   80820    54690    50400    54019    38109    11827    13981    55366 
  107304   144307   158402   155172   152409   155193   147006   118771 
   76068    29045    -5637   -18835   -17345    -6280     7627     1188 
  -37865   -79429   -88565   -75908   -70598   -68322   -46681   -14839 
   -2734   -11092   -17927   -21347   -29247   -24081     9321    44072 
   52281    49865    58559    74865    91161    98069    91600    89894 
   98578    97689    84980    76005    74536    71174    48483      -89 
  -56378  -105308  -144189  -162419  -155736  -136986  -104966   -47267 
   11829    30312    23393    33048    41922    18307   -16693   -37002 
  -38982   -21246     2704    20064    45018    82339   109575   120514 
  134707   154687   157077   131781    95525    55276     2337   -44013 
  -51866   -28806     -108    22552    23839     -482   -19209   -11100 
    3247     2427   -13434   -37654   -60685   -75874   -79141   -62511 
  -33647   -18353   -25012   -36863   -43517   -47902   -42974   -17387 
   24562    74285   125459   164126   181835   187771   194475   204403 
  206588   191200   168008   151177   142336   140687   144627   142224 
  124767   100568    73024    36334    -1707   -33619   -66895  -102452 
 -127452  -137898  -147278  -162665  -170689  -154362  -114990   -73362 
  -45301   -29361   -20172   -14667    -9231     -497    12797    26874 
   33623    33230    39069    56422    76291    97878   127268   161124 
  188560   197598   186806   171289   165323   166407   162011   147948 
  134060   131205   137184   138834   128245   106273    73813    35927 
    3746   -15002   -19631   -15982    -7705    12992    47197    73596 
   72679    48031    14579   -17426   -48268   -78611   -97306   -96467 
