Origin Time       2011/03/11 14:46:00
Lat.              38.103
Long.             142.860
Depth. (km)       24
Mag.              9.0
Station Code      TKY014
Station Lat.      35.7002
Station Long.     139.8351
Station Height(m) -3
Record Time       2011/03/11 14:47:31
Sampling Freq(Hz) 100Hz
Duration Time(s)  300
Dir.              N-S
Scale Factor      3920(gal)/6182761
Max. Acc. (gal)   131.023
Last Correction   2011/03/11 14:47:16
Memo.             
[...]
  -36553   -45664   -44457   -32196   -15370    -3260     -159    -2081 
    -626    10800    30186    48391    61149    72706    85940    95715 
   94037    78948    57965    43140    37658    30638    13219    -8873 
  -23895   -26942   -22669   -18440   -16503   -12568    -3230     5486 
    4354    -7612   -23859   -35093   -35321   -26693   -14077     -236 
   12393    20704    21466    14831     5537    -3817   -15739   -31539 
  -45909   -49775   -39029   -19833    -4613     -943    -2454     3743 
   19563    34340    38328    32554    27421    31183    43094    58069 
   70190    74848    72589    67361    61973    54629    38735    12633 
  -13299   -25859   -21593    -8426     2900     7395     8037    11912 
   20769    28758    32716    35498    37995    36314    29519    24178 
   24040    24303    24577    32338    47009    56668    53272    39648 
   23732    13964    15141    21036    18005     3035   -11291   -12652 
   -2517     6111     4640    -3755   -14730   -25039   -29203   -26736 
  -22193   -18448   -16937   -17768   -18150   -12393     3521    24839 
   42044    50396    49911    41873    29906    19313    10607     -421 
  -12716   -19338   -17399   -11090    -8235   -14445   -25845   -32034 
  -28008   -18260    -8701      799    11637    21579    31363    45051 
   60725    72455    77617    74484    62275    46296    32664    20133 
    4627   -10280   -12383     3355    22150    25867    14479      173 
   -5935      582    11839    15682    10481     1996    -3571     -890 
    9674    21193    25472    18868     7815     4553    13166    26324 
   34136    31719    26509    33884    53763    67087    63410    50129 
   36433    26252    20734    20013    23149    28699    37800    51408 
   66306    78031    83352    81814    76144    68811    60852    53648 
   48482    45351    45830    52798    61922    63783    57113    47657 
   39062    32596    27658    22084    15245     7239    -2232   -11136 
  -15819   -14268    -6481     5158    15826    22068    26962    36538 
   47976    52936    50904    44623    34568    23556    12187    -2046 
  -16441   -25665   -28841   -29726   -32553   -37581   -42367   -47125 
  -55402   -67689   -78909   -86394   -91997   -93424   -84564   -65519 
  -44405   -29756   -25771   -30366   -33804   -29327   -23909   -27074 
  -38533   -51188   -55154   -45087   -28589   -16791   -11823   -10199 
   -7613     -812     8340    15554    17849    10368    -9026   -30608 
  -41660   -41766   -37851   -33325   -31103   -32301   -30780   -22876 
  -11917      447    12325    20190    26245    32998    37396    40096 
   45953    55579    67430    80407    92594   102017   105954   102250 
   92436    83493    85145    95948    98335    79648    49532    28596 
   25378    30264    30631    25728    24986    35479    53965    69976 
   76519    77741    80930    86355    91327    92967    88383    81520 
   79424    80318    75505    59438    34859    11069    -3400    -7740 
   -9050   -14157   -22484   -29553   -33742   -37095   -42033   -50030 
  -61221   -70447   -69167   -54201   -29297    -4507     6257     -892 
  -14930   -24611   -28712   -33771   -46283   -64237   -77813   -78618 
  -67519   -53670   -45737   -44827   -45193   -43940   -42876   -38666 
  -29936   -24466   -23349   -18215    -6627     6546    18096    27656 
   35269    41874    49073    58434    68595    74353    74250    72604 
   73354    77984    85541    93524    99167   100123    96366    87802 
   72888    53260    33268    16504     5393      429     1412     9671 
   24856    41603    54481    62623    66827    67827    65248    56411 
   41554    25307    12318     4906     -569    -9740   -21664   -31628 
  -35361   -31507   -24852   -20014   -14337    -3282    10514    20256 
   25590    30592    35693    39074    37930    28808    13031    -2003 
   -8934    -8575    -7433    -4317     7390    26036    44903    59884 
   67134    64566    54729    41493    29248    22012    18767    12747 
   -3436   -28609   -50715   -58935   -53320   -42425   -35006   -30160 
  -20567    -7993    -3701   -12870   -27906   -37159   -34363   -21886 
  -10127    -6637    -7667    -8366    -9072    -9225    -7354    -4659 
   -2397     1301     7237    12023    13123    10299     2355   -11263 
  -26619   -34566   -27670    -9986     5861    10117     3159    -3175 
    2383    15454    22577    18570    10018     4934     4796     6174 
    6194     8250    16075    21655    14574    -2927   -18794   -21508 
  -12269    -3753    -1166      607     3193     2001    -7267   -22636 
  -35067   -34222   -15199    16812    50957    80774   103536   115783 
  115946   106339    92564    81008    75235    74135    70172    57244 
   43751    42857    51790    56588    53076    49779    53265    61902 
   72025    81355    86107    81432    65937    43063    20061     3065 
   -8871   -20261   -30711   -33298   -23727    -8352     2728     4875 
     968      365     7342    14018    14680    12815    12379    15960 
   23632    30077    32027    32402    33489    33307    28614    19624 
   11498     8914    10031    10143     9468    10653    11583     6383 
   -7798   -25921   -39939   -48294   -55072   -63175   -70097   -69834 
  -61116   -49274   -40772   -36794   -32929   -29447   -28738   -26336 
  -22406   -23909   -30033   -36237   -42959   -48725   -48094   -39367 
  -27103   -17456   -12050    -8779    -8166   -10895   -13306   -13462 
  -12312    -7458     3276    15972    24111    24771    20850    15425 
    7082    -2624    -8319   -12222   -19541   -25951   -24781   -16181 
   -3376     8748    16735    25276    38996    53087    61419    63718 
   63389    62624    59124    51225    42095    36138    35821    38864 
   39051    33037    22640    11539     2717    -3338    -8781   -14998 
  -20372   -22239   -17925    -5748    10674    24339    33573    41054 
   48575    59029    71580    78413    77335    74003    72039    72485 
   73614    72157    70063    69848    68101    63194    60017    61783 
   64422    62360    55186    46332    39313    35426    32332    26096 
   15795     5954     1478      357    -1585    -2584     -434     2051 
    2784     2963     2763    -1059   -11725   -26281   -35726   -31496 
  -12447    11911    28433    31906    26542    18722    12300     8004 
    5415     4823     4793     2423    -2354    -6874    -7555    -1620 
    9294    18680    20538    14941     6169    -2852   -11339   -17934 
  -19142   -13268    -3945     5722    16566    28845    40265    45617 
   40336    26761     9204   -10123   -26420   -38631   -52862   -69144 
  -79849   -80493   -73158   -63722   -55972   -49544   -42155   -30494 
  -15040    -3792    -5230   -18731   -34841   -44449   -47758   -51734 
  -55613   -49664   -33066   -17305    -9484    -6346    -3095     2852 
   11781    19057    20422    19465    21748    26451    30639    37248 
   51795    72201    88507    94134    92460    89862    88263    86333 
   79526    62674    39564    21783    16964    23146    32759    40741 
   49075    61620    74539    78134    66998    45294    25976    20637 
   28307    37835    39216    31205    19792    11902     9332    10177 
   15396    23754    26715    19831     8411    -1736   -10128   -18573 
  -24831   -24440   -20761   -23182   -34598   -48843   -59631   -64712 
  -63046   -56376   -47707   -36112   -21167    -4388    13646    29091 
   38061    42440    42309    33787    18861     5242    -4291   -13810 
  -24172   -28244   -23094   -20332   -31651   -51197   -64634   -65579 
  -57068   -46325   -38546   -33717   -30287   -27562   -24058   -18316 
  -10452      102    14115    29400    42998    52012    52390    42952 
   26521     6668   -12753   -27905   -37505   -42423   -42826   -41208 
  -41615   -40915   -33082   -17321     5445    31600    54689    72130 
   83787    89224    88938    84029    77020    71493    69659    71212 
   74396    77817    80476    82112    82594    80659    76150    69778 
   61068    51139    42417    34078    23094     8925    -3827    -6840 
    4634    25902    47678    64059    72436    72214    67210    61591 
   54365    44124    32691    21650    12227     6840     7194    11913 
   15320    12014     4628      512     1059      217    -7773   -22484 
  -39298   -54491   -66782   -75643   -78273   -70879   -54268   -33048 
  -11423     8027    25336    40964    54575    65587    70453    66612 
   56721    43522    27006     2788   -34012   -74695  -101281  -108078 
 -102058   -89564   -75288   -62848   -49514   -28296      304    26886 
   46206    59100    65635    68978    74694    81778    87989    95737 
  103699   108086   109260   105244    92043    71781    49873    32321 
   24215    25110    33195    46483    57952    61549    59465    60176 
   70375    86458    98079    99946    94906    86948    77037    66251 
   55670    43046    24859     1311   -20498   -28666   -15396    14732 
   47518    70359    76529    62080    29577    -9437   -44724   -73817 
  -97634  -113916  -113586   -90654   -52826   -13330    17223    31901 
   31623    20503    -1593   -27836   -41187   -40063   -42372   -57814 
  -81852  -104798  -117138  -121337  -127454  -135226  -137050  -129417 
 -114016   -98019   -90584   -91582   -91419   -84860   -76561   -72706 
  -72183   -67585   -54570   -38379   -28542   -27292   -29134   -29435 
  -26352   -20828   -16283   -15465   -18764   -21992   -20857   -15906 
   -7466     2442     9181    15588    28768    47126    60257    56406 
   29186   -11809   -39605   -34761    -6836    21171    36798    39411 
   33441    23233    11209     3440     7360    23442    48136    78639 
  111082   139495   158261   164637   158353   140597   113885    82622 
   53924    34467    25773    23468    19657     8593    -8007   -24270 
  -36315   -42209   -43033   -43246   -44703   -46766   -50723   -55743 
  -55108   -42826   -19697     9974    42014    71555    94300   109486 
  116217   109471    86126    51416    18430     3406    15860    48287 
   79360    90661    77850    50808    24726     3014   -21970   -46332 
  -53264   -38522   -18122    -7323    -7224   -11583   -11482      621 
   22141    45043    63611    72893    69957    52630    20759   -14643 
  -38655   -49556   -55836   -61396   -64281   -63346   -58097   -49561 
  -39288   -22560     4377    34663    61553    85208   105099   120916 
  135033   144349   141165   123663    94573    57651    23336     4758 
    3279     6331     3311     -311     3640    10731    21192    42638 
   67680    83921    90818    86972    65580    26902   -16544   -46462 
  -55243   -53946   -55956   -65632   -82037   -94677   -86265   -46599 
   20762    90256   128736   134148   125506   110438    94545    74936 
   31117   -36855  -106971  -160595  -177834  -160003  -135165  -116875 
 -104997   -97879   -87577   -77494   -77447   -81438   -77524   -60203 
  -29290    12489    59279   100467   125742   128710   110315    82746 
   60429    50671    48557    36438      886   -54470  -113840  -155794 
 -164455  -142233  -107337   -77173   -51903   -22093    10015    39593 
   72467   106185   127472   130304   111521    71109    25121    -3140 
    2935    47474   111677   161198   180001   181206   178615   172651 
  163172   149666   128584   100038    65861    33014    15398    16083 
   24784    33314    35688    27307    12928       52    -8535    -9381 
    -560    16991    43632    76499   105970   118794   110275    87444 
   55282    23268     7173    10940    30352    53646    59827    41409 
   12318    -7872    -8396    10289    41616    69927    78897    69047 
   48615    22231    -3915   -23876   -35832   -39803   -33205   -11186 
   19135    37632    34027    13843   -13575   -41003   -64732   -81919 
  -89799   -90425   -87908   -81093   -72401   -72420   -80977   -86423 
  -82422   -69961   -54696   -41712   -32062   -25525   -18735    -6913 
   10401    28113    37617    32835    15356    -4791   -17308   -20816 
  -19699   -20716   -26701   -30537   -28026   -24233   -21053   -15283 
   -3010    21975    58431    93109   117177   129630   129701   117813 
   94775    65476    43097    38703    48241    56614    57827    57192 
   53420    43217    33960    30012    25402    19850    18900    21960 
   28622    38249    42021    36736    29486    24131    20937    20527 
   20415    15149     2629   -15303   -34014   -41349   -26549     8971 
   57911   104569   128758   127865   110778    83521    55387    31836 
   11255    -2496    -5466    -2117     2815    13202    33170    54808 
   69097    76126    76006    69416    64715    66920    69090    61996 
   39522     1483   -42321   -79944  -102168  -101976   -85803   -72864 
  -69738   -67990   -63747   -51137   -17839    32923    80146   108381 
  115657   104585    80728    54940    38641    34640    30008     6538 
  -34421   -72323   -91894   -88217   -62007   -22776    19710    64069 
  110469   152984   179412   179533   154351   111936    58445     3584 
  -41296   -77343  -106705  -122726  -124064  -116028  -105654   -96224 
  -81129   -56651   -29510    -8795    -1883   -12341   -34362   -47356 
  -35119    -8556    14823    28803    27566    10928    -6942   -13841 
   -8972     7572    33145    58653    80453    98483   106097    98055 
   77177    46942     8478   -32362   -61905   -65445   -38849     1686 
   27788    23036    -7950   -48004   -76502   -83861   -78421   -71605 
  -67784   -64703   -50661   -13788    40895    97320   147596   189989 
  216401   218758   196920   155997   105904    52368    -7909   -69202 
 -108490  -103519   -56443     2197    41185    56189    62600    70921 
   81184    90662    88431    62123    22510    -6718   -18144   -22044 
  -33867   -61848   -97769  -123652  -127078  -105908   -66534   -24476 
    2671    13068    19966    25512    23212    18355    14987    11433 
   13362    24525    38348    44349    37510    24129    14891    15149 
   22054    25782    15882    -8901   -37857   -61121   -80519   -98812 
 -111007  -117124  -120581  -113468   -93263   -71165   -50137   -28900 
  -11179     6228    29624    54982    71662    75408    69716    60381 
   56968    68388    90134   106656   112607   114595   113233   106844 
   96684    80341    57690    34589    14945      479    -2283    10263 
   25377    25202     3982   -35067   -80107  -109083  -111759   -97977 
  -78059   -60639   -49611   -32096     3389    51389   100219   136208 
  146993   130266    95227    60933    41500    29657    13702    -7682 
  -34647   -60332   -71422   -68547   -60801   -47748   -29764   -16508 
   -7215     9110    30004    45427    52991    48203    27296     4565 
   -7084   -13819   -19407   -25953   -42001   -61105   -64494   -46248 
  -14027    22772    55220    76001    83079    79653    70576    60767 
   58422    67665    80685    87131    80971    62955    37941     9853 
  -13666   -28948   -40768   -45834   -35423   -11398    15996    35481 
   41715    41353    41982    42149    39113    30720    13023   -12113 
  -35320   -50255   -59966   -69457   -77623   -79802   -72286   -58337 
  -49436   -49264   -46186   -31131    -6909    21093    45274    54401 
   44199    19335   -13434   -45777   -71137   -88000   -92146   -75976 
  -37326    17197    67780    92989    93030    74601    38181     1466 
  -14741   -15206   -12255    -9806    -5853     3534    15843    26935 
   38530    52625    68215    84836   104376   122801   127607   113479 
   85805    50962    19343     3416     4310    11736    16035    16831 
   20374    32087    55346    87719   118144   133953   127364   106379 
   92932    94224   100852   108404   114071   114311   111038   105919 
   98599    88523    74595    58562    44785    34244    22980     9466 
   -3158   -15306   -31556   -54124   -82549  -114493  -143484  -159716 
 -155068  -128601   -88061   -43954    -1219    38282    65892    71474 
   54158    19920   -17670   -43556   -55733   -57588   -50158   -34686 
  -11746    13131    33988    51652    64698    69342    63924    45104 
   12447   -23987   -50988   -66074   -74930   -80429   -86769   -99673 
 -114510  -122080  -119447  -105525   -80563   -51766   -31095   -24911 
  -28446   -33027   -32905   -27908   -24496   -27154   -32631   -37547 
  -39826   -35401   -24235    -9150     8484    21011    22355    22583 
   31290    44285    57816    73887    90984   103251   107802   102692 
   80992    40570    -8080   -51015   -80628   -98921  -109128  -108303 
  -99176   -92275   -92477   -98317  -105791  -110366  -109574  -100978 
  -83944   -61265   -34182    -3816    24197    43242    49181    42923 
   33851    31533    36865    49399    71435    99567   124399   140230 
  147599   148940   146767   142049   134035   125233   119671   115968 
  109481    97042    78432    57429    39236    24816     8720   -14689 
  -44595   -75287   -98860  -106931   -95713   -70199   -41205   -16488 
    3200    17921    23135    13706    -7182   -27113   -37220   -38608 
  -34720   -29352   -25466   -21114   -13133     1446    24020    51528 
   79612   100087   103046    89303    67945    46937    31711    22532 
   17416    18231    24341    28689    25100    12604    -5181   -23601 
  -38601   -44967   -38033   -16123    15325    45157    67065    79683 
   83653    82778    78722    71737    63923    55638    46682    38606 
   33515    33659    40818    53008    62521    65129    64416    63616 
   66654    75170    82194    83765    81314    74927    67768    62431 
   56348    47811    35693    18628    -1128   -19643   -34359   -44434 
  -52092   -60912   -71568   -83450   -97351  -110534  -115549  -108776 
  -93431   -73438   -50196   -24941    -1209    16019    23737    22399 
   15034     5132    -7451   -25938   -50254   -74788   -91599   -95671 
  -89261   -78672   -68338   -60034   -51871   -38355   -15418    15791 
   49320    78372    99189   112385   122724   134153   143838   145477 
  138368   128067   119693   115835   115901   114252   104253    84021 
   58238    36967    29926    41017    68483   103999   134329   152491 
  158986   153179   136382   112370    83163    55061    37297    34767 
   49227    75622    99925   112464   115488   113970   109224   102765 
   97462    93629    92596   100049   116536   133846   144311   144916 
  134092   112294    86109    63089    42672    20363    -2819   -19135 
  -22508   -16444    -7112     4387    17121    29464    41018    48595 
   49032    43011    30649    11680   -11964   -36441   -55313   -62599 
  -57143   -42955   -25765    -8795     7924    26131    44492    57722 
   63967    62543    48562    18908   -23391   -68662  -104720  -127262 
 -137621  -136336  -128610  -118214  -100592   -77090   -54605   -34965 
  -22911   -23810   -33079   -44468   -55780   -62955   -63733   -61252 
  -55540   -46614   -41380   -42239   -43959   -43033   -38256   -31208 
  -27321   -30002   -37875   -47178   -53195   -51891   -41834   -24839 
   -6374     6610    11422     8678    -2300   -16822   -23447   -17174 
   -1352    19179    37359    45589    40618    24618     6076    -3977 
    -487    13821    30174    40132    45929    53957    64575    77101 
   89124    95037    96706   101363   109584   118225   126493   134324 
  140594   141518   132830   114617    90973    68872    55873    53662 
   57398    59999    55268    42999    27947    12692     -625    -6770 
