Origin Time       2011/03/11 14:46:00
Lat.              38.103
Long.             142.860
Depth. (km)       24
Mag.              9.0
Station Code      TKY012
Station Lat.      33.1195
Station Long.     139.7986
Station Height(m) 62
Record Time       2011/03/11 14:48:11
Sampling Freq(Hz) 100Hz
Duration Time(s)  300
Dir.              N-S
Scale Factor      3920(gal)/6182761
Max. Acc. (gal)   15.257
Last Correction   2011/03/11 14:47:56
Memo.             
[...]
    9267    11556    13012    13512    13051    11791    10268     9273 
    9197     9722    10282    10450     9907     8552     6648     4817 
    3935     4625     6732     9605    12647    15362    17351    18509 
   19007    18971    18238    16590    14124    11113     7680     4002 
     557    -2180    -3920    -4354    -3283     -923     2274     5772 
    8802    10577    10778     9555     7295     4750     2803     1766 
    1463     1743     2501     3689     5248     6839     7898     7872 
    6419     3720      613    -1800    -2817    -2329     -603     1886 
    4489     6406     7009     6293     4618     2219     -605    -3172 
   -4745    -4964    -3800    -1597      865     2882     4314     5284 
    5837     6104     6421     7258     9001    11488    13997    15808 
   16437    15685    13839    11465     9047     7139     6455     7410 
    9763    12850    16059    18886    20773    21235    20169    18008 
   15557    13538    12284    11868    12290    13346    14538    15234 
   15021    14002    12572    11006     9520     8370     7560     6846 
    6113     5463     4978     4531     3920     3181     2609     2512 
    3018     3986     4893     5014     4066     2507     1025      -41 
    -653     -699       61     1714     4042     6663     9177    11229 
   12703    13763    14481    14653    14231    13583    13060    12673 
   12278    11729    10845     9540     8065     6829     6007     5610 
    5547     5422     4733     3438     2109     1481     1995     3603 
    5802     7888     9280     9859    10011    10297    11044    12020 
   12573    12284    11336    10276     9612     9432     9389     9260 
    9106     8797     8105     7080     5911     4779     3888     3413 
    3481     4075     4922     5609     5754     5154     3935     2468 
    1064     -163    -1057    -1397    -1215     -626      461     1901 
    3109     3918     4756     5802     7020     8594    10397    11806 
   12499    12762    13026    13415    13635    13336    12367    10718 
    8727     7210     6883     7608     8521     8929     8647     7752 
    6487     5135     3904     2850     1820      753       74      419 
    2058     4701     7469     9175     9217     8039     6437     4963 
    4038     3917     4430     5044     5260     5015     4684     4606 
    4754     4922     5047     5281     5807     6562     7180     7253 
    6642     5596     4562     3731     2847     1740      694       80 
      69      544     1071     1291     1242     1094      820      285 
    -547    -1620    -2794    -3809    -4433    -4756    -5147    -5767 
   -6322    -6465    -6160    -5491    -4531    -3631    -3287    -3634 
   -4432    -5349    -6028    -6098    -5237    -3324     -631     2319 
    5014     7063     8348     9144     9816    10484    11087    11612 
   12066    12413    12668    12874    12908    12614    12158    11953 
   12168    12536    12748    12744    12488    11858    10820     9546 
    8316     7338     6764     6729     7213     8028     9036    10254 
   11718    13228    14428    15063    15009    14318    13216    11798 
   10055     8307     7193     7013     7439     7929     8052     7450 
    5938     3718     1355     -642    -2041    -2566    -1845      116 
    2697     4953     6241     6677     6790     6860     6931     7133 
    7515     7875     8125     8408     8752     9122     9789    11195 
   13372    15710    17294    17475    16257    14291    12476    11375 
   10954    10816    10476     9670     8524     7267     6021     4928 
    4189     4002     4476     5524     6957     8597    10086    10844 
   10531     9333     7744     6333     5654     6123     7817    10382 
   13095    15054    15655    14984    13555    11762     9815     7897 
    6215     5128     4960     5645     6970     8792    10777    12365 
   13109    12957    12099    10703     9086     7770     7059     6858 
    6931     7075     7154     7108     6910     6512     5884     5140 
    4645     4802     5667     6878     8008     8872     9482     9971 
   10571    11375    12156    12493    12004    10650     8885     7310 
    6164     5304     4605     4290     4598     5245     5743     6019 
    6316     6762     7226     7634     8255     9328    10511    10991 
   10041     7466     3721     -111    -2698    -3342    -2330     -385 
    1838     3796     5127     5835     6141     6083     5539     4597 
    3612     2937     2679     2708     2905     3201     3484     3709 
    3890     3928     3746     3508     3481     3769     4289     4860 
    5318     5661     6043     6519     6873     6919     6834     6896 
    7143     7591     8385     9496    10780    12212    13763    15332 
   16743    17670    17750    16949    15646    14254    12957    11768 
   10638     9588     8886     8970     9942    11221    11881    11371 
    9941     8342     7070     6007     4821     3419     1965      701 
    -199     -634     -514       64      697     1031     1135     1374 
    1918     2498     2597     1895      774       61      136      880 
    2259     4187     6258     8028     9167     9525     9324     8991 
    8832     8950     9257     9537     9506     8897     7625     5853 
    3992     2574     1834     1598     1696     2058     2556     3118 
    3728     4211     4280     3807     2977     2080     1264      703 
     655     1124     1780     2309     2618     2785     2906     2983 
    3015     3027     2989     2924     2983     3268     3816     4616 
    5448     5973     6035     5735     5248     4762     4500     4584 
    4988     5726     6848     8182     9314     9965    10085     9547 
    8231     6368     4278     2023     -280    -2243    -3510    -3795 
   -2748     -331     2697     5133     6239     6046     4918     3178 
    1269     -135     -659     -411      551     2181     4000     5317 
    5813     5669     5172     4533     3995     3712     3585     3382 
    3005     2437     1541      243    -1279    -2750    -3916    -4431 
   -3793    -1644     1767     5597     8841    10757    11165    10513 
    9224     7111     4144     1212     -814    -1921    -2542    -3258 
   -4583    -6488    -8427    -9806   -10326    -9968    -8827    -7181 
   -5197    -2545     1000     5027     8994    12504    15107    16470 
   16652    15853    14162    11860     9579     7764     6259     4931 
    4188     4340     5239     6660     8379    10274    12521    15137 
   17429    18442    17808    15797    12814     9237     5707     3070 
    1817     1761     2172     2355     2182     1943     1886     2002 
    2221     2591     3064     3375     3469     3615     3930     4318 
    4680     4682     3901     2467     1130      602      873     1311 
    1409     1397     1927     3105     4420     5459     6159     6734 
    7555     8904    10632    12221    13259    13482    12862    11901 
   11314    11443    12088    12794    13154    12969    12235    10980 
    9483     8468     8531     9515    10664    11264    11063    10277 
    9315     8404     7581     6987     6749     6718     6704     6825 
    7266     7920     8552     9034     9352     9597     9899    10295 
   10652    10752    10591    10514    10882    11685    12655    13712 
   14966    16393    17739    18470    17852    15637    12440     9167 
    6433     4466     3278     2831     2932     3169     3295     3403 
    3667     4175     4974     6096     7385     8597     9730    10874 
   11894    12382    11652     9208     5546     1897     -787    -2246 
   -2658    -2363    -1674     -649      931     3266     6296     9502 
   11966    12957    12366    10547     8063     5431     2928      662 
   -1170    -2176    -2071    -1029      478     2119     3795     5416 
    6923     8320     9490    10292    10741    10652     9566     7362 
    4397     1170    -1832    -4297    -6073    -6997    -6904    -5708 
   -3540     -848     1796     3997     5721     7203     8725    10620 
   13048    15541    17313    18087    18130    17507    15960    13464 
   10416     7407     4947     3264     2371     2359     3433     5553 
    8276    11113    13821    16214    17717    17384    14703    10240 
    5289      882    -2691    -5358    -6771    -6587    -4866    -1978 
    1540     4963     7757     9955    11758    13096    13843    14042 
   13773    13027    11784    10048     7722     4584      769    -2970 
   -5881    -7719    -8570    -8702    -8419    -7763    -6425    -4000 
    -400     3831     7829    11044    13269    14243    13581    11112 
    7368     3477      226    -2445    -4723    -6384    -7318    -7772 
   -7895    -7609    -6591    -4182       29     5504    11030    15522 
   18328    19250    18699    17319    15404    13161    11218    10217 
   10117    10432    10838    11200    11681    12886    15286    18682 
   22257    24948    26107    25722    23963    21142    17798    14341 
   11055     8288     6286     5014     4380     4526     5564     7137 
    8685     9938    10826    11139    10536     8870     6658     4968 
    4303     4001     3150     1723      531      177      500     1137 
    2036     3162     4190     4712     4502     3731     3064     3363 
    5128     8119    11499    14277    15755    15697    13988    10670 
    6386     2213     -885    -2467    -2570    -1221     1580     5461 
    9724    13519    16035    16926    16474    15318    14027    12961 
   12351    12003    11208     9506     7094     4332     1352    -1730 
   -4441    -6027    -6069    -4754    -2520      186     2864     5132 
    6984     8806    10942    13163    14989    16292    17049    17256 
   17230    17062    16201    14359    12066    10097     8953     8704 
    8962     9212     9080     8359     7102     5602     4179     3130 
    2546     2082     1327      304     -687    -1559    -2593    -3926 
   -5012    -4975    -3329     -182     3849     7781    10662    11868 
   11142     8758     5535     2472      353     -599     -900    -1275 
   -1937    -2690    -3342    -3759    -3975    -4298    -5102    -6410 
   -7619    -7919    -6988    -5127    -2942     -987      492     1630 
    2881     4616     6678     8736    10922    13546    16324    18479 
   19546    19734    19541    19352    19401    19796    20492    21324 
   22018    22334    22164    21263    19192    15638    10626     4787 
    -546    -4080    -5291    -4267    -1431     2448     6413     9663 
   11710    12289    11461     9785     7859     5883     4006     2471 
    1284      392     -119     -235       38      610     1099     1202 
     986      732      770     1274     2185     3323     4603     6232 
    8351    10548    12211    13257    14122    15035    15543    14756 
   12084     7999     3936     1164      166     1122     4065     8502 
   13585    18503    22397    24288    23292    18953    11788     3377 
   -4446   -10465   -14079   -14765   -12294    -7529    -2084     2611 
    5456     6061     5236     4100     3074     1925      116    -2642 
   -5755    -8090    -9083    -8777    -7150    -4391    -1260     1344 
    2728     2522      961    -1055    -2496    -2709    -1553      821 
    4308     8456    12342    15424    17504    18060    16629    13455 
    9483     5959     3951     3951     5705     8415    11231    13555 
   14944    15129    14326    13047    11596    10032     8411     6977 
    6327     7172     9758    13646    17967    21742    24131    24780 
   23938    22061    19456    16399    13225    10290     8037     6810 
    6489     6565     6609     6463     5957     5074     4255     3898 
    3942     4172     4471     4767     4905     4738     4375     4117 
    4085     4215     4456     4660     4665     4506     4165     3441 
    2182      532     -888    -1322     -744      310     1641     3212 
    4615     5618     6536     7510     8221     8377     7845     6689 
    5231     3780     2455     1394      908     1149     1859     2605 
    2953     2459      932    -1180    -2865    -3407    -3143    -2853 
   -2668    -2048     -529     1644     3598     4774     5328     5369 
    4848     4257     4308     5186     6514     7651     8151     7986 
    7378     6771     6559     6596     6614     6968     8089     9554 
   10543    10681     9937     8531     7123     6412     6627     7704 
    9499    11663    13714    15237    16038    16446    17152    18228 
   18928    18935    18897    19424    20409    21134    20671    18642 
   15508    11979     8612     6106     5239     5988     7314     8168 
    8253     7869     7450     7141     6723     6110     5525     5142 
    5043     5251     5462     5111     3819     1634     -964    -3168 
   -4353    -4532    -4136    -3568    -2893    -1734      347     3150 
    5824     7677     8574     8725     8505     8166     7777     7474 
    7412     7631     8050     8464     8613     8393     8158     8497 
    9512    10727    11683    12170    11959    10680     8076     4393 
     428    -3029    -5641    -7223    -7600    -7059    -6251    -5498 
   -4604    -3254    -1412      578     2129     2580     1559     -662 
   -3292    -5434    -6309    -5478    -3143       11     3346     6404 
    8833    10564    11977    13635    15814    18224    20035    20292 
   18550    15186    11247     7867     5472     3696     2240     1350 
    1342     2257     3934     5963     7758     8889     9177     8612 
    7425     6170     5448     5430     5782     6206     6988     8830 
   12032    16140    20490    24589    27970    30134    30734    29728 
   27503    24877    22676    21060    19521    17568    15066    12041 
    8514     4684     1120    -1571    -3108    -3444    -2853    -1967 
   -1214     -514      217      738      876      869     1131     1880 
    3001     4292     5805     7709     9788    11454    12327    12513 
   12273    11690    10747     9566     8466     7769     7553     7607 
    7585     7162     6095     4243     1688    -1215    -3965    -6008 
   -6965    -6750    -5268    -2541      674     3194     4496     5009 
    5404     5980     6579     6871     6871     7089     8103    10218 
   13349    16955    20178    22118    22066    19838    16139    12249 
    8933     6071     3551     1598      284     -468     -908    -1483 
   -2279    -2992    -3439    -3465    -2785    -1232     1028     3531 
    5873     7900     9540    10882    12273    13825    15077    15493 
   14850    13055    10231     6952     4069     2356     2099     2865 
    3868     4699     5594     6894     8504    10091    11558    13019 
   14420    15403    15485    14394    12315     9783     7398     5616 
    4599     4092     3628     3015     2473     2264     2435     2917 
    3723     5092     7256     9914    12283    13905    14983    15794 
   16347    16469    15891    14450    12147     9081     5586     2264 
    -271    -1669    -1940    -1217      569     3402     6533     8652 
    9045     8203     7161     6622     6597     6635     6566     6678 
    7093     7439     7083     5523     2845     -132    -2362    -3473 
   -3861    -3921    -3798    -3643    -3537    -3234    -2399    -1215 
    -253      213      292      159      -58     -399    -1234    -2965 
   -5341    -7301    -7732    -6325    -3508      129     4096     8027 
   11663    14732    16919    18006    17986    17137    16039    15324 
   15328    15985    16830    17179    16621    15153    13009    10731 
    8899     7673     6899     6359     5892     5645     6050     7348 
    9252    11099    12194    12136    10887     8754     6476     4786 
    3702     2744     1762     1211     1782     3669     6156     8548 
   10970    13412    15146    15696    15419    14780    13764    12194 
   10157     8173     6975     6787     7077     7276     7406     7903 
    9135    10965    12603    13196    12426    10394     7336     3646 
     -43    -3138    -5470    -7101    -7882    -7556    -6183    -4127 
   -1766      729     3492     6592     9522    11491    12251    12328 
   12493    12932    12811    11032     7507     3466      446    -1019 
   -1525    -1702    -1648    -1198     -267      971     2367     3962 
    5482     6319     6291     5835     5437     5197     4855     3997 
    2427      445    -1413    -2697    -3195    -3150    -2976    -2560 
   -1358      732     3175     5603     8174    10836    12969    14136 
   14507    14260    13254    11440     9237     7434     6512     6230 
    6300     6802     7576     8045     7789     6893     5800     4956 
    4617     4880     5719     6984     8387     9489     9774     8919 
    7121     5203     4201     4614     6057     7780     9422    11071 
   12750    14279    15650    17122    18733    19966    20155    18982 
   16605    13471    10006     6564     3607     1779     1592     3014 
    5666     9161    12892    15910    17383    17016    15052    12128 
    8980     6134     3971     2727     2219     2004     1817     1479 
     704     -420    -1129     -769      560     2508     4957     7897 
   11400    15532    19871    23479    25667    26393    25878    24356 
   22190    19751    17224    14701    12282    10045     8102     6722 
    6144     6199     6321     6012     5274     4643     4835     6182 
    8241    10070    11087    11418    11488    11736    12324    12872 
   12970    12683    12192    11422    10049     7800     5058     2875 
    2112     2794     4200     5397     5963     6134     6224     6350 
    6702     7555     8839     9996    10395     9845     8869     8231 
    8116     8132     7883     7191     6083     4788     3612     2691 
    1975     1566     1856     3161     5206     6990     7474     6510 
    4758     2912     1344      251     -214        1      801     1949 
    3084     3791     3811     3180     2114      826     -346     -793 
     -31     1749     3825     5671     7397     9328    11396    13278 
   14675    15271    14898    13725    12076    10219     8507     7370 
    7003     7398     8550    10264    11981    12999    12883    11557 
    9320     6909     5111     4339     4641     5692     6871     7609 
    7660     7254     6891     6729     6664     6867     7536     8293 
    8400     7461     5769     4157     3486     4165     6105     8890 
   11956    14691    16557    17315    17041    15946    14146    11658 
    8549     5019     1484    -1515    -3573    -4575    -4691    -4092 
   -2878    -1244      621     2602     4480     5935     6954     8000 
    9427    11062    12602    13954    15084    15870    16104    15606 
   14602    13699    13319    13469    14002    14918    16282    17984 
   19806    21392    22205    22030    21244    20245    18976    17151 
   14718    11860     8569     4725      664    -2907    -5441    -6708 
   -6856    -6434    -5951    -5357    -4205    -2326      -85     2163 
    4460     6871     9223    11336    13151    14593    15506    15714 
   15139    14050    13236    13431    14627    16196    17359    17599 
   16981    15994    14951    13679    12067    10540     9648     9626 
   10542    12398    14818    17067    18610    19181    18549    16869 
   14771    12724    10648     8212     5338     2555      745      224 
     468      923     1360     1488     1095      470       87      -35 
    -212     -463     -416      204     1377     2874     4140     4431 
