Origin Time       2011/03/11 14:46:00
Lat.              38.103
Long.             142.860
Depth. (km)       24
Mag.              9.0
Station Code      TKY007
Station Lat.      35.7111
Station Long.     139.6864
Station Height(m) 34
Record Time       2011/03/11 14:47:29
Sampling Freq(Hz) 100Hz
Duration Time(s)  300
Dir.              U-D
Scale Factor      3920(gal)/6182761
Max. Acc. (gal)   75.445
Last Correction   2011/03/11 14:47:14
Memo.             
[...]
  -16444   -32807   -48355   -64475   -65962   -43045    -9782    13520 
   22756    25757    26310    20381     4927   -15434   -33100   -44677 
  -49114   -42572   -22949     1772    17552    17436     8020     1059 
   -1191    -4745   -10670   -16109   -20593   -21496   -15774    -9206 
  -11000   -20679   -29991   -33194   -28926   -18573    -7378    -2599 
   -8151   -21177   -33155   -35181   -24161    -5500    11226    19907 
   18576     7671    -5469    -9194     -780    10557    13493     3077 
  -16451   -36952   -54106   -64780   -62252   -42649   -12232    16271 
   31717    30289    16522    -2122   -18919   -29574   -36635   -43091 
  -42867   -31199   -14738    -3873    -5632   -18936   -32360   -37242 
  -36417   -32776   -24806   -14688    -7101    -5046    -9836   -18026 
  -23985   -27057   -27724   -22326   -10714     -965     1010    -1306 
   -1436     2047     3085    -6130   -23743   -38542   -42691   -35457 
  -19875    -4185     2653     -654   -10687   -22548   -27280   -19847 
   -9021    -6443   -10987   -16117   -22778   -31876   -35928   -29914 
  -19292   -10677    -5306    -2771    -2249    -2985    -6932   -14976 
  -24853   -35239   -40394   -30356    -8066    11414    20444    22795 
   22733    20090    16838    18042    19966    10596   -13265   -41990 
  -62702   -64026   -41426    -3937    30016    44435    35555    14474 
   -5767   -25307   -46703   -60524   -59869   -50872   -38850   -23165 
   -5792     4853    -1892   -25274   -47232   -53442   -49994   -46499 
  -38261   -18033     5663    16611    11968    -1818   -23825   -50394 
  -67539   -66174   -51574   -32981   -15272     -541     7761     3129 
  -15166   -33890   -39079   -33998   -30428   -28124   -20793   -12773 
  -10127    -9824   -10752   -17171   -28488   -39099   -43423   -38488 
  -26744   -11860     6745    28002    43219    44453    34470    21430 
    7823    -8029   -22550   -29611   -31557   -35934   -41959   -40588 
  -27766   -10062     2192     3465    -5084   -19438   -32798   -37559 
  -34718   -30940   -27504   -23446   -20902   -21545   -25405   -32501 
  -39731   -40561   -31605   -13098    11004    29666    35599    32116 
   21041     1008   -22614   -39935   -44848   -36609   -18493     3562 
   20599    20935     1594   -24573   -45191   -58542   -61438   -48712 
  -23689     7298    37133    52542    47300    29990     8849   -12266 
  -27720   -35282   -39205   -44117   -50403   -56188   -61588   -64881 
  -59584   -44513   -25823    -5297    17193    33536    35286    23876 
    6979    -7415   -15052   -15740    -9033     4556    18727    24499 
   20244    12414      864   -22818   -55206   -79448   -86704   -80295 
  -63055   -35520    -2275    26556    39826    33672    15380    -3038 
  -14394   -18950   -18321   -13394    -9216   -10519   -12641    -7301 
    2959     4454   -10161   -32231   -48539   -54365   -53757   -48891 
  -35908   -17570    -3558     4085     7443     4678    -3971   -15449 
  -27903   -37866   -43110   -47038   -51571   -54635   -53750   -45136 
  -30059   -17910   -12788   -12077   -18123   -32091   -45580   -51919 
  -51803   -45643   -33391   -17943    -6369    -6914   -19474   -37658 
  -56897   -70654   -71097   -56914   -33001    -8666     5196     5964 
   -1735   -15055   -27890   -31802   -28818   -26861   -28966   -33474 
  -35804   -33631   -29826   -24960   -14979     2250    23626    40068 
   40367    21052   -11159   -45003   -68285   -71863   -57130   -35715 
  -16299     -506     7618     3217    -9849   -22094   -29023   -32139 
  -33877   -37295   -43421   -46637   -39766   -23578    -6978     2112 
    3459     2155      251    -4724   -12426   -21195   -31931   -42093 
  -46928   -45270   -37305   -26223   -19155   -19518   -25868   -34652 
  -39616   -38261   -34752   -28574   -12604    12518    34238    41379 
   32921    13686    -9786   -30498   -42168   -39680   -26058   -13427 
   -5788     2076     4689    -7551   -26786   -35802   -27294    -7014 
   11027    14280     1064   -20746   -37997   -37983   -20208     2914 
   19011    22540    15158     1625   -16456   -35130   -45015   -44424 
  -41303   -38233   -31170   -20932   -12829    -8078    -4169    -1407 
   -3038    -9115   -14559   -15351   -11616    -3218     7654    12867 
    9008     4022     7060    16787    21373    13903     3083    -1525 
   -2963    -7196   -12617   -13971   -10943    -6547    -1203     2024 
   -4118   -19727   -35662   -43512   -40536   -30403   -21156   -17245 
  -16174   -12058    -1452    10229    14581    12004     8760     8137 
    8448     5001    -5588   -19868   -26816   -19791    -7864    -4570 
  -11263   -21221   -29817   -33538   -29208   -18740    -8363    -2866 
   -2478    -1420     6192    15445    16752    10434     2213    -7513 
  -20262   -34108   -44822   -47419   -39781   -24344    -4763    12613 
   19906    17979    15496    15493    11229    -4124   -27260   -46756 
  -52239   -38619    -8162    27145    49988    49191    26762    -6098 
  -39438   -70136   -91300   -89098   -65254   -40147   -25884   -17610 
   -7109     5432    12401    11140     6060    -1203   -11590   -23912 
  -39262   -61718   -88101  -103845   -94708   -62864   -27152    -3473 
    7374     9499     3409    -9954   -26837   -40594   -43216   -33441 
  -20197   -13369   -14102   -16293   -16076   -17457   -26026   -38831 
  -49219   -57544   -64342   -65054   -59607   -52280   -46951   -47698 
  -50280   -43373   -28435   -16742    -9370    -4068    -6852   -20685 
  -38297   -45585   -29642     2624    25946    26583    11807    -7301 
  -23597   -31315   -27290   -13764    -1302    -2013   -13054   -21109 
  -22468   -21819   -20808   -19779   -19247   -16508   -10695    -5664 
   -3907    -8144   -20915   -32171   -25920    -5768     7513     4056 
   -8589   -21837   -33254   -42835   -49887   -51431   -45979   -36811 
  -26755   -16431    -9704   -12689   -22840   -26716   -19902   -16588 
  -23810   -29162   -26294   -22791   -21989   -22378   -24024   -24056 
  -20525   -18272   -20277   -24251   -31299   -43017   -53283   -55883 
  -51185   -40548   -27832   -21447   -22517   -23062   -19138   -11682 
      90    15840    29993    34117    22934    -1016   -25072   -34568 
  -32060   -31215   -30399   -19121     1380    20977    29409    24480 
   16463    15463    19020    17224     5351   -10796   -22827   -30293 
  -36523   -38254   -30754   -19878   -19051   -33685   -54189   -68730 
  -74483   -72643   -65542   -55340   -39781   -19439    -2581     3694 
   -2202   -16520   -30193   -36903   -38830   -39424   -38689   -38259 
  -41677   -47012   -45986   -34905   -21987   -16102   -12638    -3168 
    6990     8828     6545     6286     4314    -2889   -12216   -20673 
  -31204   -47493   -62152   -59895   -35577    -1286    26148    41237 
   47514    43134    23548    -4619   -26960   -36144   -35415   -30716 
  -23232   -11755     -710     5403    10303    13279     2357   -27347 
  -65120   -96669  -114446  -119455  -111799   -85874   -45154    -6790 
   15314    19547     9682   -10247   -31058   -38466   -26676    -5367 
   10700    13141     3276    -9758   -16878   -16481   -11015    -3878 
   -3787   -15805   -29552   -35141   -34970   -28975   -15353    -2034 
    3149    -1418   -14199   -25037   -24286   -18399   -14700    -7237 
    7309    23541    36238    38330    25902     7418    -8318   -19188 
  -21836   -18644   -19632   -25226   -31277   -42585   -56314   -59215 
  -52321   -45143   -37786   -31716   -30886   -30450   -25765   -17847 
   -7810      513     3334     1318    -8106   -28660   -53926   -73543 
  -81775   -73791   -53355   -37755   -37037   -46561   -62860   -83791 
  -99286   -96604   -70173   -25880    21202    56669    73337    68004 
   41676     5153   -25198   -38233   -34161   -27043   -33461   -49965 
  -59040   -55856   -42198   -14082    19571    39538    42202    34932 
   22927     9630    -5897   -23125   -32696   -28963   -18481    -9320 
   -2456     3461     6739     7099     7937    11317    14286    11390 
    4778     1709    -1224    -9123   -10863     3008    20000    23673 
   11058   -14238   -44452   -68059   -76454   -61534   -21236    22100 
   36001    15702   -18148   -49071   -68895   -73522   -68177   -57996 
  -41794   -25923   -20264   -23209   -29422   -35118   -32078   -16917 
    2763    17718    18360     1505   -19727   -32501   -35112   -28140 
  -16089    -6179     -638      948     2088     8279    14824    11431 
    -271   -12848   -25243   -36100   -37883   -24759    -3643    11593 
   16802    16118    10625     -774   -15392   -24583   -18231     2152 
   21576    29016    23681     6427   -19359   -43643   -56077   -53541 
  -40678   -25936   -16153   -13115   -14222   -18169   -25846   -32633 
  -32211   -25480   -16430    -9244    -7447   -10004   -14535   -18182 
  -14606    -2502     8211     7200    -4479   -14743   -10749     7960 
   26328    30307    23704    17410    12895     8463     6047     7661 
   13779    19426    19009    21225    36287    54163    60533    53412 
   36704    18490     2254   -18276   -37960   -41324   -28721   -12215 
    1104     6083    -2227   -21020   -39458   -47680   -46416   -46341 
  -52193   -57141   -58161   -58648   -58921   -57247   -50955   -39219 
  -28741   -26591   -33171   -46346   -63979   -80829   -88696   -86245 
  -79006   -66249   -48021   -36262   -38954   -50245   -59660   -57513 
  -43589   -30016   -22557   -14791    -5786    -1368      -22     3645 
    9218    12862    12514    12681    19659    29729    34483    32396 
   27229    22208    19756    23327    31494    33765    22844     7621 
    5767    25567    58439    84875    88888    68667    33287    -2416 
  -25461   -33129   -26573    -8686    10230    21303    21384     8025 
  -10826   -14861     6097    41732    74079    87932    74345    34540 
  -19252   -69495  -101776  -106967   -83291   -45172   -13806     4303 
   10305     1439   -15759   -24336   -15540     2677    15695    20913 
   20531     6275   -18029   -33961   -35792   -22525     2906    23517 
   30905    22649    -7221   -42289   -57570   -53665   -41581   -26582 
  -14573   -10089   -16448   -33492   -47999   -47103   -33399   -14402 
    4609    17393    21286    20688    19306    14232    -1942   -34337 
  -75000  -104167  -110341  -100054   -83828   -67336   -55498   -49043 
  -42639   -31894   -14578     8670    28848    34298    22313    -2711 
  -32323   -53059   -53612   -31019     9396    55674    87455    79909 
   32723   -21406   -58463   -78658   -79958   -56703   -15189    31066 
   67664    79177    60462    23132   -16624   -47662   -63031   -56745 
  -27302     9360    25921    16148    -2955   -22031   -40337   -50203 
  -42215   -19295    -1570    -2810   -11333   -12219    -6295    -4450 
  -13288   -25936   -37392   -53631   -74091   -87176   -86127   -76822 
  -68353   -60204   -45877   -29247   -20385   -16571   -11215    -6897 
   -7282   -17180   -36977   -54889   -64806   -69997   -71218   -69110 
  -62258   -49912   -38827   -31523   -23818   -15599    -7780     1200 
   11173    20380    23904    15595     -839   -18457   -36910   -49883 
  -46799   -27369    -1724    12716     6533    -7474   -15708   -23113 
  -33570   -37203   -29335   -18520   -15215   -21805   -29311   -29462 
  -22199    -5939    19160    42971    52728    42358    20268     2946 
  -10167   -33275   -60076   -68849   -58506   -43603   -29363   -16548 
   -9789   -10811   -18732   -30684   -37044   -34587   -31517   -24909 
   -5814    14464    14683   -11682   -51550   -80806   -82174   -59305 
  -30484   -10862    -7720   -24101   -51794   -74121   -81282   -70708 
  -47012   -22746    -7496    -6812   -20567   -38559   -52981   -62313 
  -64032   -59130   -49254   -28328     1406    24414    35944    41806 
   39251    20179   -13058   -44315   -57252   -51695   -42331   -38979 
  -41135   -50574   -64978   -66055   -40031     3051    44650    69740 
   67271    39348    -2784   -48147   -76294   -66591   -30251     2055 
   18531    25242    27140    20153     -851   -27614   -45624   -48394 
  -42430   -43005   -50978   -46176   -21412     5092    19673    21992 
   12571    -2889   -14764   -22049   -30061   -42702   -60054   -73654 
  -74334   -69797   -73049   -78816   -72444   -49333   -16406    14434 
   35023    44004    39463    20915     -433    -9359    -4906     2290 
    7317    11251    11235     1763   -16863   -33673   -36527   -24766 
   -3802    19835    34022    32330    24536    19317    14314     8470 
     908   -13126   -34089   -55937   -68335   -68447   -65230   -61558 
  -54048   -38760    -8480    27148    39992    20199   -17246   -55094 
  -79775   -83033   -64406   -28476    13481    46908    63283    62077 
   47914    26145     1015   -21431   -37533   -51147   -63029   -66416 
  -60380   -46962   -21461    12311    39627    52971    43537     2481 
  -52813   -94522  -110544   -95649   -52420     1480    44162    62973 
   60292    44595    22823     5021    -2905    -8581   -20048   -31391 
  -30782   -17637     -635    16939    30232    25916     3370   -22271 
  -42827   -61606   -82857  -101634  -106995   -93713   -58390    -4619 
   46435    71762    59330    13158   -43500   -86667  -105030   -96784 
  -70025   -35545      271    29797    44544    39712    21338     7623 
    3978    -2542   -16119   -30459   -39891   -37994   -24139    -5452 
   12091    21236    12642   -11908   -41844   -73420  -103817  -120608 
 -111369   -73810   -16908    40000    78933    98170   103451    92900 
   63059    20788   -16143   -34403   -36452   -29212   -15198     2515 
   18086    29679    39653    40620    22007   -11357   -47978   -77270 
  -87196   -73968   -43331    -2261    39044    66158    69701    52594 
   23094   -14728   -49198   -62243   -58607   -52193   -37863   -15251 
    1801    11346    26901    55911    82979    88230    73284    49138 
   21614    -3970   -21019   -27074   -25630   -16521     -928     6600 
   -1835   -15539   -27493   -41159   -54259   -54716   -34431    -1160 
   28086    43114    42125    25156     -282   -19007   -24968   -23492 
  -18350   -11262    -2902     9259    22857    28779    24509    17668 
   14162    15443    19676    17230     1419   -21486   -41862   -51312 
  -42957   -19120     9769    35404    50714    47311    25309    -5708 
  -33221   -48748   -58430   -66638   -61828   -41730   -17879      123 
    3505    -4860    -9453    -7162    -4167     -826    -2966   -20696 
  -48057   -69112   -77574   -68160   -36981    -3878     8732     3050 
  -11628   -29558   -45159   -53543   -52879   -48606   -45795   -43681 
  -42250   -38268   -25196    -8268     2559     9831    16708    15261 
     192   -16869   -17955    -3601    12562    29255    49841    64009 
   59065    37286    14937     4862     4088     5483     7166     7847 
    6648      707   -11831   -24206   -32316   -40774   -51123   -58819 
  -59066   -49616   -32483   -13675     1925     7453    -7262   -35627 
  -53657   -50200   -31000    -1698    29482    50058    54568    43371 
   19146    -9381   -33365   -47540   -46355   -28795    -2913    20480 
   36797    47416    50927    44720    31778    15350    -1643   -12650 
  -13505    -4401    10078    20473    21571    15362     4527    -9513 
  -25841   -40239   -43348   -30574    -7444    17234    35229    41596 
   37593    27225    13097    -3617   -19518   -28671   -31676   -35484 
  -40340   -44003   -50388   -59255   -65811   -70387   -74163   -73038 
  -62614   -48913   -43239   -44780   -46946   -49648   -50840   -47276 
  -42246   -39238   -39909   -45682   -54051   -60124   -60119   -52804 
  -40380   -27544   -21414   -26494   -35578   -34891   -17924    11739 
   44437    70903    88708    97185    92630    74107    46078    18402 
    2283    -1510     -802        4    -1086    -6435   -15743   -25176 
  -26813   -16596    -2119     9248    17106    18235     7716   -13776 
  -41745   -68021   -81327   -76148   -58166   -39131   -26955   -22959 
  -28168   -40809   -50492   -47142   -30681    -8458    10770    19557 
   17688    13747    11033     5633    -2105   -12589   -30087   -51709 
  -64815   -58905   -38741   -19332   -10126   -13104   -25939   -39683 
  -45561   -41601   -25522     2926    30765    39709    24172    -4634 
  -30060   -42385   -40090   -26429    -8338     4578     2197   -18065 
  -44656   -61740   -63088   -50910   -29565    -8269     1956      694 
   -4893    -8719    -5866      250     1405    -1586    -7732   -22200 
  -43744   -61568   -64355   -50922   -31465   -17129   -13627   -21093 
  -32821   -39003   -35981   -27549   -21407   -25319   -38168   -50010 
  -53542   -48530   -38650   -28088   -19599   -15566   -17728   -24819 
  -34739   -46791   -59579   -70361   -73422   -57998   -19366    28366 
   66042    87182    88630    65225    22449   -22386   -51661   -59618 
  -55297   -47709   -35376   -17297    -3658    -5844   -20261   -32908 
  -37367   -39569   -47054   -58009   -64484   -62918   -53109   -35744 
  -17880    -8911   -10407   -18039   -27758   -36563   -41216   -36861 
  -21395    -1446    11718    10665    -4238   -25251   -41099   -44611 
  -35059   -13188    15695    40167    52194    48946    31760     9872 
   -6106   -12720   -11508    -5368     3692    17323    35965    51166 
   54526    47164    31149     8276   -15292   -34634   -45903   -44603 
  -32289   -17452    -7713    -6196   -13351   -24915   -34141   -37624 
  -33180   -24121   -19523   -19477   -19655   -23525   -31584   -35162 
  -28457   -15836    -6291    -3792    -4275    -5082   -10897   -22036 
  -30604   -30499   -18928      698    18008    28728    36005    40279 
   38113    23601    -4513   -35115   -57854   -71681   -73251   -58556 
  -33601   -10900     -512    -4431   -16205   -27928   -36178   -37767 
  -27179    -5612    16703    31441    37792    38187    33299    21596 
    4696   -10242   -18363   -21901   -24145   -25913   -25631   -19377 
   -6322    11780    34891    59731    80253    89613    78199    44590 
    3548   -25838   -35750   -31619   -22957   -16056   -11635    -9957 
  -14155   -19737   -15194    -2092     4844       60   -10220   -22762 
  -36138   -41236   -28343     -506    29434    49242    51040    33388 
    -223   -42027   -77643   -96512   -99848   -92421   -78939   -62544 
  -43630   -27718   -21113   -20135   -19884   -21615   -25569   -30120 
  -36016   -42624   -44099   -33904   -12170    12067    25074    17716 
   -5259   -31645   -54578   -67931   -63706   -41178    -7832    22333 
   34901    28591    12027    -8042   -25281   -33621   -33161   -28721 
  -24006   -18510   -11170    -6205    -7222   -10379   -10001    -4647 
    1769     5351     7227     5414    -6092   -25021   -41437   -48079 
  -46205   -42907   -40609   -36511   -33625   -39260   -52113   -64499 
  -74014   -78467   -70290   -47928   -19716     5455    21505    23867 
   12931    -4366   -20568   -30641   -30535   -18948     2448    29164 
   52630    64630    61516    44320    18864    -6762   -23325   -21616 
   -1628    24592    43840    49003    39398    20882     3641    -4724 
   -5133    -1651     2920     3114    -3585   -12007   -17592   -19193 
  -15447    -6253     5579    16189    21732    20485    15162     9977 
    5421    -2668   -16354   -30072   -36638   -34771   -27044   -15362 
