Origin Time       2011/03/11 14:46:00
Lat.              38.103
Long.             142.860
Depth. (km)       24
Mag.              9.0
Station Code      TKY001
Station Lat.      35.8031
Station Long.     139.0953
Station Height(m) 380
Record Time       2011/03/11 14:47:33
Sampling Freq(Hz) 100Hz
Duration Time(s)  264
Dir.              U-D
Scale Factor      3920(gal)/6182761
Max. Acc. (gal)   29.885
Last Correction   2011/03/11 14:47:18
Memo.             
[...]
    1411     7821    16081    16932    11150     5523    -5515   -23742 
  -32501   -22061    -4747     5756    10847    14191     8256   -11943 
  -30124   -24434    -1902    14473    22717    28000    21929     4082 
  -10112   -14008   -13934    -8609     7357    24031    28726    24713 
   18009     6594    -8204   -16188    -9939     3590    11564    12512 
   11953     9129     1260    -6694    -5894     4341    14171    14191 
    6721    -2964   -15869   -22369   -11777     3745    12941    17840 
   18888    16597    12707    10611     9147      778    -9006   -10441 
   -8549    -8387    -5498     2271     9045    12399    18581    25296 
   20243     6743     -537    -3267    -6940    -3993     5380    10500 
   11199    13533    14875    12269    12251    16220    17080    15774 
   16122    16326    15702    12339     4853      200     1923     2062 
   -3225    -4537     2786     4178    -5601    -8053        0     2742 
   -1977    -7097   -11843   -15415   -13784    -7999      146    11028 
   17630    15608    11191     5067    -7941   -22763   -25689    -9877 
   14905    30973    33387    26384     8509   -13712   -21970   -11853 
    3653    15064    22516    27722    29444    23849    11260      107 
   -6723   -13801   -15605    -5255     8317    12288     6141      741 
    1178     2999     6312     6017    -4140   -12907   -16101   -16902 
   -5028    15837    25614    20667    13038    10171     8071     4454 
    3015     5177    12997    21734    21816    19165    18756    11639 
     117    -3615     2401    12650    19988    18262     9437      729 
   -4490    -5226      529    10848    15467     9882     5525     6562 
    4059    -1053    -1593     2274     5033     2771      706     3343 
    2790    -2912    -2700     1795     1942     4284     8816     4011 
   -6448   -12020   -12814   -11322    -4712     3164     -123    -9057 
   -6008     4306     8306     9206    10836     9202     4780      989 
    1986     7995    10325     8408    11316    15069     7246    -6348 
   -8193    -1662     -379      672     7464    13935    18063    19816 
   15924     7405    -1000    -4616     -394     7450    11052    10135 
    6643     1262     -654     -663    -7862   -16034    -9836     5059 
    9876     6200     7147     9406     9013    13384    17157    10207 
     671    -3926    -7961   -11694   -10362    -4322     2642    10605 
   18823    22424    19068     6989    -9056   -13831    -6233    -1123 
   -1417     1173     8213    12817    10305     5265      866    -5802 
   -9818    -3397     9507    20118    22408    15269     7207     4307 
    -103    -6946    -9119    -8832    -6144     3795    12510    10181 
    2150     -391     4734     9801    13950    20787    22768    16047 
    9054     3608    -4468    -9916    -7528    -3186      986    11494 
   25788    26749     9949     -763     4011     4850      140     1484 
    5464    10621    16072    13803     8810     9514     8304     -875 
   -7710    -1215     9717     9581     5506     9553    11856     6032 
    1356      843      766    -1311     -937     6239    10030     5964 
    2392    -1259    -6828    -8989    -7713    -7157    -4794     4128 
   14398    16819     9898    -1704    -9548    -8379    -2905     2077 
    7449    12622    13290     8235     1326    -5418    -9461    -5578 
    3419     9673    12280    10794     3849     -726     1821     3327 
   -1819    -7297    -3854     4148     5705     3871     4373     4647 
    4216     3456     -683    -7971   -12383   -14008   -18101   -19015 
  -11124    -1541     3206     7953    16891    17410     4946    -3722 
   -6420   -13076   -17663   -11497    -1100     4475     7047    10403 
   13346    14175    10964     2593    -5884   -10497   -13740   -14458 
  -14575   -15937    -8106     4949     7981     6339     8357     8324 
    6527    13470    23050    17771     4321    -1615    -2990    -4338 
   -1927     2409     3204     4866    10389    11855     9941    11184 
    8017    -4890   -12670    -4723     7178    12480    15099    16702 
   12729     5344     2372     4252     4884      889    -6408   -12409 
  -10925     2810    23285    35674    34365    25224    10610    -9643 
  -25402   -23714    -7168    12715    27008    29227    20451     6979 
   -7502   -18540   -20844   -15032    -3336    14666    31235    32627 
   18158      902   -11388   -21748   -25545   -12281    10287    26201 
   31914    27814    13055    -6029   -16475   -14143    -7115     2952 
   16526    23287    18802     8776    -1867    -7006    -2413     8712 
   17827    20815    22451    20922    11462      805    -5054    -2870 
    8718    19954    23873    25908    29577    27882    15148    -2613 
  -18802   -31107   -34874   -27469   -14983    -6177     2644    14845 
   15755     4766    -2533   -10704   -23911   -29667   -23133    -9890 
    2046    10159    18647    24623    23205    19517    16588     7748 
   -7163   -14534    -6400     5789    11319    17908    27007    23585 
    7900    -5079   -12939   -19195   -16622     -195    15367    17366 
   14034    10123     1117    -9475   -14019   -12132    -9226    -4253 
    2266     -598   -11696   -19220   -19823   -13344    -1572    10507 
   18950    18513     6842    -6730    -9346    -2036     4324     7584 
   14253    22104    21465    13333     2274    -9524   -11900    -3376 
    4723    11137    16976    17235    12837     6356    -1268    -4070 
     126     2759      122     -310     1595     -905    -2422     4508 
   10250     2787   -10398   -18246   -23131   -22448   -10219     2267 
    1560    -6814    -9316    -3754     4185     8321     1287    -9087 
   -5526     6990    12682     7783    -1646    -6657    -8053    -9855 
   -7308     -662     2860     2219     1514     1300    -1158    -7045 
  -14336   -14420    -1536    15257    25476    27893    24186    14382 
     917    -8068   -10469    -9604    -1790    12129    20300    18107 
   13678     8781    -1126    -8553    -7742    -5259    -2954      658 
    4914     9565     8598      872    -1121     4736     7454     7218 
   10870    13848     8676     3286     5050     3153    -2542     2647 
   10390     2990    -7488    -3353     3674     1916     3110    11281 
   16890    18645    16025     5752    -6225   -10302    -5897     -883 
    3235     9282     8011    -2311    -3984     5991    11620    11105 
   17989    30681    30615    15993     1320   -11083   -24691   -31121 
  -17166    10189    24567    18707     5060   -12008   -29689   -37380 
  -28901   -12910    -1690     2867     1606    -5404   -14215   -20554 
  -22387   -21560   -17922    -8698    -4657   -12445   -15898   -12866 
  -18361   -27523   -23982    -4912    11800    10908     7080    11072 
    7760    -5403    -9067     4541    18709    22053    23267    21183 
    7814    -3763    -3547    -3277    -5158     3934    18865    17502 
     521    -9807    -7407    -3446    -3061     -635     7006    11765 
    9773     8133     6330      -35    -4735     -450    11273    22969 
   27882    21937     8539    -3304   -12757   -15429    -4693     3426 
   -3067    -7968      776    11693    11306     6329     9264    15811 
   15436     8178     3537     4376     2657      735     8329    19670 
   19108     3857    -9578   -13207   -16258   -13931      144    11047 
   12729    14238    15980    11883    -2137   -19921   -26716   -22777 
  -18509   -10157     4033    11203     9345     4819    -4630   -11290 
   -5157      897    -1511     -759     8242    16500    14103     4508 
   -2834    -9768   -14338   -11303    -9078    -5158    11768    29385 
   30338    17507     4464    -2546    -8192   -10124      944    15751 
   13029    -3231   -10307    -9119   -12157   -12574    -5752       95 
    3088     5154     2407    -8380   -21506   -28813   -30735   -28412 
  -13895    10794    24894    21529    14228     8482     2999      658 
    3554     7356     6554    11251    27021    32260    20923    12680 
    7961    -2345   -11237   -13821   -13303    -9855    -5289    -2034 
    1965     2763    -3971    -9626    -7934    -3258     1508     7680 
   14368    15231    10530    10438    12529     8108     1462    -3963 
   -5037      495      598    -5801    -3829     3409     6576    13864 
   28874    39243    36683    26887    20237    15804     5539    -5636 
   -7065    -1212     4584    10124    14888     9915   -10999   -32506 
  -37053   -31678   -23057   -12329   -10763   -15660   -15833   -12444 
   -6648      474     8121    12763     3944   -11031   -14643    -8993 
   -4608    -7352   -15052   -14754    -3335     8442    17872    24829 
   22727    10596    -4165   -10603    -5967    -1301     -425     -275 
   -4105    -4717     7138    23920    36926    39585    27661     5824 
  -17891   -29972   -20375     1380    18744    27882    34147    34080 
   19554     2291      -21     1999    -6925   -14634    -9477     2813 
   19468    36649    39355    20683    -6036   -25253   -33809   -29583 
   -9514    13377    21413    16252     6455    -9279   -27678   -34681 
  -29180   -22362   -12686     5165    21517    22211    10535    -2448 
  -21941   -41687   -38606   -18669    -3010     3288     4753     5920 
    -754   -18520   -29954   -24588    -9203     7373    18938    25669 
   29102    22307     7312      157     -840    -8574   -13748    -1944 
   19598    36707    43468    38118    21152    -2702   -19473   -17459 
   -8739    -5309      786     9167    14985    22064    23682    12096 
   -6362   -19539   -20056   -15906   -14287    -8072     2086     4092 
   -3489    -8961    -8754    -9533    -7431     2558    13720    25521 
   36011    32637    18645     4793   -11533   -25735   -22390    -2732 
   10614     9025    10295    18411    22471    27867    38456    43052 
   35590    21088     7924    -1448    -6972    -3131     7903    16364 
   22632    33316    46203    46247    24808    -1831   -15905   -19146 
  -16743    -9300     -581     2162    -4642   -12233    -8713     -849 
   -1560    -5076    -3773    -3651    -3243    10991    34395    44691 
   39107    28922    15181    -1001   -13488   -14929    -2880    10632 
   17473    20949    20198    16780     9787    -7440   -22450   -21220 
  -12048     2497    24297    36656    28762     9868    -7728   -14830 
  -11478    -4369     2964     6819     4123    -6878   -22863   -29607 
  -24105   -21206   -23564   -22579   -19001    -9335    15050    36857 
   30525     3776   -19746   -30879   -32319   -24398    -4441    18407 
   30444    28469    17263     8890     7897     9359    15389    20656 
   17941    15974    19518    24937    25985    16121     1581    -9604 
  -14949    -8140     6430    13632    11261     8099     5853     -113 
   -2660     8197    22495    23608     7008   -13993   -21012   -15443 
   -4922     9420    21936    26044    14093   -12449   -33585   -34498 
  -17910     3190    19336    29365    26612    11613     1206     -482 
   -3600    -9517   -12558   -11228    -7924    -3520     3648    14120 
   22410    22007    16167    12419    12179     8146    -4945   -11196 
    2955    18392    19560    17269    17168    15137    10777     6579 
    6741     7386     2728     -396     2414     6433     8645    10630 
   15832    19639    14333     1849   -14859   -29835   -29599   -12833 
    8096    25931    37136    30865     4278   -19956   -22168   -11618 
    2320    24598    44385    37930     8466   -12406   -12473   -11130 
  -14052   -12308   -10154    -8892    -4144       99    -1108    -6634 
   -9129    -5162      -96     3331     5857     4993     -951    -5995 
   -3600     2673     6356     6424     4953     7688    14792    15588 
   12802    17930    21790    15840    11779    13806    11133       84 
   -8111    -1886    10638    13586    10052     7395     1556    -1786 
    8176    18469    11543    -2015    -2730     5949     6749     -463 
   -4436    -8659   -15704   -13724    -3403      721     -396     3601 
    7208     2579      916     9701    14685     8885     4714     5594 
    -906   -14645   -15905     1593    20960    30369    31892    27687 
   14845    -4493   -18323   -19016   -11937    -6285    -4092    -1942 
    1898     8894    15260    10046    -4722   -14590   -17065   -19081 
  -22097   -19212    -2748    17662    25112    20213     8419    -7163 
  -17293   -18421   -12062    -1667     2574     4510    16278    26949 
   24815    18329     9054    -5940   -15518   -13968    -8622    -2358 
    7007    14765    10430    -5459   -19522   -25677   -25850   -16275 
    2612    17824    15371    -6919   -29521   -30461   -14012     4449 
   16422    15843     5112    -3150    -2139     2730     7415    14070 
   17308     9966     -290    -5575    -9064   -10094    -2277    12499 
   22009    22997    24615    26073    22476    20214    22975    20618 
    1657   -25966   -39454   -31141   -13986     1596    13865    18016 
   10078    -2713   -12107   -18788   -20183    -8708    10755    23870 
   27336    27536    22817     7931    -8564   -16492   -22245   -27252 
  -16679     7756    25381    28035    17299    -5099   -27548   -37785 
  -35420   -22863    -3986    12079    22400    29822    30966    24136 
   14215     1809   -14446   -28848   -29180    -9013    17393    31262 
   33878    32332    27441    22045    16814    11358     9269    10492 
   13557    20172    27988    31285    29340    26258    24898    23745 
   19203    10482     2527     2368    10390    20895    29721    33432 
   29250    16353    -5359   -28937   -43212   -43784   -31724   -11164 
   10935    26588    30707    26439    18201     6627    -3403    -6016 
   -4279    -4808    -4996      185     3992     1690     1019     6790 
   13906    16915    17948    17697    10292    -1229    -5193     -310 
    2532    -1490    -4135      823    10426    17069    12054    -5403 
  -21704   -21428    -9307    -2447    -2944    -1414     2800     1874 
   -5218   -11076   -14728   -21790   -29571   -28331   -18440   -10005 
   -5302     2384    12241    12789     3846    -2316    -4556    -5987 
   -4472    -1761    -2413    -7573    -7850     2851    13997    20430 
   23834    19312     6679    -6877   -13267    -7796     3321    10106 
   11963    13433    14244    11763     7259     4070     6470    14241 
   16892    10314     2589    -2594    -5019    -6239    -9995   -11486 
   -5964     1153     5746     8637    10083    10559     9700     5980 
    1698    -1805    -7382   -12204   -11610    -8323    -5272    -2513 
   -1607    -4730   -12472   -22109   -29111   -31808   -30132   -22033 
   -7844     5362    12019    13524    11109     6259     2769     2341 
    5682    12340    21178    29516    31715    29484    28657    28240 
   25451    17397     7226     4964     7259     4183      103      -97 
   -1961    -5350    -2275     5552     7977     3164    -2831    -6226 
   -5771    -1951      -95    -3916    -5187     2817     7753     1616 
   -2571      780     4615     7730    10428     9635     3049    -4763 
   -5986    -1044     7647    16593    17740    13338    11308     8922 
    2519    -3295    -2365     6271    14152    13666    10260     7991 
    5195     6747    15265    24725    26792    19478    12602    11819 
   12067    11382     9820     5732     2229     4946     9956     7595 
   -1001   -10916   -20665   -20422    -4339    12620    16644    13198 
    6765    -7120   -19613   -16304    -3196     7106    13931    18623 
   19096    14512     6354    -1119    -3510      214     9371    20067 
   23982    20617    18060    14207     2929    -8335   -10675    -5924 
    1639     9799    13913    10044     1426    -6732   -13113   -16357 
  -11942     -346     7876     9287    11437    12040     5648    -1520 
   -3366     -313     4623     8268     8736     3935    -3248    -3425 
    4460    13183    22920    30572    24022     5807   -10496   -18365 
  -15471    -3546     9422    12377     4278     -705     -687    -8810 
  -19297   -15731    -2728     4980     6172     7908    10799    10601 
   10471    17282    26113    29983    30623    25166    14204     9465 
   11799    13403    13178    13571    18259    24725    25523    23260 
   22494    20582    18162    18280    18688    14970     7083    -1052 
   -7883    -9891    -2159     6754     7139     5458     6418     4893 
    1444     3772    12283    16307    12886    10701     9455     3982 
   -2416    -5959    -5910    -4319    -4813    -2838     8986    23832 
   28365    23254    13955    -1213   -15452   -17807   -11091    -2424 
    4851     9228    10990     9525     5633     1153    -3222    -4993 
   -3565     -176     6075    10233     3918    -7839   -15165   -19742 
  -22079   -17836   -10727    -7528   -10938   -19359   -26971   -29348 
  -25741   -16592    -2353    14316    22455    12736    -4116   -13571 
  -18395   -21208   -16385    -6301     3247    14541    24487    20940 
    7811     2617     6544     9319    10293    10975     4308    -9491 
  -15307    -9535    -3452     4204    18225    27053    22116    11206 
     715    -9687   -15573   -11105     2382    17271    26140    26863 
   18376     4439    -1596     4156    10985    14800    18213    16782 
    7121    -3296    -6789    -5538    -3953     1303    11815    19905 
   23344    24284    17760     6269      738      648     1971     8986 
   20524    24453    16577     8877     6486      901    -5971    -5316 
   -2141    -3811    -4047     3162     9933    10455     9920     8098 
    1863    -2823    -2806    -3492    -5760    -2310     9314    20042 
   22727    18680     7821    -7522   -15603    -9691     1809     9781 
   16059    21365    18750     9488     3173    -1031    -8111   -12152 
   -6046     8493    22762    26693    17081      382   -13521   -21541 
  -24100   -18013    -6524     2913    11523    19588    21780    20365 
   18923    11867     1316     -374     6685    14028    21121    29374 
   33994    28747    18024    11605     8504     5872     5937     7206 
    7892     7934     6776     6031     6244     7154    10755    15744 
   18462    19337    17853    11488     4159     1969     4520     6474 
    5689     7065    10490     9816     7270     8255    11609    13469 
   11099     5944     3446     5044     7850    11370    13567    11003 
    5467     -794    -9178   -22559   -35823   -34454   -17334     1928 
   15550    21479    17626     4501    -8652   -10704    -4029     4090 
    9344     6154    -2648    -7354    -6137    -3766    -4206    -6974 
   -6306     2435    14727    22429    24692    22163    13971     6051 
    4296     6224     6040     1872      166     4719     7899     7509 
    9513    11393     9697     8399     8577     8755     9223    10502 
   13753    16349    12730     4810    -2289    -8742   -12200    -8027 
    -328     4219     5494     4868     3818     4140     4861     5511 
    5302     2374      829     3637     4315    -1014    -8115   -13200 
  -15232   -13262    -7672    -1258     5118    11362    12433     5562 
   -2825    -7188    -9423    -9697    -4375     2775     4633     3476 
    2804     -676    -8281   -14850   -14793    -8963    -2189     2702 
    2882    -3063    -9561    -9234    -1718     5668     6013     1662 
     332     3459     6404     9225    13025    11399     3878     -180 
    1624     5050     8145    10487    12828    17023    21605    22075 
