Origin Time       2011/03/11 14:46:00
Lat.              38.103
Long.             142.860
Depth. (km)       24
Mag.              9.0
Station Code      TKY017
Station Lat.      35.6473
Station Long.     139.8092
Station Height(m) 4
Record Time       2011/03/11 14:47:26
Sampling Freq(Hz) 100Hz
Duration Time(s)  300
Dir.              U-D
Scale Factor      3920(gal)/6182761
Max. Acc. (gal)   82.254
Last Correction   2011/03/11 14:47:11
Memo.             
[...]
   -6364    -8837   -13040   -14909    -8778     5122    19234    27889 
   30575    28401    24782    23638    24799    26305    28118    30676 
   32022    28751    21279    14757    12934    15075    18317    20499 
   20981    18461    11317     1544    -5842    -6489       55     7742 
    9787     8134    10682    22127    41720    63755    78599    81349 
   78239    76136    72427    62538    48965    39051    35694    31890 
   20401     3424   -13192   -23823   -22888   -12870    -4374    -2218 
   -2096    -1299     -705     1954     8921    15748    16685    12270 
    6608     1923    -1733    -4530    -5378    -3730    -1937     -633 
    4197    14959    28782    41250    49236    51132    48413    44763 
   41830    38816    34421    28915    26145    29151    34256    33842 
   24541    10488    -1558    -6588    -3966       43        5     -149 
    5010    13370    19440    20858    18509    14157    10925    13569 
   22529    31317    36632    42807    51388    56930    53863    41963 
   26780    14118     5053    -1458    -5596    -7103    -7110   -10697 
  -21928   -34641   -37925   -29493   -14991       93    10891    12966 
    7544     1466     -353     1428     3668     5217     8810    18342 
   32893    44301    44233    33793    22312    16881    17841    22747 
   26749    24133    17775    15954    16312     9504    -3063    -9907 
   -3310    13729    28810    29318    14777    -2328    -9281    -4312 
    4901    10032     7920     1214    -5445   -10229   -13611   -14297 
   -9770    -2741     -399    -4119    -8890   -11578   -11212    -5936 
    5288    21293    38804    52529    58912    58272    51328    41047 
   34720    35348    38124    37689    32719    26103    22035    22925 
   29307    37604    39638    29277     9422    -7620   -10963    -3958 
      53    -6500   -19303   -28753   -28877   -20337    -6556     9801 
   26182    39425    45982    42342    28895    14462     9810    14330 
   18130    17017    14880    13892    11380     5945     2735     7818 
   17760    24228    26984    31157    35338    32842    22491     9576 
   -2274   -12835   -20739   -22973   -19004   -12552    -7783    -5755 
   -5493    -5974    -6495    -6400    -4457      921     8323    12121 
    9902     6158     4185     3125     3650     7991    16312    26268 
   33637    34980    31640    28708    29985    35294    40859    41937 
   36368    25984    15289     7713     3883     4130     8945    17682 
   27145    30885    25319    13950     1968    -7410   -13744   -18602 
  -20272   -15503    -6139     2161     4075     -839    -6294    -6760 
   -2289     4643    11105    15535    18038    17774    15278    13636 
   12775    10021     7660    11934    23996    35659    36143    25488 
   16304    17763    26371    34389    37559    35023    27626    16727 
    6151     2674     9594    23996    40213    51705    54913    52288 
   47970    44797    45306    49592    53403    51374    41796    27275 
   10765    -4917   -16056   -23556   -31077   -35236   -31189   -22031 
  -13221    -7058    -1822     7994    22212    28815    18705      845 
   -8238    -3992     5521    10828     7515    -1466    -9261   -13458 
  -15990   -16109   -11100    -1675     8968    17853    20569    13410 
     -22   -11078   -14946   -12770    -8310    -5867    -7577   -10944 
  -12511   -12157    -9664    -2139    10180    21207    25741    23408 
   16098     8408     7382    15353    28147    41514    51751    54684 
   50677    46099    47130    51747    52149    47643    43936    41437 
   37650    34408    35145    39948    44170    42172    32327    18002 
    6542     4122    10026    18557    23424    20910    11776     -430 
  -11285   -17054   -16907   -11877    -3093     6750    12769    11863 
    7571     6797    12074    22408    36328    49425    57317    61846 
   68256    78622    88830    91891    86557    77859    69853    64279 
   61185    57716    51175    41284    28115    12097    -4435   -18197 
  -27278   -32211   -34420   -34666   -35037   -39362   -47797   -54530 
  -53305   -43141   -28540   -15405    -8181    -8024    -9950    -6628 
    3597    18224    35056    49240    55237    55297    56608    59642 
   57196    45655    30858    20945    18274    18904    16630     8824 
    -816    -6958    -7848    -5326    -2280      610     4652     9073 
   10281     5132    -5071   -14084   -17367   -17176   -18161   -21175 
  -24252   -26249   -25329   -18241    -5964     3795     3505    -5421 
  -13781   -15131   -10648    -3876     4374    14401    22864    24378 
   18843    13860    17957    31056    45615    56331    61726    62206 
   61452    61485    59438    55087    52819    53630    52740    45493 
   31887    16337     4258    -2559    -6214    -8082    -8793   -11549 
  -18408   -25772   -28592   -25910   -20488   -14743    -8156     -118 
    7163    12384    18625    29473    44037    57721    66727    70886 
   71120    66120    55904    46055    43550    48756    53826    50965 
   38937    20494      886   -12457   -15061    -8952      122     7021 
    7102    -2648   -17351   -25909   -21721    -8304     5223    14555 
   23371    33053    37821    34255    26213    18874    14577    12792 
   10708     5884    -1756   -11337   -21308   -27700   -26296   -17795 
   -7588     -428     1765     -537    -3845    -3185     2392     7404 
    7789     7075     8616    10932    14084    19626    26074    30447 
   31200    30349    30765    30895    28599    25561    24063    25580 
   30297    35704    39465    40448    36682    28046    18112    10261 
    4832     -507    -8587   -18675   -25035   -23122   -15453    -7696 
   -2812      -46     4516    14143    27488    41147    53564    64684 
   73263    76486    72914    64669    56558    51238    45793    36403 
   22642     5537   -12978   -28739   -37826   -39812   -36192   -28562 
  -21045   -19112   -22449   -23665   -16620    -2916    10894    20026 
   25653    31878    37164    36139    31480    31890    38829    45790 
   48392    48824    49676    47658    40226    33258    32772    34533 
   29261    15645     2387    -4187    -7041    -9035    -7368    -1214 
    5171     6524     -231   -11769   -18444   -14254    -4628     1546 
    3060     1727    -3451   -10086   -11323    -4513     6203    16618 
   25289    30686    33600    36866    37979    33133    25955    22149 
   22303    23208    21995    18805    14904    10897     8821    12207 
   22600    37077    49601    55268    53551    47528    40217    32033 
   23075    16025    12724    11508    10739    10145     8253     2181 
   -7726   -14553   -10773     3025    18274    26223    24064    13924 
    -992   -16492   -27361   -31893   -34330   -39384   -45401   -46838 
  -42396   -34924   -26421   -18575   -12704    -6361     4378    18886 
   31732    37843    36105    28995    21191    16949    16204    15935 
   15032    13376     9963     6068     3737      396    -6814   -13984 
  -15025    -9570    -1517     5507     6892     -280    -8490    -5198 
   11419    30905    42217    42022    33564    23049    16544    15796 
   18438    22102    25783    28600    29258    25777    15906     1360 
  -10068   -12013    -6356     2295    13727    29335    47233    61759 
   65830    57311    43817    33673    24925    13119      -60   -13182 
  -26230   -35892   -40379   -42234   -42576   -40087   -35286   -30387 
  -25304   -16555     -971    18898    34204    38456    35754    34987 
   37711    38942    37484    37844    42744    48512    49515    44210 
   34506    23280    14138    10591    14618    24628    34349    36911 
   31101    21556    12410     4720     1280     5853    14857    19041 
   14770     6319     -767    -4121    -5691    -8620   -12316   -14634 
  -16368   -17676   -13819     -521    18315    33215    38970    37599 
   33847    32812    37742    45150    47151    41777    33639    23602 
    7880   -12279   -28407   -33033   -26361   -15580    -7943    -3785 
     -47     1667    -1820    -7501    -8888    -4074     4884    16930 
   29838    37630    34930    21126      490   -18918   -29815   -32451 
  -33050   -35613   -38776   -38948   -34988   -29737   -27082   -28556 
  -31540   -31024   -25344   -17845   -11297    -4626     4672    18605 
   36245    51964    59734    57193    46625    34709    26093    19252 
   12364     5022    -3842   -11781   -15058   -16447   -20169   -23025 
  -18291    -4732    11525    22381    23974    19229    14331    11950 
   11641    15132    22943    28910    25877    13643     -755    -8723 
   -9209    -9146   -11417   -11002    -5406     -752    -4877   -16869 
  -25674   -20941    -3741    16268    31387    39819    42617    42792 
   47179    61907    82615    95234    89885    69416    44807    25477 
   12141      404   -10414   -18735   -26329   -35595   -46297   -57402 
  -65468   -63077   -47706   -26523    -6226    10579    20129    22383 
   23629    26389    26926    24340    22391    21760    19666    18242 
   23165    33621    42064    41290    28948     9250   -11276   -29790 
  -45350   -53814   -49687   -33884   -14250     2182    12419    17164 
   20030    23848    29398    37014    47090    58675    66321    62158 
   43164    14248   -13158   -27068   -24038   -10021     7359    23189 
   33317    34468    28700    21864    17851    18711    24360    30377 
   31601    25577    12373    -3742   -14589   -14096    -4904     1487 
   -4499   -19350   -30662   -30719   -21803   -10534    -2416     -401 
   -2569    -2993      377     3642     5644    10526    20963    34690 
   45259    47697    45624    44805    43570    40018    38103    38300 
   35192    27243    18109    11624    11844    20520    32710    42069 
   46948    47146    42750    37034    33557    32907    34550    38471 
   44456    50541    53181    48935    36667    20153     5739    -3156 
   -6152    -4414    -2375    -6755   -19732   -35001   -43536   -41206 
  -32242   -27359   -32452   -40909   -42545   -33581   -17311     -866 
   10211    15232    17538    22035    31618    44775    55831    59762 
   57458    53169    49157    44600    37364    25924    10083    -7006 
  -17984   -19087   -17431   -22386   -32066   -35587   -25908    -5905 
   14584    24277    19332    10249    11779    25099    38512    43334 
   40021    32523    23508    10975    -8989   -32544   -49677   -55853 
  -54137   -49228   -43797   -38529   -35262   -36103   -37596   -32916 
  -20195    -3827    11879    26251    38782    48372    55781    61613 
   65908    71999    83881    98420   106298   101636    87339    72188 
   65443    69909    78002    80209    75334    67963    59666    46375 
   26181     4773   -11272   -20145   -23639   -23690   -20868   -19655 
  -26538   -39267   -50383   -57335   -60700   -61258   -61794   -65054 
  -69835   -73149   -74812   -74183   -65682   -45672   -18927     8211 
   34578    59098    76963    85574    86966    86298    92310   107637 
  120470   118469   102628    81173    60020    40770    21589     3146 
   -7213    -5551      895     1589    -8948   -28275   -48011   -62781 
  -70945   -68230   -53162   -31170    -9828     4280    11875    22024 
   40557    63143    80917    89663    90940    86633    77011    62050 
   44049    28310    19513    18668    23048    27604    26179    15902 
    2342    -4855    -2115     6371    16657    27658    36664    42202 
   49077    61584    76674    89065    95121    92452    83470    74547 
   68128    59214    41671    18103    -2631   -16586   -25009   -31055 
  -39696   -52028   -63164   -67676   -63437   -54015   -46310   -42230 
  -36892   -25921    -8911    11582    28760    35337    32071    26200 
   21616    18658    19770    26004    35138    46776    60398    69775 
   67879    57061    46546    40895    40240    45993    54958    57991 
   51732    40102    26921    16970    13502    11504     5845    -1651 
   -9872   -19521   -28009   -32293   -31144   -23205    -8982     7123 
   20807    30321    35855    41731    52711    65566    72020    67103 
   51342    30441    13594     8365    15457    29386    44384    56230 
   59498    50214    32451    16600     8994     6678     2998    -4903 
  -14896   -25381   -38687   -55072   -69157   -76061   -73645   -60831 
  -39862   -16212     2807     9850     4733    -2859    -4297    -1955 
    -379     4754    19433    40867    55871    50510    24962    -6098 
  -22686   -13284    12179    32546    35375    23786    10358     3520 
    3959    12877    29834    46113    55205    62695    73954    82872 
   84571    86421    93130    96967    92174    79245    55236    20925 
  -14003   -40098   -46233   -33688   -28004   -38433   -50391   -61742 
  -70254   -67057   -57753   -49645   -43003   -39111   -37022   -35040 
  -34806   -35213   -29585   -13076    13231    43737    72037    95326 
  112197   118594   111428    93730    71210    48765    31014    21225 
   18976    18071    12951     2802   -12396   -27288   -32079   -24417 
  -12347    -8063   -17650   -34115   -45865   -48929   -43606   -30765 
  -18156   -16040   -25736   -39133   -43316   -28818       -6    28104 
   42545    40449    28742    14937      403   -14736   -25990   -27718 
  -18288    -1428    16219    29721    36438    37367    37771    41349 
   49370    60752    70745    75890    76249    74269    71730    66873 
   58940    50786    47315    51259    56485    52107    34762    13682 
     767    -3399    -7457   -18256   -36058   -56120   -74457   -91242 
 -106665  -116190  -114483  -103852   -92022   -82075   -73520   -66142 
  -57316   -47094   -38471   -29087   -15555     2926    26315    48095 
   58343    57619    54612    51622    45455    35763    25001    17417 
   17355    22834    27442    32128    41379    52774    62803    70713 
   77353    85006    93562   101329   106523   103415    85617    57537 
   30318     9545    -2752    -7000    -6716    -5595    -7680   -14816 
  -23318   -28979   -32984   -35853   -37001   -39232   -40110   -33589 
  -20705    -6829     6036    18316    24343    17781     3080    -9856 
  -10521    10831    50495    85199    99216   101933    98441    85211 
   72061    66600    66962    70231    66079    50242    33318    21903 
   14156     9434     9301    13028    17894    21439    19985    10374 
   -5575   -22297   -35354   -44104   -49087   -49183   -44805   -39000 
  -34371   -31237   -27839   -21199    -6727    14662    30555    30712 
   18276     1220   -13549   -19703   -17693   -15558   -17328   -18651 
  -16632   -12028    -4638     1997     1320    -6393   -12755   -11107 
   -3601     5544    18426    36397    53375    64232    66285    57963 
   44636    32897    25548    24364    28845    35738    40178    40276 
   39559    39291    36039    29691    24454    23267    27112    33291 
   34467    25283     7144   -12039   -24062   -30739   -40077   -54105 
  -67713   -72781   -65772   -51883   -36900   -23784   -12930     -294 
   13372    19941    17842    15217    20835    36828    57997    77634 
   89286    89701    82766    71607    55907    38519    24239    15391 
   10485     5329    -4128   -18416   -31962   -37345   -31684   -17092 
     769    14599    19632    15504     5411    -2693     -951    10603 
   25974    38509    45730    47765    43731    36842    32092    29220 
   28614    32447    33386    22058     4639    -6624    -8362    -2419 
    8522    19707    25785    26120    25650    28285    35051    44668 
   52107    53936    49493    38732    26395    17345     8130    -5003 
  -14438   -14622   -14203   -18440   -25331   -33815   -37357   -29681 
  -12975     7946    28044    42256    47566    44380    40827    50688 
   75178    96173    99689    91336    79185    61044    38275    20858 
   11920     5563    -2352   -12808   -22332   -24475   -19236   -11432 
   -5942    -5600    -7891    -8911    -5809     2695    13586    23495 
   31944    37471    37730    32495    21888     7714    -2812    -2024 
   10096    24627    31353    28865    21574    11379     1699     -693 
    6885    21179    36756    49756    58995    63370    61707    54461 
   44089    37075    38288    43959    49428    52399    50607    45743 
   41909    41883    46568    54664    62015    63339    56327    42672 
   28381    17841     9702     5171     6220     7983     3919    -7861 
  -22693   -31360   -28486   -18862   -11615    -8606    -4411     5805 
   22477    38765    46542    46713    44266    42123    42211    43418 
   43454    42260    40249    39050    41832    49815    61789    75187 
   85352    88081    82721    70880    57871    50363    45902    36608 
   22726     9788    -1307   -13667   -28570   -42705   -51177   -53289 
  -53547   -55106   -54877   -49214   -39869   -30087   -19704    -8115 
    1392     5471     5142     3251     2012     1814      483    -2960 
   -5253    -2737     4138    11304    14067    10673     3631    -2356 
   -2629     4344    14186    19291    15407     5080    -5497   -12013 
  -13255    -8904     -633     7197    12929    18922    26358    33307 
   35428    29846    20801    15936    18046    24106    27955    24031 
   12561     -134    -7173    -6793    -3054    -1071    -2641    -5377 
   -6014    -4701    -2514     2456    10974    19813    27163    34059 
   40679    47649    56147    64273    68428    67946    65655    62372 
   55511    46234    39998    38832    38637    34134    23896     9121 
   -6735   -15876   -12844     -233    16839    31284    33059    21260 
    7309      734     2908    10289    17841    24155    29562    30640 
   25367    17706    12945    13702    19036    26383    33370    36905 
   35398    31965    31763    37195    47220    57993    63058    57980 
   45726    33848    26548    22737    20846    20988    22810    24750 
   23657    16179     5201    -1137     1335    12190    28733    43969 
   51830    53648    53312    51611    47419    40136    30517    20369 
   12916     9928     8191     4562     -173    -4528    -8593   -13415 
  -18162   -21437   -24309   -28076   -33287   -38576   -40054   -35362 
  -25193   -13361    -6817   -10000   -18887   -24703   -22660   -13719 
   -1572     8486    12089     8936     1950    -5171   -10456   -14207 
  -16043   -15693   -15936   -18714   -21206   -17554    -5846     4446 
    6185     8269    16286    24574    30261    31354    27120    21267 
   15579    13269    18402    28512    39407    48441    51865    47634 
   38664    30603    27805    30651    35895    39386    37922    30704 
   20720    15618    21748    34594    43912    45279    40984    34991 
   29252    25798    25809    25824    23855    21677    21196    22947 
   23585    21702    23707    33449    41619    40046    35276    30174 
   21217    14464    13254    12922    12429    13392    16783    18996 
   15036     6640    -3020   -12930   -21042   -24734   -22355   -14633 
   -3216     9671    17903    16496     9563     5487     6948    10844 
   16137    25053    36962    48960    59324    66409    70736    75506 
   80587    83602    84802    83537    77597    68421    59340    50212 
   38924    27209    19465    16483    14615     9273     -767   -13988 
  -30329   -48560   -63899   -72198   -72305   -66657   -61229   -59595 
  -58597   -54523   -47261   -36495   -22424    -8782      460     6021 
   12161    20766    30930    42200    53340    62965    69037    66116 
