Origin Time       2011/03/11 14:46:00
Lat.              38.103
Long.             142.860
Depth. (km)       24
Mag.              9.0
Station Code      TKY018
Station Lat.      35.6553
Station Long.     139.8114
Station Height(m) 6
Record Time       2011/03/11 14:47:59
Sampling Freq(Hz) 100Hz
Duration Time(s)  243
Dir.              N-S
Scale Factor      3920(gal)/6182761
Max. Acc. (gal)   186.108
Last Correction   2011/03/11 14:47:44
Memo.             
[...]
   20489    16285     8827     5197     7955    11232    15306    20905 
   26867    34569    41126    40093    30266    19169    12400     6871 
    2248      810     1815     5433     9202     7714      978    -5441 
   -7991    -4927     2384     4961     1378    -2074    -7618   -19099 
  -34651   -46349   -48608   -46784   -46923   -51362   -58578   -64893 
  -69217   -68725   -63977   -58389   -48291   -32688   -17912    -7297 
    2708    17942    37946    56545    71295    84166    92053    90066 
   84863    82390    76773    68552    62469    55412    48765    45369 
   43012    41538    38192    30033    15454    -6645   -23633   -25989 
  -24533   -23599   -14516     4099    25280    45748    66747    82767 
   89421    94970   102046    99808    89465    86482    91527    98426 
  110385   122170   127403   131242   133987   130992   123190   115404 
  107768    95382    79973    67750    63418    68127    72340    68089 
   59528    49433    38261    27081    13308    -1449   -13203   -20070 
  -19651   -18170   -22191   -25889   -24989   -22083   -22310   -30654 
  -40052   -41777   -44334   -50604   -51162   -47295   -42779   -41438 
  -45857   -46469   -40962   -32965   -21812   -13199    -6565     5392 
   19606    30594    40928    54671    69143    81239    92449   102154 
  108114   109687   107389   100872    86982    67605    50062    35771 
   23092    11708    -2977   -22873   -40005   -50084   -56760   -58348 
  -52209   -42727   -32168   -22835   -17610    -9385     4140    16646 
   31611    47795    58436    70820    85291    92044    94519    99435 
  106996   116572   125377   129677   128490   123561   117667   111539 
  101823    84289    60638    36786    16523     4119     1395     1375 
   -1120    -3937    -3023     5024    15379    23224    33351    47008 
   60287    67137    65357    62482    60310    55190    45640    32454 
   23331    19965    18681    24924    38651    47517    46913    45460 
   46192    42189    33504    27666    28892    35609    42571    46174 
   45294    40517    36514    37735    41036    41071    38066    33375 
   29475    28458    25211    14691    -1627   -18311   -29957   -37139 
  -43144   -45272   -41818   -38172   -35811   -32710   -27052   -14627 
    2188    18115    32124    42217    46837    45508    40182    33363 
   27587    29511    38081    45864    51804    54008    51165    49032 
   49958    49666    46971    45244    43912    39613    32707    22343 
    7996     -952     3808    12848    19399    33047    49589    57113 
   60478    65028    69628    69721    60299    40390    12866    -9366 
  -18478   -18594   -10539      909    10041    17940    23308    24519 
   19776     9093    -3277   -16012   -25181   -27997   -28312   -24302 
  -15108    -5959     1642     7173    10713    14049    16372    14840 
    8405     1148    -4462   -11386   -20044   -28108   -34776   -41503 
  -46679   -45100   -40104   -36067   -26763   -11931    -1497     2305 
    7625    18469    30328    43682    58949    67167    71717    85245 
  104473   121221   134314   141781   140264   131537   122957   117420 
  113048   110144   106118    97481    87157    79196    72173    61436 
   47729    36371    28375    22587    18873    13286     2653    -7119 
  -12052   -16506   -20782   -23840   -26489   -25578   -23014   -22545 
  -23591   -28053   -33019   -35402   -38606   -38398   -30433   -20369 
  -10546     2996    22722    49097    78734    99180   105733   112274 
  120207   120309   120100   121420   119735   121932   124964   122437 
  116104   104272    89856    78970    72418    63876    48137    30836 
   11323   -12228   -32287   -46032   -47857   -35988   -20093    -5817 
    1258     5487    16239    23062    23119    25330    26298    28768 
   39443    53466    67231    81421    94594   100761    95113    82077 
   69913    61522    52269    40005    27880    16685    11242    12911 
    9786    -1646   -14256   -28806   -49260   -71727   -90440  -106079 
 -116786  -118397  -115287  -110882  -103986   -95258   -84506   -70952 
  -54530   -37596   -23785   -12397      777    22279    52902    83197 
  109557   134905   156330   168974   170652   164283   156969   149512 
  138489   126430   115277   101400    87825    83031    83505    81343 
   78170    73528    64532    52713    37655    22550    14351    14659 
   21178    24540    16273     2304   -10068   -21282   -30425   -31772 
  -21101    -2645    18059    40074    58304    69731    82770    99699 
  109832   109666   102744    87989    69149    57165    54243    49494 
   44062    52828    65772    66521    62804    55875    40774    21020 
    -930   -18006   -26240   -27607   -20506   -12243    -7353      372 
    6729     9637    13208    15134    16088    16642    15300     9261 
   -1688    -7439    -6553    -2222    10144    25181    33638    38899 
   47187    53720    55041    55510    52571    44999    36527    31249 
   36858    52724    71840    87370    92734    91391    87889    79534 
   66262    50007    31053    10922    -8518   -25655   -34011   -28271 
  -18101   -15911   -19441   -24352   -28980   -28559   -26557   -26295 
  -21836   -13203    -5543    -2154    -1570     1020     8535    21009 
   33474    44707    53834    55317    53115    51649    47319    39805 
   33720    34584    42415    49126    48051    40259    27425    13514 
    9034    12942    14877    17098    27241    44219    60530    74741 
   92459   109565   116811   118285   122193   123738   119079   114589 
  108022    96155    86188    77937    68064    60494    56147    53273 
   54855    64409    76577    82051    81324    79484    77144    74922 
   70074    59141    49243    42944    34928    29040    27216    24173 
   20022    17826    15919    11727     8341     6411     3047    -2127 
  -10830   -21630   -32380   -47229   -65092   -77918   -84323   -87063 
  -84543   -76697   -67723   -61244   -55598   -45912   -32244   -16549 
   -4311     -951     -303      678     5556    23425    46585    65555 
   80762    90250    96893   105962   112167   107137    94831    78163 
   54381    33042    17412     1348    -9865   -14460   -19458   -25778 
  -26042   -20326   -21250   -23734   -15840   -11624   -15359    -9074 
    7784    23647    36981    48612    54527    55070    57519    62079 
   63229    63863    67951    71766    73660    76043    78434    77485 
   71697    65879    62171    54541    45081    41064    38090    32424 
   29041    29230    30663    33445    37126    35989    28387    20206 
   10683     2002     2892     8566    11423    12088     7426    -1856 
   -5185    -4152    -8203   -10617    -7694    -7855    -9593    -9456 
   -9853    -8069    -2151     1631     1247     4146    11018    16633 
   21673    25684    27392    29882    34001    38142    41756    43973 
   44204    40952    31049    17312     5238    -5842   -14461   -15988 
  -12044    -7581    -4465    -3099    -3969    -3821       36     4530 
    7885    12664    21112    31324    42182    56333    68891    74502 
   80764    90128    93311    90068    86294    80071    70703    60466 
   48661    37963    31671    27057    21441    15335     7333    -2003 
   -6962    -8089   -10676   -12480    -9457    -5729    -6161    -5447 
    1901    12908    27183    45061    60893    72100    80679    84917 
   81592    73408    62792    51464    45182    41272    35275    33107 
   36132    40390    46503    54952    61760    62568    56168    42067 
   23965     8573    -1943    -2775     7225    14949    14461    13860 
   16878    19656    17460    11650     6246     -423    -5095    -2299 
    3522    12566    26190    36989    42319    41567    35003    26228 
   14275     -353   -13880   -24122   -29797   -29899   -23974   -15763 
   -5942     8581    20574    23770    25119    31306    41474    50165 
   53263    49644    39086    27479    18944    10127     3508     3164 
    6165     7850     6038     6005     9798    11136    13775    19981 
   21396    20227    21104    21335    19758    14844     6941     -913 
   -5410    -3503     4313    15713    24425    27262    32562    42720 
   52317    61718    71297    80138    89708   101737   116766   129137 
  131390   123213   108005    91096    76048    62208    51053    40856 
   30538    27169    29256    29372    28907    29137    27084    23194 
   21527    21778    21834    23500    22592    15515     9292     7698 
   11277    19103    24654    25427    22027    14714     4816    -8641 
  -25531   -39285   -43429   -41297   -37201   -31020   -24876   -19330 
  -13184    -4181     9208    22979    35227    47717    61151    77106 
   96716   115327   128276   138151   141810   135427   126898   116329 
  102103    94343    94696    99434   108657   116801   120035   121266 
  120885   117062   111153   105050    98151    91295    83227    69715 
   56202    50688    52508    59781    65930    65184    63702    60462 
   48426    37893    37753    37787    34289    34116    35096    38430 
   53227    70513    75246    72168    66239    57055    47836    34811 
   17785      807   -17302   -28016   -31324   -45927   -71597   -92460 
 -101195   -97205   -87197   -79293   -75538   -71066   -60827   -51355 
  -47612   -46864   -48824   -48833   -42284   -31283   -19274    -8487 
    6622    26952    41472    48810    54274    57493    58576    58435 
   54900    45088    34678    32785    35720    38575    47817    63287 
   75279    80913    82349    82606    83476    81606    72399    54534 
   31257     3855   -19169   -24514   -28472   -45558   -52065   -33743 
   -9211    -6407   -21888   -17489      339    -3969   -11047    -3006 
   -3260   -12479   -15369   -15443   -17113   -17823   -16792   -17903 
  -22978   -26544   -26468   -25489   -22383   -15057    -6109     -956 
       8     1814     4100     4993     9868    17690    19882    22258 
   32645    38851    38060    45925    55605    53394    53799    60792 
   59004    53584    50444    40704    25632     7581   -13916   -31712 
  -44863   -53214   -51713   -43677   -30907    -8615    22035    52966 
   76980    93100   102892   109003   112402   108335    98541    88321 
   77821    71678    68660    59699    44161    26629    16703    20501 
   30948    41863    50482    56897    65823    74992    76568    70572 
   62860    51927    36845    27138    23215    20021    23558    32407 
   39696    47970    56166    59855    58928    54586    50351    46967 
   40829    36486    41031    50289    61394    74634    84976    93028 
  100891   105249   104419    97351    86143    75639    64536    50031 
   36415    19458   -10131   -35371   -44773   -52086   -55414   -55815 
  -64989   -73358   -74401   -76156   -80001   -84086   -85427   -73982 
  -49825   -28485   -12060     5460    18344    25034    26531    14447 
  -10959   -36550   -55413   -63399   -57942   -45492   -27199    -5216 
   18299    53395    92360   119961   134537   134263   130527   126643 
  116958   117819   119276    97737    71116    54721    47599    54731 
   65768    66991    64813    65677    67058    63042    52428    48099 
   48819    42192    39968    44088    35699    17136     7447    13237 
   21614    27764    34403    34005    36312    49138    56892    57770 
   63546    79924   102839   127069   149024   161181   169463   181330 
  185738   175712   158155   139236   118120    97114    75616    49023 
   27613    15202     1680   -12066   -26439   -43705   -54331   -60064 
  -70445   -76426   -75092   -76288   -73458   -63895   -57234   -49147 
  -36875   -26993   -17024    -7794    -3304     2055     3693    -7332 
  -26878   -48428   -60979   -60328   -52796   -37157   -20092   -12362 
  -11580   -10964    -4358     4750    14378    28449    41601    52557 
   61331    62886    54640    38648    25315    12051    -8086   -22355 
  -25469   -22985   -14108     -149     7635     -102   -12429   -16988 
  -18656   -17618    -8053     1646     5673     9935     7001    -5135 
  -14956   -26112   -36697   -36624   -26769   -10344     6999    23756 
   34968    34279    32516    33387    35376    43722    55995    73591 
   97061   119250   139294   154124   154961   145342   135322   124633 
  115732   113104   119052   126802   113424    93947    92766    87818 
   81909    77180    36454   -11146   -12516     -755   -14831   -39001 
  -49930   -47460   -46888   -45247   -41695   -48325   -54377   -56513 
  -61866   -60042   -46961   -24709     3139    26808    42266    45345 
   35870    20783    -1463   -25259   -38685   -45927   -48017   -45117 
  -52647   -63061   -48081   -13593    20363    58010    94399   112665 
  127420   145913   140118   117944    96180    58001    16548    -6761 
  -11252     5419    34698    63274    80666    91402    97356    88672 
   88233    98558    94514    88116    79463    62303    55568    60796 
   65278    46205   -10012   -71061  -107553  -122550  -110377   -77924 
  -61904   -59074   -49009   -44821   -30668     5722    25928    28093 
   39400    53645    63230    78591   102353   124904   149179   179427 
  205966   225609   235163   233980   224667   198175   165089   148510 
  138556   121892   102024    60677    -4841   -47872   -50305   -30860 
   -8656   -15407   -37675   -29055   -12528   -19264   -15334     8744 
   10350    -2312     6022     4268   -15106    -8868     3258    -5148 
   -1754    17299    23429    20085    23151    33654    47941    60183 
   73518    95011   105402    88940    55613    -2748   -91815  -177973 
 -236458  -264442  -237110  -133604    -4642    50058    21719    20757 
   73966   102436    96571    88285    80785    70657    53018    25303 
   -1487   -11296   -20285   -32271   -24853   -25903   -41391   -30453 
   -6146    13785    42103    61446    65357    83021   105869   108068 
  105009   107715    99763    75033    47671    22243    -5833   -20837 
  -26820   -35137   -21174     3008    13187    19167    10496     4408 
   29667    53324    60788    66659    64355    63977    76359    86636 
   91241    91088    79786    63692    48416    28014     3927   -14542 
  -20133    -5621    21440    40782    53346    66068    81462   110373 
  142725   158866   155993   139068   113815    83410    63713    60686 
   54991    38110    20405    23447    44102    46021    22347    -6017 
  -48367  -114645  -173927  -212772  -234144  -214344  -154845  -104456 
 -112086  -154230  -151174   -97679   -38314    23861    86023   138067 
  184446   223465   245556   244591   226668   209696   201295   180175 
  137685   105770    99486   104905   111688   106841    82917    53205 
   37694    33904    24975    15541     7529    -8096   -27203   -47800 
  -56838   -52180   -68965  -103792  -119783  -117927  -110248   -90954 
  -63508   -39526   -13096    27130    74919   110198   127467   141435 
  151932   158537   169779   175741   177210   173635   149900   126788 
  118887   108265   105534   127717   156111   172735   177452   167416 
  146545   123278    97195    66353    26720    -7650   -19708   -19893 
  -10003     4283     3430    -4644   -11698   -27446   -49927   -70335 
  -95489  -126658  -145761  -155983  -167440  -177749  -191818  -193681 
 -170690  -146542  -127319  -100178   -70458   -47836   -29152    -2341 
   33115    50130    36175    30771    49197    50551    30537     9156 
  -15635   -27546   -23556   -24849   -21735    -4247    15403    31807 
   35084    19753    12468    29922    56798    77448    74762    53609 
   51751    77218   105558   119023   118566   124818   133535   121862 
  113238   127508   129064   108903    96123    83308    58087    35735 
   19975    10541    14648    24488    21311     3759   -14687   -38758 
  -65657   -63785   -35488   -14362    -2386     9442    15048    24287 
   47913    65549    68286    69522    66460    56318    47167    48417 
   67353    98045   135719   173319   198050   211321   211546   194012 
  161960   121803    93772    86505    83875    79827    66124    24730 
  -28995   -60648   -72823   -89848  -107699  -117938  -130569  -134980 
 -123154  -108388   -86051   -71000   -94713  -122227  -112537   -99066 
  -92521   -62542   -39365   -50564   -60849   -59342   -53958   -30177 
    6604    36895    60875    84878   103255   102438    83826    59799 
   31561     4544   -12530   -22824   -22399    -8617     4624    11277 
   13578     7617    -3215   -10001   -14458   -16266    -8102    10092 
   32391    54580    77992    96872   108064   126093   144587   150632 
  156692   161773   156015   148257   149274   156486   166156   184396 
  203424   209805   209000   199014   176834   156039   140250   128070 
  123400   122187   122498   127987   136330   143268   145651   143083 
  138984   131208   115465    90654    59665    32512     9072   -14009 
  -28367   -39438   -49810   -36287    -4412     3453   -12573   -14672 
    -426    14068    25748    30696    26110    12210     -320     4976 
   22220    31457    29263    24103    13562       48    -6631   -11362 
  -13842   -15557   -29233   -47438   -63662   -82467   -96388  -101415 
 -102479  -104029   -99555   -81229   -63631   -50085   -35268   -42135 
  -65838   -75168   -79297   -81368   -61264   -26290     9261    37642 
   59942    83361    91885    86737    82310    59777    23437    -4691 
  -36164   -62593   -60710   -55342   -58040   -46122   -34466   -31272 
  -20373   -10684     -452    19945    43757    66347    79245    81986 
   88272   103162   120365   133155   137949   131268   121374   114955 
   99543    82426    74819    53432    22661    10216    -4673   -27717 
  -22962     -243    10226     6592    -5225   -12798   -14944   -15610 
   -6193     4101     6513    12756    20154    18133    10133     1708 
   -6367   -11428    -6997     6461    17009    14822     3694    -3437 
   -1664     4649    18385    38263    55824    72586    80119    71799 
   60452    44197    25473    15877     8060     5780    14042    25050 
   41076    55966    62669    68410    72748    69376    55475    36574 
   18374    -2689   -16794   -16801   -20234   -29178   -31286   -31891 
  -32365   -21203    -1475    15139    28154    36168    35783    31607 
   24527    17951    23832    43655    71026   100101   128299   150573 
  149900   134199   128099   118664   100606    95606    92704    77361 
   65187    61945    59354    55867    58215    60946    52129    48277 
   50124    43974    54743    76922    83902    90622    96917    91932 
   77511    54052    37019    25228     3579   -13356   -18572   -30896 
  -49556   -55502   -52424   -51817   -43064   -23339    -7242     5221 
   18993    29759    39114    47145    48506    43558    44045    69687 
  106873   124521   132145   136599   128292   118510   109025    95818 
   84379    67816    42206    12217   -16640   -40055   -64577   -90095 
 -113621  -144710  -173495  -177148  -168128  -171437  -170944  -144210 
 -118383  -111701   -98632   -87127   -92282   -86137   -67445   -54207 
  -40873   -21861     3705    26706    38495    50425    66123    72992 
   76765    90039   101441   103433    99448    83842    52508    14082 
   -9420   -17161   -31594   -43306   -38445   -29731   -14475     9814 
   29706    47816    72094   104108   138914   164726   181151   188247 
  186514   192144   206218   215434   221239   224969   221316   205185 
  178486   154338   129787    97938    73799    63256    59325    66215 
