Origin Time       2011/03/11 14:46:00
Lat.              38.103
Long.             142.860
Depth. (km)       24
Mag.              9.0
Station Code      TTR002
Station Lat.      35.4859
Station Long.     134.2201
Station Height(m) 6
Record Time       2011/03/11 14:49:33
Sampling Freq(Hz) 100Hz
Duration Time(s)  185
Dir.              E-W
Scale Factor      3920(gal)/6182761
Max. Acc. (gal)   1.865
Last Correction   2011/03/11 14:49:18
Memo.             
[...]
   -1268    -1314    -1373    -1432    -1471    -1518    -1587    -1649 
   -1701    -1764    -1824    -1869    -1921    -1980    -2036    -2101 
   -2174    -2269    -2371    -2422    -2446    -2517    -2623    -2707 
   -2751    -2786    -2841    -2916    -3001    -3070    -3120    -3171 
   -3217    -3258    -3311    -3396    -3505    -3590    -3625    -3657 
   -3737    -3834    -3877    -3887    -3947    -4039    -4093    -4116 
   -4114    -4072    -4041    -4031    -3968    -3874    -3808    -3746 
   -3674    -3593    -3480    -3370    -3298    -3235    -3148    -3036 
   -2936    -2871    -2795    -2701    -2605    -2484    -2357    -2253 
   -2153    -2062    -1956    -1818    -1690    -1579    -1464    -1362 
   -1275    -1187    -1110    -1053    -1006     -964     -932     -906 
    -892     -898     -901     -885     -875     -890     -913     -930 
    -936     -939     -972    -1044    -1108    -1165    -1257    -1369 
   -1487    -1637    -1791    -1897    -1987    -2150    -2387    -2600 
   -2757    -2901    -3044    -3173    -3305    -3445    -3569    -3671 
   -3757    -3824    -3879    -3936    -3989    -4031    -4063    -4087 
   -4113    -4136    -4138    -4143    -4142    -4100    -4049    -3986 
   -3883    -3772    -3648    -3514    -3411    -3296    -3125    -2961 
   -2847    -2766    -2672    -2533    -2388    -2276    -2192    -2122 
   -2048    -1969    -1883    -1767    -1663    -1638    -1650    -1649 
   -1659    -1684    -1712    -1755    -1796    -1836    -1907    -1972 
   -2021    -2107    -2204    -2249    -2285    -2386    -2509    -2573 
   -2596    -2624    -2655    -2690    -2717    -2714    -2708    -2732 
   -2776    -2814    -2822    -2807    -2821    -2871    -2908    -2928 
   -2939    -2920    -2895    -2892    -2895    -2909    -2926    -2919 
   -2910    -2890    -2834    -2794    -2795    -2780    -2742    -2714 
   -2680    -2640    -2600    -2547    -2506    -2473    -2410    -2347 
   -2308    -2260    -2199    -2153    -2137    -2138    -2109    -2053 
   -2036    -2060    -2086    -2117    -2130    -2098    -2084    -2119 
   -2141    -2144    -2154    -2156    -2163    -2201    -2247    -2300 
   -2361    -2403    -2458    -2536    -2571    -2569    -2582    -2590 
   -2604    -2647    -2658    -2651    -2682    -2708    -2710    -2695 
   -2670    -2684    -2707    -2702    -2727    -2766    -2769    -2767 
   -2757    -2751    -2784    -2799    -2767    -2748    -2756    -2760 
   -2746    -2692    -2631    -2634    -2683    -2711    -2702    -2677 
   -2656    -2635    -2620    -2634    -2632    -2576    -2539    -2536 
   -2510    -2471    -2431    -2395    -2386    -2353    -2264    -2184 
   -2138    -2086    -2045    -2021    -1968    -1890    -1831    -1796 
   -1774    -1764    -1755    -1747    -1736    -1723    -1737    -1755 
   -1752    -1773    -1801    -1816    -1869    -1912    -1908    -1926 
   -1960    -2010    -2075    -2112    -2167    -2212    -2197    -2192 
   -2214    -2257    -2308    -2304    -2294    -2292    -2238    -2223 
   -2285    -2347    -2395    -2417    -2437    -2484    -2510    -2561 
   -2623    -2611    -2628    -2706    -2759    -2800    -2834    -2887 
   -2956    -2969    -2976    -2990    -2979    -2981    -2933    -2850 
   -2838    -2825    -2763    -2702    -2680    -2664    -2581    -2519 
   -2544    -2546    -2519    -2502    -2495    -2525    -2530    -2495 
   -2465    -2442    -2462    -2488    -2468    -2448    -2440    -2442 
   -2442    -2431    -2430    -2412    -2394    -2392    -2365    -2379 
   -2415    -2395    -2361    -2322    -2287    -2247    -2166    -2103 
   -2039    -1958    -1918    -1854    -1761    -1718    -1686    -1623 
   -1554    -1519    -1506    -1486    -1503    -1573    -1627    -1621 
   -1633    -1727    -1821    -1861    -1886    -1931    -1998    -2049 
   -2099    -2175    -2249    -2335    -2445    -2541    -2620    -2715 
   -2825    -2939    -3069    -3186    -3282    -3386    -3494    -3599 
   -3682    -3745    -3819    -3892    -3953    -4031    -4135    -4223 
   -4282    -4336    -4369    -4395    -4445    -4500    -4536    -4533 
   -4523    -4540    -4544    -4495    -4409    -4354    -4333    -4264 
   -4149    -4051    -3955    -3805    -3618    -3444    -3301    -3154 
   -2970    -2798    -2653    -2476    -2274    -2108    -1981    -1830 
   -1644    -1485    -1372    -1267    -1141    -1022     -928     -826 
    -722     -655     -625     -610     -602     -631     -707     -764 
    -808     -907    -1013    -1081    -1184    -1358    -1536    -1661 
   -1773    -1908    -2048    -2174    -2303    -2470    -2649    -2786 
   -2903    -3039    -3178    -3297    -3405    -3516    -3635    -3732 
   -3805    -3867    -3905    -3932    -3955    -3977    -3987    -3941 
   -3868    -3820    -3771    -3704    -3647    -3587    -3497    -3401 
   -3312    -3238    -3163    -3053    -2930    -2838    -2757    -2655 
   -2547    -2446    -2356    -2268    -2172    -2094    -2039    -1989 
   -1942    -1916    -1913    -1899    -1881    -1920    -1985    -2006 
   -2015    -2033    -2036    -2041    -2050    -2056    -2094    -2139 
   -2128    -2120    -2158    -2193    -2201    -2216    -2274    -2345 
   -2391    -2444    -2512    -2562    -2584    -2596    -2619    -2658 
   -2686    -2684    -2688    -2714    -2723    -2732    -2764    -2777 
   -2764    -2771    -2797    -2814    -2833    -2851    -2837    -2792 
   -2753    -2742    -2746    -2744    -2719    -2670    -2628    -2614 
   -2586    -2536    -2493    -2444    -2389    -2350    -2312    -2280 
   -2243    -2179    -2123    -2074    -2022    -1989    -1933    -1852 
   -1830    -1829    -1776    -1712    -1650    -1588    -1550    -1520 
   -1486    -1455    -1422    -1404    -1400    -1391    -1405    -1427 
   -1418    -1434    -1512    -1601    -1679    -1745    -1800    -1870 
   -1963    -2073    -2192    -2293    -2377    -2443    -2484    -2549 
   -2622    -2652    -2687    -2741    -2773    -2807    -2871    -2930 
   -2966    -2991    -3012    -3035    -3057    -3067    -3057    -3033 
   -3004    -2969    -2922    -2884    -2853    -2781    -2677    -2608 
   -2564    -2484    -2395    -2334    -2277    -2186    -2080    -2011 
   -1948    -1854    -1783    -1756    -1719    -1649    -1579    -1552 
   -1543    -1488    -1419    -1377    -1319    -1252    -1204    -1172 
   -1175    -1181    -1153    -1156    -1179    -1175    -1201    -1266 
   -1329    -1401    -1469    -1525    -1587    -1646    -1739    -1869 
   -1959    -2024    -2122    -2225    -2316    -2398    -2487    -2594 
   -2665    -2710    -2807    -2908    -2980    -3067    -3155    -3231 
   -3309    -3364    -3408    -3470    -3541    -3613    -3673    -3709 
   -3730    -3727    -3695    -3655    -3612    -3560    -3504    -3429 
   -3330    -3246    -3187    -3118    -3009    -2872    -2749    -2649 
   -2559    -2473    -2375    -2259    -2155    -2080    -1998    -1873 
   -1733    -1627    -1568    -1518    -1444    -1354    -1273    -1198 
   -1138    -1081    -1003     -923     -863     -820     -807     -812 
    -803     -796     -805     -824     -856     -890     -926     -964 
   -1008    -1092    -1211    -1323    -1431    -1538    -1650    -1799 
   -1962    -2099    -2227    -2370    -2523    -2676    -2834    -2978 
   -3095    -3215    -3348    -3465    -3570    -3677    -3765    -3809 
   -3831    -3856    -3877    -3867    -3813    -3752    -3683    -3583 
   -3504    -3447    -3386    -3320    -3225    -3115    -3041    -2980 
   -2899    -2839    -2791    -2720    -2668    -2659    -2664    -2672 
   -2666    -2651    -2649    -2648    -2641    -2640    -2635    -2610 
   -2561    -2519    -2500    -2485    -2454    -2425    -2404    -2359 
   -2303    -2283    -2280    -2257    -2216    -2160    -2123    -2114 
   -2092    -2078    -2086    -2065    -2024    -2014    -2011    -1993 
   -1987    -2000    -2011    -1998    -1987    -2014    -2051    -2084 
   -2125    -2159    -2202    -2267    -2311    -2350    -2433    -2513 
   -2541    -2565    -2617    -2657    -2672    -2697    -2738    -2745 
   -2724    -2716    -2718    -2722    -2693    -2620    -2556    -2511 
   -2459    -2428    -2410    -2357    -2293    -2245    -2211    -2215 
   -2235    -2201    -2141    -2112    -2092    -2084    -2102    -2103 
   -2066    -2014    -1968    -1954    -1954    -1941    -1916    -1877 
   -1853    -1863    -1875    -1880    -1899    -1931    -1974    -2017 
   -2046    -2088    -2147    -2206    -2258    -2295    -2326    -2375 
   -2434    -2494    -2548    -2589    -2626    -2657    -2687    -2728 
   -2757    -2763    -2789    -2854    -2914    -2961    -2998    -3017 
   -3049    -3086    -3095    -3107    -3117    -3086    -3052    -3029 
   -3012    -3001    -2935    -2830    -2767    -2730    -2699    -2673 
   -2608    -2529    -2479    -2443    -2406    -2350    -2297    -2281 
   -2263    -2245    -2266    -2280    -2266    -2254    -2219    -2180 
   -2163    -2125    -2083    -2075    -2051    -2003    -1964    -1927 
   -1896    -1863    -1822    -1782    -1740    -1697    -1661    -1626 
   -1585    -1552    -1532    -1520    -1529    -1552    -1572    -1586 
   -1604    -1643    -1679    -1693    -1724    -1765    -1780    -1806 
   -1857    -1875    -1862    -1869    -1900    -1939    -1978    -1996 
   -2010    -2029    -2035    -2065    -2124    -2173    -2201    -2229 
   -2284    -2352    -2404    -2452    -2497    -2522    -2540    -2578 
   -2649    -2721    -2764    -2797    -2854    -2927    -3002    -3097 
   -3181    -3225    -3287    -3381    -3475    -3561    -3624    -3670 
   -3726    -3781    -3832    -3901    -3960    -3973    -3986    -4030 
   -4064    -4075    -4075    -4061    -4047    -4043    -4036    -4000 
   -3928    -3841    -3764    -3706    -3639    -3532    -3399    -3284 
   -3171    -3049    -2948    -2831    -2684    -2555    -2419    -2271 
   -2141    -1997    -1843    -1704    -1567    -1445    -1339    -1230 
   -1128    -1050    -1013    -1003     -976     -949     -941     -946 
    -983    -1033    -1049    -1061    -1092    -1128    -1173    -1203 
   -1204    -1215    -1246    -1284    -1340    -1408    -1463    -1519 
   -1609    -1734    -1861    -1981    -2109    -2243    -2390    -2546 
   -2691    -2836    -2970    -3068    -3179    -3317    -3436    -3550 
   -3658    -3731    -3793    -3863    -3935    -3995    -4032    -4053 
   -4066    -4077    -4085    -4064    -4029    -4006    -3976    -3935 
   -3894    -3836    -3762    -3680    -3588    -3496    -3389    -3248 
   -3103    -2960    -2818    -2685    -2544    -2393    -2239    -2089 
   -1963    -1860    -1756    -1642    -1515    -1420    -1373    -1325 
   -1271    -1238    -1216    -1199    -1194    -1205    -1229    -1261 
   -1297    -1355    -1426    -1489    -1551    -1632    -1742    -1868 
   -1983    -2107    -2244    -2366    -2490    -2635    -2776    -2890 
   -2989    -3107    -3225    -3287    -3311    -3353    -3401    -3430 
   -3451    -3458    -3443    -3419    -3408    -3430    -3447    -3418 
   -3385    -3382    -3386    -3379    -3371    -3369    -3368    -3350 
   -3321    -3314    -3294    -3223    -3162    -3128    -3061    -2964 
   -2866    -2758    -2653    -2544    -2433    -2351    -2265    -2151 
   -2057    -1985    -1917    -1868    -1830    -1784    -1735    -1692 
   -1673    -1684    -1689    -1672    -1677    -1711    -1733    -1736 
   -1750    -1787    -1823    -1850    -1887    -1939    -2004    -2080 
   -2158    -2251    -2352    -2426    -2500    -2599    -2690    -2764 
   -2836    -2894    -2942    -3002    -3054    -3085    -3127    -3179 
   -3216    -3236    -3241    -3239    -3238    -3221    -3186    -3152 
   -3109    -3031    -2924    -2828    -2751    -2661    -2562    -2454 
   -2342    -2262    -2193    -2114    -2056    -1998    -1930    -1878 
   -1840    -1804    -1768    -1743    -1722    -1704    -1710    -1727 
   -1738    -1751    -1764    -1775    -1805    -1860    -1904    -1919 
   -1952    -2017    -2085    -2167    -2270    -2349    -2421    -2540 
   -2675    -2789    -2883    -2964    -3067    -3168    -3232    -3297 
   -3358    -3382    -3396    -3418    -3442    -3454    -3453    -3454 
   -3451    -3434    -3419    -3407    -3382    -3350    -3316    -3265 
   -3224    -3177    -3075    -2964    -2877    -2776    -2660    -2540 
   -2418    -2304    -2198    -2107    -2021    -1929    -1841    -1768 
   -1724    -1701    -1667    -1642    -1642    -1633    -1612    -1613 
   -1632    -1634    -1619    -1626    -1660    -1693    -1722    -1765 
   -1823    -1868    -1919    -2018    -2130    -2203    -2263    -2345 
   -2453    -2565    -2654    -2721    -2790    -2860    -2936    -3017 
   -3062    -3066    -3076    -3128    -3198    -3243    -3259    -3266 
   -3267    -3277    -3318    -3346    -3339    -3333    -3326    -3304 
   -3282    -3256    -3207    -3134    -3046    -2958    -2872    -2782 
   -2684    -2573    -2450    -2318    -2187    -2085    -1992    -1860 
   -1722    -1612    -1510    -1433    -1376    -1297    -1209    -1136 
   -1078    -1049    -1020     -965     -916     -893     -908     -953 
    -994    -1031    -1079    -1155    -1269    -1377    -1479    -1604 
   -1753    -1911    -2074    -2250    -2425    -2594    -2768    -2946 
   -3148    -3363    -3553    -3732    -3926    -4122    -4296    -4461 
   -4618    -4747    -4862    -4969    -5084    -5208    -5289    -5329 
   -5365    -5398    -5445    -5481    -5467    -5436    -5408    -5350 
   -5245    -5122    -5005    -4866    -4675    -4484    -4336    -4185 
   -3997    -3783    -3551    -3335    -3164    -3026    -2886    -2694 
   -2464    -2288    -2192    -2111    -1988    -1834    -1706    -1619 
   -1571    -1534    -1471    -1395    -1341    -1332    -1355    -1360 
   -1355    -1371    -1407    -1449    -1492    -1568    -1650    -1709 
   -1780    -1848    -1900    -1969    -2044    -2108    -2166    -2219 
   -2268    -2317    -2353    -2365    -2374    -2395    -2417    -2432 
   -2426    -2404    -2378    -2360    -2371    -2393    -2392    -2385 
   -2388    -2381    -2357    -2342    -2343    -2336    -2319    -2307 
   -2305    -2293    -2257    -2225    -2202    -2179    -2175    -2170 
   -2128    -2091    -2093    -2092    -2072    -2068    -2061    -2031 
   -2010    -2006    -2008    -2008    -2004    -2009    -2005    -1991 
   -1987    -1994    -2017    -2041    -2065    -2119    -2187    -2244 
   -2309    -2392    -2495    -2604    -2698    -2799    -2930    -3068 
   -3184    -3290    -3399    -3498    -3599    -3726    -3849    -3937 
   -4011    -4085    -4142    -4166    -4184    -4224    -4236    -4190 
   -4126    -4079    -4041    -3981    -3892    -3795    -3669    -3515 
   -3383    -3250    -3098    -2956    -2816    -2682    -2567    -2453 
   -2338    -2224    -2106    -2005    -1918    -1833    -1740    -1634 
   -1543    -1463    -1371    -1291    -1228    -1163    -1120    -1104 
   -1076    -1041    -1031    -1044    -1073    -1114    -1173    -1247 
   -1308    -1360    -1431    -1532    -1644    -1735    -1829    -1948 
   -2056    -2155    -2263    -2362    -2459    -2558    -2655    -2762 
   -2861    -2940    -3028    -3128    -3217    -3291    -3361    -3428 
   -3472    -3483    -3500    -3522    -3509    -3487    -3457    -3388 
   -3307    -3221    -3112    -3010    -2906    -2784    -2666    -2566 
   -2476    -2377    -2269    -2174    -2099    -2040    -1991    -1944 
   -1917    -1894    -1834    -1788    -1802    -1810    -1787    -1767 
   -1754    -1766    -1789    -1801    -1841    -1907    -1951    -1983 
   -2046    -2132    -2208    -2283    -2367    -2432    -2483    -2568 
   -2670    -2739    -2787    -2867    -2987    -3075    -3105    -3145 
   -3206    -3259    -3315    -3385    -3453    -3493    -3519    -3564 
   -3608    -3639    -3688    -3734    -3746    -3734    -3725    -3754 
   -3784    -3763    -3728    -3710    -3681    -3639    -3605    -3573 
   -3543    -3515    -3469    -3402    -3317    -3227    -3151    -3081 
   -3000    -2913    -2852    -2819    -2763    -2685    -2622    -2568 
   -2523    -2490    -2455    -2419    -2381    -2326    -2272    -2252 
   -2232    -2187    -2164    -2172    -2179    -2174    -2156    -2145 
   -2163    -2185    -2197    -2216    -2229    -2231    -2249    -2278 
   -2292    -2295    -2292    -2291    -2311    -2337    -2336    -2312 
   -2303    -2301    -2270    -2233    -2230    -2224    -2165    -2108 
   -2102    -2103    -2086    -2081    -2078    -2081    -2085    -2078 
   -2085    -2088    -2072    -2073    -2077    -2078    -2075    -2046 
   -2016    -2005    -1975    -1936    -1917    -1902    -1864    -1827 
   -1839    -1874    -1867    -1840    -1842    -1868    -1895    -1917 
   -1931    -1939    -1968    -2013    -2038    -2058    -2096    -2144 
   -2208    -2276    -2337    -2398    -2442    -2483    -2568    -2673 
   -2743    -2800    -2868    -2939    -3016    -3082    -3133    -3184 
   -3230    -3280    -3328    -3348    -3352    -3359    -3358    -3338 
   -3299    -3262    -3235    -3188    -3141    -3118    -3073    -3017 
   -2988    -2968    -2965    -2971    -2952    -2940    -2945    -2917 
   -2889    -2891    -2879    -2850    -2828    -2806    -2775    -2734 
   -2685    -2637    -2596    -2552    -2524    -2523    -2512    -2486 
   -2468    -2459    -2452    -2434    -2409    -2384    -2353    -2322 
   -2300    -2276    -2250    -2212    -2147    -2085    -2032    -1962 
   -1912    -1893    -1844    -1766    -1703    -1675    -1682    -1679 
   -1643    -1630    -1643    -1643    -1650    -1673    -1679    -1673 
   -1677    -1675    -1673    -1663    -1637    -1623    -1627    -1627 
   -1628    -1641    -1664    -1673    -1677    -1717    -1780    -1840 
   -1890    -1915    -1945    -2021    -2095    -2137    -2182    -2232 
   -2280    -2338    -2383    -2406    -2439    -2492    -2538    -2543 
   -2522    -2532    -2581    -2618    -2633    -2662    -2696    -2707 
   -2723    -2767    -2815    -2849    -2862    -2873    -2900    -2935 
   -2969    -2996    -3010    -3003    -2972    -2959    -2976    -2958 
   -2915    -2896    -2853    -2781    -2729    -2670    -2589    -2523 
   -2464    -2398    -2332    -2271    -2217    -2158    -2085    -2019 
   -1959    -1889    -1823    -1774    -1730    -1658    -1566    -1500 
   -1469    -1441    -1420    -1396    -1355    -1321    -1310    -1300 
   -1289    -1281    -1281    -1311    -1349    -1351    -1346    -1359 
   -1379    -1420    -1467    -1497    -1538    -1587    -1628    -1691 
   -1757    -1791    -1835    -1905    -1968    -2035    -2125    -2217 
   -2298    -2361    -2419    -2513    -2619    -2689    -2748    -2831 
   -2915    -2971    -3018    -3082    -3131    -3165    -3235    -3318 
   -3372    -3414    -3452    -3495    -3554    -3603    -3621    -3628 
   -3643    -3670    -3691    -3694    -3688    -3678    -3664    -3653 
   -3649    -3647    -3649    -3652    -3640    -3604    -3561    -3533 
   -3498    -3436    -3376    -3329    -3261    -3177    -3099    -3015 
   -2931    -2862    -2772    -2665    -2584    -2519    -2451    -2389 
   -2330    -2275    -2245    -2229    -2205    -2187    -2191    -2215 
   -2256    -2297    -2313    -2332    -2375    -2415    -2460    -2506 
