Origin Time       2011/03/11 14:46:00
Lat.              38.103
Long.             142.860
Depth. (km)       24
Mag.              9.0
Station Code      TTR004
Station Lat.      35.4606
Station Long.     134.0548
Station Height(m) 49
Record Time       2011/03/11 14:50:21
Sampling Freq(Hz) 100Hz
Duration Time(s)  129
Dir.              N-S
Scale Factor      3920(gal)/6182761
Max. Acc. (gal)   2.024
Last Correction   2011/03/11 14:50:06
Memo.             
[...]
  -60001   -59953   -59919   -59906   -59873   -59839   -59824   -59795 
  -59771   -59748   -59700   -59667   -59654   -59617   -59578   -59570 
  -59563   -59528   -59492   -59470   -59445   -59414   -59376   -59336 
  -59322   -59318   -59284   -59238   -59200   -59164   -59128   -59093 
  -59070   -59060   -59038   -58992   -58954   -58944   -58947   -58932 
  -58898   -58880   -58890   -58908   -58904   -58879   -58881   -58925 
  -58954   -58955   -58987   -59051   -59102   -59147   -59194   -59240 
  -59305   -59379   -59443   -59498   -59557   -59632   -59704   -59760 
  -59817   -59888   -59975   -60063   -60132   -60199   -60269   -60328 
  -60387   -60444   -60494   -60543   -60578   -60605   -60655   -60712 
  -60759   -60795   -60814   -60839   -60879   -60910   -60918   -60913 
  -60921   -60929   -60913   -60900   -60887   -60860   -60848   -60843 
  -60823   -60790   -60741   -60685   -60639   -60601   -60574   -60555 
  -60509   -60439   -60402   -60392   -60362   -60319   -60284   -60243 
  -60211   -60197   -60180   -60167   -60156   -60134   -60124   -60125 
  -60107   -60084   -60081   -60078   -60065   -60069   -60087   -60097 
  -60117   -60142   -60158   -60168   -60167   -60167   -60181   -60194 
  -60199   -60206   -60227   -60264   -60287   -60284   -60282   -60289 
  -60295   -60304   -60308   -60296   -60283   -60291   -60303   -60295 
  -60277   -60261   -60236   -60198   -60175   -60170   -60159   -60138 
  -60120   -60123   -60132   -60117   -60083   -60034   -59996   -59989 
  -59961   -59901   -59862   -59838   -59802   -59749   -59669   -59577 
  -59504   -59457   -59400   -59322   -59260   -59205   -59138   -59076 
  -59006   -58919   -58839   -58762   -58684   -58642   -58616   -58566 
  -58527   -58509   -58492   -58488   -58494   -58498   -58522   -58567 
  -58617   -58674   -58735   -58793   -58864   -58942   -58992   -59032 
  -59103   -59190   -59277   -59375   -59470   -59550   -59630   -59717 
  -59806   -59878   -59932   -59989   -60048   -60091   -60112   -60110 
  -60104   -60092   -60065   -60034   -59974   -59888   -59820   -59774 
  -59735   -59672   -59566   -59454   -59337   -59196   -59060   -58935 
  -58808   -58686   -58565   -58435   -58311   -58203   -58090   -57977 
  -57889   -57811   -57716   -57607   -57516   -57459   -57404   -57356 
  -57328   -57296   -57280   -57287   -57287   -57297   -57320   -57348 
  -57388   -57425   -57454   -57507   -57582   -57651   -57703   -57758 
  -57819   -57880   -57947   -58012   -58086   -58170   -58234   -58275 
  -58315   -58361   -58404   -58445   -58495   -58558   -58621   -58671 
  -58710   -58742   -58753   -58764   -58787   -58795   -58790   -58800 
  -58830   -58878   -58921   -58947   -58972   -58998   -59005   -59006 
  -59019   -59035   -59052   -59073   -59098   -59150   -59210   -59217 
  -59194   -59229   -59294   -59316   -59327   -59361   -59385   -59403 
  -59430   -59453   -59480   -59526   -59568   -59595   -59626   -59660 
  -59695   -59742   -59788   -59816   -59841   -59862   -59871   -59891 
  -59920   -59939   -59962   -59989   -59999   -60002   -60000   -59991 
  -59975   -59959   -59946   -59922   -59898   -59908   -59921   -59902 
  -59872   -59841   -59808   -59768   -59714   -59653   -59605   -59569 
  -59513   -59433   -59354   -59294   -59245   -59181   -59111   -59055 
  -59005   -58962   -58918   -58849   -58779   -58723   -58656   -58596 
  -58562   -58526   -58479   -58432   -58383   -58350   -58335   -58305 
  -58281   -58288   -58293   -58281   -58277   -58280   -58280   -58302 
  -58341   -58351   -58347   -58368   -58398   -58410   -58426   -58472 
  -58519   -58543   -58569   -58612   -58655   -58697   -58741   -58783 
  -58836   -58873   -58881   -58900   -58926   -58941   -58969   -59005 
  -59027   -59044   -59060   -59055   -59024   -58995   -58976   -58959 
  -58952   -58933   -58892   -58863   -58835   -58796   -58768   -58749 
  -58732   -58728   -58740   -58744   -58711   -58690   -58725   -58758 
  -58768   -58798   -58839   -58879   -58918   -58933   -58941   -58965 
  -58988   -59008   -59038   -59070   -59094   -59098   -59085   -59087 
  -59094   -59084   -59086   -59072   -59025   -59001   -58985   -58942 
  -58889   -58827   -58762   -58715   -58660   -58593   -58540   -58502 
  -58467   -58430   -58389   -58348   -58321   -58310   -58308   -58321 
  -58342   -58352   -58356   -58385   -58467   -58565   -58625   -58671 
  -58746   -58851   -58956   -59032   -59111   -59227   -59340   -59428 
  -59528   -59644   -59736   -59805   -59888   -59980   -60054   -60102 
  -60125   -60154   -60202   -60254   -60285   -60281   -60273   -60282 
  -60276   -60244   -60211   -60173   -60127   -60078   -60010   -59933 
  -59858   -59754   -59620   -59507   -59423   -59322   -59203   -59088 
  -58977   -58857   -58725   -58582   -58443   -58323   -58225   -58133 
  -58027   -57914   -57806   -57702   -57602   -57518   -57456   -57400 
  -57348   -57321   -57300   -57284   -57299   -57336   -57383   -57446 
  -57523   -57610   -57697   -57805   -57944   -58097   -58247   -58381 
  -58514   -58669   -58830   -58987   -59148   -59295   -59436   -59594 
  -59740   -59870   -60011   -60151   -60279   -60422   -60573   -60712 
  -60842   -60935   -60997   -61073   -61156   -61220   -61261   -61286 
  -61302   -61290   -61262   -61261   -61248   -61186   -61118   -61054 
  -60969   -60869   -60747   -60614   -60490   -60350   -60193   -60035 
  -59871   -59716   -59557   -59380   -59210   -59045   -58869   -58712 
  -58590   -58467   -58323   -58175   -58040   -57933   -57829   -57708 
  -57620   -57563   -57492   -57424   -57357   -57289   -57266   -57265 
  -57243   -57237   -57268   -57308   -57350   -57392   -57442   -57520 
  -57603   -57666   -57748   -57864   -57972   -58055   -58126   -58208 
  -58308   -58423   -58543   -58657   -58764   -58862   -58939   -59010 
  -59098   -59188   -59282   -59384   -59455   -59499   -59566   -59643 
  -59673   -59671   -59681   -59695   -59703   -59699   -59679   -59653 
  -59611   -59549   -59485   -59430   -59384   -59331   -59265   -59209 
  -59147   -59061   -58997   -58948   -58890   -58858   -58834   -58792 
  -58770   -58769   -58767   -58751   -58716   -58691   -58697   -58709 
  -58718   -58733   -58748   -58777   -58813   -58820   -58824   -58865 
  -58913   -58945   -58979   -59015   -59053   -59096   -59133   -59170 
  -59218   -59261   -59284   -59301   -59320   -59340   -59342   -59327 
  -59317   -59311   -59311   -59305   -59270   -59242   -59235   -59186 
  -59105   -59056   -59021   -58977   -58936   -58886   -58838   -58798 
  -58747   -58692   -58639   -58579   -58513   -58456   -58408   -58357 
  -58305   -58256   -58204   -58151   -58106   -58071   -58040   -58008 
  -57984   -57987   -58000   -58001   -57993   -57992   -58024   -58081 
  -58111   -58131   -58178   -58239   -58319   -58411   -58473   -58525 
  -58605   -58699   -58789   -58868   -58944   -59034   -59133   -59231 
  -59328   -59417   -59486   -59545   -59609   -59670   -59727   -59782 
  -59828   -59870   -59915   -59941   -59954   -59969   -59966   -59971 
  -60003   -60018   -60001   -59976   -59951   -59928   -59891   -59842 
  -59806   -59774   -59730   -59668   -59600   -59547   -59481   -59381 
  -59286   -59196   -59102   -59026   -58936   -58823   -58732   -58645 
  -58536   -58438   -58351   -58262   -58189   -58137   -58067   -57970 
  -57885   -57831   -57787   -57755   -57741   -57719   -57698   -57699 
  -57703   -57689   -57674   -57680   -57707   -57733   -57736   -57733 
  -57763   -57796   -57798   -57820   -57879   -57929   -57970   -58024 
  -58069   -58114   -58185   -58257   -58315   -58381   -58449   -58523 
  -58591   -58626   -58651   -58688   -58736   -58802   -58846   -58859 
  -58888   -58916   -58928   -58939   -58931   -58912   -58920   -58927 
  -58905   -58873   -58848   -58823   -58780   -58719   -58671   -58634 
  -58587   -58546   -58517   -58488   -58462   -58440   -58429   -58436 
  -58443   -58444   -58453   -58483   -58520   -58553   -58596   -58655 
  -58726   -58796   -58849   -58902   -58972   -59038   -59105   -59176 
  -59238   -59317   -59404   -59453   -59484   -59525   -59575   -59625 
  -59652   -59666   -59687   -59710   -59729   -59727   -59708   -59708 
  -59722   -59711   -59675   -59633   -59600   -59571   -59515   -59427 
  -59350   -59293   -59218   -59117   -59010   -58910   -58808   -58688 
  -58572   -58470   -58346   -58210   -58089   -57970   -57843   -57722 
  -57607   -57488   -57376   -57277   -57173   -57078   -57011   -56963 
  -56929   -56892   -56850   -56837   -56858   -56875   -56881   -56911 
  -56980   -57065   -57140   -57210   -57289   -57374   -57458   -57551 
  -57660   -57791   -57938   -58072   -58181   -58295   -58430   -58571 
  -58710   -58836   -58958   -59086   -59201   -59300   -59393   -59475 
  -59565   -59665   -59741   -59795   -59831   -59848   -59872   -59890 
  -59880   -59882   -59885   -59854   -59821   -59759   -59666   -59635 
  -59603   -59501   -59427   -59359   -59273   -59243   -59165   -59008 
  -58918   -58862   -58773   -58676   -58565   -58477   -58436   -58371 
  -58247   -58125   -58058   -58021   -57966   -57893   -57833   -57805 
  -57802   -57790   -57742   -57701   -57736   -57818   -57868   -57889 
  -57937   -58045   -58167   -58244   -58314   -58442   -58617   -58782 
  -58911   -59040   -59194   -59354   -59501   -59620   -59732   -59882 
  -60061   -60183   -60243   -60338   -60474   -60594   -60690   -60748 
  -60800   -60897   -60996   -61074   -61127   -61131   -61168   -61268 
  -61312   -61288   -61282   -61291   -61300   -61301   -61260   -61198 
  -61162   -61144   -61107   -61041   -60960   -60887   -60835   -60789 
  -60727   -60650   -60569   -60496   -60439   -60395   -60346   -60288 
  -60244   -60214   -60177   -60136   -60096   -60064   -60042   -60014 
  -59982   -59967   -59963   -59958   -59941   -59908   -59873   -59846 
  -59832   -59815   -59765   -59715   -59705   -59679   -59623   -59567 
  -59509   -59479   -59461   -59396   -59322   -59264   -59183   -59110 
  -59071   -59014   -58935   -58866   -58800   -58733   -58665   -58588 
  -58514   -58465   -58435   -58394   -58350   -58322   -58284   -58230 
  -58207   -58217   -58215   -58209   -58215   -58224   -58222   -58202 
  -58206   -58253   -58269   -58246   -58240   -58241   -58232   -58209 
  -58177   -58157   -58145   -58127   -58090   -58031   -57976   -57933 
  -57885   -57829   -57786   -57768   -57740   -57665   -57593   -57566 
  -57543   -57519   -57506   -57488   -57471   -57470   -57500   -57540 
  -57563   -57587   -57613   -57640   -57717   -57840   -57945   -58022 
  -58100   -58191   -58301   -58436   -58566   -58688   -58827   -58973 
  -59124   -59294   -59454   -59603   -59770   -59920   -60048   -60211 
  -60394   -60550   -60709   -60863   -60981   -61095   -61214   -61320 
  -61429   -61529   -61616   -61717   -61807   -61860   -61896   -61934 
  -61965   -61972   -61982   -62013   -62031   -62014   -61975   -61932 
  -61896   -61857   -61799   -61729   -61635   -61512   -61397   -61286 
  -61148   -60989   -60825   -60669   -60538   -60399   -60229   -60062 
  -59914   -59782   -59669   -59544   -59410   -59310   -59233   -59151 
  -59063   -58976   -58909   -58879   -58858   -58810   -58756   -58732 
  -58734   -58735   -58734   -58744   -58762   -58789   -58827   -58846 
  -58859   -58912   -58969   -59003   -59047   -59099   -59143   -59194 
  -59254   -59305   -59336   -59357   -59377   -59405   -59452   -59486 
  -59480   -59463   -59448   -59422   -59406   -59406   -59411   -59412 
  -59384   -59358   -59370   -59382   -59367   -59351   -59355   -59376 
  -59408   -59441   -59471   -59496   -59509   -59534   -59599   -59657 
  -59688   -59726   -59780   -59863   -59931   -59923   -59936   -60031 
  -60114   -60154   -60204   -60274   -60335   -60353   -60354   -60392 
  -60447   -60477   -60514   -60558   -60558   -60540   -60542   -60518 
  -60467   -60454   -60465   -60440   -60385   -60327   -60268   -60198 
  -60112   -60023   -59937   -59849   -59753   -59639   -59514   -59397 
  -59285   -59162   -59041   -58944   -58840   -58694   -58547   -58436 
  -58330   -58211   -58118   -58049   -57970   -57890   -57843   -57803 
  -57736   -57696   -57694   -57672   -57646   -57654   -57674   -57701 
  -57731   -57763   -57823   -57910   -58011   -58131   -58260   -58384 
  -58506   -58649   -58810   -58957   -59102   -59274   -59437   -59578 
  -59717   -59866   -60024   -60164   -60285   -60402   -60490   -60558 
  -60657   -60765   -60829   -60873   -60934   -60998   -61039   -61075 
  -61110   -61123   -61146   -61193   -61222   -61233   -61254   -61276 
  -61272   -61242   -61230   -61258   -61274   -61237   -61189   -61191 
  -61223   -61230   -61201   -61176   -61192   -61209   -61182   -61150 
  -61134   -61125   -61125   -61111   -61088   -61091   -61090   -61054 
  -61033   -61050   -61062   -61058   -61050   -61040   -61031   -61022 
  -61006   -60996   -61007   -61014   -61003   -60991   -60972   -60931 
  -60894   -60876   -60855   -60810   -60749   -60686   -60624   -60564 
  -60501   -60430   -60346   -60244   -60124   -59983   -59842   -59735 
  -59638   -59493   -59323   -59176   -59023   -58857   -58699   -58537 
  -58369   -58212   -58055   -57895   -57750   -57587   -57407   -57261 
  -57111   -56925   -56770   -56653   -56526   -56402   -56289   -56201 
  -56143   -56074   -55995   -55937   -55897   -55869   -55839   -55814 
  -55824   -55826   -55815   -55844   -55883   -55917   -55983   -56060 
  -56130   -56220   -56328   -56440   -56557   -56672   -56773   -56873 
  -56990   -57103   -57199   -57288   -57358   -57413   -57483   -57572 
  -57644   -57668   -57681   -57724   -57776   -57799   -57795   -57806 
  -57842   -57876   -57885   -57882   -57896   -57907   -57895   -57888 
  -57903   -57925   -57934   -57931   -57928   -57920   -57911   -57902 
  -57896   -57922   -57956   -57957   -57976   -58038   -58079   -58102 
  -58157   -58246   -58347   -58433   -58500   -58568   -58644   -58742 
  -58854   -58924   -58986   -59098   -59210   -59264   -59292   -59358 
  -59465   -59556   -59613   -59670   -59722   -59758   -59806   -59852 
  -59870   -59900   -59935   -59954   -59968   -59947   -59908   -59913 
  -59929   -59930   -59945   -59943   -59912   -59897   -59894   -59905 
  -59933   -59948   -59944   -59932   -59925   -59934   -59916   -59873 
  -59866   -59872   -59853   -59833   -59808   -59774   -59759   -59762 
  -59760   -59741   -59722   -59727   -59722   -59693   -59698   -59764 
  -59795   -59744   -59712   -59746   -59784   -59781   -59778   -59824 
  -59877   -59890   -59881   -59908   -59987   -60044   -60056   -60080 
  -60143   -60223   -60263   -60275   -60321   -60368   -60379   -60374 
  -60360   -60364   -60386   -60372   -60340   -60327   -60311   -60293 
  -60277   -60269   -60286   -60278   -60235   -60199   -60167   -60140 
  -60123   -60079   -60017   -59977   -59928   -59840   -59754   -59698 
  -59652   -59592   -59519   -59448   -59386   -59333   -59258   -59167 
  -59111   -59073   -59007   -58941   -58898   -58852   -58808   -58796 
  -58791   -58773   -58765   -58759   -58754   -58768   -58792   -58815 
  -58830   -58841   -58852   -58854   -58872   -58921   -58955   -58962 
  -58986   -59014   -59018   -59013   -59011   -59011   -59011   -58994 
  -58957   -58931   -58906   -58847   -58783   -58739   -58706   -58685 
  -58640   -58555   -58483   -58439   -58406   -58366   -58304   -58257 
  -58241   -58220   -58186   -58150   -58126   -58136   -58172   -58200 
  -58202   -58205   -58245   -58298   -58315   -58314   -58329   -58359 
  -58392   -58431   -58479   -58513   -58531   -58568   -58614   -58667 
  -58761   -58856   -58919   -58991   -59079   -59153   -59225   -59314 
  -59403   -59468   -59523   -59605   -59710   -59808   -59881   -59922 
  -59964   -60021   -60039   -60038   -60077   -60113   -60110   -60085 
  -60032   -59979   -59970   -59966   -59919   -59848   -59785   -59726 
  -59657   -59578   -59485   -59376   -59274   -59198   -59111   -58985 
  -58861   -58761   -58651   -58531   -58416   -58301   -58191   -58084 
  -57975   -57874   -57801   -57728   -57634   -57565   -57512   -57443 
  -57399   -57377   -57337   -57314   -57331   -57345   -57348   -57389 
  -57466   -57523   -57577   -57660   -57738   -57816   -57922   -58039 
  -58158   -58280   -58401   -58524   -58661   -58814   -58951   -59076 
  -59228   -59390   -59524   -59652   -59787   -59920   -60053   -60179 
  -60303   -60421   -60520   -60619   -60719   -60792   -60845   -60903 
  -60957   -60991   -61009   -61016   -61008   -60988   -60953   -60903 
  -60845   -60792   -60737   -60641   -60521   -60418   -60306   -60165 
  -60014   -59860   -59711   -59553   -59386   -59235   -59084   -58929 
  -58782   -58627   -58470   -58337   -58214   -58091   -57981   -57874 
  -57777   -57696   -57610   -57532   -57469   -57396   -57342   -57319 
  -57275   -57226   -57202   -57177   -57153   -57148   -57154   -57150 
  -57136   -57152   -57179   -57170   -57152   -57172   -57216   -57265 
  -57301   -57317   -57336   -57371   -57394   -57406   -57420   -57428 
  -57443   -57463   -57464   -57458   -57472   -57486   -57488   -57505 
  -57523   -57524   -57528   -57542   -57553   -57549   -57561   -57587 
  -57587   -57581   -57599   -57619   -57630   -57627   -57636   -57676 
  -57721   -57763   -57816   -57879   -57939   -58003   -58077   -58155 
  -58243   -58322   -58373   -58430   -58500   -58563   -58635   -58695 
  -58729   -58771   -58821   -58867   -58921   -58959   -58977   -59009 
  -59027   -59005   -58989   -58994   -58981   -58949   -58920   -58884 
  -58845   -58809   -58767   -58722   -58674   -58637   -58609   -58558 
  -58509   -58481   -58428   -58384   -58380   -58331   -58270   -58299 
  -58333   -58302   -58286   -58309   -58335   -58364   -58390   -58408 
  -58431   -58468   -58498   -58519   -58563   -58621   -58678   -58766 
  -58845   -58893   -58983   -59099   -59188   -59278   -59362   -59437 
  -59546   -59657   -59739   -59812   -59887   -59973   -60041   -60071 
  -60115   -60181   -60229   -60256   -60254   -60246   -60268   -60293 
  -60297   -60286   -60260   -60239   -60218   -60173   -60122   -60079 
  -60035   -59985   -59908   -59804   -59708   -59626   -59554   -59475 
  -59371   -59273   -59207   -59147   -59085   -59049   -59029   -59007 
  -58982   -58955   -58934   -58939   -58966   -58982   -58979   -58996 
  -59026   -59028   -59030   -59051   -59070   -59101   -59132   -59138 
  -59143   -59155   -59163   -59181   -59205   -59214   -59214   -59230 
  -59276   -59328   -59342   -59332   -59373   -59460   -59508   -59512 
  -59525   -59566   -59634   -59672   -59664   -59692   -59781   -59853 
  -59876   -59872   -59879   -59935   -60011   -60045   -60045   -60072 
  -60136   -60201   -60237   -60243   -60251   -60287   -60333   -60364 
  -60387   -60395   -60395   -60422   -60457   -60470   -60463   -60442 
  -60419   -60407   -60389   -60349   -60286   -60215   -60167   -60131 
  -60065   -59963   -59864   -59795   -59709   -59571   -59451   -59380 
  -59296   -59184   -59060   -58937   -58839   -58758   -58669   -58581 
  -58506   -58431   -58363   -58310   -58265   -58232   -58208   -58182 
  -58157   -58137   -58133   -58159   -58198   -58235   -58280   -58328 
