Origin Time       2011/03/11 14:46:00
Lat.              38.103
Long.             142.860
Depth. (km)       24
Mag.              9.0
Station Code      TYM004
Station Lat.      36.8626
Station Long.     137.5274
Station Height(m) 116
Record Time       2011/03/11 14:48:52
Sampling Freq(Hz) 100Hz
Duration Time(s)  193
Dir.              U-D
Scale Factor      3920(gal)/6182761
Max. Acc. (gal)   4.087
Last Correction   2011/03/11 14:48:37
Memo.             
[...]
    2964     2989     3035     3177     3430     3631     3714     3714 
    3624     3539     3641     3865     3982     4015     4125     4228 
    4209     4208     4320     4428     4476     4506     4562     4622 
    4601     4492     4388     4323     4268     4240     4266     4283 
    4215     4064     3908     3866     3958     4057     4127     4204 
    4233     4230     4323     4517     4738     4934     5085     5228 
    5357     5471     5688     5994     6219     6390     6630     6935 
    7282     7625     7898     8137     8308     8306     8218     8185 
    8190     8199     8210     8182     8104     8003     7922     7958 
    8118     8222     8223     8263     8358     8427     8498     8617 
    8700     8654     8567     8552     8545     8515     8526     8498 
    8315     8093     7988     7921     7758     7555     7376     7163 
    6962     6907     6948     6938     6889     6907     6993     7035 
    6979     6896     6838     6758     6649     6581     6577     6605 
    6623     6643     6718     6777     6739     6692     6665     6590 
    6532     6537     6503     6422     6384     6393     6408     6406 
    6376     6333     6274     6200     6176     6196     6174     6120 
    6036     5867     5716     5678     5667     5659     5688     5673 
    5585     5541     5638     5842     6031     6137     6170     6152 
    6140     6155     6132     6059     5974     5895     5854     5838 
    5778     5693     5648     5594     5473     5360     5349     5417 
    5482     5508     5530     5579     5667     5784     5864     5873 
    5864     5830     5713     5625     5723     5875     5864     5791 
    5807     5807     5760     5813     5923     5945     5935     6005 
    6130     6204     6182     6164     6178     6130     6119     6290 
    6490     6519     6456     6429     6399     6345     6375     6498 
    6581     6603     6664     6784     6900     6966     6959     6912 
    6904     6949     7017     7093     7135     7137     7180     7268 
    7345     7449     7567     7564     7421     7273     7221     7279 
    7382     7445     7462     7459     7439     7413     7386     7330 
    7251     7168     7041     6868     6766     6732     6636     6515 
    6431     6306     6162     6102     6092     6050     5969     5918 
    5953     6002     6009     6056     6176     6268     6231     6105 
    6062     6155     6266     6387     6577     6743     6768     6675 
    6635     6785     6989     7041     7055     7246     7506     7630 
    7724     7929     8080     8029     7939     7959     7937     7745 
    7547     7554     7695     7748     7667     7502     7209     6865 
    6737     6932     7268     7473     7351     6965     6591     6369 
    6222     6105     6028     5910     5646     5317     5132     5086 
    4880     4462     4189     4157     4082     3929     3883     3872 
    3739     3574     3488     3463     3453     3362     3190     3103 
    3080     2978     2847     2742     2667     2698     2774     2736 
    2634     2596     2588     2638     2843     3082     3230     3419 
    3669     3765     3752     3896     4167     4344     4415     4523 
    4711     4936     5136     5279     5402     5491     5481     5445 
    5502     5635     5756     5754     5587     5457     5546     5680 
    5737     5866     5979     5834     5622     5586     5559     5457 
    5428     5459     5428     5341     5306     5350     5360     5321 
    5357     5437     5400     5365     5581     5883     5933     5818 
    5840     6035     6230     6426     6746     6942     6788     6709 
    6975     7176     7142     7182     7385     7511     7415     7276 
    7361     7582     7624     7555     7690     7894     7833     7695 
    7840     8130     8272     8254     8142     8015     7947     7904 
    7913     7966     7866     7671     7701     7926     8108     8277 
    8504     8603     8481     8424     8599     8708     8617     8669 
    8920     9054     9112     9301     9500     9543     9485     9492 
    9675     9937    10092    10153    10295    10543    10781    11000 
   11238    11457    11608    11699    11826    12050    12218    12183 
   12093    12080    12015    11862    11760    11676    11491    11252 
   11074    10984    10887    10685    10402    10105     9888     9821 
    9766     9627     9524     9418     9184     8930     8731     8513 
    8305     8159     8016     7851     7675     7445     7234     7151 
    7070     6906     6801     6772     6690     6633     6738     6841 
    6760     6664     6741     6937     7117     7190     7243     7367 
    7392     7318     7432     7680     7829     7963     8163     8338 
    8481     8559     8539     8587     8747     8842     8894     9014 
    9083     9024     8991     9073     9204     9317     9418     9549 
    9642     9592     9523     9603     9757     9851     9863     9832 
    9805     9779     9800     9969    10141    10145    10170    10367 
   10602    10776    10854    10848    10876    10950    10974    10958 
   10950    10862    10677    10541    10471    10328    10085     9835 
    9639     9525     9470     9349     9034     8646     8459     8402 
    8184     7959     7965     7896     7618     7544     7691     7650 
    7438     7351     7367     7234     6938     6749     6752     6746 
    6636     6582     6639     6591     6387     6300     6407     6499 
    6476     6391     6283     6170     6033     5862     5771     5852 
    5936     5879     5797     5765     5734     5736     5790     5819 
    5781     5685     5570     5556     5695     5871     5990     6143 
    6407     6651     6791     6953     7169     7331     7465     7638 
    7761     7800     7873     7944     7927     7926     8014     8157 
    8349     8528     8623     8655     8653     8698     8886     9145 
    9308     9323     9287     9290     9325     9398     9513     9596 
    9560     9387     9181     9059     8955     8807     8713     8674 
    8573     8397     8250     8212     8178     8014     7841     7756 
    7661     7545     7472     7434     7401     7331     7171     6968 
    6874     6925     6953     6889     6851     6852     6823     6816 
    6875     6956     7005     6958     6907     7091     7417     7588 
    7725     7971     8015     7820     7830     8069     8146     8062 
    8064     8071     7973     7974     8119     8150     7961     7700 
    7530     7487     7456     7366     7269     7138     6898     6677 
    6646     6742     6821     6806     6662     6442     6273     6219 
    6220     6181     6098     5976     5810     5706     5677     5581 
    5447     5393     5377     5346     5337     5394     5481     5483 
    5381     5321     5392     5507     5542     5504     5500     5510 
    5456     5446     5540     5609     5710     5891     5898     5736 
    5732     5856     5904     6008     6187     6182     6041     6038 
    6144     6245     6381     6468     6380     6318     6457     6626 
    6734     6851     6883     6812     6886     7167     7493     7846 
    8153     8180     8053     8171     8531     8865     9145     9438 
    9644     9661     9644     9850    10188    10360    10427    10618 
   10829    10847    10788    10866    10992    11003    11046    11246 
   11381    11309    11186    11075    10929    10825    10743    10546 
   10314    10134     9893     9584     9350     9202     9027     8826 
    8657     8472     8239     8047     7935     7802     7609     7439 
    7323     7219     7129     7074     6994     6787     6513     6389 
    6452     6469     6325     6194     6180     6160     6110     6153 
    6275     6309     6185     6054     6097     6248     6347     6412 
    6476     6516     6546     6497     6365     6356     6507     6626 
    6642     6571     6417     6307     6338     6434     6501     6535 
    6530     6443     6303     6237     6289     6344     6287     6213 
    6294     6415     6347     6183     6142     6209     6238     6200 
    6194     6231     6225     6235     6349     6469     6517     6586 
    6773     7021     7232     7405     7511     7539     7597     7705 
    7790     7841     7849     7813     7756     7655     7497     7357 
    7325     7381     7444     7482     7483     7467     7524     7659 
    7757     7823     7933     8028     8063     8079     8036     7945 
    7904     7855     7734     7653     7642     7625     7608     7590 
    7564     7612     7706     7688     7569     7511     7555     7623 
    7725     7915     8100     8126     8024     7999     8156     8350 
    8437     8463     8450     8397     8396     8457     8542     8669 
    8729     8662     8658     8749     8762     8671     8567     8501 
    8468     8425     8369     8301     8194     8100     8050     7977 
    7907     7914     7939     7897     7828     7831     7883     7837 
    7684     7595     7596     7517     7384     7389     7473     7426 
    7262     7119     7043     7024     7041     7085     7156     7223 
    7247     7259     7316     7394     7440     7506     7620     7688 
    7708     7791     7932     8041     8120     8192     8273     8372 
    8409     8403     8498     8610     8566     8466     8455     8459 
    8388     8308     8266     8176     8053     8024     8018     7925 
    7852     7860     7841     7766     7661     7504     7366     7310 
    7229     7079     6959     6817     6538     6268     6183     6190 
    6154     6104     6110     6118     6040     5964     5998     6031 
    5959     5835     5683     5540     5500     5459     5255     5018 
    4889     4772     4638     4620     4706     4714     4554     4333 
    4186     4125     4119     4116     4010     3814     3654     3584 
    3608     3694     3756     3758     3735     3791     3991     4231 
    4427     4591     4653     4644     4746     4946     5089     5207 
    5377     5490     5485     5509     5620     5702     5728     5742 
    5745     5782     5870     5900     5860     5906     6063     6172 
    6171     6110     6005     5902     5850     5792     5734     5744 
    5732     5641     5603     5641     5601     5463     5395     5427 
    5397     5293     5267     5315     5306     5255     5318     5470 
    5507     5437     5479     5656     5764     5718     5638     5615 
    5626     5666     5756     5895     6011     5977     5861     5912 
    6087     6152     6147     6202     6243     6197     6086     5964 
    5908     5876     5786     5680     5578     5455     5322     5139 
    4948     4850     4723     4467     4268     4241     4252     4241 
    4290     4377     4347     4179     4091     4208     4336     4326 
    4302     4289     4229     4210     4248     4290     4342     4342 
    4298     4341     4462     4555     4580     4553     4536     4571 
    4651     4810     5030     5160     5133     5093     5127     5145 
    5155     5214     5213     5155     5212     5354     5476     5585 
    5602     5482     5399     5478     5611     5629     5524     5473 
    5545     5591     5568     5578     5569     5442     5335     5416 
    5577     5593     5441     5282     5187     5099     5055     5085 
    5059     4968     4933     4915     4863     4817     4782     4790 
    4910     5104     5194     5062     4846     4755     4790     4857 
    4919     4924     4844     4744     4634     4547     4676     4943 
    4988     4861     4828     4869     5002     5261     5394     5282 
    5164     5206     5311     5368     5398     5429     5346     5016 
    4657     4678     4890     4733     4333     4192     4296     4458 
    4745     5165     5511     5530     5144     4698     4726     5223 
    5516     5114     4336     3703     3258     3079     3350     3701 
    3740     3581     3296     3144     3669     4407     4335     3739 
    3407     3312     3450     3808     3887     3606     3249     2827 
    2708     3468     4531     4810     4624     4798     4603     3329 
    2415     3179     4594     5257     5022     4189     3295     3091 
    3769     5026     6005     5372     3587     2985     4134     5559 
    6479     6802     6210     4748     3443     3573     4713     5123 
    4529     4043     4216     4773     5221     5524     5832     5463 
    4001     2679     2574     3117     3779     4680     5052     3983 
    2439     2114     3240     4699     5151     4261     3206     3164 
    4064     5301     6238     6181     5025     3526     2794     3429 
    4664     5160     4645     3721     2924     2800     3784     5286 
    5919     5207     4074     3634     4193     5091     5648     5937 
    5884     5154     4350     4299     4943     5804     6062     5433 
    5012     5174     5000     4686     5068     5539     5307     4960 
    5049     5217     5328     5322     4711     4042     4757     6414 
    6952     6173     5806     6144     5947     5475     5964     6612 
    5838     4463     4352     5347     6028     5951     5581     5273 
    4963     4539     4508     5147     5372     4582     3910     3817 
    3424     2887     3243     4144     4402     3957     3392     2783 
    2378     2866     3964     4468     4201     3938     3507     2382 
    1620     2313     3441     3689     3165     2242     1233      819 
    1259     2303     3577     3985     2657      934      915     2257 
    2777     1784      666      515     1060     1878     2766     2887 
    1631      104     -252      495     1410     1859     1771     1437 
    1163     1210     1556     1814     1904     2037     2117     2245 
    2734     2950     2265     1771     2397     3053     3013     3099 
    3394     3303     3179     3325     3401     3599     4030     3892 
    3011     2358     2448     3074     3958     4661     4833     4387 
    3368     2398     2376     3392     4569     4779     3935     3220 
    3228     3906     5426     6705     6378     5240     4245     3464 
    3992     5987     7104     6401     5596     5564     5813     6275 
    6762     6625     5960     5563     5893     6706     7280     7065 
    6344     5935     6072     6350     6655     6879     6571     5953 
    5788     6138     6509     6607     6447     6170     5935     5854 
    5771     5614     5738     6022     5897     5519     5243     5036 
    5055     5281     5427     5599     5712     5399     4852     4510 
    4601     5040     5428     5732     5998     5771     5177     5059 
    5538     5933     5776     5244     4870     4896     5105     5389 
    5629     5349     4622     4385     5097     6057     6278     5558 
    4630     4344     4785     5330     5594     5641     5294     4493 
    3956     4221     4657     4400     3665     3360     3688     3937 
    3957     4527     5411     5281     4297     3956     4407     4495 
    4101     4196     4670     4413     3514     3248     4130     5103 
    4859     3849     3603     4114     4392     4615     5248     5723 
    5415     4540     3928     4205     4903     5171     5144     5377 
    5698     5598     5101     4633     4427     4388     4428     4741 
    5351     5685     5400     4962     4727     4529     4341     4417 
    4966     5688     5945     5854     5794     5310     4364     3970 
    4560     5371     5599     5317     5080     5101     5231     5383 
    5662     5977     5731     4807     4238     4664     5374     5752 
    6004     6099     5798     5532     5707     5933     5869     5653 
    5420     5450     6036     6638     6652     6369     5859     4965 
    4480     4805     5159     5353     5524     5163     4525     4423 
    4676     4938     5314     5575     5460     5085     4590     4251 
    4327     4393     4093     4086     4756     5277     5080     4586 
    4137     3559     2971     3272     4803     6013     5433     3841 
    2765     2745     3535     4455     4805     4516     3931     3217 
    2601     2502     2781     2786     2341     1854     1824     2512 
    3367     3301     2315     1510     1332     1615     2182     2428 
    2166     1871     1484     1114     1459     2313     2837     2812 
    2350     1796     1712     2051     2322     2462     2727     3172 
    3599     3799     3826     3609     2773     1795     1856     2835 
    3693     4291     4779     4547     3358     2392     2944     4512 
    5465     5266     4562     4003     3944     4316     4708     4816 
    4708     4875     5432     5782     5838     5998     6259     6612 
    6643     5692     4902     5914     7494     7421     6377     6376 
    7131     7314     7438     8212     8400     7017     5331     5173 
    6728     8448     8646     7387     6320     6309     6850     7482 
    7654     6683     5244     4997     6434     7982     7628     5764 
    4581     4708     5540     6830     7627     7057     6310     6422 
    6098     4955     5183     7167     8195     7316     6718     7291 
    7270     6041     5169     5601     6553     6565     5606     5507 
    6325     5853     4082     3111     3574     4527     5138     5644 
    6389     6201     4322     2334     1910     3362     5730     6665 
    5386     4216     4204     3929     3404     3812     4725     4849 
    3900     3156     3929     5266     5358     4443     3899     4225 
    4899     5064     4536     3487     1874      991     2653     5954 
    8014     7338     5218     3870     3184     2124     2188     4311 
    5940     5554     4825     4760     4359     3185     2632     3736 
    5130     5244     4691     4512     4442     3990     3610     4312 
    5904     6722     6262     5364     4036     2542     2214     3205 
    4641     5892     6037     5096     4466     4263     3906     4138 
    4894     4671     3568     3267     4135     4937     4720     3598 
    2302     1684     2296     3771     4834     4601     3585     3302 
    4523     5823     5877     5794     6361     6472     5952     5788 
    5977     5860     5501     5701     6814     8011     8351     7988 
    7726     7877     8181     8494     8698     8446     7860     7708 
    8111     8228     7767     7460     7954     8913     9320     8920 
    8408     8007     7766     8211     9082     9403     9210     9260 
    9353     8674     7736     8020     9485    10486    10022     8525 
    6924     5951     6159     7668     9423     9803     8657     7486 
    7322     7818     8437     9058     9299     8536     7215     6931 
    8022     8983     9174     9201     8969     8202     7589     7885 
    8764     9091     8427     7513     7036     7075     7541     8221 
    8670     8482     7737     7100     7134     7371     6975     6266 
    6036     6322     6974     7588     7349     6440     5908     6075 
    6705     7568     8173     8028     7271     6770     7276     8256 
    8507     7926     7400     7314     7380     7458     7645     7948 
    8053     7728     7594     8125     8406     7728     6989     7304 
    8437     9097     8666     7823     7080     6371     6168     7088 
    8439     8784     8021     7468     7718     8020     7867     7486 
    7004     6583     6568     7014     7769     8379     8178     7484 
    7322     7839     8456     8795     8804     8643     8364     8025 
    8116     8571     8531     8165     8197     8175     7865     7978 
