Origin Time       2011/03/11 14:46:00
Lat.              38.103
Long.             142.860
Depth. (km)       24
Mag.              9.0
Station Code      TYM007
Station Lat.      36.6687
Station Long.     137.2123
Station Height(m) 17
Record Time       2011/03/11 14:49:00
Sampling Freq(Hz) 100Hz
Duration Time(s)  194
Dir.              N-S
Scale Factor      3920(gal)/6182761
Max. Acc. (gal)   10.219
Last Correction   2011/03/11 14:48:45
Memo.             
[...]
   12624    12658    12700    12778    12836    12879    12985    13108 
   13200    13347    13570    13805    14040    14301    14656    15035 
   15260    15477    15790    15931    15958    16084    16112    16038 
   16046    16024    15994    16093    16189    16202    16235    16291 
   16329    16384    16452    16465    16409    16358    16392    16425 
   16324    16206    16172    16110    15964    15800    15689    15629 
   15550    15465    15423    15356    15245    15196    15182    15096 
   14972    14915    14917    14891    14841    14830    14820    14782 
   14801    14874    14921    14972    15036    15024    14949    14912 
   14877    14792    14755    14775    14726    14587    14471    14430 
   14353    14206    14110    14110    14111    14043    14000    14026 
   14027    13992    14000    14098    14217    14255    14253    14251 
   14223    14217    14236    14199    14147    14094    13973    13859 
   13795    13699    13663    13723    13744    13748    13777    13786 
   13802    13804    13761    13740    13698    13584    13502    13445 
   13360    13283    13171    13063    13041    13009    12948    12896 
   12807    12753    12750    12679    12576    12483    12351    12202 
   12045    11855    11647    11483    11403    11311    11161    11044 
   10966    10879    10789    10676    10543    10405    10248    10089 
    9930     9771     9621     9391     9126     8960     8801     8579 
    8379     8219     8095     7979     7840     7760     7737     7675 
    7582     7497     7417     7357     7319     7264     7219     7237 
    7289     7316     7302     7286     7302     7331     7347     7332 
    7290     7228     7151     7071     6953     6795     6666     6551 
    6421     6367     6386     6384     6380     6395     6431     6483 
    6504     6551     6640     6631     6559     6511     6430     6319 
    6177     6008     5905     5814     5653     5489     5337     5223 
    5154     5042     4986     5060     5085     5072     5118     5191 
    5331     5403     5310     5334     5521     5632     5675     5728 
    5817     5935     5989     6050     6156     6189     6202     6285 
    6414     6529     6559     6569     6600     6590     6575     6594 
    6555     6459     6434     6496     6537     6483     6440     6504 
    6594     6688     6796     6863     6901     6967     7049     7054 
    6995     6978     6924     6775     6658     6565     6410     6238 
    6104     5980     5819     5586     5324     5114     4893     4624 
    4422     4243     3990     3705     3427     3172     2929     2700 
    2537     2412     2288     2235     2199     2069     1944     1900 
    1876     1818     1714     1667     1684     1614     1543     1512 
    1392     1334     1418     1372     1168     1076     1069      918 
     706      639      662      584      386      247      210      152 
      37      -85     -168     -230     -323     -413     -488     -614 
    -719     -734     -817    -1016    -1137    -1155    -1215    -1295 
   -1309    -1280    -1222    -1149    -1092    -1018     -933     -873 
    -798     -733     -672     -508     -318     -208     -102       18 
     129      241      328      390      434      474      568      667 
     670      666      733      785      796      799      825      868 
     850      828      899      914      813      777      771      680 
     623      616      560      489      488      562      608      615 
     732      930     1031     1115     1303     1481     1627     1805 
    1942     2006     2037     2082     2166     2218     2230     2280 
    2331     2339     2368     2431     2464     2477     2506     2555 
    2635     2714     2785     2899     3003     3055     3131     3217 
    3270     3335     3403     3430     3454     3501     3525     3501 
    3469     3444     3426     3407     3350     3319     3361     3373 
    3360     3416     3495     3541     3622     3783     3950     4079 
    4208     4376     4611     4795     4880     5037     5252     5396 
    5554     5736     5848     5976     6153     6247     6291     6382 
    6486     6583     6666     6748     6831     6890     7044     7268 
    7382     7491     7663     7772     7871     8000     8090     8136 
    8169     8241     8295     8231     8244     8444     8548     8534 
    8661     8825     8873     8926     9055     9233     9395     9476 
    9521     9576     9624     9660     9643     9588     9595     9597 
    9546     9527     9501     9466     9477     9444     9389     9417 
    9450     9431     9433     9471     9516     9541     9543     9577 
    9633     9641     9664     9745     9735     9627     9618     9722 
    9783     9772     9744     9728     9738     9758     9769     9790 
    9833     9847     9803     9761     9727     9681     9692     9716 
    9661     9634     9662     9570     9425     9448     9528     9511 
    9548     9691     9778     9838     9946     9985     9935     9931 
    9991     9994     9945    10016    10185    10237    10229    10365 
   10536    10586    10635    10736    10768    10725    10691    10631 
   10495    10373    10360    10416    10461    10459    10455    10564 
   10736    10813    10893    11091    11268    11350    11419    11516 
   11583    11573    11550    11545    11559    11600    11535    11407 
   11423    11453    11402    11407    11359    11158    10999    10936 
   10793    10563    10401    10312    10172     9958     9804     9785 
    9805     9790     9781     9843     9932    10002    10122    10302 
   10452    10546    10691    10885    10965    10995    11134    11267 
   11306    11407    11599    11744    11884    12105    12308    12428 
   12555    12738    12905    13048    13165    13197    13218    13284 
   13344    13397    13480    13608    13704    13726    13759    13821 
   13885    13973    14044    14101    14234    14370    14382    14386 
   14453    14478    14493    14565    14652    14731    14793    14813 
   14797    14780    14800    14851    14864    14859    14872    14838 
   14812    14848    14838    14807    14811    14744    14606    14518 
   14452    14371    14371    14405    14405    14439    14474    14497 
   14593    14719    14780    14833    14941    15041    15146    15295 
   15461    15662    15884    16131    16437    16732    16952    17172 
   17429    17595    17650    17721    17794    17780    17742    17749 
   17729    17656    17630    17619    17512    17395    17350    17276 
   17136    16968    16773    16637    16581    16496    16472    16622 
   16765    16774    16739    16695    16644    16698    16876    17056 
   17227    17428    17593    17672    17706    17763    17808    17774 
   17725    17672    17501    17176    16816    16547    16296    16002 
   15753    15559    15368    15155    14931    14787    14758    14824 
   14962    15079    15142    15162    15099    14981    14869    14753 
   14630    14515    14351    14097    13815    13552    13424    13616 
   13975    14152    14146    14156    14238    14369    14532    14748 
   14997    15155    15061    14673    14178    13745    13362    13119 
   13310    14021    14823    15214    15211    15075    14853    14546 
   14245    14054    14050    14167    14259    14325    14406    14447 
   14382    14176    13921    13744    13523    13077    12472    11994 
   11957    12288    12599    12781    12965    13110    12991    12516 
   11921    11486    11346    11537    11877    12112    12391    13012 
   13795    14364    14604    14344    13381    11829    10061     8534 
    7610     7371     7742     8698    10051    11244    11851    11941 
   11731    11209    10244     9089     8376     8301     8455     8663 
    9097     9636     9927     9850     9549     9243     9128     9326 
    9728    10024     9969     9707     9703    10007    10143    10060 
   10188    10469    10306     9306     7646     5972     5023     5034 
    5514     5911     6340     7019     7584     7636     7246     6849 
    6907     7467     8148     8573     8704     8711     8677     8649 
    8660     8579     8179     7436     6617     5840     5141     4893 
    5308     6056     6719     7088     7224     7343     7582     8012 
    8703     9630    10555    11114    11206    10950    10298     9345 
    8500     8045     8042     8324     8543     8451     7967     7249 
    6608     6137     5899     6122     6562     6542     6015     5684 
    6070     6896     7512     7858     8498     9530    10184     9784 
    8629     7595     7146     6964     6494     5646     4791     4124 
    3489     2906     2661     2912     3509     4014     4053     3699 
    3232     2910     3097     3866     4657     4958     4835     4489 
    3852     3032     2542     2531     2610     2613     2546     2278 
    1994     2065     2310     2340     2284     2453     2877     3388 
    3682     3655     3594     3791     4268     4730     4844     4644 
    4319     3950     3614     3319     3073     2991     3104     3358 
    3656     3844     3914     3786     3220     2414     1757     1184 
     611      310      516     1209     2182     3062     3643     4170 
    4710     4934     4788     4485     4041     3328     2373     1530 
    1143     1090     1130     1386     1953     2537     2873     2945 
    2786     2463     2066     1814     2012     2508     2700     2208 
    1230      384       89       43     -254     -741    -1006     -940 
    -833     -818     -509      456     1747     2576     2603     2031 
    1155      343     -224     -481     -162      551     1070     1250 
    1190      857      248     -548    -1260    -1462    -1122     -699 
    -471     -338     -118      249      556      629      755     1273 
    1913     2104     1683     1076      723      449      -56     -514 
    -459       66      587      806      857      841      696      623 
     873     1265     1411     1274     1248     1566     2105     2790 
    3440     3691     3553     3349     3084     2586     1980     1429 
     858      166     -541     -890     -559      286     1176     1896 
    2540     3080     3305     3211     3002     2726     2335     2000 
    2028     2486     3104     3541     3570     3255     2863     2445 
    1990     1730     1815     2202     2844     3526     4012     4457 
    5075     5775     6318     6493     6386     6357     6571     6792 
    6759     6570     6385     5976     5135     4227     3652     3289 
    3101     3378     4089     4850     5444     5870     6206     6485 
    6552     6295     5801     5138     4414     3777     3289     3066 
    3302     3933     4588     4976     5066     5036     5169     5521 
    5895     6148     6214     5985     5365     4432     3528     3095 
    3253     3558     3641     3633     3628     3578     3531     3547 
    3752     4204     4624     4612     4057     3275     2645     2159 
    1712     1437     1390     1447     1579     1916     2586     3498 
    4439     5190     5466     5243     4811     4325     3806     3378 
    3193     3213     3173     2932     2683     2621     2823     3388 
    4287     5286     6128     6703     7047     7114     6842     6466 
    6252     6130     5962     5803     5688     5470     5084     4774 
    4727     4849     5160     5711     6177     6358     6527     6848 
    7191     7516     7866     8165     8328     8443     8539     8423 
    8161     8015     7874     7543     7171     7055     7301     7818 
    8432     8894     9023     8773     8258     7809     7652     7748 
    8003     8370     8864     9465    10056    10471    10557    10284 
    9726     9016     8352     7956     8002     8425     8941     9358 
    9685     9983    10373    10933    11450    11693    11805    12040 
   12338    12381    12150    11986    12019    12127    12129    11840 
   11366    11004    10862    10940    11247    11836    12818    13986 
   14841    15198    15170    14824    14175    13381    12851    12805 
   13042    13304    13338    13014    12558    12220    12015    11929 
   12049    12426    12903    13248    13427    13560    13577    13190 
   12371    11524    11039    10936    10984    10932    10691    10406 
   10305    10573    11335    12518    13858    15017    15621    15553 
   15162    14848    14680    14565    14453    14391    14470    14632 
   14810    15046    15286    15530    15805    15778    15115    13989 
   12692    11425    10622    10643    11407    12578    13847    15145 
   16347    16883    16353    15268    14592    14838    15926    17493 
   19059    20124    20360    19673    18205    16433    14963    14082 
   13775    13957    14302    14299    13722    12750    11841    11381 
   11308    11534    12340    13817    15453    16621    17262    17807 
   18610    19753    21033    21936    21986    21064    19447    17739 
   16563    16159    16339    16714    16818    16497    16025    15408 
   14456    13409    12678    12582    13441    15226    17299    18901 
   19500    18699    16566    13882    11482     9642     8431     8182 
    9183    11062    13034    14731    16289    17791    19182    20465 
   21672    22567    22570    21405    19531    17721    16398    15315 
   13944    12124    10284     8984     8654     9702    11960    14712 
   17515    19870    21029    20743    19306    17150    14771    12561 
   10815     9884     9875    10509    11411    12336    13207    14074 
   15168    16851    19237    21896    24097    25259    25061    23394 
   20393    16427    12273     9173     7989     8313     9193    10321 
   11880    13954    16214    17953    18760    18952    19136    19408 
   18982    17080    14284    11933    10437     9446     8932     9221 
   10355    11890    13385    14744    16176    17800    19123    19510 
   18860    17305    14959    12167     9707     8349     8169     8989 
   10914    13570    16123    18329    20230    21551    22118    21818 
   20513    18489    16432    14882    13782    12924    12527    12759 
   13304    13888    14562    15317    16047    16603    16480    15301 
   13470    11524     9608     8028     7387     7943     9327    10992 
   12425    13179    13344    13223    12709    11821    10945    10303 
    9939     9792     9673     9448     9204     9309    10069    11166 
   12042    12696    13579    14811    15763    15808    15016    13696 
   12050    10171     8233     6786     6095     5940     6350     7435 
    9117    11245    13416    15221    16491    16875    16053    14268 
   11901     9255     7009     5805     5494     5632     6149     6943 
    7804     8924    10412    11908    13076    13717    13765    13404 
   12866    12408    12199    12167    12290    12489    12531    12475 
   12361    11896    11046    10268     9929     9792     9478     9119 
    8906     8737     8478     7958     7276     6954     7326     8362 
    9902    11605    13000    13881    14524    15181    15882    16703 
   17431    17521    16738    15288    13469    11440     9361     7698 
    6910     6859     7215     7946     8878     9575     9821     9890 
   10239    10867    11477    11936    12110    11961    11577    10872 
    9950     9202     8794     8708     8825     8990     9336     9878 
   10195    10182    10239    10486    10608    10368     9836     9382 
    9339     9541     9908    10734    11943    13151    14127    14726 
   14950    14710    13758    12445    11442    10795    10183     9481 
    8811     8276     7677     6971     6544     6563     6842     7206 
    7481     7655     7875     8150     8387     8476     8466     8610 
    8849     8915     8835     8587     8084     7553     7295     7435 
    7769     7984     8282     9021     9984    10748    11229    11474 
   11382    10861    10156     9737     9827    10236    10523    10205 
    9256     8163     7170     6354     5984     5986     5977     5765 
    5328     4792     4349     4115     4167     4528     5157     5912 
    6554     7012     7436     7969     8712     9555    10062     9944 
    9346     8558     7788     7036     6194     5469     5139     5078 
    5035     4896     4789     4928     5203     5581     6096     6416 
    6344     5982     5453     4974     4698     4571     4587     4835 
    5177     5356     5351     5163     4823     4720     5084     5684 
    6295     6750     7012     7289     7663     8021     8220     8131 
    7784     7398     7122     6955     6815     6624     6504     6549 
    6598     6546     6372     6102     5900     5751     5386     4698 
    3811     2844     1972     1487     1560     2076     2713     3184 
    3462     3662     3795     3827     3793     3776     3916     4220 
    4455     4519     4409     4075     3792     3998     4749     5829 
    7054     8275     9328    10061    10511    10871    11105    10942 
   10322     9307     7830     6038     4350     2922     1650      638 
     133      238      997     2313     3775     4964     5738     6117 
    6173     6018     5828     5869     6300     6870     7227     7366 
    7341     7128     6911     7009     7602     8620     9824    11015 
   11994    12569    12580    11988    11198    10605     9972     8955 
    7595     6181     4986     4094     3616     3730     4316     5093 
    5905     6587     6984     7006     6586     5806     4960     4395 
    4240     4272     4247     4230     4352     4537     4817     5408 
    6240     6992     7487     7702     7730     7794     7971     8069 
    7989     7915     7952     7903     7549     6866     6067     5473 
    5117     4851     4722     4804     5124     5583     5824     5669 
    5303     4975     4872     4986     5185     5511     5935     6210 
    6332     6420     6464     6494     6494     6400     6319     6459 
    6857     7273     7478     7602     7853     8224     8648     8911 
    8772     8360     7881     7376     6851     6223     5530     4996 
    4564     4022     3460     3063     2822     2707     2723     2817 
    3012     3347     3806     4409     5062     5615     5971     6056 
    5991     5922     5869     5881     5964     6022     5976     5833 
    5597     5184     4664     4296     4176     4149     4047     3779 
    3343     2969     2878     2987     3221     3617     4103     4569 
    4865     4858     4575     4147     3885     4081     4565     5036 
    5452     5762     5806     5591     5226     4739     4266     4057 
    4162     4498     5084     5911     6709     7243     7654     8091 
    8429     8545     8455     8178     7686     7057     6590     6485 
    6583     6611     6415     5978     5512     5282     5108     4758 
    4608     4964     5533     6030     6323     6276     5974     5644 
    5444     5428     5543     5842     6428     7122     7639     7845 
    7783     7688     7739     7860     7954     7986     7845     7527 
    7265     7211     7315     7537     7895     8313     8607     8727 
    8801     8938     9221     9628     9927     9888     9540     9158 
    8959     8895     8818     8765     8915     9223     9374     9293 
    9269     9502     9931    10379    10773    11174    11536    11763 
   11854    11875    11895    11910    11862    11677    11440    11317 
   11180    10928    10822    10972    11217    11393    11370    11158 
