Origin Time       2011/03/11 14:46:00
Lat.              38.103
Long.             142.860
Depth. (km)       24
Mag.              9.0
Station Code      TYM005
Station Lat.      36.7824
Station Long.     137.0803
Station Height(m) 2
Record Time       2011/03/11 14:49:12
Sampling Freq(Hz) 100Hz
Duration Time(s)  207
Dir.              E-W
Scale Factor      3920(gal)/6182761
Max. Acc. (gal)   8.748
Last Correction   2011/03/11 14:48:57
Memo.             
[...]
   -1822    -1912    -2009    -2170    -2422    -2690    -2980    -3314 
   -3573    -3678    -3729    -3781    -3746    -3661    -3643    -3645 
   -3562    -3421    -3349    -3383    -3401    -3321    -3219    -3171 
   -3201    -3310    -3405    -3391    -3306    -3234    -3207    -3205 
   -3152    -3001    -2851    -2824    -2864    -2955    -3241    -3629 
   -3888    -4026    -4053    -3992    -4011    -4020    -3750    -3253 
   -2798    -2532    -2419    -2347    -2282    -2262    -2339    -2474 
   -2500    -2371    -2196    -1913    -1427     -893     -517     -351 
    -320     -263     -146      -85      -97      -23      252      587 
     800     1014     1387     1782     2065     2329     2608     2745 
    2733     2789     2957     3102     3216     3324     3330     3225 
    3192     3234     3115     2838     2598     2341     1927     1460 
    1093      770      388      -23     -381     -621     -710     -664 
    -540     -400     -275     -186     -168     -225     -351     -564 
    -811     -938     -923     -967    -1198    -1553    -1934    -2266 
   -2536    -2774    -2949    -3069    -3218    -3388    -3494    -3584 
   -3777    -4025    -4178    -4236    -4279    -4292    -4223    -4091 
   -3939    -3804    -3786    -3883    -3900    -3853    -4002    -4362 
   -4748    -5048    -5144    -5055    -4994    -5036    -5136    -5243 
   -5296    -5360    -5502    -5580    -5486    -5308    -5082    -4765 
   -4420    -4119    -3842    -3651    -3621    -3635    -3622    -3785 
   -4248    -4874    -5540    -6183    -6679    -6931    -6962    -6782 
   -6366    -5872    -5547    -5391    -5255    -5167    -5236    -5415 
   -5562    -5619    -5655    -5755    -5834    -5665    -5205    -4736 
   -4460    -4343    -4401    -4625    -4825    -4907    -4976    -5070 
   -5049    -4852    -4588    -4304    -4019    -3782    -3528    -3208 
   -2932    -2773    -2661    -2476    -2209    -1953    -1713    -1417 
   -1074     -722     -378      -77      145      281      367      506 
     759     1090     1417     1698     2042     2506     2874     3069 
    3304     3512     3487     3453     3689     4058     4352     4586 
    4845     5132     5431     5757     6032     6148     6155     6113 
    6035     6001     6041     6101     6164     6181     6067     5967 
    6149     6566     6917     7086     7195     7332     7362     7157 
    6923     6871     6781     6388     5843     5342     4777     4098 
    3492     3078     2810     2584     2317     2040     1765     1382 
     864      339     -132     -687    -1385    -1892    -1853    -1448 
   -1093     -830     -524     -286     -235     -328     -581    -1026 
   -1487    -1778    -1955    -2073    -2089    -2084    -2121    -2160 
   -2257    -2437    -2700    -3171    -3847    -4433    -4625    -4357 
   -3783    -3099    -2497    -2080    -1716    -1325    -1156    -1387 
   -1844    -2286    -2588    -2636    -2355    -1887    -1512    -1361 
   -1347    -1334    -1323    -1475    -1893    -2404    -2716    -2783 
   -2820    -2964    -3177    -3350    -3453    -3635    -3979    -4347 
   -4676    -4920    -4753    -3962    -2859    -1780     -729      165 
     609      640      454        9     -807    -1908    -3029    -3976 
   -4722    -5101    -4782    -3799    -2647    -1803    -1420    -1386 
   -1672    -2375    -3165    -3499    -3447    -3384    -3251    -2885 
   -2449    -2050    -1520     -810     -180       96      109       85 
      65      169      450      520       78     -652    -1306    -1625 
   -1492    -1133     -889     -794     -675     -374       55      309 
     249      -27     -461     -897    -1141    -1403    -1925    -2392 
   -2479    -2398    -2420    -2543    -2743    -3095    -3639    -4248 
   -4743    -5104    -5417    -5737    -5918    -5604    -4687    -3405 
   -1981     -718        4      279      402      252     -190     -508 
    -612     -849    -1202    -1273     -991     -637     -330        8 
     501     1262     2212     2994     3262     3043     2619     2229 
    2090     2248     2508     2748     2875     2765     2551     2380 
    2046     1482     1079     1127     1452     1733     1846     1877 
    1964     2170     2527     3101     3830     4470     4812     4734 
    4093     2901     1457      168     -589     -748     -742     -897 
   -1011     -958     -888     -838     -804     -805     -752     -781 
   -1322    -2595    -4352    -6076    -7388    -8345    -9066    -9256 
   -8561    -7233    -6003    -5389    -5351    -5476    -5459    -5329 
   -5204    -5092    -5017    -5239    -5966    -6805    -7169    -7150 
   -7143    -7080    -6918    -7095    -7769    -8501    -8978    -9371 
   -9935   -10520   -10720   -10447    -9969    -9544    -9309    -9179 
   -8896    -8430    -8059    -8005    -8374    -9220   -10386   -11519 
  -12421   -13089   -13449   -13345   -12694   -11575   -10249    -9132 
   -8613    -8703    -8996    -9130    -9064    -8977    -9126    -9594 
  -10235   -10824   -11051   -10613    -9588    -8540    -8033    -8167 
   -8620    -8970    -9110    -9259    -9526    -9784    -9842    -9652 
   -9381    -9104    -8602    -7801    -7053    -6675    -6685    -7056 
   -7584    -7882    -7976    -8213    -8523    -8464    -7836    -6830 
   -5627    -4268    -2910    -1762     -891     -338     -162     -263 
    -391     -425     -428     -445     -424     -193      369      952 
    1152     1159     1408     1844     2101     2085     1917     1701 
    1600     1678     1777     1737     1498     1204     1110     1245 
    1559     2081     2605     2742     2398     1882     1514     1306 
    1191     1240     1534     2022     2460     2602     2564     2685 
    3051     3406     3543     3556     3578     3508     3213     2695 
    2027     1386     1006      931     1009     1194     1508     1828 
    2098     2439     2858     3255     3635     3981     4212     4411 
    4734     5094     5280     5216     4921     4568     4486     4745 
    5120     5532     5987     6330     6559     6919     7433     7913 
    8433     9177     9975    10456    10488    10237     9885     9534 
    9259     9041     8801     8513     8228     8059     8057     8157 
    8359     8708     9117     9508     9860    10059    10012     9783 
    9492     9207     8934     8705     8490     8098     7406     6575 
    5780     4975     4138     3536     3417     3626     3809     3763 
    3396     2753     2110     1660     1328      928      326     -373 
    -927    -1384    -1912    -2315    -2333    -2078    -1781    -1567 
   -1514    -1602    -1783    -2132    -2708    -3347    -3800    -4022 
   -4129    -4166    -4170    -4206    -4223    -4169    -4175    -4359 
   -4650    -4948    -5234    -5481    -5675    -5890    -6230    -6731 
   -7244    -7535    -7578    -7523    -7458    -7426    -7383    -7176 
   -6715    -6073    -5419    -4964    -4860    -5123    -5630    -6108 
   -6341    -6359    -6220    -5869    -5371    -4950    -4745    -4681 
   -4669    -4694    -4715    -4736    -4808    -4868    -4834    -4728 
   -4554    -4271    -3904    -3550    -3353    -3474    -3977    -4720 
   -5422    -5842    -5912    -5670    -5175    -4585    -4114    -3854 
   -3746    -3654    -3479    -3288    -3248    -3428    -3723    -4015 
   -4274    -4401    -4212    -3684    -3031    -2514    -2257    -2192 
   -2178    -2249    -2483    -2738    -2852    -2827    -2686    -2491 
   -2363    -2397    -2665    -3169    -3772    -4278    -4514    -4432 
   -4173    -3923    -3765    -3673    -3614    -3631    -3745    -3843 
   -3820    -3809    -4043    -4574    -5318    -6096    -6589    -6598 
   -6243    -5739    -5182    -4639    -4228    -4042    -4023    -4006 
   -3934    -3946    -4189    -4679    -5362    -6153    -6941    -7633 
   -8111    -8296    -8299    -8265    -8196    -8096    -8022    -8002 
   -7992    -7817    -7318    -6674    -6194    -5843    -5480    -5316 
   -5580    -6114    -6679    -7274    -7944    -8647    -9350    -9978 
  -10331   -10270    -9885    -9413    -9072    -8875    -8623    -8271 
   -7982    -7739    -7397    -7021    -6730    -6471    -6138    -5791 
   -5630    -5730    -5950    -6169    -6383    -6597    -6780    -6948 
   -7229    -7707    -8292    -8939    -9749   -10659   -11446   -12037 
  -12487   -12857   -13235   -13640   -13976   -14153   -14171   -14121 
  -14078   -14024   -13963   -13976   -14103   -14265   -14328   -14242 
  -14090   -13964   -13843   -13689   -13493   -13226   -12945   -12827 
  -12939   -13157   -13345   -13467   -13523   -13476   -13300   -13033 
  -12673   -12159   -11530   -10937   -10453    -9995    -9452    -8860 
   -8402    -8184    -8182    -8362    -8647    -8909    -9095    -9202 
   -9206    -9123    -9018    -8985    -9059    -9089    -8935    -8693 
   -8489    -8295    -8016    -7588    -7041    -6493    -6002    -5519 
   -5067    -4811    -4847    -5032    -5168    -5266    -5496    -5912 
   -6362    -6632    -6627    -6461    -6300    -6106    -5777    -5430 
   -5252    -5259    -5346    -5387    -5289    -5036    -4651    -4190 
   -3761    -3432    -3178    -2977    -2874    -2927    -3188    -3607 
   -4033    -4385    -4596    -4534    -4220    -3835    -3508    -3236 
   -2909    -2415    -1768    -1086     -531     -163      125      401 
     635      803      912      921      768      484      172     -100 
    -338     -558     -687     -612     -353      -28      299      611 
     932     1340     1856     2369     2732     2889     2855     2644 
    2292     1899     1539     1187      791      388       84     -101 
    -265     -439     -504     -406     -246      -96       11        8 
    -134     -389     -729    -1089    -1333    -1402    -1338    -1209 
   -1099    -1050    -1051    -1094    -1148    -1152    -1064     -943 
    -905     -909     -820     -679     -582     -485     -349     -216 
    -116      -98     -214     -445     -741    -1113    -1540    -1908 
   -2126    -2160    -2082    -2027    -2026    -2066    -2146    -2087 
   -1700    -1120     -601     -168      224      486      569      536 
     457      394      367      350      351      360      325      202 
     -52     -376     -584     -545     -215      299      703      885 
    1077     1443     1860     2156     2313     2381     2372     2265 
    1996     1548     1080      807      731      653      442      143 
    -180     -515     -820    -1057    -1276    -1495    -1604    -1532 
   -1394    -1308    -1202    -1028     -884     -774     -597     -326 
     -20      191      145     -123     -371     -521     -705     -993 
   -1361    -1729    -1989    -2144    -2214    -2173    -2099    -2108 
   -2225    -2427    -2706    -3026    -3310    -3559    -3887    -4358 
   -4942    -5614    -6295    -6848    -7254    -7561    -7733    -7729 
   -7636    -7559    -7460    -7211    -6781    -6288    -5868    -5566 
   -5373    -5345    -5530    -5834    -6174    -6572    -6978    -7290 
   -7502    -7641    -7752    -7909    -8105    -8268    -8388    -8472 
   -8471    -8386    -8312    -8359    -8567    -8903    -9313    -9701 
  -10017   -10320   -10593   -10772   -10913   -11065   -11196   -11288 
  -11340   -11317   -11180   -10921   -10600   -10294   -10022    -9807 
   -9732    -9782    -9816    -9793    -9802    -9845    -9816    -9698 
   -9578    -9498    -9479    -9532    -9654    -9854   -10099   -10267 
  -10268   -10171   -10069    -9910    -9606    -9161    -8671    -8252 
   -7912    -7630    -7490    -7529    -7630    -7673    -7627    -7502 
   -7293    -6999    -6625    -6153    -5626    -5151    -4739    -4328 
   -3993    -3851    -3806    -3685    -3465    -3126    -2627    -2057 
   -1516    -1035     -679     -497     -425     -284       83      587 
    1008     1301     1606     2028     2588     3240     3830     4230 
    4462     4602     4682     4731     4783     4818     4819     4857 
    4968     5089     5211     5404     5696     6067     6500     6906 
    7180     7348     7448     7403     7199     6958     6755     6601 
    6523     6525     6574     6627     6620     6497     6250     5926 
    5618     5424     5382     5394     5308     5103     4896     4793 
    4774     4719     4558     4322     4072     3822     3539     3215 
    2934     2840     3025     3424     3856     4122     4081     3762 
    3361     2982     2593     2207     1899     1708     1626     1644 
    1730     1791     1716     1441     1044      710      511      387 
     294      234      248      319      330      279      358      617 
     823      738      373      -75     -401     -562     -665     -791 
    -942    -1072    -1147    -1203    -1298    -1428    -1554    -1648 
   -1722    -1818    -1935    -2020    -2025    -2005    -2093    -2353 
   -2749    -3187    -3494    -3590    -3600    -3648    -3693    -3645 
   -3469    -3208    -2904    -2571    -2242    -1991    -1895    -1942 
   -2050    -2188    -2308    -2305    -2210    -2163    -2185    -2246 
   -2413    -2786    -3366    -3968    -4409    -4793    -5303    -5831 
   -6176    -6341    -6437    -6495    -6508    -6516    -6584    -6728 
   -6911    -7078    -7150    -7123    -7094    -7098    -7069    -6978 
   -6910    -7007    -7334    -7809    -8338    -8918    -9506    -9982 
  -10315   -10545   -10678   -10783   -11012   -11413   -11913   -12492 
  -13141   -13729   -14187   -14622   -15074   -15446   -15729   -15979 
  -16141   -16110   -15857   -15457   -15061   -14763   -14533   -14319 
  -14120   -13967   -13884   -13869   -13935   -14081   -14290   -14569 
  -14878   -15085   -15088   -14919   -14647   -14262   -13779   -13293 
  -12855   -12441   -12025   -11673   -11484   -11423   -11387   -11395 
  -11483   -11579   -11650   -11779   -12017   -12273   -12438   -12537 
  -12623   -12609   -12382   -11917   -11210   -10295    -9255    -8144 
   -7090    -6338    -6016    -6024    -6187    -6434    -6825    -7296 
   -7656    -7923    -8185    -8296    -8197    -8033    -7866    -7742 
   -7796    -8050    -8368    -8580    -8599    -8487    -8356    -8261 
   -8171    -7995    -7736    -7489    -7257    -6977    -6674    -6375 
   -6081    -5852    -5723    -5604    -5339    -4903    -4485    -4241 
   -4116    -4019    -3950    -3932    -3943    -3882    -3632    -3228 
   -2835    -2521    -2261    -2107    -2106    -2174    -2227    -2274 
   -2350    -2467    -2615    -2791    -3024    -3319    -3622    -3879 
   -4044    -4122    -4170    -4164    -4044    -3876    -3759    -3745 
   -3837    -3879    -3740    -3518    -3353    -3291    -3280    -3150 
   -2801    -2308    -1749    -1177     -693     -381     -293     -425 
    -661     -900    -1143    -1396    -1644    -1893    -2137    -2333 
   -2452    -2534    -2588    -2561    -2445    -2221    -1821    -1280 
    -679      -13      721     1450     2104     2627     2996     3189 
    3154     2890     2509     2145     1927     1953     2196     2515 
    2862     3256     3623     3912     4167     4366     4457     4478 
    4467     4401     4290     4158     4010     3905     3888     3939 
    4035     4133     4172     4136     4094     4093     4056     3979 
    4009     4156     4265     4308     4411     4617     4832     4971 
    5063     5233     5498     5724     5883     6065     6259     6390 
    6476     6579     6713     6846     6971     7127     7309     7432 
    7436     7345     7213     7111     7088     7169     7381     7712 
    8077     8397     8626     8709     8617     8392     8109     7841 
    7642     7542     7537     7618     7803     8106     8510     8965 
    9375     9691     9950    10159    10301    10373    10346    10230 
   10074     9868     9630     9474     9434     9419     9402     9402 
    9385     9365     9376     9345     9202     8961     8655     8344 
    8111     7960     7827     7665     7473     7283     7134     7032 
    6940     6813     6669     6577     6544     6516     6497     6527 
    6554     6507     6366     6163     6012     5920     5722     5375 
    5016     4711     4401     4041     3697     3463     3350     3307 
    3285     3233     3158     3094     3017     2890     2697     2410 
    2045     1680     1384     1178     1064     1021      998      975 
    1000     1113     1271     1415     1542     1688     1873     2092 
    2344     2661     3009     3248     3273     3107     2819     2506 
    2258     2069     1855     1575     1274     1009      798      707 
     796      961     1047     1031      970      887      784      697 
     649      615      566      482      363      215       17     -264 
    -614     -956    -1255    -1570    -1905    -2194    -2432    -2669 
   -2946    -3267    -3622    -4029    -4525    -5104    -5682    -6187 
   -6629    -7035    -7397    -7704    -7967    -8214    -8460    -8723 
   -9018    -9316    -9602    -9913   -10251   -10524   -10619   -10545 
  -10431   -10370   -10392   -10525   -10786   -11137   -11486   -11819 
  -12180   -12535   -12815   -13003   -13115   -13181   -13211   -13198 
  -13142   -13023   -12837   -12632   -12459   -12335   -12288   -12340 
  -12473   -12644   -12814   -12928   -12923   -12819   -12764   -12883 
  -13123   -13368   -13578   -13719   -13733   -13599   -13329   -12951 
  -12474   -11892   -11242   -10583    -9966    -9450    -9052    -8699 
   -8347    -8064    -7901    -7805    -7700    -7579    -7471    -7373 
   -7264    -7163    -7055    -6901    -6728    -6572    -6443    -6381 
   -6390    -6396    -6326    -6162    -5960    -5799    -5671    -5509 
   -5273    -4954    -4575    -4186    -3850    -3629    -3570    -3687 
   -3934    -4238    -4554    -4828    -4988    -4975    -4792    -4535 
   -4324    -4174    -4055    -3960    -3889    -3857    -3862    -3845 
   -3768    -3643    -3484    -3310    -3090    -2757    -2340    -1940 
   -1621    -1432    -1398    -1454    -1497    -1490    -1441    -1341 
   -1183     -987     -771     -508     -165      225      606      940 
    1194     1358     1431     1401     1297     1166     1040      964 
     996     1145     1355     1515     1538     1469     1408     1363 
    1306     1259     1237     1197     1112     1022      975      968 
     997     1096     1266     1461     1610     1635     1492     1232 
     970      763      565      371      224      109      -18     -149 
    -253     -303     -311     -333     -389     -447     -521     -622 
    -694     -714     -694     -638     -595     -638     -773     -963 
   -1207    -1518    -1845    -2132    -2404    -2697    -2995    -3288 
   -3554    -3740    -3844    -3904    -3909    -3842    -3717    -3589 
   -3515    -3490    -3487    -3505    -3540    -3591    -3670    -3794 
   -3965    -4137    -4244    -4272    -4245    -4170    -4065    -3950 
   -3834    -3747    -3754    -3877    -4039    -4157    -4227    -4274 
   -4289    -4281    -4293    -4333    -4387    -4444    -4489    -4497 
   -4409    -4194    -3891    -3523    -3091    -2643    -2214    -1810 
   -1464    -1195     -997     -872     -802     -771     -797     -848 
    -839     -747     -624     -504     -363     -163       79      313 
     501      599      627      662      744      891     1079     1231 
    1338     1441     1553     1699     1893     2101     2312     2538 
