Origin Time       2011/03/11 14:46:00
Lat.              38.103
Long.             142.860
Depth. (km)       24
Mag.              9.0
Station Code      TYM002
Station Lat.      36.8659
Station Long.     136.9750
Station Height(m) 4
Record Time       2011/03/11 14:48:39
Sampling Freq(Hz) 100Hz
Duration Time(s)  300
Dir.              U-D
Scale Factor      3920(gal)/6182761
Max. Acc. (gal)   5.646
Last Correction   2011/03/11 14:48:24
Memo.             
[...]
   10911    10901    10873    10772    10618    10476    10383    10295 
   10164    10018     9910     9824     9698     9489     9201     8874 
    8583     8375     8247     8203     8259     8408     8644     8957 
    9302     9634     9938    10241    10591    11001    11406    11727 
   11943    12068    12115    12099    12046    11952    11819    11678 
   11530    11364    11193    11035    10891    10718    10485    10242 
   10029     9814     9587     9371     9193     9064     8951     8799 
    8621     8494     8475     8552     8670     8808     9004     9270 
    9596     9994    10452    10916    11360    11782    12174    12539 
   12895    13252    13579    13833    14023    14167    14235    14212 
   14139    14070    14009    13936    13856    13767    13669    13578 
   13521    13534    13612    13680    13692    13656    13566    13453 
   13356    13264    13192    13170    13182    13207    13221    13183 
   13097    13017    12987    13020    13133    13334    13554    13716 
   13819    13882    13904    13879    13794    13667    13544    13436 
   13326    13220    13128    13008    12807    12534    12250    12003 
   11805    11622    11415    11205    11037    10911    10769    10550 
   10286    10066     9917     9784     9611     9392     9153     8934 
    8733     8526     8357     8270     8211     8135     8079     8042 
    7974     7927     7973     8076     8176     8257     8332     8418 
    8525     8642     8770     8907     9018     9080     9104     9094 
    9021     8892     8786     8733     8687     8644     8631     8631 
    8589     8469     8327     8265     8318     8409     8469     8517 
    8575     8620     8654     8708     8796     8924     9108     9352 
    9637     9914    10157    10387    10621    10863    11139    11426 
   11650    11783    11861    11913    11929    11896    11826    11765 
   11761    11805    11860    11909    11931    11928    11952    12029 
   12129    12239    12364    12494    12631    12784    12950    13137 
   13356    13597    13844    14084    14302    14488    14641    14770 
   14905    15085    15323    15595    15870    16131    16375    16609 
   16832    17012    17142    17249    17331    17390    17446    17468 
   17397    17252    17101    16987    16927    16921    16939    16938 
   16929    16967    17072    17215    17360    17492    17617    17739 
   17800    17764    17663    17498    17271    17043    16823    16567 
   16268    15936    15582    15243    14933    14628    14326    14032 
   13763    13534    13301    13014    12668    12271    11872    11523 
   11229    10969    10726    10509    10324    10152     9990     9814 
    9568     9261     8947     8668     8477     8382     8335     8309 
    8292     8291     8315     8335     8333     8334     8364     8446 
    8591     8762     8916     9068     9271     9522     9776    10009 
   10227    10441    10664    10931    11278    11665    12022    12358 
   12713    13065    13371    13633    13855    14022    14165    14305 
   14420    14486    14462    14344    14191    14057    13932    13760 
   13529    13267    12978    12692    12452    12254    12082    11936 
   11844    11813    11818    11845    11879    11919    11995    12093 
   12165    12193    12158    12045    11913    11819    11746    11662 
   11568    11470    11382    11321    11277    11231    11186    11153 
   11140    11172    11244    11301    11304    11262    11205    11168 
   11150    11104    11007    10873    10729    10597    10484    10381 
   10272    10166    10092    10039     9987     9937     9885     9844 
    9868     9995    10175    10320    10417    10512    10621    10746 
   10893    11049    11195    11335    11478    11650    11870    12115 
   12345    12571    12824    13086    13320    13481    13537    13510 
   13432    13312    13170    13017    12832    12604    12363    12135 
   11919    11679    11380    11053    10770    10549    10368    10202 
   10011     9769     9503     9239     8976     8720     8481     8266 
    8097     7997     7981     8047     8162     8270     8362     8513 
    8771     9091     9455     9883    10368    10879    11350    11713 
   11965    12167    12404    12731    13131    13534    13862    14063 
   14147    14182    14219    14263    14303    14343    14408    14493 
   14541    14531    14497    14455    14413    14418    14491    14570 
   14581    14524    14437    14351    14275    14195    14097    13985 
   13873    13742    13574    13376    13157    12948    12778    12654 
   12561    12453    12297    12114    11925    11757    11667    11649 
   11645    11631    11621    11617    11595    11546    11506    11505 
   11554    11656    11766    11819    11814    11771    11713    11678 
   11661    11637    11613    11599    11584    11548    11476    11382 
   11274    11172    11133    11183    11290    11417    11542    11643 
   11723    11801    11887    11952    11972    11957    11918    11856 
   11795    11745    11711    11700    11697    11679    11660    11650 
   11611    11508    11375    11272    11213    11187    11165    11102 
   10999    10879    10759    10680    10661    10667    10699    10784 
   10902    11003    11072    11129    11221    11416    11706    12007 
   12265    12462    12601    12721    12860    13001    13125    13236 
   13327    13404    13486    13534    13523    13502    13493    13477 
   13467    13454    13381    13225    13041    12886    12769    12680 
   12612    12537    12443    12375    12334    12251    12117    12004 
   11992    12099    12278    12477    12680    12874    13040    13198 
   13362    13529    13725    13964    14220    14466    14708    14953 
   15160    15301    15432    15570    15663    15722    15746    15677 
   15522    15368    15268    15204    15144    15079    14986    14870 
   14754    14620    14444    14212    13921    13609    13311    13041 
   12800    12572    12373    12239    12146    12036    11892    11733 
   11591    11502    11460    11417    11353    11276    11190    11099 
   10992    10839    10622    10370    10130     9940     9812     9711 
    9574     9387     9162     8914     8674     8439     8207     8015 
    7861     7747     7667     7572     7456     7370     7352     7418 
    7565     7775     8024     8301     8611     8965     9368     9805 
   10253    10712    11205    11715    12206    12683    13142    13564 
   13975    14403    14841    15266    15661    16005    16285    16512 
   16690    16807    16855    16842    16797    16744    16691    16624 
   16492    16288    16076    15859    15609    15343    15052    14718 
   14371    14054    13761    13477    13205    12942    12697    12509 
   12386    12282    12170    12062    11972    11912    11875    11850 
   11842    11833    11818    11827    11871    11938    12032    12136 
   12229    12330    12460    12623    12800    12953    13053    13095 
   13098    13075    13010    12909    12792    12657    12529    12430 
   12356    12308    12292    12317    12378    12471    12597    12735 
   12891    13073    13239    13340    13377    13373    13337    13266 
   13152    12972    12717    12406    12078    11755    11464    11210 
   10953    10690    10447    10217    10042     9949     9894     9846 
    9805     9798     9849     9935    10045    10192    10360    10539 
   10734    10935    11140    11354    11565    11787    12052    12352 
   12661    12966    13286    13649    14052    14477    14911    15321 
   15681    16002    16306    16581    16812    16997    17144    17277 
   17391    17445    17427    17366    17282    17196    17113    17009 
   16888    16740    16529    16278    16065    15916    15773    15613 
   15473    15327    15149    14983    14792    14534    14262    13989 
   13704    13429    13163    12896    12641    12410    12225    12092 
   11978    11867    11775    11708    11665    11634    11603    11587 
   11604    11646    11715    11794    11852    11888    11920    11965 
   12027    12093    12147    12183    12210    12241    12304    12382 
   12419    12438    12507    12627    12790    12994    13213    13429 
   13655    13869    14028    14144    14222    14231    14181    14116 
   14063    13997    13888    13738    13571    13429    13338    13280 
   13229    13166    13074    12976    12921    12905    12908    12929 
   12937    12922    12919    12927    12915    12866    12773    12657 
   12528    12381    12222    12047    11880    11765    11699    11665 
   11664    11676    11696    11765    11894    12045    12200    12364 
   12530    12701    12891    13082    13226    13316    13412    13543 
   13700    13868    14008    14118    14249    14380    14472    14561 
   14647    14680    14670    14679    14706    14676    14589    14514 
   14445    14352    14275    14208    14099    13946    13763    13568 
   13371    13157    12896    12574    12209    11821    11414    10994 
   10570    10154     9753     9372     9037     8737     8439     8155 
    7905     7697     7554     7460     7372     7286     7220     7195 
    7214     7252     7277     7270     7249     7266     7333     7415 
    7507     7589     7644     7725     7852     7989     8143     8322 
    8505     8689     8896     9147     9422     9670     9884    10092 
   10297    10468    10597    10692    10757    10826    10928    11051 
   11177    11297    11425    11590    11807    12053    12300    12546 
   12799    13071    13363    13675    13984    14275    14561    14850 
   15131    15400    15645    15833    15951    16025    16106    16203 
   16266    16265    16228    16182    16113    15991    15783    15499 
   15184    14853    14508    14170    13850    13541    13242    12955 
   12693    12454    12207    11928    11625    11317    11019    10734 
   10450    10164     9893     9674     9539     9483     9473     9502 
    9567     9646     9722     9804     9903    10010    10114    10234 
   10395    10598    10832    11092    11371    11661    11968    12278 
   12548    12764    12949    13133    13328    13519    13694    13849 
   13970    14057    14123    14172    14205    14206    14160    14096 
   14051    14017    13966    13895    13805    13701    13599    13502 
   13423    13388    13399    13442    13519    13639    13778    13926 
   14097    14270    14436    14607    14774    14941    15118    15307 
   15504    15681    15785    15808    15769    15669    15538    15389 
   15165    14859    14509    14132    13778    13468    13148    12795 
   12429    12054    11690    11347    11017    10711    10450    10232 
   10071     9966     9874     9786     9717     9666     9644     9639 
    9618     9602     9636     9716     9819     9945    10092    10228 
   10338    10443    10557    10681    10829    10983    11125    11260 
   11382    11494    11597    11673    11739    11811    11892    11994 
   12104    12198    12283    12350    12399    12454    12509    12532 
   12530    12525    12517    12494    12441    12340    12189    12030 
   11887    11744    11599    11453    11296    11144    11001    10862 
   10733    10595    10448    10351    10318    10323    10352    10381 
   10387    10402    10456    10525    10585    10635    10662    10682 
   10737    10834    10939    11040    11136    11226    11327    11445 
   11557    11645    11723    11825    11963    12112    12242    12336 
   12401    12436    12458    12486    12501    12503    12515    12529 
   12560    12612    12645    12659    12667    12658    12643    12634 
   12613    12553    12464    12376    12302    12245    12200    12149 
   12093    12066    12088    12126    12146    12148    12146    12153 
   12188    12235    12274    12313    12357    12400    12454    12528 
   12593    12628    12647    12660    12662    12658    12648    12629 
   12621    12642    12669    12683    12694    12702    12713    12748 
   12815    12900    12968    12998    13013    13037    13080    13140 
   13209    13271    13316    13353    13402    13464    13515    13558 
   13604    13623    13644    13734    13828    13860    13885    13937 
   13999    14056    14083    14076    14044    14000    13994    14017 
   14004    13942    13832    13683    13540    13415    13278    13112 
   12921    12709    12483    12256    12039    11832    11625    11442 
   11300    11163    11014    10879    10766    10653    10536    10433 
   10304    10127     9952     9822     9752     9734     9732     9732 
    9752     9796     9847     9902     9964    10013    10052    10097 
   10131    10140    10117    10062     9999     9948     9920     9928 
    9961     9988     9997     9980     9955     9942     9921     9886 
    9848     9795     9740     9716     9706     9675     9638     9624 
    9647     9716     9790     9827     9875     9956    10036    10116 
   10195    10276    10374    10475    10582    10718    10864    10991 
   11111    11240    11396    11587    11789    11999    12206    12382 
   12531    12658    12744    12785    12793    12788    12784    12789 
   12803    12802    12775    12744    12695    12591    12463    12340 
   12190    12002    11785    11537    11292    11079    10876    10686 
   10546    10449    10357    10249    10120     9978     9828     9682 
    9538     9359     9135     8870     8575     8267     7930     7534 
    7088     6639     6212     5806     5418     5041     4665     4305 
    3985     3716     3497     3313     3146     3026     2990     3006 
    3062     3195     3376     3571     3787     3998     4207     4462 
    4753     5055     5435     5910     6383     6827     7275     7740 
    8237     8741     9211     9647    10038    10399    10744    11035 
   11270    11485    11680    11845    11998    12136    12241    12340 
   12438    12506    12613    12792    12953    13095    13245    13361 
   13476    13638    13790    13879    13922    13964    14048    14169 
   14266    14313    14333    14344    14362    14385    14362    14264 
   14119    13956    13794    13632    13465    13304    13158    13021 
   12872    12702    12510    12297    12104    11951    11830    11746 
   11677    11582    11469    11367    11297    11259    11226    11184 
   11114    11005    10917    10867    10806    10727    10618    10474 
   10326    10154     9945     9707     9444     9183     8945     8714 
    8465     8221     8049     7979     7964     7939     7914     7952 
    8074     8238     8427     8655     8893     9122     9367     9614 
    9838    10066    10272    10390    10444    10503    10568    10627 
   10666    10628    10532    10474    10427    10335    10254    10157 
    9980     9826     9726     9574     9371     9174     8983     8812 
    8685     8601     8555     8539     8529     8521     8545     8634 
    8782     8926     9010     9044     9093     9201     9333     9440 
    9519     9590     9682     9787     9846     9856     9866     9898 
    9975    10127    10287    10371    10445    10605    10828    11068 
   11337    11622    11908    12187    12467    12786    13118    13359 
   13497    13612    13799    14094    14365    14459    14407    14354 
   14391    14486    14542    14523    14473    14447    14442    14419 
   14368    14309    14262    14243    14245    14230    14172    14091 
   14021    13952    13866    13793    13754    13680    13488    13243 
   13056    12936    12833    12674    12415    12125    11899    11719 
   11519    11286    11058    10903    10836    10769    10648    10535 
   10478    10444    10414    10423    10466    10512    10576    10705 
   10915    11158    11393    11660    11982    12292    12547    12778 
   13022    13289    13541    13724    13880    14066    14247    14386 
   14495    14599    14716    14848    14973    15074    15149    15184 
   15194    15223    15259    15264    15238    15221    15256    15287 
   15230    15140    15056    14942    14842    14766    14657    14514 
   14358    14211    14122    14088    14065    14007    13882    13718 
   13614    13605    13611    13572    13523    13503    13499    13485 
   13446    13390    13337    13286    13240    13214    13182    13130 
   13073    13016    12974    12971    12998    12997    12936    12863 
   12829    12824    12810    12775    12736    12709    12676    12582 
   12441    12302    12146    11969    11786    11591    11399    11208 
   10994    10792    10648    10560    10508    10491    10506    10546 
   10635    10781    10948    11106    11242    11388    11579    11793 
   11996    12174    12312    12423    12549    12645    12616    12469 
   12288    12112    11914    11669    11379    11048    10660    10220 
    9791     9422     9113     8853     8611     8376     8175     8035 
    7957     7917     7896     7902     7958     8039     8114     8177 
    8238     8358     8572     8837     9123     9402     9672     9945 
   10189    10422    10677    10957    11274    11584    11874    12213 
   12578    12882    13139    13422    13738    14045    14338    14626 
   14900    15175    15446    15705    15986    16271    16486    16660 
   16873    17113    17321    17506    17730    17973    18181    18352 
   18476    18559    18605    18571    18483    18410    18336    18220 
   18048    17812    17539    17261    16953    16573    16141    15696 
   15253    14816    14345    13818    13287    12791    12343    11931 
   11520    11137    10804    10487    10206     9975     9738     9480 
    9238     9037     8884     8777     8702     8634     8568     8516 
    8483     8490     8529     8556     8589     8667     8765     8871 
    8979     9048     9076     9104     9147     9211     9290     9350 
    9366     9342     9315     9311     9323     9310     9226     9087 
    8983     8940     8886     8833     8832     8847     8855     8897 
    8990     9089     9159     9242     9377     9521     9647     9775 
    9905    10041    10189    10328    10454    10572    10657    10701 
   10724    10771    10865    10961    10990    10937    10869    10863 
   10882    10829    10726    10660    10624    10572    10481    10351 
   10217    10111    10052    10070    10129    10135    10098    10122 
   10223    10334    10442    10590    10802    11023    11209    11419 
   11683    11949    12193    12447    12725    12997    13260    13506 
   13690    13824    13984    14166    14321    14472    14626    14706 
   14703    14709    14767    14862    14968    15025    15004    14943 
   14893    14862    14789    14666    14573    14503    14383    14214 
   14012    13782    13561    13381    13231    13063    12843    12606 
   12394    12186    11960    11731    11494    11254    11071    10983 
   10944    10872    10773    10748    10807    10835    10838    10877 
   10889    10860    10857    10870    10868    10859    10831    10758 
   10670    10631    10625    10622    10644    10654    10638    10671 
   10733    10725    10642    10552    10480    10416    10338    10210 
   10027     9845     9744     9745     9803     9876     9931     9967 
   10046    10170    10284    10417    10592    10737    10845    10990 
   11168    11316    11461    11642    11794    11928    12133    12306 
   12366    12423    12487    12566    12691    12702    12602    12587 
