Origin Time       2011/03/11 14:46:00
Lat.              38.103
Long.             142.860
Depth. (km)       24
Mag.              9.0
Station Code      TYM005
Station Lat.      36.7824
Station Long.     137.0803
Station Height(m) 2
Record Time       2011/03/11 14:49:12
Sampling Freq(Hz) 100Hz
Duration Time(s)  207
Dir.              N-S
Scale Factor      3920(gal)/6182761
Max. Acc. (gal)   9.761
Last Correction   2011/03/11 14:48:57
Memo.             
[...]
   -1133    -1182    -1207    -1185    -1197    -1270    -1374    -1532 
   -1704    -1788    -1820    -1895    -2002    -2075    -2059    -1985 
   -1964    -1989    -1927    -1767    -1633    -1551    -1468    -1402 
   -1368    -1332    -1314    -1343    -1335    -1217    -1130    -1195 
   -1238    -1161    -1125    -1147    -1108    -1053    -1088    -1217 
   -1383    -1536    -1685    -1867    -1941    -1781    -1670    -1819 
   -2006    -2083    -2102    -2116    -2104    -1996    -1796    -1598 
   -1408    -1222    -1170    -1205    -1085     -817     -568     -356 
    -126      105      235      267      342      500      594      566 
     521      412      146     -197     -531     -763     -754     -452 
     -10      238      184       62       70      225      408      455 
     345      129     -182     -489     -627     -642     -770    -1112 
   -1611    -2144    -2451    -2434    -2434    -2726    -3189    -3586 
   -3768    -3703    -3556    -3597    -3895    -4317    -4678    -4766 
   -4639    -4566    -4585    -4663    -4841    -4985    -4904    -4680 
   -4654    -5013    -5579    -6098    -6388    -6297    -6016    -5974 
   -6103    -5994    -5697    -5439    -5161    -4963    -5017    -5135 
   -5136    -5016    -4787    -4543    -4315    -4006    -3701    -3563 
   -3506    -3347    -3065    -2796    -2587    -2336    -1991    -1524 
    -884     -144      539     1074     1432     1648     1758     1854 
    2190     2767     3130     3146     3265     3651     3913     3941 
    4068     4254     4127     3815     3751     3887     3934     3913 
    4025     4403     4929     5386     5806     6237     6474     6352 
    6008     5750     5715     5807     5892     5870     5745     5613 
    5515     5370     5113     4809     4487     4147     3920     3844 
    3742     3571     3512     3657     3912     4082     4040     3892 
    3829     3817     3655     3371     3181     3065     2828     2476 
    2182     1949     1590     1121      866      988     1194     1248 
    1289     1389     1489     1587     1674     1838     2161     2456 
    2588     2658     2640     2402     2081     1955     1985     1929 
    1839     1926     2188     2516     2862     3107     3028     2724 
    2677     3008     3244     3182     3215     3535     3899     4193 
    4462     4601     4512     4301     4131     4096     4254     4491 
    4543     4361     4113     3857     3571     3419     3550     3768 
    3855     3880     3884     3782     3646     3575     3501     3451 
    3500     3502     3314     2935     2368     1661     1000      575 
     394      344      370      483      650      802      883      679 
     114     -458     -877    -1327    -1708    -1827    -1766    -1616 
   -1452    -1411    -1435    -1413    -1497    -1761    -2017    -2195 
   -2382    -2587    -2723    -2595    -2135    -1692    -1607    -1676 
   -1580    -1392    -1262    -1187    -1217    -1377    -1544    -1581 
   -1378     -922     -348       96      128     -257     -797    -1397 
   -2023    -2405    -2364    -2001    -1414     -802     -451     -248 
      53      277      174     -159     -520     -857    -1136    -1185 
    -846     -204      406      706      749      744      694      506 
     326      259       29     -491     -919     -910     -642     -452 
    -313     -123     -115     -429     -701     -640     -550     -712 
    -913    -1005    -1078    -1100     -971     -771     -703     -852 
   -1201    -1749    -2379    -2848    -2993    -2862    -2636    -2477 
   -2383    -2121    -1619    -1254    -1349    -1787    -2233    -2441 
   -2426    -2438    -2671    -3074    -3520    -3887    -4025    -3959 
   -3917    -4094    -4488    -4940    -5316    -5499    -5430    -5291 
   -5307    -5413    -5453    -5442    -5405    -5351    -5454    -5809 
   -6261    -6621    -6773    -6765    -6741    -6676    -6486    -6260 
   -6068    -5866    -5698    -5620    -5593    -5562    -5467    -5323 
   -5132    -4730    -4081    -3437    -2987    -2789    -2877    -3101 
   -3223    -3210    -3159    -3059    -2826    -2545    -2374    -2304 
   -2226    -2005    -1633    -1327    -1187    -1150    -1207    -1306 
   -1380    -1463    -1505    -1348     -980     -568     -264     -130 
    -159     -241     -266     -341     -636     -993    -1127    -1062 
    -917     -680     -457     -359     -224       15      178      250 
     327      327      161      -66     -212     -239     -197     -219 
    -463     -921    -1357    -1502    -1399    -1440    -1811    -2264 
   -2650    -3082    -3542    -3868    -4036    -4169    -4305    -4370 
   -4321    -4197    -4062    -3940    -3772    -3489    -3225    -3245 
   -3521    -3826    -4185    -4658    -5004    -5056    -5001    -4984 
   -4960    -4895    -4734    -4415    -4068    -3898    -3916    -4030 
   -4146    -4098    -3833    -3527    -3311    -3206    -3233    -3371 
   -3513    -3564    -3509    -3382    -3214    -2991    -2658    -2164 
   -1533     -931     -574     -522     -606     -657     -621     -468 
    -252      -87       94      396      725      891      882      864 
     821      602      278        7     -147     -148      -47       41 
     155      419      773     1008     1058      987      785      387 
     -94     -391     -487     -633     -895    -1163    -1409    -1613 
   -1739    -1844    -1985    -2114    -2157    -2076    -1867    -1667 
   -1599    -1567    -1485    -1449    -1464    -1375    -1198    -1109 
   -1055     -827     -485     -255     -177     -185     -242     -255 
    -159       12      307      684      905      918      933     1012 
    1035     1032     1075      968      610      292      198      168 
      96       86      215      399      506      442      204      -52 
    -173     -267     -510     -734     -668     -399     -150      115 
     504      969     1377     1609     1572     1309     1005      780 
     649      618      673      784      922     1118     1417     1683 
    1767     1738     1682     1573     1417     1347     1461     1625 
    1609     1372     1128     1081     1176     1281     1481     1869 
    2228     2368     2479     2708     2955     3205     3461     3565 
    3447     3271     3189     3099     2867     2665     2740     3042 
    3373     3621     3727     3672     3535     3455     3486     3573 
    3640     3708     3917     4266     4530     4640     4805     5044 
    5054     4757     4436     4192     3891     3588     3452     3448 
    3449     3469     3545     3518     3261     2910     2574     2213 
    1871     1587     1311     1117     1098     1158     1262     1547 
    1968     2268     2369     2366     2231     1902     1458      981 
     487       88      -73      -43       50      121       54     -193 
    -501     -758     -942    -1074    -1173    -1181     -997     -674 
    -386     -133      143      327      334      256      216      216 
     153      -56     -395     -713     -897    -1045    -1231    -1404 
   -1564    -1698    -1797    -1961    -2122    -1987    -1545    -1096 
    -755     -346      215      810     1387     1928     2305     2449 
    2409     2305     2307     2432     2540     2582     2614     2683 
    2843     3162     3619     4046     4312     4450     4532     4575 
    4685     5000     5400     5638     5684     5657     5729     6088 
    6625     6993     7146     7318     7511     7516     7314     7067 
    6815     6540     6362     6393     6563     6728     6849     7024 
    7288     7522     7694     7896     8160     8458     8679     8754 
    8835     8965     8891     8533     8046     7438     6705     6022 
    5566     5383     5281     4987     4601     4409     4373     4296 
    4184     4202     4371     4438     4325     4297     4446     4574 
    4527     4182     3432     2471     1623      839        7     -690 
   -1214    -1755    -2288    -2610    -2671    -2535    -2168    -1536 
    -781     -110      456      937     1221     1291     1227     1050 
     805      470      -16     -570    -1117    -1669    -2130    -2277 
   -2077    -1841    -1792    -1732    -1420    -1015     -827     -859 
    -935     -914     -672     -228      308      908     1571     2263 
    2900     3344     3586     3788     3949     3946     3817     3556 
    3179     2988     3159     3522     3986     4449     4467     3694 
    2339      981      224      155      246       94     -260     -626 
    -727     -318      575     1604     2320     2511     2337     2112 
    2024     2080     2193     2271     2261     2055     1646     1325 
    1283     1332     1152      622      -72     -688    -1205    -1754 
   -2244    -2294    -1829    -1341    -1288    -1503    -1493    -1115 
    -602     -212      -76     -224     -634    -1262    -2051    -2878 
   -3526    -3863    -3882    -3524    -2679    -1455     -207      768 
    1237     1059      412     -436    -1400    -2399    -3254    -3836 
   -4077    -3866    -3244    -2509    -1810     -983       40      882 
    1017      284     -965    -2112    -2730    -2735    -2216    -1488 
    -880     -365      170      637     1005     1373     1539     1041 
    -117    -1451    -2564    -3186    -3221    -2916    -2467    -1850 
   -1264     -943     -703     -343      100      618     1126     1441 
    1503     1311      929      545      354      352      368      447 
     821     1420     1980     2377     2579     2662     2703     2568 
    2198     1764     1366     1063      995     1229     1795     2587 
    3181     3338     3323     3312     3123     2686     2236     2020 
    2059     2284     2748     3514     4495     5496     6348     7053 
    7563     7517     6701     5491     4432     3893     4071     4701 
    5226     5605     6202     6963     7468     7504     7208     6738 
    5952     4649     3095     1867     1283     1313     1754     2276 
    2586     2713     2841     2998     3152     3222     3017     2551 
    2096     1789     1552     1320     1123      951      658      205 
    -281     -820    -1458    -2018    -2333    -2368    -2162    -1917 
   -1896    -2121    -2326    -2259    -1952    -1612    -1343    -1181 
   -1216    -1355    -1292     -967     -537     -136      -33     -383 
    -828     -946     -813     -736     -847    -1163    -1564    -1745 
   -1562    -1170     -815     -729    -1026    -1643    -2291    -2585 
   -2499    -2234    -1768    -1138     -600     -212      174      573 
     876      949      695      302      109       76      -87     -471 
    -965    -1324    -1289     -946     -660     -539     -370      -52 
     273      409      347      261      218      185      263      411 
     541      953     1841     2841     3513     3690     3545     3471 
    3637     3790     3562     2964     2374     2020     1816     1688 
    1784     2308     3146     3969     4612     5044     5283     5318 
    5012     4337     3599     3194     3300     3832     4470     4792 
    4586     3999     3393     3067     3010     2996     2938     2981 
    3249     3729     4391     5152     5687     5710     5469     5466 
    5790     6054     5825     4981     3785     2708     2081     1849 
    1793     1875     2124     2438     2613     2507     2224     2058 
    2093     2052     1746     1360     1108     1004     1019     1085 
    1077      912      559       86     -284     -344      -42      494 
     862      619      -78     -572     -570     -310      -80      -45 
    -223     -417     -392     -178        4      103      340      921 
    1655     2134     2335     2597     3062     3482     3528     3171 
    2659     2154     1766     1729     2116     2668     3107     3330 
    3347     3316     3475     3840     4186     4378     4430     4305 
    4005     3740     3724     3851     3779     3404     3014     2933 
    3203     3629     4074     4500     4790     4819     4593     4156 
    3641     3333     3329     3485     3762     4111     4340     4375 
    4266     3970     3417     2658     1885     1289      870      558 
     306      -61     -637    -1185    -1462    -1557    -1679    -1809 
   -1799    -1704    -1778    -2092    -2382    -2481    -2638    -3120 
   -3822    -4444    -4880    -5299    -5848    -6400    -6672    -6474 
   -5904    -5341    -5182    -5540    -6177    -6796    -7296    -7720 
   -8138    -8620    -9198    -9803   -10335   -10835   -11395   -11947 
  -12349   -12563   -12599   -12457   -12207   -11952   -11751   -11644 
  -11560   -11361   -11128   -11155   -11657   -12521   -13350   -13882 
  -14150   -14223   -14135   -13991   -14003   -14342   -14880   -15252 
  -15248   -14942   -14464   -13827   -13014   -12088   -11143   -10242 
   -9412    -8733    -8397    -8568    -9228   -10157   -11030   -11578 
  -11721   -11523   -11089   -10587   -10210   -10009    -9884    -9826 
   -9988   -10373   -10684   -10740   -10730   -10845   -10986   -10918 
  -10526    -9915    -9262    -8677    -8250    -8055    -8121    -8413 
   -8764    -9006    -9122    -9104    -8979    -8927    -9049    -9220 
   -9289    -9280    -9319    -9489    -9784   -10078   -10229   -10255 
  -10281   -10428   -10785   -11278   -11717   -12056   -12403   -12826 
  -13265   -13645   -14019   -14448   -14839   -15058   -15040   -14710 
  -14027   -13170   -12376   -11664   -11023   -10565   -10388   -10536 
  -10961   -11538   -12264   -13137   -13954   -14536   -14939   -15261 
  -15405   -15203   -14684   -14041   -13476   -13115   -12934   -12828 
  -12737   -12643   -12548   -12444   -12291   -12159   -12242   -12577 
  -12949   -13168   -13212   -13128   -13007   -12882   -12652   -12301 
  -11925   -11452   -10781   -10066    -9516    -9137    -8841    -8672 
   -8747    -8972    -9066    -8901    -8568    -8235    -8029    -7924 
   -7776    -7491    -7163    -6985    -6962    -6891    -6606    -6116 
   -5579    -5199    -5069    -5047    -4880    -4567    -4373    -4416 
   -4524    -4595    -4821    -5290    -5663    -5621    -5313    -5105 
   -5111    -5149    -5018    -4704    -4272    -3715    -3085    -2553 
   -2248    -2174    -2224    -2261    -2285    -2431    -2771    -3222 
   -3671    -4047    -4277    -4380    -4489    -4648    -4774    -4774 
   -4583    -4166    -3663    -3331    -3145    -2846    -2403    -1998 
   -1742    -1630    -1644    -1790    -2064    -2451    -2879    -3228 
   -3414    -3401    -3272    -3119    -2919    -2668    -2373    -1998 
   -1583    -1148     -624      -13      598     1116     1492     1799 
    2129     2466     2827     3295     3830     4323     4775     5198 
    5569     5923     6245     6410     6358     6162     5933     5751 
    5629     5560     5566     5639     5735     5833     5945     6111 
    6347     6570     6682     6718     6825     7110     7576     8101 
    8531     8779     8844     8775     8645     8508     8353     8109 
    7754     7336     6897     6497     6177     5851     5501     5267 
    5196     5253     5449     5738     6009     6183     6226     6172 
    6117     6113     6184     6345     6460     6373     6162     5985 
    5891     5894     5938     5890     5723     5496     5230     4966 
    4764     4635     4596     4719     5016     5418     5888     6373 
    6734     6945     7118     7305     7419     7316     6967     6507 
    6111     5955     6134     6496     6745     6745     6586     6397 
    6230     6139     6156     6244     6373     6523     6681     6854 
    6980     6985     6871     6658     6437     6342     6360     6399 
    6376     6201     5864     5491     5251     5188     5188     5156 
    5076     4971     4879     4776     4591     4375     4280     4328 
    4408     4522     4711     4878     4910     4789     4633     4610 
    4683     4697     4660     4655     4653     4558     4339     4070 
    3808     3544     3306     3187     3260     3479     3742     4006 
    4208     4271     4231     4131     3958     3716     3414     3088 
    2815     2660     2668     2851     3168     3564     3969     4323 
    4596     4770     4880     4982     5001     4818     4480     4116 
    3800     3584     3488     3453     3414     3393     3403     3369 
    3257     3159     3147     3179     3205     3249     3293     3283 
    3256     3256     3279     3368     3554     3807     4093     4368 
    4557     4601     4531     4357     3967     3389     2850     2491 
    2341     2350     2455     2687     3073     3566     4095     4576 
    4952     5236     5458     5573     5516     5326     5118     4952 
    4819     4691     4518     4263     3979     3811     3863     4145 
    4622     5171     5615     5926     6223     6511     6655     6641 
    6623     6668     6693     6654     6604     6524     6306     5964 
    5642     5405     5217     5054     4861     4565     4217     3971 
    3942     4106     4321     4493     4642     4765     4808     4744 
    4433     3744     2842     1982     1229      586       41     -484 
    -982    -1318    -1399    -1263     -992     -655     -364     -249 
    -292     -371     -456     -529     -527     -408     -147      230 
     599      881     1129     1411     1706     1967     2165     2257 
    2276     2312     2385     2485     2612     2732     2840     3017 
    3331     3730     4046     4169     4155     4100     4036     3972 
    3954     4070     4370     4780     5136     5347     5519     5785 
    6152     6518     6711     6638     6385     6090     5833     5612 
    5390     5170     4963     4719     4433     4197     4077     4087 
    4198     4301     4291     4184     4086     4053     4039     3970 
    3781     3408     2854     2257     1779     1453     1243     1145 
    1131     1137     1142     1145     1132     1142     1211     1262 
    1183      995      811      657      494      335      192       17 
    -204     -414     -572     -694     -799     -862     -844     -715 
    -538     -410     -274       -9      306      495      484      285 
     -59     -426     -683     -838     -990    -1173    -1347    -1483 
   -1652    -1968    -2374    -2623    -2566    -2307    -2052    -1938 
   -1946    -1861    -1496     -948     -440      -70      171      339 
     422      297     -105     -743    -1524    -2289    -2848    -3096 
   -3037    -2719    -2235    -1776    -1521    -1451    -1401    -1292 
   -1184    -1128    -1133    -1221    -1406    -1685    -2055    -2454 
   -2804    -3106    -3360    -3506    -3588    -3746    -3987    -4206 
   -4328    -4322    -4180    -3953    -3698    -3428    -3170    -2985 
   -2881    -2816    -2774    -2775    -2835    -2922    -2989    -3040 
   -3147    -3389    -3787    -4274    -4719    -5038    -5222    -5262 
   -5142    -4913    -4613    -4252    -3985    -4054    -4534    -5330 
   -6271    -7149    -7806    -8181    -8251    -8030    -7628    -7234 
   -7007    -6983    -7129    -7440    -7843    -8143    -8246    -8212 
   -8082    -7890    -7695    -7500    -7331    -7314    -7494    -7715 
   -7842    -7960    -8223    -8616    -8994    -9255    -9341    -9227 
   -8973    -8694    -8524    -8528    -8643    -8770    -8829    -8732 
   -8460    -8045    -7500    -6874    -6228    -5602    -5099    -4827 
   -4748    -4711    -4595    -4347    -3991    -3586    -3187    -2857 
