Origin Time       2011/03/11 14:46:00
Lat.              38.103
Long.             142.860
Depth. (km)       24
Mag.              9.0
Station Code      TYM003
Station Lat.      36.8164
Station Long.     137.4200
Station Height(m) 47
Record Time       2011/03/11 14:48:46
Sampling Freq(Hz) 100Hz
Duration Time(s)  215
Dir.              U-D
Scale Factor      3920(gal)/6182761
Max. Acc. (gal)   3.182
Last Correction   2011/03/11 14:48:31
Memo.             
[...]
   -4556    -4543    -4535    -4521    -4526    -4567    -4595    -4604 
   -4629    -4639    -4628    -4649    -4697    -4727    -4727    -4708 
   -4717    -4797    -4881    -4899    -4898    -4913    -4919    -4900 
   -4869    -4838    -4813    -4776    -4728    -4686    -4603    -4471 
   -4356    -4243    -4107    -3977    -3839    -3707    -3608    -3497 
   -3386    -3283    -3149    -3019    -2921    -2815    -2702    -2617 
   -2560    -2521    -2516    -2528    -2537    -2556    -2574    -2601 
   -2638    -2667    -2729    -2868    -3009    -3084    -3181    -3339 
   -3467    -3577    -3687    -3748    -3798    -3824    -3778    -3752 
   -3771    -3766    -3765    -3792    -3807    -3809    -3785    -3751 
   -3727    -3628    -3478    -3404    -3381    -3356    -3371    -3432 
   -3498    -3563    -3628    -3668    -3700    -3750    -3790    -3771 
   -3737    -3777    -3826    -3818    -3833    -3890    -3924    -3930 
   -3931    -3962    -4016    -4052    -4105    -4210    -4319    -4404 
   -4489    -4576    -4619    -4635    -4679    -4715    -4760    -4833 
   -4890    -4984    -5106    -5170    -5244    -5340    -5403    -5480 
   -5568    -5642    -5740    -5831    -5886    -5931    -5944    -5920 
   -5899    -5916    -5969    -5999    -5999    -6010    -6021    -6023 
   -6041    -6099    -6167    -6167    -6159    -6246    -6301    -6228 
   -6201    -6289    -6339    -6301    -6244    -6225    -6219    -6122 
   -5921    -5719    -5567    -5406    -5201    -4999    -4857    -4767 
   -4654    -4509    -4410    -4368    -4353    -4331    -4236    -4155 
   -4182    -4209    -4216    -4260    -4283    -4330    -4423    -4421 
   -4379    -4412    -4423    -4388    -4410    -4460    -4501    -4597 
   -4701    -4722    -4709    -4706    -4701    -4680    -4634    -4586 
   -4564    -4575    -4595    -4599    -4626    -4687    -4729    -4732 
   -4739    -4805    -4914    -5017    -5142    -5290    -5401    -5497 
   -5633    -5794    -5951    -6103    -6254    -6401    -6525    -6654 
   -6797    -6884    -6915    -6922    -6835    -6676    -6574    -6476 
   -6334    -6244    -6147    -6001    -5899    -5813    -5738    -5731 
   -5746    -5722    -5684    -5705    -5769    -5780    -5725    -5652 
   -5573    -5467    -5329    -5194    -5094    -5065    -5095    -5107 
   -5110    -5161    -5218    -5237    -5254    -5304    -5369    -5399 
   -5415    -5456    -5479    -5461    -5478    -5584    -5719    -5815 
   -5885    -5980    -6081    -6139    -6184    -6272    -6366    -6422 
   -6464    -6510    -6554    -6591    -6607    -6585    -6547    -6551 
   -6566    -6558    -6602    -6693    -6777    -6831    -6834    -6845 
   -6865    -6824    -6766    -6721    -6672    -6638    -6593    -6529 
   -6474    -6402    -6293    -6196    -6113    -5989    -5861    -5778 
   -5695    -5579    -5484    -5452    -5456    -5479    -5500    -5506 
   -5537    -5530    -5447    -5416    -5417    -5341    -5287    -5302 
   -5295    -5279    -5264    -5201    -5155    -5177    -5187    -5164 
   -5177    -5211    -5223    -5276    -5366    -5416    -5441    -5437 
   -5345    -5200    -5071    -4947    -4800    -4626    -4441    -4296 
   -4176    -4032    -3947    -3941    -3896    -3818    -3795    -3819 
   -3826    -3814    -3878    -4016    -4135    -4226    -4324    -4415 
   -4481    -4518    -4547    -4594    -4652    -4712    -4763    -4814 
   -4897    -4988    -5043    -5085    -5132    -5157    -5165    -5174 
   -5167    -5143    -5128    -5141    -5146    -5127    -5141    -5173 
   -5164    -5145    -5148    -5189    -5276    -5328    -5352    -5424 
   -5481    -5502    -5520    -5492    -5452    -5420    -5339    -5273 
   -5238    -5172    -5139    -5123    -5037    -4939    -4849    -4737 
   -4653    -4570    -4440    -4363    -4366    -4353    -4355    -4429 
   -4526    -4636    -4777    -4922    -5044    -5184    -5368    -5511 
   -5583    -5666    -5751    -5812    -5872    -5903    -5901    -5888 
   -5857    -5805    -5720    -5612    -5518    -5442    -5353    -5228 
   -5139    -5130    -5115    -5082    -5077    -5077    -5061    -5029 
   -4995    -4983    -4986    -4981    -4951    -4934    -4937    -4889 
   -4816    -4763    -4691    -4622    -4578    -4529    -4487    -4477 
   -4498    -4543    -4566    -4552    -4591    -4662    -4673    -4704 
   -4787    -4812    -4814    -4864    -4896    -4905    -4950    -5018 
   -5090    -5129    -5114    -5135    -5166    -5102    -5026    -4978 
   -4871    -4731    -4615    -4498    -4348    -4195    -4079    -3954 
   -3800    -3683    -3607    -3535    -3488    -3490    -3532    -3611 
   -3684    -3735    -3821    -3914    -3944    -3937    -3932    -3939 
   -3949    -3957    -3986    -4043    -4142    -4276    -4413    -4558 
   -4697    -4801    -4868    -4875    -4863    -4915    -4945    -4913 
   -4928    -4964    -4970    -4977    -4976    -5007    -5115    -5216 
   -5283    -5378    -5483    -5551    -5604    -5658    -5699    -5733 
   -5756    -5788    -5876    -5983    -6060    -6161    -6289    -6360 
   -6407    -6491    -6546    -6561    -6578    -6572    -6545    -6534 
   -6529    -6497    -6445    -6381    -6277    -6144    -6021    -5902 
   -5804    -5733    -5658    -5610    -5588    -5562    -5565    -5569 
   -5546    -5588    -5699    -5795    -5917    -6084    -6238    -6376 
   -6488    -6561    -6622    -6658    -6643    -6598    -6537    -6469 
   -6401    -6334    -6241    -6144    -6153    -6224    -6231    -6277 
   -6402    -6444    -6415    -6405    -6371    -6350    -6363    -6319 
   -6259    -6253    -6239    -6169    -6095    -6048    -5981    -5913 
   -5847    -5722    -5601    -5561    -5547    -5508    -5479    -5450 
   -5347    -5193    -5057    -4933    -4822    -4720    -4629    -4608 
   -4608    -4543    -4488    -4473    -4426    -4379    -4383    -4423 
   -4509    -4620    -4708    -4830    -5017    -5189    -5342    -5522 
   -5707    -5877    -6037    -6177    -6295    -6395    -6480    -6534 
   -6559    -6587    -6597    -6549    -6475    -6395    -6287    -6173 
   -6089    -6019    -5921    -5815    -5731    -5636    -5566    -5566 
   -5590    -5629    -5690    -5729    -5735    -5739    -5748    -5767 
   -5791    -5775    -5750    -5792    -5867    -5908    -5927    -5968 
   -5998    -5946    -5838    -5738    -5641    -5532    -5437    -5391 
   -5396    -5410    -5405    -5415    -5437    -5423    -5380    -5359 
   -5355    -5334    -5310    -5314    -5361    -5426    -5448    -5419 
   -5402    -5387    -5314    -5237    -5227    -5209    -5139    -5113 
   -5148    -5192    -5270    -5367    -5434    -5505    -5560    -5541 
   -5512    -5509    -5483    -5442    -5415    -5402    -5366    -5292 
   -5241    -5213    -5179    -5184    -5184    -5125    -5091    -5079 
   -5006    -4924    -4869    -4794    -4696    -4567    -4437    -4369 
   -4330    -4288    -4291    -4338    -4367    -4386    -4424    -4436 
   -4435    -4465    -4492    -4519    -4543    -4537    -4557    -4606 
   -4586    -4516    -4490    -4459    -4358    -4254    -4179    -4096 
   -4021    -3979    -3956    -3973    -4037    -4108    -4186    -4252 
   -4315    -4426    -4524    -4581    -4664    -4750    -4811    -4823 
   -4750    -4706    -4716    -4620    -4475    -4423    -4398    -4370 
   -4352    -4324    -4311    -4266    -4150    -4069    -4025    -3926 
   -3824    -3769    -3688    -3597    -3560    -3524    -3485    -3461 
   -3405    -3374    -3435    -3539    -3674    -3863    -4024    -4158 
   -4350    -4539    -4674    -4815    -4932    -4995    -5067    -5142 
   -5175    -5202    -5250    -5295    -5332    -5371    -5406    -5438 
   -5465    -5485    -5494    -5491    -5488    -5491    -5491    -5479 
   -5467    -5458    -5448    -5454    -5459    -5439    -5420    -5410 
   -5391    -5388    -5424    -5482    -5561    -5674    -5793    -5906 
   -6021    -6100    -6116    -6101    -6089    -6085    -6082    -6074 
   -6056    -6042    -6040    -6019    -5975    -5964    -5967    -5946 
   -5950    -5976    -5997    -6039    -6091    -6142    -6163    -6148 
   -6138    -6106    -6073    -6078    -6041    -6009    -6022    -5961 
   -5893    -5897    -5883    -5888    -5921    -5916    -5959    -6019 
   -5996    -5986    -6007    -5980    -5946    -5918    -5874    -5859 
   -5843    -5771    -5709    -5699    -5714    -5759    -5841    -5941 
   -6059    -6175    -6256    -6318    -6360    -6380    -6406    -6429 
   -6454    -6502    -6572    -6669    -6786    -6929    -7109    -7294 
   -7472    -7631    -7729    -7799    -7865    -7880    -7865    -7845 
   -7803    -7760    -7723    -7663    -7587    -7493    -7378    -7253 
   -7138    -7066    -7024    -6963    -6893    -6843    -6797    -6727 
   -6668    -6676    -6701    -6674    -6674    -6748    -6811    -6845 
   -6881    -6938    -7019    -7089    -7158    -7273    -7399    -7473 
   -7530    -7605    -7636    -7624    -7620    -7591    -7532    -7448 
   -7337    -7242    -7143    -7023    -6931    -6832    -6685    -6528 
   -6364    -6205    -6088    -6012    -5980    -5974    -5954    -5943 
   -5955    -5954    -5964    -6015    -6069    -6133    -6219    -6303 
   -6405    -6547    -6701    -6839    -6980    -7126    -7225    -7273 
   -7295    -7278    -7224    -7162    -7099    -7014    -6873    -6712 
   -6619    -6519    -6355    -6250    -6200    -6107    -6008    -5953 
   -5913    -5871    -5861    -5876    -5885    -5894    -5911    -5929 
   -5935    -5989    -6107    -6170    -6199    -6267    -6276    -6244 
   -6244    -6177    -6059    -5998    -5946    -5860    -5807    -5797 
   -5773    -5731    -5705    -5686    -5670    -5637    -5571    -5504 
   -5446    -5385    -5321    -5246    -5171    -5104    -5028    -4948 
   -4897    -4875    -4837    -4798    -4780    -4750    -4690    -4597 
   -4487    -4353    -4188    -4052    -3916    -3745    -3629    -3570 
   -3478    -3376    -3315    -3222    -3056    -2893    -2726    -2547 
   -2416    -2300    -2191    -2122    -2051    -1976    -1911    -1852 
   -1810    -1786    -1804    -1879    -1935    -1946    -1973    -2006 
   -2010    -1992    -1952    -1951    -2010    -2029    -2022    -2090 
   -2201    -2309    -2431    -2577    -2745    -2913    -3032    -3125 
   -3245    -3334    -3338    -3331    -3340    -3333    -3350    -3393 
   -3420    -3482    -3577    -3627    -3667    -3728    -3755    -3756 
   -3751    -3721    -3696    -3691    -3676    -3668    -3660    -3623 
   -3574    -3490    -3350    -3192    -3046    -2889    -2702    -2517 
   -2362    -2225    -2081    -1914    -1766    -1676    -1583    -1491 
   -1493    -1559    -1637    -1783    -1971    -2124    -2273    -2441 
   -2611    -2790    -2957    -3136    -3378    -3628    -3841    -4046 
   -4235    -4374    -4484    -4594    -4701    -4808    -4949    -5115 
   -5228    -5322    -5454    -5551    -5609    -5691    -5750    -5752 
   -5741    -5716    -5653    -5590    -5543    -5452    -5318    -5212 
   -5130    -5047    -5000    -4969    -4936    -4944    -4976    -5022 
   -5113    -5209    -5291    -5364    -5407    -5465    -5551    -5608 
   -5656    -5715    -5752    -5771    -5777    -5780    -5789    -5787 
   -5784    -5798    -5812    -5827    -5861    -5894    -5909    -5914 
   -5886    -5831    -5780    -5754    -5745    -5708    -5666    -5651 
   -5607    -5537    -5522    -5524    -5503    -5525    -5552    -5543 
   -5565    -5550    -5478    -5473    -5483    -5467    -5529    -5644 
   -5754    -5882    -6041    -6229    -6414    -6581    -6771    -6989 
   -7201    -7412    -7639    -7858    -8043    -8194    -8305    -8354 
   -8362    -8381    -8400    -8387    -8340    -8247    -8114    -7951 
   -7738    -7507    -7287    -7038    -6773    -6537    -6301    -6049 
   -5835    -5671    -5500    -5337    -5228    -5137    -5045    -4987 
   -4950    -4909    -4883    -4870    -4855    -4832    -4779    -4715 
   -4702    -4708    -4690    -4718    -4819    -4905    -4955    -5038 
   -5171    -5292    -5384    -5496    -5631    -5723    -5784    -5893 
   -6019    -6111    -6200    -6249    -6223    -6174    -6097    -5987 
   -5908    -5833    -5726    -5642    -5568    -5461    -5373    -5299 
   -5201    -5126    -5058    -4916    -4751    -4620    -4456    -4274 
   -4156    -4051    -3941    -3862    -3757    -3668    -3658    -3644 
   -3662    -3774    -3892    -4006    -4154    -4283    -4369    -4432 
   -4459    -4461    -4445    -4418    -4440    -4503    -4556    -4644 
   -4785    -4895    -4973    -5054    -5099    -5100    -5077    -5032 
   -4993    -4965    -4925    -4876    -4812    -4712    -4575    -4402 
   -4180    -3921    -3675    -3446    -3216    -3019    -2881    -2768 
   -2673    -2615    -2584    -2574    -2599    -2622    -2611    -2604 
   -2587    -2548    -2565    -2636    -2728    -2870    -3036    -3181 
   -3312    -3418    -3477    -3523    -3564    -3551    -3517    -3530 
   -3571    -3599    -3636    -3680    -3675    -3624    -3551    -3431 
   -3265    -3071    -2854    -2628    -2405    -2222    -2101    -2011 
   -1969    -2001    -2072    -2142    -2198    -2230    -2239    -2208 
   -2122    -2043    -2030    -2039    -2050    -2101    -2179    -2240 
   -2305    -2372    -2391    -2400    -2422    -2387    -2330    -2289 
   -2186    -2062    -1960    -1810    -1625    -1445    -1236    -1003 
    -778     -554     -343     -180      -40       62       86      108 
     145      112       50       15      -72     -228     -375     -535 
    -758    -1007    -1259    -1533    -1837    -2137    -2410    -2696 
   -2995    -3247    -3460    -3646    -3785    -3903    -4006    -4092 
   -4241    -4445    -4617    -4802    -5022    -5196    -5364    -5542 
   -5666    -5795    -5957    -6084    -6215    -6394    -6565    -6727 
   -6897    -7048    -7187    -7329    -7440    -7514    -7567    -7594 
   -7586    -7544    -7476    -7394    -7297    -7184    -7057    -6909 
   -6725    -6517    -6309    -6111    -5911    -5674    -5425    -5245 
   -5114    -4984    -4914    -4920    -4944    -4987    -5070    -5185 
   -5326    -5486    -5654    -5792    -5892    -5981    -6044    -6046 
   -6041    -6056    -6014    -5915    -5831    -5742    -5642    -5541 
   -5411    -5290    -5183    -5055    -4963    -4922    -4898    -4912 
   -4973    -5048    -5131    -5244    -5382    -5513    -5623    -5722 
   -5842    -5985    -6102    -6201    -6308    -6380    -6397    -6377 
   -6344    -6301    -6250    -6199    -6133    -6061    -6002    -5944 
   -5863    -5775    -5708    -5631    -5524    -5410    -5303    -5189 
   -5051    -4906    -4768    -4637    -4532    -4468    -4456    -4462 
   -4460    -4472    -4456    -4377    -4271    -4141    -3950    -3735 
   -3538    -3348    -3176    -3019    -2873    -2771    -2684    -2589 
   -2540    -2534    -2534    -2581    -2698    -2817    -2917    -3038 
   -3145    -3203    -3271    -3365    -3462    -3573    -3678    -3755 
   -3817    -3846    -3844    -3824    -3776    -3721    -3670    -3599 
   -3533    -3478    -3395    -3299    -3199    -3056    -2873    -2707 
   -2557    -2402    -2280    -2211    -2161    -2151    -2196    -2234 
   -2276    -2358    -2401    -2384    -2386    -2411    -2408    -2405 
   -2452    -2534    -2629    -2726    -2827    -2927    -2988    -3013 
   -3047    -3096    -3125    -3149    -3219    -3306    -3370    -3441 
   -3501    -3523    -3533    -3515    -3464    -3394    -3303    -3240 
   -3230    -3222    -3232    -3322    -3439    -3515    -3597    -3727 
   -3862    -3989    -4148    -4348    -4565    -4793    -5018    -5239 
   -5459    -5644    -5802    -5944    -6039    -6084    -6096    -6075 
   -6026    -5972    -5929    -5895    -5870    -5804    -5661    -5532 
   -5414    -5213    -5032    -4936    -4801    -4661    -4599    -4532 
   -4473    -4475    -4504    -4566    -4620    -4629    -4633    -4594 
   -4494    -4376    -4255    -4133    -3980    -3784    -3572    -3343 
   -3089    -2832    -2611    -2443    -2310    -2199    -2116    -2050 
   -1988    -1934    -1900    -1899    -1920    -1961    -2044    -2134 
   -2197    -2261    -2320    -2352    -2380    -2420    -2443    -2444 
   -2449    -2433    -2362    -2252    -2114    -1969    -1821    -1644 
   -1475    -1337    -1203    -1123    -1099    -1084    -1113    -1196 
   -1290    -1415    -1586    -1761    -1940    -2137    -2308    -2455 
   -2613    -2767    -2889    -2998    -3106    -3176    -3217    -3264 
   -3290    -3298    -3306    -3291    -3263    -3212    -3124    -3015 
   -2883    -2743    -2619    -2512    -2461    -2486    -2562    -2649 
   -2733    -2826    -2906    -2955    -3032    -3148    -3268    -3390 
   -3520    -3654    -3776    -3888    -4044    -4230    -4396    -4574 
   -4780    -4974    -5122    -5237    -5355    -5456    -5509    -5530 
   -5502    -5440    -5403    -5363    -5344    -5399    -5463    -5523 
   -5603    -5638    -5646    -5682    -5710    -5722    -5776    -5831 
   -5809    -5749    -5675    -5540    -5352    -5154    -4979    -4838 
   -4726    -4642    -4585    -4551    -4511    -4441    -4401    -4406 
   -4419    -4478    -4600    -4739    -4864    -5011    -5198    -5348 
   -5485    -5663    -5795    -5885    -5981    -6051    -6114    -6177 
   -6215    -6257    -6294    -6297    -6291    -6303    -6319    -6331 
   -6365    -6429    -6496    -6569    -6659    -6739    -6784    -6797 
   -6790    -6750    -6675    -6591    -6468    -6292    -6129    -5968 
   -5793    -5674    -5581    -5482    -5426    -5375    -5277    -5163 
   -5022    -4845    -4679    -4541    -4443    -4395    -4366    -4350 
   -4344    -4298    -4233    -4200    -4158    -4107    -4096    -4092 
   -4085    -4117    -4162    -4194    -4220    -4227    -4209    -4201 
   -4201    -4185    -4194    -4220    -4226    -4261    -4313    -4338 
   -4352    -4326    -4245    -4145    -4015    -3860    -3722    -3585 
   -3437    -3300    -3189    -3113    -3054    -3014    -3014    -3055 
   -3148    -3278    -3429    -3598    -3735    -3852    -3996    -4110 
   -4198    -4342    -4490    -4565    -4626    -4709    -4765    -4794 
   -4822    -4847    -4869    -4894    -4912    -4938    -4979    -5007 
   -5013    -5015    -4994    -4938    -4861    -4768    -4701    -4669 
   -4613    -4562    -4562    -4544    -4484    -4439    -4395    -4340 
   -4300    -4243    -4175    -4130    -4061    -3966    -3900    -3824 
   -3715    -3613    -3505    -3376    -3251    -3146    -3080    -3041 
   -2987    -2953    -2969    -2950    -2889    -2848    -2781    -2684 
   -2626    -2596    -2572    -2571    -2581    -2587    -2602    -2650 
   -2752    -2892    -3035    -3201    -3417    -3617    -3768    -3949 
   -4158    -4313    -4418    -4496    -4535    -4543    -4540    -4554 
   -4605    -4675    -4736    -4809    -4909    -5004    -5083    -5176 
   -5260    -5323    -5385    -5429    -5494    -5625    -5770    -5928 
   -6125    -6286    -6365    -6399    -6378    -6310    -6226    -6113 
   -5988    -5871    -5717    -5534    -5369    -5183    -4956    -4729 
   -4490    -4230    -3972    -3730    -3535    -3387    -3257    -3177 
   -3141    -3095    -3056    -3041    -3018    -2995    -3005    -3013 
   -3029    -3097    -3175    -3242    -3325    -3411    -3509    -3622 
