Origin Time       2011/03/11 14:46:00
Lat.              38.103
Long.             142.860
Depth. (km)       24
Mag.              9.0
Station Code      TYM012
Station Lat.      36.4402
Station Long.     137.0395
Station Height(m) 669
Record Time       2011/03/11 14:49:32
Sampling Freq(Hz) 100Hz
Duration Time(s)  108
Dir.              E-W
Scale Factor      3920(gal)/6182761
Max. Acc. (gal)   3.779
Last Correction   2011/03/11 14:49:17
Memo.             
[...]
  -22456   -22474   -22496   -22520   -22516   -22498   -22480   -22446 
  -22391   -22328   -22257   -22183   -22116   -22054   -21995   -21949 
  -21915   -21886   -21878   -21892   -21905   -21934   -21998   -22066 
  -22142   -22256   -22356   -22409   -22476   -22553   -22573   -22563 
  -22570   -22550   -22498   -22477   -22461   -22401   -22344   -22307 
  -22242   -22163   -22121   -22093   -22061   -22065   -22106   -22143 
  -22194   -22276   -22357   -22439   -22537   -22633   -22710   -22768 
  -22805   -22837   -22867   -22877   -22886   -22912   -22920   -22899 
  -22882   -22872   -22840   -22789   -22756   -22732   -22679   -22613 
  -22557   -22493   -22423   -22373   -22346   -22321   -22286   -22257 
  -22233   -22197   -22152   -22102   -22030   -21945   -21866   -21784 
  -21692   -21608   -21541   -21493   -21474   -21483   -21508   -21553 
  -21607   -21656   -21722   -21810   -21888   -21965   -22059   -22126 
  -22153   -22181   -22201   -22202   -22225   -22274   -22315   -22363 
  -22421   -22463   -22496   -22524   -22528   -22512   -22476   -22407 
  -22318   -22225   -22101   -21961   -21853   -21740   -21603   -21502 
  -21418   -21302   -21195   -21120   -21042   -20957   -20886   -20822 
  -20749   -20674   -20611   -20566   -20541   -20528   -20538   -20576 
  -20624   -20663   -20709   -20784   -20872   -20955   -21056   -21182 
  -21287   -21368   -21468   -21561   -21601   -21625   -21660   -21647 
  -21579   -21515   -21441   -21338   -21239   -21149   -21062   -21013 
  -20996   -20985   -21012   -21073   -21123   -21185   -21280   -21360 
  -21402   -21444   -21487   -21489   -21457   -21453   -21457   -21396 
  -21322   -21305   -21271   -21173   -21110   -21090   -21008   -20901 
  -20863   -20832   -20751   -20703   -20698   -20657   -20593   -20557 
  -20536   -20514   -20493   -20476   -20468   -20447   -20406   -20395 
  -20407   -20390   -20394   -20447   -20473   -20487   -20547   -20620 
  -20679   -20744   -20804   -20851   -20907   -20966   -20976   -20961 
  -20966   -20937   -20871   -20833   -20808   -20763   -20726   -20726 
  -20719   -20655   -20593   -20571   -20507   -20406   -20351   -20328 
  -20299   -20273   -20251   -20230   -20207   -20183   -20183   -20202 
  -20222   -20276   -20345   -20388   -20441   -20519   -20588   -20658 
  -20738   -20791   -20825   -20867   -20900   -20904   -20910   -20937 
  -20950   -20925   -20897   -20903   -20897   -20854   -20830   -20834 
  -20817   -20786   -20779   -20778   -20745   -20718   -20749   -20767 
  -20724   -20702   -20720   -20712   -20696   -20736   -20790   -20785 
  -20788   -20870   -20965   -21027   -21113   -21247   -21358   -21426 
  -21529   -21652   -21717   -21743   -21774   -21819   -21859   -21859 
  -21850   -21861   -21853   -21825   -21816   -21831   -21860   -21861 
  -21845   -21880   -21923   -21918   -21938   -22003   -22031   -22040 
  -22075   -22087   -22076   -22070   -22024   -21964   -21948   -21907 
  -21813   -21742   -21699   -21638   -21563   -21516   -21526   -21540 
  -21521   -21542   -21617   -21692   -21757   -21820   -21897   -21954 
  -21941   -21927   -21949   -21913   -21810   -21742   -21708   -21633 
  -21523   -21439   -21397   -21374   -21357   -21351   -21382   -21443 
  -21474   -21463   -21478   -21528   -21537   -21529   -21575   -21605 
  -21544   -21480   -21480   -21460   -21379   -21354   -21415   -21435 
  -21406   -21421   -21469   -21470   -21424   -21433   -21514   -21516 
  -21451   -21472   -21522   -21472   -21384   -21358   -21351   -21296 
  -21245   -21235   -21215   -21174   -21156   -21193   -21254   -21272 
  -21298   -21385   -21432   -21440   -21507   -21569   -21576   -21590 
  -21616   -21619   -21589   -21530   -21487   -21465   -21382   -21276 
  -21272   -21303   -21268   -21252   -21290   -21294   -21302   -21393 
  -21492   -21530   -21589   -21669   -21696   -21731   -21807   -21834 
  -21848   -21910   -21919   -21890   -21899   -21897   -21927   -22003 
  -22002   -21997   -22045   -22006   -21932   -21954   -21963   -21917 
  -21965   -22089   -22146   -22198   -22328   -22442   -22504   -22575 
  -22663   -22729   -22755   -22791   -22853   -22857   -22824   -22830 
  -22801   -22734   -22700   -22652   -22590   -22586   -22594   -22582 
  -22605   -22659   -22682   -22699   -22753   -22790   -22807   -22870 
  -22929   -22936   -22959   -23011   -23012   -22981   -23019   -23061 
  -23004   -22956   -22978   -22936   -22832   -22783   -22735   -22624 
  -22530   -22472   -22394   -22304   -22227   -22187   -22163   -22074 
  -21974   -21955   -21908   -21825   -21854   -21905   -21877   -21912 
  -21992   -21980   -22002   -22117   -22151   -22129   -22188   -22256 
  -22256   -22263   -22326   -22386   -22442   -22522   -22583   -22626 
  -22684   -22723   -22721   -22700   -22677   -22618   -22501   -22394 
  -22319   -22204   -22061   -21962   -21855   -21718   -21666   -21672 
  -21610   -21568   -21624   -21691   -21744   -21788   -21813   -21853 
  -21862   -21833   -21875   -21909   -21830   -21797   -21849   -21856 
  -21851   -21907   -21991   -22057   -22133   -22281   -22433   -22476 
  -22521   -22656   -22737   -22753   -22836   -22930   -22968   -23007 
  -23040   -23030   -23034   -23071   -23055   -23012   -23021   -23022 
  -23012   -23047   -23051   -23007   -23023   -23094   -23123   -23104 
  -23135   -23201   -23187   -23161   -23210   -23219   -23162   -23133 
  -23102   -23014   -22911   -22816   -22710   -22621   -22573   -22511 
  -22439   -22413   -22372   -22277   -22199   -22142   -22067   -22001 
  -21967   -21940   -21904   -21891   -21933   -21948   -21902   -21915 
  -21982   -22012   -22061   -22140   -22157   -22163   -22214   -22213 
  -22163   -22132   -22063   -21947   -21841   -21712   -21579   -21475 
  -21323   -21154   -21077   -20998   -20860   -20797   -20828   -20834 
  -20819   -20870   -20961   -21007   -21054   -21172   -21290   -21363 
  -21445   -21548   -21629   -21671   -21703   -21765   -21803   -21773 
  -21792   -21863   -21834   -21761   -21767   -21791   -21772   -21728 
  -21722   -21789   -21841   -21909   -22071   -22175   -22219   -22388 
  -22590   -22706   -22853   -23034   -23074   -22999   -23016   -23076 
  -22958   -22764   -22721   -22694   -22538   -22485   -22624   -22726 
  -22745   -22662   -22435   -22356   -22336   -21952   -21704   -21871 
  -21549   -20959   -21229   -21656   -21373   -21444   -22157   -22256 
  -21984   -22338   -22570   -22244   -22350   -22708   -22550   -22339 
  -22400   -22501   -22574   -22341   -21994   -22062   -21852   -21136 
  -21289   -21815   -21128   -20682   -21675   -22182   -21833   -22271 
  -22986   -22804   -22490   -22592   -22607   -22538   -22203   -21461 
  -21462   -22028   -21509   -20881   -21584   -21899   -21201   -21173 
  -21290   -20682   -20514   -20619   -20400   -20876   -21618   -21726 
  -22368   -23321   -22994   -22379   -22700   -22829   -22269   -21999 
  -22071   -21601   -20795   -20875   -21546   -21439   -21103   -21366 
  -21263   -20792   -20926   -21116   -20914   -21029   -21290   -21074 
  -20841   -21327   -22220   -22307   -21615   -21772   -22494   -21960 
  -21242   -22176   -22779   -21504   -20999   -22318   -22739   -21895 
  -22367   -23586   -22901   -21379   -21123   -21189   -20641   -20289 
  -20379   -20202   -19891   -20063   -20401   -20820   -21553   -21701 
  -21135   -21326   -21928   -21634   -21497   -22213   -22792   -23126 
  -23165   -22873   -23000   -22878   -22022   -22043   -22508   -21577 
  -20725   -21235   -21505   -21234   -21379   -21800   -21969   -21916 
  -22274   -22784   -22601   -22076   -21648   -21506   -21646   -21342 
  -21136   -21606   -21436   -20721   -20778   -21261   -21286   -21027 
  -21434   -21922   -20986   -20208   -21191   -21643   -20921   -21578 
  -22979   -22574   -21627   -22295   -22896   -21968   -21710   -22438 
  -21898   -21156   -21756   -21972   -21262   -21136   -21267   -20518 
  -20106   -20828   -20706   -20025   -20940   -21606   -20906   -21548 
  -22645   -22029   -21947   -22691   -22131   -21835   -22635   -22313 
  -21738   -22604   -22671   -21450   -21660   -22384   -21621   -21464 
  -22620   -22677   -21900   -21833   -21936   -21797   -21542   -21395 
  -21496   -20979   -20304   -20733   -21166   -21018   -21606   -22449 
  -22453   -22625   -22886   -22273   -22348   -23255   -22953   -22682 
  -23629   -23570   -22656   -23028   -23578   -23057   -22916   -23524 
  -23600   -23111   -22754   -22603   -22558   -22443   -22266   -22426 
  -22808   -22831   -22549   -22593   -23016   -23180   -23244   -23873 
  -24415   -24024   -23535   -23661   -23526   -22983   -23055   -23652 
  -23998   -23817   -23186   -22601   -22272   -21900   -21767   -22066 
  -22246   -22324   -22371   -21992   -21692   -22003   -22127   -21598 
  -21686   -22546   -22171   -21280   -21878   -22204   -21229   -20931 
  -21555   -21977   -21934   -21722   -22007   -22263   -21627   -21786 
  -23329   -23571   -22750   -23633   -24687   -23478   -22591   -23772 
  -23793   -22064   -22016   -23081   -22355   -21267   -21938   -22359 
  -20901   -20274   -21852   -22319   -21182   -21876   -23229   -22266 
  -21296   -21865   -21464   -20414   -20741   -21134   -20895   -21173 
  -21367   -21158   -21173   -20813   -20306   -20685   -21339   -21463 
  -21322   -21236   -21282   -21216   -20797   -20758   -21524   -21909 
  -21786   -22431   -22900   -21993   -21437   -21959   -22150   -21928 
  -21864   -22133   -22553   -22092   -21111   -21337   -22163   -21948 
  -21586   -21997   -21775   -20959   -21368   -22136   -21992   -22105 
  -22390   -22094   -21992   -21749   -21189   -21689   -22474   -22289 
  -22554   -23250   -22698   -22215   -23038   -23121   -22282   -22463 
  -22762   -22163   -22069   -22414   -22141   -21839   -21898   -21976 
  -22172   -22386   -22240   -21947   -21885   -21591   -20987   -21175 
  -21889   -21683   -21280   -21984   -22389   -21642   -21865   -22724 
  -21933   -21427   -22336   -22043   -21250   -21462   -21033   -20742 
  -22029   -22247   -20932   -21154   -21910   -21322   -21794   -23067 
  -22480   -22013   -22697   -22352   -22613   -23726   -21853   -20113 
  -22555   -23375   -20893   -21437   -23714   -22660   -20916   -21670 
  -21899   -19985   -19550   -21637   -22936   -22254   -21444   -21559 
  -21252   -20154   -20555   -21851   -21381   -20881   -22010   -22645 
  -22450   -22592   -22646   -22564   -22654   -22382   -21748   -21343 
  -20746   -20033   -20591   -21190   -20138   -19900   -21165   -20989 
  -20050   -20968   -22105   -21071   -19976   -20992   -21974   -21277 
  -20669   -21185   -21122   -19976   -20070   -21456   -21611   -21132 
  -21976   -22755   -22267   -21966   -22014   -21658   -21560   -22070 
  -22433   -21947   -21561   -21984   -21761   -21319   -21920   -22048 
  -21722   -22390   -22726   -22127   -22334   -22837   -22152   -21492 
  -21676   -21652   -21495   -21952   -22712   -22956   -22591   -22790 
  -23497   -22880   -21741   -21929   -21871   -20673   -20310   -21026 
  -21325   -21140   -21285   -21538   -21182   -20363   -19701   -19695 
  -19956   -19530   -19299   -20396   -21125   -20288   -19757   -20488 
  -21115   -21318   -21731   -21851   -21418   -21171   -21332   -21543 
  -21433   -20983   -20819   -21251   -21717   -21529   -20968   -20853 
  -20604   -19821   -19850   -20289   -20024   -20178   -20458   -19943 
  -20220   -20979   -20598   -20637   -21566   -21466   -20965   -21228 
  -21110   -20540   -20860   -21596   -21713   -21745   -22042   -21800 
  -20747   -20226   -20988   -21439   -21021   -21167   -21659   -21656 
  -21888   -22381   -22306   -22041   -22099   -22159   -22136   -21883 
  -21194   -20948   -21616   -21950   -21552   -21688   -22271   -22114 
  -22056   -22998   -23545   -23519   -23929   -23728   -22736   -22454 
  -22324   -21760   -21909   -22247   -21779   -21840   -22657   -22422 
  -21418   -21233   -21229   -20577   -20557   -21445   -21499   -20712 
  -20784   -21262   -20919   -20937   -21442   -21035   -20875   -21627 
  -21736   -21644   -22350   -22718   -22492   -22757   -22880   -21820 
  -20705   -20496   -20195   -19640   -20026   -21000   -21573   -22323 
  -23444   -23922   -23400   -22106   -20323   -18601   -17488   -17209 
  -17736   -18867   -19987   -20795   -21294   -20998   -20216   -19796 
  -19615   -19825   -20849   -21727   -21438   -20867   -21034   -21059 
  -20600   -21123   -22412   -22673   -22315   -22776   -22960   -21533 
  -20340   -20532   -20532   -20579   -21596   -22104   -21833   -22370 
  -23004   -22144   -21031   -20754   -20127   -19381   -19857   -21118 
  -22332   -23319   -23970   -24468   -24830   -24389   -23318   -22638 
  -21803   -20237   -19228   -19312   -19569   -19528   -19862   -21063 
  -22041   -22172   -22412   -22677   -21930   -20713   -20401   -20854 
  -21178   -21681   -22917   -23906   -23573   -22608   -21684   -20681 
  -20409   -21364   -22503   -23172   -23764   -24333   -24223   -23485 
  -23087   -23307   -23762   -24158   -23816   -22469   -21193   -20623 
  -20103   -19793   -20809   -22390   -22538   -21946   -22260   -22323 
  -21927   -23134   -24632   -23832   -22500   -22210   -21296   -19991 
  -19659   -19752   -21105   -24196   -25913   -25403   -24774   -23461 
  -21168   -19991   -19887   -19688   -19953   -20666   -20713   -20095 
  -19322   -18270   -17250   -16817   -17301   -19516   -22972   -25580 
  -27052   -27903   -26924   -24265   -22154   -20717   -19161   -19126 
  -21263   -23350   -24347   -24584   -23426   -21060   -19024   -17741 
  -17248   -18299   -20055   -21092   -22140   -23299   -23292   -23023 
  -23686   -23879   -23194   -23430   -24137   -23470   -22013   -20875 
  -20447   -20910   -21164   -20865   -21128   -21075   -19458   -18061 
  -18405   -19024   -19084   -19918   -21278   -21721   -22095   -23184 
  -23924   -23972   -23742   -23766   -24510   -25303   -25677   -25829 
  -25190   -23818   -22343   -20452   -18578   -17440   -16733   -16877 
  -18243   -19634   -20123   -20149   -20049   -19568   -19390   -20503 
  -22532   -24582   -25906   -26336   -26250   -25355   -24075   -23731 
  -23607   -22908   -23032   -23660   -23002   -21970   -21411   -20324 
  -19342   -19221   -19129   -19258   -19704   -19322   -18576   -18834 
  -19615   -19948   -20319   -21069   -21217   -21106   -21983   -22386 
  -21283   -20693   -20681   -19906   -19784   -20718   -20810   -20366 
  -20557   -20647   -20525   -21212   -22058   -22273   -23053   -24082 
  -23594   -22387   -21500   -20379   -19403   -19045   -18866   -18827 
  -19062   -19335   -19151   -18430   -18115   -18539   -18777   -19407 
  -21924   -24913   -25923   -25265   -24212   -22958   -21840   -21514 
  -21985   -23092   -24539   -25402   -25198   -24152   -22578   -21121 
  -20142   -19418   -18954   -18834   -19126   -19712   -19862   -19827 
  -20697   -21708   -21866   -22019   -22570   -23328   -23980   -23492 
  -22854   -23548   -23323   -21108   -20061   -21082   -21850   -22318 
  -23718   -24547   -23221   -21489   -20909   -20563   -20563   -21888 
  -23651   -24554   -24061   -22353   -20774   -19889   -19433   -20598 
  -23321   -24907   -24778   -24265   -23010   -21132   -20185   -20445 
  -21377   -22376   -22454   -21993   -22181   -22383   -21783   -21358 
  -21717   -22187   -22360   -22259   -21961   -21559   -21482   -22205 
  -22607   -21762   -21115   -21024   -20433   -20670   -22568   -23792 
  -23756   -23722   -22699   -20851   -20562   -21255   -21606   -22811 
  -24325   -24281   -23457   -22426   -20543   -19513   -20557   -21694 
  -22350   -23398   -23341   -21296   -19767   -20286   -21288   -22064 
  -23313   -24127   -23656   -22981   -22664   -22669   -23295   -23777 
  -23769   -24136   -24125   -22662   -21061   -20613   -20957   -21965 
  -23329   -24016   -24018   -23276   -21470   -20237   -20344   -20263 
  -20126   -20676   -21242   -21759   -21786   -21012   -21160   -22372 
  -23089   -23798   -25186   -26446   -26953   -26525   -25609   -24659 
  -23171   -21889   -21916   -22094   -22036   -22623   -22884   -21892 
  -21115   -21900   -23114   -23348   -22980   -22872   -23377   -23572 
  -22215   -20567   -20284   -20732   -21431   -22884   -24617   -25456 
  -25230   -24304   -22588   -20829   -20081   -19936   -20342   -22042 
  -23974   -24573   -23937   -22315   -20676   -20495   -20638   -20612 
  -22091   -23789   -24165   -24578   -24616   -23224   -21788   -20662 
  -19377   -19556   -21409   -22533   -22865   -23149   -21815   -20007 
  -20532   -21451   -21137   -21925   -23379   -23111   -22201   -21984 
  -21341   -19903   -18826   -18900   -20178   -21470   -21564   -21547 
  -22057   -21754   -21126   -21445   -21462   -21005   -21847   -22804 
  -22365   -22572   -23816   -23637   -22053   -20945   -20519   -20087 
  -19819   -20050   -20459   -21025   -21942   -22563   -22255   -21211 
  -20227   -19979   -20234   -20767   -21808   -22984   -23798   -24307 
  -24193   -23208   -22228   -21516   -20451   -19537   -19469   -20312 
  -21773   -22466   -22227   -22813   -23648   -23259   -23086   -23521 
  -23002   -22668   -23275   -22718   -21313   -20781   -20242   -19441 
  -19607   -20396   -21127   -21598   -20996   -19559   -18690   -19053 
  -20204   -21141   -21815   -22918   -24047   -24217   -23389   -22721 
  -23025   -23755   -24392   -24922   -25075   -24334   -22838   -21553 
  -20664   -19818   -19523   -19613   -19200   -18674   -18519   -18665 
  -19466   -20680   -21876   -22999   -22919   -21455   -20806   -21387 
  -21311   -20910   -22200   -24262   -24760   -24711   -25307   -24819 
  -23308   -22428   -21689   -20887   -21093   -22274   -23311   -23236 
  -22154   -21131   -20722   -20371   -19853   -19795   -20410   -21683 
  -23395   -24319   -24168   -23956   -23527   -22886   -22854   -23152 
  -23534   -23742   -23126   -22295   -21736   -21439   -21985   -22746 
  -22694   -22782   -23517   -23563   -22926   -22750   -22405   -21490 
  -21264   -21111   -19615   -18738   -19797   -20352   -19996   -20834 
  -21781   -20956   -20323   -21206   -21571   -21475   -22631   -23442 
  -22619   -22154   -22400   -21857   -20993   -20504   -19930   -19630 
  -19960   -19962   -19289   -19325   -20657   -21613   -21616   -22309 
  -23331   -22587   -20647   -19457   -19308   -19791   -20575   -21207 
  -21532   -21611   -21380   -20922   -20753   -20884   -21088   -22010 
  -23154   -23352   -23486   -23644   -22480   -20930   -20322   -20208 
  -20511   -21299   -22030   -22425   -22104   -21353   -20941   -20138 
  -19194   -20008   -21704   -22394   -22861   -23734   -24099   -23749 
  -23337   -23210   -23035   -22549   -22420   -22872   -22833   -22079 
  -21548   -21369   -21103   -21153   -21960   -22713   -22713   -22157 
  -21237   -20473   -20248   -20333   -21172   -22779   -23574   -23464 
  -23962   -24031   -22420   -21193   -21469   -22258   -23243   -23866 
  -23822   -23619   -22847   -21396   -20248   -19677   -19482   -19920 
  -20786   -21540   -22388   -22778   -21783   -20980   -21411   -21378 
  -20949   -21351   -21586   -21277   -21399   -21541   -21271   -21237 
  -21670   -22521   -23513   -24094   -24167   -23413   -21754   -20290 
  -19678   -19620   -20235   -21394   -21815   -21147   -20594   -20469 
