Origin Time       2011/03/11 14:46:00
Lat.              38.103
Long.             142.860
Depth. (km)       24
Mag.              9.0
Station Code      TYM012
Station Lat.      36.4402
Station Long.     137.0395
Station Height(m) 669
Record Time       2011/03/11 14:49:32
Sampling Freq(Hz) 100Hz
Duration Time(s)  108
Dir.              U-D
Scale Factor      3920(gal)/6182761
Max. Acc. (gal)   2.759
Last Correction   2011/03/11 14:49:17
Memo.             
[...]
    2777     2726     2681     2634     2587     2550     2513     2481 
    2432     2359     2318     2301     2254     2222     2224     2209 
    2185     2169     2140     2116     2103     2087     2081     2074 
    2065     2075     2091     2112     2143     2149     2151     2174 
    2189     2211     2248     2274     2314     2370     2408     2452 
    2495     2507     2529     2555     2565     2597     2621     2612 
    2611     2607     2582     2574     2581     2579     2574     2576 
    2583     2590     2603     2622     2629     2631     2644     2638 
    2608     2608     2631     2638     2654     2694     2732     2774 
    2840     2914     2965     2993     3010     3008     3003     3019 
    3015     2982     2972     2987     3012     3028     3036     3087 
    3156     3182     3195     3226     3234     3207     3175     3144 
    3111     3086     3087     3105     3090     3064     3086     3120 
    3133     3151     3163     3150     3125     3093     3048     2985 
    2928     2897     2856     2812     2794     2785     2785     2792 
    2763     2735     2737     2721     2677     2645     2628     2610 
    2582     2549     2510     2457     2410     2365     2292     2216 
    2157     2093     2028     1964     1896     1840     1789     1735 
    1689     1649     1611     1572     1534     1531     1567     1620 
    1694     1788     1887     1994     2107     2204     2280     2365 
    2449     2492     2534     2607     2659     2695     2750     2800 
    2840     2875     2882     2879     2879     2864     2840     2818 
    2809     2798     2774     2765     2769     2757     2766     2787 
    2764     2748     2779     2786     2767     2759     2723     2672 
    2636     2584     2538     2510     2452     2403     2387     2363 
    2360     2391     2413     2436     2493     2562     2609     2635 
    2682     2746     2796     2845     2906     2957     2996     3027 
    3060     3116     3171     3199     3228     3255     3260     3274 
    3290     3279     3257     3231     3200     3172     3141     3115 
    3084     3043     3020     3001     2972     2971     2990     3010 
    3053     3102     3148     3207     3271     3330     3383     3422 
    3445     3455     3452     3449     3465     3501     3536     3577 
    3632     3689     3751     3812     3857     3893     3921     3947 
    3982     3995     3981     3977     3983     3969     3952     3981 
    4046     4107     4152     4205     4276     4345     4415     4491 
    4555     4611     4668     4709     4736     4751     4756     4757 
    4752     4746     4751     4742     4709     4671     4627     4583 
    4555     4511     4449     4407     4374     4341     4324     4332 
    4371     4434     4512     4609     4695     4771     4852     4921 
    4991     5067     5134     5205     5274     5343     5435     5517 
    5585     5672     5746     5801     5875     5942     5984     6017 
    6038     6069     6109     6127     6142     6164     6163     6149 
    6151     6163     6171     6179     6192     6197     6197     6211 
    6216     6212     6240     6275     6298     6333     6387     6451 
    6495     6515     6552     6596     6617     6627     6619     6608 
    6616     6621     6610     6603     6609     6631     6667     6699 
    6731     6771     6799     6825     6869     6914     6950     6990 
    7030     7060     7109     7179     7233     7283     7356     7412 
    7453     7520     7570     7568     7575     7620     7656     7668 
    7679     7696     7696     7694     7706     7707     7713     7738 
    7732     7702     7699     7700     7687     7683     7681     7672 
    7668     7663     7638     7589     7522     7447     7361     7267 
    7188     7126     7052     6972     6926     6920     6926     6930 
    6939     6955     6968     6971     6968     6957     6935     6914 
    6889     6854     6815     6775     6728     6666     6602     6551 
    6492     6407     6322     6257     6192     6106     6009     5922 
    5841     5758     5679     5608     5547     5503     5457     5401 
    5352     5310     5273     5240     5193     5137     5095     5050 
    4991     4949     4914     4859     4813     4783     4742     4698 
    4659     4611     4564     4528     4498     4482     4468     4431 
    4389     4369     4352     4325     4295     4246     4176     4126 
    4089     4034     3973     3923     3889     3867     3849     3848 
    3868     3896     3921     3943     3971     3994     4000     3988 
    3956     3917     3887     3873     3857     3822     3813     3841 
    3861     3884     3941     4018     4075     4097     4139     4192 
    4203     4208     4214     4196     4213     4249     4258     4273 
    4284     4286     4312     4333     4318     4278     4230     4192 
    4163     4144     4131     4100     4062     4050     4042     4006 
    3970     3979     3979     3906     3847     3874     3892     3851 
    3819     3823     3834     3866     3912     3939     3955     3979 
    4007     4028     4030     4030     4042     4035     4016     4037 
    4101     4149     4188     4273     4346     4375     4432     4496 
    4524     4521     4480     4439     4429     4420     4378     4309 
    4276     4279     4252     4211     4172     4139     4128     4117 
    4111     4097     4065     4069     4039     3929     3873     3871 
    3811     3699     3582     3538     3573     3558     3495     3466 
    3463     3460     3398     3268     3212     3237     3183     3067 
    3008     3005     3008     2970     2895     2855     2852     2844 
    2824     2757     2689     2691     2676     2599     2535     2486 
    2402     2286     2193     2168     2152     2109     2105     2133 
    2143     2176     2226     2250     2278     2343     2419     2436 
    2424     2485     2580     2626     2671     2759     2842     2853 
    2837     2862     2887     2886     2885     2909     2964     2987 
    2976     3008     3052     3079     3098     3113     3200     3314 
    3360     3435     3555     3619     3669     3742     3814     3884 
    3928     3935     3948     3988     4045     4117     4192     4219 
    4196     4200     4256     4286     4229     4168     4232     4340 
    4352     4348     4426     4520     4544     4509     4524     4608 
    4627     4559     4487     4417     4363     4328     4284     4221 
    4133     4051     4015     3972     3926     3903     3858     3814 
    3805     3812     3843     3848     3762     3669     3657     3669 
    3623     3559     3543     3512     3407     3335     3360     3363 
    3274     3212     3252     3295     3262     3234     3302     3381 
    3396     3430     3476     3463     3450     3474     3482     3442 
    3400     3415     3449     3468     3491     3532     3593     3617 
    3649     3751     3791     3797     3906     4019     4099     4178 
    4244     4357     4431     4396     4410     4491     4501     4423 
    4373     4398     4412     4393     4374     4360     4364     4363 
    4337     4309     4310     4334     4290     4209     4190     4186 
    4205     4260     4250     4211     4215     4196     4186     4213 
    4171     4124     4145     4092     4029     4098     4151     4148 
    4189     4240     4277     4290     4265     4244     4228     4218 
    4245     4269     4223     4186     4247     4282     4253     4292 
    4327     4322     4375     4404     4409     4474     4508     4514 
    4532     4543     4595     4660     4686     4719     4763     4834 
    4913     4936     4971     5060     5103     5082     5101     5156 
    5137     5103     5129     5103     5017     4982     4992     4995 
    4968     4956     5016     5090     5108     5070     5037     5044 
    5074     5123     5098     4982     4974     5058     5062     5065 
    5075     5004     4983     5045     5071     5076     5103     5154 
    5214     5225     5236     5288     5315     5339     5386     5430 
    5476     5476     5401     5320     5282     5288     5273     5222 
    5176     5110     5061     5094     5120     5080     5050     5080 
    5130     5157     5165     5159     5169     5229     5302     5359 
    5388     5380     5416     5460     5395     5357     5427     5425 
    5356     5359     5432     5490     5447     5396     5447     5474 
    5462     5505     5519     5502     5532     5545     5526     5526 
    5547     5544     5492     5467     5466     5437     5436     5422 
    5382     5433     5485     5458     5445     5443     5455     5503 
    5559     5635     5660     5615     5613     5623     5583     5552 
    5540     5496     5425     5377     5348     5317     5286     5224 
    5143     5103     5060     4972     4929     4936     4907     4858 
    4802     4750     4712     4638     4600     4610     4547     4485 
    4439     4305     4202     4167     4085     3977     3874     3787 
    3762     3763     3721     3659     3625     3606     3589     3573 
    3534     3540     3626     3660     3628     3647     3734     3791 
    3733     3674     3742     3802     3788     3804     3843     3862 
    3867     3889     3938     3930     3871     3881     3921     3887 
    3857     3903     3942     3974     4061     4133     4169     4224 
    4286     4360     4341     4240     4339     4524     4515     4484 
    4537     4643     4841     4970     4941     4866     4809     4780 
    4693     4619     4771     4911     4754     4708     5125     5616 
    5834     5850     5781     5768     5629     5091     4860     5399 
    5574     4993     4928     5505     5782     5961     6376     6557 
    6420     6242     5959     5600     5553     5737     5733     5934 
    6571     6865     6498     5947     5889     6385     6060     4625 
    4249     5265     5503     5060     5494     6227     6509     6783 
    6983     6863     6395     5450     4548     4545     5053     4921 
    4506     4843     5466     6092     6920     6569     4798     3945 
    4529     4960     4571     3506     3183     4956     6545     5970 
    5638     6726     7193     6396     5008     3791     3595     4081 
    4663     5105     4873     4634     5190     5437     5303     5688 
    5212     3484     2520     2613     3121     3821     3896     3866 
    4589     5268     5679     5431     4233     3942     4391     3584 
    2972     4433     6116     6050     5416     5735     6128     5381 
    4736     5320     4970     3232     3048     4217     4649     4747 
    5191     5848     6284     5804     4847     4655     5209     5212 
    4456     4538     5715     6010     4960     4152     4216     4553 
    4517     4354     4863     4850     3232     2566     4017     4947 
    4668     4342     3987     3903     4150     4292     4541     4603 
    4415     4519     4652     4910     5222     4643     3600     3002 
    3419     4947     5434     4192     3491     3735     3934     3798 
    3782     4434     4372     3356     3524     4024     3469     3718 
    4784     4952     4826     5185     5343     4543     3807     4594 
    5241     4687     4621     4599     3929     3873     4222     4307 
    4561     4922     4572     3797     4210     4896     4188     3908 
    4569     4705     5088     5741     5715     5761     5878     5326 
    4781     4913     4701     3628     3467     4216     4091     4043 
    4863     5338     5485     5275     4246     3267     2554     2353 
    3367     3896     3622     4334     4750     4245     4380     4423 
    4178     4729     4863     4053     3701     3406     2735     3200 
    4600     4980     4322     4048     4305     3957     3086     3011 
    3541     3734     3637     3436     3495     3797     3740     3795 
    4103     3855     3547     3717     3800     3609     3394     3482 
    3769     3509     3117     3776     4464     3827     3036     2925 
    3179     3773     3990     3819     3889     3441     2971     3579 
    3912     3457     2990     2735     3568     4686     4334     3364 
    3166     3893     4187     3591     4099     5033     4524     3848 
    3686     3870     4413     4337     4165     4163     3224     3029 
    4494     5054     4431     4425     4570     3949     3825     4980 
    5316     3908     3196     3716     3373     2603     3379     4664 
    4208     3291     4172     4846     3758     3556     4183     3522 
    3267     4290     4612     4082     3721     3698     3925     4028 
    3961     4101     4126     3830     3713     3824     3876     3823 
    3782     4050     4495     4593     4246     4069     4600     4789 
    4214     4729     5960     5723     4679     4152     4316     4920 
    4763     4274     4763     5028     4879     5528     5541     4144 
    3670     4829     5311     4135     3341     4090     5048     5314 
    4929     4388     4493     4575     4253     4660     5108     4656 
    4420     4383     3932     3985     4743     5028     4727     4875 
    5090     4456     3937     4181     4430     4500     4450     4543 
    5059     5224     4953     4855     4722     4279     3295     2468 
    3006     3990     4435     4880     4796     3788     3628     4409 
    3895     3243     3973     3514     2238     2457     2869     3402 
    4043     3055     2552     4271     4985     3145     1835     3283 
    5435     5662     3731     1206     1465     4654     5858     4957 
    4898     2904     -187     1542     5254     4972     2552     2231 
    3964     4059     2084     1753     2949     3251     3009     2566 
    1377      332     1185     3332     4217     4038     3843     2410 
     990     2190     4646     5595     4095     1933     1775     2809 
    2827     2324     2567     2852     2457     2699     3331     2563 
    2114     3938     5401     4122     2440     2630     2964     2381 
    2514     4091     5118     3428     1873     3716     5717     5382 
    4435     3604     3441     4188     4091     3021     2672     3366 
    4380     4388     3318     3029     3210     3284     4221     4379 
    3230     3154     3718     4002     4558     4139     2796     2769 
    3712     4274     4473     4171     4058     4718     4606     3709 
    3594     3460     3207     3834     3729     2950     3619     4465 
    3898     2923     2982     4643     5634     3924     2276     3093 
    4423     4292     3327     3222     4080     4086     3274     3245 
    3547     3537     3720     3911     4117     4534     4645     4355 
    3847     3459     3635     3970     4172     4170     3855     3885 
    3821     3065     3034     3506     3407     3811     4466     4527 
    5009     5490     4946     4623     4936     4798     4593     4826 
    4621     3991     4243     5306     5938     5990     5955     5711 
    4954     4523     5246     5478     4336     4172     5443     6217 
    6107     5464     5102     5581     5751     5308     5101     5100 
    4842     4289     4090     4598     5239     5763     5999     5588 
    5381     5794     5522     4783     4783     4570     3974     4415 
    4945     4599     4460     4447     4467     5137     5518     5217 
    5028     4898     4725     4115     3203     3700     5095     5385 
    5025     4460     3601     3924     4977     4717     4139     4143 
    3687     3653     4569     4827     4452     4198     3797     3561 
    3821     4283     4298     3630     3616     4496     4229     2932 
    2628     3338     4328     5202     5471     5317     4695     3675 
    3435     4347     5377     5660     4923     3433     2376     2546 
    3062     3372     3796     3735     3189     3261     3724     3643 
    3263     3773     5268     5750     4296     3013     3146     3179 
    2816     2940     3116     3805     5057     5050     4370     4676 
    5038     4259     3016     2692     3086     3116     2996     3119 
    3471     4030     4516     4787     4555     3915     3848     4398 
    4392     3679     3368     4032     5133     5752     6009     6644 
    6724     5790     5484     5351     4043     2869     2708     3137 
    3745     4040     4677     5763     6362     7055     7542     6424 
    4777     3719     2732     1848     1307     1654     3430     5302 
    6165     6693     7172     7609     7812     6735     4874     3834 
    3408     3129     3381     3743     3698     4026     5401     6370 
    5714     5009     4695     3361     2239     2464     2500     2724 
    4081     5181     6231     7378     6538     4871     4490     3869 
    2966     3184     3532     3609     3906     4229     4904     5527 
    5360     5068     5153     5395     5254     4419     3321     2127 
    1544     2304     3109     3787     5404     6204     5247     4759 
    5184     4994     3860     2650     2409     2886     2969     2883 
    3091     3345     3567     3545     3658     4246     4190     3589 
    3855     4249     3719     3312     3437     3522     3792     3927 
    3588     3390     3180     3213     3997     3902     2762     2828 
    3649     3199     1747     1198     2361     3494     3573     3672 
    3987     4226     4417     4392     4224     3751     3112     2768 
    2260     2001     2826     3485     3436     3496     3483     3576 
    3550     2550     1736     1942     2137     1865     1644     2154 
    2902     2770     2467     3157     4098     3909     2898     2533 
    2653     2299     2245     2690     2501     2201     2367     2222 
    2160     2599     2748     2767     3116     3473     3650     3393 
    2652     2091     2245     3048     3548     3051     2651     2729 
    2490     2708     3128     2438     2298     3327     3578     3333 
    2999     2158     2026     2550     2587     2480     2583     2809 
    2677     2131     2323     3173     3919     4504     4414     4022 
    4169     4087     3309     2775     3320     4394     4208     2859 
    2720     3919     4529     4108     3443     3570     4692     5466 
    5428     5292     5058     4799     4684     4336     3901     3757 
    3910     4254     4460     4555     4934     5206     4631     3895 
    4409     5617     5974     5630     5090     4712     5193     5571 
    5506     6111     5790     4273     4683     6381     6488     5484 
    5348     6400     6975     6497     5840     4612     3267     3370 
    4491     5442     5409     4543     4510     4922     4040     3367 
    4324     5026     4733     4573     4516     4704     5304     5307 
    4820     4554     4486     4769     4888     4320     4027     4608 
    5126     4675     3766     3369     3568     3775     3583     3674 
    4032     3804     4258     5311     5057     5013     5765     5172 
    4183     4083     3911     3648     3548     3339     3264     3631 
    4098     4013     3678     3835     4337     4956     5095     4155 
    3721     4672     4969     3923     3184     3335     3420     3144 
    3355     4034     4439     4471     3726     2609     2632     3204 
    3452     3957     4322     4609     4954     4081     2785     2720 
    3095     3125     3357     3957     4223     4034     3869     3553 
    3487     4056     4243     4028     3738     3280     3828     4816 
    4453     3764     3846     4018     3672     2680     1990     2483 
