Origin Time       2011/03/11 14:46:00
Lat.              38.103
Long.             142.860
Depth. (km)       24
Mag.              9.0
Station Code      TYM004
Station Lat.      36.8626
Station Long.     137.5274
Station Height(m) 116
Record Time       2011/03/11 14:48:52
Sampling Freq(Hz) 100Hz
Duration Time(s)  193
Dir.              N-S
Scale Factor      3920(gal)/6182761
Max. Acc. (gal)   6.081
Last Correction   2011/03/11 14:48:37
Memo.             
[...]
    8073     8068     7974     7781     7531     7324     7245     7313 
    7515     7781     8010     8164     8224     8136     7916     7692 
    7552     7509     7578     7723     7819     7752     7501     7131 
    6731     6384     6181     6165     6264     6403     6579     6755 
    6824     6761     6627     6456     6249     5998     5719     5470 
    5256     5027     4777     4516     4224     3896     3578     3303 
    3070     2907     2849     2859     2852     2812     2777     2763 
    2752     2757     2807     2901     3002     3077     3130     3178 
    3217     3238     3264     3289     3298     3309     3328     3355 
    3435     3571     3716     3861     4045     4263     4458     4624 
    4795     4960     5078     5140     5178     5228     5294     5374 
    5473     5554     5550     5462     5339     5225     5172     5212 
    5290     5348     5354     5264     5101     4946     4854     4858 
    4944     5021     5061     5098     5121     5115     5110     5133 
    5229     5391     5509     5534     5506     5446     5368     5320 
    5331     5396     5482     5538     5551     5574     5655     5793 
    5965     6119     6222     6315     6422     6529     6626     6718 
    6836     7009     7211     7380     7457     7433     7365     7280 
    7167     7081     7057     7022     6952     6913     6887     6817 
    6754     6765     6825     6898     6981     7041     7040     6983 
    6903     6886     6982     7101     7146     7120     7031     6876 
    6704     6562     6460     6419     6476     6578     6618     6594 
    6582     6624     6694     6750     6784     6817     6858     6910 
    6948     6949     6956     7025     7144     7257     7312     7287 
    7219     7155     7116     7096     7076     7046     7015     6992 
    6984     6999     7030     7069     7103     7142     7210     7294 
    7352     7380     7404     7427     7442     7426     7348     7244 
    7165     7095     7042     7065     7152     7214     7193     7100 
    6980     6894     6851     6814     6804     6843     6826     6682 
    6519     6447     6469     6582     6788     7013     7143     7141 
    7084     7056     7059     7059     7063     7068     7032     6973 
    6942     6931     6920     6913     6865     6733     6548     6373 
    6239     6146     6121     6176     6251     6264     6214     6173 
    6169     6183     6229     6319     6447     6593     6692     6705 
    6691     6705     6746     6802     6873     6945     6987     6985 
    6983     7023     7094     7157     7193     7226     7268     7295 
    7310     7356     7459     7587     7672     7721     7790     7865 
    7869     7768     7614     7477     7380     7298     7216     7163 
    7164     7175     7127     7026     6922     6812     6655     6477 
    6362     6323     6261     6137     6044     6033     6054     6059 
    6028     5990     5978     5933     5775     5513     5230     5020 
    4921     4901     4922     4974     5057     5175     5317     5437 
    5489     5449     5321     5152     5038     5055     5177     5334 
    5475     5562     5586     5538     5420     5287     5188     5159 
    5237     5400     5596     5788     5922     5990     6060     6193 
    6363     6503     6607     6717     6849     6950     6958     6883 
    6796     6768     6825     6920     7001     7064     7108     7111 
    7087     7095     7167     7263     7337     7384     7414     7429 
    7402     7311     7218     7182     7166     7110     7021     6957 
    6979     7103     7277     7434     7527     7547     7540     7523 
    7462     7382     7334     7320     7360     7467     7579     7638 
    7661     7652     7585     7480     7365     7266     7231     7280 
    7390     7536     7664     7703     7644     7533     7452     7472 
    7586     7753     7945     8125     8251     8302     8286     8258 
    8292     8409     8585     8794     9000     9172     9305     9403 
    9476     9528     9550     9553     9587     9678     9802     9932 
   10055    10176    10348    10602    10889    11153    11394    11607 
   11758    11840    11909    12040    12249    12487    12713    12894 
   12985    12969    12883    12825    12890    13084    13321    13496 
   13558    13540    13479    13365    13192    13009    12876    12780 
   12667    12531    12390    12260    12137    11989    11794    11590 
   11411    11253    11135    11091    11108    11139    11135    11084 
   11027    10970    10856    10682    10504    10342    10186    10022 
    9842     9677     9543     9379     9135     8861     8605     8348 
    8077     7819     7602     7439     7301     7139     6945     6772 
    6672     6654     6692     6744     6776     6772     6698     6548 
    6377     6216     6122     6135     6146     6103     6058     5972 
    5846     5769     5746     5751     5806     5912     6032     6140 
    6213     6254     6289     6328     6364     6391     6377     6302 
    6200     6105     6050     6077     6159     6221     6253     6303 
    6400     6526     6623     6657     6661     6679     6705     6718 
    6724     6748     6797     6856     6881     6821     6690     6569 
    6533     6579     6661     6756     6858     6945     6993     6998 
    6973     6916     6844     6836     6939     7102     7250     7347 
    7394     7416     7438     7462     7493     7567     7696     7831 
    7925     7974     7965     7896     7794     7670     7550     7479 
    7437     7387     7349     7344     7379     7446     7500     7506 
    7483     7458     7428     7386     7320     7224     7120     7017 
    6917     6846     6828     6838     6839     6829     6826     6846 
    6884     6917     6936     6925     6869     6769     6623     6470 
    6386     6394     6466     6571     6660     6689     6652     6578 
    6507     6488     6568     6738     6902     6988     7002     6992 
    6991     6993     6978     6930     6863     6822     6828     6857 
    6877     6867     6853     6888     6996     7143     7269     7343 
    7398     7493     7633     7723     7688     7602     7596     7693 
    7828     7956     8047     8081     8060     7998     7944     7942 
    7973     7984     7934     7838     7749     7710     7717     7744 
    7799     7881     7957     8034     8112     8147     8132     8130 
    8212     8364     8480     8525     8568     8661     8790     8908 
    8962     8964     9004     9129     9287     9449     9650     9842 
    9895     9765     9555     9386     9283     9264     9449     9854 
   10243    10415    10429    10441    10480    10473    10432    10484 
   10706    10980    11085    10962    10746    10519    10243     9943 
    9774     9848    10049    10111     9930     9695     9591     9578 
    9507     9351     9204     9082     8929     8818     8841     8903 
    8878     8785     8710     8770     8987     9156     9052     8655 
    8158     7919     8112     8434     8515     8391     8341     8430 
    8357     7885     7257     6989     7378     8224     8951     9067 
    8630     8188     8236     8756     9164     8936     8372     8132 
    8293     8562     8791     8917     9006     9215     9473     9560 
    9385     9051     8746     8603     8758     9219     9653     9669 
    9260     8820     8791     9109     9263     9097     9015     9381 
   10087    10653    10717    10383    10068    10039    10091     9863 
    9417     9089     9053     9251     9383     9205     8945     8940 
    9172     9504     9832     9972     9774     9382     9180     9394 
    9927    10420    10486    10187     9926     9813     9628     9254 
    8856     8750     9010     9360     9557     9531     9343     9185 
    9116     9117     9264     9440     9393     9148     8974     9093 
    9390     9450     9263     9370     9924    10344    10220     9891 
    9919    10368    10817    10919    10747    10599    10611    10625 
   10439    10070     9696     9525     9697    10078    10373    10406 
   10118     9655     9376     9426     9557     9474     9259     9247 
    9358     9231     8964     8846     8841     8955     9310     9601 
    9415     8970     8799     9029     9381     9626     9748     9701 
    9372     8858     8498     8608     9201     9875    10230    10303 
   10313    10277    10200    10312    10740    11194    11300    11012 
   10619    10428    10375    10153     9786     9708    10122    10558 
   10422     9670     8745     8180     8231     8723     9244     9425 
    9165     8686     8235     7894     7635     7385     7235     7437 
    8009     8599     8735     8195     7240     6426     6159     6397 
    6697     6652     6361     6266     6473     6580     6351     6095 
    6080     6157     6057     5658     5156     4902     4934     5122 
    5470     5816     5836     5538     5247     5188     5319     5337 
    5001     4545     4417     4777     5378     5808     6014     6135 
    6034     5726     5539     5544     5591     5563     5344     5047 
    5002     5260     5513     5573     5608     5856     6235     6280 
    5642     4615     3881     3837     4339     4936     5232     5023 
    4448     3975     3885     4101     4461     4689     4589     4337 
    4185     4129     4057     3992     4083     4349     4558     4487 
    4203     4048     4252     4663     5024     5200     5122     4892 
    4721     4667     4761     5103     5683     6291     6584     6391 
    5905     5384     4991     4925     5261     5797     6269     6537 
    6598     6490     6186     5699     5235     5043     5204     5596 
    5938     6021     5938     5965     6175     6385     6510     6576 
    6585     6676     7048     7598     7977     8022     7953     8052 
    8318     8537     8610     8611     8563     8467     8423     8410 
    8238     7883     7597     7640     7934     8113     7934     7480 
    7041     6859     6903     7022     7156     7281     7368     7284 
    6889     6394     6118     6042     6100     6359     6706     6845 
    6676     6461     6503     6687     6642     6280     5967     6162 
    6862     7518     7724     7626     7534     7547     7559     7504 
    7564     7819     8042     8144     8293     8524     8578     8257 
    7784     7566     7689     7869     7837     7642     7515     7600 
    7829     8020     8180     8461     8859     9222     9302     8952 
    8402     7921     7508     7209     7179     7431     7885     8420 
    8816     8868     8617     8361     8282     8284     8293     8344 
    8517     8941     9556     9992     9985     9606     9066     8663 
    8560     8555     8499     8587     8977     9586    10146    10312 
   10074     9746     9421     9049     8774     8747     8875     8946 
    8869     8686     8395     7980     7600     7508     7819     8317 
    8516     8125     7493     7232     7425     7638     7599     7538 
    7794     8262     8481     8274     7979     7980     8174     8214 
    8201     8465     8837     8829     8421     8104     8258     8733 
    9014     8815     8403     8099     7903     7726     7523     7300 
    7195     7289     7477     7597     7490     7114     6610     6210 
    6069     6107     6184     6313     6396     6198     5806     5603 
    5777     6162     6467     6510     6220     5607     4863     4391 
    4576     5454     6607     7392     7392     6854     6408     6257 
    6141     5914     5866     6429     7303     7522     6816     6029 
    6078     6928     7572     7342     6781     6519     6274     5634 
    4956     4922     5694     6827     7681     7805     7225     6372 
    5735     5685     6316     7267     7953     8048     7675     7260 
    7130     7133     6998     6955     7429     8272     8910     8910 
    8093     6685     5446     5196     6021     6987     7082     6483 
    6174     6358     6299     5797     5615     6277     7369     8089 
    8055     7547     7017     6657     6627     7189     8346     9636 
   10455    10430     9588     8403     7561     7699     9235    11648 
   13206    12547    10124     7410     5415     4410     4858     7671 
   12472    16597    17267    14163     9295     5008     2629     2690 
    5390    10014    14595    17061    16467    13136     8519     4823 
    3756     5468     8849    12326    14372    14102    12020     9914 
    9326    10185    11278    11626    11053     9746     7885     6043 
    5223     5938     8045    11090    13919    14968    13558    10501 
    7466     5726     5455     6101     7050     7804     8025     7744 
    7181     6535     6346     7352     9534    11843    13083    12803 
   11294     9059     6585     4431     3365     4151     6758    10149 
   13011    14172    12825     9178     4659     1191      133     1563 
    4298     6788     8164     8380     7771     6697     5351     3987 
    3159     3423     4864     6814     8261     8649     8132     7294 
    6510     5613     4676     4372     5209     6928     8548     9119 
    8513     7215     5760     4598     4073     4324     5165     6166 
    6894     7058     6554     5505     4214     3009     2273     2439 
    3544     5011     6048     6254     5870     5202     4115     2596 
    1359     1330     2610     4310     5503     5909     5593     4592 
    2971     1059     -396     -505     1074     3677     5980     6912 
    6247     4421     2075       21     -768      210     2493     5025 
    6740     6850     5176     2480        0    -1484    -1701     -507 
    1894     4676     6747     7553     7343     6463     5084     3655 
    2787     2698     3018     3212     3165     3036     2842     2668 
    2891     3797     5230     6692     7538     7256     5924     4296 
    3227     3060     3653     4735     5975     6823     6765     5887 
    4826     4170     4156     4806     5959     7147     7766     7558 
    6745     5789     5222     5370     6060     6701     6749     6177 
    5563     5590     6340     7179     7403     6807     5681     4576 
    4056     4413     5501     6880     7996     8292     7533     6062 
    4583     3769     3955     5032     6522     7705     7873     6831 
    5163     3793     3327     3774     4726     5724     6395     6527 
    6178     5592     5032     4804     5163     5983     6721     6925 
    6652     6262     6059     6225     6754     7377     7787     7839 
    7536     7002     6522     6439     6868     7502     7885     7831 
    7459     6996     6588     6290     6215     6428     6774     7132 
    7530     7798     7680     7310     7093     7181     7352     7370 
    7269     7226     7313     7418     7311     6866     6213     5616 
    5293     5372     5833     6438     6875     6957     6740     6460 
    6260     6027     5657     5414     5737     6599     7463     7968 
    8175     8110     7659     6932     6288     5981     6018     6390 
    7079     7899     8554     8842     8747     8376     7873     7417 
    7167     7156     7313     7531     7655     7575     7355     7127 
    7019     7105     7274     7411     7485     7363     7045     6856 
    6960     7059     6921     6772     6847     7026     7112     7119 
    7168     7219     7127     6968     6955     7175     7635     8253 
    8805     9044     8885     8412     7753     7188     7134     7642 
    8322     8828     9065     9028     8716     8302     8127     8341 
    8722     8957     9008     9030     8944     8591     8129     7916 
    8176     8812     9492     9997    10351    10607    10765    10837 
   10852    10798    10627    10311     9928     9669     9612     9581 
    9582    10007    10980    11934    12220    11803    11164    10703 
   10470    10456    10741    11300    11941    12425    12576    12342 
   11796    11135    10588    10319    10480    11095    11894    12514 
   12825    12866    12648    12246    11865    11612    11442    11343 
   11399    11676    12093    12462    12605    12379    11824    11257 
   10938    10871    10996    11295    11644    11780    11551    11061 
   10523    10120     9999    10218    10639    11029    11185    10966 
   10412     9778     9325     9127     9095     9166     9315     9382 
    9160     8642     8071     7737     7667     7658     7620     7614 
    7632     7587     7466     7349     7309     7314     7301     7351 
    7564     7847     8035     7983     7638     7225     7078     7239 
    7551     7911     8227     8430     8481     8337     8077     7904 
    7948     8225     8642     8950     8920     8584     8159     7812 
    7644     7729     7950     8102     8168     8221     8260     8233 
    8116     7961     7733     7311     6827     6531     6490     6715 
    7210     7810     8280     8492     8359     7877     7273     6875 
    6838     7088     7468     7915     8390     8706     8666     8320 
    7975     7916     8129     8421     8676     8882     9047     9061 
    8857     8716     8929     9369     9725     9915    10076    10256 
   10269     9973     9575     9391     9366     9251     9063     8993 
    9058     9116     9053     8865     8619     8409     8305     8352 
    8589     8994     9426     9693     9679     9412     9028     8701 
    8577     8726     9108     9524     9735     9712     9612     9498 
    9357     9235     9169     9143     9120     9061     9032     9156 
    9438     9780    10041    10110    10062    10039     9971     9759 
    9568     9566     9705     9937    10238    10476    10566    10535 
   10362    10023     9634     9361     9289     9377     9505     9573 
    9527     9361     9142     8969     8875     8858     8910     9009 
    9136     9243     9265     9273     9408     9656     9876     9953 
    9861     9690     9528     9402     9345     9430     9744    10217 
   10549    10555    10394    10264    10178    10176    10382    10733 
   10962    10902    10601    10225     9963     9877     9900    10033 
   10335    10766    11158    11275    11026    10616    10295    10135 
   10126    10296    10609    10881    11001    11044    11044    10948 
   10761    10554    10451    10555    10796    11033    11211    11326 
   11343    11180    10839    10524    10448    10617    10901    11206 
   11526    11803    11862    11630    11260    10942    10755    10672 
   10663    10784    11060    11362    11553    11627    11610    11448 
   11081    10601    10284    10376    10801    11246    11510    11599 
   11585    11492    11319    11183    11260    11541    11812    11903 
   11854    11779    11668    11467    11239    11140    11307    11681 
   12032    12218    12199    11938    11498    11064    10808    10796 
   10963    11190    11400    11538    11511    11246    10831    10490 
   10361    10400    10538    10751    10926    10873    10549    10129 
    9817     9637     9404     9033     8727     8684     8842     8977 
    8915     8720     8635     8708     8696     8435     8071     7851 
    7841     7938     8023     8044     7999     7875     7698     7631 
    7779     8008     8157     8198     8176     8150     8103     7952 
    7764     7737     7947     8263     8490     8543     8457     8273 
    8034     7858     7817     7872     8005     8230     8485     8689 
    8778     8702     8492     8245     8056     8030     8208     8478 
