Origin Time       2011/03/11 14:46:00
Lat.              38.103
Long.             142.860
Depth. (km)       24
Mag.              9.0
Station Code      TYM003
Station Lat.      36.8164
Station Long.     137.4200
Station Height(m) 47
Record Time       2011/03/11 14:48:46
Sampling Freq(Hz) 100Hz
Duration Time(s)  215
Dir.              N-S
Scale Factor      3920(gal)/6182761
Max. Acc. (gal)   6.508
Last Correction   2011/03/11 14:48:31
Memo.             
[...]
   12430    12481    12573    12678    12683    12662    12726    12775 
   12773    12815    12869    12902    12969    13036    13074    13133 
   13172    13136    13108    13124    13118    13106    13130    13137 
   13109    13053    12967    12883    12781    12666    12587    12489 
   12369    12314    12275    12201    12152    12145    12123    12043 
   11953    11921    11889    11819    11768    11731    11670    11599 
   11489    11326    11171    11028    10882    10769    10677    10568 
   10454    10349    10242    10115    10006     9936     9872     9840 
    9856     9877     9883     9900     9932     9926     9882     9881 
    9882     9850     9867     9907     9874     9838     9899     9951 
    9922     9948    10046    10089    10093    10118    10140    10120 
   10047     9958     9879     9783     9644     9471     9300     9141 
    8965     8787     8639     8494     8335     8236     8186     8116 
    8065     8053     8020     7993     8043     8118     8130     8175 
    8316     8412     8432     8503     8624     8699     8751     8863 
    8987     9033     9079     9184     9237     9217     9211     9233 
    9248     9277     9369     9445     9461     9558     9711     9761 
    9787     9890     9967     9949     9922     9923     9917     9922 
    9930     9930     9971     9999     9976     9978     9971     9924 
    9900     9891     9870     9850     9831     9821     9814     9811 
    9802     9789     9829     9910     9978    10067    10165    10220 
   10279    10370    10441    10478    10465    10435    10442    10398 
   10280    10230    10229    10146    10056    10050    10033     9983 
    9992     9990     9920     9925    10011    10027     9979     9946 
    9955     9992     9991     9954     9948     9948     9927     9925 
    9904     9852     9840     9849     9836     9844     9906    10025 
   10156    10252    10347    10446    10520    10567    10532    10426 
   10376    10370    10326    10285    10267    10250    10251    10257 
   10245    10219    10186    10166    10154    10141    10137    10135 
   10141    10153    10140    10128    10170    10258    10369    10494 
   10623    10773    10957    11122    11245    11353    11438    11482 
   11480    11442    11410    11403    11394    11365    11341    11356 
   11352    11292    11257    11248    11195    11142    11108    11036 
   10957    10946    10955    10913    10878    10918    10970    10993 
   11037    11071    11051    11062    11116    11119    11111    11149 
   11172    11181    11199    11204    11207    11221    11265    11339 
   11380    11421    11535    11643    11716    11825    11941    12048 
   12161    12254    12333    12392    12447    12555    12648    12680 
   12734    12830    12883    12870    12900    12974    12968    12898 
   12845    12794    12717    12600    12461    12321    12161    12016 
   11902    11763    11617    11490    11389    11301    11151    11014 
   10974    10884    10744    10704    10696    10615    10538    10507 
   10434    10331    10290    10281    10226    10169    10180    10225 
   10251    10277    10337    10408    10425    10386    10367    10351 
   10268    10191    10186    10150    10057    10035    10056     9982 
    9888     9859     9815     9781     9801     9789     9745     9736 
    9743     9745     9771     9838     9893     9929    10010    10082 
   10099    10143    10225    10297    10358    10412    10475    10537 
   10569    10601    10646    10677    10719    10794    10885    10985 
   11087    11198    11322    11420    11472    11516    11597    11684 
   11741    11823    11956    12087    12202    12309    12427    12587 
   12736    12844    12971    13080    13108    13126    13172    13191 
   13165    13127    13099    13058    12994    12933    12841    12742 
   12672    12540    12377    12278    12127    11933    11878    11867 
   11753    11684    11711    11671    11605    11623    11642    11621 
   11652    11716    11737    11770    11853    11910    11942    12001 
   12049    12079    12130    12183    12211    12242    12264    12244 
   12229    12254    12277    12305    12358    12428    12523    12600 
   12619    12625    12612    12523    12406    12334    12242    12073 
   11913    11779    11594    11401    11264    11131    10967    10825 
   10727    10615    10504    10445    10379    10306    10269    10173 
   10027     9920     9768     9575     9459     9357     9236     9168 
    9120     9080     9045     8955     8871     8843     8781     8666 
    8575     8522     8448     8380     8400     8447     8480     8579 
    8735     8859     8951     9051     9175     9329     9474     9567 
    9654     9781     9897     9949     9965     9983     9992     9977 
    9950     9916     9875     9846     9832     9784     9708     9668 
    9625     9571     9547     9512     9494     9511     9480     9454 
    9483     9467     9404     9373     9351     9291     9216     9152 
    9083     9017     8947     8868     8845     8838     8785     8790 
    8844     8857     8907     8991     9028     9111     9263     9376 
    9493     9674     9834     9973    10164    10353    10448    10490 
   10557    10615    10612    10559    10497    10452    10395    10319 
   10281    10240    10152    10128    10175    10154    10123    10168 
   10203    10211    10238    10249    10233    10235    10251    10262 
   10294    10368    10481    10597    10647    10692    10816    10920 
   10972    11067    11185    11282    11359    11420    11506    11576 
   11575    11595    11652    11657    11629    11620    11627    11617 
   11587    11587    11612    11613    11592    11581    11585    11578 
   11547    11538    11555    11544    11511    11505    11508    11509 
   11568    11667    11762    11902    12055    12141    12243    12384 
   12449    12467    12533    12602    12635    12673    12722    12771 
   12794    12762    12717    12700    12657    12561    12488    12459 
   12415    12359    12311    12259    12230    12229    12206    12168 
   12176    12196    12172    12165    12185    12162    12155    12172 
   12110    12033    12011    11972    11908    11862    11830    11805 
   11779    11769    11792    11810    11818    11847    11902    11988 
   12098    12207    12341    12527    12702    12829    12961    13100 
   13205    13313    13453    13575    13672    13794    13913    13979 
   14048    14148    14223    14260    14290    14328    14364    14363 
   14345    14346    14330    14279    14214    14134    14040    13921 
   13761    13601    13444    13248    13033    12837    12639    12452 
   12326    12231    12124    12044    12006    11944    11846    11751 
   11661    11561    11430    11264    11106    10978    10828    10648 
   10509    10428    10341    10254    10180    10057     9934     9906 
    9880     9824     9880    10020    10067    10097    10233    10318 
   10317    10403    10497    10496    10538    10623    10630    10615 
   10640    10628    10558    10497    10435    10349    10277    10223 
   10187    10179    10193    10204    10173    10131    10127    10126 
   10120    10138    10156    10144    10130    10158    10190    10220 
   10315    10420    10447    10480    10570    10626    10666    10772 
   10882    10944    11018    11129    11221    11237    11211    11232 
   11278    11274    11266    11319    11387    11438    11506    11605 
   11676    11707    11782    11885    11934    11997    12124    12199 
   12194    12238    12326    12348    12348    12370    12369    12346 
   12285    12169    12071    11974    11821    11684    11595    11471 
   11321    11226    11142    11006    10873    10773    10652    10531 
   10457    10353    10199    10074     9960     9827     9728     9643 
    9519     9405     9343     9261     9152     9087     9038     8981 
    8934     8887     8882     8922     8929     8937     8999     9037 
    9045     9103     9178     9219     9252     9307     9369     9417 
    9468     9530     9561     9571     9607     9633     9609     9564 
    9508     9434     9363     9307     9255     9192     9126     9074 
    9018     8949     8892     8849     8813     8785     8759     8722 
    8675     8615     8544     8470     8389     8313     8252     8196 
    8152     8131     8129     8135     8125     8126     8170     8197 
    8177     8168     8159     8097     8022     7964     7871     7747 
    7665     7623     7562     7509     7525     7544     7515     7502 
    7514     7513     7483     7441     7423     7378     7254     7122 
    7005     6855     6701     6574     6451     6362     6321     6263 
    6211     6225     6237     6233     6261     6280     6316     6396 
    6439     6484     6589     6637     6635     6712     6782     6763 
    6788     6874     6903     6923     7016     7096     7131     7193 
    7264     7303     7355     7431     7473     7532     7659     7736 
    7802     7957     8051     8089     8197     8277     8316     8394 
    8436     8433     8456     8491     8510     8512     8515     8538 
    8557     8572     8613     8650     8702     8804     8907     9007 
    9121     9202     9247     9279     9308     9329     9301     9251 
    9259     9272     9237     9248     9279     9256     9269     9331 
    9367     9406     9476     9575     9687     9802     9942    10068 
   10160    10265    10375    10478    10582    10683    10805    10924 
   10991    11034    11086    11123    11111    11083    11087    11067 
   11004    10972    10959    10937    10939    10948    10952    10947 
   10917    10893    10874    10848    10860    10923    10991    11047 
   11150    11319    11454    11530    11677    11877    12001    12107 
   12279    12445    12582    12729    12849    12936    13038    13118 
   13125    13107    13096    13064    13006    12970    12983    12980 
   12956    12979    12988    12933    12918    12932    12890    12838 
   12810    12760    12691    12641    12572    12453    12337    12244 
   12125    11992    11893    11807    11709    11638    11606    11589 
   11585    11594    11621    11650    11660    11684    11695    11668 
   11668    11654    11591    11574    11558    11468    11417    11432 
   11424    11425    11469    11480    11433    11388    11332    11210 
   11029    10842    10659    10464    10269    10089     9909     9729 
    9551     9341     9111     8930     8749     8523     8352     8247 
    8131     8011     7888     7771     7678     7564     7422     7315 
    7233     7127     7004     6900     6812     6727     6647     6610 
    6633     6672     6733     6839     6955     7069     7179     7261 
    7323     7371     7383     7342     7267     7208     7129     6988 
    6857     6757     6645     6557     6501     6436     6364     6312 
    6289     6278     6290     6320     6341     6407     6486     6479 
    6488     6556     6551     6539     6619     6691     6739     6826 
    6923     7004     7068     7119     7180     7256     7318     7368 
    7449     7552     7631     7723     7857     7971     8074     8194 
    8293     8380     8473     8558     8647     8718     8758     8787 
    8798     8774     8728     8706     8715     8697     8666     8713 
    8819     8898     8982     9122     9276     9408     9557     9743 
    9910    10046    10219    10419    10560    10658    10766    10865 
   10921    10984    11102    11214    11288    11395    11521    11583 
   11620    11676    11690    11653    11608    11543    11442    11313 
   11179    11035    10866    10691    10550    10430    10276    10109 
    9985     9857     9678     9519     9418     9286     9117     9006 
    8899     8749     8663     8632     8584     8558     8549     8519 
    8488     8467     8433     8407     8442     8497     8524     8587 
    8674     8708     8728     8768     8785     8757     8724     8698 
    8637     8557     8456     8314     8217     8143     7985     7836 
    7763     7648     7481     7373     7309     7200     7097     7064 
    7011     6909     6846     6794     6701     6620     6551     6465 
    6396     6372     6363     6351     6377     6428     6445     6498 
    6617     6693     6766     6899     7003     7075     7150     7193 
    7229     7266     7267     7245     7240     7230     7178     7148 
    7175     7192     7222     7293     7356     7401     7457     7537 
    7625     7694     7776     7894     8017     8132     8243     8375 
    8539     8686     8813     8960     9083     9141     9189     9227 
    9231     9250     9278     9306     9373     9422     9433     9477 
    9517     9508     9523     9585     9637     9659     9682     9740 
    9800     9837     9901     9998    10069    10108    10172    10263 
   10343    10424    10525    10636    10744    10844    10957    11105 
   11285    11455    11611    11788    11953    12075    12202    12338 
   12459    12601    12778    12954    13131    13317    13499    13700 
   13923    14143    14380    14651    14929    15205    15469    15705 
   15931    16155    16346    16518    16717    16900    17032    17168 
   17300    17380    17444    17521    17582    17651    17753    17836 
   17894    17967    18020    18029    18036    18060    18074    18083 
   18156    18314    18463    18604    18834    19078    19249    19430 
   19650    19834    19975    20112    20244    20383    20522    20615 
   20689    20782    20813    20775    20764    20759    20710    20669 
   20659    20641    20600    20551    20501    20441    20356    20241 
   20105    19950    19756    19554    19358    19116    18850    18630 
   18408    18125    17835    17582    17321    17044    16812    16632 
   16454    16291    16174    16087    16011    15921    15810    15724 
   15660    15568    15489    15448    15387    15335    15321    15283 
   15234    15224    15199    15141    15119    15110    15040    14964 
   14934    14841    14661    14532    14430    14264    14109    13999 
   13863    13731    13640    13543    13433    13358    13333    13341 
   13340    13330    13352    13372    13363    13350    13331    13324 
   13318    13298    13348    13464    13537    13597    13740    13904 
   13988    14048    14147    14228    14276    14331    14381    14390 
   14345    14284    14249    14186    14088    14047    14023    13933 
   13847    13793    13714    13613    13504    13401    13313    13212 
   13083    12969    12892    12780    12587    12404    12281    12133 
   11955    11822    11721    11609    11493    11401    11333    11239 
   11119    11034    10947    10817    10681    10535    10374    10228 
   10064     9868     9698     9578     9462     9355     9313     9327 
    9368     9441     9547     9672     9767     9804     9844     9917 
    9966     9973     9976     9992    10000     9983     9957     9949 
    9966     9971     9971    10006    10022     9984     9989    10034 
   10025     9998    10013    10051    10095    10132    10170    10228 
   10274    10315    10401    10484    10540    10643    10761    10824 
   10892    10997    11075    11128    11195    11246    11272    11320 
   11393    11460    11528    11602    11650    11665    11676    11680 
   11664    11654    11675    11725    11764    11773    11789    11828 
   11866    11891    11926    12004    12088    12163    12288    12417 
   12512    12671    12849    12929    12999    13120    13212    13270 
   13337    13364    13343    13358    13373    13314    13287    13350 
   13374    13346    13390    13474    13490    13471    13482    13506 
   13486    13419    13373    13377    13367    13321    13327    13400 
   13439    13434    13450    13472    13505    13579    13630    13638 
   13665    13702    13711    13708    13693    13649    13606    13577 
   13492    13347    13234    13121    12931    12746    12637    12541 
   12416    12318    12259    12167    12047    11960    11860    11712 
   11550    11374    11196    11034    10843    10641    10498    10358 
   10189    10099    10074     9995     9902     9824     9704     9616 
    9593     9532     9441     9375     9295     9203     9155     9120 
    9036     8916     8798     8656     8494     8356     8203     8011 
    7867     7787     7693     7583     7488     7402     7335     7301 
    7271     7232     7206     7195     7168     7131     7143     7198 
    7231     7255     7303     7363     7440     7537     7628     7700 
    7762     7866     8028     8155     8204     8270     8429     8581 
    8627     8684     8823     8914     8943     9006     9102     9197 
    9288     9367     9427     9501     9619     9710     9753     9847 
    9988    10089    10167    10264    10337    10370    10423    10476 
   10467    10462    10496    10490    10466    10452    10377    10291 
   10270    10218    10099    10013     9960     9868     9759     9698 
    9670     9623     9562     9499     9419     9341     9264     9178 
    9123     9090     9045     9020     9040     9071     9095     9122 
    9148     9170     9225     9309     9352     9351     9367     9413 
    9462     9484     9480     9479     9498     9538     9595     9651 
    9692     9735     9801     9853     9876     9942    10053    10129 
   10177    10278    10400    10465    10515    10574    10598    10629 
   10689    10717    10725    10739    10745    10754    10767    10748 
   10696    10627    10536    10460    10419    10354    10283    10267 
   10281    10308    10368    10434    10482    10537    10602    10620 
   10614    10654    10710    10761    10829    10907    10979    11030 
   11086    11167    11220    11235    11290    11376    11417    11426 
   11456    11504    11547    11558    11555    11589    11607    11589 
   11643    11750    11801    11824    11847    11832    11809    11806 
   11769    11705    11653    11622    11633    11612    11480    11365 
   11318    11226    11105    10995    10857    10727    10619    10488 
   10375    10305    10218    10131    10071     9996     9962    10011 
   10030     9992    10036    10152    10188    10158    10158    10144 
   10079    10014     9974     9945     9914     9866     9786     9691 
    9649     9665     9668     9677     9728     9804     9920    10019 
   10057    10129    10235    10270    10273    10346    10456    10517 
   10577    10705    10825    10891    10954    11031    11119    11206 
   11251    11288    11359    11395    11357    11296    11234    11162 
   11062    10923    10803    10728    10636    10488    10308    10149 
   10031     9905     9735     9588     9535     9505     9424     9365 
    9371     9382     9388     9402     9418     9467     9565     9658 
    9731     9841     9989    10079    10103    10200    10378    10483 
   10547    10713    10912    11029    11108    11199    11299    11413 
   11516    11597    11704    11807    11866    11917    11959    11986 
   12002    11988    11966    11962    11991    12059    12078    12018 
   11989    12042    12066    11990    11919    11915    11900    11893 
   11934    11919    11841    11819    11792    11639    11463    11393 
   11383    11345    11262    11168    11102    11051    10954    10828 
   10771    10789    10750    10626    10575    10630    10648    10638 
