Origin Time       2011/03/11 14:46:00
Lat.              38.103
Long.             142.860
Depth. (km)       24
Mag.              9.0
Station Code      TYM011
Station Lat.      36.5780
Station Long.     137.3851
Station Height(m) 382
Record Time       2011/03/11 14:48:58
Sampling Freq(Hz) 100Hz
Duration Time(s)  146
Dir.              U-D
Scale Factor      3920(gal)/6182761
Max. Acc. (gal)   7.123
Last Correction   2011/03/11 14:48:43
Memo.             
[...]
  -17570   -17369   -17247   -17249   -17131   -16937   -16790   -16594 
  -16371   -16316   -16391   -16322   -16116   -16031   -16001   -15861 
  -15788   -15837   -15762   -15605   -15609   -15646   -15550   -15491 
  -15541   -15553   -15531   -15550   -15543   -15494   -15492   -15561 
  -15650   -15702   -15706   -15709   -15750   -15796   -15778   -15742 
  -15756   -15781   -15821   -15908   -15976   -16030   -16133   -16217 
  -16226   -16235   -16294   -16367   -16403   -16395   -16371   -16353 
  -16386   -16455   -16496   -16521   -16543   -16578   -16681   -16760 
  -16720   -16684   -16745   -16827   -16890   -16907   -16841   -16776 
  -16835   -16968   -17001   -16911   -16875   -16965   -17070   -17114 
  -17106   -17076   -17086   -17131   -17146   -17144   -17125   -17081 
  -17106   -17211   -17252   -17166   -17074   -17122   -17249   -17294 
  -17290   -17302   -17238   -17165   -17228   -17289   -17247   -17222 
  -17263   -17321   -17324   -17293   -17318   -17293   -17198   -17158 
  -17105   -17049   -17071   -17077   -17032   -16972   -16916   -16930 
  -17013   -17035   -16970   -16973   -17072   -17079   -16937   -16833 
  -16790   -16677   -16572   -16519   -16443   -16429   -16500   -16573 
  -16594   -16564   -16607   -16736   -16812   -16826   -16848   -16890 
  -16938   -17029   -17174   -17248   -17253   -17298   -17328   -17333 
  -17324   -17242   -17188   -17190   -17132   -17083   -17094   -17095 
  -17085   -17071   -17045   -17028   -17029   -17003   -16946   -16951 
  -17032   -17103   -17176   -17278   -17346   -17355   -17357   -17385 
  -17438   -17480   -17471   -17441   -17409   -17374   -17386   -17397 
  -17346   -17321   -17297   -17202   -17148   -17091   -16954   -16901 
  -16912   -16843   -16803   -16828   -16800   -16730   -16693   -16676 
  -16643   -16623   -16671   -16750   -16812   -16891   -16997   -17114 
  -17220   -17267   -17288   -17291   -17245   -17245   -17299   -17316 
  -17342   -17421   -17526   -17665   -17817   -17949   -18076   -18185 
  -18274   -18365   -18389   -18373   -18455   -18518   -18412   -18343 
  -18418   -18402   -18327   -18482   -18592   -18219   -17863   -17993 
  -17970   -17722   -17943   -18058   -17580   -17466   -17695   -17508 
  -17366   -17551   -17640   -17555   -17360   -17250   -17284   -17200 
  -17197   -17386   -17351   -17200   -17237   -17236   -17216   -17360 
  -17346   -17157   -17210   -17349   -17343   -17432   -17541   -17508 
  -17642   -17987   -18195   -18222   -18260   -18348   -18437   -18557 
  -18706   -18813   -18802   -18669   -18574   -18589   -18547   -18460 
  -18486   -18489   -18335   -18249   -18332   -18344   -18228   -18155 
  -18175   -18220   -18208   -18139   -18099   -18078   -18086   -18190 
  -18252   -18183   -18171   -18274   -18296   -18186   -18130   -18174 
  -18155   -18048   -17994   -18008   -18039   -18143   -18243   -18126 
  -17911   -17938   -18152   -18209   -18077   -17948   -17867   -17843 
  -17910   -17966   -17866   -17678   -17591   -17601   -17582   -17569 
  -17603   -17575   -17463   -17391   -17397   -17414   -17402   -17402 
  -17423   -17404   -17379   -17417   -17464   -17504   -17566   -17597 
  -17604   -17635   -17672   -17724   -17841   -18002   -18076   -18060 
  -18091   -18186   -18293   -18401   -18478   -18519   -18522   -18529 
  -18605   -18677   -18680   -18699   -18730   -18681   -18657   -18768 
  -18778   -18591   -18545   -18630   -18523   -18384   -18356   -18203 
  -18047   -18114   -18079   -17799   -17683   -17757   -17732   -17740 
  -17769   -17579   -17483   -17615   -17582   -17465   -17523   -17599 
  -17637   -17774   -17906   -17819   -17701   -17893   -18135   -18162 
  -18238   -18310   -18264   -18377   -18510   -18431   -18384   -18428 
  -18428   -18372   -18234   -18047   -17889   -17809   -17827   -17778 
  -17541   -17346   -17340   -17310   -17226   -17210   -17084   -16888 
  -16880   -16828   -16544   -16323   -16221   -16064   -15971   -15986 
  -15909   -15812   -15798   -15757   -15763   -15875   -15960   -15970 
  -15915   -15908   -16062   -16270   -16423   -16515   -16591   -16693 
  -16812   -16999   -17185   -17231   -17310   -17514   -17572   -17499 
  -17548   -17623   -17604   -17566   -17479   -17384   -17348   -17327 
  -17360   -17336   -17173   -17094   -17080   -16991   -16994   -17072 
  -17002   -16822   -16697   -16709   -16778   -16730   -16579   -16379 
  -16166   -16108   -16093   -15935   -15810   -15703   -15541   -15496 
  -15444   -15311   -15282   -15190   -15041   -15091   -15035   -14784 
  -14770   -14833   -14753   -14794   -14806   -14638   -14651   -14797 
  -14798   -14815   -14901   -14919   -14951   -15055   -15108   -15080 
  -15131   -15235   -15193   -15192   -15367   -15428   -15408   -15444 
  -15380   -15285   -15277   -15286   -15288   -15233   -15148   -15140 
  -15156   -15121   -15078   -15071   -15068   -15077   -15123   -15109 
  -14994   -14939   -14987   -14983   -14949   -15006   -15060   -15080 
  -15174   -15241   -15169   -15067   -15009   -14935   -14845   -14844 
  -14930   -14951   -14941   -15068   -15191   -15163   -15164   -15196 
  -15105   -15031   -15060   -15025   -14924   -14858   -14854   -14926 
  -14990   -15018   -15080   -15101   -15058   -15072   -15120   -15126 
  -15152   -15212   -15157   -14969   -14847   -14845   -14846   -14848 
  -14864   -14825   -14755   -14697   -14620   -14513   -14388   -14325 
  -14347   -14350   -14341   -14329   -14246   -14168   -14199   -14303 
  -14384   -14402   -14443   -14490   -14488   -14537   -14580   -14535 
  -14559   -14639   -14678   -14797   -14959   -14974   -14911   -14892 
  -14868   -14891   -15047   -15168   -15140   -15143   -15183   -15135 
  -15138   -15212   -15197   -15132   -15061   -14986   -14936   -14883 
  -14863   -14868   -14841   -14803   -14758   -14742   -14769   -14806 
  -14875   -14926   -14931   -15004   -15182   -15382   -15523   -15637 
  -15835   -16064   -16210   -16322   -16427   -16467   -16523   -16647 
  -16731   -16743   -16753   -16820   -16908   -16903   -16856   -16844 
  -16782   -16693   -16654   -16620   -16585   -16570   -16556   -16538 
  -16505   -16473   -16479   -16551   -16648   -16708   -16759   -16820 
  -16906   -17052   -17197   -17315   -17442   -17501   -17501   -17567 
  -17641   -17661   -17696   -17707   -17669   -17671   -17697   -17714 
  -17733   -17713   -17714   -17786   -17748   -17638   -17674   -17684 
  -17558   -17546   -17607   -17564   -17593   -17732   -17729   -17636 
  -17667   -17707   -17674   -17691   -17712   -17691   -17717   -17751 
  -17761   -17804   -17830   -17838   -17914   -17995   -18010   -18070 
  -18211   -18324   -18414   -18552   -18672   -18715   -18761   -18894 
  -19053   -19134   -19153   -19205   -19274   -19290   -19311   -19378 
  -19395   -19393   -19451   -19467   -19410   -19373   -19359   -19332 
  -19280   -19193   -19119   -19069   -18984   -18893   -18834   -18707 
  -18528   -18423   -18316   -18147   -18021   -17905   -17743   -17636 
  -17576   -17481   -17414   -17431   -17477   -17507   -17530   -17543 
  -17550   -17616   -17718   -17784   -17856   -17929   -17989   -18131 
  -18288   -18354   -18426   -18535   -18611   -18662   -18700   -18747 
  -18806   -18810   -18779   -18768   -18726   -18691   -18733   -18722 
  -18648   -18678   -18736   -18679   -18604   -18574   -18539   -18537 
  -18582   -18597   -18594   -18622   -18633   -18572   -18486   -18439 
  -18412   -18359   -18265   -18153   -18046   -17933   -17852   -17786 
  -17605   -17431   -17443   -17454   -17351   -17346   -17478   -17385 
  -17017   -16888   -16947   -16777   -16749   -17068   -17141   -16872 
  -16787   -16854   -16637   -16384   -16540   -16750   -16621   -16474 
  -16584   -16618   -16445   -16554   -16959   -16988   -16652   -16689 
  -16999   -16872   -16642   -16845   -16865   -16478   -16482   -16871 
  -16894   -16546   -16460   -16749   -16757   -16567   -16888   -17053 
  -16602   -16666   -17148   -16977   -16771   -17253   -17649   -17569 
  -17664   -18003   -18075   -17993   -18068   -18218   -18302   -18357 
  -18597   -18847   -18788   -18843   -19120   -18981   -18605   -18736 
  -19065   -18827   -18400   -18457   -18627   -18519   -18395   -18353 
  -18108   -17626   -17438   -17679   -17593   -17161   -17251   -17519 
  -17230   -17065   -17337   -17301   -17025   -17030   -17135   -17040 
  -16929   -17128   -17461   -17470   -17257   -17315   -17567   -17500 
  -17266   -17209   -17044   -16899   -17180   -17296   -16947   -16829 
  -16958   -16977   -17066   -17068   -16871   -16892   -17054   -17046 
  -17044   -17138   -17186   -17278   -17457   -17520   -17546   -17639 
  -17563   -17484   -17573   -17517   -17526   -17779   -17834   -17841 
  -18043   -18120   -18191   -18391   -18489   -18541   -18537   -18463 
  -18518   -18596   -18626   -18681   -18578   -18333   -18267   -18391 
  -18395   -18184   -17958   -17845   -17789   -17617   -17363   -17234 
  -17080   -16921   -17044   -16996   -16551   -16375   -16460   -16417 
  -16404   -16350   -16265   -16411   -16426   -16176   -16173   -16262 
  -16079   -16072   -16355   -16337   -16084   -16145   -16374   -16363 
  -16346   -16504   -16482   -16382   -16558   -16811   -16951   -17018 
  -17086   -17217   -17239   -17150   -17238   -17469   -17570   -17593 
  -17722   -17675   -17426   -17554   -17832   -17701   -17725   -18206 
  -18323   -17967   -17975   -18152   -17776   -17588   -18160   -18379 
  -17924   -17846   -18194   -18203   -18057   -18295   -18482   -18225 
  -18103   -18289   -18295   -18159   -18119   -18040   -17983   -18090 
  -18162   -18184   -18210   -18101   -18056   -18169   -18073   -17736 
  -17470   -17368   -17365   -17518   -17785   -17714   -17197   -16903 
  -17059   -17132   -17102   -17192   -17029   -16938   -17512   -17768 
  -17259   -16950   -16872   -16823   -17022   -17331   -17570   -17306 
  -17019   -17659   -17991   -17467   -17533   -17720   -17270   -17190 
  -17352   -17030   -16818   -16960   -16973   -16889   -16874   -16984 
  -17159   -16987   -16627   -16749   -17109   -17125   -16989   -16916 
  -16866   -17088   -17457   -17419   -17174   -17262   -17506   -17616 
  -17678   -17638   -17337   -17065   -17212   -17515   -17628   -17720 
  -17882   -17996   -18008   -17935   -17927   -17876   -17641   -17747 
  -18194   -18054   -17619   -17709   -17702   -17621   -18178   -18385 
  -17907   -17776   -17797   -17846   -18207   -18238   -17927   -17804 
  -17862   -18207   -18503   -18250   -17981   -18118   -18299   -18315 
  -18268   -18162   -17940   -17841   -18046   -18110   -17714   -17445 
  -17770   -18001   -17832   -17999   -18072   -17538   -17541   -17971 
  -17737   -17422   -17465   -17403   -17278   -17200   -17167   -17123 
  -16844   -16609   -16762   -16850   -16606   -16492   -16567   -16548 
  -16654   -16892   -16783   -16407   -16293   -16413   -16402   -16271 
  -16130   -15941   -15874   -16023   -16083   -15926   -15809   -15813 
  -15792   -15788   -15866   -15770   -15459   -15435   -15799   -16026 
  -16007   -16073   -16204   -16196   -16136   -16228   -16392   -16542 
  -16792   -16867   -16538   -16315   -16422   -16517   -16663   -16806 
  -16530   -16261   -16455   -16481   -16174   -16077   -16113   -16087 
  -16191   -16414   -16457   -16296   -16305   -16517   -16534   -16364 
  -16328   -16411   -16428   -16418   -16464   -16408   -16280   -16350 
  -16457   -16498   -16648   -16636   -16458   -16549   -16745   -16762 
  -16858   -17144   -17317   -17322   -17345   -17369   -17402   -17554 
  -17749   -17799   -17707   -17636   -17554   -17421   -17311   -17293 
  -17375   -17328   -17174   -17176   -17228   -17228   -17168   -17135 
  -17293   -17313   -16950   -16526   -16280   -16328   -16650   -16822 
  -16629   -16453   -16407   -16362   -16523   -16709   -16654   -16711 
  -16904   -16922   -16832   -16765   -16686   -16603   -16727   -17027 
  -17081   -16850   -16635   -16443   -16282   -16350   -16515   -16525 
  -16512   -16592   -16540   -16185   -15906   -16134   -16453   -16461 
  -16428   -16270   -15887   -15777   -15876   -15794   -15793   -15889 
  -15946   -16120   -16072   -15797   -15900   -16233   -16398   -16452 
  -16427   -16219   -15823   -15547   -15599   -15717   -15830   -16024 
  -16029   -15819   -15826   -16210   -16603   -16533   -16264   -16343 
  -16392   -16172   -16186   -16383   -16548   -16798   -16948   -16853 
  -16670   -16582   -16743   -16898   -16619   -16271   -16336   -16426 
  -16394   -16556   -16660   -16552   -16662   -16927   -16869   -16738 
  -16950   -17138   -17088   -17107   -17180   -17125   -17100   -17369 
  -17673   -17628   -17688   -18032   -17997   -17722   -17808   -18073 
  -18132   -17904   -17736   -17924   -17938   -17692   -17888   -18115 
  -17809   -17734   -17938   -17513   -16857   -16830   -16990   -16842 
  -16932   -17604   -18110   -17633   -16751   -16651   -16998   -17098 
  -17786   -18789   -18508   -17976   -18204   -17468   -16205   -16159 
  -16675   -17545   -18540   -18613   -18431   -17687   -15266   -12785 
  -11353   -10541   -11294   -14373   -18769   -22791   -24750   -23860 
  -21491   -19610   -18556   -18050   -16908   -14417   -13593   -15672 
  -17285   -17389   -18279   -20663   -21527   -19141   -16384   -13390 
   -9384    -9066   -13278   -17343   -20101   -21283   -19780   -17746 
  -17162   -17084   -16986   -17090   -17868   -19377   -20067   -20148 
  -18141   -11024    -5999    -7735    -8848   -11609   -20516   -25480 
  -23420   -22009   -19731   -13352    -8056    -7515   -11029   -16138 
  -19183   -19766   -19412   -18562   -16831   -14539   -15700   -18949 
  -17449   -14744   -15229   -14543   -13387   -16012   -20921   -23472 
  -23548   -25718   -25746   -19930   -17293   -17309   -15083   -15278 
  -15103   -14725   -19355   -21798   -21225   -21747   -18689   -16003 
  -17864   -17665   -15756   -15963   -16600   -16995   -17348   -17499 
  -16413   -15040   -18742   -23848   -21324   -15927   -14729   -15073 
  -15702   -18274   -21213   -21023   -17911   -17412   -19606   -17577 
  -13747   -15679   -19526   -19384   -18203   -19304   -19907   -17130 
  -16437   -21805   -24342   -20803   -20495   -22307   -19268   -16429 
  -16363   -13726   -11119   -14641   -22454   -26731   -23593   -19867 
  -19148   -15526   -11027   -12669   -17307   -20081   -22587   -23494 
  -18130   -12078   -14889   -21796   -24134   -23547   -22184   -18741 
  -14007   -11154   -13129   -17223   -19138   -20041   -19826   -17343 
  -16710   -19618   -21447   -20527   -20288   -20637   -18639   -17140 
  -18421   -18993   -20183   -23437   -22166   -17342   -17481   -20196 
  -20457   -21136   -21626   -18655   -16333   -18703   -20366   -16782 
  -14602   -17350   -17831   -16260   -17804   -17237   -13911   -15378 
  -17838   -15942   -14952   -17524   -20984   -21070   -16088   -13131 
  -14130   -13923   -16395   -21829   -21478   -16754   -15498   -18275 
  -19454   -16609   -14460   -15258   -16132   -16079   -16359   -16221 
  -14180   -14679   -19991   -23384   -21607   -16392   -12711   -15852 
  -19461   -19753   -21547   -21068   -17524   -17206   -18201   -16813 
  -13451   -11908   -16125   -19735   -16314   -12933   -14864   -16814 
  -16894   -18607   -20176   -17218   -13242   -14767   -17206   -14438 
  -13946   -18572   -19092   -16589   -17354   -16916   -13405   -13133 
  -16118   -17368   -17609   -18146   -16886   -15118   -15668   -17017 
  -16043   -14134   -15759   -19131   -19012   -17827   -18939   -18341 
  -15687   -16414   -17742   -14486   -12123   -14857   -17272   -16345 
  -14991   -14398   -13965   -15138   -17896   -18686   -16880   -15852 
  -17016   -18837   -19329   -18823   -18735   -17071   -14014   -14125 
  -15849   -15663   -16468   -18275   -17445   -15488   -15207   -15958 
  -16251   -16724   -18872   -20497   -19237   -17484   -16740   -15873 
  -15539   -16174   -16353   -16091   -16584   -17871   -19235   -19130 
  -16053   -12022   -10987   -13238   -16065   -17866   -18412   -17928 
  -16917   -16112   -16107   -15949   -14321   -12559   -13313   -16277 
  -17680   -15989   -14405   -14595   -15127   -16777   -19640   -19275 
  -16034   -16450   -18859   -16828   -13194   -12804   -14176   -16068 
  -19754   -23852   -24564   -21969   -19036   -16452   -15210   -16228 
  -16949   -15695   -14239   -13913   -13902   -14346   -16597   -18884 
  -18134   -15793   -14826   -13779   -12415   -14593   -17270   -15442 
  -14370   -16543   -16596   -14536   -13657   -14540   -16005   -15989 
  -15405   -15741   -16323   -18960   -22875   -23742   -23394   -23305 
  -21356   -20270   -20075   -17852   -16675   -16532   -14430   -13287 
  -15231   -18083   -19395   -18761   -17744   -16419   -15268   -16241 
  -16806   -13961   -11440   -12259   -13340   -13361   -15156   -18254 
  -19102   -18582   -18772   -17155   -13861   -13215   -15355   -17253 
  -17288   -16149   -16191   -17684   -18768   -18921   -18687   -17953 
  -16424   -14897   -14635   -16090   -18412   -20021   -20414   -19281 
  -16631   -15599   -16775   -16206   -15450   -17499   -18347   -16991 
  -17338   -17978   -16544   -16179   -17772   -17640   -16330   -16276 
  -15308   -13534   -13330   -12669   -11130   -11080   -13007   -16824 
  -18824   -16616   -15903   -17116   -15615   -14972   -16511   -15847 
  -14967   -16104   -16439   -15464   -15155   -16482   -18586   -20489 
  -22249   -21843   -18348   -15567   -15769   -18432   -21837   -22081 
  -19215   -17484   -17625   -18292   -19179   -19850   -19597   -17901 
  -15783   -14736   -15582   -18287   -19244   -15702   -10897    -8619 
   -9374   -11599   -13518   -13286   -10301    -9182   -12086   -14284 
  -15394   -16680   -16093   -16083   -17528   -16714   -15879   -16544 
  -15398   -15230   -17520   -17734   -17429   -18086   -17362   -18015 
  -19938   -19817   -20060   -21426   -21431   -20527   -20136   -19982 
  -19307   -19670   -21787   -22090   -19397   -17412   -17860   -18145 
  -16852   -16238   -16016   -14180   -13515   -14640   -13814   -12504 
  -13022   -13785   -15361   -17674   -17901   -16401   -15554   -15294 
  -15099   -16381   -18381   -18507   -18424   -19869   -20777   -20195 
  -19106   -18915   -19301   -18848   -19075   -19781   -18418   -16769 
  -16533   -16183   -15642   -15538   -15626   -16127   -16906   -16894 
  -16515   -16864   -16664   -16122   -17828   -20270   -20000   -17750 
  -16003   -14814   -13488   -13445   -14918   -15542   -15446   -16268 
  -17230   -17601   -17901   -18097   -17459   -15995   -15685   -16934 
  -17070   -16384   -17035   -17950   -18314   -18384   -17265   -15716 
  -15695   -16735   -16935   -16485   -16679   -16123   -14057   -12802 
  -12641   -12841   -14179   -15833   -16439   -16069   -15650   -16008 
  -16035   -15109   -15184   -16533   -16791   -15680   -14704   -13644 
  -12754   -13152   -14190   -15286   -15654   -15006   -16084   -18623 
  -19246   -19234   -19844   -18840   -17693   -18899   -20202   -19907 
  -19290   -19188   -19699   -20183   -19804   -19300   -19349   -19540 
  -19693   -19658   -19825   -20527   -20554   -19723   -19102   -18085 
  -16432   -16082   -17228   -17485   -16827   -17060   -17104   -15893 
  -15602   -16743   -16584   -14971   -14827   -15929   -15754   -15205 
