Origin Time       2011/03/11 14:46:00
Lat.              38.103
Long.             142.860
Depth. (km)       24
Mag.              9.0
Station Code      TYM004
Station Lat.      36.8626
Station Long.     137.5274
Station Height(m) 116
Record Time       2011/03/11 14:48:52
Sampling Freq(Hz) 100Hz
Duration Time(s)  193
Dir.              E-W
Scale Factor      3920(gal)/6182761
Max. Acc. (gal)   4.454
Last Correction   2011/03/11 14:48:37
Memo.             
[...]
   10481    10480    10542    10625    10695    10767    10854    10947 
   11018    11076    11189    11354    11497    11602    11683    11736 
   11767    11793    11835    11900    11966    12020    12067    12131 
   12240    12371    12468    12497    12466    12387    12245    12038 
   11797    11572    11423    11344    11310    11362    11483    11532 
   11452    11319    11130    10827    10507    10293    10160    10040 
    9967     9978     9973     9858     9707     9579     9455     9364 
    9365     9455     9581     9700     9804     9882     9933     9961 
    9957     9956    10023    10185    10406    10595    10715    10782 
   10763    10648    10512    10425    10377    10330    10299    10291 
   10264    10187    10063     9911     9785     9719     9722     9797 
    9931    10100    10277    10419    10502    10538    10551    10538 
   10482    10426    10420    10450    10494    10546    10604    10646 
   10648    10644    10650    10643    10645    10664    10672    10684 
   10694    10683    10691    10721    10732    10716    10662    10549 
   10380    10220    10144    10157    10240    10387    10560    10723 
   10855    10947    11023    11104    11199    11339    11524    11758 
   12075    12412    12684    12868    12977    13052    13108    13138 
   13194    13266    13289    13299    13358    13401    13367    13297 
   13237    13180    13145    13166    13239    13313    13315    13242 
   13166    13087    12972    12880    12872    12916    12987    13132 
   13312    13395    13377    13334    13273    13171    13063    13018 
   13046    13090    13138    13191    13212    13191    13165    13147 
   13112    13078    13068    13026    12931    12825    12733    12632 
   12491    12330    12159    11930    11679    11479    11304    11114 
   10928    10773    10663    10594    10564    10580    10612    10602 
   10541    10460    10376    10283    10196    10143    10134    10163 
   10222    10262    10219    10108     9986     9866     9762     9720 
    9732     9719     9642     9551     9480     9413     9375     9386 
    9412     9437     9487     9512     9452     9376     9318     9216 
    9080     8988     8980     9057     9189     9319     9421     9485 
    9480     9411     9363     9413     9534     9663     9796     9944 
   10020     9950     9852     9861     9935     9969     9941     9868 
    9745     9603     9510     9494     9538     9588     9594     9545 
    9436     9299     9154     8998     8866     8776     8695     8622 
    8605     8620     8552     8391     8229     8102     8030     8042 
    8113     8153     8087     7959     7845     7765     7746     7795 
    7849     7867     7901     8006     8128     8202     8273     8388 
    8502     8575     8655     8792     8951     9079     9196     9341 
    9517     9698     9846     9945    10028    10141    10282    10412 
   10550    10756    10997    11187    11320    11424    11484    11479 
   11438    11438    11538    11713    11888    12002    12052    12088 
   12134    12161    12191    12265    12359    12409    12398    12379 
   12389    12397    12395    12404    12428    12444    12416    12351 
   12300    12321    12438    12595    12762    12998    13294    13572 
   13762    13814    13775    13732    13710    13708    13702    13664 
   13598    13507    13384    13228    13092    13020    12981    12961 
   12985    13044    13119    13167    13159    13144    13147    13118 
   13046    12981    12941    12909    12882    12850    12799    12755 
   12736    12740    12775    12834    12934    13096    13268    13403 
   13534    13693    13845    13958    14064    14199    14347    14475 
   14593    14726    14865    15004    15141    15255    15325    15359 
   15388    15409    15406    15396    15380    15374    15423    15514 
   15573    15561    15477    15368    15289    15227    15167    15112 
   15037    14942    14831    14664    14490    14394    14328    14236 
   14171    14187    14233    14237    14200    14150    14066    13925 
   13779    13693    13654    13644    13680    13720    13718    13671 
   13550    13337    13096    12902    12779    12698    12616    12506 
   12357    12148    11855    11496    11139    10836    10591    10387 
   10213    10055     9865     9626     9373     9134     8940     8823 
    8774     8785     8836     8883     8903     8894     8835     8727 
    8638     8635     8683     8747     8867     9013     9105     9164 
    9243     9332     9415     9511     9635     9793     9977    10132 
   10212    10248    10303    10388    10466    10528    10597    10630 
   10572    10468    10377    10286    10194    10128    10089    10073 
   10079    10056     9952     9821     9738     9669     9574     9527 
    9587     9693     9771     9818     9855     9895     9950    10017 
   10063    10081    10098    10087    10026     9968     9923     9836 
    9715     9633     9638     9671     9653     9628     9650     9725 
    9850     9971    10045    10106    10196    10304    10392    10476 
   10575    10639    10652    10654    10653    10655    10681    10732 
   10808    10923    11089    11292    11483    11646    11806    11960 
   12088    12235    12469    12754    12986    13152    13308    13451 
   13572    13696    13839    13992    14128    14262    14439    14597 
   14686    14749    14805    14829    14832    14845    14864    14874 
   14889    14910    14929    14940    14917    14865    14823    14822 
   14864    14926    14985    15032    15028    14929    14775    14654 
   14602    14623    14685    14718    14681    14554    14330    14086 
   13915    13840    13855    13942    14068    14190    14242    14206 
   14146    14108    14104    14157    14284    14465    14631    14757 
   14874    14968    15012    15030    15048    15063    15062    15064 
   15054    14968    14815    14638    14452    14273    14119    14022 
   13988    13970    13959    13937    13884    13853    13871    13907 
   13947    13983    14007    14012    13988    13956    13935    13921 
   13925    13917    13871    13813    13756    13706    13715    13801 
   13903    13963    14000    14033    14031    13988    13936    13872 
   13792    13725    13693    13710    13764    13810    13826    13829 
   13820    13786    13718    13628    13539    13478    13458    13478 
   13541    13625    13685    13731    13792    13867    13952    14014 
   14047    14088    14120    14135    14165    14178    14144    14083 
   13993    13866    13756    13703    13659    13614    13615    13628 
   13604    13540    13425    13294    13219    13225    13268    13282 
   13260    13201    13063    12867    12727    12712    12782    12854 
   12883    12839    12723    12597    12518    12491    12498    12493 
   12442    12377    12346    12342    12333    12302    12266    12261 
   12269    12257    12245    12215    12108    11937    11736    11580 
   11591    11678    11571    11335    11240    11208    11059    10852 
   10664    10539    10500    10530    10661    10841    10892    10787 
   10717    10860    11082    11080    10903    10862    11032    11270 
   11455    11445    11203    11033    11193    11505    11738    11894 
   12013    12093    12032    11789    11547    11401    11314    11347 
   11534    11813    11986    11821    11490    11234    10976    10765 
   10754    10896    11080    11159    11041    10811    10598    10463 
   10410    10402    10388    10362    10422    10654    10890    10851 
   10477     9957     9591     9583     9832    10083    10226    10270 
   10199    10026     9851     9729     9578     9412     9459     9732 
    9944    10017    10113    10249    10219     9980     9808     9823 
    9883     9934    10046    10317    10661    10785    10682    10556 
   10351    10024     9799     9898    10463    11236    11539    11143 
   10496    10049     9928    10060    10313    10525    10597    10535 
   10314    10074    10081    10151     9900     9567     9677    10066 
   10161    10042    10128    10137     9635     9062     9073     9512 
    9848     9966     9954     9795     9603     9519     9512     9549 
    9572     9538     9602     9845    10162    10445    10506    10193 
    9753     9576     9598     9518     9451     9737    10224    10454 
   10488    10665    10716    10231     9591     9328     9288     9298 
    9560     9906     9867     9450     8945     8505     8294     8418 
    8731     9065     9403     9590     9255     8453     7846     7869 
    8321     8892     9407     9669     9607     9429     9373     9510 
    9794    10102    10326    10484    10637    10771    10788    10617 
   10433    10483    10710    10966    11277    11600    11781    11841 
   11944    12123    12293    12383    12262    11846    11354    11094 
   11143    11414    11708    11786    11670    11620    11724    11836 
   11864    11891    12030    12227    12332    12374    12432    12439 
   12408    12406    12381    12400    12547    12722    12993    13353 
   13530    13605    13701    13658    13658    13883    14000    13870 
   13841    14066    14262    14290    14287    14224    14021    13856 
   13934    14236    14613    14942    15063    14922    14784    14773 
   14702    14595    14588    14647    14742    14857    14993    15190 
   15384    15447    15333    15152    14996    14797    14643    14701 
   14848    14993    15167    15181    14913    14540    14274    14255 
   14439    14648    14767    14703    14519    14409    14309    14154 
   14015    13717    13215    12856    12797    12905    13033    13086 
   13037    12893    12691    12468    12198    11870    11573    11373 
   11220    11095    11005    10892    10752    10645    10557    10378 
   10065     9771     9586     9409     9254     9202     9160     9056 
    9030     9213     9406     9329     9053     8868     8798     8650 
    8579     8872     9304     9508     9502     9463     9440     9315 
    9120     9117     9356     9604     9639     9442     9232     9120 
    8991     8874     8931     9153     9353     9348     9133     8884 
    8681     8469     8296     8345     8665     9002     9106     9104 
    9174     9206     9103     8982     8970     9073     9254     9498 
    9799    10107    10359    10501    10518    10476    10461    10565 
   10812    11031    11165    11387    11668    11833    11787    11552 
   11306    11181    11281    11679    12206    12707    13054    13024 
   12667    12219    11835    11742    12059    12575    13021    13357 
   13616    13674    13437    13025    12583    12248    12261    12678 
   13201    13611    13900    13913    13455    12623    11811    11462 
   11654    12071    12513    12900    12949    12515    11910    11505 
   11337    11242    11262    11523    11771    11654    11255    10838 
   10445    10057     9821     9811     9809     9625     9349     9185 
    9229     9303     9195     8971     8690     8345     8074     7909 
    7791     7825     8053     8182     7852     7195     6654     6312 
    6055     6024     6332     6744     6863     6550     6007     5564 
    5454     5698     6153     6533     6600     6433     6168     5875 
    5749     5814     5930     6092     6331     6637     6908     6951 
    6782     6639     6645     6711     6746     6887     7265     7619 
    7602     7371     7328     7433     7456     7497     7629     7697 
    7685     7724     7856     7993     8055     8102     8180     8312 
    8596     8958     9201     9411     9716     9948     9949     9783 
    9628     9577     9579     9703     9985    10170    10291    10624 
   10849    10497     9960    10009    10598    11016    11070    11077 
   11053    10900    10795    10915    11273    11726    12005    12034 
   12131    12486    12800    12915    13029    13049    12721    12273 
   12189    12490    12687    12587    12461    12363    12194    11951 
   11457    10814    10639    11033    11349    11367    11557    11872 
   11626    11024    11193    12324    13322    13537    13444    13467 
   13439    13187    12824    12739    13125    13607    14027    14683 
   15443    15623    14705    13056    11582    10533     9750     9579 
   10375    12011    13879    14930    14789    14140    13128    11352 
    9581     9128     9943    10982    11711    12277    12760    12900 
   12586    12145    11849    11766    11956    12198    12250    12327 
   12441    12249    11921    11995    12651    13476    13981    14290 
   14440    13814    12290    10522     9206     9119    10556    12524 
   13560    13047    11494     9674     7897     6620     6496     7320 
    8204     8524     8202     7665     7510     7979     8897     9959 
   10746    10912    10556    10107    10103    10946    12387    13742 
   14536    14464    13507    12227    11293    11058    11607    12661 
   13543    13626    12912    11827    10686     9859     9879    10878 
   12239    13185    13589    13634    13146    11942    10442     9508 
    9425     9550     9468     9394     9513     9961    10870    12130 
   13252    13476    12466    10569     8474     7011     6736     7675 
    9464    11379    12689    13013    12217    10488     8538     7223 
    6967     7754     9192    10547    11255    11218    10530     9343 
    8050     7321     7590     8633     9931    11055    11783    12044 
   11685    10660     9268     7938     7196     7506     8681     9892 
   10417    10157     9297     7898     6162     4673     4070     4584 
    5976     7851     9770    11105    11232    10102     8425     7039 
    6339     6404     7054     7847     8402     8510     8236     7953 
    7891     7976     8056     7992     7773     7473     7214     7262 
    7782     8547     9064     8993     8381     7408     6304     5381 
    4893     5120     6146     7430     8285     8470     8077     7324 
    6515     6006     6092     6752     7757     8820     9438     9184 
    8209     7022     6025     5456     5503     6178     7180     8042 
    8318     7916     7205     6504     5937     5667     5818     6356 
    7023     7512     7707     7488     6730     5644     4711     4295 
    4468     5179     6223     7052     7129     6485     5608     4904 
    4632     4956     5683     6428     6929     7028     6690     6044 
    5455     5367     5868     6670     7437     7899     7961     7840 
    7743     7551     7212     6901     6585     6225     6154     6721 
    7750     8657     9109     9157     8820     8218     7761     7688 
    7916     8367     8890     9220     9355     9347     8988     8356 
    8059     8486     9342    10095    10460    10429    10146     9773 
    9387     9124     9196     9555     9894    10047    10062     9996 
    9847     9598     9281     8993     8815     8684     8524     8480 
    8759     9317     9908    10389    10753    10902    10818    10672 
   10535    10422    10367    10381    10597    11075    11572    11743 
   11418    10832    10463    10448    10591    10921    11592    12394 
   12909    13011    12967    12959    12809    12480    12275    12322 
   12510    12696    12767    12849    13055    13181    13110    13014 
   13050    13161    13137    12907    12619    12321    11865    11240 
   10725    10596    10836    11152    11294    11316    11309    11169 
   10850    10553    10565    10890    11170    11230    11192    11080 
   10870    10663    10585    10664    10789    10890    11003    11171 
   11466    11807    11975    11993    12031    12103    12030    11628 
   11091    10825    10913    11143    11388    11676    11947    11987 
   11687    11210    10827    10617    10490    10476    10631    10825 
   10867    10697    10461    10318    10208    10067    10028    10276 
   10773    11202    11410    11565    11738    11751    11492    11150 
   11003    11099    11230    11175    11003    10963    11128    11380 
   11557    11589    11526    11367    11137    11037    11190    11475 
   11695    11805    11823    11635    11180    10653    10348    10410 
   10786    11327    11824    12090    12090    11913    11684    11447 
   11256    11316    11604    11751    11624    11467    11470    11565 
   11611    11595    11555    11466    11403    11483    11625    11705 
   11680    11513    11307    11268    11409    11582    11737    11953 
   12223    12366    12247    11930    11590    11375    11349    11472 
   11616    11687    11635    11427    11123    10832    10590    10379 
   10256    10314    10523    10785    10971    10912    10651    10410 
   10287    10290    10416    10660    10984    11264    11358    11243 
   11060    10963    11036    11347    11811    12147    12209    12102 
   11974    11888    11836    11839    11848    11721    11498    11325 
   11215    11152    11130    11062    10873    10664    10620    10714 
   10799    10892    10981    10833    10363     9816     9422     9205 
    9142     9234     9430     9574     9544     9421     9331     9263 
    9226     9328     9551     9716     9695     9471     9078     8646 
    8394     8379     8454     8531     8605     8641     8555     8287 
    7989     7854     7819     7784     7831     7991     8065     7887 
    7628     7501     7481     7545     7707     7862     7972     8131 
    8330     8446     8527     8692     8874     8979     9026     9086 
    9224     9426     9679     9951    10074     9954     9718     9572 
    9693    10097    10622    11109    11419    11460    11283    11054 
   10935    10982    11149    11441    11797    12020    12042    11922 
   11673    11401    11301    11405    11603    11828    12011    12030 
   11866    11648    11464    11306    11222    11285    11447    11623 
   11781    11901    11971    11992    11926    11756    11545    11410 
   11454    11621    11752    11854    12012    12151    12172    12127 
   12123    12146    12097    11970    11853    11787    11792    11861 
   11950    12012    11970    11847    11791    11839    11958    12171 
   12417    12564    12569    12476    12320    12173    12192    12401 
   12615    12706    12708    12660    12529    12310    12109    12054 
   12134    12236    12320    12448    12648    12820    12899    13002 
   13168    13245    13197    13130    13080    13097    13213    13355 
   13488    13627    13761    13852    13813    13666    13583    13620 
   13717    13868    14048    14098    13909    13589    13311    13162 
   13132    13152    13190    13259    13308    13280    13211    13188 
   13290    13511    13692    13686    13548    13362    13117    12842 
   12627    12512    12495    12588    12743    12861    12912    12899 
   12786    12579    12409    12423    12586    12741    12849    12928 
   12904    12686    12355    12135    12144    12296    12436    12483 
   12469    12421    12359    12336    12366    12425    12420    12255 
   11969    11680    11492    11470    11542    11574    11528    11407 
   11215    11018    10915    10978    11185    11366    11373    11221 
   11039    10946    10900    10814    10772    10847    10935    10981 
   11087    11283    11462    11585    11679    11694    11575    11437 
   11438    11486    11440    11394    11415    11400    11317    11244 
   11226    11238    11244    11243    11246    11176    10910    10541 
