Origin Time       2011/03/11 14:46:00
Lat.              38.103
Long.             142.860
Depth. (km)       24
Mag.              9.0
Station Code      TYM012
Station Lat.      36.4402
Station Long.     137.0395
Station Height(m) 669
Record Time       2011/03/11 14:49:32
Sampling Freq(Hz) 100Hz
Duration Time(s)  108
Dir.              N-S
Scale Factor      3920(gal)/6182761
Max. Acc. (gal)   4.776
Last Correction   2011/03/11 14:49:17
Memo.             
[...]
   -5100    -5075    -5068    -5061    -5069    -5088    -5114    -5153 
   -5181    -5207    -5249    -5285    -5331    -5397    -5452    -5513 
   -5584    -5633    -5671    -5707    -5718    -5699    -5655    -5599 
   -5540    -5466    -5378    -5288    -5200    -5123    -5052    -4994 
   -4963    -4939    -4935    -4962    -4983    -5016    -5070    -5098 
   -5119    -5146    -5145    -5139    -5137    -5128    -5138    -5161 
   -5173    -5200    -5238    -5272    -5319    -5380    -5434    -5490 
   -5562    -5614    -5634    -5660    -5675    -5642    -5588    -5518 
   -5399    -5259    -5119    -4961    -4797    -4642    -4511    -4404 
   -4290    -4183    -4103    -4031    -3984    -3964    -3940    -3920 
   -3924    -3945    -3970    -3988    -3997    -4010    -4023    -4021 
   -4019    -4032    -4053    -4080    -4123    -4170    -4212    -4271 
   -4339    -4392    -4457    -4525    -4562    -4597    -4640    -4649 
   -4650    -4678    -4691    -4676    -4665    -4656    -4624    -4573 
   -4536    -4505    -4444    -4377    -4314    -4230    -4157    -4103 
   -4028    -3969    -3958    -3962    -3982    -4043    -4123    -4209 
   -4301    -4396    -4491    -4576    -4663    -4763    -4849    -4912 
   -4966    -5006    -5015    -4995    -4965    -4921    -4838    -4718 
   -4576    -4421    -4265    -4113    -3957    -3802    -3667    -3557 
   -3457    -3361    -3284    -3244    -3227    -3228    -3259    -3328 
   -3417    -3510    -3611    -3735    -3868    -3987    -4111    -4248 
   -4373    -4492    -4607    -4694    -4775    -4860    -4922    -4969 
   -5007    -5020    -5019    -5009    -4959    -4872    -4785    -4684 
   -4553    -4420    -4277    -4115    -3967    -3829    -3689    -3590 
   -3534    -3489    -3474    -3500    -3553    -3638    -3750    -3871 
   -4022    -4208    -4397    -4592    -4810    -5010    -5186    -5362 
   -5526    -5663    -5772    -5864    -5941    -5994    -6017    -6009 
   -5967    -5901    -5824    -5737    -5653    -5592    -5538    -5486 
   -5449    -5414    -5384    -5380    -5360    -5313    -5285    -5267 
   -5234    -5181    -5120    -5082    -5038    -4993    -4993    -4981 
   -4958    -4977    -4974    -4927    -4886    -4827    -4754    -4690 
   -4617    -4541    -4474    -4428    -4395    -4362    -4345    -4340 
   -4337    -4362    -4400    -4433    -4474    -4535    -4631    -4722 
   -4771    -4837    -4918    -4949    -4977    -5049    -5117    -5161 
   -5205    -5242    -5286    -5352    -5407    -5420    -5397    -5352 
   -5297    -5220    -5098    -4954    -4816    -4673    -4514    -4372 
   -4256    -4123    -3994    -3902    -3817    -3741    -3687    -3634 
   -3596    -3579    -3569    -3570    -3604    -3666    -3713    -3758 
   -3841    -3922    -3986    -4068    -4143    -4200    -4252    -4306 
   -4354    -4348    -4329    -4368    -4375    -4337    -4343    -4367 
   -4386    -4406    -4409    -4443    -4515    -4576    -4632    -4667 
   -4714    -4825    -4900    -4915    -4979    -5075    -5146    -5224 
   -5295    -5362    -5458    -5541    -5568    -5556    -5527    -5510 
   -5483    -5386    -5267    -5184    -5103    -4995    -4877    -4780 
   -4701    -4610    -4542    -4512    -4469    -4429    -4410    -4378 
   -4365    -4386    -4402    -4408    -4407    -4441    -4517    -4551 
   -4548    -4585    -4635    -4654    -4675    -4733    -4783    -4789 
   -4785    -4800    -4842    -4887    -4885    -4891    -4934    -4961 
   -4995    -5026    -5042    -5089    -5113    -5087    -5079    -5050 
   -4995    -4975    -4948    -4908    -4901    -4898    -4888    -4900 
   -4928    -4950    -4970    -5007    -5054    -5102    -5150    -5162 
   -5132    -5124    -5179    -5251    -5255    -5226    -5264    -5325 
   -5330    -5304    -5284    -5290    -5326    -5358    -5371    -5378 
   -5386    -5385    -5358    -5337    -5361    -5386    -5387    -5360 
   -5316    -5320    -5329    -5278    -5250    -5235    -5171    -5106 
   -5033    -4950    -4915    -4880    -4815    -4761    -4743    -4753 
   -4723    -4662    -4667    -4695    -4671    -4654    -4690    -4717 
   -4691    -4654    -4660    -4700    -4706    -4678    -4689    -4737 
   -4785    -4865    -4964    -5059    -5189    -5352    -5488    -5585 
   -5693    -5811    -5903    -5958    -5990    -6038    -6064    -6018 
   -6003    -6017    -5943    -5842    -5753    -5637    -5538    -5424 
   -5286    -5206    -5151    -5069    -5013    -5019    -5032    -5039 
   -5081    -5124    -5150    -5206    -5261    -5275    -5285    -5346 
   -5416    -5399    -5350    -5337    -5295    -5238    -5167    -5063 
   -5020    -4990    -4884    -4815    -4807    -4789    -4814    -4840 
   -4793    -4791    -4847    -4827    -4800    -4850    -4882    -4878 
   -4884    -4885    -4882    -4890    -4899    -4921    -4959    -4990 
   -5045    -5135    -5178    -5236    -5356    -5417    -5488    -5638 
   -5707    -5752    -5849    -5877    -5879    -5900    -5884    -5852 
   -5798    -5704    -5583    -5460    -5363    -5245    -5108    -5024 
   -4938    -4801    -4677    -4613    -4566    -4480    -4427    -4439 
   -4427    -4433    -4502    -4539    -4550    -4615    -4734    -4870 
   -4988    -5089    -5217    -5393    -5577    -5744    -5912    -6050 
   -6161    -6317    -6436    -6471    -6553    -6625    -6620    -6657 
   -6670    -6601    -6584    -6594    -6568    -6545    -6515    -6482 
   -6433    -6340    -6253    -6160    -6037    -5934    -5841    -5751 
   -5702    -5674    -5616    -5541    -5501    -5503    -5509    -5528 
   -5563    -5581    -5627    -5744    -5841    -5866    -5904    -5980 
   -6050    -6130    -6216    -6251    -6276    -6358    -6471    -6578 
   -6636    -6640    -6687    -6774    -6800    -6789    -6773    -6724 
   -6644    -6551    -6487    -6438    -6349    -6278    -6239    -6157 
   -6103    -6088    -6022    -5956    -5971    -6021    -6026    -6021 
   -6080    -6121    -6126    -6148    -6115    -6105    -6167    -6134 
   -6052    -6032    -6005    -5968    -5930    -5888    -5877    -5841 
   -5782    -5767    -5778    -5798    -5838    -5889    -5956    -6049 
   -6156    -6227    -6291    -6404    -6509    -6599    -6712    -6778 
   -6804    -6850    -6849    -6806    -6778    -6720    -6646    -6587 
   -6521    -6478    -6414    -6320    -6306    -6301    -6250    -6270 
   -6316    -6323    -6380    -6480    -6545    -6598    -6668    -6738 
   -6823    -6924    -6987    -7023    -7070    -7113    -7167    -7203 
   -7177    -7160    -7216    -7284    -7298    -7294    -7344    -7381 
   -7335    -7299    -7288    -7257    -7235    -7208    -7180    -7172 
   -7144    -7112    -7083    -7019    -6986    -7021    -7028    -6975 
   -6962    -6997    -6987    -6962    -6976    -6988    -6969    -6894 
   -6857    -6939    -6940    -6826    -6807    -6832    -6817    -6791 
   -6704    -6588    -6531    -6499    -6416    -6255    -6136    -6118 
   -6004    -5781    -5701    -5687    -5535    -5408    -5393    -5378 
   -5447    -5503    -5434    -5659    -6088    -6039    -5868    -6158 
   -6282    -6020    -6008    -6082    -5947    -6011    -6138    -5881 
   -5658    -5844    -5871    -5506    -5370    -5461    -5192    -4754 
   -4649    -4886    -5107    -4890    -4722    -5337    -5774    -5169 
   -4759    -5123    -5208    -4937    -4863    -4752    -4575    -4645 
   -4717    -4590    -4645    -4802    -4684    -4807    -5287    -5339 
   -5262    -5376    -5039    -5015    -6050    -6575    -6018    -5728 
   -5851    -5958    -6004    -5338    -4366    -4452    -4998    -4924 
   -4596    -4404    -4657    -5376    -5775    -5826    -5853    -5714 
   -5835    -5986    -5569    -5628    -6138    -5682    -5475    -6578 
   -6947    -6248    -5874    -5568    -5560    -5856    -5256    -4448 
   -4268    -4441    -5255    -5708    -5147    -5237    -5888    -5681 
   -5227    -5470    -5995    -5927    -5485    -5747    -6223    -5773 
   -5242    -5379    -5324    -5138    -5333    -5252    -5080    -5515 
   -5560    -4783    -4613    -5098    -5070    -5081    -5727    -5918 
   -5391    -5133    -5197    -5271    -5491    -5461    -5086    -5046 
   -5003    -4691    -5010    -5476    -5252    -5226    -5446    -5242 
   -4940    -4540    -3997    -3681    -3684    -4070    -4291    -4095 
   -4288    -4471    -4134    -3930    -3791    -3890    -4163    -3719 
   -3608    -4309    -4223    -3589    -3441    -3834    -4415    -4258 
   -3960    -4291    -3984    -3720    -4707    -5028    -4356    -4492 
   -4960    -4582    -3965    -4348    -5082    -4650    -4403    -5305 
   -5324    -4441    -4058    -3676    -3272    -3592    -3879    -3194 
   -2904    -3969    -4305    -3735    -4229    -4415    -3410    -3182 
   -3445    -3281    -3468    -3908    -4152    -4735    -5755    -5967 
   -5412    -5721    -5846    -4819    -4881    -5736    -5581    -5560 
   -5908    -5774    -5553    -5246    -5180    -5243    -4497    -4217 
   -4707    -4186    -3760    -4367    -4383    -4431    -5464    -5650 
   -4768    -4611    -4869    -4833    -5359    -6095    -6013    -5866 
   -6233    -6129    -5415    -5345    -5863    -5928    -5866    -5978 
   -5833    -5782    -5776    -5377    -5337    -5696    -5609    -5435 
   -5462    -5359    -5384    -5496    -5447    -5593    -5823    -6079 
   -6601    -6477    -5769    -5879    -6174    -5939    -5901    -5777 
   -5703    -6214    -6409    -6337    -6460    -6288    -6165    -6193 
   -6208    -6429    -6200    -5663    -5728    -6308    -6687    -5932 
   -5192    -5965    -6485    -6080    -5889    -5722    -5982    -6530 
   -6330    -6180    -6254    -6033    -6440    -6919    -6270    -5768 
   -6056    -5875    -5313    -5603    -6220    -5745    -5244    -6079 
   -6534    -5770    -5563    -6283    -6656    -6277    -6242    -6850 
   -6433    -5523    -5950    -6128    -5569    -6196    -6593    -5660 
   -5580    -6140    -5743    -5308    -5564    -5855    -6047    -6299 
   -6423    -6352    -6409    -6793    -7102    -7310    -7610    -7545 
   -7386    -7468    -7286    -7058    -6745    -6432    -6962    -7283 
   -6751    -6578    -6598    -6681    -7148    -7229    -7277    -7730 
   -7829    -7918    -8196    -8009    -7950    -8667    -9156    -8460 
   -7836    -8481    -8870    -8330    -8164    -8173    -8057    -8299 
   -8228    -7945    -8150    -8132    -8099    -8820    -9231    -8826 
   -8777    -9112    -8869    -8555    -8785    -8559    -7866    -7963 
   -8443    -8479    -8354    -8119    -7868    -7850    -7849    -7757 
   -7706    -7927    -8184    -8058    -8159    -8566    -8261    -7593 
   -7686    -7952    -7672    -7948    -8451    -7856    -8026    -9071 
   -8421    -7795    -8487    -8293    -7996    -8569    -8491    -8338 
   -8816    -8367    -7332    -8018    -9618    -9292    -7780    -7000 
   -6674    -7634    -9087    -7706    -6098    -7427    -7836    -6898 
   -7688    -7933    -6639    -6985    -8799    -8957    -7084    -5758 
   -6059    -7296    -8908    -8964    -6764    -5377    -6563    -8239 
   -8188    -7144    -7101    -7472    -7131    -7278    -7652    -6828 
   -6005    -6070    -6464    -7072    -6961    -5805    -5408    -6576 
   -7707    -7214    -5752    -4982    -5374    -6553    -7339    -6478 
   -5178    -5099    -5221    -4987    -5398    -5926    -5921    -5575 
   -5032    -5501    -6409    -5724    -5207    -6324    -6893    -6619 
   -6403    -5459    -4798    -5935    -7059    -6262    -4585    -4091 
   -4818    -5326    -5564    -5432    -4367    -3648    -3902    -4030 
   -4064    -4219    -3762    -3337    -4131    -4881    -4309    -3580 
   -3721    -4858    -5970    -5158    -3799    -4133    -4806    -5380 
   -6246    -5702    -4624    -4800    -4605    -3944    -4458    -5190 
   -5059    -4432    -3947    -4542    -5490    -5010    -3922    -4006 
   -5072    -5752    -5348    -4951    -5338    -5710    -5892    -5952 
   -5659    -5589    -5914    -6089    -5919    -5771    -5912    -5462 
   -4637    -5212    -6330    -6500    -6375    -5847    -5497    -6312 
   -6526    -6196    -6938    -7069    -6207    -6204    -6273    -5718 
   -5791    -6211    -6128    -6439    -7220    -7074    -6470    -6697 
   -7044    -6860    -6656    -6493    -6292    -6192    -6430    -7037 
   -7276    -7449    -8295    -8613    -7954    -7340    -6925    -6874 
   -7097    -6726    -6143    -6480    -7215    -6915    -5891    -5589 
   -5952    -6118    -6165    -6210    -5931    -5659    -5734    -5540 
   -5294    -5635    -5653    -5394    -5693    -5481    -4872    -5138 
   -5405    -5420    -5899    -6097    -6011    -6273    -6442    -6205 
   -5618    -5439    -6048    -5871    -5070    -5389    -5699    -5327 
   -5620    -5717    -5144    -5606    -6498    -6465    -6476    -6684 
   -6303    -6087    -6462    -6591    -6392    -6481    -6840    -7105 
   -7635    -8695    -8938    -7741    -6857    -6917    -6928    -6718 
   -6292    -5831    -5952    -6191    -5845    -5458    -5537    -5728 
   -5819    -5824    -5543    -5119    -4588    -3775    -3351    -3524 
   -3544    -3408    -3500    -4080    -5329    -6730    -7922    -8997 
   -9332    -8843    -8816    -9141    -8817    -8614    -8709    -8538 
   -9102    -9842    -9319    -8933    -9331    -8961    -7689    -6735 
   -6470    -6192    -5767    -5597    -5362    -5116    -5157    -4815 
   -4050    -3806    -4240    -4908    -5856    -7441    -9401   -11079 
  -12456   -13219   -12599   -11282   -10082    -8405    -6710    -5715 
   -4616    -4111    -5202    -6120    -5893    -5307    -4357    -3099 
   -1799     -827     -888    -1659    -2938    -5129    -7138    -7766 
   -7442    -7324    -8414   -10155   -11196   -11724   -12270   -12619 
  -12836   -12502   -10957    -9472    -9292    -9247    -8617    -8049 
   -7107    -5513    -4635    -5003    -5345    -5326    -5961    -6663 
   -6487    -6617    -6889    -6299    -6875    -8736    -9263    -9313 
   -9507    -8092    -6320    -5318    -4125    -4122    -5957    -7471 
   -8047    -8190    -7803    -7177    -6562    -5988    -5656    -5862 
   -6864    -8373   -10026   -11334   -11608   -11493   -11311   -10242 
   -9533    -9967    -9297    -7377    -6063    -4774    -3088    -2467 
   -3203    -4395    -5385    -5967    -6529    -7368    -8418    -9340 
   -9633    -9719   -10117   -10296   -10245   -10195    -9615    -8805 
   -8500    -8530    -8782    -8901    -8178    -7186    -6461    -5385 
   -4084    -2813    -1576    -1491    -2705    -3972    -5003    -5805 
   -6249    -6354    -5960    -5584    -5855    -6654    -7762    -8737 
   -9403    -9900    -9989    -9942    -9669    -8570    -7650    -7295 
   -6707    -6727    -7297    -7050    -6617    -6564    -6432    -6469 
   -6392    -5708    -5148    -5332    -5580    -4993    -4126    -4002 
   -4221    -3931    -3025    -2035    -1434     -941     -909    -2303 
   -4219    -5766    -7813    -9599    -9766    -9533    -9519    -8921 
   -8339    -8118    -7442    -6595    -6323    -6219    -5843    -5627 
   -5569    -4956    -4377    -4946    -5583    -5160    -4410    -3476 
   -2829    -3731    -4798    -4604    -4551    -5261    -6459    -7910 
   -8202    -7350    -6820    -6597    -6221    -5607    -4967    -4695 
   -4442    -4252    -4516    -4697    -4588    -4453    -4435    -5070 
   -6400    -7566    -7893    -7562    -7560    -7963    -7492    -6155 
   -5218    -5007    -5427    -6140    -6311    -6198    -6495    -6699 
   -6268    -5282    -4029    -3045    -2486    -2224    -2450    -3005 
   -3561    -4404    -5582    -6472    -6771    -6594    -6066    -5728 
   -5812    -5486    -4777    -4553    -4592    -4964    -5816    -6000 
   -5798    -6207    -6219    -5592    -5755    -6802    -7171    -6328 
   -5676    -5800    -6075    -6211    -5352    -3725    -3333    -4169 
   -5229    -6645    -7456    -7126    -7177    -7420    -6419    -4965 
   -3759    -2463    -2167    -3168    -4168    -5201    -6274    -6823 
   -7473    -8212    -8280    -8103    -7924    -7379    -7046    -7271 
   -7231    -6910    -6718    -6398    -6498    -7179    -7713    -8098 
   -7793    -7234    -7922    -8085    -6680    -6006    -5848    -5196 
   -5200    -5656    -5598    -5036    -4358    -4382    -5386    -7039 
   -8433    -8325    -7565    -7340    -6787    -5961    -5697    -5439 
   -5258    -6135    -7478    -7728    -7097    -6948    -7287    -7892 
   -8857    -9105    -8570    -8061    -6941    -5749    -5452    -5212 
   -5125    -5052    -4247    -4312    -5778    -6774    -7006    -7264 
   -7425    -7282    -7328    -7584    -7448    -7092    -6467    -5599 
   -5643    -6105    -5847    -5597    -5495    -5404    -5838    -5869 
   -4770    -3403    -2452    -2334    -2569    -2104    -1837    -2757 
   -3953    -5038    -6147    -6913    -7576    -8268    -8294    -7317 
   -5993    -5299    -5517    -6479    -7340    -6879    -5931    -5746 
   -5631    -5569    -5767    -5279    -4738    -5182    -5508    -5035 
   -4691    -4879    -5623    -7283    -8772    -8620    -7831    -7262 
   -6335    -5884    -6285    -6474    -6726    -6924    -6150    -5457 
   -5254    -4062    -2728    -3271    -4701    -5577    -6061    -5733 
   -5050    -5420    -5703    -4920    -4815    -5538    -5454    -4882 
   -4579    -4282    -4528    -5559    -6300    -6825    -7816    -8238 
   -7547    -6922    -6538    -5782    -4749    -3464    -2673    -3504 
   -4867    -5271    -5626    -6547    -6693    -6418    -7144    -7457 
   -6583    -6220    -6104    -5496    -5432    -5827    -5692    -5150 
   -5001    -5217    -5028    -4892    -5351    -5543    -5305    -5210 
   -5565    -6428    -6827    -6564    -6853    -7246    -7043    -7167 
   -7289    -6708    -6394    -6597    -6892    -7271    -7187    -6766 
   -6638    -6291    -5872    -5938    -5649    -5111    -5321    -5945 
   -6601    -6932    -6473    -5858    -5501    -5083    -4521    -4440 
   -5787    -7695    -8514    -8579    -8648    -8416    -7590    -6536 
   -5848    -5940    -6706    -7013    -6486    -6332    -6825    -7660 
   -8616    -8631    -7791    -7233    -7027    -6797    -6195    -5398 
   -5218    -5699    -6380    -6948    -6984    -6394    -5610    -5228 
   -5341    -5342    -5184    -5417    -5796    -5936    -6266    -6833 
   -6886    -6694    -7389    -8247    -7869    -7383    -7704    -7576 
   -7115    -7259    -7564    -7817    -7454    -5947    -5113    -5545 
   -5321    -4688    -4877    -5385    -6192    -7274    -7865    -8062 
   -7774    -7216    -7567    -8209    -8090    -7827    -7291    -6353 
   -6230    -6784    -7017    -7239    -7537    -7374    -7159    -7211 
   -6844    -6252    -6202    -6128    -5802    -6004    -6067    -5394 
   -5179    -5111    -4377    -4589    -5670    -5388    -4527    -4965 
   -6014    -6686    -7050    -7272    -7557    -7912    -7932    -7332 
   -6543    -6097    -5345    -4016    -3909    -5489    -6398    -6114 
   -6370    -7114    -7309    -6972    -6338    -5829    -5803    -5794 
   -5587    -5634    -5908    -5890    -5298    -4292    -3621    -4035 
   -5245    -6025    -5530    -4816    -5274    -6005    -6077    -6018 
   -5578    -4809    -4640    -4464    -3924    -4226    -5195    -5751 
   -5917    -5879    -5874    -5979    -5422    -4610    -4878    -5576 
