Origin Time       2011/03/11 14:46:00
Lat.              38.103
Long.             142.860
Depth. (km)       24
Mag.              9.0
Station Code      TYM001
Station Lat.      36.9764
Station Long.     137.6257
Station Height(m) 11
Record Time       2011/03/11 14:48:51
Sampling Freq(Hz) 100Hz
Duration Time(s)  155
Dir.              U-D
Scale Factor      3920(gal)/6182761
Max. Acc. (gal)   3.117
Last Correction   2011/03/11 14:48:36
Memo.             
[...]
  -15882   -15767   -15654   -15507   -15335   -15170   -15042   -14960 
  -14889   -14805   -14723   -14666   -14633   -14608   -14601   -14655 
  -14774   -14909   -15025   -15124   -15226   -15355   -15499   -15619 
  -15730   -15870   -16014   -16137   -16262   -16392   -16505   -16599 
  -16683   -16785   -16911   -17020   -17102   -17187   -17270   -17319 
  -17345   -17367   -17385   -17399   -17396   -17393   -17421   -17462 
  -17488   -17502   -17515   -17537   -17574   -17613   -17634   -17656 
  -17687   -17689   -17669   -17673   -17692   -17694   -17706   -17731 
  -17735   -17718   -17702   -17689   -17681   -17670   -17652   -17626 
  -17595   -17557   -17501   -17427   -17334   -17215   -17072   -16920 
  -16770   -16610   -16431   -16251   -16106   -16027   -15992   -15979 
  -15996   -16022   -16050   -16087   -16114   -16137   -16179   -16226 
  -16257   -16284   -16315   -16341   -16383   -16436   -16481   -16547 
  -16657   -16777   -16852   -16881   -16901   -16899   -16846   -16771 
  -16723   -16719   -16730   -16724   -16724   -16746   -16763   -16765 
  -16756   -16733   -16702   -16678   -16676   -16700   -16738   -16775 
  -16794   -16773   -16713   -16645   -16576   -16503   -16442   -16414 
  -16418   -16442   -16497   -16605   -16735   -16828   -16886   -16932 
  -16970   -17016   -17064   -17093   -17119   -17154   -17183   -17189 
  -17163   -17117   -17070   -17014   -16959   -16940   -16955   -16964 
  -16967   -16994   -17046   -17104   -17157   -17215   -17295   -17391 
  -17490   -17601   -17726   -17838   -17934   -18037   -18142   -18220 
  -18280   -18344   -18410   -18460   -18489   -18524   -18586   -18645 
  -18661   -18652   -18645   -18620   -18569   -18514   -18465   -18407 
  -18338   -18280   -18241   -18203   -18142   -18052   -17969   -17908 
  -17836   -17750   -17653   -17546   -17454   -17349   -17194   -17035 
  -16906   -16795   -16685   -16564   -16462   -16408   -16371   -16343 
  -16352   -16387   -16440   -16514   -16585   -16645   -16717   -16793 
  -16838   -16855   -16878   -16899   -16904   -16916   -16946   -16961 
  -16961   -16961   -16955   -16932   -16897   -16875   -16860   -16810 
  -16756   -16759   -16792   -16832   -16895   -16995   -17129   -17271 
  -17411   -17558   -17703   -17837   -17944   -18001   -18042   -18083 
  -18068   -17998   -17935   -17866   -17757   -17629   -17514   -17420 
  -17358   -17345   -17385   -17440   -17455   -17415   -17351   -17280 
  -17186   -17067   -16959   -16876   -16813   -16775   -16743   -16692 
  -16654   -16663   -16694   -16716   -16748   -16814   -16905   -17015 
  -17141   -17281   -17429   -17562   -17669   -17780   -17893   -17962 
  -18002   -18064   -18131   -18167   -18172   -18153   -18131   -18126 
  -18139   -18161   -18186   -18202   -18208   -18209   -18191   -18160 
  -18151   -18159   -18171   -18193   -18219   -18263   -18326   -18378 
  -18410   -18430   -18428   -18393   -18325   -18244   -18177   -18129 
  -18094   -18060   -18008   -17935   -17852   -17766   -17701   -17666 
  -17633   -17597   -17575   -17558   -17542   -17550   -17602   -17697 
  -17820   -17950   -18072   -18186   -18308   -18437   -18554   -18651 
  -18741   -18823   -18882   -18912   -18915   -18906   -18915   -18939 
  -18955   -18963   -18981   -19019   -19046   -19039   -19038   -19075 
  -19102   -19091   -19082   -19084   -19063   -19009   -18940   -18898 
  -18902   -18907   -18877   -18828   -18771   -18692   -18588   -18491 
  -18426   -18367   -18290   -18216   -18163   -18140   -18140   -18135 
  -18112   -18092   -18076   -18056   -18046   -18033   -18013   -18016 
  -18049   -18084   -18124   -18179   -18248   -18319   -18381   -18438 
  -18506   -18588   -18672   -18767   -18898   -19053   -19196   -19332 
  -19466   -19572   -19644   -19706   -19759   -19782   -19783   -19772 
  -19743   -19714   -19704   -19696   -19668   -19618   -19564   -19540 
  -19556   -19588   -19633   -19719   -19830   -19905   -19932   -19938 
  -19949   -19973   -20008   -20068   -20136   -20171   -20160   -20110 
  -20039   -19952   -19844   -19737   -19636   -19531   -19435   -19359 
  -19294   -19237   -19192   -19181   -19210   -19265   -19345   -19451 
  -19573   -19698   -19799   -19867   -19912   -19929   -19914   -19894 
  -19891   -19913   -19959   -20018   -20085   -20165   -20236   -20287 
  -20333   -20357   -20350   -20343   -20348   -20352   -20336   -20300 
  -20284   -20302   -20332   -20365   -20398   -20424   -20452   -20487 
  -20518   -20563   -20655   -20751   -20791   -20799   -20814   -20818 
  -20796   -20774   -20784   -20825   -20877   -20922   -20970   -21048 
  -21120   -21140   -21126   -21087   -21002   -20896   -20805   -20720 
  -20636   -20580   -20548   -20511   -20469   -20439   -20423   -20404 
  -20362   -20318   -20279   -20205   -20103   -20022   -19959   -19900 
  -19872   -19884   -19905   -19905   -19891   -19880   -19876   -19892 
  -19931   -19958   -19963   -19971   -19985   -19983   -19952   -19906 
  -19857   -19803   -19741   -19667   -19593   -19527   -19453   -19360 
  -19270   -19183   -19084   -18986   -18907   -18861   -18858   -18886 
  -18939   -19031   -19153   -19261   -19341   -19409   -19453   -19468 
  -19479   -19496   -19489   -19433   -19342   -19252   -19178   -19103 
  -19013   -18931   -18868   -18791   -18686   -18571   -18446   -18306 
  -18166   -18044   -17932   -17815   -17694   -17569   -17434   -17318 
  -17238   -17167   -17067   -16974   -16950   -16972   -16983   -16980 
  -16985   -16995   -17002   -17020   -17047   -17068   -17086   -17109 
  -17131   -17145   -17138   -17121   -17109   -17067   -16967   -16848 
  -16734   -16597   -16430   -16281   -16174   -16073   -15959   -15857 
  -15769   -15689   -15631   -15596   -15576   -15575   -15601   -15651 
  -15707   -15743   -15763   -15784   -15800   -15802   -15799   -15805 
  -15831   -15877   -15931   -15989   -16046   -16109   -16202   -16331 
  -16466   -16576   -16653   -16717   -16790   -16856   -16901   -16940 
  -16985   -17014   -17010   -16970   -16912   -16850   -16780   -16703 
  -16629   -16567   -16519   -16478   -16452   -16418   -16354   -16295 
  -16232   -16126   -16015   -15939   -15880   -15827   -15805   -15818 
  -15835   -15829   -15803   -15784   -15789   -15812   -15848   -15890 
  -15931   -15980   -16027   -16049   -16048   -16032   -16012   -16015 
  -16043   -16069   -16086   -16116   -16174   -16236   -16291   -16345 
  -16383   -16404   -16424   -16436   -16412   -16349   -16287   -16250 
  -16211   -16154   -16098   -16059   -16018   -15961   -15905   -15855 
  -15793   -15709   -15609   -15509   -15425   -15361   -15303   -15231 
  -15139   -15038   -14941   -14846   -14754   -14681   -14623   -14556 
  -14474   -14393   -14323   -14252   -14179   -14128   -14091   -14044 
  -13992   -13951   -13928   -13914   -13871   -13771   -13656   -13551 
  -13443   -13342   -13270   -13219   -13181   -13147   -13132   -13172 
  -13251   -13343   -13464   -13633   -13836   -14036   -14226   -14423 
  -14637   -14844   -15016   -15144   -15247   -15339   -15430   -15515 
  -15573   -15585   -15567   -15539   -15527   -15534   -15545   -15569 
  -15622   -15695   -15782   -15890   -16021   -16171   -16330   -16492 
  -16653   -16818   -17006   -17209   -17391   -17549   -17696   -17838 
  -17984   -18135   -18296   -18483   -18696   -18916   -19127   -19319 
  -19489   -19639   -19763   -19849   -19914   -19964   -19968   -19925 
  -19854   -19748   -19612   -19473   -19332   -19200   -19093   -19006 
  -18936   -18883   -18843   -18830   -18842   -18849   -18838   -18818 
  -18804   -18805   -18801   -18782   -18773   -18778   -18771   -18748 
  -18717   -18665   -18577   -18465   -18352   -18244   -18125   -18000 
  -17904   -17848   -17796   -17743   -17715   -17709   -17709   -17713 
  -17724   -17748   -17779   -17798   -17800   -17805   -17826   -17843 
  -17838   -17835   -17852   -17864   -17855   -17865   -17929   -18019 
  -18108   -18205   -18310   -18403   -18489   -18584   -18700   -18846 
  -19025   -19215   -19391   -19560   -19743   -19934   -20121   -20287 
  -20423   -20553   -20664   -20708   -20696   -20669   -20618   -20519 
  -20386   -20262   -20156   -20029   -19873   -19720   -19589   -19466 
  -19326   -19175   -19051   -18965   -18871   -18762   -18677   -18608 
  -18519   -18428   -18369   -18338   -18306   -18273   -18256   -18247 
  -18242   -18254   -18276   -18288   -18287   -18290   -18300   -18287 
  -18227   -18147   -18074   -17989   -17889   -17804   -17735   -17662 
  -17570   -17472   -17372   -17255   -17132   -17036   -16957   -16885 
  -16829   -16791   -16764   -16727   -16667   -16620   -16605   -16600 
  -16609   -16641   -16669   -16686   -16720   -16770   -16809   -16819 
  -16812   -16807   -16796   -16767   -16744   -16738   -16727   -16688 
  -16620   -16542   -16459   -16347   -16207   -16089   -16019   -15975 
  -15935   -15905   -15917   -15958   -15984   -16000   -16035   -16071 
  -16077   -16056   -16054   -16081   -16092   -16059   -16000   -15939 
  -15892   -15863   -15841   -15832   -15861   -15925   -15964   -15959 
  -15966   -15994   -15995   -15968   -15955   -15973   -16002   -16025 
  -16060   -16115   -16168   -16199   -16204   -16191   -16176   -16160 
  -16129   -16091   -16064   -16047   -16051   -16076   -16101   -16126 
  -16166   -16215   -16256   -16300   -16363   -16421   -16468   -16517 
  -16550   -16565   -16586   -16603   -16592   -16562   -16536   -16518 
  -16512   -16505   -16492   -16476   -16428   -16342   -16259   -16188 
  -16103   -15999   -15876   -15736   -15606   -15505   -15418   -15340 
  -15289   -15267   -15268   -15288   -15313   -15344   -15377   -15394 
  -15393   -15383   -15362   -15343   -15327   -15299   -15287   -15314 
  -15345   -15356   -15357   -15369   -15396   -15420   -15425   -15425 
  -15447   -15502   -15573   -15646   -15708   -15757   -15817   -15882 
  -15920   -15941   -15971   -16005   -16042   -16082   -16112   -16144 
  -16195   -16238   -16235   -16199   -16183   -16208   -16256   -16301 
  -16326   -16324   -16305   -16299   -16325   -16359   -16366   -16371 
  -16427   -16531   -16624   -16685   -16747   -16798   -16822   -16862 
  -16924   -16978   -17030   -17099   -17172   -17231   -17284   -17341 
  -17365   -17336   -17283   -17220   -17136   -17048   -16983   -16951 
  -16945   -16952   -16971   -17002   -17047   -17097   -17145   -17190 
  -17240   -17300   -17357   -17398   -17409   -17394   -17375   -17340 
  -17277   -17192   -17086   -16971   -16881   -16828   -16798   -16780 
  -16770   -16773   -16817   -16902   -16983   -17020   -17021   -17034 
  -17081   -17121   -17128   -17139   -17175   -17218   -17245   -17250 
  -17234   -17211   -17190   -17171   -17173   -17203   -17217   -17216 
  -17273   -17370   -17388   -17330   -17315   -17335   -17310   -17266 
  -17264   -17262   -17219   -17174   -17143   -17106   -17047   -16951 
  -16831   -16727   -16639   -16548   -16478   -16433   -16368   -16271 
  -16160   -16070   -16098   -16290   -16431   -16204   -15625   -15197 
  -15412   -15858   -15527   -14796   -15154   -16012   -15441   -14323 
  -14759   -15742   -15372   -14538   -14778   -15394   -15099   -14680 
  -15304   -15823   -15255   -14971   -15574   -15800   -15406   -15388 
  -15895   -16155   -15869   -15628   -15843   -16082   -15915   -15551 
  -15454   -15728   -15838   -15484   -15299   -15591   -15714   -15506 
  -15377   -15305   -15263   -15385   -15412   -15206   -15072   -15075 
  -15025   -14941   -14903   -14859   -14801   -14802   -14896   -15041 
  -15107   -15082   -15186   -15486   -15718   -15771   -15871   -16098 
  -16242   -16240   -16247   -16312   -16347   -16296   -16236   -16238 
  -16211   -16164   -16167   -16120   -16083   -16191   -16247   -16108 
  -15982   -16010   -16042   -15959   -15868   -15883   -15956   -15952 
  -15902   -15970   -16088   -16111   -16150   -16264   -16333   -16345 
  -16396   -16528   -16631   -16590   -16563   -16671   -16728   -16650 
  -16557   -16530   -16525   -16433   -16309   -16290   -16320   -16325 
  -16332   -16328   -16335   -16394   -16421   -16399   -16424   -16487 
  -16489   -16381   -16229   -16169   -16178   -16105   -15931   -15822 
  -15842   -15844   -15750   -15690   -15775   -15888   -15902   -15909 
  -15962   -15977   -15917   -15787   -15657   -15624   -15625   -15582 
  -15536   -15517   -15507   -15495   -15475   -15496   -15588   -15621 
  -15544   -15534   -15616   -15606   -15515   -15513   -15562   -15512 
  -15462   -15525   -15540   -15417   -15315   -15359   -15425   -15344 
  -15243   -15329   -15428   -15319   -15221   -15298   -15306   -15205 
  -15186   -15160   -14995   -14859   -14935   -15082   -15054   -14941 
  -14952   -15000   -14952   -14893   -14891   -14885   -14868   -14868 
  -14853   -14825   -14816   -14786   -14700   -14624   -14650   -14719 
  -14645   -14443   -14381   -14473   -14396   -14162   -14127   -14240 
  -14134   -13869   -13797   -13863   -13743   -13513   -13477   -13552 
  -13476   -13314   -13259   -13261   -13198   -13119   -13088   -13065 
  -12989   -12842   -12744   -12791   -12825   -12743   -12721   -12811 
  -12775   -12584   -12583   -12777   -12783   -12691   -12773   -12834 
  -12780   -12818   -12885   -12802   -12682   -12688   -12770   -12828 
  -12837   -12825   -12834   -12793   -12683   -12612   -12582   -12538 
  -12515   -12463   -12375   -12396   -12434   -12302   -12222   -12315 
  -12275   -12101   -12130   -12290   -12272   -12166   -12221   -12325 
  -12303   -12279   -12296   -12236   -12184   -12266   -12334   -12256 
  -12227   -12448   -12682   -12635   -12561   -12691   -12739   -12659 
  -12732   -12819   -12748   -12781   -12899   -12748   -12540   -12738 
  -13067   -13042   -12869   -12948   -13150   -13175   -13083   -13076 
  -13177   -13284   -13315   -13322   -13393   -13530   -13685   -13760 
  -13770   -13847   -13949   -13964   -13962   -14003   -14038   -14082 
  -14114   -14088   -14124   -14179   -14037   -13914   -14080   -14265 
  -14221   -14101   -14068   -14096   -14119   -14154   -14250   -14348 
  -14367   -14356   -14370   -14360   -14418   -14728   -15070   -15120 
  -15019   -15008   -15073   -15125   -15149   -15218   -15368   -15446 
  -15327   -15193   -15225   -15339   -15470   -15583   -15614   -15654 
  -15743   -15788   -15787   -15754   -15724   -15768   -15791   -15737 
  -15742   -15816   -15857   -15890   -15931   -15924   -15894   -15959 
  -16150   -16269   -16217   -16259   -16485   -16627   -16649   -16736 
  -16841   -16827   -16783   -16842   -16919   -16889   -16828   -16848 
  -16875   -16819   -16837   -16991   -17025   -16893   -16834   -16869 
  -16877   -16830   -16805   -16912   -17025   -16949   -16877   -16997 
  -17090   -17028   -16995   -17084   -17158   -17139   -17141   -17185 
  -17152   -17101   -17112   -17059   -16925   -16844   -16794   -16694 
  -16602   -16542   -16458   -16391   -16367   -16312   -16196   -16121 
  -16182   -16230   -16111   -16012   -16066   -16121   -16104   -16062 
  -16014   -15981   -15958   -15892   -15796   -15725   -15671   -15617 
  -15544   -15462   -15443   -15456   -15412   -15353   -15369   -15462 
  -15484   -15403   -15458   -15615   -15595   -15516   -15627   -15776 
  -15771   -15754   -15848   -15917   -15854   -15797   -15880   -15942 
  -15830   -15709   -15733   -15811   -15780   -15702   -15776   -15913 
  -15947   -15959   -15997   -16008   -15968   -15916   -15918   -15907 
  -15810   -15744   -15766   -15768   -15696   -15654   -15738   -15839 
  -15827   -15791   -15857   -15977   -16052   -16059   -16042   -16068 
  -16076   -16000   -15970   -16022   -16061   -16066   -16036   -16013 
  -16049   -16094   -16119   -16152   -16205   -16226   -16152   -16098 
  -16163   -16189   -16135   -16131   -16141   -16120   -16107   -16071 
  -16015   -15974   -15939   -15948   -16016   -16013   -15942   -15979 
  -16066   -16031   -15946   -15902   -15895   -15921   -15921   -15866 
  -15793   -15758   -15811   -15843   -15728   -15640   -15702   -15710 
  -15592   -15556   -15658   -15685   -15528   -15421   -15487   -15487 
  -15368   -15329   -15352   -15360   -15376   -15342   -15242   -15179 
  -15218   -15291   -15290   -15246   -15275   -15370   -15424   -15401 
  -15385   -15466   -15585   -15588   -15508   -15534   -15646   -15657 
  -15607   -15660   -15752   -15783   -15829   -15895   -15923   -15986 
  -16101   -16204   -16274   -16297   -16336   -16426   -16434   -16399 
  -16521   -16655   -16620   -16616   -16741   -16855   -16930   -16983 
  -16987   -16998   -17063   -17106   -17099   -17100   -17095   -17074 
  -17082   -17064   -16988   -16959   -16989   -16984   -16981   -17087 
  -17205   -17205   -17248   -17453   -17611   -17639   -17705   -17826 
  -17885   -17882   -17912   -18003   -18062   -18099   -18184   -18240 
  -18256   -18336   -18450   -18490   -18480   -18572   -18711   -18680 
  -18573   -18596   -18669   -18645   -18514   -18390   -18415   -18486 
  -18424   -18331   -18356   -18452   -18512   -18492   -18461   -18519 
  -18577   -18535   -18526   -18609   -18612   -18519   -18474   -18500 
  -18496   -18416   -18353   -18336   -18264   -18199   -18232   -18229 
  -18167   -18190   -18234   -18172   -18093   -18068   -18015   -17901 
  -17822   -17817   -17773   -17646   -17568   -17570   -17544   -17463 
  -17398   -17360   -17247   -17058   -16956   -16925   -16815   -16682 
  -16591   -16491   -16426   -16406   -16363   -16356   -16413   -16437 
  -16418   -16427   -16463   -16477   -16497   -16538   -16554   -16588 
  -16683   -16750   -16750   -16745   -16768   -16827   -16887   -16893 
  -16898   -16970   -17057   -17110   -17137   -17163   -17218   -17304 
  -17397   -17399   -17300   -17348   -17565   -17619   -17548   -17625 
  -17742   -17746   -17744   -17795   -17838   -17866   -17946   -18058 
  -18070   -17989   -17969   -18014   -18009   -17956   -17951   -18020 
  -18129   -18230   -18292   -18317   -18301   -18283   -18342   -18412 
  -18395   -18400   -18488   -18485   -18413   -18464   -18522   -18425 
  -18333   -18382   -18466   -18477   -18445   -18425   -18445   -18504 
  -18521   -18480   -18515   -18628   -18734   -18826   -18895   -18945 
  -19021   -19129   -19210   -19241   -19324   -19435   -19458   -19500 
  -19606   -19639   -19669   -19761   -19806   -19830   -19909   -20003 
  -20057   -20074   -20163   -20301   -20270   -20147   -20199   -20286 
  -20189   -20104   -20187   -20266   -20231   -20127   -20033   -20031 
  -20060   -20040   -19997   -19887   -19763   -19753   -19718   -19521 
  -19346   -19385   -19487   -19369   -19156   -19126   -19177   -19101 
  -18945   -18865   -18879   -18875   -18844   -18840   -18809   -18775 
  -18825   -18876   -18855   -18842   -18854   -18826   -18788   -18808 
  -18805   -18744   -18767   -18873   -18899   -18843   -18814   -18807 
  -18749   -18671   -18629   -18582   -18547   -18616   -18718   -18728 
  -18686   -18727   -18823   -18769   -18636   -18715   -18858   -18778 
  -18678   -18737   -18767   -18707   -18706   -18787   -18827   -18796 
  -18799   -18857   -18904   -18932   -18986   -19088   -19149   -19120 
  -19169   -19337   -19400   -19336   -19352   -19480   -19558   -19523 
  -19512   -19611   -19663   -19587   -19569   -19630   -19604   -19564 
