Origin Time       2011/03/11 14:46:00
Lat.              38.103
Long.             142.860
Depth. (km)       24
Mag.              9.0
Station Code      TYM001
Station Lat.      36.9764
Station Long.     137.6257
Station Height(m) 11
Record Time       2011/03/11 14:48:51
Sampling Freq(Hz) 100Hz
Duration Time(s)  155
Dir.              N-S
Scale Factor      3920(gal)/6182761
Max. Acc. (gal)   3.610
Last Correction   2011/03/11 14:48:36
Memo.             
[...]
   -3312    -3298    -3303    -3310    -3308    -3287    -3232    -3166 
   -3115    -3085    -3064    -3048    -3046    -3060    -3087    -3129 
   -3175    -3216    -3247    -3265    -3286    -3325    -3366    -3393 
   -3412    -3441    -3480    -3520    -3584    -3674    -3767    -3866 
   -3960    -4027    -4076    -4106    -4117    -4133    -4131    -4086 
   -4027    -3956    -3872    -3810    -3769    -3735    -3731    -3745 
   -3745    -3725    -3690    -3634    -3545    -3415    -3262    -3118 
   -2995    -2901    -2845    -2821    -2818    -2826    -2826    -2815 
   -2788    -2747    -2700    -2636    -2556    -2463    -2340    -2200 
   -2063    -1928    -1814    -1727    -1679    -1667    -1657    -1655 
   -1677    -1689    -1691    -1721    -1766    -1802    -1818    -1819 
   -1826    -1843    -1870    -1939    -2040    -2146    -2265    -2383 
   -2476    -2569    -2657    -2724    -2792    -2856    -2892    -2901 
   -2881    -2836    -2779    -2714    -2653    -2607    -2577    -2555 
   -2532    -2519    -2497    -2453    -2418    -2389    -2348    -2321 
   -2311    -2301    -2298    -2308    -2315    -2294    -2242    -2186 
   -2139    -2105    -2088    -2079    -2084    -2099    -2092    -2058 
   -2017    -1980    -1963    -1980    -2036    -2107    -2166    -2214 
   -2266    -2324    -2388    -2458    -2529    -2594    -2651    -2703 
   -2736    -2736    -2706    -2654    -2575    -2466    -2343    -2227 
   -2142    -2111    -2129    -2179    -2257    -2334    -2384    -2420 
   -2445    -2457    -2461    -2455    -2432    -2397    -2359    -2317 
   -2254    -2182    -2115    -2051    -2006    -2001    -2019    -2049 
   -2094    -2142    -2165    -2162    -2147    -2122    -2100    -2105 
   -2123    -2124    -2099    -2043    -1959    -1873    -1796    -1732 
   -1695    -1682    -1670    -1650    -1617    -1574    -1521    -1450 
   -1363    -1290    -1235    -1180    -1135    -1116    -1109    -1102 
   -1087    -1048     -991     -915     -825     -744     -685     -650 
    -640     -643     -659     -695     -748     -815     -899     -999 
   -1119    -1255    -1402    -1568    -1740    -1903    -2064    -2220 
   -2363    -2511    -2668    -2812    -2949    -3092    -3221    -3335 
   -3447    -3537    -3611    -3707    -3825    -3954    -4097    -4239 
   -4359    -4468    -4571    -4664    -4752    -4827    -4878    -4906 
   -4912    -4899    -4874    -4842    -4830    -4848    -4872    -4912 
   -4966    -4991    -4992    -4989    -4968    -4942    -4945    -4961 
   -4957    -4929    -4882    -4807    -4696    -4562    -4420    -4286 
   -4180    -4092    -4003    -3915    -3814    -3697    -3578    -3459 
   -3331    -3198    -3071    -2940    -2798    -2652    -2489    -2302 
   -2120    -1968    -1876    -1856    -1881    -1925    -1965    -1978 
   -1955    -1900    -1808    -1675    -1516    -1349    -1184    -1043 
    -933     -833     -749     -701     -673     -649     -625     -586 
    -521     -461     -445     -472     -531     -620     -716     -806 
    -908    -1026    -1141    -1240    -1334    -1435    -1538    -1630 
   -1700    -1746    -1769    -1772    -1763    -1764    -1782    -1804 
   -1829    -1869    -1914    -1935    -1940    -1958    -1978    -2000 
   -2043    -2082    -2087    -2082    -2083    -2081    -2100    -2139 
   -2188    -2259    -2333    -2404    -2483    -2547    -2575    -2567 
   -2537    -2503    -2463    -2430    -2429    -2445    -2473    -2530 
   -2591    -2643    -2689    -2719    -2736    -2768    -2813    -2850 
   -2890    -2938    -2985    -3037    -3088    -3120    -3147    -3184 
   -3235    -3307    -3388    -3467    -3521    -3528    -3485    -3391 
   -3253    -3108    -2981    -2891    -2857    -2859    -2868    -2869 
   -2851    -2809    -2749    -2690    -2654    -2643    -2644    -2655 
   -2682    -2715    -2749    -2803    -2885    -2992    -3114    -3242 
   -3373    -3499    -3613    -3705    -3778    -3830    -3852    -3858 
   -3860    -3837    -3794    -3750    -3700    -3651    -3644    -3696 
   -3775    -3855    -3939    -4024    -4097    -4165    -4225    -4259 
   -4272    -4259    -4196    -4098    -3979    -3839    -3724    -3659 
   -3614    -3583    -3584    -3602    -3612    -3617    -3625    -3623 
   -3614    -3627    -3656    -3681    -3698    -3696    -3684    -3681 
   -3694    -3734    -3811    -3914    -4034    -4170    -4316    -4462 
   -4596    -4715    -4818    -4888    -4910    -4886    -4821    -4730 
   -4628    -4536    -4464    -4415    -4396    -4403    -4434    -4475 
   -4506    -4537    -4580    -4637    -4711    -4772    -4795    -4786 
   -4733    -4640    -4536    -4432    -4332    -4262    -4230    -4216 
   -4215    -4239    -4276    -4301    -4298    -4264    -4192    -4096 
   -3995    -3896    -3798    -3702    -3622    -3553    -3487    -3431 
   -3376    -3307    -3234    -3169    -3116    -3072    -3027    -2995 
   -2988    -3000    -3030    -3081    -3135    -3181    -3237    -3294 
   -3340    -3399    -3476    -3568    -3691    -3833    -3971    -4099 
   -4220    -4345    -4472    -4584    -4672    -4740    -4798    -4852 
   -4906    -4973    -5058    -5154    -5268    -5392    -5514    -5641 
   -5769    -5901    -6044    -6190    -6326    -6426    -6465    -6450 
   -6407    -6353    -6298    -6248    -6205    -6162    -6105    -6022 
   -5917    -5793    -5670    -5576    -5516    -5498    -5503    -5492 
   -5464    -5418    -5353    -5277    -5187    -5094    -5015    -4950 
   -4890    -4820    -4720    -4585    -4430    -4267    -4098    -3926 
   -3744    -3555    -3375    -3223    -3103    -3006    -2938    -2904 
   -2884    -2856    -2823    -2779    -2726    -2686    -2665    -2656 
   -2661    -2674    -2705    -2765    -2834    -2898    -2963    -3024 
   -3083    -3145    -3205    -3267    -3344    -3441    -3544    -3654 
   -3775    -3891    -3997    -4092    -4147    -4172    -4192    -4208 
   -4223    -4244    -4259    -4258    -4247    -4238    -4229    -4236 
   -4275    -4328    -4376    -4398    -4374    -4317    -4229    -4109 
   -3975    -3826    -3650    -3454    -3247    -3038    -2839    -2661 
   -2520    -2418    -2356    -2328    -2320    -2335    -2365    -2411 
   -2484    -2560    -2627    -2702    -2759    -2777    -2771    -2741 
   -2689    -2635    -2591    -2575    -2580    -2575    -2555    -2529 
   -2503    -2468    -2424    -2383    -2339    -2281    -2207    -2113 
   -2020    -1946    -1888    -1850    -1850    -1883    -1927    -1968 
   -2011    -2046    -2058    -2049    -2032    -2003    -1965    -1939 
   -1923    -1900    -1884    -1890    -1907    -1938    -2007    -2100 
   -2192    -2284    -2369    -2452    -2564    -2712    -2874    -3055 
   -3249    -3415    -3537    -3637    -3739    -3851    -3986    -4144 
   -4306    -4459    -4593    -4696    -4781    -4885    -4996    -5092 
   -5193    -5298    -5372    -5419    -5446    -5439    -5401    -5347 
   -5271    -5174    -5069    -4955    -4846    -4758    -4681    -4614 
   -4564    -4529    -4503    -4476    -4452    -4434    -4407    -4376 
   -4370    -4394    -4437    -4507    -4607    -4707    -4795    -4892 
   -4990    -5078    -5175    -5275    -5361    -5443    -5512    -5552 
   -5583    -5607    -5612    -5607    -5600    -5581    -5557    -5541 
   -5521    -5482    -5426    -5365    -5307    -5250    -5189    -5125 
   -5057    -4985    -4916    -4865    -4845    -4856    -4878    -4895 
   -4901    -4907    -4911    -4905    -4911    -4951    -5001    -5053 
   -5134    -5238    -5337    -5413    -5468    -5509    -5544    -5576 
   -5614    -5655    -5688    -5703    -5709    -5706    -5680    -5649 
   -5619    -5571    -5518    -5485    -5448    -5367    -5236    -5062 
   -4847    -4612    -4386    -4187    -4029    -3912    -3828    -3772 
   -3745    -3717    -3667    -3609    -3548    -3475    -3406    -3354 
   -3311    -3280    -3270    -3285    -3320    -3364    -3415    -3464 
   -3507    -3580    -3698    -3826    -3955    -4083    -4184    -4260 
   -4330    -4385    -4430    -4472    -4490    -4493    -4506    -4521 
   -4555    -4630    -4727    -4834    -4939    -5023    -5085    -5140 
   -5199    -5258    -5311    -5353    -5365    -5353    -5331    -5310 
   -5316    -5354    -5410    -5476    -5520    -5529    -5517    -5477 
   -5406    -5330    -5255    -5178    -5122    -5095    -5086    -5094 
   -5103    -5087    -5054    -5015    -4964    -4921    -4903    -4901 
   -4925    -4978    -5027    -5065    -5096    -5092    -5062    -5028 
   -4976    -4914    -4867    -4827    -4781    -4727    -4665    -4599 
   -4532    -4466    -4399    -4336    -4290    -4252    -4223    -4222 
   -4242    -4272    -4324    -4395    -4448    -4467    -4481    -4486 
   -4460    -4405    -4317    -4201    -4091    -4010    -3957    -3938 
   -3953    -4009    -4114    -4248    -4378    -4490    -4579    -4650 
   -4713    -4775    -4831    -4873    -4903    -4931    -4958    -4982 
   -4999    -4996    -4969    -4930    -4906    -4906    -4934    -4989 
   -5064    -5139    -5200    -5250    -5283    -5291    -5291    -5303 
   -5317    -5333    -5356    -5372    -5370    -5361    -5344    -5315 
   -5288    -5271    -5257    -5233    -5194    -5142    -5083    -5018 
   -4945    -4869    -4808    -4777    -4780    -4801    -4814    -4833 
   -4857    -4846    -4824    -4828    -4803    -4739    -4700    -4687 
   -4661    -4631    -4625    -4625    -4612    -4594    -4565    -4517 
   -4484    -4477    -4473    -4488    -4528    -4542    -4536    -4552 
   -4559    -4559    -4589    -4581    -4481    -4390    -4421    -4579 
   -4751    -4694    -4431    -4438    -4634    -4362    -4053    -4531 
   -4945    -4526    -4318    -4696    -4706    -4349    -4341    -4683 
   -4831    -4692    -4887    -5372    -5378    -5170    -5400    -5719 
   -5767    -5753    -5813    -5961    -6148    -6218    -6231    -6381 
   -6547    -6483    -6263    -6173    -6199    -6015    -5726    -5718 
   -5785    -5666    -5609    -5615    -5525    -5551    -5713    -5779 
   -5868    -6087    -6196    -6220    -6376    -6501    -6477    -6497 
   -6553    -6542    -6558    -6529    -6380    -6333    -6407    -6364 
   -6277    -6316    -6315    -6203    -6152    -6141    -6092    -6046 
   -5978    -5893    -5783    -5641    -5585    -5581    -5513    -5469 
   -5501    -5506    -5495    -5559    -5642    -5665    -5651    -5597 
   -5551    -5550    -5480    -5364    -5293    -5166    -4978    -4832 
   -4686    -4511    -4347    -4214    -4130    -4006    -3823    -3717 
   -3669    -3613    -3571    -3522    -3469    -3405    -3310    -3257 
   -3254    -3229    -3202    -3171    -3077    -3000    -3002    -3038 
   -3111    -3230    -3371    -3521    -3669    -3779    -3836    -3875 
   -3883    -3870    -3890    -3916    -3891    -3821    -3773    -3778 
   -3790    -3837    -3935    -4009    -4085    -4175    -4208    -4224 
   -4274    -4320    -4372    -4450    -4501    -4527    -4556    -4557 
   -4593    -4689    -4753    -4826    -4960    -5063    -5074    -5099 
   -5197    -5250    -5279    -5401    -5544    -5642    -5713    -5767 
   -5863    -5979    -6014    -6057    -6206    -6273    -6208    -6245 
   -6324    -6276    -6265    -6342    -6329    -6219    -6125    -6054 
   -5936    -5752    -5561    -5395    -5214    -4998    -4797    -4628 
   -4485    -4396    -4316    -4196    -4086    -4019    -3985    -3975 
   -3992    -4061    -4165    -4206    -4206    -4287    -4375    -4326 
   -4254    -4315    -4409    -4424    -4459    -4585    -4694    -4736 
   -4791    -4867    -4892    -4872    -4863    -4863    -4825    -4762 
   -4712    -4701    -4757    -4815    -4808    -4843    -4962    -5046 
   -5083    -5206    -5394    -5458    -5463    -5576    -5621    -5547 
   -5593    -5686    -5668    -5676    -5749    -5736    -5672    -5652 
   -5608    -5593    -5697    -5804    -5931    -6163    -6362    -6465 
   -6571    -6673    -6780    -6937    -7022    -7062    -7227    -7373 
   -7397    -7487    -7590    -7538    -7493    -7615    -7729    -7746 
   -7827    -7926    -7877    -7787    -7750    -7650    -7487    -7375 
   -7302    -7204    -7044    -6885    -6824    -6733    -6546    -6471 
   -6445    -6249    -6073    -6022    -5839    -5589    -5538    -5485 
   -5245    -5065    -4998    -4830    -4608    -4510    -4501    -4472 
   -4425    -4344    -4227    -4131    -3996    -3791    -3624    -3519 
   -3429    -3336    -3236    -3160    -3119    -3072    -3029    -3024 
   -3001    -2976    -3014    -3019    -2998    -3071    -3125    -3087 
   -3128    -3216    -3187    -3131    -3141    -3131    -3047    -2934 
   -2844    -2847    -2973    -3109    -3169    -3093    -2796    -2534 
   -2594    -2816    -2988    -3074    -3056    -3000    -3057    -3235 
   -3462    -3714    -3846    -3792    -3737    -3764    -3867    -4053 
   -4208    -4267    -4286    -4303    -4383    -4536    -4682    -4815 
   -4907    -4870    -4782    -4769    -4792    -4819    -4897    -4998 
   -5052    -5036    -5016    -5027    -4971    -4895    -4960    -5102 
   -5198    -5296    -5432    -5510    -5510    -5551    -5648    -5739 
   -5808    -5872    -5965    -6032    -6044    -6139    -6313    -6457 
   -6602    -6714    -6762    -6831    -6906    -7014    -7267    -7518 
   -7632    -7746    -7880    -7910    -7874    -7904    -7980    -8030 
   -8125    -8330    -8526    -8659    -8832    -9016    -9134    -9276 
   -9468    -9607    -9721    -9862    -9949    -9958    -9951    -9938 
   -9884    -9762    -9657    -9610    -9504    -9352    -9247    -9131 
   -8977    -8845    -8722    -8584    -8474    -8366    -8246    -8197 
   -8192    -8170    -8167    -8158    -8129    -8111    -8090    -8045 
   -7950    -7874    -7838    -7719    -7617    -7637    -7588    -7417 
   -7307    -7274    -7186    -7068    -6991    -6918    -6811    -6682 
   -6599    -6574    -6533    -6459    -6388    -6380    -6411    -6392 
   -6401    -6453    -6452    -6458    -6533    -6663    -6823    -6954 
   -7091    -7242    -7335    -7391    -7450    -7480    -7463    -7426 
   -7417    -7463    -7489    -7422    -7337    -7297    -7289    -7309 
   -7311    -7323    -7380    -7379    -7332    -7344    -7397    -7458 
   -7530    -7595    -7650    -7695    -7726    -7742    -7772    -7865 
   -7944    -7947    -7984    -8016    -7928    -7840    -7801    -7713 
   -7603    -7495    -7334    -7139    -6918    -6652    -6440    -6291 
   -6062    -5826    -5700    -5548    -5348    -5207    -5075    -4932 
   -4820    -4725    -4635    -4540    -4460    -4402    -4282    -4122 
   -4047    -4034    -3992    -3936    -3947    -4025    -4072    -4083 
   -4135    -4149    -4066    -4025    -4027    -3975    -3928    -3925 
   -3920    -3914    -3935    -3951    -3934    -3912    -3915    -3933 
   -3971    -4036    -4097    -4160    -4280    -4411    -4460    -4469 
   -4525    -4591    -4607    -4632    -4654    -4580    -4493    -4447 
   -4369    -4308    -4285    -4220    -4163    -4137    -4074    -4073 
   -4160    -4148    -4108    -4172    -4157    -4078    -4126    -4178 
   -4164    -4216    -4269    -4233    -4206    -4195    -4123    -4096 
   -4148    -4140    -4097    -4066    -3940    -3758    -3646    -3538 
   -3343    -3165    -3066    -2929    -2776    -2742    -2721    -2616 
   -2549    -2528    -2478    -2420    -2357    -2286    -2210    -2136 
   -2093    -2050    -1979    -1880    -1776    -1710    -1635    -1568 
   -1597    -1631    -1615    -1635    -1649    -1621    -1610    -1576 
   -1518    -1505    -1462    -1352    -1270    -1232    -1208    -1197 
   -1160    -1119    -1145    -1161    -1141    -1203    -1292    -1313 
   -1336    -1395    -1450    -1476    -1498    -1542    -1544    -1482 
   -1472    -1511    -1507    -1520    -1573    -1558    -1494    -1458 
   -1428    -1377    -1309    -1243    -1166    -1044     -919     -825 
    -739     -659     -587     -560     -591     -587     -585     -652 
    -681     -695     -808     -924    -1004    -1100    -1152    -1181 
   -1288    -1448    -1596    -1746    -1909    -2011    -2057    -2134 
   -2194    -2223    -2319    -2439    -2516    -2606    -2696    -2729 
   -2779    -2859    -2897    -2951    -3043    -3107    -3180    -3317 
   -3466    -3577    -3712    -3880    -3957    -3995    -4136    -4237 
   -4217    -4264    -4370    -4424    -4501    -4592    -4607    -4613 
   -4677    -4760    -4834    -4881    -4882    -4857    -4819    -4743 
   -4640    -4559    -4524    -4526    -4568    -4653    -4736    -4745 
   -4694    -4634    -4523    -4398    -4411    -4469    -4418    -4391 
   -4439    -4415    -4372    -4414    -4420    -4360    -4363    -4405 
   -4400    -4392    -4349    -4203    -4026    -3857    -3663    -3494 
   -3365    -3242    -3123    -3035    -2958    -2816    -2690    -2674 
   -2624    -2538    -2554    -2562    -2530    -2589    -2663    -2664 
   -2656    -2668    -2692    -2716    -2758    -2889    -3047    -3126 
   -3198    -3295    -3289    -3235    -3276    -3332    -3386    -3510 
   -3578    -3580    -3605    -3586    -3547    -3537    -3514    -3505 
   -3516    -3492    -3399    -3302    -3284    -3253    -3175    -3152 
   -3152    -3121    -3074    -3009    -2962    -2936    -2907    -2892 
   -2852    -2749    -2645    -2568    -2488    -2439    -2456    -2465 
   -2407    -2343    -2279    -2143    -2034    -2037    -2045    -2038 
   -2079    -2144    -2167    -2154    -2156    -2138    -2081    -2070 
   -2133    -2240    -2342    -2416    -2545    -2665    -2625    -2585 
   -2683    -2721    -2687    -2768    -2875    -2896    -2925    -3003 
   -3071    -3133    -3232    -3331    -3399    -3448    -3452    -3450 
   -3512    -3563    -3599    -3733    -3894    -3975    -4034    -4113 
   -4176    -4212    -4235    -4275    -4331    -4339    -4311    -4328 
   -4324    -4266    -4262    -4276    -4229    -4227    -4315    -4393 
   -4438    -4492    -4517    -4467    -4419    -4441    -4438    -4372 
   -4361    -4373    -4282    -4182    -4166    -4111    -3992    -3949 
   -3962    -3940    -3960    -4043    -4070    -4046    -4023    -3967 
   -3893    -3824    -3757    -3765    -3831    -3835    -3837    -3896 
   -3873    -3801    -3810    -3821    -3791    -3803    -3852    -3859 
   -3858    -3934    -4011    -4015    -4002    -3960    -3886    -3834 
   -3768    -3712    -3737    -3757    -3752    -3831    -3915    -3927 
   -3972    -4052    -4097    -4159    -4257    -4333    -4402    -4483 
   -4546    -4598    -4640    -4632    -4609    -4629    -4651    -4680 
   -4770    -4881    -4967    -5029    -5078    -5090    -5046    -5019 
   -5020    -4983    -4961    -4993    -4996    -4955    -4894    -4815 
   -4778    -4782    -4747    -4703    -4706    -4688    -4592    -4502 
   -4453    -4352    -4225    -4178    -4160    -4114    -4085    -4069 
   -4021    -3978    -3971    -3958    -3954    -3982    -4004    -4028 
   -4064    -4071    -4056    -4066    -4085    -4057    -4028    -4042 
   -4026    -3975    -3953    -3963    -3978    -4001    -4047    -4092 
   -4129    -4190    -4247    -4269    -4331    -4417    -4435    -4458 
   -4542    -4566    -4545    -4588    -4632    -4635    -4678    -4774 
   -4879    -4986    -5091    -5168    -5215    -5247    -5239    -5178 
