Origin Time       2011/03/11 14:46:00
Lat.              38.103
Long.             142.860
Depth. (km)       24
Mag.              9.0
Station Code      TYM010
Station Lat.      36.5556
Station Long.     136.8883
Station Height(m) 79
Record Time       2011/03/11 14:49:04
Sampling Freq(Hz) 100Hz
Duration Time(s)  213
Dir.              N-S
Scale Factor      3920(gal)/6182761
Max. Acc. (gal)   5.918
Last Correction   2011/03/11 14:48:49
Memo.             
[...]
   14424    14527    14632    14754    14870    14969    15065    15141 
   15191    15216    15198    15151    15100    15040    14968    14897 
   14825    14740    14652    14576    14506    14425    14331    14244 
   14162    14076    13990    13905    13831    13778    13734    13680 
   13619    13564    13525    13508    13501    13467    13391    13303 
   13223    13145    13064    12969    12853    12725    12605    12495 
   12388    12286    12196    12099    11994    11923    11889    11853 
   11818    11795    11789    11791    11795    11806    11817    11827 
   11860    11906    11930    11932    11933    11940    11967    12007 
   12034    12056    12079    12101    12130    12155    12168    12168 
   12160    12158    12155    12148    12163    12187    12202    12229 
   12263    12304    12345    12373    12404    12435    12459    12466 
   12436    12414    12437    12481    12514    12517    12528    12569 
   12610    12650    12683    12682    12667    12663    12653    12629 
   12613    12596    12544    12469    12401    12350    12314    12285 
   12248    12185    12117    12072    12024    11957    11887    11821 
   11760    11712    11682    11670    11667    11654    11636    11603 
   11549    11514    11496    11480    11469    11437    11390    11372 
   11396    11432    11459    11500    11557    11603    11656    11723 
   11778    11811    11827    11855    11891    11895    11881    11863 
   11826    11788    11750    11697    11645    11591    11522    11472 
   11438    11390    11339    11292    11247    11207    11160    11110 
   11063    11016    10982    10957    10934    10912    10886    10840 
   10761    10692    10643    10568    10484    10430    10400    10394 
   10406    10404    10378    10344    10319    10298    10270    10221 
   10160    10102    10048    10022    10010     9982     9951     9911 
    9859     9817     9776     9715     9642     9581     9542     9514 
    9496     9500     9508     9503     9521     9566     9601     9617 
    9639     9687     9749     9815     9886     9932     9959    10008 
   10079    10149    10204    10229    10244    10290    10355    10401 
   10447    10514    10588    10663    10747    10830    10907    10997 
   11093    11190    11316    11467    11610    11746    11871    11992 
   12113    12205    12263    12302    12306    12292    12304    12327 
   12319    12276    12218    12170    12129    12051    11942    11822 
   11701    11601    11494    11356    11236    11137    11031    10930 
   10838    10729    10598    10473    10362    10239    10115    10006 
    9879     9740     9638     9559     9478     9406     9342     9299 
    9302     9353     9439     9539     9658     9801     9946    10113 
   10298    10461    10599    10729    10863    11021    11180    11318 
   11444    11551    11638    11726    11794    11844    11888    11918 
   11950    11978    11998    12039    12078    12092    12103    12098 
   12073    12054    12027    11985    11937    11870    11778    11682 
   11610    11554    11481    11403    11331    11259    11193    11116 
   11027    10958    10911    10861    10804    10747    10703    10656 
   10576    10485    10412    10337    10257    10183    10104    10041 
    9998     9948     9892     9834     9761     9660     9528     9405 
    9322     9239     9145     9078     9037     9008     9012     9047 
    9085     9121     9160     9208     9274     9363     9469     9574 
    9667     9757     9847     9926     9982    10016    10033    10031 
   10014    10004     9991     9958     9914     9853     9783     9715 
    9631     9523     9433     9368     9290     9216     9177     9145 
    9116     9122     9151     9166     9159     9152     9158     9176 
    9208     9242     9261     9271     9291     9330     9363     9396 
    9454     9516     9569     9622     9667     9705     9741     9772 
    9785     9781     9800     9820     9808     9793     9777     9745 
    9719     9717     9715     9696     9669     9634     9582     9525 
    9490     9476     9442     9377     9322     9288     9263     9248 
    9225     9172     9110     9080     9067     9043     9029     9018 
    8984     8960     8964     8978     9003     9033     9047     9038 
    9025     9023     9010     8960     8882     8808     8750     8688 
    8613     8546     8485     8429     8390     8354     8316     8287 
    8255     8226     8200     8157     8101     8057     8016     7960 
    7892     7835     7807     7797     7790     7794     7825     7874 
    7936     8008     8079     8171     8297     8427     8541     8645 
    8763     8912     9055     9165     9266     9374     9488     9596 
    9690     9775     9836     9861     9876     9880     9868     9856 
    9843     9856     9907     9962     9977     9943     9893     9857 
    9849     9843     9788     9682     9586     9565     9606     9645 
    9654     9639     9601     9564     9565     9560     9484     9355 
    9250     9219     9233     9232     9228     9265     9305     9310 
    9307     9320     9323     9274     9194     9133     9059     8965 
    8963     9107     9289     9378     9319     9118     8835     8563 
    8382     8310     8358     8486     8565     8615     8803     9129 
    9413     9470     9303     9164     9229     9397     9498     9446 
    9299     9312     9710    10385    10967    11186    11100    10951 
   10845    10759    10714    10793    11039    11416    11865    12371 
   12853    13081    12905    12463    12053    11879    11952    12106 
   12163    12120    12137    12315    12460    12346    12162    12078 
   11825    11297    10762    10466    10512    10803    11148    11433 
   11458    11015    10335     9907     9841     9818     9572     9164 
    8922     9194    10003    10868    11179    10763     9990     9400 
    9256     9515     9969    10207     9946     9459     9373     9921 
   10591    10708    10093     9233     8868     9222     9906    10407 
   10444    10174     9982    10118    10548    10918    10840    10353 
    9897     9813    10064    10430    10785    11081    11214    11178 
   11189    11366    11584    11747    11907    12047    11993    11748 
   11580    11594    11685    11867    12246    12731    13009    12851 
   12514    12435    12586    12760    13008    13337    13624    13875 
   14164    14437    14565    14553    14454    14216    13925    13798 
   13892    14119    14418    14717    14857    14792    14609    14447 
   14440    14452    14330    14206    14092    13934    13809    13678 
   13502    13355    13151    12720    12129    11676    11527    11473 
   11239    10838    10440    10237    10266    10240     9967     9543 
    9054     8584     8258     8165     8355     8718     8967     8895 
    8588     8283     8029     7756     7547     7554     7809     8237 
    8740     9275     9839    10220    10039     9363     8763     8539 
    8538     8653     8944     9432     9990    10455    10875    11308 
   11506    11232    10681    10348    10504    11045    11686    12076 
   12129    12102    12081    12000    11958    11996    11962    11730 
   11402    11287    11536    11942    12204    12218    12135    12150 
   12293    12496    12662    12660    12417    12013    11724    11852 
   12291    12591    12600    12570    12665    12786    12769    12562 
   12361    12404    12544    12516    12405    12407    12542    12712 
   12716    12461    12176    12099    12127    11994    11745    11672 
   11787    11799    11570    11266    11125    11201    11223    10987 
   10783    10844    10991    11225    11690    12198    12447    12333 
   12051    12038    12374    12627    12646    12722    12940    13132 
   13278    13470    13706    13929    14082    14189    14369    14552 
   14508    14274    14088    14011    13978    13993    14079    14206 
   14300    14326    14254    13979    13542    13151    12912    12792 
   12708    12561    12357    12232    12289    12410    12403    12313 
   12294    12350    12398    12320    12060    11741    11488    11290 
   11146    11114    11134    11067    10886    10679    10541    10475 
   10415    10309    10171    10145    10275    10320    10172    10011 
    9968    10064    10233    10324    10291    10252    10274    10274 
   10207    10149    10159    10185    10169    10131    10128    10204 
   10306    10339    10337    10376    10456    10507    10472    10436 
   10531    10798    11122    11241    11089    10869    10676    10432 
   10087     9746     9538     9465     9461     9505     9625     9756 
    9762     9659     9586     9584     9556     9474     9439     9455 
    9427     9317     9175     9084     9033     8967     8889     8795 
    8733     8777     8894     9011     9049     8995     8977     9048 
    9110     9140     9171     9216     9287     9347     9411     9573 
    9845    10141    10335    10365    10376    10570    10915    11191 
   11319    11445    11670    11960    12198    12317    12420    12574 
   12698    12801    13004    13296    13535    13655    13743    13963 
   14305    14566    14759    15070    15415    15516    15336    15160 
   15209    15367    15372    15133    14836    14720    14734    14662 
   14485    14363    14336    14270    14136    14044    13983    13874 
   13751    13612    13374    13032    12704    12462    12189    11820 
   11494    11308    11161    10923    10577    10217    10048    10190 
   10455    10582    10490    10208     9907     9779     9696     9423 
    9070     8854     8736     8597     8443     8305     8163     7952 
    7684     7493     7447     7466     7462     7357     7134     7000 
    7117     7268     7198     7014     7005     7226     7386     7251 
    6940     6743     6827     7021     7114     7208     7413     7647 
    7716     7491     7271     7430     7725     7678     7356     7244 
    7646     8329     8715     8571     8276     8173     8160     8001 
    7600     7117     6848     6812     6721     6535     6563     6830 
    6978     6844     6567     6311     6125     5807     5180     4584 
    4473     4707     4800     4619     4478     4607     4826     4888 
    4793     4708     4783     4959     5076     5144     5248     5400 
    5560     5607     5491     5380     5397     5489     5602     5730 
    5857     5942     5931     5815     5695     5735     6011     6407 
    6646     6626     6605     6848     7186     7207     6917     6727 
    6758     6816     6809     6790     6829     6873     6775     6511 
    6310     6395     6609     6653     6566     6534     6633     6863 
    7045     6956     6673     6454     6374     6359     6298     6094 
    5857     5784     5795     5613     5165     4683     4365     4159 
    3985     3917     4074     4360     4473     4315     4152     4316 
    4817     5254     5300     5124     5129     5458     5886     6128 
    6187     6283     6529     6838     7072     7181     7223     7259 
    7239     7168     7231     7574     8083     8503     8732     8929 
    9256     9640     9866     9835     9728     9776     9895     9904 
    9855     9860     9972    10139    10193    10103    10036    10090 
   10209    10285    10242    10112    10051    10190    10488    10798 
   11013    11091    11021    10858    10678    10544    10522    10601 
   10711    10757    10709    10715    10840    10905    10753    10416 
   10102     9986    10046    10195    10461    10894    11325    11561 
   11636    11551    11344    11118    10723    10142     9682     9433 
    9277     9138     8907     8592     8421     8513     8650     8542 
    8151     7711     7517     7608     7708     7598     7379     7191 
    7028     6936     6918     6896     6947     7060     7064     6985 
    6978     7120     7345     7485     7492     7451     7416     7388 
    7410     7593     7914     8232     8572     8974     9270     9344 
    9272     9105     8861     8612     8406     8324     8484     8881 
    9318     9577     9705     9906    10214    10524    10718    10758 
   10745    10790    10919    11085    11218    11291    11304    11280 
   11272    11346    11543    11758    11809    11668    11511    11548 
   11789    12029    12054    11835    11551    11367    11314    11373 
   11488    11599    11650    11652    11753    11967    12002    11671 
   11156    10720    10511    10524    10536    10419    10357    10450 
   10535    10470    10313    10172    10076    10073    10168    10302 
   10553    11023    11597    12015    12160    12100    11944    11867 
   12021    12294    12452    12473    12519    12691    12968    13208 
   13283    13249    13183    13078    13019    13104    13237    13371 
   13676    14134    14496    14722    14937    15092    14998    14631 
   14205    13935    13897    14044    14238    14428    14718    15064 
   15194    14946    14427    13883    13578    13663    14108    14816 
   15674    16511    17151    17482    17485    17253    16816    16122 
   15378    15033    15343    16196    17182    17921    18387    18625 
   18441    17730    16705    15671    14839    14316    14157    14362 
   14780    15243    15764    16382    16993    17385    17452    17322 
   17029    16373    15421    14657    14460    14766    15229    15574 
   15772    15932    16116    16211    16045    15566    14675    13241 
   11550    10316    10104    10880    12117    13374    14652    16113 
   17661    18943    19689    19958    20011    20003    19886    19524 
   18810    17635    15902    13706    11385     9395     8000     7086 
    6534     6606     7593     9316    11246    12921    14016    14280 
   13765    12807    11608    10267     9060     8273     7986     8134 
    8603     9191     9533     9332     8694     7980     7455     7248 
    7532     8381     9506    10504    11146    11269    10871    10186 
    9395     8570     7937     7825     8368     9297     9994     9987 
    9323     8389     7451     6460     5512     5063     5402     6374 
    7469     8183     8563     8998     9565    10039    10231    10170 
    9992     9624     8895     7899     6998     6447     6139     5803 
    5330     4978     5196     5961     6741     7321     7978     8927 
    9985    10633    10507     9895     9304     8849     8377     7960 
    7955     8463     9124     9680    10231    10895    11410    11142 
    9787     7994     6778     6515     6859     7310     7737     8393 
    9384    10349    10748    10361     9586     9093     9062     9137 
    9066     8837     8498     8112     7720     7390     7216     7210 
    7388     7791     8389     9116     9748     9965     9840     9744 
    9846    10104    10290    10196    10030    10066    10148     9865 
    8985     7740     6728     6340     6337     6316     6417     7092 
    8414     9882    10855    11248    11459    11545    11289    10860 
   10605    10477    10128     9357     8399     7707     7347     6977 
    6546     6438     6847     7515     8091     8548     9175    10057 
   10914    11526    11847    11920    11900    11980    12262    12691 
   13124    13352    13100    12273    11101     9979     9314     9246 
    9424     9305     8801     8567     9136     9925    10040     9545 
    9136     9183     9487     9769    10077    10381    10432    10328 
   10398    10544    10392     9850     9115     8500     8460     9169 
   10060    10415    10281    10335    10972    11978    12903    13340 
   13161    12735    12556    12661    12564    11842    10612     9334 
    8452     8154     8290     8686     9220     9702    10070    10422 
   10874    11472    11909    11661    10798    10052     9868    10070 
   10273    10151     9776     9638     9909    10212    10249    10035 
    9637     9167     8871     8885     8981     8817     8383     7969 
    7806     7874     7942     7839     7678     7741     8190     8890 
    9524     9852     9834     9592     9271     9004     8948     9069 
    9038     8627     7933     7206     6787     6855     7148     7275 
    7198     7189     7429     7810     8079     8040     7784     7695 
    8045     8753     9459     9830     9917     9981    10123    10247 
   10211    10120    10166    10222    10168    10263    10701    11270 
   11597    11580    11559    11802    11993    11729    11255    11114 
   11363    11628    11614    11266    10856    10864    11358    11897 
   12234    12418    12409    12218    12127    12422    13031    13572 
   13645    13113    12308    11839    12015    12579    12997    12976 
   12684    12458    12469    12612    12602    12276    11757    11345 
   11331    11647    11906    11949    11923    12003    12153    12028 
   11480    10893    10671    10848    11111    11146    11071    11148 
   11291    11321    11295    11262    11099    10788    10545    10688 
   11354    12157    12419    11917    11099    10555    10554    10925 
   11171    11002    10824    11194    11929    12412    12440    12214 
   11971    11843    11831    11955    12232    12507    12662    12789 
   12984    13212    13391    13453    13363    13202    13136    13140 
   13052    12961    13074    13198    12988    12565    12259    12101 
   11918    11573    11201    11154    11500    11953    12202    12177 
   12138    12370    12828    13262    13477    13363    12926    12388 
   12013    11843    11800    11888    12132    12429    12720    13151 
   13753    14142    13980    13465    13023    12903    13076    13214 
   13119    13056    13235    13428    13349    13024    12742    12683 
   12671    12494    12253    12199    12509    13081    13329    12729 
   11617    10834    10709    10879    10921    10791    10739    10998 
   11489    11908    12071    12032    11989    11955    11766    11568 
   11563    11595    11564    11621    11862    12216    12498    12546 
   12419    12275    12040    11551    10869    10151     9559     9180 
    8905     8677     8603     8687     8832     8926     8860     8769 
    8920     9240     9540     9885    10297    10628    10782    10756 
   10669    10671    10728    10703    10616    10665    10942    11212 
   11160    10725    10078     9458     9007     8696     8541     8709 
    9171     9617     9826     9845     9812     9732     9469     8979 
    8451     8123     8013     7970     7903     7807     7691     7650 
    7854     8286     8622     8677     8668     8858     9308     9810 
   10049    10171    10643    11388    11834    11631    10932    10216 
    9872     9932    10169    10346    10369    10263    10114    10057 
   10102    10040     9660     8997     8362     8057     8137     8539 
    9194     9914    10399    10569    10622    10537    10046     9270 
    8697     8528     8616     8809     9051     9303     9536     9832 
   10306    10795    10991    10885    10691    10582    10635    10764 
   10831    10880    11005    11148    11188    11091    10918    10639 
   10168     9722     9727    10241    10797    10986    10898    10799 
   10697    10388     9822     9326     9233     9484     9848    10231 
   10658    11100    11389    11364    11062    10678    10440    10464 
   10607    10621    10437    10224    10241    10608    11166    11656 
   11967    12151    12238    12159    11869    11441    11047    10829 
