Origin Time       2011/03/11 14:46:00
Lat.              38.103
Long.             142.860
Depth. (km)       24
Mag.              9.0
Station Code      TYM003
Station Lat.      36.8164
Station Long.     137.4200
Station Height(m) 47
Record Time       2011/03/11 14:48:46
Sampling Freq(Hz) 100Hz
Duration Time(s)  215
Dir.              E-W
Scale Factor      3920(gal)/6182761
Max. Acc. (gal)   3.955
Last Correction   2011/03/11 14:48:31
Memo.             
[...]
    7439     7542     7604     7692     7808     7791     7574     7190 
    6808     6861     7338     7468     7062     6818     6954     7126 
    7168     7036     6850     6840     6921     6898     6793     6678 
    6618     6636     6609     6585     6639     6581     6430     6424 
    6586     6803     6824     6583     6583     7009     7459     7748 
    7703     7343     7228     7400     7504     7739     8132     8342 
    8329     8174     7979     7869     7817     7994     8380     8418 
    8224     8327     8486     8468     8511     8659     8735     8650 
    8473     8341     8265     8138     8004     7946     7854     7768 
    7746     7614     7521     7627     7698     7759     7795     7544 
    7349     7552     7735     7691     7622     7580     7552     7457 
    7303     7242     7139     6907     6825     6938     6999     6986 
    7008     6989     6849     6788     6968     7054     6776     6391 
    6039     5685     5631     5944     6052     5750     5583     5746 
    5895     5860     5662     5451     5511     5631     5408     5225 
    5344     5378     5379     5480     5362     5109     5070     5254 
    5599     5854     5673     5332     5137     4942     4912     5164 
    5277     5056     4741     4489     4354     4483     4879     5170 
    5131     5016     4962     4892     4937     4991     4804     4741 
    4980     4948     4666     4674     4776     4680     4607     4562 
    4422     4405     4575     4646     4654     4876     5060     4869 
    4667     4810     4986     4919     4813     4867     4977     5089 
    5296     5473     5506     5544     5688     5832     5844     5787 
    5826     5993     6195     6339     6522     6876     7134     6985 
    6743     6868     7202     7432     7643     7793     7634     7344 
    7222     7198     7325     7708     7916     7714     7578     7681 
    7790     8062     8520     8687     8533     8514     8633     8592 
    8470     8432     8406     8484     8746     9001     9308     9719 
    9786     9504     9535     9831     9814     9737     9976     9922 
    9326     9115     9575     9931    10033    10164    10125     9889 
    9780     9884    10001    10041    10157    10135     9733     9648 
   10255    10470     9792     9375     9729    10015     9996    10238 
   10599    10580    10466    10500    10308     9850     9471     9325 
    9378     9363     9074     8832     8834     8718     8543     8640 
    8700     8642     8843     8910     8360     8061     8830     9811 
   10040     9859     9882    10338    11145    11731    11637    11092 
   10534    10310    10320     9937     9228     9049     9492     9723 
    9396     9276     9864    10303     9849     9120     8738     8527 
    8499     8810     8946     8510     7986     7724     7639     8064 
    8943     9317     8870     8159     7510     7213     7478     7701 
    7404     7078     6976     6838     6894     7322     7521     7123 
    6379     5529     4930     5004     5604     6048     5861     5312 
    4985     5103     5613     6449     7268     7527     7233     6925 
    6663     5968     4793     3702     3131     2927     2860     3145 
    3808     4357     4464     4432     4711     5055     4884     4204 
    3433     2950     2847     2934     3275     3910     4063     3409 
    3194     4049     4670     4345     4214     4720     4797     4195 
    3717     3647     4003     4895     5761     5542     4087     2757 
    2857     3911     4573     4485     4296     4386     4372     4086 
    4134     4816     5529     5684     5256     4748     4813     5215 
    5267     5301     5669     5876     5989     6427     6788     6651 
    6203     5771     5734     6059     5982     5366     5206     5907 
    6651     6851     6807     6986     7333     7431     7531     8225 
    8964     9064     9123     9598     9755     8974     7946     7846 
    8743     9745    10101     9521     8445     7746     7719     8175 
    8902     9226     8601     7759     7472     7601     8158     9031 
    9671     9795     9120     7994     7711     8608     9797    10441 
   10153     9253     8480     8202     8378     8914     9444     9314 
    8433     7547     7411     8001     8676     8885     8458     7709 
    7281     7478     7865     7782     7528     7999     8898     9225 
    9055     9104     9216     8790     8225     8205     8369     8195 
    7943     7915     8006     8103     8119     8122     8340     8483 
    8222     8148     8534     8652     8397     8397     8383     7707 
    7099     7669     8696     8871     8566     8511     8375     8113 
    8246     8655     8833     8720     8560     8557     8741     8801 
    8434     7844     7449     7380     7460     7591     7892     8121 
    7915     7710     7984     8283     8231     8045     7740     7316 
    7040     6961     7010     7083     7043     7118     7469     7687 
    7537     7304     7190     7200     7391     7493     7032     6430 
    6409     6574     6494     6634     7122     7376     7067     6532 
    6307     6424     6520     6558     6700     6822     6925     7261 
    7750     8078     8180     8158     8114     8068     7883     7599 
    7556     7640     7371     7096     7389     7815     8018     8314 
    8484     8235     8168     8492     8570     8363     8360     8410 
    8165     7858     7711     7554     7488     7828     8189     7931 
    7546     7779     8062     7791     7513     7631     7677     7378 
    7139     7201     7313     7185     6755     6259     6093     6369 
    6579     6329     6034     5856     5426     5197     5772     6429 
    6589     6889     7403     7286     6500     5807     5571     5679 
    5916     6115     6259     6350     6209     5815     5606     5788 
    6021     6242     6574     6735     6559     6225     5804     5376 
    5184     5238     5199     4979     5030     5500     5691     5203 
    4497     3838     3172     2852     3124     3514     3689     3833 
    3655     2919     2498     2855     3053     2650     2528     3029 
    3274     2895     2649     3024     3516     3574     3373     3257 
    3240     3152     2832     2496     2476     2687     2929     3094 
    3060     2809     2485     2229     2061     2055     2302     2586 
    2654     2586     2468     2297     2183     2151     2132     2134 
    2182     2435     2933     3162     2763     2231     2054     2030 
    2015     2284     2777     3095     3231     3423     3739     4151 
    4485     4571     4610     4768     4878     4951     5151     5397 
    5625     5929     6215     6300     6273     6384     6753     7077 
    7026     6931     7159     7469     7641     7734     7679     7476 
    7361     7332     7224     7229     7533     7954     8360     8692 
    8840     8916     9012     8961     8818     8781     8742     8732 
    9114     9686     9733     9255     8962     9220     9650     9667 
    9309     9119     9247     9390     9482     9638     9691     9555 
    9556     9807     9887     9701     9678     9866     9994    10122 
   10360    10489    10351    10050     9776     9774    10116    10479 
   10586    10482    10218     9813     9526     9668    10144    10638 
   11072    11275    10985    10625    10803    11127    10931    10456 
   10264    10392    10655    11045    11496    11721    11652    11636 
   11846    12052    12121    12059    11867    11772    11938    12112 
   12099    12125    12505    13055    13254    13086    12926    12852 
   12780    12614    12199    11735    11700    12039    12165    11895 
   11571    11371    11384    11670    11783    11430    11133    11321 
   11602    11507    11286    11231    11004    10488    10158    10256 
   10593    10854    10798    10596    10633    10793    10684    10462 
   10519    10697    10606    10274    10040    10048    10053     9859 
    9626     9471     9402     9559     9828     9812     9449     9062 
    8917     8863     8601     8370     8594     8996     9045     8826 
    8689     8601     8413     8247     8084     7743     7561     7857 
    8035     7590     7139     7297     7555     7378     7202     7401 
    7653     7809     8008     8030     7672     7214     6982     6986 
    6920     6615     6564     7006     7140     6621     6202     6190 
    6294     6386     6346     6235     6210     6080     5771     5498 
    5310     5250     5473     5852     6023     5851     5595     5647 
    6044     6325     6177     5928     5896     5996     6167     6447 
    6763     6979     7029     6924     6663     6359     6210     6258 
    6500     6886     7127     7082     6938     6749     6546     6573 
    6815     6982     6952     6788     6651     6702     6897     6994 
    6880     6814     7013     7313     7554     7697     7615     7385 
    7234     7072     6754     6405     6111     5852     5709     5759 
    5917     6016     5977     5914     5934     5932     5831     5715 
    5584     5392     5311     5428     5461     5234     4976     4890 
    4882     4903     5044     5115     4905     4695     4739     4844 
    4841     4724     4467     4265     4304     4385     4492     4834 
    5097     4903     4598     4539     4452     4136     3909     3986 
    4108     3996     3794     3775     3868     3917     3952     3915 
    3765     3661     3626     3548     3479     3524     3652     3735 
    3729     3714     3719     3783     3982     4255     4504     4682 
    4728     4704     4777     4925     5073     5283     5403     5258 
    5143     5264     5372     5425     5646     5945     6103     6114 
    6002     5868     5961     6212     6236     6076     6098     6260 
    6344     6323     6206     6073     6003     5956     5922     5952 
    6063     6139     6046     5967     6079     6191     6227     6272 
    6212     6107     6197     6327     6329     6410     6500     6309 
    5978     5789     5824     6029     6167     6090     5927     5851 
    5944     5983     5680     5358     5487     5776     5753     5523 
    5280     4992     4777     4829     5048     5198     5188     5047 
    4840     4613     4402     4298     4299     4248     4110     4026 
    3936     3674     3399     3350     3452     3565     3613     3505 
    3342     3278     3259     3247     3195     3038     2998     3240 
    3502     3575     3467     3222     3134     3375     3484     3183 
    2932     3009     3167     3249     3203     3024     3020     3384 
    3742     3691     3382     3149     3050     3121     3398     3643 
    3666     3618     3701     3942     4147     4145     4100     4151 
    4128     4052     4180     4432     4570     4669     4861     4982 
    4852     4706     4841     4989     4793     4511     4461     4502 
    4521     4558     4533     4521     4631     4622     4451     4411 
    4449     4364     4304     4464     4752     4902     4857     4853 
    4965     4956     4822     4818     4923     4926     4869     4887 
    4955     4975     4903     4807     4807     4853     4828     4832 
    4921     4881     4670     4568     4689     4842     4853     4807 
    4911     5125     5260     5262     5117     5000     5160     5349 
    5281     5239     5384     5452     5399     5368     5349     5301 
    5179     4994     4900     4932     4981     5008     5039     5077 
    5086     5072     5047     4959     4828     4756     4725     4646 
    4522     4374     4183     4140     4359     4481     4248     3910 
    3824     3970     3993     3810     3631     3502     3404     3279 
    3075     2982     3001     2873     2671     2589     2549     2487 
    2349     2069     1870     1904     1943     1886     1868     1918 
    1994     1992     1827     1708     1832     2016     2051     1960 
    1859     1824     1769     1593     1423     1437     1582     1658 
    1575     1396     1288     1432     1733     1822     1589     1344 
    1287     1305     1313     1342     1347     1296     1285     1367 
    1522     1702     1767     1664     1574     1594     1631     1711 
    1889     1975     1941     2113     2447     2545     2502     2558 
    2548     2529     2797     3188     3412     3556     3685     3683 
    3610     3613     3728     3924     4115     4288     4460     4483 
    4381     4466     4718     4851     4931     5132     5387     5613 
    5764     5806     5757     5681     5668     5698     5710     5832 
    6175     6552     6750     6837     6975     7126     7198     7254 
    7385     7616     7917     8164     8303     8374     8334     8249 
    8365     8640     8778     8874     9179     9441     9451     9467 
    9567     9624     9745     9925     9951     9853     9781     9815 
    9973    10041     9867     9645     9554     9668     9899     9912 
    9688     9552     9523     9491     9584     9796     9879     9787 
    9686     9643     9656     9744     9802     9730     9694     9839 
    9957     9841     9603     9448     9494     9703     9845     9799 
    9780     9969    10197    10320    10390    10352    10171    10081 
   10222    10438    10573    10615    10651    10712    10652    10503 
   10486    10577    10687    10834    10864    10738    10808    11220 
   11634    11830    11901    11930    12023    12203    12212    12000 
   11879    11939    12050    12165    12264    12402    12593    12672 
   12681    12856    13102    13125    12967    12916    13050    13242 
   13343    13203    12892    12732    12805    12931    13035    13023 
   12852    12767    12841    12815    12636    12429    12258    12255 
   12348    12182    11768    11452    11299    11208    11204    11280 
   11332    11265    11095    10918    10727    10409    10011     9748 
    9708     9798     9891     9888     9786     9634     9470     9375 
    9345     9284     9228     9252     9249     9101     8857     8598 
    8384     8274     8230     8243     8396     8590     8658     8641 
    8616     8574     8546     8592     8664     8677     8658     8606 
    8429     8156     7937     7843     7772     7631     7498     7394 
    7194     6937     6798     6744     6635     6509     6483     6564 
    6691     6772     6774     6813     6946     7059     7114     7181 
    7230     7220     7240     7342     7441     7475     7483     7496 
    7497     7539     7673     7758     7639     7400     7276     7356 
    7478     7531     7526     7402     7193     7120     7207     7229 
    7088     6975     7105     7348     7391     7292     7344     7512 
    7617     7704     7791     7861     8001     8151     8216     8252 
    8232     8117     7977     7836     7772     7817     7756     7583 
    7562     7626     7586     7569     7631     7616     7569     7644 
    7771     7794     7679     7503     7423     7440     7284     6982 
    6936     7089     7122     7170     7385     7535     7437     7286 
    7344     7563     7756     7794     7636     7463     7444     7582 
    7876     8143     8145     8043     8046     8118     8263     8516 
    8760     8844     8744     8630     8616     8528     8352     8315 
    8332     8276     8272     8309     8330     8414     8417     8201 
    7986     7856     7702     7648     7698     7583     7385     7362 
    7370     7196     6944     6758     6647     6587     6540     6542 
    6693     6918     7114     7280     7324     7215     7063     6937 
    6903     6954     6938     6810     6761     6892     7039     7109 
    7202     7382     7603     7680     7552     7460     7507     7570 
    7615     7658     7668     7632     7584     7576     7612     7677 
    7818     7966     7972     7941     8008     8096     8132     8088 
    8078     8290     8512     8484     8406     8405     8339     8226 
    8116     7975     7893     7950     8076     8178     8169     8085 
    8142     8354     8462     8476     8562     8606     8594     8711 
    8819     8671     8439     8406     8552     8699     8715     8592 
    8461     8390     8317     8259     8255     8239     8247     8348 
    8414     8366     8273     8177     8150     8242     8395     8492 
    8407     8187     7969     7773     7675     7721     7750     7705 
    7668     7606     7450     7280     7225     7244     7181     7033 
    6961     7032     7095     6956     6677     6579     6757     6913 
    6841     6581     6264     6092     6102     6098     6028     5969 
    5825     5545     5355     5409     5592     5776     5905     5911 
    5825     5734     5653     5604     5610     5659     5758     5836 
    5822     5841     5936     5866     5579     5387     5435     5530 
    5546     5510     5414     5244     5004     4772     4713     4800 
    4817     4733     4658     4635     4730     4943     5070     5048 
    5098     5257     5354     5416     5519     5564     5492     5435 
    5514     5686     5843     5885     5691     5315     5075     5161 
    5402     5554     5563     5529     5499     5434     5395     5462 
    5548     5550     5507     5479     5445     5436     5504     5566 
    5590     5653     5715     5733     5786     5842     5767     5626 
    5604     5719     5835     5872     5853     5788     5669     5609 
    5701     5784     5685     5536     5493     5540     5719     6069 
    6382     6449     6365     6297     6267     6254     6218     6165 
    6214     6407     6527     6339     5985     5756     5683     5706 
    5783     5804     5808     5883     5913     5870     5873     5865 
    5758     5641     5577     5519     5480     5456     5369     5304 
    5441     5719     5903     5872     5713     5635     5717     5780 
    5679     5585     5636     5646     5494     5295     5153     5083 
    5077     5208     5502     5723     5721     5667     5608     5453 
    5293     5224     5261     5414     5491     5359     5317     5580 
    5852     5816     5536     5255     5178     5332     5489     5442 
    5341     5499     5895     6167     6103     5831     5591     5469 
    5439     5545     5735     5788     5752     5819     5889     5935 
    6074     6213     6359     6624     6815     6803     6785     6902 
    7101     7279     7371     7414     7480     7564     7653     7751 
    7812     7841     7927     8054     8138     8223     8320     8315 
    8274     8379     8519     8507     8446     8518     8747     8941 
    8873     8685     8696     8898     9078     9070     8888     8828 
    9031     9236     9306     9285     9146     9020     9090     9226 
    9255     9217     9141     9006     8914     8983     9131     9166 
    9084     9034     9008     8921     8854     8848     8804     8747 
    8761     8712     8527     8417     8477     8527     8456     8288 
    8076     7970     8067     8220     8259     8210     8196     8308 
    8520     8687     8716     8652     8599     8576     8502     8431 
    8512     8663     8689     8665     8731     8780     8737     8721 
    8774     8815     8839     8885     8879     8822     8883     9024 
    9028     8924     8906     8957     8943     8880     8846     8824 
    8805     8831     8894     8931     8877     8752     8662     8607 
    8508     8403     8401     8464     8380     8066     7760     7705 
    7878     8064     8071     7940     7869     7881     7827     7697 
