Origin Time       2011/03/11 14:46:00
Lat.              38.103
Long.             142.860
Depth. (km)       24
Mag.              9.0
Station Code      TYM010
Station Lat.      36.5556
Station Long.     136.8883
Station Height(m) 79
Record Time       2011/03/11 14:49:04
Sampling Freq(Hz) 100Hz
Duration Time(s)  213
Dir.              U-D
Scale Factor      3920(gal)/6182761
Max. Acc. (gal)   2.423
Last Correction   2011/03/11 14:48:49
Memo.             
[...]
  -22852   -22777   -22734   -22728   -22741   -22762   -22805   -22868 
  -22943   -23024   -23112   -23212   -23312   -23397   -23479   -23562 
  -23641   -23712   -23772   -23821   -23862   -23904   -23945   -23981 
  -24028   -24100   -24184   -24267   -24364   -24463   -24539   -24610 
  -24683   -24737   -24779   -24831   -24889   -24928   -24957   -24990 
  -25014   -25028   -25041   -25032   -25010   -24988   -24944   -24887 
  -24834   -24772   -24701   -24641   -24587   -24522   -24460   -24411 
  -24348   -24270   -24202   -24156   -24125   -24095   -24054   -24005 
  -23976   -23964   -23946   -23929   -23928   -23936   -23948   -23967 
  -24000   -24039   -24081   -24137   -24204   -24275   -24349   -24413 
  -24472   -24533   -24578   -24598   -24587   -24541   -24478   -24402 
  -24304   -24203   -24095   -23970   -23836   -23700   -23566   -23438 
  -23312   -23192   -23083   -22988   -22902   -22817   -22732   -22655 
  -22584   -22512   -22442   -22379   -22331   -22303   -22278   -22255 
  -22245   -22239   -22230   -22215   -22182   -22135   -22090   -22044 
  -21991   -21930   -21864   -21789   -21710   -21646   -21595   -21540 
  -21482   -21439   -21428   -21454   -21505   -21561   -21606   -21654 
  -21727   -21810   -21896   -22000   -22105   -22196   -22277   -22341 
  -22387   -22430   -22459   -22464   -22466   -22474   -22469   -22440 
  -22400   -22363   -22321   -22258   -22165   -22068   -21987   -21908 
  -21826   -21752   -21686   -21640   -21615   -21594   -21579   -21571 
  -21565   -21587   -21649   -21721   -21797   -21881   -21972   -22086 
  -22224   -22365   -22507   -22631   -22724   -22804   -22871   -22913 
  -22931   -22949   -22995   -23054   -23107   -23158   -23196   -23220 
  -23256   -23290   -23304   -23314   -23320   -23326   -23357   -23411 
  -23478   -23562   -23638   -23699   -23776   -23870   -23970   -24069 
  -24161   -24244   -24316   -24392   -24480   -24556   -24609   -24658 
  -24713   -24753   -24763   -24750   -24717   -24676   -24651   -24627 
  -24590   -24563   -24552   -24535   -24516   -24504   -24490   -24481 
  -24475   -24462   -24443   -24419   -24399   -24389   -24393   -24420 
  -24450   -24456   -24450   -24436   -24414   -24390   -24352   -24309 
  -24275   -24247   -24228   -24204   -24160   -24113   -24061   -23995 
  -23924   -23851   -23786   -23742   -23718   -23716   -23732   -23768 
  -23843   -23955   -24077   -24194   -24295   -24381   -24463   -24552 
  -24641   -24719   -24785   -24834   -24878   -24933   -24994   -25045 
  -25083   -25116   -25138   -25143   -25139   -25131   -25114   -25089 
  -25054   -25002   -24950   -24912   -24866   -24803   -24744   -24686 
  -24620   -24568   -24540   -24527   -24535   -24568   -24619   -24688 
  -24775   -24861   -24928   -24978   -25028   -25073   -25109   -25147 
  -25175   -25188   -25215   -25257   -25305   -25356   -25396   -25427 
  -25465   -25488   -25488   -25475   -25447   -25407   -25358   -25310 
  -25275   -25236   -25178   -25134   -25118   -25098   -25072   -25047 
  -25018   -24990   -24972   -24966   -24947   -24891   -24824   -24771 
  -24718   -24661   -24593   -24503   -24402   -24300   -24201   -24108 
  -24026   -23942   -23855   -23784   -23718   -23644   -23588   -23534 
  -23470   -23435   -23429   -23427   -23432   -23435   -23431   -23428 
  -23417   -23395   -23362   -23305   -23228   -23152   -23082   -23018 
  -22950   -22878   -22825   -22799   -22792   -22801   -22817   -22850 
  -22907   -22976   -23061   -23151   -23237   -23341   -23458   -23571 
  -23689   -23796   -23877   -23950   -24009   -24044   -24080   -24113 
  -24127   -24127   -24128   -24138   -24156   -24183   -24218   -24242 
  -24253   -24257   -24251   -24244   -24242   -24237   -24228   -24226 
  -24230   -24232   -24238   -24251   -24263   -24276   -24287   -24284 
  -24266   -24242   -24223   -24211   -24204   -24196   -24190   -24188 
  -24189   -24191   -24191   -24186   -24181   -24179   -24181   -24190 
  -24201   -24208   -24216   -24240   -24271   -24292   -24299   -24302 
  -24298   -24286   -24280   -24278   -24261   -24240   -24224   -24211 
  -24206   -24210   -24219   -24231   -24242   -24270   -24303   -24302 
  -24280   -24247   -24210   -24203   -24197   -24158   -24114   -24065 
  -23996   -23941   -23904   -23865   -23836   -23825   -23821   -23835 
  -23875   -23925   -23960   -23978   -23999   -24024   -24051   -24085 
  -24116   -24138   -24159   -24183   -24211   -24237   -24254   -24260 
  -24278   -24324   -24375   -24428   -24501   -24585   -24677   -24795 
  -24940   -25093   -25249   -25410   -25570   -25739   -25901   -26027 
  -26124   -26205   -26265   -26314   -26349   -26365   -26374   -26386 
  -26399   -26401   -26379   -26336   -26274   -26208   -26151   -26088 
  -26031   -25989   -25960   -25951   -25945   -25924   -25887   -25829 
  -25760   -25679   -25572   -25456   -25320   -25145   -24963   -24782 
  -24587   -24395   -24207   -24028   -23868   -23704   -23549   -23436 
  -23341   -23262   -23212   -23168   -23131   -23116   -23107   -23111 
  -23133   -23163   -23197   -23222   -23237   -23260   -23295   -23330 
  -23365   -23416   -23481   -23536   -23590   -23649   -23705   -23766 
  -23835   -23893   -23943   -23996   -24034   -24064   -24114   -24166 
  -24205   -24247   -24285   -24317   -24344   -24353   -24350   -24355 
  -24348   -24333   -24324   -24321   -24318   -24321   -24322   -24314 
  -24300   -24275   -24230   -24180   -24135   -24095   -24068   -24051 
  -24045   -24064   -24096   -24138   -24198   -24253   -24291   -24336 
  -24386   -24418   -24444   -24483   -24531   -24571   -24604   -24633 
  -24644   -24642   -24644   -24643   -24624   -24581   -24522   -24462 
  -24398   -24322   -24234   -24136   -24041   -23956   -23874   -23797 
  -23726   -23650   -23572   -23505   -23434   -23342   -23244   -23155 
  -23064   -22967   -22866   -22770   -22684   -22627   -22595   -22561 
  -22533   -22512   -22490   -22480   -22491   -22512   -22526   -22519 
  -22525   -22560   -22601   -22650   -22705   -22745   -22778   -22814 
  -22838   -22848   -22845   -22827   -22809   -22804   -22798   -22792 
  -22800   -22821   -22843   -22870   -22911   -22955   -22998   -23039 
  -23062   -23066   -23066   -23065   -23063   -23054   -23024   -22989 
  -22954   -22916   -22887   -22862   -22831   -22800   -22769   -22737 
  -22704   -22667   -22622   -22571   -22533   -22521   -22514   -22495 
  -22480   -22483   -22487   -22480   -22465   -22433   -22392   -22353 
  -22307   -22252   -22188   -22113   -22031   -21945   -21871   -21822 
  -21805   -21825   -21865   -21912   -21951   -21973   -22014   -22073 
  -22120   -22163   -22206   -22238   -22266   -22279   -22277   -22283 
  -22290   -22288   -22284   -22290   -22322   -22372   -22433   -22509 
  -22584   -22650   -22728   -22818   -22914   -23023   -23136   -23251 
  -23385   -23519   -23624   -23703   -23791   -23901   -24021   -24136 
  -24220   -24270   -24314   -24375   -24454   -24538   -24611   -24658 
  -24682   -24703   -24727   -24743   -24736   -24723   -24709   -24682 
  -24666   -24672   -24666   -24640   -24622   -24624   -24640   -24648 
  -24638   -24617   -24587   -24549   -24497   -24420   -24324   -24229 
  -24136   -24052   -23993   -23948   -23889   -23822   -23772   -23735 
  -23708   -23712   -23734   -23754   -23795   -23862   -23928   -23973 
  -23989   -24007   -24064   -24153   -24257   -24362   -24448   -24503 
  -24552   -24626   -24697   -24732   -24753   -24804   -24891   -24980 
  -25051   -25102   -25144   -25183   -25186   -25132   -25046   -24955 
  -24864   -24768   -24679   -24590   -24475   -24357   -24274   -24235 
  -24216   -24184   -24142   -24096   -24049   -24033   -24043   -24040 
  -24017   -23990   -23967   -23967   -24003   -24047   -24070   -24074 
  -24072   -24079   -24086   -24071   -24051   -24039   -24035   -24026 
  -23986   -23939   -23917   -23888   -23854   -23819   -23768   -23720 
  -23687   -23654   -23632   -23634   -23649   -23673   -23703   -23759 
  -23864   -24002   -24148   -24292   -24437   -24592   -24751   -24902 
  -25046   -25177   -25260   -25294   -25313   -25337   -25379   -25429 
  -25469   -25506   -25544   -25587   -25632   -25661   -25675   -25689 
  -25716   -25750   -25759   -25744   -25743   -25761   -25784   -25807 
  -25818   -25810   -25793   -25768   -25731   -25686   -25628   -25567 
  -25489   -25379   -25254   -25109   -24933   -24776   -24672   -24585 
  -24468   -24303   -24112   -23923   -23736   -23560   -23406   -23272 
  -23150   -23034   -22930   -22828   -22711   -22600   -22517   -22470 
  -22448   -22430   -22415   -22380   -22320   -22264   -22211   -22149 
  -22079   -22006   -21950   -21923   -21895   -21839   -21762   -21681 
  -21591   -21499   -21424   -21369   -21330   -21307   -21310   -21338 
  -21345   -21309   -21288   -21318   -21369   -21423   -21475   -21537 
  -21643   -21770   -21851   -21903   -21978   -22064   -22138   -22208 
  -22298   -22417   -22538   -22629   -22695   -22772   -22869   -22953 
  -23029   -23112   -23157   -23170   -23211   -23265   -23302   -23339 
  -23356   -23355   -23388   -23432   -23459   -23477   -23476   -23499 
  -23562   -23596   -23615   -23661   -23717   -23767   -23791   -23797 
  -23811   -23813   -23806   -23806   -23788   -23775   -23796   -23796 
  -23753   -23715   -23705   -23693   -23658   -23623   -23601   -23563 
  -23534   -23548   -23557   -23529   -23497   -23493   -23525   -23561 
  -23562   -23534   -23513   -23514   -23523   -23521   -23496   -23446 
  -23391   -23363   -23358   -23336   -23289   -23249   -23226   -23223 
  -23234   -23241   -23251   -23266   -23290   -23330   -23376   -23415 
  -23443   -23482   -23546   -23603   -23656   -23744   -23859   -23986 
  -24128   -24271   -24396   -24507   -24634   -24777   -24905   -25011 
  -25102   -25177   -25247   -25301   -25323   -25335   -25350   -25335 
  -25268   -25184   -25142   -25127   -25101   -25075   -25060   -25036 
  -25023   -25033   -25048   -25070   -25094   -25119   -25160   -25190 
  -25179   -25165   -25179   -25200   -25225   -25255   -25264   -25272 
  -25287   -25275   -25260   -25267   -25275   -25299   -25348   -25391 
  -25410   -25403   -25402   -25432   -25466   -25483   -25492   -25493 
  -25492   -25499   -25509   -25524   -25533   -25537   -25536   -25511 
  -25461   -25406   -25356   -25315   -25275   -25231   -25192   -25140 
  -25072   -25013   -24973   -24949   -24924   -24874   -24807   -24731 
  -24662   -24606   -24545   -24496   -24465   -24420   -24368   -24303 
  -24202   -24118   -24102   -24137   -24181   -24193   -24164   -24112 
  -24078   -24115   -24194   -24246   -24260   -24272   -24305   -24344 
  -24366   -24389   -24433   -24478   -24491   -24471   -24437   -24419 
  -24445   -24495   -24504   -24469   -24445   -24459   -24501   -24536 
  -24521   -24468   -24427   -24404   -24391   -24388   -24372   -24342 
  -24333   -24347   -24352   -24340   -24340   -24370   -24414   -24450 
  -24475   -24516   -24585   -24662   -24750   -24845   -24924   -25005 
  -25087   -25138   -25171   -25201   -25233   -25276   -25315   -25321 
  -25300   -25268   -25229   -25176   -25093   -24990   -24890   -24791 
  -24699   -24613   -24522   -24427   -24331   -24233   -24146   -24078 
  -23982   -23841   -23715   -23621   -23515   -23380   -23229   -23095 
  -22989   -22877   -22750   -22610   -22461   -22328   -22194   -22035 
  -21879   -21767   -21690   -21628   -21565   -21491   -21428   -21398 
  -21386   -21383   -21381   -21369   -21368   -21399   -21436   -21444 
  -21415   -21360   -21315   -21319   -21384   -21516   -21726   -21958 
  -22084   -22028   -21855   -21738   -21794   -21965   -22092   -22091 
  -22023   -22065   -22311   -22590   -22699   -22623   -22395   -22053 
  -21750   -21649   -21715   -21812   -21988   -22434   -23072   -23522 
  -23686   -23935   -24566   -25349   -25761   -25651   -25356   -25049 
  -24680   -24421   -24357   -24341   -24512   -25109   -25860   -26147 
  -25589   -24380   -23270   -22993   -23568   -24369   -25105   -26044 
  -26971   -27358   -27298   -26971   -26360   -25653   -25097   -24947 
  -25265   -25495   -25037   -24185   -23735   -23986   -24786   -25898 
  -26791   -26899   -26148   -24978   -24093   -23827   -24053   -24674 
  -25431   -26068   -26512   -26419   -25711   -24739   -23609   -22615 
  -22310   -22644   -23198   -23904   -24683   -25063   -24765   -24141 
  -23765   -23654   -23501   -23436   -23613   -23796   -23823   -23722 
  -23563   -23606   -24015   -24246   -23633   -22157   -20560   -20422 
  -22622   -25634   -27015   -25843   -23158   -20894   -20526   -22007 
  -23645   -23907   -23141   -22767   -23518   -24663   -24909   -24005 
  -22831   -22138   -21987   -22251   -22831   -23462   -23973   -24483 
  -24947   -24999   -24536   -23729   -22940   -22993   -24148   -25532 
  -26224   -25848   -24842   -24124   -23936   -24005   -24268   -24580 
  -24757   -25009   -25458   -25747   -25551   -24961   -24361   -23989 
  -23751   -23846   -24474   -25058   -25296   -25509   -25469   -24876 
  -23996   -23184   -22860   -23046   -23164   -23122   -23267   -23450 
  -23507   -23765   -24105   -24020   -23773   -23551   -22915   -22198 
  -22069   -22219   -22173   -21992   -21711   -21361   -21334   -21785 
  -22137   -22083   -21818   -21303   -20827   -20831   -21162   -21681 
  -22113   -22159   -22020   -21625   -20988   -20888   -21551   -22124 
  -22092   -21876   -21924   -22095   -21921   -21259   -20484   -20091 
  -20463   -21385   -22054   -22161   -21939   -21649   -21670   -21916 
  -21753   -21154   -20646   -20375   -20244   -20372   -20845   -21487 
  -21952   -21949   -21671   -21772   -22488   -23181   -23240   -22831 
  -22249   -21548   -21028   -20963   -21180   -21441   -21682   -21947 
  -22282   -22580   -22728   -22704   -22598   -22630   -22719   -22429 
  -21781   -21515   -21970   -22449   -22410   -22169   -22087   -22203 
  -22520   -22940   -23222   -23199   -22882   -22472   -22267   -22472 
  -22996   -23411   -23565   -23768   -23963   -23747   -23325   -23416 
  -24108   -24732   -24836   -24590   -24613   -25196   -25670   -25589 
  -25452   -25589   -25912   -26236   -26283   -26213   -26493   -26917 
  -26862   -26322   -25781   -25594   -25979   -26731   -27094   -26720 
  -26100   -25790   -25823   -25880   -25965   -26306   -26665   -26796 
  -26866   -26948   -26987   -26846   -26224   -25277   -24750   -24969 
  -25552   -25991   -25880   -25337   -24991   -25035   -25056   -24838 
  -24764   -25078   -25414   -25496   -25409   -25205   -24930   -24769 
  -24699   -24573   -24682   -25132   -25422   -25363   -25079   -24652 
  -24372   -24286   -24160   -24201   -24427   -24534   -24799   -25278 
  -25413   -25219   -24995   -24744   -24557   -24584   -24891   -25326 
  -25525   -25446   -25414   -25534   -25625   -25689   -25833   -25888 
  -25745   -25636   -25744   -25924   -25872   -25551   -25209   -24958 
  -24772   -24712   -24778   -24722   -24471   -24494   -24908   -25180 
  -25141   -24902   -24599   -24585   -24836   -25019   -25115   -25267 
  -25353   -25117   -24738   -24462   -24122   -23769   -23734   -24002 
  -24211   -24172   -23958   -23666   -23508   -23633   -23837   -23786 
  -23456   -23193   -23153   -23240   -23367   -23416   -23485   -23647 
  -23602   -23247   -22869   -22661   -22616   -22692   -22785   -22776 
  -22763   -22867   -22913   -22783   -22636   -22516   -22366   -22342 
  -22407   -22284   -22153   -22286   -22489   -22453   -22186   -22066 
  -22272   -22523   -22624   -22614   -22596   -22613   -22553   -22415 
  -22387   -22566   -22755   -22717   -22548   -22345   -22059   -21984 
  -22280   -22475   -22365   -22304   -22358   -22364   -22410   -22528 
  -22495   -22219   -21951   -22063   -22541   -22877   -22788   -22611 
  -22652   -22718   -22704   -22829   -23050   -23111   -23043   -22973 
  -22857   -22659   -22445   -22299   -22286   -22341   -22441   -22697 
  -23049   -23252   -23232   -23087   -22794   -22408   -22182   -22141 
  -22093   -22067   -22369   -23036   -23543   -23538   -23272   -22927 
  -22582   -22543   -22720   -22743   -22737   -22834   -22849   -22640 
  -22171   -21702   -21597   -21753   -21941   -22323   -22850   -23040 
  -22854   -22604   -22460   -22683   -23158   -23311   -23092   -22826 
  -22680   -22889   -23449   -23747   -23451   -23170   -23296   -23387 
  -23245   -23127   -23150   -23264   -23347   -23496   -23873   -24077 
  -23664   -22904   -22521   -22989   -23965   -24674   -24708   -24169 
  -23611   -23552   -23826   -23949   -23766   -23500   -23564   -24138 
  -24894   -25285   -24983   -24248   -23830   -24036   -24291   -24164 
  -23992   -24011   -24103   -24349   -24715   -24892   -24804   -24541 
  -24334   -24407   -24580   -24644   -24566   -24380   -24343   -24612 
  -24840   -24664   -24330   -24202   -24204   -24181   -24143   -24232 
  -24491   -24634   -24497   -24195   -23865   -23804   -24073   -24161 
  -23934   -23847   -23967   -24099   -24208   -24118   -23791   -23557 
  -23557   -23690   -23861   -23792   -23441   -23288   -23432   -23604 
  -23789   -23839   -23679   -23695   -24079   -24534   -24733   -24655 
  -24494   -24452   -24639   -24918   -25023   -24832   -24616   -24712 
  -24770   -24326   -23704   -23513   -23853   -24228   -24091   -23475 
  -22993   -23043   -23443   -23942   -24197   -24039   -23982   -24204 
  -24200   -23936   -23841   -24035   -24305   -24307   -23865   -23249 
  -22833   -22789   -23096   -23539   -23901   -24086   -24156   -24127 
  -23846   -23453   -23300   -23455   -23697   -23830   -23898   -23878 
  -23620   -23270   -23076   -23182   -23619   -24038   -23940   -23406 
  -22996   -22864   -22836   -22962   -23257   -23540   -23564   -23318 
  -23163   -23179   -23208   -23293   -23392   -23520   -23872   -24295 
  -24418   -24102   -23470   -22898   -22647   -22546   -22466   -22507 
  -22862   -23608   -24163   -23907   -23129   -22415   -22082   -22205 
  -22532   -22690   -22494   -22223   -22325   -22646   -22769   -22663 
  -22484   -22530   -23087   -23773   -23897   -23419   -22807   -22432 
  -22380   -22488   -22500   -22300   -21972   -21824   -22195   -22845 
  -23236   -23269   -22925   -22253   -21755   -21714   -21998   -22443 
  -22639   -22382   -21937   -21424   -21097   -21282   -21675   -21964 
  -22098   -21921   -21642   -21663   -21905   -22040   -21974   -21881 
  -21879   -21966   -22268   -22716   -22880   -22656   -22471   -22596 
  -22905   -23158   -23116   -22788   -22546   -22597   -22727   -22647 
  -22329   -22031   -22031   -22256   -22408   -22451   -22497   -22551 
  -22654   -22840   -23122   -23465   -23599   -23377   -22959   -22486 
  -22166   -22303   -22795   -23202   -23378   -23571   -23852   -23947 
  -23760   -23504   -23388   -23542   -23877   -24060   -23925   -23729 
  -23877   -24385   -24797   -24805   -24502   -24098   -23830   -23885 
  -24149   -24298   -24164   -23860   -23554   -23298   -23203   -23342 
  -23491   -23548   -23648   -23698   -23662   -23758   -23888   -23743 
  -23479   -23436   -23576   -23818   -24225   -24638   -24848   -24863 
  -24714   -24534   -24428   -24306   -24324   -24536   -24550   -24468 
  -24708   -24951   -24849   -24695   -24738   -24932   -25196   -25425 
