Origin Time       2011/03/11 14:46:00
Lat.              38.103
Long.             142.860
Depth. (km)       24
Mag.              9.0
Station Code      TYM005
Station Lat.      36.7824
Station Long.     137.0803
Station Height(m) 2
Record Time       2011/03/11 14:49:12
Sampling Freq(Hz) 100Hz
Duration Time(s)  207
Dir.              U-D
Scale Factor      3920(gal)/6182761
Max. Acc. (gal)   4.925
Last Correction   2011/03/11 14:48:57
Memo.             
[...]
  -12789   -12829   -12981   -12990   -12795   -12652   -12756   -12902 
  -12749   -12359   -12128   -12218   -12366   -12312   -12178   -12167 
  -12162   -11993   -11749   -11643   -11761   -11954   -11993   -11861 
  -11726   -11695   -11783   -11896   -11887   -11796   -11795   -11939 
  -12132   -12217   -12143   -12052   -12100   -12247   -12316   -12240 
  -12160   -12250   -12485   -12640   -12569   -12411   -12379   -12492 
  -12597   -12514   -12225   -11974   -12015   -12202   -12200   -11988 
  -11791   -11731   -11767   -11769   -11652   -11484   -11395   -11460 
  -11586   -11567   -11415   -11316   -11348   -11455   -11536   -11556 
  -11590   -11676   -11756   -11783   -11823   -11978   -12188   -12249 
  -12111   -11967   -11990   -12123   -12222   -12266   -12307   -12314 
  -12234   -12130   -12105   -12148   -12148   -12110   -12151   -12241 
  -12255   -12178   -12080   -12046   -12088   -12105   -12035   -11898 
  -11755   -11672   -11634   -11578   -11523   -11472   -11387   -11315 
  -11261   -11159   -11043   -10996   -11015   -11033   -11010   -11016 
  -11068   -11063   -11003   -10978   -11019   -11097   -11090   -10947 
  -10850   -10903   -10958   -10929   -10848   -10707   -10537   -10465 
  -10525   -10572   -10496   -10375   -10320   -10349   -10403   -10428 
  -10467   -10518   -10511   -10527   -10655   -10796   -10881   -10952 
  -11013   -11097   -11248   -11394   -11497   -11618   -11768   -11926 
  -12135   -12426   -12679   -12771   -12801   -12917   -13144   -13438 
  -13671   -13753   -13802   -13916   -14049   -14192   -14316   -14358 
  -14375   -14440   -14499   -14496   -14472   -14477   -14483   -14496 
  -14535   -14558   -14582   -14612   -14581   -14515   -14432   -14275 
  -14108   -14038   -14016   -13979   -13949   -13861   -13702   -13655 
  -13728   -13763   -13718   -13619   -13532   -13553   -13672   -13805 
  -13878   -13860   -13837   -13950   -14151   -14264   -14243   -14160 
  -14140   -14262   -14365   -14305   -14260   -14350   -14382   -14263 
  -14161   -14137   -14038   -13846   -13760   -13881   -14028   -13985 
  -13800   -13626   -13450   -13298   -13329   -13534   -13630   -13395 
  -12963   -12651   -12638   -12844   -12907   -12601   -12186   -11967 
  -11983   -12185   -12379   -12257   -11849   -11559   -11591   -11761 
  -11874   -11835   -11591   -11330   -11295   -11422   -11499   -11418 
  -11249   -11133   -11029   -10790   -10387   -10033   -10056   -10390 
  -10540   -10233    -9740    -9495    -9586    -9768    -9808    -9682 
   -9563    -9590    -9703    -9809    -9790    -9606    -9494    -9685 
  -10137   -10567   -10685   -10637   -10775   -11035   -11166   -11185 
  -11274   -11538   -11878   -12120   -12256   -12336   -12365   -12435 
  -12643   -12896   -13002   -12926   -12834   -12921   -13233   -13520 
  -13456   -13148   -13030   -13195   -13359   -13352   -13283   -13336 
  -13492   -13475   -13227   -13092   -13170   -13161   -12979   -12893 
  -13096   -13376   -13299   -12807   -12357   -12337   -12598   -12734 
  -12560   -12218   -11975   -11921   -11938   -11967   -11928   -11608 
  -11107   -10951   -11266   -11440   -11081   -10676   -10806   -11288 
  -11585   -11586   -11567   -11751   -12119   -12479   -12746   -13081 
  -13480   -13641   -13578   -13661   -13972   -14347   -14658   -14766 
  -14700   -14768   -15108   -15454   -15543   -15476   -15458   -15524 
  -15655   -15736   -15757   -16062   -16655   -17029   -17173   -17464 
  -17659   -17364   -16898   -16749   -16856   -16967   -16981   -16811 
  -16546   -16386   -16302   -16274   -16341   -16342   -16134   -15790 
  -15511   -15488   -15656   -15720   -15604   -15678   -16187   -16663 
  -16536   -16004   -15552   -15177   -14750   -14668   -15061   -15097 
  -14503   -14116   -14234   -14489   -14721   -14815   -14880   -15217 
  -15419   -15025   -14486   -13960   -13208   -12841   -13294   -13941 
  -14229   -14204   -14063   -13874   -13606   -13432   -13555   -13693 
  -13575   -13287   -12879   -12648   -12928   -13381   -13439   -12944 
  -12414   -12480   -12946   -13256   -13369   -13411   -13094   -12446 
  -12402   -13247   -13825   -13372   -12392   -11495   -10914   -10925 
  -11499   -12092   -12425   -12353   -11658   -11015   -11337   -12271 
  -13009   -13218   -12756   -11873   -11189   -11083   -11580   -12409 
  -12890   -12471   -11769   -11904   -12521   -12461   -11920   -11701 
  -11588   -11305   -11317   -11701   -12131   -12552   -12808   -12724 
  -12418   -12100   -11898   -11799   -11825   -12179   -12961   -13708 
  -13872   -13633   -13418   -13229   -12947   -12660   -12425   -12127 
  -11975   -12335   -12823   -12701   -12068   -11734   -12165   -12890 
  -12936   -12200   -11895   -12533   -12922   -12385   -11630   -11135 
  -10947   -11182   -11522   -11340   -10741   -10292    -9913    -9463 
   -9306    -9402    -9489    -9641    -9751    -9671    -9603    -9604 
   -9456    -9169    -8959    -8856    -8831    -8976    -9124    -8959 
   -8507    -7903    -7304    -7244    -7981    -8763    -9074    -9230 
   -9145    -8658    -8095    -7670    -7681    -8228    -8694    -8786 
   -8897    -9150    -9285    -9128    -8701    -8219    -7833    -7478 
   -7211    -7169    -7194    -7143    -7318    -7895    -8458    -8761 
   -8822    -8426    -7980    -8189    -8495    -8270    -8064    -8178 
   -8336    -8607    -9085    -9571    -9790    -9699    -9785   -10309 
  -10740   -10766   -10697   -10579   -10318   -10331   -10787   -11184 
  -11187   -11012   -11080   -11372   -11392   -11132   -11142   -11369 
  -11494   -11747   -12043   -11943   -11797   -12075   -12234   -11820 
  -11448   -11554   -11784   -11905   -11958   -11945   -11965   -12014 
  -11911   -11756   -11718   -11742   -11958   -12328   -12373   -12105 
  -12006   -12105   -12263   -12667   -13110   -13018   -12543   -12361 
  -12712   -13219   -13332   -13021   -12679   -12566   -12813   -13262 
  -13486   -13353   -13055   -12706   -12329   -12104   -12312   -12865 
  -13255   -13349   -13503   -13665   -13553   -13401   -13511   -13653 
  -13543   -13297   -13082   -13033   -13224   -13450   -13669   -13988 
  -14258   -14454   -14459   -13979   -13603   -14006   -14527   -14583 
  -14601   -14654   -14554   -14634   -14864   -14892   -15143   -15874 
  -16227   -15786   -15244   -15056   -15091   -15242   -15430   -15597 
  -15772   -15931   -16187   -16596   -16791   -16713   -16701   -16591 
  -16149   -15601   -15160   -15051   -15417   -15746   -15486   -15017 
  -14916   -14968   -14777   -14547   -14655   -14933   -15051   -15095 
  -15047   -14769   -14549   -14644   -14781   -14591   -14252   -14264 
  -14465   -14382   -14221   -14132   -13783   -13479   -13693   -13955 
  -13930   -13997   -14296   -14634   -14776   -14672   -14640   -14836 
  -15012   -14990   -14820   -14474   -13928   -13500   -13503   -13751 
  -13834   -13649   -13491   -13520   -13543   -13420   -13275   -13266 
  -13410   -13684   -14027   -14338   -14569   -14685   -14844   -15172 
  -15325   -15111   -14771   -14496   -14310   -14055   -13586   -13146 
  -13100   -13310   -13364   -13248   -13073   -12916   -13044   -13389 
  -13393   -12883   -12448   -12602   -12952   -12856   -12406   -12001 
  -11693   -11534   -11609   -11610   -11387   -11295   -11390   -11312 
  -10978   -10716   -10745   -10784   -10530   -10230   -10178   -10165 
  -10012    -9948   -10114   -10307   -10314   -10208   -10183   -10231 
  -10204   -10093    -9953    -9787    -9834   -10222   -10509   -10558 
  -10760   -11056   -10984   -10600   -10473   -10644   -10691   -10695 
  -10756   -10664   -10604   -10833   -11195   -11383   -11289   -11129 
  -11014   -10870   -10811   -10897   -11033   -11247   -11588   -11853 
  -11726   -11301   -11101   -11299   -11460   -11344   -11172   -11061 
  -10956   -10767   -10455   -10292   -10461   -10563   -10263    -9867 
   -9735    -9779    -9795    -9870   -10102   -10231   -10083    -9894 
   -9805    -9823   -10065   -10405   -10471   -10175    -9803    -9689 
   -9883   -10147   -10288   -10334   -10355   -10330   -10317   -10427 
  -10637   -10838   -10985   -11099   -11157   -11210   -11445   -11813 
  -12030   -12063   -12096   -12153   -12182   -12197   -12137   -11971 
  -11807   -11700   -11624   -11616   -11667   -11618   -11557   -11651 
  -11519   -10988   -10576   -10477   -10507   -10732   -10985   -10982 
  -11013   -11183   -11155   -11025   -11014   -11019   -10977   -10931 
  -10885   -10888   -10955   -10878   -10637   -10501   -10447   -10373 
  -10259    -9965    -9629    -9566    -9788   -10171   -10536   -10713 
  -10804   -10944   -11067   -11201   -11418   -11475   -11190   -10824 
  -10635   -10641   -10856   -11282   -11640   -11468   -10972   -10797 
  -10725   -10301    -9995   -10226   -10604   -10710   -10612   -10780 
  -11523   -12338   -12549   -12410   -12520   -12786   -12916   -12964 
  -12946   -12896   -13019   -13230   -13309   -13394   -13623   -13968 
  -14424   -14664   -14443   -14145   -14037   -14033   -14129   -14287 
  -14454   -14672   -14951   -15149   -15159   -15156   -15156   -14823 
  -14246   -13946   -13935   -13830   -13739   -13946   -14189   -14176 
  -14109   -14168   -14187   -14105   -14134   -14331   -14512   -14609 
  -14725   -14883   -14988   -15072   -15223   -15380   -15602   -16028 
  -16499   -16731   -16650   -16453   -16442   -16630   -16753   -16730 
  -16835   -17219   -17558   -17669   -17717   -17684   -17604   -17701 
  -17861   -17710   -17208   -16770   -16682   -16801   -16934   -17029 
  -17053   -16950   -16755   -16653   -16695   -16561   -16188   -15957 
  -15780   -15335   -14892   -14685   -14672   -15017   -15576   -15846 
  -15841   -15829   -15851   -16052   -16407   -16433   -16103   -15985 
  -16040   -15800   -15493   -15505   -15572   -15435   -15241   -14973 
  -14385   -13609   -13127   -13008   -12940   -12765   -12530   -12445 
  -12570   -12674   -12730   -12824   -12774   -12580   -12497   -12444 
  -12296   -12315   -12614   -12902   -13091   -13420   -13807   -14037 
  -14291   -14623   -14817   -14834   -14647   -14330   -14125   -13998 
  -13858   -13886   -14123   -14309   -14300   -14246   -14315   -14421 
  -14363   -14277   -14448   -14690   -14751   -14756   -14715   -14601 
  -14765   -15281   -15637   -15613   -15430   -15120   -14784   -14652 
  -14471   -14036   -13770   -13887   -13944   -13836   -14033   -14543 
  -14996   -15262   -15148   -14631   -14211   -14124   -14166   -14416 
  -14951   -15311   -15166   -14823   -14590   -14427   -14391   -14500 
  -14329   -13696   -13015   -12656   -12652   -12551   -11938   -11381 
  -11358   -11375   -11274   -11365   -11489   -11573   -11900   -12174 
  -11738   -10718    -9896    -9740   -10010   -10198   -10229   -10409 
  -10669   -10550   -10156   -10136   -10467   -10488   -10234   -10339 
  -10726   -10745   -10518   -10692   -11115   -11262   -11233   -11234 
  -11205   -11118   -10940   -10702   -10515   -10411   -10444   -10761 
  -11297   -11618   -11590   -11607   -11745   -11755   -11552   -10966 
  -10121    -9778   -10228   -10845   -11146   -11142   -10968   -10862 
  -10886   -10936   -11023   -10997   -10730   -10545   -10897   -11642 
  -11969   -11715   -11709   -12056   -12110   -12010   -12207   -12501 
  -12725   -12854   -12669   -12529   -13004   -13577   -13457   -12893 
  -12763   -13498   -14512   -14896   -14624   -14316   -14236   -14318 
  -14426   -14377   -14307   -14420   -14528   -14518   -14328   -13919 
  -13819   -14373   -15033   -15307   -15272   -15105   -14910   -14732 
  -14563   -14555   -14775   -14840   -14537   -14173   -14013   -14042 
  -14251   -14775   -15312   -15151   -14474   -14276   -14659   -14806 
  -14665   -14757   -14917   -14983   -15084   -15040   -15057   -15601 
  -16229   -16211   -15638   -15038   -14925   -15339   -15546   -15278 
  -15095   -15162   -15191   -14972   -14572   -14309   -14299   -14345 
  -14174   -13671   -13122   -12867   -13055   -13556   -13773   -13425 
  -13187   -13567   -14047   -14240   -14561   -15027   -15185   -15081 
  -14992   -14977   -15092   -15452   -15822   -15858   -15676   -15459 
  -15291   -15349   -15591   -15834   -15949   -15847   -15633   -15472 
  -15274   -15057   -15204   -15630   -15823   -15874   -16044   -16092 
  -15826   -15451   -15215   -15032   -14695   -14285   -14095   -14205 
  -14244   -14102   -14328   -14947   -15250   -15241   -15495   -15714 
  -15342   -14692   -14196   -13856   -13659   -13666   -13754   -13729 
  -13794   -14046   -14167   -14321   -14782   -15085   -14827   -14130 
  -13185   -12322   -12036   -12324   -12673   -12897   -13077   -13191 
  -13413   -13661   -13466   -13023   -12830   -12678   -12359   -12225 
  -12355   -12555   -13003   -13572   -13702   -13387   -13034   -12979 
  -13313   -13683   -13870   -14075   -14455   -14915   -15226   -15461 
  -15816   -16094   -16230   -16418   -16462   -16132   -15510   -14774 
  -14496   -15021   -15604   -15754   -16040   -16722   -17395   -17780 
  -17886   -17871   -17861   -17705   -17311   -17112   -17451   -17894 
  -17999   -18148   -18671   -18994   -18895   -18999   -19344   -19492 
  -19447   -19169   -18658   -18448   -18686   -18920   -19168   -19522 
  -19604   -19347   -19057   -18981   -19307   -19826   -20042   -20070 
  -20314   -20570   -20604   -20616   -20575   -20255   -19853   -19717 
  -19775   -19767   -19570   -19293   -19307   -19661   -19982   -20279 
  -20658   -20815   -20601   -20115   -19434   -18817   -18553   -18616 
  -18743   -18701   -18492   -18364   -18483   -18717   -18778   -18432 
  -17788   -17293   -17161   -17269   -17480   -17609   -17591   -17609 
  -17589   -17377   -17199   -17179   -17171   -17004   -16602   -16199 
  -16070   -16113   -16023   -15809   -15820   -16015   -16013   -15815 
  -15670   -15746   -15954   -15917   -15500   -14871   -14325   -14171 
  -14206   -14007   -13622   -13270   -13066   -13084   -13229   -13230 
  -13058   -13004   -12991   -12774   -12581   -12396   -11981   -11761 
  -12031   -12289   -12237   -11998   -11646   -11459   -11539   -11476 
  -11251   -11115   -10855   -10454   -10138    -9803    -9630    -9927 
  -10262   -10309   -10382   -10488   -10328   -10025    -9904    -9959 
  -10032   -10102   -10150   -10159   -10146   -10080   -10068   -10182 
  -10261   -10251   -10023    -9436    -8912    -8772    -8616    -8288 
   -8197    -8423    -8771    -9195    -9446    -9316    -9206    -9418 
   -9570    -9433    -9266    -9139    -9005    -9048    -9168    -9104 
   -9199    -9607    -9683    -9309    -9028    -8939    -8941    -9116 
   -9352    -9487    -9570    -9607    -9613    -9709    -9883    -9977 
   -9966   -10041   -10216   -10271   -10227   -10161    -9976    -9857 
  -10071   -10488   -10988   -11562   -11873   -11745   -11623   -11734 
  -11703   -11455   -11480   -11997   -12667   -13075   -13068   -12897 
  -12960   -13178   -13117   -12743   -12487   -12593   -12804   -12809 
  -12555   -12164   -11850   -11783   -12004   -12290   -12350   -12390 
  -12673   -12893   -12816   -12595   -12310   -12200   -12508   -12790 
  -12681   -12572   -12716   -12938   -13156   -13334   -13442   -13612 
  -13831   -13823   -13527   -13230   -13069   -13004   -13069   -13244 
  -13443   -13607   -13669   -13657   -13649   -13650   -13692   -13920 
  -14320   -14526   -14415   -14383   -14543   -14589   -14567   -14766 
  -15128   -15407   -15399   -15054   -14782   -14949   -15255   -15396 
  -15504   -15693   -15976   -16222   -16223   -16094   -16016   -15944 
  -15950   -16112   -16167   -16013   -15973   -16037   -15909   -15684 
  -15637   -15897   -16329   -16570   -16603   -16714   -16875   -16840 
  -16537   -16199   -16140   -16309   -16428   -16471   -16531   -16489 
  -16233   -15980   -15935   -15997   -16062   -16091   -16022   -15838 
  -15585   -15423   -15393   -15324   -15276   -15360   -15341   -15039 
  -14686   -14578   -14721   -14941   -15020   -14857   -14611   -14433 
  -14305   -14235   -14194   -14117   -14035   -13983   -13938   -13872 
  -13767   -13649   -13634   -13781   -13966   -14079   -14231   -14529 
  -14861   -15055   -15093   -15088   -15151   -15238   -15211   -15147 
  -15296   -15500   -15422   -15282   -15350   -15334   -15113   -15052 
  -15232   -15341   -15220   -14990   -14930   -15165   -15472   -15706 
  -15945   -16110   -16041   -15799   -15547   -15334   -15079   -14742 
  -14554   -14644   -14682   -14437   -14111   -13964   -13970   -13917 
  -13833   -13839   -13814   -13772   -13939   -14276   -14580   -14764 
  -14704   -14374   -14071   -13986   -13954   -13835   -13652   -13442 
  -13293   -13291   -13314   -13190   -12978   -12878   -12968   -13037 
  -12850   -12603   -12609   -12731   -12707   -12659   -12720   -12718 
  -12656   -12707   -12761   -12709   -12672   -12720   -12734   -12564 
  -12261   -12048   -12052   -12269   -12580   -12785   -12811   -12691 
  -12518   -12370   -12186   -12067   -12168   -12249   -12195   -12306 
  -12546   -12694   -12902   -13200   -13334   -13354   -13472   -13615 
  -13638   -13543   -13467   -13664   -14159   -14661   -15062   -15386 
  -15456   -15283   -15187   -15221   -15200   -15139   -15096   -14987 
  -14893   -14964   -15030   -14910   -14729   -14635   -14641   -14625 
  -14456   -14350   -14522   -14663   -14526   -14307   -14218   -14334 
  -14617   -14892   -14983   -14866   -14611   -14276   -13962   -13785 
  -13810   -13968   -14078   -14091   -14067   -14041   -14112   -14264 
  -14267   -14093   -13950   -13891   -13850   -13795   -13610   -13234 
  -12885   -12742   -12720   -12698   -12626   -12479   -12289   -12130 
  -12044   -11978   -11901   -11891   -11962   -12014   -12057   -12133 
  -12158   -12121   -12084   -12006   -11939   -11976   -12010   -11934 
  -11802   -11675   -11562   -11619   -12019   -12559   -12913   -12986 
  -12829   -12629   -12556   -12553   -12506   -12385   -12266   -12255 
  -12325   -12381   -12413   -12488   -12720   -13121   -13442   -13409 
  -13082   -12707   -12413   -12229   -12158   -12126   -12047   -11966 
  -11969   -12038   -12072   -11979   -11851   -11810   -11763   -11626 
  -11503   -11499   -11504   -11302   -10934   -10597   -10277    -9919 
   -9614    -9438    -9453    -9650    -9771    -9617    -9388    -9361 
   -9465    -9481    -9486    -9607    -9658    -9529    -9367    -9193 
   -9023    -9042    -9285    -9576    -9741    -9683    -9490    -9401 
   -9476    -9622    -9838   -10053   -10156   -10235   -10267   -10230 
  -10383   -10714   -10936   -11107   -11304   -11284   -11104   -11152 
  -11397   -11494   -11404   -11251   -11127   -11196   -11463   -11690 
  -11765   -11797   -11861   -11901   -11845   -11730   -11703   -11840 
  -12061   -12242   -12345   -12490   -12818   -13203   -13418   -13537 
  -13726   -13916   -14026   -14111   -14179   -14156   -14034   -13946 
  -14023   -14231   -14454   -14591   -14618   -14620   -14610   -14511 
  -14364   -14258   -14133   -13942   -13808   -13837   -13991   -14193 
  -14332   -14363   -14410   -14546   -14704   -14816   -14784   -14630 
  -14584   -14680   -14718   -14671   -14615   -14472   -14290   -14296 
  -14401   -14330   -14108   -13902   -13804   -13792   -13733   -13642 
  -13636   -13647   -13540   -13368   -13266   -13245   -13323   -13564 
