Origin Time       2011/03/11 14:46:00
Lat.              38.103
Long.             142.860
Depth. (km)       24
Mag.              9.0
Station Code      TYM009
Station Lat.      36.5853
Station Long.     137.1403
Station Height(m) 77
Record Time       2011/03/11 14:48:39
Sampling Freq(Hz) 100Hz
Duration Time(s)  233
Dir.              U-D
Scale Factor      3920(gal)/6182761
Max. Acc. (gal)   4.757
Last Correction   2011/03/11 14:48:24
Memo.             
[...]
   -3088    -3022    -2950    -2851    -2728    -2608    -2490    -2324 
   -2113    -1928    -1760    -1585    -1445    -1352    -1294    -1267 
   -1258    -1266    -1296    -1347    -1442    -1576    -1713    -1828 
   -1945    -2117    -2305    -2435    -2571    -2767    -2938    -3069 
   -3243    -3452    -3641    -3800    -3935    -4046    -4143    -4236 
   -4330    -4425    -4506    -4551    -4593    -4652    -4700    -4744 
   -4818    -4912    -5000    -5065    -5117    -5203    -5326    -5421 
   -5467    -5508    -5560    -5594    -5599    -5573    -5481    -5305 
   -5069    -4784    -4460    -4130    -3821    -3535    -3243    -2933 
   -2639    -2372    -2090    -1753    -1397    -1080     -793     -534 
    -332     -151       34      152      214      324      443      493 
     548      620      623      619      687      741      723      696 
     699      707      711      707      694      705      700      618 
     535      518      505      481      488      497      479      470 
     482      481      450      408      384      376      358      316 
     243      149       47      -74     -204     -296     -359     -429 
    -511     -606     -689     -717     -715     -740     -783     -808 
    -807     -797     -822     -886     -898     -882    -1020    -1237 
   -1323    -1390    -1557    -1732    -1899    -2068    -2202    -2352 
   -2523    -2636    -2723    -2870    -3047    -3190    -3289    -3371 
   -3429    -3472    -3581    -3763    -3943    -4147    -4345    -4436 
   -4475    -4549    -4637    -4714    -4758    -4727    -4641    -4582 
   -4574    -4579    -4583    -4561    -4458    -4310    -4215    -4155 
   -4027    -3840    -3701    -3597    -3455    -3338    -3266    -3125 
   -2944    -2839    -2780    -2736    -2719    -2692    -2672    -2695 
   -2677    -2606    -2609    -2638    -2586    -2561    -2601    -2587 
   -2534    -2517    -2522    -2522    -2513    -2489    -2434    -2361 
   -2319    -2289    -2221    -2155    -2099    -2022    -2017    -2138 
   -2273    -2385    -2541    -2757    -3034    -3349    -3640    -3911 
   -4195    -4489    -4761    -4971    -5160    -5397    -5616    -5772 
   -5937    -6092    -6172    -6195    -6178    -6146    -6149    -6187 
   -6239    -6225    -6126    -6112    -6141    -6034    -5925    -5847 
   -5703    -5592    -5472    -5290    -5161    -5052    -4915    -4779 
   -4593    -4333    -4066    -3827    -3596    -3356    -3097    -2875 
   -2718    -2525    -2285    -2103    -1984    -1912    -1891    -1824 
   -1732    -1743    -1780    -1745    -1730    -1770    -1803    -1839 
   -1893    -1920    -1872    -1838    -1951    -2043    -1962    -1969 
   -2056    -1929    -1784    -1787    -1752    -1717    -1699    -1617 
   -1596    -1674    -1736    -1752    -1747    -1730    -1739    -1785 
   -1777    -1715    -1684    -1637    -1588    -1608    -1601    -1506 
   -1353    -1160    -1007     -948     -905     -810     -705     -627 
    -538     -468     -471     -520     -574     -575     -579     -755 
    -911     -865    -1011    -1313    -1401    -1550    -1779    -1882 
   -2120    -2391    -2516    -2741    -2988    -3107    -3309    -3549 
   -3658    -3792    -3924    -3955    -4041    -4202    -4346    -4448 
   -4452    -4361    -4279    -4283    -4331    -4351    -4349    -4354 
   -4378    -4404    -4419    -4427    -4390    -4332    -4277    -4176 
   -4100    -4061    -3920    -3828    -3894    -3806    -3616    -3646 
   -3651    -3499    -3467    -3399    -3217    -3188    -3167    -3072 
   -3146    -3227    -3125    -3074    -3070    -2936    -2849    -2848 
   -2763    -2691    -2710    -2717    -2716    -2721    -2703    -2674 
   -2591    -2456    -2355    -2270    -2146    -2006    -1887    -1820 
   -1796    -1766    -1709    -1652    -1580    -1461    -1442    -1627 
   -1749    -1729    -1831    -1932    -1895    -1991    -2154    -2159 
   -2156    -2206    -2192    -2161    -2206    -2236    -2186    -2161 
   -2154    -2140    -2166    -2181    -2170    -2142    -2082    -2028 
   -1993    -2000    -2090    -2207    -2259    -2272    -2315    -2380 
   -2489    -2635    -2711    -2734    -2784    -2814    -2815    -2844 
   -2859    -2779    -2662    -2660    -2631    -2390    -2278    -2373 
   -2269    -2173    -2259    -2130    -1932    -1889    -1725    -1505 
   -1405    -1259    -1051     -879     -677     -437     -257     -114 
      45      173      279      455      703      961     1217     1454 
    1642     1838     2098     2364     2587     2792     2995     3172 
    3317     3425     3512     3626     3651     3501     3482     3613 
    3562     3550     3667     3599     3559     3652     3652     3661 
    3690     3650     3636     3619     3554     3489     3421     3350 
    3273     3171     3046     2894     2716     2532     2372     2215 
    2005     1756     1524     1302     1060      818      625      482 
     324      134      -63     -296     -511     -609     -684     -869 
   -1114    -1223    -1186    -1240    -1322    -1321    -1467    -1658 
   -1677    -1742    -1872    -1918    -2001    -2092    -2072    -2075 
   -2171    -2282    -2372    -2415    -2429    -2480    -2556    -2645 
   -2756    -2852    -2921    -2971    -2995    -3046    -3202    -3452 
   -3663    -3729    -3714    -3693    -3629    -3558    -3508    -3364 
   -3163    -3086    -3053    -2913    -2818    -2775    -2617    -2506 
   -2510    -2469    -2456    -2505    -2556    -2620    -2625    -2578 
   -2583    -2621    -2665    -2714    -2733    -2741    -2785    -2864 
   -2947    -3008    -3049    -3059    -3032    -3014    -3037    -3045 
   -2960    -2799    -2667    -2601    -2550    -2482    -2368    -2200 
   -2047    -1974    -2016    -2156    -2309    -2429    -2469    -2395 
   -2376    -2493    -2497    -2524    -2824    -2999    -3020    -3216 
   -3321    -3405    -3763    -4051    -4132    -4098    -3887    -3654 
   -3420    -3023    -2643    -2567    -2824    -3220    -3604    -4029 
   -4481    -4739    -4592    -4131    -3750    -3600    -3373    -2980 
   -2830    -3216    -3953    -4711    -5247    -5473    -5502    -5082 
   -3670    -1785     -591     -370    -1013    -2264    -3350    -4099 
   -4826    -5148    -4636    -3600    -2901    -3197    -4161    -5078 
   -5487    -5296    -5049    -4978    -4771    -5149    -6816    -8511 
   -8756    -7468    -5320    -3546    -3138    -3693    -4595    -6149 
   -8116    -9125    -8816    -8188    -7712    -7331    -7087    -6886 
   -6847    -7092    -7205    -6803    -6131    -5922    -6604    -7658 
   -8306    -7973    -6520    -5266    -5676    -6935    -7053    -5686 
   -4669    -4954    -4972    -4020    -3476    -3989    -4795    -4833 
   -3847    -2905    -2525    -2152    -1849    -1687    -1665    -2163 
   -2561    -2197    -1497     -867     -786    -1672    -2465    -1635 
     190      973      303     -446     -432     -141     -138     -397 
    -448      353     1422     1185     -138    -1057    -1139     -683 
    -359     -471     -337       33      -50     -469     -468      383 
    1081      722      219       37       60      532      705      488 
     750      770       29     -581     -832     -889     -650     -162 
     418      696      538      275     -109     -531     -597     -789 
   -1444    -1399     -273      410     -346    -1822    -2664    -2075 
    -417     1135     1361       64    -1520    -2355    -2539    -2326 
   -1773    -1148     -818     -730     -792    -1129    -1635    -2432 
   -3500    -3983    -3336    -2083    -1551    -2516    -3836    -3969 
   -2900    -1616    -1104    -1566    -2241    -2752    -3187    -3219 
   -2782    -2348    -2513    -3423    -4198    -4266    -4251    -4478 
   -4600    -4426    -3849    -3106    -2856    -3239    -3876    -4294 
   -4116    -3787    -3686    -3161    -2511    -2819    -3541    -3817 
   -3880    -3747    -3295    -2927    -2827    -2749    -2703    -2998 
   -3619    -4021    -3787    -3512    -4053    -4708    -4569    -4542 
   -4784    -4141    -3338    -3409    -3654    -3868    -4078    -3470 
   -2645    -3021    -3696    -3138    -1907    -1337    -1827    -2645 
   -2858    -2467    -1860    -1138     -482      -33       39     -455 
    -855     -668     -730    -1342    -1643    -1149     -306     -110 
    -835    -1622    -1957    -2076    -2035    -1654    -1109     -838 
   -1035    -1487    -1729    -1721    -2182    -3012    -2815    -1855 
   -1845    -2582    -2858    -2480    -1903    -1910    -2738    -3475 
   -3438    -2965    -2577    -2418    -2174    -1623    -1173     -856 
    -616    -1135    -2036    -2354    -2538    -2835    -2691    -2280 
   -2124    -2591    -3487    -3747    -3032    -2257    -2080    -2443 
   -2865    -2906    -2890    -3166    -3483    -3708    -3823    -3971 
   -4136    -3757    -2927    -2394    -2444    -2724    -2783    -2833 
   -3042    -2899    -2487    -2419    -2582    -2629    -2656    -2724 
   -2746    -2792    -2865    -2790    -2558    -2528    -2800    -2821 
   -2536    -2488    -2253    -1389     -853    -1055    -1251    -1218 
    -969     -505     -316     -532     -811    -1003    -1019     -944 
    -884     -563       80      598      713      632      670      817 
     995     1164      875       65     -350      -22      375      510 
     496      273     -121     -450     -588     -460     -232     -481 
   -1199    -1553    -1253     -640       48      467      518      414 
      21     -387     -314     -261     -694    -1397    -2148    -2418 
   -1842    -1136     -927     -687      -63      315       10     -628 
   -1028    -1094    -1091     -953     -628     -559    -1068    -1939 
   -2626    -2760    -2626    -2699    -2924    -2926    -2529    -2114 
   -2361    -2965    -2959    -2418    -1884    -1592    -1861    -2450 
   -2718    -2637    -2374    -1915    -1567    -1665    -1906    -1813 
   -1404     -964     -591     -158      430      787      399     -368 
    -576      114     1046     1364      968      290      -52      315 
     911     1259     1302      781      -84     -473     -128      576 
    1293     1948     2490     2635     2188     1224      151     -254 
     116      464      567      774      942      731       33     -879 
   -1459    -1691    -1836    -1698    -1330    -1195    -1049     -691 
    -966    -1927    -2601    -2880    -2968    -2774    -2808    -3613 
   -4673    -5258    -5326    -4958    -4208    -3543    -3423    -3726 
   -4235    -4827    -5029    -4669    -4160    -3615    -3161    -3204 
   -3632    -4180    -4732    -4930    -4715    -4564    -4778    -5202 
   -5540    -5690    -5733    -5644    -5334    -4933    -4524    -4112 
   -3939    -4030    -4305    -5066    -6196    -6848    -6457    -5262 
   -4178    -4204    -5285    -6434    -6886    -6534    -5991    -5930 
   -6139    -6332    -6844    -7580    -7912    -7745    -7013    -5557 
   -4269    -4010    -4364    -4681    -4710    -4540    -4561    -4852 
   -4924    -4463    -3873    -3640    -3552    -3155    -2498    -2023 
   -2003    -2290    -2461    -2052    -1128     -141      671      939 
     576      261      287      633     1333     1862     2182     2698 
    2791     2009      880      -50     -415     -223      221      719 
     893      517      -19     -392     -734    -1315    -2014    -2144 
   -1289       93     1343     2003     1780     1077      456     -174 
    -451      331     1528     1906     1124     -312    -1315    -1156 
    -505     -339     -420     -219      -60      -35      220      646 
    1390     2500     3019     2528     1853     1736     2386     3446 
    4072     3822     3075     2255     1364      563      103      -87 
      80      421      208     -445    -1086    -2056    -2939    -2829 
   -2275    -1949    -1737    -2024    -2860    -3313    -2920    -1745 
    -105      884      404    -1004    -2241    -2436    -1819    -1440 
   -1262     -958     -843     -573     -173     -403     -923    -1071 
    -900     -507      -65       21     -357     -790    -1166    -1829 
   -2473    -2659    -2768    -3068    -3269    -3061    -2515    -2064 
   -1749    -1586    -1962    -2378    -2077    -1459    -1056     -902 
   -1038    -1060     -637     -385     -571     -952    -1545    -1934 
   -1647     -707      491     1056      347    -1194    -2339    -2368 
   -1718    -1102    -1109    -2108    -3618    -4822    -5420    -5192 
   -4231    -3355    -2923    -2929    -3479    -3763    -3068    -2115 
   -1431     -744     -198      156      461      192     -707    -1720 
   -3092    -4962    -6858    -8435    -9147    -8549    -7165    -5814 
   -4839    -4542    -5167    -6179    -6752    -6856    -6858    -6644 
   -6075    -5021    -3395    -2190    -2171    -2718    -3472    -3975 
   -3105    -1611    -1330    -1842    -2246    -3099    -4419    -5905 
   -7677    -9013    -9145    -8348    -7398    -6893    -6610    -6256 
   -6068    -5673    -4718    -3809    -2922    -1756    -1226    -1860 
   -3040    -4118    -4482    -3759    -2255    -1059    -1233    -2077 
   -2274    -2412    -3110    -3162    -2228    -1325     -342      845 
    1012       27     -970    -1634    -1546     -368      538       65 
   -1223    -2746    -4141    -4731    -4400    -3745    -3336    -3382 
   -3578    -3379    -2668    -1967    -1790    -1914    -2084    -2715 
   -3909    -5538    -7694    -9407    -9567    -8969    -8756    -8878 
   -9272    -9895    -9724    -8517    -7843    -8076    -7809    -6892 
   -6266    -5930    -5560    -5427    -5695    -5791    -5391    -5262 
   -5581    -5775    -6264    -7193    -7492    -6757    -5765    -5501 
   -5962    -6008    -5018    -3218    -1306     -419     -850    -2328 
   -4569    -6404    -6899    -6335    -5735    -6168    -6954    -6605 
   -5350    -4006    -2789    -1880    -1472    -1717    -2625    -3817 
   -4440    -3878    -3028    -3246    -4217    -4765    -4452    -3615 
   -2760    -2233    -2310    -2479    -1797     -774     -521     -983 
   -1528    -1915    -2023    -1336      223     1670     2440     3156 
    4042     4326     3864     3653     3957     3838     3322     3230 
    3058     2389     1869     1197       21     -798    -1095    -1666 
   -2327    -2167    -1333     -543      -10      145     -112     -832 
   -1923    -2560    -2322    -1656     -967     -467      118      919 
    1197      608     -293     -961    -1479    -2137    -2393    -1830 
   -1529    -2014    -2284    -1964    -1151       18      533      -43 
    -873    -1230     -788      492     2008     2779     2649     2291 
    1802     1010      131     -966    -2274    -3004    -2993    -2937 
   -3043    -3164    -3169    -2766    -2045    -1618    -1906    -2671 
   -3033    -2647    -2546    -3423    -4503    -4977    -4980    -5117 
   -5485    -5572    -5418    -5424    -5385    -5002    -4253    -3351 
   -2817    -2753    -2784    -2619    -1979    -1270    -1373    -1912 
   -2043    -1911    -1743    -1581    -1756    -2216    -2502    -2573 
   -2637    -2892    -3620    -4803    -5981    -6586    -6451    -5920 
   -5392    -5173    -5304    -5513    -5601    -5695    -5941    -5940 
   -5482    -5066    -4787    -4581    -4908    -5646    -6132    -6335 
   -6354    -5947    -5378    -5139    -5184    -5452    -5978    -6331 
   -5993    -5178    -4571    -4457    -4547    -4570    -4744    -4996 
   -4576    -3759    -3589    -3654    -3380    -3335    -3493    -3283 
   -2720    -2100    -1571    -1025     -567     -442     -354     -567 
   -1659    -2619    -2661    -2730    -3193    -3444    -3396    -3276 
   -3338    -3840    -4545    -4991    -4941    -4311    -3440    -2984 
   -3079    -3400    -3688    -3776    -3507    -2921    -2700    -3203 
   -3499    -3220    -2933    -2442    -1946    -2314    -2964    -2908 
   -2418    -1864    -1251     -892    -1053    -1537    -1930    -2165 
   -2788    -4006    -5197    -5903    -6199    -6122    -5841    -6005 
   -6875    -7724    -7827    -7117    -6177    -5775    -5747    -5546 
   -5159    -4504    -3886    -3914    -4034    -3697    -3379    -3191 
   -3087    -3316    -3726    -4078    -4398    -4732    -4900    -4627 
   -4040    -3425    -2966    -2930    -3136    -3037    -2598    -1882 
    -944     -480     -803    -1223    -1342    -1391    -1507    -1763 
   -2157    -2303    -1914    -1222     -655     -547     -937    -1225 
    -799      -90      188     -206    -1109    -1714    -1683    -1397 
    -717       87      304      325      499      553      673      824 
     826     1319     2416     3128     3013     2439     1778     1336 
    1316     1596     1754     1578     1268      785      104     -195 
     125      682     1261     1491     1103      816     1113     1448 
    1444     1078      472      177      411      707      942     1353 
    1694     1683     1370      886      516      340      267      381 
     440      145     -214     -459     -745     -997    -1124     -935 
    -286      101     -300     -878    -1181    -1611    -2285    -2543 
   -2281    -2163    -2401    -2752    -2706    -1865    -1035    -1014 
   -1257    -1343    -1439    -1563    -1967    -2591    -2750    -2560 
   -2798    -3629    -4583    -4973    -4678    -4283    -4213    -4594 
   -5189    -5364    -4953    -4254    -3272    -2202    -1737    -2042 
   -2659    -3399    -4122    -4360    -4173    -4087    -4142    -4088 
   -3794    -3387    -3321    -3655    -3887    -3820    -3538    -3140 
   -2891    -2789    -2607    -2502    -2735    -3160    -3420    -3408 
   -3238    -2840    -2107    -1419    -1367    -2102    -3103    -3483 
   -2864    -1703     -543      266      451      139     -422    -1051 
   -1321    -1150     -872     -620     -650    -1135    -1739    -2244 
   -2595    -2523    -2023    -1433     -988     -873    -1017    -1121 
   -1297    -1617    -1664    -1355     -973     -709     -839    -1357 
   -1838    -2119    -2147    -1800    -1355    -1095    -1131    -1592 
   -2156    -2394    -2325    -2229    -2482    -3065    -3397    -3247 
   -3097    -3208    -3272    -3173    -3217    -3244    -2911    -2973 
   -3942    -4913    -5423    -5840    -6100    -5935    -5616    -5584 
   -5767    -5988    -6266    -6304    -5901    -5326    -4798    -4332 
   -3855    -3436    -3369    -3752    -4336    -4733    -4600    -3943 
   -3154    -2648    -2631    -2891    -2907    -2617    -2328    -2086 
   -2027    -2444    -3083    -3294    -2873    -2197    -1774    -1910 
   -2405    -2729    -2674    -2531    -2759    -3417    -4032    -4342 
   -4365    -4032    -3692    -3796    -4045    -4130    -4095    -3736 
   -3100    -2701    -2826    -3412    -4170    -4839    -5418    -5771 
   -5716    -5322    -4817    -4711    -5262    -5979    -6425    -6560 
   -6435    -6232    -6118    -6067    -6137    -6429    -6692    -6561 
   -6095    -5609    -5379    -5580    -6101    -6658    -7037    -7056 
   -6678    -6247    -6259    -6767    -7332    -7578    -7435    -7043 
   -6658    -6539    -6860    -7303    -7195    -6462    -5607    -5027 
   -4944    -5272    -5643    -5731    -5318    -4519    -3698    -3031 
   -2669    -2642    -2725    -2919    -3233    -3486    -3589    -3294 
   -2608    -2196    -2323    -2457    -2219    -1767    -1363    -1038 
