Origin Time       2011/03/11 14:46:00
Lat.              38.103
Long.             142.860
Depth. (km)       24
Mag.              9.0
Station Code      WKY009
Station Lat.      33.7208
Station Long.     135.9814
Station Height(m) 8
Record Time       2011/03/11 14:51:20
Sampling Freq(Hz) 100Hz
Duration Time(s)  60
Dir.              N-S
Scale Factor      3920(gal)/6182761
Max. Acc. (gal)   1.574
Last Correction   2011/03/11 14:51:05
Memo.             
  -37375   -37428   -37392   -37341   -37416   -37381   -37334   -37374 
  -37380   -37420   -37417   -37384   -37426   -37444   -37478   -37516 
  -37504   -37517   -37527   -37543   -37581   -37612   -37639   -37639 
  -37702   -37793   -37780   -37791   -37837   -37857   -37916   -37948 
  -37939   -37957   -38021   -38084   -38081   -38114   -38160   -38139 
  -38171   -38192   -38163   -38189   -38198   -38210   -38242   -38238 
  -38255   -38259   -38249   -38262   -38244   -38191   -38144   -38197 
  -38252   -38135   -38066   -38116   -38086   -38045   -38029   -37959 
  -37900   -37917   -37921   -37832   -37791   -37807   -37764   -37782 
  -37820   -37747   -37702   -37734   -37788   -37807   -37764   -37768 
  -37797   -37829   -37898   -37890   -37853   -37880   -37891   -37892 
  -37909   -37925   -37898   -37859   -37942   -38001   -37915   -37890 
  -37932   -37920   -37894   -37880   -37865   -37857   -37898   -37915 
  -37852   -37849   -37884   -37863   -37857   -37916   -37961   -37932 
  -37982   -38125   -38173   -38202   -38269   -38326   -38427   -38522 
  -38613   -38692   -38732   -38862   -38953   -38921   -38970   -39041 
  -39065   -39124   -39181   -39226   -39260   -39325   -39392   -39370 
  -39374   -39419   -39418   -39392   -39354   -39372   -39382   -39339 
  -39365   -39359   -39296   -39263   -39171   -39104   -39113   -39076 
  -38979   -38883   -38870   -38855   -38775   -38730   -38648   -38557 
  -38572   -38573   -38506   -38446   -38469   -38512   -38454   -38422 
  -38402   -38323   -38334   -38344   -38300   -38285   -38228   -38232 
  -38249   -38167   -38149   -38109   -38042   -38057   -38048   -38054 
  -38030   -37957   -37978   -37993   -37982   -37942   -37863   -37904 
  -37930   -37892   -37883   -37820   -37823   -37880   -37869   -37856 
  -37788   -37769   -37806   -37716   -37671   -37665   -37599   -37602 
  -37591   -37533   -37494   -37493   -37531   -37445   -37361   -37412 
  -37374   -37319   -37334   -37317   -37305   -37292   -37282   -37257 
  -37247   -37294   -37229   -37167   -37241   -37240   -37200   -37191 
  -37167   -37183   -37184   -37167   -37121   -37039   -37056   -37060 
  -36982   -36974   -36987   -36962   -36945   -36935   -36907   -36864 
  -36901   -36971   -36953   -36951   -36989   -37009   -37039   -37081 
  -37113   -37091   -37088   -37142   -37129   -37145   -37242   -37268 
  -37268   -37331   -37401   -37420   -37445   -37504   -37492   -37500 
  -37586   -37573   -37505   -37506   -37545   -37572   -37530   -37494 
  -37533   -37554   -37532   -37499   -37487   -37510   -37520   -37495 
  -37447   -37453   -37510   -37477   -37423   -37422   -37396   -37395 
  -37413   -37374   -37329   -37335   -37383   -37387   -37342   -37330 
  -37336   -37377   -37412   -37351   -37315   -37342   -37347   -37327 
  -37296   -37286   -37282   -37265   -37223   -37151   -37154   -37171 
  -37108   -37068   -37033   -36993   -36994   -36958   -36913   -36888 
  -36854   -36849   -36867   -36849   -36766   -36745   -36799   -36734 
  -36678   -36713   -36653   -36635   -36688   -36646   -36616   -36620 
  -36645   -36693   -36676   -36667   -36680   -36692   -36764   -36787 
  -36760   -36790   -36837   -36889   -36925   -36945   -36976   -37003 
  -37041   -37052   -37072   -37128   -37132   -37164   -37226   -37248 
  -37304   -37343   -37386   -37474   -37495   -37504   -37558   -37636 
  -37722   -37742   -37803   -37906   -37921   -37978   -38065   -38077 
  -38128   -38181   -38163   -38166   -38210   -38234   -38213   -38202 
  -38184   -38136   -38139   -38138   -38097   -38077   -38045   -38023 
  -38024   -38017   -38015   -37985   -37961   -37993   -38018   -37990 
  -37947   -37972   -38002   -37957   -37951   -37957   -37925   -37957 
  -37959   -37907   -37928   -37922   -37856   -37872   -37919   -37877 
  -37829   -37863   -37889   -37853   -37825   -37841   -37844   -37825 
  -37853   -37856   -37794   -37814   -37857   -37801   -37770   -37782 
  -37772   -37767   -37738   -37681   -37667   -37688   -37681   -37640 
  -37617   -37632   -37654   -37663   -37652   -37667   -37685   -37653 
  -37668   -37715   -37675   -37641   -37668   -37643   -37610   -37647 
  -37631   -37584   -37599   -37545   -37472   -37489   -37443   -37376 
  -37384   -37344   -37285   -37227   -37179   -37209   -37153   -37048 
  -37073   -37064   -37001   -37006   -37006   -37004   -37022   -37022 
  -37025   -37074   -37138   -37100   -37048   -37120   -37171   -37174 
  -37194   -37179   -37239   -37362   -37376   -37369   -37415   -37483 
  -37572   -37607   -37608   -37678   -37774   -37832   -37870   -37888 
  -37926   -38031   -38105   -38083   -38074   -38140   -38183   -38161 
  -38159   -38164   -38101   -38043   -38042   -37982   -37861   -37814 
  -37786   -37687   -37604   -37539   -37410   -37285   -37214   -37149 
  -37070   -36970   -36865   -36802   -36781   -36761   -36691   -36623 
  -36643   -36673   -36660   -36645   -36638   -36656   -36683   -36688 
  -36695   -36708   -36729   -36743   -36735   -36741   -36751   -36752 
  -36757   -36758   -36747   -36692   -36680   -36736   -36682   -36627 
  -36688   -36648   -36561   -36573   -36548   -36493   -36480   -36462 
  -36453   -36475   -36471   -36455   -36507   -36548   -36540   -36589 
  -36621   -36617   -36668   -36701   -36741   -36827   -36867   -36921 
  -37040   -37109   -37112   -37174   -37299   -37360   -37380   -37404 
  -37419   -37507   -37570   -37505   -37495   -37571   -37606   -37582 
  -37564   -37608   -37600   -37552   -37609   -37638   -37602   -37619 
  -37645   -37677   -37703   -37703   -37738   -37768   -37820   -37902 
  -37906   -37943   -38044   -38064   -38094   -38211   -38292   -38309 
  -38364   -38461   -38546   -38635   -38689   -38695   -38748   -38846 
  -38910   -38904   -38904   -38980   -39016   -38993   -38996   -38971 
  -38915   -38898   -38911   -38855   -38737   -38720   -38724   -38644 
  -38615   -38566   -38450   -38432   -38414   -38303   -38260   -38255 
  -38156   -38066   -38061   -38032   -37941   -37853   -37810   -37793 
  -37730   -37635   -37603   -37602   -37566   -37539   -37515   -37455 
  -37464   -37541   -37487   -37389   -37420   -37417   -37394   -37427 
  -37337   -37264   -37325   -37336   -37316   -37295   -37272   -37319 
  -37347   -37362   -37381   -37334   -37332   -37360   -37330   -37303 
  -37273   -37246   -37217   -37184   -37179   -37137   -37081   -37077 
  -37059   -37025   -37008   -36996   -36962   -36950   -37010   -37002 
  -36930   -36926   -36928   -36933   -36934   -36882   -36876   -36884 
  -36858   -36817   -36754   -36795   -36840   -36759   -36745   -36762 
  -36734   -36733   -36714   -36707   -36696   -36661   -36683   -36658 
  -36595   -36584   -36585   -36606   -36595   -36554   -36534   -36483 
  -36481   -36492   -36411   -36365   -36339   -36260   -36214   -36198 
  -36145   -36078   -36098   -36129   -36074   -36082   -36149   -36168 
  -36190   -36201   -36239   -36328   -36360   -36360   -36397   -36472 
  -36506   -36471   -36520   -36608   -36604   -36591   -36626   -36699 
  -36718   -36692   -36755   -36795   -36778   -36821   -36831   -36819 
  -36849   -36867   -36869   -36854   -36856   -36841   -36779   -36781 
  -36801   -36762   -36717   -36681   -36684   -36668   -36604   -36587 
  -36551   -36484   -36459   -36403   -36339   -36314   -36280   -36243 
  -36220   -36200   -36171   -36161   -36171   -36142   -36134   -36166 
  -36150   -36148   -36193   -36197   -36179   -36212   -36259   -36229 
  -36217   -36303   -36340   -36333   -36322   -36304   -36402   -36502 
  -36463   -36424   -36475   -36598   -36665   -36610   -36632   -36765 
  -36809   -36797   -36879   -36958   -36964   -37041   -37143   -37158 
  -37213   -37298   -37322   -37353   -37416   -37454   -37437   -37438 
  -37473   -37463   -37465   -37465   -37415   -37423   -37434   -37400 
  -37367   -37302   -37302   -37326   -37248   -37183   -37130   -37059 
  -37041   -37006   -36944   -36900   -36876   -36843   -36761   -36700 
  -36667   -36624   -36595   -36524   -36462   -36464   -36419   -36360 
  -36336   -36314   -36295   -36251   -36209   -36208   -36256   -36269 
  -36169   -36194   -36329   -36309   -36296   -36343   -36368   -36433 
  -36451   -36468   -36541   -36576   -36607   -36620   -36643   -36675 
  -36639   -36674   -36694   -36597   -36619   -36662   -36584   -36543 
  -36530   -36502   -36498   -36513   -36500   -36453   -36465   -36478 
  -36440   -36444   -36446   -36435   -36431   -36423   -36455   -36421 
  -36395   -36489   -36476   -36420   -36455   -36461   -36479   -36470 
  -36441   -36486   -36497   -36506   -36471   -36357   -36413   -36523 
  -36482   -36418   -36402   -36452   -36504   -36486   -36454   -36437 
  -36471   -36545   -36558   -36521   -36512   -36554   -36602   -36643 
  -36662   -36600   -36601   -36716   -36747   -36711   -36687   -36692 
  -36754   -36757   -36719   -36716   -36698   -36721   -36746   -36699 
  -36688   -36724   -36728   -36698   -36694   -36731   -36734   -36740 
  -36766   -36750   -36772   -36830   -36829   -36837   -36885   -36896 
  -36864   -36876   -36939   -36949   -36939   -36953   -36914   -36894 
  -36952   -36967   -36909   -36882   -36908   -36876   -36815   -36820 
  -36809   -36775   -36759   -36720   -36703   -36686   -36634   -36627 
  -36617   -36562   -36521   -36474   -36424   -36425   -36380   -36247 
  -36217   -36249   -36137   -36032   -36014   -35945   -35879   -35844 
  -35786   -35723   -35696   -35694   -35627   -35585   -35620   -35560 
  -35511   -35579   -35580   -35559   -35570   -35560   -35627   -35723 
  -35762   -35805   -35841   -35900   -36037   -36156   -36147   -36126 
  -36225   -36335   -36377   -36376   -36384   -36486   -36584   -36600 
  -36626   -36673   -36755   -36842   -36877   -36894   -36893   -36939 
  -37017   -37004   -37000   -37034   -37024   -37024   -37026   -37021 
  -37018   -36982   -36984   -37017   -37005   -36964   -36931   -36947 
  -36959   -36934   -36934   -36906   -36893   -36916   -36860   -36858 
  -36905   -36844   -36812   -36816   -36787   -36790   -36781   -36775 
  -36778   -36770   -36779   -36777   -36825   -36855   -36768   -36789 
  -36894   -36872   -36833   -36858   -36916   -36979   -36997   -37002 
  -37033   -37077   -37107   -37135   -37167   -37158   -37164   -37197 
  -37170   -37139   -37128   -37103   -37104   -37098   -37062   -37054 
  -37080   -37086   -37055   -37084   -37145   -37107   -37075   -37115 
  -37145   -37155   -37126   -37116   -37157   -37133   -37082   -37085 
  -37109   -37118   -37084   -37045   -37066   -37125   -37132   -37059 
  -37042   -37110   -37121   -37115   -37121   -37079   -37100   -37170 
  -37153   -37104   -37098   -37112   -37134   -37156   -37158   -37150 
  -37154   -37167   -37203   -37238   -37197   -37161   -37202   -37211 
  -37170   -37151   -37139   -37112   -37084   -37081   -37098   -37074 
  -37018   -37013   -37041   -37033   -36975   -36913   -36901   -36896 
  -36857   -36828   -36826   -36843   -36830   -36759   -36748   -36793 
  -36781   -36747   -36708   -36676   -36699   -36692   -36628   -36565 
  -36502   -36476   -36471   -36410   -36311   -36273   -36292   -36249 
  -36188   -36155   -36077   -36061   -36087   -35997   -35924   -35927 
  -35893   -35837   -35800   -35813   -35828   -35796   -35789   -35781 
  -35764   -35781   -35768   -35760   -35809   -35848   -35837   -35799 
  -35825   -35910   -35944   -35950   -35958   -35941   -35954   -36025 
  -36035   -35969   -35993   -36054   -36042   -36069   -36096   -36072 
  -36094   -36101   -36106   -36148   -36118   -36095   -36145   -36151 
  -36126   -36128   -36105   -36073   -36118   -36144   -36082   -36090 
  -36111   -36073   -36100   -36107   -36058   -36075   -36077   -36026 
  -36001   -36023   -36027   -35964   -35952   -35987   -35965   -35972 
  -35972   -35927   -35945   -35976   -36000   -36002   -35957   -35994 
  -36041   -36031   -36077   -36065   -36007   -36063   -36128   -36149 
  -36136   -36081   -36115   -36231   -36295   -36307   -36311   -36322 
  -36351   -36396   -36414   -36424   -36522   -36633   -36664   -36692 
  -36766   -36833   -36884   -36961   -37012   -37012   -37050   -37116 
  -37167   -37214   -37245   -37263   -37270   -37274   -37295   -37318 
  -37332   -37314   -37267   -37252   -37270   -37265   -37219   -37188 
  -37196   -37188   -37148   -37095   -37062   -37077   -37059   -37007 
  -37008   -37002   -36939   -36902   -36918   -36911   -36864   -36865 
  -36860   -36804   -36833   -36869   -36829   -36819   -36812   -36800 
  -36829   -36863   -36873   -36836   -36852   -36951   -36985   -36974 
  -37005   -37061   -37107   -37122   -37130   -37120   -37165   -37282 
  -37253   -37174   -37239   -37286   -37277   -37264   -37225   -37222 
  -37233   -37223   -37185   -37157   -37197   -37199   -37163   -37162 
  -37131   -37126   -37136   -37096   -37083   -37043   -37004   -37030 
  -36985   -36929   -36922   -36890   -36854   -36818   -36799   -36767 
  -36714   -36731   -36731   -36684   -36640   -36578   -36572   -36549 
  -36479   -36477   -36413   -36341   -36356   -36259   -36149   -36154 
  -36142   -36068   -36003   -36008   -35992   -35948   -35949   -35889 
  -35848   -35892   -35859   -35811   -35819   -35789   -35747   -35748 
  -35739   -35677   -35674   -35700   -35618   -35590   -35608   -35530 
  -35514   -35526   -35508   -35550   -35532   -35516   -35557   -35523 
  -35554   -35640   -35612   -35574   -35596   -35655   -35709   -35699 
  -35687   -35687   -35693   -35709   -35702   -35713   -35750   -35760 
  -35731   -35708   -35735   -35739   -35699   -35681   -35672   -35691 
  -35686   -35606   -35564   -35569   -35562   -35507   -35407   -35383 
  -35363   -35282   -35258   -35210   -35126   -35117   -35091   -35041 
  -35031   -35017   -35012   -35028   -35034   -35053   -35080   -35087 
  -35084   -35102   -35132   -35127   -35119   -35169   -35211   -35192 
  -35201   -35248   -35285   -35331   -35359   -35376   -35425   -35468 
  -35541   -35618   -35607   -35621   -35714   -35799   -35859   -35876 
  -35910   -36028   -36117   -36143   -36177   -36230   -36289   -36333 
  -36357   -36366   -36405   -36483   -36518   -36522   -36530   -36551 
  -36619   -36664   -36644   -36654   -36716   -36769   -36759   -36746 
  -36794   -36829   -36841   -36853   -36868   -36913   -36934   -36970 
  -37051   -37065   -37081   -37125   -37143   -37182   -37173   -37163 
  -37242   -37277   -37272   -37272   -37299   -37378   -37380   -37343 
  -37372   -37406   -37434   -37426   -37407   -37426   -37411   -37407 
  -37418   -37383   -37350   -37313   -37270   -37210   -37139   -37092 
  -36989   -36896   -36876   -36785   -36651   -36559   -36489   -36431 
  -36354   -36278   -36193   -36131   -36112   -36032   -35981   -35955 
  -35852   -35871   -35940   -35872   -35861   -35895   -35902   -35955 
  -35976   -35952   -35950   -36016   -36123   -36117   -36085   -36152 
  -36222   -36298   -36340   -36312   -36362   -36453   -36481   -36503 
  -36530   -36558   -36621   -36683   -36704   -36745   -36804   -36835 
  -36904   -36968   -36943   -36963   -37062   -37151   -37207   -37213 
  -37227   -37323   -37439   -37472   -37422   -37457   -37629   -37711 
  -37648   -37650   -37769   -37888   -37958   -37975   -37938   -37956 
  -38059   -38112   -38083   -38048   -38082   -38179   -38219   -38165 
  -38107   -38118   -38180   -38167   -38063   -38002   -38009   -38010 
  -37946   -37854   -37801   -37748   -37694   -37633   -37536   -37462 
  -37397   -37305   -37210   -37116   -37059   -37004   -36913   -36828 
  -36755   -36707   -36630   -36523   -36487   -36431   -36348   -36333 
  -36311   -36268   -36194   -36121   -36128   -36081   -36009   -36013 
  -35962   -35908   -35935   -35941   -35891   -35857   -35886   -35895 
  -35881   -35913   -35900   -35877   -35923   -35951   -35982   -36030 
  -36040   -36075   -36154   -36217   -36263   -36335   -36443   -36536 
  -36600   -36647   -36722   -36821   -36874   -36955   -37019   -36976 
  -37062   -37236   -37249   -37234   -37292   -37354   -37408   -37438 
  -37439   -37437   -37498   -37563   -37534   -37546   -37592   -37582 
  -37599   -37612   -37611   -37607   -37563   -37607   -37692   -37663 
  -37611   -37614   -37659   -37687   -37698   -37723   -37683   -37674 
  -37746   -37716   -37665   -37663   -37630   -37650   -37658   -37572 
  -37529   -37575   -37615   -37575   -37511   -37476   -37470   -37522 
  -37501   -37378   -37352   -37415   -37433   -37374   -37304   -37296 
  -37302   -37307   -37265   -37174   -37182   -37215   -37181   -37150 
  -37095   -37087   -37119   -37068   -37048   -37069   -37060   -37069 
  -37041   -36995   -37007   -37025   -36989   -36923   -36909   -36904 
  -36877   -36880   -36830   -36782   -36800   -36757   -36718   -36709 
  -36656   -36661   -36665   -36580   -36538   -36555   -36538   -36495 
  -36496   -36515   -36486   -36482   -36509   -36493   -36495   -36513 
  -36460   -36431   -36502   -36537   -36460   -36402   -36463   -36530 
  -36471   -36381   -36373   -36394   -36414   -36406   -36350   -36355 
  -36409   -36398   -36365   -36355   -36368   -36389   -36368   -36357 
  -36374   -36343   -36341   -36387   -36376   -36338   -36322   -36315 
  -36353   -36393   -36354   -36317   -36371   -36417   -36415   -36418 
  -36398   -36420   -36491   -36475   -36443   -36478   -36499   -36530 
  -36591   -36589   -36540   -36548   -36609   -36650   -36650   -36614 
  -36600   -36638   -36629   -36599   -36618   -36606   -36590   -36605 
  -36553   -36495   -36508   -36505   -36441   -36395   -36402   -36391 
  -36366   -36363   -36375   -36393   -36373   -36348   -36338   -36313 
  -36345   -36333   -36238   -36282   -36338   -36266   -36247   -36258 
  -36261   -36282   -36250   -36244   -36269   -36263   -36312   -36341 
  -36284   -36254   -36276   -36360   -36423   -36337   -36271   -36346 
  -36426   -36416   -36345   -36333   -36419   -36475   -36458   -36442 
  -36426   -36443   -36504   -36482   -36429   -36448   -36456   -36463 
  -36467   -36415   -36405   -36441   -36457   -36444   -36399   -36433 
  -36502   -36454   -36418   -36453   -36473   -36485   -36465   -36449 
  -36474   -36501   -36538   -36524   -36468   -36496   -36525   -36480 
  -36444   -36441   -36463   -36480   -36448   -36412   -36413   -36427 
  -36437   -36415   -36374   -36405   -36435   -36366   -36340   -36387 
  -36399   -36383   -36340   -36315   -36353   -36391   -36386   -36371 
  -36401   -36442   -36410   -36363   -36388   -36460   -36494   -36445 
  -36407   -36451   -36510   -36531   -36504   -36482   -36513   -36523 
  -36508   -36512   -36509   -36496   -36490   -36501   -36488   -36443 
  -36467   -36513   -36476   -36427   -36426   -36436   -36424   -36430 
  -36434   -36380   -36372   -36397   -36387   -36422   -36415   -36357 
  -36374   -36414   -36464   -36456   -36396   -36473   -36557   -36540 
  -36532   -36510   -36540   -36618   -36619   -36585   -36547   -36550 
  -36581   -36561   -36560   -36557   -36533   -36564   -36595   -36601 
  -36606   -36651   -36706   -36653   -36633   -36711   -36720   -36714 
  -36718   -36710   -36741   -36761   -36773   -36749   -36704   -36760 
  -36782   -36724   -36705   -36677   -36695   -36753   -36734   -36687 
