Origin Time       2011/03/11 14:46:00
Lat.              38.103
Long.             142.860
Depth. (km)       24
Mag.              9.0
Station Code      WKY001
Station Lat.      34.2293
Station Long.     135.1694
Station Height(m) 11
Record Time       2011/03/11 14:51:14
Sampling Freq(Hz) 100Hz
Duration Time(s)  66
Dir.              E-W
Scale Factor      3920(gal)/6182761
Max. Acc. (gal)   1.603
Last Correction   2011/03/11 14:50:59
Memo.             
[...]
   -1890    -1978    -1889    -1773    -1847    -1965    -2009    -2046 
   -2096    -2193    -2280    -2227    -2114    -2105    -2248    -2463 
   -2619    -2646    -2590    -2604    -2727    -2823    -2898    -2873 
   -2557    -2431    -2952    -3451    -3281    -2726    -2386    -2518 
   -2744    -2712    -2584    -2541    -2595    -2534    -2189    -1954 
   -2124    -2320    -2228    -1848    -1484    -1696    -2270    -2356 
   -1825    -1336    -1478    -2037    -2248    -1965    -1782    -1940 
   -2025    -1873    -1887    -2160    -2389    -2542    -2609    -2396 
   -2123    -2339    -2916    -3091    -2778    -2615    -2764    -2906 
   -2977    -3031    -3006    -2930    -2942    -3055    -3091    -2971 
   -2895    -3001    -3106    -2990    -2728    -2619    -2816    -3043 
   -2902    -2509    -2319    -2462    -2676    -2630    -2306    -2018 
   -1955    -2050    -2170    -2185    -2084    -1921    -1743    -1686 
   -1740    -1716    -1674    -1757    -1782    -1682    -1628    -1633 
   -1793    -2089    -2123    -1955    -1994    -2170    -2377    -2610 
   -2568    -2359    -2440    -2678    -2841    -2970    -2907    -2734 
   -2854    -3117    -3137    -3024    -3070    -3271    -3390    -3304 
   -3158    -3149    -3231    -3226    -3187    -3127    -2914    -2769 
   -2900    -2957    -2771    -2662    -2705    -2719    -2650    -2527 
   -2463    -2533    -2563    -2434    -2300    -2271    -2356    -2493 
   -2479    -2274    -2103    -2084    -2251    -2549    -2396    -1697 
   -1788    -2789    -2925    -2195    -1940    -2032    -2183    -2661 
   -2885    -2305    -1666    -1865    -2657    -3093    -2725    -1912 
   -1590    -2320    -2989    -2705    -2257    -2012    -1963    -2495 
   -2992    -2704    -2240    -2194    -2194    -2022    -2189    -2763 
   -2819    -2032    -1623    -2334    -2888    -2526    -2293    -2324 
   -2298    -2693    -2940    -2652    -2681    -2827    -2644    -2635 
   -2791    -2835    -2933    -2995    -2764    -2546    -2746    -3057 
   -3000    -2665    -2510    -2717    -2915    -2826    -2715    -2766 
   -2900    -3085    -3032    -2522    -2146    -2374    -2761    -2857 
   -2597    -2210    -2223    -2531    -2450    -2140    -2199    -2416 
   -2446    -2527    -2478    -1881    -1573    -2546    -3514    -2729 
   -1696    -2330    -3190    -3011    -2488    -2126    -2351    -2922 
   -3128    -3318    -3302    -2382    -1923    -3336    -4464    -3448 
   -2711    -3338    -3440    -3211    -3424    -3640    -3844    -3646 
   -2963    -2915    -3545    -3865    -3822    -3679    -3231    -2865 
   -3279    -3849    -3701    -3364    -3437    -3553    -3300    -2806 
   -2559    -2781    -3053    -3004    -2720    -2442    -2424    -2542 
   -2355    -2053    -2214    -2649    -2729    -2372    -1974    -1919 
   -2216    -2462    -2412    -2208    -2013    -2035    -2382    -2590 
   -2314    -2051    -2220    -2569    -2759    -2763    -2802    -2914 
   -2912    -2865    -2909    -3005    -3176    -3367    -3410    -3241 
   -3015    -3055    -3356    -3439    -3118    -2852    -3024    -3425 
   -3569    -3288    -2917    -2820    -3006    -3153    -2994    -2806 
   -2833    -2766    -2583    -2544    -2519    -2484    -2511    -2413 
   -2208    -2097    -2139    -2281    -2226    -1813    -1552    -1846 
   -2194    -2041    -1661    -1517    -1561    -1586    -1533    -1475 
   -1484    -1416    -1311    -1443    -1591    -1489    -1403    -1486 
   -1556    -1510    -1520    -1701    -1853    -1911    -1994    -2086 
   -2123    -2069    -1981    -2005    -2133    -2181    -2116    -2083 
   -2075    -1970    -1774    -1674    -1782    -1891    -1822    -1662 
   -1645    -1862    -1940    -1756    -1748    -1901    -1875    -1768 
   -1928    -2316    -2182    -1412    -1280    -2170    -2719    -2275 
   -1781    -1961    -2383    -2396    -2053    -1934    -2255    -2407 
   -2001    -1756    -2095    -2117    -1491    -1305    -1803    -1998 
   -1672    -1367    -1352    -1530    -1546    -1269    -1077    -1197 
   -1380    -1398    -1342    -1358    -1368    -1286    -1327    -1554 
   -1648    -1637    -1763    -1865    -1954    -2190    -2243    -2022 
   -2007    -2197    -2204    -2098    -2108    -2259    -2345    -2125 
   -1862    -1899    -2120    -2274    -2122    -1804    -1782    -1952 
   -1926    -1773    -1627    -1455    -1347    -1283    -1164    -1137 
   -1248    -1370    -1396    -1202     -959     -893     -882     -829 
    -804     -933    -1212    -1262     -947     -687     -742    -1017 
   -1286    -1313    -1191    -1194    -1231    -1051     -876    -1112 
   -1572    -1739    -1564    -1423    -1481    -1551    -1595    -1742 
   -1920    -2101    -2319    -2399    -2294    -2161    -2071    -2138 
   -2435    -2749    -2872    -2846    -2762    -2670    -2621    -2636 
   -2657    -2673    -2720    -2741    -2694    -2613    -2528    -2518 
   -2615    -2662    -2565    -2505    -2603    -2574    -2250    -2035 
   -2208    -2433    -2428    -2298    -2143    -1982    -1922    -1950 
   -1815    -1567    -1602    -1852    -1853    -1554    -1361    -1516 
   -1717    -1618    -1411    -1383    -1480    -1520    -1380    -1246 
   -1401    -1700    -1869    -1770    -1497    -1427    -1551    -1593 
   -1634    -1623    -1485    -1582    -1870    -1878    -1669    -1577 
   -1636    -1761    -1856    -1795    -1624    -1596    -1782    -1841 
   -1619    -1522    -1712    -1781    -1617    -1543    -1598    -1551 
   -1418    -1433    -1638    -1774    -1722    -1672    -1694    -1679 
   -1716    -1862    -1941    -1952    -2000    -2048    -2116    -2218 
   -2209    -2060    -1975    -2121    -2349    -2309    -2043    -1999 
   -2215    -2244    -2010    -1883    -1924    -1868    -1713    -1670 
   -1641    -1452    -1314    -1340    -1283    -1187    -1267    -1343 
   -1294    -1321    -1357    -1314    -1444    -1606    -1413    -1117 
   -1137    -1365    -1501    -1433    -1300    -1347    -1478    -1326 
    -990     -951    -1270    -1543    -1532    -1446    -1511    -1544 
   -1317    -1037    -1112    -1416    -1430    -1282    -1372    -1441 
   -1284    -1228    -1395    -1510    -1515    -1588    -1654    -1727 
   -1926    -2019    -1991    -2100    -2187    -2097    -2100    -2333 
   -2484    -2308    -2150    -2372    -2646    -2627    -2525    -2552 
   -2624    -2668    -2703    -2725    -2734    -2759    -2748    -2671 
   -2652    -2725    -2739    -2708    -2870    -3099    -2959    -2649 
   -2747    -3075    -3136    -3020    -3025    -3200    -3421    -3420 
   -3115    -2918    -3127    -3403    -3434    -3395    -3440    -3478 
   -3461    -3458    -3513    -3582    -3563    -3447    -3418    -3530 
   -3594    -3531    -3389    -3315    -3413    -3446    -3355    -3326 
   -3213    -3072    -3170    -3300    -3334    -3336    -3176    -2898 
   -2732    -2765    -2862    -2864    -2872    -2937    -2835    -2566 
   -2416    -2507    -2667    -2700    -2635    -2581    -2536    -2509 
   -2525    -2535    -2529    -2543    -2505    -2374    -2329    -2515 
   -2703    -2612    -2449    -2544    -2749    -2820    -2867    -3025 
   -3183    -3219    -3141    -3009    -2939    -3058    -3276    -3371 
   -3356    -3287    -3102    -2948    -3009    -3121    -3096    -3092 
   -3210    -3207    -3050    -3028    -3087    -2990    -2861    -2815 
   -2751    -2676    -2670    -2681    -2563    -2354    -2274    -2275 
   -2189    -2119    -2098    -1968    -1803    -1800    -1847    -1781 
   -1713    -1669    -1572    -1569    -1662    -1652    -1665    -1757 
   -1673    -1678    -2057    -2143    -1684    -1544    -1965    -2301 
   -2248    -2058    -2077    -2185    -2124    -2119    -2236    -2305 
   -2417    -2498    -2435    -2409    -2416    -2343    -2391    -2630 
   -2742    -2645    -2598    -2672    -2770    -2787    -2669    -2535 
   -2475    -2498    -2625    -2636    -2375    -2140    -2169    -2286 
   -2249    -2095    -1990    -1940    -1890    -1864    -1887    -1895 
   -1793    -1678    -1692    -1729    -1630    -1436    -1365    -1512 
   -1612    -1479    -1334    -1313    -1283    -1243    -1251    -1237 
   -1214    -1184    -1112    -1094    -1097     -995     -854     -802 
    -886     -968     -911     -869     -926     -928     -860     -807 
    -831     -958    -1125    -1258    -1224    -1064    -1112    -1317 
   -1368    -1410    -1586    -1745    -1821    -1827    -1854    -2052 
   -2350    -2513    -2501    -2476    -2557    -2760    -2941    -2959 
   -2943    -2991    -3016    -2992    -2954    -2963    -3049    -3105 
   -2992    -2836    -2884    -3013    -2993    -2941    -2968    -2963 
   -2868    -2760    -2756    -2846    -2848    -2676    -2532    -2610 
   -2715    -2613    -2471    -2447    -2460    -2424    -2314    -2280 
   -2423    -2545    -2499    -2329    -2203    -2262    -2352    -2270 
   -2168    -2306    -2515    -2509    -2454    -2527    -2576    -2518 
   -2440    -2446    -2557    -2614    -2469    -2279    -2278    -2375 
   -2346    -2224    -2204    -2327    -2458    -2466    -2318    -2165 
   -2197    -2272    -2133    -1958    -2046    -2207    -2180    -2093 
   -2010    -1837    -1845    -2133    -2203    -2002    -1989    -2182 
   -2309    -2260    -2138    -2195    -2409    -2487    -2365    -2238 
   -2271    -2446    -2594    -2599    -2540    -2515    -2398    -2275 
   -2536    -2891    -2754    -2404    -2341    -2533    -2661    -2577 
   -2556    -2590    -2405    -2245    -2240    -2271    -2373    -2333 
   -2089    -1954    -1902    -1807    -1822    -1908    -1946    -1985 
   -1886    -1607    -1489    -1628    -1719    -1632    -1520    -1460 
   -1392    -1347    -1415    -1554    -1658    -1629    -1472    -1417 
   -1590    -1765    -1828    -1993    -2216    -2153    -1921    -1951 
   -2275    -2522    -2406    -2136    -2028    -2147    -2468    -2648 
   -2477    -2440    -2635    -2734    -3015    -3263    -2838    -2403 
   -2689    -3146    -3127    -2768    -2730    -3009    -2834    -2416 
   -2565    -2936    -2894    -2618    -2413    -2438    -2619    -2533 
   -2264    -2302    -2498    -2380    -2042    -1914    -2061    -2147 
   -1983    -1741    -1640    -1704    -1824    -1826    -1712    -1770 
   -1993    -1959    -1723    -1762    -2033    -2150    -2075    -1985 
   -2003    -2169    -2335    -2303    -2132    -2053    -2134    -2286 
   -2416    -2419    -2322    -2352    -2504    -2583    -2626    -2690 
   -2696    -2676    -2661    -2609    -2587    -2683    -2847    -2890 
   -2679    -2477    -2628    -2886    -2913    -2832    -2829    -2906 
   -2922    -2819    -2771    -2814    -2836    -2876    -2940    -2948 
   -2962    -3001    -2966    -2961    -3055    -3048    -2956    -2994 
   -3072    -3002    -2918    -2941    -2961    -2980    -2993    -2882 
   -2685    -2541    -2522    -2563    -2655    -2846    -2845    -2498 
   -2242    -2305    -2467    -2545    -2460    -2263    -2124    -2155 
   -2297    -2302    -2097    -1926    -1836    -1763    -1755    -1670 
   -1451    -1313    -1336    -1387    -1309    -1151    -1123    -1203 
   -1194    -1111    -1084    -1104    -1124    -1161    -1180    -1116 
   -1014    -1023    -1136    -1206    -1258    -1346    -1434    -1488 
   -1510    -1614    -1747    -1777    -1805    -1866    -1986    -2207 
   -2322    -2318    -2389    -2489    -2539    -2548    -2586    -2713 
   -2811    -2839    -2853    -2793    -2735    -2834    -2996    -3038 
   -2869    -2677    -2762    -2983    -3048    -2958    -2787    -2700 
   -2834    -2990    -2974    -2859    -2754    -2712    -2728    -2766 
   -2826    -2863    -2817    -2775    -2837    -2932    -2933    -2857 
   -2835    -2916    -2981    -2901    -2773    -2761    -2799    -2776 
   -2738    -2822    -3018    -2995    -2671    -2516    -2770    -3060 
   -3037    -2838    -2758    -2832    -2902    -2888    -2848    -2852 
   -2927    -2960    -2890    -2880    -2882    -2765    -2771    -2939 
   -2944    -2777    -2639    -2653    -2794    -2832    -2730    -2664 
   -2741    -2931    -2987    -2821    -2679    -2712    -2864    -2922 
   -2817    -2798    -2922    -2958    -2839    -2832    -3081    -3213 
   -3049    -3023    -3242    -3305    -3227    -3272    -3353    -3360 
   -3345    -3339    -3392    -3547    -3686    -3450    -3084    -3356 
   -3824    -3712    -3393    -3308    -3537    -3701    -3362    -3080 
   -3322    -3593    -3415    -3012    -2888    -2992    -2986    -2862 
   -2747    -2751    -2779    -2555    -2314    -2502    -2794    -2695 
   -2488    -2552    -2704    -2715    -2610    -2528    -2677    -2920 
   -2865    -2728    -2839    -2934    -2935    -3058    -3280    -3449 
   -3470    -3390    -3405    -3585    -3693    -3712    -3837    -3848 
   -3662    -3583    -3713    -3887    -3801    -3587    -3602    -3607 
   -3488    -3441    -3405    -3345    -3322    -3225    -3021    -2944 
   -2953    -2968    -3123    -2944    -2326    -2510    -3750    -4033 
   -2553    -1809    -2899    -3568    -3171    -2695    -2419    -3052 
   -3637    -2880    -2816    -3636    -3242    -2874    -3458    -3440 
   -3175    -3417    -3338    -3291    -3677    -3432    -3067    -3555 
   -3756    -3373    -3465    -3790    -3661    -3411    -3502    -3768 
   -3888    -3858    -3747    -3645    -3854    -4180    -4134    -4075 
   -4251    -4216    -4014    -4157    -4515    -4453    -4112    -4089 
   -4465    -4762    -4440    -3954    -4031    -4493    -4763    -4404 
   -4008    -4174    -4102    -3876    -4297    -4593    -4239    -3993 
   -4054    -4212    -4467    -4251    -3524    -3342    -3733    -3895 
   -3702    -3509    -3652    -3770    -3538    -3537    -3720    -3571 
   -3505    -3651    -3565    -3449    -3477    -3461    -3568    -3729 
   -3689    -3764    -3910    -3735    -3581    -3632    -3702    -3888 
   -3972    -3890    -3929    -3925    -3936    -4171    -4291    -4245 
   -4364    -4391    -4116    -4106    -4447    -4545    -4347    -4192 
   -4198    -4215    -4073    -3962    -4145    -4314    -4102    -3780 
   -3637    -3637    -3737    -3778    -3546    -3182    -3104    -3256 
   -3160    -2916    -2859    -2814    -2682    -2607    -2608    -2651 
   -2631    -2441    -2163    -2015    -2159    -2383    -2311    -2032 
   -1893    -1934    -2015    -2050    -1998    -1891    -1836    -1912 
   -1972    -1899    -1898    -1963    -1917    -1880    -1914    -1937 
   -1970    -2041    -2055    -1945    -1861    -1916    -1959    -1905 
   -1981    -2258    -2379    -2244    -2130    -2154    -2309    -2448 
   -2420    -2391    -2471    -2572    -2612    -2559    -2602    -2720 
   -2563    -2394    -2612    -2729    -2501    -2425    -2520    -2505 
   -2554    -2753    -2769    -2460    -2159    -2165    -2278    -2253 
   -2277    -2242    -1813    -1492    -1710    -1951    -1849    -1590 
   -1468    -1561    -1546    -1334    -1226    -1229    -1200    -1134 
   -1081    -1191    -1317    -1164     -966    -1017    -1208    -1404 
   -1504    -1442    -1393    -1539    -1658    -1505    -1394    -1654 
   -1923    -1838    -1679    -1714    -1829    -1959    -2053    -1971 
   -1933    -2229    -2429    -2085    -1826    -2069    -2064    -1785 
   -1979    -2158    -1816    -1648    -1838    -1941    -1885    -1687 
   -1425    -1224    -1089    -1072    -1048     -962    -1096    -1167 
    -737     -485     -838    -1035     -767     -442     -359     -604 
    -782     -658     -585     -618     -623     -668     -664     -662 
    -921    -1270    -1261     -945     -894    -1243    -1524    -1498 
   -1332    -1342    -1649    -1891    -1847    -1852    -2034    -2085 
   -1970    -1949    -2066    -2194    -2215    -2124    -2069    -2063 
   -1993    -1909    -1868    -1816    -1708    -1600    -1580    -1587 
   -1552    -1529    -1406    -1101     -925    -1039    -1116    -1009 
    -943     -915     -805     -733     -775     -837     -835     -759 
    -669     -635     -620     -468     -272     -357     -619     -699 
    -601     -516     -520     -566     -578     -612     -692     -663 
    -529     -513     -639     -703     -636     -545     -541     -632 
    -727     -775     -770     -704     -692     -799     -843     -789 
    -796     -862     -889     -845     -823     -892     -897     -788 
    -731     -773     -819     -766     -667     -706     -836     -841 
    -762     -841    -1049    -1040     -853     -868    -1036    -1138 
   -1207    -1264    -1335    -1482    -1601    -1587    -1555    -1643 
   -1799    -1891    -1957    -2090    -2127    -1992    -2009    -2209 
   -2204    -2067    -2164    -2359    -2304    -2085    -2010    -2091 
   -2140    -2096    -2028    -1953    -1841    -1767    -1741    -1623 
   -1484    -1455    -1384    -1219    -1122    -1109    -1090     -980 
    -817     -764     -791     -777     -762     -764     -692     -586 
    -624     -743     -711     -659     -762     -816     -749     -739 
    -860     -974     -894     -798     -963    -1183    -1213    -1178 
   -1249    -1461    -1712    -1804    -1713    -1679    -1790    -1873 
   -1929    -2075    -2196    -2189    -2225    -2412    -2533    -2459 
   -2391    -2457    -2558    -2548    -2418    -2362    -2487    -2592 
   -2517    -2429    -2472    -2453    -2282    -2274    -2445    -2413 
   -2208    -2096    -2127    -2231    -2210    -2085    -2056    -2024 
   -1971    -1989    -1966    -1943    -2004    -2023    -1937    -1819 
   -1820    -1934    -1909    -1802    -1847    -1924    -1961    -2030 
   -2027    -1974    -1981    -1987    -2009    -2057    -2021    -1922 
   -1924    -2051    -2128    -2142    -2212    -2196    -2080    -2148 
   -2322    -2309    -2180    -2145    -2172    -2162    -2253    -2457 
   -2451    -2264    -2232    -2331    -2369    -2303    -2234    -2235 
   -2208    -2205    -2323    -2323    -2174    -2222    -2439    -2447 
   -2223    -2107    -2212    -2278    -2195    -2148    -2204    -2209 
   -2097    -2001    -2029    -2127    -2137    -2038    -2024    -2128 
   -2134    -2020    -1973    -2000    -2000    -1982    -2008    -2113 
   -2207    -2165    -2126    -2197    -2213    -2206    -2270    -2224 
   -2158    -2325    -2476    -2323    -2113    -2114    -2195    -2183 
   -2174    -2245    -2250    -2152    -2037    -1952    -2022    -2226 
   -2255    -2055    -1913    -1868    -1808    -1806    -1831    -1783 
   -1735    -1701    -1641    -1631    -1677    -1682    -1648    -1643 
   -1627    -1529    -1453    -1572    -1832    -1958    -1863    -1760 
   -1752    -1769    -1829    -1929    -1975    -2036    -2195    -2254 
   -2097    -1911    -1880    -2023    -2217    -2227    -2046    -1929 
   -1872    -1724    -1618    -1680    -1741    -1663    -1521    -1371 
   -1229    -1179    -1220    -1238    -1118     -895     -810     -885 
    -859     -746     -694     -612     -517     -501     -480     -475 
    -548     -539     -389     -274     -260     -243     -177     -205 
    -404     -477     -242      -47     -168     -394     -427     -293 
    -209     -266     -413     -562     -632     -618     -573     -566 
    -663     -845    -1018    -1113    -1153    -1208    -1289    -1400 
   -1521    -1567    -1574    -1673    -1862    -2009    -2032    -2049 
