Origin Time       2011/03/11 14:46:00
Lat.              38.103
Long.             142.860
Depth. (km)       24
Mag.              9.0
Station Code      WKY001
Station Lat.      34.2293
Station Long.     135.1694
Station Height(m) 11
Record Time       2011/03/11 14:51:14
Sampling Freq(Hz) 100Hz
Duration Time(s)  66
Dir.              N-S
Scale Factor      3920(gal)/6182761
Max. Acc. (gal)   2.152
Last Correction   2011/03/11 14:50:59
Memo.             
[...]
  -27601   -27246   -27380   -27848   -27943   -27682   -27580   -27717 
  -27825   -27811   -27824   -27927   -27921   -27807   -27955   -28339 
  -28485   -28357   -28232   -28253   -28550   -28917   -28901   -28622 
  -28549   -28775   -28991   -28948   -28836   -28880   -28949   -28978 
  -29060   -29061   -28973   -29068   -29211   -29115   -28941   -28817 
  -28705   -28710   -28808   -28740   -28548   -28549   -28565   -28298 
  -28077   -28088   -28023   -27816   -27717   -27833   -27908   -27722 
  -27478   -27206   -26756   -26577   -27010   -27368   -27161   -26825 
  -26607   -26426   -26403   -26518   -26668   -26886   -27042   -26962 
  -26745   -26611   -26688   -26858   -26929   -27027   -27268   -27346 
  -27130   -26978   -27147   -27472   -27715   -27842   -27925   -28015 
  -28127   -28263   -28430   -28595   -28761   -28950   -29065   -29071 
  -29093   -29191   -29375   -29597   -29668   -29561   -29501   -29561 
  -29554   -29431   -29400   -29518   -29586   -29531   -29535   -29627 
  -29596   -29401   -29211   -29132   -29170   -29232   -29191   -29126 
  -29123   -29039   -28882   -28844   -28834   -28768   -28806   -28845 
  -28712   -28630   -28744   -28871   -28907   -28895   -28917   -29006 
  -29004   -28817   -28755   -29039   -29300   -29224   -29103   -29178 
  -29149   -28900   -28771   -28796   -28715   -28603   -28679   -28814 
  -28696   -28424   -28362   -28427   -28407   -28471   -28624   -28531 
  -28196   -28072   -28325   -28490   -28300   -28137   -28171   -28184 
  -28201   -28314   -28400   -28338   -28145   -27943   -27935   -28150 
  -28256   -28101   -28017   -28069   -28000   -27887   -27850   -27866 
  -28027   -28176   -28030   -27805   -27849   -28019   -28023   -27990 
  -28070   -28143   -28225   -28320   -28312   -28258   -28270   -28379 
  -28581   -28786   -28901   -28911   -28829   -28733   -28815   -29093 
  -29257   -29171   -29062   -29076   -29112   -29064   -28978   -28968 
  -29027   -29054   -29033   -29031   -28992   -28781   -28601   -28776 
  -29037   -28925   -28602   -28443   -28417   -28362   -28302   -28287 
  -28273   -28207   -28096   -27953   -27776   -27662   -27719   -27864 
  -27926   -27896   -27881   -27901   -27910   -27939   -28039   -28045 
  -27836   -27724   -27887   -28031   -28060   -28109   -28130   -28059 
  -27983   -28022   -28147   -28111   -27929   -28047   -28443   -28513 
  -28221   -28074   -28112   -28082   -28048   -28131   -28175   -28113 
  -28138   -28226   -28169   -28091   -28132   -28109   -28087   -28291 
  -28444   -28301   -28225   -28452   -28692   -28687   -28538   -28525 
  -28750   -28967   -28997   -29007   -29077   -29147   -29277   -29457 
  -29558   -29524   -29413   -29408   -29618   -29822   -29732   -29506 
  -29508   -29632   -29681   -29822   -29955   -29809   -29645   -29740 
  -29830   -29738   -29688   -29735   -29736   -29737   -29759   -29676 
  -29527   -29496   -29568   -29578   -29519   -29497   -29560   -29660 
  -29724   -29774   -29851   -29894   -29788   -29605   -29658   -29920 
  -29955   -29810   -29947   -30225   -30213   -30061   -30004   -29916 
  -29907   -30158   -30291   -30042   -29852   -29944   -29916   -29690 
  -29658   -29825   -29859   -29784   -29791   -29760   -29626   -29643 
  -29812   -29801   -29629   -29624   -29756   -29725   -29584   -29583 
  -29623   -29539   -29447   -29438   -29445   -29375   -29180   -29032 
  -29092   -29227   -29270   -29145   -28980   -29088   -29323   -29278 
  -29094   -29029   -29062   -29252   -29467   -29401   -29189   -29172 
  -29361   -29434   -29251   -29183   -29406   -29506   -29385   -29382 
  -29442   -29356   -29295   -29355   -29379   -29390   -29422   -29329 
  -29191   -29136   -29049   -29019   -29148   -29116   -28920   -28914 
  -28944   -28750   -28623   -28729   -28718   -28487   -28352   -28470 
  -28622   -28425   -28062   -28168   -28490   -28372   -28133   -28199 
  -28359   -28471   -28490   -28452   -28534   -28600   -28550   -28540 
  -28578   -28760   -29086   -29263   -29290   -29254   -29135   -29159 
  -29445   -29751   -29890   -29883   -29781   -29688   -29813   -30104 
  -30096   -29766   -29691   -29877   -29868   -29673   -29569   -29646 
  -29697   -29477   -29161   -29086   -29198   -29168   -28922   -28664 
  -28480   -28299   -28121   -28014   -27909   -27689   -27438   -27254 
  -27137   -27126   -27119   -26972   -26882   -26981   -27028   -26965 
  -26921   -26891   -26913   -27009   -27084   -27097   -27015   -26965 
  -27098   -27214   -27219   -27304   -27408   -27414   -27461   -27587 
  -27666   -27690   -27820   -28107   -28285   -28260   -28342   -28579 
  -28718   -28786   -28916   -29041   -29077   -29086   -29175   -29237 
  -29184   -29184   -29228   -29208   -29201   -29166   -29083   -29156 
  -29288   -29144   -28864   -28794   -28855   -28801   -28628   -28539 
  -28567   -28497   -28344   -28337   -28470   -28502   -28339   -28175 
  -28142   -28220   -28389   -28492   -28449   -28370   -28314   -28353 
  -28434   -28390   -28377   -28525   -28575   -28480   -28538   -28729 
  -28743   -28609   -28623   -28736   -28717   -28685   -28767   -28834 
  -28876   -28885   -28739   -28600   -28678   -28751   -28639   -28576 
  -28661   -28714   -28699   -28656   -28567   -28488   -28506   -28614 
  -28644   -28460   -28282   -28351   -28525   -28613   -28563   -28411 
  -28341   -28420   -28564   -28736   -28820   -28778   -28780   -28896 
  -28999   -28993   -28955   -29011   -29162   -29329   -29371   -29236 
  -29203   -29467   -29703   -29647   -29603   -29764   -29869   -29919 
  -30100   -30189   -30016   -29834   -29841   -30089   -30358   -30134 
  -29652   -29629   -29849   -29776   -29524   -29299   -29124   -29073 
  -29090   -29027   -28967   -28953   -28782   -28495   -28396   -28438 
  -28394   -28297   -28196   -28089   -28001   -27822   -27610   -27594 
  -27685   -27716   -27694   -27558   -27407   -27540   -27840   -27890 
  -27729   -27716   -27889   -28011   -28068   -28205   -28395   -28457 
  -28386   -28438   -28642   -28709   -28747   -29011   -29183   -29120 
  -29177   -29351   -29483   -29659   -29851   -29966   -29991   -29829 
  -29688   -30130   -30792   -30539   -29718   -29807   -30589   -30705 
  -30253   -30139   -30418   -30644   -30433   -29988   -30169   -30733 
  -30532   -30010   -30050   -30040   -29727   -29723   -29914   -29811 
  -29496   -29319   -29246   -29129   -29192   -29388   -29269   -28892 
  -28791   -29067   -29208   -28956   -28729   -28765   -28821   -28755 
  -28678   -28738   -28880   -28891   -28763   -28712   -28827   -28960 
  -28964   -28909   -28938   -29031   -29154   -29343   -29435   -29346 
  -29331   -29474   -29565   -29569   -29611   -29682   -29735   -29775 
  -29742   -29716   -29843   -29929   -29839   -29788   -29827   -29825 
  -29821   -29830   -29750   -29639   -29618   -29594   -29491   -29426 
  -29401   -29370   -29356   -29284   -29181   -29125   -29006   -28882 
  -28890   -28883   -28830   -28835   -28795   -28716   -28807   -28959 
  -28819   -28455   -28338   -28593   -28830   -28770   -28612   -28627 
  -28685   -28563   -28447   -28530   -28620   -28577   -28485   -28425 
  -28473   -28582   -28556   -28468   -28569   -28705   -28610   -28468 
  -28525   -28660   -28690   -28681   -28741   -28819   -28855   -28899 
  -29013   -29111   -29031   -28884   -28929   -29093   -29154   -29069 
  -28987   -29055   -29110   -29041   -29079   -29249   -29302   -29247 
  -29289   -29388   -29414   -29470   -29591   -29627   -29589   -29588 
  -29667   -29803   -29839   -29758   -29796   -30010   -30223   -30262 
  -30122   -30084   -30295   -30485   -30486   -30473   -30558   -30623 
  -30623   -30704   -30851   -30857   -30733   -30699   -30772   -30784 
  -30702   -30639   -30646   -30696   -30789   -30885   -30869   -30727 
  -30638   -30726   -30851   -30850   -30770   -30727   -30747   -30829 
  -30887   -30845   -30842   -30882   -30801   -30717   -30719   -30694 
  -30704   -30845   -30986   -30956   -30825   -30788   -30807   -30864 
  -31074   -31252   -31175   -31050   -31178   -31335   -31205   -31178 
  -31445   -31444   -31165   -31083   -31245   -31445   -31474   -31382 
  -31404   -31458   -31365   -31235   -31262   -31374   -31421   -31421 
  -31283   -31066   -31158   -31474   -31572   -31459   -31349   -31278 
  -31277   -31380   -31474   -31441   -31297   -31155   -31195   -31363 
  -31385   -31270   -31161   -31074   -31088   -31123   -30972   -30815 
  -30915   -31031   -30932   -30837   -30879   -30914   -30794   -30504 
  -30378   -30691   -30933   -30539   -30150   -30541   -30818   -30165 
  -29787   -30243   -30310   -29830   -29614   -29708   -29827   -29779 
  -29587   -29501   -29518   -29499   -29508   -29505   -29392   -29358 
  -29477   -29483   -29308   -29237   -29404   -29506   -29378   -29298 
  -29329   -29332   -29377   -29389   -29256   -29204   -29334   -29513 
  -29563   -29437   -29496   -29715   -29615   -29477   -29717   -29954 
  -29821   -29626   -29809   -30110   -30102   -30042   -30154   -30229 
  -30158   -30030   -30008   -30177   -30371   -30344   -30151   -30092 
  -30209   -30186   -29937   -29859   -30096   -30273   -30143   -29811 
  -29653   -29873   -30070   -29957   -29715   -29283   -28904   -29569 
  -30690   -30079   -28642   -28980   -29597   -29216   -29660   -29764 
  -28667   -28860   -29629   -29354   -29018   -28678   -28581   -29265 
  -29316   -28523   -28553   -29162   -29041   -28489   -28401   -28775 
  -28771   -28319   -28611   -29199   -28729   -28389   -28910   -28930 
  -28656   -28649   -28498   -28680   -29047   -29115   -29326   -29257 
  -28852   -29017   -29359   -29342   -29422   -29612   -29679   -29684 
  -29510   -29366   -29659   -29996   -30067   -30030   -29752   -29618 
  -29942   -30108   -30038   -29982   -29817   -29786   -29961   -29942 
  -29824   -29886   -29811   -29576   -29787   -30150   -29987   -29759 
  -29853   -29849   -29710   -29758   -29890   -29907   -29885   -29807 
  -29729   -29888   -30140   -30161   -30037   -30128   -30357   -30393 
  -30462   -30614   -30522   -30470   -30763   -31136   -31227   -30966 
  -30837   -31134   -31390   -31287   -31121   -31151   -31226   -31239 
  -31357   -31509   -31391   -31122   -31068   -31161   -31214   -31215 
  -31088   -30923   -30841   -30857   -30996   -30968   -30646   -30468 
  -30532   -30558   -30469   -30274   -30153   -30178   -30082   -29943 
  -29984   -30020   -29930   -29768   -29630   -29610   -29598   -29529 
  -29426   -29204   -29027   -29045   -28983   -28842   -28911   -28971 
  -28775   -28586   -28549   -28465   -28373   -28438   -28493   -28461 
  -28502   -28531   -28448   -28361   -28346   -28445   -28586   -28589 
  -28591   -28807   -28939   -28834   -28881   -29048   -29008   -28983 
  -29198   -29369   -29251   -29087   -29231   -29492   -29445   -29269 
  -29366   -29550   -29506   -29378   -29301   -29230   -29209   -29184 
  -29067   -28985   -28928   -28797   -28773   -28829   -28583   -28196 
  -28142   -28257   -28135   -27833   -27708   -27842   -27850   -27605 
  -27472   -27455   -27314   -27224   -27246   -27235   -27289   -27371 
  -27366   -27358   -27272   -27115   -27138   -27309   -27400   -27424 
  -27573   -27788   -27770   -27671   -27858   -28106   -28121   -28142 
  -28356   -28586   -28669   -28671   -28781   -28974   -29034   -29008 
  -29057   -29132   -29225   -29392   -29522   -29510   -29465   -29515 
  -29585   -29548   -29435   -29400   -29606   -29876   -29739   -29414 
  -29539   -29725   -29485   -29383   -29548   -29498   -29424   -29529 
  -29546   -29486   -29583   -29819   -29865   -29652   -29631   -29850 
  -29911   -29915   -29947   -29874   -29966   -30181   -30147   -30056 
  -30101   -30147   -30210   -30327   -30484   -30552   -30393   -30318 
  -30499   -30577   -30558   -30706   -30806   -30710   -30722   -30908 
  -31017   -31004   -30943   -30960   -31115   -31158   -31060   -31095 
  -31214   -31235   -31146   -31015   -31044   -31246   -31308   -31129 
  -30961   -31003   -31074   -30982   -30941   -31056   -31061   -30925 
  -30854   -30865   -30890   -30936   -30956   -30921   -30903   -30901 
  -30862   -30790   -30715   -30717   -30755   -30683   -30561   -30480 
  -30444   -30484   -30515   -30457   -30395   -30323   -30191   -30117 
  -30144   -30149   -30131   -30136   -30107   -30017   -29911   -29891 
  -30000   -30048   -29918   -29781   -29794   -29892   -29905   -29819 
  -29715   -29592   -29505   -29519   -29587   -29602   -29492   -29352 
  -29266   -29169   -29044   -28955   -28923   -28880   -28829   -28843 
  -28838   -28754   -28703   -28681   -28623   -28616   -28691   -28724 
  -28679   -28619   -28582   -28668   -28891   -29027   -29006   -29035 
  -29200   -29339   -29327   -29315   -29434   -29565   -29667   -29822 
  -29957   -29963   -29959   -30060   -30148   -30184   -30228   -30259 
  -30315   -30381   -30336   -30249   -30255   -30324   -30379   -30408 
  -30430   -30406   -30315   -30256   -30248   -30152   -30060   -30133 
  -30167   -30025   -29913   -29944   -29979   -29912   -29838   -29826 
  -29811   -29785   -29770   -29807   -29894   -29880   -29706   -29607 
  -29814   -30074   -30032   -29936   -30043   -30119   -30123   -30225 
  -30355   -30405   -30437   -30561   -30743   -30823   -30849   -30960 
  -31069   -31169   -31298   -31319   -31345   -31578   -31826   -31899 
  -31926   -32040   -32157   -32203   -32249   -32326   -32387   -32384 
  -32356   -32415   -32545   -32587   -32485   -32405   -32470   -32557 
  -32523   -32408   -32274   -32155   -32201   -32381   -32332   -32027 
  -31892   -32001   -32017   -31849   -31691   -31689   -31774   -31735 
  -31569   -31495   -31508   -31440   -31337   -31337   -31398   -31360 
  -31234   -31107   -30967   -30944   -31072   -31077   -31018   -31078 
  -31009   -30763   -30655   -30742   -30889   -30980   -30907   -30799 
  -30874   -30968   -30809   -30621   -30661   -30716   -30692   -30659 
  -30620   -30646   -30607   -30461   -30495   -30628   -30641   -30624 
  -30556   -30456   -30460   -30504   -30492   -30404   -30356   -30475 
  -30528   -30396   -30408   -30570   -30489   -30234   -30186   -30334 
  -30452   -30459   -30397   -30356   -30292   -30185   -30251   -30462 
  -30548   -30475   -30392   -30401   -30412   -30359   -30379   -30442 
  -30420   -30440   -30556   -30580   -30513   -30511   -30532   -30481 
  -30407   -30440   -30605   -30649   -30466   -30412   -30602   -30660 
  -30519   -30518   -30633   -30569   -30420   -30460   -30604   -30619 
  -30501   -30407   -30401   -30393   -30368   -30394   -30413   -30387 
  -30381   -30397   -30409   -30329   -30209   -30313   -30508   -30439 
  -30230   -30160   -30201   -30225   -30191   -30137   -30108   -30090 
  -30117   -30256   -30360   -30269   -30098   -29966   -29928   -30053 
  -30219   -30255   -30214   -30184   -30157   -30119   -30088   -30127 
  -30261   -30331   -30217   -30095   -30149   -30286   -30337   -30297 
  -30249   -30242   -30288   -30332   -30270   -30122   -30026   -30087 
  -30198   -30124   -29943   -29920   -29956   -29861   -29773   -29771 
  -29754   -29720   -29634   -29471   -29355   -29368   -29465   -29476 
  -29291   -29097   -29106   -29237   -29322   -29297   -29178   -29070 
  -29058   -29094   -29185   -29347   -29421   -29366   -29347   -29421 
  -29551   -29716   -29820   -29754   -29658   -29808   -30105   -30223 
  -30201   -30232   -30281   -30345   -30496   -30630   -30633   -30631 
  -30767   -30910   -30928   -30964   -31095   -31188   -31196   -31197 
  -31233   -31291   -31359   -31422   -31472   -31490   -31426   -31345 
  -31323   -31287   -31274   -31386   -31487   -31442   -31342   -31327 
  -31390   -31396   -31299   -31217   -31227   -31309   -31384   -31340 
  -31201   -31120   -31177   -31274   -31217   -31059   -31068   -31176 
  -31134   -31061   -31100   -31135   -31117   -31096   -31161   -31288 
  -31272   -31158   -31172   -31237   -31216   -31168   -31132   -31127 
  -31201   -31267   -31197   -31084   -31079   -31117   -31106   -31060 
  -30961   -30841   -30788   -30767   -30707   -30614   -30490   -30371 
  -30306   -30220   -30065   -29938   -29872   -29791   -29676   -29538 
  -29366   -29226   -29183   -29119   -28992   -28906   -28818   -28688 
  -28593   -28537   -28513   -28532   -28512   -28376   -28244   -28227 
  -28238   -28200   -28101   -28000   -28047   -28104   -27991   -28042 
  -28208   -27998   -27797   -27980   -28046   -27898   -27832   -27808 
  -27823   -27888   -27830   -27682   -27628   -27656   -27667   -27651 
  -27623   -27580   -27528   -27476   -27423   -27365   -27296   -27223 
  -27180   -27153   -27132   -27140   -27089   -26965   -26912   -26891 
  -26833   -26840   -26823   -26706   -26685   -26713   -26635   -26603 
  -26633   -26604   -26564   -26509   -26462   -26518   -26598   -26584 
  -26572   -26667   -26673   -26496   -26540   -26899   -27036   -26851 
  -26768   -26832   -26894   -27033   -27191   -27220   -27238   -27367 
  -27438   -27386   -27490   -27782   -27929   -27902   -27931   -28037 
  -28126   -28243   -28430   -28519   -28437   -28415   -28589   -28797 
  -28852   -28804   -28784   -28795   -28860   -28996   -29061   -29022 
  -29023   -29057   -29044   -29066   -29224   -29386   -29345   -29220 
  -29217   -29285   -29364   -29413   -29436   -29490   -29469   -29471 
  -29676   -29793   -29698   -29641   -29607   -29547   -29649   -29911 
  -30083   -30049   -29936   -29883   -29940   -30027   -30058   -30091 
  -30144   -30126   -30068   -30082   -30162   -30192   -30153   -30168 
  -30240   -30238   -30152   -30133   -30210   -30226   -30175   -30162 
  -30142   -30068   -30012   -30045   -30083   -29999   -29911   -29919 
  -29911   -29887   -29894   -29881   -29857   -29849   -29882   -29928 
  -29830   -29695   -29818   -30017   -29986   -29867   -29814   -29770 
  -29798   -29930   -29948   -29791   -29691   -29680   -29630   -29604 
  -29617   -29579   -29505   -29433   -29403   -29368   -29251   -29195 
  -29266   -29294   -29244   -29194   -29181   -29183   -29111   -28980 
  -28906   -28965   -29124   -29193   -29110   -29051   -29041   -29003 
  -28944   -28909   -28972   -29054   -28998   -28862   -28775   -28795 
  -28941   -29078   -29041   -28900   -28775   -28721   -28843   -29037 
  -29033   -28879   -28772   -28738   -28787   -28922   -29011   -28950 
  -28820   -28786   -28887   -28975   -28930   -28867   -28892   -28884 
  -28856   -28971   -29024   -28868   -28821   -28943   -28975   -28940 
  -28955   -28976   -28955   -28901   -28856   -28858   -28927   -29005 
  -29017   -28998   -28937   -28886   -28981   -29062   -29030   -29079 
  -29177   -29140   -29039   -29056   -29155   -29180   -29136   -29110 
  -29153   -29257   -29314   -29295   -29247   -29164   -29121   -29196 
  -29274   -29269   -29296   -29366   -29311   -29172   -29164   -29247 
  -29245   -29190   -29158   -29143   -29202   -29315   -29272   -29064 
  -28959   -29030   -29155   -29257   -29225   -29106   -29075   -29053 
  -28984   -29006   -29061   -29003   -28960   -29054   -29134   -29098 
  -29018   -28952   -28954   -28993   -28981   -28970   -29017   -29075 
  -29120   -29126   -29074   -29063   -29187   -29361   -29394   -29275 
  -29197   -29279   -29464   -29619   -29627   -29560   -29645   -29825 
