Origin Time       2011/03/11 14:46:00
Lat.              38.103
Long.             142.860
Depth. (km)       24
Mag.              9.0
Station Code      WKY002
Station Lat.      34.2755
Station Long.     135.4306
Station Height(m) 59
Record Time       2011/03/11 14:49:55
Sampling Freq(Hz) 100Hz
Duration Time(s)  145
Dir.              E-W
Scale Factor      3920(gal)/6182761
Max. Acc. (gal)   2.937
Last Correction   2011/03/11 14:49:40
Memo.             
[...]
  -27533   -27459   -27379   -27293   -27212   -27124   -27041   -26969 
  -26892   -26813   -26738   -26671   -26615   -26566   -26512   -26443 
  -26380   -26338   -26287   -26232   -26184   -26126   -26069   -26022 
  -25972   -25927   -25893   -25865   -25834   -25813   -25825   -25849 
  -25872   -25906   -25948   -26006   -26073   -26142   -26221   -26291 
  -26360   -26446   -26524   -26599   -26690   -26780   -26864   -26954 
  -27045   -27148   -27259   -27348   -27431   -27527   -27613   -27694 
  -27777   -27843   -27900   -27963   -28020   -28061   -28108   -28163 
  -28194   -28221   -28261   -28292   -28320   -28348   -28378   -28410 
  -28433   -28450   -28461   -28460   -28452   -28443   -28427   -28397 
  -28356   -28317   -28276   -28224   -28174   -28126   -28067   -28021 
  -27978   -27915   -27864   -27820   -27766   -27721   -27688   -27655 
  -27616   -27581   -27550   -27511   -27480   -27459   -27428   -27400 
  -27379   -27359   -27348   -27339   -27326   -27314   -27307   -27303 
  -27304   -27314   -27330   -27340   -27347   -27352   -27353   -27358 
  -27358   -27347   -27341   -27336   -27335   -27340   -27336   -27328 
  -27314   -27298   -27296   -27290   -27277   -27273   -27268   -27251 
  -27233   -27221   -27204   -27183   -27161   -27133   -27122   -27127 
  -27118   -27107   -27101   -27102   -27108   -27092   -27079   -27082 
  -27068   -27057   -27045   -27015   -27000   -26992   -26973   -26966 
  -26963   -26956   -26959   -26966   -26972   -26966   -26944   -26924 
  -26902   -26877   -26855   -26822   -26773   -26725   -26672   -26612 
  -26569   -26520   -26452   -26397   -26350   -26300   -26251   -26193 
  -26142   -26106   -26066   -26026   -25993   -25969   -25953   -25944 
  -25943   -25952   -25984   -26035   -26084   -26143   -26228   -26327 
  -26435   -26558   -26690   -26832   -26991   -27155   -27308   -27454 
  -27595   -27721   -27840   -27952   -28047   -28122   -28182   -28234 
  -28265   -28277   -28277   -28259   -28232   -28198   -28161   -28132 
  -28091   -28050   -28025   -27983   -27934   -27897   -27860   -27833 
  -27807   -27759   -27711   -27685   -27661   -27618   -27572   -27539 
  -27515   -27504   -27492   -27474   -27470   -27474   -27480   -27503 
  -27531   -27564   -27612   -27660   -27708   -27773   -27841   -27896 
  -27948   -28000   -28050   -28113   -28169   -28215   -28272   -28333 
  -28389   -28434   -28464   -28486   -28510   -28550   -28589   -28616 
  -28639   -28657   -28667   -28684   -28709   -28714   -28708   -28701 
  -28695   -28695   -28674   -28635   -28611   -28588   -28551   -28501 
  -28446   -28400   -28347   -28279   -28218   -28157   -28094   -28045 
  -27988   -27919   -27850   -27762   -27670   -27597   -27510   -27400 
  -27298   -27202   -27099   -27008   -26924   -26840   -26765   -26683 
  -26605   -26550   -26492   -26432   -26367   -26287   -26226   -26192 
  -26156   -26117   -26070   -26005   -25946   -25918   -25910   -25913 
  -25897   -25861   -25845   -25845   -25850   -25854   -25844   -25837 
  -25829   -25808   -25796   -25800   -25819   -25844   -25852   -25859 
  -25895   -25943   -25984   -26044   -26114   -26170   -26228   -26289 
  -26342   -26415   -26512   -26604   -26672   -26704   -26743   -26836 
  -26956   -27038   -27078   -27126   -27201   -27293   -27383   -27447 
  -27500   -27558   -27620   -27681   -27722   -27754   -27796   -27838 
  -27866   -27883   -27909   -27945   -27979   -28000   -28009   -28033 
  -28072   -28100   -28111   -28122   -28174   -28249   -28300   -28347 
  -28387   -28404   -28425   -28444   -28446   -28437   -28407   -28378 
  -28366   -28330   -28254   -28180   -28123   -28068   -27994   -27896 
  -27799   -27719   -27650   -27555   -27433   -27330   -27236   -27136 
  -27041   -26932   -26827   -26752   -26687   -26610   -26541   -26497 
  -26449   -26396   -26348   -26276   -26189   -26121   -26106   -26121 
  -26077   -25960   -25843   -25773   -25771   -25795   -25783   -25761 
  -25770   -25790   -25784   -25730   -25665   -25663   -25751   -25880 
  -25968   -25981   -25957   -25971   -26041   -26121   -26178   -26213 
  -26243   -26268   -26275   -26276   -26287   -26305   -26303   -26266 
  -26245   -26261   -26260   -26214   -26171   -26169   -26171   -26166 
  -26180   -26187   -26188   -26224   -26285   -26332   -26355   -26374 
  -26416   -26496   -26602   -26696   -26770   -26849   -26953   -27079 
  -27195   -27300   -27414   -27526   -27636   -27764   -27896   -28011 
  -28117   -28232   -28337   -28431   -28537   -28641   -28725   -28802 
  -28883   -28970   -29047   -29088   -29110   -29177   -29284   -29346 
  -29352   -29361   -29374   -29412   -29497   -29541   -29526   -29520 
  -29506   -29486   -29484   -29512   -29547   -29449   -29330   -29485 
  -29581   -29356   -29361   -29578   -29473   -29365   -29505   -29535 
  -29509   -29539   -29475   -29427   -29470   -29495   -29467   -29393 
  -29336   -29316   -29309   -29301   -29198   -29082   -29083   -29053 
  -28957   -28898   -28857   -28824   -28717   -28548   -28578   -28621 
  -28380   -28271   -28368   -28208   -28013   -28038   -27959   -27820 
  -27766   -27633   -27497   -27438   -27367   -27306   -27251   -27181 
  -27120   -27066   -27058   -27056   -26995   -26960   -26969   -26945 
  -26916   -26904   -26868   -26837   -26828   -26810   -26807   -26821 
  -26820   -26824   -26848   -26862   -26880   -26914   -26927   -26934 
  -26975   -27008   -27002   -26994   -27008   -27040   -27077   -27084 
  -27050   -27042   -27084   -27086   -27056   -27067   -27083   -27083 
  -27084   -27093   -27121   -27136   -27131   -27136   -27137   -27134 
  -27134   -27125   -27132   -27158   -27179   -27207   -27240   -27249 
  -27253   -27291   -27345   -27388   -27438   -27498   -27570   -27654 
  -27732   -27830   -27944   -28034   -28144   -28285   -28407   -28522 
  -28645   -28759   -28874   -28986   -29086   -29186   -29283   -29369 
  -29460   -29554   -29625   -29670   -29720   -29771   -29797   -29817 
  -29847   -29863   -29871   -29880   -29883   -29879   -29870   -29870 
  -29873   -29845   -29781   -29720   -29690   -29667   -29592   -29491 
  -29431   -29364   -29254   -29145   -29053   -28968   -28849   -28694 
  -28589   -28514   -28380   -28201   -28049   -27962   -27889   -27747 
  -27587   -27494   -27417   -27314   -27203   -27091   -26995   -26913 
  -26821   -26741   -26690   -26621   -26511   -26428   -26378   -26309 
  -26226   -26129   -26022   -25957   -25904   -25806   -25701   -25642 
  -25589   -25485   -25382   -25355   -25355   -25285   -25136   -25041 
  -25100   -25186   -25159   -25064   -25016   -25064   -25156   -25203 
  -25180   -25155   -25201   -25252   -25252   -25257   -25279   -25304 
  -25345   -25388   -25427   -25457   -25468   -25490   -25521   -25529 
  -25537   -25568   -25594   -25586   -25574   -25620   -25707   -25751 
  -25764   -25814   -25890   -25979   -26100   -26219   -26311   -26418 
  -26579   -26754   -26880   -26989   -27135   -27295   -27446   -27569 
  -27671   -27792   -27930   -28040   -28114   -28188   -28266   -28317 
  -28369   -28433   -28476   -28516   -28555   -28572   -28590   -28601 
  -28596   -28611   -28637   -28658   -28687   -28714   -28732   -28763 
  -28798   -28812   -28826   -28861   -28890   -28898   -28912   -28940 
  -28955   -28967   -28992   -29017   -29036   -29046   -29046   -29053 
  -29063   -29067   -29055   -29033   -29024   -29007   -28971   -28936 
  -28884   -28809   -28725   -28637   -28565   -28499   -28414   -28331 
  -28253   -28169   -28087   -27995   -27892   -27794   -27690   -27595 
  -27517   -27428   -27334   -27260   -27194   -27120   -27055   -27006 
  -26952   -26893   -26836   -26784   -26741   -26695   -26635   -26578 
  -26519   -26441   -26350   -26270   -26194   -26104   -26010   -25915 
  -25809   -25707   -25610   -25503   -25403   -25309   -25210   -25125 
  -25051   -24974   -24906   -24851   -24807   -24765   -24723   -24704 
  -24695   -24680   -24686   -24705   -24707   -24718   -24748   -24800 
  -24868   -24904   -24936   -25021   -25099   -25148   -25209   -25268 
  -25319   -25383   -25454   -25528   -25595   -25656   -25723   -25778 
  -25831   -25899   -25970   -26041   -26105   -26160   -26230   -26304 
  -26356   -26388   -26417   -26454   -26487   -26524   -26567   -26571 
  -26549   -26560   -26582   -26589   -26585   -26563   -26542   -26530 
  -26522   -26521   -26503   -26468   -26452   -26455   -26441   -26415 
  -26395   -26386   -26380   -26355   -26321   -26297   -26263   -26217 
  -26181   -26143   -26095   -26064   -26045   -26022   -26009   -26004 
  -25994   -25995   -26013   -26024   -26047   -26105   -26181   -26246 
  -26281   -26313   -26376   -26455   -26539   -26616   -26676   -26746 
  -26829   -26910   -26988   -27055   -27132   -27220   -27291   -27355 
  -27420   -27492   -27553   -27579   -27624   -27699   -27752   -27813 
  -27871   -27882   -27893   -27941   -28009   -28053   -28058   -28059 
  -28067   -28085   -28130   -28169   -28171   -28160   -28175   -28203 
  -28197   -28155   -28125   -28114   -28106   -28088   -28069   -28056 
  -28026   -27995   -27966   -27922   -27898   -27899   -27890   -27881 
  -27879   -27864   -27848   -27840   -27845   -27864   -27874   -27878 
  -27888   -27901   -27919   -27924   -27916   -27927   -27921   -27880 
  -27856   -27840   -27800   -27746   -27678   -27617   -27563   -27476 
  -27388   -27321   -27234   -27137   -27048   -26958   -26861   -26765 
  -26684   -26611   -26529   -26428   -26313   -26231   -26164   -26058 
  -25960   -25901   -25821   -25714   -25611   -25529   -25450   -25339 
  -25235   -25165   -25087   -24995   -24911   -24837   -24752   -24677 
  -24644   -24614   -24563   -24514   -24491   -24483   -24461   -24461 
  -24484   -24499   -24531   -24584   -24639   -24690   -24729   -24781 
  -24850   -24905   -24967   -25024   -25062   -25119   -25193   -25266 
  -25352   -25420   -25457   -25509   -25579   -25632   -25666   -25707 
  -25761   -25819   -25884   -25927   -25924   -25916   -25926   -25949 
  -25973   -25966   -25952   -25964   -25970   -25977   -26000   -26022 
  -26052   -26096   -26131   -26163   -26213   -26278   -26351   -26425 
  -26500   -26589   -26683   -26780   -26874   -26965   -27062   -27151 
  -27231   -27317   -27414   -27509   -27597   -27695   -27795   -27882 
  -27973   -28070   -28165   -28266   -28367   -28451   -28524   -28606 
  -28684   -28755   -28819   -28877   -28943   -29000   -29030   -29034 
  -29026   -29037   -29043   -29012   -28973   -28945   -28926   -28892 
  -28819   -28748   -28703   -28652   -28585   -28504   -28415   -28346 
  -28290   -28214   -28120   -28033   -27957   -27884   -27823   -27767 
  -27697   -27645   -27617   -27572   -27471   -27293   -27156   -27190 
  -27299   -27308   -27179   -27022   -26960   -26970   -26964   -26910 
  -26855   -26881   -26975   -27017   -26939   -26831   -26792   -26801 
  -26844   -26914   -26927   -26872   -26830   -26828   -26833   -26838 
  -26861   -26864   -26830   -26812   -26821   -26849   -26883   -26867 
  -26825   -26841   -26902   -26928   -26886   -26841   -26855   -26890 
  -26902   -26904   -26894   -26871   -26856   -26857   -26887   -26930 
  -26953   -26980   -27034   -27090   -27137   -27190   -27258   -27346 
  -27452   -27557   -27650   -27753   -27862   -27957   -28039   -28127 
  -28233   -28328   -28386   -28426   -28465   -28508   -28551   -28591 
  -28625   -28634   -28627   -28621   -28619   -28630   -28656   -28671 
  -28651   -28616   -28595   -28586   -28580   -28562   -28527   -28479 
  -28415   -28339   -28271   -28217   -28156   -28081   -27987   -27862 
  -27735   -27634   -27536   -27420   -27265   -27079   -26900   -26733 
  -26568   -26405   -26225   -26037   -25856   -25685   -25534   -25386 
  -25216   -25047   -24915   -24803   -24677   -24541   -24437   -24372 
  -24321   -24273   -24230   -24195   -24167   -24142   -24149   -24184 
  -24207   -24225   -24260   -24286   -24308   -24343   -24380   -24430 
  -24492   -24542   -24606   -24684   -24738   -24793   -24879   -24980 
  -25073   -25157   -25243   -25332   -25415   -25498   -25585   -25663 
  -25732   -25818   -25901   -25956   -25997   -26020   -26023   -26018 
  -26013   -26015   -26006   -25974   -25935   -25883   -25815   -25751 
  -25696   -25640   -25594   -25549   -25500   -25457   -25404   -25356 
  -25327   -25285   -25244   -25227   -25212   -25189   -25160   -25150 
  -25160   -25157   -25165   -25191   -25201   -25228   -25280   -25322 
  -25369   -25423   -25469   -25531   -25604   -25674   -25770   -25886 
  -25985   -26089   -26208   -26328   -26459   -26595   -26740   -26885 
  -27008   -27130   -27260   -27389   -27513   -27632   -27738   -27813 
  -27881   -27956   -28014   -28057   -28085   -28102   -28119   -28128 
  -28133   -28145   -28163   -28181   -28184   -28194   -28212   -28211 
  -28222   -28251   -28268   -28286   -28302   -28316   -28332   -28336 
  -28331   -28324   -28311   -28293   -28268   -28238   -28194   -28135 
  -28083   -28015   -27939   -27878   -27793   -27704   -27642   -27561 
  -27465   -27364   -27235   -27094   -26963   -26861   -26782   -26701 
  -26598   -26451   -26291   -26155   -26016   -25872   -25735   -25583 
  -25440   -25320   -25181   -25030   -24881   -24715   -24555   -24431 
  -24319   -24190   -24057   -23933   -23819   -23719   -23628   -23518 
  -23393   -23279   -23180   -23103   -23044   -22971   -22879   -22809 
  -22758   -22703   -22656   -22604   -22554   -22532   -22511   -22483 
  -22479   -22493   -22514   -22528   -22532   -22547   -22572   -22598 
  -22622   -22650   -22697   -22742   -22777   -22827   -22873   -22906 
  -22938   -22967   -23000   -23044   -23081   -23110   -23147   -23180 
  -23198   -23227   -23276   -23309   -23343   -23400   -23448   -23496 
  -23552   -23604   -23671   -23739   -23785   -23839   -23922   -24000 
  -24063   -24145   -24216   -24256   -24312   -24389   -24461   -24518 
  -24583   -24659   -24722   -24788   -24869   -24955   -25036   -25092 
  -25145   -25215   -25291   -25375   -25438   -25490   -25555   -25604 
  -25660   -25726   -25764   -25795   -25838   -25893   -25957   -26015 
  -26076   -26131   -26185   -26253   -26317   -26389   -26470   -26544 
  -26630   -26722   -26812   -26903   -26970   -27031   -27099   -27150 
  -27188   -27221   -27252   -27279   -27291   -27290   -27274   -27258 
  -27245   -27219   -27204   -27198   -27165   -27137   -27112   -27067 
  -27018   -26959   -26907   -26868   -26821   -26779   -26728   -26671 
  -26612   -26549   -26517   -26485   -26432   -26387   -26326   -26275 
  -26232   -26158   -26100   -26048   -25986   -25935   -25879   -25821 
  -25765   -25707   -25660   -25608   -25559   -25515   -25468   -25425 
  -25389   -25368   -25347   -25317   -25299   -25276   -25244   -25232 
  -25218   -25199   -25190   -25173   -25153   -25139   -25125   -25121 
  -25128   -25140   -25147   -25147   -25155   -25180   -25196   -25197 
  -25201   -25208   -25211   -25209   -25205   -25194   -25181   -25154 
  -25110   -25078   -25050   -25002   -24964   -24932   -24897   -24869 
  -24835   -24795   -24765   -24742   -24732   -24729   -24721   -24722 
  -24730   -24733   -24728   -24739   -24777   -24803   -24840   -24908 
  -24960   -25013   -25099   -25196   -25300   -25426   -25575   -25724 
  -25873   -26035   -26208   -26394   -26597   -26798   -26987   -27173 
  -27357   -27529   -27703   -27881   -28032   -28160   -28293   -28427 
  -28538   -28626   -28704   -28771   -28825   -28868   -28903   -28935 
  -28961   -28972   -28979   -28969   -28939   -28903   -28869   -28839 
  -28789   -28710   -28635   -28567   -28483   -28385   -28284   -28188 
  -28090   -27992   -27883   -27759   -27655   -27575   -27483   -27386 
  -27288   -27180   -27085   -26990   -26898   -26833   -26777   -26718 
  -26662   -26605   -26558   -26524   -26486   -26458   -26439   -26409 
  -26400   -26398   -26371   -26354   -26347   -26334   -26327   -26300 
  -26267   -26259   -26237   -26202   -26176   -26150   -26130   -26106 
  -26062   -26027   -26000   -25964   -25929   -25894   -25866   -25853 
  -25830   -25802   -25792   -25783   -25769   -25768   -25800   -25835 
  -25837   -25850   -25867   -25869   -25921   -25992   -26040   -26104 
  -26182   -26252   -26324   -26411   -26492   -26561   -26661   -26765 
  -26839   -26909   -26982   -27055   -27125   -27199   -27279   -27336 
  -27390   -27459   -27514   -27571   -27638   -27691   -27730   -27777 
  -27840   -27890   -27923   -27973   -28021   -28069   -28125   -28156 
  -28175   -28207   -28233   -28248   -28268   -28287   -28290   -28289 
  -28288   -28277   -28264   -28242   -28213   -28195   -28172   -28144 
  -28122   -28092   -28066   -28053   -28038   -28013   -27986   -27977 
  -27967   -27945   -27927   -27904   -27872   -27842   -27809   -27768 
  -27736   -27703   -27642   -27587   -27558   -27516   -27479   -27461 
  -27423   -27394   -27396   -27388   -27371   -27370   -27377   -27379 
  -27387   -27396   -27384   -27375   -27376   -27359   -27353   -27352 
  -27320   -27287   -27252   -27208   -27180   -27139   -27076   -27014 
  -26952   -26890   -26836   -26789   -26749   -26695   -26632   -26583 
  -26538   -26495   -26453   -26402   -26341   -26277   -26223   -26177 
  -26134   -26080   -26010   -25945   -25892   -25837   -25776   -25718 
  -25675   -25632   -25584   -25537   -25505   -25501   -25476   -25447 
  -25455   -25440   -25436   -25466   -25465   -25483   -25541   -25591 
  -25636   -25677   -25726   -25790   -25851   -25923   -26002   -26080 
  -26167   -26236   -26300   -26381   -26460   -26550   -26640   -26705 
  -26777   -26868   -26951   -27016   -27094   -27181   -27241   -27309 
  -27387   -27432   -27474   -27540   -27591   -27621   -27658   -27684 
  -27689   -27705   -27729   -27750   -27774   -27780   -27772   -27773 
  -27781   -27776   -27758   -27741   -27721   -27686   -27665   -27647 
  -27603   -27575   -27546   -27485   -27438   -27399   -27347   -27291 
  -27236   -27193   -27152   -27106   -27061   -27017   -26973   -26923 
  -26886   -26866   -26836   -26799   -26770   -26741   -26711   -26700 
  -26690   -26649   -26611   -26593   -26554   -26499   -26448   -26384 
  -26322   -26275   -26228   -26175   -26108   -26041   -25986   -25920 
  -25861   -25834   -25805   -25760   -25721   -25684   -25636   -25596 
  -25581   -25550   -25510   -25491   -25470   -25456   -25449   -25418 
  -25389   -25357   -25317   -25312   -25309   -25290   -25286   -25278 
  -25263   -25266   -25280   -25282   -25284   -25315   -25347   -25375 
  -25432   -25479   -25510   -25564   -25634   -25715   -25799   -25864 
  -25934   -26024   -26120   -26216   -26297   -26375   -26450   -26512 
  -26582   -26664   -26748   -26839   -26926   -26995   -27048   -27098 
  -27148   -27210   -27291   -27364   -27446   -27543   -27610   -27667 
  -27726   -27771   -27827   -27896   -27974   -28055   -28123   -28177 
  -28207   -28225   -28256   -28300   -28346   -28382   -28407   -28424 
  -28457   -28492   -28494   -28509   -28544   -28567   -28600   -28632 
  -28651   -28672   -28684   -28690   -28703   -28716   -28715   -28702 
  -28707   -28709   -28684   -28680   -28680   -28635   -28608   -28618 
  -28599   -28574   -28579   -28570   -28547   -28532   -28514   -28495 
