Origin Time       2011/03/11 14:46:00
Lat.              38.103
Long.             142.860
Depth. (km)       24
Mag.              9.0
Station Code      WKY002
Station Lat.      34.2755
Station Long.     135.4306
Station Height(m) 59
Record Time       2011/03/11 14:49:55
Sampling Freq(Hz) 100Hz
Duration Time(s)  145
Dir.              U-D
Scale Factor      3920(gal)/6182761
Max. Acc. (gal)   2.017
Last Correction   2011/03/11 14:49:40
Memo.             
[...]
   -9243    -9251    -9249    -9257    -9262    -9259    -9272    -9292 
   -9301    -9309    -9317    -9319    -9318    -9322    -9323    -9318 
   -9315    -9303    -9285    -9279    -9267    -9245    -9248    -9251 
   -9228    -9215    -9209    -9192    -9183    -9177    -9166    -9160 
   -9148    -9131    -9120    -9102    -9084    -9073    -9049    -9026 
   -9014    -8993    -8978    -8973    -8958    -8950    -8952    -8939 
   -8931    -8932    -8926    -8926    -8926    -8921    -8924    -8933 
   -8947    -8959    -8962    -8974    -8988    -8995    -9006    -9025 
   -9042    -9058    -9084    -9117    -9145    -9167    -9192    -9228 
   -9263    -9287    -9319    -9368    -9412    -9455    -9501    -9538 
   -9576    -9617    -9654    -9695    -9732    -9759    -9780    -9798 
   -9821    -9848    -9864    -9877    -9903    -9926    -9937    -9946 
   -9951    -9950    -9949    -9942    -9929    -9917    -9910    -9885 
   -9846    -9829    -9809    -9767    -9742    -9723    -9682    -9656 
   -9650    -9638    -9634    -9647    -9661    -9674    -9699    -9739 
   -9779    -9818    -9866    -9905    -9945   -10001   -10050   -10091 
  -10142   -10186   -10215   -10247   -10285   -10313   -10335   -10350 
  -10359   -10381   -10410   -10423   -10427   -10426   -10421   -10435 
  -10458   -10470   -10487   -10499   -10501   -10515   -10531   -10545 
  -10554   -10543   -10530   -10526   -10514   -10499   -10477   -10427 
  -10360   -10313   -10272   -10214   -10148   -10070    -9988    -9914 
   -9846    -9782    -9716    -9649    -9582    -9527    -9497    -9476 
   -9455    -9438    -9429    -9436    -9459    -9482    -9500    -9520 
   -9546    -9577    -9605    -9637    -9678    -9715    -9745    -9771 
   -9803    -9845    -9874    -9890    -9914    -9942    -9971   -10006 
  -10037   -10066   -10096   -10115   -10149   -10194   -10228   -10259 
  -10288   -10319   -10345   -10361   -10384   -10401   -10403   -10413 
  -10422   -10421   -10419   -10416   -10410   -10409   -10400   -10383 
  -10378   -10381   -10375   -10362   -10355   -10348   -10341   -10341 
  -10341   -10342   -10346   -10346   -10348   -10362   -10378   -10389 
  -10401   -10410   -10418   -10431   -10443   -10457   -10476   -10495 
  -10508   -10516   -10533   -10554   -10563   -10574   -10580   -10575 
  -10582   -10583   -10568   -10561   -10556   -10544   -10536   -10520 
  -10496   -10479   -10454   -10420   -10394   -10365   -10323   -10284 
  -10254   -10214   -10162   -10125   -10096   -10069   -10046   -10013 
   -9985    -9979    -9969    -9955    -9961    -9959    -9948    -9962 
   -9987   -10005   -10028   -10054   -10075   -10103   -10149   -10207 
  -10250   -10277   -10321   -10382   -10436   -10490   -10544   -10601 
  -10665   -10722   -10776   -10831   -10883   -10943   -10998   -11043 
  -11095   -11142   -11175   -11213   -11256   -11284   -11304   -11341 
  -11379   -11405   -11430   -11458   -11480   -11498   -11509   -11512 
  -11512   -11507   -11494   -11470   -11437   -11415   -11387   -11342 
  -11293   -11245   -11202   -11165   -11125   -11089   -11053   -11019 
  -10996   -10970   -10948   -10942   -10936   -10926   -10925   -10929 
  -10932   -10932   -10941   -10957   -10971   -10986   -11005   -11019 
  -11033   -11051   -11067   -11071   -11070   -11080   -11088   -11080 
  -11068   -11059   -11050   -11038   -11024   -11011   -10998   -10981 
  -10960   -10947   -10940   -10923   -10903   -10893   -10881   -10873 
  -10871   -10867   -10869   -10865   -10851   -10855   -10864   -10853 
  -10851   -10859   -10854   -10846   -10836   -10820   -10811   -10800 
  -10778   -10753   -10732   -10713   -10697   -10688   -10686   -10679 
  -10668   -10672   -10676   -10673   -10686   -10699   -10704   -10717 
  -10731   -10737   -10743   -10749   -10751   -10754   -10758   -10752 
  -10739   -10732   -10728   -10706   -10671   -10650   -10634   -10604 
  -10578   -10563   -10547   -10516   -10468   -10454   -10495   -10498 
  -10441   -10402   -10378   -10346   -10336   -10337   -10284   -10215 
  -10213   -10166   -10057   -10030   -10007    -9926    -9872    -9832 
   -9775    -9727    -9691    -9652    -9621    -9617    -9593    -9552 
   -9562    -9579    -9566    -9590    -9649    -9691    -9722    -9781 
   -9869    -9951   -10028   -10100   -10169   -10255   -10334   -10398 
  -10457   -10503   -10571   -10642   -10670   -10691   -10718   -10738 
  -10754   -10752   -10741   -10737   -10731   -10720   -10706   -10683 
  -10653   -10616   -10583   -10553   -10516   -10474   -10419   -10352 
  -10302   -10264   -10211   -10145   -10079   -10028    -9988    -9936 
   -9879    -9822    -9775    -9736    -9679    -9616    -9562    -9511 
   -9453    -9386    -9325    -9266    -9200    -9142    -9092    -9036 
   -8981    -8939    -8905    -8864    -8828    -8811    -8803    -8791 
   -8774    -8788    -8842    -8895    -8950    -9018    -9089    -9180 
   -9271    -9364    -9485    -9590    -9679    -9785    -9888    -9994 
  -10101   -10180   -10250   -10337   -10414   -10469   -10529   -10586 
  -10616   -10643   -10687   -10716   -10718   -10728   -10732   -10734 
  -10764   -10776   -10758   -10768   -10790   -10781   -10774   -10788 
  -10795   -10790   -10792   -10797   -10795   -10786   -10773   -10766 
  -10773   -10779   -10757   -10740   -10755   -10757   -10751   -10779 
  -10792   -10785   -10809   -10831   -10841   -10875   -10902   -10891 
  -10891   -10939   -10992   -11004   -11004   -11021   -11036   -11055 
  -11089   -11112   -11112   -11108   -11109   -11111   -11115   -11107 
  -11086   -11086   -11102   -11102   -11077   -11051   -11048   -11057 
  -11054   -11052   -11066   -11078   -11064   -11054   -11076   -11069 
  -11032   -11028   -11025   -11016   -11026   -11002   -10947   -10917 
  -10898   -10869   -10828   -10784   -10755   -10711   -10641   -10579 
  -10532   -10498   -10468   -10426   -10391   -10365   -10350   -10347 
  -10333   -10326   -10337   -10342   -10354   -10371   -10379   -10393 
  -10410   -10422   -10443   -10466   -10483   -10503   -10513   -10506 
  -10507   -10518   -10526   -10533   -10539   -10540   -10522   -10503 
  -10503   -10494   -10465   -10454   -10454   -10433   -10405   -10382 
  -10354   -10354   -10377   -10376   -10380   -10387   -10380   -10398 
  -10405   -10431   -10494   -10454   -10433   -10558   -10577   -10528 
  -10587   -10609   -10644   -10692   -10631   -10678   -10759   -10699 
  -10716   -10750   -10717   -10746   -10741   -10679   -10651   -10632 
  -10614   -10563   -10489   -10452   -10403   -10357   -10321   -10198 
  -10113   -10111    -9998    -9891    -9925    -9879    -9740    -9669 
   -9624    -9629    -9638    -9553    -9555    -9583    -9524    -9579 
   -9647    -9625    -9655    -9688    -9704    -9761    -9808    -9832 
   -9862    -9900    -9931    -9952    -9981   -10000   -10002   -10016 
  -10029   -10018   -10005    -9988    -9954    -9925    -9896    -9859 
   -9829    -9786    -9739    -9709    -9672    -9632    -9616    -9596 
   -9560    -9530    -9507    -9506    -9524    -9504    -9461    -9461 
   -9496    -9528    -9545    -9549    -9565    -9609    -9655    -9703 
   -9765    -9825    -9877    -9938   -10017   -10101   -10168   -10215 
  -10262   -10312   -10359   -10411   -10455   -10481   -10495   -10501 
  -10507   -10508   -10497   -10477   -10446   -10399   -10353   -10321 
  -10276   -10205   -10143   -10094   -10035    -9964    -9897    -9836 
   -9779    -9717    -9650    -9592    -9532    -9465    -9407    -9347 
   -9281    -9223    -9166    -9119    -9082    -9035    -8992    -8955 
   -8923    -8908    -8897    -8891    -8901    -8910    -8917    -8931 
   -8943    -8955    -8975    -9002    -9025    -9044    -9082    -9135 
   -9185    -9237    -9278    -9315    -9364    -9398    -9424    -9463 
   -9489    -9500    -9508    -9528    -9548    -9533    -9515    -9518 
   -9515    -9520    -9531    -9522    -9511    -9514    -9516    -9519 
   -9538    -9557    -9562    -9584    -9627    -9666    -9704    -9734 
   -9751    -9796    -9856    -9892    -9923    -9970   -10017   -10060 
  -10106   -10140   -10151   -10160   -10175   -10182   -10207   -10241 
  -10233   -10196   -10179   -10213   -10273   -10298   -10268   -10232 
  -10250   -10304   -10332   -10340   -10339   -10336   -10360   -10380 
  -10382   -10397   -10400   -10385   -10391   -10394   -10380   -10369 
  -10354   -10326   -10295   -10274   -10262   -10231   -10187   -10156 
  -10136   -10121   -10110   -10089   -10052   -10031   -10048   -10070 
  -10070   -10068   -10076   -10092   -10106   -10105   -10096   -10099 
  -10109   -10111   -10110   -10112   -10127   -10144   -10148   -10160 
  -10184   -10201   -10214   -10227   -10239   -10251   -10263   -10274 
  -10278   -10289   -10311   -10316   -10324   -10353   -10371   -10373 
  -10380   -10399   -10420   -10428   -10438   -10455   -10459   -10456 
  -10460   -10465   -10459   -10442   -10430   -10426   -10418   -10398 
  -10367   -10334   -10307   -10274   -10232   -10196   -10163   -10126 
  -10091   -10051   -10003    -9952    -9907    -9866    -9821    -9777 
   -9738    -9698    -9654    -9615    -9589    -9562    -9530    -9511 
   -9513    -9518    -9501    -9495    -9534    -9560    -9565    -9600 
   -9625    -9631    -9662    -9689    -9705    -9732    -9756    -9779 
   -9804    -9820    -9832    -9851    -9867    -9871    -9883    -9899 
   -9899    -9893    -9897    -9894    -9881    -9870    -9855    -9838 
   -9837    -9836    -9834    -9828    -9789    -9755    -9773    -9793 
   -9773    -9760    -9784    -9790    -9774    -9791    -9809    -9792 
   -9789    -9809    -9807    -9792    -9788    -9790    -9788    -9781 
   -9769    -9760    -9759    -9757    -9750    -9742    -9731    -9723 
   -9715    -9704    -9694    -9690    -9683    -9663    -9633    -9618 
   -9621    -9625    -9636    -9645    -9646    -9659    -9666    -9682 
   -9738    -9793    -9835    -9891    -9949   -10034   -10137   -10210 
  -10301   -10427   -10539   -10650   -10762   -10853   -10952   -11067 
  -11171   -11265   -11357   -11447   -11540   -11627   -11696   -11753 
  -11802   -11842   -11880   -11900   -11893   -11876   -11846   -11798 
  -11743   -11693   -11644   -11576   -11499   -11439   -11369   -11281 
  -11214   -11177   -11132   -11066   -11009   -10972   -10938   -10902 
  -10889   -10880   -10848   -10837   -10844   -10831   -10821   -10820 
  -10833   -10866   -10877   -10865   -10871   -10884   -10887   -10894 
  -10893   -10874   -10865   -10876   -10870   -10842   -10818   -10808 
  -10796   -10773   -10745   -10711   -10675   -10648   -10626   -10596 
  -10558   -10523   -10482   -10434   -10384   -10341   -10308   -10271 
  -10220   -10153   -10078   -10027    -9992    -9954    -9914    -9869 
   -9837    -9823    -9807    -9799    -9791    -9776    -9766    -9745 
   -9735    -9800    -9834    -9759    -9761    -9850    -9827    -9796 
   -9866    -9878    -9850    -9875    -9887    -9886    -9908    -9909 
   -9926   -10022   -10047    -9942    -9947   -10053   -10036    -9989 
  -10020   -10014    -9973    -9975    -9963    -9908    -9877    -9852 
   -9801    -9762    -9701    -9603    -9551    -9492    -9372    -9308 
   -9274    -9153    -9034    -8991    -8945    -8822    -8714    -8710 
   -8671    -8552    -8502    -8496    -8430    -8362    -8328    -8285 
   -8256    -8236    -8178    -8159    -8172    -8129    -8121    -8156 
   -8132    -8115    -8152    -8176    -8179    -8190    -8208    -8227 
   -8256    -8295    -8328    -8346    -8363    -8399    -8449    -8491 
   -8532    -8583    -8615    -8647    -8735    -8807    -8808    -8840 
   -8911    -8947    -8977    -9012    -9037    -9082    -9122    -9126 
   -9139    -9168    -9184    -9190    -9200    -9199    -9184    -9178 
   -9168    -9134    -9106    -9083    -9062    -9043    -9001    -8948 
   -8896    -8850    -8830    -8804    -8749    -8722    -8716    -8683 
   -8642    -8619    -8610    -8595    -8577    -8596    -8610    -8563 
   -8551    -8606    -8633    -8626    -8650    -8694    -8722    -8738 
   -8762    -8783    -8794    -8808    -8833    -8857    -8882    -8896 
   -8915    -8973    -9015    -9031    -9084    -9124    -9129    -9192 
   -9280    -9303    -9350    -9460    -9506    -9509    -9574    -9656 
   -9721    -9764    -9799    -9887    -9955    -9944    -9958   -10041 
  -10110   -10132   -10162   -10186   -10163   -10189   -10233   -10212 
  -10224   -10245   -10200   -10199   -10234   -10193   -10127   -10093 
  -10056   -10016    -9963    -9881    -9827    -9794    -9727    -9666 
   -9607    -9511    -9448    -9424    -9363    -9291    -9222    -9142 
   -9092    -9061    -9000    -8931    -8870    -8824    -8794    -8732 
   -8656    -8621    -8596    -8551    -8501    -8460    -8418    -8368 
   -8341    -8329    -8281    -8231    -8222    -8209    -8175    -8163 
   -8162    -8128    -8077    -8050    -8041    -8021    -7993    -7959 
   -7928    -7912    -7904    -7885    -7863    -7851    -7845    -7833 
   -7818    -7812    -7800    -7788    -7794    -7791    -7773    -7771 
   -7776    -7772    -7784    -7803    -7808    -7819    -7837    -7842 
   -7845    -7850    -7849    -7852    -7853    -7839    -7835    -7840 
   -7827    -7810    -7804    -7800    -7787    -7759    -7731    -7710 
   -7675    -7631    -7593    -7543    -7486    -7436    -7381    -7333 
   -7281    -7215    -7167    -7125    -7069    -7028    -6992    -6954 
   -6939    -6925    -6912    -6916    -6919    -6933    -6972    -7007 
   -7037    -7090    -7157    -7227    -7298    -7365    -7442    -7528 
   -7612    -7706    -7789    -7851    -7927    -8008    -8072    -8126 
   -8186    -8249    -8285    -8297    -8315    -8333    -8342    -8347 
   -8349    -8337    -8321    -8316    -8306    -8276    -8254    -8242 
   -8213    -8186    -8184    -8178    -8162    -8153    -8158    -8167 
   -8172    -8184    -8218    -8252    -8266    -8295    -8354    -8406 
   -8446    -8491    -8542    -8604    -8665    -8720    -8788    -8853 
   -8892    -8940    -9001    -9040    -9070    -9095    -9111    -9131 
   -9148    -9162    -9166    -9160    -9162    -9170    -9174    -9176 
   -9170    -9163    -9161    -9158    -9155    -9154    -9157    -9154 
   -9158    -9170    -9169    -9174    -9194    -9200    -9192    -9189 
   -9190    -9187    -9180    -9175    -9169    -9155    -9136    -9119 
   -9102    -9087    -9072    -9052    -9028    -9012    -8998    -8978 
   -8962    -8940    -8920    -8916    -8905    -8880    -8861    -8844 
   -8826    -8811    -8795    -8775    -8760    -8754    -8755    -8756 
   -8758    -8762    -8770    -8783    -8797    -8806    -8830    -8868 
   -8898    -8915    -8931    -8946    -8957    -8969    -8993    -9019 
   -9036    -9046    -9048    -9056    -9067    -9061    -9061    -9069 
   -9067    -9076    -9090    -9098    -9115    -9130    -9143    -9166 
   -9186    -9203    -9231    -9255    -9269    -9291    -9327    -9367 
   -9399    -9430    -9466    -9487    -9503    -9540    -9572    -9584 
   -9605    -9633    -9644    -9646    -9656    -9656    -9646    -9645 
   -9641    -9622    -9602    -9574    -9540    -9510    -9474    -9430 
   -9381    -9324    -9276    -9238    -9188    -9139    -9104    -9062 
   -9011    -8965    -8919    -8876    -8848    -8820    -8795    -8787 
   -8784    -8784    -8797    -8816    -8837    -8864    -8891    -8925 
   -8974    -9026    -9073    -9126    -9182    -9244    -9308    -9367 
   -9434    -9501    -9564    -9641    -9720    -9799    -9883    -9960 
  -10043   -10135   -10215   -10293   -10377   -10461   -10552   -10639 
  -10723   -10814   -10899   -10971   -11036   -11101   -11171   -11234 
  -11285   -11325   -11356   -11386   -11407   -11422   -11437   -11439 
  -11437   -11433   -11416   -11399   -11376   -11342   -11309   -11263 
  -11209   -11170   -11130   -11083   -11042   -10999   -10954   -10926 
  -10896   -10858   -10843   -10833   -10805   -10798   -10799   -10788 
  -10791   -10792   -10774   -10755   -10730   -10708   -10696   -10671 
  -10639   -10613   -10581   -10546   -10524   -10503   -10477   -10462 
  -10453   -10438   -10431   -10435   -10438   -10446   -10472   -10498 
  -10518   -10550   -10587   -10621   -10670   -10722   -10766   -10821 
  -10881   -10919   -10957   -11003   -11036   -11067   -11103   -11132 
  -11153   -11162   -11164   -11165   -11153   -11131   -11104   -11065 
  -11031   -10999   -10941   -10883   -10845   -10799   -10750   -10714 
  -10669   -10615   -10574   -10537   -10496   -10456   -10421   -10392 
  -10363   -10327   -10293   -10267   -10247   -10233   -10223   -10209 
  -10194   -10186   -10179   -10169   -10167   -10174   -10168   -10161 
  -10181   -10198   -10197   -10212   -10224   -10217   -10222   -10239 
  -10255   -10265   -10267   -10274   -10290   -10305   -10314   -10324 
  -10341   -10352   -10363   -10379   -10395   -10416   -10431   -10446 
  -10477   -10494   -10499   -10529   -10562   -10588   -10627   -10660 
  -10693   -10738   -10777   -10809   -10846   -10878   -10903   -10936 
  -10965   -10980   -10999   -11013   -11006   -11001   -10998   -10979 
  -10949   -10920   -10889   -10856   -10827   -10787   -10737   -10696 
  -10658   -10610   -10568   -10536   -10502   -10472   -10445   -10426 
  -10418   -10409   -10398   -10396   -10403   -10414   -10438   -10472 
  -10495   -10517   -10562   -10612   -10645   -10673   -10710   -10751 
  -10789   -10825   -10865   -10900   -10913   -10921   -10943   -10958 
  -10971   -10982   -10976   -10972   -10978   -10974   -10963   -10957 
  -10952   -10944   -10944   -10942   -10930   -10930   -10933   -10928 
  -10933   -10938   -10942   -10959   -10972   -10983   -11002   -11011 
  -11020   -11052   -11086   -11112   -11132   -11157   -11195   -11222 
  -11246   -11285   -11316   -11336   -11359   -11382   -11396   -11411 
  -11437   -11448   -11435   -11428   -11417   -11388   -11353   -11321 
  -11283   -11235   -11187   -11139   -11075   -11007   -10949   -10885 
  -10816   -10752   -10689   -10627   -10559   -10492   -10433   -10362 
  -10286   -10229   -10165   -10092   -10035    -9980    -9921    -9872 
   -9822    -9778    -9745    -9714    -9688    -9663    -9640    -9634 
   -9634    -9629    -9635    -9650    -9655    -9653    -9653    -9667 
   -9683    -9690    -9701    -9718    -9733    -9747    -9760    -9785 
   -9807    -9814    -9832    -9858    -9880    -9899    -9914    -9934 
   -9951    -9968    -9996   -10013   -10024   -10048   -10073   -10098 
  -10130   -10160   -10196   -10239   -10279   -10320   -10365   -10412 
  -10466   -10526   -10573   -10610   -10655   -10702   -10751   -10810 
  -10853   -10875   -10904   -10929   -10939   -10952   -10970   -10972 
  -10964   -10961   -10951   -10947   -10946   -10923   -10906   -10895 
  -10853   -10814   -10796   -10772   -10740   -10697   -10655   -10623 
  -10586   -10550   -10517   -10474   -10435   -10404   -10368   -10333 
  -10295   -10259   -10234   -10204   -10173   -10146   -10116   -10095 
  -10082   -10068   -10062   -10057   -10046   -10042   -10052   -10055 
  -10064   -10086   -10092   -10100   -10134   -10168   -10195   -10231 
  -10273   -10314   -10348   -10392   -10437   -10460   -10492   -10537 
  -10566   -10592   -10619   -10639   -10663   -10678   -10683   -10692 
