Origin Time       2011/03/11 14:46:00
Lat.              38.103
Long.             142.860
Depth. (km)       24
Mag.              9.0
Station Code      YMN008
Station Lat.      35.4319
Station Long.     138.3321
Station Height(m) 394
Record Time       2011/03/11 14:47:55
Sampling Freq(Hz) 100Hz
Duration Time(s)  239
Dir.              U-D
Scale Factor      3920(gal)/6182761
Max. Acc. (gal)   9.696
Last Correction   2011/03/11 14:47:40
Memo.             
[...]
    8014     7616     6610     4813     2652     1228     1109     1830 
    2617     3148     3709     4410     4703     4338     3891     3895 
    4352     4996     5569     6209     7368     8870     9733     9407 
    8355     7132     5943     5193     5227     5684     6126     6595 
    6966     6789     6192     5564     4369     2214      112    -1249 
   -2364    -3320    -3649    -3397    -2975    -2480    -1580     -169 
    1208     2205     3041     3677     3829     3443     2574     1559 
     915      479     -332    -1182    -1183     -664     -894    -2042 
   -3112    -3751    -4424    -5110    -5303    -4841    -4007    -3233 
   -2696    -2127    -1375     -762     -471     -262      -38        7 
    -255     -802    -1481    -2014    -2185    -2038    -1880    -1874 
   -1769    -1499    -1343    -1287    -1337    -1661    -1821    -1267 
    -189      913     1624     1832     1873     2012     2170     2430 
    3115     4150     4945     5039     4462     3782     3833     4764 
    5960     7208     8697    10150    11036    11263    11137    10729 
    9805     8581     7686     7236     6695     5590     4087     2619 
    1312      404      236      505      736      932     1049      874 
     543      324      255      399      873     1710     2819     3750 
    4059     3950     3838     3733     3440     2919     2334     1890 
    1660     1610     1605     1515     1382     1237     1030      828 
     622      394      375      743     1347     1849     2060     2161 
    2215     1930     1368     1032     1196     1861     2933     4131 
    5167     6014     6735     7287     7659     7841     7682     6962 
    5549     3539     1340     -394    -1086     -787      -97      709 
    1767     2858     3475     3499     3361     3540     3863     3752 
    3120     2238     1242      265     -596    -1397    -2166    -2865 
   -3518    -4173    -4649    -4571    -4012    -3567    -3293    -2601 
   -1778    -1668    -1743    -1137     -597     -901    -1304    -1132 
    -742     -338      302     1236     2431     3528     3864     3598 
    3644     4190     4533     4218     3497     2787     2120     1420 
     895      749      912     1172     1473     2017     2740     3183 
    3385     3867     4541     4919     4996     5061     5120     4848 
    4190     3684     3691     4018     4365     4384     3930     3478 
    3286     2999     2798     3334     4372     5097     5305     5287 
    5180     4731     3695     2443     1479      676     -294    -1370 
   -2121    -2184    -1871    -1893    -2264    -2351    -1944    -1361 
    -789     -230      303      877     1625     2576     3522     4196 
    4723     5329     5706     5426     4586     3702     3113     2557 
    1761     1069      610      -36     -675     -543      284      901 
     973     1028     1404     1791     1855     1744     1882     2598 
    3884     5290     6301     6913     7453     7776     7355     6353 
    5511     4778     3491     1880      769      162     -613    -1769 
   -2748    -3177    -3564    -4289    -4961    -5552    -6437    -7290 
   -7629    -7599    -7376    -6794    -5678    -4196    -2853    -2026 
   -1624    -1325     -950     -656     -734    -1029    -1046     -724 
    -368      -10      380      509      233      -82      -29      229 
      57     -877    -2117    -2991    -3467    -4024    -4675    -4762 
   -3984    -2994    -2523    -2450    -2183    -1548     -785        0 
     942     2119     3289     4135     4894     5933     6791     6757 
    5898     4690     3452     2366     1444      654      114     -195 
    -688    -1617    -2556    -3118    -3607    -4378    -5113    -5259 
   -4772    -4126    -3747    -3591    -3409    -3168    -2816    -2164 
   -1234     -187      845     1578     1881     2130     2576     3092 
    3651     4110     4143     3795     3235     2372     1300      502 
     257      236       81       46      511     1387     2420     3390 
    4025     4219     4111     3904     3743     3610     3486     3588 
    4066     4672     5219     5799     6291     6574     6983     7615 
    8028     8122     8195     8283     8460     9012     9687     9957 
   10104    10738    11614    12024    11803    11211    10424     9400 
    7926     6242     5399     5994     7202     8021     8413     8632 
    8563     7940     6798     5782     5372     5099     4526     4078 
    4163     4558     4966     5375     5792     6200     6639     7021 
    7265     7504     7683     7371     6303     4703     3010     1586 
     785      899     1803     3101     4367     5058     4988     4611 
    4325     4071     3667     3192     3006     3142     3196     3143 
    3379     3835     3863     3161     2139     1130       70     -747 
    -776     -184      551     1442     2396     2899     2754     2208 
    1590     1263     1372     1724     2162     2562     2746     2791 
    2898     3071     3365     3950     4740     5503     6219     6839 
    7156     7323     7788     8561     9364    10282    11347    12150 
   12699    13529    14568    15262    15743    16368    16621    15821 
   14284    12883    11988    11494    11371    11665    12361    13270 
   13940    14198    14346    14449    14352    14309    14715    15536 
   16412    17054    17396    17477    17411    17492    17798    17778 
   16920    15499    14087    12810    11584    10694    10466    10594 
   10517    10236    10236    10638    10794    10089     8786     7444 
    6080     4593     3380     2934     3299     4049     4619     4831 
    4924     5044     5187     5362     5554     5614     5205     4150 
    2752     1367      -86    -1743    -3242    -4062    -4121    -3593 
   -2748    -2094    -1823    -1594    -1329    -1282    -1302     -883 
      25      812     1102     1095      912      560      253      169 
     319      703     1233     1769     2467     3594     4893     5908 
    6648     7176     7266     7014     6761     6250     5053     3452 
    1791      -39    -1924    -3463    -4514    -5138    -5408    -5383 
   -5113    -4614    -3804    -2650    -1448     -598      -26      593 
    1217     1758     2391     3067     3365     3110     2643     2262 
    1890     1594     1812     2463     2652     2087     1623     1747 
    1887     1712     1811     2595     3539     4125     4569     5221 
    6130     7011     7490     7832     8694    10157    11727    12854 
   13434    13873    14190    13895    13006    12082    11497    11319 
   11351    11279    11115    11070    11125    11126    10905    10358 
    9813     9844    10464    11067    11208    11008    10662    10000 
    8939     7955     7653     8024     8436     8513     8615     9042 
    9485     9768    10250    10997    11570    11868    12031    11880 
   11385    10789    10144     9518     9164     9228     9489     9413 
    8670     7459     6283     5521     5131     4850     4582     4294 
    3740     2820     1838      888     -273    -1340    -1714    -1635 
   -1658    -1612    -1242     -854     -582     -244     -130     -593 
   -1153    -1340    -1548    -2092    -2600    -2846    -3046    -3266 
   -3393    -3479    -3591    -3736    -4094    -4776    -5404    -5458 
   -5017    -4610    -4398    -4113    -3684    -3324    -3170    -3218 
   -3399    -3702    -4215    -4943    -5610    -5763    -5195    -4119 
   -2948    -2200    -2229    -2801    -3492    -4133    -4354    -3641 
   -2069      -54     2259     4573     6121     6508     6269     6031 
    5693     4868     3747     2927     2499     2025     1446     1191 
    1407     1762     1999     2141     2241     2287     2225     1889 
    1180      428       33      -44       69      350      577      599 
     544      370     -216    -1217    -2280    -3214    -4107    -4934 
   -5477    -5755    -6129    -6754    -7302    -7577    -7822    -8187 
   -8373    -7991    -7136    -6281    -5726    -5557    -5708    -5950 
   -6166    -6364    -6477    -6519    -6675    -6975    -7058    -6736 
   -6549    -7076    -8139    -9064    -9478    -9719   -10138   -10246 
   -9447    -8020    -6575    -5329    -4263    -3311    -2493    -1947 
   -1532     -786      485     1890     2742     2695     2131     1542 
     863       27     -540     -461       35      351      209      -90 
     -71      295      484      203     -249     -737    -1494    -2489 
   -3534    -4550    -5238    -5266    -4877    -4621    -4478    -4025 
   -3548    -3719    -4392    -5020    -5702    -6897    -8527   -10001 
  -10910   -11163   -10786    -9981    -9018    -7950    -6666    -5060 
   -3235    -1638     -696     -439     -718    -1495    -2651    -3773 
   -4513    -4836    -4773    -4377    -3891    -3667    -3656    -3544 
   -3538    -3807    -3813    -3260    -2446    -1528     -495      493 
    1302     2116     3184     4371     5396     6394     7665     8993 
    9907    10373    10571    10456    10006     9532     9323     9029 
    8188     7297     7127     7481     7892     8591     9924    11658 
   13260    14340    14835    15018    15157    15124    14698    14167 
   13948    13812    13338    12767    12516    12382    12030    11653 
   11558    11630    11584    11330    10970    10577    10074     9558 
    9413     9810    10545    11399    12127    12397    12101    11403 
   10417     9040     7216     5327     3857     2776     1900     1339 
    1044      795      701      893     1175     1406     1641     1778 
    1555     1020      657      849     1427     1947     2223     2338 
    2463     2810     3297     3629     4006     4974     6583     8313 
    9720    10826    11786    12361    12074    10890     9358     8010 
    6881     5807     5014     4843     5060     5077     4603     3790 
    2974     2256     1513      766       76     -523     -766     -565 
    -286     -122       -3      -63     -397     -601     -281      179 
     162      -41      404     1479     2480     3322     4417     5631 
    6271     5977     5234     4773     4835     5387     6530     8188 
    9714    10351    10057     9382     8590     7538     6337     5374 
    4764     4449     4531     5013     5804     7067     8600     9595 
    9919    10256    10755    11075    11248    11444    11650    11876 
   12015    11754    11092    10495    10202     9929     9532     9344 
    9550     9718     9376     8718     8264     8114     8126     8392 
    8866     9122     8929     8542     8183     7543     6252     4681 
    3457     2525     1560      579     -246     -726     -770     -661 
    -840    -1251    -1304     -713      216     1217     2191     3063 
    3969     4878     5266     4827     3945     3054     2040      630 
    -875    -1924    -2540    -3074    -3417    -3197    -2502    -1631 
    -528      842     2222     3461     4577     5560     6408     7306 
    8496     9759    10655    11280    11821    11935    11386    10497 
    9566     8490     7106     5557     4169     3092     2368     2237 
    2894     3955     4690     5096     6037     7663     8819     8834 
    8480     8301     7756     6722     5824     5136     4305     3332 
    2319     1418      937      903     1041     1278     1789     2691 
    4015     5751     7596     9084    10028    10473    10645    10807 
   10826    10568    10184     9446     8167     6986     6342     5792 
    5004     4131     3354     2914     2988     3418     3978     4588 
    5139     5385     5244     5065     5096     5020     4488     3688 
    3093     2710     1986      742     -564    -1591    -2381    -3059 
   -3676    -4116    -4211    -4171    -4488    -5182    -5645    -5455 
   -4687    -3475    -1951     -302     1416     3187     4745     5837 
    6719     7725     8610     9034     9056     8845     8519     8028 
    7267     6464     5689     4586     3206     1920      565    -1029 
   -2251    -2578    -2388    -2171    -1617     -118     2031     3822 
    5068     6456     8112     9499    10320    10569    10294     9776 
    9336     9019     8871     9060     9525     9902     9968     9847 
    9550     8816     7647     6491     5730     5187     4507     3741 
    2969     2026      986      166     -394     -899    -1331    -1584 
   -1850    -2323    -2826    -3131    -3340    -3593    -3668    -3277 
   -2567    -2004    -1810    -1819    -1788    -1589    -1213     -762 
    -385     -155      111      713     1689     2964     4492     5784 
    6197     5840     5166     4044     2380      870      148      128 
     637     1824     3636     5523     7006     8152     9280    10488 
   11658    12783    13970    15090    15792    16038    16152    16163 
   15884    15539    15368    15006    14051    12779    11708    10749 
    9419     7875     6695     5767     4632     3268     1829      516 
    -399     -997    -1607    -2210    -2590    -2749    -2699    -2402 
   -1933    -1223      -86     1302     2609     3806     4939     5789 
    6032     5670     5099     4625     4178     3632     3124     2932 
    3196     3731     4122     4230     4376     4992     6332     8109 
    9562    10455    11186    11677    11437    10600     9926     9926 
   10415    10858    11041    11230    11547    11586    10988    10054 
    9447     9425     9642     9621     9275     8953     8921     9013 
    8936     8721     8566     8536     8654     8825     8949     9368 
   10378    11581    12579    13535    14622    15743    16778    17649 
   18244    18468    18397    18136    17510    16337    14869    13474 
   12120    10614     9164     8269     8116     8460     8907     9047 
    8757     8365     8029     7477     6782     6586     7170     7874 
    7974     7699     7493     7041     6062     5094     4745     4806 
    4680     4321     4065     3887     3499     2845     2081     1342 
     690       39     -738    -1536    -2144    -2512    -2693    -2675 
   -2458    -2169    -1905    -1642    -1283     -608      535     1868 
    2956     3745     4420     4904     4908     4430     3907     3701 
    3609     3277     2839     2510     2012     1096      125     -314 
     -48      588     1172     1603     1942     2151     2135     1893 
    1639     1530     1322      902      619      610      578      353 
      44     -249     -458     -405     -130      -60     -300     -504 
    -733    -1426    -2477    -3287    -3695    -4083    -4619    -5091 
   -5433    -5713    -5844    -5905    -6125    -6280    -5989    -5332 
   -4444    -3213    -1734     -327      962     2192     3083     3444 
    3486     3313     2889     2426     2304     2827     3958     5312 
    6599     7719     8395     8429     8239     8271     8301     8062 
    7789     7767     7994     8321     8587     8713     8807     8951 
    8956     8722     8617     8923     9276     9285     9140     9080 
    8982     8760     8476     8162     7918     7812     7724     7593 
    7554     7671     7778     7667     7321     6867     6316     5600 
    4961     4737     4633     4036     3079     2361     1994     1864 
    2031     2311     2449     2540     2529     2019      981      -65 
    -672     -916    -1219    -1746    -2259    -2706    -3407    -4515 
   -5740    -6684    -7226    -7525    -7797    -8108    -8210    -7780 
   -6891    -5856    -4715    -3381    -2065    -1083     -547     -490 
    -892    -1518    -2070    -2357    -2244    -1708     -815      335 
    1574     2758     3748     4367     4685     4994     5245     5138 
    4798     4553     4310     3803     3154     2764     2805     3084 
    3338     3435     3382     3329     3487     3827     4124     4488 
    5142     5732     5781     5407     4928     4471     4227     4318 
    4591     4977     5521     6129     6689     7158     7362     7191 
    6946     6892     6806     6566     6482     6648     6837     7001 
    7167     7232     7220     7166     6967     6721     6627     6538 
    6191     5640     5049     4480     4124     4233     4691     5049 
    5073     4970     5059     5380     5702     5879     5936     5782 
    5332     4783     4279     3684     3048     2641     2351     1831 
    1094      355     -324     -872    -1200    -1389    -1453    -1319 
   -1262    -1610    -2063    -2139    -1934    -1753    -1553    -1190 
    -698     -206      171      384      526      763     1156     1661 
    2184     2544     2719     2978     3395     3671     3735     3900 
    4242     4449     4403     4444     4951     5941     7143     8337 
    9494    10619    11659    12518    13084    13371    13484    13343 
   12741    11690    10524     9588     8901     8411     8255     8410 
    8624     8760     8665     8032     6834     5557     4635     3917 
    3090     2273     1733     1418     1064      544      -12     -348 
    -434     -577     -962    -1407    -1770    -2131    -2548    -2924 
   -3161    -3332    -3540    -3667    -3558    -3334    -3180    -3024 
   -2687    -2083    -1273     -528     -107       27       28      -33 
    -144     -315     -435     -423     -454     -551     -436     -104 
     122       34     -300     -658     -965    -1288    -1472    -1330 
   -1088    -1133    -1440    -1650    -1618    -1251     -314      883 
    1669     2113     2657     3107     3056     2693     2512     2681 
    3065     3627     4425     5308     5972     6303     6417     6399 
    6342     6478     6824     7080     7206     7431     7687     7635 
    7199     6674     6292     5919     5426     5025     4922     5039 
    5261     5589     6067     6725     7562     8523     9382     9895 
   10177    10480    10693    10554    10148     9791     9598     9361 
    8933     8582     8568     8702     8756     8785     8858     8872 
    8749     8591     8480     8314     8009     7607     7147     6677 
    6244     5834     5507     5409     5498     5526     5377     5085 
    4607     4015     3548     3243     2909     2436     1955     1597 
    1129      345     -410     -851    -1218    -1590    -1775    -1873 
   -1985    -1844    -1328     -792     -570     -684    -1102    -1697 
   -2247    -2692    -2880    -2513    -1827    -1442    -1299     -875 
    -273      -42     -170     -162      203      708     1046     1152 
    1403     2162     3157     3879     4425     5226     6159     6731 
    6976     7351     7972     8558     8939     9224     9608    10178 
   10802    11183    11142    10822    10471    10158     9887     9714 
    9647     9680     9848    10084    10210    10254    10438    10747 
   10945    10990    11090    11350    11634    11867    12109    12283 
   12353    12532    12879    13135    13139    13014    12909    12791 
   12554    12281    12178    12261    12295    12020    11400    10604 
    9717     8637     7371     6184     5226     4377     3605     3058 
    2777     2651     2618     2646     2617     2485     2271     1861 
    1221      633      411      547      751      871     1142     1725 
    2238     2249     2029     2242     2926     3435     3477     3525 
    3823     3864     3386     2924     2837     2748     2312     1735 
    1393     1470     1935     2557     3087     3539     4083     4598 
    4740     4552     4486     4639     4642     4347     4019     3803 
    3495     3093     2978     3214     3451     3657     4017     4315 
