Origin Time       2011/03/11 14:46:00
Lat.              38.103
Long.             142.860
Depth. (km)       24
Mag.              9.0
Station Code      YMN010
Station Lat.      35.7919
Station Long.     138.4182
Station Height(m) 521
Record Time       2011/03/11 14:47:44
Sampling Freq(Hz) 100Hz
Duration Time(s)  300
Dir.              U-D
Scale Factor      3920(gal)/6182761
Max. Acc. (gal)   29.980
Last Correction   2011/03/11 14:47:29
Memo.             
[...]
  -11611   -14270   -14615   -15174   -17743   -20567   -21603   -21560 
  -22351   -24444   -27159   -29395   -29820   -28691   -27566   -26757 
  -26786   -29728   -35506   -41071   -44542   -46631   -48028   -47770 
  -45616   -44262   -45792   -48059   -48626   -48654   -48639   -45681 
  -39332   -34246   -33822   -35756   -35837   -33904   -33206   -34382 
  -34791   -33138   -30221   -26862   -23561   -20850   -19660   -20638 
  -22329   -22372   -21145   -21248   -23463   -25989   -27328   -28449 
  -30918   -33094   -32808   -32564   -34765   -36550   -35838   -35723 
  -39141   -43676   -44465   -41587   -39971   -41265   -42665   -43427 
  -45096   -46882   -46731   -44550   -41070   -36623   -32284   -29416 
  -27772   -25670   -22362   -19350   -18867   -21473   -25177   -27003 
  -25868   -23964   -24405   -26962   -28498   -28616   -30615   -35233 
  -38575   -38572   -38016   -38776   -38828   -36703   -34053   -33458 
  -35148   -36196   -34898   -33851   -35157   -36506   -35693   -34692 
  -35859   -37370   -36254   -34036   -34560   -38049   -42264   -46092 
  -48618   -49154   -48653   -48110   -47944   -48756   -49376   -47650 
  -44343   -41359   -39014   -38280   -39943   -41859   -41693   -40403 
  -40940   -43516   -44548   -42791   -40932   -39258   -35328   -29421 
  -24480   -21731   -18849   -13822    -9457    -9466   -11556   -10836 
   -8484    -9614   -13381   -14407   -13472   -15596   -19275   -19400 
  -16833   -14977   -13340   -11177   -10179   -11463   -14710   -18206 
  -19223   -18024   -18190   -20250   -20806   -19186   -18612   -21076 
  -25248   -28798   -31549   -35140   -38893   -39856   -38609   -39649 
  -43945   -47178   -46722   -44329   -42190   -40667   -39396   -39151 
  -40863   -43279   -44601   -44680   -44201   -44073   -45103   -46781 
  -47274   -45669   -43457   -42505   -42737   -42853   -42287   -42368 
  -44740   -47882   -48643   -47195   -46073   -46236   -46352   -44536 
  -41272   -38946   -38164   -37740   -36445   -33778   -30988   -29795 
  -30147   -30058   -27561   -24129   -22953   -23464   -23861   -24999 
  -26070   -24440   -21493   -20364   -20619   -20741   -21435   -23348 
  -24435   -22548   -19416   -18363   -19974   -22471   -22730   -18237 
  -11773    -8960    -9926   -10126    -8192    -7037    -8686   -12409 
  -16951   -21471   -25079   -27042   -27244   -26334   -25262   -24472 
  -24018   -24490   -26332   -28174   -28470   -28583   -31075   -35128 
  -37351   -37004   -36119   -35715   -35791   -36611   -38538   -41843 
  -45266   -45656   -42283   -39163   -38743   -38097   -35479   -33011 
  -31657   -31065   -31583   -32535   -32584   -31798   -30571   -27998 
  -23314   -17951   -14232   -13103   -14079   -16328   -19779   -24338 
  -28205   -29551   -28808   -27798   -28271   -30776   -33741   -35420 
  -36608   -38428   -39802   -40283   -41027   -42170   -42924   -42740 
  -41471   -39504   -37125   -34274   -31324   -29303   -28949   -29808 
  -30762   -30430   -27430   -22692   -19194   -17471   -15786   -14120 
  -14334   -17920   -23612   -28517   -32535   -36816   -39851   -40103 
  -38934   -38370   -38014   -35595   -31249   -29265   -32213   -36479 
  -38814   -40798   -42071   -38987   -31484   -23959   -20247   -18975 
  -15729   -10814    -8158    -8382    -9901   -11819   -13010   -12887 
  -12063   -11654   -13640   -18693   -23996   -26517   -26149   -25133 
  -25250   -24992   -22453   -19240   -17158   -15336   -13317   -13037 
  -15993   -20026   -22179   -23210   -24901   -26894   -28299   -28201 
  -27094   -28138   -32412   -37207   -41165   -44739   -46708   -46323 
  -45803   -46015   -45144   -43614   -42973   -42176   -40602   -39294 
  -38464   -38344   -38832   -38511   -37984   -39054   -40343   -40271 
  -40431   -41850   -43097   -42643   -40466   -38508   -37908   -36183 
  -31346   -26224   -24721   -26424   -27978   -27879   -26882   -25549 
  -23887   -22025   -20743   -20911   -21739   -22024   -22824   -25860 
  -30590   -34439   -35327   -33958   -32418   -31003   -29258   -28408 
  -29963   -33897   -38922   -42807   -43553   -41480   -38749   -36599 
  -34886   -33978   -34494   -35851   -36566   -35364   -33543   -34320 
  -36853   -37273   -35529   -33433   -31224   -30082   -31251   -33615 
  -35891   -38124   -40027   -40741   -40247   -38827   -35928   -31016 
  -25145   -21058   -19722   -18724   -17181   -16945   -17879   -17895 
  -16322   -14307   -12933   -11606    -9538    -8067    -9223   -12591 
  -15537   -17558   -20986   -25347   -27570   -28312   -30035   -31231 
  -29681   -26794   -24399   -22629   -22092   -23397   -25378   -25954 
  -23777   -19675   -16715   -17520   -21424   -24993   -26417   -27915 
  -31112   -33282   -32238   -30276   -29278   -27957   -25473   -22412 
  -20097   -20261   -22230   -23523   -24447   -27323   -31639   -33822 
  -32742   -32240   -34744   -36951   -36657   -37335   -41204   -44687 
  -44230   -40962   -38164   -37374   -37293   -36604   -36840   -39538 
  -42910   -44447   -44261   -43807   -43291   -42435   -42076   -43119 
  -45927   -50160   -53672   -54703   -54685   -55157   -54769   -52376 
  -49476   -47892   -46942   -44251   -40773   -40448   -41806   -38943 
  -32099   -26828   -23979   -19789   -14114   -10902   -11209   -11401 
   -9464    -8504   -10235   -10991    -8803    -6509    -6432    -8126 
   -9228    -8294    -7678    -9342   -11843   -14281   -17023   -20101 
  -23676   -27564   -31692   -36675   -41962   -45419   -45803   -44680 
  -44464   -45386   -46252   -46196   -45357   -45545   -48090   -50888 
  -50886   -48852   -47978   -48342   -47234   -44494   -42844   -42761 
  -41229   -37664   -36201   -38550   -40823   -40160   -38165   -36766 
  -35905   -35198   -33940   -31349   -28622   -26800   -24498   -21657 
  -20579   -21671   -23020   -23320   -22898   -23589   -26635   -30134 
  -32185   -34400   -37818   -40053   -39799   -39106   -40150   -42927 
  -46040   -48775   -51172   -51919   -49957   -47724   -47522   -47077 
  -43731   -39200   -36697   -36908   -37965   -37819   -37156   -38055 
  -39462   -38734   -36050   -33065   -30303   -27381   -23743   -19630 
  -16099   -13704   -12501   -12696   -14288   -16464   -18044   -19068 
  -20568   -22449   -23589   -23538   -23355   -24960   -28209   -30390 
  -30757   -31353   -32521   -32945   -32850   -33049   -33616   -34873 
  -36978   -39258   -40772   -41015   -40789   -41508   -43059   -43993 
  -43641   -42979   -43342   -44642   -45970   -47047   -47811   -48342 
  -48884   -49143   -49705   -52144   -55275   -56059   -55057   -55114 
  -56002   -55705   -54464   -53941   -54502   -54971   -53769   -50433 
  -46607   -44248   -43017   -41169   -38602   -37023   -36532   -35088 
  -33045   -33270   -34899   -33999   -31180   -30277   -30707   -29425 
  -27165   -26149   -26197   -26259   -25071   -21472   -17174   -14605 
  -12400    -8807    -5853    -6039    -8832   -11600   -12984   -14420 
  -16070   -15152   -11445    -8625    -8853   -10888   -13151   -15602 
  -18492   -20840   -21660   -21632   -21222   -19248   -15728   -13170 
  -13478   -16096   -19629   -24303   -31155   -37706   -39693   -38559 
  -39268   -42280   -45001   -46828   -48469   -49930   -50543   -50005 
  -48818   -47332   -45591   -43852   -42084   -40857   -41621   -43306 
  -42621   -39608   -37728   -38100   -38299   -36385   -33054   -30475 
  -29440   -28007   -25367   -23898   -24193   -23722   -21771   -20494 
  -21766   -25038   -27955   -29355   -30071   -30625   -30857   -30935 
  -30786   -29652   -27035   -24039   -22778   -23177   -22523   -19408 
  -15232   -12055   -10675    -9775    -8011    -6657    -7115    -7903 
   -7080    -5181    -3828    -3336    -3193    -3375    -4129    -5415 
   -6381    -6045    -5006    -4341    -4151    -4797    -6599    -8700 
  -10360   -11565   -12360   -13320   -15234   -17903   -21062   -24597 
  -27089   -27757   -28260   -29867   -32183   -34706   -36899   -38051 
  -38286   -38761   -40128   -41503   -41521   -39226   -35034   -31374 
  -29308   -26550   -22073   -17844   -14857   -12821   -11687   -10465 
   -8574    -7568    -8546   -11143   -14938   -19124   -23149   -27689 
  -32332   -34933   -35290   -35475   -36004   -36089   -36368   -37684 
  -39391   -40768   -42164   -43639   -44392   -44399   -44190   -43638 
  -43255   -44063   -45422   -46287   -47526   -49777   -51132   -50267 
  -48713   -47492   -45868   -43886   -42024   -39709   -36710   -34183 
  -32784   -31448   -29596   -28443   -28461   -28344   -27509   -26429 
  -24997   -23382   -22768   -23734   -25953   -29314   -33071   -34864 
  -32890   -28210   -23436   -20143   -18617   -18452   -18065   -15904 
  -13379   -13692   -16998   -19839   -19626   -17198   -14895   -13623 
  -12722   -11838   -11168   -11025   -11892   -13454   -14550   -14634 
  -14108   -13651   -13495   -13276   -13271   -14712   -17916   -21934 
  -26276   -31120   -36327   -41093   -44227   -45056   -44044   -42524 
  -42072   -43517   -46242   -48701   -49858   -50319   -51699   -54371 
  -56513   -56610   -55721   -55312   -55335   -55791   -56682   -56815 
  -55527   -53725   -52380   -51993   -52299   -51668   -49208   -46710 
  -46106   -46545   -45655   -42815   -39882   -37950   -35548   -32139 
  -30056   -30559   -31417   -30296   -27627   -24872   -22709   -21463 
  -21256   -21890   -22852   -23319   -23214   -23362   -23868   -24315 
  -24605   -24364   -23749   -23324   -22602   -21686   -21402   -21017 
  -19933   -19360   -20294   -22562   -25080   -26183   -25536   -24836 
  -25500   -27115   -28341   -28737   -29046   -29295   -28923   -28898 
  -30316   -32393   -33970   -34164   -32857   -32211   -33772   -35362 
  -34648   -32708   -32252   -34529   -37940   -40118   -41308   -42386 
  -42029   -40053   -38808   -39046   -39359   -39493   -40347   -41869 
  -43618   -45421   -46136   -44936   -43448   -43405   -43821   -42710 
  -40409   -39311   -39722   -38942   -36075   -33150   -30708   -27720 
  -24974   -23971   -24042   -23353   -21819   -21084   -21425   -21087 
  -19729   -18865   -18334   -16573   -13379    -9706    -6571    -4273 
   -1980     1042     4254     5863     4694     2196      342     -893 
   -2037    -3239    -5086    -8044   -12287   -17537   -22074   -24750 
  -26709   -28369   -28864   -28632   -28179   -26942   -25340   -24756 
  -25366   -26263   -27249   -28363   -28760   -28280   -28133   -29126 
  -31452   -35164   -38795   -40169   -40002   -41136   -44015   -46445 
  -47198   -47277   -47474   -46699   -44392   -42149   -41346   -41641 
  -42095   -42349   -42589   -42591   -41609   -39292   -36574   -35205 
  -35329   -35151   -34151   -33494   -33051   -31707   -29336   -25704 
  -20700   -16184   -13592   -11793    -9599    -7321    -5702    -4822 
   -3911    -2823    -2478    -2565    -1576      549     2659     4250 
    5724     7291     7883     6510     4271     2999     2743     1704 
   -1571    -6053    -9852   -13745   -19136   -24113   -26861   -29465 
  -34031   -39127   -42211   -43156   -43934   -45053   -44799   -42673 
  -40472   -39464   -38957   -37738   -35562   -33019   -30677   -29076 
  -28882   -29920   -31166   -32130   -32865   -33224   -33109   -32782 
  -32818   -33399   -33735   -33460   -33794   -35625   -37584   -38026 
  -37250   -36282   -35780   -36049   -36770   -38012   -40064   -41897 
  -42339   -41642   -41297   -42517   -43983   -43802   -43591   -46152 
  -50762   -54555   -56155   -55791   -54180   -52108   -49701   -46562 
  -43046   -39961   -37334   -35228   -34120   -33108   -30644   -27145 
  -23907   -20958   -17967   -15565   -14483   -14189   -14146   -15215 
  -17660   -20437   -22906   -24472   -24344   -22800   -21055   -20337 
  -20872   -21588   -21782   -21813   -21769   -21130   -19785   -18896 
  -19722   -21063   -20744   -19848   -21132   -24207   -26930   -29360 
  -32023   -33223   -31697   -28892   -26431   -24514   -23565   -24436 
  -26787   -29200   -30584   -30676   -29785   -28826   -29324   -31826 
  -34998   -37681   -39919   -42262   -45276   -47821   -47591   -44939 
  -42498   -41099   -39331   -36910   -35741   -36492   -37230   -36621 
  -35330   -34497   -34334   -33708   -32244   -32310   -35371   -38353 
  -39096   -40526   -43834   -46139   -46988   -48193   -49327   -48985 
  -47810   -47700   -48855   -49436   -48376   -46826   -46074   -45557 
  -44178   -41868   -38925   -35678   -32596   -29714   -27271   -25944 
  -25218   -23987   -22249   -20485   -19279   -19207   -19996   -20971 
  -21566   -21480   -21510   -22213   -22576   -22444   -23078   -24364 
  -25273   -26086   -27585   -29150   -29106   -27492   -26656   -27752 
  -29531   -30896   -31823   -32381   -32287   -31198   -29366   -27674 
  -26786   -26422   -25663   -23870   -21429   -19744   -19538   -19578 
  -18899   -18372   -18557   -18872   -19600   -22092   -26347   -30445 
  -33203   -35188   -36940   -38542   -39806   -39597   -37592   -35720 
  -34875   -33645   -32159   -31871   -32019   -31199   -29717   -28354 
  -27798   -28357   -29097   -29405   -30362   -32447   -34321   -35538 
  -37196   -39396   -41206   -42425   -43528   -44615   -44981   -44235 
  -43599   -44543   -46561   -47582   -46393   -44104   -42538   -41945 
  -41412   -40001   -37431   -34511   -31788   -28622   -24693   -20852 
  -17675   -14360   -10359    -6753    -4200    -1606     1745     4799 
    6141     5851     5701     7393    10711    13666    14978    15665 
   16390    15712    13241    10487     8100     5845     3681     1684 
     -35    -1991    -4714    -7606   -10607   -14812   -20007   -24903 
  -29488   -33975   -37270   -38735   -39166   -39411   -39596   -39286 
  -38590   -39027   -41097   -43055   -44690   -47655   -51364   -53869 
  -54898   -54710   -53182   -51344   -50828   -51455   -51763   -51562 
  -51503   -51304   -50527   -49293   -47335   -44240   -40957   -39104 
  -38491   -37898   -37458   -37550   -37767   -37872   -37541   -36376 
  -34681   -32854   -30901   -29222   -28468   -28148   -26978   -24715 
  -22315   -20821   -20317   -19859   -19170   -18896   -18981   -19143 
  -19926   -21932   -24750   -26629   -26276   -24829   -24329   -25044 
  -25309   -24211   -23176   -23224   -23730   -24888   -26942   -28549 
  -29261   -30002   -30648   -31078   -32511   -34950   -36392   -35446 
  -32793   -30798   -30850   -30743   -28468   -26432   -27216   -29610 
  -31660   -33286   -35532   -38854   -42056   -44110   -45866   -47978 
  -49640   -50562   -51414   -52245   -52738   -53368   -54810   -56642 
  -57697   -57912   -58268   -58630   -57731   -55136   -52038   -50108 
  -49207   -47272   -43822   -41064   -39993   -38977   -37039   -34799 
  -32584   -30410   -28617   -27208   -25755   -23681   -20721   -17975 
  -16737   -16430   -15746   -14566   -13927   -14574   -15817   -17023 
  -18848   -21573   -24283   -25626   -25090   -24289   -24795   -25528 
  -25240   -24690   -24199   -22818   -20745   -19438   -19323   -19450 
  -19334   -19814   -21895   -25372   -28796   -31003   -32734   -35424 
  -38552   -40582   -41300   -41001   -40189   -40342   -41579   -41828 
  -40544   -39720   -40455   -41295   -40664   -39464   -38944   -37969 
  -35804   -34080   -33469   -32657   -31373   -30941   -31730   -32423 
  -32023   -30906   -29896   -29406   -29387   -29738   -30244   -30125 
  -28863   -27525   -27650   -29008   -30301   -31064   -31074   -30193 
  -29126   -28177   -26864   -25064   -22940   -20701   -18265   -15311 
  -12570   -11244   -11150   -11422   -11929   -12522   -12772   -13203 
  -14237   -14846   -14667   -14707   -15048   -15280   -16333   -18886 
  -21636   -23178   -23674   -23644   -23137   -22430   -22183   -22984 
  -24558   -25781   -26722   -28986   -33017   -37209   -39789   -40683 
  -41175   -41636   -41235   -39862   -38282   -37100   -36417   -35766 
  -34870   -34192   -33809   -32982   -31489   -29806   -27828   -25081 
  -22126   -20456   -20892   -22478   -23602   -24161   -24942   -25423 
  -24825   -24280   -25316   -27644   -30113   -32073   -33529   -35136 
  -37053   -38279   -38503   -38542   -38455   -37880   -37370   -37421 
  -37765   -38077   -37967   -37117   -36040   -35351   -34505   -32654 
  -30203   -28438   -27892   -27755   -27162   -26475   -26395   -26381 
  -25920   -26328   -28258   -29802   -29804   -29101   -27834   -25968 
  -24821   -25058   -25501   -24883   -23198   -21386   -20552   -20959 
  -21433   -21137   -21004   -21767   -22598   -22667   -22553   -23507 
  -25454   -27051   -27774   -28305   -29483   -31405   -33207   -34525 
  -36004   -37550   -38639   -39612   -40321   -40098   -39600   -39531 
  -39128   -38059   -37325   -37689   -38404   -37661   -35330   -33648 
  -33310   -32582   -31233   -30930   -32001   -33145   -33591   -33427 
  -32476   -30697   -28773   -27072   -25778   -25384   -25303   -24276 
  -22356   -20383   -18835   -17870   -17205   -16470   -15670   -14659 
  -13677   -13861   -15352   -16876   -17795   -18206   -18128   -17813 
  -17389   -16748   -16133   -15701   -15616   -16587   -18702   -21004 
  -22979   -24659   -26233   -28550   -31863   -34810   -36348   -36937 
  -37488   -38232   -38704   -38977   -39563   -40022   -39881   -39931 
  -40719   -41538   -42119   -43330   -45450   -47747   -49987   -52370 
  -54422   -55915   -57475   -58712   -58645   -58023   -57986   -58313 
  -58733   -59293   -59376   -58230   -56123   -54013   -52485   -51575 
  -51001   -50705   -51253   -52643   -53644   -53657   -53489   -53443 
  -52763   -51382   -50249   -49799   -49551   -48934   -47778   -46453 
  -45456   -44683   -43807   -43096   -42790   -42628   -42541   -42695 
  -43084   -43258   -42421   -40722   -39378   -38914   -39036   -39441 
  -39542   -38703   -36933   -34571   -31768   -28744   -26033   -23903 
  -21991   -20005   -18154   -16489   -14739   -13180   -12143   -10778 
   -8629    -6971    -6580    -6795    -6843    -6344    -6013    -6852 
   -7874    -7560    -6509    -6294    -7307    -8549    -9005    -8998 
   -9699   -11434   -13262   -14707   -16681   -19540   -22373   -24729 
  -26718   -28425   -30345   -32597   -34270   -35084   -36016   -37164 
  -37492   -37478   -38654   -40515   -41485   -41692   -42060   -42706 
  -43277   -43187   -42167   -41199   -41464   -42568   -43118   -42454 
  -41268   -40628   -40353   -39654   -38867   -38657   -38903   -39167 
  -39160   -38920   -38366   -37152   -35738   -34915   -34544   -34155 
  -33495   -32793   -32869   -33786   -34735   -35406   -35545   -34681 
  -33362   -32644   -32406   -31966   -31661   -32152   -33079   -33998 
  -35404   -37351   -39021   -40282   -41680   -43076   -43741   -43528 
  -42764   -41118   -38290   -35437   -33807   -32890   -31922   -31297 
  -30861   -29394   -26655   -23681   -21358   -19879   -18993   -18491 
  -18378   -18267   -17393   -16079   -16178   -18188   -19738   -19609 
  -19708   -21170   -22921   -24139   -25148   -26316   -26913   -25939 
  -23985   -22816   -23486   -25484   -27532   -29161   -30892   -32972 
  -34827   -35821   -36234   -36951   -38004   -38592   -38760   -39324 
  -40158   -40649   -41343   -43233   -46148   -48777   -49996   -50029 
  -49966   -50396   -50934   -51152   -52025   -54449   -56654   -56744 
  -55554   -54520   -54194   -54375   -53857   -52355   -51186   -50541 
