Origin Time       2011/03/11 14:46:00
Lat.              38.103
Long.             142.860
Depth. (km)       24
Mag.              9.0
Station Code      YMN001
Station Lat.      35.7895
Station Long.     138.9198
Station Height(m) 617
Record Time       2011/03/11 14:47:41
Sampling Freq(Hz) 100Hz
Duration Time(s)  247
Dir.              E-W
Scale Factor      3920(gal)/6182761
Max. Acc. (gal)   53.590
Last Correction   2011/03/11 14:47:26
Memo.             
[...]
  -12621    -6014    -1924    -1953    -8450   -18325   -22428   -17191 
   -6800    -2051    -8254   -13876   -13438   -14494   -16865   -18600 
  -20192   -16669    -9305    -5017    -4695    -8693   -15902   -19770 
  -16877   -10266    -4805    -2558    -1301       -2    -2039    -7922 
  -13726   -20364   -28669   -31875   -28906   -26020   -24452   -23093 
  -23134   -25696   -27011   -21148   -11664    -6981    -7686   -11555 
  -18927   -24268   -21587   -18071   -18436   -14437    -6499    -4467 
   -9321   -15485   -18348   -18199   -17269   -13731    -9564    -6226 
     917     5587      272    -6203    -8484    -9832    -9384    -8086 
   -6577    -2155    -1024   -10511   -23825   -32410   -37517   -39542 
  -35073   -25420   -14953    -8875   -10361   -14540   -18524   -24209 
  -26063   -20560   -12995    -8430   -14277   -29245   -36645   -32779 
  -28701   -25879   -21557   -19799   -23097   -27930   -32047   -33410 
  -27481   -17586   -10575    -5710    -5337   -12245   -16851   -13672 
  -10566   -13164   -20648   -26261   -21649   -11091    -4554    -5638 
  -12923   -16141    -9359    -3310    -4178    -7822   -13658   -22097 
  -29314   -29299   -20937    -9520      744     5238      132   -11634 
  -24672   -32913   -33410   -30467   -24537   -13561    -5596    -5049 
   -5242    -8335   -17632   -20879   -13433    -6821    -4623    -4663 
  -11587   -24923   -34162   -32789   -27465   -25835   -22845   -15981 
  -10861    -6180    -1558    -1945    -5905    -7671    -5792    -6020 
  -10443   -11735    -7233    -2183    -2035    -7879   -15714   -22113 
  -22912   -13972     -760     6181     2853    -7361   -21253   -36349 
  -41654   -29360   -12470    -5070    -4662    -8659   -17061   -21973 
  -21896   -23617   -22787   -14475    -9397   -15720   -24328   -25699 
  -22100   -16886   -10442    -3970     2234     6951     4986    -5734 
  -17347   -22425   -22030   -18174   -13789   -14223   -17746   -19972 
  -24622   -32499   -34773   -26490   -14717   -10447   -14409   -19464 
  -22907   -23703   -20026   -16313   -18655   -23208   -23230   -19572 
  -14119    -9247    -8983   -10312    -9996   -11017   -10542    -3964 
    1859     1030     -453     1039      346    -3597    -5952    -8140 
  -14080   -18632   -16165    -9467    -5437   -10142   -20025   -24624 
  -24212   -25396   -26694   -26320   -28754   -33915   -32169   -20410 
  -11157   -12738   -19555   -25588   -28726   -26833   -20357   -16252 
  -20109   -25351   -23396   -17043   -11357    -7697    -9064   -12538 
   -9731    -3614    -3436    -8365   -11979   -13151   -13681   -11793 
   -6588    -1389     -738    -7848   -15382   -13195    -7634    -6735 
   -3533     4537     5527    -4244   -14004   -18676   -20199   -16468 
   -7035     -956    -6128   -17851   -27215   -29378   -23476   -12335 
      62     6476     2838    -3988    -9953   -15403   -16432   -12342 
   -7280    -4469    -2748      327      751    -6301   -18116   -27887 
  -33382   -36571   -33625   -22161   -11003    -6197    -6152   -11632 
  -19942   -21062   -13019    -5122    -2683    -2718    -3507    -7963 
  -15879   -21808   -23896   -24498   -22498   -16759   -14045   -20707 
  -29372   -29821   -24019   -15609    -8002    -9193   -14521   -14225 
  -13591   -15215   -14627   -15504   -19760   -22439   -23330   -26152 
  -28600   -24613   -16518   -12316   -11588    -6152      459    -3872 
   -7868      845     3339    -6414   -12857   -16324   -17496    -9864 
     158     -270   -11608   -19314   -18584   -19252   -17909    -7445 
    1378     -711    -9373   -19714   -27285   -25356   -17020   -13720 
  -15913   -15982   -14116   -14440   -16346   -17256   -17888   -18681 
  -15832   -11044   -10305   -10625    -9666   -11143   -12648   -11048 
   -8179    -6448    -6635    -4374     1322     3694      -84    -7431 
  -14822   -20881   -25954   -26786   -22376   -18029   -16984   -20042 
  -26907   -33864   -38499   -39554   -36835   -33179   -28484   -23792 
  -21827   -20929   -22891   -29859   -38921   -46520   -46053   -35000 
  -20613   -11505   -11223   -16189   -22388   -26482   -22008    -8603 
    4957     9795     7070     4854     3736     3634     7475     9051 
    6030     3472    -3205   -14526   -20405   -20865   -20606   -17962 
  -15918   -18748   -21568   -21627   -24889   -32367   -35860   -32001 
  -27754   -26491   -22503   -15699   -11476    -7788    -4702    -8992 
  -16488   -17695   -16634   -19127   -21338   -22296   -23644   -23476 
  -23647   -23380   -16482    -7023    -4275    -7739   -12335   -18311 
  -28788   -41440   -49129   -47300   -38384   -30643   -29015   -28853 
  -26166   -23454   -19222   -11149    -4630    -1880      728     1713 
    -847     -130     5204     2315   -10566   -18250   -16782   -12169 
   -1623    10204     7141    -5266    -9718   -10216   -14172   -16815 
  -14786    -9759    -5193    -2127     -847    -6676   -19403   -30327 
  -36956   -39315   -34268   -26029   -19850   -13640   -10244   -13789 
  -16648   -12685    -6466    -1351      725    -5806   -20568   -35177 
  -43120   -42042   -34597   -26964   -20197   -13446   -10501   -11104 
  -10167    -9334   -10383    -6622        2    -2473    -9393    -7631 
   -4314    -9318   -13540    -9826    -4317     -861     6433    18554 
   20123     8076     -213    -6087   -16745   -19220   -12485   -10199 
  -12453   -12249   -10378   -12751   -17204   -16998   -17366   -25620 
  -38531   -48405   -47803   -36474   -23724   -16767   -13183    -7686 
   -3107    -7321   -21044   -35847   -40585   -33791   -25598   -19129 
   -9128     2606     7873     1473   -11237   -19121   -19849   -17158 
  -12014    -7805    -7830    -7516    -5319    -6967   -12492   -15586 
  -12466    -7889    -9256   -14244   -18759   -23276   -24301   -19790 
  -13200    -6029     1274     5627     3785    -2673   -10309   -18769 
  -23922   -19995   -10235    -1306     4232     3800    -6650   -22782 
  -31329   -28464   -23564   -21801   -18889   -14925   -17633   -26597 
  -33429   -37175   -38141   -29276   -11788     1391     3010    -4949 
  -17731   -29743   -36077   -35196   -29427   -21150   -11486    -4647 
   -7949   -21388   -32753   -30340   -14097     5663    17607    19096 
   11979     -514   -10196   -11784    -5313     6472    12973     4736 
  -12641   -24915   -26988   -24867   -17815    -3138     4850    -5453 
  -22832   -34504   -38515   -31450   -12660     3795     4577    -5011 
  -15472   -23646   -24047   -17290   -12090    -8876    -5744    -7323 
  -14348   -21715   -26037   -26565   -24917   -25632   -28774   -27641 
  -21471   -14960    -7096      227    -1614   -13180   -27049   -37344 
  -42794   -48517   -55433   -53776   -39690   -19889    -1152    10352 
    9212    -4859   -22613   -32509   -33981   -29599   -19300    -7017 
    3430     6712    -2440   -16365   -25914   -31875   -31908   -22880 
  -11830    -5030    -1387    -2063    -9723   -18866   -16284     2035 
   20581    26122    23300    19631    13868      508   -18483   -33004 
  -36228   -30105   -25118   -26907   -28573   -29189   -34925   -42378 
  -45230   -44236   -40222   -30866   -19492   -15542   -21194   -30274 
  -36194   -31191   -16214    -3342     5856    14275    15102    10158 
    7054    -2466   -26043   -48796   -54118   -46228   -35124   -23025 
  -13694   -14192   -23513   -31314   -33700   -35141   -30769   -17642 
  -11153   -16329   -19072   -18695   -21611   -17558    -2835     4944 
    -311    -5605    -7780   -13424   -20333   -20962   -16558   -15868 
  -20303   -22844   -22690   -24463   -24740   -18202    -8515    -1018 
    3698     7418    11570    13611     7602    -3050    -7752    -9592 
  -15354   -20798   -25373   -32892   -41191   -44233   -40472   -35837 
  -31150   -23758   -20239   -22664   -25304   -32485   -46116   -53447 
  -50185   -45396   -39672   -27223   -15375   -13545   -14725   -15777 
  -23832   -31074   -23706    -6649     5040     8942    14233    18292 
   10664    -2069    -8323   -12133   -16255   -12702    -3726     1227 
    5615    12492    14890    15075    21337    26727    16980    -7892 
  -34413   -48531   -41603   -18937    -1752    -4456   -22039   -41980 
  -50498   -42211   -28717   -21033   -17157   -14431   -18380   -30619 
  -37523   -32166   -29397   -36470   -42653   -40945   -32606   -23291 
  -16440    -8143     1920     9426    11154     1783   -17860   -34930 
  -39174   -32776   -22547    -8634    11790    29140    28022     8887 
  -16407   -39293   -53726   -52976   -33916    -5882    13290    16495 
   10897     3327    -2220    -1354     3245     4341     1525    -2074 
   -7336   -15924   -26682   -38137   -48415   -54660   -55547   -50510 
  -41509   -36306   -38243   -40976   -44418   -50790   -50052   -40822 
  -33433   -26820   -19987   -20308   -26868   -30221   -26831   -24534 
  -28106   -28604   -18897    -6498     -762    -1551    -8475   -23785 
  -43488   -56068   -49588   -24202     7394    32102    41333    34394 
   18165     -230   -17454   -31630   -36342   -28404   -17604   -11294 
   -6052    -1017     1726     3790     4653      872    -3829    -3657 
   -5488   -17612   -35220   -53215   -69526   -73068   -51004    -8513 
   25068    24804     -209   -30636   -57185   -64875   -46489   -18429 
     799     3972    -5479   -16219   -21381   -22629   -23861   -28961 
  -34734   -31069   -18751    -7515     -657     -583    -9871   -24478 
  -38847   -47855   -49856   -46749   -33254    -7260    17974    31435 
   30945    13891   -14809   -37866   -40863   -27265   -16891   -22231 
  -33175   -39533   -43397   -41547   -29308   -18300   -23802   -37577 
  -38118   -22897    -5023     3613    -1901   -16250   -32805   -47044 
  -55506   -57867   -49614   -29582    -9851    -2264    -9561   -24211 
  -35503   -44666   -50298   -41154   -26242   -20810   -15505    -3132 
    7358    14012    22447    27734    19431     1892   -11693   -16141 
  -15239   -13701   -11391   -11054   -14186   -12000    -5550    -9140 
  -23431   -31511   -21289    -2753     4830    -1132   -12261   -25572 
  -38023   -44296   -42857   -33984   -15908     9375    27743    22900 
   -4801   -37281   -57708   -63336   -54480   -34730   -20808   -21334 
  -28468   -37226   -40560   -32926   -26736   -25912   -16820    -4509 
   -2233    -3838    -4148    -1284    12449    28955    33135    25116 
   10358    -4250   -11540    -8871     3191    14435    14158     7309 
      32   -12218   -29943   -45489   -57276   -63169   -51539   -23547 
    3398    19058    22970    16773     2661   -16407   -36067   -51321 
  -55713   -45736   -26488    -9587    -7313   -21864   -46308   -71016 
  -81354   -70204   -44618   -16375     4064    17958    29115    28540 
    7943   -27215   -59120   -72526   -64328   -35051     3843    27186 
   16832   -23743   -66334   -80867   -62878   -26331     7647    20874 
   15618     4583    -6027   -10525    -6890    -5151   -15695   -37856 
  -61540   -72798   -62991   -38297   -16907   -11197   -14638   -14542 
  -12656   -17412   -26941   -34882   -35711   -24773    -5709    11611 
   17025     6343   -11467   -26375   -34432   -29919   -13958     3813 
   18684    26261    21544    10784     4628     7945    18686    23623 
   13118      545      800     7817    12493    15174    12784      135 
  -13139   -12739    -5131    -7872   -23538   -36835   -32453   -16695 
  -10684   -20426   -36793   -53318   -60535   -49334   -30162   -19880 
  -19869   -26874   -42656   -61415   -69461   -65003   -57694   -47181 
  -29106   -13588    -9642   -10091    -8378    -8749   -14711   -19727 
  -13832     -192     6676     3026    -4674   -13637   -16892    -9038 
   -1223    -1377    -7075   -20797   -35349   -32237   -15149    -5926 
  -10225   -19347   -27330   -29585   -26101   -24585   -29954   -43034 
  -61465   -74785   -76178   -69008   -56887   -43312   -28049    -6961 
   16926    36858    44486    33667    15146     5937     7710     9635 
    5823     1964     2005     6357    18990    32241    30663    16780 
    3950     -778     4600    17339    25862    20027     7173    -2790 
  -12532   -22288   -30733   -41781   -52188   -53698   -45321   -36069 
  -37685   -48434   -55701   -54490   -45014   -28782   -16543   -17762 
  -28491   -38346   -41223   -40781   -38920   -29050   -15724   -14665 
  -24541   -27999   -20695   -10197     4282    20598    26533    23972 
   24489    23397    11000    -5925   -16236   -22572   -26345   -16481 
    4119    16386    17536    17825    16083     4495   -14394   -29603 
  -36094   -35022   -26769   -16350   -11691   -11427    -9366    -6940 
   -7268    -6553    -5559   -13444   -29872   -41903   -39208   -20951 
    3857    18267    10314   -13088   -33870   -41693   -35709   -18838 
    -156     8457     2208   -14479   -34216   -52105   -64094   -64964 
  -51373   -25656     1180    14291     8931    -7781   -26231   -35971 
  -31899   -21957   -18683   -27507   -40705   -46441   -45825   -43046 
  -32804   -17046    -8004    -8291   -12904   -20662   -26960   -22208 
   -6563     3926    -5061   -26514   -44672   -52435   -46432   -33578 
  -31759   -41623   -46927   -43645   -38127   -32132   -26893   -21730 
  -12943    -3589     2690     3469    -7350   -21252   -19728    -3371 
   12643    15720     1440   -19573   -27976   -19655   -10078   -11690 
  -21212   -24414   -14760    -7570   -12545   -14721    -6532     1341 
    2906    -5977   -31297   -61533   -74546   -61315   -24949    21776 
   57991    68355    49844    16513   -10868   -30376   -45597   -44111 
  -22896    -2262     5038     3238    -9815   -33959   -49593   -45957 
  -31872   -14378    -3187    -7741   -23506   -40814   -49547   -45190 
  -31592   -10714    11406    24435    22155     2595   -23597   -39997 
  -40884   -28166    -8816     4695     1399   -15876   -30209   -30596 
  -20000    -7413     -233     3138     9283    16874    15432     -716 
  -26529   -52476   -65757   -58291   -38548   -23633   -19550   -19440 
  -22035   -29671   -34707   -31448   -21869    -6117    11219    18549 
   13159     4784     1691     5039    12995    21833    24186    14846 
    1000    -6383    -7561    -6320    -3044    -1764    -3426      196 
    9757    12594     1532   -13493   -19333   -17059   -12938    -9326 
  -11471   -20696   -30961   -37529   -35167   -21433    -3953     6327 
    6391     2507    -3487   -18090   -39452   -55356   -56919   -41861 
  -15222     7582    12248     -983   -24672   -48456   -56165   -45063 
  -32366   -26529   -21299   -18007   -25142   -40901   -55050   -62734 
  -59208   -38802   -17426   -17562   -32850   -46707   -54128   -53522 
  -46126   -32343   -11956     8030    21667    25891    16534    -1689 
  -15599   -15671    -2286    14427    23114    17082    -4132   -29428 
  -44690   -49272   -49645   -46301   -39519   -31997   -21741    -8616 
     126      269    -5778   -14289   -21815   -26958   -30192   -33058 
  -39086   -47277   -50775   -47925   -42518   -33353   -16300     2399 
   10782    10516    10129     8341     4027     3195     5575     2724 
   -8369   -21427   -29922   -32731   -27373   -10649     5756     4690 
  -12802   -34744   -52137   -59298   -53790   -35886   -14043    -4359 
  -10305   -19685   -26460   -33716   -40612   -43722   -44052   -42496 
  -36055   -27393   -25597   -33219   -47562   -63814   -71006   -63537 
  -47669   -31688   -22109   -22956   -32146   -39350   -35322   -23027 
   -8734     4990    12478     9853     4366     4317     6894     8046 
   12058    20817    29984    39130    47335    46649    34607    20238 
   12379    11365    12392    10674     2767    -8606   -15783   -19279 
  -24772   -31302   -37463   -45770   -57123   -66874   -65857   -53114 
  -37904   -27333   -26353   -33589   -38368   -37989   -39995   -47428 
  -56751   -61438   -56705   -45567   -34864   -30392   -36133   -47061 
  -50132   -40023   -23210    -6562     5321     6048    -5591   -18760 
  -20083    -8379     5221    10010     5501      -21    -2757    -5935 
   -6893    -4381    -4827    -4377     4286    13508    14186     6223 
   -8437   -22843   -23932    -8260     9735    11246    -7289   -29814 
  -40294   -37870   -28205   -17009    -9001    -2090     5070     2792 
  -13201   -28342   -30208   -21452    -6267     8628     9750    -4478 
  -19933   -29049   -38375   -52282   -63756   -67596   -65134   -51800 
  -25326    -1441     1871   -14559   -38631   -59452   -68400   -64628 
  -52170   -33876   -19408   -16577   -22193   -34288   -49283   -59409 
  -62794   -57069   -39341   -19702   -10492   -10631   -16445   -26872 
  -32595   -23893    -6357     5276      390   -20654   -43096   -49936 
  -41102   -27896   -15728    -7660   -10141   -21613   -31145   -31537 
  -25024   -18130    -9907     3671    14921    13744     -712   -21305 
  -38217   -48095   -45514   -23591     1425     6010    -7916   -25683 
  -38152   -39204   -27766   -11921      632    10488    15802    10657 
   -1954   -13612   -20254   -21997   -19568   -13766    -8088    -5454 
   -6760   -12449   -18863   -21263   -18852   -14394   -12829   -16095 
  -22495   -30476   -38782   -46455   -51136   -50418   -45437   -37932 
  -29984   -24704   -21572   -16358    -7894    -3318    -8091   -12652 
   -5825     7229    14423     9883    -5653   -23469   -30714   -26221 
  -20273   -16868   -15095   -14089    -7131     3981     4466   -10052 
  -30397   -40636   -28061    -4197    10223    10701     -561   -17671 
  -27368   -25717   -22554   -23195   -23487   -18025    -5070     7702 
   10547     5506     -287    -4551    -6210    -1926     6967    11106 
    6525    -1250    -9470   -17156   -19129   -13525    -5977    -2484 
   -3858    -6928   -10060   -15490   -22049   -21802   -12133    -2732 
   -2854   -11745   -25038   -37459   -41606   -36095   -25397   -12144 
   -2474    -3877   -12760   -20461   -24217   -23437   -18102   -14341 
  -16472   -16920   -10444    -4456    -4192    -5219    -3431    -2164 
   -5851   -10517   -12445   -16328   -20419   -16565    -8468    -2761 
    2544     6209     6275     6587     4324    -7092   -22607   -30599 
  -27976   -20556   -13108   -11495   -23114   -41187   -47937   -36864 
  -16248     1560     7759     1245   -13205   -27936   -34537   -30597 
  -21015   -11993    -9451   -16709   -29597   -41360   -49940   -54020 
  -50697   -43078   -39368   -37247   -25886   -10639    -8586   -19392 
  -28289   -28780   -23254   -15415   -12352   -16286   -16146    -6344 
    1801      127    -7148   -15410   -20273   -15473    -4215     1216 
   -4527   -16623   -29933   -40082   -40390   -31385   -23007   -19238 
  -14848    -7532    -3706    -9803   -20939   -25547   -17905    -1437 
   15772    23839    15379    -4142   -19626   -23891   -20502   -11995 
      55     7487     6170     1418    -7739   -23018   -32420   -28007 
  -17746    -7925     1781     8163     8724     5972      613    -6134 
   -9544    -8686    -7792   -13217   -26183   -36415   -36979   -34133 
  -33064   -32545   -32355   -32034   -28138   -21067   -17271   -19463 
  -23376   -25850   -27095   -25194   -18974   -14040   -13496   -11614 
   -5858     -997     -604    -4684    -8801    -6137     1960     6801 
    3891    -6640   -22729   -36337   -38259   -29491   -18209   -11798 
  -15907   -27877   -36535   -36226   -28622   -17615    -9680    -6821 
