Origin Time       2011/03/11 14:46:00
Lat.              38.103
Long.             142.860
Depth. (km)       24
Mag.              9.0
Station Code      YMN005
Station Lat.      35.6551
Station Long.     138.5679
Station Height(m) 263
Record Time       2011/03/11 14:47:39
Sampling Freq(Hz) 100Hz
Duration Time(s)  300
Dir.              U-D
Scale Factor      3920(gal)/6182761
Max. Acc. (gal)   29.911
Last Correction   2011/03/11 14:47:24
Memo.             
[...]
   30949    26368    21651    18605    17125    16419    16505    18146 
   20734    22156    21910    21506    21946    22849    23015    22105 
   20973    19275    16264    12603     8596     4342     1324     1569 
    5927    12451    17021    17094    13935     9840     5589     2620 
    3352     8063    14554    20514    25247    28260    27588    23366 
   19096    16116    13381    12315    15098    20161    23860    25069 
   25298    24917    22201    17650    15429    17158    19242    18326 
   14459     9152     3271    -2316    -4954    -2703     2433     7435 
   11058    12619    11883     9093     4512      -47    -1811     -227 
    3010     6445     9804    11991    10038     3182    -5110   -11130 
  -13046   -10707    -5575      999     7569    11455    11667    10454 
   10162    11239    13039    15334    18703    22276    23344    21452 
   18771    16173    13729    12926    15292    19885    23186    22786 
   19363    14179     8033     2514      259     2350     5413     5491 
    3561     2330     1307     -742    -2450    -2308    -1019      943 
    3808     6638     8534     9127     8131     6931     8216    12970 
   18954    23245    24668    21806    13600     3058    -5148    -8767 
   -7077     -249     9431    17981    21329    17891    10673     4012 
    -695    -2727     -929     3068     7118    11520    15617    17599 
   17953    17623    16094    13324     9775     6591     6195     9094 
   12940    16225    19047    20662    19265    14698     9705     6559 
    5061     5491     8542    12530    14919    14779    12768    10217 
    8203     7420     8081     9751    11811    13869    15721    16571 
   15211    11563     6913     3074     1852     3832     7408    11290 
   15353    17220    15282    12617    11332    10567    10551    11706 
   12735    11964     9310     6724     6141     7335     8160     8005 
    8352     8190     6103     5021     6998     9514    10728    11829 
   14298    17802    20270    20871    20573    18567    13445     6696 
     981    -1898    -1368     1218     3953     6047     7432     8202 
    8150     7114     5967     6010     7765    11082    15381    18643 
   18099    13954     9119     4731      765     -962     1130     6401 
   13091    19004    22611    23486    20515    12894     3508    -2700 
   -3636     -454     4865     9941    12278    10815     7046     3738 
    1780      207     -964    -1159    -1010    -1023     -858     -219 
    1129     2657     3504     4161     4904     5008     5152     6389 
    7587     7705     8022     9798    12358    14064    14116    13411 
   13328    14233    15635    16630    16192    14024    10380     5147 
   -1282    -7590   -12677   -15233   -14051    -9732    -3854     1489 
    3297      576    -4327    -8764   -10702    -8032     -425    10079 
   20608    27729    28813    24119    15825     7200     2422     3411 
    8267    14278    19704    23145    24209    23685    21999    19293 
   16463    15227    17059    21151    24793    26594    26720    24279 
   18498    11088     4389      264      259     3556     7832    12011 
   15762    18555    19623    18827    17330    16071    15908    17861 
   20578    21699    21131    20101    19874    20848    22546    25502 
   29940    34371    37971    40422    39949    35426    28748    22662 
   18836    18318    20413    22759    23145    20046    14200     7906 
    2565     -114     1206     5486    10538    14297    16042    16546 
   16296    14792    11393     6885     3124      907      471     2210 
    5049     7177     8724    10783    12884    14193    14798    14298 
   11998     7987     3541     1265     2275     4612     6516     7515 
    6950     4989     2823      957     -324      -14     1765     2768 
    1406    -1667    -5189    -8086    -9056    -7278    -3604     -248 
     975     -348    -3914    -8820   -13011   -14870   -14595   -12780 
   -9760    -6460    -3988    -2810    -2968    -3772    -3822    -2777 
   -1255      897     3827     6501     8027     9378    12393    17242 
   22380    26367    28934    30213    29692    27852    26191    24556 
   22428    20967    21693    25160    29980    33442    34333    33153 
   29755    24186    19272    17746    18824    21248    24753    27698 
   27987    25164    20152    15039    12613    13296    14812    16178 
   17581    18455    18766    19095    19152    17460    13404     9024 
    6932     8017    11372    15051    17369    17209    13978     8642 
    3267     -834    -3064    -2916     -312     3778     7183     8563 
    8946     9363     8874     7136     6180     7090     8492     9265 
    9292     8414     6904     6098     6442     6117     4554     3683 
    4075     4810     5495     5810     5293     3816     2677     3901 
    6859     9242    10648    11696    12488    12943    12734    11457 
    8905     5409     2212      505      129       46      -23      177 
     254       89       84       61     -131     -507    -1975    -5003 
   -7871    -8692    -7950    -6813    -5183    -3069    -1534    -1573 
   -2776    -3867    -4251    -3298      352     6611    13164    18189 
   21418    22011    18894    13081     6922     2390      202      325 
    3649     9960    16063    18445    15537     9525     4812     2949 
    3964     8364    13855    17113    17837    17286    16450    15802 
   15516    15457    14511    11831     8243     5323     4219     5335 
    8727    14184    20599    26013    28533    27773    24923    20745 
   15464     9955     5032     1624      877     2547     5581     9077 
   11774    13116    13611    13261    11644     9398     8113     8325 
    9293    10502    11110    10298     8778     7336     5643     3251 
     351    -2238    -3776    -4052    -3269    -1808      395     3478 
    6255     7059     5875     3691      558    -3503    -6869    -8029 
   -7122    -4697    -1715      311     1335     2478     4091     6110 
    8195     9639    10658    11675    12250    12814    14790    17575 
   19043    19689    20941    21337    19844    17755    15838    14196 
   13065    13157    15748    20661    25444    27821    27651    25486 
   21269    16062    12125    10196     9426     9741    11507    13352 
   13527    12972    13443    13756    11404     6920     3067      518 
   -1238     -868     2507     6642     8731     9004     9457    11017 
   13748    17339    21146    24338    25335    22829    18373    15165 
   14122    14707    17426    22017    26288    28450    28266    26338 
   23514    20120    16143    12349     9959     9069     8898     9436 
   10164     9191     6159     3221     2703     4700     6669     6196 
    3121    -1706    -7420   -12267   -13829   -11071    -5249      902 
    5124     8002    11353    14516    15893    15353    12638     7584 
    1711    -2721    -4148    -2572      643     3967     6062     5879 
    3461      246    -2008    -2215     -683     1101     2544     4115 
    5772     7045     7267     6018     4013     2554     2924     5591 
    9297    12559    15203    17478    18927    18469    15847    12334 
    9350     7963     8960    11786    15058    17921    19504    18907 
   16991    16082    17673    21789    26659    28933    26448    19853 
   11851     5393     1508     -147     -242     -381    -2049    -5775 
  -11326   -16778   -19101   -16945   -12109    -7218    -3279    -1131 
   -2008    -4868    -6914    -7239    -6442    -4230     -687     2447 
    3738     3498     2576      889    -1407    -2380     -506     3222 
    6825     8493     6853     2515    -2324    -6232    -8042    -6469 
   -2162     3045     8308    13168    16721    18172    17235    14870 
   12984    11908    11055    11125    12361    14163    16380    18316 
   19324    20088    21455    23592    26073    27912    28137    26851 
   24903    22349    18987    15814    14636    16249    19049    20887 
   21167    19503    15555    10722     6597     3795     3530     5836 
    8257     8779     6667     2310    -2257    -4726    -3683      570 
    5748     9744    11712    11032     7735     3571      699     -602 
   -1410    -1997    -1777     -690       26     -909    -3053    -5763 
   -9403   -13243   -15314   -14770   -12225    -8679    -5579    -4346 
   -5107    -7153    -9285    -9620    -7701    -4960    -2088      328 
     345    -2332    -5243    -6626    -6453    -4784    -1501     3018 
    7505    10423    11184     9909     7044     4232     3762     6052 
    9271    12114    14704    16591    16702    15262    13853    13499 
   13654    13065    11162     8636     6262     4015     2336     1944 
    2064     1461      146    -1251    -1939    -1045     1886     6238 
   10037    11367     9729     6203     2750      633      498     2802 
    6492     9293     9749     8022     5403     3634     4142     7160 
   11633    15973    18973    20679    22039    23697    25681    27249 
   27394    25949    23059    19253    16861    18361    23192    28482 
   31897    32465    30354    26830    23767    22369    22157    22191 
   21936    20308    17000    13438    10469     7884     5544     3411 
    1781      732     -392    -1968    -4003    -6272    -7938    -8272 
   -7115    -4892    -2638     -838      325     -190    -2505    -4558 
   -4161     -780     4312     8754    10911    11143    11157    12458 
   14730    15906    14881    12643    10435     9013     8680     8850 
    8959     9124     9361     9673    10051     9920     9170     8245 
    6901     5192     4081     3981     4592     5882     7970    10158 
   11524    11986    11223     9113     7253     7048     7544     6572 
    3703      830      -59     2350     8137    15138    20742    23686 
   23375    19910    15110    11628    10840    12375    15330    18773 
   21192    22059    23739    28225    33371    36257    37469    38933 
   40723    41673    41014    38357    32958    25090    17637    13797 
   13499    14090    14260    14373    13931    12227     9818     8184 
    8567    10181    10966    10395     9642     9520     9489     9513 
   10411    10698     8189     3811     -128    -2191    -2662    -3004 
   -3086    -2241    -1585    -1874    -2544    -3075    -3129    -2533 
    -971     1818     4861     6599     6911     7021     7133     6191 
    3865      778    -2118    -3967    -4102    -1843     2356     6453 
    8120     6880     5198     5844     9535    15179    20541    23621 
   23786    21770    18897    16512    15471    14813    12967     9822 
    5767     1576     -929     -170     3280     6439     6817     4530 
     673    -4371    -9780   -13219   -13539   -12146    -9986    -6448 
   -1287     4525     9879    14368    17347    17339    13629     7591 
    1527    -2788    -4538    -4180    -2901    -1867    -2223    -3638 
   -3695    -1347     2102     5769     8805    10142    10337    10204 
    9566     8775     8758     9583    10450    11392    13367    16141 
   18286    18869    17414    13848     9322     5763     4518     5429 
    7302     9145     9921     8549     5164     1016    -2234    -2734 
     507     6891    14931    22503    26972    26997    23829    19540 
   15137    11584     9821     9355     9512    10363    11853    13634 
   14318    12183     8269     5258     4130     5312     8970    13327 
   16781    18866    18839    17268    15811    14372    12120     9492 
    7515     6719     7031     8804    12693    17826    22024    23431 
   21205    16264    10399     4998     2127     3022     5854     8611 
   10716    11857    12438    12628    11806    10660    10369    10396 
    9642     8273     7309     7076     6949     6940     7608     7886 
    6680     5341     4774     4047     2914     1696      592      220 
     594     1127     2213     4559     7561     9425     8926     7580 
    8000     9722    10624    10430     8877     4903     -730    -5867 
   -8758    -8786    -7524    -6995    -7320    -8805   -12232   -15840 
  -17109   -16130   -14363   -12987   -12604   -12369   -11151    -9283 
   -6779    -3043      859     3937     7128    10612    12647    12403 
   11443    10691     8450     3943     -902    -4910    -8289   -10000 
   -9080    -7246    -6871    -7447    -6505    -3567     -417     1815 
    3313     3897     2410     -990    -3553    -3185     -556     3259 
    8053    13166    17003    18311    18232    19485    22610    25543 
   27283    29256    32213    34681    35473    34851    33172    30462 
   27118    24607    24668    27297    31000    34738    37932    38912 
   35922    30468    25904    22836    19833    16351    12914    10576 
   10018    10908    12732    14835    15887    14988    12741    10581 
    9661    10441    12587    15377    18454    21706    24628    26446 
   26821    25838    23737    21516    20166    19077    17203    14154 
    9740     5269     3182     3614     4731     5756     6581     6616 
    6170     6808     9420    13430    17602    20830    22507    22416 
   20505    17193    14096    13059    14351    17241    21192    25572 
   29031    29733    27290    23803    21500    20524    19636    17821 
   15202    12606    10361     8376     6556     4383     1667     -523 
    -871      862     3725     6334     7822     8070     7032     4834 
    2468      571    -1524    -4278    -7280   -10080   -12315   -13152 
  -10933    -4851     2969     9658    14829    19355    23259    26149 
   27973    28847    28779    27927    26915    26315    26681    29239 
   35126    43654    51834    56431    56532    53266    47716    40416 
   32867    27243    23659    20808    18821    18223    17844    15938 
   12493     9072     6301     3642     1029    -1131    -1897     -750 
     920     2120     3379     4359     4417     4474     5455     7300 
   10153    13856    17517    20695    23690    27193    30913    32801 
   31496    27222    20389    13008     8638     8092     9394    11820 
   15306    17636    16012    10733     5159     1987     1214     1393 
    1772     2426     2774     2914     4423     7221     9591    10874 
   11121    10507     9730     9061     7886     5880     3397      926 
    -727     -893     -237     -248    -1701    -3647    -4442    -3419 
    -126     5294    10838    14295    14528    11823     7713     3340 
     -76    -1002       14     1190     1763      885    -2160    -5972 
   -8943   -11736   -14776   -16745   -17201   -16150   -12749    -7795 
   -3846    -2014    -1162      230     2514     5060     7260     9082 
   10678    12022    13599    15992    18449    20031    21297    22993 
   24896    26504    27158    26127    23532    20640    19103    19646 
   21339    22665    22503    20186    16465    12947    10015     7296 
    4431     1028    -2468    -5455    -8509   -12098   -15137   -16548 
  -17105   -17818   -17694   -14860    -8902    -1134     6648    13710 
   20630    26611    29141    28610    27784    26933    26024    26590 
   27902    27807    25889    23144    20611    18230    15709    13628 
   12259    10701     7891     4087      518    -2466    -5577    -8756 
  -11003   -11694   -10333    -7447    -5121    -3743    -2348    -1697 
   -2219    -2502    -1812     -494     1450     4041     6419     7189 
    6850     8209    12053    16203    19331    21400    22002    20561 
   17034    12776     9667     7983     7416     7531     6785     4771 
    2186    -1474    -6006    -9437   -10136    -7986    -4521    -1530 
     813     2557     2577     1109      -40     -374      818     5567 
   13045    19039    21230    20822    18658    14346     9353     6472 
    6073     6087     6173     7907     9906     9105     5693      789 
   -5334   -10587   -12866   -12248    -9325    -5239    -1918     -626 
   -1380    -3029    -4575    -5708    -5449    -3473    -1443     -662 
    -570      -68      836     1274     1172     1432     2862     5075 
    6425     6393     6241     6763     8169    10243    11423    10787 
    9004     5985     1431    -3298    -6339    -7240    -6799    -5253 
   -3186    -2784    -5036    -8621   -11831   -13707   -13902   -11650 
   -7084    -2224     1927     5238     6674     6740     8009    12072 
   18668    26613    34056    38560    37939    32200    23719    14595 
    6805     3076     4139     7908    11423    12770    12242    10723 
    8421     5995     4445     4395     6041     8766    11928    15412 
   18300    20045    22086    24598    25976    26786    28243    28972 
   27541    24730    21921    20280    20496    21898    23309    23290 
   19745    12709     5607     1118    -1010     -783     2793     8657 
   13955    16738    17160    16421    14405    10846     7779     7283 
    8952    11270    13893    17030    19322    18860    15774    12259 
   10158     9333     9555    11560    14718    17559    19955    21138 
   19323    15174    11589     9846     8786     8324    10169    13252 
   14353    14078    15038    16296    15361    12101     8884     8381 
   10245    12438    15731    21540    27386    29263    26658    22371 
   18653    16178    15751    17803    20328    20274    17276    13339 
    9498     5856     3579     4182     7322    10723    13036    15212 
   17930    20117    20594    19486    17673    15445    12861    10481 
    8719     7392     5527     2662      273     -537     -421      175 
    1663     4180     6883     9396    12533    16094    19272    21886 
   22978    22465    22605    24408    27089    30822    35520    39678 
   42267    42779    40550    36065    30677    24545    17870    12939 
   11221    10925     9959     8559     7545     5945     2626    -1232 
   -3983    -5879    -7720    -9320    -9631    -7861    -5700    -5183 
   -4888    -3614    -2926    -3733    -5369    -6520    -6305    -5314 
   -3997    -1502     2647     7352    11728    16261    20423    22486 
   22507    22155    22186    21784    19873    16768    13780    11000 
    7406     3705     1890     1603     1244      775      257     -526 
   -1440    -2898    -4615    -5107    -3876    -1341     1838     4266 
    5266     5466     5755     7040     9369    12415    16444    20564 
   22936    23265    22716    22030    21397    21753    23543    25614 
   27468    28812    27861    24417    20691    17831    15879    15154 
   15330    15451    15135    14259    11682     6393     -319    -6420 
  -10783   -11968    -9091    -3430     2517     5838     4357    -1566 
   -9555   -16828   -21012   -21134   -17956   -12632    -6190     -289 
    3657     5489     5813     5742     6296     7816    10447    13980 
   17240    18853    18726    17672    16034    14043    12402    11699 
   11254     9149     5087     1054    -1306     -983     2428     7816 
   13184    16740    18072    18093    17593    16861    16017    15130 
   14275    13731    13739    13927    13853    13637    13356    12469 
   10431     7411     4402     3376     5969    11372    17688    23906 
   28880    31344    31321    29656    26937    23936    22181    23019 
   26415    30509    32625    31646    28131    22851    16649    10573 
    6190     4584     5008     6150     6757     6050     4688     3739 
    4346     6903     9723    11474    12362    12684    12840    13051 
   13230    13708    14783    15955    16228    15250    13666    11870 
   10103     9225     9235     9097     8388     7123     5491     4144 
