Origin Time       2011/03/11 14:46:00
Lat.              38.103
Long.             142.860
Depth. (km)       24
Mag.              9.0
Station Code      YMN009
Station Lat.      35.4966
Station Long.     138.4628
Station Height(m) 230
Record Time       2011/03/11 14:47:43
Sampling Freq(Hz) 100Hz
Duration Time(s)  300
Dir.              E-W
Scale Factor      3920(gal)/6182761
Max. Acc. (gal)   113.783
Last Correction   2011/03/11 14:47:28
Memo.             
[...]
  -63276   -63111   -63199   -63687   -62928   -59614   -53939   -46995 
  -39735   -32748   -26452   -20823   -15710   -11514    -8358    -5879 
   -4312    -3931    -4508    -6248    -9244   -12405   -15012   -17659 
  -20624   -23582   -26434   -29276   -32122   -34444   -35406   -34591 
  -32063   -28509   -25037   -22105   -19639   -18163   -18145   -18731 
  -18801   -18579   -19015   -20216   -21652   -23213   -25141   -28024 
  -32428   -37836   -43495   -49352   -55019   -59696   -63279   -66199 
  -68150   -68274   -67164   -66708   -67655   -69108   -69746   -68531 
  -65101   -59494   -51944   -43523   -35541   -28545   -22609   -17674 
  -14175   -12665   -12332   -12217   -12391   -12705   -12800   -12593 
  -12272   -12467   -13428   -15423   -19383   -25064   -31220   -37578 
  -44388   -51667   -58970   -65602   -71628   -77381   -82313   -85641 
  -87150   -87554   -88319   -89623   -90079   -89092   -87186   -84858 
  -82039   -77960   -71954   -64751   -57832   -51497   -45027   -38026 
  -31121   -25289   -20370   -16220   -13756   -12746   -12199   -12631 
  -14542   -17330   -20713   -24269   -27004   -28813   -30590   -33322 
  -37275   -41579   -45581   -49234   -51936   -53302   -53775   -53728 
  -53283   -52285   -50437   -47891   -45185   -42696   -40512   -38673 
  -37199   -36405   -36577   -36619   -35267   -33025   -30757   -28470 
  -26110   -23915   -22301   -21705   -22044   -22530   -22490   -21961 
  -21551   -21876   -22396   -22446   -23056   -25360   -29373   -34428 
  -39047   -42003   -43551   -44874   -46706   -48965   -51678   -54601 
  -56828   -57659   -56282   -52765   -48933   -45708   -42965   -41084 
  -40035   -39546   -39307   -38879   -38937   -40870   -44791   -49060 
  -52329   -54822   -56855   -58739   -61326   -64759   -68316   -70627 
  -70536   -68578   -65571   -61786   -57160   -50768   -42346   -32877 
  -23296   -14419    -6716      -27     5701    10182    13184    14418 
   13301     9651     4207    -2388    -9785   -17205   -23978   -29944 
  -35407   -40885   -46241   -50862   -54443   -56930   -58311   -58774 
  -58898   -58766   -57480   -54680   -51248   -48464   -46968   -45863 
  -44249   -42713   -41360   -39434   -37305   -35753   -34291   -32127 
  -29334   -26399   -23739   -21019   -17555   -13753   -10287    -7627 
   -6600    -7204    -8805   -11575   -16077   -22960   -31943   -40967 
  -48853   -55552   -60583   -65171   -71307   -78707   -85751   -90740 
  -93397   -95158   -96661   -97197   -95683   -91954   -86741   -79930 
  -71639   -62899   -53727   -43480   -32212   -20757   -10495    -2442 
    3402     7160     8197     5753      271    -6252   -11331   -13909 
  -15401   -17543   -20358   -23376   -26560   -29946   -33574   -37145 
  -39962   -41937   -43536   -44129   -42426   -38566   -34029   -30177 
  -27094   -23970   -21064   -19354   -18376   -17003   -15002   -12607 
  -10389    -9003    -8250    -7461    -6554    -6084    -6440    -7418 
   -8805   -10591   -12294   -13220   -13435   -13491   -13551   -13593 
  -13990   -15206   -17385   -20311   -24118   -29690   -36988   -44538 
  -51414   -57926   -63867   -68684   -73798   -80180   -86351   -91615 
  -95906   -98679  -100218  -100334   -98359   -94678   -89475   -82635 
  -74432   -64721   -53799   -42793   -31968   -21149   -11500    -4449 
     342     4114     7562    10415    11510    10105     6289      563 
   -6066   -12561   -18107   -22696   -27200   -31250   -33194   -32810 
  -31596   -30629   -29605   -28203   -26692   -24941   -22783   -20530 
  -18770   -17899   -17465   -17054   -17057   -17874   -19356   -21373 
  -24157   -27834   -32193   -36576   -40434   -43871   -47312   -51296 
  -55622   -59214   -61572   -62907   -63209   -62086   -59398   -55914 
  -52773   -50666   -49703   -49272   -48721   -47919   -46423   -43815 
  -41072   -39744   -39791   -40020   -40560   -42823   -47241   -51997 
  -54688   -55002   -53764   -51068   -47153   -42672   -37855   -32600 
  -27018   -21762   -17650   -14824   -12397    -9617    -6915    -4578 
   -2539    -1801    -2802    -4479    -6538    -9458   -12901   -15688 
  -16972   -17125   -16375   -15046   -14940   -16080   -16861   -18507 
  -22207   -26397   -30389   -34836   -39553   -43803   -47100   -49094 
  -50052   -50923   -51878   -52578   -53105   -53694   -54901   -57052 
  -59778   -62815   -66383   -70995   -76111   -79555   -80728   -80995 
  -80211   -78200   -75818   -72751   -69236   -66237   -63084   -58378 
  -51920   -45126   -38795   -32276   -25849   -20983   -18979   -20323 
  -24578   -30342   -35907   -40416   -43415   -44987   -46239   -47730 
  -49377   -51095   -52329   -53129   -54325   -56060   -57897   -58919 
  -58183   -55742   -51800   -46345   -39856   -32823   -25067   -16439 
   -7946     -493     6411    12916    18209    21810    23994    25326 
   25807    24895    22765    20002    15736     9248     1687    -6582 
  -15650   -23996   -30934   -37745   -45002   -51749   -57520   -62742 
  -67099   -70157   -73086   -76644   -80014   -83036   -85378   -86283 
  -86717   -87398   -87328   -85729   -82447   -78021   -73655   -69644 
  -65324   -60465   -55457   -50475   -45050   -38641   -31049   -22428 
  -13460    -5194     1243     5218     6854     6107     2986    -1550 
   -6576   -11681   -16374   -20441   -23691   -25547   -26955   -29599 
  -32095   -32931   -33512   -34390   -35392   -36852   -38153   -39213 
  -40602   -42141   -43895   -46472   -49768   -52717   -54868   -56841 
  -58951   -61139   -63311   -65327   -67217   -68747   -69861   -70883 
  -71127   -69935   -67889   -64992   -60975   -56414   -51195   -44937 
  -38318   -32164   -27098   -23564   -21112   -18420   -14720   -10697 
   -6837    -2659     1818     6041     9632    12774    15594    17327 
   17401    15390    10969     4296    -4678   -15263   -26248   -36280 
  -44211   -51650   -60460   -69293   -76970   -84163   -91001   -97168 
 -102912  -108222  -112626  -115719  -117413  -117836  -116849  -114283 
 -110242  -105114   -99364   -93011   -86105   -78741   -70829   -62527 
  -53697   -44108   -33907   -23045   -11675     -152    10729    19118 
   24426    28020    30756    32123    31286    29170    27362    25234 
   22850    21874    21391    19807    17058    12502     5918    -2078 
  -10979   -20225   -29653   -38854   -47016   -53764   -58741   -61192 
  -60831   -58712   -56107   -53478   -51110   -49521   -49044   -48842 
  -47088   -43056   -37982   -33419   -29884   -27261   -25590   -24542 
  -23425   -22643   -22981   -24388   -26553   -28649   -30013   -32025 
  -35127   -35961   -34027   -33251   -32887   -30909   -30056   -30540 
  -30756   -31580   -32884   -34212   -35956   -38309   -41440   -44473 
  -45809   -45330   -45124   -47263   -50435   -52567   -55003   -58369 
  -61635   -65563   -70025   -73868   -77045   -78798   -78057   -74847 
  -69358   -61607   -52184   -42395   -33484   -26092   -20562   -17181 
  -15672   -15438   -16586   -18673   -20070   -20589   -20879   -20875 
  -21463   -23033   -24773   -27123   -30295   -33598   -36809   -39391 
  -41429   -43863   -46316   -47790   -48351   -48866   -50215   -52603 
  -55516   -58271   -60859   -63813   -66668   -68416   -68970   -68394 
  -66153   -61725   -55789   -49902   -44493   -39171   -34076   -29266 
  -24762   -21022   -17853   -14353   -10051    -5235     -939     1868 
    2866     1771    -1833    -8227   -17205   -27743   -38231   -47541 
  -55641   -62531   -67922   -72098   -75525   -77798   -78035   -76110 
  -72901   -69592   -66567   -63097   -58421   -52536   -45989   -39404 
  -32905   -26191   -19579   -13688    -8676    -5426    -4970    -6561 
   -9158   -12477   -15691   -18149   -20560   -23851   -27902   -31773 
  -34430   -35656   -36505   -38002   -40154   -42608   -45360   -48307 
  -50745   -52355   -53229   -53194   -52927   -53326   -53981   -54589 
  -55302   -55594   -55498   -55832   -56774   -57679   -57371   -55266 
  -52094   -48696   -45279   -41939   -38951   -36329   -33962   -32224 
  -31176   -30166   -28976   -27981   -27370   -26931   -26472   -25938 
  -25493   -25747   -26976   -29222   -32934   -37534   -41753   -45433 
  -48513   -50631   -51751   -51416   -49393   -46454   -42970   -38747 
  -34127   -29715   -25536   -20967   -15536    -9250    -2542     3761 
    9010    12710    14640    15010    13792    11411     8783     5503 
     894    -4306    -9636   -15332   -21189   -27002   -32979   -39659 
  -46871   -53103   -57827   -62092   -65530   -66745   -65863   -63251 
  -58774   -52548   -44632   -36285   -29501   -24840   -22202   -21270 
  -21354   -22281   -24042   -25915   -26898   -26814   -26462   -26740 
  -27958   -29764   -32013   -35440   -39644   -42509   -43477   -43136 
  -40925   -37148   -33154   -28998   -24080   -18273   -12076    -6583 
   -2371      750     2720     3196     2143      -59    -2804    -5589 
   -8740   -13028   -18262   -24072   -30575   -37246   -43883   -50838 
  -57275   -62347   -66414   -69726   -71951   -72790   -72807   -73115 
  -73280   -72272   -70988   -70399   -70095   -69489   -68337   -67386 
  -67366   -67115   -64823   -59811   -52631   -44486   -36353   -28629 
  -21760   -16508   -13204   -11456   -10836   -11013   -11471   -11900 
  -12516   -14178   -18229   -24862   -32428   -40585   -50746   -62298 
  -73976   -85736   -96919  -107159  -116568  -124532  -130631  -134997 
 -137739  -139363  -140974  -142659  -143398  -142601  -140039  -135858 
 -130611  -124302  -116572  -107684   -98541   -89829   -81559   -73748 
  -66297   -58583   -50596   -42869   -35540   -28466   -21298   -14034 
   -7268    -1539     2774     5539     7020     7630     7214     5687 
    4296     3713     3545     3591     2391    -1040    -5763   -11809 
  -18769   -24793   -29560   -32962   -33905   -32730   -31120   -30413 
  -30970   -32990   -36978   -42234   -47072   -50177   -51189   -50945 
  -49939   -48045   -46058   -45285   -46256   -48358   -50533   -52288 
  -53549   -53915   -52618   -49107   -43698   -37324   -30717   -24360 
  -18920   -15193   -13149   -11687   -10042    -8342    -7141    -7173 
   -8829   -11886   -15895   -20114   -23576   -25990   -27671   -28810 
  -29545   -30252   -31628   -34211   -38143   -43665   -50707   -58660 
  -66962   -74918   -82040   -88651   -95081  -101325  -107441  -113686 
 -120221  -126444  -131405  -134587  -135627  -134158  -129896  -123208 
 -115603  -107790   -98849   -88342   -76782   -64947   -53616   -43600 
  -36165   -31970   -30391   -30975   -33473   -37355   -42528   -48441 
  -53614   -57035   -58582   -58432   -56551   -53078   -48829   -44613 
  -40412   -35769   -30920   -26281   -21584   -17070   -13666   -11343 
   -9322    -7696    -7130    -7643    -8671    -9619   -10202   -10591 
  -10867   -10898   -11029   -11733   -13089   -15065   -17140   -18075 
  -16803   -13563    -9663    -5836    -2245      475     1829     2074 
    1694      877     -529    -2470    -4502    -6474    -8498   -10123 
  -10713   -10399    -9405    -7236    -3649      484     3963     6346 
    8327    11069    14653    18291    21273    22712    22615    21969 
   21008    19605    17856    15451    12025     7989     4230     1561 
     322      -73     -272     -543    -1277    -2732    -4642    -6970 
  -11257   -18022   -24191   -29131   -36821   -46103   -52209   -56525 
  -60193   -61576   -62787   -65296   -68487   -72767   -77568   -81839 
  -85348   -87850   -89155   -89455   -89298   -89934   -92362   -95904 
  -99439  -102385  -104298  -105302  -105280  -103011   -97905   -90605 
  -81793   -73164   -66805   -60978   -53713   -47428   -41835   -34461 
  -27051   -20672   -14320    -8086    -1839     4501    10470    16159 
   21864    26801    29001    27068    21589    14073     5931    -1376 
   -7478   -12875   -17791   -22872   -28963   -36195   -43949   -52003 
  -60773   -70233   -79365   -86461   -91205   -94104   -94986   -94547 
  -92835   -89100   -83916   -78160   -73036   -68498   -63233   -57768 
  -52241   -45628   -37663   -28973   -20575   -11773    -2666     3609 
    6304     6860     3853    -3276   -10726   -14722   -14767   -13110 
  -11213    -7913    -3052     1563     5186     8563    12277    16734 
   21812    25939    28428    30239    31624    32130    31653    30301 
   28057    24844    19928    12273     3038    -5589   -13395   -20488 
  -26812   -33573   -41344   -49704   -58502   -67254   -75139   -81690 
  -87149   -91834   -95510   -97769   -98019   -96003   -92200   -87049 
  -80766   -73693   -66374   -59367   -52764   -46316   -39294   -30373 
  -18993    -5602     8917    23217    36065    46366    54260    61112 
   65602    65823    64220    62513    58471    51729    44183    35958 
   26107    13985     -798   -17567   -35062   -53149   -71665   -89278 
 -104842  -117422  -126071  -131136  -134100  -135575  -135739  -135410 
 -134451  -132252  -128956  -124569  -118986  -112662  -106501  -101160 
  -97103   -94905   -94775   -96223   -98279  -100739  -104424  -108493 
 -110505  -110671  -110415  -108743  -105318  -101178   -95980   -88994 
  -79888   -68526   -55521   -41655   -27454   -13863    -1873     8660 
   17393    21755    22234    23642    24699    20390    14087    10045 
    6767     4663     3671     1103    -3021    -8092   -14398   -21687 
  -30386   -39668   -47073   -54127   -66216   -83168   -98565  -111904 
 -126380  -139799  -152490  -166686  -180523  -193417  -204849  -213273 
 -217821  -217466  -212870  -205208  -194822  -182207  -167519  -151076 
 -134442  -119219  -105321   -91231   -75338   -57561   -39265   -21420 
   -4402    11316    24983    35714    43245    47909    50187    50928 
   50962    50491    49231    46531    41423    33540    23718    13265 
    3367    -5348   -12886   -19413   -25397   -32004   -39949   -48129 
  -55117   -60573   -64539   -67273   -69083   -70167   -70686   -69929 
  -66921   -61697   -54439   -45096   -33735   -20703    -7137     5854 
   17823    28309    37218    44861    51168    56462    61491    66277 
   70692    74739    78250    81228    83262    83148    80403    75852 
   69991    63070    54913    43873    29920    14767    -1130   -17302 
  -33867   -52197   -72065   -91706  -109310  -123666  -134905  -143584 
 -148711  -149346  -146814  -141666  -134174  -125994  -117014  -107311 
  -98158   -89176   -79709   -69688   -58859   -47494   -36505   -26636 
  -18631   -13076   -10152   -10078   -12072   -14744   -17593   -20048 
  -21395   -21947   -21945   -21266   -20612   -20470   -20600   -20736 
  -20437   -19780   -19396   -18846   -17302   -15165   -13101   -11407 
  -10776   -11988   -14616   -17289   -19292   -19933   -18354   -15477 
  -13378   -13058   -13748   -14032   -13152   -10613    -6043     -153 
    5018     8067     8889     6381     -721   -11756   -25369   -40061 
  -54108   -66648   -77311   -85779   -93067  -100160  -106175  -109714 
 -108853  -102947   -94190   -83644   -72054   -61629   -52678   -44907 
  -39052   -34440   -29922   -26096   -23276   -20160   -15925   -10718 
   -6225    -3702    -1092      508    -2851   -10143   -20189   -33297 
  -46627   -58446   -69879   -81383   -92485  -102542  -110915  -116896 
 -119211  -116541  -108623   -96854   -83641   -70344   -57608   -46258 
  -36003   -26261   -17036    -7826     1387     9781    16969    23134 
   29161    35224    40187    43551    44510    41979    36509    28627 
   18610     8024    -1810   -10953   -19936   -29175   -38541   -47582 
  -56145   -64234   -71936   -78921   -84403   -87945   -89120   -87682 
  -84096   -79222   -74548   -71582   -70598   -71142   -72622   -73807 
  -73573   -72452   -71379   -68809   -63073   -56149   -49985   -44878 
  -42100   -42055   -43892   -46732   -49438   -51380   -52222   -52212 
  -52772   -55058   -58926   -63750   -69121   -73974   -77910   -82706 
  -88799   -94153   -97990  -100244   -99927   -96745   -90225   -81118 
  -72986   -65989   -57789   -49538   -42105   -34664   -27663   -21579 
  -16449   -12700   -10123    -8811    -9884   -11041    -8721    -4357 
     403     6311    12308    17533    22997    28286    32301    35126 
   36113    34528    30499    23025    11390    -3359   -20289   -38684 
  -56878   -72461   -84271   -93173  -100650  -107790  -113869  -117694 
 -120027  -121407  -121438  -120871  -120508  -119305  -116465  -113092 
 -109352  -104147   -97851   -91322   -85114   -79914   -75532   -72171 
  -70272   -68831   -66718   -63283   -58316   -52246   -45985   -40148 
  -33964   -27439   -22014   -17651   -13646    -9887    -5894    -1533 
    3073     8714    15239    20606    24440    27833    29694    28895 
   26398    22674    17745    12942     9762     8691     9807    12504 
   14827    16503    18824    18923    14601     9664     5126    -1377 
   -9595   -19275   -30181   -41441   -53089   -64716   -75572   -84875 
  -91921   -96753   -98928   -98213   -95488   -90753   -83443   -74099 
  -63666   -52520   -40373   -26943   -13392    -1621     7584    13931 
   17535    18860    16973    11342     4581    -1561    -9538   -19606 
  -28956   -39002   -50922   -61644   -70024   -77140   -83789   -89600 
  -92557   -91353   -86363   -79711   -73747   -67848   -60966   -54795 
  -51089   -50079   -51813   -56387   -63082   -70746   -78905   -87222 
  -95465  -103750  -111701  -117880  -120059  -118028  -113136  -105201 
  -95085   -84454   -72743   -59938   -48035   -39151   -34309   -33806 
  -38475   -47409   -56888   -64648   -70587   -74283   -75127   -73133 
  -69039   -62895   -54618   -45683   -37420   -30971   -26570   -22641 
  -18991   -15996   -13324   -11181    -9263    -7625    -6629    -5237 
   -2877     -129     2701     5476     7863     9895    11914    13320 
   13145    11185     7869     4220      602    -3601    -8290   -12698 
  -16701   -20646   -24832   -29635   -34940   -39587   -42484   -44095 
  -45665   -47834   -50613   -53776   -57256   -61028   -65319   -69988 
  -73687   -75588   -75958   -75324   -74777   -75394   -77563   -80979 
  -84882   -88520   -91345   -93529   -95105   -95463   -94574   -92396 
  -88926   -85028   -81386   -78070   -74749   -70766   -65624   -59542 
  -53634   -49086   -45688   -42111   -37680   -32283   -25794   -18705 
  -11691    -5306     -363     2590     3993     4840     5633     6584 
    7578     8205     8844     9864    11413    13809    16451    18584 
   19802    19564    18437    17783    17617    16992    15498    12780 
    8619     3964     -113    -4073    -8903   -14413   -20017   -25639 
  -31166   -36434   -41588   -47052   -53702   -62088   -71457   -80741 
  -89604   -98190  -105842  -111706  -115983  -117691  -116511  -114944 
 -113602  -110346  -103833   -94538   -82933   -69761   -57086   -45713 
  -35828   -27973   -22289   -19559   -19659   -21403   -24306   -28362 
  -33782   -40387   -47592   -54567   -60413   -65325   -70179   -75201 
  -80229   -85339   -90240   -94457   -97746   -99634  -100191   -99891 
  -98707   -96431   -93111   -89147   -84409   -78354   -70573   -60821 
  -49658   -37869   -26138   -14864    -3765     6362    14178    20012 
   24450    27651    30235    32335    34240    36616    38857    40394 
   41460    41837    41191    39907    38433    36679    35172    34546 
   34687    35766    37701    39657    40808    40309    37124    30662 
