Origin Time       2011/03/11 14:46:00
Lat.              38.103
Long.             142.860
Depth. (km)       24
Mag.              9.0
Station Code      YMN009
Station Lat.      35.4966
Station Long.     138.4628
Station Height(m) 230
Record Time       2011/03/11 14:47:43
Sampling Freq(Hz) 100Hz
Duration Time(s)  300
Dir.              U-D
Scale Factor      3920(gal)/6182761
Max. Acc. (gal)   36.832
Last Correction   2011/03/11 14:47:28
Memo.             
[...]
  -77901   -76794   -75759   -74037   -72209   -71567   -72601   -75871 
  -81342   -86427   -88576   -88435   -87983   -87870   -87556   -86487 
  -85087   -84523   -84930   -85186   -84912   -84699   -84560   -84448 
  -84966   -85905   -86651   -87859   -90045   -92919   -96913  -101936 
 -106388  -109703  -112657  -115212  -116304  -115185  -112883  -111457 
 -111415  -111804  -111865  -110965  -108551  -104882  -100644   -96141 
  -91740   -88254   -86060   -84336   -81990   -79156   -76905   -76165 
  -77323   -79976   -83473   -87091   -89446   -89895   -89648   -90110 
  -91788   -94578   -97986  -101523  -104431  -105141  -102817   -99116 
  -96490   -95557   -95468   -95282   -94191   -91770   -88104   -83791 
  -79949   -77449   -76564   -77034   -77963   -78842   -79921   -80789 
  -80988   -81414   -82463   -82916   -82338   -82000   -82461   -82356 
  -80740   -78544   -76663   -75314   -74987   -75482   -76007   -76692 
  -77463   -77502   -77185   -77802   -79854   -82877   -85807   -87771 
  -89396   -92069   -95488   -98320  -100664  -103054  -104846  -105663 
 -106152  -106557  -106351  -105091  -103054  -100863   -98132   -93932 
  -88569   -83172   -78442   -74489   -71554   -70489   -71174   -71926 
  -72193   -72913   -73668   -73110   -71305   -68976   -66445   -64425 
  -63834   -64700   -66282   -68029   -70095   -72805   -75900   -78957 
  -81800   -84020   -85341   -86320   -87977   -91011   -94734   -97323 
  -98362   -99217  -100576  -101875  -102291  -101742  -101553  -102550 
 -103307  -102400  -100416   -98495   -96663   -93917   -89767   -85373 
  -81816   -78800   -76177   -74238   -72717   -71146   -69297   -67367 
  -65863   -64384   -62212   -60770   -62203   -66133   -70621   -74237 
  -76318   -77077   -76926   -76279   -76093   -76587   -76817   -76427 
  -76368   -77669   -79997   -82098   -83132   -82986   -82024   -80625 
  -78843   -76652   -74241   -71746   -69005   -66170   -63735   -61559 
  -59331   -57600   -56869   -56573   -56144   -56094   -57193   -59695 
  -63589   -68477   -73421   -77403   -80260   -83357   -87749   -92250 
  -95416   -97367   -98830  -100187  -101239  -101661  -101602  -101722 
 -102800  -104499  -105521  -106130  -107781  -110200  -111616  -111095 
 -109700  -109311  -109838  -109303  -107290  -105654  -105107  -103879 
 -100320   -94783   -89065   -84499   -80825   -77443   -74572   -72458 
  -70699   -68717   -66513   -64978   -65025   -66332   -67874   -69574 
  -72363   -76373   -80360   -83362   -85378   -86635   -87425   -87920 
  -88253   -88986   -90488   -92687   -95588   -98542  -100041   -99249 
  -97160   -95587   -94918   -94178   -92749   -90881   -89221   -87622 
  -85389   -83135   -81876   -81438   -81610   -82583   -84200   -85891 
  -86614   -85679   -83782   -82001   -80505   -78733   -76438   -74366 
  -73083   -71820   -69793   -67492   -65570   -63821   -61804   -59620 
  -58169   -58205   -59410   -61512   -64833   -69297   -74258   -79137 
  -83769   -88180   -92174   -95362   -97539   -99148  -100980  -103129 
 -105202  -106762  -106562  -103891  -100540   -98445   -97509   -97763 
  -99828  -102662  -104362  -104316  -103228  -102760  -104333  -107551 
 -111108  -114185  -116610  -118846  -120991  -121959  -120844  -118127 
 -115232  -113023  -110503  -106317  -100875   -95461   -90888   -87613 
  -85982   -86216   -87808   -89352   -89754   -88495   -84936   -79847 
  -76109   -75119   -75170   -74422   -72674   -71077   -71079   -72393 
  -73395   -73713   -74131   -74945   -75829   -76170   -75697   -74999 
  -74571   -74172   -73797   -74092   -75506   -77679   -79927   -82257 
  -84767   -86247   -85408   -82890   -80497   -78904   -77376   -75712 
  -74444   -73712   -73534   -73538   -72771   -71327   -70190   -69467 
  -68762   -68081   -67483   -66495   -64458   -61584   -58674   -56379 
  -55098   -54243   -52782   -51082   -50197   -49970   -49815   -49880 
  -50650   -53056   -57697   -63381   -68671   -73789   -79463   -85457 
  -90645   -94247   -97022  -100101  -102892  -103926  -103192  -101989 
 -101066   -99642   -96618   -92798   -90153   -89244   -89019   -88206 
  -86577   -85027   -83931   -82871   -82225   -82300   -82226   -81963 
  -82015   -81762   -81266   -81488   -82051   -82345   -83339   -85859 
  -89114   -92263   -95781  -100017  -103616  -105362  -105881  -105969 
 -105682  -105163  -104554  -103574  -101938   -99665   -96382   -92004 
  -87476   -82899   -77653   -72422   -68171   -64657   -61783   -59916 
  -58580   -57879   -59060   -61727   -64231   -66411   -68865   -71595 
  -74580   -77585   -80616   -84314   -87930   -90120   -91284   -92192 
  -92943   -93253   -92169   -89274   -85851   -83433   -81958   -80293 
  -77987   -75947   -75393   -76163   -77071   -77665   -77768   -76716 
  -74539   -71928   -69006   -65700   -62686   -60841   -60121   -59640 
  -58782   -57924   -57713   -58569   -61196   -66030   -72571   -79862 
  -86770   -92332   -96308   -99020  -100679  -101115  -100404   -99290 
  -98181   -96600   -94344   -92068   -90561   -89874   -89410   -88789 
  -87853   -86759   -86232   -86465   -86621   -85775   -84090   -83139 
  -84088   -86165   -87733   -87944   -87160   -85869   -83977   -81683 
  -79594   -78166   -77853   -78487   -78996   -79201   -80158   -82160 
  -84728   -87865   -91520   -95098   -98135  -100359  -101392  -101359 
 -100613   -98679   -95304   -91637   -88755   -86364   -83913   -81610 
  -79826   -78472   -77125   -75523   -73969   -72818   -71839   -70593 
  -68987   -67345   -65615   -63339   -61189   -60534   -61166   -61566 
  -61309   -61353   -62045   -62916   -64188   -66482   -69726   -73349 
  -76878   -80436   -84497   -88911   -93010   -96836  -100967  -105250 
 -109026  -111647  -112698  -112763  -112889  -113708  -115131  -116449 
 -118176  -121420  -124841  -126494  -126751  -126820  -126900  -126337 
 -125068  -123870  -122812  -121680  -120555  -118828  -116652  -115887 
 -117246  -119100  -119337  -117151  -113914  -111640  -110437  -108727 
 -105458  -101097   -96588   -92271   -87949   -83392   -78910   -75273 
  -72490   -69580   -66188   -63077   -60988   -60143   -60389   -61447 
  -63197   -65362   -67330   -68949   -70672   -72340   -73153   -73558 
  -75087   -77808   -80403   -82339   -84006   -85799   -87916   -90665 
  -94523   -99415  -104568  -109425  -113863  -117430  -119307  -119185 
 -117384  -114527  -111507  -108873  -106454  -104092  -102203  -101366 
 -101263  -100900  -100341  -100358  -101080  -102469  -103907  -103887 
 -102020   -99809   -99004   -99632  -100277  -100445  -101020  -102912 
 -105900  -108092  -107863  -106068  -104802  -104518  -103727  -101567 
  -98816   -96202   -93558   -90688   -87879   -85595   -84033   -82969 
  -82079   -81252   -80487   -79772   -79317   -79423   -79814   -79987 
  -79931   -79959   -80591   -82100   -83878   -85104   -86034   -87659 
  -89546   -90048   -88896   -86973   -84963   -83315   -81963   -80951 
  -80707   -80927   -80953   -80737   -80659   -81036   -81793   -83108 
  -85713   -89314   -92276   -93634   -93751   -93324   -92885   -92328 
  -91121   -89643   -88786   -88260   -86617   -82980   -78310   -73987 
  -69610   -64132   -58133   -52805   -48514   -45551   -44558   -46213 
  -50625   -56728   -63034   -68715   -73633   -77888   -81530   -84519 
  -86733   -88093   -88719   -88421   -86441   -82688   -78154   -73760 
  -69964   -66587   -62958   -58991   -55251   -52412   -50934   -50674 
  -51147   -52166   -53634   -55413   -58128   -62216   -66651   -70729 
  -75039   -79925   -84644   -88384   -91188   -93121   -94301   -95625 
  -97486   -99095   -99740   -99448   -99023   -99403  -100194  -100592 
 -101030  -101568  -101158   -99455   -96869   -93692   -90410   -87490 
  -84728   -82007   -79918   -78625   -77400   -75860   -74353   -73083 
  -71714   -69934   -68100   -66887   -66570   -67019   -67924   -69107 
  -70528   -71451   -70660   -68135   -65141   -62662   -60852   -59419 
  -58221   -57647   -57887   -58400   -58693   -58989   -59794   -61562 
  -64706   -68817   -72909   -77165   -82310   -87700   -92000   -94563 
  -95724   -96388   -97073   -97599   -97755   -97560   -96742   -94799 
  -91819   -88466   -85050   -81258   -77331   -74426   -73140   -73182 
  -74398   -76553   -79125   -81659   -83513   -84939   -87306   -90858 
  -94446   -97035   -99005  -101790  -105405  -108618  -110907  -112084 
 -112255  -112167  -112250  -112470  -112819  -113404  -113681  -112389 
 -109915  -108026  -106928  -105946  -105270  -105124  -105226  -105621 
 -106558  -107321  -106308  -102492   -96426   -89875   -84266   -79557 
  -75700   -73698   -73564   -74286   -75476   -76711   -77675   -78922 
  -80604   -81993   -82807   -83164   -82843   -82196   -81820   -81048 
  -79414   -78050   -77850   -78525   -79358   -79783   -80145   -81136 
  -82572   -83852   -84812   -85924   -87985   -91002   -93392   -93483 
  -91780   -89931   -88363   -87015   -86458   -86926   -88323   -90766 
  -93643   -95752   -96595   -96350   -95634   -94951   -93824   -91969 
  -90202   -89007   -88042   -87016   -85757   -84259   -83013   -82301 
  -81874   -81695   -81802   -82022   -82823   -85158   -88898   -92667 
  -95427   -97182   -98055   -97973   -97253   -96225   -95260   -95108 
  -95815   -96696   -97397   -97577   -96648   -94607   -92341   -90675 
  -89664   -88937   -88311   -87591   -86039   -83349   -80522   -78433 
  -77207   -77002   -77391   -77642   -77748   -77343   -75764   -73845 
  -72926   -72821   -72672   -72266   -71738   -71282   -71002   -70502 
  -69046   -67024   -66364   -67573   -68699   -68575   -67793   -66857 
  -65801   -64902   -64896   -66038   -67615   -69089   -70708   -73046 
  -76188   -79548   -82734   -85971   -89653   -93456   -96492   -98564 
  -99645   -99152   -97217   -94524   -90923   -86673   -83346   -81507 
  -80553   -80674   -81959   -83566   -84486   -83950   -82332   -80625 
  -79281   -79141   -80370   -81619   -82914   -84962   -86966   -88443 
  -89476   -89699   -89280   -88857   -88380   -87684   -87290   -87726 
  -89315   -92283   -96124   -99438  -100876  -100212   -97989   -94783 
  -91146   -87284   -83494   -80596   -78868   -77805   -77140   -76819 
  -76251   -74921   -73191   -71558   -70009   -68293   -66411   -64715 
  -63402   -62086   -60337   -58348   -56504   -54867   -53089   -50698 
  -48029   -46153   -45523   -45803   -46825   -48362   -49686   -50422 
  -50739   -51241   -52579   -54111   -55143   -56379   -57976   -59317 
  -60657   -62677   -65551   -68924   -71808   -73064   -72739   -71997 
  -71442   -70420   -68424   -66323   -65319   -65758   -67070   -67985 
  -67842   -67479   -68079   -70272   -74118   -79097   -84657   -90588 
  -96495  -101884  -106697  -110781  -113958  -116347  -117826  -118540 
 -118884  -118500  -117045  -114866  -112152  -109055  -106410  -104810 
 -103709  -102155   -99411   -95277   -90553   -86250   -82347   -78630 
  -75481   -72893   -70856   -69960   -70076   -70340   -70639   -71727 
  -73649   -75145   -75407   -74933   -74810   -76009   -78139   -80017 
  -81664   -83785   -86679   -89977   -92713   -94747   -96717   -98275 
  -98780   -98613   -98426   -98317   -97927   -97005   -95862   -95054 
  -94879   -95274   -95882   -96730   -98731  -102135  -105886  -109344 
 -112532  -115544  -118651  -121461  -122934  -122867  -121714  -119614 
 -116617  -112824  -108495  -104493  -101532   -99051   -96108   -92790 
  -89815   -87384   -85113   -83122   -82073   -81677   -81210   -81010 
  -81767   -83781   -86496   -88763   -90594   -92591   -94681   -96703 
  -98348   -99256   -99358   -98663   -96992   -93910   -89753   -85630 
  -81936   -78626   -76186   -75185   -75512   -76588   -78194   -80320 
  -82672   -85148   -87916   -91006   -94308   -97459  -100207  -102688 
 -105126  -107907  -111174  -114396  -116677  -117300  -116581  -115557 
 -114683  -113751  -112456  -110504  -107759  -104387  -100529   -96238 
  -91996   -88112   -84000   -79103   -73337   -66866   -60280   -54187 
  -48845   -44286   -40534   -37668   -35536   -34087   -33592   -33782 
  -34097   -34914   -36810   -39491   -42472   -45774   -49759   -54227 
  -58339   -61973   -65741   -69635   -72884   -75312   -77823   -80856 
  -83989   -87012   -90231   -94157   -98076  -100405  -101514  -102952 
 -104784  -106175  -106803  -107082  -107667  -108494  -108777  -107626 
 -104769  -101296   -98432   -96160   -93986   -91785   -89902   -88559 
  -87401   -86295   -85641   -85545   -85403   -84517   -83017   -81614 
  -80434   -78983   -77262   -76101   -75959   -76248   -76425   -76524 
  -76659   -76961   -77095   -76263   -74547   -72877   -71720   -70533 
  -68267   -64813   -61409   -58876   -56768   -54565   -52478   -51364 
  -51828   -53246   -55020   -57723   -61549   -65487   -68437   -70178 
  -71758   -74451   -78439   -82718   -85987   -88317   -90657   -93057 
  -94943   -95893   -96305   -96903   -97639   -98187   -98296   -97965 
  -97424   -96862   -96561   -96494   -96876   -98078   -99388  -100423 
 -101606  -102869  -104211  -105799  -107353  -108402  -109050  -110119 
 -111967  -114494  -117634  -120463  -122198  -123472  -124730  -125598 
 -126151  -126931  -128100  -129111  -129182  -128490  -128005  -127668 
 -126292  -123717  -121284  -119705  -118180  -115805  -112853  -110217 
 -107282  -102878   -97863   -93121   -87966   -82122   -76219   -70706 
  -65544   -60656   -56211   -52134   -47932   -43852   -40554   -37711 
  -35050   -32640   -30234   -28181   -27217   -27584   -28729   -29658 
  -30270   -31210   -32340   -33056   -34033   -36369   -39939   -44237 
  -48683   -52899   -57043   -60755   -63717   -66322   -68789   -71287 
  -74462   -78664   -83458   -88238   -92280   -95149   -96950   -97914 
  -98830  -100406  -102550  -104990  -107378  -109274  -110360  -110682 
 -110233  -108765  -106735  -104660  -102356   -99865   -97463   -95257 
  -93198   -91115   -89135   -87513   -86168   -85007   -84323   -84291 
  -84114   -83017   -81607   -80670   -79820   -78240   -75943   -73901 
  -72840   -72436   -71921   -70960   -69847   -69046   -68712   -68760 
  -69109   -69285   -68519   -66861   -65009   -63329   -61834   -60239 
  -58424   -56887   -55849   -54749   -53080   -51062   -49250   -47842 
  -46925   -46705   -47088   -47890   -49276   -51340   -53655   -55886 
  -58467   -61756   -65317   -68602   -71421   -74299   -78057   -82498 
  -86819   -90864   -95109   -99832  -104742  -109515  -113910  -117399 
 -119907  -122285  -125195  -128291  -130679  -131725  -131564  -131044 
 -130885  -130965  -130626  -129283  -127080  -124413  -120971  -116676 
 -112151  -107852  -103577   -98591   -92596   -86026   -79561   -73913 
  -69365   -65477   -61599   -58006   -55614   -54225   -52988   -51744 
  -50514   -49243   -47993   -46865   -46118   -45915   -46274   -47201 
  -48639   -50664   -53454   -56925   -60513   -63580   -66213   -68885 
  -71595   -74277   -76962   -79157   -80539   -81597   -82697   -83747 
  -84888   -86488   -88348   -90143   -92456   -95654   -98952  -101829 
 -104574  -107162  -109288  -111427  -114464  -118400  -122339  -125513 
 -128040  -130525  -132905  -134663  -135849  -136880  -138139  -139828 
 -141300  -141458  -140160  -137997  -135318  -132064  -127800  -122787 
 -118650  -116246  -114331  -111671  -108719  -106510  -105400  -105108 
 -105107  -104997  -104936  -105447  -106665  -108217  -109298  -109189 
 -108300  -107238  -105755  -103514  -100662   -97982   -96194   -94973 
  -93408   -91068   -88453   -86418   -85086   -83834   -82322   -80884 
  -79725   -78509   -76899   -74937   -73137   -72180   -71919   -71680 
  -71279   -70663   -69871   -69295   -69069   -69133   -69547   -69949 
  -69749   -69025   -68149   -67189   -66073   -64794   -63539   -62374 
  -61173   -60105   -59177   -57862   -55950   -53943   -52713   -52832 
  -53802   -54741   -55559   -56642   -58049   -59569   -60954   -61799 
  -62018   -62061   -62173   -62311   -62329   -61786   -60440   -58785 
  -57496   -56648   -55959   -55457   -55417   -56030   -57334   -59041 
  -60755   -62626   -65197   -68557   -72096   -75216   -78026   -81136 
  -84763   -88421   -91560   -93951   -95991   -98316  -100709  -102694 
 -104449  -106184  -107831  -108996  -109245  -108856  -107985  -106255 
 -104093  -102290  -100903   -99777   -98681   -97368   -95965   -94393 
  -92317   -89989   -87942   -86124   -84081   -81729   -79542   -77690 
  -75874   -74424   -74027   -74465   -74838   -74853   -74951   -75509 
  -76644   -77797   -78693   -80238   -82217   -83285   -83433   -83461 
  -83557   -83534   -83589   -83832   -83671   -82951   -82094   -80942 
  -79297   -77499   -75810   -74363   -73117   -71606   -69696   -68137 
  -67880   -69218   -71520   -73769   -75679   -78096   -81451   -84726 
  -87357   -90004   -92878   -95642   -97963   -99491  -100675  -102390 
 -104461  -106164  -107331  -108182  -108958  -109859  -110906  -111620 
 -111334  -110209  -109051  -107892  -105989  -103273  -100683   -99032 
  -98159   -97277   -95523   -92691   -89828   -87767   -86118   -84433 
  -82610   -81237   -81316   -82338   -83094   -83741   -84680   -85468 
  -85758   -85628   -84874   -83185   -81146   -79485   -77899   -76265 
  -74912   -73694   -72608   -71647   -70455   -69229   -68370   -67733 
  -67206   -66830   -66412   -66057   -65985   -65832   -65478   -65398 
  -65787   -66523   -67733   -69757   -72540   -75503   -78426   -81671 
  -85114   -88047   -90380   -92587   -94701   -96450   -97870   -99284 
 -100771  -102037  -102858  -103181  -103252  -103406  -103363  -102621 
 -101240   -99639   -97992   -96347   -95201   -94898   -95033   -95179 
  -94975   -93872   -91856   -89501   -87161   -85078   -83417   -81714 
  -79897   -78598   -77493   -76038   -74784   -74199   -73966   -73566 
  -72867   -72156   -71673   -71525   -71779   -72444   -73502   -74798 
  -76164   -77602   -78945   -79975   -80620   -80542   -79799   -79244 
  -79301   -79731   -80276   -80926   -81918   -83208   -84590   -86204 
  -88123   -90093   -91961   -93930   -96274   -98938  -101708  -104414 
 -106637  -107904  -108240  -108095  -107928  -107947  -108311  -108943 
 -109330  -109353  -109166  -108259  -106099  -102838   -99193   -96040 
  -93259   -90037   -86363   -82578   -78656   -74801   -71351   -68113 
  -64719   -61161   -57525   -53796   -50187   -47322   -45727   -45231 
  -45350   -45832   -46617   -47979   -50230   -53164   -56525   -60183 
  -63613   -66294   -68299   -70109   -72208   -74473   -76310   -77747 
  -79269   -81087   -83225   -85373   -86972   -87796   -88212   -88928 
  -90191   -91640   -92701   -93102   -93405   -93946   -94433   -95056 
  -95736   -95835   -95390   -94814   -94260   -93790   -93637   -93973 
  -94340   -94319   -94269   -94489   -94455   -93439   -91587   -89815 
  -88754   -88267   -87991   -87755   -87333   -86781   -86456   -86174 
  -85596   -85084   -85199   -85792   -86083   -85673   -84969   -84151 
  -83062   -81815   -80271   -78390   -76792   -75743   -74928   -74221 
  -74032   -74885   -76609   -78632   -80701   -83049   -86015   -89261 
  -92309   -95311   -98363  -101193  -103734  -106383  -109233  -111504 
 -112580  -112831  -112857  -112777  -112582  -112346  -111892  -111032 
 -109809  -108262  -106605  -105173  -103973  -102743  -101260   -99663 
