Origin Time       2011/03/11 14:46:00
Lat.              38.103
Long.             142.860
Depth. (km)       24
Mag.              9.0
Station Code      YMN002
Station Lat.      35.6133
Station Long.     138.9473
Station Height(m) 365
Record Time       2011/03/11 14:47:34
Sampling Freq(Hz) 100Hz
Duration Time(s)  300
Dir.              E-W
Scale Factor      3920(gal)/6182761
Max. Acc. (gal)   63.285
Last Correction   2011/03/11 14:47:19
Memo.             
[...]
   12609     4870    -5142   -13456   -17185   -14357    -7708    -4298 
   -7439   -12989   -15755   -17295   -23574   -32870   -40192   -47646 
  -52370   -46763   -36212   -32625   -33999   -28487   -16528    -5319 
    5002     9844     4265    -7375   -20927   -33500   -43363   -50922 
  -54259   -53550   -53054   -51469   -43621   -32793   -23439   -12861 
   -2572     1286    -1907    -9059   -19519   -31935   -40712   -44020 
  -46288   -48085   -45500   -39855   -34063   -24259    -9628     2794 
    8857     7427    -1953   -14993   -28085   -40893   -49985   -53767 
  -56941   -60719   -61902   -59368   -52120   -43123   -38484   -35264 
  -30109   -27274   -23783   -14894   -10629   -19022   -29883   -33742 
  -33385   -31868   -30548   -33115   -41180   -48396   -46260   -37080 
  -26796   -14189     -463     7333     6051    -1480   -10514   -15993 
  -17231   -19177   -25328   -37146   -51766   -58281   -52539   -43456 
  -37322   -32316   -25202   -15695    -7047    -4328    -8572   -13768 
  -16935   -19378   -19202   -17310   -17491   -19235   -20970   -21231 
  -18135   -14342   -15493   -23645   -34772   -41450   -40414   -34604 
  -27638   -21901   -19369   -19746   -17918    -9604     -710      378 
   -6149   -16952   -26760   -27358   -19461   -10925    -1267    12026 
   22803    27280    27958    22033     5134   -14522   -25198   -30788 
  -40804   -51987   -55420   -48793   -36454   -25144   -17852   -11745 
   -6055    -4054    -3440    -1451    -4552   -16268   -32070   -47784 
  -60386   -67501   -66631   -59832   -56055   -54481   -45873   -34738 
  -27211   -19130   -13392   -12458   -13828   -20963   -31837   -40968 
  -46135   -46235   -48546   -55535   -60862   -65297   -65651   -55424 
  -40735   -30543   -28352   -31423   -31597   -26393   -20566   -17835 
  -18244   -18070   -12620    -3066     2397    -2617   -17082   -35930 
  -51128   -57050   -58424   -60209   -60259   -56093   -44229   -24320 
   -6110     1855     1681    -1622    -6287   -11282   -15076   -18415 
  -25220   -32728   -32738   -29559   -27830   -19627    -6081     4768 
   13104    17688    15541     7696    -3871   -12830   -17192   -24248 
  -29921   -29902   -35099   -45510   -52146   -53626   -47723   -34581 
  -19730    -9185    -7864   -12655   -14675    -9103     1503     7307 
    -630   -18045   -32070   -38346   -41981   -46636   -51692   -53557 
  -48501   -36713   -22845   -12657    -6689     -658     6218    11791 
   12934     4242   -11141   -24235   -35286   -43560   -44526   -43649 
  -46622   -49835   -49208   -46282   -44331   -40183   -32046   -25226 
  -19362   -11580    -3856     3602    11057    15819    15926    11255 
    2326    -8417   -16806   -19906   -19116   -20402   -26707   -33575 
  -36514   -36086   -34553   -32886   -31639   -31555   -32453   -32755 
  -31422   -28785   -25175   -21258   -15758    -6169     3367     6106 
    1263    -9830   -24864   -39735   -52031   -60249   -64298   -63972 
  -56339   -42926   -28245   -14618    -6404    -2052     6183    14853 
   14187     3365   -10567   -20442   -26366   -34043   -45781   -58262 
  -65066   -62534   -54894   -45898   -32306   -15794    -5970    -3395 
   -1107    -2783   -16138   -37296   -55401   -63247   -62258   -58544 
  -54335   -47875   -36135   -19832    -5554     3475     6925     5367 
    2840    -1227    -9448   -20553   -31777   -38827   -43717   -50681 
  -54493   -53303   -50717   -41737   -22621     -594    15562    22432 
   23499    22336    16573     5112    -8386   -20818   -32792   -41785 
  -41293   -35419   -31291   -23357   -10973    -4977    -6835   -10004 
  -11948   -12292   -13940   -20334   -29553   -37112   -38577   -34419 
  -28996   -25656   -29553   -39790   -46316   -44205   -37646   -33856 
  -36852   -42462   -42375   -36279   -28923   -16491     2052    14205 
   12399     3222    -5689   -10863   -12351   -17854   -31057   -44389 
  -54152   -60734   -62204   -59063   -53285   -46190   -39455   -34280 
  -29733   -26060   -26495   -27221   -21296   -14075   -12836   -15926 
  -22443   -34136   -51033   -67823   -74183   -67821   -54556   -36803 
  -18261    -3930     8252    18999    23741    21595    13463      516 
  -13126   -24271   -34971   -49267   -61287   -61863   -55414   -49089 
  -42761   -34823   -23122   -10118    -1990     1172     1041    -2259 
   -4772    -3107      -45      740    -1589    -7214   -15493   -26771 
  -39773   -47367   -48594   -49563   -49026   -43639   -33705   -17959 
    1247    16749    25759    28059    19566      805   -17871   -29328 
  -34920   -36675   -37141   -41583   -47548   -44526   -32639   -19227 
   -6163     4488     9405     6661    -1630   -10461   -19050   -27749 
  -37271   -50052   -63374   -73031   -81237   -87845   -86336   -74994 
  -57730   -41522   -32180   -25615   -19774   -19916   -24406   -30572 
  -39700   -47166   -51869   -59866   -64530   -56201   -42135   -27516 
  -10893     -720      504      981    -1606   -10544   -20164   -28634 
  -35123   -37471   -37045   -35299   -33432   -29347   -19300    -7182 
    1851    10343    19844    24817    25118    24986    18858     4543 
   -8430   -17163   -27419   -39397   -46909   -48617   -47638   -42292 
  -30799   -16756    -4195     4908    10057    10975     8589     6777 
    5358    -2848   -20445   -41324   -58071   -63821   -56186   -42653 
  -31560   -22894   -13531    -4908    -1413    -4759   -14661   -30392 
  -47776   -59615   -62463   -59305   -53437   -46967   -41436   -33853 
  -23405   -15312    -9032     -930     4798     1706   -13459   -36730 
  -54073   -57875   -55660   -51855   -43404   -33260   -26269   -21962 
  -17741    -8980     3090     8193     3974    -2590    -9878   -18454 
  -25635   -32982   -44630   -56521   -59543   -53913   -49555   -51901 
  -55948   -55140   -49689   -42720   -36680   -33566   -31528   -27926 
  -23841   -20902   -19789   -20066   -19139   -15364   -11272    -9428 
   -9703   -12477   -17331   -24409   -35662   -46151   -47648   -40925 
  -32607   -27450   -25487   -22222   -13952    -1945     8023    12020 
   13917    16426    15530     9674    -1055   -18364   -38272   -53001 
  -58112   -52413   -40452   -27258   -11414     5884    20650    32049 
   37657    36647    33728    30795    23508     9130   -10030   -30848 
  -46102   -45251   -29009   -12181    -9087   -10749     4105    19641 
   10868    -5081   -17939   -34597   -42967   -42869   -45282   -49096 
  -54941   -54365   -38345   -20863   -11256    -3843     1736     1713 
   -5625   -15237   -19960   -22190   -24652   -28422   -37606   -45468 
  -42668   -34460   -26634   -16873    -8085    -8544   -16073   -23269 
  -29035   -32407   -33584   -33571   -33326   -36165   -36794   -28973 
  -18272    -9171    -3253    -2206     -107     3065    -3257   -16255 
  -27220   -35769   -40257   -43873   -48793   -47725   -40754   -32271 
  -22077   -14322   -14694   -21103   -27636   -29374   -25606   -23581 
  -27114   -29484   -29305   -31051   -28493   -18235   -11460   -11548 
  -11898    -8522     -479     4572    -1055   -14405   -30557   -44470 
  -54535   -65267   -74647   -79804   -85853   -89559   -80491   -59702 
  -36290   -15653     2623    20048    31364    29633    17268      398 
  -17158   -30558   -36593   -37886   -39596   -43831   -47429   -43909 
  -31762   -19121   -13280   -13711   -17099   -19628   -18662   -16549 
  -17272   -19956   -22138   -23963   -24368   -23793   -26352   -31131 
  -32791   -30010   -26035   -24393   -25565   -28933   -32927   -32689 
  -27355   -23457   -23189   -20062   -12312    -7319    -7625    -9787 
  -14059   -19411   -21174   -19641   -19520   -22246   -24564   -24693 
  -25862   -30227   -33302   -31571   -30365   -32251   -30792   -25243 
  -20015   -13586    -5768    -2322    -6528   -15938   -25376   -31212 
  -34274   -35766   -33722   -28149   -21539   -13621    -5497    -1168 
     624     2420     -285   -11927   -29198   -44316   -53894   -62403 
  -71398   -75762   -76132   -75020   -67085   -53008   -41053   -31243 
  -20130   -10031    -5067    -6093   -11357   -17529   -20840   -23701 
  -29214   -34405   -40350   -47107   -46336   -37035   -26733   -17166 
   -4402    12091    24958    28036    23915    13095    -6720   -26961 
  -37789   -42810   -46749   -48715   -48898   -45875   -38849   -30498 
  -23127   -19566   -19638   -20568   -23027   -26199   -28369   -33109 
  -40251   -41474   -34094   -24541   -17163   -10993    -5082    -1440 
   -3097   -11273   -23920   -36945   -48474   -60275   -72633   -79267 
  -75506   -68671   -65478   -60185   -49727   -42037   -39481   -34340 
  -25857   -20751   -18893   -17297   -18365   -21430   -18853    -8922 
     790     5499     4538    -1524    -7076    -9271   -12442   -14890 
  -12504   -12437   -20775   -30286   -33876   -34690   -36061   -34843 
  -29755   -23671   -16829   -10081    -7881   -10631   -14903   -19403 
  -23591   -26118   -26806   -27581   -30809   -35670   -36998   -32402 
  -26282   -21221   -16661   -15373   -18819   -23324   -25276   -25222 
  -26163   -26347   -23063   -21923   -26367   -31022   -32382   -27812 
  -13996    -1880    -6202   -17923   -24374   -28023   -27635   -24433 
  -24677   -27475   -33048   -36930   -31462   -23077   -20133   -21180 
  -23372   -24672   -22880   -18292   -12158    -6567    -6938   -17089 
  -32432   -44698   -53187   -58514   -51297   -35421   -35889   -45993 
  -39044   -26459   -13427     5476     7801    -3833   -11670   -19206 
  -26877   -35611   -41175   -37992   -32444   -23704   -12110    -7154 
   -8821   -11339   -13049   -13046   -12977   -15507   -19704   -27495 
  -41171   -56828   -70168   -76125   -73837   -71712   -70377   -68018 
  -75662   -91596   -98094   -95845   -95131   -90444   -76390   -60089 
  -45558   -30290   -17367   -11543    -9680    -9730   -14047   -20022 
  -24642   -29450   -33464   -31195   -21305   -11923    -8555    -6748 
   -4343    -4882    -7331    -7569    -8881   -16666   -26780   -32676 
  -35648   -37096   -34881   -32796   -33486   -31438   -26403   -23780 
  -25980   -33108   -42182   -46960   -42509   -34447   -33566   -37151 
  -39530   -43649   -45507   -40097   -33383   -28040   -20331   -10397 
   -2570    -2525   -10217   -16691   -17460   -15021    -7817     3078 
    8999     5976    -4041   -19513   -37728   -52314   -55851   -46691 
  -30507   -16935   -12640   -16685   -27995   -43149   -54822   -64654 
  -75651   -84785   -88313   -82749   -74608   -68000   -55491   -38748 
  -22744   -11454    -8389    -9915   -16749   -25391   -30777   -38641 
  -46317   -48964   -49227   -46015   -37641   -24876   -12826    -7243 
   -5308    -4252    -7633   -12610   -11539    -9716   -14012   -17277 
  -16879   -20673   -29333   -36682   -41481   -43936   -40484   -31772 
  -25246   -25654   -27683   -21004    -3359    17758    35416    47455 
   52291    48853    41677    35137    25714    11644    -1252   -10958 
  -22539   -36776   -48823   -56842   -59478   -54054   -45944   -43861 
  -45014   -42662   -36775   -24954    -6278     7343     7485     1373 
   -3859    -8923   -16930   -28457   -34873   -28019   -12341     5230 
   21042    34077    43235    44521    44575    50834    51605    40668 
   27342    13601    -3771   -24333   -43952   -53444   -51690   -49584 
  -50533   -51689   -57600   -66506   -68671   -64247   -55648   -45231 
  -42142   -46593   -45282   -30576   -11785    -3132    -6050   -11618 
  -15526   -19431   -25074   -35975   -50464   -60927   -67581   -70922 
  -66989   -59858   -52977   -42910   -31620   -24578   -23493   -27552 
  -34285   -42388   -51187   -56709   -57340   -56917   -58586   -63557 
  -68893   -68446   -65125   -64452   -59565   -45036   -27221   -12000 
   -1362     2057    -2113    -9695   -16386   -20678   -24198   -29674 
  -33827   -30372   -21066   -13712   -11097    -7998    -3447    -2558 
   -2906    -2732    -7804   -16835   -23994   -25641   -17825    -6925 
   -5100    -7444     -626    12961    18984    11801    -2304   -20859 
  -44838   -67389   -84072   -99591  -110328  -103762   -80254   -54042 
  -35629   -22586   -10317    -4612    -7010    -7211    -6459   -17794 
  -36943   -50489   -59166   -62663   -55256   -41903   -34018   -28459 
  -11123     6582     5648    -4009   -14633   -33440   -59086   -78663 
  -86085   -93368  -101332   -96101   -81146   -66236   -52434   -41962 
  -33931   -21968   -10402    -5557    -2522    -4407   -13086   -17981 
  -19603   -21986   -20571   -16331   -13266    -7422     7397    27085 
   40489    43993    40283    29263    14073     1792    -8094   -16246 
  -18841   -19509   -23617   -29647   -34046   -35267   -33204   -29945 
  -29696   -30226   -28620   -29610   -36410   -52699   -76736   -94431 
  -97573   -83555   -55494   -33520   -25979   -16494     -622    10625 
   14050    11748     4162   -11969   -34245   -51725   -68113   -87279 
  -96298   -95365   -91372   -81284   -67144   -52176   -37247   -25585 
  -18336   -17659   -25180   -31406   -25628   -12286      622     9867 
   11234     6267    -1189    -9753   -12318    -4750     6412    14984 
   19829    19912    16279    14874    20512    30491    33989    26160 
   18889    22753    31330    32165    22879     8831    -7956   -25410 
  -39474   -47947   -45500   -30165   -13409    -5871    -5064    -6442 
  -10005   -16132   -26372   -39772   -52742   -65802   -77152   -81914 
  -81947   -78731   -67797   -50348   -29664    -3507    25127    49645 
   66965    74338    71122    57530    33116     1165   -30482   -53107 
  -65413   -74891   -85026   -88175   -76364   -51961   -24725    -3862 
    8645    15492    17757    18183    15838      906   -25174   -44918 
  -49987   -46342   -42321   -46015   -56078   -60305   -54029   -40936 
  -26262   -17174   -14312   -14316   -15048   -12005    -4718     1375 
    3077     3383     6664    14395    24964    32289    35186    35500 
   25043      523   -29663   -59055   -80299   -89190   -93663   -99778 
 -103354   -99109   -87287   -69028   -40751   -10483      690    -7597 
  -17951   -26881   -39842   -54041   -62745   -65397   -64652   -60273 
  -51646   -36448   -11600    15786    32849    36892    31962    22345 
   16119    16874    16528     7929    -5601   -16756   -19898   -13816 
   -5011     -873    -2977    -9232   -15242   -17774   -17841   -18818 
  -23972   -31882   -37538   -40054   -40943   -38187   -29712   -18171 
   -7206      241    -2012   -15067   -26474   -26927   -23791   -25709 
  -29553   -30158   -28406   -23658   -11595     4526    13104    10566 
    4491    -2930   -15715   -32182   -47925   -61376   -70459   -72739 
  -71308   -72144   -76302   -80905   -81518   -76043   -68252   -60282 
  -49682   -35862   -22351   -11515     -574    11708    22050    26464 
   22078    10764    -3113   -15570   -22576   -28679   -42382   -56403 
  -57509   -47082   -30151    -8358     9292    15232    12810     6682 
    2093     2041    -2496   -17412   -34943   -49762   -60664   -64959 
  -63879   -60692   -59900   -63208   -62963   -56877   -49996   -39920 
  -25610   -15166   -14348   -20166   -29557   -42052   -49871   -48049 
  -43592   -39603   -34930   -31366   -26345   -17229    -8740    -5669 
  -11282   -23447   -29988   -29007   -29761   -31826   -36391   -48936 
  -62554   -69695   -70678   -64650   -52149   -34751   -15957    -3839 
    3341    10174    10354     4503    -1220    -8502   -15906   -18769 
  -20065   -24664   -28903   -26516   -20512   -18030   -19493   -20191 
  -17868   -15367   -16934   -23385   -30658   -35890   -39317   -39585 
  -39131   -41624   -41865   -36731   -32795   -33188   -33728   -33319 
  -34673   -37491   -41230   -49097   -64346   -83880   -95917   -92830 
  -81425   -69506   -57839   -46876   -36665   -29939   -31627   -38899 
  -50065   -67523   -85025   -97161  -102393   -96131   -82370   -69348 
  -58452   -50491   -42644   -29831   -17386   -12655   -15337   -28647 
  -53088   -75176   -90016  -103761  -112248  -111375  -102098   -82691 
  -56414   -26960     3064    21539    21860    10540    -8927   -28634 
  -37748   -40985   -45078   -49789   -54014   -52924   -44572   -32014 
  -16658    -4203    -4138   -16619   -34350   -52503   -67406   -75021 
  -74196   -65653   -52898   -42782   -34505   -24184   -16531   -11923 
  -10856   -23202   -46285   -67121   -80996   -85926   -82677   -74989 
  -62856   -49477   -35605   -17964    -7284   -10574   -19527   -35328 
  -59812   -82926  -100594  -110871  -103356   -78151   -52241   -31265 
   -5632    20706    38140    50663    60012    62671    56656    40708 
   19482    -2249   -20109   -28161   -26578   -17452    -5230     5529 
   18843    34427    44612    47462    45374    39496    28123    10956 
   -8394   -25813   -33797   -28720   -20999   -20461   -25420   -31757 
  -36030   -36244   -34284   -30185   -26602   -30968   -41267   -51565 
  -60477   -61489   -49867   -31078   -11317     6687    24375    44212 
   62116    71825    69126    52725    28803     3007   -22650   -39076 
  -41226   -39880   -44457   -51322   -50735   -38242   -19868    -2884 
   10267    16178    12107     2981    -6541   -17664   -26483   -28544 
  -29822   -34514   -38283   -39532   -41072   -42531   -41818   -40840 
  -42473   -43042   -39115   -36841   -37000   -32072   -25902   -24831 
  -23036   -16731   -10712    -7193    -4164    -3397    -9348   -19305 
  -25474   -26525   -24423   -19523   -17682   -23592   -32082   -38495 
  -41973   -42591   -43851   -48685   -57076   -64868   -65010   -59274 
  -51559   -36780   -18285    -8614    -7419    -5631      432    10239 
   20299    25030    20463     5812   -13588   -28127   -34128   -36900 
  -43930   -59873   -82347  -101446  -109774  -107464   -97070   -82912 
  -71023   -60659   -44577   -25376   -12802    -6005    -1767    -4949 
  -15973   -27429   -35831   -44237   -55377   -66369   -72272   -70753 
  -60458   -44285   -26938    -9059     4245     7314     2979    -6905 
  -17080   -18692   -19968   -31501   -43401   -48149   -53517   -60225 
  -58995   -49585   -40082   -31451   -22524   -20807   -28972   -40646 
  -52178   -59441   -56056   -42898   -32008   -29204   -24051   -16737 
  -18073   -20690   -16381   -11794    -6462     1788     5812     3107 
   -4723   -12299   -10206    -1548     2194    -4409   -20418   -36130 
  -42212   -42135   -42322   -44836   -48657   -49950   -47726   -41785 
  -34474   -34476   -38734   -36792   -32264   -31289   -33634   -36116 
  -32474   -22283   -11331    -4818    -2420     3057    12059    17937 
   18104     9513    -8102   -23442   -27355   -25408   -23712   -18893 
  -10923    -7551   -10068   -12735   -18553   -31939   -43840   -49033 
  -56078   -66718   -72814   -73933   -76615   -76468   -62606   -40795 
  -20509      857    17820    22593    21593    17783     6561    -7895 
  -19972   -33773   -44470   -39383   -26877   -21094   -18149   -12460 
   -5026      708      722    -7585   -23615   -37757   -43905   -46966 
  -47595   -47229   -49732   -48640   -40514   -33444   -30817   -28461 
  -24711   -22533   -26306   -36858   -49321   -57054   -54386   -38593 
  -15666     1333     8507    16475    32111    49199    59092    58250 
   46790    28618    10189    -5617   -17617   -26334   -38453   -55356 
  -68511   -73013   -70842   -64080   -53275   -41645   -34753   -32215 
