Origin Time       2011/03/11 14:46:00
Lat.              38.103
Long.             142.860
Depth. (km)       24
Mag.              9.0
Station Code      YMN011
Station Lat.      35.6384
Station Long.     138.3836
Station Height(m) 643
Record Time       2011/03/11 14:47:52
Sampling Freq(Hz) 100Hz
Duration Time(s)  238
Dir.              N-S
Scale Factor      3920(gal)/6182761
Max. Acc. (gal)   16.529
Last Correction   2011/03/11 14:47:37
Memo.             
[...]
  -10426   -10505   -10554   -10261    -9234    -7824    -6950    -7274 
   -8149    -8448    -8605    -9334    -9741    -9530   -10104   -11865 
  -13460   -13704   -12542   -10833    -9579    -8917    -8397    -8254 
   -8772    -8892    -8002    -7420    -7785    -8026    -8114    -9379 
  -11467   -12150   -10933    -9918   -10286   -10861   -10569    -9679 
   -8609    -7385    -6360    -6067    -5921    -5039    -4333    -4726 
   -4871    -3584    -1695     -248      463      613      995     1937 
    2469     2223     1920     1283      -99    -1214    -2330    -5148 
   -8424    -9478    -8621    -6860    -4079    -1543     -982    -2042 
   -3392    -4541    -5207    -4631    -3205    -2614    -2984    -3059 
   -3036    -3563    -3751    -3043    -2038     -666      967     1496 
     414    -1229    -2033     -890     1382     2412     1920     1448 
    1428     1835     2628     2902     2489     2243     2151     1864 
    1658     1576     1284      699     -155    -1474    -3091    -4394 
   -5575    -6979    -7590    -6904    -6367    -6930    -7750    -8003 
   -7891    -7831    -7889    -7932    -7680    -6895    -5859    -5021 
   -4447    -4190    -4292    -4452    -4652    -5144    -5474    -5088 
   -4564    -4760    -5649    -6694    -7334    -7083    -5965    -4720 
   -4253    -4903    -6150    -7049    -7237    -6958    -6160    -5032 
   -4428    -4597    -5084    -5577    -6015    -6779    -7845    -8209 
   -7684    -7116    -6514    -5435    -4056    -2767    -2204    -2737 
   -3489    -3825    -4329    -4988    -5324    -5973    -7005    -6772 
   -4862    -2761    -1019      504     1365     1543     1159      222 
    -123     1055     2355     2248     1655     1592     1149       70 
    -371        7      324      549      793      463     -453    -1112 
   -1042     -450       16     -335    -1471    -2851    -4198    -5321 
   -5817    -5675    -5619    -6010    -6453    -7220    -8551    -9024 
   -7884    -6456    -5351    -4371    -4086    -4358    -4662    -5639 
   -7016    -7401    -7227    -7574    -7749    -7359    -7315    -7634 
   -7792    -8106    -8511    -8565    -8827    -9459    -9453    -8912 
   -8778    -8633    -7965    -7427    -7328    -7559    -8481    -9860 
  -10485   -10226   -10431   -11606   -13036   -14233   -14986   -15441 
  -16185   -16684   -15554   -13300   -11819   -11568   -11856   -12251 
  -12242   -11185    -9113    -6840    -5125    -4297    -4347    -4698 
   -4786    -4640    -4034    -2933    -2592    -3553    -4598    -5343 
   -6358    -7167    -7461    -8089    -9150    -9546    -8765    -7278 
   -5481    -3684    -2218     -690     1222     2668     3067     2965 
    2820     2956     3737     4523     4517     4144     3455     1978 
     818      791      746      537     1021     1383      948      962 
    1866     2307     1969     1890     2002     1476      600        2 
    -613    -1536    -2447    -3452    -5030    -6725    -7595    -7760 
   -7851    -7343    -5567    -3778    -3292    -3041    -2136    -1790 
   -2302    -2291    -1562     -874      -31      959     1091      540 
     796     1861     2234     1493      507     -454    -1995    -3866 
   -4836    -4878    -5223    -5953    -6136    -6133    -7056    -8585 
   -9787   -10987   -12581   -13581   -13570   -13801   -14374   -13793 
  -12500   -12260   -12741   -13311   -14877   -17019   -18107   -18107 
  -17479   -16040   -14493   -14118   -14920   -15596   -15213   -14059 
  -12595   -11251   -10876   -11542   -12264   -12279   -11769   -11486 
  -11344   -10840   -10975   -12447   -13557   -13336   -13157   -13107 
  -11759    -9861    -9289    -9776   -10263   -11054   -12544   -13951 
  -14380   -13856   -12956   -12102   -11291   -10474   -10049   -10289 
  -10818   -11537   -12565   -13053   -12496   -12062   -12032   -10900 
   -8818    -7329    -6019    -4327    -3633    -4220    -4516    -4179 
   -4182    -4686    -5104    -5149    -5033    -5260    -5778    -5716 
   -4768    -3558    -2447    -1349     -445     -367    -1392    -2614 
   -3117    -3300    -3552    -3464    -3394    -4170    -5245    -5832 
   -6397    -6755    -5780    -4060    -3181    -3095    -3073    -3206 
   -3424    -3171    -2380    -1294     -123      729     1269     1916 
    2585     2928     2980     2969     2956     3055     3561     4091 
    3839     2907     1700      236    -1086    -1770    -1990    -2068 
   -1970    -1816    -2059    -2443    -1888     -168     1689     2871 
    3371     3192     1929     -402    -2979    -5114    -6505    -6979 
   -7084    -7734    -8858    -9779   -10429   -11047   -11268   -10307 
   -8213    -6267    -5432    -5676    -6959    -8921   -10439   -10944 
  -10427    -8855    -7362    -7128    -7080    -6049    -4816    -3800 
   -2381    -1021     -601     -412      333      934      934      631 
     -50     -923    -1293     -854        2      336     -153     -490 
    -148      442     1113     1718     1732     1275     1005      577 
    -767    -2299    -2978    -3315    -3777    -3719    -3134    -2689 
   -2517    -2680    -2833    -1942      -69     1721     2968     3500 
    3191     2519     2074     1983     2008     1883     1807     2224 
    2923     3061     2096      527     -710    -1690    -3085    -4794 
   -6310    -7244    -7293    -6510    -5216    -3820    -2631    -1618 
    -767      -68      631     1047      631     -440    -1091     -724 
    -369     -960    -1854    -2766    -3990    -4484    -3456    -2108 
   -1729    -2108    -2119    -1349     -811    -1090    -1570    -2301 
   -4037    -6441    -8278    -8982    -8712    -7656    -6400    -5781 
   -5762    -5642    -5091    -4478    -4438    -4916    -5130    -4725 
   -3867    -2808    -2358    -3132    -4238    -4567    -4050    -2843 
   -1310     -162      364       -9    -1753    -4334    -6778    -8747 
   -9998   -10317    -9859    -8873    -7766    -6852    -5871    -4801 
   -3988    -2899    -1092      327      395     -510    -1680    -2341 
   -2296    -2584    -3405    -3325    -2196    -1288     -401      998 
    1659      762     -787    -2145    -2974    -3126    -3302    -4608 
   -6775    -8257    -8603    -8635    -8313    -7228    -6226    -5943 
   -5811    -5773    -6181    -6325    -5484    -4207    -3348    -3033 
   -2834    -2608    -2812    -3129    -2338     -743      309     1105 
    2328     3360     3857     4285     4601     4343     3821     3524 
    2909     1939     2023     3367     4481     4971     5497     6027 
    6473     6861     6490     5154     3881     3141     2331     1277 
     106    -1622    -3592    -4820    -5744    -6848    -7061    -6300 
   -5944    -6138    -6319    -6992    -8451    -9952   -11018   -11786 
  -12154   -11636   -10460   -10006   -11036   -12649   -13716   -14049 
  -14053   -13780   -12656   -10809    -9497    -9120    -8788    -8346 
   -8362    -8527    -8197    -7426    -6379    -5165    -4368    -4195 
   -3821    -2670     -936     1151     2880     3236     2561     2092 
    1921     1562     1453     1688     1219      265       59     -176 
   -1590    -3340    -4967    -6930    -8532    -8956    -8651    -8234 
   -7828    -7347    -6693    -5916    -5061    -4165    -3472    -3031 
   -2797    -3260    -4384    -5088    -5328    -6362    -7923    -8475 
   -8447    -9175    -9885    -9495    -8550    -7343    -5641    -4231 
   -3824    -3674    -3103    -2629    -2580    -2825    -3623    -4809 
   -5954    -7378    -8906    -9358    -8231    -6213    -4067    -2156 
    -961    -1033    -2249    -3893    -5496    -6962    -7808    -7199 
   -5170    -2847    -1186     -186      602     1242     1532     1471 
     745     -992    -2896    -4011    -4654    -5080    -5041    -5114 
   -5698    -5674    -4532    -3702    -4316    -5928    -7633    -8754 
   -8979    -8739    -8640    -8422    -7800    -7172    -6021    -3495 
    -923      205      770     1478     1544     1045      817      359 
   -1145    -2810    -3517    -3536    -3020    -1787     -822     -758 
    -433      606     1284     1681     2685     3434     2953     2399 
    2637     2628     1739      668     -265    -1631    -3492    -5131 
   -6324    -7486    -8907   -10366   -11183   -11088   -10535    -9708 
   -8662    -8255    -9176   -10671   -11616   -11964   -12314   -12842 
  -13264   -13403   -13217   -12445   -10883    -8815    -6586    -4337 
   -2618    -2038    -2191    -2332    -2783    -4033    -5284    -5711 
   -5646    -5307    -4282    -2625    -1010      178     1071     1533 
    1031     -615    -2912    -4960    -6334    -7366    -7802    -6811 
   -4689    -2554     -908      252     1161     2095     2660     2662 
    2864     3261     3202     3487     4679     5255     4963     5732 
    7219     7364     6695     6570     6536     6490     7154     8089 
    8252     7440     5931     3698      548    -3180    -6537    -8699 
   -9327    -8388    -6349    -4340    -3303    -2977    -2604    -2308 
   -2317    -2147    -2199    -3473    -5147    -5863    -5956    -5955 
   -5647    -5101    -4467    -3853    -3774    -4328    -5010    -5801 
   -6892    -7838    -8110    -7779    -7096    -6169    -5396    -5497 
   -6728    -8399    -9553   -10167   -11188   -13054   -15156   -17091 
  -18802   -19839   -20045   -20118   -20926   -22708   -24796   -26134 
  -26387   -26233   -26164   -25658   -24322   -23014   -22714   -23021 
  -22891   -22065   -20770   -19219   -17901   -16896   -15550   -13849 
  -12310   -10664    -8658    -7024    -6229    -5829    -5471    -4977 
   -3966    -2661    -1969    -2203    -2844    -3445    -3665    -2991 
   -1421      345     1776     2807     3401     3489     3461     4082 
    5465     6911     8032     8625     8079     6408     4423     2609 
    1220      354     -813    -3309    -6862   -10194   -12362   -13068 
  -12408   -10950    -9460    -8193    -7085    -6569    -7109    -8342 
   -9465    -9990   -10220   -10573   -10656   -10494   -11179   -13102 
  -15546   -17669   -18770   -18661   -17664   -16115   -14478   -13065 
  -11714   -10437    -9306    -8001    -6913    -6960    -7685    -8186 
   -8683    -9046    -8281    -6188    -3628    -1642     -820    -1003 
   -1835    -3050    -4102    -4535    -4437    -4251    -4331    -4468 
   -4529    -5107    -6353    -7494    -8301    -9006    -9286    -9256 
   -9695   -10536   -11235   -11993   -13117   -14209   -14707   -14435 
  -13566   -12508   -11263    -9334    -6894    -4842    -3682    -3095 
   -2292    -1140     -255      632     2275     4104     4860     4055 
    1926     -919    -3496    -4882    -4882    -3782    -1918      -62 
     573     -501    -2374    -3971    -5123    -5872    -6271    -7041 
   -8790   -11135   -13575   -15913   -17702   -18661   -18954   -18430 
  -16996   -15615   -15342   -16076   -17109   -17734   -17675   -17533 
  -17881   -18481   -18849   -18579   -17499   -15895   -14095   -12387 
  -11371   -11389   -12036   -12760   -13275   -13396   -12920   -11711 
   -9786    -7325    -5163    -4542    -5388    -6248    -6389    -6198 
   -5665    -4362    -2646    -1307     -423      272      676      961 
    1726     2821     3436     3395     3076     2662     2143     1432 
     516     -306     -754    -1002    -1274    -1366    -1302    -1444 
   -1429     -954     -867    -1729    -2960    -3793    -3933    -3418 
   -2186     -490      903     1879     2980     4211     5206     5918 
    6239     5831     4913     4092     3481     3160     3227     3150 
    2907     3319     4374     5364     6073     6517     6273     4516 
    1282    -1728    -3241    -4043    -4890    -5487    -6160    -7307 
   -7986    -7379    -6017    -4595    -3194    -2069    -1796    -2311 
   -2939    -3160    -2365       21     3280     5978     7929     9600 
   10629    10574     9706     8677     8069     7993     8061     7732 
    6877     5418     2791     -412    -2232    -2261    -1549     -197 
    1764     3057     2892     2056     1304      469     -362     -612 
    -427     -530    -1125    -2052    -3334    -4920    -6377    -7086 
   -7010    -7039    -7757    -8661    -9414   -10161   -10503   -10142 
   -9705    -9812   -10613   -11996   -13638   -15296   -16703   -17590 
  -18200   -18792   -19128   -19034   -18555   -17856   -17232   -16409 
  -14916   -13446   -12809   -12423   -11696   -10846    -9493    -7020 
   -4266    -2469    -1503     -762     -243      127      698     1322 
    1465      861     -346    -1584    -2446    -3387    -4922    -6774 
   -8222    -8598    -7846    -6600    -5396    -4470    -4004    -3928 
   -3999    -4077    -3965    -3439    -2661    -2274    -2689    -3351 
   -3737    -4319    -5231    -5870    -6354    -7115    -7685    -7567 
   -7326    -7844    -8820    -8757    -7019    -4838    -3266    -1776 
       6     1345     1789     1498      815      444      795     1724 
    3205     4930     6201     6747     6565     5755     4821     4215 
    3918     3363     1796     -465    -2047    -2466    -2574    -2769 
   -2369    -1262     -386      -35      341      628        2    -2030 
   -4990    -7630    -9061    -9213    -8209    -6343    -4243    -2235 
    -365     1088     2140     3213     4107     4230     3719     2934 
    1794      556     -275     -831    -1271    -1227     -524      795 
    2685     4636     6261     7999    10134    12300    14217    15854 
   17125    17964    18319    17994    17076    16362    16462    17101 
   18079    19581    21053    21524    20946    19693    17534    14371 
   10797     7316     4228     1869      302     -395      -63      918 
    1902     2575     3013     3523     4089     4263     3834     3098 
    2583     2335     1572      -96    -1865    -2898    -3281    -3550 
   -3934    -4300    -4537    -4643    -4411    -3518    -2325    -1693 
   -1621    -1521    -1547    -2144    -3164    -4111    -4705    -5175 
   -5799    -6473    -7127    -7830    -8468    -8999    -9770   -10851 
  -11310   -10446    -9134    -8293    -7504    -6380    -5630    -5986 
   -7179    -8641   -10321   -11995   -12991   -13183   -13111   -13099 
  -12835   -11778    -9923    -7691    -4956    -1287     2706     5831 
    7886     9164     9523     9091     8555     8558     9313    10324 
   10917    11048    11037    11168    11738    12855    14216    15192 
   15449    15171    14293    12734    11025     9392     7678     6279 
    5330     4020     2122      663      129     -204     -851    -1803 
   -3163    -5083    -7422    -9440   -10238    -9766    -8890    -8482 
   -8672    -9067    -9382    -9504    -9423    -9372    -9408    -9051 
   -8006    -6563    -4860    -2832     -966       26      157      -55 
    -435     -974    -1429    -1703    -1798    -1313     -260      295 
    -142     -652     -524      161     1318     2749     3858     4022 
    3173     1965     1000      346      -46     -265     -512     -847 
   -1305    -2256    -4234    -7145   -10081   -12411   -14350   -16082 
  -17384   -18248   -18727   -18553   -17972   -17762   -18001   -18230 
  -18242   -17821   -16506   -14228   -11793    -9826    -8016    -6154 
   -4503    -3211    -2210    -1277     -517     -386     -695     -714 
    -269      275      842     1509     1939     1929     1587      621 
   -1295    -4023    -7155    -9959   -11981   -13471   -14293   -13744 
  -11927    -9853    -8142    -6844    -6121    -5904    -5754    -5722 
   -6057    -6388    -6477    -6611    -6931    -7626    -9012   -10918 
  -13100   -15590   -17973   -19802   -21315   -22304   -22250   -21989 
  -22232   -21715   -19551   -17043   -15503   -14611   -13770   -13230 
  -13032   -12773   -12850   -13724   -14752   -15676   -17351   -19919 
  -22268   -23356   -22816   -20853   -18031   -15013   -12583   -11324 
  -10922   -10634   -10258    -9724    -8821    -7967    -7567    -7132 
   -6405    -5721    -4989    -3885    -2374     -480     1534     2999 
    3554     3425     2903     2254     1902     2063     2553     3246 
    4019     4328     3860     3145     2667     2187     1501      950 
     786      767      777     1166     2016     2858     3509     4284 
    5208     5928     6448     7119     8114     9344    10292    10431 
   10355    11133    12667    14168    15413    16432    16784    16108 
   14747    13032    10974     9146     8563     9383    10485    10689 
   10101     9352     8051     5826     3708     2384      859    -1694 
   -4732    -7542    -9879   -11420   -11914   -11788   -11836   -12228 
  -12422   -12168   -11749   -11371   -11028   -10536    -9657    -8811 
   -8851    -9606   -10014    -9704    -9120    -8482    -7678    -6730 
   -5707    -4562    -3528    -3254    -4145    -5825    -7535    -8878 
   -9852   -10302   -10033    -9649   -10142   -11419   -12631   -13431 
  -13786   -13665   -13202   -12591   -12112   -12074   -12620   -13694 
  -14977   -16056   -16723   -16944   -16730   -16197   -15548   -14895 
  -14127   -12933   -11289    -9712    -8657    -8176    -8232    -8817 
   -9841   -11055   -12157   -13009   -13467   -13087   -11740   -10397 
   -9961    -9804    -9214    -8596    -7994    -6965    -5975    -5835 
   -6290    -6278    -5296    -3979    -3130    -2720    -2551    -2997 
   -3965    -4374    -3718    -2524    -1203      167     1454     2458 
    3055     3331     3268     2625     1322     -505    -2480    -4170 
   -5621    -7049    -8175    -8574    -8142    -7022    -5493    -4087 
   -3516    -3979    -4722    -4939    -4848    -5162    -5969    -6881 
   -7481    -7451    -7156    -7354    -7944    -8421    -9048   -10142 
  -11448   -12780   -13966   -14704   -14898   -14464   -13498   -12547 
  -11987   -11831   -12105   -12613   -12766   -12496   -12757   -14137 
  -16012   -17807   -19472   -20666   -21197   -21502   -21720   -21668 
  -21589   -21837   -22461   -23107   -23012   -21738   -19664   -17357 
  -15236   -13748   -12930   -12196   -11176   -10046    -8900    -7762 
   -6878    -6250    -5688    -5332    -5052    -4232    -2884    -1586 
    -370     1107     2774     4395     5893     6843     6814     6374 
    6287     6268     5733     4748     3755     3019     2498     2194 
    2223     2453     2701     2909     2932     2597     1744      516 
    -409     -638     -220      983     2669     3809     3998     3825 
    3672     3340     2775     2288     1967     1389      323     -674 
    -919     -389      566     1807     3374     5051     6518     7920 
    9280     9967     9717     9019     8357     7926     7558     6843 
    5554     3616     1274     -791    -2341    -3726    -4868    -5529 
   -5984    -6446    -6811    -7041    -7212    -7389    -7524    -7706 
   -8056    -8245    -8160    -8311    -8879    -9550   -10122   -10492 
  -10667   -10908   -11263   -11289   -10791   -10135    -9492    -8819 
   -8352    -8173    -7948    -7596    -7378    -7415    -7992    -9414 
  -11005   -11880   -12154   -11994   -11160   -10020    -9069    -8039 
   -7011    -6794    -7376    -7867    -7857    -7442    -6853    -6598 
   -6932    -7527    -8012    -8227    -8332    -8569    -8565    -7971 
   -7436    -7712    -8578    -9411   -10054   -10575   -10581    -9616 
   -7942    -6123    -4333    -2463     -269     2337     4960     7317 
    9432    11000    11654    11598    11152    10176     8740     7417 
