Origin Time       2011/03/11 14:46:00
Lat.              38.103
Long.             142.860
Depth. (km)       24
Mag.              9.0
Station Code      YMN003
Station Lat.      35.4651
Station Long.     138.8129
Station Height(m) 846
Record Time       2011/03/11 14:47:44
Sampling Freq(Hz) 100Hz
Duration Time(s)  300
Dir.              U-D
Scale Factor      3920(gal)/6182761
Max. Acc. (gal)   23.836
Last Correction   2011/03/11 14:47:29
Memo.             
[...]
   26774    27939    25549    19432    11842     5934     2786     5021 
   10048     6094    -6828   -15557   -14777    -9237    -5206    -4061 
   -3404    -3892    -6758   -11880   -16850   -13813    -2533     4910 
    4134     2688     4311     5348     5971     9433    12447    14894 
   20321    22394    19682    20530    23384    23582    24059    26946 
   30735    34579    39635    44245    45676    44490    40404    35862 
   34799    33968    30278    26424    25433    25418    20724    12846 
    9343    10625    11231     8946     7286    10236    15999    19590 
   17459    10770     5951     5375     3688    -1807    -5248     -725 
    8404    15506    17313    14111    13243    18520    21488    18538 
   16686    20309    24586    21967    15371    12779    15557    22339 
   27143    24231    20579    23836    29018    27548    20894    17825 
   19868    22171    23163    25031    29328    32416    30248    24724 
   18633    14314    14813    16104    12403     8389     7941     7710 
    7753     9458    11958    14078    13423     9732     4754      106 
    -732     3410     8843    13091    16022    17053    18564    21206 
   18224    11955    12226    15810    16763    15058    10050     5066 
    3799     4652     5656     7186    11611    15618    12250     8377 
   14598    24010    28192    31435    34147    31519    27330    25379 
   21757    17655    20742    29035    31195    25633    20629    18614 
   16720    12142     5435     4756    11825    16602    17721    19684 
   19502    16755    13714     8913     4588     5224    10141    14306 
   13432    11154    14555    22131    28312    31726    31646    26480 
   18459    15390    20763    26145    26698    29291    34015    32177 
   24029    16664    12061     9618    11852    16628    13298     4653 
    6899    15082    13563     8175     7855     7501     4735     4408 
    6164     4896     3579     8127    12471     9723     5674     6631 
   10259    14029    18358    20155    16551    12571    13174    14510 
   12225     9715    11039    14299    17738    21940    24146    22738 
   23053    27292    28265    23728    22054    25822    29603    32132 
   33190    30661    27933    29056    29347    24823    21016    22488 
   26890    30473    31538    30881    28411    23469    18077    14144 
   13988    19277    24873    25662    22980    17457     9830     4217 
    1331     -381     -462      180       65    -1467    -2937     -102 
    4016     1974    -1811    -1119    -1408    -3299     -926     1431 
    1912     7695    14990    14721    11651    14239    18403    17558 
   16983    22412    28295    29526    29205    30126    30892    30569 
   30630    31507    29925    23702    16357    12844    13902    13709 
    5270    -7353   -13205   -12150   -12979   -17539   -19605   -14603 
   -4674     3318     5313     4366     6294    12197    15962    14733 
   16290    25102    31473    26987    19385    17843    19363    20697 
   22398    22447    21555    22300    22349    20731    19769    17974 
   13412     9197     8683    10822    13491    16062    16854    15544 
   14749    13267     9305     7820    10014     9651     6100     3402 
    4251     8716    10691     9219    11684    15663    14356    11881 
   14751    21825    26829    26633    24004    22346    23301    24809 
   22803    17959    14785    17041    20734    17583    12670    13885 
   15518    13871    11093     7444     6134     9971    14741    14373 
   10135     7042     4480     2874     6161    13440    21626    27746 
   28357    23858    17224    12070    12419    15999    16904    17907 
   22055    23839    23750    25511    26230    27393    30092    28413 
   22825    19546    20346    21123    17801    13728    12745    11801 
    8278     2817    -1440      326     4718     3611     -933    -2508 
    -681      745    -1985    -5961    -5852    -3116      396     5398 
   10145    12500    11329     7747     5706     6879     9939    12960 
   14168    12923     9521     6096     5611     9324    17239    24435 
   23812    19436    18544    17704    15440    15196    14949    14026 
   13927    12973    12388    13956    15717    17366    20226    21916 
   19129    17452    21196    20702    14230    12174    12271     9216 
    9663    13491    12297    10910    16779    22516    22388    20899 
   20868    20117    15459     7922     3608     6845    15915    25185 
   29313    26486    21460    22427    28696    31598    29365    27237 
   27075    27337    28536    30386    28959    23565    18197    15077 
   13707    12911    12141    13783    19698    24709    23678    19850 
   18048    19590    21358    17962    11582     8885     9503     9756 
    9948    11014    11695    12324    13039    10836     6615     5235 
    6203     5296     2674     1439      830      824     5136     9587 
    8144     5489     4363     1704    -1315    -3382    -5418    -5560 
   -3152     -963      467      984      850     3707     6715     3875 
     586     1875     1838    -1945    -2692     2181     3524    -2365 
   -3505     2603     5881     8579    15500    20341    19512    16321 
   12507     7809     5953    10285    16186    19890    24412    31403 
   36980    38244    39355    42123    40991    35942    32517    31298 
   29997    29579    30895    29610    24902    20598    14351     6970 
    6827    13198    16542    13661    10349     9849     9145     7248 
    4073     -649    -4646    -8862   -14491   -16779   -11149    -1011 
    3578     2058     4098     7995     7348     7215     9576     8771 
    7685    11756    15520    16280    21877    32151    36423    32726 
   28752    25636    20200    18386    23934    27969    27767    29632 
   32564    33315    32327    28607    23489    19804    16315    12097 
    7714     2918     -452       53     2607     4547     7977    13752 
   17263    17251    16321    14125    10714     8790     9341    10961 
   12719    14694    15671    14756    13998    13421     9388     2444 
   -1201      252     1229     -249      515     5599    10843    12821 
   13606    14130    13472    13400    13335    12653    13623    15357 
   17552    20787    20836    17071    15330    16505    16010    13322 
   11174     8196     4103     4183     7961    10038    11941    15498 
   16668    14577    12809    12761    14021    17142    22184    27208 
   30537    31641    30555    29553    30116    30675    30544    30245 
   30983    32384    30968    27972    28707    32942    35631    32496 
   24390    17789    17373    20311    20002    15946    15420    21039 
   26422    27179    24575    20554    16887    13453     8601     4047 
    2032     3996    10950    15729    12604    10085    13162    14224 
   10380     8084    10281    12492    13115    14560    14637    13309 
   16971    23956    26211    24369    23136    23179    23827    23805 
   22283    19774    15871    13530    15961    15255     7679     4072 
    5586     3881     1733     4901    10552    15432    20756    23525 
   20234    16051    14592    14015    13403    13971    18553    25923 
   31568    33632    32174    29566    28561    28459    26469    22026 
   19489    21899    24402    21729    17972    18312    18095    13249 
    7687     3630      588      228     2134     2860     1363    -1875 
   -5831    -8517   -12233   -17588   -17603   -12042    -7499    -4019 
   -1118     -108     2201     5811     7111     7907    11555    18114 
   23809    24944    26459    33308    41339    46695    47153    42408 
   38506    37431    35796    35424    37776    38733    37858    38571 
   38138    35400    37852    43705    42826    37617    34777    31857 
   27277    24377    22286    17108    10889     7998     6441     3733 
    2929     5285     6525     2750    -3222    -5165    -3211     -938 
    1940     5177     6468     6337     5741     4285     3389     4060 
    7256    13975    20320    23311    25098    26542    25736    23060 
   23607    27048    26164    21739    17859    13103     8141     6350 
    9911    16210    19277    18354    14457     7750     1084    -3173 
   -2132     4530    10718    13077    12403    10980    12037    12391 
    9090     8186    11531    12677     9979     6999     4021      653 
    -960    -2811    -6236    -3299     7037    12502    10721    11360 
   15553    16921    16224    18354    21481    23794    28078    31339 
   29835    27250    26063    25630    24559    18909     8421     -847 
   -4917    -4916    -4625    -7641   -12147   -12847    -9695    -7690 
   -7840    -5716      133     6686    11405    14109    18149    25350 
   31321    32683    29997    25809    24445    24374    21566    20542 
   23453    24876    24682    25967    28139    31285    36518    41064 
   41483    40159    38708    33224    25066    20761    21509    25484 
   29505    28590    25067    24888    26136    25748    24350    21242 
   17263    16909    20965    21976    16804    14027    16009    17127 
   17884    17837    14923    14146    17951    19794    15924    12436 
   13598    14433    11332     8818    12531    19326    20435    15977 
   13836    16160    20029    24084    26343    25249    25160    28176 
   26948    21249    21401    25822    25070    21464    21770    25284 
   27056    26494    27694    30459    32083    31220    25373    18203 
   17073    18982    17396    14860    15926    18828    20713    20733 
   19621    20452    21287    17343    12663    11890    12882    14407 
   14980    12954    11812    13432    14937    13665     8417     2907 
    3009     7404    10748    11236    10498    10423    10710    10561 
   10386    10287    10790    13316    15682    12471     6780     9377 
   18830    22829    19202    16435    20051    26899    30378    30223 
   31135    34293    37959    39174    35227    31328    33302    34651 
   30141    26233    28114    33844    38339    36963    31077    26458 
   23633    18452    12138     9001     9602    14430    22924    29174 
   29037    26467    24547    19051    10317     4947     3725     5776 
   11070    12891     6601     -608      435     9123    16994    17632 
   12769     9284     9691     8916     5449     6261    13590    20263 
   21117    16382     8469     3097     3391     4103     1491    -1393 
   -2918    -2992      432     6193    11944    18812    24664    26735 
   27572    27335    25409    25864    30607    35955    37630    36424 
   35184    33311    30218    25602    18819    13776    14156    15806 
   13732    11764    15676    22016    23094    17013     9429     6165 
    5697     5652     6361     6448     8003    13712    18644    19091 
   18181    18088    16543    12103     7431     4355     1860       19 
   -1300    -2885    -1307     5280     9115     5087      911     2137 
    1333    -5364    -8554    -5139    -1956     1737     5764     3429 
     461     5338     8443     1895    -3279      341     4756     6130 
    8069     9112    10174    15997    22757    25690    25606    23346 
   21756    21704    21576    24018    28349    31158    33976    35090 
   30310    23533    20890    21629    22866    23397    22279    21138 
   21310    20492    17281    12470     8501     7600     7559     6258 
    6165     8045     9246     9621    10365    11211    12770    14893 
   15470    14674    13890    12038     8194     3738     1031     1275 
    1433    -1691    -5164    -6493    -7335    -6886    -4349     -790 
    4887    10397    11199     9838    10780    13196    13777    10026 
    4237     4854    14978    24044    24104    21197    19920    19020 
   18932    17113    12757    11850    15095    17933    18658    16166 
   10787     5977     2926     -294    -2966    -2998    -2634    -4288 
   -5190    -3465    -2285    -2469     -903     1873     3523     4586 
    6591    11459    19050    26640    31904    32058    28087    24716 
   21117    15486    12126    14001    17921    19143    15530     7935 
     488    -1915     -359       46     -824     -283     1418     4159 
    8207    13265    21142    30574    34596    31298    26849    25259 
   25515    26553    27053    24500    20716    21183    23951    22900 
   21789    25331    27123    23912    20423    16320    11490    10431 
   11036     9086     6531     6379    10272    15993    17897    15907 
   15316    18677    23705    25593    20864    12614    10490    16963 
   21614    20962    22699    26864    29169    30264    28430    22843 
   17918    14307     9840     6474     7577    12473    15838    15788 
   17807    23210    25809    24257    23982    26570    27172    23262 
   19370    20381    24278    26494    26834    25880    22967    19248 
   14772     8484     3869     6069    12743    16512    16333    15953 
   15818    16507    20396    24845    25534    24063    23060    22674 
   23500    25244    27282    29512    30008    28529    28203    30493 
   34200    37065    36951    34402    32233    31892    32546    32131 
   29337    27112    27460    26272    22393    19284    18550    21680 
   28085    33439    34914    33423    32735    33313    30848    25098 
   20151    18840    21313    25060    27267    26700    25021    23481 
   18880    11485     5807     2251      827     2619     5511     7240 
    8258     9251     8442     6051     4931     2854      -39     3267 
   11570    17673    20653    22703    25696    27628    23457    17202 
   16547    17942    16938    17382    19110    19266    24013    37208 
   49426    53290    52889    51585    47581    41466    35152    28068 
   21147    17290    16372    15862    14310    11732    10387    11727 
   11406     7004     4696     7554     9449     6567     1605    -2926 
   -5586    -5193    -3035     -912     1895     5775     8653     8175 
    3568     -857      360     3786     3819     3275     7102    13992 
   19720    23430    25014    23759    22282    22964    23792    21972 
   18740    17736    17690    14905    12178    13466    15918    16966 
   18149    16848     9623     1952      652     4279     6909     5556 
    3217     3990     6913     8009     6036     3550     3856     7683 
   10110     5834     -572     -633     5723    11992    12827     9140 
    7589    11640    16116    16862    17311    19673    22842    26471 
   27503    23794    20820    22856    25241    23821    22218    24050 
   26831    27104    24426    19827    15596    14337    14520    11733 
    7335     7652    13166    17594    17607    16372    16157    15348 
   14260    15054    16508    15160    12257    11086     8521     3219 
    1270     4574     8310     9723    11056    12550    11238    10413 
   14307    19656    24460    29190    31558    30641    27787    24485 
   22779    22877    23184    24781    29087    32627    32789    32618 
   33814    34717    34108    30912    26923    25789    25643    23904 
   22923    23088    22508    20489    15963    11173    10352    12413 
   13897    13858    13571    14806    16503    15872    13727    13027 
   13737    15111    18539    24960    33124    39429    41197    40181 
   39639    40255    38574    32912    29336    32087    37226    41202 
   43599    44021    43096    40950    36364    31175    28922    30136 
   32290    31975    29842    29856    31856    32951    31582    26747 
   20197    15816    14343    13563    12828    14395    19012    22369 
   20182    14022     8122     4720     4006     4574     4969     4406 
    2161    -1119    -4209    -6063    -5789    -4737    -4755    -4786 
   -1964     3247     7377    12152    20157    26606    27729    26125 
   25300    24790    22012    18865    17304    15759    15401    16116 
   15149    13818    13782    14324    14268    11537     6299     1865 
    -712    -2612    -3083    -2583    -2198      550     4037     4634 
    7331    13627    15652    13523    12803    11256     8835    10851 
   15191    17005    18239    20529    20230    16934    16162    19023 
   22777    27596    31151    30495    27993    26101    25324    25284 
   25779    27448    28282    26757    24878    23665    23206    23049 
   21420    17781    12922     8600     6137     5294     7008    10534 
   11730    10198     9601    11135    13257    15496    17952    18437 
   15955    12888    10141     8459    10433    15448    20361    23787 
   25803    26574    25669    22926    19612    17373    17009    18303 
   19929    20438    19391    16933    13708    10523     7388     4054 
     267    -2698    -1218     3323     4057     1348     1460     4651 
    7639    10222    12074    10030     4859     2302     2144      164 
   -1697      106     5547    11080    12348    12990    17101    19696 
   20260    21518    19554    16123    18066    22823    22650    16599 
   13051    16550    19035    16475    14505    13818    12642    12518 
   11562     8234     7691    12643    17623    18401    18587    22370 
   26635    27440    27195    28170    28766    27220    23345    20039 
   19915    21080    21841    22042    20464    19047    20490    21506 
   20375    21319    24962    26588    24568    23088    24896    27215 
   28817    30512    29276    24605    20986    19526    19326    21229 
   25193    29795    32417    32203    32565    34455    35047    35338 
   37538    39824    41423    43291    43184    40597    40487    43363 
   43557    41025    39644    37857    34437    33797    37278    39140 
   36133    32304    30127    26230    19588    14035    11284    11217 
   15225    20192    19658    14837    10930     7563     3566     1745 
    3444     6260     8237     9380    11701    16548    19253    16600 
   14762    16916    17225    13650    10444     9290     8645     8675 
   10240    11170    10587     9883     6264     -710    -3671      320 
    5667     8467     9760    11021    13148    15484    15240    13435 
   13801    15687    16665    16911    17957    19285    19567    19116 
   17207    14870    14122    12583     9916     8704     8660     8845 
    8365     6490     4879     5125     5442     4351     5122     9349 
   12650    11979     9024     8013    11396    15434    16495    17262 
   20786    25979    30052    32721    36910    42840    46678    45666 
   39875    33805    33521    37343    38398    35996    35107    36116 
   33534    27023    22565    21592    21621    22078    21969    19842 
   16778    14942    14107    12479    10368     8609     6372     4019 
    4099     7548    10402     9300     7209     6087     2738    -2781 
   -4610     -518     5081     9802    13233    13375    12541    14044 
   15165    14205    14529    17521    19989    19241    16884    16641 
   18723    20333    20661    20688    21995    24366    25066    24437 
   24016    23760    25417    28488    29883    30350    31720    32314 
   30177    26478    21856    16006    12546    12966    12836    12070 
   13950    15855    14882    12954    10069     5299     2538     4231 
    6139     5566     6381     9601    10143     7598     7241    10505 
   13147    12037     9781    10133    12325    13438    14998    21067 
   29309    34594    36228    34703    32041    31142    30238    27966 
   26965    26969    26299    26138    25853    24939    25110    23095 
   15755     7817     3976     3436     2651      487      367     2556 
    2401     -740    -4114    -7166    -8941    -8002    -6015    -4028 
