Origin Time       2011/03/11 14:46:00
Lat.              38.103
Long.             142.860
Depth. (km)       24
Mag.              9.0
Station Code      YMN009
Station Lat.      35.4966
Station Long.     138.4628
Station Height(m) 230
Record Time       2011/03/11 14:47:43
Sampling Freq(Hz) 100Hz
Duration Time(s)  300
Dir.              N-S
Scale Factor      3920(gal)/6182761
Max. Acc. (gal)   114.880
Last Correction   2011/03/11 14:47:28
Memo.             
[...]
  -39287   -43749   -46316   -46906   -46768   -46561   -45886   -44484 
  -42179   -38431   -32724   -25290   -16853    -8011      309     7162 
   12282    15400    16202    14924    12324     9480     6984     4629 
    2286      -80    -2925    -6746   -11619   -17415   -23814   -30088 
  -35893   -41588   -47338   -52938   -57856   -61392   -63617   -65187 
  -66265   -66694   -66336   -64919   -62388   -58963   -54918   -50721 
  -46655   -42284   -37224   -31817   -26099   -19646   -12642    -5548 
    1168     6675    10740    13886    16046    17025    17319    17035 
   15790    13696    11239     8975     7352     6145     5014     4228 
    3782     2994     1509       14     -581     -493     -715    -1957 
   -4485    -8568   -14497   -21505   -27932   -33452   -38832   -43745 
  -47602   -50826   -53726   -55929   -56847   -56531   -55807   -55085 
  -54312   -53444   -52291   -51012   -50185   -50174   -50737   -51116 
  -50990   -50559   -49498   -47400   -44502   -41249   -38008   -35167 
  -33456   -33327   -34181   -35131   -35208   -33572   -30734   -27868 
  -25029   -21722   -18243   -14964   -11716    -8451    -5301    -2636 
    -919     -153     -523    -2516    -6118   -11269   -18052   -25892 
  -33713   -41082   -48353   -55532   -62297   -68924   -75960   -83583 
  -91526   -99047  -105654  -111198  -114860  -115950  -114796  -111622 
 -106163   -98544   -89688   -80563   -71673   -63588   -56466   -49469 
  -41930   -33963   -25751   -17395    -9191    -1362     6271    13788 
   20993    28088    35782    44622    54223    63511    71941    79499 
   85780    90067    91589    90033    86699    83205    78851    72277 
   64227    55619    45816    34286    21656     9298    -1834   -11758 
  -20297   -27118   -32553   -37075   -41350   -46066   -50812   -54463 
  -55989   -55147   -53053   -51130   -50214   -50695   -52432   -54959 
  -57615   -59452   -60092   -59901   -59053   -57429   -55099   -52563 
  -50197   -48136   -46652   -45270   -43012   -39831   -36379   -33204 
  -30496   -28135   -25829   -23350   -20763   -18059   -15103   -12772 
  -12586   -13912   -14214   -13246   -12699   -12541   -11779    -9390 
   -4473     1935     8323    14411    19766    23863    26944    29263 
   30456    30443    29704    28214    25880    23028    19533    15462 
   11357     7044     2061    -3483    -8977   -13756   -17716   -21078 
  -23968   -26422   -28277   -29427   -30384   -32229   -35934   -41839 
  -49539   -57969   -65924   -72731   -78284   -82689   -86030   -88278 
  -89370   -89451   -88680   -87032   -84839   -82376   -79204   -75217 
  -70648   -65331   -59360   -52960   -46242   -39515   -32832   -26405 
  -20555   -15110   -10156    -5645    -1239     2709     6067     9486 
   13318    17553    22002    26178    29887    33028    34983    35215 
   33637    30286    25368    19314    12428     4422    -5320   -16521 
  -27888   -38272   -46983   -53986   -59816   -64785   -68957   -72157 
  -73935   -74152   -72734   -69354   -64124   -57364   -49266   -40480 
  -31570   -22650   -14344    -7201     -903     4794     9793    13956 
   17299    19867    21372    21839    21513    20377    18889    17878 
   17534    17271    16484    14731    11757     7939     3392    -2593 
  -10087   -18245   -26804   -35578   -43622   -50790   -57166   -62145 
  -65942   -68754   -70315   -71186   -71914   -72514   -72837   -72335 
  -70381   -66953   -63081   -59973   -57053   -53164   -49164   -46126 
  -43707   -42064   -41215   -40158   -39100   -38702   -38267   -36989 
  -34553   -31105   -27461   -24125   -20665   -16526   -11826    -7164 
   -2915      800     3588     4603     3260      140    -3584    -7383 
  -11527   -16425   -22141   -28714   -36178   -44007   -51521   -58600 
  -65072   -70212   -73647   -75682   -76497   -76076   -74636   -72457 
  -69762   -66540   -62337   -56801   -49711   -40662   -30190   -19792 
  -10220    -1448     6279    12388    17069    21142    24601    27110 
   28582    29100    29445    30146    30876    31266    30805    29300 
   27183    24236    20191    15379     9972     4686      206    -3640 
   -6657    -8195    -8109    -7161    -6277    -5910    -6677    -8934 
  -12451   -16817   -21082   -24931   -28857   -32731   -36678   -40608 
  -43331   -44579   -45238   -46094   -47447   -48737   -49527   -50080 
  -50373   -50530   -51264   -52651   -54131   -55330   -55928   -55531 
  -53816   -50748   -46716   -42631   -39429   -37036   -34927   -33215 
  -32396   -32988   -34976   -37777   -41173   -44911   -48420   -51781 
  -55328   -59046   -62855   -66468   -69580   -72317   -74853   -76960 
  -78454   -79127   -78201   -75267   -70658   -64682   -57724   -50126 
  -42102   -34294   -27293   -20861   -14409    -7755    -1051     5422 
   11051    15451    18946    21702    23342    23474    21993    19345 
   16338    13502    11239     9958     9621     9948    10576    10918 
   10892    10782    10274     9092     7728     6754     6053     4866 
    2445    -1223    -5354    -9197   -12838   -16842   -21349   -26230 
  -31363   -36212   -40574   -44816   -48714   -51992   -54861   -57026 
  -58092   -58278   -57707   -56273   -53947   -50811   -47196   -43008 
  -37661   -31424   -25256   -19748   -15100   -10756    -5678      267 
    6652    13322    20055    26725    33338    39660    45625    51381 
   56753    61357    64765    66630    66942    65628    62469    57563 
   50652    41022    28916    15419     1759   -10928   -22595   -33561 
  -43382   -51673   -58442   -64059   -69221   -74450   -79860   -85034 
  -89414   -92758   -95005   -96005   -95302   -92488   -88073   -83745 
  -81035   -79681   -78543   -77378   -76349   -75201   -73266   -69725 
  -64869   -59788   -54529   -48671   -42078   -34439   -26282   -19218 
  -13931   -10114    -7679    -6314    -5463    -4860    -4413    -3955 
   -3369    -2849    -2233    -1484    -1438    -2430    -4524    -7944 
  -11629   -14098   -15018   -14480   -12498    -9158    -4832     -742 
    1658     1898      363    -2311    -5543    -8716   -11072   -12545 
  -13794   -14807   -15059   -14579   -13786   -12968   -12514   -13126 
  -14917   -17051   -18638   -19237   -18725   -16940   -13795    -9695 
   -5134     -670     2585     3914     3791     3198     3255     4717 
    7216    10100    13057    15431    16756    17166    16670    15451 
   13662    10677     5971     -227    -7420   -15091   -22995   -31169 
  -39089   -45852   -51203   -55269   -58479   -61535   -64491   -67179 
  -69665   -71783   -73756   -76044   -78023   -78541   -77422   -75070 
  -71776   -67978   -63971   -60129   -56716   -53016   -48517   -43777 
  -39389   -35460   -31956   -29035   -26846   -25367   -24501   -24019 
  -23863   -24245   -25081   -25918   -26541   -27120   -27745   -28413 
  -29181   -29637   -29103   -27687   -25863   -23780   -21765   -20033 
  -18243   -16246   -14268   -12325   -10350    -8418    -6212    -3542 
   -1532    -1427    -3155    -6012    -9222   -12193   -14744   -16801 
  -18217   -18607   -18028   -17438   -17075   -16010   -13817   -11090 
   -8758    -7291    -6408    -5832    -5841    -6796    -8676   -11074 
  -13120   -13864   -13145   -11123    -7709    -3364     1249     5680 
    9174    11324    11922    10408     6874     1953    -3969   -10588 
  -17586   -24501   -30957   -37244   -43935   -51249   -59076   -66945 
  -74197   -80666   -86633   -92132   -96840  -100336  -102413  -103195 
 -102855  -101351   -98403   -94054   -88832   -82947   -76057   -67858 
  -58846   -49967   -41195   -31932   -22446   -13478    -5310     2312 
    9662    16632    23359    30330    37493    44644    51670    57689 
   61722    63539    62880    59379    53228    45136    36023    26620 
   17575     9627     2811    -3453    -8918   -12977   -16085   -18793 
  -21012   -22970   -25367   -28974   -33922   -39633   -45776   -52189 
  -58465   -63956   -67927   -70402   -72140   -73419   -73770   -73181 
  -72669   -72656   -72473   -72157   -72221   -72409   -72587   -73076 
  -73462   -72740   -70031   -64493   -56261   -46729   -36625   -25976 
  -15411    -5234     4683    13774    21594    28449    34567    39819 
   44299    48543    52812    56948    61054    65235    68807    70648 
   70605    69766    68915    67884    66340    64022    60769    56762 
   52029    46110    38889    30798    22121    13090     3873    -5457 
  -14264   -21817   -27867   -32201   -34845   -36247   -37164   -38537 
  -40984   -45129   -51477   -59320   -67320   -74415   -79877   -83650 
  -85902   -86698   -86546   -86157   -86014   -86332   -86956   -87599 
  -87990   -87768   -86653   -84351   -80955   -77535   -75141   -74010 
  -73869   -74370   -75684   -77991   -80633   -82801   -84193   -84449 
  -82953   -79312   -73251   -64866   -55214   -45598   -36804   -29279 
  -23188   -18242   -13638    -7879      451    10969    22243    33248 
   42768    49787    54001    55438    54928    53496    51473    48737 
   44826    39465    32562    23749    13104     1317   -11117   -23832 
  -36042   -47226   -57680   -67436   -75600   -81001   -83306   -82636 
  -78712   -71540   -61457   -48918   -34842   -20668    -7834     3332 
   13231    21919    29346    35601    40191    42250    41903    40041 
   37655    35431    32746    28445    22496    16132    10443     5297 
     463    -3690    -6814    -8245    -7660    -6359    -6042    -7537 
  -11054   -16404   -23386   -31744   -40532   -48696   -55948   -62412 
  -67983   -72446   -76199   -79808   -83145   -85770   -87570   -88896 
  -89785   -89735   -88308   -85523   -82417   -80393   -79938   -80548 
  -81466   -82118   -81936   -81057   -80709   -81879   -84362   -87083 
  -89412   -91576   -93356   -94069   -93196   -89790   -82975   -73220 
  -61788   -49826   -38315   -27803   -18606   -10959    -4363     1955 
    8561    15811    22967    28801    33013    35798    37291    37887 
   37901    36930    35425    35224    36447    38044    40141    42381 
   44427    46768    48738    49190    47818    45061    41628    37977 
   34418    31014    27662    24007    19227    12100     1989    -9440 
  -19725   -27738   -32930   -35229   -35254   -33381   -29911   -25855 
  -22395   -20037   -18451   -17091   -15638   -13550   -10538    -6898 
   -2740     1353     3902     3948     1246    -4218   -11484   -18976 
  -25656   -31212   -35811   -39439   -41897   -43138   -43063   -41793 
  -39944   -37835   -35213   -32194   -29497   -27885   -27360   -27064 
  -26584   -26113   -26036   -26547   -27164   -27723   -28574   -29640 
  -30458   -30654   -30163   -29044   -27339   -24648   -19842   -13095 
   -6518     -784     4290     7491     7961     5683     1330    -4854 
  -13635   -24608   -37232   -51642   -67464   -84030  -100317  -115447 
 -128654  -139019  -146543  -151975  -156239  -159406  -160474  -159775 
 -158345  -155917  -152105  -146261  -137609  -126468  -113103   -98222 
  -83212   -68324   -54047   -41384   -30143   -19865   -10243     -694 
    9097    19193    29617    40272    51193    62333    73173    83122 
   92032    99888   106385   111294   114409   115425   114324   110931 
  105038    97102    87450    75861    62333    47214    30959    13902 
   -3700   -21429   -39043   -56615   -74195   -91563  -108363  -124167 
 -137867  -148363  -155534  -159545  -160993  -160582  -157935  -153171 
 -147638  -141877  -135520  -128066  -118980  -108199   -95449   -80601 
  -64405   -46887   -27800    -7777    12648    33294    53077    70130 
   84997    99131   111099   120259   127039   129951   129489   127543 
  123924   119191   114576   109793   104190    97088    87270    73865 
   57320    38713    18849    -1355   -21037   -40234   -59334   -78001 
  -95142  -109616  -120903  -129082  -134382  -137088  -137816  -137238 
 -135385  -132088  -127879  -122920  -116415  -108294   -98656   -86731 
  -72239   -55524   -37367   -18864     -767    15880    30003    41009 
   48056    50650    49430    45834    41423    36837    31797    26112 
   19342    10470     -606   -12790   -25567   -39118   -53285   -67201 
  -79758   -90768  -100420  -108542  -115066  -119903  -123157  -124972 
 -125053  -123398  -120439  -116291  -110693  -103418   -94709   -85207 
  -75137   -64464   -53270   -41173   -27788   -13215     2161    17568 
   32012    44447    54225    61410    66489    70663    74988    79348 
   83707    88407    93239    97648   101047   103159   104084   103559 
  101152    96792    90342    81643    70998    59385    47932    36757 
   25391    13784     1677   -11491   -25586   -39888   -53993   -67587 
  -80082   -91598  -102721  -113046  -121642  -128355  -133749  -138477 
 -142781  -146458  -149418  -151137  -150423  -146761  -140193  -130620 
 -118054  -102678   -85069   -66165   -46618   -26863    -7442    11312 
   28687    43438    55085    64010    70744    76178    81435    86641 
   91356    95537    98331    98246    94745    88101    78988    68309 
   56354    43145    29358    15712     2714    -9262   -20356   -30936 
  -41574   -52628   -63671   -74037   -83097   -90242   -95175   -98105 
  -99626  -100407  -100560   -99193   -95760   -90703   -84566   -78270 
  -73047   -69544   -67269   -65188   -63017   -60845   -59032   -58574 
  -60153   -63559   -67706   -71612   -74596   -75535   -74063   -70953 
  -66911   -62023   -56168   -49610   -42353   -33921   -24207   -13719 
   -2558     9922    23712    38279    53452    68919    84356    99548 
  113935   127092   138765   148182   154588   157939   158022   154187 
  146255   134194   117876    97342    73225    47873    23639      804 
  -20918   -42088   -63407   -84571  -105332  -125033  -142463  -157572 
 -170005  -179049  -185132  -188606  -189777  -189041  -186169  -181022 
 -173989  -165819  -156569  -145046  -130807  -114871   -98052   -81051 
  -64884   -49875   -35817   -22038    -7723     7182    22694    38735 
   54959    71308    87604   103790   119516   133204   143100   147795 
  146907   142353   136092   128378   119577   110623   102590    95832 
   88877    80873    71879    60906    48304    35708    23792    13226 
    4414    -3252   -10535   -18289   -27185   -37058   -47379   -57875 
  -68611   -79550   -90669  -102205  -113962  -125263  -135243  -143188 
 -148854  -152350  -154076  -154379  -153376  -150981  -146257  -138033 
 -126457  -112408   -97053   -81618   -66453   -51593   -37170   -23467 
  -10224     3569    17256    29210    38811    45819    50698    54069 
   55861    55771    53582    50081    46555    43636    41295    38650 
   34469    27883    18664     7638    -3886   -15490   -27829   -41705 
  -57391   -74318   -91764  -109621  -127095  -142242  -153369  -159468 
 -160741  -158124  -152090  -143568  -133476  -121818  -109092   -95976 
  -82794   -69584   -55316   -39476   -23309    -7522     9109    26891 
   43999    59705    74039    86401    96899   105415   111911   116775 
  119123   118360   114978   109366   101790    92277    80962    68529 
   55823    43177    30779    19156     8504    -1049    -9221   -15969 
  -21466   -26258   -30905   -35270   -38787   -41139   -42336   -42642 
  -42232   -40987   -39118   -36943   -34288   -31478   -29395   -28058 
  -27300   -27426   -28466   -30600   -33913   -37654   -41092   -43859 
  -45279   -44997   -43262   -39864   -35127   -30193   -25277   -20558 
  -16899   -14317   -12216   -10504    -9190    -8224    -8010    -9017 
  -11292   -14606   -18779   -23483   -28007   -32006   -35324   -38113 
  -41548   -46229   -51602   -57074   -62028   -65902   -68683   -70758 
  -72051   -72182   -71216   -69249   -66302   -62513   -58110   -53839 
  -50649   -48855   -48309   -48809   -50023   -51897   -54728   -58220 
  -61147   -61699   -59071   -54500   -49032   -42656   -35505   -27589 
  -19262   -11270    -3671     3657    10601    17084    22882    27521 
   31050    34090    36360    37363    37771    38125    38361    38207 
   37028    34671    31028    25839    19223    11017     1348    -9382 
  -20696   -32256   -44222   -56152   -67896   -79679   -91158  -101881 
 -110731  -116514  -118746  -117535  -113771  -108397  -101973   -94413 
  -85307   -74629   -62387   -48581   -33577   -18392    -3815     9880 
   22083    32662    41389    47284    50102    50290    48449    45262 
   41110    36045    30136    23775    17173     9810     1362    -7602 
  -16674   -25734   -34483   -43225   -52303   -61423   -70389   -78768 
  -86128   -92359   -97282  -101164  -104175  -106476  -108649  -110449 
 -111312  -111042  -109259  -105657   -99919   -92081   -82693   -71434 
  -57883   -43746   -31012   -19319    -8483      518     7909    13931 
   18797    23512    28103    33248    39795    46246    51357    54381 
   54681    52937    49211    43365    36187    28471    21259    15061 
    9664     5141     1715     -706    -2901    -5323    -7340    -8599 
   -9552   -10399   -10515    -9292    -6747    -2986     1850     7197 
   12231    16400    20067    24082    28121    30795    31641    31429 
   30872    30059    28803    27192    25141    21725    17262    13459 
    9798     5151      433    -4369   -10087   -16367   -22856   -28693 
  -32877   -36065   -38980   -41532   -43552   -44870   -46130   -48270 
  -51495   -55845   -61001   -66349   -71746   -77273   -83041   -89063 
  -95281  -101856  -108678  -115393  -121878  -127998  -133722  -139251 
 -144399  -148719  -151803  -152759  -150490  -144604  -135449  -123352 
 -108293   -90628   -71324   -51860   -34104   -18859    -5314     7374 
   19322    30249    39857    48316    55990    62905    68653    72845 
   75611    77548    79462    81445    82835    83450    83465    83082 
   82333    80971    78641    74180    67199    58315    47212    34736 
   21995     8371    -5756   -19719   -33587   -46783   -58937   -69777 
  -79004   -87058   -94002   -99501  -103643  -106659  -109008  -110827 
 -111560  -110564  -107958  -105439  -104522  -104826  -105793  -107161 
 -108426  -109549  -110076  -109447  -108218  -106502  -104323  -102512 
 -100706   -97770   -93597   -88403   -82341   -75622   -68468   -61967 
  -57241   -53607   -49340   -43561   -37484   -33248   -30531   -27912 
  -25552   -23242   -21291   -21022   -22049   -23061   -22843   -20768 
  -17197   -12407    -6503      534     8443    16414    24015    30896 
   36968    42845    48423    52738    54988    55332    54803    53531 
   50943    47270    42905    37821    31985    25608    18902    12008 
    5302    -1015    -7056   -13107   -19156   -24927   -30619   -35788 
  -39771   -42569   -43776   -43365   -41703   -39214   -36612   -34078 
  -31635   -28746   -24814   -20541   -16259   -11675    -6672     -956 
    5349    12108    19282    26092    32497    39054    45477    51471 
   56166    59195    61516    62692    62411    60952    57795    53491 
   48341    42036    35089    27400    18821     9944      905    -8122 
  -16413   -23694   -30167   -35975   -41070   -45080   -48007   -50509 
  -52663   -54027   -54946   -56256   -58212   -60515   -62636   -63934 
  -63921   -62194   -58756   -54323   -49637   -45051   -40435   -34858 
  -27394   -18801   -11115    -4971     1055     7366    12682    17337 
   22624    28205    33467    38060    41500    43746    44564    44009 
   42599    39998    35721    29931    22863    14623     5536    -4110 
