Origin Time       2011/03/11 14:46:00
Lat.              38.103
Long.             142.860
Depth. (km)       24
Mag.              9.0
Station Code      YMN011
Station Lat.      35.6384
Station Long.     138.3836
Station Height(m) 643
Record Time       2011/03/11 14:47:52
Sampling Freq(Hz) 100Hz
Duration Time(s)  238
Dir.              U-D
Scale Factor      3920(gal)/6182761
Max. Acc. (gal)   9.949
Last Correction   2011/03/11 14:47:37
Memo.             
[...]
  -38055   -38788   -39012   -38877   -38795   -38307   -37254   -36504 
  -36247   -35973   -36000   -36646   -37128   -37270   -38011   -39218 
  -40124   -40712   -40836   -40305   -39595   -39452   -40232   -41508 
  -42580   -43137   -43391   -43761   -43871   -42978   -41567   -40578 
  -40132   -40298   -40951   -41269   -41111   -41111   -41383   -41774 
  -42232   -42432   -41987   -41019   -40062   -39286   -38796   -39202 
  -40255   -40746   -40767   -40969   -40803   -40570   -41359   -42375 
  -42587   -42450   -42368   -42256   -42114   -42207   -42599   -42914 
  -43327   -44237   -45325   -46093   -46040   -45245   -44851   -45075 
  -44871   -44426   -44563   -44436   -43319   -42210   -41457   -40468 
  -39499   -38723   -37562   -35967   -34932   -35253   -36226   -36910 
  -37350   -37319   -36425   -35229   -34223   -33138   -32152   -32102 
  -33230   -35039   -37147   -39338   -41073   -41791   -41782   -41526 
  -40616   -39144   -38279   -38142   -37992   -38182   -38867   -39204 
  -39572   -40995   -42731   -43398   -43228   -43416   -44271   -45326 
  -46285   -47012   -47243   -46751   -46017   -45806   -45939   -45869 
  -45826   -46118   -46192   -45586   -44847   -44338   -43645   -43056 
  -43528   -44611   -44911   -44616   -44522   -44001   -42977   -42541 
  -42233   -41247   -40502   -40386   -40428   -40888   -41679   -42218 
  -42307   -41720   -40662   -39672   -38810   -38490   -38836   -38882 
  -38287   -37480   -36895   -36781   -36893   -37527   -38790   -39126 
  -38322   -38178   -38449   -37954   -37710   -38429   -39238   -40054 
  -41138   -42015   -42457   -42320   -41817   -41913   -42407   -42449 
  -42573   -43012   -42868   -42216   -41779   -41155   -39871   -38962 
  -39560   -40872   -41414   -41527   -42201   -42786   -42775   -43002 
  -43366   -43178   -42929   -43082   -43391   -43557   -43207   -42495 
  -42238   -42440   -42264   -41649   -41091   -40617   -40327   -40451 
  -41074   -42360   -43903   -44993   -45605   -45800   -45500   -45178 
  -45413   -45904   -46244   -46805   -47406   -47335   -47183   -47688 
  -48140   -47951   -47393   -46698   -46127   -46031   -46381   -46862 
  -47214   -47058   -46169   -45002   -43809   -42489   -41422   -40708 
  -40198   -40223   -41052   -42684   -44516   -45752   -46493   -46714 
  -46142   -45405   -44985   -44526   -44021   -44089   -44587   -44461 
  -43603   -42788   -42212   -41736   -41268   -40786   -40436   -40028 
  -39266   -38319   -37110   -35472   -34078   -33249   -32248   -31059 
  -30592   -30965   -31462   -31687   -31765   -31794   -31720   -31692 
  -31928   -32354   -32726   -32898   -33010   -33435   -34087   -34020 
  -32993   -32219   -32130   -32047   -32101   -32636   -32996   -32647 
  -32252   -32526   -33298   -34421   -35772   -36758   -37069   -36825 
  -36533   -36697   -36860   -36626   -36329   -36173   -36443   -37314 
  -38398   -39235   -39652   -40036   -40607   -40698   -40031   -39110 
  -38059   -36947   -36357   -36426   -36713   -36807   -36339   -35552 
  -35019   -34807   -35077   -35559   -35427   -34919   -34570   -34388 
  -34787   -35664   -36224   -36496   -36748   -36742   -36343   -35610 
  -35045   -35327   -36435   -38175   -40181   -41804   -43123   -44060 
  -44190   -43814   -42914   -41426   -40154   -39598   -39809   -40798 
  -42241   -43490   -43877   -43649   -43447   -42938   -42057   -41288 
  -40190   -38668   -37530   -36900   -36652   -36542   -35895   -34964 
  -34258   -33421   -32732   -32738   -33008   -33394   -34167   -35193 
  -36408   -37699   -38504   -38365   -37538   -36702   -36306   -36599 
  -37325   -37723   -37605   -37079   -36128   -35458   -35829   -36792 
  -37668   -38522   -39377   -40248   -41446   -42634   -43256   -43313 
  -42799   -42099   -41985   -42314   -42575   -42906   -43419   -43822 
  -43912   -43879   -44135   -44765   -45273   -45487   -46131   -47283 
  -48048   -48074   -47310   -46278   -46556   -48233   -49589   -50256 
  -50932   -51167   -50780   -50817   -51305   -51608   -51893   -51773 
  -50921   -50173   -49786   -49330   -48454   -47012   -45806   -45162 
  -44159   -42838   -41657   -40088   -38314   -37211   -36775   -36727 
  -36922   -36999   -36983   -37041   -36746   -36226   -36019   -35420 
  -34397   -34432   -35298   -35867   -36432   -36874   -36658   -36304 
  -36175   -35926   -35220   -34397   -34175   -34154   -33891   -33935 
  -33855   -33111   -32685   -32906   -33201   -33931   -35277   -36595 
  -37685   -38293   -37901   -37096   -36957   -37352   -37760   -38673 
  -40159   -41248   -42011   -43182   -44325   -44760   -44574   -43978 
  -43303   -43159   -43490   -43717   -43512   -42700   -41908   -41838 
  -41677   -41015   -40948   -41808   -42859   -43626   -44018   -44028 
  -43323   -41824   -40648   -40459   -40495   -40820   -42198   -43797 
  -44651   -45427   -46453   -46867   -46547   -46212   -45901   -45678 
  -46229   -47154   -47390   -47249   -47346   -47517   -47985   -48898 
  -49359   -48897   -48451   -48610   -48705   -48609   -48605   -47982 
  -46784   -45996   -45587   -45494   -45770   -45508   -44611   -43939 
  -43328   -42378   -41346   -40477   -40202   -40720   -41362   -41934 
  -42931   -43779   -43376   -42274   -41700   -41343   -40845   -40843 
  -40961   -40694   -40704   -40947   -40897   -40701   -40418   -39881 
  -39056   -38037   -36749   -35345   -34782   -35225   -35898   -36732 
  -37532   -37615   -36948   -35766   -34139   -32414   -31143   -30708 
  -31322   -32787   -34117   -34679   -35146   -35914   -36284   -35827 
  -34775   -33445   -32191   -31648   -32287   -33296   -33690   -33939 
  -34260   -34119   -34076   -34522   -34300   -33110   -32428   -32894 
  -33493   -33478   -32849   -31805   -31162   -31625   -32694   -33913 
  -35537   -36918   -37162   -37175   -37561   -37120   -35825   -34840 
  -34069   -33330   -33304   -34028   -34780   -35092   -35040   -34917 
  -34879   -35194   -35831   -35764   -34509   -32971   -31971   -31778 
  -32409   -33499   -34462   -34978   -35205   -35366   -35425   -35099 
  -34258   -33246   -32354   -31793   -31976   -33081   -35038   -37348 
  -39140   -40158   -40494   -40134   -39583   -39258   -38942   -38530 
  -38169   -38116   -38563   -39389   -40444   -41471   -42269   -42949 
  -43342   -43080   -42285   -41620   -41588   -41765   -41572   -41445 
  -41941   -42484   -42384   -41814   -40834   -39517   -38605   -38245 
  -37943   -37502   -36766   -36065   -36138   -36829   -37344   -37559 
  -38117   -39142   -40068   -40968   -42087   -42871   -43054   -42761 
  -41826   -40735   -40032   -39251   -38747   -39135   -38884   -37267 
  -36192   -35846   -34766   -33969   -34588   -35095   -34852   -34934 
  -35059   -34546   -33906   -33393   -32637   -31186   -29049   -27277 
  -26467   -25993   -25823   -26377   -27310   -28369   -29556   -30502 
  -30831   -30364   -29694   -29717   -29912   -29892   -30558   -31420 
  -31359   -31144   -31384   -31715   -32296   -32877   -32818   -32429 
  -32044   -31647   -31588   -31729   -31484   -31059   -30920   -30917 
  -30807   -30587   -30310   -30241   -30441   -30469   -30277   -30179 
  -30104   -29901   -29704   -29504   -29112   -28970   -29620   -30716 
  -31927   -33089   -33661   -33582   -33482   -33817   -34393   -34912 
  -35705   -36982   -38365   -39613   -40486   -40502   -39646   -38495 
  -37421   -36551   -36457   -37243   -37952   -38320   -38831   -39222 
  -39047   -38603   -38438   -38600   -38868   -39216   -39370   -38985 
  -38340   -37786   -37288   -37010   -37067   -37144   -37191   -37309 
  -37557   -38228   -39164   -39889   -40350   -40488   -40348   -40282 
  -40297   -40336   -40520   -40594   -40386   -40147   -39748   -38848 
  -37680   -36723   -35952   -35254   -35034   -35418   -35947   -36226 
  -36095   -35829   -35882   -36311   -36972   -37860   -38815   -39289 
  -39323   -39732   -40455   -40959   -41583   -42479   -43382   -44360 
  -45202   -45629   -45692   -45415   -45150   -45058   -44676   -44126 
  -43962   -43933   -43645   -43576   -43845   -43633   -42834   -42197 
  -42194   -42698   -43121   -43440   -43960   -44161   -44011   -44156 
  -44302   -44054   -43528   -42802   -42286   -42086   -41836   -41868 
  -42484   -43017   -43108   -43116   -42996   -42582   -42178   -42033 
  -42143   -42318   -42392   -42478   -42629   -42503   -41713   -40703 
  -40438   -41092   -42210   -43252   -43917   -44553   -45166   -45166 
  -44599   -43833   -43021   -42469   -42208   -41768   -41090   -40810 
  -41203   -41711   -41802   -41601   -41507   -41477   -41213   -40859 
  -40683   -40802   -41397   -42196   -42659   -42773   -42543   -42036 
  -41952   -42550   -43104   -43031   -42615   -42411   -42512   -42894 
  -43522   -44084   -44621   -45339   -45952   -46252   -46126   -45336 
  -44314   -43672   -43138   -42509   -42152   -41984   -41928   -42395 
  -43289   -44275   -45467   -46668   -47273   -47275   -47221   -47218 
  -47052   -46996   -47359   -47800   -47960   -48164   -48760   -49445 
  -50039   -50704   -51179   -51236   -51160   -51098   -50905   -50366 
  -49272   -47748   -46186   -44840   -43813   -43144   -42774   -42648 
  -42781   -43208   -43874   -44336   -44187   -43794   -43461   -42971 
  -42347   -41571   -40768   -40415   -40542   -41029   -41294   -40342 
  -38546   -36814   -35263   -34257   -34190   -34606   -34839   -34760 
  -34544   -34298   -34493   -35552   -36870   -37648   -37843   -37946 
  -38491   -39494   -40795   -42163   -42694   -42009   -41139   -40741 
  -40472   -40417   -40826   -41365   -42059   -43103   -44077   -44631 
  -44669   -44265   -43838   -43549   -43284   -43103   -43000   -43029 
  -43406   -43759   -43561   -43240   -43221   -43260   -43433   -44022 
  -44904   -45886   -47035   -48153   -48811   -49419   -50137   -49983 
  -49115   -48482   -47658   -46407   -45519   -44885   -43828   -42479 
  -41293   -40492   -40019   -39778   -39857   -39949   -39724   -39532 
  -39394   -38993   -38591   -38427   -38528   -38938   -39311   -39504 
  -39816   -40069   -39980   -39695   -39247   -38746   -38392   -38148 
  -38292   -39041   -40061   -41424   -43204   -44662   -45471   -45912 
  -45819   -45215   -44485   -43502   -42406   -41627   -40761   -39638 
  -38806   -38150   -37355   -37080   -37841   -39039   -40153   -41072 
  -41468   -41473   -41514   -41414   -41136   -40923   -40440   -39515 
  -38789   -38607   -38694   -38819   -38711   -38343   -38046   -37590 
  -36605   -35360   -33980   -32414   -31016   -30019   -29513   -29788 
  -30873   -32317   -33296   -33330   -33002   -32601   -31613   -30327 
  -29299   -28306   -27528   -27557   -28431   -29608   -30217   -30096 
  -30215   -31081   -32146   -33037   -33822   -34337   -34574   -34815 
  -34795   -34329   -33787   -33045   -31980   -31052   -30356   -29943 
  -30036   -30306   -30540   -30822   -31062   -31637   -32593   -32933 
  -32692   -33139   -34454   -35597   -35856   -35388   -34545   -33535 
  -32907   -33127   -33798   -34258   -34316   -34126   -34096   -34539 
  -35225   -35831   -36169   -36010   -35539   -35015   -34369   -34021 
  -34386   -34836   -34692   -34074   -33192   -32176   -31587   -31905 
  -32810   -33633   -34033   -34149   -34453   -35045   -35309   -35081 
  -34845   -34610   -34323   -34115   -33640   -32867   -32373   -32269 
  -32347   -32781   -33741   -34982   -36071   -36892   -37706   -38264 
  -37951   -37359   -37532   -37967   -37916   -37769   -37640   -37367 
  -37226   -37115   -36739   -36146   -35446   -34767   -34072   -33388 
  -33061   -33225   -33873   -34963   -36151   -37154   -37645   -37133 
  -35919   -34891   -34406   -34293   -34324   -34565   -35205   -36000 
  -36543   -36753   -36740   -36323   -35258   -33954   -32975   -32456 
  -32333   -32439   -32873   -33698   -34396   -34830   -35327   -35702 
  -35840   -36319   -37548   -38884   -39531   -39980   -40756   -41113 
  -40807   -40766   -41433   -42344   -43270   -44589   -46166   -47383 
  -48333   -49287   -50086   -50652   -50806   -50336   -49428   -48149 
  -46498   -45094   -44428   -44083   -43836   -43980   -44143   -43918 
  -43643   -43231   -42418   -41469   -40280   -38804   -37547   -36632 
  -36056   -36008   -36261   -36505   -36795   -37356   -38191   -38995 
  -39801   -40591   -40673   -39947   -39103   -38275   -37190   -36004 
  -35432   -35904   -36892   -37905   -38888   -39448   -39245   -38597 
  -37973   -37534   -37281   -37116   -36892   -36620   -36382   -36337 
  -36592   -36963   -37432   -38169   -38883   -39067   -38614   -37616 
  -36296   -34981   -33658   -32546   -32232   -32625   -33311   -34114 
  -34683   -34869   -34987   -34946   -34310   -33574   -33555   -33970 
  -34463   -35295   -36324   -37003   -36888   -35978   -34729   -33418 
  -32454   -32506   -33312   -33990   -34373   -34882   -35520   -35740 
  -35530   -35513   -35918   -36744   -38085   -39509   -40317   -40625 
  -41015   -41414   -41605   -41756   -41656   -41060   -40299   -39803 
  -39817   -40181   -40597   -40992   -41145   -40984   -40667   -40232 
  -39759   -39170   -38582   -38549   -39074   -39762   -40596   -41682 
  -42771   -43320   -43280   -43071   -42827   -42670   -42630   -42608 
  -42894   -43205   -42859   -42134   -41166   -39472   -37427   -35733 
  -34307   -33117   -32520   -32527   -32894   -33443   -33788   -33383 
  -32209   -30736   -29265   -27901   -26553   -25132   -24091   -23745 
  -23589   -23356   -23551   -24272   -24917   -25299   -25744   -26226 
  -26321   -26004   -25852   -25987   -25962   -26086   -26816   -27425 
  -27422   -27411   -27644   -27918   -28321   -28921   -29666   -30449 
  -31115   -31793   -32487   -32673   -32204   -31658   -31427   -31467 
  -31914   -32893   -33869   -34474   -34935   -35062   -34646   -33953 
  -33004   -32013   -31536   -31510   -31716   -32213   -32671   -32901 
  -33410   -34357   -35202   -35669   -36106   -36646   -36817   -36628 
  -36707   -36920   -36777   -36641   -36843   -36965   -36706   -36434 
  -36716   -37481   -38207   -38776   -39232   -39432   -39424   -39419 
  -39474   -39752   -40496   -41207   -41266   -41003   -40667   -40110 
  -39585   -39103   -38363   -37568   -37168   -37364   -38028   -38850 
  -39521   -39789   -39803   -39792   -39762   -40159   -41105   -41776 
  -42141   -42948   -43876   -44209   -44373   -44897   -45378   -45897 
  -47260   -49222   -50637   -50981   -50547   -49712   -48720   -48015 
  -47819   -47712   -47495   -47312   -46689   -45215   -43547   -42301 
  -41544   -41403   -41575   -41374   -40593   -39263   -37584   -36190 
  -35376   -34873   -34598   -34585   -34664   -34810   -35290   -36209 
  -37132   -37675   -38001   -38217   -38421   -38998   -39886   -40757 
  -41649   -42644   -43674   -44457   -44773   -44932   -45250   -45701 
  -46389   -47436   -48421   -48812   -48678   -48342   -47982   -47666 
  -47362   -47053   -46855   -47062   -47893   -49244   -50811   -52132 
  -52728   -52304   -51202   -50225   -49242   -47975   -47140   -46682 
  -46044   -45635   -45616   -45445   -44845   -44084   -43787   -44176 
  -44629   -44692   -44801   -45086   -44932   -44372   -43779   -42917 
  -42067   -41888   -42082   -42340   -42856   -43428   -43907   -44467 
  -45124   -45703   -45907   -45912   -46309   -46974   -47282   -47090 
  -46709   -46349   -46032   -46108   -46688   -46840   -45871   -44382 
  -43194   -42325   -41442   -40464   -39361   -38253   -37526   -37175 
  -36829   -36398   -35918   -35345   -34974   -35155   -35727   -36442 
  -36947   -36929   -36893   -37142   -37151   -36928   -36796   -36451 
  -35760   -35341   -35378   -35195   -34735   -34496   -34303   -34094 
  -34183   -34222   -33826   -33217   -32530   -31898   -31524   -31271 
  -31167   -31438   -31880   -32145   -32217   -32213   -32104   -31961 
  -32174   -32884   -33848   -34953   -36015   -36790   -37563   -38549 
  -39390   -40102   -40957   -41677   -42001   -42037   -41905   -41598 
  -40989   -40175   -39447   -38880   -38639   -38965   -39818   -41151 
  -42769   -44284   -45557   -46349   -46442   -45988   -45095   -44060 
  -43231   -42659   -42454   -42302   -41713   -40800   -39608   -38253 
  -37192   -36207   -34857   -33402   -32222   -31483   -31140   -30954 
  -30942   -31132   -31065   -30547   -30083   -29881   -29655   -29367 
  -29126   -28859   -28376   -27697   -27329   -27551   -28124   -28945 
  -29775   -30269   -30526   -30638   -30717   -30877   -30697   -30242 
  -30219   -30548   -30941   -31557   -31978   -31678   -30940   -30146 
  -29412   -28776   -28358   -28493   -28980   -29334   -29802   -30270 
  -30135   -29636   -29184   -28851   -28766   -28898   -29141   -29425 
  -29715   -30033   -30332   -30562   -30650   -30677   -30938   -31456 
  -32109   -32969   -33981   -34691   -34810   -34849   -35259   -35855 
  -36686   -37841   -38846   -39634   -40659   -41695   -42229   -42332 
  -42173   -41895   -41833   -42032   -42316   -42734   -43114   -43328 
  -44004   -45131   -45798   -46033   -46080   -45423   -44136   -42864 
  -41736   -40459   -39049   -38120   -37928   -37890   -37718   -37498 
  -37094   -36679   -36453   -36115   -35631   -35151   -34489   -33615 
  -32751   -32096   -31718   -31572   -31584   -31414   -30969   -30677 
  -30583   -30586   -30714   -30733   -30690   -30846   -31220   -31585 
  -31442   -30975   -30802   -30685   -30570   -30898   -31426   -31969 
  -32799   -33680   -34191   -34397   -34403   -34120   -33843   -34037 
  -34531   -35184   -36468   -38245   -39746   -40770   -41317   -41234 
  -40721   -40206   -39995   -40117   -40386   -40663   -40679   -40122 
  -39212   -38315   -37405   -36657   -36350   -36241   -36271   -36745 
  -37389   -37586   -37386   -37181   -36952   -36793   -37113   -37796 
  -38385   -38859   -39360   -39864   -40436   -41082   -41710   -42488 
  -43441   -44274   -44889   -45038   -44514   -43849   -43462   -43153 
  -42729   -42316   -42257   -42588   -43052   -43603   -44033   -44025 
  -43818   -43637   -43284   -42932   -42881   -42922   -43040   -43452 
  -43913   -44119   -44127   -44094   -44232   -44713   -45474   -46519 
  -47777   -48768   -49363   -49928   -50428   -50722   -50963   -51019 
  -50689   -50181   -49805   -49855   -50343   -50686   -50542   -50166 
  -49585   -48722   -47825   -46944   -45922   -44818   -43667   -42348 
  -40833   -39304   -38011   -36840   -35607   -34757   -34557   -34356 
  -33874   -33503   -33046   -32334   -31856   -31530   -31121   -31046 
  -31219   -31250   -31265   -31202   -31026   -31143   -31637   -32100 
  -32291   -32455   -32920   -33746   -34822   -35862   -36560   -36797 
  -36561   -36096   -35909   -36111   -36299   -36473   -37001   -37727 
  -38378   -39212   -40287   -41137   -41546   -41758   -41947   -42023 
  -41960   -41959   -41970   -41675   -41231   -40845   -40199   -39309 
  -38433   -37516   -36752   -36238   -35594   -34861   -34427   -34234 
  -34006   -33681   -33322   -32890   -32330   -31715   -31322   -31436 
  -31811   -32061   -32396   -32856   -32861   -32540   -32681   -33031 
  -33041   -33207   -33806   -34387   -34886   -35631   -36615   -37365 
  -37535   -37445   -37550   -37781   -37850   -37889   -38146   -38312 
  -38328   -38817   -39735   -40419   -40760   -40824   -40614   -40547 
