Origin Time       2011/03/11 14:46:00
Lat.              38.103
Long.             142.860
Depth. (km)       24
Mag.              9.0
Station Code      YMN011
Station Lat.      35.6384
Station Long.     138.3836
Station Height(m) 643
Record Time       2011/03/11 14:47:52
Sampling Freq(Hz) 100Hz
Duration Time(s)  238
Dir.              E-W
Scale Factor      3920(gal)/6182761
Max. Acc. (gal)   15.265
Last Correction   2011/03/11 14:47:37
Memo.             
[...]
  -43332   -43392   -43707   -43897   -44030   -44375   -45087   -45797 
  -46192   -46673   -47414   -47747   -47433   -47153   -47077   -47028 
  -47761   -49428   -50643   -50701   -50150   -49546   -48925   -47786 
  -46045   -44407   -43149   -41916   -40756   -40126   -40133   -40412 
  -40659   -41266   -42907   -45033   -46099   -45787   -45179   -44798 
  -44627   -44909   -45177   -44513   -43122   -41940   -41357   -40753 
  -39241   -37336   -36612   -37304   -37941   -37806   -38121   -39526 
  -40440   -39903   -39355   -39720   -39640   -38046   -36021   -34948 
  -34567   -33972   -33355   -33518   -34448   -35614   -36939   -38358 
  -39523   -40566   -41909   -43147   -43447   -43111   -42951   -42567 
  -41588   -40910   -40915   -41013   -41268   -42024   -42786   -42894 
  -42291   -41620   -41782   -42735   -43465   -43873   -45190   -47701 
  -50127   -51661   -52505   -53026   -53685   -54598   -55153   -55376 
  -56379   -58369   -60416   -62127   -63377   -63564   -62594   -61339 
  -60459   -59778   -59019   -58143   -57103   -55967   -55042   -54636 
  -54693   -54765   -54522   -54222   -54177   -53899   -52777   -51203 
  -49986   -49289   -48789   -48361   -48227   -48561   -49160   -49498 
  -49287   -48674   -47550   -45643   -43544   -42080   -41084   -40451 
  -40715   -41355   -41266   -40913   -41406   -42498   -43253   -43490 
  -43633   -43901   -43967   -43515   -42855   -42119   -40738   -38879 
  -37719   -37544   -37538   -37531   -37854   -38048   -37903   -38258 
  -39119   -39505   -39607   -40311   -41159   -41076   -40191   -39345 
  -38789   -38486   -38636   -39203   -39816   -40433   -41347   -42348 
  -42875   -43081   -43563   -44368   -45112   -45579   -45751   -45635 
  -45455   -45532   -45824   -46161   -46594   -47030   -47232   -47353 
  -47608   -47739   -47590   -47513   -47745   -48032   -48029   -47583 
  -46777   -46035   -45631   -45264   -44571   -43608   -42769   -42327 
  -42057   -41651   -41353   -41722   -42694   -43569   -44133   -44672 
  -45082   -45159   -45178   -45286   -45203   -44997   -45093   -45554 
  -46375   -47790   -49453   -50464   -50473   -49910   -49511   -49771 
  -50286   -50257   -49834   -49780   -50115   -50335   -50311   -50112 
  -49674   -49024   -48136   -46796   -45165   -43738   -42933   -43192 
  -44433   -45765   -46681   -47492   -48302   -48691   -48657   -48784 
  -49348   -50345   -51800   -53283   -54024   -53647   -52546   -51446 
  -50308   -48651   -47158   -46873   -47145   -46808   -46338   -46315 
  -45741   -44084   -42549   -42037   -42199   -42842   -44114   -45446 
  -46261   -46882   -47296   -46768   -45280   -43718   -42698   -42145 
  -41782   -41560   -41616   -41896   -42087   -42354   -43208   -44359 
  -45308   -46360   -47647   -48517   -48617   -48472   -48509   -48369 
  -47843   -47404   -47355   -47413   -47322   -47195   -47007   -46466 
  -45673   -45045   -44734   -44785   -45190   -45553   -45519   -45306 
  -45397   -46068   -47060   -47633   -47561   -47482   -47521   -47199 
  -46777   -46743   -46879   -46952   -47212   -47867   -48541   -48764 
  -48574   -47904   -46500   -44801   -43617   -43263   -43748   -45065 
  -46991   -49084   -50773   -51247   -50062   -47931   -45936   -44334 
  -42877   -41606   -41038   -41772   -43362   -44281   -44086   -44033 
  -44895   -46230   -47565   -48687   -49487   -49907   -49711   -48617 
  -46802   -45086   -44129   -43577   -42818   -42131   -42153   -42701 
  -43045   -43010   -42920   -42667   -42076   -41868   -42674   -43591 
  -43296   -41979   -40834   -40241   -39716   -39200   -39305   -40367 
  -41600   -41750   -40894   -40108   -39484   -38545   -37721   -37589 
  -37876   -38148   -38476   -38797   -38679   -38340   -38510   -39224 
  -40084   -40955   -41873   -43025   -44444   -45505   -45633   -45186 
  -44709   -43972   -42518   -40732   -39661   -39697   -40133   -40333 
  -40398   -40556   -40790   -40861   -40505   -39918   -39610   -39805 
  -40416   -41110   -41391   -41054   -40534   -40662   -41613   -42554 
  -42972   -43323   -44238   -45642   -46435   -45726   -43943   -41947 
  -40146   -38812   -38487   -39336   -40480   -41189   -41715   -42158 
  -42094   -41159   -39378   -37577   -36604   -36223   -36198   -36933 
  -38328   -39893   -41511   -43068   -44313   -45079   -45269   -45158 
  -45366   -46141   -46968   -47340   -47553   -47960   -48244   -48156 
  -48023   -48408   -49449   -50483   -50832   -50510   -49923   -49623 
  -49925   -50491   -51000   -51592   -52046   -51944   -51551   -51327 
  -51408   -51873   -52723   -53975   -55664   -57368   -58705   -60033 
  -61449   -62135   -61647   -60570   -59414   -58211   -57210   -56739 
  -56664   -56441   -55876   -55837   -57062   -58719   -59733   -60506 
  -61947   -63855   -65143   -65219   -64787   -64838   -64778   -63410 
  -61298   -59602   -58198   -56556   -54656   -53025   -52227   -51712 
  -50414   -48495   -47087   -46781   -46923   -46409   -45167   -44009 
  -43167   -42125   -40565   -38912   -38074   -38346   -38934   -39290 
  -39703   -39980   -39474   -38231   -36647   -35182   -34519   -34705 
  -35152   -35831   -36986   -38382   -39640   -40577   -41277   -41943 
  -42629   -43247   -43665   -43984   -44572   -45539   -46680   -47847 
  -48800   -49262   -49350   -49384   -49629   -50496   -52257   -54603 
  -57028   -59185   -60513   -60538   -59667   -58418   -56746   -54997 
  -53854   -53136   -52200   -51125   -50275   -49704   -49368   -49012 
  -48669   -49044   -50272   -51406   -51452   -50111   -47956   -46304 
  -46147   -46988   -47609   -47981   -49020   -50458   -50879   -50003 
  -48820   -47629   -46104   -44563   -43460   -42634   -41980   -41761 
  -41984   -42524   -43727   -46006   -49199   -52561   -55033   -56096 
  -56564   -57411   -58400   -59106   -59915   -61169   -62665   -64288 
  -66034   -67481   -68209   -68397   -68349   -68106   -67629   -66819 
  -65728   -64630   -63312   -61413   -59402   -57671   -55855   -54230 
  -53890   -54977   -56410   -57364   -57896   -58253   -58257   -57441 
  -55886   -54271   -52636   -50554   -48228   -46044   -44152   -42603 
  -41261   -40499   -41261   -43328   -45114   -45832   -45920   -45500 
  -44656   -44081   -43964   -44140   -45156   -47364   -50104   -52612 
  -54627   -55754   -55519   -54319   -52853   -51120   -49141   -47360 
  -46008   -45098   -44396   -43164   -41101   -39125   -38050   -37371 
  -36352   -35209   -34371   -33758   -33209   -32473   -31152   -29580 
  -28827   -29218   -30223   -31768   -33868   -35758   -36987   -38131 
  -39607   -40899   -41108   -39975   -38569   -38299   -39035   -39899 
  -41361   -44017   -46936   -49387   -51890   -54632   -57013   -58879 
  -60736   -62598   -63365   -61965   -58867   -55501   -52518   -49633 
  -47007   -45500   -45111   -44738   -43988   -43459   -43181   -42741 
  -42503   -42877   -43418   -43679   -43772   -43932   -44118   -44186 
  -44305   -44692   -45358   -46283   -47198   -47910   -48838   -50176 
  -51365   -51978   -51963   -51201   -49670   -47845   -46438   -45542 
  -44579   -43284   -42101   -41536   -41599   -41980   -42403   -42724 
  -42965   -43144   -43063   -42429   -41337   -40348   -39649   -38944 
  -38275   -37767   -37334   -36975   -36654   -36561   -37247   -38747 
  -40446   -41953   -43090   -43437   -42984   -42522   -42322   -41719 
  -40707   -39970   -39289   -37998   -36396   -35323   -35285   -36125 
  -37027   -37706   -38818   -40192   -40871   -41147   -41617   -41452 
  -40311   -39350   -38876   -38253   -37848   -38457   -39918   -41204 
  -41407   -40857   -40425   -40102   -39841   -40143   -40499   -39813 
  -38628   -38461   -39462   -40575   -41693   -43877   -47046   -49757 
  -51344   -51942   -51536   -50447   -49170   -47867   -46812   -46180 
  -45709   -45224   -44741   -44301   -44066   -43925   -43570   -43433 
  -44317   -46021   -47652   -48803   -49366   -49233   -48715   -48345 
  -48266   -48235   -48032   -47593   -46836   -45622   -43966   -42390 
  -41598   -41690   -42152   -42307   -41871   -41257   -41027   -41258 
  -41580   -41684   -41544   -41257   -41190   -41874   -43340   -45020 
  -46486   -47922   -49492   -50839   -51784   -52473   -52835   -52827 
  -52596   -52119   -51409   -50827   -50532   -50095   -49313   -48778 
  -48995   -49790   -51013   -52896   -55482   -58151   -59770   -59612 
  -58147   -56203   -53944   -51573   -49979   -49851   -50791   -51839 
  -52541   -53070   -53653   -54128   -53835   -52093   -49167   -46243 
  -44028   -42295   -40870   -39931   -39461   -39344   -39698   -40600 
  -41999   -43745   -45343   -46226   -46231   -45627   -44751   -43832 
  -43053   -42565   -42753   -43890   -45374   -46722   -48512   -50838 
  -52528   -52822   -52037   -50629   -48875   -47180   -46119   -46151 
  -47380   -49567   -52199   -54675   -56804   -59068   -61733   -64149 
  -65684   -66091   -65056   -62742   -59838   -56592   -52632   -47817 
  -43093   -39717   -37788   -36862   -37043   -38317   -39868   -40646 
  -40317   -39468   -38676   -37730   -36395   -35180   -34539   -34286 
  -34026   -33560   -33019   -32708   -33051   -34515   -37094   -40214 
  -43349   -46293   -48498   -48932   -47474   -45287   -43179   -41042 
  -39093   -38441   -39877   -42533   -44848   -46747   -49208   -52169 
  -54584   -55944   -56678   -57488   -58451   -58645   -57285   -54860 
  -52487   -50977   -50373   -49877   -48803   -47230   -45545   -43927 
  -42282   -40712   -39616   -38902   -38103   -37247   -36457   -35550 
  -34703   -34450   -34828   -35297   -35459   -35386   -35361   -35595 
  -35850   -35509   -34625   -34161   -34515   -34920   -34745   -34232 
  -33938   -34126   -34537   -34890   -35618   -37317   -39707   -42212 
  -44795   -47324   -49366   -50826   -51725   -51959   -51656   -51056 
  -50306   -49756   -50011   -51375   -53531   -56018   -58561   -60846 
  -62572   -63496   -63296   -61954   -59880   -57383   -54791   -52692 
  -51409   -50848   -50990   -51922   -53403   -54933   -56286   -57446 
  -58080   -57938   -57273   -56084   -54008   -50912   -47048   -43314 
  -40780   -39779   -40047   -40964   -41682   -41800   -41527   -40941 
  -39770   -38294   -37479   -37759   -38831   -40326   -41853   -43017 
  -43407   -42615   -40771   -38375   -35723   -33155   -31117   -29715 
  -28774   -28073   -27420   -26895   -26639   -26485   -26437   -26792 
  -27669   -29096   -30979   -32905   -34518   -35796   -36729   -37248 
  -37635   -38201   -38893   -39875   -41556   -43745   -45558   -46431 
  -46783   -47212   -47836   -48942   -51134   -54361   -57843   -60952 
  -63053   -63505   -62553   -60705   -58089   -55547   -54358   -54601 
  -55373   -55971   -56032   -55392   -54398   -53719   -53356   -52707 
  -51895   -51621   -51873   -52040   -51606   -50303   -48519   -47325 
  -47345   -48337   -49967   -51914   -53634   -54903   -55804   -56058 
  -55228   -53452   -51552   -50359   -50138   -50819   -52196   -53763 
  -55091   -56004   -56193   -55628   -54846   -54141   -53398   -52672 
  -52085   -51629   -51265   -50814   -50168   -49624   -49252   -48808 
  -48749   -49502   -50240   -50097   -49260   -48229   -47238   -46453 
  -46081   -46265   -46981   -47916   -48805   -49719   -50456   -50429 
  -49640   -48995   -49456   -51078   -52931   -54250   -55173   -55861 
  -55846   -54695   -52672   -50570   -48814   -47207   -45890   -45620 
  -46996   -49816   -52829   -54693   -55325   -55418   -55269   -54760 
  -53828   -52793   -52217   -52315   -52985   -54217   -55735   -56690 
  -56647   -56261   -56190   -56285   -56224   -55998   -55705   -55331 
  -54859   -54550   -54705   -55189   -55994   -57594   -59990   -62731 
  -65628   -68183   -69512   -69161   -67303   -64850   -63015   -61979 
  -60924   -59596   -58753   -58945   -59614   -59811   -59371   -58733 
  -58026   -56997   -55466   -53651   -51979   -50532   -49294   -48370 
  -47565   -46760   -46384   -46771   -47631   -48422   -48791   -48706 
  -48403   -48014   -47391   -46434   -45365   -44679   -44616   -44745 
  -44621   -44331   -43596   -41716   -38978   -36521   -34838   -33747 
  -33359   -34080   -36005   -38550   -40698   -41965   -42547   -42404 
  -41211   -38990   -36133   -33313   -31252   -30141   -29908   -30542 
  -31328   -31421   -31293   -31798   -32680   -33076   -32618   -31766 
  -31199   -30952   -30575   -30030   -29966   -30979   -32875   -35070 
  -37285   -39465   -41566   -43529   -45357   -47292   -49617   -52268 
  -54745   -56517   -57533   -57888   -57365   -55956   -54233   -52705 
  -51338   -50120   -49586   -50232   -51857   -53723   -55345   -56824 
  -57961   -57952   -56580   -54686   -53216   -52438   -52125   -52004 
  -51767   -51251   -50827   -50821   -50957   -50963   -51178   -51947 
  -52621   -52134   -50389   -48114   -45938   -44070   -42436   -41256 
  -41008   -41518   -42202   -42934   -43579   -43667   -43280   -43116 
  -43402   -43866   -44628   -45845   -47086   -47936   -48375   -48573 
  -48850   -49525   -50879   -53120   -55892   -58233   -59412   -59326 
  -57873   -55159   -52308   -50327   -48892   -47475   -46173   -45008 
  -43798   -42588   -41473   -40270   -38899   -37647   -36467   -34809 
  -32654   -30815   -29903   -29667   -29726   -30410   -32163   -34446 
  -36348   -37982   -39870   -41489   -41953   -41581   -41398   -41805 
  -42809   -44285   -45816   -47315   -49024   -50929   -52791   -54443 
  -56330   -59257   -63032   -66431   -68648   -69753   -70050   -69642 
  -68286   -65877   -63141   -61035   -59773   -59053   -58718   -58861 
  -59428   -60017   -60401   -60866   -61535   -61903   -61480   -60444 
  -59275   -58126   -57091   -56488   -56464   -56918   -57707   -58419 
  -58392   -57440   -56205   -55336   -54768   -54120   -53259   -52446 
  -52015   -51935   -51957   -51807   -51377   -50942   -50824   -51088 
  -51666   -52485   -53301   -53669   -53510   -53096   -52444   -51582 
  -51004   -51244   -52170   -53239   -54511   -56331   -58363   -60108 
  -61533   -62718   -63432   -63155   -61857   -60284   -58862   -57345 
  -55810   -54777   -54231   -53732   -53349   -53274   -53018   -52012 
  -50297   -48110   -45456   -42248   -38716   -35478   -32792   -30225 
  -27559   -25225   -23662   -22829   -22323   -21956   -22099   -23143 
  -24804   -26311   -27233   -27968   -29107   -30450   -31443   -32464 
  -34379   -36976   -39265   -40924   -42322   -43528   -44151   -44269 
  -44537   -45090   -45566   -46247   -47723   -49732   -51504   -52676 
  -53112   -52573   -51222   -49743   -48483   -47475   -47100   -47687 
  -49021   -50626   -52064   -53104   -53691   -53821   -53751   -53784 
  -53551   -52518   -51040   -49741   -48645   -47634   -46825   -46358 
  -46317   -46840   -47980   -49341   -50449   -51379   -52097   -51948 
  -50799   -49436   -48416   -47766   -47532   -47838   -48561   -49030 
  -48525   -47221   -45863   -44654   -43353   -42314   -42184   -42625 
  -42583   -41732   -40496   -38927   -36954   -35298   -34866   -35799 
  -37769   -40360   -42662   -43541   -42868   -41447   -39985   -38925 
  -38396   -38274   -38618   -39286   -39602   -39367   -39203   -39318 
  -39323   -39587   -40832   -42537   -43485   -43416   -43048   -42828 
  -42567   -42235   -42170   -42512   -42973   -43267   -43475   -43663 
  -43433   -42370   -40928   -40117   -40252   -40997   -42175   -43662 
  -45254   -46923   -48578   -49796   -50247   -49981   -49142   -48001 
  -47160   -47048   -47556   -48588   -50170   -51865   -53153   -54060 
  -54658   -54818   -54569   -54123   -53734   -53399   -52772   -51645 
  -50108   -48399   -47028   -46527   -46740   -47010   -47129   -47430 
  -48112   -48966   -49667   -49852   -49093   -47366   -45297   -43472 
  -41885   -40524   -39870   -40022   -40373   -40603   -40724   -40644 
  -40382   -39935   -39350   -39073   -39349   -39801   -40063   -40166 
  -40190   -40097   -39744   -38956   -37818   -36658   -35887   -35978 
  -36842   -37516   -37497   -37463   -37947   -38803   -39947   -41338 
  -42655   -43440   -43477   -43015   -42508   -42323   -42706   -43639 
  -44707   -45490   -45925   -45906   -45162   -43809   -42313   -40908 
  -39449   -37721   -35715   -33494   -31188   -29295   -28248   -27900 
  -28134   -29240   -31327   -33953   -36529   -38969   -41535   -43987 
  -45657   -46394   -46458   -46066   -45726   -45847   -46245   -46837 
  -47793   -48911   -49751   -50238   -50584   -50919   -51453   -52346 
  -53194   -53597   -53784   -53902   -53669   -52997   -52131   -51469 
  -51379   -51786   -52374   -52980   -53475   -53956   -54856   -56279 
  -57674   -58502   -58916   -59384   -60041   -60800   -61567   -62260 
  -62873   -63224   -62891   -61758   -60167   -58464   -56848   -55622 
  -55017   -54784   -54484   -54086   -53728   -53285   -52609   -51703 
  -50470   -48818   -46914   -45055   -43558   -42705   -42595   -43084 
  -43793   -44370   -44566   -44094   -42928   -41365   -39677   -38048 
  -36575   -35401   -34761   -34729   -35256   -36097   -36646   -36612 
  -36433   -36454   -36474   -36419   -36577   -37104   -37797   -38250 
  -38336   -38425   -38762   -39082   -39124   -39083   -39263   -39519 
  -39550   -39376   -38993   -38220   -37191   -36469   -36651   -37704 
  -38830   -39544   -40174   -41043   -42100   -43114   -43851   -44439 
  -45218   -46033   -46246   -45487   -44062   -42584   -41446   -40858 
  -41043   -42003   -43478   -45126   -46721   -48380   -50248   -52203 
  -53931   -54942   -55019   -54564   -54149   -53963   -53735   -53391 
  -53352   -53690   -54014   -54383   -55156   -56126   -56645   -56276 
  -55087   -53752   -53062   -53026   -53084   -53101   -53454   -54323 
  -55489   -56731   -58041   -59581   -61445   -63306   -64708   -65539 
  -65671   -65053   -64225   -63400   -62126   -60641   -59695   -59239 
  -58818   -58373   -57975   -57638   -57533   -57687   -57471   -56105 
  -53818   -51514   -49441   -47442   -45838   -44882   -44149   -43125 
  -41903   -40943   -40328   -39728   -38901   -37959   -37349   -37391 
  -37924   -38531   -38929   -39289   -39855   -40487   -41048   -41481 
  -41706   -41930   -42432   -43358   -44798   -46423   -47683   -48340 
  -48187   -47073   -45449   -44059   -43216   -42823   -42793   -43157 
  -43815   -44340   -44388   -44103   -43554   -42423   -40866   -39594 
  -38775   -38141   -37785   -37877   -38297   -38799   -39156   -39388 
  -39710   -40144   -40547   -40894   -41253   -41785   -42642   -43726 
  -44822   -45767   -46401   -46649   -46555   -46139   -45542   -45110 
  -44981   -45041   -45413   -46333   -47657   -48920   -49835   -50471 
  -50897   -51019   -50765   -50329   -50233   -50814   -51860   -52960 
  -53839   -54431   -54765   -54810   -54533   -53929   -53293   -53307 
  -54218   -55359   -55876   -55602   -55070   -54732   -54399   -53777 
  -53188   -53073   -53257   -53356   -53309   -53223   -53095   -52730 
  -51933   -50696   -49085   -47307   -45897   -45243   -45256   -45856 
  -47110   -48742   -50047   -50440   -49983   -49221   -48523   -47872 
  -47307   -46896   -46396   -45747   -45330   -45142   -44673   -43873 
  -43115   -42541   -42121   -41739   -41356   -41192   -41290   -41412 
  -41429   -41367   -41283   -41133   -40738   -40159   -39846   -39964 
