Origin Time       2011/03/11 14:46:00
Lat.              38.103
Long.             142.860
Depth. (km)       24
Mag.              9.0
Station Code      YMN006
Station Lat.      35.4685
Station Long.     138.6069
Station Height(m) 926
Record Time       2011/03/11 14:47:44
Sampling Freq(Hz) 100Hz
Duration Time(s)  300
Dir.              N-S
Scale Factor      3920(gal)/6182761
Max. Acc. (gal)   34.086
Last Correction   2011/03/11 14:47:29
Memo.             
[...]
  -26706   -30358   -33597   -36052   -37179   -36761   -35135   -32651 
  -29711   -27133   -25554   -24997   -25097   -25131   -24336   -22696 
  -21179   -20882   -21951   -23611   -24968   -25439   -24905   -23779 
  -22688   -21936   -21475   -21251   -21254   -21508   -22062   -22942 
  -24246   -25785   -26858   -26944   -26361   -26021   -26552   -27799 
  -29197   -30224   -30537   -30321   -30346   -30928   -31185   -30011 
  -27411   -24373   -21775   -19904   -18700   -17949   -17328   -16711 
  -16432   -16968   -18329   -19913   -21136   -22006   -22864   -23850 
  -24807   -25548   -26044   -26049   -25014   -23068   -21305   -20460 
  -20225   -20086   -19897   -19566   -19176   -19262   -20012   -20669 
  -20256   -18661   -16975   -16534   -17494   -18770   -19104   -17739 
  -14636   -10663    -7274    -5607    -5831    -7093    -7979    -7415 
   -5307    -2433       32     1049      271    -1646    -3389    -4034 
   -3753    -3568    -4480    -6655    -9659   -13020   -15921   -17449 
  -17434   -16242   -14529   -13507   -14290   -16850   -19959   -21983 
  -22074   -20701   -19046   -18392   -19792   -23335   -27771   -31412 
  -33184   -32894   -31686   -32032   -35706   -41725   -47004   -48838 
  -46531   -41594   -37202   -36276   -38903   -42196   -43067   -40692 
  -36729   -34075   -34969   -39351   -44782   -47899   -46748   -42318 
  -37255   -33939   -33747   -35822   -37276   -36109   -32628   -28736 
  -26905   -28473   -32597   -37133   -40115   -40620   -39045   -36950 
  -36284   -38097   -41638   -44823   -45528   -42586   -36697   -30558 
  -27030   -27041   -29308   -31252   -30772   -28206   -25792   -25276 
  -27012   -30103   -32542   -32733   -31182   -29837   -30240   -32620 
  -35666   -37259   -36592   -34854   -33351   -32589   -32794   -33554 
  -33782   -32866   -31236   -29634   -28090   -26264   -24598   -23989 
  -24809   -26921   -29623   -31452   -31322   -29899   -29078   -30150 
  -32568   -34389   -33841   -30679   -26522   -23759   -23583   -25310 
  -27352   -28063   -26615   -24152   -22989   -24299   -27235   -29722 
  -30001   -28180   -26294   -26558   -29322   -32520   -33462   -31098 
  -26339   -20955   -16525   -13842   -12781   -12689   -12819   -12422 
  -11156    -9422    -7727    -6274    -5220    -4447    -3644    -2857 
   -2098    -1012      442     1835     2652     2320      564    -2020 
   -4274    -5343    -5069    -3841    -2421    -1690    -2137    -3481 
   -4749    -4817    -3266     -911      776     1028      462       50 
     -47     -280    -1186    -2968    -5120    -6862    -7913    -8503 
   -9065    -9949   -10942   -11483   -11639   -12003   -12756   -13665 
  -14716   -16062   -17306   -17320   -15498   -12978   -11742   -12746 
  -15363   -18220   -20447   -22218   -24092   -26341   -28984   -31630 
  -33437   -33916   -33452   -32767   -32380   -32745   -34352   -37134 
  -40119   -42722   -45754   -50068   -55243   -59927   -62626   -62382 
  -59309   -54648   -50094   -46586   -43968   -41924   -40419   -39423 
  -39253   -40634   -43617   -46962   -49047   -49381   -48868   -48789 
  -50084   -52642   -54982   -55747   -54984   -53734   -53238   -53946 
  -54954   -54686   -52006   -46838   -40002   -33029   -27895   -25817 
  -26518   -28659   -30473   -30844   -30104   -29541   -30316   -32485 
  -34811   -35720   -34153   -29898   -24092   -18890   -16119   -16515 
  -19340   -22331   -23074   -20874   -17233   -14587   -14313   -15735 
  -16930   -16177   -12949    -8350    -4133    -1349     -490    -1796 
   -4646    -7341    -8293    -7353    -5529    -3901    -3122    -3286 
   -3640    -2841     -214     3427     6223     6415     3442    -1691 
   -6795    -9779    -9986    -8126    -5677    -4231    -4424    -5947 
   -8428   -11397   -14368   -17322   -20394   -23382   -25742   -27133 
  -27855   -28246   -28334   -28415   -28850   -29487   -30150   -31018 
  -32170   -33323   -33981   -33765   -32773   -31501   -30363   -29520 
  -29063   -28883   -28638   -28195   -27528   -26317   -24439   -22329 
  -20233   -17972   -15986   -15549   -17464   -21269   -25927   -30507 
  -34080   -36091   -36963   -37363   -37342   -36677   -35184   -32702 
  -29409   -26020   -23452   -22220   -22198   -23071   -24525   -26108 
  -27603   -29066   -30303   -30987   -30943   -30133   -28833   -27684 
  -27206   -27441   -28118   -28893   -29636   -30666   -32500   -35213 
  -38076   -40030   -40351   -38764   -35778   -32922   -31632   -32129 
  -33534   -34472   -33738   -30899   -26572   -22056   -18482   -16184 
  -14596   -12832   -10644    -8643    -7671    -8175   -10098   -12726 
  -14429   -13624   -10401    -6423    -3387    -2226    -3258    -6170 
   -9654   -11969   -12672   -12996   -14335   -17292   -21634   -26295 
  -29885   -31663   -31952   -31662   -31494   -31666   -32160   -32528 
  -31776   -29225   -25224   -20757   -16744   -13913   -12624   -12466 
  -12828   -13499   -14270   -14988   -16145   -18164   -20218   -20803 
  -19339   -16598   -13674   -11571   -11694   -14721   -19176   -22826 
  -24905   -26033   -26915   -28031   -29738   -31802   -33378   -33585 
  -32079   -29478   -26976   -25402   -24894   -25193   -25703   -25528 
  -24256   -22571   -21519   -21401   -21578   -21217   -19812   -16895 
  -12407    -7619    -4486    -4153    -6420   -10176   -14444   -18850 
  -22912   -26094   -28589   -30822   -32563   -33350   -33049   -31706 
  -29634   -27504   -25838   -24733   -23944   -23016   -21887   -21391 
  -22397   -24614   -27011   -28932   -29991   -29781   -28408   -26594 
  -25179   -24807   -25505   -26739   -28285   -30297   -32636   -34998 
  -37286   -39295   -40187   -38669   -34268   -28303   -22817   -19063 
  -17551   -18259   -20282   -22204   -23138   -23271   -23459   -24419 
  -26327   -28774   -30969   -32035   -31297   -28661   -24640   -20101 
  -16119   -13416   -11860   -10952   -10418   -10155   -10019    -9914 
   -9961   -10362   -11139   -11838   -11495    -9413    -5830    -1530 
    2645     5799     7408     8117     9331    11718    14605    16621 
   16605    14281    10460     6568     3840     2655     2367     1830 
     418    -1343    -2258    -1727     -327      834     1012       75 
   -1598    -3189    -4091    -4803    -6339    -8967   -12122   -14813 
  -15896   -14788   -12247   -10040    -9432   -10137   -10987   -11236 
  -11101   -11468   -13078   -16026   -20024   -24566   -28787   -31797 
  -33402   -34358   -35871   -38543   -41717   -44034   -44390   -42458 
  -38980   -35603   -33973   -34797   -37598   -41195   -44106   -44889 
  -42915   -38977   -35233   -34014   -35684   -38547   -41018   -42257 
  -41697   -39781   -37980   -37165   -36951   -36673   -36079   -35334 
  -35074   -36203   -39177   -43281   -46898   -48917   -49426   -49013 
  -48179   -47225   -46225   -45193   -44058   -42681   -40963   -38594 
  -35359   -31543   -27398   -23070   -18823   -14664   -10758    -8087 
   -7667    -9489   -12631   -15816   -17905   -18541   -18412   -18961 
  -21503   -25627   -28849   -28933   -26239   -23334   -22570   -24338 
  -27261   -29256   -28765   -25886   -22366   -20284   -20471   -21791 
  -22245   -20702   -17434   -13963   -12348   -13616   -16931   -20316 
  -21986   -21519   -20038   -19241   -20226   -22986   -26845   -31219 
  -35990   -41366   -47208   -52578   -56371   -58201   -58666   -58946 
  -59786   -61067   -62337   -63197   -63636   -64324   -65970   -68444 
  -70869   -72190   -71479   -68450   -64034   -59855   -57078   -55710 
  -54467   -51882   -47941   -43877   -40904   -39600   -39489   -39229 
  -37738   -35024   -32265   -31098   -32330   -35429   -38952   -40993 
  -40254   -37323   -33964   -31250   -29093   -26695   -23013   -17559 
  -10977    -4642      340     3871     6595     9278    12634    16841 
   21020    23965    25288    25441    25015    24440    24020    23735 
   23131    21772    19587    16678    13082     8812     4129     -223 
   -3445    -5491    -6927    -7812    -7563    -6199    -4673    -3907 
   -4545    -6968   -10688   -14587   -18004   -20937   -23526   -25963 
  -28638   -31806   -35051   -37550   -38863   -39132   -38874   -38692 
  -38863   -39163   -39298   -39596   -40737   -42753   -45084   -47429 
  -49708   -51245   -50945   -48299   -43523   -37315   -31127   -26854 
  -25420   -25848   -26192   -25200   -22795   -19676   -16916   -15373 
  -14874   -14121   -11874    -8047    -3614      133     2267     2616 
    1788      552     -858    -2769    -5690    -9930   -15487   -21836 
  -27413   -30144   -28996   -24598   -18574   -12802    -8878    -7785 
   -9746   -14170   -20086   -26725   -33448   -39357   -43548   -45564 
  -45385   -43419   -40324   -36557   -32514   -29059   -27498   -28940 
  -33522   -40271   -47660   -54076   -58329   -60060   -59696   -58371 
  -57212   -56448   -55357   -52613   -47397   -40498   -33717   -28568 
  -25806   -25684   -27943   -31655   -35568   -38524   -40110   -40702 
  -40402   -39139   -37158   -34379   -30660   -26551   -22990   -20748 
  -20094   -20704   -21852   -22762   -23117   -23180   -23249   -23251 
  -23154   -23038   -22537   -21441   -20266   -19305   -18134   -16349 
  -14198   -12403   -11750   -12768   -15080   -17246   -17637   -15433 
  -10987    -5693    -1580     -161    -1262    -3448    -5580    -7639 
  -10273   -14055   -18701   -22816   -24800   -23969   -21196   -18374 
  -16799   -16377   -16128   -15050   -12879   -10452    -9301   -10556 
  -14071   -18641   -22746   -25003   -24803   -22775   -20136   -17661 
  -15223   -12306    -8783    -5038    -1896     -219     -264    -1678 
   -3809    -6056    -8219   -10466   -13107   -16202   -19468   -22791 
  -26540   -31064   -36110   -40780   -43750   -43960   -41565   -37763 
  -33647   -29839   -26764   -24499   -22853   -21467   -19725   -17400 
  -14865   -12327    -9869    -7945    -7210    -8264   -11453   -16253 
  -21134   -24427   -25125   -23041   -19045   -14984   -12388   -11336 
  -11091   -11133   -11208   -11390   -12290   -14420   -17323   -19827 
  -21272   -21806   -21653   -21057   -20506   -20323   -20388   -20458 
  -20444   -20267   -19755   -19023   -18724   -19345   -20386   -20841 
  -20054   -17750   -14303   -11195   -10211   -12173   -16564   -21762 
  -25878   -28043   -28690   -28688   -28921   -30248   -32900   -36176 
  -39017   -40546   -40490   -39574   -39124   -40044   -42124   -44108 
  -44664   -43616   -41932   -40680   -40336   -40468   -39625   -36208 
  -30227   -23731   -18841   -16305   -16087   -17631   -19380   -19483 
  -17146   -12878    -7557    -1887     3190     6826     8949     9775 
    9387     8021     6170     4326     2762     1648      995      389 
    -880    -3367    -7126   -11760   -16696   -21224   -24504   -25968 
  -25917   -25487   -25589   -26053   -26232   -25903   -25380   -25337 
  -26307   -28182   -30445   -32383   -33406   -33688   -33948   -34346 
  -34196   -32999   -31038   -28862   -27281   -27356   -29479   -32953 
  -36495   -38940   -39938   -39791   -38662   -36770   -34849   -33679 
  -33715   -35215   -38245   -42481   -46884   -49780   -49677   -45868 
  -38612   -29273   -19660   -10995    -4013      857     4046     6448 
    8412     9836    10761    11185    10847     9785     8800     8987 
   10721    13034    14266    13423    10780     7627     5676     5904 
    7547     8596     7251     3088    -2482    -6963    -8507    -6921 
   -3586     -747       70    -1054    -3300    -5795    -7874    -9725 
  -12172   -15578   -19340   -22171   -22902   -21145   -16967   -10677 
   -3479     2959     7661     9969     9240     5538     -444    -7701 
  -14880   -20928   -25707   -29736   -33675   -37747   -41502   -44521 
  -46824   -48647   -50502   -52837   -55322   -56929   -56578   -53764 
  -49071   -44054   -40341   -38922   -39907   -42331   -44653   -45906 
  -46187   -46076   -45918   -45674   -45072   -43852   -42083   -40009 
  -37683   -35087   -32218   -28729   -23934   -17514   -10162    -3361 
    1416     3294     2256    -1050    -5867   -11513   -17136   -21819 
  -25042   -26768   -27396   -27921   -29425   -32110   -35253   -37929 
  -39376   -38961   -36434   -32496   -28495   -25151   -21961   -18186 
  -13934   -10101    -8025    -9108   -13535   -19493   -24505   -27306 
  -27989   -27080   -25311   -23378   -21129   -17744   -12872    -7151 
   -1783     2055     3588     2897     1061     -596    -1364    -1388 
   -1351    -1840    -2845    -3956    -4931    -5748    -6440    -7292 
   -8655   -10461   -12466   -14470   -15898   -15967   -14622   -12572 
  -10495    -8785    -7753    -7570    -8073    -8954   -10138   -11784 
  -14207   -17741   -22130   -26188   -28600   -28904   -27602   -25752 
  -24265   -23213   -21888   -19558   -16353   -13448   -12215   -13272 
  -16219   -19909   -23104   -25178   -26242   -26624   -26563   -26373 
  -26119   -25200   -22851   -18841   -13746    -8802    -5231    -3594 
   -3677    -4904    -6793    -9087   -11804   -15063   -18766   -22420 
  -25068   -25835   -24417   -20975   -16269   -11654    -8347    -6827 
   -6677    -7078    -7876    -9420   -11610   -14160   -16892   -19545 
  -22095   -24635   -27014   -29154   -31088   -32688   -33784   -34411 
  -34887   -35559   -36398   -36977   -36822   -35927   -34971   -34799 
  -35833   -37961   -40603   -43061   -45102   -47161   -49954   -53855 
  -58480   -62959   -66665   -69485   -71573   -73258   -74915   -76483 
  -77345   -76810   -74541   -70730   -66031   -61436   -58105   -56646 
  -56632   -57231   -57696   -57198   -54997   -50940   -45655   -39911 
  -33883   -27478   -20867   -14488    -9007    -4924    -2055      202 
    2332     4750     7759    11123    14145    16199    16817    15587 
   12610     8945     6132     5046     5431     6498     7317     6860 
    4665     1253    -2547    -6152    -9092   -11118   -12487   -13730 
  -15045   -15965   -15902   -14911   -13668   -12944   -13228   -14508 
  -16314   -18113   -19562   -20445   -20699   -20607   -20788   -21794 
  -23560   -25486   -26989   -27620   -26950   -24972   -22393   -20164 
  -18948   -18918   -19806   -21195   -22695   -23979   -25097   -26465 
  -28079   -29263   -29622   -29717   -30382   -31792   -33571   -35218 
  -36213   -36240   -35439   -34387   -33991   -35027   -37405   -40124 
  -42011   -42614   -42532   -42571   -42873   -43121   -42784   -41143 
  -37870   -33709   -30155   -28327   -28284   -29257   -30195   -30171 
  -28829   -26771   -25110   -24271   -23779   -23313   -23112   -23429 
  -24267   -25234   -25468   -24277   -21827   -18947   -16588   -15551 
  -16072   -17481   -18628   -18497   -16737   -13998   -11440    -9904 
   -9551    -9933   -10482   -10951   -11343   -11691   -11847   -11377 
   -9976    -7969    -6110    -4898    -4336    -4245    -4520    -5081 
   -5858    -6964    -8634   -10703   -12568   -13980   -15269   -16841 
  -19067   -22169   -25743   -28765   -30365   -30470   -29641   -28750 
  -28619   -29465   -30810   -31636   -30789   -27857   -23561   -19383 
  -16902   -16890   -18732   -21004   -22752   -23973   -25067   -26297 
  -27682   -29069   -30232   -31243   -32769   -35458   -39095   -42908 
  -46169   -48253   -49024   -49138   -49518   -50771   -52810   -54784 
  -55808   -55895   -56009   -57122   -59295   -61708   -63105   -62208 
  -58393   -52372   -45982   -41083   -38570   -38273   -39495   -41367 
  -43002   -43928   -44331   -44608   -44745   -44209   -42506   -39638 
  -35919   -31833   -27990   -24598   -21273   -17669   -14020   -11031 
   -9407    -9379   -10370   -11133   -10707    -9049    -6335    -2549 
    1781     5670     8526    10082    10219     9281     7885     6475 
    5212     4076     3091     2392     2105     2030     1348     -905 
   -5097   -10880   -17445   -23899   -29740   -34979   -39693   -43611 
  -46316   -47527   -47170   -45632   -43667   -41897   -40635   -39938 
  -39741   -40026   -40821   -42230   -44413   -47328   -50481   -53098 
  -54549   -54439   -52727   -50041   -47307   -45033   -43234   -41648 
  -39903   -37973   -36474   -36168   -37101   -38370   -38707   -37284 
  -34188   -30419   -27344   -25757   -25158   -24194   -21924   -18419 
  -14590   -11697   -10437   -10314   -10018    -8502    -5943    -3609 
   -2622    -3159    -4528    -5492    -5025    -3299    -1620    -1317 
   -2837    -5365    -7030    -6192    -2868     1248     4254     5558 
    5693     5093     4017     2851     1489     -662    -3877    -7871 
  -11934   -15168   -16953   -17307   -16935   -16804   -17516   -19190 
  -21570   -23976   -25669   -26458   -26767   -27229   -28279   -29777 
  -31001   -31218   -30272   -28634   -26800   -24735   -22190   -19119 
  -15624   -12122    -9374    -7969    -8138    -9977   -13252   -16911 
  -19467   -20152   -19180   -17067   -14384   -11894   -10347   -10163 
  -11351   -13529   -16049   -18333   -20104   -21348   -22281   -23290 
  -24609   -25986   -26929   -27274   -27209   -27042   -27211   -27890 
  -28517   -28226   -26561   -23679   -20201   -16862   -14156   -12254 
  -11084   -10462   -10214   -10254   -10571   -11098   -11609   -11682 
  -10774    -8643    -5506    -1619     2724     6796     9728    11077 
   10864     9339     6963     4458     2376      578    -1383    -3481 
   -5207    -6083    -5823    -4354    -2050      287     1820     2116 
    1411      333     -520     -619      271     1565     2063      951 
   -1601    -4793    -7832   -10376   -12637   -15168   -18481   -22559 
  -26573   -29490   -31043   -31703   -32083   -32726   -33724   -34478 
  -34537   -34195   -33972   -34270   -35287   -36766   -38203   -39151 
  -39354   -39065   -38846   -38875   -38914   -38707   -38079   -36990 
  -35673   -34585   -34124   -34391   -35138   -35883   -36217   -36185 
  -36245   -36872   -38282   -40323   -42563   -44550   -45973   -46596 
  -46288   -45212   -43755   -42289   -41167   -40696   -40869   -41302 
  -41575   -41574   -41431   -41148   -40598   -39881   -39160   -38229 
  -36804   -34966   -33044   -31504   -30887   -31406   -32642   -33706 
  -33849   -32978   -31568   -30244   -29325   -28679   -28061   -27247 
  -25928   -24019   -21910   -19903   -17816   -15583   -13347   -10869 
   -7877    -4550    -1221     1831     4375     6309     7750     8997 
   10409    12152    13919    15010    14628    12254     8209     3474 
   -1103    -5075    -8435   -11505   -14402   -16934   -19046   -20944 
  -22858   -24806   -26642   -28335   -30005   -31788   -33832   -36302 
  -39232   -42278   -44652   -45508   -44516   -41987   -38599   -35082 
  -32023   -29578   -27333   -24883   -22333   -19984   -17983   -16389 
  -15244   -14492   -14079   -14266   -15441   -17732   -21051   -24903 
  -28432   -31030   -32353   -32206   -30882   -29013   -27093   -25458 
  -24626   -25152   -27079   -29905   -32947   -35550   -37112   -37142 
  -35503   -32483   -28527   -24113   -19801   -16069   -13280   -11799 
  -11903   -13647   -16825   -20908   -25132   -28938   -32173   -34714 
  -36230   -36340   -35021   -32845   -30615   -28935   -28080   -27931 
  -28151   -28556   -29246   -30374   -31866   -33348   -34348   -34592 
  -34009   -32585   -30527   -28365   -26505   -24902   -23196   -20972 
  -18226   -15599   -13675   -12451   -11594   -10684    -9582    -8602 
