Origin Time       2011/03/11 14:46:00
Lat.              38.103
Long.             142.860
Depth. (km)       24
Mag.              9.0
Station Code      YMN003
Station Lat.      35.4651
Station Long.     138.8129
Station Height(m) 846
Record Time       2011/03/11 14:47:44
Sampling Freq(Hz) 100Hz
Duration Time(s)  300
Dir.              E-W
Scale Factor      3920(gal)/6182761
Max. Acc. (gal)   46.884
Last Correction   2011/03/11 14:47:29
Memo.             
[...]
   -9839    -8439    -7161    -7600   -10840   -14228   -15336   -13556 
   -9243    -4196      973     4313      702    -8441   -16032   -21128 
  -26196   -29942   -30545   -29702   -29666   -29962   -30619   -31414 
  -29622   -25194   -20810   -18156   -16293   -13567   -13048   -16282 
  -18451   -16777   -12366    -8257    -6558    -5441    -5282    -8248 
  -12508   -16186   -19039   -20335   -21346   -24799   -29699   -32729 
  -33867   -33796   -31117   -28037   -29849   -36348   -42345   -45870 
  -48228   -49361   -50066   -51232   -50889   -49755   -50547   -51342 
  -49228   -44950   -40175   -35661   -32883   -33501   -35880   -35509 
  -30501   -24779   -23737   -27996   -33764   -37825   -40603   -43368 
  -45161   -44815   -42274   -40092   -42347   -47659   -51143   -52030 
  -51763   -50734   -49228   -47679   -46827   -47786   -50464   -52690 
  -52445   -49081   -42430   -33613   -25343   -19358   -15386   -13237 
  -12317   -10900    -8185    -4391     -261     3389     6182     7346 
    6983     6307     5337     4500     5217     5757     3823     2525 
    4666     6870     6562     5457     4279     2562      671    -1124 
   -2892    -5298    -8132   -10168   -11606   -12914   -14304   -17125 
  -23086   -31822   -39553   -44272   -49005   -54010   -54537   -49495 
  -42839   -37624   -35986   -39579   -44460   -45162   -43171   -42042 
  -42195   -43589   -46130   -48403   -49258   -48378   -44994   -39824 
  -34363   -28691   -24190   -21946   -20957   -20788   -20938   -21924 
  -25268   -28954   -29970   -28762   -26717   -24794   -23952   -22348 
  -17816   -13271   -12535   -15785   -20292   -22810   -24539   -28353 
  -31872   -31428   -27569   -23387   -20894   -19953   -20224   -20959 
  -20867   -20775   -22870   -27619   -33364   -38503   -42876   -46367 
  -48000   -47819   -48016   -49571   -51055   -52181   -52369   -50897 
  -51252   -55397   -59252   -60235   -60682   -62420   -63108   -60662 
  -57524   -54786   -50415   -46372   -45517   -45565   -45015   -45844 
  -47419   -46309   -42435   -39458   -37431   -33003   -27583   -25109 
  -24752   -23351   -21982   -23404   -25505   -25173   -23222   -20708 
  -16356    -9890    -4094     -530     2388     6186    11634    17375 
   19788    17700    13777    12206    13845    15483    17135    20081 
   21495    19296    14912    11398    10182     9613     7310     1592 
   -5504   -10809   -15039   -16821   -13557    -8106    -4105    -2976 
   -4055    -4669    -5302    -8796   -15105   -21188   -22475   -17790 
  -13044   -12476   -12735   -12641   -15625   -20809   -24781   -27633 
  -30492   -31415   -28660   -26191   -27170   -27813   -26739   -28353 
  -33374   -38567   -43041   -47236   -50632   -52027   -50502   -46774 
  -42467   -39926   -40525   -42015   -43358   -45589   -47287   -48157 
  -49015   -48244   -45622   -44075   -44866   -44446   -41888   -42598 
  -47660   -53261   -58898   -64337   -66937   -66042   -62462   -57109 
  -53179   -52221   -52917   -55919   -61031   -64979   -65352   -62872 
  -60331   -58161   -54708   -50828   -47436   -43414   -39581   -37075 
  -34381   -31703   -31654   -34483   -37398   -37350   -33540   -27493 
  -20832   -13749    -6588    -2694    -4321    -7522    -8019    -5106 
    1050     9069    17514    24807    28074    27525    26057    25293 
   26596    30322    34039    34835    33115    31997    32305    32637 
   31933    29582    27243    26306    24557    20248    13805     6098 
   -1218    -6765   -10942   -14588   -16762   -15660   -12235    -9175 
   -6858    -4629    -2477      280     2426     -494    -9375   -19002 
  -25413   -30180   -36015   -42742   -49934   -58366   -67503   -76177 
  -82830   -84840   -82161   -77561   -72930   -69411   -67887   -68826 
  -72432   -76815   -78143   -75451   -72215   -69910   -66975   -64337 
  -62599   -59682   -55870   -52862   -49604   -45301   -41021   -36343 
  -31689   -29854   -31565   -36461   -43480   -48390   -49114   -46823 
  -41777   -36717   -34980   -34598   -33642   -33450   -32793   -29347 
  -25052   -22227   -20466   -17989   -14544   -14091   -17585   -20229 
  -20489   -20364   -19768   -17214   -12513    -7292    -3864    -3226 
   -5146    -9463   -14679   -19362   -24799   -31191   -36997   -42337 
  -47461   -53006   -60856   -69691   -74705   -72784   -64566   -54016 
  -45054   -37402   -31122   -28961   -29544   -28262   -24692   -22527 
  -22876   -22782   -20958   -18213   -14775   -11777   -10346   -10567 
  -12816   -16366   -18840   -17876   -13200    -7453    -3069     -860 
   -1201    -3739    -7932   -12176   -13803   -14194   -15382   -13298 
   -6956    -2698    -2758    -3319    -2147      382     4386     8482 
    9867     9738    10347    10885    11387    12359    12499    10340 
    4171    -5471   -13977   -18901   -21816   -23672   -24432   -25375 
  -27842   -29363   -27802   -27703   -31422   -33341   -30736   -27813 
  -28347   -31246   -33993   -37639   -42347   -45172   -45978   -44961 
  -40691   -35263   -32459   -33931   -38728   -44900   -52045   -58846 
  -63882   -69561   -76396   -80135   -79875   -78708   -77859   -78009 
  -79121   -78092   -74454   -72760   -74472   -75957   -76587   -79926 
  -85707   -88485   -86203   -82284   -78538   -74691   -70387   -64464 
  -58062   -52174   -45228   -38180   -31851   -24407   -15781    -7063 
     673     5283     5602     4113     3682     2896      180    -2431 
   -3939    -6242    -9583   -11447   -11180   -10675   -10483    -9726 
   -7664    -4170     -293     2733     3673     2521     1343      442 
     135     3200     9430    15790    21082    25428    28052    26883 
   20709    11427     3539      -71    -1733    -4186    -6974   -10028 
  -12664   -14137   -17160   -21687   -23776   -23522   -23004   -22408 
  -21290   -18165   -12789    -6925    -2354     -361      159      260 
     315     2767     5445     3646      560     -367    -1860    -5306 
   -8798    -9750    -7126    -3853    -4283    -8502   -11167    -8678 
   -5071    -5074    -6981    -8675   -11280   -15733   -23228   -32921 
  -39707   -41804   -43365   -45460   -44779   -41619   -39613   -39803 
  -40169   -39727   -40614   -43723   -46359   -47514   -48946   -51589 
  -54861   -56435   -54742   -51157   -46109   -38803   -30955   -25024 
  -22834   -25608   -30751   -34901   -39115   -44182   -47404   -47419 
  -45947   -45362   -47179   -49755   -48662   -42011   -31737   -20195 
   -9712    -3212    -2872    -8431   -16258   -21509   -22185   -18940 
  -12862    -8251   -10789   -18251   -24021   -26498   -26835   -26462 
  -25699   -21827   -14718    -8411    -4369     -622     3603     6618 
    7405     8385    12464    18677    24034    25432    20579    12785 
    6738     1648    -3634    -7600    -8640    -8779   -12390   -17791 
  -20265   -20797   -23914   -31162   -39309   -45499   -50470   -55821 
  -61678   -64820   -60148   -48402   -39856   -42453   -50604   -56708 
  -60981   -62758   -60060   -54728   -48843   -44172   -40462   -34191 
  -25405   -16150    -5739     4703    12506    17462    17878    10008 
   -3248   -14609   -23037   -30860   -37483   -42311   -48193   -56466 
  -62226   -61225   -54185   -44505   -36609   -30054   -20485   -10496 
   -7596   -11694   -16817   -20831   -23581   -23812   -22639   -19938 
  -12617    -2959     5068    12805    19930    23169    22114    19541 
   18498    17774    12504     1201   -12878   -26721   -39041   -48306 
  -53112   -54543   -55139   -54829   -52666   -50447   -49714   -49982 
  -52011   -56729   -61290   -63528   -65527   -69602   -76617   -84488 
  -89794   -92028   -89813   -80570   -66915   -54638   -46841   -43794 
  -44455   -47478   -52103   -57144   -61680   -66819   -72581   -76877 
  -78872   -78183   -73058   -63518   -53641   -45890   -36826   -24589 
  -14138   -10807   -15143   -22415   -25557   -23845   -22917   -24585 
  -27071   -29911   -31126   -29547   -27478   -25436   -22917   -20205 
  -16155   -10738    -5844    -1684     2074     3643     2075    -1422 
   -5133    -7632   -10001   -13518   -16757   -18999   -20257   -19121 
  -15533   -11774    -9111    -7906    -8807   -10526   -11998   -14583 
  -17845   -20723   -25367   -33096   -42033   -50123   -56609   -60822 
  -61633   -59677   -56870   -52973   -46918   -41226   -39115   -38614 
  -37999   -38797   -38851   -36753   -38154   -46387   -55802   -59171 
  -56261   -51037   -43671   -32897   -21781   -13597    -7860    -4794 
   -5898    -9730   -14318   -18684   -20690   -18751   -12570    -4198 
     703     -685    -4483    -6319    -4503      236     3560     1973 
   -3516   -10113   -15486   -18651   -19897   -20688   -22177   -23408 
  -23828   -25374   -28510   -28949   -23894   -16445   -10011    -5566 
   -4432    -7875   -14703   -23163   -31213   -34056   -30044   -23000 
  -15430    -9969    -8960   -10254   -13250   -18161   -19642   -14720 
   -9272    -8577   -11102   -13388   -13158   -11342   -13056   -21474 
  -31981   -37577   -38551   -38816   -38154   -35920   -33999   -33106 
  -31537   -28630   -25532   -21987   -17978   -14183    -9434    -4797 
   -2884    -2752    -3246    -5391   -10115   -15806   -18338   -18344 
  -22987   -35097   -48216   -55118   -54408   -46913   -33873   -19622 
  -10044   -10026   -20247   -33726   -42292   -46336   -50420   -54368 
  -57545   -62133   -66646   -68177   -69242   -73906   -81063   -84947 
  -83456   -80577   -77745   -72366   -64438   -56023   -45881   -32211 
  -19727   -16477   -23768   -34150   -39179   -37192   -33059   -29972 
  -27684   -27334   -29082   -31948   -35803   -37919   -35731   -31739 
  -30072   -31973   -35612   -38838   -41280   -41867   -39391   -36515 
  -36351   -39509   -45075   -49366   -49915   -49174   -49146   -49036 
  -49804   -54076   -60433   -64875   -67363   -67849   -62580   -52082 
  -41576   -33582   -27831   -23992   -22759   -23993   -26329   -30334 
  -35145   -36732   -34304   -29888   -23645   -16776   -13107   -13903 
  -18443   -27135   -36391   -40461   -40737   -40131   -37442   -34800 
  -34761   -35430   -36715   -40234   -45237   -48779   -48904   -46958 
  -43600   -38518   -34074   -31358   -27954   -23609   -21693   -23815 
  -28219   -33334   -38215   -41979   -44874   -45872   -42065   -33794 
  -25249   -19078   -14686   -11028    -8364    -8070   -11489   -16340 
  -16834   -12226    -7955    -7028    -8874   -12491   -16293   -18527 
  -19219   -20261   -21450   -19982   -15516    -9407    -2953      922 
    2650     5604     7798     6086     2436     -160     -836      875 
    6582    14208    17580    16510    14542    10592     3618    -4314 
  -10761   -14953   -18745   -23257   -28021   -34063   -43423   -55401 
  -64805   -67721   -67578   -70253   -74715   -74610   -69932   -67676 
  -69963   -72211   -70446   -64913   -60024   -58771   -58572   -57075 
  -56068   -56297   -54556   -48299   -38786   -28777   -19338   -10288 
   -2893     2373     8183    16254    24792    31301    35540    38129 
   39266    39104    34858    24290    12235     3880    -2487    -8908 
  -12596   -12829   -12527   -12819   -14324   -17139   -19730   -21963 
  -24083   -25162   -25056   -24448   -23115   -20830   -19785   -21857 
  -24247   -23466   -20307   -17155   -14379   -12098   -12576   -15088 
  -14659   -11681   -11452   -14509   -17825   -21057   -24628   -26603 
  -26640   -27791   -32357   -39605   -47157   -53014   -56090   -57046 
  -57287   -56209   -53397   -50927   -50898   -52795   -54750   -57040 
  -60646   -64023   -65166   -64337   -63778   -64659   -65316   -65613 
  -67984   -71950   -74297   -74314   -73353   -70854   -66982   -64233 
  -62063   -58110   -53130   -49982   -50615   -53064   -52602   -48061 
  -42087   -34633   -23958   -12296    -3223     1941     2866      551 
   -1582      361     6881    14865    21706    26451    27543    23431 
   16365    11419     9990     9872    11187    15569    21360    24202 
   20903    12051     1831    -6170   -11960   -16793   -20011   -20447 
  -19801   -19241   -16971   -12994    -9142    -6729    -6436    -6973 
   -6483    -5117    -4748    -7502   -13270   -19822   -26724   -34190 
  -39736   -42311   -44766   -49120   -54743   -59498   -60825   -59333 
  -57590   -55004   -50665   -47047   -46600   -49199   -53885   -60853 
  -70272   -79992   -87585   -93152   -96736   -97414   -95891   -92147 
  -85687   -79411   -75201   -71354   -67279   -63543   -59351   -53240 
  -45346   -36995   -28806   -22904   -21131   -19802   -14627    -6104 
    3208    10563    14014    13940    13270    14745    17182    17835 
   15067     7846    -1916   -10042   -15769   -21583   -27261   -30440 
  -31535   -31807   -30510   -28113   -26300   -23603   -18889   -15314 
  -14429   -14536   -15389   -17563   -19090   -17431   -15143   -16034 
  -17831   -17349   -14474    -9530    -3264     3250     6920     4498 
   -2629   -12108   -21474   -27210   -28802   -26336   -20856   -16472 
  -13704   -10725    -8611    -7637    -5660    -2175      514      881 
    -977    -4072    -6734    -9326   -12609   -15283   -16510   -15926 
  -12775    -8290    -5220    -3601    -1865     -756     -163     2567 
    6324     6866     4012       30    -4594    -9992   -15392   -19155 
  -20033   -18168   -13944    -7904    -3058    -2169    -2893    -2557 
   -2322    -3474    -7415   -15053   -24420   -33783   -41174   -43279 
  -39540   -33608   -31646   -36243   -43692   -51564   -59725   -65861 
  -69486   -73117   -77134   -80465   -83638   -88802   -95813   -99503 
  -98086   -95924   -93358   -87852   -80770   -73454   -65639   -59379 
  -57407   -58438   -57772   -53277   -47678   -43826   -42067   -41471 
  -39587   -34539   -28564   -24455   -22165   -21682   -23228   -24644 
  -22814   -17860   -12689    -9923   -11049   -14836   -19373   -25078 
  -31009   -33524   -30634   -24115   -17411   -13037   -10160    -5381 
     655     4896     9134    15235    21407    25275    23674    16407 
    8826     5559     7058    11276    16037    19784    21001    19406 
   14594     5973    -2593    -6394    -7017    -7635    -7877    -8539 
  -11368   -14636   -17060   -19424   -20939   -20962   -21174   -22243 
  -22262   -21084   -20581   -19840   -16722   -12070    -8514    -6996 
   -6672    -8735   -14189   -17369   -12759    -4778      232     2424 
    3031     1704     -745    -2657    -3159    -3240    -4129    -5203 
   -5757    -6770    -9683   -15072   -24286   -38338   -52044   -58878 
  -61016   -62998   -64784   -67323   -71996   -77093   -80845   -82499 
  -82928   -84097   -85394   -84765   -82711   -82350   -85515   -90855 
  -95408   -96104   -92344   -87131   -84807   -86908   -90455   -93511 
  -95298   -92387   -84314   -74443   -65558   -59058   -53570   -47924 
  -43333   -39164   -33062   -26278   -22700   -22390   -23361   -26397 
  -31311   -35403   -37441   -36900   -33305   -28046   -22502   -16945 
  -11610    -6922    -3836    -3113    -4291    -5772    -5501    -2297 
    2552     6330     9105    13046    16436    16170    14697    15819 
   18828    20901    20538    19084    18383    17714    16053    14389 
   15123    19187    23411    24183    21702    18337    14858    10110 
    5582     4929     8018    11567    13280    12691    10067     5460 
    -843    -8536   -17446   -25801   -30325   -29369   -24325   -17317 
  -10857    -8423   -10341   -12889   -13011   -10745    -8213    -6479 
   -4783    -4081    -7600   -15615   -24025   -30272   -35387   -40668 
  -45068   -45547   -41882   -37550   -33723   -27888   -20544   -17654 
  -22204   -30182   -37518   -43099   -45886   -45742   -45113   -46366 
  -50533   -57832   -65769   -71573   -75587   -77355   -75560   -72017 
  -68743   -65586   -62438   -59413   -56712   -55165   -55010   -56084 
  -58380   -60215   -59674   -57345   -55377   -56939   -63734   -71837 
  -74451   -69348   -61115   -54941   -51879   -51117   -51467   -50999 
  -48209   -44169   -40685   -36481   -30900   -26247   -23003   -20124 
  -18403   -17854   -16220   -13165   -10829   -10999   -13402   -13820 
   -8436     -820     2832     2741     2946     4669     7016     8858 
    8664     6277     4168     4014     3447     -713    -9015   -20031 
  -30303   -35956   -37161   -37392   -38942   -43039   -49548   -54892 
  -56049   -53009   -46509   -39603   -36703   -38387   -42336   -46165 
  -46816   -42972   -37309   -32467   -29419   -29199   -31700   -35948 
  -41520   -48264   -55140   -59582   -60460   -59848   -59677   -59601 
  -58673   -55745   -49998   -43122   -36628   -29950   -23685   -18885 
  -14786   -10865    -6310     1969    13709    23274    27052    26568 
   26715    30748    35499    36814    35414    33386    30999    27925 
   25193    24899    26400    25605    19127     7878    -3282   -11459 
  -17354   -21494   -25047   -28409   -29907   -30700   -33202   -36402 
  -38767   -41250   -44585   -46752   -45768   -41667   -35224   -28848 
  -26094   -27847   -31025   -32326   -31710   -31023   -32319   -35556 
  -38032   -39964   -44130   -49819   -54593   -57440   -57386   -55448 
  -55002   -55571   -53894   -51488   -51062   -49883   -45303   -39016 
  -32657   -25940   -18753   -12763    -8811    -4711      451     5142 
    8071     8747     8653     9175     9457     9906    12156    15594 
   18329    19781    20213    19974    19646    17657    11706     4267 
    -621    -4493   -10666   -16798   -19318   -19451   -19050   -18402 
  -18359   -19393   -21321   -24144   -27805   -31883   -34598   -34352 
  -32332   -30248   -28989   -29722   -31274   -30373   -27554   -26959 
  -29684   -32829   -35629   -40722   -47952   -53671   -55567   -54310 
  -52364   -51432   -51969   -53696   -55565   -56755   -56338   -54022 
  -50645   -46926   -44578   -44369   -44092   -43074   -43094   -44378 
  -45249   -43317   -36606   -26925   -18957   -14411   -12201   -11078 
   -8866    -5562    -4103    -4451    -4699    -4874    -4129    -1439 
    1671     3916     5906     8008     9260     8936     7373     5297 
    3762     2643      -25    -5200   -11796   -18068   -23026   -27230 
  -30905   -32577   -32193   -32593   -35324   -38406   -39495   -38950 
  -39706   -44089   -50730   -56101   -59258   -62182   -64699   -64357 
  -61491   -58784   -56674   -53640   -50257   -48917   -50484   -54139 
  -58298   -60534   -59548   -56819   -53938   -50912   -48293   -47722 
  -50059   -53816   -56590   -58317   -59930   -60312   -57359   -50972 
  -44397   -39931   -35139   -28924   -24760   -23053   -20899   -17437 
  -11598    -3936     2319     6963    10990    14250    17110    19706 
   21700    22558    22745    23952    26727    30151    32868    34376 
   35430    36119    36674    38245    40641    42155    40257    34392 
   27815    22609    17811    12721     7044      424    -5675    -8886 
   -9863   -11265   -12966   -12773   -10772    -8826    -8265   -10650 
  -16734   -24451   -30559   -33318   -34074   -35455   -37647   -39391 
  -40733   -43067   -47083   -50765   -52964   -55634   -59317   -63391 
  -67204   -67124   -61068   -53150   -48013   -45486   -43394   -42835 
  -46360   -53227   -60173   -63829   -62729   -58150   -52500   -48589 
  -47726   -48022   -47380   -45331   -43395   -44305   -46888   -47358 
  -45425   -42863   -40724   -39223   -37364   -34287   -31432   -30741 
