Origin Time       2011/03/11 14:46:00
Lat.              38.103
Long.             142.860
Depth. (km)       24
Mag.              9.0
Station Code      YMN006
Station Lat.      35.4685
Station Long.     138.6069
Station Height(m) 926
Record Time       2011/03/11 14:47:44
Sampling Freq(Hz) 100Hz
Duration Time(s)  300
Dir.              U-D
Scale Factor      3920(gal)/6182761
Max. Acc. (gal)   23.751
Last Correction   2011/03/11 14:47:29
Memo.             
[...]
  -24442   -24478   -23569   -22649   -21952   -21113   -20018   -18548 
  -16611   -15121   -15118   -16414   -18466   -20710   -21720   -20451 
  -18176   -17327   -18336   -19296   -19131   -18631   -18064   -16895 
  -15743   -15621   -15788   -15291   -14959   -14950   -13440   -10090 
   -7148    -6121    -6582    -8405   -11966   -16160   -19483   -21953 
  -23152   -21534   -17459   -13580   -12098   -13391   -16343   -19541 
  -22220   -23885   -24206   -23462   -22124   -20616   -19733   -19678 
  -18895   -16407   -14367   -15481   -19710   -25162   -29602   -31215 
  -30335   -29073   -28442   -28273   -29049   -30762   -31485   -29713 
  -26450   -23439   -21088   -19191   -18085   -17837   -17616   -17413 
  -18568   -20985   -22492   -22060   -20525   -18446   -16647   -16608 
  -17849   -18737   -19650   -21041   -21020   -18446   -15406   -14394 
  -15122   -15556   -15103   -14900   -15363   -15754   -15483   -14354 
  -12511   -10707   -10094   -11067   -12394   -12723   -12454   -12669 
  -13146   -12865   -12001   -11717   -11756   -10662    -8719    -7767 
   -7939    -7815    -7738    -9539   -12971   -15468   -15861   -15840 
  -16967   -18557   -19254   -18816   -18246   -18794   -20420   -21922 
  -22736   -23061   -22936   -22790   -23564   -25026   -25421   -23951 
  -22306   -22432   -23942   -25201   -25621   -25277   -23924   -22038 
  -21127   -21488   -21495   -20481   -19877   -20494   -21767   -23742 
  -26751   -29858   -31406   -30365   -27217   -23816   -21777   -21165 
  -20983   -20426   -19318   -17921   -16438   -14637   -12858   -12432 
  -13736   -15645   -17405   -18870   -19238   -17943   -16211   -15747 
  -16645   -17547   -17326   -16415   -15923   -15911   -15745   -15059 
  -13887   -13114   -13870   -15268   -14898   -12705   -11567   -13227 
  -16508   -19336   -20257   -18921   -16196   -13423   -11886   -12303 
  -14121   -16643   -19987   -22990   -23197   -20703   -18442   -18645 
  -21538   -25821   -28748   -27850   -23802   -19943   -18908   -20877 
  -23715   -24668   -23613   -22993   -23716   -24489   -25116   -26045 
  -25716   -23045   -20151   -19361   -20877   -23812   -26465   -27254 
  -26285   -24242   -21390   -18874   -18507   -20570   -23391   -24879 
  -23896   -20918   -17549   -15349   -15579   -18836   -23538   -26255 
  -24784   -19925   -14478   -11623   -12958   -16607   -18824   -18150 
  -16145   -14878   -15385   -17070   -18003   -17157   -15614   -14978 
  -16493   -20567   -24708   -25229   -22712   -21261   -22168   -23190 
  -23321   -23625   -24628   -26520   -29923   -34027   -36335   -35540 
  -32693   -29542   -27511   -27596   -29175   -29629   -27005   -22369 
  -18494   -17514   -19922   -23947   -26438   -26067   -24822   -25163 
  -26895   -27953   -26845   -23408   -18877   -15502   -14497   -14730 
  -14487   -13591   -12481   -10490    -7341    -4808    -4508    -5866 
   -7581    -9181   -10636   -11854   -12800   -13346   -13205   -12851 
  -13688   -15970   -17824   -17504   -15348   -13324   -13118   -14032 
  -14042   -13488   -14681   -18143   -22179   -24633   -24080   -21488 
  -19777   -20615   -23461   -26731   -28216   -26725   -23807   -21707 
  -20596   -19635   -19061   -19294   -19382   -18168   -16132   -14750 
  -14491   -14101   -12075    -8955    -7124    -7712    -9168    -9517 
   -8582    -7354    -6628    -6810    -7461    -6920    -4449    -2129 
   -2361    -4702    -7071    -8763   -10729   -13409   -15267   -14400 
  -11480    -9519   -10279   -12727   -15459   -18309   -21094   -23243 
  -24955   -26512   -26940   -25300   -22388   -19865   -18886   -20247 
  -24079   -28643   -31326   -31512   -30860   -30897   -32292   -35532 
  -39683   -41868   -40595   -38166   -37422   -38045   -38446   -38478 
  -38380   -37968   -37789   -38797   -40506   -41204   -40043   -37363 
  -33763   -30488   -29319   -30843   -33945   -36676   -37050   -34952 
  -33109   -33717   -35447   -35956   -35308   -34921   -34662   -33120 
  -30155   -27330   -26435   -28355   -32249   -35572   -35710   -32435 
  -28800   -28100   -30297   -32899   -33965   -33094   -30703   -27451 
  -24504   -23194   -23504   -23998   -23793   -23153   -21753   -18639 
  -14723   -12668   -13429   -15152   -15739   -15143   -14582   -13884 
  -11921    -9781   -10186   -13702   -18125   -21317   -22565   -21952 
  -20340   -18850   -17547   -15522   -12359    -8769    -5694    -3531 
   -2198    -1673    -2231    -3481    -3980    -3201    -2827    -4188 
   -6208    -8174   -11364   -15954   -20041   -22642   -24379   -25452 
  -25443   -24529   -23283   -21848   -20465   -19906   -20198   -20141 
  -19180   -18496   -19260   -21134   -23178   -24947   -26384   -27384 
  -27759   -27716   -27811   -27746   -26564   -24984   -24836   -25703 
  -25729   -24914   -24188   -23244   -21722   -19989   -17981   -15816 
  -14557   -14374   -13976   -12863   -11724   -10397    -8048    -5230 
   -3490    -3548    -5047    -7273    -9797   -12527   -15068   -16571 
  -16399   -14924   -13597   -13528   -14389   -15041   -14674   -13335 
  -11665   -10477   -10141   -10099    -9805    -9272    -8428    -7668 
   -7815    -8444    -8397    -7976    -8536    -9972   -10489    -9251 
   -7575    -7279    -8908   -11058   -11583   -10054    -7555    -4588 
   -1820    -1032    -2502    -4118    -4715    -5062    -5478    -5796 
   -6691    -8330    -9313    -8925    -8283    -8002    -7234    -5848 
   -5440    -7345   -10905   -14373   -16654   -17673   -17689   -17130 
  -16978   -17940   -19246   -19821   -19990   -20598   -21550   -22351 
  -23059   -23923   -24977   -26544   -28633   -29677   -28567   -27184 
  -27469   -28196   -27965   -27556   -26890   -24392   -20696   -18646 
  -18865   -18987   -17719   -16311   -15718   -15223   -14377   -14145 
  -15370   -17725   -20339   -22266   -22988   -22746   -21781   -20465 
  -20460   -23089   -26636   -28181   -27144   -24717   -21785   -19452 
  -19393   -21737   -24627   -26890   -29066   -31245   -32012   -30689 
  -28682   -27116   -25185   -22186   -19383   -18780   -20571   -22667 
  -23382   -23368   -23769   -24223   -24026   -23406   -22744   -21995 
  -20742   -18609   -16308   -15005   -14813   -15668   -17681   -19507 
  -19435   -18041   -17240   -17670   -18528   -18979   -19021   -19518 
  -20747   -21029   -19217   -17422   -17749   -19031   -20000   -21663 
  -24197   -25675   -25137   -23957   -23796   -24468   -24040   -21191 
  -17044   -14031   -13415   -14412   -15525   -16207   -16795   -17010 
  -15925   -13958   -12820   -12962   -13152   -12579   -12180   -13589 
  -16641   -19301   -20589   -21617   -23483   -25735   -26999   -26434 
  -24409   -21748   -18577   -14831   -11788   -11116   -12308   -13416 
  -13861   -14201   -14436   -14502   -14699   -14692   -13881   -12355 
  -10334    -8143    -6773    -6606    -6794    -7001    -7613    -8228 
   -8309    -8677   -10481   -12964   -13847   -12266    -9766    -8280 
   -8556   -10327   -12819   -14802   -15205   -14203   -12756   -11573 
  -11156   -11351   -11104    -9915    -8423    -7278    -6878    -7453 
   -7896    -6115    -2115     1268     1858      167    -2508    -5714 
   -9260   -12476   -14383   -14550   -13640   -12990   -13978   -17284 
  -21944   -25530   -26169   -24466   -22584   -21701   -21685   -22764 
  -25490   -28766   -29989   -28245   -25729   -24756   -24967   -25028 
  -25080   -25549   -25591   -24690   -23721   -23180   -22739   -22912 
  -24281   -25582   -25315   -23898   -22300   -20447   -17864   -14668 
  -12140   -12291   -15832   -20878   -24654   -26284   -27172   -28620 
  -30023   -30052   -28775   -27461   -26738   -26276   -25954   -25752 
  -24468   -20704   -15902   -13679   -15094   -17129   -16478   -12791 
   -7622    -2383     1357     2116      729       -7     1318     3683 
    5321     4844     2195     -840    -2632    -3612    -5105    -7564 
  -10454   -12840   -14105   -14315   -13880   -13535   -14083   -15214 
  -15786   -15664   -15708   -16067   -16015   -15178   -14040   -13446 
  -13726   -14350   -14794   -15323   -16204   -16794   -16172   -14241 
  -12018   -10841   -11203   -12563   -13811   -13763   -12123   -10028 
   -9149   -10152   -12415   -14952   -16640   -16604   -15114   -13059 
  -11474   -11676   -13979   -16845   -18053   -16575   -13716   -12138 
  -13266   -15527   -16068   -14915   -15036   -17773   -21516   -24516 
  -26060   -25810   -24120   -22209   -20642   -18957   -17437   -16844 
  -16447   -15078   -13175   -11568    -9878    -7765    -5998    -5368 
   -5740    -6213    -5787    -4284    -2439     -971      -34      460 
     284     -988    -3233    -5889    -8209    -9101    -8360    -7604 
   -8486   -10634   -12267   -12783   -13206   -13738   -13235   -11172 
   -7881    -3899     -838     -832    -3971    -8426   -12869   -16622 
  -18720   -19029   -18895   -19260   -19668   -19594   -19175   -18585 
  -18009   -18041   -18889   -19369   -18263   -16495   -15991   -16720 
  -17256   -17592   -18755   -20484   -22058   -24045   -26311   -26817 
  -24866   -22473   -21610   -22603   -24669   -26532   -26932   -25574 
  -23651   -22372   -21462   -20259   -18885   -17308   -14970   -12471 
  -12184   -15155   -18717   -19988   -19688   -19752   -20132   -20154 
  -20409   -21752   -24131   -27187   -30606   -33425   -34433   -33988 
  -33965   -35319   -37390   -39419   -41210   -42758   -43905   -44157 
  -42853   -39692   -35121   -30493   -27612   -27137   -27870   -28145 
  -27378   -26440   -26514   -27774   -29401   -30351   -30545   -31358 
  -33853   -37100   -39371   -40385   -41018   -41160   -39936   -37757 
  -36028   -35245   -34485   -32842   -30868   -29755   -29741   -30059 
  -29729   -28176   -25771   -24202   -24886   -26593   -27286   -27346 
  -27771   -27866   -27209   -26893   -27119   -26339   -24480   -24015 
  -26327   -29743   -31807   -31613   -29715   -27348   -26013   -26250 
  -27338   -28774   -30336   -31213   -31163   -31585   -33420   -35287 
  -35504   -34403   -33238   -32221   -31330   -31689   -33815   -36058 
  -36383   -34476   -31798   -30119   -30019   -30550   -30023   -27464 
  -23496   -19483   -16345   -14498   -13485   -11636    -7829    -3367 
    -634     -151     -610    -1342    -2728    -4697    -6261    -6841 
   -6986    -7191    -7549    -8203    -9018   -10096   -12121   -14858 
  -16720   -16933   -16610   -16805   -17268   -17693   -18552   -20046 
  -21299   -21373   -20412   -19489   -19954   -22524   -26231   -28851 
  -29187   -27946   -26024   -23541   -20732   -18351   -17151   -17508 
  -19027   -20546   -21587   -22758   -23847   -23489   -20789   -16353 
  -12344   -10400    -9863    -9809   -10574   -11895   -12565   -12524 
  -12384   -11599    -9905    -8841    -9160    -9161    -7899    -6686 
   -5811    -4061    -1969    -1122    -1184    -1030     -968    -1669 
   -2823    -3937    -4934    -5810    -6591    -7149    -7255    -7278 
   -7867    -9005   -10114   -10547   -10095    -9371    -8953    -8751 
   -9043   -10373   -12332   -14051   -15004   -14875   -13832   -12787 
  -12752   -13967   -16186   -19214   -21900   -22461   -21170   -20319 
  -21007   -22094   -22413   -22131   -21589   -20827   -20626   -21770 
  -22712   -20550   -15537   -11787   -11935   -14316   -16316   -16913 
  -15781   -13293   -11182   -10616   -10455    -9383    -8283    -8700 
  -10270   -11490   -11948   -11838   -10934    -9900   -10392   -12601 
  -14104   -12189    -7360    -3315    -2802    -4916    -7044    -7920 
   -7680    -6400    -4601    -3878    -5093    -7028    -7813    -6834 
   -4858    -2969    -1821    -1732    -3028    -5440    -7648    -8884 
  -10031   -11675   -12975   -13531   -13905   -14522   -16194   -19465 
  -22750   -24373   -24859   -24998   -25026   -25861   -27687   -29013 
  -29339   -30014   -31715   -33964   -36402   -38465   -39599   -40283 
  -40705   -39991   -38535   -38072   -38477   -37922   -36113   -34269 
  -32627   -30508   -28030   -25914   -24152   -22237   -20469   -19744 
  -20165   -20720   -20341   -19022   -17603   -16744   -16558   -16703 
  -16769   -16800   -17089   -17626   -17971   -17605   -16546   -15242 
  -13621   -11311    -9296    -9360   -11189   -12706   -13077   -12589 
  -11193    -9314    -8034    -7721    -8044    -8675    -8684    -7037 
   -4576    -3238    -3293    -3122    -1585      101     -322    -3057 
   -6232    -8791   -11188   -13441   -14790   -15403   -16679   -19486 
  -23022   -25576   -26167   -25289   -24157   -23748   -24463   -26104 
  -28399   -31119   -33455   -34276   -33027   -30370   -27867   -25946 
  -23492   -20096   -16578   -13755   -12203   -12211   -13021   -13297 
  -13214   -14184   -16198   -18000   -19194   -20062   -20312   -19281 
  -17100   -14905   -13887   -14297   -15120   -15344   -15255   -15472 
  -16211   -17875   -20352   -22255   -22662   -22896   -24827   -28051 
  -30794   -32590   -33748   -33849   -33020   -32787   -34147   -36352 
  -38371   -40044   -40784   -39057   -34893   -30750   -28618   -28397 
  -29093   -29807   -29809   -28864   -27655   -27132   -27133   -26582 
  -25227   -23968   -23418   -23244   -23134   -23648   -25261   -26976 
  -27319   -26563   -26387   -27322   -28140   -28037   -27444   -26427 
  -24618   -22317   -19559   -15597   -10896    -7407    -5855    -4974 
   -3412     -463     3958     8680    12045    13723    14723    15666 
   16209    16259    16173    15895    15433    15379    16162    17561 
   18925    19474    18630    16488    13797    11371     9655     8347 
    6639     4238     1345    -1815    -4836    -7439    -9723   -11467 
  -11998   -11295   -10277    -9612    -9392    -9610    -9968   -10126 
  -10301   -10807   -11551   -12354   -13239   -14186   -14856   -14724 
  -13455   -11472    -9860    -9119    -8659    -7767    -6713    -6345 
   -6435    -6134    -5353    -4103    -2551    -1641    -2035    -3328 
   -4533    -5046    -5242    -5908    -7075    -7868    -7796    -7435 
   -7410    -7823    -8796   -10367   -12003   -12871   -12553   -11567 
  -11183   -12435   -15272   -18863   -22342   -24811   -25643   -25288 
  -24967   -25530   -26884   -28638   -30978   -33796   -35821   -36250 
  -35821   -35000   -33168   -30582   -28819   -28277   -27575   -26149 
  -25136   -25227   -25640   -25665   -25790   -26788   -28439   -29915 
  -30974   -31766   -32096   -31668   -30457   -28780   -27310   -26737 
  -27142   -28105   -29248   -30138   -30615   -31385   -32736   -33524 
  -33166   -32977   -33903   -34868   -34711   -33910   -33322   -32974 
  -32942   -33567   -34150   -33400   -31404   -29384   -27857   -26649 
  -25900   -25699   -25556   -24990   -23974   -22392   -19737   -16045 
  -12562   -10407    -8913    -6639    -3783    -1697     -109     2771 
    7034    10208    10262     7892     5110     2938     1383      451 
     159       -7     -981    -2987    -5207    -7258    -9529   -11549 
  -12424   -12937   -14405   -16206   -16898   -16343   -15327   -14782 
  -15400   -16734   -17744   -18452   -19423   -20355   -20722   -20915 
  -21816   -23514   -24821   -24426   -22621   -21185   -21210   -22232 
  -23678   -25308   -26585   -27380   -28147   -28697   -28306   -26925 
  -25183   -23496   -21972   -20975   -20784   -20747   -19862   -18249 
  -16944   -16524   -17413   -19994   -22738   -23074   -21011   -18743 
  -17439   -17088   -17747   -19164   -20571   -21533   -22130   -22529 
  -23022   -23815   -24677   -25415   -26111   -26608   -26805   -27246 
  -28026   -27797   -25650   -22957   -21530   -21274   -21126   -20807 
  -20392   -19339   -17245   -14965   -13608   -12975   -12306   -11831 
  -11940   -11717   -10292    -8552    -7721    -7760    -8255    -8924 
   -8864    -7270    -4796    -2652     -968     1004     3646     6398 
    8608    10196    10680     9459     7711     7581     9263    11007 
   11898    12497    13021    13369    14161    15474    15865    13939 
    9885     5213     1325    -1463    -3447    -4842    -5990    -7726 
  -10722   -14353   -17210   -18967   -20791   -23394   -25900   -27719 
  -29462   -30895   -30743   -29174   -28133   -29000   -31194   -33072 
  -33622   -33031   -31892   -30622   -29588   -28896   -28279   -27769 
  -27687   -27859   -28088   -29019   -30977   -32642   -32525   -30998 
  -29378   -28115   -27261   -27078   -26976   -25762   -23728   -22425 
  -22405   -23184   -24374   -25482   -26045   -26623   -28114   -29950 
  -30878   -30731   -29765   -28182   -26996   -27185   -27873   -27303 
  -25661   -24855   -25753   -27390   -28129   -27145   -25305   -24114 
  -24242   -25466   -26937   -27414   -26298   -24310   -22621   -21551 
  -20630   -19715   -19185   -19257   -19683   -19956   -19837   -19520 
  -19354   -19659   -20469   -21319   -21482   -20646   -19243   -17984 
  -17451   -17701   -17871   -17355   -17041   -17885   -19336   -20349 
  -20515   -19629   -17613   -15139   -13415   -12976   -12983   -12097 
   -9754    -6317    -2756     -413     -150    -1416    -2583    -2414 
   -1248     -482     -772    -1379    -1363     -591      332      744 
     785     1053     1065     -585    -3863    -6635    -7222    -6030 
   -4401    -3344    -3211    -4013    -5881    -8462   -10710   -12134 
  -13020   -13648   -14161   -14328   -13617   -12290   -11589   -12249 
  -13644   -14931   -15966   -16772   -17340   -17603   -17120   -15940 
  -15329   -16181   -17495   -17812   -17180   -16444   -15979   -16162 
  -17524   -19370   -19979   -19329   -19210   -19821   -19546   -18308 
  -17692   -18005   -18199   -17999   -17795   -17574   -17363   -17371 
  -17516   -18001   -19434   -21749   -24167   -26270   -28141   -29780 
  -31271   -32990   -34718   -35544   -35305   -34745   -34066   -32879 
  -31485   -30706   -30604   -30434   -29513   -27674   -25522   -24007 
  -23173   -22170   -20784   -19842   -19803   -19792   -18687   -16706 
  -14910   -13451   -11870   -10753   -11009   -12014   -12635   -13058 
  -13613   -13443   -12150   -10952   -10919   -11490   -11554   -11088 
  -10814   -10829   -10687   -10363   -10306   -10673   -10957   -10775 
  -10548   -10674   -10880   -11240   -12461   -14340   -15558   -15645 
  -15429   -15424   -15510   -15729   -16050   -16116   -15961   -16263 
  -17591   -19728   -21811   -23162   -23611   -23109   -22033   -21507 
  -22062   -22516   -21581   -19743   -18386   -18064   -18342   -18489 
  -18154   -17541   -16749   -15593   -14219   -13043   -12365   -12259 
  -12341   -12081   -11652   -11466   -11054    -9890    -8889    -9471 
  -11467   -13167   -13370   -12673   -12412   -12863   -13406   -13975 
  -15045   -16407   -17360   -17906   -18454   -18871   -19087   -19880 
  -22027   -25159   -28110   -30113   -31136   -31570   -32019   -32760 
  -33375   -33419   -33129   -32925   -32592   -31906   -31634   -32649 
  -34506   -36019   -36574   -36033   -34306   -31857   -29655   -28043 
  -26494   -24649   -22891   -21730   -20662   -18240   -13970    -9317 
   -5992    -4286    -3631    -3600    -3881    -4155    -4278    -4267 
   -4298    -4464    -4425    -4057    -3956    -4677    -6158    -7882 
   -9511   -11191   -12796   -13884   -14876   -16907   -20071   -22954 
  -24552   -25567   -26895   -28051   -28226   -27808   -27778   -28162 
  -28078   -27227   -26396   -26218   -26120   -25070   -22976   -20566 
