Origin Time       2011/03/11 14:46:00
Lat.              38.103
Long.             142.860
Depth. (km)       24
Mag.              9.0
Station Code      YMT002
Station Lat.      38.7686
Station Long.     140.2965
Station Height(m) 101
Record Time       2011/03/11 14:47:01
Sampling Freq(Hz) 100Hz
Duration Time(s)  300
Dir.              E-W
Scale Factor      3920(gal)/6182761
Max. Acc. (gal)   63.022
Last Correction   2011/03/11 14:46:46
Memo.             
[...]
  -32258   -33799   -36298   -36585   -32098   -22681   -13094    -9525 
  -14144   -24361   -33753   -36962   -34480   -29805   -26379   -26061 
  -27488   -28970   -30930   -34382   -39334   -43756   -45080   -42393 
  -37048   -33602   -35806   -41169   -44824   -45166   -43126   -39499 
  -33768   -26118   -20440   -21221   -27681   -35279   -40280   -40391 
  -35300   -27033   -18132   -10421    -4336     -269    -1322    -9415 
  -20791   -30735   -36979   -39385   -40497   -41373   -40777   -40065 
  -40863   -41645   -41353   -41833   -44115   -46206   -46682   -46136 
  -45979   -47658   -50652   -53866   -57508   -61275   -63838   -62936 
  -56959   -47656   -38691   -33143   -32266   -34819   -38330   -40869 
  -41088   -38236   -34149   -32060   -31992   -31523   -29606   -26668 
  -24081   -23692   -24908   -24285   -19825   -13023    -6624    -2363 
    -932    -3861   -12604   -24262   -33020   -35827   -32863   -26073 
  -18324   -11246    -6638    -8092   -16664   -28905   -40084   -46620 
  -48109   -45446   -38024   -27921   -19673   -15002   -14408   -17911 
  -22556   -24627   -22817   -18360   -14048   -11945   -12042   -14229 
  -20034   -30835   -44137   -54794   -60273   -60603   -55654   -45604 
  -32818   -21718   -14541    -9843    -6561    -4772    -3834    -3224 
   -2855    -2959    -4425    -6142    -4514      679     4272     1600 
   -7870   -21784   -35717   -45420   -49522   -47924   -41199   -32481 
  -25850   -23122   -23182   -23907   -24430   -24677   -24223   -22812 
  -19906   -13798    -4176     5281    10450    10664     7309     3080 
     237    -2588    -6614   -10397   -12791   -12866   -10849    -8049 
   -5033    -4385    -8407   -14701   -19730   -21488   -19833   -16790 
  -14068   -11873    -9787    -7551    -5924    -6083    -8608   -13400 
  -19856   -27590   -35739   -42633   -47906   -52120   -55672   -58452 
  -57934   -51464   -40257   -28148   -19057   -15153   -15402   -16405 
  -15136   -10789    -3974     3694     9959    14134    16865    19224 
   22642    26275    28040    28030    26471    23489    20864    19340 
   18103    17012    15910    13408     7759    -1369   -11979   -20801 
  -25368   -24609   -19865   -15475   -14425   -15601   -16232   -14339 
  -10885    -8152    -5739    -2319     1936     5701     6523     3817 
    -332    -4309    -5722    -3592    -2031    -3456    -5983    -7952 
   -8190    -7681    -7990    -7226    -4628    -1705     1035     1800 
    -914    -5312    -9607   -12933   -14470   -14907   -14736   -13698 
  -14223   -18539   -23563   -25113   -22590   -17104   -10278    -3876 
    1340     5313     8499    10546     9765     6583     2714    -1704 
   -5490    -7462    -8562    -8398    -6459    -4738    -4537    -5531 
   -8013   -12875   -19417   -24473   -25617   -24260   -23402   -23737 
  -23814   -23107   -22820   -23659   -25154   -26943   -28568   -29116 
  -28627   -28323   -29052   -31126   -35070   -41679   -50671   -59785 
  -67268   -72237   -73415   -71749   -69565   -67396   -64776   -60328 
  -53118   -45515   -41155   -41681   -45640   -49224   -50306   -49614 
  -47149   -43096   -39753   -37786   -35210   -31188   -27659   -27315 
  -30824   -37073   -43999   -48115   -46781   -40711   -32664   -24740 
  -17492   -11123    -6296    -3773    -3939    -6716   -12036   -20118 
  -30702   -41473   -48309   -47886   -39624   -26080   -11764    -1740 
     790    -2531    -8432   -15475   -22055   -27233   -30823   -30738 
  -25733   -17930    -9805    -2558     2692     4929     3689     -174 
   -3904    -5442    -5583    -6254    -8429   -11503   -13776   -14337 
  -13957   -13673   -13995   -15422   -18903   -24499   -29868   -32629 
  -31982   -28214   -24389   -23910   -25668   -26468   -24976   -21959 
  -19580   -18839   -18868   -20165   -23416   -27111   -30668   -34663 
  -38607   -42377   -46161   -48767   -48280   -43858   -37114   -31432 
  -28691   -27977   -28899   -32114   -36841   -42164   -47824   -53306 
  -58344   -61929   -61470   -55158   -44561   -33679   -25477   -20805 
  -19639   -21721   -26195   -30674   -32660   -32419   -31621   -29922 
  -25025   -15769    -4565     4158     8199     9119     9774    11904 
   15499    19120    21076    20202    16261    10607     5557     2350 
     476     -352      627     3987     9524    15433    18570    17224 
   12274     5649    -1372    -8271   -14480   -19684   -23696   -25847 
  -26043   -25074   -23155   -19540   -14900   -12681   -14907   -20065 
  -26854   -34840   -43293   -51625   -58321   -61481   -60385   -55848 
  -51157   -49326   -49901   -51729   -54197   -55379   -53449   -48080 
  -39826   -30315   -22165   -17664   -17637   -21843   -29104   -36613 
  -42221   -45715   -45931   -41268   -33096   -24979   -19696   -18628 
  -21833   -27755   -34467   -40212   -42807   -40959   -34963   -26359 
  -18500   -14082   -12993   -14999   -20530   -29386   -39967   -48205 
  -50864   -49366   -46881   -44346   -40078   -32354   -22650   -15078 
  -13039   -16296   -20757   -23068   -23894   -25329   -28506   -33489 
  -38147   -39306   -37304   -35633   -36341   -38992   -41795   -43715 
  -46054   -50023   -55321   -61090   -65273   -65840   -63265   -58894 
  -53265   -47363   -42477   -39790   -40704   -44888   -50096   -54511 
  -56101   -52802   -44925   -34505   -23302   -12237    -2495     3516 
    3685    -2035   -11601   -22338   -31672   -37266   -38501   -35379 
  -27598   -18090   -11731   -10586   -15148   -24573   -34569   -41234 
  -44968   -47531   -48849   -48088   -44274   -37229   -29989   -26267 
  -27004   -31294   -37402   -44296   -51310   -55946   -56727   -55767 
  -55973   -58607   -63000   -66978   -68551   -67344   -62962   -53830 
  -40130   -25188   -12259    -2640     3171     5470     4865     1219 
   -4619   -10028   -11666    -7538     -593     3415     2601     -331 
   -2443    -3567    -5579    -9942   -16584   -23861   -29573   -31903 
  -29747   -24126   -17517   -11428    -7180    -6955   -11406   -18246 
  -24234   -26802   -25687   -23668   -22531   -20614   -16423   -11248 
   -7372    -6769   -10734   -17495   -22699   -23542   -20667   -17467 
  -17053   -19760   -24213   -28269   -30350   -31649   -34239   -38089 
  -42309   -46242   -48744   -49676   -49430   -46083   -38785   -31359 
  -27368   -26192   -25438   -24446   -25911   -31701   -38701   -44145 
  -48483   -50551   -48613   -43050   -34997   -27247   -22465   -20820 
  -22641   -26548   -27822   -24460   -18628   -12891    -9021    -7059 
   -6140    -6140    -6553    -7154    -9492   -15346   -24592   -34571 
  -41908   -44897   -43978   -41012   -38173   -37429   -39427   -42470 
  -44940   -46421   -45859   -42231   -35486   -26564   -18106   -13323 
  -13703   -18264   -24689   -30589   -33774   -33530   -31259   -27934 
  -23856   -21495   -22844   -25153   -24239   -18837   -10428    -1988 
    3788     5350     1884    -5218   -12232   -16497   -18022   -18491 
  -19840   -22335   -24190   -24078   -23797   -27038   -35055   -44816 
  -50380   -46198   -31553   -11265     7612    19611    23374    20422 
   13670     7815     6062     6848     6839     4520      385    -4334 
   -9185   -13902   -17320   -18484   -16839   -12687    -8011    -4469 
   -2823    -3114    -3812    -4221    -4754    -4205     -967     4846 
   10992    15287    18592    22785    28346    34933    41299    45812 
   48262    49846    50763    49728    46025    40511    35769    34246 
   36061    39761    42737    42258    37986    31552    24858    19289 
   14401     8752     3067     -359     -153     2880     4568     1272 
   -5809   -14055   -21619   -27100   -31117   -34258   -36425   -38814 
  -40343   -37829   -31145   -22349   -13994    -8308    -5105    -3081 
    -985     2266     6037     8965    10811    12155    13624    15622 
   18324    20735    21082    18871    14898    10201     4965    -1981 
  -11124   -21193   -30000   -35218   -35991   -32852   -26476   -18430 
  -10886    -5012    -1093      141    -2064    -6896   -12940   -18737 
  -22375   -23563   -23454   -22444   -20752   -19824   -22750   -31103 
  -41208   -48161   -50726   -49646   -46401   -43310   -41347   -39684 
  -37969   -37295   -38908   -43228   -50192   -59252   -68653   -75594 
  -78682   -78631   -75242   -69544   -66594   -69510   -76664   -85268 
  -92964   -99107  -103876  -105863  -103134   -94176   -79819   -65518 
  -56322   -52683   -53504   -56377   -57372   -54936   -49705   -43173 
  -37527   -31942   -24107   -15609    -9879    -7972    -8208    -8168 
   -7007    -5904    -6767   -10427   -16329   -23422   -30282   -34867 
  -34835   -29376   -21202   -14904   -13178   -15190   -17695   -17762 
  -14434    -8602    -3271    -1730    -4074    -8089   -12384   -16979 
  -22491   -28593   -33228   -35187   -36031   -37657   -40709   -45171 
  -49973   -54105   -57953   -61478   -63913   -65048   -64465   -61520 
  -55762   -47161   -37591   -29932   -25553   -23731   -21973   -18355 
  -14338   -12361   -12000   -11567   -10154    -7124    -3270     -394 
     986     1202      982     1031     1117      844     -771    -5333 
  -12612   -20255   -26053   -30158   -34347   -38132   -39325   -38405 
  -38521   -42762   -51990   -63601   -73455   -78880   -78616   -72149 
  -60983   -48449   -37802   -31403   -30063   -32167   -33676   -30286 
  -21517   -11030    -1909     4969     9577    13637    19747    27921 
   35185    38873    39206    38563    38994    39094    34362    23126 
    8678    -4643   -14172   -20222   -24583   -27338   -29777   -36980 
  -52058   -71779   -88982   -97105   -93850   -82198   -68599   -58168 
  -51146   -46637   -46494   -52254   -62083   -71784   -77238   -77483 
  -75311   -73764   -72988   -71136   -68228   -65897   -63058   -57268 
  -48441   -38135   -28960   -23766   -23374   -26683   -31600   -35256 
  -35484   -32410   -28282   -25294   -23832   -24894   -30258   -37671 
  -42827   -42618   -33751   -17779    -2298     7230     9776     6876 
    -383   -13436   -31133   -47310   -55314   -52049   -39653   -23453 
   -7970     3476     8192     5668    -2250   -11330   -16673   -17291 
  -14452    -9052    -4763    -6932   -16721   -28650   -34174   -28507 
  -14719    -2185     1486    -3083   -11855   -22971   -34024   -40239 
  -37908   -27071   -11020     5136    17313    24317    25815    22206 
   14716     2937   -12289   -26763   -37052   -40863   -37101   -29034 
  -21724   -17416   -16198   -18177   -23639   -30754   -33783   -28225 
  -16767    -5834      361     1085    -3159   -11936   -22670   -31982 
  -38475   -41418   -40430   -35397   -27058   -18548   -12763   -11390 
  -17023   -30579   -49149   -68740   -86214   -99526  -106905  -106591 
  -98130   -81515   -57956   -32598   -12076     -824     -597   -11201 
  -29381   -47976   -60443   -64548   -62207   -58532   -58163   -62347 
  -68459   -71757   -70043   -64729   -58717   -55515   -57339   -63728 
  -72653   -80513   -82428   -76675   -66076   -53072   -38169   -21999 
   -5771     8064    16799    19753    17326     9952    -1418   -15146 
  -28626   -38986   -44512   -45078   -42509   -39205   -33749   -21566 
   -2417    17590    31669    37177    35880    29588    17174    -1254 
  -21130   -36392   -41704   -34449   -18153    -1290     7603     4939 
   -5853   -20557   -38495   -56610   -68026   -67789   -55725   -38172 
  -25778   -25042   -33752   -44398   -50720   -50571   -44655   -36821 
  -31753   -31027   -34043   -38567   -41679   -41179   -33488   -16431 
    6569    29407    45086    48539    43407    36469    26629     9943 
  -13567   -40301   -61176   -68225   -62699   -48923   -31708   -18463 
  -12893   -14416   -25124   -46548   -72471   -92406   -98311   -86611 
  -59871   -27710    -1623    13528    19813    18374     8437    -8039 
  -26413   -40226   -44413   -41050   -36189   -33184   -31952   -30522 
  -27808   -25103   -23302   -21214   -17369   -11220    -3893     1204 
    2848     5623    14244    28425    44746    58689    66157    65366 
   56060    38512    13728   -16426   -45659   -61222   -53280   -25913 
    4967    21964    15717    -9713   -41769   -69026   -83780   -83313 
  -70227   -49277   -27769   -11266     1653    10994    11224    -1727 
  -27065   -57427   -81770   -94084   -92902   -77004   -51223   -27915 
  -13796    -4862     1855     5005     6396     8177     7999     5621 
    5623     9565    14188    17181    17613    13639     3265   -13275 
  -32009   -48159   -58529   -62929   -66444   -73525   -82739   -90200 
  -90787   -80105   -59533   -35960   -17492    -8536    -6477    -4592 
    2376    15769    31935    43692    45638    37310    22707     7912 
   -2924    -9202   -12887   -16442   -19911   -22075   -23318   -26251 
  -34872   -50110   -68293   -85249   -97434  -102864  -103063  -101331 
 -101453  -105514  -110805  -113805  -113923  -110894  -105390  -100432 
  -98540  -100503  -104647  -106224  -100654   -87568   -72258   -61651 
  -58107   -59521   -61952   -60753   -53344   -39611   -20201     1552 
   20409    34182    42976    46126    43220    33937    18183    -1158 
  -20395   -37434   -48813   -52293   -51092   -50015   -52236   -57938 
  -64326   -71175   -80049   -87974   -91022   -87841   -76768   -59046 
  -39872   -21842    -5520     6906    12986    11538     4360    -4907 
  -13896   -20790   -24426   -24586   -20184   -10210     4191    19594 
   32183    39780    41038    34814    21955     5985    -7530   -12829 
   -7957     4651    21116    37007    49978    61804    72558    77391 
   71759    54708    30411     8378    -4307    -7511    -3291     4731 
   11002    13824    16349    20430    24499    26733    26392    22889 
   15734     5532    -5515   -15516   -24516   -33076   -40595   -44616 
  -41323   -28593    -9707     6771    12811     6426    -8479   -24769 
  -35633   -37463   -29587   -14007     4096    18175    25096    27854 
   30968    34621    35960    33597    27820    18844     6971    -6974 
  -21155   -32682   -37837   -33265   -19836    -3416     9086    14034 
   13410    10606     5147    -4113   -15720   -27366   -34972   -33869 
  -25079   -14804    -8544    -7957   -10176   -11590   -11136    -8547 
   -4262      502     5748    11790    17667    21529    21530    16771 
    7585    -4213   -14974   -20609   -19240   -11263     2814    21035 
   38165    49220    52136    46142    32082    13944    -3816   -18932 
  -30656   -39923   -47630   -51703   -49969   -42883   -32278   -21493 
  -14279   -12230   -15883   -26062   -41326   -56766   -68644   -77594 
  -84302   -85972   -79378   -64719   -45582   -27133   -14520    -9535 
   -9311   -10341   -11698   -14339   -19030   -25935   -34832   -44180 
  -52563   -59787   -64911   -66382   -63521   -57739   -52492   -50229 
  -52093   -58998   -68579   -75630   -77387   -74677   -69950   -66199 
  -64713   -64794   -67726   -76057   -87861   -96847   -97360   -86775 
  -66358   -41838   -20159    -5740     -910    -6005   -18203   -32309 
  -42725   -46057   -41746   -31013   -18176    -9020    -5392    -6758 
  -13802   -25135   -37488   -49506   -60518   -69600   -74702   -71589 
  -58907   -41255   -24320   -11455    -4235    -2144    -1907      882 
    8151    18063    27735    34817    37425    35420    30493    24485 
   18526    12963     7390      884    -7098   -15867   -24148   -30890 
  -35632   -38860   -41050   -42125   -42498   -43092   -44967   -49089 
  -55059   -60825   -63895   -62954   -59413   -56292   -54914   -54283 
  -53149   -50852   -48029   -47543   -51190   -56471   -59555   -58802 
  -55107   -50569   -47262   -47295   -51347   -57050   -59979   -56350 
  -45792   -30595   -14440    -2304     2865     1872    -2656    -7546 
  -10946   -12855   -13585   -14295   -17080   -22607   -29013   -33051 
  -32034   -25613   -16346    -7458       64     5853     7998     4598 
   -5029   -19031   -32968   -42915   -46097   -41199   -30791   -20030 
  -13267   -12512   -17306   -25635   -34648   -41712   -45671   -46564 
  -45794   -45742   -47661   -51401   -55965   -59151   -58674   -54152 
  -47024   -39731   -35824   -37574   -42824   -47078   -46754   -40376 
  -30452   -21689   -16171   -13848   -14277   -15666   -16662   -17044 
  -15694   -12186    -7735    -3593    -1113     -757    -1952    -5534 
  -12642   -21676   -28955   -31980   -31630   -31019   -33157   -39294 
  -47348   -52476   -50205   -39696   -25293   -14809   -14804   -25072 
  -38805   -49219   -53715   -53458   -49972   -43049   -33555   -23793 
  -15327    -8865    -4413    -1944    -1259     -600     2913    10783 
   22438    36498    49989    58834    60456    54589    44325    35176 
   30463    29071    27494    23432    17318    11163     7057     5601 
    5861     6713     6641     3888    -1756    -9315   -19240   -33208 
  -51048   -69430   -83566   -89816   -86692   -75674   -61831   -50961 
  -46707   -50082   -59731   -72721   -84453   -90561   -90975   -88705 
  -84995   -78832   -70017   -60614   -53595   -50882   -53473   -61529 
  -71871   -78655   -78033   -70143   -58119   -45875   -35999   -29703 
  -26974   -26753   -27942   -29472   -30240   -29328   -26717   -24163 
  -23407   -24643   -27176   -29121   -28570   -25846   -22090   -17492 
  -12472    -7917    -4426    -2619    -2146    -2065    -2928    -5631 
  -10503   -17680   -26079   -33965   -40065   -43793   -46574   -50950 
  -56776   -61192   -62398   -60162   -54426   -45897   -35419   -23787 
  -13088    -5201    -1033    -1286    -5124   -10670   -16700   -21852 
  -24708   -25211   -23934   -20564   -14492    -6204     3214    13278 
   23371    32477    40211    46047    48380    45606    38183    29751 
   24953    26485    33847    42497    46257    42500    33437    23090 
   13957     5978    -1514    -7880   -11394   -11239    -9325    -8957 
  -11782   -16763   -21507   -23892   -22782   -18431   -11834    -3448 
    5969    14318    19657    21661    20919    18342    15672    14651 
   15317    15922    14503    10597     5112     -907    -6881   -12834 
  -18563   -22301   -21546   -15893    -7029     3232    12485    18754 
   22300    23315    21575    18192    13779     8545     4000      609 
   -2222    -3574    -3100    -2371    -2711    -4967    -9387   -15194 
  -21371   -26073   -27599   -26586   -24016   -20103   -16253   -14525 
  -16017   -19476   -21535   -20833   -19090   -17611   -16594   -16439 
  -17483   -19031   -19420   -18065   -16493   -15674   -14617   -12849 
  -11234   -10852   -12900   -17793   -24659   -32218   -38780   -43051 
  -45227   -45657   -44569   -43207   -42526   -42280   -42132   -42074 
  -43258   -47445   -53929   -60143   -64407   -65157   -60708   -51091 
  -38587   -27371   -21386   -21381   -26089   -34661   -45668   -56928 
  -66760   -73224   -74754   -72252   -68471   -65699   -63931   -61309 
  -56603   -50046   -42367   -34198   -26407   -20197   -16731   -17226 
  -20765   -23304   -22532   -19780   -17021   -15584   -16232   -19978 
  -27145   -34925   -39584   -39539   -35223   -29304   -25929   -27636 
  -33770   -42190   -51745   -61937   -71472   -78826   -82668   -81688 
  -75454   -65448   -55414   -49503   -49331   -53879   -61159   -68766 
  -73953   -74313   -69181   -59905   -48172   -35668   -24539   -16215 
  -11047    -8434    -6972    -6738    -8714   -11125   -10902    -7134 
