Origin Time       2011/03/11 14:46:00
Lat.              38.103
Long.             142.860
Depth. (km)       24
Mag.              9.0
Station Code      YMT001
Station Lat.      38.9142
Station Long.     139.8123
Station Height(m) 2
Record Time       2011/03/11 14:47:10
Sampling Freq(Hz) 100Hz
Duration Time(s)  300
Dir.              U-D
Scale Factor      3920(gal)/6182761
Max. Acc. (gal)   35.586
Last Correction   2011/03/11 14:46:55
Memo.             
[...]
  -26437   -24316   -22496   -20174   -16784   -13085   -10580    -9666 
   -8942    -7003    -4254    -2059     -895     -487     -666    -1060 
    -792      762     3125     5039     5794     5658     5045     4170 
    3595     4147     5847     7640     8601     9054    10324    13291 
   17244    20600    22817    24965    27956    30870    31954    30929 
   29153    27439    24997    21154    16845    13449    11153     9349 
    7805     6587     5445     4138     3132     3204     4421     6012 
    7141     7566     7845     8853    10807    13021    14867    16504 
   18352    20199    21340    21582    21398    20771    18792    15133 
   11091     8178     6236     3825      204    -3932    -7840   -11907 
  -16769   -22042   -26417   -28692   -28801   -27913   -27278   -27154 
  -27008   -26591   -26351   -26486   -26290   -25087   -23177   -21426 
  -20343   -19695   -18876   -17689   -16632   -16070   -15438   -14019 
  -12297   -11558   -12038   -12381   -11361    -9418    -7958    -7709 
   -8116    -7980    -6545    -4168    -1936     -411     1089     3425 
    6126     7871     8360     8747     9986    11295    10814     8023 
    4855     3547     3990     3954     1707    -2180    -5804    -8225 
  -10145   -12336   -14168   -14491   -13419   -12080   -10953    -9622 
   -7862    -5939    -3914    -1326     2024     5370     7928    10120 
   12859    16043    18744    20392    20870    20023    17867    14983 
   12150     9642     7241     4863     2458     -737    -5579   -11321 
  -15870   -18014   -18521   -19025   -20228   -21583   -22616   -23842 
  -26110   -29187   -31355   -31185   -29512   -28588   -29378   -30811 
  -31544   -31481   -31387   -31431   -30739   -28705   -26058   -24086 
  -23108   -22003   -19232   -14630    -9804    -6180    -3327      131 
    4459     8367    10665    11468    11509    11322    11341    11907 
   12929    13863    14191    13762    12544    10715     9015     8007 
    7142     5588     3695     2539     2266     1849      479    -1272 
   -1985    -1032      835     2458     3331     3626     3479     2719 
    1466      304     -553    -1594    -3135    -4790    -6089    -7369 
   -9820   -14126   -19096   -22665   -24202   -24642   -24432   -23052 
  -20713   -18562   -16907   -14885   -12042    -8940    -5841    -1876 
    3495     8927    12470    13845    14232    14504    14717    14656 
   14058    12779    10975     8795     6149     3054       -6    -2592 
   -5138    -8454   -12519   -16596   -20372   -24259   -28388   -32011 
  -34470   -35921   -36740   -37131   -37405   -37862   -38262   -37778 
  -35725   -32312   -28477   -24996   -21934   -19001   -16131   -13473 
  -11146    -9151    -7229    -4900    -2028      851     3004     4153 
    4663     4931     4665     3303      886    -1973    -4895    -8122 
  -11751   -15311   -18720   -22681   -27496   -32218   -35372   -36305 
  -35857   -35716   -36750   -37927   -37463   -35153   -32613   -30992 
  -29456   -26438   -21994   -17846   -14769   -11630    -7471    -3114 
    -488     -564    -1992    -2687    -2391    -2452    -3914    -6652 
   -9655   -11805   -12883   -13832   -15605   -18065   -20360   -22200 
  -24247   -26620   -27919   -26955   -24530   -22650   -22326   -22663 
  -22456   -21813   -21541   -21845   -22023   -21161   -19385   -18082 
  -18276   -19123   -18964   -17629   -16470   -16254   -16217   -15387 
  -14033   -13143   -13138   -13568   -13546   -12742   -12103   -12919 
  -15235   -17760   -19264   -19720   -19974   -20482   -20839   -20560 
  -19786   -19035   -18538   -17905   -16505   -14335   -12317   -11257 
  -10601    -9036    -6283    -3266     -553     2358     6173    10650 
   14568    17093    18831    21060    24140    26801    27147    24657 
   20957    18152    16650    15289    13387    11584    10433     9165 
    6886     4386     3296     3955     5251     6217     7125     8765 
   11078    13144    14227    14495    14800    15467    15355    13070 
    9129     5734     4338     4320     3844     1570    -2427    -7118 
  -11296   -14137   -15745   -16888   -18180   -19968   -22390   -25143 
  -27528   -28714   -28171   -26159   -23627   -21535   -20111   -18652 
  -16210   -12488    -7926    -2886     2616     7944    11698    13253 
   13682    14538    16000    16724    15547    12876    10160     8288 
    6845     5010     2716      518    -1577    -4421    -8282   -11938 
  -14028   -14561   -14501   -14543   -14715   -14653   -13936   -12591 
  -11378   -11095   -11638   -12247   -12657   -13592   -15686   -18113 
  -19231   -18644   -17626   -17376   -17571   -17038   -15356   -13124 
  -11085    -9535    -8197    -6570    -4884    -4386    -5927    -8525 
  -10127   -10001    -9641   -10623   -12488   -13721   -13810   -13402 
  -13143   -13221   -13723   -14680   -15882   -17214   -18879   -20862 
  -22602   -23411   -23067   -21909   -20416   -19045   -18181   -17656 
  -16723   -15023   -13028   -11122    -9011    -6520    -4190    -2669 
   -1766     -634      889     2108     2890     3935     5547     7236 
    8719    10288    11808    12571    12550    12661    13564    14935 
   16083    16720    16906    16701    15931    14152    11204     8004 
    6082     6067     7187     8223     8556     8447     8542     9266 
   10755    12810    14776    16061    16856    17882    19421    20674 
   20292    17965    15219    13862    13937    14059    13324    12088 
   11076    10365     9604     8712     7924     7465     7436     7902 
    8822     9732     9975     9459     8640     7752     6594     5157 
    4064     3785     3598     2211     -614    -3830    -6587    -9257 
  -12503   -15943   -18433   -19312   -19046   -18708   -18696   -18217 
  -16405   -13535   -10397    -7124    -3693     -785      973     2057 
    3548     5810     8299    10377    11925    13241    14219    14120 
   12596    10437     8994     8734     8545     7239     5221     3702 
    3033     2679     2418     2958     5040     8180    10900    12225 
   12610    13389    15485    18698    21901    23814    23992    23131 
   22117    21178    19976    17907    14759    11222     8103     5425 
    2752      -41    -2607    -4713    -6516    -7906    -8333    -7610 
   -6140    -4421    -2694     -792     1568     4344     7204     9663 
   11332    12316    13170    14389    15743    16466    16395    16160 
   16143    15980    15110    13619    12341    11922    12177    12593 
   13058    13907    15382    17214    18581    18642    17524    16453 
   16441    17099    17099    15882    14425    13855    13901    13510 
   12372    11035     9956     9056     8270     7845     7617     6836 
    5146     3241     2188     2052     1759      582    -1160    -2845 
   -4175    -5178    -5887    -6311    -6984    -8688   -11380   -14388 
  -17419   -20715   -24440   -28234   -31797   -35451   -39283   -42451 
  -44082   -44456   -44885   -46109   -47208   -46909   -45140   -42553 
  -39459   -35793   -31908   -28948   -27659   -27339   -26717   -25114 
  -22628   -19994   -18063   -17088   -16671   -16289   -15763   -15187 
  -14460   -13343   -11955   -10722   -10091   -10358   -11425   -12870 
  -14274   -15478   -16719   -18240   -19778   -20915   -21792   -22984 
  -24698   -26509   -27956   -28851   -28882   -27647   -25349   -22986 
  -21623   -21646   -22676   -23950   -24758   -24988   -25218   -25832 
  -26443   -26624   -26835   -27777   -29032   -29499   -28912   -27988 
  -27368   -26957   -26336   -25322   -23663   -21088   -18080   -15664 
  -14420   -14031   -13515   -12320   -11202   -11170   -11949   -12191 
  -11081    -9472    -8753    -8728    -7980    -6193    -4921    -5672 
   -7827    -9343    -9246    -8510    -8585    -9875   -11742   -13462 
  -14727   -15343   -15209   -14799   -14783   -15000   -14803   -14370 
  -14557   -15422   -15709   -14256   -11678    -9933   -10064   -11027 
  -11038    -9676    -8122    -7486    -7552    -7390    -6823    -6516 
   -6745    -6991    -6696    -5822    -4570    -2784     -114     3257 
    6574     9021    10087     9677     7865     4793     1011    -2577 
   -5584    -8467   -11676   -15273   -19248   -23354   -27059   -30012 
  -32141   -33444   -34101   -34659   -35525   -36351   -36445   -35621 
  -34364   -33138   -31937   -30807   -30094   -29589   -28105   -24813 
  -20615   -17286   -15393   -13766   -11169    -7712    -4277    -1507 
     401     1705     2955     4600     6905     9955    13183    15337 
   15780    15375    15255    15424    15363    15089    14854    14496 
   13800    13007    12418    11966    11591    11638    12369    13486 
   14516    15274    15816    16361    17117    17917    18138    17208 
   15327    13452    12259    11538    10756     9739     8631     7503 
    6535     6394     7637     9916    12177    13410    13462    13193 
   13593    14927    16630    17886    18552    19219    20303    21470 
   21913    21093    19329    17489    16138    15230    14500    13852 
   13257    12528    11550    10631    10024     9179     7247     4267 
    1186    -1301    -3509    -6260    -9673   -12757   -14662   -15998 
  -18216   -21876   -25921   -28623   -29137   -28051   -26419   -24604 
  -22349   -19629   -16846   -14168   -11144    -7291    -2811     1578 
    5441     9027    12887    17180    21398    24813    27045    28103 
   28105    27554    27543    28053    27570    25937    24056    21867 
   19660    18074    17232    16973    16334    14708    12547    10015 
    7003     3909     1479     -272    -2371    -5367    -8338   -10159 
  -11138   -12473   -14526   -16594   -18016   -18973   -20312   -22538 
  -24963   -26348   -26430   -26336   -27364   -29492   -31402   -32018 
  -31328   -29839   -28079   -26496   -25268   -24097   -22360   -19856 
  -17273   -15488   -14688   -14342   -13755   -12737   -11821   -11718 
  -12614   -14039   -15423   -16702   -18188   -19926   -21614   -23196 
  -24992   -26950   -28355   -28633   -27995   -26957   -25791   -24795 
  -24385   -24430   -24108   -22730   -20637   -19075   -18876   -19604 
  -20379   -21014   -21903   -23071   -23908   -24089   -24343   -25795 
  -28602   -31742   -34121   -35408   -35864   -35922   -35900   -35641 
  -34601   -32532   -29798   -26980   -24201   -21039   -17273   -13314 
   -9929    -7764    -6828    -6572    -6594    -6916    -7604    -8459 
   -9152    -9474    -9361    -8978    -8792    -9182    -9849    -9989 
   -9208    -8014    -7363    -7690    -8457    -8965    -9439   -10872 
  -13717   -17148   -20025   -22152   -24167   -26527   -28872   -30476 
  -31296   -32076   -33256   -34425   -34944   -34460   -32927   -30618 
  -27994   -25409   -22984   -20713   -18559   -16454   -14297   -12079 
  -10089    -8750    -8054    -7554    -7081    -7023    -7759    -9163 
  -10813   -12409   -13915   -15499   -17310   -19237   -20975   -22136 
  -22338   -21489   -19909   -18281   -17467   -17746   -18179   -17425 
  -15194   -12439   -10195    -8533    -6774    -4677    -2837    -1690 
    -790      663     2844     5013     6297     6629     6811     7686 
    9270    10837    11761    12022    12051    12085    11817    11004 
   10119     9862    10041     9719     8679     7740     7319     6754 
    5542     4355     4080     4267     3517     1507     -468    -1454 
   -2157    -3585    -5489    -6954    -7807    -8729   -10306   -12323 
  -13962   -14710   -14973   -15724   -17609   -20321   -22907   -24674 
  -25546   -25559   -24712   -23256   -21505   -19572   -17609   -15820 
  -14088   -12128   -10192    -9126    -9226    -9510    -8903    -7670 
   -6833    -6551    -5997    -4854    -4001    -4277    -5385    -6519 
   -7362    -8150    -9212   -10476   -11450   -11803   -11641   -11246 
  -10969   -11281   -12581   -14863   -17711   -20856   -24213   -27191 
  -29111   -30348   -31907   -33967   -35653   -36197   -35826   -35283 
  -34691   -33471   -31225   -28162   -24971   -22291   -19951   -17252 
  -14093   -11024    -8166    -4971    -1276     2110     4250     5216 
    6058     7606     9640    11352    12256    12547    12919    13966 
   15454    16493    16622    16432    16954    18237    18897    17667 
   14901    11993     9821     8069     6092     4263     3596     4167 
    4853     4567     3244     1845     1496     2337     3331     3406 
    2677     2366     3425     5394     6934     7491     8028     9826 
   12839    15591    16862    17027    17171    17488    17308    16213 
   14517    12788    11227     9658     7952     6336     5282     4841 
    4186     2442     -100    -2246    -3347    -4018    -5322    -7543 
  -10072   -12424   -14832   -17733   -21158   -24745   -27933   -30033 
  -30651   -30324   -30079   -30107   -29569   -27872   -25587   -23670 
  -22105   -20191   -17932   -16197   -15663   -16043   -16389   -16257 
  -16138   -16446   -16835   -16828   -16515   -16418   -16776   -17300 
  -17779   -18438   -19539   -21112   -23132   -25548   -28008   -29731 
  -29932   -28652   -26887   -25552   -24413   -22443   -19296   -15791 
  -12776   -10181    -7372    -4128     -874     1960     4191     5743 
    6831     7860     8616     8054     5550     1876    -1738    -4937 
   -8070   -11174   -13828   -15884   -17746   -19859   -22218   -24452 
  -26307   -27904   -29502   -31226   -33032   -34644   -35739   -36314 
  -36607   -37083   -38337   -40307   -42245   -43868   -45620   -47692 
  -49512   -50477   -50888   -51591   -52762   -53754   -54108   -54148 
  -54674   -56177   -58311   -60184   -61116   -61054   -60250   -58854 
  -56950   -54640   -52083   -49470   -46741   -43554   -39639   -35201 
  -30975   -27477   -24404   -21244   -18221   -16129   -15156   -14635 
  -14224   -14403   -15456   -16789   -17416   -16837   -15518   -14502 
  -14409   -14981   -15576   -15926   -16361   -17191   -18050   -18187 
  -17516   -16925   -17176   -18068   -18926   -19243   -18933   -18486 
  -18480   -18855   -19157   -19231   -19334   -19722   -20114   -19829 
  -18620   -17008   -15674   -14754   -14100   -13852   -13929   -13655 
  -12615   -11035    -9160    -6856    -3866     -446     2527     4500 
    5828     7044     8224     9259    10269    11563    13115    14230 
   14207    13274    12489    12678    13496    13648    12299    10040 
    8236     7548     7465     7297     7103     7450     8597    10073 
   11214    12022    13016    14562    16634    18756    20365    21384 
   22166    23067    24059    24710    24775    24460    23989    23442 
   22833    21947    20402    17955    14805    11782     9770     8893 
    8548     8035     7111     6041     5246     4990     5241     5828 
    6587     7331     7891     8284     8811     9692    10598    10927 
   10631    10446    11129    12645    14146    14791    14753    14930 
   15606    16090    15588    14115    12632    11949    11619    10508 
    8150     5047     1909     -909    -3153    -4492    -4859    -4286 
   -2728     -349     2664     6008     8928    10849    11926    12903 
   14506    16732    19054    21183    23316    25738    28344    30777 
   32916    34946    37049    39122    40785    41749    42235    42611 
   42853    42830    42685    42619    42574    42150    40853    38503 
   35533    32806    30822    29146    26841    23433    19323    15218 
   11492     8302     5859     4332     3758     4025     4667     4903 
    4377     3709     3772     4586     5518     6133     6205     5537 
    4386     3459     3080     2755     1743       50    -1412    -1975 
   -2039    -2520    -3955    -6141    -8348   -10153   -11969   -14249 
  -16714   -18820   -20340   -21318   -21906   -22269   -22513   -22608 
  -22364   -21670   -20693   -19681   -18820   -18356   -18357   -18402 
  -17975   -17179   -16843   -17503   -18353   -17950   -15975   -13556 
  -11739   -10348    -8738    -7030    -5925    -5400    -4233    -1342 
    2759     6494     8897    10382    12074    14581    17621    20710 
   23668    26356    28326    29013    28224    26191    23241    19712 
   15942    11995     7758     3415     -453    -3414    -5658    -7745 
  -10064   -12637   -15298   -17798   -19743   -20926   -21648   -22293 
  -22714   -22478   -21694   -20998   -20715   -20448   -19449   -17629 
  -16013   -15502   -15631   -15309   -14239   -13039   -12150   -11224 
  -10099    -9374    -9225    -8747    -6907    -3591      394     4303 
    8185    12237    15959    18643    20268    21501    22827    23803 
   23655    22326    20315    17873    15002    11871     8580     5003 
    1323    -1970    -4742    -7247    -9495   -11062   -11660   -11453 
  -10911   -10501   -10272    -9733    -8352    -6283    -4334    -2895 
   -1349     1105     4374     7644    10486    13213    16161    19243 
   22241    25005    27153    28147    28261    28698    29997    31128 
   30651    28262    24997    22178    20304    18824    16840    14006 
   10847     8044     5542     2890       52    -2704    -5310    -7821 
   -9978   -11305   -11772   -11931   -12233   -12517   -12403   -11867 
  -11082    -9953    -8207    -5723    -2629      653     3510     5607 
    7166     8599    10098    11645    13085    14133    14459    13826 
   12436    11214    10990    11380    11150     9527     7129     5607 
    5747     6349     5785     3927     1951      658     -513    -2329 
   -4324    -5564    -6135    -6985    -8688   -10751   -12315   -13358 
  -14616   -16362   -17959   -18771   -18940   -18985   -19234   -19687 
  -19873   -19070   -16951   -13849   -10574    -7710    -4942    -1676 
    2108     5996     9461    12233    14414    15885    16152    14968 
   12806    10532     8525     6359     3400     -378    -4184    -7263 
   -9873   -12890   -16464   -19646   -21491   -22091   -22069   -21459 
  -19935   -17851   -15971   -14342   -12283    -9344    -5883    -2580 
     267     2583     4379     5847     6703     6236     4746     3514 
    3016     2157     -122    -2950    -4666    -5282    -6031    -7276 
   -8342    -8862    -9202    -9597    -9702    -9484    -9662   -10409 
  -11022   -11552   -12992   -15628   -18517   -20646   -22118   -23832 
  -26039   -28133   -29875   -31532   -33180   -34747   -36044   -36820 
  -37109   -36985   -36485   -35850   -35208   -34427   -33353   -31844 
  -30067   -28688   -28068   -27646   -26664   -25106   -23604   -22506 
  -21467   -20191   -19024   -18375   -17848   -16505   -14046   -11297 
   -9441    -8944    -9227    -9590   -10110   -11015   -12042   -12972 
  -14010   -15538   -17574   -19388   -20296   -20764   -21690   -22822 
  -22844   -21039   -18200   -15539   -13234   -10658    -7667    -4984 
   -3175    -1801      -27     2435     5177     7261     7837     6964 
    5413     3969     2958     2102     1293      984     1315     1809 
    1942     1500      748      191      -10     -102     -381     -873 
   -1364    -1925    -2937    -4608    -7120   -10478   -14062   -17199 
  -19650   -21382   -22558   -23324   -23498   -22872   -21552   -20005 
  -18754   -17842   -17022   -16160   -15080   -13979   -13523   -13881 
  -14689   -15542   -16161   -16750   -17597   -18674   -19905   -20942 
  -21424   -21433   -20970   -19997   -18957   -18324   -18095   -17967 
  -17807   -17729   -17448   -16509   -15492   -15593   -17030   -18776 
  -19641   -19424   -18784   -18062   -17030   -15500   -13588   -11811 
