Origin Time       2011/03/11 14:46:00
Lat.              38.103
Long.             142.860
Depth. (km)       24
Mag.              9.0
Station Code      YMT002
Station Lat.      38.7686
Station Long.     140.2965
Station Height(m) 101
Record Time       2011/03/11 14:47:01
Sampling Freq(Hz) 100Hz
Duration Time(s)  300
Dir.              U-D
Scale Factor      3920(gal)/6182761
Max. Acc. (gal)   49.730
Last Correction   2011/03/11 14:46:46
Memo.             
[...]
   40347    32564    27915    29606    33111    34149    32455    29066 
   26484    29511    36349    35423    22747     9144     2950     1694 
    3001     7821    11568     7901      721    -2054     -759      320 
    1048      811    -5110   -13464   -12817    -5150    -1823      300 
    8531    14451    11794    13031    22145    19586      284   -10825 
   -1562     8537     5163     -342     1924     5297     5124     5926 
   10470    15628    17761    18540    20428    20686    18846    20996 
   29316    36145    34272    28287    26820    26699    19943    11379 
   10796    17084    24154    29946    34877    39349    41409    39338 
   36219    33747    27919    18163    12492    16059    20947    20160 
   21150    27666    29588    25854    28807    38662    41126    32635 
   25804    27807    32084    33267    33333    34379    36134    36054 
   32981    29832    23420     9093     -786     5089    12366     7369 
    3174    11609    18822    14077    11276    19188    24810    21127 
   15193     6094    -8579   -15618    -8488    -2070    -3712    -1903 
    7064    11341     7420     5200     4783    -1432    -6281    -1869 
     482    -6235    -8856    -1559     1629    -4026    -2757    10652 
   19075    13988     9089    14440    20609    15427     1857    -8188 
  -11543   -15500   -21798   -22473   -16159   -12539   -15461   -18177 
  -18617   -22961   -30929   -33080   -27128   -21922   -21987   -22963 
  -20511   -12698    -2791     -453    -6443    -8268    -2893    -4190 
  -17235   -26235   -24195   -27669   -40740   -42889   -29319   -21555 
  -28572   -31040   -16757    -3724    -6862   -12004    -5475     1318 
   -4630   -14026   -11051     1025     6573     4108     6695    17724 
   26296    25154    19031    15988    17244    16947     9097    -3864 
   -9536     -866    12399    16931    11527     4615     2709     3067 
   -2147   -11066   -10005     2323     8697     5511     9359    23844 
   34294    36620    41968    51663    52538    41912    33912    36309 
   43095    49385    54472    56494    56116    56823    57196    50416 
   35001    19774    12384    11735    15284    21129    23684    19528 
   13760    11204     9459     7471     7177     5781     1625     -457 
    1611     5416     9662    11109     5739    -2515    -6068    -5632 
   -7265   -11163   -11819    -6885      525     7412    12951    16016 
   14802     8456      592     -483     7793    15994    15901    11384 
    8550     8707    13498    22354    30416    35817    39254    40560 
   41739    44792    47392    47377    45493    41486    37279    38818 
   43539    41203    34596    35750    39523    30597    16423    17026 
   25660    22373    15029    22958    38115    39652    30111    27466 
   33280    37184    40446    47217    51507    52546    58143    65752 
   66137    62530    62187    59554    48818    38073    34495    31606 
   24139    19793    23164    24281    15863     5074     -996    -5920 
  -12373   -13877    -8358    -3741     -929     5960    10857     3540 
  -10211   -17357   -14784    -5235     8926    20218    19552     9590 
    1689      176     1522     5000    11348    15763    13951    10029 
   11747    20760    29511    30620    26998    23147    14740     2488 
    1008    13902    21136    11247      690     3840    11062    10750 
    6199     1802    -2753    -4425     -847     3497     2089    -5679 
  -11985   -10365    -4178     1973     9142    15718    12582    -2827 
  -13885    -5504     9928    11788     2185    -4469    -5057    -5722 
   -8895   -10181    -6642    -4110    -6622    -5739     3121     7582 
    -741   -10966   -13713   -16110   -21988   -19642    -5803     3455 
    1111      834    11839    24537    25218    14629     4773     1238 
     740     1594     5437    10614    11565     6777      210    -3689 
   -1797     3681     5256      494    -3859    -2127     2985     7850 
   12139    14009    12813    11927    13623    16428    16914    13492 
    7506     1439     -707     2676     5829     2003    -8100   -17476 
  -18384    -8470     4273     7596      265    -6910    -8517    -9944 
  -11660    -7021     -667    -5090   -17255   -23391   -20902   -16670 
  -15722   -18722   -18910    -7256    12505    26465    30267    31943 
   32955    25724    14764    15115    27003    36223    37825    39752 
   44037    42789    35545    31990    35652    39285    35461    26308 
   20989    21525    19844    13242    10056    15102    21338    22263 
   21402    22472    22121    18212    15245    16574    18109    16183 
   14979    19724    29378    37972    41171    41785    42629    40207 
   35601    36113    40251    39496    34417    33453    38106    41427 
   38999    33043    28141    26003    24501    22988    22709    21616 
   17438    12696    11219    13174    15688    16381    12752     4758 
    1051     7850    17021    19064    15727    13974    14714    12916 
    8833     6757     6100     5277     5173     6291     9016    14440 
   21350    24356    23140    27037    38278    46053    45358    43708 
   46421    48659    46721    46592    51014    51679    45156    40034 
   40941    41143    36712    33613    35545    37814    33806    21454 
    7743     1414     -218    -4530    -8774    -4932     4692     9088 
    7119     8213    13518    16344    16032    14876    11722     6791 
    1437    -6179   -14274   -13909    -3215     6677    10096    12864 
   12669     1235   -13197   -15981    -9719    -4783    -1174     5013 
    9313     6369     1878     2822     6097     8050     9446     9097 
    4927    -3231    -9871    -4721    10815    23373    28513    31330 
   32872    31114    28900    30358    31819    28724    25340    25360 
   25198    20784    11149      386    -3654    -1501    -3255    -8740 
   -5871     3919     6459     2860     5578    12083    10933     4059 
    -333    -4643   -11303   -12292    -6870    -6395   -11126    -8761 
    2040     9780    10375    11211    15190    16625    13555    10281 
    8709     7254     6066     6404     7150     7542     9573    13049 
   15148    16424    18304    17825    14897    16512    23144    23935 
   14789     5365     2188     2181     4914    11446    14614    10744 
    8632    12308    13919     9867     6418     6919     6472     3383 
    2690     3599     -798    -9801   -15143   -12700    -5596     1049 
    3988     2662    -1009    -4160    -5117    -3302      416     3021 
    3754     5560     8520     8774     5722     4068     6320     7910 
    4529     -125     -656     -651    -7603   -17331   -16203    -3048 
    6508     4636     1197     3107     5602     5892     8328    15210 
   20378    17122     9445     7678    16055    28591    34617    29482 
   20023    16359    19685    23798    27752    35843    44605    44751 
   36626    30415    31613    35456    35846    33364    29373    20030 
    8318     7270    16491    19658    13540     9550     9449     7405 
    6072     9248    10300     3964    -2271     -219     8802    20998 
   32238    35930    32044    27468    23030    16685    13373    15411 
   15646    11650    10266    12068    11136    10482    16912    24371 
   21482    12237    10692    16737    17983    14761    19697    32624 
   40556    40855    40383    39013    33842    28213    25831    26034 
   27016    26498    21858    15698    14203    16543    16798    13218 
    5704    -4482    -8328      261    10343     9905     6164    10426 
   16073    10845    -1011    -6500    -4422    -2629    -2460      266 
    4510     5914     4876     4504     5825     9951    17956    25168 
   24758    19910    19914    24054    25511    26258    30878    34947 
   35144    37680    43481    43390    36572    31080    26335    16865 
    6800     5202    12133    18083    16549    10074     3882      405 
   -2033    -7252   -15153   -21135   -22858   -22526   -21133   -16285 
  -11181   -15741   -29709   -38383   -32138   -18954   -13473   -17708 
  -20014   -14639    -9090    -8856    -9924    -9302    -9012    -9553 
  -10788   -13064   -11869    -3516     5918     8829     7312     8333 
   12306    13506     9421     4320     5079    12851    19816    19317 
   14366    11903    12430     9367     2343     1811    10437    16114 
   13235    10741    13189    14785    13944    14833    17429    18679 
   17457    14234    10879    10209    13886    20725    26953    29789 
   30599    32211    34330    35028    35206    36127    34264    26403 
   17121    12074    10080     9007     8836     7861     6680     9672 
   15172    15345    10297     7268     5669     2124     2200     9147 
   15372    15609    15384    20355    25667    23343    13703     3508 
      78     6058    14746    17609    16330    16400    13857     4723 
   -1854     2036     9555    11662     9024     7879    12425    21080 
   27172    26195    22727    22712    23224    19873    15675    14809 
   15963    16436    16753    18610    22798    28525    32974    36119 
   41491    46476    44605    39868    41200    46763    50075    52450 
   56290    56333    48989    41200    39949    42483    43225    41183 
   38272    35052    30651    28046    32725    41918    44976    38500 
   30342    26820    26239    25258    24717    26836    29443    29077 
   28046    30654    34966    35737    32694    30261    32271    39081 
   46740    50529    50775    51855    55409    59298    63517    69345 
   73261    71317    65345    56882    44497    32641    28427    27143 
   18796     7141     4782    12051    15141     8312     3817     8919 
   12108     6432     2392     6044     8864     6066     4144     6001 
    5502     -285    -8384   -17435   -24917   -25303   -17814    -7189 
      53    -2181   -12344   -21804   -27726   -33368   -36033   -31413 
  -26795   -30536   -36104   -35138   -31030   -27431   -22150   -16657 
  -16668   -22636   -29216   -32960   -33356   -31877   -32490   -34734 
  -33482   -30419   -32240   -37881   -40268   -39442   -41075   -41916 
  -34719   -25894   -26254   -31696   -33232   -33384   -37063   -38874 
  -31388   -18519   -11343   -13881   -20597   -25478   -26896   -25014 
  -20773   -18867   -23638   -29994   -30308   -28363   -32145   -38913 
  -39703   -34002   -30363   -32091   -33798   -33409   -32825   -31382 
  -30172   -31521   -31233   -25470   -21524   -24572   -21769    -3983 
   11001     6894    -3548    -6447   -10441   -22693   -32983   -34921 
  -35930   -38077   -34634   -28328   -27636   -30151   -28986   -23912 
  -18438   -16281   -18893   -22366   -21796   -20170   -24792   -33090 
  -36181   -34661   -33973   -32000   -25313   -18832   -18680   -22311 
  -23788   -22306   -20585   -19108   -15339    -9096    -3637       38 
    3901     9151    15017    19632    22306    23579    22625    20171 
   21003    25913    28261    24842    22473    29149    41349    47412 
   45362    43836    45775    46220    41006    30835    20986    15014 
   11451     8970     7876     7091     4223       32     -609     2571 
    3690     1099    -1470    -2062    -1467      -49     1162    -1696 
   -8611   -12577   -10994    -8873    -7944    -4703      756     3728 
    3334     2767     3332     6841    14741    20952    18897    13842 
   15138    20760    22888    21907    22427    25387    29483    30938 
   25464    15269     7655     5874     6982     9755    16584    24101 
   24012    16678    11802    15254    24087    33148    39657    41914 
   39408    33601    26572    21503    21416    23167    19798    13934 
   16212    25338    29139    25953    23802    24784    26082    28131 
   32839    38298    40504    37174    28485    20437    21934    30501 
   33755    29544    27315    29905    30330    24658    17262    12921 
   10270     6287     2923     5904    15168    20318    14701     4668 
   -3380    -8478    -7594     -383     4271     -527    -9057   -13133 
  -12875    -9761    -3508     1484      694    -3701    -7104    -7257 
   -6008    -7297   -10197   -10673   -11009   -15419   -17937   -10576 
    -418      261    -5290    -6747    -5148    -5195    -3688      471 
    2559     4717    12525    20941    20970    14224     8113     2421 
   -7136   -17180   -21717   -22495   -23704   -24855   -25175   -26165 
  -27004   -25086   -22717   -26613   -37096   -43758   -38309   -25746 
  -16198   -11693    -7713    -4968   -10025   -21872   -29363   -26670 
  -22018   -25576   -33711   -34282   -25770   -19189   -20539   -22264 
  -16294    -6328      371     3478     5187     6023     7854    12383 
   17647    21841    26082    28308    23265    13817    10569    16465 
   22623    21499    15386    11141    13156    19237    21866    19103 
   17843    21837    26701    27648    25765    25909    29861    35486 
   40582    43562    45254    47864    49059    46333    43801    43709 
   40857    33879    28894    25338    14448    -1240    -7521    -3727 
   -4006   -10933   -12085    -3455     3228      375    -2869     2977 
   11966    13182     7290     6755    18437    30683    30330    23092 
   22297    29874    38122    42949    46315    44741    32039    15539 
    8277    10800    15732    17310    14182    11339    13233    18788 
   25287    28398    25206    19924    19665    25659    30410    28484 
   24595    21761    16925    10988     8131    10319    15328    17693 
   17679    22000    30998    37240    36725    33243    31453    30382 
   28413    27277    27532    31206    41920    54470    61632    69111 
   82585    90433    81782    67391    59739    51324    34324    20184 
   20342    26339    26296    23687    24847    26940    27417    27962 
   27534    24305    22593    26789    30998    29031    28884    39612 
   52781    54511    47827    46857    53061    53931    44482    33503 
   29611    32331    35740    38172    42454    45370    41562    35011 
   32063    31444    29598    27738    27890    26965    21486    14504 
   12572    17679    23708    24572    23809    27644    34238    36896 
   32876    26496    23920    26453    30122    30161    26805    22553 
   14165    -1429   -18083   -26507   -24848   -19920   -16686   -12319 
   -6855    -7264   -13729   -15827    -9346    -4133    -7532   -12765 
  -11323    -5102      371     4826     8152     5494    -4524   -14071 
  -16408   -17015   -24113   -32659   -31427   -20704   -12285   -13960 
  -19850   -22461   -26120   -34108   -36838   -27977   -16289   -11462 
  -11693   -10642    -6925    -3977    -4749    -7692    -8893    -6095 
     343     6410     8023     6908     5090     -364    -9002   -13018 
   -7845      -41     1703    -1262    -3059    -2842      257     9413 
   21876    28895    26338    20715    20015    22748    23843    23082 
   23673    28975    36298    38049    35638    38319    46566    51173 
   48159    45066    48012    48769    37563    23508    23094    33431 
   37740    30770    20818    14194    10837    10077    11691    13120 
   10951     4649    -2273    -5891    -6991    -8312   -10608   -15759 
  -24098   -28781   -24008   -14577    -8629    -6219    -2651     1072 
     465    -3254    -5054    -3260     -183     2699     7423    13974 
   18676    21825    25818    29346    31592    32348    30220    28633 
   33059    40910    45395    46068    46854    47087    42348    33591 
   27578    28241    34341    43092    51478    55942    52672    41506 
   29054    21460    17358    14718    16258    21171    22806    19147 
   16731    23310    36606    43376    37474    27613    21668    18540 
   14830    10921    10962    16507    22789    23312    16885    10086 
   10013    14080    12599     3513    -3646    -3266    -2609    -7646 
  -10950    -5085     3759     7809     9186    11516    12442     8614 
    2959     1015     2175     4199     9188    16764    22598    24867 
   23480    17929    10751     8143    12825    18875    18482    10952 
    2164    -1642      -16     1318    -1916    -7900   -12948   -15799 
  -15406    -8992     1159     5654     1394    -4782    -8941   -11961 
  -13032   -10833    -5960      -52     5452     8455     6898     4082 
    4629     4892     1553      510     4672     7411     3219    -4741 
   -9528   -10918   -13914   -18517   -22122   -23620   -20350   -13491 
  -10097   -11219   -10869    -9376   -14267   -24755   -27352   -16058 
   -4381    -3647    -6090    -2453     3018     2372    -5917   -16777 
  -23505   -24898   -24895   -25784   -26106   -23378   -17449   -11740 
   -9334    -9319    -9582    -9745    -9147    -5683      868     5256 
    2020    -4095    -3324     4314    11066    13701    15471    17989 
   17697    14648    15836    23151    27563    21049     9597     6980 
   15367    23561    23421    16404     9064     7379    11734    19737 
   30143    39371    43075    41020    34120    24634    19271    21752 
   27856    33025    36539    37822    35040    29399    27566    33763 
   43774    52583    59329    61474    54794    43161    37464    39864 
   42689    43198    42673    38615    32493    31911    37526    42712 
   44746    43537    37906    31091    29936    35092    39624    40204 
   42299    49190    54451    51125    41514    33183    28098    22144 
   15891    15528    21359    25714    23850    19959    19550    22121 
   26544    34048    41891    45794    46348    44293    38190    30314 
   24450    19817    15824    15233    17229    18842    22648    30181 
   34776    33051    32262    36088    37589    34139    33139    38515 
   45341    49370    51932    53148    49371    41996    38064    38975 
   39759    37593    33161    28725    26900    26840    24357    18893 
   15123    15226    17181    21304    28267    33368    31503    24158 
   17736    15808    15747    15466    17243    22368    29001    34457 
   36018    33215    30472    32425    34769    29060    19521    18596 
   25006    26629    21510    18259    21149    25524    25829    23196 
   21769    22029    22385    21195    17232    12002     7732     5389 
    5848     7750     7982     6394     5660     6222     4136    -1756 
   -5438    -4886    -6733   -12718   -15588   -10541      -21     8983 
    8760      736    -2812     2485     5415     -273    -6650    -8623 
  -10347   -13990   -17189   -19299   -22069   -25932   -28779   -29206 
  -28893   -29953   -32293   -32795   -28247   -20778   -12843    -2189 
    8905    13222    11122     9429    10827    12461    12192    12342 
   15105    18067    17525    12161     4604       27     -773    -2556 
   -7841   -13742   -16795   -16917   -15037    -9649      494    12801 
   22559    26651    26225    25850    29242    35685    39786    37624 
   33342    33713    38388    42390    44569    46838    48396    46748 
   42422    38520    36245    33120    26621    18468    13323    12605 
   11643     7331     4141     4316     1991    -4015    -5043     1109 
    3247    -3592    -9329    -8473    -6287    -4460     -733     2806 
    2115    -1916    -4026    -1958     2327     6431     7432     4413 
    1019      813     2866     2900     -481    -2845     -986     3505 
   10120    21084    34027    40199    37919    37056    40922    41308 
   36171    33051    34362    34327    30553    26640    24556    24086 
   24000    20662    14178    10603    12485    16378    19827    22192 
   21358    17381    15334    17828    20449    19154    16151    14782 
