Origin Time       2011/03/11 14:46:00
Lat.              38.103
Long.             142.860
Depth. (km)       24
Mag.              9.0
Station Code      YMT011
Station Lat.      38.1484
Station Long.     140.2671
Station Height(m) 180
Record Time       2011/03/11 14:47:02
Sampling Freq(Hz) 100Hz
Duration Time(s)  300
Dir.              N-S
Scale Factor      3920(gal)/6182761
Max. Acc. (gal)   133.508
Last Correction   2011/03/11 14:46:47
Memo.             
[...]
   -9263   -13063   -23234   -37658   -52485   -62002   -60762   -46760 
  -23509     2002    23472    37059    42209    40219    33888    30868 
   37739    51585    66136    77701    82472    77608    62760    39765 
   14694    -6547   -23869   -37540   -45305   -48542   -51474   -54791 
  -56817   -57517   -58272   -60416   -62703   -60270   -49734   -33260 
  -15807    -1419     8681    16789    26511    39766    55480    70889 
   83738    91902    95390    98172   101373   100363    91626    76301 
   58810    44254    35399    31742    30961    31223    30709    26715 
   19038    11155     5885     3633     5026     9484    12882    13845 
   16077    19460    20049    20343    27822    44056    63099    78369 
   88154    95480   102695   109264   114106   116513   116829   114856 
  108849   100992    95651    89600    76421    58080    41148    28109 
   18070     9378      979    -6377   -11695   -15993   -21833   -29744 
  -37570   -45318   -55256   -66933   -77434   -84097   -85413   -81808 
  -75495   -70049   -68229   -69680   -73527   -79721   -86708   -91775 
  -92578   -87859   -77336   -60588   -38636   -15700     3408    15668 
   20376    20418    21035    25354    33394    45255    61442    80108 
   96953   108140   113777   117760   122079   125075   126605   128610 
  131618   134711   135993   133277   125258   110878    90609    67935 
   48431    38096    38419    45935    59148    77359    95677   108918 
  115292   115734   113279   110259   106594   102872   101477   103190 
  105352   103836    97165    88802    83540    82642    83273    82353 
   80496    79207    76814    69440    54400    34893    16637    -1049 
  -21165   -41359   -56698   -63133   -58000   -41739   -20195    -2096 
    8388    12893    14659    16041    16413    14354    11666    12172 
   18321    27981    36321    40898    41175    38494    36927    39695 
   47712    60390    75245    88343    96395    99966   102643   105767 
  108238   109543   109152   106930   103783   100647    99313    99585 
   97505    91606    83958    76160    70053    66448    61902    53885 
   46832    43764    39198    29811    19177     8218    -5176   -19291 
  -29545   -32606   -28598   -21357   -14792   -10488   -10065   -14748 
  -22942   -31949   -39105   -41734   -38583   -30431   -20802   -14488 
  -13851   -18340   -25693   -33297   -39338   -42001   -39238   -30476 
  -17940    -4611     9660    26672    44963    60564    70786    75662 
   77791    79228    79104    75716    68471    58640    49160    42757 
   39971    38885    37672    35258    31502    30188    33591    36307 
   33636    25901    14343     3280    -2070    -1810     1391     5178 
    6815     5610     3346     1155     -251       82     1242     1219 
     460     1965     7240    14172    19557    22795    26611    32846 
   38687    40153    38752    40784    48833    58528    65964    73052 
   83000    94845   103551   104391    97937    88233    76360    61478 
   47517    40921    42938    50838    61105    69535    74339    75992 
   74103    68551    61562    56983    56597    58696    61506    64945 
   69090    72164    70019    60265    46173    31562    16295     1311 
   -9761   -14155   -10285     -569     7311     8383     4212    -2120 
   -8535   -12974   -13263    -8104     1392    11335    17579    18693 
   15477     8935      555    -6781   -10092    -8042     -706    10441 
   22002    30788    36065    38077    35669    29232    24342    26756 
   37195    52512    67483    78112    83056    80730    70840    58011 
   49437    48556    52306    56517    59863    60442    56956    51562 
   45680    41003    41606    47187    53541    59469    65245    70775 
   77260    84771    91509    97548   104408   111313   115819   117399 
  116567   112269   104072    92835    78586    62272    45453    27398 
    7872   -10561   -25614   -36809   -44402   -49589   -53934   -56805 
  -55912   -50780   -43167   -34239   -23011    -7833    12225    36032 
   58942    77530    93387   106942   114106   112136   103221    90163 
   72459    51163    32311    18337     4139   -12695   -29367   -44681 
  -57027   -63653   -65774   -64974   -59311   -48693   -37323   -28456 
  -21631   -16203   -13035   -11374    -8460    -1655    10041    24587 
   39718    54175    65711    73977    79636    81781    81981    82433 
   81832    78819    73851    67019    57225    44458    30270    15834 
    4025    -1402     -923     2355     5797     6732     3555    -3425 
  -13320   -25593   -40011   -55020   -67107   -73981   -76187   -74607 
  -69735   -63128   -56473   -49596   -41960   -35090   -29834   -23857 
  -14944    -2712    12758    30664    50222    71658    93759   112150 
  122843   126267   124953   121125   118703   119540   120423   120926 
  123607   126466   125547   118163   103054    83777    67795    61014 
   63018    68849    75868    82205    83802    79528    72455    66091 
   62627    61888    61285    58022    51123    41670    32098    24077 
   16853    10506     7952    10680    17771    28353    40215    50649 
   59306    65304    66959    66344    66228    65960    65345    66033 
   68884    73720    79987    86046    89046    88667    87156    84258 
   79699    76714    76474    75276    70580    64008    56840    48744 
   40557    32653    24266    17861    17632    23587    33870    47155 
   58588    62458    58355    49110    36915    23907    13868     9239 
    7550     6410     6828     8418     8268     4971     1030      -84 
    2019     6606    13925    23087    31020    34894    34677    31142 
   24747    18623    16216    16611    17007    16485    15305    13787 
   12558    12507    14327    17492    20322    22197    23806    25329 
   25864    24485    21755    18959    16450    13937    11272     9262 
    8538     7489     4055    -1597    -7826   -13836   -19683   -24975 
  -29256   -31438   -29937   -24871   -17802   -10703    -5403    -2745 
   -2759    -4656    -6673    -6290    -1585     6421    15349    24756 
   34741    44355    52352    57158    58923    60752    63665    64357 
   60747    54919    50062    48079    48068    46045    40403    34029 
   27839    20014    10249     -352    -8906   -12020    -9243    -1767 
    8787    19862    29476    36832    41265    41843    38857    34522 
   31622    33443    41801    54788    70102    85291    96819   105113 
  112631   117539   117523   113883   107971    98767    84433    65602 
   45920    26840     7073   -12190   -28732   -41846   -49883   -51266 
  -47196   -39840   -29416   -15664     -932    12509    24515    33833 
   39500    43560    47999    53415    59662    65765    72746    83781 
   99493   116091   128778   137008   142908   145353   142492   135354 
  125128   113438   104063    99061    96094    92601    87769    79910 
   67868    52863    36651    21488    11148     8436    12770    22698 
   37088    52648    64303    67492    60621    46342    28767    11698 
   -1144    -8293   -10731    -9449    -6712    -7088   -12968   -21821 
  -30298   -36752   -39296   -37067   -31113   -21344    -7946     5078 
   12463    11730     4195    -5784   -14006   -19097   -21284   -20541 
  -16811   -11050    -4730     1169     6386    11869    17901    22196 
   23212    22132    20413    18521    15880    11680     6917     3625 
    2161     1938     3032     4806     5163     2533    -2721    -9042 
  -13962   -14924   -11850    -6893    -1686     4264    12455    20896 
   24331    21719    17955    17376    20529    27145    38068    52973 
   69396    84710    96179   101582   101503    96863    86906    73422 
   61612    54668    51825    51213    51165    50390    48394    44375 
   37565    29931    24514    20823    16575    11411     4882    -4065 
  -14113   -22627   -28107   -29682   -27035   -20390    -8932     7396 
   24429    37334    45609    51204    55766    60079    64124    68489 
   74990    85421    99520   114652   128193   138926   145569   145878 
  139748   130434   120895   112946   107657   103063    94993    80094 
   56865    27175    -3522   -30395   -52991   -73133   -89426   -97546 
  -96478   -89053   -77752   -64245   -50454   -38825   -30438   -22567 
  -11645     3671    22536    42372    62289    82592   100474   113395 
  122266   127214   127471   125336   123372   120803   116637   111390 
  104991    97329    89184    81010    73817    69511    67431    64255 
   59281    55957    56734    60277    64770    69684    74252    77744 
   80341    82311    83857    85413    86436    84655    78166    68017 
   58039    52658    52999    54948    54135    49881    43297    36179 
   29915    23635    16540    10163     6282     5768     8495    12375 
   14561    13452     9878     6186     4137     5318    10542    19257 
   30306    39857    43954    43261    39094    31613    23666    18958 
   18238    19555    20380    18637    12212     1436    -9398   -17148 
  -22064   -25002   -26979   -28425   -28244   -26572   -25419   -25561 
  -26458   -28306   -31589   -36510   -43044   -49825   -55076   -57982 
  -58141   -57108   -57845   -60215   -61202   -59060   -53942   -45257 
  -31417   -13309     5016    20868    34694    46627    55113    58468 
   57095    55356    57060    60039    60415    57723    53198    48081 
   43728    40316    37447    36900    40460    46205    51055    53669 
   54463    55475    57650    60507    66148    77076    91869   108140 
  123840   135560   141909   144472   144273   141726   138110   136237 
  137979   141678   147352   157715   171140   182805   190732   195530 
  196118   189985   178286   163193   143474   120190    98085    79901 
   65350    52207    38208    23257     7615   -10313   -32778   -59804 
  -88293  -113734  -131152  -137549  -134858  -127018  -116910  -107526 
 -101508  -100178  -103999  -112372  -122717  -129588  -127374  -114456 
  -93283   -68786   -45353   -24019    -5190     8622    16633    23101 
   32666    45855    61263    77211    91513   102297   107298   104018 
   93272    79507    67006    59048    57333    59117    59799    58446 
   56425    53120    47209    39406    31040    23442    18377    15288 
   11547     6948     3024     -924    -5851    -9265    -7713       17 
   13616    31236    48886    62642    71635    77518    81153    80973 
   74966    64325    52709    41475    29381    15570      759   -11724 
  -18253   -20377   -22563   -25814   -29486   -34452   -40490   -45671 
  -47539   -42355   -27951    -7387    13394    29664    39611    44749 
   48433    51968    53583    52668    51001    49375    47354    43880 
   37483    29091    20631    11977     4191      771     3685    11542 
   21259    31141    41314    51782    62453    72895    82179    90265 
   97738   104965   112326   121272   133561   147263   158860   168672 
  177326   183283   186982   189011   185257   171058   149210   127959 
  111239    96341    80040    61570    41332    21031     2711   -14438 
  -32887   -52556   -71169   -86751   -97265  -101791  -103298  -105712 
 -109162  -111328  -111415  -111025  -111772  -113794  -116906  -120708 
 -124678  -128825  -132428  -134071  -133076  -129545  -124082  -117174 
 -108826   -99013   -87826   -76141   -65872   -57534   -49301   -39709 
  -29048   -18570    -9435    -1668     6642    18038    32340    48049 
   66854    90949   118580   145682   168435   184386   193287   196727 
  196871   196202   197462   201329   205757   208723   209944   210417 
  209997   207029   202126   197454   192946   188534   185912   186234 
  189736   195422   201358   206510   209340   207220   199292   186888 
  171361   153436   134266   115218    97158    80641    65660    51848 
   38827    25862    12022    -3710   -22105   -42181   -61556   -78797 
  -93645  -105984  -115484  -121899  -126460  -130927  -134993  -137103 
 -136113  -131188  -121217  -105112   -83944   -61273   -39642   -18601 
    1976    19593    32382    40622    45320    48725    53442    59590 
   65352    70369    75860    82057    87666    90628    89233    82563 
   69736    50753    28473     7201   -11464   -28203   -42710   -54014 
  -60830   -61441   -55816   -46887   -38795   -33012   -27949   -23413 
  -21028   -19779   -16279    -9610     -763    10995    26019    42043 
   56079    65613    69079    66726    61090    55750    52429    51164 
   52519    56499    60621    61716    58979    52500    41399    27533 
   15943     9475     8320    12873    23388    38005    51138    56206 
   50652    36205    17919     3172    -1880     5823    26025    54843 
   85722   111878   130182   141687   147271   146478   140865   134728 
  131654   131734   132445   130763   124699   114622   102546    89727 
   76881    66177    59353    54448    48175    39843    29987    17774 
    1899   -17374   -37640   -55644   -69370   -78591   -84052   -86440 
  -85048   -78884   -69594   -60711   -53960   -47504   -38598   -26712 
  -11479     8345    30909    51592    66963    74982    75426    70690 
   63205    54378    45733    38914    35254    33741    30500    23271 
   13562     4370    -1685    -3083     1596    13152    28338    40928 
   47582    49712    48917    43651    32529    18216     5528    -3007 
   -7859   -10242   -11449   -13148   -17089   -24993   -37481   -52383 
  -66144   -77186   -85738   -92039   -95577   -94922   -90963   -87464 
  -85200   -81392   -74016   -62087   -44831   -21949     5695    35345 
   63884    89380   110508   126585   138628   148718   158173   168301 
  181505   197838   213308   224869   232715   237949   241743   243407 
  239957   230486   217430   203964   191746   180275   170013   162569 
  156362   147739   134935   118367    99879    81083    61579    41266 
   22551     7713    -3495   -12659   -20377   -26142   -30802   -36164 
  -41807   -46342   -49912   -52350   -52694   -51602   -50425   -48068 
  -41837   -30633   -15929     -743    12569    22697    28180    28680 
   24964    16386     2812   -12331   -25942   -38513   -49455   -55807 
  -58078   -60345   -64366   -68773   -72425   -74400   -73108   -68417 
  -61816   -53749   -43591   -31380   -17129     -138    19040    38723 
   58554    78429    96611   111468   122226   127895   127671   121184 
  107990    88583    65517    41785    19491      980   -11864   -19159 
  -21548   -19510   -14579    -9611    -8741   -15524   -28938   -42932 
  -51121   -51174   -44331   -31857   -14996     2839    17277    25476 
   28142    29241    32444    38985    48298    59887    73876    89233 
  103978   117021   127782   134906   137531   137336   136600   136504 
  138394   141744   143202   141401   138010   134294   129966   123180 
  112588   100071    88035    76605    65803    56204    46433    33714 
   17822     1919   -11572   -23431   -34507   -43904   -51963   -59603 
  -64956   -65431   -60498   -50993   -39025   -27952   -19916   -13951 
   -8212    -2362     3300     8377    13100    19562    28959    38760 
   45127    46630    44132    37725    26969    13203    -2947   -23020 
  -46101   -67345   -82487   -90089   -90025   -81885   -64267   -36628 
   -2460    31674    60915    84021   101355   114135   124636   134765 
  145363   156799   168523   178472   184461   185821   182312   173508 
  161473   150325   142089   135362   126834   115362   103497    91942 
   78259    61001    40458    19255     1175   -12924   -24441   -34747 
  -45572   -58367   -73153   -88305  -101561  -112038  -120177  -125493 
 -125821  -119615  -107379   -90683   -72673   -57161   -44528   -31815 
  -16726      380    17483    32952    45949    56469    65594    73609 
   78820    80256    79871    79715    78949    76450    72992    68374 
   60998    50532    38242    27233    21462    22660    29606    40008 
   52827    66954    78855    85911    88931    89810    90175    91256 
   94035    99706   108213   117523   125885   132333   135865   136252 
  133359   126547   115780   101935    87636    75933    67374    61302 
   56606    51353    45276    39200    32741    25741    19420    15223 
   13803    15114    18539    22167    23628    22380    19525    16552 
   15645    18323    23461    29138    34716    39308    40394    35332 
   22928     4348   -16338   -34978   -50135   -61410   -68361   -71028 
  -69513   -64420   -57423   -51012   -47368   -46605   -46437   -42992 
  -33601   -20496    -8658     -136     6840    14145    20706    23980 
   23484    21428    21140    25361    34682    47169    59650    69803 
   77066    80950    81025    79214    77519    74812    70254    65897 
   63027    59930    54129    44225    30480    15417     2860    -5071 
   -9471   -11783   -10758    -4376     6390    18271    28681    35910 
   39615    41262    41509    39832    36006    29396    19733     8429 
   -2868   -13974   -25710   -37233   -45702   -49806   -50774   -50297 
  -49025   -45561   -38568   -30724   -26031   -24154   -21352   -14441 
   -3145     9970    22921    35848    48766    60502    69445    75058 
   79340    85144    93015   101330   108872   115633   121014   123739 
  124433   125109   125906   125621   124304   121940   117171   110219 
  102932    95327    86853    79161    74940    75354    78704    82775 
   86416    87240    83866    78911    74901    72475    73027    77973 
   86663    96867   106446   113839   117829   118387   116304   111235 
  103110    95123    91115    90571    89238    83917    74805    63764 
   52290    41260    31282    22989    16361    10142     3651    -1952 
   -5929    -9966   -15982   -23805   -32648   -41952   -50530   -57392 
  -62198   -64172   -62690   -59339   -56728   -54812   -52047   -49397 
  -48388   -47334   -43636   -36670   -27656   -19370   -13297    -7911 
   -2163     3610     9291    14396    18355    21308    23123    22705 
   19956    16789    14460    13299    14192    17756    24288    33301 
   42706    50318    55036    56569    54906    50999    47072    44130 
   42026    42085    44515    46628    47462    48573    50605    52818 
   54077    54160    54326    55419    56114    54960    53018    51930 
   51848    52763    54708    56744    57830    57179    53531    46466 
   36635    25110    14629     7558     3450     1220      414      628 
    1394     1979     1210    -2247    -7965   -13017   -14898   -13974 
  -12568   -12321   -13449   -16204   -20409   -23847   -24160   -21477 
  -16685    -9754    -1109     8263    16991    23028    25566    25518 
   23659    21165    20359    22683    27818    34792    41758    46555 
   48833    48734    45002    37907    31058    27881    28903    32953 
   39388    48814    61037    73199    81720    85468    85858    83670 
   78144    69960    61930    57229    58118    64347    73885    85544 
   98355   110398   120004   125734   126137   120691   110030    96515 
   83417    71947    61256    51101    42648    36097    29456    22016 
   15298     9907     6158     5374     8015    12638    16495    17251 
   14592     9910     5348     2369      307    -2712    -7502   -13037 
  -17806   -21392   -23857   -24323   -21348   -14348    -4257     7071 
   17694    25819    30218    30825    28212    22828    15908     9762 
    5784     4272     6212    11927    19613    27715    36064    44768 
   54101    64071    74004    83468    92260    99176   102716   103290 
  102889   102470   101599   100574   100735   102316   104170   106056 
