Origin Time       2011/03/11 14:46:00
Lat.              38.103
Long.             142.860
Depth. (km)       24
Mag.              9.0
Station Code      YMT011
Station Lat.      38.1484
Station Long.     140.2671
Station Height(m) 180
Record Time       2011/03/11 14:47:02
Sampling Freq(Hz) 100Hz
Duration Time(s)  300
Dir.              E-W
Scale Factor      3920(gal)/6182761
Max. Acc. (gal)   122.808
Last Correction   2011/03/11 14:46:47
Memo.             
[...]
   19821    12718     5298    -4254   -14370   -19128   -15470    -6841 
     489     2731      540    -4267   -10391   -15579   -17935   -16729 
  -11831    -5068       70     1088     -855    -2789    -5778   -12227 
  -20833   -31712   -46209   -59713   -66762   -68496   -67577   -65491 
  -64964   -65983   -65779   -64035   -60781   -54277   -43932   -31216 
  -18939   -10179    -5723    -4180    -5754   -10563   -13739    -9923 
    -244    10706    20877    29181    32639    30837    27462    24598 
   22577    23008    25339    25626    23324    21502    18272     9787 
     279    -2520     3279    14425    26817    38392    48685    57049 
   63691    67998    68064    65594    62612    55590    42423    26615 
   10139    -7672   -26409   -45765   -64536   -78765   -86274   -90626 
  -97188  -106233  -113217  -114326  -108531   -98849   -91382   -87385 
  -82987   -78808   -78410   -80898   -83853   -86866   -89820   -92814 
  -97241  -104839  -115080  -124364  -129400  -130036  -128031  -124830 
 -119624  -110044   -96847   -84688   -77002   -73013   -70098   -66524 
  -60715   -52038   -43056   -36994   -34423   -33894   -33252   -30321 
  -24041   -14508    -2044    12643    28394    43522    54929    59974 
   58889    53095    44294    34941    27290    23409    22984    22107 
   18483    12625     4666    -4039   -10242   -11700    -8468    -2182 
    6092    15158    20697    19204    13001     6164      584    -1382 
    2386     9260    15131    19749    22657    20781    14853     9574 
    6198     3675     3502     5460     5805     3550      -39    -4891 
   -8527    -7107       67    13116    31118    49569    65350    78197 
   87581    93284    94850    91477    84727    77491    70419    61285 
   48472    34463    22257    11321     1738    -5005   -10393   -14634 
  -15262   -15601   -21348   -30779   -40114   -50521   -62674   -74317 
  -85562   -97077  -105644  -107649  -103074   -94146   -82555   -70689 
  -62950   -61360   -63390   -65477   -65736   -63876   -60252   -56185 
  -53907   -55312   -60453   -66737   -71667   -74303   -72894   -66082 
  -56510   -49649   -48936   -53951   -63125   -74585   -85641   -95172 
 -102733  -105650  -102007   -93634   -85119   -81479   -83651   -87361 
  -87976   -82627   -70144   -52528   -32122    -9633    11384    26573 
   36510    42226    41857    35805    27855    20688    15436    13215 
   11142     3941    -7282   -18936   -31638   -44674   -54455   -59585 
  -61273   -60554   -56803   -51189   -48249   -48896   -49240   -46769 
  -39719   -26674   -11000      532     3723     -737   -10527   -23960 
  -36971   -44202   -44983   -41534   -33075   -19115    -5189     3141 
    5954     3680    -2980   -11589   -22646   -35664   -46235   -52675 
  -55688   -55211   -52729   -51132   -53018   -59736   -69471   -77431 
  -79338   -75061   -67426   -57859   -46451   -34774   -25575   -20696 
  -20195   -23171   -29156   -37470   -45927   -53068   -59670   -65361 
  -67897   -66652   -61934   -52190   -37277   -22009   -10806    -2847 
    2759     3443    -2100   -12297   -25674   -39505   -49199   -54140 
  -55821   -50268   -36083   -22316   -15989   -15458   -19263   -26057 
  -31301   -32863   -31799   -27208   -16306     -131    15993    29657 
   41190    48386    50085    49369    48882    49146    50592    52422 
   52856    51291    46632    36987    24729    16084    11857     6586 
   -1614   -10646   -20615   -31836   -42120   -49290   -51690   -47390 
  -37645   -26869   -16676    -7579    -2764    -3591    -8318   -13700 
  -14720   -10319    -5818    -4391    -3517     -354     5152    10676 
   13417    12954    10617     6287     -877    -9357   -16380   -20156 
  -19194   -14301   -10641   -11646   -14791   -17221   -18967   -19873 
  -19844   -20230   -20831   -19859   -17591   -15751   -15495   -17020 
  -18385   -17419   -15530   -15721   -19391   -27640   -40919   -56062 
  -68365   -77205   -84547   -89477   -90069   -86575   -80148   -72456 
  -65290   -59528   -54803   -50677   -49337   -52532   -56589   -55940 
  -48631   -36783   -24503   -15249    -9626    -6898    -8604   -16356 
  -27637   -37536   -41943   -39166   -31536   -24115   -20108   -19098 
  -20332   -24073   -27980   -27376   -20190    -7631     7084    19173 
   26290    30493    32732    31034    25268    17730    12538    13276 
   15392    10906      151   -12471   -24974   -35261   -42492   -48339 
  -53164   -56900   -60959   -64259   -63953   -61580   -59478   -55303 
  -48401   -41959   -35763   -28425   -24294   -28458   -38476   -47681 
  -53889   -58846   -61792   -60585   -56124   -50560   -45344   -41136 
  -36072   -28522   -20125   -12752    -8551    -9987   -14622   -18501 
  -23688   -33506   -47302   -62847   -76398   -84359   -87454   -88490 
  -88825   -87994   -83564   -74216   -62293   -49728   -36644   -23894 
  -11067     3374    18322    31080    40621    48222    54259    56084 
   53047    49204    46789    43623    39767    37005    32226    23258 
   14532     8315     1795    -6095   -15201   -25334   -32201   -32150 
  -29131   -27452   -23485   -12155     2562    11964    15441    18057 
   21446    26835    35463    43744    48425    51259    54197    57131 
   60135    61976    58819    49567    39098    32858    30588    27566 
   21868    14582     4088    -9897   -23147   -34367   -44352   -50118 
  -50994   -51747   -55011   -60388   -69075   -82286   -98101  -112894 
 -123857  -129196  -128088  -121731  -112367  -100588   -86775   -74626 
  -67759   -64966   -63750   -63471   -62924   -60385   -55379   -48174 
  -39520   -31013   -24375   -19504   -14300    -8499    -5478    -6632 
   -8213    -8494   -11557   -20344   -32724   -44228   -49800   -47297 
  -40331   -32929   -25886   -19941   -17238   -20372   -29168   -38847 
  -45478   -49677   -53431   -57973   -63548   -68366   -70401   -70523 
  -70490   -68977   -63222   -53767   -43463   -33222   -23317   -15266 
   -9661    -5590    -1859     2342     7226    12575    16905    17773 
   14938    10498     4826    -3626   -15141   -29253   -44700   -57882 
  -67745   -77652   -87364   -92556   -92215   -88186   -81373   -70982 
  -56228   -39948   -26455   -16205    -7478      545     8774    16669 
   20515    19104    16877    16921    17563    17761    18569    19174 
   19112    22110    30155    39902    47995    51573    46996    34194 
   16721    -2800   -22293   -38974   -51237   -58462   -59847   -55628 
  -48602   -42056   -37118   -35489   -37759   -38947   -36613   -34576 
  -33823   -33435   -36476   -45229   -57169   -68230   -74693   -73629 
  -63879   -45285   -21032      940    14641    19980    19929    18820 
   20491    25308    31049    35706    36694    30871    19009     4983 
   -9525   -23230   -33195   -38405   -39319   -34676   -22939    -5356 
   14005    31494    46571    59859    70486    77329    80076    78973 
   74897    68345    60159    52068    44707    38844    35352    32244 
   27083    19305     8555    -4412   -17032   -28100   -38354   -48063 
  -57052   -64394   -68816   -72561   -79661   -89788   -99059  -103917 
 -101841   -92487   -78172   -61998   -47202   -36610   -31093   -29633 
  -29956   -28824   -23967   -15847    -7098    -1404    -1363    -5666 
  -10884   -16430   -23987   -32543   -39463   -45387   -52192   -58482 
  -61581   -61333   -59501   -57175   -54030   -50200   -48588   -52991 
  -63620   -77377   -91233  -102751  -110322  -114556  -116187  -114819 
 -112391  -112053  -114126  -117560  -121345  -124306  -126222  -126512 
 -123005  -114962  -103292   -87524   -67757   -47250   -29366   -15222 
   -5850    -2866    -6143   -12928   -18853   -20308   -16689    -9108 
    1324    12046    20179    26367    32068    36348    39879    44563 
   48831    50155    48801    46092    42883    39696    36588    34043 
   32794    32794    34757    40387    49735    61379    74750    89530 
  103779   114697   120475   121873   120570   115467   106490    97219 
   87901    75474    60993    48850    41523    38810    40077    43727 
   44990    39792    29090    14713    -3722   -24960   -46083   -66498 
  -85965  -102677  -117620  -134262  -152512  -168643  -180270  -186402 
 -184447  -173276  -156439  -138865  -124770  -115811  -107929   -96687 
  -83283   -70237   -57097   -42871   -29543   -20681   -17200   -16898 
  -17629   -19017   -20789   -23152   -27299   -32236   -37016   -44054 
  -54101   -64149   -71801   -76185   -76366   -71907   -63653   -53156 
  -42475   -34192   -29584   -28306   -31204   -39392   -49094   -53239 
  -50060   -43559   -36952   -32863   -34497   -40908   -47382   -52066 
  -56796   -62012   -64418   -61127   -53617   -44882   -37144   -32867 
  -32618   -33607   -32351   -27020   -18018    -7216     3491    12277 
   16788    15843    10914     4869     1350     2640     5854     6474 
    4664     2512     -192    -3400    -4355      189    10312    23178 
   36587    49047    58378    63790    66209    66318    65110    64067 
   63800    63835    63613    62934    60588    53853    41089    24524 
    8229    -6074   -18562   -29229   -37249   -40990   -39312   -31963 
  -20780    -9780    -1140     4468     5440     1343    -6514   -16665 
  -28208   -40681   -52848   -63160   -71865   -80581   -89785   -98798 
 -107076  -113298  -116378  -117626  -117776  -115157  -109546  -102979 
  -95760   -85935   -73274   -60269   -49174   -40814   -34503   -28280 
  -21425   -15000   -10237    -8345    -9494   -13414   -21319   -33068 
  -44871   -52994   -57502   -60426   -62261   -63274   -63841   -61708 
  -55334   -47694   -42942   -43012   -48102   -58166   -72028   -85521 
  -92783   -89238   -73820   -49138   -19503    10478    36833    56458 
   66398    65270    54671    38360    20310     1562   -18498   -37331 
  -51819   -63388   -74893   -86528   -97356  -106280  -110879  -108040 
  -96017   -76185   -53798   -35363   -22825   -12706    -2389     7118 
   14752    21183    27876    36499    46826    54748    56210    52196 
   46132    38894    28482    14356     1390    -5329    -7364    -8664 
  -10971   -16048   -24286   -33132   -40848   -45245   -42278   -33143 
  -24627   -21138   -23400   -30197   -38307   -45494   -52066   -57810 
  -62116   -65428   -67108   -65842   -61424   -54555   -47849   -44679 
  -45881   -50345   -57573   -67114   -76354   -82783   -86461   -87325 
  -84295   -77581   -70082   -66281   -68275   -73993   -79919   -83835 
  -85746   -87294   -88311   -85404   -77541   -68122   -58924   -49505 
  -40999   -33894   -27503   -22387   -17160    -7493     7842    24601 
   39033    51631    62401    68921    70217    67260    61599    55696 
   52564    54233    60447    69260    79108    88745    96561   102689 
  108865   115512   122658   131263   140271   147100   152266   157720 
  162359   163686   160886   153627   140684   121587    96739    67686 
   38117    10637   -13782   -34361   -52261   -68199   -81155   -92680 
 -104797  -115175  -121486  -125542  -128819  -130011  -128630  -126343 
 -124019  -119990  -111599   -97030   -76120   -50086   -22222     1896 
   19800    33702    43644    46302    40571    29822    19582    13423 
   10262     6836     1742    -6278   -19524   -37252   -56261   -74959 
  -92917  -109819  -125803  -140907  -154489  -165134  -171500  -174632 
 -177383  -179584  -178516  -173812  -166681  -157762  -147200  -134954 
 -121683  -108634   -98048   -92516   -92999   -98782  -106716  -112563 
 -114234  -111009  -103293   -93467   -84186   -77482   -74770   -75605 
  -77115   -75503   -68745   -57844   -45539   -34365   -24824   -15527 
   -6308     1468     7598    12583    16626    20715    25991    32270 
   38189    42141    43015    39664    31440    21005    13486    11946 
   16132    24725    36785    51129    66137    80350    92001    99176 
  101088    99082    96170    94306    93503    93415    93010    90192 
   84046    76319    69848    66516    66322    67158    66215    62036 
   54532    43325    27939    10393    -5620   -19101   -31355   -42137 
  -50665   -58697   -68820   -80991   -93254  -105046  -116900  -128481 
 -140240  -153968  -169755  -184801  -195246  -199095  -197203  -190973 
 -180933  -167901  -153712  -140279  -128544  -118079  -107830   -98011 
  -88812   -77451   -61681   -44125   -28329   -14814    -3009     7501 
   17136    25781    32711    36649    36933    34861    33147    34838 
   41868    54032    69314    84579    96671   103788   106089   105213 
  103114   101411   102502   108372   116149   120474   119601   114458 
  106272    95837    82008    64849    49380    39683    32953    23748 
    9538    -8678   -28711   -49092   -67834   -82310   -91848   -97807 
 -101039  -100687   -96076   -87844   -76159   -60871   -42741   -23133 
   -4354    10787    21211    29018    36673    41963    40345    31643 
   19645     7217    -5972   -21387   -37711   -51416   -62800   -76777 
  -94495  -111500  -125531  -137264  -145982  -151558  -156250  -160824 
 -163443  -163838  -164482  -167206  -172301  -180375  -191193  -201498 
 -206830  -205000  -197152  -185403  -169573  -148283  -122760   -96696 
  -73358   -53403   -34889   -16429      554    13405    21794    28732 
   36548    44319    52003    61795    71914    76676    73190    61928 
   43971    21739     -734   -21638   -41481   -58413   -69158   -74397 
  -78567   -82861   -83568   -78661   -69057   -55159   -38124   -20742 
   -4934     8439    18838    27071    36163    48958    63620    76785 
   90047   105706   121815   136821   151509   164084   170505   169538 
  161712   146871   126815   105762    85105    61780    35786    12694 
   -5002   -19278   -29064   -32201   -32672   -36095   -41927   -47828 
  -53907   -58161   -57351   -51614   -42123   -28996   -14583    -4342 
   -1500    -3644    -6222    -6011    -1633     5103     9794     9428 
    3641    -7622   -23257   -38602   -48644   -51502   -48377   -43228 
  -39759   -38405   -38907   -43069   -51270   -60451   -68467   -73710 
  -72611   -64238   -51953   -40025   -31771   -28402   -29783   -34864 
  -41010   -46126   -50539   -54876   -57403   -55874   -50330   -42376 
  -34771   -29926   -26070   -20033   -12278    -4221     3530     9417 
   12405    11429     3420   -12995   -34647   -56835   -76425   -93291 
 -109340  -125300  -140908  -155415  -166449  -172080  -171987  -166034 
 -153313  -133577  -110262   -88550   -70989   -58355   -50885   -46233 
  -41761   -38045   -35698   -33638   -30828   -26464   -21342   -17569 
  -17103   -22398   -33180   -44001   -49421   -48400   -42907   -33827 
  -19566    -1212    15650    28147    37626    44064    46001    43370 
   39093    38708    44948    55201    66814    79113    90195    97574 
  100558   100015    96872    90402    79224    64107    48466    36850 
   31813    30763    28474    22902    14786     5037    -4614   -12992 
  -18080   -15084    -3851     9579    20980    27876    27128    18919 
    7351    -3295    -9041    -6497     4650    20458    33589    37850 
   32684    21144     6850    -5858   -13812   -17147   -17224   -15833 
  -16304   -20675   -26904   -32284   -38054   -46435   -55862   -63192 
  -66776   -66884   -64987   -62376   -61324   -64862   -72679   -81582 
  -89865   -97273  -103218  -107652  -111861  -117044  -123050  -129329 
 -134386  -135230  -130926  -123235  -113120  -101116   -89544   -79669 
  -69944   -61529   -58549   -61867   -70342   -82873   -95553  -104128 
 -108404  -110707  -111813  -109681  -101972   -89178   -74951   -62764 
  -53193   -44770   -35982   -26578   -16717    -6002     5977    19356 
   32448    40955    41559    34854    24092    12904     4539     2496 
    8911    22049    37868    52528    63469    70017    72287    69771 
   62098    51158    41044    34474    30951    29489    29607    28780 
   23123    11913    -2406   -18644   -36517   -54215   -69478   -80441 
  -86284   -88260   -88831   -90092   -91984   -92879   -92404   -89853 
  -82520   -69123   -51718   -33994   -19244    -9367    -4079    -1131 
    1502     5393    11864    20428    30324    41887    54109    64477 
   71157    73991    74596    74551    73466    69870    63094    53212 
   39301    20163    -1999   -21877   -37233   -50586   -62679   -70852 
  -74412   -74623   -72765   -71431   -71385   -69537   -64533   -59195 
  -56425   -56451   -57336   -57198   -56575   -56398   -55483   -52846 
  -48511   -42142   -33793   -25230   -19031   -15520   -12912   -10725 
   -9775   -10241   -11481   -12134   -11430   -11109   -13938   -20748 
  -30517   -41803   -51703   -56057   -53666   -47399   -41151   -37817 
  -37422   -38387   -41238   -46343   -51345   -53891   -52836   -49201 
  -46262   -44946   -43473   -41420   -39672   -39413   -41222   -42624 
  -39503   -31220   -22302   -18387   -20716   -25755   -29609   -30496 
  -29498   -29897   -32084   -31859   -26225   -16502    -5604     4145 
   11671    17394    21745    24236    24347    22576    20745    20066 
   20348    22231    26129    29708    30347    27445    21460    14221 
    9073     8123    10635    15202    21413    28125    33273    35918 
   35778    33257    30669    29682    29722    30237    30454    28272 
   22036    12000       20   -11829   -22223   -30083   -35354   -40297 
  -46222   -50855   -52794   -53938   -55444   -56329   -56551   -57835 
  -60366   -61627   -60348   -58237   -57311   -58710   -63435   -72121 
  -83799   -96061  -107248  -117197  -125939  -133648  -141471  -149743 
 -157113  -163791  -171340  -179142  -184666  -185187  -179137  -168194 
 -156594  -146501  -136771  -126487  -115330  -102696   -89611   -77985 
  -67413   -56590   -45812   -35349   -25526   -17846   -12901    -8949 
   -3226     5690    17288    30166    42714    53515    61020    64188 
   63585    60237    54867    49230    46298    47551    51534    55846 
   57947    55695    50317    45653    44304    47366    54410    62924 
   70832    77242    80814    80370    76091    69970    64844    61988 
   61513    63913    67729    69060    67002    64308    61931    59463 
   57713    56301    54020    51940    51396    51120    49499    46852 
   43134    36519    26504    14954     3250    -8707   -21253   -33167 
  -41561   -45964   -49403   -53231   -56214   -58167   -59687   -61466 
  -64881   -69843   -74811   -79603   -83845   -84098   -77205   -64838 
  -50528   -36196   -24973   -20512   -22869   -31021   -44251   -58042 
  -66728   -69833   -70267   -69781   -69308   -69628   -70464   -71908 
  -74834   -78602   -81277   -81561   -79601   -76870   -75416   -77008 
  -81559   -87146   -92474   -97153  -101202  -105034  -107357  -105873 
 -101414   -97349   -95362   -94474   -92945   -89640   -84120   -76277 
  -66521   -56365   -48172   -43725   -42931   -43936   -44476   -43484 
  -40977   -36279   -28035   -16276    -2948     9733    19893    25666 
   25754    20418    12191     4184    -1929    -4177     -243     9004 
   20693    33715    47109    58486    66318    70315    70621    68561 
   65846    63145    60445    57035    51490    42941    31812    19218 
    5808    -8361   -22541   -35234   -45977   -55183   -61835   -64870 
  -65754   -65497   -62944   -57862   -50924   -42763   -35651   -31337 
  -27893   -23743   -20801   -19489   -16436    -9054     1157    10594 
   17562    22737    28399    36900    46588    53760    57169    56476 
