Origin Time       2011/03/11 14:46:00
Lat.              38.103
Long.             142.860
Depth. (km)       24
Mag.              9.0
Station Code      YMT011
Station Lat.      38.1484
Station Long.     140.2671
Station Height(m) 180
Record Time       2011/03/11 14:47:02
Sampling Freq(Hz) 100Hz
Duration Time(s)  300
Dir.              U-D
Scale Factor      3920(gal)/6182761
Max. Acc. (gal)   54.001
Last Correction   2011/03/11 14:46:47
Memo.             
[...]
  -26455   -28869   -33972   -30854   -16189    -6419    -9759   -10004 
    1807     6684    -2108    -4876     -288      -41     -460    -1455 
   -5599    -7377   -12974   -28829   -38729   -34200   -29205   -24062 
  -13403    -9906   -12477    -8074    -2769    -3691    -8705   -16319 
  -22075   -24326   -27281   -30987   -29321   -18323    -5926     -678 
    5277    15978    20261    17102    13310    10424    11016    11384 
    6815     2783     -314    -3980    -3944    -4319   -11906   -23507 
  -28965   -24069   -22850   -34054   -41448   -36865   -34628   -42122 
  -51161   -53397   -48662   -42048   -35899   -31667   -31234   -27627 
  -15360    -3546     2062     8461    17763    22146    19743    17271 
   16884    20338    30342    36993    34045    30223    25243    15505 
   11290    15957    17597    11402     4291       21      257     4880 
     474   -17034   -25593   -20197   -23877   -39038   -44392   -37750 
  -36049   -37675   -30332   -23468   -21404    -9699     1984    -2395 
   -7920    -8775   -15361   -16895   -12148   -19985   -28957   -22681 
  -19953   -27967   -26946   -14628    -7590    -9636    -9188    -3923 
   -5863   -14136   -14906   -12259   -18328   -25907   -25395   -23481 
  -28310   -36627   -41268   -41938   -41156   -38290   -34293   -31472 
  -27413   -17100    -4910    -2601    -6756    -5001    -1636    -1015 
    4345     9056     8281    15104    26770    27865    23338    22948 
   26291    28208    21647    12407    12749    18074    16836     9848 
    5586     4124      670    -1165     2624    11383    17834    10322 
   -3617    -8900    -9537   -13513   -20792   -21406    -8399      789 
   -4839   -10379    -6966      888     4382    -2965   -12857   -15552 
  -20226   -30127   -27109   -17563   -24792   -33523   -30477   -33322 
  -39491   -41925   -47998   -44557   -30661   -30933   -38526   -34633 
  -29331   -31200   -31152   -23551   -14035    -7291     -537     7806 
   15705    19256    16527    13215    12165    10818     5740    -8621 
  -22825   -20742    -9304    -2425      998     7266    11166     5825 
    3016     6721     4176     -657    -1164    -1523      763     2571 
   -3371   -10732   -14851   -16821   -11542    -1679      261    -2371 
    2197     6480    -1731   -15317   -20998   -20171   -21695   -22952 
  -15033      -89    10683    13457    14092    11618     -561   -17034 
  -25999   -25248   -19711   -15388   -16507   -19116   -20255   -23842 
  -25094   -21030   -20665   -21189   -17690   -19680   -24662   -24096 
  -25965   -31618   -33610   -36955   -42242   -39452   -34123   -38651 
  -43074   -35409   -27929   -30467   -32234   -22040    -7814   -10999 
  -27294   -26811   -10428    -1270     -131     -644    -2671    -5819 
  -12962   -18673   -15154   -10215    -5622     2836     3790    -2498 
     804     9235     8061     2495     3981     9027     8218     5558 
   10744    17429    16176    12961    10514     8824    16349    25667 
   25955    28000    30891    20870     3490    -9289   -14056   -15638 
  -22304   -30516   -32986   -32505   -36275   -49008   -59034   -51645 
  -42435   -47245   -49380   -35294   -18220   -12933   -10601     1010 
   10377     8120     4492     8394    15828    16716    13745    13166 
    8252     4660     9208     7842     4386    10497    10853     3175 
    4286     5784    -5564   -14590    -9451    -4159    -8136   -13132 
  -14298   -15230   -17694   -15045     -674    15080    18521    15194 
   20086    35158    44434    36997    21247     9457     7832    13428 
   15213    11232    10178    12065    10972     8309     3995    -6162 
  -18415   -26216   -32016   -41586   -49945   -47862   -42345   -43306 
  -43797   -40894   -41105   -38701   -29815   -24050   -17915    -5043 
     792    -2225     1133     4775    -4658   -14278   -11810   -11388 
  -17895   -16252    -8178    -8364   -15212   -14977    -8192    -7690 
   -9814    -9725   -17460   -25700   -23358   -22650   -25756   -23784 
  -21728   -20724   -18400   -20969   -23729   -19675   -19229   -24681 
  -24169   -18397   -14604   -11284    -5058     2138     4103     1392 
    2471     5159      343    -8580   -11166    -6664    -6929   -14891 
  -15632    -6792    -2537    -5527    -4613     4849     8302    -3014 
  -13259   -14620   -15663   -18875   -25785   -36598   -41429   -36799 
  -31658   -29165   -26008   -22392   -18218   -14113   -13204   -14454 
  -15247   -15948   -18034   -21310   -25219   -30207   -29620   -19650 
  -13138   -13441    -6352     7252    13994    15700    20609    24219 
   20224    13430     7574     -990    -8515    -7851    -3536    -3679 
  -11298   -22357   -27645   -27586   -30520   -34280   -31372   -25246 
  -24080   -27001   -28488   -29002   -29297   -25489   -21187   -24087 
  -29667   -27739   -17292    -8537    -8664   -10994    -9689    -6001 
   -2100    -4483    -9698    -2530     8339     4021    -2110     3307 
    6685     5511    10114    16965    17411    11564     5366      224 
   -5631    -9236    -9306    -7696    -4933    -4619    -7592    -4041 
    5960     9287     9480    10241     3362     1325     9667     7382 
   -3955   -10121   -16361   -25495   -31574   -29806   -23559   -24192 
  -26096   -17548    -9722   -13575   -23520   -31482   -32742   -30772 
  -33017   -38796   -42675   -40364   -34786   -38176   -46590   -40591 
  -26471   -22551   -22496   -19157   -20616   -25118   -24134   -21156 
  -20958   -21525   -20884   -19114   -18093   -18319   -21112   -30634 
  -42524   -46533   -43644   -42862   -47385   -53204   -56909   -60727 
  -63951   -61946   -57566   -53678   -47587   -38837   -26725   -13453 
   -7003    -6624    -2993      100    -7633   -15008    -9575    -4095 
   -6637    -7236    -4550    -6385    -7128     4360    17837    21072 
   23333    24421    12251    -5990   -15734   -15420   -15849   -24131 
  -27285   -21018   -25773   -44453   -59602   -68049   -73476   -74857 
  -70995   -59377   -47120   -43552   -38565   -26416   -19372   -18967 
  -15628    -5750     6722    11638     8963    12115    16141     8077 
    2046     4874       85    -8930   -11467   -14707   -21354   -25194 
  -21783   -13929   -12717   -17437   -16820   -12180    -8495    -7413 
  -10059   -10873   -13274   -23360   -28283   -26093   -30946   -38910 
  -39477   -35703   -34002   -36332   -39116   -36459   -31909   -32752 
  -33225   -30413   -31846   -34596   -33137   -28552   -21876   -17524 
  -13748    -3493     5726     3971     -148     2718     4061      807 
    4071     9695     4930    -5942   -12082    -5258    10640    13423 
    4115     7677    11644    -8499   -32767   -42525   -50844   -57360 
  -50267   -40780   -43565   -51734   -52084   -43450   -35736   -33643 
  -30185   -25737   -25996   -22591   -14489   -15079   -18520   -16006 
  -21472   -35352   -35490   -20701   -13610   -17105   -11445      959 
     301    -9022   -14808   -18155   -18822   -24166   -36918   -34246 
  -18812   -21722   -35670   -37892   -33333   -24366   -10011    -5993 
  -12398   -11174    -7791   -10317    -4031     9497    14671    17473 
   23162    19645     5545    -6556   -12898   -19466   -26231   -29300 
  -32146   -35176   -32073   -24482   -19201   -18783   -20259   -14079 
    1526    11944    15227    24704    35012    34724    29755    28586 
   31799    33519    27030    14927     5918    -4483   -28333   -55328 
  -69415   -74273   -70912   -55347   -33434   -14862    -9375   -14169 
  -17336   -19991   -21449   -13305    -1642     4215     8884    19095 
   28699    18663   -12361   -36336   -43230   -47350   -46978   -35286 
  -18119    -4513    -3592   -13346   -20988   -22316   -22744   -29436 
  -42329   -47002   -34218   -16385    -7922    -8253    -9699   -10494 
  -12931   -12099    -5313      414     1698     -920    -3580     3325 
   16677    18176     8010     9932    28831    45483    50761    46369 
   38152    38708    48308    49010    31704     9185    -5087   -11938 
  -15609   -18786   -22937   -26076   -29999   -34478   -33197   -30874 
  -29908   -18390    -4705    -8832   -19437   -17831   -10893   -10852 
  -19692   -30542   -28889   -14137    -7224   -17574   -31013   -31905 
  -25841   -34779   -54737   -61470   -58158   -56754   -52711   -49254 
  -54346   -59033   -54403   -47673   -40297   -25932   -15603   -15789 
  -10900    -1525     3758    16166    32176    36013    36239    41751 
   47267    54212    61385    59500    48022    32896    23188    29780 
   47740    60222    57973    42591    25596    15166     8932     9333 
   16644    18182    11400     9061    10918     6000    -1334    -2754 
   -4986   -14358   -23867   -24160   -17740   -14674   -18145   -24508 
  -26181   -21081   -24915   -43599   -56549   -52184   -38662   -29533 
  -33753   -36592   -24300   -15735   -23732   -30362   -20336    -4712 
   -2376   -13136   -27768   -40742   -44402   -42249   -42943   -37271 
  -25815   -27504   -35903   -31882   -27414   -40297   -57300   -61298 
  -57108   -48143   -31148   -19778   -27598   -34852   -22822   -14593 
  -25977   -35587   -33942   -27434   -14311     -338     6170    11746 
   24377    39403    49824    58114    63226    60743    56847    54195 
   48645    46235    50071    45454    30862    24007    19159     4835 
   -5488    -9507   -13967   -10362     -214     4160    -2425   -15339 
  -17779   -11130   -16655   -25334   -22079   -19656   -18455   -16818 
  -26359   -35349   -37434   -46009   -51827   -46017   -42743   -51531 
  -67194   -75175   -69159   -59615   -56756   -65535   -79922   -84900 
  -82033   -79982   -74089   -67657   -72821   -80359   -75593   -67664 
  -64767   -55420   -35677   -22797   -24501   -21131    -3728    11398 
   17986    22277    26136    22187     2078   -16529   -16145   -12583 
   -7972    10014    24953    28273    32847    34250    28359    23470 
   19924    17512    16055    11062     2509    -4146    -1415     8953 
   16098    11951      137     2097    19155    19763     3011    -8038 
  -15967   -23854   -25419   -22412   -16285   -12809   -15330   -13788 
  -11527   -20476   -29796   -29529   -32441   -41698   -46244   -47300 
  -43916   -33600   -33498   -43311   -39831   -27323   -24718   -33757 
  -44190   -40618   -24517   -19603   -30834   -36331   -26552   -12649 
   -5844    -9215   -16227   -19772   -20600   -17797   -11995   -11171 
  -13000    -6038     6430    13558    17479    22598    25333    24162 
   23552    27808    33442    35015    34734    34734    33436    27289 
   14679     6103    10450    18532    15528     1259    -3808     6535 
    6802    -5942    -4759     9328    11320    -4328   -19414   -19685 
  -14891   -17622   -22490   -24395   -22273   -12735    -7432   -16275 
  -20795   -12443   -13613   -32554   -48624   -49970   -47966   -45614 
  -33799   -24769   -27937   -24672   -14946   -18310   -31307   -39262 
  -36568   -28840   -26882   -26391   -20025   -17718   -19351    -8591 
    6259     2246    -8099     3278    27497    33704    18634     7055 
    5901     -869   -13348   -20178   -22465   -24408   -26232   -24146 
  -15796   -13075   -21324   -27496   -30317   -34653   -30487   -18422 
  -15934   -21525   -19474   -15105   -17555   -12079     5952    14406 
    6994     -562     -734     2438     2586    -1833    -4959      460 
   11260    13537     6846     4092     6851    11469    16231    18734 
   23439    30460    32228    31980    34797    35608    31903    25879 
   21066    21994    23760    22496    25763    27224    16500     9583 
   14624    10534    -7585   -19860   -19171   -15346   -18356   -26667 
  -29118   -28711   -40232   -58588   -65214   -63061   -71715   -88529 
  -92781   -85975   -83564   -84635   -81212   -71695   -62413   -61249 
  -59541   -48250   -39815   -37459   -31790   -31434   -39652   -43005 
  -41070   -38563   -37371   -40101   -36780   -26147   -25416   -32814 
  -34638   -31224   -25202   -18555   -12458    -1120    15368    25589 
   22843    13283     2287    -9582   -16786   -18329   -20769   -24128 
  -22392   -11934       93     2820     1356     4081     7994    14009 
   18669    11043     1551     2094     1912    -1637    -4539   -12266 
  -21575   -27228   -28767   -18798    -2760     2534      113     -252 
    1674     6104     9611     8113     3904     2673     8121     7380 
   -7970   -15602    -6863    -1060    -1563     -698     6531    22321 
   31681    27329    22116    17280     9563     3747    -1338    -9066 
  -17559   -23613   -29063   -35523   -34102   -25272   -21604   -17673 
   -9535   -10091   -14450   -12090   -11759   -16095   -15078    -8171 
   -5529    -5176     4862    15340    15248    17520    23313    23174 
   28245    38640    33102    18096    15554    20132    21337    20990 
   19722    16389    11236     8744    12144    16551    18503    18633 
   16348    11562     3138    -8681   -15935   -16689   -22133   -32942 
  -36092   -29522   -25034   -30781   -38501   -37475   -35316   -36734 
  -29254   -15834   -17241   -33302   -45374   -45620   -34946   -21838 
  -18705   -20195   -17818   -18767   -29589   -43146   -43760   -32469 
  -24808   -18253    -7106    -2484    -6784    -4760     6972    11991 
    9054     9038     1898   -13820   -17085   -11233   -15194   -22086 
  -18982   -16981   -26839   -32793   -25271   -21389   -28549   -36164 
  -35905   -28214   -24323   -24798   -19398   -12907    -5511     8360 
   18862    25566    34490    36919    33226    35894    47587    60413 
   65620    67983    74806    74339    66934    67834    62535    43662 
   36628    37434    26174    15899    13920     9082     5421     5861 
    3850     2462      364    -7794   -16306   -25711   -41331   -53643 
  -55781   -60145   -69848   -70279   -67625   -76171   -80449   -71415 
  -65729   -62809   -51060   -40774   -39372   -36006   -28315   -21180 
  -15639   -11127    -3495      902    -7002   -14326   -12016    -7837 
   -1630     3968      115    -2621     6068    11884     6040     -319 
   -1377     1348     6983     6090    -3061    -4345     3373     6318 
    4632     6180    11227    13248    12738    19434    26905    20452 
   12008    18759    29620    30657    29370    31806    28399    16241 
    4225    -7918   -19832   -19985   -13991   -18617   -28527   -27199 
  -10073     7284     6231    -1108     6805    20010    18025     3629 
   -6463    -8121   -10392   -14870   -14422   -10273    -9519   -11656 
  -15402   -22462   -30655   -36955   -37925   -33456   -30073   -27979 
  -21734   -15385   -19163   -31932   -41320   -40467   -32822   -25465 
  -17807    -6968    -3380    -9902   -10055     1932    11130     5592 
   -1179     6327    10979     2772     1272     6213     5187     4730 
    7835    12868    21899    28285    26662    22873    23825    27862 
   27997    26191    26802    25162    21817    21852    23341    28793 
   41286    46850    38881    36439    46129    52396    52265    52585 
   50970    46579    44074    41236    33955    22264     5422   -11469 
  -21619   -32284   -48958   -60640   -60558   -52996   -44611   -46272 
  -57038   -60304   -52482   -43266   -42609   -54979   -62451   -51761 
  -46667   -57043   -56446   -40483   -29096   -24834   -20525   -12057 
   -1106    -2344   -16995   -18111     3153    14633     3136     1691 
   16500    18478    11831     8288    -1009    -6425    -4375   -11236 
  -20823   -25011   -28010   -21548    -8890    -3717     2411    13876 
   18683    15772    13365    17749    23575    21325    21658    29208 
   27656    20182    21404    25392    25215    27038    30115    27517 
   20902    11704     3020     4524    10102     3021   -10771   -13798 
  -10171   -12011   -18627   -24968   -22139   -14179   -23136   -34747 
  -22381   -15179   -29956   -35387   -34279   -47050   -57603   -58002 
  -61938   -67021   -68530   -73021   -74231   -64550   -55472   -51291 
  -44358   -37825   -33441   -26951   -23887   -26907   -24951   -11534 
     148    -3055    -6665     2547     9088     8512    13223    22207 
   34833    44141    35665    25157    28365    32581    32385    31214 
   31611    33455    27164    16561    12351     9257    10409    20266 
   24974    23180    25675    30147    32310    34696    38273    39458 
   35449    31317    30944    25169    11749     3419    -3812   -19891 
  -30336   -30741   -37173   -45831   -46523   -44275   -42121   -45770 
  -59633   -70189   -70673   -68406   -64639   -60163   -56123   -53530 
  -57267   -64083   -69447   -71926   -66483   -57718   -48553   -32439 
  -19439   -21923   -28421   -26720   -21608   -19241   -17685   -12472 
   -5451    -2860      151    10134    14200     4451     -437     3880 
   -2314   -11756    -6647     3013    11608    20891    20705     8283 
   -8542   -16680    -7849     4262     7500    11172    25600    43924 
   49693    44318    44929    50927    51817    54074    61528    60249 
   47811    35090    21403     8667     8290    12814     4536    -8781 
   -6187    11612    24437    18136     1649    -5830    -2178     1701 
    -269    -8691   -18120   -18571    -9626    -1275     1057     -146 
    -444     -873    -4930    -9480   -15664   -28172   -38928   -39631 
  -36896   -39937   -45159   -40018   -21600    -2911     3851    -1728 
  -13899   -23176   -25170   -30092   -41896   -46598   -38848   -28367 
  -19748   -14191   -12811    -8871    -1471    -1090    -5395    -1572 
    6737     9970     9477     5601     1577     3281     6010     5436 
     512    -3912      722     1353    -8783   -10042    -5970   -12313 
  -17036    -9493     2745    11582    15790    21800    30433    31680 
   23596    13842     6818     3349     2263    -1596   -12854   -23075 
  -20842   -17470   -27924   -40147   -33840   -15461   -13432   -28061 
  -30779   -22732   -23609   -30876   -33819   -28310   -20152   -18222 
  -21085   -24040   -22455   -16938   -16169   -16706   -11020    -5658 
   -7130   -16724   -27742   -26659   -20221   -26173   -34685   -27458 
  -15391   -13878   -12156     2562    20300    26810    29069    38705 
   47420    46568    43820    46372    48502    42462    34940    35930 
   39546    37110    34616    37525    37412    33265    33333    30116 
   16568     8872    18712    31755    34322    34798    39457    37136 
   27938    21056     8385    -7884    -9961    -4244    -6295   -15183 
  -23976   -26663   -27632   -34379   -39057   -36918   -38344   -47135 
  -54125   -54681   -54336   -54603   -54030   -56500   -59704   -58850 
  -58248   -58344   -51460   -36415   -23173   -17993   -14295    -8963 
   -7794   -12119   -18972   -23639   -20539   -14607   -17254   -24162 
  -25453   -30278   -39774   -34178   -18265   -15008   -20767   -19279 
  -10403    -7304   -14856   -18863   -12538    -5783      283    10626 
   19639    22388    24089    26355    23183    14175     5825     4169 
    7964     7507     3887     6317     4582    -7784   -11700    -1718 
    6798     8366     5265     1751     1923     -557    -6979   -10050 
  -14166   -21651   -26741   -32080   -37319   -36850   -34198   -36276 
  -42093   -42788   -36749   -35880   -44628   -51063   -48445   -45158 
  -47096   -53773   -64477   -70183   -68745   -73792   -82580   -83190 
  -81211   -80750   -77701   -70993   -59934   -47048   -36386   -26873 
  -17148   -10491    -9150    -6485     3607    13765    14561    10526 
