Origin Time       2011/03/11 14:46:00
Lat.              38.103
Long.             142.860
Depth. (km)       24
Mag.              9.0
Station Code      YMT004
Station Lat.      38.6208
Station Long.     139.5889
Station Height(m) 6
Record Time       2011/03/11 14:47:14
Sampling Freq(Hz) 100Hz
Duration Time(s)  272
Dir.              U-D
Scale Factor      3920(gal)/6182761
Max. Acc. (gal)   11.303
Last Correction   2011/03/11 14:46:59
Memo.             
[...]
    4768     4343     3984     3847     4003     4240     4201     3702 
    2934     2278     1853     1460     1010      628      340      168 
     281      655      987      953      445     -127     -121      522 
    1260     1727     2014     2314     2788     3614     4690     5461 
    5480     5057     4823     4906     5191     5661     5897     5286 
    3929     2490     1484     1094     1216     1530     1647     1441 
    1355     1821     2655     3569     4479     5179     5580     5881 
    6065     5916     5552     5314     5197     4949     4594     4226 
    3670     2967     2491     2211     1732     1015      308     -227 
    -431     -216      149      291      269      375      597      855 
    1400     2275     2911     2812     2123     1299      652      343 
     442      770      979      875      656      929     2054     3386 
    3912     3511     2911     2586     2153     1072     -341    -1492 
   -2523    -3612    -4277    -4206    -3628    -2571     -903     1069 
    2913     4481     5781     6920     7842     8152     7686     6881 
    6241     5863     5530     4944     4001     2942     2011     1166 
     408       -8       44      314      614     1258     2461     3643 
    4144     4031     3629     3204     3126     3304     3062     2253 
    1377      583     -168     -523     -306      -19     -284    -1015 
   -1511    -1355     -577      572     1533     1997     2021     1429 
     561      203      -54     -767    -1177     -874     -424       -7 
     698     1803     2838     3261     3337     3699     4373     4854 
    4781     4391     4065     3603     2661     1527      759      373 
     -91     -752    -1307    -1855    -2634    -3104    -2930    -2947 
   -3372    -3066    -1642      -19     1022     1215      547     -527 
   -1180     -965     -177      438       10    -1578    -3131    -3483 
   -2594    -1060      102      -13     -907     -874     1140     4249 
    6600     7439     7223     6466     5876     6155     6817     6704 
    5399     3573     2567     2995     4108     5048     5113     3570 
     818    -1863    -3552    -3610    -2228     -809     -127      203 
     421     1011     2651     4744     6416     7751     8551     8619 
    8792     9428     9765     9278     7959     5943     3622     1745 
     933     1166     2074     3272     4449     5681     7270     9055 
   10365    10956    11196    11035    10065     8449     6744     5543 
    5213     5418     5626     5662     5348     4756     4269     3730 
    2728     1287     -401    -1910    -2559    -2104     -743     1268 
    3455     5313     6686     7533     7766     7530     7338     7637 
    8115     7926     6664     4627     2560     1231      592     -223 
   -1772    -3749    -5143    -4973    -3604    -2355    -1619    -1154 
   -1130    -1251     -876     -267      287     1266     2926     5235 
    8005    10221    11140    11283    10922     9928     8880     7947 
    6381     4063     1771      448      595     1429     1766     1759 
    2060     2550     3407     5415     8116     9869    10341    10681 
   11568    12908    14324    15178    14921    13307    10802     8678 
    7519     6837     6626     7000     6951     5851     4510     3634 
    3473     4248     5187     5098     4265     3974     4819     6268 
    7362     7745     7785     7700     7180     6288     5796     5865 
    5784     5098     3739     1920      212     -809     -709      256 
     720      -10     -701     -268      799     1822     2597     3043 
    3557     4677     6284     7979     9338     9540     8051     5692 
    3809     2503     1008     -604    -1825    -2952    -4259    -5173 
   -5324    -5027    -4623    -4364    -4175    -3546    -2613    -1968 
   -1261      -96     1086     2447     4474     6513     7869     8607 
    8815     8944     9530    10161    10177     9220     6790     2972 
    -806    -3042    -3627    -3309    -2569    -1680     -725      718 
    2772     4496     4919     4168     3085     2561     3081     4177 
    4903     4962     4658     4426     4694     5357     5724     5413 
    4530     3071     1216     -189     -641     -898    -1769    -3069 
   -4622    -6331    -7109    -6248    -4716    -3365    -2194    -1388 
    -711      435     1501     1563      718     -410    -1283    -1832 
   -2479    -3486    -4903    -6680    -8333    -9222    -9362    -9339 
   -9324    -8888    -7826    -6327    -4665    -3118    -1773     -646 
     231      936     1269      934       49    -1253    -2587    -3051 
   -2323    -1041      -14      185     -509    -1567    -2486    -3228 
   -3863    -4258    -4306    -4279    -4487    -4774    -4956    -5179 
   -5503    -5672    -5379    -4784    -4460    -4491    -4360    -3583 
   -2027     -234      859      991      743      552      311     -251 
   -1360    -3031    -4759    -5779    -5816    -5252    -4655    -4729 
   -5928    -7569    -8559    -8517    -7493    -6001    -5190    -5700 
   -6788    -7112    -6109    -4514    -3578    -3938    -5104    -5791 
   -5029    -2991     -676      916     1430     1230      957     1073 
    1603     2145     2191     1473      544      599     1981     4006 
    6082     7661     8377     8695     9257    10074    10654    10341 
    8996     7276     5635     3744     1562     -242    -1317    -1937 
   -2643    -3609    -3841    -2520     -605      798     1694     1940 
    1173     -161    -1265    -1781    -1754    -1459    -1045     -512 
    -145       61      625     1390     1927     2786     4234     5370 
    5857     6362     6964     7111     6795     6196     5191     4158 
    3630     3242     2678     2415     2322     1711     1129     1485 
    2255     2496     1966      761     -663    -1702    -2262    -2428 
   -2150    -1745    -1805    -2389    -2916    -2755    -1733     -370 
     612     1119     1434     1445     1126     1136     1666     1790 
     971      -22       88     1829     4145     5372     5232     4497 
    3258     1566      513      387     -150    -1527    -2756    -3387 
   -3590    -3521    -3523    -3871    -4446    -4998    -5300    -4961 
   -3842    -2550    -1549     -746     -378     -493     -653    -1171 
   -2257    -3013    -3301    -3914    -4723    -5150    -5196    -4970 
   -4491    -3941    -3607    -3672    -3969    -3973    -3216    -1786 
    -243      890     1257      817      184      239     1103     1866 
    1526     -170    -2560    -4063    -3339    -1088      735     1366 
    1202      474     -335     -384      404     1351     2001     2532 
    3291     4271     5331     6351     7166     7697     8026     8609 
    9763    10714    10416     9004     7556     6868     6818     6907 
    6912     6604     5859     5252     5574     6911     8388     8937 
    8823     9285    10406    11341    11934    12377    12561    12288 
   11401    10107     9024     8354     7616     6599     5667     4992 
    4537     4445     4476     4151     3779     3848     4149     4512 
    4861     4831     4492     4162     3768     3558     3885     4247 
    4343     4635     4940     4680     4132     3686     3036     1880 
     460     -551     -507      544     2151     3922     5187     5530 
    5606     6188     7119     7797     7905     7466     6657     5695 
    4777     4220     4377     4910     4724     3413     1971     1300 
    1350     1847     2389     2561     2371     1809      882       43 
    -422     -652     -474      519     1960     2766     2532     1980 
    1829     2022     1874      862     -405     -853     -373      607 
    1780     2416     1883      620     -708    -1863    -2373    -1958 
   -1185     -601     -284     -145      167      745     1061      893 
     539      215       58      108      213      210      -90     -646 
   -1129    -1915    -3761    -6063    -7775    -9160   -10463   -10965 
  -10303    -8879    -7546    -6998    -6616    -5476    -3988    -2680 
   -1466     -679     -586     -710     -720     -682     -673     -864 
   -1429    -2143    -2425    -2117    -1663    -1192     -491      121 
      81     -539    -1077     -929      -22     1350     2884     4168 
    4728     4790     5571     7641     9481     9486     8246     6969 
    5767     4594     3423     1577    -1045    -3399    -4956    -5901 
   -6101    -5465    -4048    -1820      621     2481     4004     5945 
    8371    10682    12094    11943    10385     8500     7031     5863 
    4770     3611     2230      780     -311     -842    -1009    -1067 
   -1104    -1056     -712       -9      829     1500     1483      486 
    -739    -1202     -793      -12      469      369      411     1431 
    3203     4727     5022     3863     2001      236    -1005    -1114 
      80     1416     1720     1480     1827     2926     4445     6043 
    6927     6469     4898     3104     2339     3055     4200     4754 
    4624     4019     3477     3360     3040     1964      446    -1160 
   -2600    -3303    -2895    -1555      413     2587     4428     5946 
    7601     9344    10571    10868    10235     9044     8020     7700 
    8008     8487     8307     6817     4669     3088     2347     2073 
    1873     1214      -59    -1351    -2019    -1830    -1221    -1579 
   -3877    -7175    -9704   -10521    -9765    -8224    -6608    -5193 
   -4213    -3834    -3697    -3448    -3600    -4757    -6306    -7236 
   -7453    -7173    -6260    -4831    -3464    -2690    -2701    -3214 
   -3605    -3732    -4016    -4216    -3627    -2393    -1014      304 
    1082     1163     1428     2599     4482     6501     7909     8187 
    7601     6555     5223     3962     2613      487    -2198    -4453 
   -5523    -5138    -3804    -2371    -1238     -661     -647     -560 
      26     1100     2645     3984     4393     4671     5680     6827 
    7652     8344     8790     9012     9182     9149     9034     9093 
    9237     9429     9641     9610     8862     7092     5130     4114 
    3824     3443     2623     1474      525     -170    -1012    -1486 
   -1157    -1016    -1616    -2108    -2176    -2204    -2135    -2116 
   -2343    -2433    -2682    -3700    -4801    -5139    -4854    -4373 
   -4082    -4115    -4238    -4172    -3409    -1773     -239      325 
     274      348      899     1793     2437     2302     1442      300 
    -670    -1056     -714       -1      534      707      804     1079 
    1638     2669     3897     4690     5102     5351     5134     4735 
    4763     4624     3685     2638     2029     1548     1023      432 
    -304     -925    -1173    -1057     -459      570     1584     2395 
    3046     3466     3862     4505     5073     5074     4420     3362 
    2456     2172     2205     1872     1162      581      215       -4 
     301     1214     2042     2341     2431     2461     2006      982 
       6     -562    -1067    -1736    -2420    -3268    -4570    -5976 
   -6878    -7404    -8092    -8896    -9451    -9639    -9354    -8469 
   -7175    -5999    -5354    -5070    -4824    -4591    -4183    -3365 
   -2553    -2376    -2811    -3349    -3518    -2915    -1702    -1205 
   -2379    -4162    -5080    -4994    -4126    -2593    -1146     -222 
     962     2874     4808     6131     6916     7471     7900     8141 
    8417     8988     9621     9906     9504     8217     6526     5486 
    5699     6731     7359     6481     4378     2740     2755     3812 
    4472     4140     3453     3089     3026     3157     3370     3157 
    2333     1632     1881     2958     4100     4993     5745     6157 
    5903     5003     3998     3638     3822     3626     2774     1772 
     932      405      369      646      901      916      408     -365 
    -385      589     1611     2151     2403     2410     2195     2092 
    2474     3430     4369     4575     4331     4314     4530     4665 
    4495     4077     3595     2883     2074     1748     2103     3269 
    5092     6542     7102     7201     7070     7054     7491     7753 
    7254     6216     4878     3652     3056     2912     2913     3095 
    3306     3453     3828     4408     4782     4882     4767     4213 
    3444     3281     3931     4678     4887     4404     3347     2082 
     913        5     -407     -674    -1668    -3397    -5268    -7053 
   -8480    -9407   -10222   -11284   -12653   -13830   -13892   -12769 
  -11303    -9873    -8383    -7172    -6551    -6067    -5258    -4375 
   -3822    -3675    -3937    -4592    -5038    -4253    -2296     -630 
    -318    -1236    -2988    -5025    -6416    -6666    -6483    -7050 
   -8318    -9268    -9936   -10883   -11550   -11454   -11273   -11663 
  -12457   -12915   -12273   -10382    -7961    -6135    -5398    -5329 
   -5375    -5189    -4680    -4133    -3938    -4398    -5372    -6059 
   -5925    -5317    -4790    -4760    -5656    -7370    -8898    -9313 
   -8733    -7951    -7616    -7861    -8182    -7684    -6034    -3963 
   -2274    -1186     -746     -694     -226     1394     4009     6380 
    7284     6803     5954     5659     6383     7647     8134     7254 
    5689     4287     3608     3802     4291     4376     3895     2966 
    1825     1081     1501     3253     5566     7429     8538     9325 
   10164    11066    11756    11613    10414     8980     8111     7936 
    8557     9772    10768    11260    11703    12039    11856    11503 
   11689    12564    13709    14548    15030    15707    16689    17434 
   17789    18079    18353    18366    18044    17728    17731    17689 
   16994    15765    14844    14634    14496    14071    13727    13065 
   11517     9883     9009     8639     8357     8109     8159     8737 
    9490     9942    10010     9791     9601     9614     9408     8655 
    7645     6797     6498     7163     8577     9712     9922     9731 
    9722     9525     8911     8382     7813     6560     4860     3447 
    2648     2450     2458     1955      702     -606     -998     -131 
    1550     3085     3420     2282      611     -509     -964    -1230 
   -1532    -1719    -1829    -2401    -3447    -3828    -3144    -2765 
   -3411    -4308    -5241    -6463    -7528    -8183    -8881    -9883 
  -10926   -11635   -11986   -12403   -13064   -13617   -13956   -14232 
  -14293   -14136   -13950   -13595   -13074   -12512   -11681   -10668 
   -9855    -9252    -9025    -9356    -9567    -9001    -8083    -7464 
   -7225    -7190    -6989    -6173    -4746    -3094    -1633     -787 
    -511      -10     1154     2535     3688     4126     3240     1475 
      37     -708    -1169    -1540    -1880    -2575    -3832    -5077 
   -5612    -5533    -5394    -5416    -5396    -4932    -3642    -1571 
     783     2983     4848     6263     7185     7775     8220     8333 
    7899     7513     7810     8205     7909     7156     6460     5996 
    5916     6312     7003     7713     8149     8156     8089     8350 
    8666     8584     8099     7426     6907     6660     6346     5933 
    5758     5787     5722     5377     4811     4339     4132     4004 
    3727     3399     3449     4027     4636     4924     5157     5546 
    5986     6345     6387     5915     5069     4089     3255     2928 
    2887     2381     1204     -224    -1440    -2169    -2346    -1902 
    -900       91      592      760     1015     1741     2884     3721 
    3698     2897     1666      384     -929    -2428    -3742    -4701 
   -5787    -6804    -6851    -5905    -4704    -3647    -2887    -2648 
   -2894    -3136    -2825    -1847     -604      377      877      953 
     786      843     1592     2902     4122     4429     3389     1698 
     492       37       74      304      153     -427     -804     -991 
   -1512    -2213    -2558    -2568    -2539    -2231    -1313     -123 
     986     1954     2337     1870     1049      344     -148     -465 
    -726     -965    -1125    -1098     -911    -1048    -1608    -2007 
   -2442    -3404    -4193    -4275    -4133    -3979    -3841    -3760 
   -3248    -2175     -980      179      955     1056     1081     1401 
    1822     2516     3347     3897     4356     4745     4843     4811 
    4388     3200     1832      926      341     -392    -1692    -3554 
   -5464    -6791    -7281    -7546    -8313    -9275    -9804    -9690 
   -8732    -7145    -5645    -4481    -3726    -3647    -3878    -3949 
   -4132    -4501    -4669    -4488    -3877    -2896    -2002    -1564 
   -1871    -3033    -4348    -4816    -4213    -3237    -2725    -2617 
   -2289    -1591     -476     1005     1968     1849     1384     1291 
    1622     2223     2756     2828     2348     1619     1029      744 
     874     1281     1268      540     -201     -369      -61      524 
    1275     2175     3407     4935     6324     7461     8640     9764 
   10532    10981    11114    10734     9595     7743     5855     4213 
    2239      162    -1065    -1664    -2421    -3136    -3325    -3009 
   -2466    -2350    -3089    -4042    -4511    -4498    -3999    -3140 
   -2622    -3026    -4233    -5426    -5730    -5182    -4571    -4505 
   -5074    -6055    -7103    -7774    -7752    -7289    -7132    -7637 
   -8245    -8362    -8067    -7477    -6750    -6565    -7201    -8066 
   -8635    -8618    -7929    -7101    -6861    -7497    -8643    -9499 
   -9744    -9595    -9182    -8884    -9080    -9331    -9124    -8637 
   -8066    -7361    -6812    -6824    -7110    -7031    -6520    -6028 
   -5947    -6294    -6710    -6906    -6889    -6502    -5471    -3997 
   -2475    -1021      141      672      571      154     -141      -71 
     143      319      549      554     -141    -1165    -1647    -1531 
   -1284    -1055    -1052    -1308    -1306    -1054    -1072    -1341 
   -1743    -2382    -2947    -3195    -3623    -4741    -6250    -7424 
   -7958    -7982    -7633    -7127    -6801    -6762    -6841    -6925 
   -7079    -7353    -7694    -7981    -7895    -7085    -5771    -4769 
   -4619    -5012    -5367    -5494    -5344    -4786    -3955    -3180 
   -2516    -1765     -912     -150      711     2115     3727     4690 
    4987     5360     6049     6452     6062     5235     4722     4948 
    5926     7297     8457     8982     8730     7861     6971     6398 
    5828     5341     5412     5735     5720     5429     5158     5059 
    4903     4095     2591      920     -697    -2094    -2915    -3095 
   -2726    -2062    -1706    -1841    -2048    -2110    -2028    -1761 
   -1464    -1347    -1469    -1847    -2353    -2836    -3439    -4494 
   -6215    -8128    -9118    -8868    -8115    -7273    -6518    -6345 
   -6651    -6654    -6199    -5766    -5579    -5599    -5631    -5224 
   -4078    -2287     -355      864      886      249      -10      490 
    1096      997       68    -1118    -1828    -1842    -1499    -1291 
   -1705    -2914    -4441    -5722    -6732    -7642    -8444    -9087 
   -9292    -8708    -7614    -6417    -5024    -3656    -2883    -2678 
   -2496    -1770     -501      499      885     1053      690     -607 
   -2042    -2959    -3719    -4615    -5563    -6444    -6936    -6794 
   -6333    -6094    -6264    -6607    -6749    -6414    -5391    -3689 
   -1818     -257     1065     2164     2761     2878     2705     2127 
    1048     -342    -1877    -3330    -4206    -4318    -3959    -3474 
