Origin Time       2011/03/11 14:46:00
Lat.              38.103
Long.             142.860
Depth. (km)       24
Mag.              9.0
Station Code      YMT017
Station Lat.      38.7897
Station Long.     140.3121
Station Height(m) 127
Record Time       2011/03/11 14:47:03
Sampling Freq(Hz) 100Hz
Duration Time(s)  300
Dir.              E-W
Scale Factor      3920(gal)/6182761
Max. Acc. (gal)   91.213
Last Correction   2011/03/11 14:46:48
Memo.             
[...]
  -12424   -18566   -27095   -35753   -42832   -46326   -46691   -48895 
  -55101   -59316   -55811   -46681   -37818   -33690   -34855   -37160 
  -36555   -33814   -32507   -34595   -38657   -42268   -44393   -45761 
  -48931   -53593   -54414   -49296   -42686   -40205   -44720   -52958 
  -56999   -52939   -44203   -35651   -27986   -19550   -10604    -3152 
    -643    -6128   -16163   -23361   -25540   -25507   -26285   -29228 
  -32590   -32719   -27633   -19999   -16491   -20658   -29078   -37653 
  -44873   -48548   -47799   -45221   -41502   -35517   -31551   -34331 
  -38401   -36031   -29450   -24742   -23818   -26729   -33230   -40756 
  -44035   -40587   -35471   -34810   -38210   -41121   -41050   -39170 
  -36462   -32556   -28504   -26752   -28952   -32756   -33277   -31559 
  -32372   -34308   -34269   -34039   -35103   -35817   -34486   -31190 
  -27204   -23045   -19233   -17757   -18506   -18191   -16223   -15660 
  -17650   -20479   -21994   -21079   -18679   -15800   -12961   -12539 
  -15634   -19800   -24088   -29074   -32341   -31970   -30587   -30510 
  -30146   -27975   -24951   -21709   -17929   -14446   -12163   -10033 
   -7753    -7395    -9362   -12395   -17283   -23408   -26160   -22761 
  -15626    -9687    -9123   -14298   -21135   -25528   -26903   -25701 
  -21562   -17082   -17394   -22064   -25056   -25084   -26064   -27826 
  -26538   -21701   -15145    -7597    -1133      946    -1367    -6125 
  -12042   -17150   -21118   -25628   -29910   -32701   -34217   -33558 
  -31026   -28910   -28135   -29397   -33211   -37583   -40330   -41734 
  -43343   -45035   -44452   -41079   -37103   -32866   -27275   -21979 
  -19282   -17917   -15711   -12665    -8499    -3506    -1306    -3565 
   -5849    -3594     1996     6400     7759     7071     3395    -5546 
  -18288   -30523   -39608   -43214   -38631   -28535   -20645   -19409 
  -21357   -19301   -11577    -2993     2436     3829     2933     3245 
    6096     8967     8189     2825    -4340   -10262   -13614   -13750 
  -11467    -8648    -5903    -3298    -1122     1124     3765     6536 
    8938     9749     9187     9352    10584    11691    12180    10540 
    4544    -3482    -7822    -7871    -6828    -4409      -97     3151 
    3494     1664    -1790    -6310   -10157   -11387   -10059    -9023 
  -10594   -13750   -17373   -21764   -26107   -29084   -29239   -25091 
  -18146   -12180    -8685    -6073    -4309    -5613    -8219    -8340 
   -7261    -6943    -5776    -4221    -5063    -6639    -5053    -2155 
   -2878    -8525   -17489   -26415   -31328   -31553   -29533   -27872 
  -27642   -27656   -26789   -25143   -21993   -17297   -13524   -12011 
  -11478   -12188   -16123   -21953   -25679   -25226   -21187   -17902 
  -20396   -26366   -30114   -31246   -32350   -34633   -36093   -32548 
  -24965   -20375   -21663   -24874   -27003   -28239   -28741   -29056 
  -31046   -36116   -42677   -46969   -49052   -51918   -54120   -52490 
  -47049   -39118   -31791   -28661   -29412   -30906   -29339   -22973 
  -15281    -9498    -3818     2465     5358     3132      360      755 
    2961     5839     8960     9196     4243    -3038    -6992    -6615 
   -6817    -9630   -12704   -15090   -16371   -15799   -14327   -13794 
  -14673   -13712    -7806     -962      930    -1808    -5372    -6902 
   -4877     1363     9904    15127    13955    10038     6144     -470 
  -10402   -17879   -18796   -15952   -13189   -12183   -14601   -19704 
  -24188   -27700   -32438   -38257   -42672   -43666   -40798   -36406 
  -35021   -37691   -39572   -36647   -30590   -24391   -19141   -17023 
  -20136   -26052   -30489   -32557   -34060   -34918   -32944   -28982 
  -26522   -26557   -28060   -30441   -33303   -35343   -34584   -31247 
  -27501   -24330   -22061   -21349   -22521   -24887   -26566   -26988 
  -27122   -25775   -21625   -16722   -13151   -11764   -13714   -18220 
  -22255   -23777   -22762   -19765   -15283   -10966    -9055    -9454 
  -10487   -11843   -13473   -14502   -14794   -14339   -12677   -11277 
  -12886   -17380   -22044   -24544   -23762   -21503   -21486   -23322 
  -22116   -15775    -8374    -4873    -6472   -12419   -20489   -25827 
  -25602   -21563   -16001   -11057    -9021    -9964   -12849   -17458 
  -23439   -28881   -30562   -28317   -26961   -29094   -30863   -28650 
  -23334   -16625   -10488    -8479   -11644   -17010   -21564   -23962 
  -26133   -31942   -38636   -38780   -32697   -25479   -18601   -15086 
  -17912   -22559   -25075   -26776   -25891   -19672   -11873    -7985 
   -8627   -12345   -19187   -27001   -30775   -29130   -24496   -18810 
  -14616   -14593   -17566   -19768   -19762   -20222   -24331   -30314 
  -33221   -32230   -30673   -29951   -29295   -29549   -30784   -29540 
  -24187   -17786   -13198   -10601    -9570   -10335   -12382   -14049 
  -15611   -19171   -24201   -27669   -28351   -28267   -30064   -33448 
  -35318   -34110   -32081   -32345   -35369   -39634   -44550   -50942 
  -58594   -65287   -69304   -70958   -70692   -67464   -60303   -51118 
  -43649   -39286   -36943   -35632   -34630   -33401   -31984   -30516 
  -29501   -29075   -27756   -25409   -24773   -27247   -31917   -37916 
  -43621   -47208   -49006   -50699   -53529   -57335   -61212   -65061 
  -68631   -70764   -70704   -68149   -63449   -57814   -51528   -44142 
  -35945   -26849   -17020    -8721    -3205     1400     5686     7107 
    4749     1468      -53      542     2919     5796     7375     7724 
    7284     6152     5407     4506     2163        7     -206     1372 
    3730     4705     3578     2906     4551     6740     6868     4755 
     933    -4728   -11110   -16769   -21063   -22775   -21454   -18372 
  -14435    -9391    -3442      894      763    -4476   -13638   -22598 
  -27028   -27766   -26462   -21295   -14054   -12625   -19669   -27847 
  -31807   -33846   -35290   -34710   -33021   -32737   -35831   -42548 
  -50769   -58586   -65128   -68923   -69499   -68325   -66041   -62899 
  -61245   -62799   -65277   -64948   -60703   -53646   -45220   -37107 
  -30610   -26444   -25249   -25768   -24626   -20469   -15332   -11354 
   -9335    -8698    -6810    -2235     2503     4988     5135     3398 
    1667     3092     8140    12762    12462     6995    -1725   -12873 
  -25469   -37728   -47543   -52964   -52737   -46230   -36378   -30012 
  -29213   -29305   -28641   -29859   -32882   -36206   -39541   -41018 
  -39557   -38235   -40091   -44717   -48447   -46958   -40679   -33927 
  -29583   -29349   -33371   -36807   -34258   -28497   -27056   -31426 
  -37148   -40591   -40709   -38651   -36848   -35758   -32627   -26069 
  -19454   -15367   -11444    -6072    -1064     2972     6576     8013 
    5681     1208    -3097    -6870   -10985   -15324   -17533   -15516 
   -9755    -3008     -182    -4638   -13109   -19095   -19826   -16855 
  -13080   -10846   -10657   -10898   -10685   -11568   -13572   -13715 
  -10390    -4453     2406     6380     3394    -5055   -13767   -20681 
  -26051   -29031   -29831   -30814   -32635   -33157   -32076   -31000 
  -28399   -22538   -16148   -11856    -9319    -7861    -6757    -3973 
    2229    10111    16658    20454    18188     8516     -555    -1771 
    1783     5726     9324    10321     6904     1496    -3592    -9116 
  -14686   -16962   -14118    -7531      616     7700    11304    12020 
   13441    17765    22979    26373    28265    30817    34988    38350 
   37217    31498    24364    18041    12021     4165    -6600   -18598 
  -28908   -35833   -39986   -42940   -44435   -43385   -41899   -43928 
  -49745   -55443   -57041   -52055   -39564   -22714    -8172      122 
    2781       58    -8491   -19071   -24273   -20471   -11572    -3985 
    -537     -506    -2657    -6112    -9319   -10786   -10598    -9429 
   -7922    -6606    -5197    -4038    -3589    -2027     2291     8306 
   14343    19529    23384    25670    25929    23362    17700     9947 
    1412    -7394   -14952   -18853   -20441   -24490   -31652   -36203 
  -34429   -29889   -27526   -29709   -37153   -46136   -50691   -50242 
  -46861   -40694   -33829   -29483   -27432   -25744   -23446   -20645 
  -17220   -11515    -3201     4805     9228     6846    -5389   -25656 
  -45705   -58336   -63820   -64224   -58645   -49167   -42004   -40921 
  -44257   -47749   -49627   -50688   -50843   -49965   -48521   -46433 
  -44479   -43983   -45020   -47548   -51790   -56615   -59656   -58961 
  -53761   -45068   -36439   -31182   -28998   -28889   -32246   -39931 
  -49042   -55101   -57733   -60173   -62494   -61711   -57406   -51947 
  -47481   -44527   -42326   -39980   -36314   -31411   -28796   -31109 
  -36464   -42404   -48122   -52271   -51802   -44142   -31798   -21377 
  -15912   -12776    -9759    -7800    -7758   -10235   -16861   -26599 
  -34431   -36728   -33800   -26483   -15726    -5283     1094     3488 
    3459     1580    -1342    -3895    -5224    -5072    -3543    -1241 
    1458     4689     7387     7018     3617      524    -1191    -2504 
   -2673    -2907    -7110   -16160   -27704   -37980   -41850   -37026 
  -27200   -18618   -15464   -17529   -21284   -23664   -23986   -22810 
  -20438   -15915    -7993      987     6449     8246     8107     4071 
   -4280   -12468   -17392   -20730   -24550   -27886   -30390   -34349 
  -39775   -44697   -49063   -51773   -49897   -43053   -33378   -23065 
  -13862    -6805    -2071     1058     4174     7223     6407    -2135 
  -17052   -31492   -39954   -44178   -46970   -47427   -46709   -46749 
  -45657   -41628   -35349   -29659   -27424   -27313   -26031   -21409 
  -11747     1566    13957    22811    27758    28679    28103    29545 
   31571    29303    19536     3521   -12044   -20825   -21923   -16711 
   -9118    -6395   -11946   -22268   -31047   -33223   -27790   -17453 
   -7238    -1880    -1407    -3217    -6106    -9335   -11875   -11173 
   -4508     5854    13737    14182     5698    -8040   -20225   -28459 
  -36591   -46891   -55792   -60629   -62887   -61575   -54853   -46654 
  -41040   -36953   -32000   -25156   -16761    -7321     2918    12899 
   20968    26075    28234    27356    23434    17467     8728    -4476 
  -18863   -27875   -29484   -27673   -27206   -29426   -33274   -36519 
  -35297   -29102   -23617   -22704   -24512   -26086   -25521   -23221 
  -21935   -23310   -27657   -35855   -46722   -55302   -57956   -55109 
  -47405   -35728   -24175   -16587   -13563   -16142   -25610   -38017 
  -46614   -49866   -49450   -45447   -41558   -43637   -49376   -52045 
  -50584   -48539   -48979   -52695   -57163   -57550   -52265   -45164 
  -41826   -46245   -56580   -64205   -62786   -54682   -45233   -37405 
  -33127   -33825   -39436   -47922   -54229   -52735   -43177   -30899 
  -22148   -20217   -22718   -24953   -25801   -26309   -27882   -33393 
  -44626   -59599   -73383   -81867   -86279   -90987   -97044  -101679 
 -102800  -100108   -91883   -76967   -58521   -40079   -24832   -18963 
  -26172   -40789   -51349   -51222   -43460   -33281   -23297   -19447 
  -27270   -39585   -43482   -37524   -30490   -29527   -35274   -42192 
  -43810   -39674   -32682   -24823   -17727    -9169     4419    19322 
   30045    37343    42091    41314    33466    20764     7708    -1109 
   -3689    -1503     1879     3983     5123     6083     6626     6519 
    4711    -1851   -15562   -34873   -54783   -70170   -78069   -77183 
  -68527   -56733   -47715   -44407   -43901   -41282   -38148   -40760 
  -49458   -57210   -57477   -49907   -38422   -26712   -18940   -16918 
  -16636   -15916   -17256   -22330   -30363   -38360   -42998   -43830 
  -43560   -44553   -45381   -43010   -37873   -33869   -33691   -37581 
  -43931   -47140   -41374   -27531   -10530     5683    17515    22448 
   22477    22086    21586    18576    14883    14569    18080    23025 
   27497    30427    30778    28283    22767    11722    -7116   -29390 
  -44143   -43298   -30914   -19400   -17226   -23923   -33957   -43689 
  -54619   -68479   -83567   -95736   -99817   -94840   -86662   -81016 
  -78383   -75882   -69521   -57296   -41677   -25730   -10504      486 
    2252    -3946   -10725   -11269    -3693     7456    15423    18110 
   17126    13494     7813     1178    -5288   -11803   -19746   -28027 
  -31930   -26647   -11622     8553    28863    46646    59993    67579 
   67487    58106    43777    31643    21286     8264    -3865    -8081 
   -5183      261     6097    11082    14090    12976     5743    -4872 
  -13128   -16347   -16387   -17438   -23058   -32657   -42280   -48840 
  -50782   -49311   -50414   -59577   -75408   -92027  -105361  -114129 
 -116682  -111981  -103160   -94780   -88705   -86028   -86647   -86149 
  -81448   -76226   -73793   -72065   -69320   -65702   -59490   -49580 
  -38536   -28604   -18744    -7714     3887    14334    21893    27707 
   34991    43536    50553    55598    59057    59564    57022    52011 
   40817    20721    -1476   -15859   -19870   -17534   -15394   -19739 
  -30516   -40041   -40990   -32408   -19772   -10815    -9384   -14590 
  -22912   -30062   -35445   -42704   -53776   -66092   -76625   -85271 
  -92948   -98726  -100415   -96807   -87776   -74618   -60205   -45753 
  -30774   -17864   -12735   -18865   -33894   -49988   -59467   -59462 
  -51158   -40952   -36733   -37912   -38252   -34736   -26626   -15390 
   -6999    -5034    -4791       55    11690    30239    52743    73343 
   90989   108139   121180   124082   115900    99474    80695    65444 
   55306    49166    44873    41879    42082    43896    42131    34123 
   21184     7175    -4674   -13714   -18674   -17863   -13191    -9789 
  -12818   -23492   -38256   -53750   -67411   -74329   -71445   -61659 
  -50283   -42610   -42525   -47954   -52411   -52565   -49666   -45535 
  -39347   -28244   -12785     1795    11700    18147    25186    35325 
   46763    56080    62440    66490    67413    64228    58474    51497 
   40679    25164    11452     6638    11522    21414    28458    26022 
   14460      487   -10639   -18764   -23782   -24256   -21736   -21064 
  -26502   -37109   -47350   -54145   -57741   -56976   -50438   -39217 
  -26951   -19976   -24523   -40453   -59792   -74113   -80476   -79099 
  -71309   -61007   -53187   -48908   -44786   -39882   -37423   -38073 
  -39392   -39958   -39168   -37384   -36392   -37275   -38712   -37960 
  -34264   -29687   -25855   -21953   -16363   -10722   -11047   -21638 
  -38852   -53653   -60442   -60560   -56358   -47225   -33222   -18032 
   -6613    -1644    -2773    -7006    -9734    -7324      621    10134 
   16003    16836    14344    10188     5332     1422      433      338 
   -2283    -5367    -7161   -11291   -17779   -20532   -16999   -11298 
   -7202    -4017     -697     1020      131     -771     1453     6082 
    9880    11938    11675     5291    -7853   -20998   -27242   -25596 
  -19943   -16013   -17645   -24444   -33620   -42716   -51286   -60589 
  -69597   -74718   -76152   -78384   -82218   -82660   -76666   -67750 
  -61554   -60719   -63040   -62760   -56327   -45046   -30858   -15689 
   -3739     2742     5982     7919     8571     7438     4131      542 
   -1433    -3634    -7367   -10316   -10202    -6692    -1728     -267 
   -6079   -16953   -27528   -34021   -35513   -33910   -31062   -25934 
  -17818   -10173    -7710   -10742   -15599   -19997   -23346   -23787 
  -21860   -22400   -26957   -32146   -36497   -40243   -42740   -45889 
  -52837   -61361   -65698   -64233   -60077   -56903   -57791   -64325 
  -74011   -80305   -78054   -69931   -63607   -62392   -63797   -65084 
  -65313   -63883   -60828   -57810   -54821   -48638   -38257   -26909 
  -18009   -13144   -12749   -15398   -17282   -16426   -14068   -10223 
   -5382    -1441     3255     9144    11787    11400    12715    14793 
   13198     7746     1477    -3270    -4988    -2955     2052     9122 
   16850    22285    24005    22761    18864    12896     6737     2430 
     883      362    -1983    -5918    -8995   -10396   -11310   -12696 
  -12904    -9332    -2476     3785     4823    -1527   -13403   -26396 
  -35520   -36659   -28652   -15788    -6371    -5534   -11812   -21039 
  -29520   -35721   -40883   -45374   -46854   -44223   -40078   -36788 
  -32866   -27412   -22581   -18631   -14858   -12649   -12122   -11940 
  -12483   -15876   -23418   -32186   -36658   -33712   -23466    -9607 
     181     -539   -11620   -27347   -40408   -47024   -49477   -50809 
  -51706   -53988   -58705   -63642   -67999   -73098   -78084   -79878 
  -76443   -68712   -59789   -52877   -49053   -46685   -43804   -38928 
  -30931   -21033   -11913    -5083     -776     1430     1414     -603 
   -1850     -521     1342     2254     2660     1380    -2815    -7842 
  -11894   -16323   -20967   -23322   -23690   -24214   -24607   -23632 
  -22617   -24141   -28278   -33402   -37680   -37303   -30616   -23149 
  -20635   -22560   -26968   -33888   -42619   -50916   -56382   -56760 
  -51228   -42754   -35911   -31782   -29072   -28025   -28948   -30661 
  -32647   -36116   -41863   -47888   -51645   -53681   -55452   -55749 
  -52108   -44329   -35324   -29150   -28996   -35455   -45207   -53065 
  -56650   -57057   -55155   -51861   -50104   -50969   -51885   -50833 
  -48003   -44757   -42964   -42961   -42495   -39027   -31817   -22229 
  -13079    -6573    -3472    -3831    -6343    -8750   -10732   -14638 
  -21748   -29563   -35219   -38826   -42097   -47111   -55044   -63473 
  -67672   -65564   -59212   -52012   -46760   -44933   -45048   -43971 
  -40924   -37187   -33267   -28515   -22130   -14726    -8996    -7638 
  -10639   -15445   -19902   -22538   -20911   -14589    -7231    -2180 
     436     1965     3629     6265    10694    16815    22334    25546 
   27000    26970    25204    21540    16840    14491    16716    21982 
   27855    31927    32675    31230    29425    27802    26378    25490 
   25540    26500    27915    29424    30825    31713    32331    33081 
   33283    33055    33642    35004    35600    34002    30766    28325 
   28820    32883    37983    40498    40482    38434    35529    34765 
   33254    31378    34400    35500    31316    28856    27375    26708 
   27957    26549    23374    21868    21278    20457    17916    12790 
    5726    -3428   -13742   -21412   -23802   -21798   -17877   -14823 
  -14036   -13865   -11925    -8040    -3408     1049     4658     6620 
    6232     3918     1544      533      509      226    -1349    -4204 
   -7516   -11890   -18720   -26477   -32370   -36936   -41784   -45603 
  -46725   -45770   -43867   -42230   -42364   -43770   -45113   -47882 
  -54034   -62541   -71352   -79282   -85210   -87916   -87276   -84572 
  -81474   -79581   -79457   -79196   -76595   -72234   -67705   -63165 
  -58593   -54245   -48838   -40406   -29716   -21023   -18549   -22702 
  -30457   -38220   -43952   -48158   -51539   -52054   -48022   -41784 
  -36800   -34102   -33061   -33242   -33956   -32826   -28016   -21168 
  -14849    -9556    -5705    -4894    -7369   -11215   -14314   -16412 
  -20036   -28108   -41071   -56162   -68096   -73225   -72446   -68172 
  -61667   -53341   -43730   -34251   -26392   -21141   -19314   -20173 
  -20131   -15027    -4291     8419    18820    23822    22237    16615 
