Origin Time       2011/03/11 14:46:00
Lat.              38.103
Long.             142.860
Depth. (km)       24
Mag.              9.0
Station Code      YMT012
Station Lat.      38.1087
Station Long.     140.0430
Station Height(m) 198
Record Time       2011/03/11 14:47:08
Sampling Freq(Hz) 100Hz
Duration Time(s)  272
Dir.              U-D
Scale Factor      3920(gal)/6182761
Max. Acc. (gal)   32.946
Last Correction   2011/03/11 14:46:53
Memo.             
[...]
    2517    -1122   -14166   -32218   -46754   -48404   -33933   -11897 
    2527      550   -11283   -18281   -15965   -12413   -11666   -10382 
   -8291    -9035   -13792   -18405   -18345   -14050    -7088     1910 
    8841     5986    -9049   -23368   -21227    -7781      376     -576 
   -5153   -10658   -16841   -21498   -21019   -17199   -16510   -20821 
  -25200   -24981   -22887   -23152   -22005   -16985   -15008   -20086 
  -27847   -32281   -28576   -19835   -17601   -24347   -28763   -24531 
  -19574   -22364   -29329   -31234   -24728   -15886   -14522   -21276 
  -28193   -30628   -27185   -19839   -15633   -16988   -17910   -13077 
   -3160     7496    11961     4289   -11932   -25417   -29689   -27890 
  -25949   -27663   -33329   -35792   -29906   -24494   -24906   -22316 
  -13997    -6447     -923     2714     1719    -1053    -1538    -4932 
  -16088   -30459   -41995   -45959   -39022   -26822   -19820   -20739 
  -26839   -35788   -41123   -35261   -20977    -8720    -5165    -9387 
  -15895   -22585   -30883   -36313   -34315   -30904   -33642   -40866 
  -45029   -41652   -33025   -23847   -16892   -11701    -5935      190 
    3704     4006     3605     2166    -3610   -10933   -11761    -4937 
    2884     5331    -1428   -14736   -23729   -23891   -24267   -30926 
  -38557   -42108   -43698   -46272   -46508   -39271   -27952   -22428 
  -25632   -30512   -32271   -32100   -27939   -17774    -9047    -9054 
  -15539   -24443   -30857   -26746   -14295    -6333    -7516   -14368 
  -24981   -32821   -26752    -8428     4613     2499    -6108   -12253 
  -14685   -13443   -12928   -17573   -22566   -23253   -20807   -16006 
  -11989   -12261   -13962   -16408   -23693   -33065   -36566   -31257 
  -19460    -6331     2199     2467    -6369   -19067   -26514   -26824 
  -24682   -24201   -28069   -34034   -36670   -36123   -33337   -24274 
  -11804    -9831   -26142   -49114   -56625   -40381   -16979    -7564 
  -13436   -19641   -17493   -13260   -11986   -10116    -9421   -12824 
  -12767    -7353    -5931   -12932   -26718   -40764   -42446   -27211 
   -8968    -6032   -18516   -30603   -32336   -25597   -15672    -6891 
   -3733   -11519   -27774   -39914   -44433   -49024   -51435   -44345 
  -31099   -19218   -13070   -10924    -7614    -7060   -14750   -22715 
  -22756   -17509   -10148    -2839    -2714   -13340   -25793   -29188 
  -23182   -13989    -8094   -10347   -18497   -25016   -26387   -24720 
  -25119   -28118   -24938   -13718    -5062    -3049    -5893   -15791 
  -28295   -31343   -23441   -16582   -17272   -20052   -22591   -26881 
  -28594   -24261   -18594   -16051   -15842   -16639   -19473   -22559 
  -20976   -16436   -14213   -12097    -7298    -5949   -14084   -25453 
  -28191   -21206   -11468    -1976     5547     9350    10443     8942 
    4696    -2562   -11851   -16069   -13100   -11081   -11665   -11798 
  -16243   -23515   -22023   -14763   -15357   -20601   -19579   -15636 
  -15639   -16949   -16464   -15974   -15214   -12060   -10521   -16699 
  -26591   -30917   -28296   -21006   -10049    -2426    -5518   -13956 
  -14412     -657    19632    33103    31847    15986    -4768   -16557 
  -17401   -17233   -21229   -27112   -32597   -36142   -36776   -31967 
  -19214    -5524     -295    -2622    -8905   -15480   -15207    -8974 
   -5471    -6480    -9389   -13623   -16209   -14997   -14178   -17125 
  -21727   -24414   -21042   -10565     -215     1977    -4484   -14824 
  -22003   -18624    -5532     2908    -3911   -18315   -28468   -29172 
  -20542    -9479    -3388    -5499   -15946   -26969   -29585   -26193 
  -24529   -27625   -30620   -24004    -9813    -2385    -2654     2261 
   11652    11858     -691   -15182   -19061   -10406      898     5823 
    2818    -7337   -20679   -26947   -18086    -1583     4957    -2255 
  -11807   -17225   -17925   -13839    -9755    -9283   -10078   -12068 
  -16209   -20187   -24157   -25947   -17628    -4327    -4063   -17444 
  -26207   -23378   -16293    -8207    -2525    -6032   -13157   -11701 
   -3049     2624      100   -10393   -21842   -21987    -9889      833 
     430    -7922   -12983    -7146     2846     4827    -1840    -7576 
   -6608    -3296    -4968   -13465   -25300   -33578   -29209   -10435 
    9060    13595     4252    -6715   -11889   -12177   -13454   -18130 
  -18513    -9120     1089     1041    -7158   -14978   -20880   -26549 
  -27272   -19525   -10871    -8400    -8423    -7121    -4952    -1078 
    1707    -2628   -12297   -19496   -21014   -20541   -22476   -24907 
  -23260   -19815   -18478   -16325   -13910   -17204   -21231   -16941 
   -8864    -5165    -6172   -10070   -16354   -23010   -23877   -16429 
  -10368   -10870    -8990    -4654    -8752   -17859   -16631    -3672 
    7279     9562     5252    -4083   -11159   -12351   -16142   -21034 
  -19191   -16679   -14694    -3371     9537     3995   -16912   -29411 
  -22998    -8513     1424     2380    -6560   -21822   -30016   -19081 
    3391    16352    11995     3132    -1252    -7365   -16007   -17268 
   -9759    -2664     -791    -1622    -3763    -7600    -8259     -865 
    8110     9021     1866    -9941   -23990   -32172   -28017   -18891 
  -16232   -18666   -14280     -143    11309    10576     1558    -6103 
   -5949      633     8671    12783     5981   -10505   -23714   -24137 
  -14944    -6816    -6875   -11829   -14370   -12407    -9285    -7592 
   -3806     6000    14714     9334    -9378   -24434   -24339   -14899 
   -6527    -4333   -11636   -25915   -33397   -27067   -17387   -10929 
   -4961    -3234    -9585   -16713   -16846   -13701   -13260   -10485 
   -1471     6039     7502     5461     1621    -1181    -3237   -10111 
  -20789   -28039   -27826   -19749   -10070    -7757    -9788    -9789 
  -11024   -14104   -16787   -22395   -27785   -24967   -16524    -8633 
   -3318    -4199   -13461   -24822   -25717   -12317    -1905    -9541 
  -23441   -27354   -22848   -17422   -12549    -6649    -1620    -2365 
   -9286   -14676    -9720     1878     5617    -1374    -7718   -10338 
  -15265   -21353   -22830   -18706   -12407    -8597    -9329   -13658 
  -20224   -24683   -21749   -13743    -7230    -4383    -4940    -9418 
  -18282   -29981   -38552   -38507   -30424   -17502    -6094    -6341 
  -19486   -33662   -37603   -28508   -11727     1401     3581    -2039 
  -10774   -22514   -33729   -36744   -29004   -13797     -596      258 
   -7984   -15316   -17821   -14062    -4290     7894    16376    17010 
   11956     3743    -4916    -9605    -9034    -2053     8146    10547 
    1414   -12254   -23277   -27681   -23915   -13953    -6982   -10684 
  -16312   -12218    -4905    -5575   -10499   -11151    -8648    -7969 
   -8832    -8737    -9985   -15735   -21317   -20972   -19387   -22754 
  -25007   -18752   -11654   -13649   -17693   -13848    -7689    -6598 
   -8576   -11433   -15246   -19824   -23517   -22144   -15169    -6785 
   -1649    -6038   -20260   -31163   -26829   -12007     -162      564 
   -9515   -21194   -22891   -13829    -2331     3054    -2221   -12247 
  -14935    -7859     -318     -463    -9161   -21069   -25994   -20808 
  -12540    -4515       52    -2314    -4350    -2459    -2033    -2523 
   -2521    -3114     -761     4246     4468    -1938   -11757   -22175 
  -25449   -18032    -9123    -3686      630     -699   -10589   -19534 
  -19236   -10670     2921    14507    15100     5805    -5191   -13150 
  -15687   -11316    -3309     1192     -490    -2867    -1933    -2179 
   -8085   -16173   -20628   -20242   -15858   -10384   -10478   -14134 
  -11258    -5864    -8443   -12881   -11188    -9590   -12641   -16795 
  -21649   -27730   -30539   -26885   -17748    -7349    -4724   -11708 
  -14890    -7305     1019     3350     2694     -645   -10234   -23893 
  -32864   -33889   -31264   -26308   -20197   -17897   -17957   -15254 
  -12113   -10642    -6474     1463     7081     3892    -6053   -11233 
   -7177    -3088    -5418   -13587   -24442   -28967   -22432   -11852 
   -2274     5583     5063    -8042   -20389   -17453    -8872    -8541 
   -9188    -2925     3589     3161    -5739   -19251   -30054   -34263 
  -30378   -18621    -5480     1684     2038    -1421    -3922     -546 
    6556    10310     7312      213    -3720    -4684   -11336   -20833 
  -23298   -19275   -14600   -12583   -13832   -19094   -27902   -32454 
  -25210   -10694    -3798   -15310   -34104   -38085   -23628    -3259 
   11173    12534     4244    -5331   -14786   -20428   -15360    -5723 
   -3436    -6548    -6294    -4377    -7521   -13692   -14607    -8927 
   -6274   -12262   -18891   -19693   -17986   -13845    -4392     2289 
   -4169   -18872   -31754   -41505   -46196   -40384   -26530   -13241 
   -6431    -6904    -9992    -8147     1440    11091    11903     6285 
    1124    -2472    -6704   -10996   -11817    -9387    -5965       95 
    6766     7894     6376    10488    18604    23632    24424    19132 
    4378   -12309   -19104   -15202    -8077    -3977    -4742    -9278 
  -16548   -25880   -33134   -31840   -22927   -14140    -7907    -4634 
  -10651   -25842   -39625   -46286   -44483   -32527   -18855   -16645 
  -24697   -30274   -25935   -14625    -5178    -3914    -6911    -6536 
    -705     8058    13638    12088     5461    -5639   -17542   -20782 
  -17368   -16052   -12784    -3716     1111    -4254   -12512   -17236 
  -16913    -9849       35     1227   -10140   -23112   -29116   -31949 
  -35937   -41577   -47073   -44701   -30766   -15350   -10751   -19249 
  -33403   -44112   -48213   -45167   -33983   -19250    -8631    -4592 
   -6743   -13089   -17494   -16072   -10492    -2567     4287     6198 
    8097    14691    17604     9190    -5041   -14555   -13907    -7824 
   -5210    -7252   -11261   -17612   -21197   -13640    -1806    -1430 
  -12210   -18608   -12753    -5714    -9755   -20074   -27550   -29390 
  -22278   -10132    -7705   -16979   -22857   -21158   -22805   -29664 
  -29737   -16704    -2750    -2508   -10556   -14544   -16659   -21737 
  -24832   -21112   -13692   -10645   -16515   -25671   -28300   -22312 
  -13963    -7426     -593     6248     6399    -1972    -9182    -6990 
     628     7011    10634    10272     5638     -747    -5438    -2688 
    9143    19975    17706     3395    -9762   -13994   -13258   -10249 
   -4758    -2443    -8686   -19819   -28404   -29688   -21926    -9126 
   -1940    -7205   -20034   -31399   -35939   -31078   -18642    -9043 
  -13577   -27668   -35311   -32560   -27386   -22886   -18620   -15662 
  -12338    -7457    -5577    -8666    -9536    -3746     1265     -354 
   -2730    -1698    -2359    -4738    -1840     2948      898    -4600 
   -8751   -13472   -15768   -13520   -12559   -15593   -20694   -25199 
  -25236   -21160   -17235   -14748   -12903   -13066   -19970   -34118 
  -44225   -41714   -34566   -31518   -28270   -20239   -11820    -7427 
   -7387   -10616   -13799   -14682   -13601   -11358   -12058   -17208 
  -18715   -11328    -2431    -2420   -12182   -21510   -20723   -12199 
   -5980    -8114   -15792   -20334   -15195    -1782    10658    10902 
   -1966   -15052   -16476    -8937    -5008   -11530   -24188   -34694 
  -35976   -28552   -23210   -26614   -30966   -27274   -19501   -14730 
  -10754    -6025    -5486    -9551   -13403   -15071   -15813   -16558 
  -15024    -8842    -4225   -10078   -20849   -23910   -20366   -19696 
  -23741   -26235   -21966   -12828    -3925      363    -3568   -13992 
  -21674   -17269    -3906     2562    -4720   -14238   -17067   -17146 
  -18243   -19668   -20684   -19080   -12421    -3138     1157    -4865 
  -14710   -15393    -6627    -2851   -11491   -24512   -32123   -29030 
  -15292    -1624     -626   -12345   -27315   -36484   -37047   -32426 
  -27389   -27822   -35295   -38288   -27650   -14590   -13994   -21864 
  -24714   -18329    -5880     6207     7588    -5262   -25414   -43456 
  -49416   -38911   -19922    -5834    -4613   -14222   -24845   -27629 
  -24507   -21664   -16113    -6290    -1226    -4041    -8433   -10967 
  -11594   -12745   -15871   -14876    -6529     -118    -4395   -16462 
  -29429   -38680   -41334   -38482   -31802   -20841   -11195    -9793 
  -10993    -7326    -1979     1098     1078    -3264   -11869   -21654 
  -24829   -18676   -13478   -15738   -20384   -23588   -24999   -24200 
  -21355   -18097   -18042   -20313   -18891   -11251     1289    11442 
    9570     1396    -1768    -5600   -16338   -25823   -30787   -37327 
  -45093   -48814   -47373   -42745   -38760   -37874   -34860   -25391 
  -16402   -13712   -13067   -12169   -13965   -17208   -20097   -25879 
  -29700   -18695     1780    10004     -603   -17982   -30430   -32925 
  -25618   -12285     2395    13450    15508     4709   -14216   -26196 
  -23610   -14477    -5378     2750     4057    -6635   -23303   -34754 
  -34184   -21524    -6114    -1522    -9349   -19198   -26208   -31032 
  -29081   -18899    -8173    -2670    -3406    -9802   -16067   -16341 
  -15288   -19803   -25858   -25533   -18398   -10451    -8247   -13913 
  -22172   -23738   -15661    -4873      619    -3292   -14635   -21856 
  -15418    -3098     -578    -9377   -15152    -7990     5187    11183 
    5753    -5776   -16513   -22654   -24711   -24948   -25002   -27637 
  -33106   -35421   -31179   -26232   -26828   -29357   -26605   -20549 
  -17954   -19874   -24251   -28128   -27682   -24673   -25159   -33247 
  -50288   -66736   -63560   -38973   -14119    -6450   -15304   -26223 
  -25857   -15722    -3379     6135     5717    -7222   -24054   -34753 
  -37366   -35627   -34488   -36748   -37336   -30829   -21523   -11488 
     959     5577    -7397   -26052   -30984   -19522    -5619    -2127 
   -6670    -9479    -8460    -5202      780     4670    -1693   -15815 
  -26566   -30010   -29518   -26766   -22448   -17223    -9818    -1101 
    3080     1011    -2014    -6343   -15909   -26186   -30335   -27224 
  -19158   -10045    -5119   -10014   -24013   -35967   -36704   -28647 
  -20412   -18504   -20053   -17997   -13394    -8999    -1339     9309 
   14756     8622    -5982   -19288   -24659   -22933   -20179   -23000 
  -30367   -32834   -23858    -9092    -1822    -7607   -18415   -24319 
  -22121   -14892   -10221   -12388   -18055   -22599   -22381   -15833 
   -7548    -3980    -5527    -7227    -5863    -4024    -7864   -19309 
  -29592   -28392   -17911    -8285    -3757     -652     2397     -790 
  -12384   -23547   -28539   -31771   -34727   -32170   -24059   -18052 
  -19631   -25841   -29540   -30126   -32612   -35679   -34349   -28280 
  -20391   -18079   -26924   -37602   -38355   -32961   -29048   -25241 
  -18236   -10204    -6543    -9298   -16848   -27138   -34254   -31229 
  -20990   -12678   -10599   -14848   -21291   -21876   -15054    -6487 
   -1180    -3391   -12642   -21180   -24692   -25827   -26881   -28446 
  -30797   -32689   -33918   -37765   -43828   -43968   -33538   -20011 
  -15673   -24038   -34173   -32076   -18584    -7979    -8304   -14314 
  -19878   -24960   -28236   -25164   -17233   -11596   -11348   -13913 
  -16198   -18206   -20377   -20202   -16091   -10680    -7723    -9033 
  -16406   -29694   -38853   -32108   -13702     1200     3712    -4319 
  -15007   -21438   -22704   -21769   -20073   -18580   -20283   -23762 
  -24346   -24043   -26279   -30781   -37689   -42362   -37740   -27331 
  -21146   -21580   -23142   -23676   -24994   -26401   -28097   -30011 
  -28027   -22228   -18753   -21669   -29081   -34329   -32236   -24464 
  -17368   -15720   -17979   -18809   -16537   -14995   -16308   -17443 
  -17951   -20657   -23289   -22675   -22215   -26314   -32737   -33395 
  -25354   -17217   -16944   -22443   -26700   -23277   -13501    -7746 
   -9532   -11774   -13184   -18247   -25691   -30878   -31017   -28530 
  -30528   -37210   -41753   -42324   -40185   -33863   -22752   -10970 
   -6274   -13006   -25006   -31117   -27655   -20515   -16061   -14388 
  -15143   -20810   -26817   -26430   -24147   -23672   -19847   -13308 
   -9929    -9286    -9789   -14124   -22328   -28699   -27721   -18229 
   -4290     4302     -101   -12686   -23250   -27877   -26507   -22224 
  -22184   -26979   -29668   -28100   -24775   -22898   -27541   -36836 
  -39974   -33230   -24047   -20160   -25364   -38478   -51207   -52872 
  -41046   -26646   -21619   -23630   -23794   -20625   -16048   -10025 
   -4324    -2098    -3823    -7828   -11452   -12989   -15039   -19685 
  -23067   -21705   -17565   -14176   -13551   -16555   -21711   -23701 
  -19469   -13689   -10237    -5996     -230     2290     2221     2703 
   -2487   -16670   -30532   -38936   -42977   -38862   -27160   -16609 
  -11910   -15095   -28650   -46192   -54887   -48449   -30864   -15197 
  -15858   -32727   -51255   -59770   -56521   -44878   -30722   -20942 
  -19488   -24112   -27656   -24308   -14719    -3659     4848     9021 
    9534     6217    -3975   -17654   -23646   -18882   -12343   -12047 
  -16322   -19976   -24421   -31408   -35518   -31683   -19852    -4795 
    4435     1862    -9081   -19169   -23715   -26511   -29150   -26644 
  -19366   -13441   -10438   -10277   -13901   -17169   -14326    -7016 
   -1737    -1506    -3944    -4012      -80     2169     -994    -4699 
   -4894    -2436      804     -544   -11746   -26197   -29254   -17539 
   -3470     2075     -127    -4799    -8812   -12344   -16280   -18307 
  -17442   -16795   -15351   -10604    -7613   -11029   -16283   -14803 
   -3713     8123     9010     -139   -10470   -16577   -15698   -11014 
  -10925   -16609   -23644   -28958   -28067   -19295    -7763      733 
    1814    -5639   -14331   -15849   -11746    -7836    -5100    -3225 
   -5021   -12903   -22716   -23742   -10358     8616    20532    21847 
   13079    -1840   -11166   -10248    -6420    -1739     5715     9986 
    4310    -8812   -20613   -25029   -22236   -15665   -10627   -10264 
  -11056   -11211   -15047   -22163   -26070   -25695   -26821   -31997 
  -37461   -39606   -38156   -34192   -28163   -21504   -18364   -18682 
  -14681    -3131     7731    10499     9040     9691    10963     9908 
    5236    -5692   -17919   -20964   -14066    -4096     1693    -2096 
  -11496   -13805    -3020    12604    22938    25813    22219    13616 
    2541    -9389   -20582   -27413   -26837   -21534   -18437   -22568 
  -33421   -44493   -49967   -49097   -41337   -27910   -16115   -12690 
  -17602   -24772   -25226   -17753   -12669   -15851   -24575   -37970 
  -50374   -48240   -30910   -15439   -12058   -14580   -14602    -7811 
    4744    12429     7421     -579       50     5506     8444     6164 
   -5325   -24107   -36654   -32516   -16534    -3020    -2615   -14384 
  -26179   -23663    -6912     6798     5711    -4105   -13756   -20517 
  -22856   -20742   -18779   -21035   -24839   -27151   -28580   -28231 
  -28145   -29707   -23630    -7599     4028     2706    -5253    -9560 
   -4314     6525    13017    10540     1120    -9441   -14199   -14459 
  -14747   -10525     -758     3871    -2483   -11602   -13110   -10421 
  -13614   -19537   -19594   -16640   -14604    -9765    -2312     3080 
    4236    -2425   -16391   -26292   -25551   -21894   -23053   -26397 
  -26205   -23638   -24644   -29190   -29378   -22075   -16510   -20791 
