Origin Time       2011/03/11 14:46:00
Lat.              38.103
Long.             142.860
Depth. (km)       24
Mag.              9.0
Station Code      YMT008
Station Lat.      38.3854
Station Long.     139.9924
Station Height(m) 452
Record Time       2011/03/11 14:47:02
Sampling Freq(Hz) 100Hz
Duration Time(s)  300
Dir.              U-D
Scale Factor      3920(gal)/6182761
Max. Acc. (gal)   50.424
Last Correction   2011/03/11 14:46:47
Memo.             
[...]
     175      353     1949     4943     8555    11417    12572    11885 
    9420     5334        8    -6040   -11893   -16547   -19849   -22449 
  -24847   -26694   -26857   -24736   -21327   -17810   -14207   -10459 
   -7269    -5567    -6006    -8448   -11771   -14678   -16664   -18198 
  -19905   -21426   -21760   -20676   -18658   -16084   -13346   -10827 
   -8662    -6980    -5535    -3752    -2014    -1260    -1625    -2735 
   -4346    -6292    -8020    -8672    -8116    -6625    -3915     -346 
    2363     3249     3235     3266     3114     2577     1818      238 
   -2880    -6823   -10413   -13675   -16819   -18809   -19001   -18814 
  -19674   -20793   -20742   -19616   -18003   -15746   -13234   -11715 
  -11394   -10734    -8194    -4303     -996      838     1349      363 
   -2156    -5364    -8229   -10251   -10920    -9547    -6367    -2702 
     210     1709     1470     -212    -2260    -3669    -4041    -3400 
   -2000     -151     1549     2366     2290     2114     2311     2155 
     832    -1276    -3754    -6982   -10975   -14834   -17405   -18199 
  -17875   -17292   -16553   -15700   -15497   -16670   -18995   -21976 
  -25308   -27944   -29006   -29486   -30482   -31216   -30555   -28722 
  -26612   -24445   -22054   -19839   -18087   -16687   -16273   -17481 
  -19174   -19572   -18616   -17805   -18287   -19946   -21677   -22069 
  -20738   -18711   -16578   -13696    -9525    -4319      809     4324 
    5820     6208     5953     4426     1589    -1122    -2840    -4273 
   -5695    -6115    -4859    -2562     -483      696     1058      560 
    -769    -1988    -2317    -2227    -2399    -2933    -3744    -4423 
   -3997    -2173      -67     1480     3086     5570     8852    12341 
   15353    16901    15863    12306     7756     3244    -1207    -5133 
   -7839    -9746   -12230   -15966   -20022   -23179   -25087   -25712 
  -24972   -23088   -20611   -18054   -15910   -14521   -13303   -11471 
   -9364    -7492    -5822    -4680    -4563    -5627    -7874   -10555 
  -12487   -13614   -14432   -15033   -15797   -16719   -16996   -16681 
  -16656   -17388   -18728   -19892   -20195   -19702   -18620   -17456 
  -16870   -16210   -14459   -12181   -10220    -8318    -6321    -4707 
   -3774    -3732    -5126    -8051   -11299   -13205   -12952   -10218 
   -4712     2579     8635    10600     9196     7857     7983     7895 
    6215     3458      773    -1279    -2792    -3735    -3383     -928 
    3509     8982    14266    17667    17996    15862    12216     7477 
    2823     -733    -3698    -6568    -9224   -11997   -14989   -17202 
  -17407   -15355   -12162    -9586    -8824    -9747   -11171   -12257 
  -13249   -14524   -15769   -16562   -17445   -19336   -21599   -22431 
  -21107   -18665   -16977   -16968   -17771   -18639   -20026   -21895 
  -23458   -24743   -26382   -28191   -29385   -29653   -28476   -24931 
  -19625   -14663   -11585   -10748   -11651   -13223   -14318   -14235 
  -13269   -12381   -11467    -9101    -4986     -852     1519     1697 
     569     -405     -637     -843    -1997    -4685    -8622   -12453 
  -15108   -16623   -17782   -19737   -22457   -24412   -24698   -22988 
  -18800   -13170    -8116    -4123     -749     1615     1951     -394 
   -5344   -11939   -18022   -21482   -22245   -21602   -20489   -19411 
  -18631   -18367   -18904   -20102   -21725   -23394   -23756   -22174 
  -19895   -17798   -15633   -13121    -9973    -6368    -3251    -1105 
     390     1454     2158     2669     2648     1605      339      363 
    1580     2336     1854      681    -1049    -3659    -6507    -8371 
   -8899    -8740    -8633    -8724    -8962    -9734   -11179   -12478 
  -12826   -12291   -10934    -8101    -3799      376     2895     3324 
    1476    -2675    -8269   -13655   -17520   -19616   -20039   -18567 
  -15397   -11716    -8869    -7203    -5955    -4279    -1860     1083 
    3171     3043     2105     2923     5482     8026     9496     9584 
    8731     8249     9294    11541    13006    12270    10253     8333 
    6519     4494     3003     3589     6827    11117    13999    14110 
   11370     6238     -686    -8770   -16906   -22877   -24602   -22637 
  -19584   -16982   -14691   -12554   -11259   -11954   -15013   -19340 
  -23499   -26957   -29815   -31849   -32426   -31513   -30224   -30093 
  -32019   -35566   -39263   -41966   -43646   -44723   -44895   -43180 
  -39393   -34331   -28135   -20235   -10829     -911     8387    15832 
   20632    22776    22419    19881    16112    12144     8566     6143 
    6099     8741    12309    14506    14962    15184    16368    18357 
   20470    21950    22057    20843    19050    16681    13010     8143 
    3149    -1217    -5148    -8902   -11768   -13283   -14323   -15106 
  -14311   -11423    -7794    -5369    -5474    -7992   -11518   -14839 
  -17618   -19776   -21393   -22486   -22124   -19417   -15430   -12089 
   -9908    -8245    -6582    -4856    -3712    -4249    -6684   -10374 
  -15068   -20295   -24579   -27030   -28170   -28700   -28913   -28930 
  -28923   -29117   -29066   -27596   -24319   -20236   -16570   -14235 
  -13768   -14504   -14889   -14500   -14715   -16388   -17925   -17414 
  -15075   -12110    -9671    -8805    -9053    -8708    -7276    -5778 
   -4719    -3075      -38     2897     3638     2009    -1287    -5475 
   -9319   -12031   -13121   -12101    -9728    -7400    -5636    -4544 
   -4170    -3830    -2607     -623     1379     3543     6633    10638 
   14730    17962    19559    19200    17060    13769    10248     7139 
    5013     4373     4566     4420     4415     5916     8250     9205 
    8016     5547     2625     -401    -3862    -8413   -13426   -17426 
  -20346   -23119   -25750   -27467   -27775   -26773   -25072   -23424 
  -21954   -20018   -17184   -13832   -10894    -9107    -8021    -6757 
   -6037    -7851   -12359   -16699   -18472   -18432   -18283   -18330 
  -17925   -16577   -14837   -14327   -15606   -17261   -18509   -20088 
  -22090   -23278   -22164   -18445   -13947   -11158   -10863   -12099 
  -13538   -14868   -17406   -22059   -26921   -28922   -26932   -22057 
  -16262   -11188    -7581    -5214    -3861    -4804    -9155   -14663 
  -17502   -16633   -14159   -12250   -11214   -10354    -9173    -7711 
   -6675    -6446    -6282    -5937    -6111    -6589    -6709    -6949 
   -8068    -9851   -11494   -12452   -12459   -11250    -8952    -6505 
   -5529    -7151   -10231   -12352   -13169   -13822   -13938   -13016 
  -12258   -12484   -13176   -13860   -14415   -14589   -13661   -10750 
   -6258    -1875     1425     3774     5379     5874     4350      694 
   -4180    -9620   -14747   -18119   -19221   -18587   -16839   -14477 
  -11685    -8668    -6107    -4377    -3285    -2716    -2849    -4060 
   -6210    -8722   -11705   -15181   -17996   -18971   -18086   -16073 
  -13340   -10019    -6457    -2510     1947     5793     8053     9059 
    8883     6462     1276    -5142   -10638   -14838   -18694   -21997 
  -22860   -19776   -13094    -4579     3317     8323    10144    10817 
   11876    12534    11713     9834     7851     6232     5117     4583 
    4784     5946     8426    12386    16646    19162    19358    18284 
   16457    13559    10398     8663     8128     6890     4519     2447 
    1702     1711     1321      201    -1468    -3649    -6145    -8562 
  -10705   -12484   -13507   -13403   -12504   -11445   -10496    -9755 
   -9530   -10354   -12190   -13705   -13432   -11303    -8582    -7134 
   -8264   -11424   -14698   -16487   -16322   -14568   -11663    -7998 
   -4115     -143     4020     7516     9120     8922     7541     4445 
    -814    -6968   -12006   -14727   -15015   -13554   -12000   -12339 
  -14638   -16895   -17991   -18860   -20235   -20945   -19573   -16879 
  -14775   -13868   -13928   -15177   -17804   -20893   -22492   -22059 
  -21393   -21330   -20998   -20848   -21918   -23198   -23144   -21593 
  -18961   -16189   -15306   -17883   -23201   -29031   -33800   -37298 
  -39828   -41218   -40673   -37798   -33442   -28985   -25153   -22111 
  -19821   -17617   -14647   -11053    -8447    -8906   -12573   -17761 
  -23649   -29701   -33726   -33762   -30199   -24582   -18118   -11961 
   -7025    -3080     -223     -345    -4043    -8711   -12509   -15817 
  -17689   -16447   -13274   -10458    -7672    -3250     2024     4943 
    3733     -566    -6306   -12359   -17965   -22431   -24569   -23808 
  -20896   -16352   -11028    -7512    -8056   -12417   -18531   -24404 
  -29212   -32483   -33511   -32575   -31045   -29380   -26726   -22907 
  -19387   -18365   -19639   -19108   -14707    -9909    -8016    -8188 
   -7679    -6347    -7095   -10192   -12640   -13232   -11973    -7953 
   -1424     5531    11491    17693    25679    33476    37858    39225 
   40344    41401    39997    35301    28979    23291    20040    19541 
   20780    23640    28546    33556    35424    33659    30204    25767 
   19793    12600     4840    -2646    -8100   -11168   -13540   -15808 
  -18392   -23581   -31894   -41080   -50609   -61018   -69749   -73031 
  -70177   -63205   -54068   -44123   -35149   -28778   -25127   -23240 
  -23006   -25577   -30891   -36068   -37460   -33611   -26185   -17809 
   -8747     2306    13589    20777    23359    24492    24593    22246 
   18965    16189    11272     2449    -6168    -9915    -9966   -10155 
  -11004    -9631    -3753     4692    10165     9091     3572    -1452 
   -2285     2224     9892    16092    18352    18984    21149    24450 
   26966    29315    33549    39364    43303    41192    31454    16412 
     255   -13416   -22806   -28457   -30851   -27747   -17826    -5698 
     950     -897    -6937   -11861   -16133   -22624   -29961   -34688 
  -36842   -39369   -43956   -50235   -56970   -61417   -61288   -58967 
  -58848   -59654   -54779   -41259   -23146    -6008     7197    15423 
   18776    19338    20174    21709    20949    16775    13515    14912 
   17319    14658     7000    -2024   -12115   -24268   -36260   -44856 
  -49456   -51433   -51344   -48460   -42624   -34449   -24241   -13404 
   -5342    -1980    -1566    -1503    -1693    -4685   -12291   -22474 
  -31314   -36728   -37860   -33488   -24742   -16043    -9637    -3779 
     810     -601    -8499   -16691   -21166   -23438   -23294   -16849 
   -3497    11923    24472    32408    35872    34865    29286    21071 
   13302     6624     1386      722     5336    10545    13388    15903 
   19588    23968    28586    30009    22846     8240    -5420   -11958 
  -13957   -18951   -28270   -35021   -36315   -36401   -36243   -32616 
  -25943   -19539   -14108    -8250    -1467     5810    13227    19904 
   23594    22110    15545     6374    -2173    -8001   -11645   -15366 
  -19184   -20920   -22176   -27490   -35730   -39680   -34675   -23596 
  -13497    -8442    -7304    -8055   -10249   -13168   -15694   -17675 
  -18378   -16212   -12301   -10001   -10360   -12067   -13545   -13394 
  -11829    -9915    -7975    -7655   -10329   -13934   -17418   -22785 
  -29049   -30739   -25219   -17522   -12858    -7814     1700     9812 
   10024     6032     2897     -421    -3622    -2724     3167    11557 
   20741    28773    31220    23785     7233   -11594   -25712   -34740 
  -43086   -52441   -59163   -58520   -50189   -38183   -24657    -9376 
    3767     8788     5967      956    -2284    -4452    -8076   -13138 
  -18578   -25025   -30693   -31521   -28192   -24216   -20123   -15867 
  -12727   -11676   -13609   -18360   -23470   -27346   -31032   -33945 
  -32903   -28384   -25124   -24954   -25554   -24950   -22738   -18991 
  -14096    -9848    -8232    -7155    -1953     8223    19626    26610 
   25038    18010    13093    11782    10133     6403      628    -6743 
  -12357   -13036   -10996    -9288    -5514     3539    16151    29163 
   41766    51411    52238    43070    30375    20683    16161    16303 
   19328    23100    26354    28461    28661    26950    24084    20476 
   16862    13934    10649     4473    -6686   -20896   -31741   -34928 
  -31438   -23457   -13972    -8280    -9332   -14323   -19627   -25465 
  -32174   -36546   -36538   -35070   -34828   -33955   -31158   -29719 
  -32237   -36268   -37482   -34319   -27445   -16681    -3140     8387 
   13750    13498    10810     7608     5084     5427     8875    12039 
   12105    10242     8774     7006     2870    -4023   -12754   -21399 
  -27472   -29243   -27154   -25310   -28476   -35619   -40554   -39747 
  -34873   -28504   -22556   -18790   -15587    -7899     5204    17218 
   21733    19863    16965    14407     9539     2489    -3640    -8434 
  -14109   -21317   -28423   -33246   -34382   -31904   -27424   -22382 
  -15460    -4914     6618    14464    17262    16385    12361     4124 
   -8158   -21306   -32421   -41953   -50332   -54350   -51739   -46675 
  -44741   -45346   -44680   -41881   -38210   -34365   -30005   -24098 
  -15407    -2730    12004    22876    26500    24333    18718    12139 
    6632      983    -6773   -13601   -13868    -5882     8969    28059 
   45019    53601    53806    47456    34246    16808     1006   -11076 
  -21721   -32200   -41611   -48328   -50951   -49356   -44471   -38253 
  -32637   -27006   -19478    -9881     -292     5842     6144     1278 
   -5789   -11312   -12988   -12744   -14619   -18881   -22189   -21865 
  -17540   -11942    -7694    -2267     7382    18885    29793    41454 
   54020    64637    70130    68148    58740    44903    28465     8371 
  -13773   -32673   -46034   -53986   -54125   -46358   -37392   -32196 
  -27176   -17809    -6342     2006     5494     6522     7028     5973 
    3072     -329    -4793   -11050   -16845   -20673   -24710   -29421 
  -30786   -27250   -22221   -17546   -11869    -5138     -327     -448 
   -4439    -8277   -10191   -11090   -12018   -14315   -17579   -17663 
  -13242   -10057   -13097   -20543   -26621   -27880   -27625   -30622 
  -36684   -43616   -48022   -46598   -42561   -40873   -39462   -33675 
  -23166   -11375    -2175     1668     -904    -6688   -10296   -11684 
  -14259   -16703   -15477   -11432    -7263    -2143     5897    14624 
   20935    25796    28802    25486    14908      824   -14309   -29232 
  -41871   -51336   -57650   -60260   -60005   -58186   -53745   -46678 
  -39931   -34572   -29880   -26922   -24774   -18936    -8402     3135 
   13213    21284    26038    25298    17859     6748    -1509    -3654 
   -1961      398     2684     6271    11202    14034    11555     4160 
   -6200   -18829   -32765   -44429   -51030   -53122   -50094   -40189 
  -27275   -18316   -13718    -9032    -4331    -3419    -6514   -10951 
  -15131   -16482   -10693     3159    18919    27039    24361    17489 
   13163    11022     8474     6648     8374    13547    19406    23506 
   25441    27313    31144    35506    37660    37709    38044    40693 
   45046    47747    47355    46027    45460    46547    50483    55799 
   58545    57175    53042    46238    35826    23582    12502     3073 
   -5273   -11759   -15593   -17332   -18412   -19837   -21445   -23476 
  -27020   -31125   -32473   -29666   -24937   -20649   -17277   -14623 
  -12171    -9750    -8699   -10568   -15400   -22097   -29580   -37112 
  -44956   -53823   -61226   -63023   -59862   -55719   -52586   -50709 
  -49185   -45914   -40353   -34404   -30713   -31718   -36942   -41557 
  -42397   -42694   -45924   -49620   -50158   -48235   -45809   -42070 
  -35091   -25760   -17308   -10838    -5735    -3636    -6107   -11321 
  -17404   -24264   -31051   -36061   -38409   -38776   -38367   -36084 
  -29605   -20204   -11984    -6090     -497     4927     8396     9118 
    6325        5    -6621    -9369    -7297    -4306    -4767    -7318 
   -7358    -3407     2766     8824    12492    11806     7359     2731 
    -177    -3053    -6629    -8781    -7385    -2471     3023     5694 
    6159     7387     9729    11066     9419     4058    -4436   -14592 
  -24409   -31763   -35614   -37413   -39544   -41340   -39905   -35415 
  -30306   -24335   -17354   -12848   -12118   -11924   -11451   -13290 
  -17235   -19602   -17903   -13634   -10527   -10233   -10995   -10396 
   -8097    -5862    -5111    -5691    -6081    -3526     2193     6731 
    8055     9565    11992    10257     2132    -7809   -15202   -18832 
  -17092    -9530     1116    12296    22282    28868    30480    26475 
   17842     7568    -2307   -11334   -18265   -22183   -23440   -20835 
  -13176    -3861     2116     4582     6792     9126     9748     9932 
   12043    15435    19031    22740    25085    23859    19002    12240 
    3082   -10199   -23376   -28954   -28038   -28879   -34136   -38581 
  -37078   -29865   -21835   -17388   -16056   -14815   -12580   -10340 
   -9861   -12971   -18996   -24076   -25178   -22070   -15310    -6321 
    1038     3207     1438    -1014    -5118   -13089   -22725   -30269 
  -34219   -34430   -30853   -24271   -17856   -15344   -16797   -18325 
  -16843   -13759   -11519    -9945    -9092    -9265    -8010    -3367 
    2636     6827     8395     8605     8124     6270     3144     -867 
   -6730   -13546   -17268   -16208   -12558    -8406    -5878    -7606 
  -12657   -16640   -17189   -15089   -11763    -9639   -11375   -15396 
  -16960   -15205   -13268   -12104   -10735   -10092   -10959   -12679 
  -16289   -22438   -28015   -30157   -29109   -25901   -22068   -20424 
  -22212   -24994   -25655   -23792   -21419   -21113   -24625   -31354 
  -38090   -42350   -44492   -44932   -42019   -33376   -18568    -1361 
   11989    17027    12719     2030    -8466   -13992   -16242   -19167 
  -22426   -23104   -20696   -16306   -11002    -6666    -3983     -876 
    4114    10149    15623    17745    14427     8219     3021     -331 
   -2255    -3691    -5354    -4833      299     7876    13940    17260 
   19323    20642    18975    13644     8182     6371     9190    14414 
   17758    17509    15619    12386     5065    -6901   -20097   -32225 
  -42991   -49224   -47419   -40028   -32687   -27949   -25187   -24371 
  -26794   -31452   -34288   -34235   -35099   -38080   -39668   -37659 
  -32600   -26356   -21387   -18320   -16042   -13236    -8630    -3757 
   -3220    -8375   -15261   -20532   -23962   -25803   -27098   -29771 
  -33245   -35058   -35618   -38065   -42321   -44250   -42807   -41136 
  -39433   -35034   -28376   -21905   -16365   -12019    -9297    -6587 
   -1216     5932    10766    12645    14671    16877    17087    16053 
   14774    11605     5881      437     -796     3049     8574    12341 
   14815    18464    24235    31019    36863    40497    41830    41307 
   40100    38766    34999    26756    15704     5126    -2549    -7284 
  -10766   -12256    -9686    -5488    -4456    -6525    -8747   -11886 
  -17338   -21896   -22699   -21155   -18087   -12866    -7562    -4850 
   -3769    -1966      658     3635     8151    14162    18514    18225 
   12437     1601   -11542   -21862   -26405   -27232   -27345   -26907 
  -25518   -24021   -22122   -19432   -19030   -23394   -29200   -32430 
  -33336   -32332   -27933   -20836   -15509   -15959   -20643   -25040 
  -27984   -30411   -32085   -33034   -32794   -28202   -17409    -4302 
    5690    11343    13728    12544     6953    -3161   -16798   -30566 
