Origin Time       2011/03/11 14:46:00
Lat.              38.103
Long.             142.860
Depth. (km)       24
Mag.              9.0
Station Code      YMT012
Station Lat.      38.1087
Station Long.     140.0430
Station Height(m) 198
Record Time       2011/03/11 14:47:08
Sampling Freq(Hz) 100Hz
Duration Time(s)  272
Dir.              N-S
Scale Factor      3920(gal)/6182761
Max. Acc. (gal)   50.514
Last Correction   2011/03/11 14:46:53
Memo.             
[...]
   41318    43434    43976    41980    37681    33610    31600    30249 
   27068    20646    11075      545    -8006   -13680   -17149   -19360 
  -21535   -23661   -24515   -22380   -14568    -1731     9348    12735 
    9146     2535    -4605   -10702   -13823   -13557   -12071   -11036 
   -8828    -3431     4231    12520    20822    27648    31319    33466 
   37374    41935    42284    36294    25883    14652     6734     2692 
   -1254    -4471     -670    10844    22039    24576    16729     3698 
   -7296   -11613   -10426    -9763   -12249   -16212   -21358   -26049 
  -27158   -24732   -19239   -10628    -2014     3543     5906     4966 
    2291      710    -1396    -5714    -8811    -8324    -5528    -1281 
    4626    11145    15777    19422    27032    38267    46445    49132 
   48896    46052    38569    25901    11501     1293    -2431    -1135 
    4549    12202    16347    14360     7667     -939    -9197   -16191 
  -19938   -19718   -17626   -12393    -3871     1373     1174     2075 
    8479    17128    23380    27759    31212    29917    21231     6509 
  -11554   -26927   -33029   -29122   -19917   -12841   -11426   -12384 
  -13645   -14800   -14244   -13283   -13909   -17647   -26467   -37061 
  -45193   -50573   -49395   -39399   -27388   -18993   -13843   -10822 
  -10454   -13495   -16619   -16241   -13826    -9756    -3122     3641 
    8749    12442    15219    16991    16312    15029    16669    19302 
   21165    24853    30361    34244    34136    29725    22081    13510 
    7170     2352    -5866   -16243   -20899   -16074    -4258     9369 
   20054    24725    21263    12255     3079    -5919   -15240   -21321 
  -22279   -22216   -26553   -34289   -40671   -42889   -38061   -26040 
  -12691    -3240     1644     3273     2825      314    -3636    -6401 
   -6209    -3307      732     2767     1989     2511     6021     7958 
    5943     3277     2181     2081     2647     2550      -48    -3953 
   -6296    -6381    -6025    -4667     2239    14385    25254    31718 
   33845    31628    28424    28525    31557    34520    36446    38195 
   37497    28975    13182    -1229    -6919    -3346     5461    15047 
   22831    26439    23720    16080     6947    -2069   -10287   -17788 
  -25644   -32883   -38111   -41863   -42825   -38366   -29279   -19665 
  -14140   -14223   -16443   -16919   -14994   -11581    -8881    -8066 
   -6275    -1545     3395     4964     3267     2369     5128     9394 
   10751     6941      498    -4159    -7013   -10182   -12522   -13341 
  -14882   -17655   -18357   -12381      612    14354    23103    25996 
   23067    14927     4949    -3331    -7909    -7759    -3739     3920 
   16908    32422    43530    48093    49242    49981    51356    52017 
   50075    45714    39602    32612    26904    23062    19923    17508 
   16910    18003    17801    14839    12519    12251    10829     6391 
    -205    -7652   -14311   -18178   -18071   -13561    -5393     2876 
    7391     8029     8233    10289    12061    11153     7469     1505 
   -4642    -8592    -9469    -7342    -5312    -6699    -9977   -12261 
  -11520    -5641     4350    13727    17745    14811     7820      956 
   -4027    -6441    -5007      -94     5973    12436    19133    23833 
   25187    23650    18990    12184     6598     3717     2351     2443 
    4557     7446     8890     7642     4326     -370    -4963    -4944 
     195     4337     6012     9628    14746    15628    10067     2609 
   -1066      463     5051     9773    12136    11669    10578     8465 
     850   -10841   -18954   -22312   -25091   -27766   -28168   -25414 
  -22544   -22700   -22691   -19637   -15828   -12362    -8528    -4419 
    -783     1744     4828     9940    15554    18925    17420    13162 
   11528    11552    10717    12000    15629    17578    17188    15105 
    9926     2068    -4889    -8019    -9283   -12050   -13352   -10045 
   -7479   -11015   -18828   -26635   -31484   -33288   -33770   -31843 
  -24774   -13884    -4574     -958    -1612    -2162    -1236       21 
    1939     5850    10943    13277    10330     5029      924     -872 
      57     1739     2953     6302    12346    18070    20309    18296 
   14801    12342    11812    14481    19733    24840    27714    26763 
   22624    18594    15062    10751     8718    11916    17103    18669 
   15250    10878     9326     9102     6957     2880     -674     -873 
    3266     9089    12943    14439    15788    15300     8628     -359 
   -3992    -3367    -2739    -2974    -5373   -10513   -16459   -20858 
  -20773   -14204    -3756     4054     5305     3789     4246     3555 
   -2632   -11903   -19597   -23000   -22925   -23186   -23431   -19658 
  -12300    -4205     2995     7149     8179     8171     6935     5453 
    7802    13294    16544    15533    12819    11968    12530    10539 
    6413     4159     4958     5576     -155   -11186   -16665   -13934 
  -11565   -13103   -16052   -19144   -22051   -23070   -17808    -4395 
   11603    24162    30886    29623    22014    15262    13338    13481 
   13213    14330    18628    23862    26832    28404    31915    37317 
   39792    34597    22251     8234    -2718    -9974   -13302   -10919 
   -4066     2139     4443     3639       45    -7470   -16658   -22472 
  -22515   -19254   -16637   -14470    -9854    -3157     1804     4341 
    9810    20308    30854    38106    41832    42767    42183    38745 
   32125    26163    24649    29224    37190    43609    47600    50197 
   51371    49192    39086    21979     6243    -4308   -12751   -20897 
  -25493   -20490    -5029    12612    23017    23391    16751     7732 
      47    -4199    -4849    -3086      554     5498     8739     9160 
   10625    15135    20277    23593    24464    23673    20978    15551 
    8368      612    -4599    -1964     7646    16671    20109    19375 
   18715    19716    20360    18568    13801     6385    -2129    -9257 
  -14317   -17801   -19140   -18320   -15107    -9075    -2702     2081 
    7961    17514    27452    31660    26961    14187     -867   -12117 
  -20142   -26275   -27987   -23359   -12311     1830    12817    17012 
   13770     4814    -4435    -9710   -11537   -11228   -10058    -9550 
   -8825    -8169    -9103    -8125    -1656     8430    20180    32292 
   41242    45846    47951    46009    36937    22877    10324     4722 
    6245    10362    13371    14764    14453    11664     6030    -1084 
   -7186   -12658   -19640   -26969   -32571   -36503   -38645   -37149 
  -29432   -16765    -5558      285     2064     1535      702      729 
   -1354    -6960   -11614   -12148    -9977    -6683    -3618    -2038 
    -647     2193     5422     7571     8614     9019     9675    10294 
    8190     2812    -2428    -5149    -6626    -9474   -13488   -15801 
  -15847   -14349   -10541    -5690    -3131    -4034    -6909    -8260 
   -5614    -2111    -1527    -1821      483     5774    11128    13749 
   15593    17219    14616     9439     8972    15344    24054    31734 
   40456    50731    57163    55225    43255    22737     2578    -8034 
   -9253    -4787     4140    15129    23373    23807    14999     2332 
   -9002   -18948   -27254   -31319   -27916   -17930    -8856    -4863 
   -2042     2863     9079    14733    19011    23332    27862    30480 
   31435    32334    33370    33184    29130    22150    16063    12406 
   12518    16342    21355    25787    26571    21671    13055     1701 
  -10828   -19857   -23474   -23256   -20750   -17316   -12764    -5663 
    2969    10211    14790    17346    19217    22535    28514    35179 
   39771    42076    42523    39809    34227    28900    26199    27900 
   33666    38066    36917    32624    28608    23483    14976     6592 
    3012     1845    -2804   -12267   -22684   -29306   -29148   -22587 
  -14831   -11749   -12815   -12515    -8147    -1672     4100     7540 
    8648     8442     7401     5971     5956     9941    18947    30451 
   39972    44950    46005    45568    45262    43795    39756    35761 
   36231    41504    46686    47189    43302    37907    31529    22175 
   11341     4900     4480     6029     6367     3888     -701    -3909 
   -6235   -11808   -20265   -27767   -32316   -34696   -37871   -44016 
  -52168   -59586   -61304   -51081   -27517     4041    34942    57544 
   68901    68395    56886    41583    31513    28811    30366    32664 
   34101    35554    37917    40647    42159    39098    29735    18535 
   12335    14336    21518    26837    27050    22776    11898    -6014 
  -24021   -34061   -32557   -21313    -8908    -4573    -8334   -13530 
  -15150   -12333    -7865    -4438    -1334     2422     5459     5247 
     645    -4396    -3387     4117    13113    20429    24209    23521 
   21321    19967    18964    19106    20620    20679    16894     9643 
    1426    -6412   -15960   -25817   -28327   -21671   -12599    -5051 
    1376     6351     8099     4663     -960    -2056      215     -895 
   -5341    -9028   -10405   -10214   -11899   -16393   -17492    -9169 
    7014    21711    25640    19474    10152     1861    -3382    -3240 
    4097    18186    33700    43598    46856    45728    39399    28508 
   16688     5056    -6002   -13676   -15989   -14490   -13252   -15901 
  -22054   -26249   -21974    -8932     4917    13273    18739    22586 
   18554     4991   -10447   -21581   -28352   -31339   -28320   -17003 
     718    18804    31390    35647    31980    24232    16755    10444 
    4635       85    -1137     2777     9758    13849    12358    10058 
   11969    15033    14046    11132    11048    12905    12533     8624 
    2419    -5464   -13167   -16551   -13704    -6395     2035     9579 
   17305    23251    20809    10002      582      744     7980    13278 
   13331    12157    12691    14553    17279    21254    25884    29559 
   31076    29671    26457    23247    18648    10784     1592    -4450 
   -3276     5117    15222    20973    20275    14665     7637     2296 
     -82      381     2378     3853     3059      -30    -3922    -8105 
  -12747   -16490   -17832   -16339   -11746    -4770     2133     5596 
    3628    -2330    -9431   -15582   -18991   -18995   -16296   -10789 
   -1753     9073    17666    21898    23137    22331    16621     4270 
   -9739   -18173   -18111   -11320     -955     9395    14957    14440 
   11857    10864    12772    16776    20717    23907    25232    21827 
   13889     5425     -867    -4753    -5183     -268     9196    19610 
   28338    33400    30948    19217     2311   -13320   -23536   -27820 
  -27190   -21962   -12587     -867    10418    18471    20289    13737 
    1480   -10614   -18510   -20150   -16446   -10688    -3703     5262 
   14887    21103    20528    17490    20363    29351    37088    38685 
   35397    31248    28716    26325    20224    11167     5618     5841 
    7392     7537     7858     8328     5601      542    -1221      917 
    2391       15    -6999   -17086   -27761   -36419   -39292   -35048 
  -26060   -14688    -3221     5672    10404     9983     3902    -6320 
  -17591   -27702   -35360   -38175   -34172   -24308   -12170    -2016 
    5832    13784    20796    25694    29469    31521    32189    32952 
   33320    32202    27584    19599    13136     8929     2806    -5144 
  -11242   -10747    -1531     9473    14151    12579     7932     2047 
   -4070    -8605    -8564    -4867    -1704     -216      450     2699 
   11111    25650    39598    46718    45864    39541    31393    24971 
   22074    21603    20372    15556     8955     5837     5998     3027 
   -4918   -12594   -16709   -19402   -22523   -25241   -27578   -29909 
  -32223   -36891   -44226   -49358   -48929   -44055   -36621   -25301 
   -8153     9796    20566    23675    23810    23755    23582    22065 
   20093    21304    26331    32220    37544    42769    47516    49911 
   48167    41922    32275    22324    16391    15667    16721    15962 
   12005     4843    -3963   -12361   -18116   -18563   -13352    -4778 
    4590    12682    17966    18657    13531     4704    -2503    -2662 
    5481    17049    25905    30745    33821    35848    35682    33098 
   29659    27821    27443    24665    18276    12625    10534     8042 
    -212   -13565   -27621   -39227   -45365   -43468   -33767   -20318 
  -11582   -12356   -17039   -21090   -26914   -32877   -33143   -27056 
  -18549   -10742    -3414     5063    13560    19387    22561    25244 
   28028    30110    31923    34148    35851    35197    31583    27041 
   22416    13962      623   -10642   -12577    -3835    11988    29774 
   46897    58929    57625    43352    25353     7774    -9042   -21545 
  -25613   -20790   -11347    -1184     9019    17130    19760    16079 
    7930    -1097    -6888    -6795    -1174     6579    12342    14395 
   13626    11503     8863     4868     -660    -3428      483     9072 
   17780    22988    23647    20771    13852     3554    -5622   -10242 
  -10059    -8213    -8905    -9504    -3542     9100    23879    36762 
   44991    48287    48658    48096    46897    44831    42516    38778 
   30742    19142     8480     2474     1927     4367     7070     9914 
   12508    13668    13081    10085     4899    -1377    -8910   -16596 
  -22118   -26491   -32667   -40766   -47661   -49155   -43656   -35260 
  -30210   -30506   -33767   -36676   -35415   -26865   -12775      653 
    9344    14885    19790    22500    21142    18987    20967    28343 
   40384    55711    70686    81154    84326    79288    67979    52354 
   33122    13882      236    -3966     1452     9519    11886     8898 
    3062    -7064   -19511   -29823   -36351   -37952   -35891   -34585 
  -35258   -35473   -31685   -21509    -8813      446     6592    12732 
   19962    26540    27711    22409    17255    19252    28744    40212 
   48359    51652    50309    44542    35364    25657    18481    13846 
    9723     5931     4574     6148     6650     1544    -8679   -20080 
  -29336   -34244   -33115   -26836   -20550   -18414   -19344   -20660 
  -21335   -22600   -25113   -25186   -19871   -10889      835    15555 
   29842    38640    41218    40236    35535    25896    15326     9655 
    9474    11363    13700    16296    17018    15239    13095    11561 
   11464    12945    13808    13206    12078    11722    13068    14217 
   12760     8670     1986    -7620   -17733   -23886   -25963   -27166 
  -25304   -16284    -2560    10616    20039    23368    19022     7813 
   -6787   -20044   -27649   -27719   -21251   -10864     -736     6021 
    9427     8903     4586      841      727     2958     5900     8645 
   10488    10557     6264    -4261   -18532   -31739   -40112   -43251 
  -42339   -33945   -14254    11761    33770    44640    45898    45203 
   44301    38296    27580    17070     8892     3349     -769    -4244 
   -4275     -209     4698     8309     9785    10531    12706    13412 
    8185    -2461   -13243   -18862   -20117   -20747   -21102   -22088 
  -25094   -26899   -26041   -27129   -32659   -39462   -43295   -42406 
  -37919   -30696   -20347    -8346     2487     9956    12110     8927 
    3686     1487     7107    20446    35564    47684    54465    53109 
   44533    32429    18739     7613     4541     9241    16905    23080 
   25065    22152    14507     3733    -4707    -6383    -4512    -4734 
   -7594   -10330   -11044   -10092    -8960    -7966    -6786    -5709 
   -5335    -6693    -9455   -10762    -9734   -10197   -15144   -22271 
  -28864   -35875   -42727   -44484   -37590   -24573   -11977    -3489 
    2542     7664    12058    16708    20950    23342    23627    20321 
   14576    13184    18979    26959    32481    33684    29790    22122 
   12527     4225     3172     9972    16783    17718    13724     7137 
      91    -4120    -4929    -5256    -6159    -7068    -8090    -8053 
   -5034     1277     8932    15032    18611    19371    14974     4671 
   -6599   -12166   -10711    -5037     3371    12982    20324    23264 
   22281    19397    18418    22531    29788    33576    28396    14641 
   -2475   -17549   -27717   -32440   -31740   -25458   -15018    -5062 
     415     3982    10083    17016    20428    18302    11144     2520 
   -4184    -8152    -8431    -5818    -3973    -3380    -1031     4807 
   14083    24685    33089    37271    37026    32333    21849     6437 
   -7405   -15800   -21139   -23284   -19938   -12779    -5232     -230 
    1025      587     -485    -2421    -2602      205     3599     6063 
    7555     9665    14646    21109    25524    27376    29146    32665 
   37187    40742    42773    44300    45111    42501    34540    24353 
   17209    14401    14482    15043    12775     7196     1298    -1096 
    1409     5787     9040    10017     6818     -157    -7403   -13374 
  -17830   -19043   -16389   -11215    -5421    -2208    -4806   -12455 
  -19811   -22465   -21104   -17735   -11819    -2917     6729    14316 
   19320    24273    31677    39410    43527    43749    40821    34175 
   25530    17836    11995     8567     7852     8390     8200     7111 
    7370     9897    13661    18909    24453    26764    24758    19649 
   12546     5297        5    -2813    -3228    -1666       29     1158 
    3015     6084     8458     6346    -1203   -10452   -18979   -26882 
  -32624   -34044   -30962   -25038   -19145   -15844   -16185   -19574 
  -22880   -22121   -16340    -7997       56     7007    12473    14384 
   11028     3007    -8197   -21148   -32533   -38269   -37244   -29700 
  -15945     1014    16821    29878    40947    48441    48894    42130 
   30511    17751    10230    11517    18215    25414    30867    33822 
   33473    28975    21118    12351     5978     5005     8819    14414 
   19505    21189    16443     4163   -12776   -27149   -33573   -31399 
  -22731   -13361    -8266    -6391    -5346    -3974    -2389    -4767 
  -13329   -22905   -29366   -33033   -33596   -30770   -25213   -19458 
  -18378   -21484   -22782   -21720   -21936   -22010   -17478    -8638 
   -1507     -336    -1619     -181     3649     6145     4546     1575 
    3513    10292    16858    22979    30785    37652    39762    38051 
   35785    32794    26760    20649    21550    29691    36582    35740 
   29115    21541    13477     3678    -5056    -9032    -8092    -4769 
   -3539    -8891   -21832   -37395   -46319   -43676   -32563   -18175 
   -4693     4137     5804     2242      564     5094    13475    22057 
   26609    22739    11121    -3039   -14056   -17981   -14760    -8396 
   -4428    -4369    -3997    -1658     -636    -3010    -8818   -15757 
  -21210   -25937   -28097   -24337   -19131   -18821   -22787   -26406 
  -25913   -21760   -18065   -16285   -12857    -4645     8137    23608 
   38075    47321    49562    45724    39613    36715    39947    47952 
   56929    62232    61210    56219    51741    48404    42587    31642 
   17250     4548    -1198      333     3934     4955     2625    -2230 
   -8946   -16522   -23000   -25877   -24509   -22124   -22419   -24530 
  -24293   -20641   -17577   -16747   -13893    -6684     2281    11201 
   20201    28463    34580    37839    37312    31166    19254     6203 
   -1568    -2043     3044    11728    19882    21855    16842    10773 
    9377    10936    11610    13164    15971    13791     3273    -9950 
