Origin Time       2011/03/11 14:46:00
Lat.              38.103
Long.             142.860
Depth. (km)       24
Mag.              9.0
Station Code      YMT015
Station Lat.      37.9049
Station Long.     140.0990
Station Height(m) 252
Record Time       2011/03/11 14:47:03
Sampling Freq(Hz) 100Hz
Duration Time(s)  300
Dir.              E-W
Scale Factor      3920(gal)/6182761
Max. Acc. (gal)   199.070
Last Correction   2011/03/11 14:46:48
Memo.             
[...]
   22758    25830    27497    27980    28134    28856    30444    31618 
   31439    30909    29756    26175    21204    17297    14137    11197 
    9602     8413     5243      830    -2528    -5542   -10432   -16967 
  -23226   -28483   -33235   -37195   -39194   -38385   -34307   -27487 
  -20565   -16428   -14898   -13805   -12949   -14492   -19156   -24168 
  -27188   -29154   -30909   -31276   -28196   -19050    -4493     8175 
   12947    12699    11891     9012     1209    -9391   -16636   -16748 
  -11970    -5918     2171    15268    31822    45684    53948    59389 
   64066    66607    65409    58964    44952    24293     3993    -9291 
  -17386   -26213   -36034   -43907   -50123   -56050   -61148   -64206 
  -64994   -63944   -61317   -57337   -50901   -39506   -22609    -3880 
   11423    22710    33407    43730    51296    55933    59576    64153 
   69599    74317    77835    81184    85184    89410    92089    91031 
   85388    75383    60601    41777    23418    10119     1702    -5065 
  -13378   -25138   -39474   -53954   -67430   -79852   -91375  -102612 
 -113151  -121264  -126204  -127747  -124426  -114671   -99733   -84792 
  -73942   -65045   -54719   -43786   -32117   -17696    -4502     1027 
     894     3050    11396    23524    36088    48562    60966    71878 
   80226    85953    89411    91666    93231    92803    88055    77638 
   64542    55030    50488    44472    32416    17528     2904   -12978 
  -32339   -56073   -82945  -109209  -131429  -149126  -163340  -174255 
 -180390  -178933  -169854  -158269  -147775  -135544  -118574  -100837 
  -89556   -86768   -88831   -91263   -91638   -90061   -86236   -77093 
  -60281   -37637   -13767     8111    28987    50775    71930    89885 
  103833   111795   112488   111917   116845   125405   134530   146107 
  159959   171229   176061   174483   168630   159380   144782   124445 
  103495    88029    78488    70206    61346    55756    54841    54939 
   53133    48756    42824    36828    30417    22752    12360    -3668 
  -24427   -44709   -62035   -76946   -88733   -95768   -96694   -90888 
  -79995   -66772   -52076   -35215   -16277     1776    14201    19874 
   21644    20997    17630    12716     9165    10119    17157    28024 
   38644    48066    56398    59410    52464    38723    26416    18845 
   13958    11522    13351    19157    27884    39796    53980    67466 
   77442    81569    77596    64668    44859    22640     1293   -18363 
  -34814   -46216   -52932   -55807   -54103   -46178   -31389   -10644 
   14536    40345    61144    75339    85028    90765    93542    95832 
   96236    90466    78019    62913    48425    33773    17580     1852 
  -10731   -20215   -28068   -35718   -43581   -48025   -43687   -32605 
  -23470   -19893   -18804   -18662   -20360   -23807   -28819   -35757 
  -44490   -55041   -67619   -81314   -94376  -105122  -112760  -118840 
 -125962  -133615  -138514  -139182  -134923  -121451   -94609   -59146 
  -28268   -10372    -1590     3053     1550    -7726   -21496   -33182 
  -35163   -25843   -11213     4758    22339    39194    52502    64030 
   74491    79607    75679    61888    39609    15645     -672    -6425 
   -4607     2711    14231    25648    31402    28889    19250     5942 
   -8269   -22893   -37264   -50584   -63167   -73647   -80407   -85655 
  -91341   -95613   -97279   -97683   -97483   -96945   -98567  -103626 
 -108060  -107821  -103400   -95165   -82055   -66114   -51833   -41322 
  -33156   -25081   -15584    -4497     5521    11217    12823    13231 
   14569    16940    19922    23460    26934    29789    31357    29787 
   25154    20697    18210    16814    16233    16675    17236    17375 
   17925    19253    19640    16968    11168     3471    -5357   -15253 
  -25565   -33991   -38312   -38462   -36366   -33620   -29016   -21141 
  -13146   -10239   -12667   -16198   -17623   -14391    -4793     8440 
   22048    36156    49994    60943    68536    75382    84291    94389 
  102070   105743   105194    99299    88032    73186    57475    43551 
   31541    19342     6060    -7323   -19749   -29937   -36537   -41144 
  -48027   -58834   -70434   -79684   -87938   -98179  -110001  -119906 
 -125004  -125575  -122864  -115528  -102815   -88273   -75670   -65260 
  -54992   -42413   -26482    -8471     8538    22935    37782    56267 
   77107    98141   119103   139486   156651   167044   168962   163458 
  153389   141564   128712   113895    97240    80882    66393    53952 
   44603    38846    34851    31769    30199    29568    29377    30223 
   31612    31424    28305    21449     9644    -4943   -16814   -22971 
  -24638   -24331   -22824   -20542   -20333   -24554   -32059   -39604 
  -43620   -41732   -34059   -22690    -9884     2855    14036    21641 
   23970    21266    15788     9918     5462     3050     1445      303 
     718     1864     2027     1097    -1178    -6259   -14195   -23073 
  -32764   -43801   -52617   -55650   -54594   -52633   -51271   -50628 
  -48909   -44265   -38507   -36233   -38859   -42928   -46397   -50406 
  -53844   -53934   -50133   -41944   -27693    -7316    16928    42035 
   66369    89729   110338   124344   129062   124067   110245    90479 
   69069    50498    39494    38143    44529    55530    67074    74500 
   75104    68435    54279    31520      887   -33047   -65580   -95462 
 -123754  -149901  -170447  -183081  -188190  -186532  -179964  -170589 
 -157250  -138299  -116139   -94579   -74507   -54571   -34204   -15086 
     798    14618    30175    48998    68468    85584   100217   114217 
  127858   138186   141922   138050   127333   110784    89407    66763 
   49593    42357    42731    44926    45230    42080    34239    21766 
    6640    -9529   -27338   -46452   -63685   -77689   -89699   -99399 
 -106129  -110756  -113752  -114884  -114608  -113900  -112797  -110944 
 -109230  -108889  -110813  -115530  -121613  -126290  -128803  -130226 
 -129476  -124020  -114421  -103475   -92835   -82696   -71893   -58758 
  -43365   -27337   -11436     5110    22644    39765    55221    69057 
   80913    90189    97017   101093   102009   101006    99928    98803 
   96575    93958    93562    97242   104382   112560   119426   123426 
  123172   117117   103990    84411    61540    39072    19886     6046 
   -1297    -2419      198     4334    10235    16636    19872    19265 
   17771    17149    16639    16130    16583    18146    20499    24048 
   30746    42325    56368    67473    73036    73440    67077    51679 
   29775     8023    -8246   -19528   -29496   -38488   -44735   -47761 
  -46849   -40555   -27794    -9477     9454    21385    22003    14142 
    2027   -13463   -30269   -43832   -51486   -53525   -50801   -44298 
  -36927   -31435   -28183   -27889   -31347   -37631   -45944   -55357 
  -64096   -70253   -71122   -64157   -48721   -26598    -2542    18304 
   34455    45463    48763    44893    37667    27254    13490     1400 
   -3101     1989    14208    29413    45184    59722    70807    77770 
   80898    80122    76423    72062    68339    64795    61853    61856 
   65853    71933    77034    78717    75352    66050    51138    31176 
    6388   -20930   -45942   -65106   -78882   -89489   -97235  -100433 
  -97598   -88869   -76144   -62794   -52300   -45204   -40240   -38701 
  -42532   -50071   -58906   -69774   -82958   -94725  -101510  -104038 
 -104515  -103244   -99795   -94836   -89662   -84368   -78682   -74663 
  -74083   -74683   -72251   -65157   -55444   -42543   -21570     6426 
   32987    53876    72451    91339   108592   122356   131639   135292 
  134879   131452   123648   113404   103545    93153    80648    64390 
   42649    15814   -13723   -42085   -67198   -91190  -114851  -134653 
 -147459  -152933  -150671  -138282  -113985   -79693   -42085   -11019 
    7929    18403    25872    29572    25939    15751     4159    -4195 
   -7376    -5391     1518    13940    30295    45650    57999    71626 
   88791   101832   103324    96298    82546    60145    35458    16370 
    3128    -6992   -14629   -17787   -16065   -11164    -4017     4140 
   11703    17864    22012    24089    25452    26873    27571    27833 
   29414    32869    36923    40063    41251    40063    36347    29939 
   22075    15033     9103     2347    -6577   -16426   -23742   -25925 
  -24374   -22484   -21137   -19189   -16377   -13716   -12964   -14721 
  -17306   -19413   -21434   -24044   -26936   -27912   -24428   -16813 
   -7830     1172    11237    22259    31413    37223    42104    48255 
   54564    59182    62003    63615    63689    61448    56253    48567 
   42019    40664    43504    46641    49276    52172    53805    52789 
   49158    42114    32064    21563    10401    -3579   -19275   -34336 
  -47727   -58389   -65844   -71461   -77648   -84638   -90687   -97546 
 -108360  -121198  -132881  -144140  -156370  -169337  -182023  -191581 
 -195329  -194002  -187486  -170610  -139241   -97842   -56951   -24238 
     264    19987    36031    47931    55740    60119    62819    65578 
   69442    75662    84629    94754   103692   110284   114872   116927 
  113083    99066    74083    44513    20473     4538    -7899   -16310 
  -17465   -13313    -6712     -178     2632      369    -5416   -12313 
  -18672   -23828   -26424   -24409   -16142     -896    19259    39623 
   58438    77863    96647   109847   116053   117158   113701   104404 
   88830    70060    53729    43771    39045    35263    30363    25187 
   20366    14400     4621    -8698   -22391   -35003   -47460   -60674 
  -73708   -84486   -92461   -98149  -100816   -99472   -95976   -93070 
  -89618   -84264   -79120   -74755   -69105   -60611   -48316   -32344 
  -14077     4813    22661    37996    49992    58564    63222    63339 
   59606    52731    42106    27674    11880    -1940   -12695   -21802 
  -30395   -37232   -40741   -41589   -41193   -40144   -38691   -36920 
  -35498   -35863   -38918   -44579   -50777   -54096   -53882   -51772 
  -48196   -43678   -40105   -38269   -36800   -34649   -32354   -29681 
  -25449   -19630   -12020    -1789     9850    20894    31446    41292 
   47972    50754    50640    45653    34114    19287     5360    -6566 
  -17465   -27682   -36287   -42972   -47911   -51172   -53736   -56305 
  -58183   -59211   -60623   -62514   -62139   -57552   -51489   -47470 
  -44892   -41455   -35500   -25322   -11080     4456    18920    31230 
   40400    46095    48919    49435    47905    44026    36913    27150 
   17918    11965     9215     8993    11287    14065    13422     8148 
    -115   -10817   -23149   -33268   -38546   -40802   -40841   -36960 
  -30627   -23161   -11299     4588    17845    24840    27529    27220 
   22109    11049    -3571   -17943   -30183   -40453   -49475   -57988 
  -65177   -67404   -62588   -54748   -49427   -47226   -45721   -44641 
  -45581   -48260   -50003   -47737   -39543   -26590   -12477     1200 
   15693    31151    45378    56532    64733    71219    77141    82326 
   85919    89359    95548   104799   114850   123933   131974   139161 
  144761   148240   148914   144202   132389   115462    96184    76551 
   59682    48584    43500    42558    44069    47053    50802    55197 
   60336    65582    69111    68929    65573    61409    57146    52976 
   50938    53108    59428    67230    72773    74171    72406    69669 
   66531    61215    52697    43141    34410    24271    10833    -4028 
  -18245   -30594   -40873   -50215   -58588   -65752   -72243   -77873 
  -82415   -86361   -90766   -95707   -99620  -101740  -102814  -103412 
 -103005  -100907   -98077   -96025   -94372   -92353   -90417   -87740 
  -82139   -73902   -65310   -56827   -47940   -39259   -30862   -22298 
  -14145    -7193    -2380     -701    -1929    -5814   -13279   -24144 
  -35192   -43987   -52628   -62842   -73194   -84050   -96890  -109649 
 -118775  -124041  -127926  -130812  -131143  -129177  -125311  -116733 
  -99360   -73425   -45069   -19310     4835    29075    52743    76521 
  101501   125511   145356   159660   167413   166828   157142   138712 
  111428    78331    47435    22911     1094   -20392   -39151   -53987 
  -65676   -73996   -79012   -82829   -86871   -89824   -90474   -89709 
  -89463   -90892   -93296   -95039   -94852   -91782   -83294   -66445 
  -44591   -25435    -8961    10481    32097    53359    77085   103874 
  129907   152515   171497   188528   203536   213685   219368   223547 
  226322   225806   217666   192578   143577    81724    31588    -3058 
  -38375   -72532   -97506  -118343  -133314  -139468  -142017  -141920 
 -137803  -130973  -124038  -118947  -115499  -112973  -111317  -111278 
 -111266  -106181   -93025   -74272   -54510   -35098   -14302     7616 
   28315    47230    65183    83002   102427   124481   146461   164353 
  178018   190493   202877   213140   219405   222017   222465   221258 
  216044   199929   163723   107863    51109     9837   -24545   -62937 
  -99618  -132025  -161754  -184236  -198320  -206427  -209212  -208378 
 -205199  -198547  -187759  -173166  -152163  -120206   -78461   -35330 
    3106    39187    76752   116791   159871   202552   236812   259875 
  277246   292382   301563   303053   300874   296631   287632   272370 
  252342   229837   206028   182092   160349   142422   127701   113579 
   96583    74554    47593    16766   -17069   -53215   -90563  -127329 
 -161752  -192747  -219424  -241793  -261241  -277920  -290617  -299226 
 -305169  -310155  -313519  -313853  -312446  -309527  -303439  -294491 
 -282560  -264860  -237657  -198858  -152982  -109497   -73083   -41331 
  -10909    18923    48679    79747   110612   137468   159372   177774 
  192306   200432   200765   195148   187024   177856   167113   155969 
  146987   141394   139226   139062   138135   135294   131466   126306 
  117574   103932    85757    64469    42096    20618     1491   -14969 
  -29193   -41939   -54335   -66586   -78248   -88983   -97901  -105053 
 -111272  -115337  -115470  -111426  -103729   -94512   -86822   -82286 
  -81330   -82737   -84566   -87374   -91957   -96754  -100680  -103240 
 -102480   -95848   -82731   -66526   -51243   -36859   -22170    -8509 
    2643    12573    23696    36375    49357    61525    71286    77495 
   81480    84576    86035    85650    84626    83822    83581    84063 
   85164    86417    87581    89264    90947    89077    78740    57576 
   28777    -1637   -30452   -57196   -80915  -100262  -114569  -123672 
 -127755  -126613  -119957  -109408   -97893   -86492   -73097   -55112 
  -33104   -10404     9984    27243    42817    58855    75830    92055 
  106571   121425   138369   155058   168198   177661   185130   191438 
  195224   194559   189956   182398   170944   154797   134582   112191 
   90880    72647    55071    34680    11982   -11189   -35023   -59466 
  -83869  -107971  -129524  -145128  -154268  -158675  -158563  -152438 
 -141286  -130151  -123117  -118516  -110858   -96142   -74670   -50278 
  -26815    -5529    13718    30767    43926    50717    52191    51959 
   49389    40017    23313     4809    -9708   -18649   -24144   -27547 
  -25588   -14750     1330    13654    17544    17275    19326    23292 
   24291    22753    23463    27449    31921    34467    35215    36732 
   40374    44195    46368    47977    49999    49324    40194    19171 
   -9466   -34665   -52097   -68259   -84720   -96265  -102189  -102981 
  -97036   -85452   -72486   -61718   -51853   -40298   -27972   -16859 
   -9459    -6428    -5497    -6794   -10625   -14576   -16799   -16276 
  -12958    -7653      599    14103    32578    52722    72552    91847 
  109795   125880   139548   149664   156564   162605   171000   182937 
  195710   206845   217439   228211   236739   240652   239311   231579 
  213961   182053   137274    92041    58294    32321     5589   -20394 
  -43610   -66724   -89917  -112065  -132195  -149181  -164286  -177820 
 -186056  -186377  -180038  -169559  -157747  -146219  -135040  -125251 
 -118012  -112901  -108625  -104301  -100660   -98883   -98082   -95043 
  -87281   -75659   -62643   -49465   -35639   -20708    -5706     8105 
   20204    29991    37102    42034    45310    47068    47858    49787 
   54995    62213    69118    76142    83741    90160    93427    93495 
   90293    78428    51990    18237    -6551   -19471   -30924   -43062 
  -52865   -62964   -73348   -81937   -89502   -96189  -102331  -107464 
 -108406  -103553   -94222   -81139   -64393   -45980   -29917   -20261 
  -17832   -20846   -28284   -39148   -51483   -61808   -65577   -61842 
  -54000   -45059   -35850   -26996   -20721   -19741   -24193   -31682 
  -40183   -47443   -49356   -43705   -32281   -16749     1365    16499 
   22840    21673    19821    21570    24204    23430    20847    20932 
   24761    29852    33475    35661    37960    40470    41997    42029 
   41401    41595    44254    49781    57204    66328    77340    88840 
   98368   104211   105575   101967    93840    83789    75035    67675 
   60369    53954    48114    40289    29964    19199    11273     8715 
   11049    15931    19704    18798    13594     6446    -2474   -12419 
  -19642   -21341   -17810   -10414      469    16350    36707    55799 
   68555    76820    85456    95109   104032   112088   118447   121917 
  123711   124542   120950   107908    84820    57618    33253    13140 
   -4919   -21467   -35940   -47666   -55576   -60133   -62197   -60975 
  -55282   -44966   -32412   -21348   -13167    -6601      199     8214 
   17325    27346    38123    47663    53173    54190    50920    43348 
   34519    28553    26337    27189    31415    38410    44502    46127 
   43689    40401    38560    37101    34645    32602    32553    34997 
   39274    42726    43242    41330    36901    26450     7498   -16441 
  -39209   -59079   -78892   -99164  -116874  -130312  -139415  -144966 
 -149864  -155998  -161009  -162130  -159427  -153359  -143022  -126351 
 -101861   -74521   -55145   -47247   -43703   -39906   -37379   -35852 
  -32549   -25624   -14800     -718    16441    36648    58055    77651 
   94916   110848   123477   129939   129287   120377   101432    71352 
   33483     -152   -19185   -28730   -38462   -47199   -51079   -52738 
  -55432   -58125   -58885   -58504   -58351   -58587   -60371   -65561 
  -72821   -76241   -71329   -59525   -43921   -27164   -11942     1490 
   13439    22348    28184    33025    37531    39585    35714    25909 
   16296    11721     9657     6104     1354    -2105    -2018     2307 
    8502    13530    16744    19699    24835    32599    40258    44755 
   45416    43700    38867    28172    14486     3596    -5377   -15659 
  -24969   -31333   -38019   -45916   -52606   -59176   -67336   -77578 
  -90771  -104639  -116054  -125101  -132252  -137173  -139267  -136533 
 -127269  -113426   -98985   -86069   -74539   -63226   -52144   -43796 
  -39426   -36169   -31432   -25596   -19314   -13730    -7808     3543 
   19043    30697    37342    43881    52191    60696    67288    71224 
   73509    76379    82006    90226    99939   110840   122233   132949 
  140333   141835   138360   130241   113296    83456    45906    15128 
   -1612   -10764   -17102   -19629   -17950    -9071     7688    24643 
   35887    42666    47352    49713    48570    43817    36440    29198 
