Origin Time       2011/03/11 14:46:00
Lat.              38.103
Long.             142.860
Depth. (km)       24
Mag.              9.0
Station Code      YMT013
Station Lat.      38.0631
Station Long.     139.7596
Station Height(m) 164
Record Time       2011/03/11 14:47:07
Sampling Freq(Hz) 100Hz
Duration Time(s)  300
Dir.              U-D
Scale Factor      3920(gal)/6182761
Max. Acc. (gal)   33.500
Last Correction   2011/03/11 14:46:52
Memo.             
[...]
   -6757    -7798    -6866    -4090     -465     3065     6275     8908 
   10846    13197    16897    21099    24051    24732    22956    18894 
   13850     9879     8179     8599     9787     9684     6868     2160 
   -1924    -3465    -2134      495     2027     1955     1347      564 
    -304     -370      859     2879     5561     9054    12571    15168 
   16701    17396    17452    16827    15398    13835    13672    15913 
   19530    21322    18124    10143     1182    -5005    -7933    -9992 
  -12664   -14185   -12595    -9374    -7774    -9053   -11731   -12938 
  -10171    -3406     4430    10457    14364    16306    15381    11708 
    6704     1833    -1532    -2908    -3139    -3279    -3843    -4479 
   -4174    -3169    -3225    -4968    -7536   -10392   -13044   -14466 
  -14226   -12366    -8356    -2159     4515     9049     9468     5971 
    1251    -2257    -4419    -5663    -6151    -6583    -7542    -9540 
  -12764   -15041   -13310    -7423     -106     5242     6899     6566 
    6912     8176     8835     8161     7491     8232     9686    10829 
   12146    14128    15848    15690    12320     6172      242    -3181 
   -4554    -5007    -5323    -5508    -5492    -7030   -11137   -15210 
  -16152   -14522   -13249   -13068   -12318   -10203    -7301    -4439 
   -2131     -130     2353     4865     5031     2455      892     2850 
    6146     7794     6736     4106     3282     6754    13424    19348 
   20845    19033    18149    19065    19103    15652     8151     -838 
   -7550   -10688   -11782   -12580   -13026   -11303    -6155      721 
    6368     9693    11453    13472    17136    21460    24363    24681 
   22898    20739    18528    14530     8487     3227     1552     3740 
    8163    12213    14125    14443    14032    12742    10068     6106 
    2412     -221    -2750    -4933    -5936    -5843    -4219    -1059 
    2435     5689     8738    11488    13868    15291    14843    13099 
   11714    10700     9108     7329     6263     5855     5403     4539 
    3144      770    -2629    -5583    -6079    -4155    -1840     -611 
    -647    -1445    -2446    -3071    -2491     -842      700     1615 
    2192     2828     3562     4137     5019     6628     7738     7203 
    5590     4197     4124     4683     3265     -864    -5042    -6494 
   -4879    -1670     1612     4580     8151    13039    17317    17616 
   13210     6503      733    -1600     -143     3174     6060     7476 
    7610     7003     5993     5110     5326     7121     9420    10288 
    8680     4876      187    -4027    -8051   -12514   -15542   -13842 
   -6563     3087    10434    13164    12075     8529     2753    -4633 
  -11014   -13117    -9596    -1938     6725    13173    15614    14778 
   12289     8135     1805    -5016    -9381   -10408    -9450    -7215 
   -3767     -220     2630     4816     5563     3661    -1507    -9384 
  -17460   -22062   -20821   -14779    -7652    -2655       34     3041 
    8379    14908    20091    22820    24054    24844    24068    19744 
   12111     3839    -1981    -3671    -1739     2295     7118    11371 
   14108    15085    14044    11293     7921     4480     1174     -567 
     740     3879     6345     6984     5462     2158    -1406    -3239 
   -2071     1250     4746     6413     4426     -397    -5449    -9533 
  -11852   -11574    -8868    -4625     -195     2998     3532     1050 
   -2702    -6025    -8520    -9994   -10035    -7729    -2731     3621 
    9581    13336    13167     8782     1787    -4903    -9166   -10428 
   -8535    -3985     2242     8350    11255     9891     6807     5006 
    5785     8376     9807     6942     -307    -8606   -13679   -13229 
   -8536    -3252     -285      284      522     2146     4549     5224 
    2573    -2299    -6780    -8904    -8468    -5816     -882     4729 
    8129     8627     6929     3147    -1314    -4168    -4928    -4527 
   -4509    -5348    -4897    -1991     1694     4964     7459     8562 
    8636     8295     7684     7946    10051    13033    15386    16621 
   17105    16830    15274    12735     9807     6613     4111     3345 
    4016     5976     9586    14139    17405    16937    12212     5137 
   -1367    -5392    -6863    -6196    -3954     -833     3004     6571 
    8176     7271     3894    -1194    -5850    -8178    -7535    -4983 
   -3309    -4349    -7341   -10395   -11463    -9427    -6188    -5463 
   -8178   -11365   -11941    -9797    -7704    -8125   -10367   -12083 
  -11750    -9536    -7196    -5918    -5237    -4469    -2970     -692 
     376    -1799    -6399   -10922   -13104   -11080    -5051     2094 
    7942    12276    16109    19771    21860    21367    18505    14129 
   10717    10224    11369    11803    10601     8227     6094     5509 
    6223     7067     7670     8476     9687    10251     8762     5386 
    1026    -3608    -7452    -9545    -8998    -4903     2128     9468 
   14611    17245    18215    16955    11563     1955    -8101   -13145 
   -9994     -321     9880    15324    16374    17155    20157    24105 
   25350    21687    14914     8846     5972     5414     4515     2436 
     160     -697     1131     4820     8378    10300     9699     6605 
    2271     -976    -1125     1738     5423     7704     8523     9058 
    9592    10035    10989    13157    16492    19901    21469    19736 
   14907     8876     4211     2135     2185     4299     8887    15051 
   20440    22732    20684    14176     5153    -2586    -6451    -6287 
   -3260      737     4113     6365     7221     6107     3231      269 
    -312     3340    10302    16703    19338    18126    14528    10103 
    7043     7025     9075    10595     9763     6580     2339    -1894 
   -5970   -10633   -16125   -20686   -22612   -22341   -21293   -20198 
  -18600   -15704   -11623    -7614    -5094    -4450    -5030    -5932 
   -6784    -8149   -10955   -14950   -18054   -18940   -18107   -15595 
  -12111    -9431    -7430    -5326    -3085     -326     2138     2342 
     -94    -4335    -9419   -13204   -13219    -9351    -3729     1959 
    7014    10219    10805     8968     4324    -2581    -9038   -12605 
  -12783   -10590    -7052    -2526     2294     6042     7329     5165 
     -36    -5407    -7985    -8096    -8140    -9816   -13374   -17686 
  -21076   -22529   -21561   -17480   -10721    -3264     3401     8311 
   10999    11768    10710     8911     7902     6987     4957     2350 
     578      225      387     -334    -2519    -4751    -4655    -1846 
    2020     4185     2732     -356    -1913    -1390      110      946 
     303    -1139    -2302    -1622     1330     4419     5521     4213 
    1888      994     2404     5217     8091     9173     7768     5164 
    2085    -1318    -3757    -4517    -4469    -3983    -2954    -2188 
   -2442    -4111    -6906    -8261    -5645      226     6630    10561 
   10452     8233     6716     5848     4946     5263     7766    11974 
   16955    21527    24231    23496    19125    12949     7146     3791 
    3742     4409     2668     -407    -1758     -742     1292     2843 
    3995     6340    10231    14251    15833    12771     6035    -1520 
   -7754   -10984    -9896    -4397     3999    12777    19183    21045 
   18031    11860     5402     1156     -509     -694     -162       13 
   -1648    -5629   -11093   -16007   -18851   -20074   -20332   -19376 
  -17229   -14898   -13556   -13836   -15690   -17602   -17405   -14383 
   -9422    -4107       76     2172     2139     1071     -111     -715 
     406     2450     3322     4180     7451    12280    15426    13898 
    8295     2868      -31    -1024     -916     -693     -846     -576 
     741     2354     2559      504    -2614    -4521    -4666    -5695 
  -10032   -16063   -19357   -17187   -11036    -4001     2293     7955 
   13787    18910    20213    15546     6303    -3712   -11692   -17378 
  -21387   -23542   -23781   -22493   -18528   -10955    -2086     5304 
   10018    11778    11711    10587     7997     4228       36    -3067 
   -3621    -3196    -3830    -4955    -5872    -6975    -9120   -12358 
  -14254   -12308    -6886     -270     5113     7955     8080     5288 
    -259    -6889   -12086   -13909   -11369    -4608     4549    12977 
   17532    16472    10757     3848     -354     -417     1253     1251 
   -1197    -4841    -7977    -8623    -6794    -5110    -4866    -5484 
   -6698    -8363   -10670   -14201   -19326   -25667   -30697   -31527 
  -27583   -19636    -9767    -1291     3540     4222     1845    -1526 
   -5009    -8665   -11402   -12389   -12067    -9574    -3606     4417 
   11328    14764    14098     9930     3581    -2962    -8226   -11738 
  -13085   -12687   -11766   -10133    -7194    -3447      839     4665 
    5938     4627     2747     1298     -625    -3876    -6999    -7332 
   -4319     -343     1314     -876    -5252    -9095   -11921   -14543 
  -16666   -17467   -16832   -15242   -12812    -9337    -5023      160 
    6102    11528    15260    17547    18960    18963    16916    13084 
    8357     3776     -596    -5100    -9208   -12378   -14451   -15283 
  -15212   -15596   -17769   -21250   -23990   -23624   -19185   -12213 
   -4594     2281     6793     9148    11050    13450    16267    17666 
   15549    10093     3668     -728    -2200    -1752     -419      358 
     267      842     2297     2463     -740    -7501   -16120   -23481 
  -27168   -27412   -25267   -21380   -16903   -12710    -9113    -6274 
   -3384      -29     2526     3373     2843     2040     2399     4410 
    7891    12592    17022    18652    15801     8101    -3439   -15332 
  -23181   -25245   -22498   -16601    -9058    -1070     6040    10718 
   12220    11165     8365     4203     -584    -5427   -10063   -13166 
  -13714   -12332    -9823    -7274    -5743    -4790    -3566    -1447 
    1552     3453     2423     -715    -3907    -5689    -5443    -3253 
     275     4214     7744    10247    10800     8894     5812     3098 
     374    -2745    -4411    -2462     3224     9995    13301    10875 
    4459    -2834    -8075   -10596   -11989   -12789   -12515   -10630 
   -6479     -598     4853     7563     7495     6846     7637    10482 
   13897    15729    15530    13789    11546    10379    10085     9170 
    7926     7392     6773     4981     2571      586     -425      -72 
    1528     3757     7067    12382    18364    22458    23321    21090 
   17912    15959    14277    11699    10213    12077    16767    20797 
   19545    12190     3009    -3921    -7760    -9807   -10906    -9841 
   -6309    -2132     1753     5097     7045     7004     4723      435 
   -4655    -9107   -12268   -14194   -14425   -11886    -6756     -810 
    4646     9205    11660    10174     4241    -4251   -12223   -18103 
  -22225   -24971   -26340   -26100   -22659   -14096    -1675    10379 
   18160    20864    21762    23659    25319    24673    21181    15967 
   11897    11502    14671    18395    19564    18351    16519    14038 
    9688     2849    -5415   -12808   -18039   -20810   -20711   -17875 
  -12968    -7282    -3153    -2303    -3958    -4917    -2813      657 
    2833     3363     3236     5113    10533    16101    17854    15846 
   13153    12656    13377    12318     9178     5631     2890     1088 
    -500    -2683    -5673    -8592   -10645   -12571   -15623   -19362 
  -21166   -19404   -15714   -12726   -11429   -10683    -8212    -2823 
    3888     9023    11630    13489    16434    19855    22151    22794 
   21837    19865    17913    16242    14599    13198    11760     8270 
     741    -9727   -19620   -26269   -28973   -28935   -27577   -24305 
  -18990   -13446    -8999    -6509    -6455    -8115   -10346   -12327 
  -13983   -14583   -12108    -6199     1172     7672    11351    10895 
    6352     -631    -8286   -15108   -19302   -20181   -18188   -13591 
   -6851     1031     9068    16098    20051    19528    15848    11346 
    7357     4905     4617     5796     7146     7395     5419     1585 
   -2199    -4270    -3529      284     5207     8318     8105     4920 
    1087    -1301    -2603    -2984    -2185    -1670    -1819    -1324 
     285     3307     7162     9716     9626     7279     5095     6002 
    9757    13440    14528    12055     7086     2170    -1739    -6497 
  -12717   -17249   -16379    -9278     1855    13673    23467    30251 
   34229    34974    31702    25268    19053    17077    19707    22811 
   22474    18608    13736     9893     7080     3986      540    -1175 
    -283     1482     2136     -167    -5372   -10187   -13234   -16081 
  -18104   -16509    -9606     1277    11941    18646    20477    18963 
   16595    14821    13826    13230    12510    11848    11183     9622 
    7024     3763      174    -2538    -3288    -2540     -652     2932 
    7608    11448    12013     7090    -2133   -10070   -11355    -6172 
     752     5944     9027    10835    11848    10718     5073    -4699 
  -14348   -20126   -21792   -21329   -21367   -22843   -24091   -23626 
  -21973   -20713   -20185   -19208   -17298   -14438   -10348    -5028 
    1730     9211    15098    18173    18964    18464    18340    19926 
   22806    25394    26212    25231    23123    19497    13968     7561 
    2098    -1289    -3311    -5698    -9806   -15545   -20566   -22770 
  -22489   -20921   -19176   -17708   -15782   -12671    -8678    -4903 
   -1132     4770    13825    24983    36285    45203    50675    53878 
   54826    51816    45313    37768    30225    22579    14213     4483 
   -4672    -9970   -10254    -7211    -4749    -5319    -7211    -7968 
   -7502    -6871    -6005    -3587     1280     7866    14208    19128 
   22648    24149    22328    17266    11780     9776    12151    15876 
   17736    16224    11321     5320      900    -1542    -2509    -2782 
   -3610    -5117    -6964    -8966   -10395   -11403   -12370   -12548 
  -11265    -7904    -3197      807     4674    10118    16648    22782 
   27087    28789    27308    21918    13495     3455    -6626   -13466 
  -15075   -12937    -9324    -5313     -919     3809     8006    10579 
   11111    10786    12521    18236    25663    30163    29863    26369 
   21634    16725    12084     8625     8066    10231    13163    15489 
   15051    10619     5511     3409     4546     7597    10313    10624 
    8608     4610    -2239   -11753   -21483   -27963   -28790   -25167 
  -21005   -18066   -14629    -9458    -4080    -1599    -4496   -10992 
  -15739   -16329   -14541   -12536   -11178    -9653    -6579    -1814 
    4047    10261    14745    15166    11264     3571    -6416   -14504 
  -17114   -14274    -8843    -4919    -4493    -5925    -7033    -7481 
   -7788    -8606   -10909   -13769   -14471   -12500    -8856    -4525 
   -1358      404     2313     5301     9789    14283    16206    15173 
   12007     8486     6885     6448     5066     2648       40    -1568 
   -1899    -2914    -5571    -8177    -8570    -5382      604     6158 
    8276     6071      871    -4933   -10013   -14108   -16447   -16057 
  -13050    -8835    -5670    -5556    -8733   -13645   -18094   -19909 
  -17485   -11051    -2871     4675     9986    11630     9300     5217 
    1883     -941    -4508    -8365   -10588    -9356    -5479    -2216 
   -1662    -3903    -7859   -12155   -17129   -22963   -26886   -25526 
  -17881    -6472     4079    11099    15116    17434    18082    16110 
   11809     7569     5099     2984     -664    -4957    -8366   -11233 
  -14259   -17352   -19649   -19432   -15880   -10335    -5355    -3068 
   -3082    -3046    -1654      240      873     -419    -2813    -4629 
   -4081    -1178     2477     5675     8269    11265    14959    17762 
   17969    14208     6720     -865    -4952    -5137    -2467     1716 
    5913     9298    10964     9644     5705     1814     1134     4212 
    7595     7192     2227    -4469    -9392   -11754   -12728   -12538 
  -10915    -8744    -7195    -6078    -4312    -1609     1085     2560 
    2429     1251       83        7      853      939     -259    -1250 
   -1075      160     1868     2956     2681      976    -1112    -2030 
   -2280    -3680    -6330    -8478    -8460    -6299    -3384     -488 
    2479     4949     6024     5930     5883     6714     8133     9377 
   10087    10436    11107    12946    15476    16457    14199     9429 
    4045     -992    -5443    -9098   -11823   -13234   -13273   -12030 
   -9800    -8173    -7617    -7394    -8416   -11377   -15608   -19501 
  -20180   -16398    -9979    -4395    -3236    -6500   -10464   -12868 
  -14163   -14942   -14938   -12941    -8036     -946     7201    14981 
   19981    21061    18986    14760     9509     4445     1094      234 
    -295    -2927    -7047   -10438   -11138    -7953    -1715     3992 
    5951     4599     2372     1170     1274     1395      859      288 
     267      791      940      516     1222     3076     3757     2837 
    1709     1534     3567     7533    10369     9306     4476    -1269 
   -4003    -3111    -2418    -4393    -7658    -9842    -9518    -7428 
   -6067    -6715    -7875    -7067    -3238     2121     5603     5207 
    2625     1047     1997     4104     4520     1650    -3439    -7942 
  -10354   -11202   -10979    -9639    -6863    -3455    -1954    -3092 
   -4208    -2304     2336     5438     3356    -3267   -10925   -15501 
  -15165   -11205    -5398      830     6144     9398     9933     8897 
    8663     9786    10140     8241     5492     3649     2694     1686 
    -502    -3701    -5128    -2741     1576     4268     3221     -363 
   -2849    -2634    -1290     -488       60     2358     7405    13900 
   19500    21088    17754    13071     9833     7923     7365     7204 
    5558     2463     -732    -3025    -4372    -5425    -6250    -6518 
   -6032    -4608    -3347    -3530    -4227    -4012    -2131     1138 
    3686     4878     6253     8178    10324    12358    13730    14876 
   16300    17471    17591    15909    12329     7956     3369    -2249 
   -8507   -13499   -16712   -18646   -19043   -17233   -13125    -7714 
   -2113     2884     6187     6991     5854     4898     6396    10745 
   15485    17331    16352    15268    15377    15865    15330    13669 
   12205    12209    14502    18291    21416    22908    22172    17750 
    9824      823    -6847   -11382   -12161   -10781    -9059    -7559 
   -6613    -6111    -5657    -5136    -4135    -2003     2151     8255 
   14550    19949    23695    24127    21064    16269    11731     8617 
    6515     4607     2637      563     -698     -274     1253     3025 
    3983     2841     -565    -4464    -5916    -3856      321     4907 
    7987     8894     9934    13274    18293    22256    22499    20060 
   18169    16898    14682    11280     6373      -24    -6390   -10624 
  -11152    -8192    -3612      952     4538     6221     5562     2836 
   -1415    -5305    -5601    -1927     1982     3546     3937     5733 
   10319    16249    21038    23592    24382    25772    28647    29067 
   23220    12166       28    -9176   -13835   -15065   -13644    -8393 
     468     9151    12689     8222    -1703    -9794   -11169    -6925 
   -1360     1694     2571     3338     3362     2363      992    -1297 
   -3577    -3908    -2261      276     2629     4341     5464     5891 
