Origin Time       2011/03/11 14:46:00
Lat.              38.103
Long.             142.860
Depth. (km)       24
Mag.              9.0
Station Code      YMT012
Station Lat.      38.1087
Station Long.     140.0430
Station Height(m) 198
Record Time       2011/03/11 14:47:08
Sampling Freq(Hz) 100Hz
Duration Time(s)  272
Dir.              E-W
Scale Factor      3920(gal)/6182761
Max. Acc. (gal)   67.405
Last Correction   2011/03/11 14:46:53
Memo.             
[...]
   -7867   -12983   -13269    -9746    -2419     4952     8813    10202 
   12376    16198    20521    26384    31002    23416    -1784   -36360 
  -65752   -79093   -76143   -62904   -44137   -23952    -5433    10593 
   22115    24589    14873    -3237   -17787   -19949   -13056    -2727 
    8898    18208    22277    20401    14116     8397     5588     4428 
    6023    10915    15305    14710     7891     -773    -4196     -716 
    5384    11150    16514    20403    21492    20440    17361    11907 
    7313     9221    19057    30252    33546    25383     9335    -7855 
  -21774   -33066   -41862   -44009   -35787   -17307     5281    22745 
   33512    40107    37834    22842     2423   -12477   -17953   -19318 
  -23326   -28828   -32203   -34944   -38432   -40957   -39849   -32334 
  -17880     1269    21395    37665    45504    43382    35510    28216 
   21951    13630     5066      631      268      764     -852    -6189 
  -12348   -14816   -15479   -19357   -25971   -29694   -25304   -12463 
    3179    13982    15135     5779    -9680   -21915   -24560   -19323 
  -11435    -5852    -6024   -11541   -19158   -24789   -22942   -11094 
    4436    15478    21684    25264    26265    26844    28222    27344 
   21495    11276     2794     3700    12656    21475    25079    22153 
   13356     2535    -5991   -10698   -10826    -6525    -1589      947 
    1696     -944    -9558   -21507   -32844   -42097   -46805   -44666 
  -38303   -32381   -27952   -23560   -18160   -11804    -5779    -1224 
    -274    -6574   -17374   -22646   -17978    -8349     1463    10663 
   18145    22338    23111    19406    10854      939    -6498    -9483 
   -8328    -7494   -12865   -25203   -36494   -36752   -25640    -9966 
    5692    17735    22797    21843    17182     9778     1495    -5152 
   -7032    -2892     3647    10583    19073    25295    22693     9637 
   -9796   -26883   -35367   -38695   -41570   -43156   -43174   -42083 
  -37822   -29635   -19652   -10742    -5236    -2493       46     2381 
    3495     3918     2488    -4437   -17331   -30003   -33763   -24601 
   -7713     6539    14785    22992    33670    40558    38618    29585 
   17699     7694     2085    -2297    -8895   -17419   -27087   -37492 
  -48086   -57780   -63918   -63937   -56265   -40832   -23642   -14848 
  -17372   -23907   -26232   -21718   -10196     7742    26249    36876 
   36461    27471    14318     -828   -16757   -26032   -22397   -11626 
    -334    12421    25122    31579    29329    20472     9469     3930 
    8786    20294    31016    35320    30419    17777     2453    -9791 
  -15046   -13186    -7675    -2400     1045     1313    -3983   -13916 
  -24422   -33468   -39029   -36645   -26247   -16832   -17765   -27240 
  -37252   -45402   -51632   -52546   -46723   -37532   -26750   -10900 
   11148    33873    51716    60772    57460    42153    20725     1403 
  -12000   -19474   -17147    -3283    14533    27412    31118    24793 
    9640    -9036   -22502   -28017   -28706   -26958   -28532   -38916 
  -53801   -65468   -70264   -65981   -51058   -28353    -6118     9232 
   18317    22578    20298    12367     5170     3977     7383    11748 
   15351    15265     8471    -3433   -16539   -27606   -33307   -31851 
  -25897   -20731   -18091   -15180   -11228    -8780    -8598    -9669 
  -11346   -12571   -12534   -11572   -11261   -13731   -19703   -29475 
  -41701   -48663   -42130   -24192    -5434     4813     4980     1575 
    1788     5251     6573     4064     -257    -6232   -14095   -20434 
  -19851   -10323     3133    13106    17008    15167     8172     -668 
   -7810   -13240   -16900   -16200   -10451    -3786    -1358    -3815 
   -7068    -8544   -10280   -12978   -13885   -13647   -15456   -18076 
  -18627   -16052   -10010    -3072     2224     8212    14583    15651 
   12435    12491    16711    19560    18210    15781    17354    22118 
   24649    23685    21010    15621     4788   -11382   -28007   -40349 
  -47644   -49662   -46740   -42159   -39040   -38378   -37969   -32305 
  -21899   -16495   -20529   -28025   -33906   -36039   -32251   -25453 
  -21897   -21362   -17504    -7517     4859    15144    20598    18776 
    9917     -637    -6332    -6011    -3619     -651     4457     9702 
   11264     9050     4866      400    -2193    -3012    -5493   -10726 
  -15119   -15824   -14593   -16650   -24634   -34548   -42112   -46060 
  -44571   -38612   -33562   -31852   -29666   -20813    -3210    16966 
   31050    36831    38037    37631    33247    20318     2431    -9194 
  -11701   -12502   -13482   -10046    -3015     2412     3957     1915 
   -2743    -7978   -11206   -11677   -11633   -12495   -12248   -10531 
  -10412   -10968    -7856    -2579      875     3020     3712     1298 
   -2661    -5802    -6926    -5687    -2623     2214     6073     4354 
    -128    -2822    -7401   -14652   -17817   -16457   -17181   -20687 
  -19936   -11238      685    10353    16276    18146    15900    10220 
    4452     4582    10725    15527    15901    15040    12511     3724 
  -10217   -19937   -20225   -17169   -14910    -9409    -1081     3212 
    1567    -2459    -8461   -17695   -24325   -19632    -6297     2440 
    1168    -1343     1705     6470     8466     7967     5987     4111 
    6428    14117    20156    17284     7115    -6087   -21534   -35591 
  -41488   -38772   -34378   -33997   -35458   -33568   -29272   -24850 
  -15978      742    19871    33359    39310    40395    38041    33182 
   27609    21369    13346     3935    -4369    -7869    -4988     1037 
    5162     5052     1205    -4883   -12540   -22953   -34762   -40905 
  -36762   -27574   -22109   -22943   -26761   -29569   -27741   -19503 
   -6957     6777    17838    20666    13188     -268   -11010   -11852 
   -3944     7425    17949    22221    18390    11019     4644      383 
   -3958   -10298   -16371   -19624   -18622   -11647    -2606     1918 
    3017     2586    -1961    -7964   -11113   -12669   -12692   -10240 
   -7130    -5423    -6070    -5661    -1068     2927     5150    11451 
   19363    22640    23260    22266    14396    -1511   -17116   -22129 
  -15955    -6686     1096     7949    13002    13096     7016      346 
     474     5991     9127     5439    -4711   -20004   -37641   -50831 
  -53595   -46071   -31388   -12817     4569    14322    12136    -1041 
  -18151   -29325   -29356   -21375   -11703    -5401    -5572   -10751 
  -17201   -23351   -26423   -22543   -12880    -2585     4838     8358 
    8013     5703     3967     3424     4139     7350    14478    23246 
   26493    20148     8314     -660       -1     8967    18925    25432 
   26228    20232    12098     7636     6935     6667     4074     -905 
   -7553   -18296   -33207   -45433   -50010   -47848   -39796   -27809 
  -18004   -14159   -12305    -6556     2713    11121    17633    23463 
   25047    15274    -4462   -21887   -29709   -31492   -29871   -25434 
  -22895   -24150   -23466   -17141   -10744   -10120    -9694    -2189 
    6817     8680     4675      219    -3380    -7373    -9823    -6501 
    1550     9339    15098    17569    14176     7700     4418     5025 
    4936     1680    -2091    -3348    -1956     1847     6225     6802 
    2252    -4276    -9677   -12980   -13600   -11245    -9164   -12252 
  -21741   -34818   -44295   -41841   -27457    -7920    11207    24712 
   28665    23027     9885    -4767   -14288   -19111   -21222   -18955 
  -12865    -5259     3219    10684    14517    13558     8155     1088 
   -4995    -9472   -10409    -6258      157     5612     8786     8074 
    4335     1003     -583      125     3953     7678     5626    -2683 
  -12722   -22178   -31549   -39493   -43712   -43346   -37307   -25941 
  -12707      226    10620    12347     3002   -10934   -20850   -21687 
  -14782    -6851    -2207    -1155    -4812   -13067   -21751   -28008 
  -32238   -31331   -19658     1264    22574    37231    45097    47620 
   41422    25084     6393    -6294   -12181   -14220   -14310   -11676 
   -4505     5305    13114    18265    24123    31929    38161    37514 
   29961    21291    14185     8537     6604     7401     5376    -1447 
   -9889   -16664   -20327   -20614   -20196   -22752   -25503   -22738 
  -16319   -11438    -8164    -5550    -6910   -15512   -27652   -36347 
  -40816   -42365   -36607   -20992    -2228    10635    15704    17585 
   19141    19267    16787     9384    -4062   -16633   -20522   -16273 
   -7014     4890    14986    20125    19405    11334    -2346   -15829 
  -24478   -24050   -11888     4808    12827     9502     4902     6327 
   12471    19846    24515    24066    19624    12077     2827    -5073 
  -11049   -16816   -23509   -30166   -33093   -29833   -23253   -16670 
   -8804     -653     1231    -3822    -8672   -11834   -17673   -24326 
  -25192   -20256   -16071   -15813   -17910   -21052   -23318   -22970 
  -21423   -20349   -19255   -16825   -13045    -9682    -7144    -4697 
   -5026   -10953   -19266   -25351   -27479   -24112   -15303    -3241 
   10984    24505    31397    30185    27034    29103    37914    49718 
   59121    61323    54802    41890    26038    10300    -5327   -23667 
  -43411   -59266   -68800   -70950   -62534   -44339   -25937   -15585 
  -10584    -8018   -12785   -25100   -37348   -45451   -50181   -51706 
  -48473   -41120   -33447   -25820   -15274    -2214    10683    23468 
   38891    57073    72253    78381    75453    68024    60702    56011 
   54876    56043    54793    47074    33893    17892     -966   -22733 
  -43436   -56811   -58795   -49005   -31774   -17286   -13629   -17545 
  -22745   -31024   -44564   -57721   -63764   -61522   -54313   -45421 
  -34473   -18476     4910    33112    57193    69291    68444    56273 
   36077    15886     1855    -6451    -9882    -7425      496    10113 
   15909    18023    21986    27760    29733    24752    14343     4705 
     987     -823    -7701   -17638   -23742   -23710   -16616    -1397 
   16048    25257    22040    10459    -4036   -18607   -30894   -36788 
  -34759   -29812   -26705   -26661   -31317   -37230   -35188   -23554 
  -11590    -7293    -7243    -4914    -5087   -12410   -16869   -10430 
     679     9241    14843    18618    19941    18888    18344    20687 
   25552    32588    42194    52159    57359    53878    40149    18494 
   -1193    -9185    -6169     3077    16766    31436    41208    42555 
   35508    23532    10840    -1520   -12594   -18336   -16528    -9995 
   -3466     -161     -199    -2688    -8779   -20079   -35024   -47187 
  -48609   -37033   -19316    -6957    -5564   -10358   -15510   -19077 
  -17342    -8599      557     4754     6719     9086    11756    17221 
   27219    37998    44031    41105    28395    12508     5313    12620 
   25477    29824    23723    14083     4338    -1381     2749    11299 
   11557     1753   -10003   -18689   -23284   -22591   -16537    -8331 
   -2933     -730     3609    11281    17963    21833    22170    16680 
    5664    -5424    -9180    -4482     1430     2175    -1209    -4424 
   -5773    -4966    -1165     5254    11987    15826    16476    16332 
   14349     9385     5426     5528     7856     8779     6818     4287 
    3501     4064     4762     4390     2488      971     2782     8708 
   16450    22599    25673    27371    29311    29334    24830    17785 
   11745     7303     4042     1493    -2818    -9386   -12350    -6615 
    4293    13723    20045    25365    30319    32709    31180    27656 
   24198    21164    19227    18141    13825     3032    -9790   -16573 
  -15338   -11663   -10563    -9897    -5597      245     2791     1275 
   -2881    -8896   -14121   -14886   -11901    -9064    -5941     1250 
   11088    16950    14619     6714    -1332    -8814   -16958   -23612 
  -27564   -29372   -27315   -20287   -12577   -11239   -18142   -28344 
  -36434   -38172   -31352   -20180    -9819      -26     9599    16192 
   16243     9253     -183    -7711   -13166   -15036   -11320    -6764 
   -5699    -3333     4317    11645    11225     3772    -2244     -364 
    7589    17027    24165    24074    14517    -1871   -21300   -39986 
  -53628   -58024   -51625   -36795   -17672     -236     9573    10161 
    3028    -6432    -9858    -5044     5010    18637    32014    38874 
   36207    25594    13125     7048     8617     8529     -442   -15011 
  -30189   -42106   -44587   -37162   -27224   -19730   -15125   -13181 
  -12218    -9170    -2081     7148    11710     6670    -4910   -16554 
  -24481   -28797   -30284   -28931   -26997   -25774   -22095   -14507 
   -6727    -4092    -7477    -9612    -4494     3229     7152     7164 
    4240    -1603    -7832   -10017    -5379     4089    11747    13773 
   13327    11953     6660     -933    -5449    -5790    -2743     4088 
   12869    19623    21423    17336     7006    -9847   -29853   -45937 
  -53159   -49810   -36232   -16790     1686    15337    25060    31793 
   33884    31825    29177    27469    25635    21947    14966     7079 
    3407     5097     9917    15983    20624    21990    21653    20094 
   14494     4806    -5058   -12410   -17866   -24038   -32948   -44669 
  -57139   -66832   -71787   -71580   -64607   -50372   -33930   -24033 
  -24037   -26066   -18669     1575    29112    54840    71360    77345 
   75685    68860    60383    55034    53113    50266    45405    42541 
   42109    39430    34536    32281    32674    30552    22264     8203 
   -9089   -28357   -50483   -74733   -96592  -109844  -107846   -85432 
  -46442    -8092    11317     8391    -7621   -22881   -23821    -7892 
   15706    36005    45018    41682    28078     5316   -19100   -35538 
  -40715   -33653   -16514     4386    23840    38656    47497    49602 
   43860    32371    20347    12397     9940    10414     9470     2510 
  -12807   -30813   -40645   -37622   -24735    -4731    21039    46253 
   59146    54571    41291    30014    23331    20105    17768    12590 
    4781    -1824    -5785    -9476   -15407   -22878   -29933   -36095 
  -40555   -43667   -48783   -55882   -59659   -57326   -50943   -41588 
  -28473   -14677    -6983    -8458   -15182   -20585   -21120   -16956 
   -8340     4925    20189    33831    45219    52376    50025    38764 
   27726    24257    26906    29480    28803    25705    20520    11858 
   -1594   -18618   -35109   -46837   -50014   -43154   -31147   -20728 
  -13560    -8953    -8020   -12784   -23584   -36451   -44039   -40316 
  -23897      913    25285    41916    49266    47255    37352    26730 
   21526    22386    29144    39451    46875    46251    37060    22458 
    6594    -9134   -24249   -34371   -35475   -30033   -23628   -19755 
  -19246   -22226   -29306   -37901   -41951   -41097   -41820   -47310 
  -54319   -57687   -55041   -49937   -47655   -46857   -41179   -28431 
  -12686     1979    16263    32314    48001    58474    60416    52594 
   37012    20095     8353     3089     2107     4049     8180    13444 
   18580    20786    18139    12846     7688     2951    -2852   -10739 
  -17687   -19903   -19471   -21335   -26973   -34385   -40999   -45130 
  -46531   -47956   -54360   -66894   -78128   -76772   -59864   -37496 
  -22542   -18586   -21681   -28993   -36219   -34344   -19554     1967 
   22483    38778    49336    52360    48700    41042    31819    24230 
   20803    21216    22820    23927    25693    28917    31922    30683 
   20835     3687   -13544   -24887   -27965   -22731   -12996    -6993 
  -11468   -23890   -35660   -41841   -43131   -44105   -49583   -58310 
  -64712   -66049   -63777   -60599   -56402   -47007   -29681    -7361 
   13628    26567    27416    16864     -453   -17274   -27579   -29534 
  -23275    -9878     7407    23270    33514    40017    47761    56647 
   62754    64229    60702    49658    27920    -1172   -26356   -38260 
  -35848   -21774    -1115    16157    22959    20772    13066     2693 
   -7376   -16943   -24502   -24645   -16731    -5679     5587    15809 
   21675    17329     -293   -23804   -40934   -47426   -44497   -30903 
   -8271    15364    32225    40063    41949    40233    34117    24939 
   17732    18028    25950    33477    33714    28202    21357    15046 
    9006     2980     -700     1240     9146    20770    31065    32452 
   21895     4635   -11810   -23180   -29134   -30890   -29599   -27557 
  -26531   -26658   -28663   -30963   -28845   -20638    -9415     -938 
    -241    -5872   -11394   -12793   -11144   -10946   -15968   -25021 
  -32853   -33336   -22437    -2664    17637    32670    42466    47384 
   46762    42226    36677    32048    28284    24416    22025    21814 
   20445    17463    14973     9933    -2088   -19332   -34736   -40841 
  -33981   -15685     6954    23731    30164    29024    21520     8158 
   -5543   -15068   -22385   -30737   -39813   -47987   -55388   -62538 
  -68670   -72011   -70430   -63125   -50833   -34241   -13945     9443 
   33252    49075    48525    32874    10244   -11794   -28365   -37780 
  -39006   -30721   -16720    -4431     4626    14498    26449    39150 
   52949    67436    79502    84746    78439    59596    33132     5978 
  -16873   -32983   -39454   -34577   -23662   -14785   -10450    -8250 
   -6419    -7110   -14170   -27374   -40933   -49114   -52013   -54262 
  -58358   -62461   -64823   -65545   -64832   -62229   -56088   -45167 
  -31189   -17532    -7794    -5773   -11191   -16952   -16824   -11898 
   -5074     3817    13867    21180    23427    21263    16954    14407 
   16084    20786    26389    31057    33432    32387    25111    10353 
   -6496   -19012   -27878   -35490   -39068   -36238   -29744   -23565 
  -19011   -14459    -9346    -8100   -14460   -23761   -28302   -26054 
  -19053   -10248    -4409    -4915   -10057   -16888   -24434   -31809 
  -36283   -35016   -30609   -28898   -29847   -29452   -27189   -24348 
  -20064   -13528    -7894    -8472   -15428   -21782   -21408   -14620 
   -4873     5137    14631    24606    34971    42730    44890    40745 
   31361    19151     5074   -12535   -30544   -40204   -38622   -29806 
  -17992    -8402    -4018    -1579      978      968    -2947    -9375 
  -17819   -28492   -39279   -47007   -51715   -55771   -59590   -61755 
  -61606   -56873   -42875   -20918      502    17916    35840    55622 
   71459    78202    74790    61958    42940    23061     6787    -3775 
  -10140   -17119   -28216   -41163   -49978   -50098   -39016   -16958 
    9434    29527    35636    25112     2114   -21488   -35811   -41052 
  -41496   -38435   -30855   -18953    -6962     -820    -1065    -3668 
   -6737    -9044    -8141    -2450     8698    21921    29119    23912 
    4558   -24625   -52094   -67548   -70014   -62496   -46253   -23586 
      61    19311    31482    34864    30849    26456    27835    34545 
   40395    38906    27886     9044   -10379   -20714   -20099   -14803 
  -11138   -10339    -8377     -960    10530    19134    20365    17965 
   16819    15150     9819     2146    -6418   -16790   -28823   -40524 
  -49119   -52234   -49778   -42178   -29009   -13983    -4705    -3431 
   -5713    -7674    -9728   -15392   -24098   -28551   -25235   -16541 
   -4184     8395    18525    29325    41082    47329    43332    31590 
   19666    11581     5133     1664     5126    11457    15053    17565 
