Origin Time       2011/03/11 14:46:00
Lat.              38.103
Long.             142.860
Depth. (km)       24
Mag.              9.0
Station Code      YMT010
Station Lat.      38.2608
Station Long.     140.3484
Station Height(m) 147
Record Time       2011/03/11 14:47:00
Sampling Freq(Hz) 100Hz
Duration Time(s)  300
Dir.              E-W
Scale Factor      3920(gal)/6182761
Max. Acc. (gal)   95.613
Last Correction   2011/03/11 14:46:45
Memo.             
[...]
   46705    37595    25170    14790     7597     5052     9010    19021 
   31177    39059    41457    45025    52564    56636    51133    40622 
   34188    33262    28923    15443      545    -2963     9079    26605 
   34432    28044    16231    13567    29810    55400    67612    56769 
   31229     7381     2230    17258    36134    43257    33547    14928 
    2816     3896    13020    21725    22939    16527    10128     9524 
   14274    20808    24907    26756    30675    38163    47039    53679 
   55580    54136    51266    46782    41090    33886    23065    10001 
     478    -1868      -42      381     -922       28     4868    13258 
   26255    41131    48404    46883    48357    53428    46399    25254 
    8954     8235    16120    27084    39138    43940    36823    25576 
   18472    17236    21486    26837    26676    22577    21127    24138 
   29716    34261    33382    26778    20506    20606    25464    28172 
   23303    12056     4884     9710    18906    22876    23193    21210 
   16567    15252    18277    17195    13539    19031    30167    31080 
   21699    16229    17849    17450    15307    21516    34930    43804 
   43539    38385    33084    30103    31390    38571    47666    49804 
   42745    32274    22243    13456     7474     4309     1075    -1376 
    3205    12926    16525    12764    11137    16557    28910    43358 
   47662    36057    19070    10294    14418    28737    44903    52946 
   50631    42115    31556    26267    32554    44133    48216    42254 
   33544    26179    21914    25804    36329    42771    41240    38621 
   38471    37190    34256    33875    37307    43410    51837    57278 
   51248    37111    28409    29468    33707    35005    28978    16676 
   10602    20662    38825    50300    48062    32291    10764    -2611 
     -46    14810    32175    41446    41406    40548    42723    48308 
   56503    56187    39052    16449     3480     1013     5088    15978 
   29034    35199    35058    39104    53452    68706    69455    57547 
   48953    48612    49274    48469    47504    41936    31708    27597 
   32834    37594    35192    27513    18362    11480    12489    21432 
   26416    20569    14751    18110    25285    31106    36100    37229 
   30330    19608    14552    17768    23221    26825    29485    31443 
   33214    36534    39148    36696    30033    24093    21644    21801 
   22337    21765    19928    17127    14672    16296    21837    21947 
   12805     5537     7823    15528    25750    36939    41339    33167 
   19962    17833    33411    53803    60497    48923    29299    17304 
   25063    46770    57859    43751    17730     1125      728    10748 
   24306    35068    37021    32320    31287    37878    44301    44596 
   40826    33604    22546    14022    12684    12883    11007    12585 
   20138    29488    37528    42620    42945    40040    36289    30318 
   24573    27034    36620    42068    38647    32900    32502    39035 
   46838    47397    38299    25753    17687    15816    14747    11239 
   11063    19217    27611    25110    14590     6555     6391    15384 
   28806    34849    29419    21129    16651    16301    19625    23997 
   25337    25363    31052    43821    56083    60118    54120    42552 
   35768    41158    51736    53681    44974    36231    33594    33607 
   33180    29122    16569      230    -5595     5262    22944    33745 
   32642    24455    18761    22194    31453    34945    25581     9262 
   -1623      767    13998    27965    34644    36632    42520    53187 
   61324    61926    54922    44348    36952    36266    40947    46225 
   44499    32827    18230    11413    19264    37392    49361    45450 
   34515    29088    33464    44681    52058    46139    32621    26762 
   35067    48555    54541    48882    35401    22311    18002    24374 
   35094    39939    34472    26129    24201    30459    42644    53438 
   52444    40329    28702    26265    31739    33690    22939     7583 
    2619     9799    19818    24824    20741     8373    -1555     3387 
   18988    28332    25071    17410    14333    21593    38876    53311 
   50603    32246    14213    11333    21918    31359    32300    29862 
   28488    26636    23038    20773    24315    33056    40269    38959 
   27439    13627     9087    14083    19637    20775    18657    17846 
   20855    23400    23211    26577    35554    41451    39893    37186 
   40766    53268    68120    71811    59871    44457    40121    47030 
   53560    52038    44226    33791    23288    16932    16854    19208 
   19225    15930    10670     5190     3017     8881    20897    28441 
   26208    22233    24214    26361    18495     4487    -1861     3827 
   16116    29153    36355    33236    27820    35322    55267    70497 
   70288    57532    42760    38375    44175    47933    44155    32614 
   15260     6197    17359    37173    42451    25945     2386   -11864 
  -10724     8119    37109    54085    47710    30317    14906     8134 
   18462    39968    49069    34930    11590     1014    14399    42570 
   62975    58302    31583     4527    -2644    11363    29181    31779 
   18054     2321    -2218     7754    23150    33065    38994    44189 
   42691    33448    25104    21871    20473    17737    13920    13511 
   21809    35042    41181    34941    23104    15847    18274    26735 
   30313    20737     4671    -1671     7581    22421    29150    21919 
    6808    -3854    -2254    12245    32820    45477    43546    37710 
   40806    50839    56226    51458    40994    31627    26941    26576 
   26482    24256    25692    36288    49686    54441    46994    35821 
   33020    39178    43382    39648    34438    35713    41018    42745 
   38704    31653    26692    27739    32324    34471    31779    28887 
   32107    40992    47786    41777    19353    -7640   -20610   -10133 
   17553    44864    54686    44295    29219    28706    44143    56749 
   50122    26904     3504    -2119    16791    48458    72187    75479 
   61541    44541    38795    47458    60393    65807    58689    41732 
   26571    23934    28754    26772    15112     4891     5738    17490 
   33081    43592    45146    42206    40530    41212    41848    37261 
   25660    14456    10960    14921    23132    31601    34513    29912 
   26455    34381    49574    56628    44602    16013   -14186   -30362 
  -27947   -14187    -2615    -1659    -6890    -7701     2210    18563 
   31419    36866    36249    31606    26937    24417    21171    16971 
   19097    30683    42073    43940    39274    33832    26647    16628 
    9621    13271    26246    38717    42884    37110    25478    15062 
    9817     9438     9206     2829    -6361    -9646    -6985     -541 
   10742    23890    36072    47582    54263    51103    41496    33909 
   32820    36314    40860    45886    51644    53900    45590    26539 
    7436      200     6526    15972    15467     4018    -6221    -6117 
     705     5546     3623    -4136   -10953   -10690    -4956     2816 
   11143    16601    17194    17994    27139    45665    65249    76505 
   76440    69731    64028    63268    64918    64480    61982    57979 
   48466    32123    13166    -4978   -18904   -23084   -16862    -8349 
   -5305    -6988    -9583   -12273   -12375    -6868    -3164    -8312 
  -11626      324    24459    48313    61637    59471    46050    33218 
   26289    18588     6274    -2046     2293    16403    30793    36163 
   29569    19004    15777    22441    30485    34430    40119    50297 
   61023    72508    84958    91503    85038    67899    49992    39720 
   39737    44410    42764    31339    17221     7710     7123    16363 
   25978    23872    13474     7969    12665    23602    33417    36204 
   31563    25485    26086    33845    41424    43876    39875    29906 
   19923    14987     9333    -1102    -5215     5620    22412    34469 
   42138    48376    52225    52177    48776    43796    38018    27810 
    9332    -9932   -15972    -5801    11243    24323    29274    30707 
   32758    34579    38959    49035    59779    66375    71197    77580 
   83374    81868    69649    50243    28258     7679    -6727   -13128 
  -13553   -11645    -8311     1205    19445    41689    61367    71761 
   67596    52846    39222    33181    32318    33737    36011    35159 
   29436    22439    14400     1950    -9777    -6502    16817    43669 
   53442    44238    26894     9078    -3425    -3992     4681     9436 
    6469     9974    30592    59952    81843    85680    72293    53164 
   39925    34804    33002    32113    34007    38576    41779    37896 
   23819     4656   -10547   -19767   -24225   -20205    -6530    10870 
   23949    27584    24023    19088    18436    26759    40176    47691 
   44064    33907    25670    23317    22699    20342    19715    21468 
   20021    14158    10543    14739    23100    28843    32752    39126 
   47112    52362    50517    41785    34864    36272    41166    41200 
   31675    13495    -5123   -12906    -3691    17790    37886    45575 
   41210    33794    32459    35326    30326    15171     1161    -4028 
      78    11012    21481    22597    13282     3708     4983    14377 
   18092     9089    -6392   -15489    -7659    15104    39654    55820 
   60550    54263    42640    31166    15655    -8365   -32831   -45614 
  -40199   -14901    23034    56098    67538    55365    34345    20741 
   20481    29956    38585    36886    26903    19645    23216    35922 
   49550    56072    50902    36500    24407    27175    46740    72347 
   89167    89940    77080    54212    26299     3912    -5424    -2390 
    8422    19880    27164    32500    36999    34979    22130      652 
  -20065   -25337   -10250    12469    25767    20645     1303   -14425 
   -7431    24597    62603    82589    77471    57988    36645    21070 
   14781    13133     4433   -16405   -37068   -38582   -15867    19217 
   51011    68981    69762    61955    62857    77111    88074    80224 
   56695    30182     8279    -7510   -14276   -10763    -3998     -946 
   -1563    -3619    -6235    -8922   -10424   -10885   -11772    -9380 
    5669    34727    62160    74408    79598    87238    87164    69767 
   41983    12713   -15788   -39641   -50687   -46067   -29976    -2893 
   34737    68437    78865    63705    39244    25882    32338    46523 
   49341    38964    32463    43824    63103    66302    45432    13190 
  -11957   -14870     5015    29481    36771    19676    -9265   -31809 
  -41599   -40338   -26794    -2322    21606    32473    30126    26749 
   33600    48164    58064    56262    46044    37223    40794    56505 
   70723    74375    69713    59461    43568    24432     8666     4533 
   14794    30652    40485    44043    47570    49802    45874    37489 
   29444    23817    20209    17653    15274    14634    20975    31734 
   32752    18785     3563     2249    15921    35977    52462    57457 
   51929    45564    43542    42730    39633    31956    16990    -4515 
  -23327   -25628    -7679    19196    40806    48110    39400    24802 
   17610    18185    19439    20074    19164    12744     4950     4135 
    7544    10917    19864    33855    43842    48971    51820    48749 
   36592    19245     8083    10711    18801    19537    10509    -2521 
  -12292   -16097   -16152   -11875     1221    22424    42206    51339 
   48343    34733    13522    -6032   -17897   -24056   -20373    -3688 
   12839    17424    15345    18414    34140    57966    72531    66337 
   45976    26071    18883    28588    48158    66417    78756    88919 
   97781    95983    77181    47561    15563   -12021   -24256   -12972 
   13394    34800    41586    39291    31965    16649    -6365   -29148 
  -43320   -46208   -39869   -29596   -20458   -13367    -6909     2169 
   17267    36088    51003    54541    48776    47693    57454    65680 
   60236    41458    16376    -4109   -10054    -2439     9590    19285 
   24320    27596    36757    51591    60382    56733    46538    38182 
   35633    37592    40129    39465    33928    27386    23423    17045 
    7019     6140    22153    43006    53118    47485    26605      415 
  -10215     4531    35449    66793    82001    72601    47198    24311 
   18183    28846    44256    52288    48395    37449    31760    40332 
   60633    84546   104624   113009   104800    86177    71624    67154 
   62428    46123    19937    -9952   -40758   -63959   -67242   -53825 
  -40235   -31663   -18160     5558    29770    40288    34381    22127 
   13093     8226     5675     4484       94   -11045   -22769   -25152 
  -14288     8595    40900    76361   103195   109551    92480    64606 
   46637    47052    56755    63348    61235    50440    33587    18445 
   15738    24648    31158    24619     6295   -13500   -21463   -10479 
   10668    22626    20248    17122    20835    29076    43537    63756 
   79858    81879    67723    44525    26053    25152    44692    73220 
   92735    93278    78531    62792    63039    83047   108518   124426 
  126428   116132    99268    83412    69867    56948    47253    40025 
   28912    14711     5300     3627     7096    12637    18392    26468 
   40346    55697    62711    59272    50575    39211    27150    19655 
   17431    13447     6471     7442    21572    38082    47722    53193 
   55013    46293    30538    25562    38010    51103    47308    30669 
   18596    19333    28559    38855    40088    22972   -11530   -54101 
  -93630  -119265  -122606  -101195   -62707   -22410    10356    34334 
   42860    30490    12063    10474    30756    58898    78426    81685 
   65976    37794    21809    29684    39924    39585    36618    28799 
   15460    14732    36271    66763    88977    95150    85982    67264 
   47088    31578    21895    18090    20572    25441    28303    32177 
   42079    53963    56402    43471    22271     5683     -565      477 
    7254    23206    47855    72917    89324    93378    87104    76262 
   68800    69342    70300    58815    35614    13860     5066    14648 
   37666    57195    57754    38946    14210      394     6152    25764 
   43513    43215    18863   -18326   -47927   -58705   -55714   -49515 
  -46141   -43483   -30984    -3135    30555    56565    65443    51075 
   17145   -18773   -35840   -24439     7112    37807    49384    36421 
    6234   -22946   -34554   -29770   -19341    -9147    -2036     2101 
    7801    18656    32822    40612    31821     8879   -15191   -29394 
  -31223   -23640   -11105     1585    13405    24710    31086    30716 
   28502    26406    23309    24032    33444    44992    47381    36234 
   14436    -8563   -17763    -5267    17636    30063    22326     2811 
  -12010    -9662    11560    40373    60422    64296    58044    55709 
   68219    92559   115621   124873   112653    83123    55428    47923 
   59389    71528    67892    47944    25841    15744    19743    27904 
   24672     5111   -15652   -20085    -4416    22655    44190    48662 
   43364    42824    52548    69092    82326    80832    62823    36985 
   15167     5668    10500    27020    44848    48357    35264    20444 
   15523    21250    33403    39868    28470     5209   -14498   -26949 
  -36006   -39311   -32770   -21607   -15521   -16880   -22169   -28248 
  -30129   -21562     -565    31631    69892   101878   117676   119640 
  114358   102362    82110    57984    37884    27389    28985    38748 
   46786    48612    49358    56888    74515    95618   107281   102340 
   86311    74532    79724    97812   111427   108793    93311    74281 
   53386    26793    -1137   -17748   -15950      708    20478    28725 
   24500    23341    33819    50030    64546    69019    56548    35726 
   22952    19778    16826    13479    16043    22174    22742    16053 
    7762     1814     -622      730     5524    12661    20286    27267 
   33123    37414    40343    39511    29331    10658    -7303   -18830 
  -23058   -17619    -4532     6875    11515    13991    21081    34193 
   48597    58929    63267    61337    52888    38763    21770     6852 
    -239     1104     4010     2922     -671     -689     9098    28196 
   49325    64879    67972    55907    36573    20941    10313    -1009 
  -13787   -21304   -19099   -11782    -7715   -10034   -12461    -6353 
    7171    19626    24336    17784     3453    -7057    -6174     4466 
   21300    38115    44598    35720    17173     2096     1027     9437 
   12572     2772   -15373   -30058   -28615    -6488    25665    47999 
   50404    38445    21405     7222      489    -1299    -1857    -2288 
   -1797     5431    24115    47624    64500    71103    71447    69800 
   67498    62934    52734    35486    15112     1072     1646    15621 
   33443    43116    38763    26769    17311    15945    25181    42520 
   59287    69047    71796    68811    63270    62423    68524    73311 
   67822    54605    45448    46933    54257    57866    53006    44527 
   39152    35323    28192    18510     9923     5554     8137    14653 
   16347    11061     4852     -638    -8930   -20572   -32599   -39604 
  -35055   -16135    10846    31825    37969    32802    24932    22299 
   28204    38304    48358    58088    63332    60540    57072    60400 
   64749    58781    39844    15676    -4377   -14145   -11805    -2799 
    4235     4719     -344    -3582     4106    22239    41344    55118 
   63355    65681    61419    54085    49130    47985    48066    47992 
   49446    53644    59335    64101    65657    62777    56579    51248 
   51230    57196    65379    69647    66740    60497    56827    56009 
   52959    44032    33009    26498    24142    21363    17859    17730 
   25884    42376    58491    64567    59826    48277    30549     9535 
   -3437     -635    11667    20592    16792      120   -20465   -33633 
  -30004    -6800    24996    47316    52717    46031    36065    36429 
   54711    78350    89176    81572    63011    48253    48617    62435 
   78836    88310    85817    72209    56906    49455    48780    47002 
   39619    29041    21328    18964    19015    20311    24010    27129 
   24926    17431     7727    -2000    -8476    -8053    -2281     3960 
    8838    14945    25553    38633    47914    50475    48561    46282 
   46972    50605    54282    57022    59257    58486    53394    47908 
   45724    46417    46956    42421    28763    10470     1103     9218 
   26950    37257    30364    10258   -11578   -24038   -22234    -9896 
    5396    16916    20256    16651    12937    16423    29785    48917 
   67147    79127    81222    73972    62691    54377    51086    45613 
   32064    16912    11570    19564    34023    44147    43684    33184 
   15868    -2801   -16090   -22601   -24777   -23661   -20720   -17028 
  -11443    -2585    10160    23973    33047    34386    29635    24513 
   25440    33879    47478    63110    78401    93312   105264   106523 
   92383    66924    39603    18632     7833     7216    11689    12902 
    7720     1623     1771     8508    14403    11930     1777    -8658 
  -12957    -6896    10776    32148    44595    43361    31340    13820 
     489      597    13776    32273    48044    57476    60268    57625 
   56893    65509    79349    88855    89597    81698    68088    56388 
   54277    60850    67693    67201    59302    50232    44405    42435 
