Origin Time       2011/03/11 14:46:00
Lat.              38.103
Long.             142.860
Depth. (km)       24
Mag.              9.0
Station Code      YMT015
Station Lat.      37.9049
Station Long.     140.0990
Station Height(m) 252
Record Time       2011/03/11 14:47:03
Sampling Freq(Hz) 100Hz
Duration Time(s)  300
Dir.              N-S
Scale Factor      3920(gal)/6182761
Max. Acc. (gal)   192.696
Last Correction   2011/03/11 14:46:48
Memo.             
[...]
   54049    55003    54367    51724    47318    41772    36141    31849 
   30887    35127    42673    48705    51920    54084    55310    54750 
   52039    47007    40111    31957    22840    14259     8348     4901 
    2837     2916     5583    10686    18727    28453    37623    44508 
   44851    36046    24407    16468     9688     1733    -5015   -10374 
  -14489   -15631   -12436    -2970    11749    26950    40811    53654 
   64423    72246    76674    78569    79915    80316    79586    79716 
   79416    75292    66795    54635    40041    23940     4893   -16546 
  -37059   -57291   -79775  -102868  -123603  -140902  -155152  -167968 
 -179962  -189220  -193401  -192328  -187396  -177137  -158042  -131298 
 -101486   -71951   -46334   -26402   -10371     1804    10165    17138 
   22092    23757    24725    26474    27649    27626    26487    23150 
   15781     4026   -11099   -29173   -49672   -71515   -94140  -117505 
 -141338  -163581  -181298  -192879  -197524  -196007  -190286  -180144 
 -164590  -145860  -128043  -112027   -94840   -75630   -58388   -45349 
  -33406   -20539    -8237     3896    17248    29239    38137    46766 
   55188    61373    67231    72917    75722    76547    77153    78449 
   82841    89637    94673    95841    91634    80263    64727    51730 
   42238    30484    15685     2046   -11047   -24866   -38017   -51017 
  -63632   -74134   -82387   -88480   -93010   -97652  -101826  -104354 
 -107076  -109219  -107231  -102537   -96536   -87606   -79298   -75065 
  -70177   -61089   -50139   -37600   -21956    -3604    17281    39485 
   60618    80150    96714   107558   113287   116580   118447   118452 
  115554   110005   103279    95966    89301    84914    81981    79058 
   75502    69830    62154    55003    48116    39517    30788    25217 
   24548    28851    36954    48001    61847    77535    93510   108664 
  122377   134890   147072   159370   171551   183491   196178   209974 
  222539   231400   236691   240079   242394   241433   232341   210408 
  173393   127084    86880    60615    39421    16673    -5880   -27698 
  -46820   -62236   -77020   -91692  -105367  -117345  -126327  -134880 
 -146406  -158808  -170389  -184238  -200261  -213516  -221739  -225531 
 -224949  -220359  -212777  -202527  -189989  -177172  -164563  -150784 
 -138265  -128717  -119045  -109628  -101392   -89915   -72945   -50162 
  -20376    13349    46010    74823    98976   119421   134580   140636 
  138202   130019   117123   102846    91997    85216    79838    74287 
   68356    61558    54074    46673    38442    28188    16508     4038 
   -8864   -21071   -31384   -38549   -41180   -38570   -30843   -18647 
   -4230     8254    17416    25906    34214    40071    43025    44352 
   44269    40956    33889    26186    19455    11630     3045    -3120 
   -6259    -7953   -10085   -14750   -21909   -29204   -34541   -37397 
  -38804   -39355   -37497   -31749   -23760   -16540    -9936    -1546 
    8621    18924    29724    41657    52643    60675    66660    71877 
   75515    76295    75009    72785    67596    57587    45592    34954 
   25146    15359     6808     -922    -9136   -16535   -22573   -28818 
  -35343   -41064   -44922   -46572   -47379   -48196   -49147   -51750 
  -56770   -62602   -68386   -75146   -83278   -92402  -101936  -109879 
 -114003  -113235  -107065   -95847   -81043   -64566   -47276   -29843 
  -14951    -2734    11012    26667    40926    53707    65864    76918 
   86960    94843    98438    98426    97804    97499    95066    88858 
   80071    69611    57115    42903    28566    15117     1341   -12991 
  -24783   -32722   -39774   -48554   -59689   -73213   -88058  -102739 
 -115642  -124385  -128897  -131547  -132176  -129076  -122291  -112161 
 -100181   -89433   -80437   -72543   -67881   -68325   -72769   -78202 
  -80803   -78810   -73017   -63986   -52871   -41720   -31316   -21393 
  -11286     -873     8530    16035    22299    27621    30902    32351 
   34324    37472    41652    48866    59237    70057    80195    89728 
   98644   106590   111216   111763   112778   117800   124079   128001 
  130497   134204   138061   137358   128839   113164    93326    73723 
   58688    49202    42553    35921    29621    26398    27332    31154 
   36898    43275    47508    46374    38682    26874    13247    -1855 
  -17398   -32615   -47375   -61080   -73552   -84665   -93928  -100480 
 -104852  -110668  -118679  -125021  -129178  -133635  -138199  -141066 
 -141427  -139006  -132242  -120404  -106021   -91231   -76582   -63099 
  -50639   -37371   -21949    -4847    11249    23768    32256    36988 
   39087    40314    41274    43435    49809    61543    77550    95438 
  111195   121596   125928   124407   117311   104321    85203    62543 
   40780    23944    15401    15754    23456    37431    54850    72127 
   86856    94582    92535    83035    66870    43262    15309   -11215 
  -32061   -48393   -64852   -82275   -97245  -107411  -112771  -113950 
 -111969  -107573  -100679   -92403   -85275   -80145   -74778   -67916 
  -62981   -61742   -60030   -56426   -52931   -47128   -37081   -24730 
   -9518     9369    28244    43360    55138    65486    73787    78233 
   79494    79318    77148    72232    66959    64412    64133    62952 
   60043    57961    57696    56801    53546    49010    44010    38278 
   33132    30197    28946    27824    25715    23403    22276    21572 
   21690    24412    26970    24832    17347     5658    -8993   -25041 
  -41449   -56901   -69483   -78079   -82593   -83990   -84307   -85320 
  -88278   -93224   -97310   -97979   -96148   -92750   -87384   -81501 
  -77467   -75486   -74351   -71968   -65879   -57410   -49840   -42445 
  -33752   -24916   -16558    -7840     1924    11938    20967    28784 
   33815    33295    26456    14976     3424    -2899    -3225     -166 
    4887    12130    21227    29892    35705    38784    40058    38350 
   31178    17852     2163   -10425   -18930   -24617   -27201   -28352 
  -30296   -32177   -33486   -35319   -38363   -42054   -44783   -46575 
  -48703   -51049   -53506   -55652   -55888   -54729   -53366   -50404 
  -45300   -38890   -30757   -21495   -12907    -6206    -2175      380 
    3590     7419    10993    14648    19084    23717    28002    33246 
   39802    46505    53274    60077    66967    74441    81090    85607 
   89295    92651    93700    91206    85749    77863    68822    61690 
   59112    61728    67920    75325    83355    91058    95421    95181 
   91336    83889    72599    58235    42122    27234    15973     6975 
    -794    -5301    -5912    -3948      882     9088    18930    27802 
   34252    38965    43712    48982    54389    60436    67947    76822 
   85741    92868    96558    95283    88843    77911    62059    43113 
   25620    10344    -4569   -18000   -27503   -31941   -31489   -26862 
  -18710    -9885    -4824    -4251    -6017   -10299   -18453   -29111 
  -39113   -46671   -50944   -50439   -45236   -37197   -26694   -13719 
    -260    10121    13397     7891    -4179   -18922   -33280   -45618 
  -55118   -61905   -66164   -67435   -66759   -65706   -64480   -63580 
  -63135   -62830   -62948   -62690   -61931   -61500   -59781   -55904 
  -51529   -46636   -39173   -28222   -16485    -8363    -5958    -9235 
  -15656   -21347   -25900   -30172   -32920   -33339   -30786   -24665 
  -16874   -10112    -5909    -3967    -2223    -1283    -3714    -8138 
  -12382   -17068   -22101   -26402   -28847   -27917   -24475   -20849 
  -16352   -10216    -5178    -3175    -3950    -7834   -15184   -25600 
  -37374   -48827   -60562   -71419   -78628   -83482   -88216   -92662 
  -96436   -99383  -100752   -97398   -85301   -64377   -40059   -19994 
   -5013    10133    25282    38714    52550    65589    75908    85812 
   97003   108713   120024   130457   139185   146314   152642   156702 
  156883   152707   142584   126088   105747    85380    68792    57263 
   48685    40923    33055    24356    14922     4750    -6903   -19772 
  -33451   -48266   -63186   -76376   -87010   -94432   -97830   -96493 
  -90373   -81414   -71481   -60745   -50559   -42988   -38609   -37537 
  -39474   -43765   -48556   -49392   -42985   -30144   -13532     4750 
   23660    41865    58624    74691    88414    96408    99208    99569 
   97369    91913    85497    80383    76581    73028    68028    61407 
   54798    48736    43269    38459    32849    25199    16428     7560 
   -2228   -13220   -23169   -30744   -37914   -46411   -55318   -63810 
  -72424   -80536   -86565   -90164   -90489   -85453   -75091   -61622 
  -47511   -35921   -28772   -24648   -21454   -18348   -15115   -12211 
  -10515   -10040    -9557    -8242    -5935    -1870     4117    11400 
   19745    28356    36398    44128    52158    60746    68954    75506 
   80422    83983    85764    85377    83712    83548    87279    94451 
  102805   110429   116105   118639   117510   112610   102344    85781 
   65271    43901    23232     3914   -13480   -28507   -40722   -49780 
  -56373   -60963   -62892   -62098   -58895   -53872   -48154   -40764 
  -29529   -15317    -1767     7188    10493    11600    11991     8957 
    3702     -428    -4894   -11050   -16906   -21291   -24455   -26151 
  -25243   -21587   -16460   -10341    -3283     4630    13075    20237 
   24759    26724    26480    24118    18215     8570    -2233   -13306 
  -23915   -31621   -36539   -39161   -38697   -36809   -34791   -32487 
  -32733   -37954   -46161   -55242   -64905   -74263   -81567   -85587 
  -86739   -85482   -80689   -72848   -65504   -61474   -60662   -62250 
  -66754   -74190   -83328   -93299  -102505  -108693  -111165  -110907 
 -109037  -104740   -97002   -86768   -74169   -59762   -47000   -37551 
  -29048   -19176    -8901      320     9667    18394    23616    26441 
   29616    33121    34678    32181    27609    23828    19698    14928 
   12026    12300    15700    22072    31299    41605    49756    55546 
   60738    65337    68946    70807    70156    67671    62815    55038 
   46985    41004    38126    39675    44915    51339    56874    60293 
   62018    62842    61985    58990    54753    49398    42613    34838 
   26287    17687    10986     6896     4038     1620      480     1532 
    4769     8475    10196     9009     5346      995    -2040    -4217 
   -6411    -7860    -7781    -5952    -2824     1089     6256    13331 
   22505    32360    40311    46479    52527    57979    62210    65819 
   69961    76254    84908    95078   106822   119582   131904   143154 
  152935   160840   166884   170880   172113   168457   156946   137363 
  113599    91134    73131    58277    43647    28352    12844    -2992 
  -19402   -35658   -50979   -65496   -78821   -89735   -98086  -104429 
 -108289  -109667  -110525  -111646  -111398  -109405  -107112  -106113 
 -107761  -111829  -116630  -119488  -118181  -114785  -113173  -113727 
 -114139  -112400  -108884  -104232   -95928   -82264   -64609   -42925 
  -16941    10179    35004    57439    78749    97798   112287   122251 
  127781   126081   114960    95876    71766    45618    21195     3347 
   -4650    -6791   -10084   -14419   -17730   -21713   -26794   -33519 
  -43714   -56569   -69394   -78386   -81063   -79329   -75442   -69180 
  -59190   -44992   -29160   -15065    -5387    -2648    -5594   -10972 
  -19092   -31254   -46526   -62177   -74761   -83985   -92448   -99617 
 -102749  -101553   -96339   -85874   -68311   -43337   -15446     8258 
   24794    36799    47156    54518    56969    56149    53922    50496 
   46380    41554    34671    24839    12300    -2333   -17378   -29600 
  -37145   -41103   -42003   -38237   -29941   -19927    -9436     2823 
   17262    30966    40088    44592    46467    45651    41763    35750 
   29231    23293    17754    12900     8766     3026    -6257   -17625 
  -27697   -35442   -42677   -48735   -50910   -49943   -47821   -44407 
  -39369   -32572   -23784   -13577    -3566     3715     6851     7058 
    6769     8528    13952    23093    35154    48717    62392    75222 
   86059    93158    94236    90461    89077    93937    99943   103495 
  106262   109367   113373   118316   123488   128821   133660   137972 
  142576   146334   147501   144864   135827   116293    84897    49726 
   21741    -2053   -31413   -65237   -99395  -134308  -168669  -199727 
 -224730  -242944  -257333  -267723  -271588  -270532  -260713  -225249 
 -156096   -78021   -26064      309    23978    46043    62117    78349 
   90428    94131    94986    96160    98624   100544    98790    92502 
   81646    69773    60741    51486    37228    19268     1375   -14434 
  -24937   -26119   -16015     5655    36260    70119   101520   126417 
  144685   159588   172167   181217   186484   187697   184893   177814 
  164447   143718   118001    93500    75565    61847    47351    32230 
   17341     1737   -14432   -31592   -49456   -64953   -76559   -85294 
  -91580   -94973   -95225   -91843   -83404   -68637   -47760   -24316 
   -5962     2208     3207     1241    -3914   -12528   -22669   -31402 
  -36122   -37183   -36509   -34755   -32178   -28906   -24946   -20943 
  -16930   -11416    -2825     8981    22329    33749    38717    34205 
   23240    15355    15028    14807     8598     -363    -8344   -16392 
  -27443   -42527   -61808   -85430  -109875  -131160  -149013  -163492 
 -175858  -190708  -210045  -230196  -247966  -264389  -280485  -294225 
 -302700  -303885  -297749  -286268  -267806  -234461  -182724  -124056 
  -75701   -40381    -7313    27403    60554    93438   126992   158922 
  188176   213908   234705   248956   255686   256093   251915   244131 
  232660   216493   196099   173275   149954   127972   106497    83798 
   62414    46807    38072    33746    30412    26893    24179    21171 
   15083     6028    -4127   -15396   -27542   -39077   -50802   -64559 
  -78970   -89685   -93074   -88959   -79256   -65354   -47445   -25135 
     477    25592    46615    62588    72663    75107    70828    63393 
   55696    48537    40062    27983    13586      675    -9058   -17342 
  -26494   -37301   -50015   -64138   -77356   -88465   -98765  -109357 
 -120456  -131325  -140479  -146907  -148603  -142662  -127273  -101584 
  -70329   -45392   -32425   -25298   -18831   -12411    -4499     4688 
   13255    20794    26668    31317    36210    40732    44561    49387 
   56189    63995    71115    76118    76481    69096    55052    39370 
   25138    12506     1191    -9317   -19777   -30808   -42896   -55086 
  -64867   -71068   -75153   -78526   -80078   -78466   -74611   -68966 
  -60453   -50009   -39115   -27538   -17685   -12003    -6796      731 
    7345    10368     9643     4993    -3134   -13437   -24887   -37011 
  -48523   -56953   -60700   -59822   -54762   -45164   -30052   -10552 
    9004    25669    39731    51879    63573    75520    84810    88881 
   87815    81410    69086    51591    32523    17474     8922     4193 
    -991    -7925   -14753   -20834   -26538   -31226   -35149   -39056 
  -43565   -50191   -59210   -68330   -74949   -77746   -75865   -67751 
  -51952   -29202    -4695    13688    23428    27807    27001    19591 
    8194    -4944   -19275   -33116   -45366   -55287   -61084   -61024 
  -53504   -37731   -15186    10472    34021    51968    66313    81245 
   98266   117451   138258   157926   174285   189456   206831   225222 
  239982   248901   251914   248891   241400   231359   218663   203049 
  184760   163078   137036   107969    79405    53173    28252     3825 
  -19850   -42314   -63054   -82136   -99674  -114676  -125664  -131488 
 -132061  -129112  -124983  -121620  -121397  -125889  -133855  -142127 
 -148016  -150751  -149086  -139416  -118338   -85644   -48520   -18710 
     792    16112    31056    46275    60459    69302    71640    69542 
   62901    52814    42914    34989    30098    30383    36034    43991 
   50920    55318    55885    50563    37954    17552    -7437   -27729 
  -38800   -47657   -57592   -64516   -70484   -77569   -82643   -87117 
  -92436   -96908  -102593  -111379  -121360  -130993  -138834  -140334 
 -130401  -108519   -77832   -43666   -13929     8404    28289    48283 
   66759    82851    95383   104768   112533   117822   121894   128520 
  137555   145309   149471   151361   152657   152114   148015   139603 
  126498   108892    87792    66975    51579    42527    37361    35733 
   38796    45079    51220    55100    55838    52878    46085    34872 
   18335    -2769   -25845   -48621   -70182   -89465  -104983  -115830 
 -121060  -121060  -119220  -118379  -118319  -118238  -117660  -114947 
 -108231   -98398   -88737   -80920   -74383   -68744   -63165   -55913 
  -47016   -38681   -32428   -28211   -25828   -24366   -21626   -16830 
  -11665    -7240    -3394    -1533    -3962   -10462   -18650   -26777 
  -34445   -40908   -44160   -42812   -37315   -28129   -14872     1044 
   16320    29585    40954    49914    56766    61645    63378    62331 
   60363    58715    58945    62669    69210    76216    82695    89333 
   95416    97978    94893    86691    75148    62175    49890    40128 
   34188    32743    35125    39851    45537    49903    50252    46193 
   39000    29681    19550     9634      469    -7424   -14855   -22698 
  -29900   -35416   -40842   -49437   -61575   -75059   -89488  -104404 
 -117670  -128136  -135717  -141121  -144469  -142822  -134046  -120257 
 -103472   -83560   -62050   -42818   -27461   -13317     2087    18072 
   33054    46172    56964    64652    67948    66111    59391    49131 
   36831    22144     4808   -13084   -29200   -41373   -47040   -45280 
  -37082   -24292    -9582     4586    17534    29838    41401    51874 
   61983    71583    78462    81604    83212    85672    88753    91218 
   93009    94929    97959   102215   106274   109376   111238   109100 
   99796    83101    61584    40420    24396    13633     5751    -1057 
   -7930   -13821   -16444   -15064   -10358    -4526    -1124    -3366 
  -12136   -24418   -36152   -45876   -53609   -58917   -60458   -57962 
  -54420   -52740   -52723   -53429   -54110   -54465   -56077   -59859 
  -64997   -71826   -80694   -91062  -102987  -115028  -123963  -127925 
 -127025  -123051  -118728  -115833  -114653  -114610  -115269  -116800 
 -119165  -122059  -125357  -128469  -130619  -130913  -126908  -116602 
 -101858   -86345   -71814   -57806   -42729   -25508    -6961    11496 
   29210    45537    59771    72193    83787    95031   105096   112257 
  115665   114939   109202    99431    87843    75174    61504    46362 
   29382    12726     -746   -10481   -17217   -21267   -21752   -16378 
   -4163    13013    33182    53516    69724    81307    90635    98101 
  103409   106425   107082   106424   105067   102353    97553    90187 
   79927    67201    53396    39376    24625     8765    -6853   -19975 
  -29760   -36410   -38811   -35762   -28185   -17437    -3733    12605 
   29816    45428    58509    69947    80544    90398    99290   107065 
  114289   121489   128329   134235   138103   138563   135213   127867 
  116190   100896    83859    67621    54478    45212    39436    36131 
   34039    32510    30260    25266    17117     5995    -8473   -24963 
  -40861   -55148   -67700   -77089   -82844   -87778   -93916  -100217 
