Origin Time       2011/03/11 14:46:00
Lat.              38.103
Long.             142.860
Depth. (km)       24
Mag.              9.0
Station Code      YMT005
Station Lat.      38.6079
Station Long.     140.1627
Station Height(m) 330
Record Time       2011/03/11 14:47:01
Sampling Freq(Hz) 100Hz
Duration Time(s)  300
Dir.              E-W
Scale Factor      3920(gal)/6182761
Max. Acc. (gal)   95.253
Last Correction   2011/03/11 14:46:46
Memo.             
[...]
  -19434   -21126   -30182   -37766   -38378   -34831   -31615   -32372 
  -35372   -32320   -19310    -3815     3536     2004     -171     2553 
    9578    17647    21614    15952     1459   -11375   -11664    -1139 
    7903     9096     7595     5407    -4147   -17825   -18085     -127 
   19123    26283    24399    22239    24358    28324    30350    30478 
   26420    14972     4576     8465    24240    37189    39537    35046 
   30900    27864    20223     6413   -10706   -26023   -29505   -17711 
   -2249     2649    -6509   -22786   -37447   -43677   -38147   -25976 
  -17061   -16857   -25740   -40747   -52890   -52956   -42374   -27659 
  -13982    -7765    -6187     1135     9593     8783     5770    12678 
   23831    19909    -2830   -21783   -20453    -9388    -4083    -3958 
   -1291     -458   -11845   -25384   -18256     5796    20617    19929 
   16137     9518    -6429   -25134   -33551   -28203   -14564     3343 
   21817    31803    26891    12877     2443      836      622    -5411 
  -12018   -10004    -1624     3078     1339    -1630    -1612     1431 
    3093    -2835   -14210   -17065    -5123     4372    -4359   -18177 
  -20136   -18370   -24545   -33714   -38016   -34059   -19856    -2524 
    4308      906      861     9805    21485    27493    23479    14963 
   12506    12797     1328   -20130   -34527   -35449   -26942   -10537 
   10833    30164    44267    53955    57409    53820    46894    37427 
   26671    21152    17073     3217   -13037   -14971    -5091      825 
   -3946   -10976    -6513    13310    35854    42912    30158     9176 
   -7036    -9963    -1606     3872     2000     2550     6812     8265 
    8762    14738    25861    35304    35173    20620    -3493   -22137 
  -24245   -16606   -15774   -21787   -18078    -2392    12017    23060 
   35089    37743    22312     3010    -6528    -9244    -6216     1493 
    3132    -5329   -14829   -18321   -17983   -19976   -24678   -24545 
  -15458     -833    12550    15129     3850   -11926   -22124   -24966 
  -28757   -42980   -58102   -54836   -39496   -36960   -49201   -56640 
  -53416   -48722   -44923   -39229   -32585   -25368   -17087   -11234 
  -14220   -24706   -28846   -20169    -8174     1046     7510     8559 
    4543     1860     6112    16173    26755    32414    27737    14015 
    3149     6304    19172    26316    25735    29898    38976    40859 
   32180    20765    16042    19463    22349    18769    14087    15457 
   22946    31220    33886    28179    16028     3462     -922     1252 
   -2810   -15236   -26541   -32933   -35245   -34079   -32177   -31309 
  -31150   -31028   -28719   -24446   -20390   -14618    -8403    -8591 
  -15545   -21229   -16347      581    19139    27655    26064    27919 
   42588    58589    61683    55094    49644    46469    36026    18098 
    8502    12896    17891    14404     4372   -11412   -29645   -37002 
  -25487    -8464    -4575   -12307   -17603   -17471   -16393   -12245 
   -4852     -552      981     4259     8976    15220    21806    24913 
   26897    27486    18719     4886    -2803    -8195   -17248   -24205 
  -24379   -20887   -18460   -18195   -18092   -16194    -9200     3457 
   11555     8511     7860    17848    20078     5476    -6813    -8372 
   -9782   -11942    -9882    -6282    -4501    -5082    -8628   -14742 
  -20708   -23731   -24987   -29485   -40283   -52472   -56621   -52484 
  -48142   -43966   -37768   -35808   -36710   -25356     -258    17416 
   17746    16011    17932    12576     5762    11968    23775    25752 
   19034    15805    21027    25904    23338    21547    27223    30355 
   23782    17442    20735    29644    34003    28263    17879    11428 
    9575    10636    13916    17985    25872    35709    34153    20288 
   10242     8523     5910       84    -6265   -14107   -21330   -22480 
  -18041   -12536    -9517   -12978   -23369   -33994   -39870   -41817 
  -37888   -26866   -18009   -18378   -22021   -23876   -23413   -15927 
   -3875     -622    -7572   -12715   -12696   -13819   -17126   -15266 
   -4734     6889    13289    18466    26630    33048    32982    31870 
   33540    32573    28310    25872    25997    27446    30877    37566 
   47638    57051    57602    47746    36430    26774    16302     9197 
    3822    -7456   -17261   -13449    -2422     1654    -1691    -4794 
   -7716   -15250   -25223   -29806   -26776   -21397   -17318   -15777 
  -19443   -25314   -25046   -20122   -20549   -26553   -26542   -16115 
   -7170    -8957   -15738   -21483   -26549   -30165   -29899   -25592 
  -21305   -20367   -20652   -19227   -15671   -12461   -11406    -9523 
   -6999    -7369    -7504    -3180     3900     9049     9012     9807 
   20673    34033    32237    17278    10300    17563    20860     8790 
   -4561    -3796     3891     7698    11471    13575     5878    -3540 
   -4994    -4673    -6912    -6332     -153     5867     2192   -14758 
  -36850   -48474   -42054   -28175   -20946   -21568   -22008   -15685 
   -5518    -1143    -3283     -269    12481    21457    12872    -9926 
  -31626   -36315   -19773     3176    16646    22208    26469    25793 
   14381    -4074   -21584   -34662   -41423   -39378   -29990   -18446 
   -9248    -3889     -781     2057     4906     8027    12802    21092 
   33138    44337    49377    49341    47668    44287    38646    32087 
   24807    17838    17279    23793    25324    16176     8885    10479 
    8909     2401     7672    24013    30893    20793     3884    -8414 
  -10033    -1123     8915    11453    14295    23892    26699    15212 
    3506     2673     6348     2503   -12217   -30463   -43416   -48469 
  -48668   -48318   -48506   -47381   -45513   -45228   -45852   -45794 
  -44040   -40240   -34720   -22514    -1731    13179    11162      785 
   -8878   -15284   -12169     1484    13877    14728     6192    -1277 
    -974      817    -3475    -7566    -5643    -3487    -1820     2082 
    1737    -2171     1218     9235    11123     8568     9712    17812 
   30425    39783    39097    31257    22716    14552     9008    10685 
   16773    20335    20778    23008    27259    25094    12466     -209 
   -1510     3616     1184    -8357   -12846   -12092   -12397   -12183 
  -10570    -7845    -2613     -325    -4419    -6596    -3585    -3076 
   -6656    -9536   -11957   -13682   -10641    -4322      646     5141 
   10491    13265    11055     6097      352    -7132   -15740   -23479 
  -32183   -43078   -50087   -47341   -37182   -25196   -16227   -11289 
   -3796     7122     9650      931    -6640    -4627     5179    16184 
   21669    21141    21534    26858    28613    17908     2833    -3823 
   -5216    -9883   -14629   -13613    -7222     2977    13079    16325 
   12054     9631    16909    26926    27680    19989    12016     6348 
    3245     5703    13052    20996    29784    37952    40516    41386 
   44460    42896    35090    29236    27366    23603    15196     3390 
  -11235   -26276   -35371   -33360   -22782   -14135   -16618   -25736 
  -28541   -27093   -34888   -47790   -49901   -39294   -26621   -20221 
  -17013   -10159    -2918     -496      100     2937     7958    10877 
    7692     1896    -2571    -8056   -12421   -10265    -6660    -8127 
  -11184   -12097    -9560     -669    10784    13695     6650     3605 
   13056    24565    28380    29819    34113    38439    39594    34186 
   20250     5019      658    10520    25080    32168    28813    21510 
   17608    19233    20347     9355   -12847   -25487   -19759   -17874 
  -36635   -59312   -62362   -48119   -38945   -46779   -58158   -54591 
  -38173   -23987   -17499   -17099   -24049   -33529   -36139   -32286 
  -26808   -21551   -18972   -16572    -8272     2089     6016     4236 
    4369    10623    16832    13398     3305    -1437     1603     3951 
     760    -3418    -2303     3479     7553     9511    17753    34688 
   51180    58088    53178    41026    28700    18107     8382     2031 
    2005     8410    17895    25373    27984    26476    26286    30653 
   30617    18426     3343    -1730     2591     6695     5798     2324 
     113     1625     3946     4335    10247    24263    33007    29981 
   24142    18648    10825     8495    17369    25073    20344     9167 
     112    -7083   -16287   -27598   -35608   -37286   -35512   -33980 
  -37242   -45583   -48581   -40406   -31065   -29200   -30461   -28706 
  -23576   -17394   -13736   -13645   -11941    -7437    -8653   -16572 
  -19004   -11867    -4459    -1771     -724      247      619      385 
   -2903   -10590   -16133   -15514   -17581   -28177   -36474   -29522 
   -9626     9571    18573    17966    14157    15261    23116    28664 
   23866    13062     6923     8603     9745     3402    -4377    -4288 
     789     1509    -2907    -7141    -7710    -2198     6237     8039 
    2704      810     4909     6713     2851    -2697    -7803   -11307 
   -8735     -125     6215     6490     5747     4885    -2173   -16669 
  -31170   -36301   -30185   -21857   -18524   -17422   -16205   -16010 
  -15924   -14668   -10629    -2780     2961     -677    -8207    -6600 
    1989     1205   -10513   -17595   -14949    -9424    -1639    10582 
   22150    25409    18892    10425    10669    21538    33294    34661 
   23698     6976    -7093   -14422   -18349   -21221   -18666   -11643 
  -10835   -19580   -27333   -26366   -19557   -10676    -1978     2184 
    -810    -7064    -8148    -1320     5517     7650     9697    10865 
    5580     -304     3221    10548     9313     2423      242     3560 
    9566    15504    15104     7298     -907    -3064      431     -158 
  -11559   -24887   -30618   -31929   -32777   -28702   -16683    -5637 
   -6319   -15596   -22953   -24586   -21575   -13935    -5458    -4789 
  -11642   -14212    -6643     6989    22274    32347    29747    17650 
    5997      263     -920    -1259      888     8730    16701    18043 
   14735    11112     9239     8398     3493    -5756    -7759     6374 
   28833    45911    54250    58709    61574    60287    53875    45200 
   35039    22319    10075     3462     4002     8928    16337    25246 
   28661    22043    12454     2566   -14090   -36752   -59040   -77609 
  -87761   -84956   -73091   -62185   -56545   -49583   -33276   -11146 
    4020     8841    12198    15218    11353     2910    -3683    -7579 
  -12186   -21794   -32438   -32713   -22017   -12006    -9187   -10899 
  -12488   -10934    -8648    -9756   -11859   -14113   -21149   -29529 
  -31867   -31627   -34746   -36691   -28505    -9379    10692    20805 
   22553    28038    40045    47706    45212    36204    23960    12363 
    7193     9503    12657     8008    -4950   -16769   -19870   -18307 
  -21966   -31831   -35851   -24415    -4947     7491    10289    12211 
   14838    12377     6975     4059     -630   -11371   -21900   -28121 
  -34385   -39537   -36500   -26064   -16474   -13197   -13769   -11540 
   -5206     -192      534     -168    -1841    -8869   -18490   -21212 
  -18969   -21360   -25606   -23143   -15492    -6152     6270    17198 
   18448    14213    15320    19904    17834     8899     1225    -1099 
     307     2434     3613     4227     4821     3783    -1120    -8163 
  -11388    -7062      -14     1077    -3264    -5357    -5260   -10064 
  -19954   -24646   -17531    -4582     7245    15779    19090    19166 
   20706    22434    19748    13422     8588     6268      719   -11608 
  -23575   -26398   -23304   -20673   -16748   -12138   -12334   -14127 
   -7067     8945    17959     8742    -8976   -20044   -20411   -14987 
  -11980   -15295   -20074   -20088   -15133   -10215    -7839     -450 
   18602    38776    45293    38234    23611     4211   -13699   -23914 
  -30799   -41097   -49743   -49188   -41963   -30313   -12419     7089 
   21767    31770    37463    35706    26824    16440    11019    14820 
   23424    24567    14013     -866   -15594   -33811   -56054   -69994 
  -63258   -43563   -28573   -22486   -16539    -4673    10301    25732 
   42243    53819    51758    35756    12544    -3905    -1923     7525 
    4106   -11295   -21472   -17141    -2940    12455    25596    36853 
   42012    35015    18304      859   -11231   -18325   -23028   -26677 
  -32313   -42979   -55945   -66476   -75058   -85706   -97449  -102095 
  -93566   -75289   -56378   -42125   -29182   -10025    19959    55739 
   80541    80448    63250    50564    50712    53270    50597    49896 
   57656    62714    49027    18884   -11231   -31254   -43967   -54215 
  -58181   -48495   -26905    -3260    14895    25132    26917    19048 
    3687    -7285    -4375     6191    17341    31030    43098    43763 
   35231    27995    25642    24004    18333    10823     8047     8166 
    5314     1743       -8    -2822    -7501   -13299   -21970   -35914 
  -55554   -75132   -83844   -77131   -61079   -44274   -30987   -22301 
  -19988   -24807   -33452   -40222   -38876   -29535   -22482   -21658 
  -18618   -11251    -4881     -494     1322     -260    -2147    -2243 
     868     9923    19590    17653     5267     -714     7276    19045 
   25316    25938    19627     3276   -14639   -15906     4852    31263 
   43518    36060    15869    -4490   -13260   -10778    -8741   -13135 
  -17386   -14011    -4560     4537    12428    23966    37074    45055 
   49522    51103    46705    43263    44987    43373    40633    51246 
   72593    85643    81739    66761    50158    39142    30152    10216 
  -22794   -55670   -80051  -101068  -124165  -143548  -151407  -150879 
 -146735  -136219  -116861   -88095   -48564    -2778    35673    56551 
   65828    73354    77142    74614    67740    53025    30172     8858 
   -5062   -13461   -18373   -19149   -10750    12095    43945    68516 
   74557    67670    60095    55191    51319    47785    37418    12649 
  -17370   -35172   -35398   -25256   -16375   -16723   -22234   -24682 
  -23011   -18314   -12130    -9402   -10436    -8263     1110    13171 
   18849    13238     2011    -6490   -12669   -17263   -11597     7447 
   27373    37074    35900    25187    11145     3504    -3100   -21106 
  -42398   -49252   -44993   -47956   -62811   -76991   -80517   -73892 
  -58950   -35795   -11808     1263     7234    22402    45585    60385 
   68677    83352    95135    85715    57192    26747    12079    16623 
   20914    10710    -3573   -11926   -14781   -12950   -12880   -23425 
  -42744   -56619   -49172   -26026   -11170    -5519    11208    34104 
   40686    28691     9654    -4477    -2140    13771    24345    17171 
    -295   -11279   -10230    -9434   -19711   -32683   -37047   -39429 
  -51642   -68435   -71288   -52406   -21820     5126    14869    13266 
   24324    41442    34286    10009      281    10736    16472    -3681 
  -29850   -30315   -11233     7973    18579    14020     4084     5446 
    9118    -1028   -17051   -20414    -2037    34000    70278    89582 
   93025    94530   100201   103938   100512    91128    78958    63801 
   39777     7788   -13856   -13851   -13787   -37329   -68660   -79606 
  -73276   -68052   -67354   -62388   -49871   -37800   -27334   -11278 
     454    -6592   -22169   -31106   -36945   -44976   -46151   -31578 
  -13206   -13279   -31364   -43658   -37837   -25151   -18663   -20968 
  -29942   -39260   -40365   -33642   -24433   -11837     2435    12595 
   21619    31448    35117    31180    22122    10503    10105    29153 
   46692    39599    16525     -793    -7843   -10764   -12524   -16500 
  -24024   -26123   -12155    12979    29379    26171    17286    21427 
   36413    46596    45521    40118    38329    40040    41728    43938 
   44937    38165    27090    22778    21146     7968   -14424   -31758 
  -40790   -47240   -56004   -66551   -68584   -55061   -32847   -12285 
    -777     -322    -3812    -1684     8160    17579    16343     3906 
  -10593   -18384   -20179   -24270   -34493   -45901   -53391   -58124 
  -62206   -63303   -58747   -49033   -38783   -35536   -41078   -47408 
  -42221   -19569     6385    12362      -23    -8047    -7151   -11644 
  -22879   -30935   -32129   -22942    -3697    10442    12003    15553 
   28969    37309    27387     9526     3929    14338    28788    38475 
   41026    38686    40159    45923    43010    25568      -65   -23197 
  -35349   -41990   -48846   -43362   -20391     1951    10933    11155 
    7875     2103    -4748   -10902   -13306    -9789    -2428     9491 
   28349    46112    53369    51806    43323    27056     9920      485 
   -2170    -1917     1964     8369    14070    23016    38545    51986 
   55194    51072    42831    28698    11073    -2360    -8563   -12321 
  -20526   -33532   -40845   -34312   -21340   -11715    -4239     3101 
    6662     5901     5963     9933    12908     6369    -9617   -25668 
  -35697   -40094   -40885   -38344   -29409   -18235   -16239   -18152 
  -11650    -8103   -18366   -29081   -35262   -44974   -50235   -41287 
  -26742   -15409    -7555    -4836    -7049    -9405   -12448   -22294 
  -37198   -44428   -34606   -12511     5999     9704     9822    21942 
   33556    27768    16157    13107    15602    19925    25665    31192 
   35648    36173    29540    17600     4224    -8697   -19234   -24878 
  -28949   -39964   -55754   -62517   -56665   -47093   -36920   -21357 
    1607    24697    34929    30161    25055    31846    46027    55434 
   57764    63794    79127    94659   100465    95683    87556    84910 
   84572    76543    65734    61773    55666    36736    14471     2375 
    -926    -4612   -11249   -15696   -16117   -17421   -21257   -24216 
  -26335   -28198   -27167   -26780   -34014   -45762   -54527   -60546 
  -67984   -76710   -82588   -82676   -78108   -71102   -61230   -48149 
  -34392   -23763   -21315   -29899   -43052   -50592   -52194   -54586 
  -57696   -55669   -47941   -39912   -36533   -39036   -44411   -47083 
  -43741   -38433   -37428   -38060   -35397   -31665   -24886    -9934 
    6564    17654    28569    41545    48289    44071    35863    34975 
   44756    56730    62627    65623    73026    84337    90458    82242 
   61672    40216    24196    10341    -7029   -28486   -45663   -51338 
  -50382   -49315   -46254   -39389   -31585   -24225   -18435   -20333 
  -31002   -36534   -25322    -4978     7580     1560   -17169   -31384 
  -34318   -30399   -23688   -22213   -33141   -47782   -49650   -36237 
  -19359    -7772    -1226     5305    16709    31256    43401    48264 
   41243    26759    17233    16622    18671    16684    11165     8172 
    7184     5194     8847    22383    36301    41713    42707    47655 
   58292    71630    84538    92608    90259    77334    62607    51343 
   34872     7330   -19025   -30152   -26623   -17234   -10543   -11037 
  -14582   -11752       63    11994    16328    16993    20207    25306 
   28295    26781    23677    24504    27956    24163     5544   -18498 
  -28467   -23716   -21404   -27140   -33907   -37400   -37305   -36554 
  -38640   -43596   -49775   -55367   -59788   -62354   -60031   -53267 
  -47412   -44894   -43327   -38731   -28228   -13437      311     8217 
   10126    10933    10775     3832    -6385   -10521   -11175   -17770 
  -30597   -40176   -37616   -23384    -7805     -978     -559     3323 
    8905     4056   -10865   -20854   -15651     1451    17764    22367 
