Origin Time       2011/03/11 14:46:00
Lat.              38.103
Long.             142.860
Depth. (km)       24
Mag.              9.0
Station Code      YMT005
Station Lat.      38.6079
Station Long.     140.1627
Station Height(m) 330
Record Time       2011/03/11 14:47:01
Sampling Freq(Hz) 100Hz
Duration Time(s)  300
Dir.              N-S
Scale Factor      3920(gal)/6182761
Max. Acc. (gal)   112.792
Last Correction   2011/03/11 14:46:46
Memo.             
[...]
  -26736   -35093   -35237   -35316   -41347   -48115   -45249   -33435 
  -24913   -28455   -37302   -36215   -26051   -22946   -28535   -31369 
  -28734   -22794   -14198    -4013     9338    25884    41153    54399 
   66344    71930    68224    58146    43009    26324    13873     2359 
  -10110   -13700    -7744    -3477    -1332     3567     9462    17746 
   28073    30542    23987    19168    17961    15189    11726     8386 
    4383     5722    17887    34341    44534    46511    42365    31998 
   19743    13916    14690    13416     7331     5151    11891    20354 
   23686    24704    30400    39896    43385    38704    33520    28498 
   18923     7786      692    -3934   -10043   -17558   -24746   -29292 
  -28136   -20845    -9497     1343     2948    -9524   -29111   -45652 
  -58123   -69767   -76860   -74905   -65861   -49718   -25456     -304 
   18680    34852    51471    62089    61717    53743    40164    20905 
    1830   -10253   -15992   -16417    -7628     6044    11403     7659 
    6741    11853    17017    21713    25058    19199     6695      206 
   -1228    -5687    -8687    -3056    10315    27376    39739    39374 
   31589    25607    18688     6871    -2207    -1708     2734     4546 
    5369     7500     9262     7587     3174     1109     -195    -6808 
  -12280    -6869     2699     4847      881    -1109     2612    11041 
   19541    19937    10516     3505    10745    28139    42295    46485 
   45230    46451    52434    57316    54227    43162    28856    16979 
   10482     5828      661     -967     2362     5680     4755     1750 
    1523     3457     2463    -2502    -5216      684    12570    19954 
   15408     3215    -7794   -16524   -23673   -23628   -15155    -7342 
   -7369   -13548   -20205   -23114   -23237   -20681    -9325     7821 
   17095    16397    11793     6420     6896    12875    13103     8507 
   13533    32054    50197    56768    54747    49244    46443    53929 
   64343    62254    50348    41010    32611    21310    13954    13177 
   17518    29557    42025    39620    21821     1600   -11412   -15189 
  -14187   -15174   -18163   -17914   -13970   -10209   -10098   -16776 
  -27743   -32207   -25186   -14663    -7518    -5646   -12657   -25353 
  -32282   -28654   -19722   -13681   -13163   -13310   -12630   -12208 
   -5269    12330    29237    33366    29223    27610    29119    28243 
   23582    15315     3205    -6387    -6093    -1064    -1168    -5302 
   -5485     -924     1658      494      -57      568      448     -154 
   -2695    -8908   -15558   -17938   -14282    -6364     1806    10956 
   26180    44192    55040    56471    52672    46968    42125    37829 
   32253    28274    29844    38073    49535    54988    51914    49875 
   51312    46941    35939    26677    20347    14637    11417     9843 
    5284    -5182   -20911   -37019   -47850   -52730   -56579   -63294 
  -68668   -64728   -50693   -34391   -22911   -17658   -17836   -20850 
  -24086   -29274   -36326   -40089   -39476   -37568   -34335   -30594 
  -29737   -29688   -26644   -22580   -18082   -10446    -2807    -2205 
   -8119   -11849    -9369    -6097    -4614      522     9993    15569 
   13493     7499      723    -2726     1226     9775    17864    22894 
   23401    22517    24349    23644    12275    -5127   -13164    -3883 
   13089    24927    33062    40633    40005    32586    30636    32909 
   31397    28369    27585    27913    28109    27221    23525    18815 
   19295    25872    33344    40701    49165    56641    61651    63661 
   60422    53345    50818    56041    58447    49448    35126    23989 
   17688    15755    15818    14133    12005    14202    22520    34043 
   39815    30261     9336    -7122   -10794    -6639    -1973      379 
    2118     6534    13587    18153    15443     7927     2844     2888 
    3365    -1510   -12022   -22151   -26028   -26876   -32444   -41921 
  -48091   -45978   -35608   -26425   -29786   -40805   -43632   -33313 
  -19640   -13612   -14643   -11672      766    15626    25520    29376 
   27770    22883    18906    15755     9743     3639     4835    13465 
   22844    27140    23603    14740     8493     8943    10270     5572 
   -4942   -16513   -22884   -19759   -11749    -8456   -10339   -10487 
   -7917    -6629    -9601   -17332   -23482   -19862    -7678     6978 
   20975    31946    37618    35849    24175     6599    -5798   -10636 
  -17643   -26577   -25169   -16208   -14358   -19449   -22453   -21513 
  -17839   -14603   -17563   -25829   -31070   -28319   -21040   -16888 
  -19723   -23067   -16530    -3357     2680     2543     9700    22729 
   28769    27318    26623    28274    29743    29965    27319    22122 
   19815    21006    18095    12100    10767     9709     2715    -3041 
   -1050     5215    13084    22557    27873    22667    12385     6471 
    3655     1069     1824     3577     3295     7675    19945    33742 
   44721    52108    54296    51070    44272    34414    22691    15498 
   17436    23950    29312    32569    32913    29598    25955    26711 
   30549    30415    23517    15253    11962    14425    19771    26228 
   32249    36206    38815    39314    34976    28143    23748    21490 
   19817    21286    25453    26056    20215    10933     2038    -5207 
  -11669   -14683    -9705      435     8165    11123    11521     7961 
   -2451   -14009   -19066   -22088   -30555   -40009   -41863   -35881 
  -26809   -16747    -6853    -1224      199     4113    10367    12430 
   11244    11974    15440    19312    20002    15565     8739     5195 
    9050    16994    20630    18611    16625    17158    18424    16602 
    9672     4870    12208    28764    41245    43379    41018    40035 
   38283    32361    23374    13113     2410    -6247   -10400   -11125 
  -12039   -14363   -13439    -5569     4336    10302    11514     8524 
    5012     4582      358   -14258   -29635   -34182   -30454   -25019 
  -21220   -21855   -22137   -13334      180     9037    15606    24238 
   30630    28828    18939     6569    -3350    -9814   -14899   -21495 
  -28304   -30385   -23889    -7764    11696    22769    23596    25101 
   32223    36600    32707    25508    22067    24485    26666    22856 
   18435    19350    22149    22888    22377    23476    29590    39598 
   45615    42312    32952    23006    16028    16214    25505    37687 
   43823    44320    46603    49799    43762    25315     3718   -10389 
  -14260   -13284   -13086   -11762    -5588     2596    10046    19446 
   29324    34096    36352    40696    41921    34393    20809     7359 
   -1512    -7499   -14861   -22486   -29152   -35767   -38317   -35221 
  -33701   -37816   -43591   -45712   -40412   -28235   -16230   -12087 
  -15157   -17164   -14256   -12893   -20385   -35222   -47960   -48267 
  -34436   -17537    -9961   -11275   -12822   -11660    -9546    -3271 
    9886    23889    33210    38483    40075    38195    35416    35888 
   44077    58644    71622    79838    87267    93422    91540    78041 
   56829    36920    25198    20055    16222    10879     1113   -14595 
  -30248   -37645   -37058   -34765   -31914   -23653    -9830     1375 
    3147    -2373    -7767    -8164    -3945     1345     2500    -3071 
  -10775   -16028   -20484   -24834   -26936   -25371   -18348    -7412 
    2017     8463    13284    15241    14089    12767    12976    14253 
   14481     9962     1011    -6502    -9692   -11800   -12772    -6398 
    7690    22954    37615    51612    59973    59584    50512    32452 
   10130    -8266   -20068   -25147   -22040   -12899    -2551     6673 
   13872    18831    23805    30328    35837    37806    38603    42378 
   47205    45451    34893    22779    16431    18217    29281    45322 
   51755    39861    19213      535   -15098   -25932   -30361   -30725 
  -24780    -8986    10318    24199    31246    29364    14401    -4101 
  -10646    -8460   -10828   -18191   -21635   -17549   -11638   -11471 
  -16616   -20257   -19219   -15871   -11272    -3663     6534    16213 
   21178    17465     6833    -5124   -17736   -32409   -45660   -52516 
  -52564   -48781   -41025   -24823     -553    21186    31879    35817 
   39975    44080    43678    35385    22042    10551     3743     1040 
    1604     5072    12673    21880    26032    23774    18465    11755 
    1831   -13162   -27061   -33438   -36576   -39369   -40915   -44782 
  -48445   -44920   -37901   -32322   -24076   -11069     1354     8885 
   14410    22276    29491    29948    23486    15155    10164     9440 
    7332       59    -4147     4698    22721    39714    54136    70660 
   88625   100534   100888    90107    71144    48082    26144     9022 
   -5202   -21195   -38489   -53981   -66571   -73366   -71588   -63445 
  -52912   -42222   -31257   -18970    -8698    -8094   -18624   -30771 
  -35889   -37840   -44894   -54488   -56582   -48741   -38894   -35697 
  -39604   -41658   -33599   -19928   -11805   -10537    -9546    -6232 
     -54    11022    26235    41865    54203    60366    60612    59039 
   58716    58049    52708    40515    25760    15863    12167     9144 
    4563     4812    14424    26413    31014    26809    19439    14590 
   10609     -202   -17161   -28025   -29858   -34839   -45279   -47026 
  -33225   -12838     5599    23823    42946    53599    49249    39285 
   35929    38953    41143    38668    31225    21197    14706    13600 
   10308      675    -7557    -8410    -7360    -8552    -8203    -6326 
   -6454    -3796     9522    29704    42708    39092    22206     2220 
  -15636   -33298   -49867   -57552   -51443   -37526   -27846   -26691 
  -24084   -12660     -572     7569    19871    39366    59980    74868 
   80431    79158    73680    60765    39045    15822        9    -7179 
   -8733    -5136     3632    15879    28814    41535    58674    82093 
  102206   107612    95604    73420    53396    38151    19482    -3251 
  -22850   -37156   -46885   -51556   -51224   -43743   -26395    -3833 
   13780    21890    24918    26635    24302    15226     1519   -11942 
  -21964   -29070   -32055   -27657   -18312    -9786    -4840    -4099 
   -4327     -594     4193     2925    -6707   -23841   -42022   -49031 
  -41572   -29488   -22752   -24058   -30190   -36231   -40600   -43892 
  -44339   -40274   -32330   -19446    -1404    15576    24859    27798 
   29765    30318    24679    13119     2050    -2445    -1840    -4234 
  -12159   -18444   -16440    -7667     2596    15337    35431    59278 
   78392    92935   107078   116832   115488   103103    84390    65491 
   48816    29154     4293   -19559   -37557   -47776   -49272   -46494 
  -43146   -35124   -21489   -11329   -12291   -23199   -36256   -41191 
  -37163   -35203   -39714   -43078   -40205   -33098   -25286   -18668 
  -11761     -816    15993    35896    49823    45744    23407     1058 
   -5518    -4131   -11788   -26380   -30556   -17824     1152    14139 
   20332    25632    30236    31109    30231    30989    33172    35793 
   39326    41818    40970    40396    42440    42290    38490    37982 
   43995    50582    55562    62002    65139    58103    45211    37022 
   36470    33640    18992    -2414   -21236   -40310   -66834   -95080 
 -110259  -104614   -81014   -48087   -16529     9690    37451    68936 
   94087   108185   116506   117575   100884    63546    19754   -13621 
  -35614   -52777   -63714   -66392   -65240   -61631   -50414   -29067 
   -3935    14201    20909    20251    17530    19732    33373    50485 
   55134    47551    39046    29975    13327   -10073   -31098   -40212 
  -34616   -19655    -1650    15872    29171    36610    38947    35434 
   29505    27755    30677    37756    49461    61514    70768    77983 
   83025    86528    88987    85068    69085    46171    28245    18487 
    8706    -5086   -13702    -7010    12189    31291    40849    38324 
   20427   -12976   -47073   -65063   -69728   -75512   -88139   -99897 
  -96171   -71602   -43866   -34495   -40377   -44315   -40725   -36432 
  -39030   -48761   -57833   -60342   -57107   -48955   -37488   -29599 
  -27766   -26085   -23498   -22874   -20446   -13129    -4732     1425 
    5372     6551     2348    -6296   -10218    -1409    16623    36018 
   53246    65260    70274    72436    75086    77267    79584    84808 
   95106   108199   114573   104522    77240    41860    11903    -5925 
  -16275   -21967   -19726   -12239    -3128     8784    18420    19521 
   14327     8026     6292    12106    22161    30777    29461    11082 
  -18670   -47443   -69852   -83700   -84985   -76925   -72790   -80091 
  -88738   -84729   -71006   -61500   -58912   -54834   -45253   -31966 
  -16989    -2658     6593     7321     5155     9816    17965    16791 
    4774    -6941   -10379    -7781    -6597    -7460     -393    16471 
   29684    32357    29415    22907    15900    19306    36828    55440 
   64194    70224    81250    89231    87545    80897    71881    60193 
   47853    36915    27233    14528       14    -7418    -8891    -9332 
   -3578     6803    11250     8482      283   -14549   -30349   -41922 
  -53438   -64944   -65056   -46663   -17788     9863    32512    49759 
   59636    63502    66614    68870    65245    58938    60231    69077 
   72205    60787    40664    22416    10141      708   -11162   -24414 
  -31511   -30850   -28721   -28745   -30781   -35539   -41104   -38130 
  -17639    14573    42478    62151    83656   105300   108971    85631 
   41589   -10468   -54881   -89272  -124827  -157586  -171645  -166862 
 -154057  -140175  -128432  -115527   -97537   -76445   -52446   -30018 
  -17503    -6674    15575    38904    42703    26929    11072     9493 
   17110    20361    15451     7573     2930     6952    15491    18164 
   22612    44833    76043    99262   116017   125176   117376   100058 
   83648    59965    28258     5384    -4036    -4455    12454    49432 
   85568   100998   101364   102883   106132    98029    71525    33898 
    2824    -7294      417    11873    15793    10829     7666    12406 
   14675     7202    -2771    -9283   -12404   -11597   -11708   -18369 
  -21259    -7007    16001    28452    25738    16857     7098    -6353 
  -24258   -37251   -33921   -18600    -8586    -8740    -5787     7203 
   19684    24422    26477    26119    21419    19093    19671    13184 
   -2051   -14349   -12527     1587    14692    17747    16821    21552 
   30219    34357    29252    16791     4423     -192     4193    11450 
   14848    14195    11326     3874    -8923   -24027   -41184   -57720 
  -62380   -50708   -33886   -22382   -14545    -1561    18968    34925 
   39719    45470    57582    64920    59269    41635    21210    10472 
    9285     8079     8412    17128    27562    32715    36997    34407 
   11590   -19445   -31438   -20461    -5245     3507     7951     7344 
    3023      292    -3466    -7830    -3150    10256    21812    28011 
   31219    30379    23774    11730    -3896   -16537   -18331    -9464 
    1314     8097    14796    24478    31231    29810    21380     6500 
  -15010   -38419   -56248   -60536   -44721   -12476    20340    42285 
   59792    78635    84873    70031    51043    43054    40598    33231 
   22215    17260    21375    30979    44044    57956    69681    76229 
   77571    80508    84212    78488    63834    44064    13480   -23981 
  -47956   -47317   -33871   -23352   -16431    -6071    10482    29420 
   38981    31544    18196    10394      930   -16634   -33185   -42192 
  -49723   -60089   -69743   -75004   -74123   -67018   -54756   -38084 
  -21267    -9522     -545    11233    24453    31349    28438    21471 
   16033     9699    -5287   -31313   -56122   -66077   -63195   -54020 
  -36058    -6959    23804    43965    57096    73041    84487    80439 
   66912    55057    49760    50964    54126    54808    53481    52485 
   50030    43709    39552    46886    62473    71781    71307    70972 
   71010    62453    44496    22124     -577   -20778   -40367   -61395 
  -76952   -81287   -81108   -82430   -81147   -73703   -62400   -48692 
  -31165   -11003     9001    29103    47050    57173    61472    67773 
   76541    80124    71666    51484    27551     8867    -2655   -13869 
  -31030   -48023   -52607   -42457   -26600   -15339   -10923    -7726 
   -3469    -2858    -7399   -12495   -16273   -19954   -21149   -18033 
  -13368    -8822    -5649    -5609    -5300    -1780     2089     7184 
   18639    35021    49519    59694    66553    64495    45500    16287 
   -3850    -4972     3618     6480      663    -3018     3165    12242 
   10552    -4549   -19343   -21160   -15575   -14769   -16908   -13940 
   -7190      401    11512    26447    40675    50505    55657    57910 
   57545    52707    44820    38664    34184    27438    19780    14965 
   11350     6006    -1443    -9745   -14213   -11793    -5082     5947 
   23229    41400    53076    59267    66121    72742    69447    51743 
   25801    -2751   -30503   -49562   -55883   -54635   -48299   -35560 
  -19218    -2844    10585    15194     7162    -7638   -18515   -23388 
  -27104   -30575   -31893   -28173   -17221    -4947     -358    -4777 
  -12705   -15605    -8967      735     6750    12873    22659    31020 
   34344    36045    38864    41713    43551    46182    53713    64921 
   70083    63471    50575    37800    23795     5477   -12245   -19941 
  -15385    -4663     6153    13487    15323    15832    22676    33750 
   38933    36714    35675    39200    39978    32715    22469    15282 
   10783     7276     6616    12172    19794    18854    11665    10576 
   13952    14502    16067    20132    20340    15870    10338     3471 
   -5841   -16706   -27822   -35779   -36613   -30565   -20786   -10924 
   -5553    -6146    -6706    -3275    -1626    -6041   -14945   -25529 
  -29371   -18686      674    16463    23953    26890    29757    32559 
   32886    29540    23696    16885     9330     4264     6977    15040 
   21380    26883    36044    45967    52268    55144    53253    46003 
   39291    37810    39396    38976    33387    24438    17047    14681 
   14351     6586   -11293   -30121   -44952   -59541   -71855   -72831 
  -60415   -43353   -29697   -18739    -9168    -6475   -11174   -11821 
   -3367     3608     2564      884     4227     8321     7887     3844 
    1263      -38    -6048   -13809   -14478   -13353   -20880   -31970 
  -37891   -40008   -39066   -32729   -24742   -21432   -22694   -23249 
  -21585   -22433   -28714   -36578   -40292   -39455   -39138   -42688 
  -47455   -48665   -44932   -37735   -26813   -10863     7065    21524 
   31148    37676    42415    45184    44706    42810    43188    44054 
   42994    44628    52784    64704    77545    90627   101792   107260 
  104788    97379    90566    83896    72827    58932    49090    45651 
   43809    38936    32699    29455    29603    29546    25812    18814 
   13244    12109    11955     8535     4777     5171     4785    -3750 
  -16699   -25300   -27634   -25833   -21159   -16060   -13186   -12485 
  -14167   -20722   -32801   -47324   -60796   -71221   -77829   -80298 
  -76526   -64307   -45981   -26621   -10570    -1335      684     -803 
   -1627     -995    -3066   -12533   -27513   -39784   -41494   -31945 
  -17678    -6216    -2186    -2995     1351    13722    24978    30342 
