Origin Time       2011/03/11 14:46:00
Lat.              38.103
Long.             142.860
Depth. (km)       24
Mag.              9.0
Station Code      YMT008
Station Lat.      38.3854
Station Long.     139.9924
Station Height(m) 452
Record Time       2011/03/11 14:47:02
Sampling Freq(Hz) 100Hz
Duration Time(s)  300
Dir.              N-S
Scale Factor      3920(gal)/6182761
Max. Acc. (gal)   93.794
Last Correction   2011/03/11 14:46:47
Memo.             
[...]
   15889    13568    10741     6525     1954    -1171    -2446    -2703 
   -2709    -2636    -1873      878     6165    12743    18783    23191 
   26282    29901    35148    40679    44865    47603    49216    49443 
   48130    46001    43836    41439    38469    35334    32514    30213 
   28740    28249    28541    29393    30705    32296    33528    33581 
   32547    31654    31778    32342    32336    31406    29886    28746 
   28719    29244    29017    27512    26009    26366    28535    30808 
   31968    32160    32565    34253    37142    40120    41519    40227 
   37016    33693    31284    29743    28639    28175    29291    32018 
   35097    37692    40251    43543    47267    50265    51836    51891 
   50471    47847    44841    42666    41668    40411    37359    32905 
   28258    23834    20055    17383    14962    11627     7396     2579 
   -2891    -8973   -15022   -19368   -20418   -18361   -14882   -11762 
   -9796    -8459    -6973    -5515    -5018    -5888    -6929    -6402 
   -4200    -1442     1402     4538     7693     9926    11017    11929 
   13380    15475    18171    20885    22731    23317    22673    21079 
   19005    16629    14075    11715     9375     6478     2911    -1118 
   -4893    -6942    -6579    -5140    -4371    -4541    -5240    -6586 
   -8619   -10889   -12959   -14517   -15389   -15606   -15374   -14743 
  -13087   -10280    -8147    -8134    -8454    -6697    -4079    -4064 
   -7582   -11598   -12130    -8089    -1881     3593     7323     9919 
   12469    15348    17797    18963    18693    17213    15119    13711 
   14033    15249    15262    13458    11408    10708    11674    13860 
   16820    20306    24093    28240    33392    39824    46167    50506 
   52659    53798    54564    54884    54484    52853    49742    46119 
   43908    44396    47127    50429    52871    53952    53726    52598 
   50857    47871    43094    37619    33098    30178    28816    28365 
   27334    24654    20700    16752    14330    14262    15305    14883 
   12093     8794     7277     8351    11780    16700    21604    25559 
   28672    30625    30859    29978    28711    27068    25537    24535 
   23059    20027    15967    12458    10711    10926    12294    13184 
   12172     9615     7347     6519     6755     7322     8365    10918 
   15733    22162    28221    31542    30711    26794    22953    21049 
   19985    17974    14435    10115     6513     4488     3552     2791 
    1988     1597     2244     4342     7255     9214     9062     7643 
    6974     8252    10697    12711    13792    14671    16500    19727 
   23251    25895    27760    28739    27553    23512    18046    13554 
   11138    10096     9392     8952     9204     9649     9060     7086 
    4061      -11    -4530    -7658    -8255    -7351    -6531    -6154 
   -6003    -6321    -7291    -8053    -7417    -5891    -5283    -5990 
   -6592    -5763    -3225      294     3428     5132     5505     5775 
    7176     9149     9585     7554     4339     1770      817     1240 
    1941     2243     2952     5196     8512    11764    14991    18527 
   21827    24554    27467    31584    37024    43108    49167    54424 
   58312    61560    64923    67362    67552    65659    62374    58138 
   53861    50490    47599    43822    38861    34199    31638    31626 
   32941    33725    33370    33025    33290    32983    31116    27831 
   23672    19942    18375    19587    22664    25934    28387    30313 
   31957    32556    31515    29604    27987    26716    25623    25495 
   26634    28225    29776    31163    32120    32660    32685    31378 
   27919    22668    16995    11906     7632     4270     1842      -18 
   -1913    -4635    -9093   -15199   -21123   -24683   -25343   -24022 
  -21359   -17829   -14529   -11644    -8246    -4692    -2413    -1637 
   -1373     -532     1736     5982    12063    18458    22803    23897 
   22438    19978    18037    17189    16572    15074    12723    10460 
    8903     7835     6834     5546     3491      501    -3231    -7890 
  -13503   -18907   -22494   -23341   -21583   -18580   -15968   -14072 
  -11771    -7787    -1868     4989    11156    15285    17185    18295 
   20736    25209    30410    34957    39074    43925    49836    55654 
   59962    62292    62906    62594    62327    62015    60685    58184 
   56072    56739    60578    64782    66701    66476    65377    63934 
   61777    57907    51676    43807    35767    28464    22121    16759 
   12271     8676     6678     7154     9757    12904    15292    16780 
   17714    18008    17412    16137    14743    13704    12870    11562 
    9845     8722     8873    10673    14526    19922    25374    29516 
   31900    33302    34695    35621    34421    29930    22765    14923 
    7825     1539    -4105    -8821   -12251   -14491   -15621   -15405 
  -14338   -13492   -13143   -13152   -13872   -15438   -17139   -18157 
  -18144   -16964   -14783   -12370   -10269    -7712    -3202     3769 
   11759    18336    22481    25702    30054    35874    42099    47679 
   52161    55555    57783    58404    57031    53887    49859    45738 
   41691    37738    34052    30686    27392    23987    20927    18859 
   17913    18062    18982    19714    19733    19304    18189    15727 
   12527    10171     8826     7112     4405     1746      658     1369 
    2413     2800     3543     6181    11165    17434    22972    26673 
   28902    29907    29465    27791    25610    23712    22708    22991 
   24658    27393    30463    32866    33904    33788    33265    32731 
   32155    31640    31619    32607    34336    35337    34663    33271 
   32099    30175    26377    21630    17633    14519    11707     9554 
    8223     7186     6722     7515     9382    11993    16027    22401 
   30370    37718    42926    45813    46676    46112    44748    42374 
   38786    35393    33683    33018    32099    30864    29776    28835 
   27506    25269    22307    19219    16242    13229    10023     6847 
    4269     2626     2080     2818     4527     6535     8403     9510 
    8745     5981     3289     3182     5824     8872    10047     9231 
    7708     6191     4569     3095     2532     2842     2936     2435 
    2643     4902     9213    15016    21713    28224    32993    34846 
   34455    33397    31271    27077    22117    17942    14335    10738 
    6922     2796    -1659    -6795   -12623   -18203   -22872   -27268 
  -32304   -37827   -43243   -48269   -52023   -52740   -49498   -43597 
  -37131   -30622   -23232   -14726    -6152     1247     7007    11203 
   13842    14780    13967    11626     8526     6104     5593     7021 
    9419    11792    13805    15543    16843    17313    17004    16409 
   15472    13677    11253     8887     6789     5051     3929     3304 
    2938     3575     6544    11566    16370    19082    19557    18438 
   16311    13397     9624     5357     1538     -960    -1769    -1318 
    -591     -129      198      537     1058     2189     4566     9272 
   16885    25784    33387    39017    43824    48775    54051    59378 
   63998    67077    68450    68693    68824    69432    69653    68392 
   66198    64163    62219    60128    58781    59117    60635    61748 
   61113    58458    54333    49510    45211    42609    41301    40002 
   38659    37901    37184    35249    32019    28964    27281    26683 
   26767    28055    30628    33626    36500    38704    38995    37190 
   34999    33570    32658    32212    32223    32366    32782    34232 
   37707    43077    48369    51562    52072    50386    47163    42546 
   36357    29041    21946    16020    11078     7162     4626     2648 
     101    -2876    -5504    -7326    -8317    -8873    -9485   -10140 
  -10630   -11419   -13292   -15891   -17193   -15249   -10441    -4932 
    -390     2909     5901     9757    14495    19146    23062    26348 
   29083    30962    31988    32450    32382    31701    30149    27381 
   23277    17742    11023     4209    -1439    -5312    -7464    -8435 
   -8734    -7949    -5204     -589     5159    11548    17669    22096 
   24225    24623    24148    23464    22866    21967    20078    17238 
   14363    12283    11087    10353     9681     8957     8182     7399 
    6696     5875     4586     3053     1936     1549     1570     1090 
    -557    -2740    -4321    -5088    -5496    -5848    -6458    -7776 
   -9698   -10952    -9758    -5685     -500     3607     5850     6638 
    6870     7507     9038    11117    12611    12310     9766     5307 
       3    -4274    -5931    -4916    -2576      -90     2924     7334 
   12416    16339    18348    19213    19725    19887    19730    19884 
   20582    21038    20866    20939    21745    22253    21404    19362 
   16436    12640     9055     7549     8697    11319    13890    15434 
   15217    12932     9583     6902     5540     4793     3958     3261 
    3498     4945     6761     7860     7963     7105     4873     1196 
   -2957    -6407    -8824   -10949   -13780   -17169   -19584   -19618 
  -17046   -12259    -6009      198     4960     8329    11366    14513 
   17241    19185    20719    22227    23401    23553    22568    21360 
   20850    20865    20758    20308    19731    19407    19222    18968 
   20022    23796    28637    32332    35060    37125    38266    38567 
   37889    36442    34492    31777    28828    26695    25798    26047 
   26658    26251    24108    21089    18902    18458    19459    21277 
   23482    25822    27911    29044    29030    28825    29278    30257 
   31499    32935    34276    35089    34978    33652    31055    27584 
   23960    20689    17704    14257     9517     3627    -2806    -9771 
  -17365   -25162   -32247   -37845   -42383   -46914   -51266   -54126 
  -54822   -54107   -53240   -52408   -50375   -45843   -38584   -29258 
  -18933    -8917     -391     6301    11881    17410    23181    28330 
   31931    34333    36571    38587    39044    36923    32478    26803 
   20939    15138     9250     3783     -370    -2570    -2347     -279 
    1733     2647     3463     5855    10785    17844    25690    33377 
   40614    47453    54294    61163    67395    72362    75746    77656 
   78445    78259    77326    75877    73758    70750    66859    62522 
   58306    53867    48461    42603    37458    33247    29693    26818 
   24675    23466    23588    24861    26082    25501    22230    17208 
   12166     8218     5532     3215     -403    -6268   -13135   -18695 
  -22084   -23944   -24866   -24892   -23909   -21991   -18666   -12290 
   -1896    10940    23178    32358    37592    39508    39409    38601 
   38025    37441    35672    32229    27553    22074    16204    10737 
    6816     5253     5647     6862     8453    10746    14113    18913 
   25106    31731    37658    42461    46218    49240    52157    55282 
   57886    58935    57687    53412    46013    36455    25863    15081 
    4843    -4175   -11484   -17152   -21540   -24508   -25536   -24201 
  -20390   -14805    -8733    -2925     2581     7968    13190    17544 
   20351    21969    23394    25456    28405    31599    33737    33818 
   31792    28167    23637    19167    15276    11461     7215     3030 
     251      215     2894     6310     7775     6062     2660      290 
     128     1338     2706     3938     5645     7938     9641    10179 
   10922    13078    15971    18641    21405    24854    29084    34796 
   43359    55021    67852    78871    86234    90073    91413    90902 
   88725    85184    80683    75526    70132    64664    58332    50377 
   41641    33509    25789    17106     6615    -5474   -18212   -30136 
  -39832   -46579   -50147   -50367   -47088   -40445   -31393   -21851 
  -14260   -10347    -9801   -11278   -13968   -16907   -18658   -18681 
  -17672   -16471   -15383   -14083   -11663    -7297    -1118     5877 
   12705    18978    24507    28760    31267    32049    31646    31126 
   31306    32134    33048    33525    33493    33239    32970    32867 
   33302    34184    35113    36836    40186    44566    49336    54000 
   57802    60730    62662    62663    60237    55469    48637    40341 
   30931    20390     9696      662    -6235   -10926   -12060    -9968 
   -7261    -5319    -3977    -2529     -278     2294     4263     5678 
    6993     8216     9723    12349    15818    18868    20331    19610 
   17434    14864    11597     6518    -1077   -10787   -21332   -31643 
  -41057   -49036   -55404   -59824   -61180   -58618   -52539   -44137 
  -34910   -26475   -19641   -13642    -6701     2351    12605    21915 
   29522    36669    44729    54173    64953    76212    86080    92940 
   96590    98371   100416   103866   107582   109182   107143   101313 
   92005    79814    66080    52400    39695    28475    19599    13856 
   11111    10540    11345    12775    14116    15079    15538    15423 
   15413    16886    20940    27093    33229    38017    41994    45662 
   48644    50584    51603    52150    52667    53409    54678    56336 
   56955    55050    50970    46169    41415    36349    30339    23766 
   17855    13378    10906    11338    14419    18193    21203    23557 
   25328    25830    24925    23470    22393    22537    24715    28779 
   33600    38262    42399    45936    48628    49400    46978    40808 
   31216    19654     7753    -3770   -14599   -24793   -34903   -44899 
  -54301   -63259   -72287   -81629   -91261  -101070  -110839  -119878 
 -126950  -130709  -130001  -124014  -112602   -96775   -78360   -58921 
  -39471   -20726    -3167    13697    31456    49962    66224    77952 
   85860    92320    98762   104310   107144   106179   101114    92633 
   82269    70776    57710    43002    27748    13238     -216   -12949 
  -24811   -35237   -43812   -50387   -55217   -58174   -58102   -54577 
  -49027   -42253   -33022   -20399    -5211    10837    26110    39403 
   49779    56901    61722    66031    71188    77600    84936    91913 
   96317    96617    93000    85816    74449    59074    41797    24196 
    6024   -11737   -26096   -35407   -40376   -42254   -41809   -39268 
  -34411   -26922   -17136    -5993     5919    18256    29872    39471 
   47290    54107    59834    64442    68321    71840    74758    75439 
   72060    64314    53364    41544    31543    24517    19857    16694 
   14661    14236    16344    20319    23694    24711    23592    21621 
   19742    18023    16080    13045     7863      908    -5483    -9021 
   -9481    -8083    -6261    -5200    -4214    -1086     4870    13064 
   23033    33047    40648    45058    46632    45623    42690    38636 
   33689    28268    23683    20870    19178    17258    14122     9269 
    3018    -3536    -9129   -12617   -13582   -12693   -10944    -9244 
   -8573    -9594   -12237   -15765   -19348   -22447   -24571   -25383 
  -24876   -23535   -22386   -21877   -21770   -22019   -22034   -20678 
  -17351   -11782    -3829     6477    18832    32259    45526    57184 
   65763    71155    73707    72826    68750    63305    58222    53992 
   49836    44892    39293    33913    29542    25913    21932    16960 
   10845     4021    -2217    -7408   -12388   -17545   -22813   -27886 
  -31183   -31246   -29006   -26109   -22440   -17215   -10662    -4185 
     358     2533     3529     4436     6139     8897    11924    15566 
   20865    27015    32778    37953    42407    46532    51548    57925 
   64893    71218    75780    78269    78930    77501    73619    67580 
   60084    51954    43884    36583    30972    27369    25323    24918 
   27056    32228    39709    47822    55217    61803    67605    71865 
   74102    74676    74215    72994    70764    67569    64115    60711 
   56758    51681    45832    40198    35453    31411    27253    22593 
   18261    15177    13171    11909    11752    13014    15137    16707 
   16659    15764    15664    16447    16970    16862    16482    16023 
   15494    14916    14578    14639    14556    13834    13075    13685 
   16623    21684    27917    34334    40205    44915    47875    48445 
   45669    38804    28464    16889     6837      -64    -3746    -5115 
   -5508    -6040    -7228    -9164   -11805   -14846   -17187   -17416 
  -14950   -10421    -5173       89     5836    12252    18429    23300 
   26258    27461    28193    29828    32451    35213    37231    38049 
   37921    37710    38560    40774    42716    42397    40000    37217 
   34515    30815    26268    22918    21154    18924    14877     8976 
    1433    -7363   -16546   -24775   -31124   -35183   -36362   -34194 
  -28823   -21460   -14005    -7128     -234     6541    12306    16720 
   20102    22639    24008    23965    22786    20843    18247    14964 
   10791     5714      632    -3736    -8237   -13334   -17450   -19029 
  -17900   -14122    -7742      159     7369    11713    13055    14087 
   17364    22301    26377    27775    26544    24067    21735    20185 
   19423    19390    19998    21104    23097    26799    32550    39232 
   44388    46587    46767    46252    45024    42435    38630    34846 
   32439    31722    31856    31995    31942    31743    31512    31223 
   30513    29246    27951    27331    27548    28087    28314    28139 
   27826    27039    24805    21047    17095    13810    10464     6095 
     829    -4599    -9944   -15163   -19733   -23368   -25901   -26748 
  -26127   -24768   -22530   -19243   -15230   -10446    -4311     3401 
   11836    20003    27753    34833    40468    44288    46328    46717 
   45820    44102    41999    39476    36077    32162    28878    26636 
   24616    21779    17925    13639     9588     6154     3549     2153 
    2607     5135     8938    13028    17199    21065    23519    24421 
   25051    26360    28320    30918    34314    37805    40055    40872 
   40972    40332    39128    37829    36025    34239    32774    29974 
   25768    20859    14894     9464     6075     3927     2917     3455 
    4658     5727     6448     5722     2996     -376    -3347    -5373 
   -6115    -6005    -5447    -5119    -4944    -3611     -924     2508 
    6914    13694    23954    36803    50439    62953    72523    77958 
   78457    73968    65190    53447    40698    28248    16682     6844 
    -610    -5578    -8430    -9739    -9340    -6743    -2470     2294 
    6743    11055    16353    23343    31503    40180    49338    58998 
   68606    77125    83803    88552    91315    91971    90842    87871 
   82731    76563    70772    64891    58244    51813    47135    44593 
   42930    40476    36566    31167    24647    18414    13629     9807 
    6210     2966      123    -2351    -3790    -3373     -872     3388 
    8647    13728    17492    19792    21546    23435    25035    25410 
   23978    21129    18494    17443    17314    16505    14507    11761 
    8193     2859    -4330   -11703   -17621   -21844   -24897   -27376 
  -29692   -31679   -32751   -32689   -31920   -30830   -29072   -25946 
  -21004   -13912    -4326     7641    21020    34290    46278    56589 
   64982    71018    74771    76655    76388    73641    69172    63959 
   58042    51048    43297    35604    28108    20280    11941     3388 
   -4950   -12577   -18911   -23350   -26022   -27936   -29529   -30414 
  -30382   -29168   -26102   -20801   -13594    -5227     3730    12841 
