Origin Time       2011/03/11 14:46:00
Lat.              38.103
Long.             142.860
Depth. (km)       24
Mag.              9.0
Station Code      YMT004
Station Lat.      38.6208
Station Long.     139.5889
Station Height(m) 6
Record Time       2011/03/11 14:47:14
Sampling Freq(Hz) 100Hz
Duration Time(s)  272
Dir.              E-W
Scale Factor      3920(gal)/6182761
Max. Acc. (gal)   10.376
Last Correction   2011/03/11 14:46:59
Memo.             
[...]
   -5169    -5615    -7670    -9669    -9944    -8203    -5390    -2741 
    -622     1461     3261     3263     1067    -1476    -2677    -2479 
   -1747    -1729    -2940    -4149    -4078    -3454    -3428    -3423 
   -2717    -2072    -1993    -1667     -813     -513    -1282    -1922 
   -1301      -25      735     1232     2702     5181     7417     8503 
    7856     5189     1642    -1289    -3446    -5022    -5809    -5694 
   -4545    -2523     -566      477      809     1160     1724     2535 
    3730     4565     4508     4522     5061     5340     4862     3401 
     916    -1736    -3307    -3444    -2951    -2436    -1409      520 
    2375     2773     1759      690      597     1015      321    -1699 
   -2723    -1138     1794     3984     4671     4318     3534     2496 
    1263      288      206     1050     1860     1396     -608    -3198 
   -4876    -4443    -2299     -457     -213     -845    -1189    -1508 
   -2759    -4616    -6023    -7006    -7786    -7428    -5455    -3012 
   -1345     -814    -1091    -1391    -1372    -1436    -1448     -851 
      21      893     2241     3307     2307     -447    -2816    -3881 
   -4133    -3956    -3227    -1823     -291      682      694     -386 
   -1637    -2566    -4586    -7512    -8540    -6926    -4806    -3546 
   -2776    -1934    -1019     -625    -1816    -4723    -6908    -5868 
   -3300    -2727    -4040    -4851    -4264    -2545     -410     1193 
    2288     3177     2862      477    -2429    -3511    -2936    -2442 
   -2344    -2122    -2332    -3695    -5462    -6296    -5877    -4828 
   -4060    -3921    -3641    -2520    -1277    -1076    -1483    -1281 
    -778     -649     -419      144      733     1305     1618     1179 
     -11    -1289    -2083    -2468    -2491    -2051    -1875    -2635 
   -3202    -2217     -818     -982    -2008    -1853     -747     -369 
    -959    -1440    -1265    -1072    -1408    -1817    -2040    -1969 
    -807     1054     1869     1464     1074     1318     2208     3339 
    3960     3835     3353     2693     1447     -281    -1458    -2134 
   -3516    -5422    -6422    -5926    -4417    -2516     -854       64 
     770     1923     2803     3054     3925     5918     7639     7675 
    6138     4338     3508     3711     3703     2586     1608     2529 
    4698     6213     6661     6547     5802     4170     1838     -338 
   -1104     -254      708      427     -456     -405      739     1748 
    2078     2498     3239     3724     4035     4096     3177     2067 
    2726     4940     6173     5230     3941     4435     5919     5319 
    1523    -2397    -3483    -3129    -3439    -2942      160     4067 
    5903     5687     5352     5360     4450     1939    -1460    -4710 
   -7175    -8630    -9036    -8025    -5575    -3137    -2063    -1702 
   -1107    -1159    -3032    -5734    -7068    -6804    -6853    -7990 
   -8756    -7929    -6230    -5149    -4481    -2464      736     2575 
    2183     1402     1211      301    -2005    -3961    -4113    -3515 
   -3409    -3351    -2910    -2798    -3741    -5457    -7020    -7862 
   -8173    -8609    -9583   -10652   -11223   -11612   -12392   -13242 
  -13323   -12539   -11750   -11432   -10809    -9187    -7230    -5950 
   -5821    -6881    -8228    -8577    -7903    -7242    -7061    -6773 
   -6072    -5772    -6445    -7492    -8135    -8120    -7623    -7148 
   -6766    -5869    -4364    -2967    -2261    -2822    -5122    -8102 
   -9759    -9619    -8922    -8753    -8897    -8464    -7498    -6604 
   -5463    -4074    -3442    -3358    -2721    -1949    -1914    -1921 
   -1268     -831    -1081     -676     1473     4284     5849     5987 
    5684     4763     2554     -441    -3028    -4090    -3183    -1029 
    1482     3915     5602     5975     5162     3274      464    -2378 
   -4643    -6654    -8216    -8351    -7134    -5982    -5613    -4946 
   -2791       -8     1461     1461     1761     3261     4798     5089 
    4416     3781     3624     3983     4637     4939     4680     4481 
    4493     3717     1423    -1642    -4199    -5775    -6657    -7263 
   -7392    -6064    -3122     -750    -1393    -4032    -5305    -4510 
   -3977    -4790    -5880    -6603    -7537    -9336   -11741   -13626 
  -14141   -13362   -11784    -9901    -8196    -6901    -5803    -4794 
   -4239    -4344    -4687    -4725    -4725    -5394    -6229    -6011 
   -4778    -3275    -1707     -265      619      735      118    -1123 
   -2692    -4004    -4878    -5962    -7489    -8414    -7719    -5962 
   -4356    -2835     -725     1518     2806     2807     2169     1589 
    1147      630     -228    -1469    -2574    -3144    -3321    -3204 
   -2719    -1607      269     2074     2889     3010     3106     3652 
    4923     6099     6232     5961     5993     5733     4752     3338 
    1723      105    -1149    -1755    -1789    -1333     -261      858 
    1024      443      134      245      386      750     1479     1874 
    1427      783      902     2020     3594     4762     5068     4441 
    2901     1233      385       92      216     1606     3933     5252 
    4478     2566      810     -906    -2846    -3867    -3432    -2738 
   -2389    -2127    -2203    -2599    -2810    -2918    -3473    -4519 
   -5362    -5870    -6709    -7531    -7474    -6790    -5840    -5113 
   -5963    -8330   -10137   -10145    -8843    -7426    -6779    -6394 
   -5496    -4771    -4853    -5052    -4766    -4124    -3720    -4237 
   -5193    -5269    -4082    -2154     -213     1312     2604     3275 
    2686     1971     2605     4006     4722     4392     4132     4803 
    5164     4019     2198      630     -415     -857    -1421    -2685 
   -4000    -4452    -3726    -2157     -522      696     1708     2597 
    2969     3004     3330     3676     2945      857    -1073    -1649 
   -1955    -2918    -3390    -2153      198     1854     2301     2777 
    3351     2854     1382     -135    -1059    -1187    -1251    -1868 
   -2262    -1490      424     2690     4037     3759     2395      537 
   -1643    -3501    -4465    -5054    -5999    -7299    -8869   -10459 
  -10784    -9043    -6443    -4383    -3061    -2365    -2217    -2446 
   -2987    -3485    -2993    -1203      540      730     -572    -2329 
   -3418    -3082    -2103    -2063    -2696    -2568    -1887    -1833 
   -2241    -1854     -191     1361      955     -948    -1962    -1000 
     712     1586     1376      674     -461    -1966    -2559    -1098 
    1532     3382     3574     2985     3102     3910     3899     3065 
    3329     4905     5790     5420     4880     4043     2262       96 
   -1488    -1636      194     3449     6438     7720     7667     7257 
    6188     4331     3011     3109     3465     2396       97    -1757 
   -2074     -931      849     2476     4052     5804     6770     5830 
    3474     1087     -894    -3126    -5850    -7556    -6509    -3499 
    -845      468      912      851       45    -1529    -3188    -3761 
   -2322      193     1764     2284     2751     2758     1626      153 
    -379        6      415      789     1679     3236     5119     6611 
    7461     8353     9646    10384     9302     6818     4830     4033 
    3349     2399     2315     3580     4816     4828     4389     4373 
    4102     3197     2503     2541     3171     4085     4747     4712 
    4428     4940     5843     5549     4287     3736     4212     4586 
    4176     3417     2773     2321     2351     2802     3010     2789 
    2630     2912     3269     2926     2206     2400     3344     3252 
    1715      371      201      650      927      364     -950    -1896 
   -2094    -2069    -1632     -206     2001     4143     5728     6862 
    7532     7667     7409     6306     3435     -796    -4242    -5302 
   -4736    -4321    -4451    -4309    -3881    -4009    -4573    -4374 
   -2783     -524     1102     1579     1462     1239      595    -1196 
   -3990    -6330    -7340    -7288    -5775    -2537     1079     3803 
    5296     5123     3274     1125      109     -400    -1950    -3989 
   -4377    -2506      -43     1164     1122     1185     1774     1889 
    1160      765     1448     2019     1057     -679     -770     1614 
    4315     5458     5989     6795     6578     4519     1790     -139 
    -833    -1328    -2848    -4363    -3854    -1682       89      594 
     862     2083     3521     3683     3204     3431     3522     2399 
    1055      392     -289    -1474    -2470    -2276     -414     2464 
    5062     6618     6837     5275     1717    -2941    -6676    -7791 
   -6306    -3389      146     3760     6281     7013     7219     8283 
    9363     8681     6190     3552     1763      297    -1296    -2163 
   -1018     1815     4088     4295     3393     2763     2310     1632 
     833       -8     -343      327      842     -259    -2359    -3634 
   -3602    -3395    -3138    -1347     1777     3878     4118     3937 
    4375     5026     5141     4744     4650     5198     5472     4648 
    3489     2984     2632     2111     2336     3542     4853     5610 
    6092     7049     8084     8078     7177     6335     6224     6883 
    7393     6954     5937     5078     4727     4644     4113     3041 
    1968     1151     1097     2229     3852     5384     6964     8458 
    9617     9899     8331     5300     2589     1147      657      706 
    1348     2273     2241     1094      770     2380     4763     6419 
    6691     5978     5150     4057     2076      160       79     1568 
    2789     3222     3546     3669     2873     1514      998     1571 
    2095     2131     2037     1826     1424     1128      959      308 
    -935    -1868    -1980    -1851    -1802    -1199       69      852 
     428     -338     -351      146       86     -600     -569      476 
     704     -396     -689      922     2915     3684     3514     3276 
    2706     1861     1829     2550     2815     2346     1955     2352 
    3286     3643     2881     2052     2270     3089     3576     3496 
    3071     2922     3546     4468     4811     4453     4111     4327 
    4675     4221     2560      530     -464     -371     -269     -406 
    -325       71      636     1214     1613     1798     2101     3193 
    5075     6295     6019     5695     6511     7287     6478     4646 
    3753     4536     5682     5555     3943     1922      360     -775 
   -1840    -2944    -3714    -3541    -2336    -1051     -989    -2078 
   -2489     -998     1118     2181     2746     3939     5122     5087 
    3912     2571     1510      325    -1178    -2324    -2537    -2046 
   -1012      768     2853     3945     2880     -107    -3109    -4402 
   -4159    -3696    -3866    -3936    -2311      680     2832     3349 
    3422     3942     4243     3314     1710      759      621      713 
     679      343      -24      254     1097     1551     1088      113 
    -627    -1003    -1416    -1483     -541      761     1534     2139 
    2889     3292     3468     4030     4416     3475     1516     -272 
   -1893    -3790    -5107    -4724    -2969    -1011      825     2816 
    4439     5013     4621     3387     1397     -916    -3228    -5447 
   -7269    -7944    -6677    -3645     -211     2285     3383     3206 
    2018       83    -2569    -6099    -9852   -12068   -11935   -10680 
   -9473    -7981    -5553    -2573     -188     1119     1673     1685 
    1253       63    -2449    -5376    -7236    -8347    -9251    -8715 
   -5956    -2620     -555      275      561      753     1072      870 
    -286    -1390    -1918    -2946    -4759    -5634    -4194    -1179 
    1899     4351     5886     6144     5298     3641     1052    -1906 
   -4060    -4961    -5033    -5107    -5010    -3347     -678      591 
     495      909     1819     1772     -295    -4222    -7854    -9048 
   -8175    -6531    -4438    -1772     1254     3793     5035     4884 
    3483     1086    -1672    -3877    -4604    -3980    -3460    -3725 
   -3872    -3454    -2899    -2144     -965      625     2604     4281 
    4810     4201     2719      892     -473    -1488    -2510    -2957 
   -2402    -1352     -625     -623    -1287    -2631    -4379    -5600 
   -5668    -4799    -3656    -2737    -1991    -1185     -275      597 
    1264     1797     2342     2888     3315     3330     2690     1630 
     745      213     -470    -1321    -1540     -824      373     1419 
    1749     1504     1184      767      298     -108     -788    -1423 
    -916      535     1079     -187    -1845    -2259    -1618    -1188 
   -1503    -1770    -1040      400     1454     1546      999      492 
     148     -609    -1826    -2810    -3266    -3258    -2810    -1870 
     -71     2544     5004     6305     5953     4132     1889      292 
    -515     -870     -927    -1035    -1931    -3808    -5740    -6720 
   -6836    -6694    -6404    -5856    -4955    -3498    -2028    -1673 
   -2352    -3109    -3903    -5124    -6378    -6792    -5670    -2796 
     871     3320     3751     3306     2603     1053    -1159    -2811 
   -3410    -3562    -3618    -3347    -2611    -1561     -676        9 
    1493     3924     5747     6209     6058     5608     4590     3146 
    1742      601     -371     -928     -684     -132      499     2383 
    5529     7713     7661     6008     3654     1715     1160     1602 
    1814     1366     1107     1783     3084     4821     7577    11380 
   14791    16110    15167    13190    11200     9130     6406     3177 
     436    -1158    -1661    -1221       66     1958     4027     5459 
    5321     3906     2806     2437     1417     -511    -1568     -746 
     898     2163     2903     3348     3658     3826     3846     4041 
    4544     4949     4785     3824     2250      387    -1870    -4451 
   -6165    -5818    -4047    -2302     -685     1603     4418     6368 
    6537     5842     5915     7064     8053     8065     7967     8479 
    8488     6893     4461     2186     -306    -3211    -5435    -6142 
   -5544    -4206    -2879    -1976     -974      409     1226      760 
    -108     -139      563      913      182    -1359    -2575    -2637 
   -2017    -1629    -1734    -2192    -3116    -4594    -5854    -5924 
   -4922    -3426    -1549      283      719     -879    -3383    -5775 
   -7972    -9427    -9373    -7797    -5095    -1966      672     2138 
    1877      158    -1386    -1782    -1798    -2015    -2049    -1846 
   -1994    -2658    -3132    -2943    -2587    -2154     -957      452 
     538     -847    -2601    -4049    -5227    -6114    -6297    -5745 
   -5260    -5431    -5713    -5223    -3973    -2549    -1128      300 
    1459     2324     3276     4312     4948     4893     4068     2374 
      78    -2105    -3609    -4188    -3613    -1732     1167     4063 
    5705     5810     5230     4824     4628     4127     3053     1826 
    1138     1015      696      -22     -385     -352     -885    -2070 
   -2813    -2629    -2463    -3363    -4966    -5852    -5182    -3420 
   -1401      523     2070     2767     2534     1583      -18    -1702 
   -2415    -1991    -1504    -1893    -2662    -2528    -1272      -51 
      67     -933    -2354    -3478    -4023    -4000    -3421    -2442 
   -1246     -354     -749    -1933    -1826      -27     1511     1410 
     668     1131     2646     3136     1784      183     -462     -928 
   -1725    -1727       40     2739     4487     4568     3826     2900 
    1605     -202    -2025    -2941    -2627    -1763     -949     -363 
    -444    -1259    -2201    -3240    -4591    -5526    -5576    -5388 
   -5113    -4001    -1992     -341     -532    -2559    -4951    -7030 
   -9306   -11505   -12387   -11287    -8829    -6676    -6170    -6766 
   -6670    -5051    -3151    -2948    -4688    -6794    -8256    -9397 
  -10519   -11385   -11663   -10883    -8836    -6465    -5071    -4630 
   -4217    -3689    -3382    -2789    -1424     -283     -333     -628 
    -109      573      713      532       -5     -998    -1794    -1681 
    -670      400      197    -1774    -4089    -4695    -3308    -1383 
     214     1743     3046     3504     3100     2235     1109      -67 
    -684     -789    -1572    -2869    -2796    -1296     -394     -945 
   -2150    -3339    -4403    -5384    -6312    -6759    -5803    -3387 
    -931      193      -47     -754    -1388    -2482    -4560    -6873 
   -8370    -9062    -9185    -8365    -6320    -3433     -754      747 
    1051      242    -1924    -4694    -6579    -7121    -7071    -7390 
   -8065    -7841    -6038    -3751    -2249    -1513    -1105    -1260 
   -2410    -4166    -5595    -6565    -7594    -8552    -9157    -9606 
   -9637    -8762    -7244    -5700    -4829    -5267    -6745    -8573 
  -10747   -13088   -14522   -14577   -14019   -13391   -12678   -12170 
  -12077   -12154   -12307   -12311   -11568   -10333    -9662    -9692 
   -9563    -8868    -7874    -6626    -5004    -3497    -3071    -4284 
   -6556    -8592    -9894   -11081   -12525   -13578   -13584   -13037 
  -12653   -12179   -11219    -9582    -6977    -3987    -1721     -434 
    -259    -1519    -3761    -6210    -8402    -9967   -10690   -10586 
   -9749    -8191    -6081    -4153    -2855    -1791    -1184    -2133 
   -4645    -7379    -9661   -12114   -14780   -16223   -15359   -12847 
  -10145    -8088    -6590    -5494    -5366    -6959    -9733   -11764 
  -12093   -11840   -11587   -10156    -7428    -5303    -4909    -5423 
   -5764    -5671    -5398    -5455    -6172    -7033    -7374    -7389 
   -7396    -7249    -7085    -7085    -6652    -5373    -4064    -3544 
   -3466    -3345    -3433    -3997    -4827    -5642    -6691    -8589 
  -10814   -11952   -12122   -12468   -12586   -11368    -9364    -8203 
   -8396    -9146    -9987   -11199   -12832   -14465   -15548   -15455 
  -14000   -12057   -10630    -9305    -6953    -3926    -1996    -2062 
   -3323    -4960    -7272   -10091   -11809   -11782   -11121   -10046 
   -7874    -5243    -3393    -2444    -1818    -1555    -2498    -4872 
   -7596    -9788   -11391   -11797   -10045    -6844    -4205    -2653 
   -1019      683      763    -1390    -4086    -5274    -4706    -3903 
   -4338    -5893    -7263    -7730    -7893    -8411    -8740    -8025 
   -6497    -5009    -4140    -3930    -3774    -3135    -2493    -2518 
   -2503    -1087     1541     3651     4270     4254     4599     4439 
    2011    -2203    -5561    -7170    -8511   -10017   -10422    -9016 
   -6455    -3801    -1337     1188     3258     3695     2180      187 
    -477       57      498      342     -265     -817     -579      325 
    1001     1387     2013     2347     1433     -446    -2088    -2908 
   -3660    -4897    -5297    -3549     -765     1045     1623     2280 
    3690     4868     4950     4508     4227     4062     3504     1941 
    -225    -1539    -1015     1254     4284     6337     6012     3947 
    2554     3214     4757     5506     5523     5639     5343     3518 
     488    -2310    -3780    -3618    -2398    -1384    -1344    -1665 
   -1714    -2062    -3016    -3787    -4017    -4067    -3588    -1879 
     539     2525     3955     5248     6034     5884     5331     4731 
    3560     1838      434     -425    -1141    -1561    -1452    -1117 
