Origin Time       2011/03/11 14:46:00
Lat.              38.103
Long.             142.860
Depth. (km)       24
Mag.              9.0
Station Code      YMT007
Station Lat.      38.4302
Station Long.     140.3902
Station Height(m) 120
Record Time       2011/03/11 14:46:58
Sampling Freq(Hz) 100Hz
Duration Time(s)  300
Dir.              N-S
Scale Factor      3920(gal)/6182761
Max. Acc. (gal)   184.476
Last Correction   2011/03/11 14:46:43
Memo.             
[...]
  -19521   -27015   -31931   -26191    -7887    10442    17010    13161 
    7484     5644     7785    13530    23316    34103    41326    45034 
   48174    50359    50523    51694    54030    51120    40647    30727 
   29627    32484    27924    17583    15107    25481    37458    38503 
   29983    22113    18157    12574     2899    -7605   -17402   -25776 
  -30956   -34035   -34014   -26297   -14003    -7047    -9971   -17582 
  -19312   -10687      612     6143     7385     9911    14890    19760 
   22167    22248    20924    15941     5798    -3851    -6537    -2480 
    6615    20291    33384    38521    35476    30583    30054    35752 
   44090    50911    53697    49399    39713    30966    24832    20574 
   18376    14002     4121    -6389   -12342   -14722   -16820   -19509 
  -20144   -17629   -14949   -12010    -7053    -4851    -7437    -7324 
    -112    11865    23948    29734    27747    19468     1434   -23324 
  -38734   -34677   -18959    -5125      697      295    -1687    -5637 
  -16801   -32293   -41623   -39657   -27129    -7322    14587    36550 
   56249    62427    47463    21563    -1981   -19694   -31649   -38335 
  -37522   -24808    -8039    -4510   -18410   -38950   -54451   -58681 
  -53345   -43005   -26220    -4411     9140     5867    -5438   -13424 
  -18749   -25667   -29954   -27740   -25622   -29494   -34380   -31467 
  -18961    -5922    -4346   -14325   -24378   -28885   -32627   -39507 
  -46900   -47472   -36809   -19419     -852    18747    38042    51888 
   57853    57054    50250    40112    31078    23376    13502    -1095 
  -17418   -26474   -26213   -25875   -28636   -28727   -25268   -22796 
  -26724   -39089   -51006   -50079   -35658   -17966    -7134    -4766 
   -5123    -6152   -10766   -17829   -24342   -29765   -31142   -25636 
  -17529   -11737    -5856     3518    12486    12718     3013    -6037 
   -6348    -1607     3369     7551    11413    17454    25051    29898 
   30406    26117    17403     8813     2161    -4771    -8121    -4183 
    -317    -3733    -9318    -6312     7630    23192    32768    39836 
   47573    49974    43662    33222    19897     3082   -10327   -12515 
   -2488    14366    28610    36490    42656    47917    48913    46032 
   39432    29224    20332    13488     1658   -15202   -26289   -26161 
  -24555   -33479   -47860   -50217   -34113    -9455    10371    15944 
    9617     4726     5003     3053     -652     -456     2077      497 
   -8487   -19671   -22810   -15892   -10626   -15943   -23440   -21755 
  -12533    -3668    -1206    -7365   -16685   -21799   -26740   -40577 
  -58469   -66787   -64360   -61208   -59370   -50019   -28584    -4722 
    6508     3411      147     9460    28897    43825    42379    25178 
    2419   -13538   -17021   -12294    -7232    -9762   -23064   -36969 
  -38172   -25687    -5191    17582    36879    50624    58925    60907 
   57259    50991    46100    43087    35579    20460     5417      468 
    8590    22191    28646    23690    14543    10112    13267    19818 
   23332    22334    20264    19663    21466    26290    31544    34406 
   35164    30358    17476     5391     2037     3171     3014     3928 
   11567    22484    25308    20138    19456    25273    26033    15304 
   -3498   -22980   -33503   -31581   -23823   -17716   -18509   -27649 
  -39847   -49269   -54120   -55994   -55964   -49961   -38195   -31665 
  -33540   -29044    -9246    10910    12329    -2447   -12717    -5122 
   12192    24527    26083    19875    13256     7229    -3449   -17686 
  -30242   -37746   -38272   -33399   -26693   -21229   -19762   -21000 
  -18973   -12497    -7602    -4864      372     4174     -293    -8327 
   -9273    -4529    -9410   -29604   -49284   -52124   -38928   -19420 
    1032    19928    31861    33308    25750    12634      964     -185 
   10742    24768    31942    30136    24422    21484    20168     9689 
  -11863   -27657   -22089     -597    16649    17912     9633     1422 
   -8274   -27015   -50750   -61447   -51347   -32916   -19802   -15488 
  -14419    -6913     5889    10449     4212      919     6070     8285 
   -1813   -19077   -32089   -35218   -29206   -14846     6325    24286 
   25228    10020    -3704    -3264     4369     5782     2406     5843 
   17423    27242    28369    24078    22627    27135    33508    36235 
   34251    33073    37339    40168    30646    11959    -3557   -12952 
  -21689   -31603   -37533   -33922   -23921   -18165   -22547   -32717 
  -41640   -44442   -37775   -22612    -3761    14483    27338    29280 
   20211     8866     4642     6039     6543     8417    15098    21050 
   22890    23530    21296     9826   -12049   -33172   -36834   -22003 
   -5680     2678    10195    21498    29396    25347     9974    -5838 
   -9717      265    12413    13251     5403     5563    18283    25888 
   16405     3686     3759    11240    12344     5552      734     1569 
     475    -6154   -12137    -9474     4959    25501    40811    42724 
   31565    13187    -5326   -14561    -9248     2309     6936      562 
   -9604   -13516   -10513    -6959    -3570     3834    14772    21331 
   17696    10050     6624     5701     2710    -3168    -9843   -13677 
  -16696   -26112   -39838   -46538   -43637   -40300   -41521   -42275 
  -37784   -32200   -34299   -44606   -54778   -58644   -52141   -34959 
  -19591   -14657    -7229    10487    22567    18485     7987     1427 
     440      300    -4192    -7917    -5824    -8011   -22508   -40831 
  -50993   -50505   -47820   -50116   -50199   -35582    -7183    16848 
   17653    -1648   -16209   -10643     2027     5481     2988     4766 
   13032    18316     9633    -3453    -1502    11838    17055    10126 
    6303    17972    38426    50391    48411    44889    48247    48742 
   38869    28720    28940    36546    41668    38007    27590    16167 
    4996    -6896   -14974   -13050    -3345     7099    15310    19643 
   17846    10946     2591    -4478   -13823   -32575   -54756   -63520 
  -56158   -47046   -46215   -46528   -35139   -17040   -11153   -19444 
  -20947    -1228    26617    41072    43387    50986    65755    68134 
   43661     6704   -11723    -4347     3744    -2117    -7414    -2844 
     569    -6328   -19475   -27605   -25352   -19024   -12204    -4988 
   -7819   -25357   -40187   -39933   -35684   -36718   -34911   -23019 
   -9798    -8824   -17321   -18495    -4558    17775    39445    51985 
   49578    38336    29819    25821    21257    13206     3775     -632 
    1202     2383      441      507     6167    14098    16885    13268 
    9928     9965    11449    16790    28824    41430    49601    57769 
   67540    74877    79358    83054    84786    80509    69395    55953 
   44557    34726    23020    10818     2102    -6115   -17940   -29956 
  -35460   -32361   -28276   -31389   -34543   -27224   -17923   -19889 
  -28235   -29365   -18609    -5078    -1307    -3175     2728    11025 
    6758    -4387    -6149     -796    -1348    -6048    -1531    12897 
   19583     8584    -6645   -11085    -4898     6127    17200    23162 
   22387    18481    13091     4076    -8175   -18607   -20540   -13699 
   -7417    -7756   -10974   -14121   -18598   -22571   -20574   -12672 
   -5204    -2234    -5142   -13157   -19777   -19311   -14620   -11138 
   -8749    -6226    -7344   -13731   -19770   -19836   -14576   -10710 
  -12718   -16634   -17841   -15962   -10890    -4655    -4289   -14649 
  -30181   -41004   -45050   -46675   -47955   -45750   -35601   -20985 
  -12390   -12500   -15220   -18636   -23794   -27246   -26101   -22089 
  -17376   -12389    -6767    -1424     1006     1092     2096     1404 
   -5117   -13957   -20544   -22987   -21833   -24365   -33892   -41522 
  -41102   -36194   -30282   -23939   -17313    -8718     2365    10920 
   12543    10674    12695    19860    24808    23505    21983    23079 
   18604     3045   -14746   -18628    -3326    14280    13471    -1535 
  -12496   -16126   -19890   -24875   -25614   -17598    -4697     2229 
     250     -614     8266    23940    37550    44423    46148    45513 
   42561    36695    30119    24573    17952     7378    -5960   -15764 
  -17273   -13401    -9953    -7170    -1616     5076     5669    -4153 
  -16711   -20341   -21559   -33994   -47135   -41730   -22693    -8604 
   -4573      516    15520    31540    33449    23965    19189    24052 
   29200    27273    21308    19345    23041    22808    10102    -7741 
  -15215    -9349    -2364    -4189   -11689   -17666   -21191   -22424 
  -18093   -10624    -9630   -16858   -21201   -16822   -13550   -18021 
  -20010   -10627       51    -1977   -12469   -17626   -15022   -12334 
  -13678   -16044   -16182   -14609   -11996    -6915      207     4247 
    2974     4629    17335    35108    44451    40830    32530    28108 
   22592     4959   -20327   -35634   -34562   -27826   -28634   -39938 
  -49776   -44387   -27576   -14548   -10446    -5683     9279    30466 
   44917    46859    43515    42720    42366    36698    26011    16393 
   11596     6357    -5496   -19587   -30559   -39914   -42047   -25781 
    3085    25209    33145    32005    24075    11768     3519     5645 
   15564    24208    24671    17430     4165   -14041   -29269   -33417 
  -32254   -35418   -38781   -33971   -25145   -20915   -18453    -7592 
   13781    34405    42743    42402    42132    41627    41293    44943 
   48329    44840    37137    32918    35801    41913    44577    45538 
   51924    59879    60321    53956    44169    32614    23457    15615 
    3153   -11972   -21704   -21761   -12510     1117     8263     1634 
  -12343   -22031   -22782   -16904   -12122   -16588   -26923   -31825 
  -30713   -34828   -49550   -65476   -68523   -57971   -47074   -41305 
  -31829   -15586    -4337    -6950   -14771   -13310    -1757     5185 
   -3074   -15670   -16338    -7397    -1517    -3001    -5706    -3188 
    2162     2677    -4792   -14673   -17499   -11314    -5768    -9077 
  -12275     1060    28607    49193    48534    34709    26239    28209 
   28334    15509    -7140   -28723   -42991   -49742   -51620   -52376 
  -50598   -38731   -14416    11603    26619    32623    39276    46073 
   44655    32010    15739     5585      343    -5815   -11548   -15304 
  -17181   -15180   -11790    -9729    -7018    -4616     -963    10043 
   23355    28502    27540    28481    33968    39239    36066    26849 
   22635    25028    27426    25240    19328    16624    19257    16515 
    -605   -25321   -43238   -49847   -53386   -60518   -66671   -63100 
  -50988   -41769   -41270   -42078   -33869   -17252    -2724     4005 
    6733     9310     9206      566   -17344   -35757   -44702   -45516 
  -47702   -52932   -54760   -52332   -49298   -46561   -42143   -31276 
  -16349    -9290   -11208   -11555    -5764     2024      309   -19985 
  -47902   -64091   -65687   -62428   -59289   -49536   -23530    11400 
   32104    28755    18863    22354    32263    27469     6450   -11536 
  -14162   -13066   -25996   -47097   -53885   -38041   -12423     7906 
   24098    45517    65989    68472    52791    38897    40500    48590 
   48324    42289    42814    49981    54011    51098    43004    28850 
    9014    -7815   -11110    -1544     8202     9296     7229     8658 
    7821    -3399   -21212   -35335   -42421   -43769   -37383   -24322 
  -11026      567    13535    28943    43753    54546    63091    72911 
   79270    72551    54096    36372    25732    18765    12664     7679 
    4603     2504    -1972    -9390   -18336   -28823   -36994   -37140 
  -29736   -18933    -4963    15819    41304    61311    70249    74457 
   83613    98181   109105   112262   113181   113398   107025    88833 
   56177    14818   -20478   -43963   -63646   -84348  -102133  -114224 
 -125758  -144645  -170167  -192852  -204861  -205489  -199662  -189479 
 -168253  -132530   -92667   -60585   -37793   -19742     -917    21990 
   47445    74026    99999   117049   118970   110971   100693    88648 
   72869    55166    37714    22945    16928    22698    35277    46941 
   52262    48088    33994    16583     5311       98    -5276   -11567 
  -18545   -28570   -41060   -53502   -60140   -54386   -40959   -28842 
  -17851    -7044     1283     9158    15147     9445    -9170   -27912 
  -33582   -21554     1030    21866    35468    41155    36897    21318 
   -3953   -32196   -52459   -57731   -49940   -34705   -14825     8874 
   34535    56681    64712    55515    41935    30680    13275    -8245 
  -19252   -16729   -11009   -10811   -15273   -20022   -29408   -50473 
  -77193   -97882  -112035  -125641  -140270  -155308  -169774  -178743 
 -174529  -150842  -104249   -35876    43577   114221   160495   181747 
  185732   178089   159594   130818    98667    72012    51893    32709 
    9454   -14938   -29560   -29892   -22987   -11172    13082    49052 
   83965   107297   112719    98748    72532    41367     9151   -16698 
  -29432   -32824   -32587   -26425   -17135   -14215   -14917    -9723 
   -1803    -3088   -16238   -27225   -22765   -12113   -13906   -27246 
  -36411   -36426   -36417   -43506   -54423   -61539   -64333   -70687 
  -81520   -83320   -64388   -29101     6024    26741    35347    43686 
   53576    57974    52669    41189    34474    39160    51409    64827 
   67186    41487   -12918   -77030  -131621  -172194  -205233  -227315 
 -227809  -213103  -198486  -188448  -179097  -160297  -121896   -66599 
   -2463    65418   128623   181462   226238   262334   284494   289968 
  280126   256711   214541   145191    52346   -40169   -99630  -116323 
 -112554  -107928  -103283   -91447   -64415   -33853   -27511   -43632 
  -51361   -38411   -23485   -31328   -61481   -87088   -97015  -105103 
 -111543   -99915   -68017   -31709    -4230    14724    30552    41558 
   40079    27464    22468    40605    71119    95129   111218   123887 
  131993   137725   143648   145266   138449   123783   102977    80216 
   62052    49149    33017     5094   -32751   -71325  -107712  -144260 
 -175318  -192167  -195871  -192969  -190223  -194012  -200679  -198693 
 -186214  -169322  -149009  -123063   -91310   -56499   -27306   -14744 
  -21163   -40561   -63874   -74787   -57464   -16030    31631    73774 
  104709   124666   141611   154196   153184   144850   142544   147761 
  157099   167973   177337   184275   186258   173111   128772    43877 
  -66749  -169397  -240571  -277330  -280816  -247490  -182941  -114048 
  -65182   -28866    12069    51016    66891    50603    16506    -9237 
  -14056   -11259   -16578   -21798   -13954     -400     2254    -9691 
  -18611    -6213    18550    34216    41856    58657    91153   134426 
  174780   191630   180358   160650   154320   168467   190265   198492 
  194404   198111   209828   206587   169590   101909    33807      735 
    3756    10600    -3529   -35061   -64113   -80351   -94949  -113565 
 -116062   -83714   -26436    24736    43415    30920     9463   -11757 
  -41454   -73589   -84927   -72097   -59474   -65269   -81839   -89336 
  -75394   -44257   -10594    17492    44075    71217    91289    99810 
  100157    94422    81934    55583     4130   -65378  -124547  -150779 
 -144725  -118547   -77668   -26321    18869    38361    34710    33148 
   46263    59825    56777    31465   -10941   -63446  -127317  -193505 
 -235260  -244403  -238653  -228205  -202320  -139307   -38545    52761 
   83879    63162    35857    22962    21274    33372    61776    96397 
  118692   110176    69022    19006   -10655   -13664    -3549     7944 
   12423     2905   -17922   -41415   -61561   -72706   -69673   -50826 
  -15589    28400    59411    63046    52054    51631    70699    97270 
  119026   134504   145951   151023   142621   117614    82877    50813 
   27564     7145   -16380   -38229   -50590   -53088   -53851   -63312 
  -84133  -105309  -107865   -80331   -35096     -426     9645     -914 
  -27003   -57310   -73180   -67444   -43596    -7067    30204    58220 
   75824    81036    71382    44972      264   -50974   -88577  -106925 
 -113827  -113960  -106299   -92767   -83865   -87394   -95024   -94782 
  -85114   -70651   -55726   -38749   -20640   -14515   -24868   -36706 
  -39258   -34731   -24330    -9299      844    -1078   -10465   -19280 
  -20553    -7699    17592    45840    72995    96744   105592    93636 
   71484    48809    27832    14478    13174    13823     3872   -12459 
  -25015   -32067   -36443   -44410   -56648   -61271   -53140   -40364 
  -27964   -16070    -5798      991    -1262   -17919   -43448   -65822 
  -73486   -56745   -20522    14495    35597    47449    54791    53990 
   47243    47196    62989    90939   112219   108809    89066    73724 
   68047    65012    50810    17452   -15691   -27015   -25858   -30295 
  -44850   -65119   -83530   -99708  -116761  -128688  -126782  -108939 
  -78701   -40788    -6624     4561   -13817   -49756   -86282  -110082 
 -117079  -111708  -102100   -89622   -60620    -6505    54414    94773 
  113898   136702   174315   211422   231828   233996   227165   217187 
  196196   154479    95923    32821   -26904   -78220  -116367  -145127 
 -170672  -189962  -201632  -208265  -204749  -188603  -165438  -134733 
  -92044   -35276    33089    92253   115890   107560    93335    88505 
   88200    77547    55409    38818    29802    18427    14868    30580 
   57173    80733    89000    82430    76243    75494    76179    83006 
   97664   105819    91419    54103     6511   -37002   -67213   -85168 
  -96921   -99244   -84840   -59443   -38100   -31120   -36236   -43128 
  -49664   -57135   -57941   -50759   -42429   -32595   -21171   -11393 
    -872    12408    26694    38456    40645    34029    29527    27878 
   24367    25491    33628    39778    39284    32784    20518     3748 
  -14819   -30750   -37431   -30196   -12433     9436    34462    61427 
   83487    95175    97904    97746   102060   114901   130104   132724 
  112429    74447    35417     9337    -2310   -10382   -24922   -39283 
  -39677   -31014   -34803   -60173   -90879  -104776  -100990   -98030 
 -104191  -104203   -80050   -36733     1135    21092    38344    65789 
   84757    72428    41433    21121    19235    23584    20308     4367 
  -15070   -27526   -36740   -47633   -52567   -47645   -46120   -58109 
  -69154   -58003   -26921      869    11452    19464    42905    71058 
   85936    93663   111166   140116   161570   155039   123452    86778 
   53292    15580   -26383   -56008   -59282   -44358   -36076   -46796 
  -60940   -61855   -55471   -52345   -49711   -40897   -24739    -7386 
    1854     8662    29001    57438    76182    88802   108940   133478 
  149651   152239   144607   128754    98357    51588     6121   -19677 
  -29992   -34854   -32722   -26981   -32746   -54917   -79183   -92775 
 -100182  -109705  -115599  -104765   -76977   -46980   -27998   -24096 
  -31094   -37195   -31768   -13717     9557    25033    21013    -1782 
  -29658   -48314   -51031   -37977   -16995      841    12578    21429 
   26557    22230     4873   -17751   -31374   -31741   -24184   -13129 
   -2665     -539   -15578   -45035   -67486   -66770   -56066   -58060 
  -73286   -84055   -84534   -89255  -101689  -100472   -72934   -33343 
   -4030     1560    -9269   -12663       62    13591    14358     3028 
