Origin Time       2011/03/11 14:46:00
Lat.              38.103
Long.             142.860
Depth. (km)       24
Mag.              9.0
Station Code      YMT007
Station Lat.      38.4302
Station Long.     140.3902
Station Height(m) 120
Record Time       2011/03/11 14:46:58
Sampling Freq(Hz) 100Hz
Duration Time(s)  300
Dir.              U-D
Scale Factor      3920(gal)/6182761
Max. Acc. (gal)   89.521
Last Correction   2011/03/11 14:46:43
Memo.             
[...]
  -33278     7855    25514    22614    16140     8124    -5098   -21809 
  -32445   -32041   -38444   -62621   -75986   -55560   -23413    -3834 
    9980    32407    63998    85727    73586    36515     4817   -17607 
  -36216   -38999   -25492    -9201     8782    28941    40890    38166 
   26287    14501     6484      515    -4317    -5673     -110     7830 
    4833    -9059   -18771   -22943   -28348   -24784    -6348    10432 
   21259    39846    60409    65887    50222    13864   -22016   -33654 
  -35616   -39758   -28010    -2364    14668    14116     -902   -14083 
   -9800      -48     -351    -5134   -14610   -36735   -56506   -52736 
  -30811   -10146    -3968   -15622   -37841   -58130   -67782   -67475 
  -58840   -35738     2765    44060    71655    75455    50078    -3218 
  -52921   -62015   -46001   -34694   -28391   -36002   -59248   -71571 
  -69678   -63138   -49376   -39929   -32694    -9588    12773    16674 
    8495   -17616   -56212   -79757   -79271   -53187    -4790    33085 
   30786    -5513   -41659   -48150   -41657   -47108   -46241   -27122 
   -6613    11117    28242    33920    18316    -8788   -24448   -21139 
   -2152    27305    41830    27808     8878    -4418   -17455   -22714 
  -27337   -35009   -22822    -3650   -13249   -38001   -48900   -38676 
   -8672    16604    17306    15116    16574    -4165   -36656   -38641 
   -1429    42019    56139    37576    10660    -6315   -13427   -25365 
  -44725   -41299   -10339    10723    12515     7046    -2959    -3876 
    2208    -8799   -25019   -17722      753     7589    10018    19075 
   25070    15734    -3086   -15981   -17076   -15288   -21837   -30298 
  -26871   -16077   -11907   -24298   -50406   -66091   -55881   -28348 
    2707    13037    -7824   -26053   -19444    -7139    -4137   -11924 
  -21627   -16626    -4244     3304    11882    13502     4316     -465 
   -6813   -25681   -50712   -70113   -60240   -22726      749     3966 
   17037    35285    33932    15043    -7889   -28701   -38623   -30990 
   -9088    14400    23727    23892    22630      979   -34823   -45210 
  -27650    -2012    26751    47048    54433    54338    34093      538 
  -15057   -20954   -42543   -58990   -36646     4323    16138    -2845 
  -22180   -31143   -33922   -34805   -27135    -7939    -6963   -33708 
  -56457   -71513   -80559   -62019   -36499   -40832   -65445   -90578 
 -105278   -97767   -64651    -7192    50754    65148    36495     7259 
   -9158   -20679   -16317       90      428   -15920   -32196   -43997 
  -46994   -50762   -64882   -62287   -25182    23081    57658    67597 
   56536    44873    40209    28159     7927     1154    18210    39340 
   41867    35031    34632    27817     7951   -11203   -29329   -42973 
  -38145   -28011   -27579   -21391    -3890     9106     7223   -13483 
  -44727   -65543   -65023   -45290   -13832    10387     7932   -10129 
  -12825    -2573   -10364   -28893   -19286    18150    51169    62791 
   53792    38685    24969    -2257   -37422   -53956   -54698   -52417 
  -37693    -5559    21527    14702   -13737   -25377   -20974   -21167 
  -24137   -22089    -9561     5850     9108    17508    41269    42383 
   11001   -15857   -32157   -48146   -43528   -11983    22258    41545 
   35581    11955    -2393    -2766    -1078    -6857   -25746   -36891 
  -23135    -2998    12699    20882     1055   -43454   -74854   -75916 
  -57556   -21925    22622    44342    29948      -81   -23132   -34532 
  -47216   -67293   -75750   -57509   -32280   -30792   -49316   -56657 
  -40988   -17395    -3477   -10696   -31459   -39354   -33508   -31141 
  -20777      -47    11573    18457    21225    13620    10869    12367 
   12830    24517    30668     7667   -19101   -15812    10173    34789 
   42633    24553    -8690   -37293   -59568   -69438   -52536   -20398 
   -5277   -18237   -32767   -35525   -47837   -67767   -70815   -54718 
  -27561     4886    30575    36207    19073    -7078   -25936   -34722 
  -37261   -33618   -19798     1762    10997   -10641   -50289   -77901 
  -83899   -76156   -60416   -43173   -24154      745    21790    30860 
   20887   -13655   -41856   -39750   -35459   -38496   -29344   -21233 
  -25165   -20437    -3892     4842    -9597   -46707   -79789   -82649 
  -61955   -39864   -27367   -15501     8404    27380    11940   -24202 
  -36350   -15051    12933    33619    45410    40978    21174     -727 
  -12732   -11936    -2453    12023    22453    14677    -4077   -16385 
  -27280   -35135   -25408   -11000    -8642   -13704   -15900     1189 
   36531    63105    70278    61681    41608    28099    21158    -1469 
  -28255   -30850   -13390     4196     3943   -19551   -42942   -49450 
  -47262   -32234    -4640    13895    20884    12881   -19226   -38186 
  -23317   -14222   -19248   -17678   -15146    -3133    30008    52689 
   45269    30826    26071    28477    28227    18354    13643    26435 
   33834    18127     4176     8639     7413   -14199   -43714   -68149 
  -74157   -56986   -27500     9011    41642    44786    15912   -25526 
  -71230  -107185  -102839   -51548    14476    59458    69737    47359 
    4618   -34225   -55103   -73363  -100022  -111955   -90208   -54301 
  -33306   -31423   -27757    -7346     9403     1454   -12651   -11740 
   -1912     2470    -5846   -12222     2552    24334    29350     9785 
  -30227   -61272   -63097   -53370   -31589     9337    30968    15569 
   -7828   -42380   -93286  -108354   -65680    -9991    33984    64549 
   68497    44667     2291   -41288   -55837   -37229    -5426    31793 
   61051    65672    56842    46815    31837    15002     1388    -1075 
   15128    27371    20755    26157    48056    45005    19815    14487 
   23563    12831   -18658   -51846   -68640   -60786   -46578   -38260 
  -19403    11910    37756    46757    30901    -3320   -30269   -40085 
  -51812   -75154   -90855   -90506   -85369   -72908   -51915   -32172 
   -8785    21749    47928    60552    48719    11253   -24275   -39398 
  -44463   -40463   -30271   -42316   -71652   -74918   -53928   -42056 
  -38012   -21643    14702    50352    48510    13750   -22794   -55633 
  -75832   -65747   -33130    -2829     5045     3620    13962    17081 
    5558    -5734   -23088   -30357    -7513    12119    12786    17928 
   22716    14686     4494    -2978    -9303   -17842   -31388   -25067 
   11854    29590     9532     7081    40622    63648    48656     9036 
  -28002   -43944   -46022   -43405   -29038    -5384    14406    17835 
   -4674   -38888   -53506   -35595    -4588     8257     2329     3256 
   17807    25874     9292   -14698   -14662     4420    19177    14119 
  -12953   -40264   -62477   -84530   -70922   -19725    12963    20532 
   24573     9129   -22733   -44872   -61054   -80668   -92713   -79530 
  -37168     4519    15034     2115   -14628   -24588   -23208   -14433 
   -7229    -5176      354     9154    10506    14353    24543    21111 
   10357    12708    17925    17124    13263    -7951   -38682   -40173 
  -15325    -1657   -12344   -33696   -41056   -25730    -7360     3103 
   17552    37148    44112    39257    39904    36732    17030       10 
     743    11712    26919    36900    26682    10196    10638    14765 
   10569     9201     7950    -2983   -18700   -22500    -4475    15257 
   17581    17480    21835    12997    -1349     8987    35592    38245 
   13982    -4739   -10140   -14579   -12191    -1679    -2354   -10491 
   -8864    -9740   -20276   -26612   -26799   -19073    -3674    -1754 
  -19181   -29086   -17540    -9246   -25875   -47025   -46247   -28843 
   -9524     2945     3376    -5948   -22979   -40925   -45919   -42877 
  -49941   -70387   -88261   -80462   -53079   -41998   -54081   -68038 
  -76027   -75045   -60605   -36762    -9257    14189    23798    23061 
   18684     3426   -12980    -8118      148    -8106   -11813    -7261 
   -9980   -10053      275    14685    21248    -1775   -39468   -47350 
  -29151   -11874     3194    12606    14016    18243    21422    11363 
   -5316   -14391   -16188   -14961   -11380   -14019   -19691   -14960 
   -9293    -8194      208     8981     9523    10320    14426    19852 
   18435     1046   -14276    -6542     7840      481   -26569   -43013 
  -29230    -5071    -4371   -26321   -45037   -49771   -40624   -21497 
   -3738    17539    54667    85377    81232    57019    33713    10970 
   -4194   -15291   -32818   -32283   -10788    -8328   -17224    -3337 
   21183    41234    56757    55338    39442    25039    13226    -1473 
  -22315   -34461   -16611    16616    37731    39235    26223    14948 
   13711    20464    36704    42614    21645     3493     5425    -3038 
  -36520   -69719   -75632   -52095   -29406   -35676   -51535   -45215 
  -20634     2237    15742    25023    25619    11709    11714    36700 
   44520    23217    -1695   -32144   -66467   -80694   -78967   -82273 
  -86561   -73965   -37563     7182    35863    48918    59916    55371 
   19006   -25397   -48081   -53089   -53570   -50476   -39485   -23977 
  -24361   -50014   -82824  -112221  -135215  -131913   -92897   -42475 
   -9400    -5366   -32071   -68702   -76513   -59429   -57353   -66276 
  -59615   -44634   -28283    -7429     6600     6548    -2797   -11862 
   -9289      276    -3167   -24493   -43273   -47778   -46005   -31523 
   -1351    15257     3989   -16823   -34739   -44974   -41167   -31047 
  -27187   -22630   -10673     1748    18691    33933    22609     4678 
   16319    34104    31892    23784    19422    19416    10218   -28526 
  -70598   -83178   -85441   -85050   -60559   -28276   -13256    -2107 
    6711    -3261   -15073    -3719    22701    42201    37788     7437 
  -26862   -48859   -64949   -60811   -14182    34308    31027    -3408 
  -24288   -22471   -13448   -24047   -53785   -63696   -43020   -16364 
   14343    53753    81593    84241    64976    34006    14125    18490 
   33613    38528    31500    33018    42798    36296    16344     2567 
   -3407    -4670     2797    18450    30888    37751    50131    63731 
   61762    42864    24229    19690    15845    -5867   -30788   -40943 
  -47638   -53995   -46297   -32675   -28903   -27632   -17017    -1254 
    4238   -11643   -40122   -58835   -59226   -57688   -67227   -76682 
  -70907   -45253   -10049    13015    17161     9125    -1270      147 
    2208   -14646   -30088   -26535   -11062    18648    44661    41653 
   26777    10699   -17616   -49238   -69956   -68532   -43577   -20398 
  -14333   -15068   -13831    -8797   -12770   -36121   -52013   -39462 
  -16774     3308    21537    34493    43141    48380    47270    33782 
    6173   -17876   -26057   -27962   -26279   -13810     5115    17401 
   18811    10722    -6519   -22133   -28679   -32854   -32330   -20836 
   -2906    12376    13711     1982    -5987    -2352     -785   -16737 
  -33612   -31507   -30188   -38413   -44096   -54646   -58335   -36026 
   -8703     5241     3811   -16077   -45838   -73528   -83831   -64698 
  -32891   -14306   -22335   -51869   -71424   -63438   -49124   -41384 
  -26309     7016    47362    66259    53504    30110    14657     6181 
   -9958   -35610   -40925   -10236    26513    38556    31251    19135 
   -3924   -30066   -25119     6391    19583     1843   -22659   -39344 
  -47926   -43071   -23011    -3824    -1744   -13553   -20468    -8181 
   13617    26786    26052     8232   -22193   -42619   -39650   -25173 
  -19354   -24270   -20459    -5101     3624      754   -13296   -33681 
  -37404   -21593    -9087     -149    10656    10295     6432     8565 
   -8831   -48603   -78480   -88781   -85956   -78441   -75970   -61821 
  -26183     1382     9228     5671   -20967   -62324   -86398   -95263 
 -104940  -101107   -73589   -46509   -39430   -46043   -57573   -66330 
  -65517   -58835   -46772   -28150   -20877   -33131   -35377    -9506 
   18483    22935     6264   -18934   -38395   -40529   -34486   -39830 
  -48123   -37172   -12577     8963    17874     5573   -14023   -16777 
  -11596    -9779     1116     8677    -9032   -27619   -24088   -12592 
    1025    16731    25035    27172    28534    33465    38647    24019 
   -9179   -36931   -58386   -75748   -73026   -59767   -61067   -66443 
  -59759   -48758   -37602   -33923   -46479   -55606   -53214   -64295 
  -86075   -92857   -91987   -95881   -90856   -79326   -82447   -92801 
  -87061   -64810   -42728   -35710   -42538   -49385   -59782   -84724 
 -104185   -97606   -78687   -56345   -33595   -35777   -66394   -91625 
  -96046   -96037  -102661  -100277   -69455   -20861    14678    22361 
   11694    -6719   -28209   -40085   -33272   -17901   -13123   -33703 
  -68817   -81562   -57580   -22148     2968    17356    21687    17124 
   13368    14746    14026     6814    -5669   -23545   -44709   -63189 
  -68574   -48967   -15728     2869     8400    17490    18661     2620 
  -13841   -16548     1501    31192    36000     8601   -12711   -18287 
  -33291   -53143   -49335   -26312   -12512   -10385    -6431     3451 
   19756    32210    28476    15643     5659     2402     4252     3094 
   -4448    -7412    -5558   -23116   -51494   -42295    -4388    14348 
   21778    30546    20643     4948     5202     3263    -8029    -6809 
    8778    21070    25010    24136    18938     9573    -1222    -6697 
   -7590   -16721   -32193   -35649   -17298    20592    53809    56155 
   44273    34170    11038   -12466    -9959    10740    35192    57973 
   75970    91684   103907   116082   130334   127231   108205    98892 
   88512    62067    39998    29022    20025    14258     7878     4413 
   12529    18833    17874    18789    11438   -13357   -44388   -61455 
  -45586    -8831    10556    -1123   -26187   -47155   -61367   -64914 
  -44629    -3956    38139    64187    52373     4993   -40036   -67084 
  -86768   -92977   -82427   -69750   -62258   -59584   -61119   -69241 
  -88867  -109967  -112495   -88448   -54568   -42675   -53796   -61904 
  -63597   -60767   -44820   -27626   -24534   -27445   -24905   -13403 
    7861    30451    38226    28475    12591    -3631   -11181     2634 
   27197    43619    46926    34991    19630    19674    26959    32844 
   46497    57814    48970    23480   -10343   -43482   -66066   -77937 
  -71152   -35407     2320     6371    -8757   -13951   -12541    -4550 
   13785    16550    -5331   -29060   -50581   -63226   -48146   -22111 
   -8372      795    15567    36175    55438    65552    66125    51602 
   19654   -19897   -61584   -93069   -98330   -91023   -80198   -44709 
    3091    24084    19083     7913     4217    13333    13179     -352 
    6859    30559    31243     5111   -26071   -46682   -50811   -54053 
  -68642   -73490   -58032   -37760   -16212       13    -2707   -16196 
  -30073   -39935   -36342   -27350   -29476   -30099    -9099    15740 
   14786    -4105   -20513   -32650   -38395   -38209   -40967   -37293 
  -15564    -1336   -18875   -45663   -53990   -40400   -15468    -3408 
   -6455    -3631    -1632    -8696   -13250   -20138   -28852   -19403 
    2548    12144     4618   -13756   -37330   -48011   -28892     6033 
   24876    17746    -2651   -26897   -50791   -70532   -83325   -84585 
  -72205   -49389   -19294    13456    38442    46681    34402     4286 
  -22964   -28078   -25063   -31181   -35088   -27712   -19738   -15330 
   -7873     -751     1503    11907    31075    26588   -12217   -52056 
  -68525   -56795   -24481    -3637    -8394   -17162   -21519   -28185 
  -41498   -65383   -82587   -69828   -38290    -9614     9989    11253 
   -6881   -16212    -4230    -4308   -28728   -45220   -46395   -44390 
  -29206   -11684   -23537   -49136   -50092   -28266    -6137     2441 
   -7277   -23363   -34195   -46695   -57623   -54888   -47233   -38983 
  -20984     1940    15725     1937   -43567   -85286   -90956   -71281 
  -53574   -45747   -36797   -30016   -33851   -27137     1964    27164 
   35293    38998    40797    38917    38053    34253    30292    44497 
   64451    57702    36650    28794    36364    55750    59356    25732 
   -5314    -9187   -14130   -26500   -31259   -28529   -20462    -9462 
   -2076    -2979   -15540   -28916   -25631   -16728   -15897    -5497 
   16974    28632    28516    28078    29815    23701   -11512   -60944 
  -87038   -95444   -95308   -71574   -31578     2718    17968    17654 
   27604    52156    60978    51907    55801    65192    42357    -2096 
  -32224   -51497   -69528   -75287   -66043   -54320   -54241   -61330 
  -59010   -49191   -40232   -26507    -4377    19236    31608    20955 
   -1965   -12809   -11478   -10599   -11062   -12154   -13037    -8265 
    5495    25040    42326    43674    20486      534    14691    32810 
   24687    16074    16077    10820    12391    19372    18536    23487 
   32197    30316    24941     1799   -45732   -69484   -57528   -46463 
  -33100   -15158   -20052   -32933   -22902    -1693    10356     4778 
   -9975    -2833    28343    49125    46503    31412    13752     2143 
   -1431    -3962    -9057   -19745   -36789   -40159   -23204   -13715 
  -17118   -18477   -17418    -8787     5422     8051      737    -2829 
    2927    17048    30897    37020    35503    26208    13558     7377 
    2485   -15567   -39358   -51555   -51527   -42587   -26328    -4825 
   21263    33640    19848     4777    -2027   -19540   -38868   -38686 
  -24616    -7727    14069    35295    30584    -7873   -45353   -54226 
  -44002   -27689   -19697   -41195   -74153   -81839   -78405   -75372 
  -45880   -11956   -16924   -38112   -43552   -38913   -31909   -23458 
  -15558   -14865   -23730   -27340   -18540   -12218   -20459   -34196 
  -35678   -34898   -53904   -73523   -66579   -45209   -23516     6118 
   47074    81413    87625    74531    59832    40511    28587    38855 
   49788    55233    69996    76122    66054    57808    42055    22932 
   28071    39705    34438    24958    12956     -872    -2000     5346 
   11242    17409    25727    38264    49607    48758    41082    35032 
   26469    16443     4708   -13761   -27697   -29711   -31186   -39426 
  -55220   -70643   -70538   -56140   -39608   -28330   -26102   -24555 
  -15708   -15621   -37528   -63633   -72360   -67263   -59209   -46288 
  -29580   -19153   -20839   -32032   -41464   -43085   -43198   -45081 
  -47952   -47998   -42267   -40201   -41598   -35202   -30358   -36114 
  -42557   -43233   -35837   -23341   -15133   -13763   -19354   -21405 
   -6935     4379    -3133    -4067    17646    42212    51646    52407 
   47396    16756   -33947   -60438   -47943   -17121    20218    51077 
   65882    79341    94219    90713    68041    43805    28091    19387 
    7163   -14305   -31641   -30010   -20002   -20708   -26685   -25359 
  -20817   -19156   -21306   -21725   -11193     2065     5032     2661 
   -2657   -17266   -31982   -30470   -23646   -34135   -50956   -54607 
  -58831   -72493   -74809   -58468   -35513    -9750    13586    24701 
   16265   -19215   -65652   -88344   -77250   -45913   -12836     3300 
   -9611   -46269   -71142   -56428   -25021    -2504    14999    25419 
   19812     1202   -17192   -27506   -40223   -59744   -74201   -77972 
  -66218   -34957    -1424     7838    -8755   -24882   -25115   -17315 
   -9077    -8357   -17873   -22239   -14199    -2293     8536    15097 
