Origin Time       2011/03/11 14:46:00
Lat.              38.103
Long.             142.860
Depth. (km)       24
Mag.              9.0
Station Code      YMT008
Station Lat.      38.3854
Station Long.     139.9924
Station Height(m) 452
Record Time       2011/03/11 14:47:02
Sampling Freq(Hz) 100Hz
Duration Time(s)  300
Dir.              E-W
Scale Factor      3920(gal)/6182761
Max. Acc. (gal)   81.588
Last Correction   2011/03/11 14:46:47
Memo.             
[...]
   -1344      -52      916     1847     1258     -535    -1244    -1196 
   -2848    -6753   -11694   -16283   -19104   -19232   -16604   -12078 
   -7603    -5246    -5702    -8331   -12377   -17157   -21139   -22059 
  -18678   -12383    -5832      115     5849    10140    11153     9351 
    6952     5578     5444     5900     6156     5629     4654     4554 
    5219     4672     2555      490     -942    -2296    -3546    -4136 
   -4114    -4181    -4087    -2466      545     2772     2724      390 
   -3977    -9551   -14298   -16414   -16418   -16102   -15287   -12659 
   -9316    -7394    -6524    -5064    -2997    -1455     -831     -476 
     162      654      461     -176    -1729    -5753   -12278   -19615 
  -26782   -33411   -38396   -40294   -38285   -32489   -23843   -14132 
   -5699       82     3554     5547     6506     6752     6907     7664 
    8567     8180     6365     4612     3749     3456     3777     4904 
    6115     6723     7037     7336     6948     5097     2064    -1037 
   -3177    -3900    -3458    -2180       31     2808     5088     6066 
    5481     3583      484    -4465   -10674   -15711   -18444   -19307 
  -18393   -16561   -15085   -13628   -12246   -12880   -15824   -18190 
  -17628   -14653   -10999    -7780    -5137    -2725     -374     1725 
    3172     3519     2376     -127    -3064    -5668    -7837    -9154 
   -9217    -8917    -9439   -10626   -11556   -11761   -11151    -9712 
   -7844    -6394    -6008    -6609    -7553    -8436    -9672   -11814 
  -14512   -16646   -17152   -15467   -12033    -8753    -7530    -8092 
   -8785    -9067    -9800   -11472   -13250   -14048   -13423   -11281 
   -7959    -4430    -1392     1741     5627     9029    10255     9462 
    7319     4039      686    -1604    -2691    -2459     -742     2401 
    6764    11281    14416    15207    13467    10210     6394     1472 
   -4091    -8035    -9624    -9909    -9306    -7140    -3743    -1449 
   -1354    -2318    -4114    -7382   -11782   -16141   -19146   -20402 
  -20540   -19857   -18644   -18024   -18340   -18446   -17609   -16149 
  -14583   -13454   -13190   -13658   -13957   -13139   -11323    -8949 
   -5924    -2908    -1214     -903    -1063     -998     -192     1435 
    3464     5610     7243     7255     5689     3785     2678     3330 
    5361     5810     2479    -2847    -7816   -13317   -20920   -29937 
  -38742   -45994   -50242   -50110   -45539   -38538   -31400   -24799 
  -19006   -14929   -12508   -10407    -8504    -7968    -8457    -8380 
   -7447    -6228    -4583    -2480     -633      498      660     -850 
   -3954    -6787    -7809    -7792    -8246    -8880    -7518    -2283 
    6526    16559    24750    29220    30439    30000    28736    26105 
   21648    16916    13508    11260    10078    10042    10901    12499 
   14144    15320    16119    15927    13891    10130     4728    -2456 
  -10069   -16645   -22151   -25794   -26262   -23601   -18358   -11746 
   -5927    -2372    -1348    -2099    -3206    -3918    -4627    -6159 
   -8712   -11298   -13211   -15038   -17190   -19966   -24116   -28808 
  -32002   -33197   -32993   -31750   -29652   -26351   -21683   -16969 
  -13920   -13078   -13478   -13001   -10090    -5189     -266     2715 
    3140     1334    -2373    -7053   -11288   -14437   -16385   -17056 
  -17307   -18386   -19792   -19743   -17758   -15041   -12507    -9576 
   -5402     -345     4758     9516    13485    16058    16928    16177 
   14566    13742    15123    18061    20074    19985    19195    18678 
   17355    14177     9133     2096    -6954   -16295   -23521   -28542 
  -32997   -37230   -40276   -41731   -42055   -41717   -40232   -36412 
  -30608   -24752   -19323   -13494    -7912    -4012    -1661      601 
    3469     5827     6398     5572     4734     5064     6716     8330 
    8773     8743     9097     9738    10588    10938     9073     4720 
    -189    -4273    -8097   -12548   -17873   -23916   -29919   -35089 
  -39147   -41922   -43735   -45130   -45726   -45153   -43931   -42480 
  -41158   -40672   -40757   -40124   -38158   -34460   -28888   -23137 
  -18861   -15572   -12190    -8415    -4421      -50     5397    12234 
   19834    27324    34266    40255    44264    45088    42523    37951 
   33378    29456    25137    19997    15531    13274    12942    13012 
   12558    11882    11234    10244     8718     6974     6293     8478 
   13199    18065    22426    27412    32037    33389    30669    25698 
   19836    13071     5362    -3214   -12504   -21246   -27835   -32358 
  -35731   -37860   -38646   -38716   -37989   -35631   -31735   -27477 
  -23589   -20068   -17061   -14599   -12284   -10222    -9056    -8851 
   -8967    -9006    -9512   -10427    -9437    -6849    -7368   -10869 
  -13481   -16359   -20847   -25165   -28061   -29414   -30869   -33000 
  -33234   -30610   -27660   -26315   -25334   -22416   -17264   -11512 
   -6166     -667     5480    11931    18148    23600    27585    29470 
   29105    26967    23898    20498    16770    12666     8442     4335 
     625    -2424    -4889    -6622    -7056    -5968    -3681     -947 
    1442     3333     4956     6082     5985     3938     -437    -6603 
  -12924   -17997   -21434   -23127   -23211   -22427   -21438   -20100 
  -17934   -15364   -13574   -12885   -12356   -10860    -8071    -4870 
   -2569    -1479    -1168    -1945    -4158    -6258    -6517    -6067 
   -7040    -9305   -11630   -13923   -16507   -18767   -19816   -19693 
  -18766   -16714   -13250    -8980    -4940    -1961     -299      847 
    2832     5786     8165     8528     6787     3913     1090    -1318 
   -3674    -5594    -5959    -4798    -3458    -2729    -2590    -3483 
   -6175   -10626   -15726   -20463   -24952   -28926   -30525   -28442 
  -23473   -17402   -11989    -8337    -6360    -5530    -5739    -6615 
   -6668    -4363      461     7073    14268    19897    21887    19967 
   15579    10917     7577     4966     1641    -1987    -4454    -4990 
   -3291       83     2982     3415     1883      361     -380     -655 
    -311      923     2838     5122     6893     6775     4886     2881 
    1647      712     -746    -2876    -4967    -6766    -8972   -12318 
  -17314   -23602   -29371   -33222   -35468   -36587   -36617   -36198 
  -36104   -36067   -35276   -33931   -33085   -32216   -29883   -26686 
  -23693   -20759   -17894   -14578   -10081    -5682    -3423    -4021 
   -7178   -11557   -14723   -14963   -12479    -8166    -2349     4823 
   12700    20781    28842    35673    39239    38674    35158    30737 
   26795    23640    21115    19255    18225    17782    17230    16109 
   14635    13084    11123     8503     5875     3829     2086      352 
   -1461    -3962    -7736   -12061   -15418   -17208   -17727   -17071 
  -15933   -16006   -17608   -19189   -20320   -22117   -24438   -25541 
  -24485   -22099   -19749   -17900   -16132   -14384   -13605   -14791 
  -17469   -19826   -20751   -20817   -20886   -20834   -20147   -19247 
  -19726   -22857   -27558   -31226   -33049   -34381   -36077   -37507 
  -37883   -37377   -36694   -36086   -35086   -32999   -29936   -26941 
  -24496   -21847   -18156   -13741   -10073    -8037    -6834    -5729 
   -5295    -6013    -7194    -7746    -7479    -7215    -7478    -8031 
   -8744    -9781   -11313   -13588   -16498   -19405   -22040   -24430 
  -25944   -25966   -25011   -24042   -23380   -22629   -21062   -18305 
  -14660   -10364    -5211      727     6513    10717    12801    13597 
   13725    12821    10316     5770     -350    -6041    -9648   -11716 
  -14145   -17954   -21833   -24116   -25752   -28783   -33214   -37160 
  -38684   -37484   -34895   -31678   -27177   -21023   -14089    -7055 
     697     9278    16837    21711    24332    25846    26409    25473 
   22848    19003    14629    10076     5165     -269    -5704   -10235 
  -13789   -17306   -20505   -20832   -16400    -8356      823     9891 
   19365    29781    39640    46716    51069    54058    55407    53938 
   49594    43405    36790    30639    24893    19527    14827    10724 
    7003     3052    -2416    -9335   -15647   -20322   -24401   -28653 
  -32430   -34334   -33457   -30487   -27062   -24215   -21752   -18823 
  -15294   -12090    -9850    -8217    -6627    -4979    -3302    -1453 
     423     1742     2022     1019    -1424    -4679    -7073    -7478 
   -6535    -5481    -4465    -2425     1615     6966    11443    13687 
   14003    12415     8486     3738      989      484     -202    -2345 
   -5056    -7565   -10359   -14401   -19927   -26036   -31589   -36003 
  -38900   -39911   -39462   -38556   -37191   -34835   -32216   -30212 
  -27929   -24027   -18632   -12585    -6393     -735     3464     5639 
    5575     3740     1349    -1043    -3896    -7387   -10976   -13689 
  -14671   -14432   -14692   -16517   -19694   -23121   -24973   -24105 
  -21142   -16997   -12021    -7587    -6102    -8174   -11657   -14335 
  -15905   -16861   -16944   -15615   -13314   -10955    -8535    -5640 
   -2779    -1110     -861     -729      116      415    -1060    -3657 
   -6493    -9634   -12899   -15340   -16286   -15872   -14458   -12461 
  -10558    -9029    -7607    -6620    -7083    -9431   -13268   -17818 
  -21838   -24482   -26767   -30510   -35743   -40833   -44872   -48011 
  -50099   -51121   -51891   -52653   -52206   -49429   -44825   -39691 
  -34679   -29907   -25267   -20531   -16085   -12624    -9891    -6932 
   -3443     -135     2271     4110     6030     7463     7120     4265 
   -1445   -10093   -20833   -31858   -41112   -47172   -50096   -51284 
  -52035   -52409   -51796   -49981   -46806   -41869   -35616   -29133 
  -22478   -15033    -6853     1582     9916    17917    25444    32023 
   36827    39480    40050    38444    34957    30903    27693    25819 
   25070    25077    25770    27341    29565    31921    34098    35666 
   35946    34363    30470    24184    16046     6721    -3238   -13048 
  -21388   -26516   -27816   -26838   -25458   -24075   -22451   -21071 
  -21095   -23322   -27205   -31132   -33958   -35390   -35053   -32626 
  -28228   -21861   -13019    -1359    12002    24998    36763    47271 
   55343    59426    59581    57020    52721    47073    39801    30820 
   21372    12841     5207    -2087    -9543   -18363   -29249   -40399 
  -49281   -55588   -60049   -61919   -59937   -54382   -46799   -38719 
  -30839   -22949   -15001    -7313      526     9054    17509    24682 
   30542    35632    39749    42288    43084    42602    41652    40617 
   38907    35408    29684    22862    16842    12556     9249     5525 
    1024    -3853    -9295   -15558   -22230   -29083   -36381   -43757 
  -49874   -53535   -53815   -49491   -40553   -29393   -18519    -8292 
    1906    11506    18807    22562    23143    22485    22681    24529 
   27564    30945    33855    35385    34528    30566    23251    12679 
    -368   -14177   -27224   -39442   -51321   -62581   -72880   -82236 
  -90074   -95380   -97747   -97551   -95341   -91162   -84684   -76136 
  -66232   -55108   -42959   -31219   -21124   -12412    -4850      894 
    4665     7285     9411    11182    12134    10523     4442    -5518 
  -16307   -25533   -32724   -37308   -37907   -34234   -27626   -19420 
  -10264     -987     7083    12990    16797    18760    18581    16520 
   13811    11127     8442     6044     4196     3077     3223     4798 
    7370    10874    15728    21763    27551    31306    32171    30033 
   24910    17447     9196     1935    -2817    -4463    -4051    -3557 
   -4636    -8374   -15418   -25650   -37991   -51213   -64559   -77028 
  -86869   -92465   -93701   -91767   -87352   -80115   -69861   -57246 
  -43433   -29363   -15632    -2901     8316    17902    25496    30149 
   31010    27980    21975    14537     7110     1149    -2126    -2887 
   -2147      126     4959    12565    21549    29851    35999    39797 
   42148    43645    43520    40627    34598    26165    17095     8950 
    2638     -657     -463     1845     4333     5853     6431     6876 
    7368     6756     3442    -3280   -12345   -21459   -28707   -33228 
  -34597   -32764   -28239   -21159   -11790    -2424     4033     6978 
    7663     7183     6131     5464     6315     8636    11065    11953 
    9921     4306    -4342   -14639   -25044   -33957   -40285   -43949 
  -45106   -44042   -41629   -38429   -34019   -27617   -19074    -9157 
    1198    11171    19802    26481    31173    33544    32751    28556 
   21726    13061     3053    -7028   -14851   -19190   -21593   -24530 
  -28646   -32761   -35790   -37821   -39581   -41191   -41724   -39966 
  -35022   -26556   -15650    -4727     4395    11283    15641    17036 
   15864    13328    10709     9123     9511    12183    16321    20636 
   24401    27181    28429    28232    27550    27074    26546    25551 
   24014    21596    17676    12271     6218      368    -4818    -9272 
  -13621   -18487   -23304   -27341   -31035   -34852   -37796   -38012 
  -34948   -29880   -23442   -15732    -8467    -1773     5598    12091 
   17186    22147    26812    31265    35377    38593    41085    42547 
   42050    39097    34354    29288    24893    21108    17404    13559 
    9873     6809     4434     3102     3628     5556     7094     6688 
    3935      134    -2732    -3820    -3526    -2358     -498     1389 
    2789     4915     8768    12756    14228    11648     4703    -6736 
  -23126   -44123   -67385   -89516  -108225  -122770  -132366  -135473 
 -131256  -121093  -108126   -94843   -81293   -66589   -51245   -36615 
  -23362   -11374      268    12762    26168    39264    50144    57160 
   60266    60935    61378    63627    67460    70866    73483    76252 
   78260    77245    72192    63531    51334    35138    15994    -3763 
  -22815   -40143   -53809   -63100   -69246   -73595   -77489   -82186 
  -87956   -94203   -99188  -100664   -97914   -91653   -82732   -71829 
  -59244   -45055   -29949   -15097    -1047    12272    24685    35816 
   45199    51855    54549    52431    45496    35289    24531    15078 
    6687    -2019   -11885   -22251   -31295   -37569   -40883   -42015 
  -42831   -45655   -50991   -57026   -61752   -64429   -65157   -63892 
  -60278   -53948   -44719   -33369   -21735   -11612    -4821    -3395 
   -7752   -15740   -24650   -33173   -41335   -49301   -56309   -61322 
  -63821   -63156   -58436   -49250   -36324   -21822    -8287     2345 
    8274     8676     5675     2598      348    -1170       -1     5810 
   15720    27776    39893    50110    56850    59762    59998    58706 
   56477    53963    51032    46635    40421    32945    24526    15199 
    5560    -3031    -9394   -13262   -14798   -14325   -12598   -10773 
  -10106   -11138   -13374   -16290   -20045   -24593   -28790   -31632 
  -33215   -34049   -35267   -38074   -41473   -43079   -42336   -40596 
  -39037   -38062   -37376   -35558   -30842   -23073   -13813    -4533 
    4220    12561    20867    28974    35917    40983    44504    47289 
   49699    51550    52738    53494    53716    52598    49676    45799 
   42233    39318    36923    35212    33907    32214    30388    29748 
   30474    30709    28279    22761    15775     9091     2799    -3949 
  -11373   -19192   -26906   -33262   -37125   -39022   -40298   -41530 
  -42582   -42970   -42261   -41063   -40807   -41899   -42973   -41993 
  -37410   -29135   -18709    -7615     3770    15150    25465    33189 
   37043    36728    32947    26661    18548     8981    -1722   -12994 
  -23859   -32976   -39354   -43130   -45003   -45557   -45480   -45312 
  -44918   -43619   -40958   -37634   -35150   -34213   -34485   -35658 
  -37520   -39657   -41967   -44697   -47728   -50168   -50885   -49519 
  -46720   -43537   -40692   -38339   -36337   -34619   -33261   -32131 
  -30662   -28288   -25047   -21375   -17775   -15060   -14043   -15218 
  -19025   -25237   -32536   -39367   -44505   -47413   -48388   -47960 
  -46777   -45735   -45144   -44464   -43420   -42355   -41235   -39349 
  -36417   -33147   -29838   -25493   -19575   -12875    -5715     2524 
   11579    19429    23879    24784    23593    21246    18393    16200 
   15017    14169    13561    13389    13410    13488    13482    13576 
   14615    16630    18777    20648    21608    20554    17053    11311 
    4415    -1510    -5352    -7479    -8040    -6961    -4610    -1955 
    -487    -1122    -3347    -6029    -8573   -11052   -13716   -16325 
  -17866   -17276   -14078    -8594    -2310     2963     6558     9150 
   12229    16903    22925    29750    37426    45594    52892    57636 
   58554    55326    48695    39837    29808    19503     9744     1462 
   -4312    -7162    -7415    -5052      160     7399    15106    22135 
   27884    32101    34943    36808    37915    38070    37023    34887 
   31600    26385    18594     8441    -3732   -17769   -32480   -45494 
  -55209   -61192   -62798   -59749   -53344   -45492   -37404   -29693 
  -22623   -15684    -7918      984    10663    20478    29420    36509 
   41234    43363    42519    38528    32195    24484    15544     5610 
   -4356   -13457   -21806   -30270   -38956   -46494   -51253   -52556 
  -50740   -46697   -41361   -35904   -31932   -29944   -28528   -26513 
  -24332   -22484   -20368   -17120   -12498    -6880    -1226     3136 
    5237     5114     3821     2520     1642     1020      174    -1548 
   -4733    -9405   -14567   -18858   -21614   -22764   -22359   -20633 
  -17664   -12844    -5824     2522    10979    18443    23439    24968 
   23346    19614    15124    11556    10433    12313    16197    19938 
   21468    19838    15294     8324     -775   -11475   -23218   -35504 
  -47057   -56136   -61968   -64921   -65876   -65836   -65474   -65180 
  -65275   -65675   -65886   -65678   -65389   -64980   -63547   -60674 
  -57085   -53727   -51313   -50054   -49690   -49978   -50023   -48484 
  -44995   -39609   -32248   -23279   -13329    -3144     6563    15535 
   23642    30179    34146    35620    35934    36227    37043    38751 
   41018    42739    43179    42309    40164    36679    32170    27714 
   24371    22006    19839    17691    15933    14690    13677    12937 
   13173    14678    16622    18218    20228    24290    30708    37863 
   43851    48083    50928    52119    50610    45997    39171    31863 
   25556    20253    14879     9004     3024    -3116    -9957   -17209 
  -23906   -29753   -34593   -37504   -37926   -36435   -33947   -30970 
  -27592   -23954   -20578   -18039   -16366   -14981   -13212   -10571 
   -6797    -2368     1439     3802     5218     6539     7599     7306 
    5001     1089    -3743    -8926   -13804   -17961   -21299   -23705 
  -25037   -25117   -24187   -23456   -24098   -26189   -29279   -33184 
  -38052   -43793   -49712   -55178   -59971   -63878   -66523   -67163 
  -64928   -59913   -53313   -46182   -38900   -31761   -25390   -20295 
  -16349   -13626   -12802   -13694   -15213   -16737   -18057   -19307 
  -21034   -22821   -22992   -20528   -16186   -11462    -7197    -3737 
   -1600    -1091    -1769    -2587    -2583    -1819    -1340    -1818 
   -2521    -1755     1848     8521    17650    28315    39398    49644 
   57903    63467    66117    65848    63087    58798    53570    47276 
