Origin Time       2011/03/11 14:46:00
Lat.              38.103
Long.             142.860
Depth. (km)       24
Mag.              9.0
Station Code      YMT009
Station Lat.      38.3902
Station Long.     140.2742
Station Height(m) 104
Record Time       2011/03/11 14:47:04
Sampling Freq(Hz) 100Hz
Duration Time(s)  300
Dir.              U-D
Scale Factor      3920(gal)/6182761
Max. Acc. (gal)   51.632
Last Correction   2011/03/11 14:46:49
Memo.             
[...]
  -37132   -29621   -26300   -33319   -45562   -53550   -55236   -51698 
  -40096   -23033   -12705   -15815   -24065   -22839    -7455     9013 
   12449     8284     9242    15315    19647    17747    11169     9243 
   14377    16989    16010    18581    22660    23815    22078    16822 
   11400    10756    12843    13756    11833     7125     4471     8901 
   15534    14274     5797      885     2950     5407     2414    -6721 
  -13325    -8334       35     3843    14344    36146    52898    52456 
   40356    28830    25402    25968    21434    15289    18457    27770 
   29058    16496    -2050   -12560    -7995     4099    11267     7263 
   -4915   -13774   -12103    -5622       63     4199     1433   -10079 
  -21156   -26809   -29789   -28364   -19946    -8723     1462    10727 
   15863    13731     9658     7590     4210     -167    -3094    -5647 
   -4072     7315    20855    21907     9941    -2770    -9441   -12585 
  -16031   -20562   -21906   -14651    -3093      216    -6241    -8277 
     218     6785     3161     -430     6118    14407    11029     -660 
   -9085   -13203   -16832   -17978   -13710    -7326    -7941   -21309 
  -38041   -42573   -37356   -38116   -47501   -54961   -54608   -48793 
  -42190   -37182   -32060   -25673   -20065   -15941   -13629   -15439 
  -20250   -24034   -28101   -38147   -53527   -64599   -63543   -52869 
  -41230   -32817   -25385   -19678   -20892   -26403   -23961    -9424 
    6278    12562     9318     3339      244    -2679   -10791   -21607 
  -27783   -24061   -13105    -9545   -22043   -36796   -40531   -38192 
  -35594   -32919   -32300   -33444   -31988   -25350   -12581     5207 
   19774    22362    17374    15620    17513    16054    10084     6333 
   10949    21453    29048    29601    27117    24508    19855    12544 
    3509    -6264   -12213   -10180    -2707     4613     5526    -3812 
  -13934   -10614     -680    -3645   -19207   -30953   -33989   -36938 
  -43560   -45318   -35106   -21962   -20216   -28724   -34547   -31623 
  -26512   -27230   -28622   -18473     1317    16831    21731    21727 
   23450    25463    25029    25399    27128    27065    27386    28449 
   24868    18583    15683    15034    13179     8090     1103    -1806 
    -728    -2400    -6685    -7964    -5672    -4443    -8236   -15522 
  -20030   -17090    -9258    -5989   -11607   -15458    -7404     3558 
    3137    -5680    -9514    -4029     4083     6727     1937    -3824 
   -2554     5217    11952    12350     6546     -369    -2099     -363 
   -1793    -4455    -2782    -1133    -6500   -16527   -25905   -31779 
  -31741   -29289   -30842   -35086   -37839   -39193   -40815   -42548 
  -42192   -40001   -39512   -40678   -39242   -31404   -18011    -9959 
  -16963   -28243   -27698   -20027   -16523   -13264    -3738     7361 
   15513    23913    34617    45129    51129    47932    37383    28820 
   27283    28185    25018    18734    15849    16729    16324    15749 
   18120    19457    16650    13384    11982    10038     4286    -8402 
  -26767   -42116   -48630   -48713   -44859   -40467   -42236   -49681 
  -54641   -53774   -49972   -45729   -40614   -31147   -16376    -3425 
     668    -2712    -8172   -11943   -13069   -11883    -9421    -8718 
  -11028   -11794    -7252    -2830    -5664   -12828   -16375   -11679 
     612    12691    15727    10352     3944      579      343     1127 
   -1177    -5056    -3450     4027    10750    11672     5897    -1804 
   -4141    -2526    -6677   -17980   -24109   -19274   -17247   -26788 
  -35418   -37138   -40694   -43603   -38313   -31029   -28131   -27815 
  -29401   -31398   -30811   -30421   -32948   -33454   -27784   -20515 
  -17050   -12858    -1358    10098     5824   -16606   -39015   -42344 
  -31255   -24837   -25469   -20548    -9236    -1717     -571    -1698 
   -4442   -10927   -20486   -26854   -22355    -9281     -146     -514 
   -4056    -7698   -15580   -27730   -38497   -43495   -40190   -30444 
  -25127   -31141   -38631   -39991   -44037   -51654   -48551   -35199 
  -28474   -32991   -39423   -42015   -40786   -39542   -44033   -50124 
  -46268   -34299   -29059   -36474   -46464   -47812   -40544   -29809 
  -19118   -12411   -10090    -8665    -9388   -14126   -16734   -13009 
   -9823   -12051   -14134   -12551   -11951   -15856   -22056   -26609 
  -26194   -21038   -18356   -25098   -38468   -50515   -56423   -55737 
  -52052   -48279   -43376   -40121   -42679   -45919   -44427   -40934 
  -36726   -31452   -29250   -30428   -29642   -25587   -18985   -12283 
  -13281   -21631   -26174   -24415   -22627   -20591   -13840    -3673 
    2826     1086    -2604     2184    13481    19599    16715    11975 
   10215     5453    -9410   -29572   -42718   -43374   -38028   -35523 
  -34025   -23976    -6181     5609     4013    -3419    -7398    -8831 
  -13029   -20243   -27727   -31266   -26836   -20066   -21255   -28459 
  -32070   -31453   -34566   -44374   -51562   -45683   -31504   -23637 
  -26974   -33629   -34993   -28523   -16853    -5396     -179    -2176 
   -4061     -404     3921     5020     9237    18029    20722    14106 
    7160     3318    -3116   -12470   -15498   -10266    -7766   -13651 
  -22647   -30634   -37469   -41226   -37625   -27285   -21026   -28109 
  -39113   -38297   -29983   -28774   -34974   -40250   -41687   -40965 
  -39851   -36548   -28618   -22914   -29411   -43570   -52230   -53271 
  -54820   -59852   -62978   -62455   -64399   -71828   -78440   -76904 
  -68659   -62098   -62526   -65029   -58521   -40277   -22498   -16339 
  -16852   -13329    -3245     7794    10225     1439    -8433   -13430 
  -18521   -23400   -23467   -20683   -15999    -8115    -2855    -5513 
  -11827   -16724   -20259   -24983   -33805   -43823   -46816   -40594 
  -30925   -23852   -20949   -20227   -21044   -24975   -30596   -33590 
  -33772   -36000   -42018   -45600   -41442   -34572   -31563   -30155 
  -25536   -17935   -10191    -3943    -1502    -5882   -13164   -14005 
   -6386     3278     7536     2612    -6768   -10992    -6116     3002 
    7086     1740    -5618    -4868     1903     4139    -1292    -7698 
   -9018    -5847    -4983   -13062   -24641   -26502   -18075   -10358 
   -8766   -12027   -14212    -5210    13248    25651    28201    28677 
   24553    12910     3969     6515    19179    33980    39963    31798 
   14695     -125    -3943      950     5138     6528     9051    10138 
    5796      735      596     4130     8008    10000     9462     8179 
    7827     8833    10755    12810    15175    17097    16425    11056 
    -294   -13867   -22245   -22119   -16345   -11929   -13231   -14804 
  -10054    -4447    -6947   -14198   -17273   -14995   -10111    -2954 
    6094    16545    28582    38204    41264    41846    42725    38611 
   29683    26418    35371    49320    56215    53704    48395    45459 
   45077    44601    40861    33378    25404    21147    23320    29679 
   32085    25878    15662     6132    -3006   -10899   -15551   -17927 
  -19037   -18708   -18240   -17464   -12230     -678    10985    14401 
    8903     1703    -1065    -2788    -8810   -11639    -2883     8086 
    8986     2555     -945     5611    19035    26875    26204    26972 
   30880    31367    31333    37260    42919    37310    23716    14673 
   12164     8892     1655    -6829   -10858    -8556    -7374   -11752 
  -15107   -13967   -11923    -8569    -1773     6569    14465    20708 
   22304    17489    10448     6537     4906     2656      701      720 
     410    -3851    -8891    -6051     5570    16369    20294    20307 
   20314    21188    20351    13731     2075    -8226   -11915    -9732 
   -5456    -5051   -17247   -37790   -46552   -38095   -26693   -18898 
  -13975   -15107   -19855   -22405   -24309   -28219   -33702   -39771 
  -42087   -36988   -30059   -29628   -34974   -37677   -30812   -16469 
   -2869     6974    15103    20162    18954    12772     7000     3754 
    -872    -9738   -20761   -27809   -23794   -10500      499     2306 
   -1977    -7257   -10300   -10721   -11886   -14786   -15338   -13029 
  -11453    -9082    -4422    -3675   -10294   -20879   -32500   -39714 
  -36832   -29227   -25907   -25844   -23826   -19765   -17304   -18664 
  -17905    -5990    10453    13375       94   -14354   -18466   -14859 
  -13963   -21076   -32692   -42636   -47348   -49356   -50209   -46492 
  -41310   -40591   -41383   -39955   -37727   -35178   -31777   -29585 
  -30935   -34171   -36977   -42285   -51257   -56983   -56861   -56593 
  -56025   -50839   -44885   -44896   -49770   -50506   -40409   -26933 
  -22751   -25406   -22340   -10526      312     -932   -11951   -17445 
  -11980    -9411   -21409   -39983   -49419   -48096   -47570   -52504 
  -54974   -49808   -42723   -40888   -46421   -57177   -63993   -57934 
  -46380   -43553   -50511   -62007   -74224   -78902   -70913   -56749 
  -45045   -39177   -39536   -44020   -49087   -52061   -48875   -36413 
  -20623   -11894   -11958   -16240   -23218   -31371   -39598   -51886 
  -64892   -65480   -53760   -45901   -50129   -57782   -57305   -46542 
  -32128   -24696   -29598   -37778   -39124   -38872   -43215   -46135 
  -42221   -34428   -28687   -27728   -27877   -27273   -30445   -37236 
  -40804   -36080   -22905    -9293    -6335   -13321   -20878   -24191 
  -23105   -20443   -19286   -18213   -17366   -19557   -21160   -18083 
  -16275   -21686   -30215   -34390   -28703   -13444     1203     6933 
    6747     3763    -4298   -15591   -21554   -17787   -10827   -10586 
  -19276   -25887   -17570    -1556     4750     1963      -13     1242 
    8350    19987    24384    17244     9235     9994    17745    25043 
   30119    36132    40585    38588    32025    23967    12585    -3057 
  -15879   -15455    -3573     5864     7415     9245    16940    25938 
   28434    22279    16771    24243    41780    54610    57978    58148 
   55099    44368    31390    27356    34987    44217    41667    26729 
   12746     9754    15108    20828    21841    18964    16526    15454 
   13960    13641    16058    19104    22737    28610    33269    32997 
   30723    29818    28770    25586    23439    26503    29566    24959 
   17426    16721    23524    30814    32185    30207    34293    44186 
   48803    45976    45243    50175    53605    50896    46860    46156 
   45984    42779    36602    30178    29034    32353    30091    19999 
   10416     4865      779    -2833    -5524    -8205   -13740   -24359 
  -38018   -48900   -50983   -43179   -30841   -19483    -9330     3563 
   18596    25788    21040    16648    22101    30357    35484    42876 
   53403    59347    57050    48788    38814    30997    25591    22602 
   23466    26708    30441    33639    32591    25060    14250     4784 
     211     3051    10944    15153     9429     -750    -4238      354 
    4094     2105    -2045    -3772    -2067     1765     6842    10853 
    8343    -1050    -7703    -4733     2241     5509     6136     6993 
    4592    -1379    -2301     5033    12292    12991     9940     7988 
    7158     3957    -4565   -17193   -27574   -31988   -35667   -43398 
  -51372   -53110   -44406   -26543   -11162   -10897   -21724   -26320 
  -17004    -4973    -3964   -14043   -23371   -20274    -6927     1523 
   -2181   -10223   -15213   -17447   -20321   -24049   -23149   -15474 
   -7145    -2860     -795      567    -1725    -9883   -20640   -27168 
  -24310   -13638    -3400    -1534    -7346   -11829   -10349    -9831 
  -16675   -25614   -27424   -22063   -17681   -18061   -19612   -20148 
  -21656   -26923   -36620   -46381   -49303   -42856   -31882   -25354 
  -28976   -38802   -43073   -34561   -20286   -13603   -17529   -22724 
  -22111   -18641   -17984   -20447   -20531   -13081     -844     6948 
    6744     4681     4601     2478    -4616   -13890   -21593   -27717 
  -36130   -47165   -53778   -53171   -52367   -55274   -57190   -53579 
  -44188   -31849   -20268   -10822    -5772    -9487   -19128   -24988 
  -24760   -27045   -37017   -46563   -46257   -38687   -32011   -31102 
  -36081   -39957   -35959   -30442   -32804   -38191   -37690   -32393 
  -26370   -22097   -22363   -25047   -26537   -29556   -32510   -25864 
  -11997    -4814    -5053    -1598     6840     9879     1155   -10901 
  -13043    -6632    -4587   -12375   -23226   -27100   -20895   -14299 
  -19637   -33253   -40451   -36970   -30206   -26703   -28306   -31777 
  -31212   -26467   -24694   -30583   -39741   -44577   -43367   -39608 
  -35915   -33191   -31778   -30867   -29147   -24895   -18642   -17010 
  -24505   -35554   -42254   -41426   -35599   -29974   -23841   -13622 
   -1432     8150    10937     5395    -3118    -7585    -5325     3006 
   12848    17351    14987    11449    11163    10343     4972      513 
    1053      371    -4412    -8008    -8126    -5385    -1194     -744 
   -3539     -874     6451     6507    -4629   -16323   -15144      106 
   17282    25489    23554    16156     7700    -1083    -9598   -15563 
  -19936   -24359   -25996   -23463   -19197   -11725      281     8122 
    6168     3494     5253     6723    10298    18116    21860    20850 
   22726    24280    20406    16616    15394    13315    13399    20140 
   27992    27662    19885    14544    17518    27052    40438    53109 
   59199    60752    61526    56974    46844    40431    41101    44904 
   50224    54953    55596    51970    43639    32668    28375    31289 
   29004    21256    22675    37629    55874    68328    72613    70342 
   65305    59528    51977    42354    32028    20927     7522    -6330 
  -14560   -15221   -15411   -19088   -16435      283    19627    26099 
   22817    23209    28017    28157    23416    19852    17479    14526 
   12943    14158    15815    13113     6544     2491     -444    -8531 
  -16620   -16505   -12476   -12647   -17046   -21169   -21618   -17409 
  -10973    -6446    -3769     2232    11926    17590    15168     9187 
    5295     6083    12959    25939    39299    45599    45938    43971 
   35311    18276     3855      961     5007     8973    12459    17005 
   22248    27054    30647    34224    39984    48271    57751    63261 
   57728    42996    28555    20586    20429    24664    25972    20471 
    8915    -5401   -15331   -17184   -16982   -20378   -25668   -29647 
  -30395   -26243   -18741   -14495   -17101   -19761   -16559   -12077 
   -9563    -5562      159     4245     4907     1316    -3311    -2143 
    3830     5210     -956    -7927   -12710   -19850   -28959   -31937 
  -26475   -20610   -21406   -25810   -24196   -13762    -5877   -12365 
  -27524   -35380   -31552   -25800   -25377   -26349   -23757   -20765 
  -20344   -18556   -12764    -7170    -7024   -11897   -16865   -19739 
  -22497   -24607   -22980   -18244   -12248    -4933      261    -1041 
   -5489    -8423   -10360    -8660     -908     5248     3481    -2124 
   -6810   -10386   -13978   -19423   -27762   -37101   -45400   -51219 
  -52781   -52563   -55175   -58580   -58220   -55216   -53242   -54190 
  -56640   -56019   -50314   -42256   -35387   -32558   -34800   -40453 
  -47241   -52162   -52099   -48158   -43976   -40156   -35198   -28770 
  -21521   -14960   -11662   -10489    -6326     -973    -1522    -6126 
   -8669    -9725    -9809    -7120    -4579    -4477    -3815    -1628 
    -586    -2840    -7634    -9174    -5121    -4633   -11222   -13128 
   -7421    -6915   -15553   -25225   -31873   -35953   -39743   -46915 
  -53486   -50855   -41962   -38018   -42429   -49982   -54298   -51647 
  -43740   -35681   -30040   -25126   -18418   -10537    -5368    -6463 
  -11715   -14189   -12164   -12194   -20066   -34059   -45873   -47898 
  -41616   -35865   -36549   -41774   -47765   -54017   -59668   -61871 
  -59862   -56319   -54425   -52145   -43359   -29673   -19673   -15001 
  -12774   -14735   -20177   -23378   -24173   -25828   -26102   -23051 
  -20072   -17968   -13808    -9428    -8688    -9496    -7420     -873 
    9205    18961    23750    22260    16593    12298    14516    18759 
   15791     5607    -4247    -7841    -4454       21    -1251    -7708 
  -12559   -11025    -8327   -12645   -18484   -14132    -1689     7118 
    6087    -2107    -8275    -5012     1707      947    -4247    -3250 
    2782     4093     -856    -4977    -4523    -2354    -4011   -11277 
  -16634   -13735    -9540   -11079   -13167   -11099    -6870     2069 
   19907    37487    40951    32815    24425    16060     3481    -7249 
   -7290     1322     8593     9725     9594    11560    12157    11081 
   12817    18533    25590    31700    34210    27795    11634    -3080 
   -6033    -1817     1621     5523    12575    19988    22839    17555 
    6620     -752      496     7823    18626    27810    29173    27083 
   28962    31711    30655    29584    33240    39226    42833    43299 
   41758    41184    46291    53623    53343    47657    46759    48720 
   45049    35650    27884    28158    32232    30703    26056    26375 
   28934    26265    19100    15715    21591    31736    37015    36353 
   34122    29444    20384    11945     8320     6888     5063     2737 
     280    -1052    -2937    -9447   -18874   -25568   -26782   -21706 
  -12645    -7513   -11958   -21567   -26783   -23230   -16705   -16018 
  -19666   -18182   -11531   -10448   -16187   -16856    -9782    -4507 
   -2181     2780     7372     7428     8031    12812    15663    10314 
     587    -1928     6987    16295    15829     8742     2095    -1235 
   -2807    -8228   -18342   -23890   -19830   -13603   -10588    -4644 
    9469    24908    32235    30337    22831    15324    13499    14223 
    9075    -1796   -11939   -18451   -22410   -26070   -29761   -31062 
  -28416   -21793   -13981   -12983   -21647   -29090   -26605   -22011 
  -24840   -30402   -30936   -29159   -31210   -36811   -40298   -37866 
  -33220   -30978   -28920   -26306   -28168   -34015   -37044   -35846 
  -34958   -36916   -40697   -43915   -44770   -44683   -45373   -43563 
  -36701   -29841   -28006   -28170   -25391   -19842   -13863    -8703 
   -5447    -5318    -8834   -12962   -12772   -10399   -11549   -13348 
  -12017   -12774   -16747   -15688    -9311    -8465   -16435   -22749 
  -19347   -11257    -5924    -3268     -895      181    -2250    -7267 
  -13581   -23647   -36144   -43258   -43246   -43252   -47479   -53106 
  -54914   -48979   -37225   -26857   -22238   -21896   -21606   -18896 
  -17347   -20987   -25074   -22114   -13927    -9300   -11622   -14089 
  -10174    -6148   -13345   -29255   -39909   -38894   -32413   -29150 
  -30159   -28998   -24725   -24575   -28539   -30457   -32754   -39159 
  -44120   -44162   -43917   -46169   -49191   -50528   -47752   -42239 
  -40057   -43810   -49612   -54323   -58757   -61528   -58323   -50416 
  -43609   -39332   -37181   -39605   -46341   -52757   -55528   -54190 
  -49962   -44942   -39888   -33995   -28881   -28664   -32520   -33252 
  -26684   -17461   -13407   -16268   -20602   -21829   -20472   -19148 
  -21941   -31068   -39551   -39146   -34044   -34389   -42350   -49909 
  -48028   -38212   -27552   -17669   -10374    -9095   -12323   -19649 
  -30463   -36650   -34644   -30004   -24368   -17244   -12326    -9731 
   -4897     3187    10204    10893     7349     8610    16156    21687 
