Origin Time       2011/03/11 14:46:00
Lat.              38.103
Long.             142.860
Depth. (km)       24
Mag.              9.0
Station Code      YMT017
Station Lat.      38.7897
Station Long.     140.3121
Station Height(m) 127
Record Time       2011/03/11 14:47:03
Sampling Freq(Hz) 100Hz
Duration Time(s)  300
Dir.              U-D
Scale Factor      3920(gal)/6182761
Max. Acc. (gal)   47.334
Last Correction   2011/03/11 14:46:48
Memo.             
[...]
   17571    16195    14945    13974    13747    13868    14021    14211 
   13826    12887    12448    12389    11677     9954     7673     5961 
    5305     4982     4705     5135     6349     7520     8261     8663 
    9209    10870    13296    14699    14572    13572    11766     9885 
    9576    11394    14463    17405    19469    20120    18353    14715 
   11100     7837     4706     2938     3177     4013     4391     4717 
    5184     6004     7269     7510     5927     3794     2408     2550 
    3547     2948      392    -1286     -439     1333     1876     1065 
      -4    -1563    -4146    -5408    -3048      926     4082     7185 
   10595    12886    13795    13768    12354    10065     8875     9362 
   10316    10727     9441     6011     2548      845      322      131 
    -238     -930    -1299    -1144     -692      227     1161     1676 
    2173     1870     -674    -4810    -8203    -9437    -8766    -6646 
   -4355    -4301    -6326    -7529    -6877    -5880    -5477    -5528 
   -5846    -5477    -3589    -1644    -1763    -4036    -6902    -8590 
   -8396    -7383    -7301    -8946   -11420   -12627   -11299    -8126 
   -4447    -1579     -810    -1665    -1946     -987      118     1066 
    1654      938     -546    -1344    -1456    -1282    -1138    -2039 
   -4250    -6975    -9701   -11679   -11651    -9727    -7831    -7450 
   -8395    -9867   -11839   -14709   -17646   -18866   -17660   -14947 
  -11885    -9016    -6812    -5206    -3803    -3554    -5331    -7693 
   -8411    -6374    -1890     3273     6811     7869     7978     9061 
   10783    11861    13134    15847    17787    16421    14142    13628 
   13294    12617    13284    14250    13908    13568    13975    14198 
   14848    16636    17697    16938    16911    19727    23748    26594 
   27124    24602    20453    18022    17870    17788    17566    18867 
   21257    22164    20088    16211    13265    12850    13849    14335 
   14052    13301    11590     9088     7005     6222     6979     9096 
   11572    12264    10522     9390    10557    11654    12187    14005 
   16070    15809    13316    11263    11074    10738     9162     8815 
   10247     9774     6098     2675     1285      728      732      713 
   -1501    -6140   -10348   -11881   -11094    -9738    -9399    -9841 
  -10015   -10733   -13207   -16342   -18048   -17523   -15690   -14084 
  -12816   -10674    -7660    -5297    -4247    -4109    -4917    -6844 
   -9233   -10552    -9892    -8523    -8632   -10531   -12025   -11470 
  -10115    -9350    -8731    -8643    -9929   -10394    -7528    -3352 
   -1747    -3258    -5654    -7426    -7915    -6329    -3772    -3153 
   -5058    -7375    -8737    -9094    -8496    -7994    -9886   -14290 
  -18196   -19373   -18167   -16228   -14494   -12023    -8567    -6249 
   -5896    -5124    -2015     1784     2601     -260    -2806    -1921 
    1249     5013     9197    12628    13104    10690     7387     4472 
    2884     2667     1404    -2305    -6002    -7178    -6403    -5612 
   -6338    -9483   -14202   -17292   -16056   -11754    -8195    -6574 
   -5199    -4173    -4333    -4240    -3297    -2835    -3150    -3494 
   -3208    -1454     1612     4063     5628     8382    11994    14322 
   15034    14220    11936     9865     9877    11753    14015    15465 
   14799    11537     7770     5886     5969     7488    10283    12597 
   11983     9463     8745    10038     9927     7508     4949     3384 
    1948      -73    -1699    -2205    -3301    -6401    -9921   -11986 
  -12609   -11565    -8434    -5431    -5351    -6776    -6286    -4275 
   -2618      286     5199     8171     6788     4347     3836     3663 
    2444     1341      899     2090     6619    12417    15203    14006 
   10814     8184     7349     6562     4067     1089    -1089    -2963 
   -4013    -2787       21     2486     4254     6107     8037     9466 
    9955     8298     3701    -1409    -3221    -1362     1604     4728 
    8352    10949    10712     8683     6978     5168     1754    -2358 
   -4821    -4720    -3377    -2388     -774     3043     6525     6026 
    2879      838      607      -45    -2416    -4908    -5799    -5753 
   -6421    -7759    -8153    -8146   -10208   -13567   -15418   -16062 
  -16568   -15136   -10979    -7163    -5787    -5401    -4518    -2604 
     596     3671     4418     2893     1401     1965     5665    12307 
   19004    21959    20325    16273    12130     9271     8925    11676 
   14980    14673    11353     9760    10682    10467     8288     6739 
    6106     4797     3350     3548     6294    10436    13244    13633 
   12720    11350     9385     7982     9208    11297    11398    10673 
   11038    13243    16369    16874    12607     5518     -670    -4200 
   -5706    -5145    -2688     -818    -1260    -2690    -2657      135 
    5380    10609    11517     7515     3420     1515      328     1211 
    5104     7681     5953     2659      882      359      305     1182 
    2647     3969     5729     7632     7708     5936     4747     5012 
    5767     7193     9345    10802    11047    10670     9881     8625 
    7596     7637     6962     3658      806     2147     5514     6286 
    4203     2025      709      838     3455     6563     6774     4202 
    1376     -737    -1368     1765     6926     7321     1299    -4448 
   -5426    -4682    -5050    -4608    -2977    -3151    -4891    -5132 
   -5330    -9926   -16811   -18681   -14525    -9670    -7081    -7124 
   -9495   -10852    -8093    -3417       83     2733     4392     3193 
    -431    -4047    -6919    -9564   -11483   -12627   -14323   -16182 
  -15427   -10781    -5114    -2015     -677      503     -823    -4708 
   -6346    -4834    -4267    -5124    -4389    -2896    -4156    -8420 
  -12979   -15424   -15618   -15750   -16878   -16936   -14650   -12166 
  -11037    -9576    -6950    -5578    -7008   -10017   -13581   -17439 
  -20947   -22409   -18959   -10969    -3951    -1060      428     2313 
    2899     2273     2445     3315     4407     6501     8145     6053 
     119    -6149    -9529    -9460    -6885    -1994     3431     4437 
    -834    -8607   -14793   -17340   -15552   -11020    -7039    -4543 
   -2187    -1342    -3243    -3961    -1092      929    -1658    -5569 
   -5611     -874     6665    14418    19651    21347    20212    16056 
    8980     4024     7713    17330    23670    25353    26836    26738 
   22499    16923    12132     8145     5993     4216    -1210    -9348 
  -13858   -12051    -6929     -736     4546     3912    -4453   -13586 
  -14424    -6639     2762    11082    19249    23169    20370    16287 
   13924    11038     8973     9993    10778     8194     3807     -899 
   -6006    -9717    -9550    -7517    -7945    -9361    -8391    -7705 
   -8795    -8301    -6677    -6395    -4683      493     3935     1056 
   -5196   -10736   -15863   -19876   -17943   -10142    -4515    -5923 
  -12917   -22332   -28603   -27567   -21090   -12687    -4608     1017 
    2169      873     4007    11300    14495    13020    13312    17656 
   21822    19652    12291     6880     3918    -1519    -7575    -7332 
   -2504    -3114   -10429   -14719   -11828    -7615    -6250    -5206 
   -2697      220     4032     6917     4363      146     3923    14749 
   23958    30278    34556    31667    21067    10671     3804    -1832 
   -4353    -3398    -3942    -6705    -7953    -5217      382     4765 
    5312     2474       -6     1302     4000     7006    15488    27813 
   30731    18718     5417     4815    13950    23631    30465    32516 
   29581    26821    26657    24549    18374    12276     8045     2991 
   -1349    -1452     -885    -3073    -5158    -4727     -102    11045 
   26637    36903    33551    24468    21290    18975    10278      483 
   -4439    -4677    -1848     5106    19016    35488    42459    35284 
   20298     4079    -7283    -9260    -7215    -9175   -13554   -12329 
   -1463    13241    23661    28374    29130    28256    30209    37773 
   45616    43689    29934    12132     -370    -3062      316     2689 
     221    -7311   -17959   -29186   -37660   -41294   -41512   -39434 
  -34482   -26724   -19619   -19107   -23456   -23076   -15461    -7157 
   -1988     1309     2515     -339    -5845    -7660     1039    18677 
   34572    40406    35494    22680     7017    -4810    -8897    -7321 
   -5402    -6503    -9858   -11250    -5384     8955    24325    31054 
   28745    22586    14310     4391    -3699    -5696    -3604    -2428 
    1488    12346    20560    15432     3139    -4957   -10179   -18180 
  -26353   -29186   -26141   -20268   -13846    -7233     -810     4761 
    9780    12553     8383    -2565   -11396   -10344    -2613     2778 
    1695    -4216    -8833    -4787     4990    10076     8318     4573 
     906    -2886    -6585   -11681   -19445   -25462   -24427   -18173 
  -10872     -589    15288    29388    31449    23048    14295    11950 
   16806    26062    32905    29200    16217     3647    -4353    -8691 
   -9164    -8393   -11646   -19692   -26346   -27169   -26908   -27838 
  -22815   -10933      -59     6321     9720    12538    12573     3373 
   -9594   -12875    -8896    -8147    -7028      331     6861     7489 
    7297     6856    -2721   -24418   -46694   -58960   -60831   -52598 
  -37275   -25908   -25769   -30490   -28428   -16296      472    13272 
   15955    10963     3155    -4233    -4496     5460    18055    24110 
   23355    20240    16175    13788    15354    16390    13967    11066 
    8561     4569      805      505     2185     4891    11562    20936 
   26854    22740     6626   -12185   -21928   -21147   -15165   -10241 
  -10192   -13492   -15982   -14006    -7896     -913     5475     7892 
    4856     2024      467    -3595    -8172   -10460   -12049   -13594 
  -13329   -11156    -8684    -6781    -5956    -5111    -2984    -2508 
   -5764    -9653   -10959   -10362   -10087    -8057     -281    10772 
   16595    13621    11084    17357    24671    22165    13108     7711 
    7180     7478    10757    16540    19136    19280    17986    14748 
   14851    20355    28325    35196    33486    22233    14772    19562 
   27950    32703    36452    36714    30236    22692    16752    12385 
   15488    25891    31080    23005     9798     3260      923    -6003 
  -15141   -21686   -26103   -25453   -20382   -16152    -7020    10288 
   20559    15710     9081    10596    17269    26449    33301    28080 
   13536     3908      960    -3771   -10134   -12592   -11693   -11325 
  -10169    -5590     -345     3693     6155     4808     4024     9514 
   15869    18847    21816    21483    11034    -4715   -15270   -19893 
  -24724   -29629   -28336   -20005   -10701    -3184     1304      278 
   -1220      -45    -3033   -11907   -20778   -26486   -29387   -25260 
   -9792     6821    11678     5479    -2587    -3507     1562     5083 
    5213     1909    -4686   -10987   -14875   -17193   -15858    -9374 
   -7455   -17793   -29327   -30228   -21762    -8872      453    -2932 
  -15276   -21594   -16270    -8282    -4790    -5222    -9640   -18973 
  -28137   -27942   -17326    -7774    -8241   -11627    -8395    -4881 
  -10036   -17248   -17552   -13374    -8212    -2003     4460    12267 
   20733    25092    24550    21057    16261    13441    11583     6762 
    2624     5780    16516    29589    38549    39761    31809    17505 
    7327     6504     7311     5956     6837     7701     3672      542 
    5995    14508    14646     5208    -6860   -15605   -15803    -6029 
    7119    17251    23869    25373    16054    -2415   -16100   -18382 
  -18501   -20292   -17523   -11518   -10503   -15931   -19250   -13843 
   -6528    -7010   -13696   -18838   -19589   -18459   -16207   -11880 
   -7700    -8061   -16513   -29964   -36335   -29728   -20641   -18962 
  -20287   -17625   -10810     -969     9559    16019    18129    18106 
   16541    15292    14638    14060    13463     6311   -11377   -26916 
  -26627   -17804   -14056   -14009   -14660   -19125   -22971   -17558 
   -1604    15046    18091     6929    -4701    -7312    -2323     5380 
   12226    15460    15057    13896    12995    11390     9073     4753 
   -3335   -10088    -8515    -2047     2358     4461     4424     -751 
  -10121   -14256    -7209     -130    -3170    -6610     -676     8688 
   15495    23349    34097    39895    35392    28953    26610    22134 
   15054    10418     4871    -2739    -6260    -4937    -3626    -3392 
     654    10230    16767    13462     7883     7815     6423     -926 
   -3886     4440    16319    21808    18113     7955    -2219    -5658 
   -1383     6493    11567     9237     3346     -416     -828     2620 
    6205     4602     1978     6291    12051     6710    -3966    -5345 
     267     5022     9271    11877    10818    10822    14217    16382 
   17236    19688    22224    24604    26211    21680    11279     4149 
    5555    10755    12351     9651     9077    12303    12320     9380 
   13204    23503    30106    29039    22669    14282     8559     9689 
   15496    16485     7659    -3765    -8281    -4975     1636    10922 
   21156    24170    18073     8521    -1657   -11184   -18351   -20353 
  -14263    -4373      -98    -4192   -11382   -16565   -17146   -11106 
     905    12751    16666    11733     4968     2375     2884     3054 
    2618     1860    -1021    -5562   -10030   -17868   -27884   -30804 
  -30102   -38621   -55323   -69576   -74105   -65897   -49213   -35929 
  -33523   -36404   -35134   -26660   -11835     6765    21456    22797 
   13236     6527     6924     4919    -3672    -9908    -7261    -1238 
    1541      336    -2239    -2775    -2735    -6434   -11164   -13715 
  -19962   -32123   -40441   -37417   -28192   -21465   -17468   -11531 
   -2907     3216      523    -6862    -8426    -4682    -2344    -1642 
     -95     2848     6335     9434    12768    16391    19654    23546 
   25952    20727     9046      713     -165     1647     2650     2413 
   -1226    -7316    -8569    -2503     6724    15161    16307     7058 
   -3562    -5071     1969     8971    12395    13565     7835    -4547 
  -11697    -8925    -4377    -4815    -4516     3810    12007    10787 
    5651     5968    13797    21712    23335    24550    27016    19266 
    2144    -6199     1687    14361    20569    21007    20434    17199 
    8934     3081     5210     6318     1752     2683    13681    22981 
   21478    12894     4386     -943    -3484    -4364    -4842    -9343 
  -18826   -24054   -19943   -13951   -12004   -11892   -13229   -18431 
  -23026   -22138   -19891   -18878   -15396    -9071    -4052    -2903 
   -5869   -10852   -11760    -6455    -2237    -3649    -4863      -54 
    6507     8174     6580     2955    -4619   -11221   -13811   -16531 
  -18614   -19295   -23021   -25507   -18634   -10065   -12459   -19326 
  -16143    -6201     -248     4124    10070    11553     7227     2718 
    1990     3758     2011    -4540   -10415   -12618    -9644     -463 
   10185    15590    14645    11903    11414    13344    16844    20023 
   18272     9109    -2369    -7989    -4961     5824    21002    29277 
   22641    12299    11600    15426    17057    19162    19184    13393 
    8271    10188    14212    12902    11345    18356    26917    22776 
    8065    -2203    -3442    -1025     4838    14300    20433    20230 
   22216    31446    39667    39612    34691    31869    31892    29515 
   24598    23395    27231    31273    31393    26087    18979    17443 
   23231    30985    35516    35619    32920    29231    26232    25723 
   25742    22190    17781    17429    17908    15736    15251    19016 
   21357    19630    17861    13266     1779    -7869    -7950    -4489 
   -4434    -5713    -5749    -7228   -10724   -11287    -7746    -7551 
  -14091   -21259   -26111   -30026   -29946   -21361    -6721     4399 
    5271    -1262    -7344    -8868    -8908    -9459    -7205    -2059 
     763    -1656    -6575   -12809   -22188   -28289   -22445   -10741 
   -6463   -11352   -16255   -16116   -13763   -11346    -9421    -9676 
  -11240   -13962   -22362   -33942   -38172   -33719   -26671   -16342 
   -3099     1489    -9339   -26163   -36673   -35775   -27748   -20200 
  -12309    -3888    -1608    -3312    -1639     1915     4856     9667 
   15434    15927    10613     7990    11043    13724    15995    23224 
   30836    32006    33745    40488    40878    28962    13100     3960 
    6926    14970    17188    15348    15227    15701    14521    11190 
    6389     3672     6380    12570    16352    16058    17045    20244 
   20254    17840    17560    16534     8885      987     4056     9947 
    4501    -5539    -7963    -6544    -9606   -11890    -4858     1921 
   -2707    -9776    -9911    -7093    -7119   -10121   -11699   -12212 
  -16190   -20270   -20297   -20921   -22982   -18901    -9153    -4763 
   -9111   -14340   -17829   -25253   -34830   -36216   -26591   -13865 
   -5527    -2435    -3365    -8367   -15041   -17914   -13527    -6557 
   -6115   -12084   -15640   -14243   -14069   -15371   -11446    -6982 
  -12425   -22849   -27211   -27305   -30095   -30935   -23918   -18699 
  -23860   -30819   -30555   -28386   -30491   -30970   -24788   -15718 
   -6191     4095    13554    19316    19754    16809    13016     8558 
    4170     2005     3791     8527    11336     9468     5764     1379 
   -3927    -6808    -8152   -10874   -10123    -4213      431     1755 
    1578    -2658   -11375   -16370   -13283    -6398     2564    12020 
   15616    12375     8933     9737    14665    19731    18003     9227 
    1797    -1292    -4885    -7017     -874    10778    20332    24053 
   21309    14722     8332     6215     9730    12947    10730     7921 
   10293    14741    16137    13092     5301    -2926    -2986     5254 
   13348    17870    19616    18673    18789    22879    28649    34718 
   36792    27811    14747    10474    11087     9505    10826    16422 
   19149    15857     7589    -3013    -9168    -6390     -618      297 
    -749     2379     7152     9400    10529    11327     9198     4271 
     894     -454    -4750   -11506   -14968   -15764   -17344   -16391 
   -9769    -3923    -4249    -2550     8251    19676    23129    23059 
   24647    23927    19595    18836    23568    27410    26958    23789 
   19119    13527    10003    11589    15235    14727     9913     5616 
    3757     1776    -2489    -6862    -8898    -9373    -9190    -8767 
   -7170    -1677     6712    12937    16383    21947    28938    30613 
   25948    19282    12906     6871     1121    -3458    -5325    -5383 
   -7643   -12160   -13531   -12108   -13840   -17653   -17367   -11991 
   -6593    -5894    -8962   -11822   -12839   -12344   -10074    -5505 
    -279     3193     6607    11983    16325    17261    15134     8226 
   -3206   -12179   -14513   -13448    -9119      128     7118     4765 
    -228      495     2238     -821    -6728   -13762   -20041   -22326 
  -21232   -17589   -12369   -10957   -13770   -13896    -8584    -1872 
     201    -3543    -7969    -9498    -8997    -9175   -10617   -11524 
  -13053   -15858   -16426   -11845    -3231     2062    -2257   -13117 
  -22321   -21685   -10864     1812    12013    19100    19926    15290 
