Origin Time       2011/03/11 14:46:00
Lat.              38.103
Long.             142.860
Depth. (km)       24
Mag.              9.0
Station Code      YMT009
Station Lat.      38.3902
Station Long.     140.2742
Station Height(m) 104
Record Time       2011/03/11 14:47:04
Sampling Freq(Hz) 100Hz
Duration Time(s)  300
Dir.              N-S
Scale Factor      3920(gal)/6182761
Max. Acc. (gal)   107.547
Last Correction   2011/03/11 14:46:49
Memo.             
[...]
  -65292   -57724   -52492   -49941   -47488   -43684   -40383   -38714 
  -37309   -35712   -36682   -42867   -52325   -61159   -67833   -72075 
  -73491   -72246   -69029   -63920   -56737   -48514   -39932   -30951 
  -22875   -16376   -11626   -11380   -16828   -24368   -31297   -38168 
  -45011   -50908   -55399   -58491   -60641   -62025   -62658   -62653 
  -61645   -60066   -59208   -59002   -57984   -54831   -49190   -42323 
  -36915   -34360   -32907   -31395   -32102   -35960   -39309   -38605 
  -33798   -27036   -21774   -20024   -20237   -20657   -20767   -20267 
  -20351   -22387   -25223   -27219   -28884   -31719   -35700   -37970 
  -36266   -33672   -34447   -37690   -40916   -44510   -49076   -53937 
  -58688   -62118   -61616   -56634   -49936   -43954   -38859   -34512 
  -32094   -33108   -36911   -40830   -43345   -45192   -47368   -49301 
  -49109   -46046   -41669   -38072   -36251   -35392   -33964   -32070 
  -30584   -29114   -26855   -23304   -19232   -17692   -20184   -24368 
  -28327   -32238   -36027   -39462   -43118   -46815   -49281   -50632 
  -52134   -53498   -52625   -48304   -42469   -37726   -33998   -29785 
  -23740   -15414    -6931    -1058     2024     2872      542    -5915 
  -15327   -24003   -28896   -30812   -31822   -31777   -29500   -25174 
  -19679   -13217    -7426    -5071    -5707    -7370   -10061   -14509 
  -21577   -30425   -37569   -41712   -44880   -48103   -50702   -51895 
  -50951   -48507   -47487   -48754   -48831   -46373   -44818   -45384 
  -44759   -41335   -37152   -33955   -32252   -31911   -31603   -30368 
  -28808   -27555   -26888   -27032   -26701   -24597   -22540   -22306 
  -22807   -23651   -25712   -28348   -30658   -32959   -35524   -38584 
  -41386   -40980   -36791   -32540   -30605   -30067   -29206   -27206 
  -25728   -27040   -30268   -33377   -35994   -37480   -36646   -33687 
  -29700   -25903   -23342   -21835   -20589   -19892   -20940   -24321 
  -28693   -32478   -36178   -39450   -39999   -38475   -38076   -38731 
  -37958   -36139   -35631   -36791   -38111   -37760   -35796   -36215 
  -41763   -48238   -50260   -48277   -45560   -43267   -40623   -37269 
  -34262   -33542   -36709   -43748   -52623   -60237   -65032   -67795 
  -69038   -68744   -67350   -64597   -60457   -56060   -51495   -45259 
  -36368   -26145   -17686   -12856   -11081   -11428   -13507   -16874 
  -21351   -26647   -31571   -35139   -36797   -36014   -34175   -33922 
  -35562   -37373   -37998   -37029   -35265   -34432   -35288   -35856 
  -33354   -28856   -27747   -33878   -44609   -53593   -58008   -60471 
  -63413   -65691   -66142   -65370   -63330   -59470   -54682   -50500 
  -46826   -42023   -35929   -30635   -27135   -24696   -23551   -24542 
  -27845   -33276   -39657   -45213   -49404   -52531   -54339   -55195 
  -56509   -57595   -56282   -53275   -51212   -51349   -53306   -55762 
  -57584   -58721   -59401   -59799   -60372   -60381   -57870   -52848 
  -47547   -43494   -40197   -35824   -29816   -24297   -21122   -19451 
  -16946   -12825    -9563    -9523   -11388   -12512   -11986   -10110 
   -8100    -7644    -8693   -10164   -11958   -14172   -17601   -23637 
  -30810   -36369   -40476   -43774   -45626   -46338   -46475   -46518 
  -47213   -47250   -44200   -38182   -31757   -26806   -22794   -18665 
  -14637   -11484   -10361   -11280   -11973   -11814   -12302   -13566 
  -15861   -19580   -22955   -25129   -27437   -30287   -33102   -35656 
  -37599   -38667   -39181   -38746   -35963   -31001   -26893   -27263 
  -33185   -42482   -52088   -59507   -62527   -61467   -59475   -57196 
  -52295   -44491   -35444   -26571   -19265   -13941   -10568   -11186 
  -17726   -27867   -36732   -41558   -42406   -40334   -37656   -36684 
  -36588   -35858   -35026   -33651   -30469   -26456   -23482   -21763 
  -20300   -18934   -18259   -18261   -19034   -20557   -21540   -21034 
  -19216   -16011   -12039   -10554   -14833   -23459   -32120   -40234 
  -51101   -65310   -78944   -89025   -95795   -99028   -97024   -89246 
  -77348   -63931   -49989   -35199   -21032   -10106    -3765    -2429 
   -5990   -12480   -18184   -21478   -24719   -30390   -38107   -46100 
  -53102   -58268   -60706   -60317   -58754   -58280   -59577   -61212 
  -61227   -59268   -56608   -54395   -53145   -53150   -54721   -57426 
  -59146   -57951   -54347   -50946   -50120   -51279   -51410   -49009 
  -46256   -45758   -47098   -48366   -48240   -47166   -47197   -48211 
  -47649   -45367   -43334   -42187   -42551   -45335   -49402   -53229 
  -55847   -55736   -52841   -48827   -44741   -40829   -38130   -39197 
  -45199   -53896   -62356   -68909   -72958   -74826   -75498   -76159 
  -76917   -76476   -73826   -69228   -63483   -56726   -49003   -42112 
  -38813   -39986   -43763   -47159   -48637   -49327   -50582   -51339 
  -50444   -49032   -47952   -46266   -43267   -39958   -38384   -39119 
  -40061   -38941   -36007   -33285   -31805   -30585   -28475   -25930 
  -24231   -23839   -23984   -23648   -23369   -24486   -26551   -28239 
  -28651   -26909   -23610   -20615   -18484   -17019   -16312   -16085 
  -16261   -16472   -15853   -16039   -19736   -26332   -33239   -38232 
  -39933   -38931   -36522   -32598   -26340   -17787    -9041    -3250 
   -1612    -4000   -11371   -23931   -38904   -52886   -64517   -73564 
  -79686   -82669   -82433   -79176   -73654   -66529   -58191   -49194 
  -39906   -30811   -23522   -19441   -17599   -16427   -16000   -16589 
  -17975   -20208   -23069   -26021   -29082   -32882   -38085   -44882 
  -52163   -57796   -60578   -60432   -57886   -54302   -50400   -45746 
  -40383   -35347   -32764   -34048   -36892   -38450   -39626   -42021 
  -45340   -49216   -53621   -57932   -60676   -60501   -57810   -54279 
  -50574   -45919   -40548   -36567   -35049   -34886   -34653   -34090 
  -34852   -39117   -47153   -57385   -67089   -73504   -76005   -75490 
  -72927   -69575   -65620   -59857   -52620   -46114   -41755   -39599 
  -39539   -41283   -43131   -42768   -40113   -37539   -36956   -37716 
  -37700   -36128   -33694   -30268   -24929   -17990   -10877    -5007 
   -1553     -744    -2375    -6533   -12350   -18576   -25312   -32729 
  -39077   -41752   -39260   -31431   -19540    -5634     8831    22238 
   32098    36726    36188    30959    22009    11710     1627    -8745 
  -19682   -30099   -37838   -40967   -40564   -39171   -36233   -29399 
  -19542   -10571    -3406     4729    12970    16810    15511    11410 
    6049     1184    -2475    -6531   -11462   -16061   -19797   -22484 
  -23566   -23154   -22849   -24396   -27697   -31772   -37073   -44972 
  -55380   -65656   -72689   -76375   -78294   -77745   -74262   -70684 
  -68357   -64717   -58695   -52785   -49268   -48169   -47585   -45183 
  -40481   -34833   -29788   -26370   -25410   -27486   -31815   -36671 
  -40654   -42276   -40410   -36242   -32065   -28203   -24793   -23914 
  -25672   -27503   -29065   -31570   -34006   -34200   -31119   -25729 
  -21280   -21066   -24711   -28736   -31531   -34481   -38273   -41784 
  -43932   -44952   -45893   -47223   -49008   -51195   -53689   -57063 
  -61236   -64924   -68040   -71959   -76969   -81779   -85294   -86531 
  -84378   -79164   -72656   -66198   -59881   -54073   -49933   -47423 
  -45617   -43662   -39787   -33024   -25462   -20279   -19251   -21875 
  -25165   -26088   -24239   -20851   -17322   -14654   -12875   -12024 
  -12943   -15831   -19812   -24683   -30475   -36158   -41350   -46297 
  -50153   -52132   -52170   -50540   -48339   -46377   -44348   -42078 
  -39456   -35644   -30084   -23147   -15322    -6897     1641     9273 
   14494    15556    11445     3473    -5517   -13904   -21736   -28533 
  -32614   -33091   -31105   -28978   -28602   -30695   -34972   -40377 
  -46104   -51741   -56152   -58616   -59882   -60212   -58496   -53571 
  -45633   -36674   -28455   -20782   -13156    -6527    -2344     -846 
    -779     -711     -482     -676    -1896    -5178   -10487   -15796 
  -20274   -25559   -31688   -36094   -37804   -38058   -37610   -36159 
  -33828   -32464   -33524   -36069   -38763   -40968   -42051   -41296 
  -38742   -36503   -36343   -36585   -35997   -37446   -43050   -50057 
  -54918   -56805   -56003   -52428   -45462   -35450   -24991   -15902 
   -7382      332     4375     2633    -4355   -14192   -24627   -35991 
  -48852   -60386   -67079   -68272   -65706   -61935   -58603   -55286 
  -50971   -45986   -40922   -35713   -31468   -30573   -34284   -41669 
  -49810   -55562   -58921   -61934   -64480   -65751   -67145   -69678 
  -72706   -75495   -77042   -77139   -77679   -79972   -82469   -82648 
  -79209   -72004   -61613   -48926   -35347   -23599   -16451   -14619 
  -16494   -20229   -26297   -36241   -49527   -63411   -74892   -82691 
  -87850   -91618   -94322   -96930  -100250  -103276  -105284  -107452 
 -110849  -114134  -114374  -110516  -104269   -96842   -86952   -73029 
  -56856   -42593   -31705   -22912   -16273   -12675   -10750    -7464 
   -1371     5729    10164     9519     4052    -5566   -18977   -33070 
  -42662   -45353   -42466   -36625   -30750   -27299   -27241   -30406 
  -36035   -42917   -49937   -55799   -58129   -55053   -47295   -36604 
  -24100   -11223     -274     6193     7134     4051    -1257    -8465 
  -16960   -24284   -27785   -26773   -22934   -19472   -19013   -22002 
  -27235   -32962   -37458   -39457   -38035   -32688   -24776   -17242 
  -12123   -10651   -14990   -26717   -43643   -61014   -75595   -86080 
  -92033   -93396   -89874   -83774   -80260   -81021   -82567   -80933 
  -74757   -65398   -54915   -43907   -32627   -23552   -20392   -23709 
  -29802   -35774   -42475   -50300   -56424   -57401   -51943   -41908 
  -31048   -23311   -22217   -29191   -42324   -57248   -69696   -77840 
  -81350   -80263   -76448   -73258   -72100   -71932   -72697   -75093 
  -78155   -81126   -84582   -88447   -91654   -92770   -89986   -82222 
  -70453   -56352   -40758   -24580    -9313     3533    12430    16098 
   15169    12241     8280     2134    -5963   -13721   -18667   -21497 
  -26455   -34886   -43207   -48356   -49382   -45654   -38257   -30773 
  -25362   -20964   -16630   -12962   -10693   -10743   -14920   -24486 
  -39179   -58133   -78913   -97892  -113041  -122622  -124431  -119715 
 -112919  -106797  -102188  -100306  -100927  -100830   -96255   -85902 
  -71460   -56294   -43797   -35508   -31123   -29908   -29931   -27424 
  -19459    -7161     5050    12603    12694     5892    -4255   -14963 
  -25479   -33854   -37011   -35217   -31862   -29550   -28320   -27213 
  -28323   -34832   -45662   -58236   -70807   -79708   -81580   -76650 
  -66482   -53064   -40015   -30904   -27852   -31809   -42086   -56602 
  -72752   -87610   -98798  -104976  -104288   -94592   -76105   -51355 
  -24089      856    19587    30839    36206    39651    44412    50408 
   55037    56027    53109    45915    33026    14903    -5283   -24447 
  -41432   -56340   -69082   -79032   -86101   -91414   -96212   -99639 
  -98709   -91444   -78080   -60555   -42979   -29459   -21402   -18321 
  -18199   -17419   -13824    -9112    -7028   -10895   -20655   -30442 
  -33271   -27685   -17206    -6789     -123     2164     1267    -1120 
   -2315     1539    13304    30834    49148    65953    79655    87282 
   87374    80851    70048    56803    40961    22199     1120   -20832 
  -41312   -60218   -80430  -102057  -121400  -136952  -149710  -157861 
 -156867  -144186  -122414   -97773   -74232   -51975   -31894   -15737 
   -3410     6137    13879    19462    20393    16088     9929     5409 
    3194     1408    -1108    -3502    -6944   -14227   -24527   -33587 
  -37784   -35133   -25033   -10268     4235    15675    22831    25221 
   24990    25102    25718    23789    16235     3367   -12047   -27346 
  -40553   -50375   -56041   -57519   -56604   -56520   -59224   -63882 
  -67115   -63837   -51286   -31446    -7836    15594    34467    46261 
   49319    41207    21326    -6090   -33411   -54107   -64918   -66791 
  -65091   -64438   -64372   -62937   -60862   -60423   -62156   -63330 
  -60516   -53038   -42271   -30635   -21422   -15879   -13067   -12606 
  -14286   -17406   -20565   -21685   -20949   -20894   -22162   -23580 
  -25193   -27994   -33079   -41491   -52191   -62299   -70910   -78591 
  -84256   -87354   -88872   -87604   -80935   -67742   -47671   -22648 
    1774    21094    35095    44660    49353    48751    41746    26408 
    4580   -18403   -38833   -54513   -65216   -74179   -82777   -88976 
  -92599   -95076   -96474   -95755   -92181   -86578   -80477   -74982 
  -71872   -73515   -80879   -91881  -101750  -107144  -108323  -104741 
  -93958   -76671   -57233   -39895   -26930   -18888   -16070   -19133 
  -27350   -37462   -46243   -53575   -60822   -66964   -69072   -66159 
  -59893   -52011   -42882   -32879   -24415   -20313   -20772   -23998 
  -28326   -32822   -36569   -37850   -35409   -30847   -27420   -25984 
  -24912   -23718   -23676   -25351   -27494   -27643   -23401   -14131 
   -1759     9895    17616    20708    19324    12943     1036   -15520 
  -32976   -46923   -56054   -60742   -60309   -54874   -47185   -40456 
  -36290   -35344   -38766   -47768   -60911   -74161   -85145   -94263 
 -102230  -108959  -113195  -113822  -111253  -104564   -90117   -66329 
  -37285    -9762    11945    28088    41632    54636    67174    79144 
   90616   101182   111345   122213   131178   132331   122742   103660 
   78883    55298    38589    28298    21219    15692    11590     9544 
    9200     7579     1009   -11318   -26972   -42620   -55802   -65559 
  -71854   -75534   -79130   -84831   -91335   -95130   -94738   -91514 
  -86816   -80967   -74516   -68102   -61296   -53894   -47054   -40871 
  -34089   -27232   -23224   -25282   -33306   -41904   -45443   -43952 
  -40733   -37788   -35680   -34181   -32781   -31990   -33135   -36783 
  -42287   -49355   -59069   -71574   -84125   -93324   -98052  -100340 
 -103640  -108874  -113022  -112234  -105554   -95406   -84513   -73211 
  -60470   -46666   -35439   -33175   -43560   -62145   -80122   -91876 
  -96224   -94791   -91236   -88406   -86574   -85660   -85683   -85900 
  -86356   -88011   -91890   -97967  -103372  -105055  -103057   -99143 
  -94972   -91292   -87801   -83952   -79739   -76052   -74487   -76708 
  -83396   -93903  -106676  -119198  -129234  -136303  -139432  -135120 
 -119907   -94414   -64553   -36790   -12706     7698    21354    25654 
   22735    17638    12801     6693    -1364    -9824   -18112   -27088 
  -36480   -43836   -47240   -46544   -40703   -28088   -10408     6554 
   17253    21593    24343    27676    27799    21005     8309    -6473 
  -19555   -28913   -34468   -36447   -34348   -27852   -19011   -12287 
  -10818   -14112   -19598   -24581   -27624   -29092   -29395   -28478 
  -27841   -29636   -33994   -39408   -43916   -45819   -44941   -43711 
  -45663   -50757   -54853   -54169   -47057   -35090   -23489   -16190 
  -12649   -11690   -14390   -22452   -36113   -52221   -65211   -72511 
  -76228   -78354   -77756   -72677   -63546   -51967   -39022   -25887 
  -14061    -4691     1341     3681     2534    -1827    -8508   -15720 
  -21863   -27555   -36105   -49908   -67479   -85350  -100476  -110032 
 -111166  -102982   -89172   -76580   -70442   -72166   -79024   -85587 
  -88467   -87706   -83461   -75014   -62785   -49185   -37027   -27608 
  -20604   -15497   -12051   -10175   -11144   -17171   -28511   -42304 
  -53608   -57124   -50270   -35144   -16393     1301    14797    24266 
   31673    38311    44670    49908    52142    50846    47536    43830 
   39897    35411    31392    29103    27534    23828    14970     -859 
  -22351   -45940   -68795   -87705   -98462   -99769   -93335   -80595 
  -63310   -45235   -30477   -20451   -13673    -9600   -10282   -16033 
  -23491   -29624   -34078   -37710   -40101   -40159   -39482   -40920 
  -44852   -49795   -54488   -58095   -59228   -57013   -52414   -46860 
  -42346   -40454   -39123   -35982   -32604   -30422   -28575   -27553 
  -27937   -27748   -25845   -23113   -20030   -17065   -15537   -16779 
  -20381   -23749   -25029   -24912   -25189   -27553   -32713   -39276 
  -44968   -48513   -48911   -45878   -41036   -35237   -27740   -19400 
  -12676    -9177    -9319   -12742   -17173   -18870   -16369   -11219 
   -5048      772     5243     9288    13765    17339    18323    16156 
   10752     1986    -9387   -20711   -28854   -32800   -33699   -33131 
  -32990   -35419   -41167   -49143   -57806   -66887   -76653   -85923 
  -93938  -101831  -109493  -114554  -115278  -111655  -104078   -92646 
  -78234   -63180   -48684   -33548   -17894    -4018     6955    15099 
   20146    22178    22347    22072    21006    16996     9085    -1542 
  -13368   -24977   -34962   -42355   -45875   -44308   -38801   -32858 
  -29078   -26587   -23633   -20628   -17189   -11733    -5919    -2762 
   -2132    -2255    -2154    -2065    -3359    -6874   -12056   -18674 
  -26851   -35142   -41221   -44161   -44513   -43694   -44030   -47465 
  -54188   -62907   -70979   -75345   -74680   -69778   -63131   -58155 
  -57173   -61287   -71087   -84852   -98644  -109936  -118724  -125048 
 -126917  -121720  -110073   -95574   -81955   -72775   -69850   -71580 
  -75121   -78151   -78620   -75170   -67856   -57760   -46019   -33938 
  -23375   -15670   -10895    -8504    -7122    -4590     -310     4381 
    8563    11545    11741     8258     2412    -2869    -5076    -3777 
      87     5334    10659    15656    21120    27557    34220    38801 
   38898    34223    25924    15662     5942    -1443    -7233   -13054 
  -18941   -24463   -30205   -35965   -40127   -41510   -39441   -34081 
  -27975   -24133   -23814   -27032   -32010   -35614   -36189   -34259 
  -31271   -28896   -27952   -27391   -25876   -24004   -23367   -25000 
  -29747   -37966   -49034   -61312   -71564   -76955   -77431   -74275 
  -69106   -64366   -62700   -65730   -72310   -79162   -84497   -88917 
  -93197   -97184  -100078  -100973   -99517   -96009   -91212   -86382 
  -82793   -80910   -80386   -80883   -81973   -82282   -80455   -76419 
  -70331   -62371   -54087   -47333   -42487   -39067   -36684   -35274 
  -35141   -36183   -37607   -39460   -42093   -43799   -43082   -41187 
  -39388   -38065   -38480   -42018   -48793   -57123   -64012   -67528 
  -68170   -67159   -64764   -60965   -56283   -51149   -45438   -39190 
  -33244   -28318   -24148   -20210   -16053   -11447    -7033    -4004 
   -3656    -6673   -11726   -16278   -18935   -20022   -20260   -19616 
  -17775   -15264   -13839   -15092   -18145   -20134   -18779   -13647 
   -6495        5     4683     7222     6721     3142    -2104    -7175 
  -10034    -8872    -3359     4590    12213    18158    22584    25991 
   28833    31289    33458    35889    38782    41551    43411    42857 
   38483    30891    20998     8693    -5602   -21151   -36827   -49985 
  -58859   -64683   -69791   -75292   -80316   -83525   -85117   -85568 
  -84731   -83723   -84213   -86153   -88036   -87861   -84922   -80923 
  -77509   -75008   -74428   -77218   -82526   -87017   -88360   -87064 
  -84322   -80729   -76602   -72003   -67755   -65242   -64014   -62135 
